Response and Fourier amplitude spectra (91 periods,  .04 - 15.0 sec)   for      
Corrected accelerogram   24800-L1780-01252.11       Chan  1: 350 Deg     from   
Uncorrected Accelerogram Data             Processed: 09/10/01, CDMG  800cw011   
Record of Sun Sep  9, 2001 16:59:22 PDT               (Avol1 v4.6  7/01 CSMIP)  
CSMIP Preliminary Processing            (Origin:  To be determined)             
24800-L1780-01252.11                 Start time:  9/09/01, 23:59:22.0 UTC (GPS) 
Station No. 24800   34.273N, 118.464W      Etna  s/n 1780  (3 Channels)         
Mission Hills - Sepulveda & San Fernando                                        
Chan  1: 350 Deg                                                                
Record of Sun Sep  9, 2001 16:59:22 PDT    Sun Sep  9, 2001 16:59:22 PDT        
Hypocenter:  To be determined.               ML:  To be determined.             
Instr Period =  .0103 sec,  Damping =  .660,  Sensitivity =  .63  v/g           
                        Record length = 38.000 sec.                             
                                     Uncor Max  =   .011 g, at   5.505 sec.     
RMS accel of (uncor) record  =        .                                         
Accelerogram bandpass filtered with 3 dB pts at   .30 and 40.00 cyc/sec         
                 instrument- and baseline-corrected                             
                                                                                
                                                                                
                                                                                
                                                                                
                                                                                
Record of Sun Sep  9, 2001 16:59:22 PDT    Sun Sep  9, 2001 16:59:22 PDT        
                                                                                
24800-L1780-01252.11      Mission Hills - Sepulveda & San Fernando    Chan  1: 3
50 Deg                                                                          
24800-L1780-01252.11      Mission Hills - Sepulveda & San Fernando    Chan  1: 3
50 Deg                                                                          
Units for spectra are inches and sec, except Sa is in fraction of g.            
                                                                                
    1  100    1    3    3  200    1    3    1   24   12 1780    024800    1    0
   23   59   22    0  252    9    9 2001   10    3  350 7600   39   40   72  350
 7600    1   50    3 1780    1   11  380    1    0    0    0    0    0    0    0
    0    4    0    0 3800    2    0    0    0    0   72   40    0    0    0 3800
    0 3800   41   91    1    3    0    0    0    0    3    0    0    0    0    2
    2    2    4    0   32   99    0   32   32    0    0    1    0    0    0    0
  -99   -1    0    0
      .010      .660    38.000      .001      .000   625.000      .011     5.505
    96.700      .298      .477      .000     5.000      .000      .000      .000
     2.500      .795      .006     -.006     5.000    30.000      .000     -.023
     -.002      .021     2.000    15.000    34.273  -118.464      .559      .283
      .507     -.052      .094  -999.000      .000      .000   -13.500      .000
  1000.000     1.004      .000      .000      .000      .000      .000      .000
     4.600     4.400      .000   980.665      .010    38.000    15.390      .000
      .000    40.000      .000    38.000      .010      .300      .000      .000
     5.500    10.283     5.560      .485     5.490     -.038      .000      .300
    40.000      .010      .010      .000      .010      .019      .000      .000
      .040      .140      .027      .019      .003      .000      .000      .000
      .000      .000      .000      .000      .000      .000      .000      .000
      .000      .000      .000      .000
      .050
      .040      .042      .044      .046      .048      .050      .055      .060
      .065      .070      .075      .080      .085      .090      .095      .100
      .110      .120      .130      .140      .150      .160      .170      .180
      .190      .200      .220      .240      .260      .280      .300      .320
      .340      .360      .380      .400      .420      .440      .460      .480
      .500      .550      .600      .650      .700      .750      .800      .850
      .900      .950     1.000     1.100     1.200     1.300     1.400     1.500
     1.600     1.700     1.800     1.900     2.000     2.200     2.400     2.600
     2.800     3.000     3.200     3.400     3.600     3.800     4.000     4.200
     4.400     4.600     4.800     5.000     5.500     6.000     6.500     7.000
     7.500     8.000     8.500     9.000     9.500    10.000    11.000    12.000
    13.000    14.000    15.000      .000      .000      .000      .000      .000
      .000      .000      .000      .000
Fourier amplitude spectra in in/sec.
  .000E+00  .000E+00  .000E+00  .000E+00  .000E+00  .000E+00  .000E+00  .000E+00
  .000E+00  .000E+00  .000E+00  .000E+00  .000E+00  .000E+00  .000E+00  .000E+00
  .000E+00  .000E+00  .000E+00  .000E+00  .000E+00  .000E+00  .000E+00  .000E+00
  .000E+00  .000E+00  .000E+00  .000E+00  .000E+00  .000E+00  .000E+00  .000E+00
  .000E+00  .000E+00  .000E+00  .000E+00  .000E+00  .000E+00  .000E+00  .000E+00
  .000E+00  .000E+00  .000E+00  .000E+00  .000E+00  .000E+00  .000E+00  .000E+00
  .000E+00  .000E+00  .000E+00  .000E+00  .000E+00  .000E+00  .000E+00  .000E+00
  .000E+00  .000E+00  .000E+00  .000E+00  .000E+00  .000E+00  .000E+00  .000E+00
  .000E+00  .000E+00  .000E+00  .000E+00  .000E+00  .000E+00  .000E+00  .000E+00
  .000E+00  .000E+00  .000E+00  .000E+00  .000E+00  .000E+00  .000E+00  .000E+00
  .000E+00  .000E+00  .000E+00  .000E+00  .000E+00  .000E+00  .000E+00  .000E+00
  .000E+00  .000E+00  .000E+00  .000E+00  .000E+00  .000E+00  .000E+00  .000E+00
  .000E+00  .000E+00  .000E+00  .000E+00
Damping =  .05. Data of Sd,Sv,Sa,Pssv,ttSd,ttSv,ttSa :
  .174E-03  .195E-03  .216E-03  .238E-03  .255E-03  .276E-03  .348E-03  .448E-03
  .530E-03  .728E-03  .839E-03  .131E-02  .178E-02  .198E-02  .229E-02  .279E-02
  .294E-02  .334E-02  .539E-02  .751E-02  .588E-02  .622E-02  .639E-02  .814E-02
  .931E-02  .101E-01  .136E-01  .151E-01  .173E-01  .186E-01  .147E-01  .164E-01
  .197E-01  .215E-01  .225E-01  .253E-01  .262E-01  .327E-01  .316E-01  .287E-01
  .292E-01  .375E-01  .341E-01  .344E-01  .350E-01  .306E-01  .332E-01  .341E-01
  .291E-01  .289E-01  .341E-01  .410E-01  .334E-01  .361E-01  .380E-01  .329E-01
  .265E-01  .271E-01  .308E-01  .311E-01  .328E-01  .251E-01  .220E-01  .237E-01
  .232E-01  .221E-01  .215E-01  .201E-01  .179E-01  .165E-01  .160E-01  .159E-01
  .159E-01  .158E-01  .158E-01  .158E-01  .157E-01  .157E-01  .157E-01  .157E-01
  .157E-01  .157E-01  .156E-01  .156E-01  .156E-01  .156E-01  .155E-01  .155E-01
  .154E-01  .154E-01  .153E-01  .000E+00  .000E+00  .000E+00  .000E+00  .000E+00
  .000E+00  .000E+00  .000E+00  .000E+00
  .824E-02  .939E-02  .998E-02  .128E-01  .157E-01  .173E-01  .205E-01  .249E-01
  .348E-01  .464E-01  .524E-01  .822E-01  .991E-01  .987E-01  .112E+00  .136E+00
  .148E+00  .155E+00  .225E+00  .324E+00  .246E+00  .239E+00  .243E+00  .296E+00
  .315E+00  .310E+00  .382E+00  .430E+00  .423E+00  .411E+00  .344E+00  .318E+00
  .379E+00  .374E+00  .373E+00  .414E+00  .406E+00  .476E+00  .499E+00  .430E+00
  .416E+00  .440E+00  .410E+00  .372E+00  .349E+00  .297E+00  .337E+00  .306E+00
  .266E+00  .266E+00  .267E+00  .263E+00  .252E+00  .244E+00  .239E+00  .235E+00
  .232E+00  .227E+00  .224E+00  .220E+00  .217E+00  .213E+00  .211E+00  .208E+00
  .206E+00  .204E+00  .202E+00  .201E+00  .200E+00  .199E+00  .198E+00  .197E+00
  .196E+00  .196E+00  .196E+00  .195E+00  .195E+00  .194E+00  .194E+00  .193E+00
  .193E+00  .193E+00  .192E+00  .192E+00  .192E+00  .192E+00  .192E+00  .192E+00
  .192E+00  .192E+00  .191E+00  .000E+00  .000E+00  .000E+00  .000E+00  .000E+00
  .000E+00  .000E+00  .000E+00  .000E+00
  .111E-01  .113E-01  .114E-01  .115E-01  .113E-01  .113E-01  .118E-01  .128E-01
  .128E-01  .153E-01  .152E-01  .210E-01  .253E-01  .251E-01  .260E-01  .285E-01
  .251E-01  .237E-01  .329E-01  .395E-01  .269E-01  .249E-01  .224E-01  .256E-01
  .264E-01  .259E-01  .288E-01  .272E-01  .262E-01  .243E-01  .167E-01  .165E-01
  .174E-01  .170E-01  .160E-01  .162E-01  .153E-01  .174E-01  .154E-01  .128E-01
  .120E-01  .127E-01  .976E-02  .838E-02  .735E-02  .560E-02  .533E-02  .485E-02
  .371E-02  .329E-02  .351E-02  .348E-02  .239E-02  .220E-02  .200E-02  .151E-02
  .107E-02  .969E-03  .984E-03  .889E-03  .851E-03  .541E-03  .401E-03  .369E-03
  .312E-03  .257E-03  .219E-03  .183E-03  .147E-03  .133E-03  .121E-03  .111E-03
  .102E-03  .942E-04  .874E-04  .813E-04  .689E-04  .595E-04  .521E-04  .462E-04
  .413E-04  .372E-04  .338E-04  .309E-04  .284E-04  .262E-04  .230E-04  .215E-04
  .201E-04  .188E-04  .178E-04  .000E+00  .000E+00  .000E+00  .000E+00  .000E+00
  .000E+00  .000E+00  .000E+00  .000E+00
  .274E-01  .291E-01  .309E-01  .325E-01  .334E-01  .347E-01  .398E-01  .469E-01
  .512E-01  .653E-01  .703E-01  .103E+00  .131E+00  .138E+00  .151E+00  .176E+00
  .168E+00  .175E+00  .260E+00  .337E+00  .246E+00  .244E+00  .236E+00  .284E+00
  .308E+00  .317E+00  .389E+00  .395E+00  .419E+00  .418E+00  .308E+00  .323E+00
  .363E+00  .375E+00  .372E+00  .397E+00  .392E+00  .467E+00  .432E+00  .375E+00
  .366E+00  .428E+00  .357E+00  .333E+00  .314E+00  .256E+00  .261E+00  .252E+00
  .203E+00  .191E+00  .214E+00  .234E+00  .175E+00  .174E+00  .171E+00  .138E+00
  .104E+00  .100E+00  .108E+00  .103E+00  .103E+00  .717E-01  .577E-01  .574E-01
  .520E-01  .464E-01  .421E-01  .371E-01  .313E-01  .273E-01  .251E-01  .238E-01
  .227E-01  .216E-01  .207E-01  .198E-01  .180E-01  .165E-01  .152E-01  .141E-01
  .131E-01  .123E-01  .116E-01  .109E-01  .103E-01  .978E-02  .886E-02  .810E-02
  .745E-02  .690E-02  .643E-02  .000E+00  .000E+00  .000E+00  .000E+00  .000E+00
  .000E+00  .000E+00  .000E+00  .000E+00
  .550E+01  .550E+01  .550E+01  .550E+01  .550E+01  .550E+01  .549E+01  .550E+01
  .657E+01  .657E+01  .551E+01  .628E+01  .630E+01  .630E+01  .630E+01  .630E+01
  .631E+01  .552E+01  .698E+01  .674E+01  .676E+01  .537E+01  .642E+01  .634E+01
  .635E+01  .700E+01  .702E+01  .628E+01  .755E+01  .758E+01  .611E+01  .570E+01
  .572E+01  .574E+01  .576E+01  .113E+02  .107E+02  .105E+02  .814E+01  .659E+01
  .638E+01  .132E+02  .995E+01  .169E+02  .998E+01  .599E+01  .100E+02  .114E+02
  .603E+01  .174E+02  .185E+02  .214E+02  .205E+02  .171E+02  .172E+02  .167E+02
  .131E+02  .131E+02  .133E+02  .127E+02  .167E+02  .128E+02  .128E+02  .128E+02
  .128E+02  .236E+02  .227E+02  .227E+02  .227E+02  .227E+02  .548E+01  .548E+01
  .548E+01  .548E+01  .548E+01  .548E+01  .548E+01  .548E+01  .548E+01  .548E+01
  .548E+01  .548E+01  .548E+01  .548E+01  .548E+01  .548E+01  .548E+01  .548E+01
  .548E+01  .548E+01  .548E+01  .000E+00  .000E+00  .000E+00  .000E+00  .000E+00
  .000E+00  .000E+00  .000E+00  .000E+00
  .625E+01  .625E+01  .625E+01  .625E+01  .625E+01  .625E+01  .626E+01  .626E+01
  .655E+01  .659E+01  .661E+01  .626E+01  .627E+01  .628E+01  .632E+01  .633E+01
  .634E+01  .647E+01  .702E+01  .671E+01  .673E+01  .541E+01  .638E+01  .638E+01
  .639E+01  .705E+01  .707E+01  .624E+01  .626E+01  .752E+01  .618E+01  .754E+01
  .699E+01  .565E+01  .566E+01  .114E+02  .106E+02  .106E+02  .824E+01  .692E+01
  .652E+01  .133E+02  .634E+01  .608E+01  .986E+01  .609E+01  .987E+01  .989E+01
  .554E+01  .554E+01  .555E+01  .555E+01  .555E+01  .555E+01  .555E+01  .555E+01
  .555E+01  .555E+01  .555E+01  .555E+01  .555E+01  .555E+01  .555E+01  .555E+01
  .555E+01  .555E+01  .555E+01  .555E+01  .555E+01  .555E+01  .555E+01  .555E+01
  .555E+01  .555E+01  .555E+01  .555E+01  .555E+01  .555E+01  .555E+01  .555E+01
  .555E+01  .555E+01  .555E+01  .555E+01  .555E+01  .555E+01  .555E+01  .555E+01
  .555E+01  .555E+01  .555E+01  .000E+00  .000E+00  .000E+00  .000E+00  .000E+00
  .000E+00  .000E+00  .000E+00  .000E+00
  .550E+01  .550E+01  .550E+01  .550E+01  .550E+01  .550E+01  .549E+01  .550E+01
  .657E+01  .657E+01  .622E+01  .628E+01  .629E+01  .630E+01  .630E+01  .630E+01
  .631E+01  .552E+01  .698E+01  .674E+01  .676E+01  .536E+01  .642E+01  .634E+01
  .635E+01  .699E+01  .702E+01  .628E+01  .754E+01  .758E+01  .610E+01  .570E+01
  .706E+01  .573E+01  .575E+01  .113E+02  .107E+02  .105E+02  .813E+01  .658E+01
  .637E+01  .131E+02  .994E+01  .169E+02  .996E+01  .598E+01  .100E+02  .113E+02
  .601E+01  .174E+02  .185E+02  .214E+02  .205E+02  .171E+02  .172E+02  .167E+02
  .131E+02  .131E+02  .133E+02  .126E+02  .167E+02  .127E+02  .127E+02  .127E+02
  .127E+02  .236E+02  .226E+02  .226E+02  .545E+01  .545E+01  .545E+01  .545E+01
  .545E+01  .545E+01  .545E+01  .545E+01  .545E+01  .544E+01  .544E+01  .544E+01
  .544E+01  .544E+01  .544E+01  .544E+01  .544E+01  .544E+01  .556E+01  .556E+01
  .556E+01  .556E+01  .556E+01  .000E+00  .000E+00  .000E+00  .000E+00  .000E+00
  .000E+00  .000E+00  .000E+00  .000E+00
/&   ----------  End of spectral data for channel  1  ----------
Response and Fourier amplitude spectra (91 periods,  .04 - 15.0 sec)   for      
Corrected accelerogram   24800-L1780-01252.11       Chan  2:  Up         from   
Uncorrected Accelerogram Data             Processed: 09/10/01, CDMG  800cw011   
Record of Sun Sep  9, 2001 16:59:22 PDT               (Avol1 v4.6  7/01 CSMIP)  
CSMIP Preliminary Processing            (Origin:  To be determined)             
24800-L1780-01252.11                 Start time:  9/09/01, 23:59:22.0 UTC (GPS) 
Station No. 24800   34.273N, 118.464W      Etna  s/n 1780  (3 Channels)         
Mission Hills - Sepulveda & San Fernando                                        
Chan  2:  Up                                                                    
Record of Sun Sep  9, 2001 16:59:22 PDT    Sun Sep  9, 2001 16:59:22 PDT        
Hypocenter:  To be determined.               ML:  To be determined.             
Instr Period =  .0107 sec,  Damping =  .660,  Sensitivity =  .63  v/g           
                        Record length = 38.000 sec.                             
                                     Uncor Max  =   .008 g, at   7.070 sec.     
RMS accel of (uncor) record  =        .                                         
Accelerogram bandpass filtered with 3 dB pts at   .30 and 40.00 cyc/sec         
                 instrument- and baseline-corrected                             
                                                                                
                                                                                
                                                                                
                                                                                
                                                                                
Record of Sun Sep  9, 2001 16:59:22 PDT    Sun Sep  9, 2001 16:59:22 PDT        
                                                                                
24800-L1780-01252.11      Mission Hills - Sepulveda & San Fernando    Chan  2:  
Up                                                                              
24800-L1780-01252.11      Mission Hills - Sepulveda & San Fernando    Chan  2:  
Up                                                                              
Units for spectra are inches and sec, except Sa is in fraction of g.            
                                                                                
    2  100    2    3    3  200    1    3    1   24   12 1780    024800    1    0
   23   59   22    0  252    9    9 2001   10    3  500 7600   39   40   72  350
 7600    1   50    3 1780    1   11  380    1    0    0    0    0    0    0    0
    0    4    0    0 3800    2    0    0    0    0   72   40    0    0    0 3800
    0 3800   41   91    1    3    0    0    0    0    3    0    0    0    0    2
    2    2    4    0   32   99    0   32   32    0    0    1    0    0    0    0
  -99   -1    0    0
      .011      .660    38.000      .001      .000   625.000      .008     7.070
    93.600      .298      .477      .000     5.000      .000      .000      .000
     2.500   -39.113     -.021     -.029     5.000    30.000      .000     -.005
      .002      .007     2.000    15.000    34.273  -118.464     1.519      .207
      .136     -.189      .203  -999.000      .000      .000   -13.500      .000
  1000.000     1.072      .000      .000      .000      .000      .000      .000
     4.600     4.400      .000   980.665      .010    38.000    14.897      .000
      .000    40.000      .000    38.000      .010      .300      .000      .000
     7.070     7.826     7.020     -.379     6.930      .023      .000      .300
    40.000      .010      .010      .000      .010      .014      .000      .000
      .025      .280      .019      .023      .002      .000      .000      .000
      .000      .000      .000      .000      .000      .000      .000      .000
      .000      .000      .000      .000
      .050
      .040      .042      .044      .046      .048      .050      .055      .060
      .065      .070      .075      .080      .085      .090      .095      .100
      .110      .120      .130      .140      .150      .160      .170      .180
      .190      .200      .220      .240      .260      .280      .300      .320
      .340      .360      .380      .400      .420      .440      .460      .480
      .500      .550      .600      .650      .700      .750      .800      .850
      .900      .950     1.000     1.100     1.200     1.300     1.400     1.500
     1.600     1.700     1.800     1.900     2.000     2.200     2.400     2.600
     2.800     3.000     3.200     3.400     3.600     3.800     4.000     4.200
     4.400     4.600     4.800     5.000     5.500     6.000     6.500     7.000
     7.500     8.000     8.500     9.000     9.500    10.000    11.000    12.000
    13.000    14.000    15.000      .000      .000      .000      .000      .000
      .000      .000      .000      .000
Fourier amplitude spectra in in/sec.
  .000E+00  .000E+00  .000E+00  .000E+00  .000E+00  .000E+00  .000E+00  .000E+00
  .000E+00  .000E+00  .000E+00  .000E+00  .000E+00  .000E+00  .000E+00  .000E+00
  .000E+00  .000E+00  .000E+00  .000E+00  .000E+00  .000E+00  .000E+00  .000E+00
  .000E+00  .000E+00  .000E+00  .000E+00  .000E+00  .000E+00  .000E+00  .000E+00
  .000E+00  .000E+00  .000E+00  .000E+00  .000E+00  .000E+00  .000E+00  .000E+00
  .000E+00  .000E+00  .000E+00  .000E+00  .000E+00  .000E+00  .000E+00  .000E+00
  .000E+00  .000E+00  .000E+00  .000E+00  .000E+00  .000E+00  .000E+00  .000E+00
  .000E+00  .000E+00  .000E+00  .000E+00  .000E+00  .000E+00  .000E+00  .000E+00
  .000E+00  .000E+00  .000E+00  .000E+00  .000E+00  .000E+00  .000E+00  .000E+00
  .000E+00  .000E+00  .000E+00  .000E+00  .000E+00  .000E+00  .000E+00  .000E+00
  .000E+00  .000E+00  .000E+00  .000E+00  .000E+00  .000E+00  .000E+00  .000E+00
  .000E+00  .000E+00  .000E+00  .000E+00  .000E+00  .000E+00  .000E+00  .000E+00
  .000E+00  .000E+00  .000E+00  .000E+00
Damping =  .05. Data of Sd,Sv,Sa,Pssv,ttSd,ttSv,ttSa :
  .132E-03  .149E-03  .186E-03  .205E-03  .221E-03  .245E-03  .304E-03  .440E-03
  .581E-03  .841E-03  .110E-02  .118E-02  .123E-02  .159E-02  .177E-02  .192E-02
  .275E-02  .301E-02  .250E-02  .384E-02  .403E-02  .553E-02  .570E-02  .618E-02
  .630E-02  .642E-02  .102E-01  .913E-02  .132E-01  .190E-01  .203E-01  .194E-01
  .220E-01  .237E-01  .258E-01  .230E-01  .264E-01  .281E-01  .280E-01  .270E-01
