Response and Fourier amplitude spectra (91 periods,  .04 - 15.0 sec)   for      
Corrected accelerogram   24801-L1123-01252.06       Chan  1:   2 Deg     from   
Uncorrected Accelerogram Data             Processed: 09/10/01, CDMG  801ap006   
Record of Sun Sep  9, 2001 16:59:17 PDT               (Avol1 v4.6  7/01 CSMIP)  
CSMIP Preliminary Processing            (Origin:  To be determined)             
24801-L1123-01252.06                 Start time:  9/09/01, 23:59:17.0 UTC (GPS) 
Station No. 24801   34.146N, 118.413W      Etna  s/n 1123  (3 Channels)         
Studio City - Ventura & Coldwater Cyn Av                                        
Chan  1:   2 Deg                                                                
Record of Sun Sep  9, 2001 16:59:17 PDT    Sun Sep  9, 2001 16:59:17 PDT        
Hypocenter:  To be determined.               ML:  To be determined.             
Instr Period =  .0096 sec,  Damping =  .660,  Sensitivity =  .63  v/g           
                        Record length = 45.000 sec.                             
                                     Uncor Max  =   .064 g, at   6.260 sec.     
RMS accel of (uncor) record  =        .                                         
Accelerogram bandpass filtered with 3 dB pts at   .30 and 40.00 cyc/sec         
                 instrument- and baseline-corrected                             
                                                                                
                                                                                
                                                                                
                                                                                
                                                                                
Record of Sun Sep  9, 2001 16:59:17 PDT    Sun Sep  9, 2001 16:59:17 PDT        
                                                                                
24801-L1123-01252.06      Studio City - Ventura & Coldwater Cyn Av    Chan  1:  
 2 Deg                                                                          
24801-L1123-01252.06      Studio City - Ventura & Coldwater Cyn Av    Chan  1:  
 2 Deg                                                                          
Units for spectra are inches and sec, except Sa is in fraction of g.            
                                                                                
    1  100    1    3    3  200    1    3    1   24   12 1123    024801    1    0
   23   59   17    0  252    9    9 2001   10    3    2 9000   39   40   72    2
 9000    1   50    3 1123    1    6  450    1    0    0    0    0    0    0    0
    0    4    0    0 4500    2    0    0    0    0   72   40    0    0    0 4500
    0 4500   41   91    1    3    0    0    0    0    3    0    0    0    0    2
    2    2    4    0   32   99    0   32   32    0    0    1    0    0    0    0
  -99   -1    0    0
      .010      .660    45.000      .004      .000   625.000      .064     6.260
   103.700      .298      .477      .000     5.000      .000      .000      .000
     2.500    -7.663      .028     -.045     5.000    30.000      .000      .002
     -.012     -.014     2.000    15.000    34.146  -118.413      .019      .341
    18.176     -.030      .002  -999.000      .000      .000   -13.200      .000
  1000.000     1.015      .000      .000      .000      .000      .000      .000
     4.600     4.400      .000   980.665      .010    45.000    16.504      .000
      .000    40.000      .000    45.000      .010      .300      .000      .000
     6.260    63.169     6.230    -1.275     7.410      .083      .000      .300
    40.000      .010      .010      .000      .120      .033      .000      .000
      .204      .130      .086      .059      .009      .001      .000      .000
      .000      .000      .000      .000      .000      .000      .000      .000
      .000      .000      .000      .000
      .050
      .040      .042      .044      .046      .048      .050      .055      .060
      .065      .070      .075      .080      .085      .090      .095      .100
      .110      .120      .130      .140      .150      .160      .170      .180
      .190      .200      .220      .240      .260      .280      .300      .320
      .340      .360      .380      .400      .420      .440      .460      .480
      .500      .550      .600      .650      .700      .750      .800      .850
      .900      .950     1.000     1.100     1.200     1.300     1.400     1.500
     1.600     1.700     1.800     1.900     2.000     2.200     2.400     2.600
     2.800     3.000     3.200     3.400     3.600     3.800     4.000     4.200
     4.400     4.600     4.800     5.000     5.500     6.000     6.500     7.000
     7.500     8.000     8.500     9.000     9.500    10.000    11.000    12.000
    13.000    14.000    15.000      .000      .000      .000      .000      .000
      .000      .000      .000      .000
Fourier amplitude spectra in in/sec.
  .000E+00  .000E+00  .000E+00  .000E+00  .000E+00  .000E+00  .000E+00  .000E+00
  .000E+00  .000E+00  .000E+00  .000E+00  .000E+00  .000E+00  .000E+00  .000E+00
  .000E+00  .000E+00  .000E+00  .000E+00  .000E+00  .000E+00  .000E+00  .000E+00
  .000E+00  .000E+00  .000E+00  .000E+00  .000E+00  .000E+00  .000E+00  .000E+00
  .000E+00  .000E+00  .000E+00  .000E+00  .000E+00  .000E+00  .000E+00  .000E+00
  .000E+00  .000E+00  .000E+00  .000E+00  .000E+00  .000E+00  .000E+00  .000E+00
  .000E+00  .000E+00  .000E+00  .000E+00  .000E+00  .000E+00  .000E+00  .000E+00
  .000E+00  .000E+00  .000E+00  .000E+00  .000E+00  .000E+00  .000E+00  .000E+00
  .000E+00  .000E+00  .000E+00  .000E+00  .000E+00  .000E+00  .000E+00  .000E+00
  .000E+00  .000E+00  .000E+00  .000E+00  .000E+00  .000E+00  .000E+00  .000E+00
  .000E+00  .000E+00  .000E+00  .000E+00  .000E+00  .000E+00  .000E+00  .000E+00
  .000E+00  .000E+00  .000E+00  .000E+00  .000E+00  .000E+00  .000E+00  .000E+00
  .000E+00  .000E+00  .000E+00  .000E+00
Damping =  .05. Data of Sd,Sv,Sa,Pssv,ttSd,ttSv,ttSa :
  .133E-02  .144E-02  .155E-02  .175E-02  .216E-02  .277E-02  .371E-02  .429E-02
  .568E-02  .774E-02  .883E-02  .943E-02  .105E-01  .112E-01  .117E-01  .119E-01
  .164E-01  .227E-01  .338E-01  .380E-01  .418E-01  .443E-01  .449E-01  .437E-01
  .374E-01  .289E-01  .364E-01  .483E-01  .528E-01  .571E-01  .513E-01  .424E-01
  .386E-01  .412E-01  .527E-01  .491E-01  .425E-01  .457E-01  .520E-01  .508E-01
  .521E-01  .888E-01  .105E+00  .791E-01  .677E-01  .718E-01  .885E-01  .103E+00
  .100E+00  .906E-01  .937E-01  .945E-01  .894E-01  .924E-01  .856E-01  .724E-01
  .660E-01  .654E-01  .641E-01  .630E-01  .689E-01  .806E-01  .775E-01  .648E-01
  .507E-01  .511E-01  .515E-01  .509E-01  .499E-01  .486E-01  .474E-01  .462E-01
  .452E-01  .442E-01  .434E-01  .428E-01  .415E-01  .406E-01  .400E-01  .395E-01
  .392E-01  .390E-01  .388E-01  .386E-01  .385E-01  .384E-01  .382E-01  .381E-01
  .379E-01  .379E-01  .378E-01  .000E+00  .000E+00  .000E+00  .000E+00  .000E+00
  .000E+00  .000E+00  .000E+00  .000E+00
  .827E-01  .932E-01  .985E-01  .116E+00  .141E+00  .194E+00  .298E+00  .342E+00
  .498E+00  .660E+00  .736E+00  .692E+00  .700E+00  .735E+00  .709E+00  .648E+00
  .753E+00  .114E+01  .160E+01  .174E+01  .181E+01  .180E+01  .170E+01  .155E+01
  .140E+01  .108E+01  .105E+01  .146E+01  .154E+01  .150E+01  .120E+01  .105E+01
  .899E+00  .769E+00  .815E+00  .735E+00  .721E+00  .768E+00  .779E+00  .752E+00
  .864E+00  .100E+01  .116E+01  .100E+01  .983E+00  .933E+00  .853E+00  .876E+00
  .807E+00  .778E+00  .733E+00  .629E+00  .538E+00  .582E+00  .555E+00  .561E+00
  .563E+00  .562E+00  .559E+00  .555E+00  .549E+00  .537E+00  .524E+00  .512E+00
  .502E+00  .493E+00  .486E+00  .481E+00  .477E+00  .477E+00  .479E+00  .481E+00
  .483E+00  .484E+00  .485E+00  .486E+00  .488E+00  .489E+00  .489E+00  .490E+00
  .490E+00  .490E+00  .490E+00  .491E+00  .491E+00  .491E+00  .491E+00  .491E+00
  .491E+00  .491E+00  .491E+00  .000E+00  .000E+00  .000E+00  .000E+00  .000E+00
  .000E+00  .000E+00  .000E+00  .000E+00
  .852E-01  .829E-01  .824E-01  .853E-01  .961E-01  .113E+00  .127E+00  .121E+00
  .140E+00  .162E+00  .162E+00  .153E+00  .151E+00  .144E+00  .133E+00  .125E+00
  .138E+00  .162E+00  .204E+00  .199E+00  .190E+00  .176E+00  .161E+00  .138E+00
  .106E+00  .735E-01  .779E-01  .868E-01  .808E-01  .755E-01  .593E-01  .424E-01
  .342E-01  .326E-01  .375E-01  .316E-01  .248E-01  .243E-01  .252E-01  .228E-01
  .218E-01  .302E-01  .300E-01  .193E-01  .142E-01  .131E-01  .142E-01  .147E-01
  .128E-01  .103E-01  .962E-02  .807E-02  .640E-02  .565E-02  .452E-02  .333E-02
  .267E-02  .234E-02  .205E-02  .181E-02  .179E-02  .174E-02  .143E-02  .104E-02
  .718E-03  .619E-03  .550E-03  .485E-03  .428E-03  .380E-03  .339E-03  .305E-03
  .277E-03  .252E-03  .232E-03  .214E-03  .180E-03  .159E-03  .144E-03  .132E-03
  .122E-03  .113E-03  .106E-03  .990E-04  .932E-04  .881E-04  .793E-04  .722E-04
  .662E-04  .612E-04  .568E-04  .000E+00  .000E+00  .000E+00  .000E+00  .000E+00
  .000E+00  .000E+00  .000E+00  .000E+00
  .209E+00  .215E+00  .222E+00  .240E+00  .282E+00  .348E+00  .423E+00  .449E+00
  .549E+00  .695E+00  .740E+00  .740E+00  .776E+00  .783E+00  .771E+00  .751E+00
  .938E+00  .119E+01  .163E+01  .171E+01  .175E+01  .174E+01  .166E+01  .153E+01
  .124E+01  .909E+00  .104E+01  .126E+01  .128E+01  .128E+01  .107E+01  .833E+00
  .712E+00  .720E+00  .872E+00  .771E+00  .635E+00  .653E+00  .711E+00  .665E+00
  .655E+00  .102E+01  .110E+01  .765E+00  .608E+00  .602E+00  .695E+00  .764E+00
  .699E+00  .599E+00  .589E+00  .540E+00  .468E+00  .446E+00  .384E+00  .303E+00
  .259E+00  .242E+00  .224E+00  .208E+00  .216E+00  .230E+00  .203E+00  .157E+00
  .114E+00  .107E+00  .101E+00  .942E-01  .871E-01  .804E-01  .744E-01  .691E-01
  .645E-01  .604E-01  .569E-01  .537E-01  .474E-01  .425E-01  .386E-01  .355E-01
  .328E-01  .306E-01  .287E-01  .269E-01  .255E-01  .241E-01  .218E-01  .199E-01
  .183E-01  .170E-01  .158E-01  .000E+00  .000E+00  .000E+00  .000E+00  .000E+00
  .000E+00  .000E+00  .000E+00  .000E+00
  .626E+01  .617E+01  .617E+01  .625E+01  .625E+01  .625E+01  .626E+01  .626E+01
  .631E+01  .586E+01  .598E+01  .603E+01  .609E+01  .632E+01  .643E+01  .643E+01
  .617E+01  .645E+01  .646E+01  .634E+01  .628E+01  .629E+01  .629E+01  .630E+01
  .631E+01  .631E+01  .630E+01  .631E+01  .660E+01  .650E+01  .624E+01  .625E+01
  .100E+02  .936E+01  .128E+02  .128E+02  .139E+02  .890E+01  .872E+01  .693E+01
  .625E+01  .129E+02  .127E+02  .125E+02  .145E+02  .952E+01  .956E+01  .925E+01
  .931E+01  .763E+01  .771E+01  .775E+01  .976E+01  .930E+01  .934E+01  .937E+01
  .937E+01  .939E+01  .942E+01  .957E+01  .893E+01  .903E+01  .905E+01  .905E+01
  .906E+01  .739E+01  .740E+01  .740E+01  .740E+01  .740E+01  .740E+01  .740E+01
  .740E+01  .740E+01  .740E+01  .740E+01  .740E+01  .740E+01  .740E+01  .740E+01
  .740E+01  .740E+01  .740E+01  .740E+01  .740E+01  .740E+01  .740E+01  .740E+01
  .740E+01  .740E+01  .740E+01  .000E+00  .000E+00  .000E+00  .000E+00  .000E+00
  .000E+00  .000E+00  .000E+00  .000E+00
  .615E+01  .615E+01  .674E+01  .674E+01  .624E+01  .624E+01  .628E+01  .628E+01
  .629E+01  .591E+01  .588E+01  .589E+01  .607E+01  .634E+01  .640E+01  .641E+01
  .620E+01  .648E+01  .649E+01  .644E+01  .632E+01  .632E+01  .633E+01  .626E+01
  .627E+01  .627E+01  .627E+01  .627E+01  .627E+01  .628E+01  .645E+01  .620E+01
  .621E+01  .981E+01  .127E+02  .129E+02  .628E+01  .628E+01  .628E+01  .628E+01
  .687E+01  .130E+02  .128E+02  .621E+01  .622E+01  .622E+01  .622E+01  .983E+01
  .911E+01  .786E+01  .787E+01  .745E+01  .622E+01  .115E+02  .612E+01  .612E+01
  .612E+01  .612E+01  .612E+01  .612E+01  .612E+01  .612E+01  .612E+01  .612E+01
  .612E+01  .612E+01  .612E+01  .612E+01  .612E+01  .622E+01  .622E+01  .622E+01
  .622E+01  .622E+01  .622E+01  .622E+01  .622E+01  .622E+01  .622E+01  .622E+01
  .622E+01  .622E+01  .622E+01  .622E+01  .622E+01  .622E+01  .622E+01  .622E+01
  .622E+01  .622E+01  .622E+01  .000E+00  .000E+00  .000E+00  .000E+00  .000E+00
  .000E+00  .000E+00  .000E+00  .000E+00
  .626E+01  .617E+01  .617E+01  .625E+01  .625E+01  .625E+01  .626E+01  .626E+01
  .630E+01  .586E+01  .586E+01  .603E+01  .609E+01  .632E+01  .643E+01  .643E+01
  .617E+01  .644E+01  .646E+01  .634E+01  .628E+01  .628E+01  .629E+01  .630E+01
  .630E+01  .631E+01  .630E+01  .631E+01  .659E+01  .649E+01  .624E+01  .624E+01
  .100E+02  .935E+01  .128E+02  .128E+02  .139E+02  .889E+01  .871E+01  .692E+01
  .624E+01  .129E+02  .127E+02  .124E+02  .144E+02  .951E+01  .954E+01  .923E+01
  .929E+01  .761E+01  .770E+01  .773E+01  .974E+01  .928E+01  .931E+01  .934E+01
  .935E+01  .936E+01  .938E+01  .955E+01  .891E+01  .901E+01  .902E+01  .903E+01
  .903E+01  .729E+01  .729E+01  .729E+01  .729E+01  .729E+01  .729E+01  .729E+01
  .729E+01  .729E+01  .729E+01  .729E+01  .729E+01  .622E+01  .622E+01  .622E+01
  .622E+01  .622E+01  .622E+01  .622E+01  .622E+01  .622E+01  .622E+01  .622E+01
  .622E+01  .622E+01  .622E+01  .000E+00  .000E+00  .000E+00  .000E+00  .000E+00
  .000E+00  .000E+00  .000E+00  .000E+00
/&   ----------  End of spectral data for channel  1  ----------
Response and Fourier amplitude spectra (91 periods,  .04 - 15.0 sec)   for      
Corrected accelerogram   24801-L1123-01252.06       Chan  2:  Up         from   
Uncorrected Accelerogram Data             Processed: 09/10/01, CDMG  801ap006   
Record of Sun Sep  9, 2001 16:59:17 PDT               (Avol1 v4.6  7/01 CSMIP)  
CSMIP Preliminary Processing            (Origin:  To be determined)             
24801-L1123-01252.06                 Start time:  9/09/01, 23:59:17.0 UTC (GPS) 
Station No. 24801   34.146N, 118.413W      Etna  s/n 1123  (3 Channels)         
Studio City - Ventura & Coldwater Cyn Av                                        
Chan  2:  Up                                                                    
Record of Sun Sep  9, 2001 16:59:17 PDT    Sun Sep  9, 2001 16:59:17 PDT        
Hypocenter:  To be determined.               ML:  To be determined.             
Instr Period =  .0099 sec,  Damping =  .650,  Sensitivity =  .63  v/g           
                        Record length = 45.000 sec.                             
                                     Uncor Max  =   .034 g, at   3.605 sec.     
RMS accel of (uncor) record  =        .                                         
Accelerogram bandpass filtered with 3 dB pts at   .30 and 40.00 cyc/sec         
                 instrument- and baseline-corrected                             
                                                                                
                                                                                
                                                                                
                                                                                
                                                                                
Record of Sun Sep  9, 2001 16:59:17 PDT    Sun Sep  9, 2001 16:59:17 PDT        
                                                                                
24801-L1123-01252.06      Studio City - Ventura & Coldwater Cyn Av    Chan  2:  
Up                                                                              
24801-L1123-01252.06      Studio City - Ventura & Coldwater Cyn Av    Chan  2:  
Up                                                                              
Units for spectra are inches and sec, except Sa is in fraction of g.            
                                                                                
    2  100    2    3    3  200    1    3    1   24   12 1123    024801    1    0
   23   59   17    0  252    9    9 2001   10    3  500 9000   39   40   72    2
 9000    1   50    3 1123    1    6  450    1    0    0    0    0    0    0    0
    0    4    0    0 4500    2    0    0    0    0   72   40    0    0    0 4500
    0 4500   41   91    1    3    0    0    0    0    3    0    0    0    0    2
    2    2    4    0   32   99    0   32   32    0    0    1    0    0    0    0
  -99   -1    0    0
      .010      .650    45.000      .003      .000   625.000      .034     3.605
   100.600      .298      .477      .000     5.000      .000      .000      .000
     2.500   -36.725     -.009     -.044     5.000    30.000      .000      .000
      .001      .001     2.000    15.000    34.146  -118.413      .063      .256
     4.088     -.013      .016  -999.000      .000      .000   -13.200      .000
  1000.000    -1.013      .000      .000      .000      .000      .000      .000
     4.600     4.400      .000   980.665      .010    45.000    16.011      .000
      .000    40.000      .000    45.000      .010      .300      .000      .000
     3.600    29.901     6.990     -.528     7.250     -.056      .000      .300
    40.000      .010      .010      .000      .010      .020      .000      .000
      .116      .085      .018      .017      .008      .000      .000      .000
      .000      .000      .000      .000      .000      .000      .000      .000
      .000      .000      .000      .000
      .050
      .040      .042      .044      .046      .048      .050      .055      .060
      .065      .070      .075      .080      .085      .090      .095      .100
      .110      .120      .130      .140      .150      .160      .170      .180
      .190      .200      .220      .240      .260      .280      .300      .320
      .340      .360      .380      .400      .420      .440      .460      .480
      .500      .550      .600      .650      .700      .750      .800      .850
      .900      .950     1.000     1.100     1.200     1.300     1.400     1.500
     1.600     1.700     1.800     1.900     2.000     2.200     2.400     2.600
     2.800     3.000     3.200     3.400     3.600     3.800     4.000     4.200
     4.400     4.600     4.800     5.000     5.500     6.000     6.500     7.000
     7.500     8.000     8.500     9.000     9.500    10.000    11.000    12.000
    13.000    14.000    15.000      .000      .000      .000      .000      .000
      .000      .000      .000      .000
Fourier amplitude spectra in in/sec.
  .000E+00  .000E+00  .000E+00  .000E+00  .000E+00  .000E+00  .000E+00  .000E+00
  .000E+00  .000E+00  .000E+00  .000E+00  .000E+00  .000E+00  .000E+00  .000E+00
  .000E+00  .000E+00  .000E+00  .000E+00  .000E+00  .000E+00  .000E+00  .000E+00
  .000E+00  .000E+00  .000E+00  .000E+00  .000E+00  .000E+00  .000E+00  .000E+00
  .000E+00  .000E+00  .000E+00  .000E+00  .000E+00  .000E+00  .000E+00  .000E+00
  .000E+00  .000E+00  .000E+00  .000E+00  .000E+00  .000E+00  .000E+00  .000E+00
  .000E+00  .000E+00  .000E+00  .000E+00  .000E+00  .000E+00  .000E+00  .000E+00
  .000E+00  .000E+00  .000E+00  .000E+00  .000E+00  .000E+00  .000E+00  .000E+00
  .000E+00  .000E+00  .000E+00  .000E+00  .000E+00  .000E+00  .000E+00  .000E+00
  .000E+00  .000E+00  .000E+00  .000E+00  .000E+00  .000E+00  .000E+00  .000E+00
  .000E+00  .000E+00  .000E+00  .000E+00  .000E+00  .000E+00  .000E+00  .000E+00
  .000E+00  .000E+00  .000E+00  .000E+00  .000E+00  .000E+00  .000E+00  .000E+00
  .000E+00  .000E+00  .000E+00  .000E+00
Damping =  .05. Data of Sd,Sv,Sa,Pssv,ttSd,ttSv,ttSa :
  .681E-03  .717E-03  .846E-03  .102E-02  .121E-02  .153E-02  .192E-02  .250E-02
  .284E-02  .401E-02  .556E-02  .716E-02  .805E-02  .825E-02  .806E-02  .756E-02
  .639E-02  .769E-02  .753E-02  .756E-02  .860E-02  .939E-02  .858E-02  .693E-02
  .772E-02  .687E-02  .659E-02  .772E-02  .953E-02  .135E-01  .151E-01  .165E-01
  .199E-01  .192E-01  .197E-01  .220E-01  .260E-01  .360E-01  .491E-01  .492E-01
