Response and Fourier amplitude spectra (76 periods,  .04 -  5.0 sec)   for      
Corrected accelerogram   24703-H0113-01253.09       Chan  2:  Up         from   
Uncorrected Accelerogram Data             Processed: 09/14/01, CDMG  output     
Earthquake of Sun Sep  9, 2001  16:59 PDT             (Avol1 v3.3  12/99 CSMIP) 
CSMIP Preliminary Processing            (Origin:  To be determined)             
24703-H0113-01253.09                 Start time:  9/09/01, 23:59:14.2 GMT       
Station No. 24703   34.036N, 118.378W    SSA-16  s/n  113  (3 Channels)         
Los Angeles - La Cienega Geotech Array                                          
Chan  2:  Up      (Sta Chn:  5)     Location: 60-foot Depth                     
Earthquake of Sun Sep  9, 2001  16:59 PDT    Sun Sep  9, 2001  16:59 PDT        
Hypocenter:  To be determined.               ML:  To be determined.
Instr Period =  .0200 sec,  Damping =  .700,  Sensitivity = 1.25  v/g
                        Record length = 40.000 sec.
                                     Uncor Max  =   .031 g, at   7.580 sec.
RMS accel of (uncor) record  =        .
Accelerogram bandpass filtered with 3 dB pts at   .30 and 40.00 cyc/sec
                 instrument- and baseline-corrected





Earthquake of Sun Sep  9, 2001  16:59 PDT    Sun Sep  9, 2001  16:59 PDT

24703-H0113-01253.09      Los Angeles - La Cienega Geotech Array    Chan  2:  Up

24703-H0113-01253.09      Los Angeles - La Cienega Geotech Array    Chan  2:  Up

Units for spectra are inches and sec, except Sa is in fraction of g.

    2  100    5    3    3  200    1    3    1   16    8  113    024703    4    0
   23   59   14  175  252    9    9 2001   10    2  50010496   41   38   72  360
 8000    0   50    0 5101    1    9   41    1   23   59    4   80    9    9 2001
    0    0    0    0 4000    2    0    0    0    0   72   38    0    0    0 4000
    0 4000   39   76    5    3    0    0    0    0    0    0    0    0    0    2
    2    2    4    1   65   99    1   32   32    0    0   84    0    0    0  128
   -1   -1    0    0
      .020      .700    40.000      .003      .000  1250.000      .031     7.580
    50.000    76.294    61.035      .000     5.000      .000      .000      .000
     2.500    19.795      .009     -.064     5.120    30.000      .000     -.019
     -.017      .003     2.000      .000    34.036   118.378      .000      .000
      .000      .000      .000      .000      .000      .000      .000      .000
    41.080     1.028      .000      .000      .000      .000      .000      .000
     3.300     4.100      .000   980.665      .010    40.000     7.958      .000
      .000    40.000      .000    40.000      .010      .300      .000      .000
     7.570    29.394     8.100     -.728     8.180     -.038      .000      .300
    40.000      .010      .010      .000      .010      .021      .000      .000
      .113      .150      .045      .037      .003      .000      .000      .000
      .000      .000      .000      .000      .000      .000      .000      .000
      .000      .000      .000      .000
      .000      .020      .050      .100      .200
      .040      .042      .044      .046      .048      .050      .055      .060
      .065      .070      .075      .080      .085      .090      .095      .100
      .110      .120      .130      .140      .150      .160      .170      .180
      .190      .200      .220      .240      .260      .280      .300      .320
      .340      .360      .380      .400      .420      .440      .460      .480
      .500      .550      .600      .650      .700      .750      .800      .850
      .900      .950     1.000     1.100     1.200     1.300     1.400     1.500
     1.600     1.700     1.800     1.900     2.000     2.200     2.400     2.600
     2.800     3.000     3.200     3.400     3.600     3.800     4.000     4.200
     4.400     4.600     4.800     5.000      .000      .000      .000      .000
      .000      .000      .000      .000      .000      .000      .000      .000
      .000      .000      .000      .000      .000      .000      .000      .000
      .000      .000      .000      .000
Fourier amplitude spectra in in/sec.
  .185E+00  .333E+00  .291E+00  .382E+00  .105E+00  .389E+00  .708E+00  .999E+00
  .384E+00  .432E+00  .401E+00  .483E-01  .323E+00  .845E+00  .843E+00  .380E+00
  .784E+00  .659E+00  .698E+00  .426E+00  .161E+01  .939E+00  .569E+00  .117E+01
  .102E+01  .140E+01  .124E+01  .622E+00  .618E+00  .155E+01  .208E+01  .207E+01
  .151E+01  .208E+01  .260E+00  .152E+01  .112E+01  .226E+01  .446E+00  .261E+00
  .914E+00  .596E+00  .614E+00  .124E+01  .308E+00  .784E+00  .528E+00  .110E+00
  .734E+00  .195E+00  .310E+00  .397E+00  .419E+00  .120E+00  .345E+00  .226E+00
  .135E+00  .127E+00  .807E-01  .156E+00  .647E-01  .261E-01  .626E-01  .130E-01
  .354E-01  .270E-01  .191E-01  .338E-01  .250E-01  .237E-01  .176E-01  .531E-02
  .739E-02  .946E-02  .708E-02  .525E-02  .000E+00  .000E+00  .000E+00  .000E+00
  .000E+00  .000E+00  .000E+00  .000E+00  .000E+00  .000E+00  .000E+00  .000E+00
  .000E+00  .000E+00  .000E+00  .000E+00  .000E+00  .000E+00  .000E+00  .000E+00
  .000E+00  .000E+00  .000E+00  .000E+00
Damping =  .00. Data of Sd,Sv,Sa,Pssv,ttSd,ttSv,ttSa :
  .146E-02  .323E-02  .309E-02  .483E-02  .254E-02  .329E-02  .687E-02  .103E-01
  .471E-02  .557E-02  .563E-02  .610E-02  .537E-02  .125E-01  .137E-01  .967E-02
  .170E-01  .150E-01  .154E-01  .316E-01  .398E-01  .431E-01  .299E-01  .485E-01
  .337E-01  .535E-01  .456E-01  .312E-01  .346E-01  .739E-01  .997E-01  .113E+00
  .864E-01  .127E+00  .414E-01  .981E-01  .746E-01  .159E+00  .539E-01  .670E-01
  .126E+00  .101E+00  .889E-01  .128E+00  .513E-01  .110E+00  .691E-01  .550E-01
  .105E+00  .682E-01  .561E-01  .772E-01  .833E-01  .391E-01  .771E-01  .552E-01
  .511E-01  .475E-01  .412E-01  .493E-01  .400E-01  .225E-01  .267E-01  .217E-01
  .222E-01  .201E-01  .194E-01  .209E-01  .225E-01  .186E-01  .192E-01  .196E-01
  .198E-01  .199E-01  .200E-01  .199E-01  .000E+00  .000E+00  .000E+00  .000E+00
  .000E+00  .000E+00  .000E+00  .000E+00  .000E+00  .000E+00  .000E+00  .000E+00
  .000E+00  .000E+00  .000E+00  .000E+00  .000E+00  .000E+00  .000E+00  .000E+00
  .000E+00  .000E+00  .000E+00  .000E+00
  .213E+00  .427E+00  .390E+00  .660E+00  .315E+00  .401E+00  .764E+00  .105E+01
  .444E+00  .468E+00  .465E+00  .447E+00  .378E+00  .851E+00  .901E+00  .553E+00
  .961E+00  .764E+00  .728E+00  .142E+01  .164E+01  .170E+01  .116E+01  .163E+01
  .108E+01  .171E+01  .129E+01  .827E+00  .806E+00  .166E+01  .207E+01  .220E+01
  .161E+01  .220E+01  .795E+00  .154E+01  .111E+01  .227E+01  .739E+00  .898E+00
  .160E+01  .114E+01  .958E+00  .124E+01  .474E+00  .974E+00  .547E+00  .417E+00
  .735E+00  .464E+00  .353E+00  .455E+00  .457E+00  .293E+00  .352E+00  .260E+00
  .260E+00  .267E+00  .275E+00  .294E+00  .308E+00  .319E+00  .311E+00  .294E+00
  .280E+00  .274E+00  .273E+00  .275E+00  .277E+00  .278E+00  .280E+00  .281E+00
  .282E+00  .283E+00  .284E+00  .285E+00  .000E+00  .000E+00  .000E+00  .000E+00
  .000E+00  .000E+00  .000E+00  .000E+00  .000E+00  .000E+00  .000E+00  .000E+00
  .000E+00  .000E+00  .000E+00  .000E+00  .000E+00  .000E+00  .000E+00  .000E+00
  .000E+00  .000E+00  .000E+00  .000E+00
  .934E-01  .187E+00  .163E+00  .234E+00  .113E+00  .135E+00  .232E+00  .292E+00
  .114E+00  .116E+00  .102E+00  .975E-01  .760E-01  .158E+00  .155E+00  .989E-01
  .143E+00  .106E+00  .932E-01  .165E+00  .181E+00  .172E+00  .106E+00  .153E+00
  .956E-01  .137E+00  .963E-01  .554E-01  .523E-01  .964E-01  .113E+00  .113E+00
  .765E-01  .100E+00  .293E-01  .627E-01  .433E-01  .841E-01  .261E-01  .297E-01
  .514E-01  .342E-01  .253E-01  .311E-01  .107E-01  .200E-01  .110E-01  .779E-02
  .133E-01  .773E-02  .574E-02  .652E-02  .592E-02  .237E-02  .402E-02  .251E-02
  .204E-02  .168E-02  .130E-02  .140E-02  .102E-02  .475E-03  .475E-03  .329E-03
  .290E-03  .228E-03  .194E-03  .185E-03  .177E-03  .131E-03  .123E-03  .114E-03
  .105E-03  .964E-04  .887E-04  .816E-04  .000E+00  .000E+00  .000E+00  .000E+00
  .000E+00  .000E+00  .000E+00  .000E+00  .000E+00  .000E+00  .000E+00  .000E+00
  .000E+00  .000E+00  .000E+00  .000E+00  .000E+00  .000E+00  .000E+00  .000E+00
  .000E+00  .000E+00  .000E+00  .000E+00
  .229E+00  .484E+00  .441E+00  .660E+00  .332E+00  .413E+00  .785E+00  .108E+01
  .456E+00  .500E+00  .471E+00  .479E+00  .397E+00  .872E+00  .905E+00  .608E+00
  .968E+00  .783E+00  .744E+00  .142E+01  .167E+01  .169E+01  .110E+01  .169E+01
  .112E+01  .168E+01  .130E+01  .817E+00  .835E+00  .166E+01  .209E+01  .221E+01
  .160E+01  .221E+01  .685E+00  .154E+01  .112E+01  .227E+01  .736E+00  .877E+00
  .158E+01  .116E+01  .931E+00  .124E+01  .460E+00  .924E+00  .543E+00  .407E+00
  .734E+00  .451E+00  .352E+00  .441E+00  .436E+00  .189E+00  .346E+00  .231E+00
  .201E+00  .176E+00  .144E+00  .163E+00  .126E+00  .643E-01  .700E-01  .525E-01
  .499E-01  .421E-01  .381E-01  .386E-01  .392E-01  .307E-01  .302E-01  .293E-01
  .283E-01  .272E-01  .261E-01  .251E-01  .000E+00  .000E+00  .000E+00  .000E+00
  .000E+00  .000E+00  .000E+00  .000E+00  .000E+00  .000E+00  .000E+00  .000E+00
  .000E+00  .000E+00  .000E+00  .000E+00  .000E+00  .000E+00  .000E+00  .000E+00
  .000E+00  .000E+00  .000E+00  .000E+00
  .579E+01  .757E+01  .757E+01  .664E+01  .758E+01  .747E+01  .913E+01  .819E+01
  .741E+01  .786E+01  .132E+02  .780E+01  .589E+01  .186E+02  .169E+02  .766E+01
  .111E+02  .125E+02  .814E+01  .726E+01  .119E+02  .800E+01  .779E+01  .924E+01
  .928E+01  .833E+01  .152E+02  .123E+02  .150E+02  .991E+01  .383E+02  .134E+02
  .111E+02  .252E+02  .989E+01  .352E+02  .389E+02  .380E+02  .107E+02  .108E+02
  .134E+02  .179E+02  .179E+02  .399E+02  .211E+02  .189E+02  .311E+02  .172E+02
  .393E+02  .172E+02  .241E+02  .337E+02  .367E+02  .183E+02  .391E+02  .359E+02
  .311E+02  .165E+02  .125E+02  .346E+02  .180E+02  .818E+01  .332E+02  .183E+02
  .282E+02  .115E+02  .907E+01  .226E+02  .180E+02  .817E+01  .817E+01  .817E+01
  .817E+01  .817E+01  .817E+01  .817E+01  .000E+00  .000E+00  .000E+00  .000E+00
  .000E+00  .000E+00  .000E+00  .000E+00  .000E+00  .000E+00  .000E+00  .000E+00
  .000E+00  .000E+00  .000E+00  .000E+00  .000E+00  .000E+00  .000E+00  .000E+00
  .000E+00  .000E+00  .000E+00  .000E+00
  .572E+01  .745E+01  .593E+01  .672E+01  .637E+01  .140E+02  .914E+01  .820E+01
  .116E+02  .145E+02  .130E+02  .782E+01  .588E+01  .185E+02  .172E+02  .768E+01
  .111E+02  .125E+02  .974E+01  .722E+01  .118E+02  .789E+01  .783E+01  .929E+01
  .933E+01  .768E+01  .230E+02  .776E+01  .151E+02  .103E+02  .384E+02  .135E+02
  .109E+02  .215E+02  .760E+01  .363E+02  .390E+02  .381E+02  .106E+02  .106E+02
  .143E+02  .177E+02  .178E+02  .394E+02  .156E+02  .187E+02  .317E+02  .170E+02
  .395E+02  .170E+02  .243E+02  .312E+02  .184E+02  .809E+01  .388E+02  .355E+02
  .917E+01  .917E+01  .809E+01  .809E+01  .809E+01  .809E+01  .809E+01  .809E+01
  .809E+01  .809E+01  .809E+01  .809E+01  .809E+01  .809E+01  .809E+01  .809E+01
  .809E+01  .809E+01  .809E+01  .809E+01  .000E+00  .000E+00  .000E+00  .000E+00
  .000E+00  .000E+00  .000E+00  .000E+00  .000E+00  .000E+00  .000E+00  .000E+00
  .000E+00  .000E+00  .000E+00  .000E+00  .000E+00  .000E+00  .000E+00  .000E+00
  .000E+00  .000E+00  .000E+00  .000E+00
  .579E+01  .757E+01  .757E+01  .664E+01  .758E+01  .747E+01  .913E+01  .819E+01
  .741E+01  .786E+01  .132E+02  .780E+01  .589E+01  .186E+02  .169E+02  .766E+01
  .111E+02  .125E+02  .814E+01  .726E+01  .119E+02  .800E+01  .779E+01  .924E+01
  .928E+01  .833E+01  .152E+02  .123E+02  .150E+02  .991E+01  .383E+02  .134E+02
  .111E+02  .252E+02  .989E+01  .352E+02  .389E+02  .380E+02  .107E+02  .108E+02
  .134E+02  .179E+02  .179E+02  .399E+02  .211E+02  .189E+02  .311E+02  .172E+02
  .393E+02  .172E+02  .241E+02  .337E+02  .367E+02  .183E+02  .391E+02  .359E+02
  .311E+02  .165E+02  .125E+02  .346E+02  .180E+02  .818E+01  .332E+02  .183E+02
  .282E+02  .115E+02  .907E+01  .226E+02  .180E+02  .817E+01  .817E+01  .817E+01
  .817E+01  .817E+01  .817E+01  .817E+01  .000E+00  .000E+00  .000E+00  .000E+00
  .000E+00  .000E+00  .000E+00  .000E+00  .000E+00  .000E+00  .000E+00  .000E+00
  .000E+00  .000E+00  .000E+00  .000E+00  .000E+00  .000E+00  .000E+00  .000E+00
  .000E+00  .000E+00  .000E+00  .000E+00
Damping =  .02. Data of Sd,Sv,Sa,Pssv,ttSd,ttSv,ttSa :
  .847E-03  .152E-02  .215E-02  .245E-02  .198E-02  .197E-02  .287E-02  .277E-02
  .298E-02  .291E-02  .279E-02  .307E-02  .501E-02  .554E-02  .627E-02  .576E-02
  .833E-02  .973E-02  .169E-01  .255E-01  .319E-01  .357E-01  .278E-01  .282E-01
  .220E-01  .280E-01  .211E-01  .184E-01  .213E-01  .408E-01  .470E-01  .549E-01
  .560E-01  .649E-01  .428E-01  .401E-01  .407E-01  .453E-01  .446E-01  .528E-01
  .697E-01  .527E-01  .436E-01  .533E-01  .402E-01  .663E-01  .402E-01  .354E-01
  .409E-01  .407E-01  .369E-01  .386E-01  .533E-01  .353E-01  .396E-01  .315E-01
  .347E-01  .316E-01  .323E-01  .316E-01  .289E-01  .218E-01  .204E-01  .180E-01
  .197E-01  .188E-01  .182E-01  .188E-01  .190E-01  .181E-01  .188E-01  .192E-01
  .195E-01  .196E-01  .197E-01  .197E-01  .000E+00  .000E+00  .000E+00  .000E+00
  .000E+00  .000E+00  .000E+00  .000E+00  .000E+00  .000E+00  .000E+00  .000E+00
  .000E+00  .000E+00  .000E+00  .000E+00  .000E+00  .000E+00  .000E+00  .000E+00
  .000E+00  .000E+00  .000E+00  .000E+00
  .119E+00  .200E+00  .273E+00  .301E+00  .237E+00  .223E+00  .319E+00  .277E+00
  .267E+00  .236E+00  .201E+00  .233E+00  .314E+00  .321E+00  .386E+00  .314E+00
  .401E+00  .447E+00  .755E+00  .112E+01  .133E+01  .144E+01  .109E+01  .103E+01
  .735E+00  .933E+00  .644E+00  .535E+00  .534E+00  .853E+00  .968E+00  .107E+01
  .105E+01  .116E+01  .755E+00  .654E+00  .647E+00  .667E+00  .657E+00  .735E+00
  .921E+00  .681E+00  .505E+00  .514E+00  .384E+00  .604E+00  .351E+00  .347E+00
  .353E+00  .313E+00  .287E+00  .282E+00  .352E+00  .288E+00  .250E+00  .240E+00
  .241E+00  .250E+00  .272E+00  .290E+00  .302E+00  .313E+00  .307E+00  .293E+00
  .282E+00  .276E+00  .275E+00  .275E+00  .277E+00  .278E+00  .280E+00  .281E+00
  .282E+00  .283E+00  .284E+00  .284E+00  .000E+00  .000E+00  .000E+00  .000E+00
  .000E+00  .000E+00  .000E+00  .000E+00  .000E+00  .000E+00  .000E+00  .000E+00
  .000E+00  .000E+00  .000E+00  .000E+00  .000E+00  .000E+00  .000E+00  .000E+00
  .000E+00  .000E+00  .000E+00  .000E+00
  .542E-01  .876E-01  .114E+00  .118E+00  .879E-01  .805E-01  .970E-01  .787E-01
  .716E-01  .605E-01  .507E-01  .490E-01  .713E-01  .702E-01  .713E-01  .585E-01
  .701E-01  .688E-01  .102E+00  .134E+00  .145E+00  .143E+00  .983E-01  .893E-01
  .624E-01  .719E-01  .449E-01  .327E-01  .322E-01  .532E-01  .536E-01  .550E-01
  .496E-01  .511E-01  .303E-01  .256E-01  .237E-01  .239E-01  .216E-01  .235E-01
  .285E-01  .178E-01  .124E-01  .129E-01  .839E-02  .121E-01  .643E-02  .502E-02
  .517E-02  .461E-02  .378E-02  .326E-02  .379E-02  .214E-02  .207E-02  .143E-02
  .139E-02  .112E-02  .102E-02  .900E-03  .740E-03  .471E-03  .366E-03  .284E-03
  .259E-03  .219E-03  .185E-03  .168E-03  .152E-03  .137E-03  .129E-03  .120E-03
  .111E-03  .103E-03  .956E-04  .886E-04  .000E+00  .000E+00  .000E+00  .000E+00
  .000E+00  .000E+00  .000E+00  .000E+00  .000E+00  .000E+00  .000E+00  .000E+00
  .000E+00  .000E+00  .000E+00  .000E+00  .000E+00  .000E+00  .000E+00  .000E+00
  .000E+00  .000E+00  .000E+00  .000E+00
  .133E+00  .227E+00  .307E+00  .334E+00  .260E+00  .247E+00  .328E+00  .290E+00
  .288E+00  .261E+00  .234E+00  .241E+00  .370E+00  .387E+00  .415E+00  .362E+00
  .476E+00  .509E+00  .816E+00  .114E+01  .133E+01  .140E+01  .103E+01  .985E+00
  .726E+00  .879E+00  .603E+00  .482E+00  .516E+00  .915E+00  .985E+00  .108E+01
  .104E+01  .113E+01  .707E+00  .630E+00  .609E+00  .646E+00  .609E+00  .691E+00
  .876E+00  .602E+00  .457E+00  .515E+00  .361E+00  .555E+00  .315E+00  .262E+00
  .286E+00  .269E+00  .232E+00  .220E+00  .279E+00  .170E+00  .178E+00  .132E+00
  .136E+00  .117E+00  .113E+00  .105E+00  .908E-01  .622E-01  .535E-01  .434E-01
  .442E-01  .394E-01  .358E-01  .347E-01  .331E-01  .300E-01  .295E-01  .288E-01
  .278E-01  .268E-01  .258E-01  .247E-01  .000E+00  .000E+00  .000E+00  .000E+00
  .000E+00  .000E+00  .000E+00  .000E+00  .000E+00  .000E+00  .000E+00  .000E+00
  .000E+00  .000E+00  .000E+00  .000E+00  .000E+00  .000E+00  .000E+00  .000E+00
  .000E+00  .000E+00  .000E+00  .000E+00
  .567E+01  .587E+01  .592E+01  .592E+01  .593E+01  .592E+01  .593E+01  .597E+01
  .589E+01  .763E+01  .807E+01  .764E+01  .763E+01  .786E+01  .765E+01  .748E+01
  .806E+01  .814E+01  .814E+01  .816E+01  .790E+01  .792E+01  .778E+01  .779E+01
  .602E+01  .772E+01  .772E+01  .556E+01  .861E+01  .865E+01  .867E+01  .906E+01
  .963E+01  .987E+01  .972E+01  .975E+01  .119E+02  .955E+01  .958E+01  .938E+01
  .940E+01  .925E+01  .176E+02  .188E+02  .157E+02  .185E+02  .186E+02  .113E+02
  .209E+02  .172E+02  .885E+01  .233E+02  .187E+02  .183E+02  .183E+02  .858E+01
  .860E+01  .165E+02  .125E+02  .118E+02  .179E+02  .818E+01  .166E+02  .549E+01
  .112E+02  .860E+01  .907E+01  .908E+01  .180E+02  .817E+01  .817E+01  .817E+01
  .817E+01  .817E+01  .817E+01  .817E+01  .000E+00  .000E+00  .000E+00  .000E+00
  .000E+00  .000E+00  .000E+00  .000E+00  .000E+00  .000E+00  .000E+00  .000E+00
  .000E+00  .000E+00  .000E+00  .000E+00  .000E+00  .000E+00  .000E+00  .000E+00
  .000E+00  .000E+00  .000E+00  .000E+00
  .572E+01  .585E+01  .593E+01  .594E+01  .594E+01  .594E+01  .595E+01  .595E+01
  .588E+01  .761E+01  .810E+01  .684E+01  .761E+01  .784E+01  .791E+01  .745E+01
  .791E+01  .811E+01  .811E+01  .813E+01  .794E+01  .788E+01  .782E+01  .775E+01
  .607E+01  .768E+01  .768E+01  .776E+01  .768E+01  .858E+01  .860E+01  .898E+01
  .989E+01  .960E+01  .981E+01  .946E+01  .822E+01  .945E+01  .947E+01  .948E+01
  .929E+01  .915E+01  .916E+01  .189E+02  .155E+02  .187E+02  .184E+02  .893E+01
  .894E+01  .894E+01  .769E+01  .809E+01  .184E+02  .809E+01  .789E+01  .789E+01
  .917E+01  .917E+01  .809E+01  .809E+01  .809E+01  .809E+01  .809E+01  .809E+01
  .809E+01  .809E+01  .809E+01  .809E+01  .809E+01  .809E+01  .809E+01  .809E+01
  .809E+01  .809E+01  .809E+01  .809E+01  .000E+00  .000E+00  .000E+00  .000E+00
  .000E+00  .000E+00  .000E+00  .000E+00  .000E+00  .000E+00  .000E+00  .000E+00
  .000E+00  .000E+00  .000E+00  .000E+00  .000E+00  .000E+00  .000E+00  .000E+00
  .000E+00  .000E+00  .000E+00  .000E+00
  .567E+01  .587E+01  .592E+01  .592E+01  .593E+01  .592E+01  .593E+01  .596E+01
  .589E+01  .763E+01  .807E+01  .686E+01  .763E+01  .786E+01  .765E+01  .748E+01
  .806E+01  .814E+01  .814E+01  .816E+01  .797E+01  .792E+01  .778E+01  .779E+01
  .602E+01  .772E+01  .772E+01  .556E+01  .861E+01  .865E+01  .867E+01  .906E+01
  .963E+01  .986E+01  .972E+01  .955E+01  .831E+01  .955E+01  .957E+01  .937E+01
  .940E+01  .925E+01  .176E+02  .188E+02  .157E+02  .185E+02  .186E+02  .113E+02
  .209E+02  .172E+02  .884E+01  .233E+02  .186E+02  .183E+02  .183E+02  .857E+01
  .859E+01  .165E+02  .125E+02  .118E+02  .179E+02  .816E+01  .763E+01  .548E+01
  .111E+02  .858E+01  .859E+01  .905E+01  .180E+02  .815E+01  .815E+01  .815E+01
  .815E+01  .815E+01  .815E+01  .814E+01  .000E+00  .000E+00  .000E+00  .000E+00
  .000E+00  .000E+00  .000E+00  .000E+00  .000E+00  .000E+00  .000E+00  .000E+00
  .000E+00  .000E+00  .000E+00  .000E+00  .000E+00  .000E+00  .000E+00  .000E+00
  .000E+00  .000E+00  .000E+00  .000E+00
Damping =  .05. Data of Sd,Sv,Sa,Pssv,ttSd,ttSv,ttSa :
  .708E-03  .107E-02  .150E-02  .174E-02  .172E-02  .181E-02  .210E-02  .214E-02
  .234E-02  .235E-02  .265E-02  .303E-02  .395E-02  .459E-02  .501E-02  .467E-02
