Response and Fourier amplitude spectra (76 periods,  .04 -  5.0 sec)   for      
Corrected accelerogram   24703-H0127-01253.09       Chan  2:  Up         from   
Uncorrected Accelerogram Data             Processed: 09/14/01, CDMG  output     
Earthquake of Sun Sep  9, 2001  16:59 PDT             (Avol1 v3.3  12/99 CSMIP) 
CSMIP Preliminary Processing            (Origin:  To be determined)             
24703-H0127-01253.09                 Start time:  9/09/01, 23:59:14.2 GMT       
Station No. 24703   34.036N, 118.378W    SSA-16  s/n  127  (3 Channels)         
Los Angeles - La Cienega Geotech Array                                          
Chan  2:  Up      (Sta Chn: 11)     Location: 827-foot Depth                    
Earthquake of Sun Sep  9, 2001  16:59 PDT    Sun Sep  9, 2001  16:59 PDT        
Hypocenter:  To be determined.               ML:  To be determined.
Instr Period =  .0200 sec,  Damping =  .700,  Sensitivity = 1.25  v/g
                        Record length = 40.000 sec.
                                     Uncor Max  =  -.022 g, at   5.745 sec.
RMS accel of (uncor) record  =        .
Accelerogram bandpass filtered with 3 dB pts at   .30 and 40.00 cyc/sec
                 instrument- and baseline-corrected





Earthquake of Sun Sep  9, 2001  16:59 PDT    Sun Sep  9, 2001  16:59 PDT

24703-H0127-01253.09      Los Angeles - La Cienega Geotech Array    Chan  2:  Up

24703-H0127-01253.09      Los Angeles - La Cienega Geotech Array    Chan  2:  Up

Units for spectra are inches and sec, except Sa is in fraction of g.

    2  100   11    3    3  200    1    3    1   16    8  127    024703    4    0
   23   59   14  175  252    9    9 2001   10    2  50010496   41   38   72  360
 8000    0   50    0 5101    1    9   41    1    0   52   29  560    9   10 2001
    0    0    0    0 4000    2    0    0    0    0   72   38    0    0    0 4000
    0 4000   39   76    5    3    0    0    0    0    0    0    0    0    0    2
    2    2    4    1   65   99    1   32   32    0    0   80    0    0    0  128
   -1   -1    0    0
      .020      .700    40.000      .002      .000  1250.000     -.022     5.745
    50.000    76.294    61.035      .000     5.000      .000      .000      .000
     2.500    -7.071      .036     -.015     5.120    30.000      .000     -.007
      .001      .008     2.000      .000    34.036   118.378      .000      .000
      .000      .000      .000      .000      .000      .000      .000      .000
    34.048     1.001      .000      .000      .000      .000      .000      .000
     3.300     4.100      .000   980.665      .010    40.000     7.958      .000
      .000    40.000      .000    40.000      .010      .300      .000      .000
     5.740   -20.312     8.250     -.433     8.330     -.026      .000      .300
    40.000      .010      .010      .000      .010      .014      .000      .000
      .069      .055      .027      .026      .002      .000      .000      .000
      .000      .000      .000      .000      .000      .000      .000      .000
      .000      .000      .000      .000
      .000      .020      .050      .100      .200
      .040      .042      .044      .046      .048      .050      .055      .060
      .065      .070      .075      .080      .085      .090      .095      .100
      .110      .120      .130      .140      .150      .160      .170      .180
      .190      .200      .220      .240      .260      .280      .300      .320
      .340      .360      .380      .400      .420      .440      .460      .480
      .500      .550      .600      .650      .700      .750      .800      .850
      .900      .950     1.000     1.100     1.200     1.300     1.400     1.500
     1.600     1.700     1.800     1.900     2.000     2.200     2.400     2.600
     2.800     3.000     3.200     3.400     3.600     3.800     4.000     4.200
     4.400     4.600     4.800     5.000      .000      .000      .000      .000
      .000      .000      .000      .000      .000      .000      .000      .000
      .000      .000      .000      .000      .000      .000      .000      .000
      .000      .000      .000      .000
Fourier amplitude spectra in in/sec.
  .135E+00  .284E+00  .191E+00  .357E-01  .303E+00  .474E+00  .849E+00  .819E+00
  .483E+00  .559E-01  .369E+00  .196E+00  .398E+00  .443E+00  .531E+00  .105E+01
  .551E+00  .878E+00  .919E+00  .160E+01  .443E+00  .897E+00  .267E+00  .471E+00
  .110E+01  .145E+00  .858E+00  .104E+01  .888E+00  .142E+01  .818E+00  .111E+01
  .426E+00  .983E-01  .838E+00  .120E+00  .607E+00  .535E+00  .164E+00  .650E+00
  .235E+00  .103E+01  .532E+00  .738E+00  .396E+00  .452E+00  .102E+00  .209E+00
  .297E+00  .126E+00  .305E+00  .172E+00  .240E+00  .168E+00  .115E+00  .166E+00
  .767E-01  .226E-01  .940E-01  .646E-01  .725E-01  .306E-01  .102E+00  .110E-01
  .543E-01  .363E-01  .181E-01  .360E-01  .282E-01  .214E-01  .158E-01  .980E-02
  .137E-01  .130E-01  .877E-02  .629E-02  .000E+00  .000E+00  .000E+00  .000E+00
  .000E+00  .000E+00  .000E+00  .000E+00  .000E+00  .000E+00  .000E+00  .000E+00
  .000E+00  .000E+00  .000E+00  .000E+00  .000E+00  .000E+00  .000E+00  .000E+00
  .000E+00  .000E+00  .000E+00  .000E+00
Damping =  .00. Data of Sd,Sv,Sa,Pssv,ttSd,ttSv,ttSa :
  .154E-02  .295E-02  .173E-02  .170E-02  .298E-02  .393E-02  .809E-02  .780E-02
  .683E-02  .354E-02  .626E-02  .572E-02  .707E-02  .717E-02  .115E-01  .170E-01
  .105E-01  .176E-01  .216E-01  .484E-01  .178E-01  .245E-01  .230E-01  .211E-01
  .377E-01  .171E-01  .431E-01  .479E-01  .395E-01  .633E-01  .467E-01  .619E-01
  .288E-01  .328E-01  .618E-01  .317E-01  .414E-01  .405E-01  .286E-01  .529E-01
  .475E-01  .994E-01  .753E-01  .788E-01  .693E-01  .663E-01  .339E-01  .358E-01
  .447E-01  .217E-01  .486E-01  .393E-01  .459E-01  .517E-01  .261E-01  .425E-01
  .289E-01  .174E-01  .355E-01  .273E-01  .241E-01  .202E-01  .416E-01  .275E-01
  .296E-01  .238E-01  .206E-01  .213E-01  .219E-01  .210E-01  .193E-01  .167E-01
  .145E-01  .150E-01  .153E-01  .153E-01  .000E+00  .000E+00  .000E+00  .000E+00
  .000E+00  .000E+00  .000E+00  .000E+00  .000E+00  .000E+00  .000E+00  .000E+00
  .000E+00  .000E+00  .000E+00  .000E+00  .000E+00  .000E+00  .000E+00  .000E+00
  .000E+00  .000E+00  .000E+00  .000E+00
  .226E+00  .415E+00  .236E+00  .223E+00  .377E+00  .487E+00  .900E+00  .811E+00
  .653E+00  .302E+00  .517E+00  .424E+00  .513E+00  .490E+00  .748E+00  .104E+01
  .575E+00  .917E+00  .102E+01  .222E+01  .744E+00  .955E+00  .871E+00  .740E+00
  .123E+01  .571E+00  .122E+01  .125E+01  .959E+00  .142E+01  .983E+00  .121E+01
  .561E+00  .588E+00  .102E+01  .592E+00  .620E+00  .578E+00  .392E+00  .688E+00
  .593E+00  .114E+01  .822E+00  .761E+00  .655E+00  .575E+00  .362E+00  .292E+00
  .311E+00  .202E+00  .310E+00  .295E+00  .244E+00  .264E+00  .213E+00  .177E+00
  .181E+00  .186E+00  .178E+00  .194E+00  .208E+00  .216E+00  .203E+00  .184E+00
  .168E+00  .159E+00  .167E+00  .171E+00  .172E+00  .171E+00  .170E+00  .167E+00
  .165E+00  .163E+00  .164E+00  .165E+00  .000E+00  .000E+00  .000E+00  .000E+00
  .000E+00  .000E+00  .000E+00  .000E+00  .000E+00  .000E+00  .000E+00  .000E+00
  .000E+00  .000E+00  .000E+00  .000E+00  .000E+00  .000E+00  .000E+00  .000E+00
  .000E+00  .000E+00  .000E+00  .000E+00
  .982E-01  .171E+00  .913E-01  .823E-01  .132E+00  .161E+00  .274E+00  .222E+00
  .165E+00  .739E-01  .114E+00  .914E-01  .100E+00  .905E-01  .130E+00  .174E+00
  .886E-01  .125E+00  .130E+00  .252E+00  .811E-01  .981E-01  .812E-01  .667E-01
  .107E+00  .437E-01  .910E-01  .851E-01  .598E-01  .826E-01  .531E-01  .619E-01
  .255E-01  .259E-01  .437E-01  .203E-01  .240E-01  .214E-01  .138E-01  .235E-01
  .194E-01  .336E-01  .214E-01  .191E-01  .145E-01  .121E-01  .542E-02  .507E-02
  .565E-02  .246E-02  .497E-02  .333E-02  .326E-02  .313E-02  .136E-02  .193E-02
  .116E-02  .617E-03  .112E-02  .772E-03  .617E-03  .426E-03  .738E-03  .416E-03
  .386E-03  .270E-03  .206E-03  .188E-03  .173E-03  .149E-03  .123E-03  .971E-04
  .767E-04  .723E-04  .678E-04  .626E-04  .000E+00  .000E+00  .000E+00  .000E+00
  .000E+00  .000E+00  .000E+00  .000E+00  .000E+00  .000E+00  .000E+00  .000E+00
  .000E+00  .000E+00  .000E+00  .000E+00  .000E+00  .000E+00  .000E+00  .000E+00
  .000E+00  .000E+00  .000E+00  .000E+00
  .241E+00  .442E+00  .247E+00  .233E+00  .390E+00  .494E+00  .924E+00  .817E+00
  .660E+00  .318E+00  .525E+00  .449E+00  .523E+00  .501E+00  .761E+00  .107E+01
  .599E+00  .920E+00  .104E+01  .217E+01  .747E+00  .964E+00  .848E+00  .737E+00
  .125E+01  .537E+00  .123E+01  .125E+01  .955E+00  .142E+01  .978E+00  .122E+01
  .532E+00  .572E+00  .102E+01  .498E+00  .620E+00  .579E+00  .391E+00  .692E+00
  .597E+00  .114E+01  .788E+00  .762E+00  .622E+00  .555E+00  .266E+00  .265E+00
  .312E+00  .144E+00  .306E+00  .225E+00  .240E+00  .250E+00  .117E+00  .178E+00
  .114E+00  .645E-01  .124E+00  .901E-01  .757E-01  .576E-01  .109E+00  .664E-01
  .664E-01  .498E-01  .405E-01  .393E-01  .382E-01  .347E-01  .302E-01  .251E-01
  .207E-01  .204E-01  .200E-01  .192E-01  .000E+00  .000E+00  .000E+00  .000E+00
  .000E+00  .000E+00  .000E+00  .000E+00  .000E+00  .000E+00  .000E+00  .000E+00
  .000E+00  .000E+00  .000E+00  .000E+00  .000E+00  .000E+00  .000E+00  .000E+00
  .000E+00  .000E+00  .000E+00  .000E+00
  .699E+01  .736E+01  .581E+01  .582E+01  .802E+01  .923E+01  .849E+01  .175E+02
  .977E+01  .812E+01  .928E+01  .690E+01  .793E+01  .109E+02  .940E+01  .193E+02
  .847E+01  .156E+02  .908E+01  .753E+01  .588E+01  .150E+02  .873E+01  .106E+02
  .144E+02  .673E+01  .149E+02  .155E+02  .273E+02  .286E+02  .148E+02  .136E+02
  .971E+01  .122E+02  .214E+02  .882E+01  .379E+02  .224E+02  .206E+02  .329E+02
  .152E+02  .227E+02  .147E+02  .341E+02  .127E+02  .167E+02  .136E+02  .167E+02
  .354E+02  .113E+02  .385E+02  .147E+02  .315E+02  .235E+02  .363E+02  .358E+02
  .303E+02  .160E+02  .235E+02  .178E+02  .172E+02  .791E+01  .332E+02  .133E+02
  .280E+02  .203E+02  .169E+02  .106E+02  .217E+02  .203E+02  .133E+02  .133E+02
  .758E+01  .832E+01  .832E+01  .832E+01  .000E+00  .000E+00  .000E+00  .000E+00
  .000E+00  .000E+00  .000E+00  .000E+00  .000E+00  .000E+00  .000E+00  .000E+00
  .000E+00  .000E+00  .000E+00  .000E+00  .000E+00  .000E+00  .000E+00  .000E+00
  .000E+00  .000E+00  .000E+00  .000E+00
  .598E+01  .737E+01  .580E+01  .581E+01  .806E+01  .103E+02  .851E+01  .398E+02
  .982E+01  .814E+01  .926E+01  .692E+01  .778E+01  .109E+02  .938E+01  .192E+02
  .844E+01  .154E+02  .127E+02  .736E+01  .614E+01  .163E+02  .877E+01  .103E+02
  .143E+02  .669E+01  .149E+02  .154E+02  .273E+02  .359E+02  .149E+02  .135E+02
  .787E+01  .121E+02  .213E+02  .851E+01  .380E+02  .223E+02  .207E+02  .330E+02
  .151E+02  .229E+02  .145E+02  .337E+02  .125E+02  .165E+02  .841E+01  .841E+01
  .351E+02  .824E+01  .373E+02  .145E+02  .378E+02  .232E+02  .825E+01  .362E+02
  .841E+01  .841E+01  .824E+01  .824E+01  .824E+01  .825E+01  .825E+01  .825E+01
  .825E+01  .841E+01  .841E+01  .841E+01  .841E+01  .841E+01  .841E+01  .841E+01
  .841E+01  .841E+01  .825E+01  .825E+01  .000E+00  .000E+00  .000E+00  .000E+00
  .000E+00  .000E+00  .000E+00  .000E+00  .000E+00  .000E+00  .000E+00  .000E+00
  .000E+00  .000E+00  .000E+00  .000E+00  .000E+00  .000E+00  .000E+00  .000E+00
  .000E+00  .000E+00  .000E+00  .000E+00
  .699E+01  .736E+01  .581E+01  .582E+01  .802E+01  .923E+01  .849E+01  .175E+02
  .977E+01  .812E+01  .928E+01  .690E+01  .793E+01  .109E+02  .940E+01  .193E+02
  .847E+01  .156E+02  .908E+01  .753E+01  .588E+01  .150E+02  .873E+01  .106E+02
  .144E+02  .673E+01  .149E+02  .155E+02  .273E+02  .286E+02  .148E+02  .136E+02
  .971E+01  .122E+02  .214E+02  .882E+01  .379E+02  .224E+02  .206E+02  .329E+02
  .152E+02  .227E+02  .147E+02  .341E+02  .127E+02  .167E+02  .136E+02  .167E+02
  .354E+02  .113E+02  .385E+02  .147E+02  .315E+02  .235E+02  .363E+02  .358E+02
  .303E+02  .160E+02  .235E+02  .178E+02  .172E+02  .791E+01  .332E+02  .133E+02
  .280E+02  .203E+02  .169E+02  .106E+02  .217E+02  .203E+02  .133E+02  .133E+02
  .758E+01  .832E+01  .832E+01  .832E+01  .000E+00  .000E+00  .000E+00  .000E+00
  .000E+00  .000E+00  .000E+00  .000E+00  .000E+00  .000E+00  .000E+00  .000E+00
  .000E+00  .000E+00  .000E+00  .000E+00  .000E+00  .000E+00  .000E+00  .000E+00
  .000E+00  .000E+00  .000E+00  .000E+00
Damping =  .02. Data of Sd,Sv,Sa,Pssv,ttSd,ttSv,ttSa :
  .902E-03  .110E-02  .131E-02  .137E-02  .171E-02  .211E-02  .267E-02  .281E-02
  .301E-02  .203E-02  .317E-02  .458E-02  .514E-02  .473E-02  .571E-02  .699E-02
  .725E-02  .830E-02  .117E-01  .210E-01  .140E-01  .142E-01  .140E-01  .124E-01
  .162E-01  .127E-01  .177E-01  .252E-01  .254E-01  .357E-01  .236E-01  .305E-01
  .215E-01  .191E-01  .228E-01  .230E-01  .217E-01  .177E-01  .214E-01  .242E-01
  .311E-01  .499E-01  .435E-01  .459E-01  .432E-01  .373E-01  .273E-01  .263E-01
  .238E-01  .196E-01  .271E-01  .263E-01  .245E-01  .278E-01  .175E-01  .232E-01
  .156E-01  .150E-01  .208E-01  .198E-01  .188E-01  .187E-01  .234E-01  .226E-01
  .181E-01  .173E-01  .174E-01  .190E-01  .179E-01  .169E-01  .171E-01  .154E-01
  .141E-01  .143E-01  .147E-01  .148E-01  .000E+00  .000E+00  .000E+00  .000E+00
  .000E+00  .000E+00  .000E+00  .000E+00  .000E+00  .000E+00  .000E+00  .000E+00
  .000E+00  .000E+00  .000E+00  .000E+00  .000E+00  .000E+00  .000E+00  .000E+00
  .000E+00  .000E+00  .000E+00  .000E+00
  .113E+00  .144E+00  .177E+00  .177E+00  .209E+00  .251E+00  .295E+00  .288E+00
  .273E+00  .165E+00  .254E+00  .325E+00  .371E+00  .332E+00  .384E+00  .443E+00
  .383E+00  .401E+00  .551E+00  .966E+00  .556E+00  .519E+00  .503E+00  .467E+00
  .553E+00  .391E+00  .552E+00  .654E+00  .676E+00  .804E+00  .501E+00  .637E+00
  .424E+00  .414E+00  .381E+00  .446E+00  .371E+00  .280E+00  .294E+00  .328E+00
  .402E+00  .571E+00  .487E+00  .478E+00  .425E+00  .385E+00  .344E+00  .287E+00
  .232E+00  .211E+00  .221E+00  .236E+00  .229E+00  .238E+00  .209E+00  .176E+00
  .175E+00  .180E+00  .178E+00  .192E+00  .203E+00  .210E+00  .200E+00  .184E+00
  .170E+00  .160E+00  .165E+00  .169E+00  .170E+00  .170E+00  .168E+00  .167E+00
  .165E+00  .163E+00  .163E+00  .165E+00  .000E+00  .000E+00  .000E+00  .000E+00
  .000E+00  .000E+00  .000E+00  .000E+00  .000E+00  .000E+00  .000E+00  .000E+00
  .000E+00  .000E+00  .000E+00  .000E+00  .000E+00  .000E+00  .000E+00  .000E+00
  .000E+00  .000E+00  .000E+00  .000E+00
  .579E-01  .635E-01  .690E-01  .663E-01  .757E-01  .864E-01  .910E-01  .805E-01
  .725E-01  .424E-01  .574E-01  .733E-01  .729E-01  .596E-01  .645E-01  .710E-01
  .615E-01  .587E-01  .716E-01  .109E+00  .634E-01  .572E-01  .494E-01  .389E-01
  .462E-01  .323E-01  .375E-01  .445E-01  .384E-01  .467E-01  .269E-01  .304E-01
  .190E-01  .151E-01  .162E-01  .146E-01  .126E-01  .936E-02  .104E-01  .107E-01
  .127E-01  .169E-01  .123E-01  .111E-01  .903E-02  .678E-02  .437E-02  .372E-02
  .301E-02  .223E-02  .277E-02  .223E-02  .175E-02  .169E-02  .913E-03  .106E-02
  .626E-03  .541E-03  .659E-03  .570E-03  .491E-03  .401E-03  .416E-03  .344E-03
  .237E-03  .198E-03  .175E-03  .170E-03  .143E-03  .125E-03  .112E-03  .914E-04
  .796E-04  .767E-04  .726E-04  .678E-04  .000E+00  .000E+00  .000E+00  .000E+00
  .000E+00  .000E+00  .000E+00  .000E+00  .000E+00  .000E+00  .000E+00  .000E+00
  .000E+00  .000E+00  .000E+00  .000E+00  .000E+00  .000E+00  .000E+00  .000E+00
  .000E+00  .000E+00  .000E+00  .000E+00
  .142E+00  .164E+00  .187E+00  .187E+00  .224E+00  .265E+00  .306E+00  .294E+00
  .291E+00  .182E+00  .266E+00  .360E+00  .380E+00  .330E+00  .378E+00  .439E+00
  .414E+00  .435E+00  .567E+00  .941E+00  .584E+00  .559E+00  .516E+00  .431E+00
  .537E+00  .398E+00  .506E+00  .659E+00  .615E+00  .801E+00  .494E+00  .599E+00
  .397E+00  .333E+00  .377E+00  .361E+00  .324E+00  .253E+00  .293E+00  .316E+00
  .390E+00  .570E+00  .455E+00  .444E+00  .388E+00  .312E+00  .215E+00  .194E+00
  .166E+00  .130E+00  .170E+00  .150E+00  .128E+00  .135E+00  .785E-01  .972E-01
  .614E-01  .555E-01  .727E-01  .653E-01  .590E-01  .533E-01  .612E-01  .547E-01
  .406E-01  .362E-01  .342E-01  .351E-01  .312E-01  .279E-01  .269E-01  .231E-01
  .201E-01  .195E-01  .192E-01  .186E-01  .000E+00  .000E+00  .000E+00  .000E+00
  .000E+00  .000E+00  .000E+00  .000E+00  .000E+00  .000E+00  .000E+00  .000E+00
  .000E+00  .000E+00  .000E+00  .000E+00  .000E+00  .000E+00  .000E+00  .000E+00
  .000E+00  .000E+00  .000E+00  .000E+00
  .554E+01  .571E+01  .579E+01  .582E+01  .597E+01  .605E+01  .583E+01  .575E+01
  .576E+01  .855E+01  .856E+01  .690E+01  .746E+01  .706E+01  .707E+01  .707E+01
  .720E+01  .728E+01  .749E+01  .698E+01  .588E+01  .834E+01  .846E+01  .930E+01
  .868E+01  .615E+01  .870E+01  .862E+01  .864E+01  .854E+01  .854E+01  .924E+01
  .611E+01  .844E+01  .140E+02  .844E+01  .847E+01  .178E+02  .179E+02  .141E+02
  .152E+02  .173E+02  .146E+02  .101E+02  .102E+02  .115E+02  .135E+02  .167E+02
  .164E+02  .113E+02  .180E+02  .136E+02  .832E+01  .210E+02  .363E+02  .351E+02
  .295E+02  .832E+01  .235E+02  .832E+01  .832E+01  .791E+01  .223E+02  .133E+02
  .239E+02  .203E+02  .105E+02  .106E+02  .106E+02  .917E+01  .133E+02  .133E+02
  .758E+01  .832E+01  .832E+01  .832E+01  .000E+00  .000E+00  .000E+00  .000E+00
  .000E+00  .000E+00  .000E+00  .000E+00  .000E+00  .000E+00  .000E+00  .000E+00
  .000E+00  .000E+00  .000E+00  .000E+00  .000E+00  .000E+00  .000E+00  .000E+00
  .000E+00  .000E+00  .000E+00  .000E+00
  .553E+01  .598E+01  .580E+01  .581E+01  .598E+01  .598E+01  .584E+01  .576E+01
  .574E+01  .574E+01  .854E+01  .692E+01  .744E+01  .703E+01  .704E+01  .704E+01
  .723E+01  .731E+01  .746E+01  .701E+01  .584E+01  .838E+01  .877E+01  .871E+01
  .864E+01  .619E+01  .865E+01  .867E+01  .858E+01  .860E+01  .860E+01  .851E+01
  .605E+01  .606E+01  .140E+02  .851E+01  .840E+01  .840E+01  .178E+02  .176E+02
  .151E+02  .174E+02  .148E+02  .102E+02  .100E+02  .840E+01  .841E+01  .841E+01
  .841E+01  .841E+01  .841E+01  .841E+01  .824E+01  .824E+01  .825E+01  .825E+01
  .841E+01  .841E+01  .824E+01  .824E+01  .824E+01  .825E+01  .825E+01  .825E+01
  .825E+01  .825E+01  .841E+01  .841E+01  .841E+01  .841E+01  .841E+01  .841E+01
  .841E+01  .841E+01  .825E+01  .825E+01  .000E+00  .000E+00  .000E+00  .000E+00
  .000E+00  .000E+00  .000E+00  .000E+00  .000E+00  .000E+00  .000E+00  .000E+00
  .000E+00  .000E+00  .000E+00  .000E+00  .000E+00  .000E+00  .000E+00  .000E+00
  .000E+00  .000E+00  .000E+00  .000E+00
  .554E+01  .571E+01  .579E+01  .582E+01  .597E+01  .605E+01  .583E+01  .575E+01
  .576E+01  .855E+01  .856E+01  .690E+01  .746E+01  .706E+01  .707E+01  .707E+01
  .720E+01  .728E+01  .749E+01  .698E+01  .588E+01  .834E+01  .846E+01  .930E+01
  .868E+01  .614E+01  .870E+01  .862E+01  .864E+01  .854E+01  .854E+01  .924E+01
  .611E+01  .844E+01  .140E+02  .843E+01  .846E+01  .178E+02  .179E+02  .141E+02
  .152E+02  .173E+02  .146E+02  .101E+02  .102E+02  .115E+02  .135E+02  .167E+02
  .164E+02  .113E+02  .180E+02  .136E+02  .832E+01  .209E+02  .363E+02  .351E+02
  .295E+02  .831E+01  .235E+02  .831E+01  .831E+01  .789E+01  .223E+02  .133E+02
  .239E+02  .203E+02  .105E+02  .106E+02  .106E+02  .916E+01  .133E+02  .133E+02
  .830E+01  .830E+01  .830E+01  .829E+01  .000E+00  .000E+00  .000E+00  .000E+00
  .000E+00  .000E+00  .000E+00  .000E+00  .000E+00  .000E+00  .000E+00  .000E+00
  .000E+00  .000E+00  .000E+00  .000E+00  .000E+00  .000E+00  .000E+00  .000E+00
  .000E+00  .000E+00  .000E+00  .000E+00
Damping =  .05. Data of Sd,Sv,Sa,Pssv,ttSd,ttSv,ttSa :
  .621E-03  .754E-03  .978E-03  .106E-02  .119E-02  .144E-02  .205E-02  .229E-02
  .238E-02  .211E-02  .238E-02  .323E-02  .369E-02  .413E-02  .474E-02  .524E-02
