Response and Fourier amplitude spectra (76 periods,  .04 -  5.0 sec)   for      
Corrected accelerogram   24703-H0114-01253.09       Chan  1:  90 Deg     from   
Uncorrected Accelerogram Data             Processed: 09/14/01, CDMG  output     
Earthquake of Sun Sep  9, 2001  16:59 PDT             (Avol1 v3.3  12/99 CSMIP) 
CSMIP Preliminary Processing            (Origin:  To be determined)             
24703-H0114-01253.09                 Start time:  9/09/01, 23:59:14.2 GMT       
Station No. 24703   34.036N, 118.378W    SSA-16  s/n  114  (3 Channels)         
Los Angeles - La Cienega Geotech Array                                          
Chan  1:  90 Deg  (Sta Chn:  7)     Location: 330-foot Depth                    
Earthquake of Sun Sep  9, 2001  16:59 PDT    Sun Sep  9, 2001  16:59 PDT        
Hypocenter:  To be determined.               ML:  To be determined.
Instr Period =  .0200 sec,  Damping =  .700,  Sensitivity = 1.25  v/g
                        Record length = 40.000 sec.
                                     Uncor Max  =  -.108 g, at   7.245 sec.
RMS accel of (uncor) record  =        .
Accelerogram bandpass filtered with 3 dB pts at   .30 and 40.00 cyc/sec
                 instrument- and baseline-corrected





Earthquake of Sun Sep  9, 2001  16:59 PDT    Sun Sep  9, 2001  16:59 PDT

24703-H0114-01253.09      Los Angeles - La Cienega Geotech Array    Chan  1:  90
 Deg
24703-H0114-01253.09      Los Angeles - La Cienega Geotech Array    Chan  1:  90
 Deg
Units for spectra are inches and sec, except Sa is in fraction of g.

    1  100    7    3    3  200    1    3    1   16    8  114    024703    4    0
   23   59   14  175  252    9    9 2001   10    2   9010496   41   38   72  360
 8000    0   50    0 5101    1    9   41    1    0   58   17  710    9   10 2001
    0    0    0    0 4000    2    0    0    0    0   72   38    0    0    0 4000
    0 4000   39   76    5    3    0    0    0    0    0    0    0    0    0    2
    2    2    4    1   65   99    1   32   32    0    0    0    0    0    0  128
   -1   -1    0    0
      .020      .700    40.000      .006      .000  1250.000     -.108     7.245
    50.000    76.294    61.035      .000     5.000      .000      .000      .000
     2.500   -18.529      .158     -.079     5.120    30.000      .000      .007
      .022      .014     2.000      .000    34.036   118.378      .000      .000
      .000      .000      .000      .000      .000      .000      .000      .000
   101.519     1.005      .000      .000      .000      .000      .000      .000
     3.300     4.100      .000   980.665      .010    40.000     7.958      .000
      .000    40.000      .000    40.000      .010      .300      .000      .000
     7.240  -106.203     7.260    -3.919     7.200      .196      .000      .300
    40.000      .010      .010      .000      .580      .030      .000      .000
      .333      .060      .170      .075      .014      .001      .000      .000
      .000      .000      .000      .000      .000      .000      .000      .000
      .000      .000      .000      .000
      .000      .020      .050      .100      .200
      .040      .042      .044      .046      .048      .050      .055      .060
      .065      .070      .075      .080      .085      .090      .095      .100
      .110      .120      .130      .140      .150      .160      .170      .180
      .190      .200      .220      .240      .260      .280      .300      .320
      .340      .360      .380      .400      .420      .440      .460      .480
      .500      .550      .600      .650      .700      .750      .800      .850
      .900      .950     1.000     1.100     1.200     1.300     1.400     1.500
     1.600     1.700     1.800     1.900     2.000     2.200     2.400     2.600
     2.800     3.000     3.200     3.400     3.600     3.800     4.000     4.200
     4.400     4.600     4.800     5.000      .000      .000      .000      .000
      .000      .000      .000      .000      .000      .000      .000      .000
      .000      .000      .000      .000      .000      .000      .000      .000
      .000      .000      .000      .000
Fourier amplitude spectra in in/sec.
  .903E+00  .511E+00  .106E+01  .554E+00  .542E+00  .227E+00  .175E+01  .266E+01
  .158E+01  .746E+00  .179E+01  .312E+01  .186E+01  .554E+00  .493E+00  .127E+01
  .148E+01  .237E+01  .326E+01  .125E+01  .475E+01  .508E+01  .194E+01  .188E+01
  .254E+01  .486E+01  .391E+01  .100E+01  .101E+01  .148E+01  .155E+01  .218E+01
  .132E+01  .849E+00  .106E+01  .156E+01  .196E+01  .282E+01  .369E+01  .512E+01
  .297E+01  .378E+01  .363E+01  .293E+01  .210E+01  .154E+01  .113E+01  .733E+00
  .179E+00  .199E+00  .573E+00  .381E+00  .551E+00  .197E+00  .829E+00  .112E+01
  .488E+00  .705E+00  .542E+00  .449E+00  .867E+00  .155E+00  .386E+00  .293E+00
  .978E-02  .127E+00  .131E+00  .830E-01  .488E-01  .101E-01  .243E-01  .332E-01
  .319E-01  .287E-01  .229E-01  .162E-01  .000E+00  .000E+00  .000E+00  .000E+00
  .000E+00  .000E+00  .000E+00  .000E+00  .000E+00  .000E+00  .000E+00  .000E+00
  .000E+00  .000E+00  .000E+00  .000E+00  .000E+00  .000E+00  .000E+00  .000E+00
  .000E+00  .000E+00  .000E+00  .000E+00
Damping =  .00. Data of Sd,Sv,Sa,Pssv,ttSd,ttSv,ttSa :
  .602E-02  .659E-02  .884E-02  .598E-02  .608E-02  .694E-02  .154E-01  .299E-01
  .206E-01  .168E-01  .227E-01  .426E-01  .316E-01  .240E-01  .265E-01  .261E-01
  .362E-01  .623E-01  .745E-01  .785E-01  .136E+00  .133E+00  .828E-01  .885E-01
  .964E-01  .155E+00  .144E+00  .806E-01  .616E-01  .690E-01  .940E-01  .113E+00
  .918E-01  .103E+00  .121E+00  .145E+00  .171E+00  .216E+00  .282E+00  .430E+00
  .343E+00  .384E+00  .350E+00  .316E+00  .271E+00  .216E+00  .180E+00  .167E+00
  .160E+00  .153E+00  .147E+00  .136E+00  .126E+00  .142E+00  .221E+00  .267E+00
  .160E+00  .195E+00  .156E+00  .175E+00  .279E+00  .149E+00  .162E+00  .145E+00
  .120E+00  .113E+00  .112E+00  .110E+00  .109E+00  .107E+00  .105E+00  .104E+00
  .102E+00  .101E+00  .998E-01  .987E-01  .000E+00  .000E+00  .000E+00  .000E+00
  .000E+00  .000E+00  .000E+00  .000E+00  .000E+00  .000E+00  .000E+00  .000E+00
  .000E+00  .000E+00  .000E+00  .000E+00  .000E+00  .000E+00  .000E+00  .000E+00
  .000E+00  .000E+00  .000E+00  .000E+00
  .934E+00  .839E+00  .121E+01  .696E+00  .681E+00  .727E+00  .176E+01  .311E+01
  .198E+01  .133E+01  .190E+01  .334E+01  .235E+01  .147E+01  .147E+01  .137E+01
  .208E+01  .303E+01  .360E+01  .351E+01  .571E+01  .523E+01  .317E+01  .296E+01
  .323E+01  .488E+01  .410E+01  .221E+01  .157E+01  .155E+01  .196E+01  .221E+01
  .177E+01  .189E+01  .212E+01  .249E+01  .286E+01  .314E+01  .382E+01  .566E+01
  .434E+01  .444E+01  .369E+01  .308E+01  .247E+01  .217E+01  .219E+01  .220E+01
  .220E+01  .219E+01  .217E+01  .212E+01  .205E+01  .200E+01  .194E+01  .190E+01
  .186E+01  .182E+01  .179E+01  .177E+01  .174E+01  .170E+01  .166E+01  .163E+01
  .161E+01  .159E+01  .157E+01  .156E+01  .155E+01  .155E+01  .154E+01  .154E+01
  .153E+01  .153E+01  .153E+01  .153E+01  .000E+00  .000E+00  .000E+00  .000E+00
  .000E+00  .000E+00  .000E+00  .000E+00  .000E+00  .000E+00  .000E+00  .000E+00
  .000E+00  .000E+00  .000E+00  .000E+00  .000E+00  .000E+00  .000E+00  .000E+00
  .000E+00  .000E+00  .000E+00  .000E+00
  .385E+00  .382E+00  .467E+00  .289E+00  .270E+00  .284E+00  .519E+00  .849E+00
  .500E+00  .351E+00  .412E+00  .680E+00  .447E+00  .304E+00  .300E+00  .266E+00
  .306E+00  .442E+00  .451E+00  .410E+00  .617E+00  .533E+00  .293E+00  .279E+00
  .273E+00  .397E+00  .304E+00  .143E+00  .932E-01  .900E-01  .107E+00  .113E+00
  .813E-01  .812E-01  .859E-01  .926E-01  .989E-01  .114E+00  .136E+00  .191E+00
  .140E+00  .130E+00  .995E-01  .766E-01  .567E-01  .393E-01  .287E-01  .236E-01
  .202E-01  .173E-01  .151E-01  .115E-01  .898E-02  .859E-02  .115E-01  .121E-01
  .639E-02  .689E-02  .492E-02  .497E-02  .713E-02  .315E-02  .287E-02  .219E-02
  .157E-02  .128E-02  .111E-02  .975E-03  .857E-03  .758E-03  .673E-03  .602E-03
  .541E-03  .488E-03  .443E-03  .404E-03  .000E+00  .000E+00  .000E+00  .000E+00
  .000E+00  .000E+00  .000E+00  .000E+00  .000E+00  .000E+00  .000E+00  .000E+00
  .000E+00  .000E+00  .000E+00  .000E+00  .000E+00  .000E+00  .000E+00  .000E+00
  .000E+00  .000E+00  .000E+00  .000E+00
  .946E+00  .986E+00  .126E+01  .817E+00  .795E+00  .872E+00  .175E+01  .313E+01
  .199E+01  .151E+01  .190E+01  .334E+01  .234E+01  .168E+01  .175E+01  .164E+01
  .207E+01  .326E+01  .360E+01  .352E+01  .569E+01  .524E+01  .306E+01  .309E+01
  .319E+01  .488E+01  .411E+01  .211E+01  .149E+01  .155E+01  .197E+01  .221E+01
  .170E+01  .180E+01  .201E+01  .228E+01  .255E+01  .309E+01  .385E+01  .563E+01
  .431E+01  .439E+01  .367E+01  .306E+01  .244E+01  .181E+01  .141E+01  .123E+01
  .112E+01  .101E+01  .925E+00  .777E+00  .662E+00  .686E+00  .992E+00  .112E+01
  .628E+00  .720E+00  .545E+00  .580E+00  .877E+00  .426E+00  .423E+00  .350E+00
  .270E+00  .236E+00  .219E+00  .204E+00  .190E+00  .177E+00  .165E+00  .155E+00
  .146E+00  .138E+00  .131E+00  .124E+00  .000E+00  .000E+00  .000E+00  .000E+00
  .000E+00  .000E+00  .000E+00  .000E+00  .000E+00  .000E+00  .000E+00  .000E+00
  .000E+00  .000E+00  .000E+00  .000E+00  .000E+00  .000E+00  .000E+00  .000E+00
  .000E+00  .000E+00  .000E+00  .000E+00
  .114E+02  .727E+01  .770E+01  .715E+01  .716E+01  .715E+01  .284E+02  .891E+01
  .742E+01  .769E+01  .135E+02  .101E+02  .777E+01  .729E+01  .729E+01  .729E+01
  .826E+01  .791E+01  .868E+01  .747E+01  .847E+01  .176E+02  .760E+01  .763E+01
  .805E+01  .363E+02  .124E+02  .784E+01  .739E+01  .129E+02  .144E+02  .210E+02
  .740E+01  .741E+01  .742E+01  .765E+01  .769E+01  .839E+01  .108E+02  .190E+02
  .952E+01  .119E+02  .282E+02  .167E+02  .139E+02  .102E+02  .767E+01  .733E+01
  .734E+01  .734E+01  .739E+01  .741E+01  .154E+02  .123E+02  .183E+02  .392E+02
  .109E+02  .376E+02  .382E+02  .144E+02  .318E+02  .794E+01  .201E+02  .195E+02
  .795E+01  .719E+01  .719E+01  .719E+01  .719E+01  .719E+01  .719E+01  .719E+01
  .719E+01  .719E+01  .719E+01  .719E+01  .000E+00  .000E+00  .000E+00  .000E+00
  .000E+00  .000E+00  .000E+00  .000E+00  .000E+00  .000E+00  .000E+00  .000E+00
  .000E+00  .000E+00  .000E+00  .000E+00  .000E+00  .000E+00  .000E+00  .000E+00
  .000E+00  .000E+00  .000E+00  .000E+00
  .114E+02  .726E+01  .846E+01  .883E+01  .717E+01  .717E+01  .284E+02  .893E+01
  .747E+01  .771E+01  .135E+02  .101E+02  .779E+01  .731E+01  .779E+01  .727E+01
  .823E+01  .788E+01  .858E+01  .743E+01  .873E+01  .174E+02  .756E+01  .767E+01
  .810E+01  .363E+02  .125E+02  .779E+01  .734E+01  .734E+01  .145E+02  .211E+02
  .734E+01  .734E+01  .734E+01  .777E+01  .779E+01  .781E+01  .109E+02  .189E+02
  .964E+01  .118E+02  .799E+01  .162E+02  .112E+02  .725E+01  .725E+01  .725E+01
  .725E+01  .725E+01  .725E+01  .725E+01  .725E+01  .725E+01  .725E+01  .725E+01
  .725E+01  .725E+01  .725E+01  .725E+01  .725E+01  .725E+01  .725E+01  .725E+01
  .725E+01  .725E+01  .725E+01  .725E+01  .725E+01  .725E+01  .725E+01  .725E+01
  .725E+01  .725E+01  .725E+01  .725E+01  .000E+00  .000E+00  .000E+00  .000E+00
  .000E+00  .000E+00  .000E+00  .000E+00  .000E+00  .000E+00  .000E+00  .000E+00
  .000E+00  .000E+00  .000E+00  .000E+00  .000E+00  .000E+00  .000E+00  .000E+00
  .000E+00  .000E+00  .000E+00  .000E+00
  .114E+02  .727E+01  .770E+01  .715E+01  .716E+01  .715E+01  .284E+02  .891E+01
  .742E+01  .769E+01  .135E+02  .101E+02  .777E+01  .729E+01  .729E+01  .729E+01
  .826E+01  .791E+01  .868E+01  .747E+01  .847E+01  .176E+02  .760E+01  .763E+01
  .805E+01  .363E+02  .124E+02  .784E+01  .739E+01  .129E+02  .144E+02  .210E+02
  .740E+01  .741E+01  .742E+01  .765E+01  .769E+01  .839E+01  .108E+02  .190E+02
  .952E+01  .119E+02  .282E+02  .167E+02  .139E+02  .102E+02  .767E+01  .733E+01
  .734E+01  .734E+01  .739E+01  .741E+01  .154E+02  .123E+02  .183E+02  .392E+02
  .109E+02  .376E+02  .382E+02  .144E+02  .318E+02  .794E+01  .201E+02  .195E+02
  .795E+01  .719E+01  .719E+01  .719E+01  .719E+01  .719E+01  .719E+01  .719E+01
  .719E+01  .719E+01  .719E+01  .719E+01  .000E+00  .000E+00  .000E+00  .000E+00
  .000E+00  .000E+00  .000E+00  .000E+00  .000E+00  .000E+00  .000E+00  .000E+00
  .000E+00  .000E+00  .000E+00  .000E+00  .000E+00  .000E+00  .000E+00  .000E+00
  .000E+00  .000E+00  .000E+00  .000E+00
Damping =  .02. Data of Sd,Sv,Sa,Pssv,ttSd,ttSv,ttSa :
  .395E-02  .465E-02  .496E-02  .551E-02  .576E-02  .635E-02  .110E-01  .154E-01
  .146E-01  .148E-01  .175E-01  .209E-01  .201E-01  .213E-01  .239E-01  .245E-01
  .279E-01  .403E-01  .514E-01  .625E-01  .823E-01  .847E-01  .709E-01  .714E-01
  .710E-01  .968E-01  .973E-01  .679E-01  .612E-01  .637E-01  .655E-01  .751E-01
  .871E-01  .984E-01  .113E+00  .129E+00  .151E+00  .180E+00  .213E+00  .245E+00
  .271E+00  .294E+00  .283E+00  .242E+00  .219E+00  .182E+00  .168E+00  .162E+00
  .156E+00  .149E+00  .142E+00  .132E+00  .120E+00  .121E+00  .133E+00  .146E+00
  .131E+00  .130E+00  .139E+00  .144E+00  .169E+00  .145E+00  .138E+00  .129E+00
  .119E+00  .111E+00  .110E+00  .109E+00  .107E+00  .106E+00  .104E+00  .103E+00
  .102E+00  .101E+00  .994E-01  .984E-01  .000E+00  .000E+00  .000E+00  .000E+00
  .000E+00  .000E+00  .000E+00  .000E+00  .000E+00  .000E+00  .000E+00  .000E+00
  .000E+00  .000E+00  .000E+00  .000E+00  .000E+00  .000E+00  .000E+00  .000E+00
  .000E+00  .000E+00  .000E+00  .000E+00
  .455E+00  .586E+00  .618E+00  .620E+00  .612E+00  .657E+00  .109E+01  .156E+01
  .135E+01  .114E+01  .127E+01  .150E+01  .136E+01  .122E+01  .127E+01  .130E+01
  .132E+01  .194E+01  .233E+01  .283E+01  .324E+01  .329E+01  .270E+01  .246E+01
  .235E+01  .317E+01  .279E+01  .193E+01  .156E+01  .152E+01  .147E+01  .155E+01
  .172E+01  .186E+01  .205E+01  .222E+01  .248E+01  .274E+01  .278E+01  .314E+01
  .353E+01  .351E+01  .335E+01  .263E+01  .215E+01  .211E+01  .214E+01  .216E+01
  .216E+01  .215E+01  .214E+01  .209E+01  .204E+01  .198E+01  .194E+01  .189E+01
  .185E+01  .182E+01  .179E+01  .177E+01  .174E+01  .170E+01  .167E+01  .164E+01
  .161E+01  .159E+01  .158E+01  .157E+01  .156E+01  .155E+01  .154E+01  .154E+01
  .154E+01  .153E+01  .153E+01  .153E+01  .000E+00  .000E+00  .000E+00  .000E+00
  .000E+00  .000E+00  .000E+00  .000E+00  .000E+00  .000E+00  .000E+00  .000E+00
  .000E+00  .000E+00  .000E+00  .000E+00  .000E+00  .000E+00  .000E+00  .000E+00
  .000E+00  .000E+00  .000E+00  .000E+00
  .252E+00  .269E+00  .263E+00  .267E+00  .255E+00  .260E+00  .373E+00  .440E+00
  .353E+00  .310E+00  .320E+00  .332E+00  .285E+00  .268E+00  .271E+00  .253E+00
  .236E+00  .287E+00  .312E+00  .324E+00  .374E+00  .339E+00  .251E+00  .225E+00
  .201E+00  .248E+00  .206E+00  .121E+00  .929E-01  .829E-01  .744E-01  .752E-01
  .772E-01  .778E-01  .805E-01  .823E-01  .873E-01  .950E-01  .103E+00  .109E+00
  .111E+00  .994E-01  .806E-01  .587E-01  .458E-01  .332E-01  .268E-01  .229E-01
  .197E-01  .170E-01  .145E-01  .111E-01  .852E-02  .732E-02  .695E-02  .666E-02
  .523E-02  .464E-02  .440E-02  .409E-02  .432E-02  .309E-02  .249E-02  .199E-02
  .159E-02  .129E-02  .113E-02  .994E-03  .878E-03  .781E-03  .698E-03  .627E-03
  .566E-03  .514E-03  .469E-03  .430E-03  .000E+00  .000E+00  .000E+00  .000E+00
  .000E+00  .000E+00  .000E+00  .000E+00  .000E+00  .000E+00  .000E+00  .000E+00
  .000E+00  .000E+00  .000E+00  .000E+00  .000E+00  .000E+00  .000E+00  .000E+00
  .000E+00  .000E+00  .000E+00  .000E+00
  .620E+00  .696E+00  .708E+00  .752E+00  .753E+00  .798E+00  .126E+01  .162E+01
  .141E+01  .133E+01  .146E+01  .164E+01  .149E+01  .148E+01  .158E+01  .154E+01
  .159E+01  .211E+01  .248E+01  .281E+01  .345E+01  .333E+01  .262E+01  .249E+01
  .235E+01  .304E+01  .278E+01  .178E+01  .148E+01  .143E+01  .137E+01  .147E+01
  .161E+01  .172E+01  .188E+01  .202E+01  .225E+01  .257E+01  .291E+01  .320E+01
  .341E+01  .336E+01  .297E+01  .234E+01  .197E+01  .153E+01  .132E+01  .120E+01
  .109E+01  .985E+00  .891E+00  .751E+00  .626E+00  .584E+00  .597E+00  .613E+00
  .513E+00  .481E+00  .483E+00  .475E+00  .531E+00  .413E+00  .362E+00  .312E+00
  .268E+00  .232E+00  .216E+00  .201E+00  .187E+00  .175E+00  .164E+00  .154E+00
  .145E+00  .137E+00  .130E+00  .124E+00  .000E+00  .000E+00  .000E+00  .000E+00
  .000E+00  .000E+00  .000E+00  .000E+00  .000E+00  .000E+00  .000E+00  .000E+00
  .000E+00  .000E+00  .000E+00  .000E+00  .000E+00  .000E+00  .000E+00  .000E+00
  .000E+00  .000E+00  .000E+00  .000E+00
  .724E+01  .727E+01  .715E+01  .715E+01  .716E+01  .715E+01  .734E+01  .738E+01
  .742E+01  .720E+01  .721E+01  .791E+01  .722E+01  .729E+01  .729E+01  .729E+01
  .730E+01  .791E+01  .731E+01  .740E+01  .794E+01  .805E+01  .735E+01  .736E+01
  .736E+01  .808E+01  .801E+01  .784E+01  .738E+01  .739E+01  .739E+01  .739E+01
  .740E+01  .741E+01  .742E+01  .744E+01  .769E+01  .772E+01  .820E+01  .800E+01
  .802E+01  .808E+01  .813E+01  .790E+01  .793E+01  .765E+01  .767E+01  .733E+01
  .733E+01  .734E+01  .734E+01  .740E+01  .741E+01  .891E+01  .147E+02  .144E+02
  .100E+02  .793E+01  .793E+01  .793E+01  .209E+02  .794E+01  .794E+01  .794E+01
  .795E+01  .719E+01  .719E+01  .719E+01  .719E+01  .719E+01  .719E+01  .719E+01
  .719E+01  .719E+01  .719E+01  .719E+01  .000E+00  .000E+00  .000E+00  .000E+00
  .000E+00  .000E+00  .000E+00  .000E+00  .000E+00  .000E+00  .000E+00  .000E+00
  .000E+00  .000E+00  .000E+00  .000E+00  .000E+00  .000E+00  .000E+00  .000E+00
  .000E+00  .000E+00  .000E+00  .000E+00
  .725E+01  .714E+01  .714E+01  .714E+01  .714E+01  .717E+01  .734E+01  .736E+01
  .740E+01  .719E+01  .719E+01  .789E+01  .759E+01  .731E+01  .727E+01  .727E+01
  .779E+01  .788E+01  .742E+01  .743E+01  .790E+01  .809E+01  .739E+01  .740E+01
  .810E+01  .803E+01  .796E+01  .778E+01  .734E+01  .734E+01  .734E+01  .734E+01
  .734E+01  .734E+01  .734E+01  .734E+01  .779E+01  .781E+01  .808E+01  .836E+01
  .816E+01  .797E+01  .798E+01  .772E+01  .772E+01  .725E+01  .725E+01  .725E+01
  .725E+01  .725E+01  .725E+01  .725E+01  .725E+01  .725E+01  .725E+01  .725E+01
  .725E+01  .725E+01  .725E+01  .725E+01  .725E+01  .725E+01  .725E+01  .725E+01
  .725E+01  .725E+01  .725E+01  .725E+01  .725E+01  .725E+01  .725E+01  .725E+01
  .725E+01  .725E+01  .725E+01  .725E+01  .000E+00  .000E+00  .000E+00  .000E+00
  .000E+00  .000E+00  .000E+00  .000E+00  .000E+00  .000E+00  .000E+00  .000E+00
  .000E+00  .000E+00  .000E+00  .000E+00  .000E+00  .000E+00  .000E+00  .000E+00
  .000E+00  .000E+00  .000E+00  .000E+00
  .724E+01  .727E+01  .715E+01  .715E+01  .716E+01  .715E+01  .727E+01  .738E+01
  .742E+01  .720E+01  .721E+01  .791E+01  .722E+01  .729E+01  .729E+01  .729E+01
  .730E+01  .791E+01  .731E+01  .740E+01  .794E+01  .805E+01  .735E+01  .735E+01
  .736E+01  .807E+01  .801E+01  .773E+01  .738E+01  .738E+01  .739E+01  .739E+01
  .740E+01  .741E+01  .742E+01  .743E+01  .769E+01  .771E+01  .820E+01  .800E+01
  .802E+01  .808E+01  .813E+01  .790E+01  .792E+01  .764E+01  .766E+01  .732E+01
  .733E+01  .733E+01  .733E+01  .740E+01  .740E+01  .890E+01  .147E+02  .144E+02
  .100E+02  .791E+01  .792E+01  .792E+01  .209E+02  .793E+01  .793E+01  .793E+01
  .793E+01  .718E+01  .718E+01  .718E+01  .718E+01  .718E+01  .718E+01  .718E+01
  .718E+01  .717E+01  .717E+01  .717E+01  .000E+00  .000E+00  .000E+00  .000E+00
  .000E+00  .000E+00  .000E+00  .000E+00  .000E+00  .000E+00  .000E+00  .000E+00
  .000E+00  .000E+00  .000E+00  .000E+00  .000E+00  .000E+00  .000E+00  .000E+00
  .000E+00  .000E+00  .000E+00  .000E+00
Damping =  .05. Data of Sd,Sv,Sa,Pssv,ttSd,ttSv,ttSa :
  .305E-02  .364E-02  .405E-02  .466E-02  .511E-02  .564E-02  .858E-02  .117E-01
  .113E-01  .126E-01  .147E-01  .163E-01  .167E-01  .176E-01  .206E-01  .221E-01
