Response and Fourier amplitude spectra (76 periods,  .04 -  5.0 sec)   for      
Corrected accelerogram   24703-H0127-01253.09       Chan  1:  90 Deg     from   
Uncorrected Accelerogram Data             Processed: 09/14/01, CDMG  output     
Earthquake of Sun Sep  9, 2001  16:59 PDT             (Avol1 v3.3  12/99 CSMIP) 
CSMIP Preliminary Processing            (Origin:  To be determined)             
24703-H0127-01253.09                 Start time:  9/09/01, 23:59:14.2 GMT       
Station No. 24703   34.036N, 118.378W    SSA-16  s/n  127  (3 Channels)         
Los Angeles - La Cienega Geotech Array                                          
Chan  1:  90 Deg  (Sta Chn: 10)     Location: 827-foot Depth                    
Earthquake of Sun Sep  9, 2001  16:59 PDT    Sun Sep  9, 2001  16:59 PDT        
Hypocenter:  To be determined.               ML:  To be determined.
Instr Period =  .0200 sec,  Damping =  .700,  Sensitivity = 1.25  v/g
                        Record length = 40.000 sec.
                                     Uncor Max  =  -.164 g, at   6.970 sec.
RMS accel of (uncor) record  =        .
Accelerogram bandpass filtered with 3 dB pts at   .30 and 40.00 cyc/sec
                 instrument- and baseline-corrected





Earthquake of Sun Sep  9, 2001  16:59 PDT    Sun Sep  9, 2001  16:59 PDT

24703-H0127-01253.09      Los Angeles - La Cienega Geotech Array    Chan  1:  90
 Deg
24703-H0127-01253.09      Los Angeles - La Cienega Geotech Array    Chan  1:  90
 Deg
Units for spectra are inches and sec, except Sa is in fraction of g.

    1  100   10    3    3  200    1    3    1   16    8  127    024703    4    0
   23   59   14  175  252    9    9 2001   10    2   9010496   41   38   72  360
 8000    0   50    0 5101    1    9   41    1    0   52   29  560    9   10 2001
    0    0    0    0 4000    2    0    0    0    0   72   38    0    0    0 4000
    0 4000   39   76    5    3    0    0    0    0    0    0    0    0    0    2
    2    2    4    1   65   99    1   32   32    0    0   80    0    0    0  128
   -1   -1    0    0
      .020      .700    40.000      .007      .000  1250.000     -.164     6.970
    50.000    76.294    61.035      .000     5.000      .000      .000      .000
     2.500  -167.742      .415      .057     5.120    30.000      .000     -.013
      .007      .020     2.000      .000    34.036   118.378      .000      .000
      .000      .000      .000      .000      .000      .000      .000      .000
   121.641    -1.009      .000      .000      .000      .000      .000      .000
     3.300     4.100      .000   980.665      .010    40.000     7.958      .000
      .000    40.000      .000    40.000      .010      .300      .000      .000
     6.960  -157.288     6.980    -5.017     6.940      .207     -.001      .300
    40.000      .010      .010      .000      .190      .031      .000      .000
      .455      .095      .193      .073      .021      .001      .000      .000
      .000      .000      .000      .000      .000      .000      .000      .000
      .000      .000      .000      .000
      .000      .020      .050      .100      .200
      .040      .042      .044      .046      .048      .050      .055      .060
      .065      .070      .075      .080      .085      .090      .095      .100
      .110      .120      .130      .140      .150      .160      .170      .180
      .190      .200      .220      .240      .260      .280      .300      .320
      .340      .360      .380      .400      .420      .440      .460      .480
      .500      .550      .600      .650      .700      .750      .800      .850
      .900      .950     1.000     1.100     1.200     1.300     1.400     1.500
     1.600     1.700     1.800     1.900     2.000     2.200     2.400     2.600
     2.800     3.000     3.200     3.400     3.600     3.800     4.000     4.200
     4.400     4.600     4.800     5.000      .000      .000      .000      .000
      .000      .000      .000      .000      .000      .000      .000      .000
      .000      .000      .000      .000      .000      .000      .000      .000
      .000      .000      .000      .000
Fourier amplitude spectra in in/sec.
  .927E+00  .690E+00  .981E+00  .626E+00  .310E+00  .607E+00  .209E+01  .189E+01
  .144E+01  .183E+01  .101E+01  .328E+01  .172E+01  .249E+01  .300E+01  .366E+01
  .233E+01  .456E+01  .429E+01  .491E+01  .741E+01  .296E+01  .340E+01  .223E+01
  .290E+01  .494E+01  .457E+01  .254E+01  .169E+01  .158E+01  .145E+01  .193E+01
  .132E+01  .328E+01  .250E+01  .240E+01  .154E+01  .146E+01  .119E+01  .345E+01
  .282E+01  .427E+01  .268E+01  .121E+01  .697E+00  .696E+00  .410E+00  .128E+01
  .263E+01  .201E+01  .190E+01  .901E+00  .148E+01  .732E+00  .750E+00  .316E+00
  .330E+00  .212E+00  .238E+00  .267E+00  .381E+00  .123E+00  .228E+00  .194E+00
  .819E-02  .953E-01  .101E+00  .622E-01  .339E-01  .895E-02  .228E-01  .350E-01
  .313E-01  .244E-01  .211E-01  .182E-01  .000E+00  .000E+00  .000E+00  .000E+00
  .000E+00  .000E+00  .000E+00  .000E+00  .000E+00  .000E+00  .000E+00  .000E+00
  .000E+00  .000E+00  .000E+00  .000E+00  .000E+00  .000E+00  .000E+00  .000E+00
  .000E+00  .000E+00  .000E+00  .000E+00
Damping =  .00. Data of Sd,Sv,Sa,Pssv,ttSd,ttSv,ttSa :
  .641E-02  .859E-02  .924E-02  .740E-02  .695E-02  .871E-02  .189E-01  .224E-01
  .170E-01  .208E-01  .208E-01  .463E-01  .355E-01  .468E-01  .546E-01  .657E-01
  .552E-01  .954E-01  .102E+00  .138E+00  .181E+00  .112E+00  .111E+00  .100E+00
  .918E-01  .159E+00  .160E+00  .103E+00  .708E-01  .869E-01  .708E-01  .107E+00
  .120E+00  .199E+00  .187E+00  .172E+00  .154E+00  .168E+00  .178E+00  .294E+00
  .288E+00  .394E+00  .303E+00  .187E+00  .182E+00  .175E+00  .187E+00  .239E+00
  .382E+00  .330E+00  .304E+00  .274E+00  .292E+00  .187E+00  .171E+00  .147E+00
  .136E+00  .124E+00  .110E+00  .953E-01  .122E+00  .972E-01  .991E-01  .101E+00
  .102E+00  .103E+00  .103E+00  .102E+00  .100E+00  .988E-01  .974E-01  .961E-01
  .951E-01  .942E-01  .935E-01  .929E-01  .000E+00  .000E+00  .000E+00  .000E+00
  .000E+00  .000E+00  .000E+00  .000E+00  .000E+00  .000E+00  .000E+00  .000E+00
  .000E+00  .000E+00  .000E+00  .000E+00  .000E+00  .000E+00  .000E+00  .000E+00
  .000E+00  .000E+00  .000E+00  .000E+00
  .930E+00  .118E+01  .125E+01  .818E+00  .641E+00  .860E+00  .212E+01  .229E+01
  .162E+01  .185E+01  .160E+01  .355E+01  .258E+01  .296E+01  .357E+01  .416E+01
  .295E+01  .496E+01  .477E+01  .609E+01  .759E+01  .441E+01  .415E+01  .362E+01
  .307E+01  .496E+01  .454E+01  .275E+01  .190E+01  .194E+01  .148E+01  .208E+01
  .238E+01  .343E+01  .306E+01  .272E+01  .252E+01  .256E+01  .249E+01  .382E+01
  .356E+01  .450E+01  .314E+01  .244E+01  .248E+01  .248E+01  .249E+01  .250E+01
  .267E+01  .252E+01  .251E+01  .248E+01  .242E+01  .236E+01  .232E+01  .228E+01
  .224E+01  .221E+01  .219E+01  .216E+01  .214E+01  .210E+01  .207E+01  .204E+01
  .202E+01  .201E+01  .199E+01  .198E+01  .197E+01  .197E+01  .196E+01  .196E+01
  .195E+01  .195E+01  .195E+01  .195E+01  .000E+00  .000E+00  .000E+00  .000E+00
  .000E+00  .000E+00  .000E+00  .000E+00  .000E+00  .000E+00  .000E+00  .000E+00
  .000E+00  .000E+00  .000E+00  .000E+00  .000E+00  .000E+00  .000E+00  .000E+00
  .000E+00  .000E+00  .000E+00  .000E+00
  .410E+00  .498E+00  .488E+00  .358E+00  .308E+00  .356E+00  .639E+00  .635E+00
  .413E+00  .434E+00  .379E+00  .739E+00  .503E+00  .591E+00  .618E+00  .672E+00
  .467E+00  .678E+00  .616E+00  .719E+00  .823E+00  .447E+00  .394E+00  .317E+00
  .260E+00  .405E+00  .338E+00  .183E+00  .107E+00  .113E+00  .805E-01  .106E+00
  .107E+00  .157E+00  .132E+00  .110E+00  .894E-01  .888E-01  .861E-01  .130E+00
  .118E+00  .133E+00  .861E-01  .454E-01  .379E-01  .317E-01  .299E-01  .338E-01
  .483E-01  .374E-01  .311E-01  .232E-01  .208E-01  .113E-01  .894E-02  .668E-02
  .545E-02  .439E-02  .347E-02  .270E-02  .312E-02  .205E-02  .176E-02  .153E-02
  .134E-02  .117E-02  .103E-02  .900E-03  .791E-03  .700E-03  .622E-03  .557E-03
  .502E-03  .455E-03  .415E-03  .380E-03  .000E+00  .000E+00  .000E+00  .000E+00
  .000E+00  .000E+00  .000E+00  .000E+00  .000E+00  .000E+00  .000E+00  .000E+00
  .000E+00  .000E+00  .000E+00  .000E+00  .000E+00  .000E+00  .000E+00  .000E+00
  .000E+00  .000E+00  .000E+00  .000E+00
  .101E+01  .128E+01  .132E+01  .101E+01  .909E+00  .109E+01  .216E+01  .234E+01
  .165E+01  .187E+01  .175E+01  .363E+01  .263E+01  .327E+01  .361E+01  .413E+01
  .316E+01  .500E+01  .492E+01  .618E+01  .759E+01  .439E+01  .411E+01  .351E+01
  .304E+01  .498E+01  .457E+01  .270E+01  .171E+01  .195E+01  .148E+01  .209E+01
  .222E+01  .347E+01  .309E+01  .270E+01  .231E+01  .240E+01  .243E+01  .385E+01
  .362E+01  .451E+01  .317E+01  .181E+01  .163E+01  .146E+01  .147E+01  .177E+01
  .267E+01  .218E+01  .191E+01  .157E+01  .153E+01  .906E+00  .769E+00  .616E+00
  .535E+00  .459E+00  .384E+00  .315E+00  .383E+00  .278E+00  .259E+00  .244E+00
  .230E+00  .216E+00  .202E+00  .188E+00  .175E+00  .163E+00  .153E+00  .144E+00
  .136E+00  .129E+00  .122E+00  .117E+00  .000E+00  .000E+00  .000E+00  .000E+00
  .000E+00  .000E+00  .000E+00  .000E+00  .000E+00  .000E+00  .000E+00  .000E+00
  .000E+00  .000E+00  .000E+00  .000E+00  .000E+00  .000E+00  .000E+00  .000E+00
  .000E+00  .000E+00  .000E+00  .000E+00
  .748E+01  .700E+01  .795E+01  .695E+01  .695E+01  .696E+01  .119E+02  .855E+01
  .728E+01  .243E+02  .694E+01  .819E+01  .700E+01  .701E+01  .754E+01  .862E+01
  .703E+01  .841E+01  .737E+01  .796E+01  .106E+02  .761E+01  .826E+01  .708E+01
  .115E+02  .145E+02  .381E+02  .999E+01  .234E+02  .994E+01  .296E+02  .253E+02
  .817E+01  .178E+02  .847E+01  .121E+02  .759E+01  .763E+01  .790E+01  .171E+02
  .901E+01  .119E+02  .171E+02  .734E+01  .737E+01  .739E+01  .875E+01  .841E+01
  .337E+02  .142E+02  .306E+02  .820E+01  .166E+02  .109E+02  .259E+02  .792E+01
  .793E+01  .794E+01  .794E+01  .795E+01  .388E+02  .693E+01  .693E+01  .693E+01
  .693E+01  .693E+01  .693E+01  .693E+01  .693E+01  .693E+01  .693E+01  .693E+01
  .693E+01  .693E+01  .693E+01  .693E+01  .000E+00  .000E+00  .000E+00  .000E+00
  .000E+00  .000E+00  .000E+00  .000E+00  .000E+00  .000E+00  .000E+00  .000E+00
  .000E+00  .000E+00  .000E+00  .000E+00  .000E+00  .000E+00  .000E+00  .000E+00
  .000E+00  .000E+00  .000E+00  .000E+00
  .951E+01  .712E+01  .752E+01  .739E+01  .687E+01  .687E+01  .119E+02  .853E+01
  .726E+01  .242E+02  .744E+01  .104E+02  .719E+01  .703E+01  .757E+01  .864E+01
  .705E+01  .838E+01  .740E+01  .800E+01  .105E+02  .758E+01  .830E+01  .712E+01
  .829E+01  .145E+02  .392E+02  .993E+01  .744E+01  .100E+02  .297E+02  .252E+02
  .809E+01  .177E+02  .971E+01  .122E+02  .749E+01  .751E+01  .754E+01  .172E+02
  .864E+01  .118E+02  .173E+02  .697E+01  .697E+01  .697E+01  .697E+01  .697E+01
  .340E+02  .697E+01  .697E+01  .697E+01  .697E+01  .697E+01  .697E+01  .697E+01
  .697E+01  .697E+01  .697E+01  .697E+01  .697E+01  .697E+01  .697E+01  .697E+01
  .697E+01  .697E+01  .697E+01  .697E+01  .697E+01  .697E+01  .697E+01  .697E+01
  .697E+01  .697E+01  .697E+01  .697E+01  .000E+00  .000E+00  .000E+00  .000E+00
  .000E+00  .000E+00  .000E+00  .000E+00  .000E+00  .000E+00  .000E+00  .000E+00
  .000E+00  .000E+00  .000E+00  .000E+00  .000E+00  .000E+00  .000E+00  .000E+00
  .000E+00  .000E+00  .000E+00  .000E+00
  .748E+01  .700E+01  .795E+01  .695E+01  .695E+01  .696E+01  .119E+02  .855E+01
  .728E+01  .243E+02  .694E+01  .819E+01  .700E+01  .701E+01  .754E+01  .862E+01
  .703E+01  .841E+01  .737E+01  .796E+01  .106E+02  .761E+01  .826E+01  .708E+01
  .115E+02  .145E+02  .381E+02  .999E+01  .234E+02  .994E+01  .296E+02  .253E+02
  .817E+01  .178E+02  .847E+01  .121E+02  .759E+01  .763E+01  .790E+01  .171E+02
  .901E+01  .119E+02  .171E+02  .734E+01  .737E+01  .739E+01  .875E+01  .841E+01
  .337E+02  .142E+02  .306E+02  .820E+01  .166E+02  .109E+02  .259E+02  .792E+01
  .793E+01  .794E+01  .794E+01  .795E+01  .388E+02  .693E+01  .693E+01  .693E+01
  .693E+01  .693E+01  .693E+01  .693E+01  .693E+01  .693E+01  .693E+01  .693E+01
  .693E+01  .693E+01  .693E+01  .693E+01  .000E+00  .000E+00  .000E+00  .000E+00
  .000E+00  .000E+00  .000E+00  .000E+00  .000E+00  .000E+00  .000E+00  .000E+00
  .000E+00  .000E+00  .000E+00  .000E+00  .000E+00  .000E+00  .000E+00  .000E+00
  .000E+00  .000E+00  .000E+00  .000E+00
Damping =  .02. Data of Sd,Sv,Sa,Pssv,ttSd,ttSv,ttSa :
  .481E-02  .655E-02  .620E-02  .578E-02  .617E-02  .728E-02  .128E-01  .137E-01
  .114E-01  .139E-01  .194E-01  .253E-01  .306E-01  .407E-01  .471E-01  .517E-01
  .533E-01  .654E-01  .800E-01  .902E-01  .941E-01  .957E-01  .952E-01  .919E-01
  .857E-01  .857E-01  .903E-01  .750E-01  .652E-01  .626E-01  .643E-01  .716E-01
  .903E-01  .124E+00  .138E+00  .119E+00  .130E+00  .140E+00  .150E+00  .168E+00
  .218E+00  .270E+00  .220E+00  .172E+00  .167E+00  .162E+00  .157E+00  .208E+00
  .231E+00  .245E+00  .243E+00  .250E+00  .218E+00  .170E+00  .144E+00  .138E+00
  .130E+00  .119E+00  .107E+00  .940E-01  .928E-01  .947E-01  .970E-01  .988E-01
  .100E+00  .101E+00  .101E+00  .100E+00  .990E-01  .978E-01  .965E-01  .955E-01
  .945E-01  .937E-01  .931E-01  .925E-01  .000E+00  .000E+00  .000E+00  .000E+00
  .000E+00  .000E+00  .000E+00  .000E+00  .000E+00  .000E+00  .000E+00  .000E+00
  .000E+00  .000E+00  .000E+00  .000E+00  .000E+00  .000E+00  .000E+00  .000E+00
  .000E+00  .000E+00  .000E+00  .000E+00
  .601E+00  .737E+00  .654E+00  .602E+00  .638E+00  .746E+00  .115E+01  .115E+01
  .108E+01  .107E+01  .121E+01  .150E+01  .188E+01  .244E+01  .275E+01  .283E+01
  .277E+01  .317E+01  .372E+01  .409E+01  .385E+01  .382E+01  .364E+01  .327E+01
  .278E+01  .256E+01  .268E+01  .207E+01  .182E+01  .161E+01  .142E+01  .141E+01
  .185E+01  .225E+01  .218E+01  .199E+01  .220E+01  .221E+01  .213E+01  .209E+01
  .265E+01  .317E+01  .241E+01  .238E+01  .243E+01  .244E+01  .246E+01  .247E+01
  .248E+01  .249E+01  .248E+01  .245E+01  .240E+01  .235E+01  .231E+01  .227E+01
  .224E+01  .221E+01  .219E+01  .216E+01  .214E+01  .210E+01  .207E+01  .205E+01
  .203E+01  .201E+01  .200E+01  .199E+01  .198E+01  .197E+01  .197E+01  .196E+01
  .196E+01  .196E+01  .195E+01  .195E+01  .000E+00  .000E+00  .000E+00  .000E+00
  .000E+00  .000E+00  .000E+00  .000E+00  .000E+00  .000E+00  .000E+00  .000E+00
  .000E+00  .000E+00  .000E+00  .000E+00  .000E+00  .000E+00  .000E+00  .000E+00
  .000E+00  .000E+00  .000E+00  .000E+00
  .306E+00  .380E+00  .328E+00  .278E+00  .274E+00  .296E+00  .430E+00  .393E+00
  .278E+00  .291E+00  .352E+00  .403E+00  .433E+00  .513E+00  .533E+00  .528E+00
  .448E+00  .466E+00  .483E+00  .468E+00  .429E+00  .384E+00  .338E+00  .290E+00
  .244E+00  .219E+00  .191E+00  .134E+00  .988E-01  .815E-01  .730E-01  .713E-01
  .800E-01  .976E-01  .975E-01  .760E-01  .752E-01  .740E-01  .729E-01  .743E-01
  .892E-01  .912E-01  .626E-01  .416E-01  .350E-01  .295E-01  .250E-01  .295E-01
  .292E-01  .278E-01  .249E-01  .212E-01  .155E-01  .103E-01  .751E-02  .629E-02
  .519E-02  .423E-02  .339E-02  .268E-02  .239E-02  .206E-02  .178E-02  .155E-02
  .136E-02  .120E-02  .106E-02  .939E-03  .834E-03  .745E-03  .669E-03  .605E-03
  .550E-03  .503E-03  .462E-03  .427E-03  .000E+00  .000E+00  .000E+00  .000E+00
  .000E+00  .000E+00  .000E+00  .000E+00  .000E+00  .000E+00  .000E+00  .000E+00
  .000E+00  .000E+00  .000E+00  .000E+00  .000E+00  .000E+00  .000E+00  .000E+00
  .000E+00  .000E+00  .000E+00  .000E+00
  .756E+00  .980E+00  .886E+00  .789E+00  .808E+00  .915E+00  .146E+01  .144E+01
  .110E+01  .125E+01  .163E+01  .198E+01  .226E+01  .284E+01  .311E+01  .325E+01
  .305E+01  .343E+01  .387E+01  .405E+01  .394E+01  .376E+01  .352E+01  .321E+01
  .283E+01  .269E+01  .258E+01  .196E+01  .158E+01  .140E+01  .135E+01  .140E+01
  .167E+01  .216E+01  .228E+01  .187E+01  .194E+01  .200E+01  .205E+01  .219E+01
  .274E+01  .308E+01  .231E+01  .166E+01  .150E+01  .136E+01  .123E+01  .154E+01
  .161E+01  .162E+01  .153E+01  .143E+01  .114E+01  .824E+00  .646E+00  .579E+00
  .509E+00  .440E+00  .373E+00  .311E+00  .292E+00  .271E+00  .254E+00  .239E+00
  .225E+00  .212E+00  .198E+00  .185E+00  .173E+00  .162E+00  .152E+00  .143E+00
  .135E+00  .128E+00  .122E+00  .116E+00  .000E+00  .000E+00  .000E+00  .000E+00
  .000E+00  .000E+00  .000E+00  .000E+00  .000E+00  .000E+00  .000E+00  .000E+00
  .000E+00  .000E+00  .000E+00  .000E+00  .000E+00  .000E+00  .000E+00  .000E+00
  .000E+00  .000E+00  .000E+00  .000E+00
  .700E+01  .700E+01  .701E+01  .695E+01  .688E+01  .688E+01  .700E+01  .701E+01
  .693E+01  .694E+01  .694E+01  .695E+01  .701E+01  .701E+01  .702E+01  .702E+01
  .703E+01  .703E+01  .704E+01  .705E+01  .713E+01  .706E+01  .707E+01  .708E+01
  .708E+01  .709E+01  .787E+01  .746E+01  .711E+01  .727E+01  .728E+01  .729E+01
  .800E+01  .824E+01  .847E+01  .757E+01  .718E+01  .719E+01  .744E+01  .848E+01
  .851E+01  .835E+01  .842E+01  .734E+01  .737E+01  .739E+01  .838E+01  .842E+01
  .846E+01  .854E+01  .858E+01  .819E+01  .821E+01  .823E+01  .786E+01  .791E+01
  .793E+01  .794E+01  .794E+01  .794E+01  .683E+01  .693E+01  .693E+01  .693E+01
  .693E+01  .693E+01  .693E+01  .693E+01  .693E+01  .693E+01  .693E+01  .693E+01
  .693E+01  .693E+01  .693E+01  .693E+01  .000E+00  .000E+00  .000E+00  .000E+00
  .000E+00  .000E+00  .000E+00  .000E+00  .000E+00  .000E+00  .000E+00  .000E+00
  .000E+00  .000E+00  .000E+00  .000E+00  .000E+00  .000E+00  .000E+00  .000E+00
  .000E+00  .000E+00  .000E+00  .000E+00
  .698E+01  .699E+01  .702E+01  .687E+01  .687E+01  .687E+01  .699E+01  .702E+01
  .726E+01  .728E+01  .692E+01  .693E+01  .703E+01  .703E+01  .705E+01  .704E+01
  .705E+01  .706E+01  .714E+01  .715E+01  .710E+01  .710E+01  .711E+01  .712E+01
  .713E+01  .704E+01  .749E+01  .741E+01  .697E+01  .697E+01  .697E+01  .706E+01
  .809E+01  .852E+01  .855E+01  .749E+01  .749E+01  .751E+01  .754E+01  .809E+01
  .865E+01  .847E+01  .826E+01  .697E+01  .697E+01  .697E+01  .697E+01  .697E+01
  .697E+01  .697E+01  .697E+01  .697E+01  .697E+01  .697E+01  .697E+01  .697E+01
  .697E+01  .697E+01  .697E+01  .697E+01  .697E+01  .697E+01  .697E+01  .697E+01
  .697E+01  .697E+01  .697E+01  .697E+01  .697E+01  .697E+01  .697E+01  .697E+01
  .697E+01  .697E+01  .697E+01  .697E+01  .000E+00  .000E+00  .000E+00  .000E+00
  .000E+00  .000E+00  .000E+00  .000E+00  .000E+00  .000E+00  .000E+00  .000E+00
  .000E+00  .000E+00  .000E+00  .000E+00  .000E+00  .000E+00  .000E+00  .000E+00
  .000E+00  .000E+00  .000E+00  .000E+00
  .700E+01  .700E+01  .700E+01  .695E+01  .688E+01  .688E+01  .700E+01  .701E+01
  .693E+01  .694E+01  .694E+01  .695E+01  .700E+01  .701E+01  .702E+01  .702E+01
  .703E+01  .703E+01  .704E+01  .705E+01  .713E+01  .706E+01  .707E+01  .708E+01
  .708E+01  .709E+01  .787E+01  .746E+01  .711E+01  .727E+01  .728E+01  .729E+01
  .800E+01  .824E+01  .847E+01  .757E+01  .717E+01  .718E+01  .744E+01  .847E+01
  .851E+01  .834E+01  .842E+01  .733E+01  .736E+01  .738E+01  .837E+01  .841E+01
  .845E+01  .853E+01  .857E+01  .819E+01  .821E+01  .822E+01  .786E+01  .790E+01
  .792E+01  .793E+01  .793E+01  .793E+01  .682E+01  .692E+01  .692E+01  .692E+01
  .692E+01  .692E+01  .692E+01  .691E+01  .691E+01  .691E+01  .691E+01  .691E+01
  .691E+01  .691E+01  .691E+01  .691E+01  .000E+00  .000E+00  .000E+00  .000E+00
  .000E+00  .000E+00  .000E+00  .000E+00  .000E+00  .000E+00  .000E+00  .000E+00
  .000E+00  .000E+00  .000E+00  .000E+00  .000E+00  .000E+00  .000E+00  .000E+00
  .000E+00  .000E+00  .000E+00  .000E+00
Damping =  .05. Data of Sd,Sv,Sa,Pssv,ttSd,ttSv,ttSa :
  .409E-02  .502E-02  .514E-02  .479E-02  .554E-02  .634E-02  .103E-01  .115E-01
  .104E-01  .132E-01  .173E-01  .218E-01  .265E-01  .344E-01  .403E-01  .446E-01
