Response and Fourier amplitude spectra (76 periods,  .04 -  5.0 sec)   for      
Corrected accelerogram   24703-H0112-01253.07       Chan  2:  Up         from   
Uncorrected Accelerogram Data             Processed: 09/14/01, CDMG  output     
Earthquake of Sun Sep  9, 2001  16:59 PDT             (Avol1 v3.3  12/99 CSMIP) 
CSMIP Preliminary Processing            (Origin:  To be determined)             
24703-H0112-01253.07                 Start time:  9/09/01, 23:59:14.2 GMT       
Station No. 24703   34.036N, 118.378W    SSA-16  s/n  112  (3 Channels)         
Los Angeles - La Cienega Geotech Array                                          
Chan  2:  Up                        Location: Surface                           
Earthquake of Sun Sep  9, 2001  16:59 PDT    Sun Sep  9, 2001  16:59 PDT        
Hypocenter:  To be determined.               ML:  To be determined.
Instr Period =  .0200 sec,  Damping =  .700,  Sensitivity = 1.25  v/g
                        Record length = 40.000 sec.
                                     Uncor Max  =  -.086 g, at   5.900 sec.
RMS accel of (uncor) record  =        .
Accelerogram bandpass filtered with 3 dB pts at   .30 and 40.00 cyc/sec
                 instrument- and baseline-corrected





Earthquake of Sun Sep  9, 2001  16:59 PDT    Sun Sep  9, 2001  16:59 PDT

24703-H0112-01253.07      Los Angeles - La Cienega Geotech Array    Chan  2:  Up

24703-H0112-01253.07      Los Angeles - La Cienega Geotech Array    Chan  2:  Up

Units for spectra are inches and sec, except Sa is in fraction of g.

    2  100    2    3    3  200    1    3    1   16    8  112    024703    4    0
   23   59   14  175  252    9    9 2001   10    2  50010496   41   38   72  360
 8000    1   50    0 5101    1    7   41    0    0   58   49  730    9    9 2001
    0    0    0    0 4000    2    0    0    0    0   72   38    0    0    0 4000
    0 4000   39   76    5    3    0    0    0    0    0    0    0    0    0    2
    2    2    4    1   65   99    1   32   32    1    0   81    0    0    0  128
   -1   -1    0    0
      .020      .700    40.000      .005      .000  1250.000     -.086     5.900
    50.000    76.294    61.035      .000     5.000      .000      .000      .000
     2.500    -3.074      .111     -.063     5.120    30.000      .000     -.006
     -.001      .005     2.000      .000    34.036   118.378      .000      .000
      .000      .000      .000      .000      .000      .000      .000      .000
    84.020    -1.002      .000      .000      .000      .000      .000      .000
     3.300     4.100      .000   980.665      .010    40.000     7.958      .000
      .000    40.000      .000    40.000      .010      .300      .000      .000
     5.900   -80.659     7.980     1.339     8.170     -.042      .000      .300
    40.000      .010      .010      .000     2.330      .026      .000      .000
      .227      .044      .085      .057      .003      .000      .000      .000
      .000      .000      .000      .000      .000      .000      .000      .000
      .000      .000      .000      .000
      .000      .020      .050      .100      .200
      .040      .042      .044      .046      .048      .050      .055      .060
      .065      .070      .075      .080      .085      .090      .095      .100
      .110      .120      .130      .140      .150      .160      .170      .180
      .190      .200      .220      .240      .260      .280      .300      .320
      .340      .360      .380      .400      .420      .440      .460      .480
      .500      .550      .600      .650      .700      .750      .800      .850
      .900      .950     1.000     1.100     1.200     1.300     1.400     1.500
     1.600     1.700     1.800     1.900     2.000     2.200     2.400     2.600
     2.800     3.000     3.200     3.400     3.600     3.800     4.000     4.200
     4.400     4.600     4.800     5.000      .000      .000      .000      .000
      .000      .000      .000      .000      .000      .000      .000      .000
      .000      .000      .000      .000      .000      .000      .000      .000
      .000      .000      .000      .000
Fourier amplitude spectra in in/sec.
  .937E+00  .806E+00  .407E+00  .148E+01  .165E+00  .599E+00  .144E+01  .275E+01
  .671E+00  .145E+01  .233E+01  .139E+01  .196E+01  .186E+01  .120E+01  .149E+01
  .195E+01  .138E+01  .122E+01  .368E+01  .311E+01  .133E+01  .355E+01  .215E+01
  .297E+01  .127E+01  .630E+00  .539E+00  .950E+00  .354E+01  .259E+01  .272E+01
  .144E+01  .228E+01  .110E+00  .139E+01  .143E+01  .210E+01  .546E+00  .743E+00
  .776E+00  .394E+00  .712E+00  .122E+01  .302E+00  .869E+00  .598E+00  .161E+00
  .743E+00  .202E+00  .285E+00  .441E+00  .391E+00  .861E-01  .345E+00  .219E+00
  .155E+00  .132E+00  .106E+00  .163E+00  .729E-01  .343E-01  .601E-01  .430E-02
  .383E-01  .219E-01  .189E-01  .326E-01  .312E-01  .287E-01  .178E-01  .117E-01
  .122E-01  .122E-01  .109E-01  .886E-02  .000E+00  .000E+00  .000E+00  .000E+00
  .000E+00  .000E+00  .000E+00  .000E+00  .000E+00  .000E+00  .000E+00  .000E+00
  .000E+00  .000E+00  .000E+00  .000E+00  .000E+00  .000E+00  .000E+00  .000E+00
  .000E+00  .000E+00  .000E+00  .000E+00
Damping =  .00. Data of Sd,Sv,Sa,Pssv,ttSd,ttSv,ttSa :
  .650E-02  .780E-02  .779E-02  .132E-01  .734E-02  .635E-02  .162E-01  .301E-01
  .198E-01  .249E-01  .288E-01  .302E-01  .332E-01  .331E-01  .223E-01  .274E-01
  .352E-01  .297E-01  .422E-01  .112E+00  .820E-01  .537E-01  .969E-01  .951E-01
  .921E-01  .728E-01  .593E-01  .390E-01  .602E-01  .161E+00  .127E+00  .157E+00
  .835E-01  .136E+00  .536E-01  .910E-01  .971E-01  .148E+00  .636E-01  .936E-01
  .126E+00  .937E-01  .920E-01  .126E+00  .633E-01  .125E+00  .783E-01  .637E-01
  .107E+00  .744E-01  .516E-01  .836E-01  .777E-01  .404E-01  .772E-01  .536E-01
  .555E-01  .522E-01  .461E-01  .515E-01  .421E-01  .254E-01  .260E-01  .223E-01
  .213E-01  .226E-01  .226E-01  .221E-01  .251E-01  .233E-01  .230E-01  .235E-01
  .241E-01  .244E-01  .244E-01  .243E-01  .000E+00  .000E+00  .000E+00  .000E+00
  .000E+00  .000E+00  .000E+00  .000E+00  .000E+00  .000E+00  .000E+00  .000E+00
  .000E+00  .000E+00  .000E+00  .000E+00  .000E+00  .000E+00  .000E+00  .000E+00
  .000E+00  .000E+00  .000E+00  .000E+00
  .987E+00  .115E+01  .995E+00  .177E+01  .927E+00  .682E+00  .175E+01  .304E+01
  .188E+01  .219E+01  .241E+01  .236E+01  .245E+01  .222E+01  .146E+01  .161E+01
  .198E+01  .153E+01  .202E+01  .495E+01  .340E+01  .200E+01  .358E+01  .335E+01
  .304E+01  .242E+01  .169E+01  .103E+01  .145E+01  .359E+01  .267E+01  .308E+01
  .155E+01  .237E+01  .107E+01  .143E+01  .145E+01  .211E+01  .988E+00  .124E+01
  .157E+01  .106E+01  .989E+00  .122E+01  .712E+00  .112E+01  .674E+00  .671E+00
  .744E+00  .665E+00  .610E+00  .509E+00  .520E+00  .582E+00  .619E+00  .618E+00
  .591E+00  .554E+00  .523E+00  .501E+00  .488E+00  .486E+00  .502E+00  .520E+00
  .531E+00  .536E+00  .538E+00  .536E+00  .534E+00  .531E+00  .529E+00  .526E+00
  .524E+00  .522E+00  .521E+00  .520E+00  .000E+00  .000E+00  .000E+00  .000E+00
  .000E+00  .000E+00  .000E+00  .000E+00  .000E+00  .000E+00  .000E+00  .000E+00
  .000E+00  .000E+00  .000E+00  .000E+00  .000E+00  .000E+00  .000E+00  .000E+00
  .000E+00  .000E+00  .000E+00  .000E+00
  .415E+00  .452E+00  .412E+00  .638E+00  .326E+00  .260E+00  .548E+00  .854E+00
  .479E+00  .520E+00  .524E+00  .482E+00  .470E+00  .418E+00  .253E+00  .281E+00
  .298E+00  .211E+00  .255E+00  .585E+00  .373E+00  .215E+00  .343E+00  .300E+00
  .261E+00  .186E+00  .125E+00  .693E-01  .911E-01  .209E+00  .145E+00  .157E+00
  .739E-01  .107E+00  .379E-01  .582E-01  .563E-01  .783E-01  .307E-01  .416E-01
  .517E-01  .317E-01  .261E-01  .305E-01  .132E-01  .228E-01  .125E-01  .902E-02
  .135E-01  .843E-02  .527E-02  .706E-02  .552E-02  .245E-02  .403E-02  .244E-02
  .222E-02  .185E-02  .146E-02  .146E-02  .108E-02  .536E-03  .462E-03  .337E-03
  .277E-03  .257E-03  .226E-03  .196E-03  .198E-03  .165E-03  .147E-03  .136E-03
  .127E-03  .118E-03  .108E-03  .993E-04  .000E+00  .000E+00  .000E+00  .000E+00
  .000E+00  .000E+00  .000E+00  .000E+00  .000E+00  .000E+00  .000E+00  .000E+00
  .000E+00  .000E+00  .000E+00  .000E+00  .000E+00  .000E+00  .000E+00  .000E+00
  .000E+00  .000E+00  .000E+00  .000E+00
  .102E+01  .117E+01  .111E+01  .180E+01  .961E+00  .799E+00  .185E+01  .315E+01
  .191E+01  .224E+01  .241E+01  .237E+01  .246E+01  .231E+01  .148E+01  .172E+01
  .201E+01  .155E+01  .204E+01  .503E+01  .343E+01  .211E+01  .358E+01  .332E+01
  .304E+01  .229E+01  .169E+01  .102E+01  .146E+01  .360E+01  .266E+01  .308E+01
  .154E+01  .238E+01  .885E+00  .143E+01  .145E+01  .212E+01  .868E+00  .123E+01
  .159E+01  .107E+01  .963E+00  .122E+01  .568E+00  .105E+01  .615E+00  .471E+00
  .744E+00  .492E+00  .324E+00  .477E+00  .407E+00  .195E+00  .346E+00  .225E+00
  .218E+00  .193E+00  .161E+00  .170E+00  .132E+00  .724E-01  .682E-01  .539E-01
  .477E-01  .473E-01  .445E-01  .409E-01  .438E-01  .386E-01  .361E-01  .351E-01
  .344E-01  .333E-01  .320E-01  .305E-01  .000E+00  .000E+00  .000E+00  .000E+00
  .000E+00  .000E+00  .000E+00  .000E+00  .000E+00  .000E+00  .000E+00  .000E+00
  .000E+00  .000E+00  .000E+00  .000E+00  .000E+00  .000E+00  .000E+00  .000E+00
  .000E+00  .000E+00  .000E+00  .000E+00
  .855E+01  .738E+01  .590E+01  .807E+01  .641E+01  .800E+01  .800E+01  .801E+01
  .747E+01  .785E+01  .143E+02  .763E+01  .112E+02  .794E+01  .125E+02  .793E+01
  .114E+02  .186E+02  .111E+02  .859E+01  .161E+02  .804E+01  .305E+02  .915E+01
  .253E+02  .784E+01  .785E+01  .834E+01  .860E+01  .311E+02  .190E+02  .134E+02
  .110E+02  .250E+02  .101E+02  .352E+02  .360E+02  .289E+02  .959E+01  .166E+02
  .134E+02  .179E+02  .179E+02  .399E+02  .157E+02  .189E+02  .311E+02  .172E+02
  .393E+02  .172E+02  .241E+02  .337E+02  .289E+02  .141E+02  .391E+02  .359E+02
  .311E+02  .165E+02  .134E+02  .355E+02  .180E+02  .817E+01  .286E+02  .801E+01
  .801E+01  .862E+01  .862E+01  .227E+02  .180E+02  .940E+01  .940E+01  .816E+01
  .816E+01  .816E+01  .816E+01  .816E+01  .000E+00  .000E+00  .000E+00  .000E+00
  .000E+00  .000E+00  .000E+00  .000E+00  .000E+00  .000E+00  .000E+00  .000E+00
  .000E+00  .000E+00  .000E+00  .000E+00  .000E+00  .000E+00  .000E+00  .000E+00
  .000E+00  .000E+00  .000E+00  .000E+00
  .856E+01  .630E+01  .595E+01  .668E+01  .639E+01  .771E+01  .798E+01  .802E+01
  .746E+01  .783E+01  .143E+02  .761E+01  .113E+02  .796E+01  .125E+02  .795E+01
  .102E+02  .186E+02  .111E+02  .855E+01  .162E+02  .808E+01  .305E+02  .902E+01
  .253E+02  .789E+01  .789E+01  .840E+01  .840E+01  .310E+02  .191E+02  .133E+02
  .111E+02  .247E+02  .797E+01  .351E+02  .361E+02  .288E+02  .948E+01  .164E+02
  .135E+02  .178E+02  .178E+02  .397E+02  .797E+01  .187E+02  .797E+01  .797E+01
  .395E+02  .797E+01  .797E+01  .797E+01  .797E+01  .797E+01  .797E+01  .797E+01
  .797E+01  .797E+01  .797E+01  .797E+01  .797E+01  .797E+01  .797E+01  .797E+01
  .797E+01  .797E+01  .797E+01  .797E+01  .797E+01  .797E+01  .797E+01  .797E+01
  .797E+01  .797E+01  .797E+01  .797E+01  .000E+00  .000E+00  .000E+00  .000E+00
  .000E+00  .000E+00  .000E+00  .000E+00  .000E+00  .000E+00  .000E+00  .000E+00
  .000E+00  .000E+00  .000E+00  .000E+00  .000E+00  .000E+00  .000E+00  .000E+00
  .000E+00  .000E+00  .000E+00  .000E+00
  .855E+01  .738E+01  .590E+01  .807E+01  .641E+01  .800E+01  .800E+01  .801E+01
  .747E+01  .785E+01  .143E+02  .763E+01  .112E+02  .794E+01  .125E+02  .793E+01
  .114E+02  .186E+02  .111E+02  .859E+01  .161E+02  .804E+01  .305E+02  .915E+01
  .253E+02  .784E+01  .785E+01  .834E+01  .860E+01  .311E+02  .190E+02  .134E+02
  .110E+02  .250E+02  .101E+02  .352E+02  .360E+02  .289E+02  .959E+01  .166E+02
  .134E+02  .179E+02  .179E+02  .399E+02  .157E+02  .189E+02  .311E+02  .172E+02
  .393E+02  .172E+02  .241E+02  .337E+02  .289E+02  .141E+02  .391E+02  .359E+02
  .311E+02  .165E+02  .134E+02  .355E+02  .180E+02  .817E+01  .286E+02  .801E+01
  .801E+01  .862E+01  .862E+01  .227E+02  .180E+02  .940E+01  .940E+01  .816E+01
  .816E+01  .816E+01  .816E+01  .816E+01  .000E+00  .000E+00  .000E+00  .000E+00
  .000E+00  .000E+00  .000E+00  .000E+00  .000E+00  .000E+00  .000E+00  .000E+00
  .000E+00  .000E+00  .000E+00  .000E+00  .000E+00  .000E+00  .000E+00  .000E+00
  .000E+00  .000E+00  .000E+00  .000E+00
Damping =  .02. Data of Sd,Sv,Sa,Pssv,ttSd,ttSv,ttSa :
  .318E-02  .477E-02  .594E-02  .578E-02  .465E-02  .462E-02  .822E-02  .104E-01
  .106E-01  .117E-01  .113E-01  .125E-01  .176E-01  .180E-01  .157E-01  .181E-01
  .194E-01  .170E-01  .260E-01  .458E-01  .347E-01  .408E-01  .435E-01  .503E-01
  .456E-01  .414E-01  .318E-01  .406E-01  .549E-01  .704E-01  .616E-01  .649E-01
  .612E-01  .678E-01  .499E-01  .488E-01  .472E-01  .592E-01  .575E-01  .643E-01
  .784E-01  .574E-01  .449E-01  .590E-01  .467E-01  .729E-01  .424E-01  .374E-01
  .424E-01  .443E-01  .389E-01  .443E-01  .557E-01  .338E-01  .398E-01  .357E-01
  .392E-01  .371E-01  .341E-01  .357E-01  .320E-01  .247E-01  .207E-01  .208E-01
  .202E-01  .214E-01  .216E-01  .211E-01  .212E-01  .221E-01  .221E-01  .228E-01
  .235E-01  .238E-01  .239E-01  .238E-01  .000E+00  .000E+00  .000E+00  .000E+00
  .000E+00  .000E+00  .000E+00  .000E+00  .000E+00  .000E+00  .000E+00  .000E+00
  .000E+00  .000E+00  .000E+00  .000E+00  .000E+00  .000E+00  .000E+00  .000E+00
  .000E+00  .000E+00  .000E+00  .000E+00
  .439E+00  .622E+00  .711E+00  .769E+00  .603E+00  .590E+00  .909E+00  .105E+01
  .105E+01  .984E+00  .927E+00  .969E+00  .126E+01  .110E+01  .867E+00  .999E+00
  .110E+01  .871E+00  .119E+01  .191E+01  .130E+01  .144E+01  .154E+01  .171E+01
  .155E+01  .134E+01  .966E+00  .109E+01  .133E+01  .155E+01  .128E+01  .140E+01
  .117E+01  .128E+01  .925E+00  .804E+00  .790E+00  .915E+00  .914E+00  .940E+00
  .115E+01  .788E+00  .747E+00  .636E+00  .690E+00  .699E+00  .671E+00  .665E+00
  .667E+00  .649E+00  .607E+00  .527E+00  .530E+00  .576E+00  .606E+00  .607E+00
  .585E+00  .555E+00  .527E+00  .507E+00  .495E+00  .492E+00  .504E+00  .519E+00
  .529E+00  .534E+00  .536E+00  .535E+00  .533E+00  .531E+00  .528E+00  .526E+00
  .524E+00  .523E+00  .521E+00  .520E+00  .000E+00  .000E+00  .000E+00  .000E+00
  .000E+00  .000E+00  .000E+00  .000E+00  .000E+00  .000E+00  .000E+00  .000E+00
  .000E+00  .000E+00  .000E+00  .000E+00  .000E+00  .000E+00  .000E+00  .000E+00
  .000E+00  .000E+00  .000E+00  .000E+00
  .202E+00  .277E+00  .314E+00  .279E+00  .207E+00  .191E+00  .277E+00  .295E+00
  .257E+00  .244E+00  .206E+00  .200E+00  .251E+00  .228E+00  .178E+00  .184E+00
  .163E+00  .122E+00  .158E+00  .239E+00  .158E+00  .163E+00  .154E+00  .158E+00
  .129E+00  .107E+00  .674E-01  .721E-01  .831E-01  .919E-01  .701E-01  .647E-01
  .542E-01  .535E-01  .353E-01  .313E-01  .274E-01  .313E-01  .279E-01  .286E-01
  .321E-01  .195E-01  .128E-01  .143E-01  .975E-02  .133E-01  .679E-02  .531E-02
  .536E-02  .502E-02  .399E-02  .375E-02  .396E-02  .205E-02  .208E-02  .164E-02
  .157E-02  .132E-02  .109E-02  .102E-02  .832E-03  .538E-03  .385E-03  .359E-03
  .307E-03  .272E-03  .247E-03  .223E-03  .203E-03  .185E-03  .169E-03  .155E-03
  .143E-03  .133E-03  .123E-03  .114E-03  .000E+00  .000E+00  .000E+00  .000E+00
  .000E+00  .000E+00  .000E+00  .000E+00  .000E+00  .000E+00  .000E+00  .000E+00
  .000E+00  .000E+00  .000E+00  .000E+00  .000E+00  .000E+00  .000E+00  .000E+00
  .000E+00  .000E+00  .000E+00  .000E+00
  .499E+00  .713E+00  .848E+00  .789E+00  .609E+00  .581E+00  .939E+00  .109E+01
  .103E+01  .105E+01  .945E+00  .978E+00  .130E+01  .126E+01  .104E+01  .114E+01
  .111E+01  .890E+00  .125E+01  .206E+01  .145E+01  .160E+01  .161E+01  .176E+01
  .151E+01  .130E+01  .909E+00  .106E+01  .133E+01  .158E+01  .129E+01  .127E+01
  .113E+01  .118E+01  .824E+00  .767E+00  .706E+00  .846E+00  .786E+00  .842E+00
  .985E+00  .656E+00  .470E+00  .570E+00  .419E+00  .610E+00  .333E+00  .277E+00
  .296E+00  .293E+00  .244E+00  .253E+00  .291E+00  .163E+00  .178E+00  .149E+00
  .154E+00  .137E+00  .119E+00  .118E+00  .100E+00  .705E-01  .542E-01  .501E-01
  .453E-01  .449E-01  .424E-01  .390E-01  .371E-01  .365E-01  .347E-01  .342E-01
  .335E-01  .325E-01  .313E-01  .299E-01  .000E+00  .000E+00  .000E+00  .000E+00
  .000E+00  .000E+00  .000E+00  .000E+00  .000E+00  .000E+00  .000E+00  .000E+00
  .000E+00  .000E+00  .000E+00  .000E+00  .000E+00  .000E+00  .000E+00  .000E+00
  .000E+00  .000E+00  .000E+00  .000E+00
  .569E+01  .589E+01  .590E+01  .593E+01  .598E+01  .595E+01  .599E+01  .599E+01
  .591E+01  .782E+01  .813E+01  .688E+01  .592E+01  .793E+01  .793E+01  .794E+01
  .857E+01  .801E+01  .803E+01  .803E+01  .804E+01  .804E+01  .814E+01  .816E+01
  .827E+01  .829E+01  .942E+01  .821E+01  .821E+01  .866E+01  .869E+01  .891E+01
  .981E+01  .986E+01  .971E+01  .974E+01  .121E+02  .955E+01  .937E+01  .938E+01
  .941E+01  .926E+01  .179E+02  .188E+02  .157E+02  .185E+02  .186E+02  .172E+02
  .141E+02  .172E+02  .884E+01  .206E+02  .186E+02  .183E+02  .183E+02  .926E+01
  .861E+01  .862E+01  .125E+02  .118E+02  .816E+01  .817E+01  .748E+01  .801E+01
  .801E+01  .862E+01  .862E+01  .589E+01  .589E+01  .940E+01  .791E+01  .816E+01
  .816E+01  .816E+01  .816E+01  .816E+01  .000E+00  .000E+00  .000E+00  .000E+00
  .000E+00  .000E+00  .000E+00  .000E+00  .000E+00  .000E+00  .000E+00  .000E+00
  .000E+00  .000E+00  .000E+00  .000E+00  .000E+00  .000E+00  .000E+00  .000E+00
  .000E+00  .000E+00  .000E+00  .000E+00
  .570E+01  .588E+01  .591E+01  .594E+01  .594E+01  .594E+01  .592E+01  .592E+01
  .593E+01  .779E+01  .822E+01  .669E+01  .593E+01  .791E+01  .796E+01  .791E+01
  .854E+01  .828E+01  .806E+01  .806E+01  .801E+01  .808E+01  .810E+01  .811E+01
  .850E+01  .824E+01  .602E+01  .826E+01  .827E+01  .985E+01  .893E+01  .820E+01
  .989E+01  .978E+01  .979E+01  .946E+01  .820E+01  .946E+01  .947E+01  .948E+01
  .931E+01  .796E+01  .797E+01  .797E+01  .797E+01  .797E+01  .797E+01  .797E+01
  .797E+01  .797E+01  .797E+01  .797E+01  .797E+01  .797E+01  .797E+01  .797E+01
  .797E+01  .797E+01  .797E+01  .797E+01  .797E+01  .797E+01  .797E+01  .797E+01
  .797E+01  .797E+01  .797E+01  .797E+01  .797E+01  .797E+01  .797E+01  .797E+01
  .797E+01  .797E+01  .797E+01  .797E+01  .000E+00  .000E+00  .000E+00  .000E+00
  .000E+00  .000E+00  .000E+00  .000E+00  .000E+00  .000E+00  .000E+00  .000E+00
  .000E+00  .000E+00  .000E+00  .000E+00  .000E+00  .000E+00  .000E+00  .000E+00
  .000E+00  .000E+00  .000E+00  .000E+00
  .569E+01  .589E+01  .590E+01  .593E+01  .598E+01  .597E+01  .599E+01  .599E+01
  .591E+01  .782E+01  .824E+01  .688E+01  .591E+01  .793E+01  .793E+01  .794E+01
  .857E+01  .801E+01  .802E+01  .803E+01  .804E+01  .804E+01  .814E+01  .816E+01
  .826E+01  .829E+01  .942E+01  .832E+01  .821E+01  .866E+01  .869E+01  .890E+01
  .981E+01  .986E+01  .971E+01  .973E+01  .121E+02  .955E+01  .937E+01  .938E+01
  .940E+01  .926E+01  .179E+02  .188E+02  .157E+02  .185E+02  .186E+02  .172E+02
  .141E+02  .172E+02  .883E+01  .206E+02  .186E+02  .183E+02  .183E+02  .925E+01
  .861E+01  .861E+01  .790E+01  .118E+02  .815E+01  .815E+01  .747E+01  .799E+01
  .799E+01  .588E+01  .588E+01  .588E+01  .588E+01  .588E+01  .588E+01  .588E+01
  .789E+01  .789E+01  .587E+01  .587E+01  .000E+00  .000E+00  .000E+00  .000E+00
  .000E+00  .000E+00  .000E+00  .000E+00  .000E+00  .000E+00  .000E+00  .000E+00
  .000E+00  .000E+00  .000E+00  .000E+00  .000E+00  .000E+00  .000E+00  .000E+00
  .000E+00  .000E+00  .000E+00  .000E+00
Damping =  .05. Data of Sd,Sv,Sa,Pssv,ttSd,ttSv,ttSa :
  .224E-02  .320E-02  .428E-02  .456E-02  .437E-02  .474E-02  .635E-02  .760E-02
  .769E-02  .714E-02  .775E-02  .897E-02  .121E-01  .127E-01  .132E-01  .139E-01
