Response and Fourier amplitude spectra (76 periods,  .04 -  5.0 sec)   for      
Corrected accelerogram   24703-H0113-01253.09       Chan  3: 180 Deg     from   
Uncorrected Accelerogram Data             Processed: 09/14/01, CDMG  output     
Earthquake of Sun Sep  9, 2001  16:59 PDT             (Avol1 v3.3  12/99 CSMIP) 
CSMIP Preliminary Processing            (Origin:  To be determined)             
24703-H0113-01253.09                 Start time:  9/09/01, 23:59:14.2 GMT       
Station No. 24703   34.036N, 118.378W    SSA-16  s/n  113  (3 Channels)         
Los Angeles - La Cienega Geotech Array                                          
Chan  3: 180 Deg  (Sta Chn:  6)     Location: 60-foot Depth                     
Earthquake of Sun Sep  9, 2001  16:59 PDT    Sun Sep  9, 2001  16:59 PDT        
Hypocenter:  To be determined.               ML:  To be determined.
Instr Period =  .0200 sec,  Damping =  .700,  Sensitivity = 1.25  v/g
                        Record length = 40.000 sec.
                                     Uncor Max  =   .250 g, at   7.370 sec.
RMS accel of (uncor) record  =        .
Accelerogram bandpass filtered with 3 dB pts at   .30 and 40.00 cyc/sec
                 instrument- and baseline-corrected





Earthquake of Sun Sep  9, 2001  16:59 PDT    Sun Sep  9, 2001  16:59 PDT

24703-H0113-01253.09      Los Angeles - La Cienega Geotech Array    Chan  3: 180
 Deg
24703-H0113-01253.09      Los Angeles - La Cienega Geotech Array    Chan  3: 180
 Deg
Units for spectra are inches and sec, except Sa is in fraction of g.

    3  100    6    3    3  200    1    3    1   16    8  113    024703    4    0
   23   59   14  175  252    9    9 2001   10    2  18010496   41   38   72  360
 8000    0   50    0 5101    1    9   41    1   23   59    4   80    9    9 2001
    0    0    0    0 4000    2    0    0    0    0   72   38    0    0    0 4000
    0 4000   39   76    5    3    0    0    0    0    0    0    0    0    0    2
    2    2    4    1   65   99    1   32   32    0    0   84    0    0    0  128
   -1   -1    0    0
      .020      .700    40.000      .010      .000  1250.000      .250     7.370
    50.000    76.294    61.035      .000     5.000      .000      .000      .000
     2.500    10.904      .173     -.326     5.120    30.000      .000     -.028
      .004      .033     2.000      .000    34.036   118.378      .000      .000
      .000      .000      .000      .000      .000      .000      .000      .000
   166.011     1.006      .000      .000      .000      .000      .000      .000
     3.300     4.100      .000   980.665      .010    40.000     7.958      .000
      .000    40.000      .000    40.000      .010      .300      .000      .000
     7.370   234.694     7.420     5.949     7.370     -.230      .000      .300
    40.000      .010      .010      .000      .510      .039      .000      .000
      .589      .160      .501      .169      .013      .002      .000      .000
      .000      .000      .000      .000      .000      .000      .000      .000
      .000      .000      .000      .000
      .000      .020      .050      .100      .200
      .040      .042      .044      .046      .048      .050      .055      .060
      .065      .070      .075      .080      .085      .090      .095      .100
      .110      .120      .130      .140      .150      .160      .170      .180
      .190      .200      .220      .240      .260      .280      .300      .320
      .340      .360      .380      .400      .420      .440      .460      .480
      .500      .550      .600      .650      .700      .750      .800      .850
      .900      .950     1.000     1.100     1.200     1.300     1.400     1.500
     1.600     1.700     1.800     1.900     2.000     2.200     2.400     2.600
     2.800     3.000     3.200     3.400     3.600     3.800     4.000     4.200
     4.400     4.600     4.800     5.000      .000      .000      .000      .000
      .000      .000      .000      .000      .000      .000      .000      .000
      .000      .000      .000      .000      .000      .000      .000      .000
      .000      .000      .000      .000
Fourier amplitude spectra in in/sec.
  .311E+00  .330E+00  .410E+00  .544E+00  .896E+00  .579E+00  .521E+00  .143E+01
  .193E+01  .565E+00  .341E+00  .392E+00  .138E+01  .201E+01  .111E+01  .210E+01
  .514E+01  .409E+01  .281E+01  .318E+01  .732E+01  .743E+01  .591E+01  .844E+01
  .106E+02  .110E+02  .101E+02  .697E+01  .460E+01  .363E+01  .262E+01  .257E+01
  .142E+01  .114E+01  .118E+01  .832E+00  .225E+01  .364E+01  .165E+01  .346E+01
  .214E+01  .948E+00  .228E+01  .191E+01  .967E+00  .161E+01  .143E+01  .206E+01
  .112E+01  .842E+00  .501E+00  .668E+00  .204E+00  .257E+00  .387E+00  .171E+00
  .342E+00  .757E-01  .226E+00  .264E+00  .251E+00  .215E+00  .146E+00  .153E-01
  .707E-01  .652E-01  .489E-01  .428E-01  .142E-02  .219E-01  .168E-01  .129E-01
  .174E-01  .146E-01  .871E-02  .607E-02  .000E+00  .000E+00  .000E+00  .000E+00
  .000E+00  .000E+00  .000E+00  .000E+00  .000E+00  .000E+00  .000E+00  .000E+00
  .000E+00  .000E+00  .000E+00  .000E+00  .000E+00  .000E+00  .000E+00  .000E+00
  .000E+00  .000E+00  .000E+00  .000E+00
Damping =  .00. Data of Sd,Sv,Sa,Pssv,ttSd,ttSv,ttSa :
  .404E-02  .427E-02  .604E-02  .812E-02  .889E-02  .844E-02  .831E-02  .182E-01
  .241E-01  .203E-01  .165E-01  .183E-01  .262E-01  .366E-01  .454E-01  .514E-01
  .950E-01  .977E-01  .998E-01  .137E+00  .183E+00  .206E+00  .251E+00  .287E+00
  .346E+00  .372E+00  .358E+00  .268E+00  .206E+00  .192E+00  .162E+00  .145E+00
  .131E+00  .115E+00  .107E+00  .106E+00  .161E+00  .257E+00  .185E+00  .297E+00
  .194E+00  .232E+00  .252E+00  .224E+00  .223E+00  .192E+00  .232E+00  .330E+00
  .204E+00  .177E+00  .158E+00  .158E+00  .101E+00  .935E-01  .112E+00  .949E-01
  .964E-01  .988E-01  .102E+00  .106E+00  .107E+00  .109E+00  .109E+00  .108E+00
  .106E+00  .103E+00  .101E+00  .984E-01  .967E-01  .955E-01  .946E-01  .939E-01
  .932E-01  .926E-01  .920E-01  .915E-01  .000E+00  .000E+00  .000E+00  .000E+00
  .000E+00  .000E+00  .000E+00  .000E+00  .000E+00  .000E+00  .000E+00  .000E+00
  .000E+00  .000E+00  .000E+00  .000E+00  .000E+00  .000E+00  .000E+00  .000E+00
  .000E+00  .000E+00  .000E+00  .000E+00
  .448E+00  .426E+00  .552E+00  .868E+00  .104E+01  .707E+00  .526E+00  .163E+01
  .222E+01  .135E+01  .102E+01  .103E+01  .141E+01  .202E+01  .238E+01  .273E+01
  .542E+01  .503E+01  .439E+01  .569E+01  .759E+01  .810E+01  .917E+01  .997E+01
  .114E+02  .117E+02  .102E+02  .699E+01  .573E+01  .472E+01  .382E+01  .339E+01
  .319E+01  .300E+01  .279E+01  .268E+01  .261E+01  .366E+01  .255E+01  .389E+01
  .252E+01  .261E+01  .268E+01  .267E+01  .269E+01  .270E+01  .271E+01  .271E+01
  .272E+01  .272E+01  .270E+01  .268E+01  .263E+01  .259E+01  .256E+01  .253E+01
  .251E+01  .249E+01  .248E+01  .246E+01  .244E+01  .240E+01  .238E+01  .236E+01
  .235E+01  .234E+01  .233E+01  .233E+01  .232E+01  .232E+01  .232E+01  .232E+01
  .232E+01  .232E+01  .232E+01  .232E+01  .000E+00  .000E+00  .000E+00  .000E+00
  .000E+00  .000E+00  .000E+00  .000E+00  .000E+00  .000E+00  .000E+00  .000E+00
  .000E+00  .000E+00  .000E+00  .000E+00  .000E+00  .000E+00  .000E+00  .000E+00
  .000E+00  .000E+00  .000E+00  .000E+00
  .258E+00  .248E+00  .319E+00  .393E+00  .395E+00  .345E+00  .281E+00  .517E+00
  .583E+00  .423E+00  .300E+00  .293E+00  .371E+00  .462E+00  .514E+00  .525E+00
  .803E+00  .694E+00  .604E+00  .714E+00  .830E+00  .824E+00  .889E+00  .906E+00
  .980E+00  .952E+00  .757E+00  .475E+00  .312E+00  .250E+00  .184E+00  .144E+00
  .116E+00  .907E-01  .761E-01  .680E-01  .932E-01  .136E+00  .895E-01  .132E+00
  .796E-01  .784E-01  .716E-01  .542E-01  .465E-01  .348E-01  .370E-01  .467E-01
  .257E-01  .200E-01  .162E-01  .133E-01  .717E-02  .566E-02  .583E-02  .431E-02
  .385E-02  .350E-02  .323E-02  .299E-02  .275E-02  .230E-02  .193E-02  .164E-02
  .139E-02  .117E-02  .101E-02  .871E-03  .763E-03  .677E-03  .605E-03  .544E-03
  .492E-03  .448E-03  .408E-03  .374E-03  .000E+00  .000E+00  .000E+00  .000E+00
  .000E+00  .000E+00  .000E+00  .000E+00  .000E+00  .000E+00  .000E+00  .000E+00
  .000E+00  .000E+00  .000E+00  .000E+00  .000E+00  .000E+00  .000E+00  .000E+00
  .000E+00  .000E+00  .000E+00  .000E+00
  .635E+00  .639E+00  .863E+00  .111E+01  .116E+01  .106E+01  .950E+00  .191E+01
  .233E+01  .182E+01  .138E+01  .144E+01  .194E+01  .255E+01  .300E+01  .323E+01
  .543E+01  .511E+01  .483E+01  .614E+01  .765E+01  .810E+01  .928E+01  .100E+02
  .114E+02  .117E+02  .102E+02  .701E+01  .498E+01  .430E+01  .340E+01  .284E+01
  .242E+01  .201E+01  .178E+01  .167E+01  .241E+01  .367E+01  .253E+01  .389E+01
  .244E+01  .265E+01  .264E+01  .216E+01  .200E+01  .160E+01  .182E+01  .244E+01
  .142E+01  .117E+01  .993E+00  .902E+00  .528E+00  .452E+00  .502E+00  .398E+00
  .378E+00  .365E+00  .357E+00  .349E+00  .337E+00  .310E+00  .285E+00  .261E+00
  .238E+00  .217E+00  .198E+00  .182E+00  .169E+00  .158E+00  .149E+00  .140E+00
  .133E+00  .126E+00  .120E+00  .115E+00  .000E+00  .000E+00  .000E+00  .000E+00
  .000E+00  .000E+00  .000E+00  .000E+00  .000E+00  .000E+00  .000E+00  .000E+00
  .000E+00  .000E+00  .000E+00  .000E+00  .000E+00  .000E+00  .000E+00  .000E+00
  .000E+00  .000E+00  .000E+00  .000E+00
  .737E+01  .735E+01  .736E+01  .737E+01  .737E+01  .737E+01  .736E+01  .737E+01
  .783E+01  .738E+01  .738E+01  .730E+01  .737E+01  .738E+01  .738E+01  .738E+01
  .850E+01  .805E+01  .746E+01  .747E+01  .175E+02  .121E+02  .776E+01  .778E+01
  .913E+01  .116E+02  .220E+02  .213E+02  .756E+01  .757E+01  .757E+01  .758E+01
  .758E+01  .759E+01  .746E+01  .746E+01  .306E+02  .369E+02  .105E+02  .250E+02
  .117E+02  .127E+02  .110E+02  .145E+02  .145E+02  .413E+02  .159E+02  .244E+02
  .110E+02  .107E+02  .134E+02  .171E+02  .747E+01  .747E+01  .346E+02  .736E+01
  .736E+01  .736E+01  .736E+01  .736E+01  .736E+01  .736E+01  .736E+01  .736E+01
  .736E+01  .736E+01  .736E+01  .736E+01  .736E+01  .736E+01  .736E+01  .736E+01
  .736E+01  .736E+01  .736E+01  .736E+01  .000E+00  .000E+00  .000E+00  .000E+00
  .000E+00  .000E+00  .000E+00  .000E+00  .000E+00  .000E+00  .000E+00  .000E+00
  .000E+00  .000E+00  .000E+00  .000E+00  .000E+00  .000E+00  .000E+00  .000E+00
  .000E+00  .000E+00  .000E+00  .000E+00
  .762E+01  .734E+01  .734E+01  .754E+01  .786E+01  .763E+01  .331E+02  .934E+01
  .834E+01  .740E+01  .741E+01  .728E+01  .182E+02  .338E+02  .740E+01  .741E+01
  .847E+01  .802E+01  .750E+01  .751E+01  .176E+02  .121E+02  .780E+01  .773E+01
  .880E+01  .116E+02  .189E+02  .213E+02  .761E+01  .762E+01  .752E+01  .752E+01
  .740E+01  .741E+01  .741E+01  .741E+01  .741E+01  .368E+02  .106E+02  .251E+02
  .741E+01  .123E+02  .111E+02  .741E+01  .741E+01  .741E+01  .741E+01  .741E+01
  .741E+01  .741E+01  .741E+01  .741E+01  .741E+01  .741E+01  .741E+01  .741E+01
  .741E+01  .741E+01  .741E+01  .741E+01  .741E+01  .741E+01  .741E+01  .741E+01
  .741E+01  .741E+01  .741E+01  .741E+01  .741E+01  .741E+01  .741E+01  .741E+01
  .741E+01  .741E+01  .741E+01  .741E+01  .000E+00  .000E+00  .000E+00  .000E+00
  .000E+00  .000E+00  .000E+00  .000E+00  .000E+00  .000E+00  .000E+00  .000E+00
  .000E+00  .000E+00  .000E+00  .000E+00  .000E+00  .000E+00  .000E+00  .000E+00
  .000E+00  .000E+00  .000E+00  .000E+00
  .737E+01  .735E+01  .736E+01  .737E+01  .737E+01  .737E+01  .736E+01  .737E+01
  .783E+01  .738E+01  .738E+01  .730E+01  .737E+01  .738E+01  .738E+01  .738E+01
  .850E+01  .805E+01  .746E+01  .747E+01  .175E+02  .121E+02  .776E+01  .778E+01
  .913E+01  .116E+02  .220E+02  .213E+02  .756E+01  .757E+01  .757E+01  .758E+01
  .758E+01  .759E+01  .746E+01  .746E+01  .306E+02  .369E+02  .105E+02  .250E+02
  .117E+02  .127E+02  .110E+02  .145E+02  .145E+02  .413E+02  .159E+02  .244E+02
  .110E+02  .107E+02  .134E+02  .171E+02  .747E+01  .747E+01  .346E+02  .736E+01
  .736E+01  .736E+01  .736E+01  .736E+01  .736E+01  .736E+01  .736E+01  .736E+01
  .736E+01  .736E+01  .736E+01  .736E+01  .736E+01  .736E+01  .736E+01  .736E+01
  .736E+01  .736E+01  .736E+01  .736E+01  .000E+00  .000E+00  .000E+00  .000E+00
  .000E+00  .000E+00  .000E+00  .000E+00  .000E+00  .000E+00  .000E+00  .000E+00
  .000E+00  .000E+00  .000E+00  .000E+00  .000E+00  .000E+00  .000E+00  .000E+00
  .000E+00  .000E+00  .000E+00  .000E+00
Damping =  .02. Data of Sd,Sv,Sa,Pssv,ttSd,ttSv,ttSa :
  .408E-02  .402E-02  .570E-02  .718E-02  .820E-02  .849E-02  .973E-02  .164E-01
  .202E-01  .192E-01  .166E-01  .166E-01  .244E-01  .338E-01  .422E-01  .485E-01
  .620E-01  .739E-01  .931E-01  .122E+00  .147E+00  .169E+00  .203E+00  .236E+00
  .252E+00  .256E+00  .245E+00  .214E+00  .191E+00  .178E+00  .156E+00  .138E+00
  .126E+00  .114E+00  .108E+00  .107E+00  .107E+00  .109E+00  .126E+00  .140E+00
  .149E+00  .172E+00  .182E+00  .185E+00  .172E+00  .155E+00  .149E+00  .169E+00
  .142E+00  .129E+00  .121E+00  .111E+00  .101E+00  .940E-01  .903E-01  .932E-01
  .952E-01  .977E-01  .101E+00  .104E+00  .105E+00  .107E+00  .107E+00  .107E+00
  .105E+00  .103E+00  .100E+00  .983E-01  .967E-01  .955E-01  .946E-01  .938E-01
  .932E-01  .926E-01  .921E-01  .915E-01  .000E+00  .000E+00  .000E+00  .000E+00
  .000E+00  .000E+00  .000E+00  .000E+00  .000E+00  .000E+00  .000E+00  .000E+00
  .000E+00  .000E+00  .000E+00  .000E+00  .000E+00  .000E+00  .000E+00  .000E+00
  .000E+00  .000E+00  .000E+00  .000E+00
  .363E+00  .354E+00  .449E+00  .573E+00  .639E+00  .578E+00  .560E+00  .112E+01
  .135E+01  .120E+01  .905E+00  .927E+00  .107E+01  .161E+01  .211E+01  .249E+01
  .324E+01  .331E+01  .397E+01  .490E+01  .560E+01  .624E+01  .723E+01  .807E+01
  .823E+01  .810E+01  .716E+01  .603E+01  .530E+01  .439E+01  .368E+01  .331E+01
  .315E+01  .297E+01  .279E+01  .268E+01  .261E+01  .257E+01  .254E+01  .253E+01
  .252E+01  .256E+01  .260E+01  .264E+01  .267E+01  .268E+01  .269E+01  .269E+01
  .270E+01  .269E+01  .268E+01  .266E+01  .262E+01  .259E+01  .256E+01  .253E+01
  .251E+01  .249E+01  .247E+01  .245E+01  .244E+01  .241E+01  .238E+01  .236E+01
  .235E+01  .234E+01  .233E+01  .233E+01  .233E+01  .233E+01  .232E+01  .232E+01
  .232E+01  .232E+01  .232E+01  .232E+01  .000E+00  .000E+00  .000E+00  .000E+00
  .000E+00  .000E+00  .000E+00  .000E+00  .000E+00  .000E+00  .000E+00  .000E+00
  .000E+00  .000E+00  .000E+00  .000E+00  .000E+00  .000E+00  .000E+00  .000E+00
  .000E+00  .000E+00  .000E+00  .000E+00
  .260E+00  .233E+00  .301E+00  .348E+00  .365E+00  .347E+00  .330E+00  .466E+00
  .490E+00  .402E+00  .300E+00  .265E+00  .346E+00  .427E+00  .477E+00  .494E+00
  .522E+00  .523E+00  .566E+00  .638E+00  .665E+00  .670E+00  .721E+00  .743E+00
  .715E+00  .656E+00  .520E+00  .382E+00  .291E+00  .233E+00  .177E+00  .138E+00
  .112E+00  .904E-01  .771E-01  .687E-01  .629E-01  .580E-01  .608E-01  .625E-01
  .611E-01  .580E-01  .517E-01  .450E-01  .360E-01  .282E-01  .239E-01  .240E-01
  .180E-01  .146E-01  .124E-01  .948E-02  .728E-02  .577E-02  .491E-02  .442E-02
  .398E-02  .363E-02  .335E-02  .310E-02  .286E-02  .241E-02  .205E-02  .176E-02
  .151E-02  .130E-02  .114E-02  .100E-02  .898E-03  .810E-03  .737E-03  .674E-03
  .620E-03  .573E-03  .532E-03  .495E-03  .000E+00  .000E+00  .000E+00  .000E+00
  .000E+00  .000E+00  .000E+00  .000E+00  .000E+00  .000E+00  .000E+00  .000E+00
  .000E+00  .000E+00  .000E+00  .000E+00  .000E+00  .000E+00  .000E+00  .000E+00
  .000E+00  .000E+00  .000E+00  .000E+00
  .641E+00  .601E+00  .814E+00  .981E+00  .107E+01  .107E+01  .111E+01  .172E+01
  .195E+01  .172E+01  .139E+01  .130E+01  .180E+01  .236E+01  .279E+01  .304E+01
  .354E+01  .387E+01  .450E+01  .549E+01  .616E+01  .662E+01  .750E+01  .823E+01
  .833E+01  .804E+01  .699E+01  .561E+01  .463E+01  .399E+01  .326E+01  .272E+01
  .233E+01  .198E+01  .178E+01  .167E+01  .161E+01  .155E+01  .172E+01  .184E+01
  .187E+01  .196E+01  .190E+01  .179E+01  .155E+01  .130E+01  .117E+01  .125E+01
  .993E+00  .854E+00  .762E+00  .637E+00  .531E+00  .454E+00  .405E+00  .391E+00
  .374E+00  .361E+00  .352E+00  .342E+00  .331E+00  .305E+00  .281E+00  .258E+00
  .236E+00  .215E+00  .197E+00  .182E+00  .169E+00  .158E+00  .149E+00  .140E+00
  .133E+00  .126E+00  .121E+00  .115E+00  .000E+00  .000E+00  .000E+00  .000E+00
  .000E+00  .000E+00  .000E+00  .000E+00  .000E+00  .000E+00  .000E+00  .000E+00
  .000E+00  .000E+00  .000E+00  .000E+00  .000E+00  .000E+00  .000E+00  .000E+00
  .000E+00  .000E+00  .000E+00  .000E+00
  .737E+01  .736E+01  .736E+01  .736E+01  .737E+01  .737E+01  .736E+01  .737E+01
  .738E+01  .738E+01  .738E+01  .730E+01  .737E+01  .738E+01  .738E+01  .738E+01
  .745E+01  .746E+01  .746E+01  .747E+01  .748E+01  .749E+01  .767E+01  .769E+01
  .770E+01  .772E+01  .785E+01  .789E+01  .755E+01  .756E+01  .757E+01  .758E+01
  .758E+01  .745E+01  .745E+01  .745E+01  .745E+01  .746E+01  .840E+01  .842E+01
  .845E+01  .827E+01  .805E+01  .807E+01  .810E+01  .782E+01  .783E+01  .134E+02
  .965E+01  .107E+02  .747E+01  .747E+01  .747E+01  .747E+01  .736E+01  .736E+01
  .736E+01  .736E+01  .736E+01  .736E+01  .736E+01  .736E+01  .736E+01  .736E+01
  .736E+01  .736E+01  .736E+01  .736E+01  .736E+01  .736E+01  .736E+01  .736E+01
  .736E+01  .736E+01  .736E+01  .736E+01  .000E+00  .000E+00  .000E+00  .000E+00
  .000E+00  .000E+00  .000E+00  .000E+00  .000E+00  .000E+00  .000E+00  .000E+00
  .000E+00  .000E+00  .000E+00  .000E+00  .000E+00  .000E+00  .000E+00  .000E+00
  .000E+00  .000E+00  .000E+00  .000E+00
  .748E+01  .734E+01  .734E+01  .742E+01  .743E+01  .743E+01  .738E+01  .738E+01
  .739E+01  .740E+01  .740E+01  .728E+01  .739E+01  .740E+01  .740E+01  .741E+01
  .770E+01  .749E+01  .750E+01  .751E+01  .751E+01  .753E+01  .772E+01  .773E+01
  .775E+01  .767E+01  .769E+01  .760E+01  .761E+01  .762E+01  .751E+01  .740E+01
  .740E+01  .740E+01  .740E+01  .740E+01  .740E+01  .740E+01  .740E+01  .740E+01
  .740E+01  .740E+01  .741E+01  .741E+01  .741E+01  .741E+01  .741E+01  .741E+01
  .741E+01  .741E+01  .741E+01  .741E+01  .741E+01  .741E+01  .741E+01  .741E+01
  .741E+01  .741E+01  .741E+01  .741E+01  .741E+01  .741E+01  .741E+01  .741E+01
  .741E+01  .741E+01  .741E+01  .741E+01  .741E+01  .741E+01  .741E+01  .741E+01
  .741E+01  .741E+01  .741E+01  .741E+01  .000E+00  .000E+00  .000E+00  .000E+00
  .000E+00  .000E+00  .000E+00  .000E+00  .000E+00  .000E+00  .000E+00  .000E+00
  .000E+00  .000E+00  .000E+00  .000E+00  .000E+00  .000E+00  .000E+00  .000E+00
  .000E+00  .000E+00  .000E+00  .000E+00
  .737E+01  .736E+01  .736E+01  .736E+01  .737E+01  .737E+01  .736E+01  .737E+01
  .738E+01  .738E+01  .738E+01  .730E+01  .737E+01  .738E+01  .738E+01  .738E+01
  .745E+01  .746E+01  .746E+01  .747E+01  .748E+01  .748E+01  .767E+01  .769E+01
  .770E+01  .771E+01  .785E+01  .788E+01  .755E+01  .756E+01  .757E+01  .757E+01
  .758E+01  .745E+01  .745E+01  .745E+01  .745E+01  .745E+01  .840E+01  .842E+01
  .845E+01  .827E+01  .805E+01  .807E+01  .810E+01  .781E+01  .782E+01  .133E+02
  .965E+01  .107E+02  .746E+01  .746E+01  .746E+01  .746E+01  .735E+01  .735E+01
  .735E+01  .735E+01  .735E+01  .735E+01  .735E+01  .735E+01  .735E+01  .735E+01
  .735E+01  .734E+01  .734E+01  .734E+01  .734E+01  .734E+01  .734E+01  .734E+01
  .734E+01  .734E+01  .734E+01  .734E+01  .000E+00  .000E+00  .000E+00  .000E+00
  .000E+00  .000E+00  .000E+00  .000E+00  .000E+00  .000E+00  .000E+00  .000E+00
  .000E+00  .000E+00  .000E+00  .000E+00  .000E+00  .000E+00  .000E+00  .000E+00
  .000E+00  .000E+00  .000E+00  .000E+00
Damping =  .05. Data of Sd,Sv,Sa,Pssv,ttSd,ttSv,ttSa :
  .409E-02  .437E-02  .539E-02  .660E-02  .752E-02  .814E-02  .101E-01  .146E-01
  .177E-01  .179E-01  .170E-01  .180E-01  .240E-01  .312E-01  .384E-01  .441E-01
