Response and Fourier amplitude spectra (76 periods,  .04 -  5.0 sec)   for      
Corrected accelerogram   24703-H0127-01253.09       Chan  3: 180 Deg     from   
Uncorrected Accelerogram Data             Processed: 09/14/01, CDMG  output     
Earthquake of Sun Sep  9, 2001  16:59 PDT             (Avol1 v3.3  12/99 CSMIP) 
CSMIP Preliminary Processing            (Origin:  To be determined)             
24703-H0127-01253.09                 Start time:  9/09/01, 23:59:14.2 GMT       
Station No. 24703   34.036N, 118.378W    SSA-16  s/n  127  (3 Channels)         
Los Angeles - La Cienega Geotech Array                                          
Chan  3: 180 Deg  (Sta Chn: 12)     Location: 827-foot Depth                    
Earthquake of Sun Sep  9, 2001  16:59 PDT    Sun Sep  9, 2001  16:59 PDT        
Hypocenter:  To be determined.               ML:  To be determined.
Instr Period =  .0200 sec,  Damping =  .700,  Sensitivity = 1.25  v/g
                        Record length = 40.000 sec.
                                     Uncor Max  =   .246 g, at   6.940 sec.
RMS accel of (uncor) record  =        .
Accelerogram bandpass filtered with 3 dB pts at   .30 and 40.00 cyc/sec
                 instrument- and baseline-corrected





Earthquake of Sun Sep  9, 2001  16:59 PDT    Sun Sep  9, 2001  16:59 PDT

24703-H0127-01253.09      Los Angeles - La Cienega Geotech Array    Chan  3: 180
 Deg
24703-H0127-01253.09      Los Angeles - La Cienega Geotech Array    Chan  3: 180
 Deg
Units for spectra are inches and sec, except Sa is in fraction of g.

    3  100   12    3    3  200    1    3    1   16    8  127    024703    4    0
   23   59   14  175  252    9    9 2001   10    2  18010496   41   38   72  360
 8000    0   50    0 5101    1    9   41    1    0   52   29  560    9   10 2001
    0    0    0    0 4000    2    0    0    0    0   72   38    0    0    0 4000
    0 4000   39   76    5    3    0    0    0    0    0    0    0    0    0    2
    2    2    4    1   65   99    1   32   32    0    0   80    0    0    0  128
   -1   -1    0    0
      .020      .700    40.000      .009      .000  1250.000      .246     6.940
    50.000    76.294    61.035      .000     5.000      .000      .000      .000
     2.500   -70.687      .232     -.219     5.120    30.000      .000     -.008
      .010      .019     2.000      .000    34.036   118.378      .000      .000
      .000      .000      .000      .000      .000      .000      .000      .000
   152.838    -1.004      .000      .000      .000      .000      .000      .000
     3.300     4.100      .000   980.665      .010    40.000     7.958      .000
      .000    40.000      .000    40.000      .010      .300      .000      .000
     6.940   233.181     6.960     4.453     6.930     -.137      .000      .300
    40.000      .010      .010      .000     1.410      .025      .000      .000
      .555      .095      .274      .101      .006      .001      .000      .000
      .000      .000      .000      .000      .000      .000      .000      .000
      .000      .000      .000      .000
      .000      .020      .050      .100      .200
      .040      .042      .044      .046      .048      .050      .055      .060
      .065      .070      .075      .080      .085      .090      .095      .100
      .110      .120      .130      .140      .150      .160      .170      .180
      .190      .200      .220      .240      .260      .280      .300      .320
      .340      .360      .380      .400      .420      .440      .460      .480
      .500      .550      .600      .650      .700      .750      .800      .850
      .900      .950     1.000     1.100     1.200     1.300     1.400     1.500
     1.600     1.700     1.800     1.900     2.000     2.200     2.400     2.600
     2.800     3.000     3.200     3.400     3.600     3.800     4.000     4.200
     4.400     4.600     4.800     5.000      .000      .000      .000      .000
      .000      .000      .000      .000      .000      .000      .000      .000
      .000      .000      .000      .000      .000      .000      .000      .000
      .000      .000      .000      .000
Fourier amplitude spectra in in/sec.
  .560E+00  .281E+00  .202E+00  .431E+00  .109E+01  .298E+00  .159E+01  .151E+01
  .350E+01  .133E+01  .608E+00  .221E+01  .143E+01  .439E+01  .424E+01  .292E+01
  .629E+01  .239E+01  .378E+01  .753E+01  .752E+01  .983E+01  .244E+01  .529E+01
  .405E+01  .155E+01  .611E+01  .728E+00  .413E+01  .308E+01  .739E+00  .178E+01
  .224E+01  .224E+01  .877E+00  .736E+00  .100E+01  .103E+01  .228E+01  .227E+01
  .219E+01  .100E+01  .501E+00  .404E+00  .665E+00  .986E-01  .642E+00  .102E+01
  .509E+00  .370E+00  .202E+00  .307E+00  .298E+00  .318E-01  .114E+00  .660E-01
  .722E-01  .228E-01  .851E-01  .860E-01  .110E+00  .936E-01  .919E-01  .224E-01
  .472E-01  .443E-01  .309E-01  .272E-01  .304E-02  .176E-01  .152E-01  .150E-01
  .166E-01  .144E-01  .106E-01  .776E-02  .000E+00  .000E+00  .000E+00  .000E+00
  .000E+00  .000E+00  .000E+00  .000E+00  .000E+00  .000E+00  .000E+00  .000E+00
  .000E+00  .000E+00  .000E+00  .000E+00  .000E+00  .000E+00  .000E+00  .000E+00
  .000E+00  .000E+00  .000E+00  .000E+00
Damping =  .00. Data of Sd,Sv,Sa,Pssv,ttSd,ttSv,ttSa :
  .414E-02  .526E-02  .798E-02  .105E-01  .116E-01  .101E-01  .175E-01  .211E-01
  .370E-01  .248E-01  .233E-01  .306E-01  .383E-01  .636E-01  .699E-01  .748E-01
  .117E+00  .848E-01  .117E+00  .173E+00  .208E+00  .255E+00  .152E+00  .180E+00
  .142E+00  .133E+00  .234E+00  .120E+00  .178E+00  .140E+00  .964E-01  .105E+00
  .150E+00  .145E+00  .826E-01  .850E-01  .762E-01  .103E+00  .179E+00  .184E+00
  .187E+00  .127E+00  .741E-01  .506E-01  .937E-01  .842E-01  .859E-01  .154E+00
  .926E-01  .718E-01  .604E-01  .585E-01  .603E-01  .605E-01  .616E-01  .614E-01
  .618E-01  .627E-01  .631E-01  .630E-01  .625E-01  .618E-01  .607E-01  .589E-01
  .569E-01  .552E-01  .540E-01  .532E-01  .527E-01  .522E-01  .518E-01  .513E-01
  .509E-01  .506E-01  .502E-01  .500E-01  .000E+00  .000E+00  .000E+00  .000E+00
  .000E+00  .000E+00  .000E+00  .000E+00  .000E+00  .000E+00  .000E+00  .000E+00
  .000E+00  .000E+00  .000E+00  .000E+00  .000E+00  .000E+00  .000E+00  .000E+00
  .000E+00  .000E+00  .000E+00  .000E+00
  .594E+00  .499E+00  .742E+00  .903E+00  .140E+01  .108E+01  .193E+01  .217E+01
  .356E+01  .191E+01  .177E+01  .235E+01  .224E+01  .437E+01  .459E+01  .431E+01
  .657E+01  .435E+01  .564E+01  .772E+01  .856E+01  .998E+01  .577E+01  .632E+01
  .474E+01  .437E+01  .665E+01  .365E+01  .434E+01  .334E+01  .305E+01  .289E+01
  .278E+01  .252E+01  .227E+01  .216E+01  .214E+01  .214E+01  .246E+01  .241E+01
  .239E+01  .194E+01  .193E+01  .193E+01  .192E+01  .191E+01  .189E+01  .189E+01
  .188E+01  .186E+01  .186E+01  .183E+01  .182E+01  .180E+01  .178E+01  .177E+01
  .176E+01  .175E+01  .175E+01  .174E+01  .173E+01  .172E+01  .172E+01  .171E+01
  .171E+01  .171E+01  .171E+01  .171E+01  .171E+01  .171E+01  .171E+01  .171E+01
  .171E+01  .171E+01  .171E+01  .171E+01  .000E+00  .000E+00  .000E+00  .000E+00
  .000E+00  .000E+00  .000E+00  .000E+00  .000E+00  .000E+00  .000E+00  .000E+00
  .000E+00  .000E+00  .000E+00  .000E+00  .000E+00  .000E+00  .000E+00  .000E+00
  .000E+00  .000E+00  .000E+00  .000E+00
  .264E+00  .305E+00  .422E+00  .507E+00  .516E+00  .412E+00  .590E+00  .601E+00
  .895E+00  .518E+00  .423E+00  .490E+00  .543E+00  .803E+00  .792E+00  .765E+00
  .988E+00  .602E+00  .710E+00  .905E+00  .944E+00  .102E+01  .538E+00  .568E+00
  .404E+00  .340E+00  .494E+00  .214E+00  .270E+00  .182E+00  .110E+00  .104E+00
  .133E+00  .114E+00  .585E-01  .544E-01  .442E-01  .545E-01  .867E-01  .815E-01
  .764E-01  .428E-01  .211E-01  .122E-01  .196E-01  .153E-01  .137E-01  .218E-01
  .117E-01  .814E-02  .618E-02  .494E-02  .428E-02  .366E-02  .322E-02  .279E-02
  .247E-02  .222E-02  .199E-02  .178E-02  .160E-02  .131E-02  .108E-02  .892E-03
  .742E-03  .628E-03  .540E-03  .471E-03  .416E-03  .370E-03  .331E-03  .298E-03
  .269E-03  .244E-03  .223E-03  .204E-03  .000E+00  .000E+00  .000E+00  .000E+00
  .000E+00  .000E+00  .000E+00  .000E+00  .000E+00  .000E+00  .000E+00  .000E+00
  .000E+00  .000E+00  .000E+00  .000E+00  .000E+00  .000E+00  .000E+00  .000E+00
  .000E+00  .000E+00  .000E+00  .000E+00
  .650E+00  .787E+00  .114E+01  .143E+01  .152E+01  .126E+01  .199E+01  .221E+01
  .357E+01  .223E+01  .195E+01  .241E+01  .283E+01  .444E+01  .462E+01  .470E+01
  .668E+01  .444E+01  .567E+01  .779E+01  .870E+01  .100E+02  .561E+01  .628E+01
  .471E+01  .417E+01  .668E+01  .315E+01  .431E+01  .314E+01  .202E+01  .205E+01
  .278E+01  .253E+01  .137E+01  .134E+01  .114E+01  .147E+01  .245E+01  .240E+01
  .235E+01  .145E+01  .776E+00  .489E+00  .841E+00  .705E+00  .675E+00  .114E+01
  .646E+00  .475E+00  .380E+00  .334E+00  .316E+00  .292E+00  .277E+00  .257E+00
  .243E+00  .232E+00  .220E+00  .208E+00  .196E+00  .176E+00  .159E+00  .142E+00
  .128E+00  .116E+00  .106E+00  .984E-01  .919E-01  .863E-01  .813E-01  .768E-01
  .727E-01  .691E-01  .658E-01  .628E-01  .000E+00  .000E+00  .000E+00  .000E+00
  .000E+00  .000E+00  .000E+00  .000E+00  .000E+00  .000E+00  .000E+00  .000E+00
  .000E+00  .000E+00  .000E+00  .000E+00  .000E+00  .000E+00  .000E+00  .000E+00
  .000E+00  .000E+00  .000E+00  .000E+00
  .713E+01  .692E+01  .693E+01  .693E+01  .811E+01  .697E+01  .741E+01  .737E+01
  .175E+02  .699E+01  .687E+01  .808E+01  .693E+01  .195E+02  .699E+01  .700E+01
  .811E+01  .714E+01  .800E+01  .856E+01  .793E+01  .108E+02  .721E+01  .841E+01
  .706E+01  .707E+01  .862E+01  .745E+01  .119E+02  .175E+02  .790E+01  .163E+02
  .152E+02  .196E+02  .886E+01  .801E+01  .803E+01  .884E+01  .156E+02  .106E+02
  .107E+02  .935E+01  .810E+01  .736E+01  .130E+02  .857E+01  .860E+01  .176E+02
  .123E+02  .231E+02  .836E+01  .810E+01  .257E+02  .692E+01  .692E+01  .692E+01
  .692E+01  .692E+01  .692E+01  .692E+01  .692E+01  .692E+01  .692E+01  .692E+01
  .692E+01  .692E+01  .692E+01  .692E+01  .692E+01  .692E+01  .692E+01  .692E+01
  .692E+01  .692E+01  .692E+01  .692E+01  .000E+00  .000E+00  .000E+00  .000E+00
  .000E+00  .000E+00  .000E+00  .000E+00  .000E+00  .000E+00  .000E+00  .000E+00
  .000E+00  .000E+00  .000E+00  .000E+00  .000E+00  .000E+00  .000E+00  .000E+00
  .000E+00  .000E+00  .000E+00  .000E+00
  .104E+02  .691E+01  .691E+01  .695E+01  .769E+01  .695E+01  .740E+01  .717E+01
  .177E+02  .701E+01  .689E+01  .120E+02  .695E+01  .196E+02  .768E+01  .702E+01
  .814E+01  .717E+01  .797E+01  .874E+01  .797E+01  .108E+02  .717E+01  .827E+01
  .702E+01  .702E+01  .867E+01  .740E+01  .119E+02  .695E+01  .695E+01  .695E+01
  .151E+02  .695E+01  .695E+01  .695E+01  .695E+01  .695E+01  .157E+02  .141E+02
  .108E+02  .695E+01  .695E+01  .695E+01  .695E+01  .695E+01  .695E+01  .695E+01
  .695E+01  .695E+01  .695E+01  .695E+01  .695E+01  .695E+01  .695E+01  .695E+01
  .695E+01  .695E+01  .695E+01  .695E+01  .695E+01  .695E+01  .695E+01  .695E+01
  .695E+01  .695E+01  .695E+01  .695E+01  .695E+01  .695E+01  .695E+01  .695E+01
  .695E+01  .695E+01  .695E+01  .695E+01  .000E+00  .000E+00  .000E+00  .000E+00
  .000E+00  .000E+00  .000E+00  .000E+00  .000E+00  .000E+00  .000E+00  .000E+00
  .000E+00  .000E+00  .000E+00  .000E+00  .000E+00  .000E+00  .000E+00  .000E+00
  .000E+00  .000E+00  .000E+00  .000E+00
  .713E+01  .692E+01  .693E+01  .693E+01  .811E+01  .697E+01  .741E+01  .737E+01
  .175E+02  .699E+01  .687E+01  .808E+01  .693E+01  .195E+02  .699E+01  .700E+01
  .811E+01  .714E+01  .800E+01  .856E+01  .793E+01  .108E+02  .721E+01  .841E+01
  .706E+01  .707E+01  .862E+01  .745E+01  .119E+02  .175E+02  .790E+01  .163E+02
  .152E+02  .196E+02  .886E+01  .801E+01  .803E+01  .884E+01  .156E+02  .106E+02
  .107E+02  .935E+01  .810E+01  .736E+01  .130E+02  .857E+01  .860E+01  .176E+02
  .123E+02  .231E+02  .836E+01  .810E+01  .257E+02  .692E+01  .692E+01  .692E+01
  .692E+01  .692E+01  .692E+01  .692E+01  .692E+01  .692E+01  .692E+01  .692E+01
  .692E+01  .692E+01  .692E+01  .692E+01  .692E+01  .692E+01  .692E+01  .692E+01
  .692E+01  .692E+01  .692E+01  .692E+01  .000E+00  .000E+00  .000E+00  .000E+00
  .000E+00  .000E+00  .000E+00  .000E+00  .000E+00  .000E+00  .000E+00  .000E+00
  .000E+00  .000E+00  .000E+00  .000E+00  .000E+00  .000E+00  .000E+00  .000E+00
  .000E+00  .000E+00  .000E+00  .000E+00
Damping =  .02. Data of Sd,Sv,Sa,Pssv,ttSd,ttSv,ttSa :
  .363E-02  .485E-02  .680E-02  .854E-02  .945E-02  .978E-02  .115E-01  .166E-01
  .216E-01  .212E-01  .205E-01  .245E-01  .331E-01  .468E-01  .596E-01  .650E-01
  .677E-01  .735E-01  .892E-01  .109E+00  .136E+00  .130E+00  .133E+00  .137E+00
  .131E+00  .123E+00  .151E+00  .105E+00  .107E+00  .101E+00  .906E-01  .834E-01
  .102E+00  .906E-01  .647E-01  .698E-01  .651E-01  .818E-01  .111E+00  .126E+00
  .128E+00  .105E+00  .665E-01  .489E-01  .631E-01  .758E-01  .767E-01  .740E-01
  .687E-01  .640E-01  .575E-01  .570E-01  .579E-01  .598E-01  .609E-01  .609E-01
  .614E-01  .621E-01  .625E-01  .624E-01  .621E-01  .614E-01  .603E-01  .587E-01
  .569E-01  .554E-01  .543E-01  .535E-01  .529E-01  .524E-01  .519E-01  .515E-01
  .511E-01  .508E-01  .505E-01  .502E-01  .000E+00  .000E+00  .000E+00  .000E+00
  .000E+00  .000E+00  .000E+00  .000E+00  .000E+00  .000E+00  .000E+00  .000E+00
  .000E+00  .000E+00  .000E+00  .000E+00  .000E+00  .000E+00  .000E+00  .000E+00
  .000E+00  .000E+00  .000E+00  .000E+00
  .434E+00  .425E+00  .546E+00  .667E+00  .888E+00  .985E+00  .109E+01  .165E+01
  .188E+01  .155E+01  .150E+01  .171E+01  .195E+01  .287E+01  .352E+01  .374E+01
  .366E+01  .376E+01  .416E+01  .488E+01  .589E+01  .529E+01  .503E+01  .471E+01
  .441E+01  .416E+01  .440E+01  .334E+01  .329E+01  .322E+01  .301E+01  .285E+01
  .271E+01  .251E+01  .231E+01  .220E+01  .216E+01  .214E+01  .211E+01  .207E+01
  .203E+01  .195E+01  .194E+01  .193E+01  .192E+01  .191E+01  .189E+01  .189E+01
  .188E+01  .187E+01  .186E+01  .184E+01  .182E+01  .180E+01  .179E+01  .177E+01
  .177E+01  .176E+01  .175E+01  .174E+01  .174E+01  .173E+01  .172E+01  .171E+01
  .171E+01  .171E+01  .171E+01  .171E+01  .171E+01  .171E+01  .171E+01  .171E+01
  .171E+01  .171E+01  .171E+01  .171E+01  .000E+00  .000E+00  .000E+00  .000E+00
  .000E+00  .000E+00  .000E+00  .000E+00  .000E+00  .000E+00  .000E+00  .000E+00
  .000E+00  .000E+00  .000E+00  .000E+00  .000E+00  .000E+00  .000E+00  .000E+00
  .000E+00  .000E+00  .000E+00  .000E+00
  .233E+00  .282E+00  .359E+00  .413E+00  .421E+00  .399E+00  .387E+00  .471E+00
  .519E+00  .443E+00  .372E+00  .391E+00  .469E+00  .590E+00  .676E+00  .660E+00
  .569E+00  .519E+00  .540E+00  .575E+00  .615E+00  .522E+00  .471E+00  .433E+00
  .370E+00  .317E+00  .318E+00  .186E+00  .161E+00  .131E+00  .103E+00  .839E-01
  .906E-01  .717E-01  .460E-01  .446E-01  .377E-01  .432E-01  .538E-01  .560E-01
  .526E-01  .354E-01  .190E-01  .119E-01  .132E-01  .138E-01  .123E-01  .105E-01
  .868E-02  .726E-02  .590E-02  .490E-02  .422E-02  .373E-02  .330E-02  .290E-02
  .258E-02  .233E-02  .210E-02  .190E-02  .172E-02  .143E-02  .120E-02  .101E-02
  .862E-03  .744E-03  .652E-03  .579E-03  .520E-03  .470E-03  .427E-03  .391E-03
  .361E-03  .335E-03  .313E-03  .293E-03  .000E+00  .000E+00  .000E+00  .000E+00
  .000E+00  .000E+00  .000E+00  .000E+00  .000E+00  .000E+00  .000E+00  .000E+00
  .000E+00  .000E+00  .000E+00  .000E+00  .000E+00  .000E+00  .000E+00  .000E+00
  .000E+00  .000E+00  .000E+00  .000E+00
  .571E+00  .726E+00  .972E+00  .117E+01  .124E+01  .123E+01  .131E+01  .174E+01
  .208E+01  .190E+01  .172E+01  .193E+01  .245E+01  .327E+01  .394E+01  .409E+01
  .386E+01  .385E+01  .431E+01  .491E+01  .571E+01  .511E+01  .492E+01  .477E+01
  .432E+01  .387E+01  .432E+01  .276E+01  .258E+01  .226E+01  .190E+01  .164E+01
  .189E+01  .158E+01  .107E+01  .110E+01  .974E+00  .117E+01  .152E+01  .165E+01
  .161E+01  .120E+01  .696E+00  .473E+00  .566E+00  .635E+00  .603E+00  .547E+00
  .479E+00  .423E+00  .361E+00  .326E+00  .303E+00  .289E+00  .273E+00  .255E+00
  .241E+00  .229E+00  .218E+00  .206E+00  .195E+00  .175E+00  .158E+00  .142E+00
  .128E+00  .116E+00  .107E+00  .988E-01  .923E-01  .866E-01  .816E-01  .771E-01
  .730E-01  .694E-01  .661E-01  .631E-01  .000E+00  .000E+00  .000E+00  .000E+00
  .000E+00  .000E+00  .000E+00  .000E+00  .000E+00  .000E+00  .000E+00  .000E+00
  .000E+00  .000E+00  .000E+00  .000E+00  .000E+00  .000E+00  .000E+00  .000E+00
  .000E+00  .000E+00  .000E+00  .000E+00
  .697E+01  .692E+01  .693E+01  .693E+01  .694E+01  .694E+01  .697E+01  .707E+01
  .698E+01  .699E+01  .687E+01  .692E+01  .693E+01  .699E+01  .699E+01  .700E+01
  .701E+01  .714E+01  .715E+01  .723E+01  .748E+01  .719E+01  .705E+01  .705E+01
  .706E+01  .706E+01  .818E+01  .699E+01  .831E+01  .700E+01  .700E+01  .700E+01
  .838E+01  .861E+01  .799E+01  .801E+01  .743E+01  .863E+01  .889E+01  .893E+01
  .922E+01  .880E+01  .810E+01  .701E+01  .855E+01  .857E+01  .860E+01  .125E+02
  .832E+01  .834E+01  .836E+01  .692E+01  .692E+01  .692E+01  .692E+01  .692E+01
  .692E+01  .692E+01  .692E+01  .692E+01  .692E+01  .692E+01  .692E+01  .692E+01
  .692E+01  .692E+01  .692E+01  .692E+01  .692E+01  .692E+01  .692E+01  .692E+01
  .692E+01  .692E+01  .692E+01  .692E+01  .000E+00  .000E+00  .000E+00  .000E+00
  .000E+00  .000E+00  .000E+00  .000E+00  .000E+00  .000E+00  .000E+00  .000E+00
  .000E+00  .000E+00  .000E+00  .000E+00  .000E+00  .000E+00  .000E+00  .000E+00
  .000E+00  .000E+00  .000E+00  .000E+00
  .696E+01  .691E+01  .691E+01  .695E+01  .695E+01  .695E+01  .707E+01  .709E+01
  .709E+01  .697E+01  .689E+01  .689E+01  .696E+01  .696E+01  .697E+01  .697E+01
  .709E+01  .711E+01  .725E+01  .727E+01  .744E+01  .739E+01  .708E+01  .709E+01
  .702E+01  .702E+01  .823E+01  .703E+01  .695E+01  .695E+01  .695E+01  .695E+01
  .695E+01  .695E+01  .695E+01  .695E+01  .695E+01  .695E+01  .695E+01  .695E+01
  .695E+01  .695E+01  .695E+01  .695E+01  .695E+01  .695E+01  .695E+01  .695E+01
  .695E+01  .695E+01  .695E+01  .695E+01  .695E+01  .695E+01  .695E+01  .695E+01
  .695E+01  .695E+01  .695E+01  .695E+01  .695E+01  .695E+01  .695E+01  .695E+01
  .695E+01  .695E+01  .695E+01  .695E+01  .695E+01  .695E+01  .695E+01  .695E+01
  .695E+01  .695E+01  .695E+01  .695E+01  .000E+00  .000E+00  .000E+00  .000E+00
  .000E+00  .000E+00  .000E+00  .000E+00  .000E+00  .000E+00  .000E+00  .000E+00
  .000E+00  .000E+00  .000E+00  .000E+00  .000E+00  .000E+00  .000E+00  .000E+00
  .000E+00  .000E+00  .000E+00  .000E+00
  .697E+01  .692E+01  .693E+01  .693E+01  .694E+01  .694E+01  .697E+01  .707E+01
  .698E+01  .699E+01  .687E+01  .692E+01  .693E+01  .699E+01  .699E+01  .700E+01
  .701E+01  .714E+01  .715E+01  .723E+01  .748E+01  .719E+01  .704E+01  .705E+01
  .706E+01  .706E+01  .818E+01  .699E+01  .830E+01  .700E+01  .700E+01  .700E+01
  .838E+01  .861E+01  .799E+01  .801E+01  .743E+01  .885E+01  .889E+01  .893E+01
  .922E+01  .879E+01  .810E+01  .700E+01  .854E+01  .856E+01  .859E+01  .125E+02
  .831E+01  .834E+01  .835E+01  .691E+01  .691E+01  .691E+01  .691E+01  .691E+01
  .691E+01  .691E+01  .691E+01  .691E+01  .691E+01  .691E+01  .691E+01  .691E+01
  .691E+01  .691E+01  .691E+01  .691E+01  .691E+01  .691E+01  .691E+01  .691E+01
  .690E+01  .690E+01  .690E+01  .690E+01  .000E+00  .000E+00  .000E+00  .000E+00
  .000E+00  .000E+00  .000E+00  .000E+00  .000E+00  .000E+00  .000E+00  .000E+00
  .000E+00  .000E+00  .000E+00  .000E+00  .000E+00  .000E+00  .000E+00  .000E+00
  .000E+00  .000E+00  .000E+00  .000E+00
Damping =  .05. Data of Sd,Sv,Sa,Pssv,ttSd,ttSv,ttSa :
  .370E-02  .453E-02  .592E-02  .728E-02  .829E-02  .900E-02  .105E-01  .140E-01
  .177E-01  .179E-01  .175E-01  .201E-01  .276E-01  .392E-01  .487E-01  .539E-01
