Response and Fourier amplitude spectra (91 periods,  .04 - 15.0 sec)   for      
Corrected accelerogram   14826-L1182-01248.03       Chan  1: 360 Deg     from   
Uncorrected Accelerogram Data             Processed: 09/10/01, CDMG  826bj003   
Record of Sun Sep  9, 2001 16:59:18 PDT               (Avol1 v4.6  7/01 CSMIP)  
CSMIP Preliminary Processing            (Origin:  To be determined)             
14826-L1182-01248.03                 Start time:  9/09/01, 23:59:18.0 UTC (GPS) 
Station No. 14826   33.996N, 118.255W      Etna  s/n 1182  (3 Channels)         
Los Angeles - 52nd & Central                                                    
Chan  1: 360 Deg                                                                
Record of Sun Sep  9, 2001 16:59:18 PDT    Sun Sep  9, 2001 16:59:18 PDT        
Hypocenter:  To be determined.               ML:  To be determined.             
Instr Period =  .0108 sec,  Damping =  .670,  Sensitivity =  .63  v/g           
                        Record length = 46.000 sec.                             
                                     Uncor Max  =   .101 g, at   7.875 sec.     
RMS accel of (uncor) record  =        .                                         
Accelerogram bandpass filtered with 3 dB pts at   .30 and 40.00 cyc/sec         
                 instrument- and baseline-corrected                             
                                                                                
                                                                                
                                                                                
                                                                                
                                                                                
Record of Sun Sep  9, 2001 16:59:18 PDT    Sun Sep  9, 2001 16:59:18 PDT        
                                                                                
14826-L1182-01248.03      Los Angeles - 52nd & Central    Chan  1: 360 Deg      
                                                                                
14826-L1182-01248.03      Los Angeles - 52nd & Central    Chan  1: 360 Deg      
                                                                                
Units for spectra are inches and sec, except Sa is in fraction of g.            
                                                                                
    1  100    1    3    3  200    1    3    1   24   12 1182    014826    1    0
   23   59   18    0  252    9    9 2001   10    3  360 9200   39   28   72  360
 9200    1   50    3 1182    1    3  460    1    0    0    0    0    0    0    0
    0    4    0    0 4600    2    0    0    0    0   72   28    0    0    0 4600
    0 4600   29   91    1    3    0    0    0    0    3    0    0    0    0    2
    2    2    4    0   32   99    0   32   32    0    0    1    0    0    0    0
  -99   -1    0    0
      .011      .670    46.000      .006      .000   625.000      .101     7.875
    92.400      .298      .477      .000     5.000      .000      .000      .000
     2.500    -7.301      .035     -.068     5.000    30.000      .000      .005
     -.002     -.007     2.000    15.000    33.996  -118.255      .017      .344
    20.413     -.024      .009  -999.000      .000      .000   -13.400      .000
  1000.000    -1.012      .000      .000      .000      .000      .000      .000
     4.600     4.400      .000   980.665      .010    46.000    14.706      .000
      .000    40.000      .000    46.000      .010      .300      .000      .000
     7.870    99.021     7.800    -3.889     7.710      .194      .000      .300
    40.000      .010      .010      .000      .590      .049      .000      .000
      .324      .190      .292      .217      .012      .001      .000      .000
      .000      .000      .000      .000      .000      .000      .000      .000
      .000      .000      .000      .000
      .050
      .040      .042      .044      .046      .048      .050      .055      .060
      .065      .070      .075      .080      .085      .090      .095      .100
      .110      .120      .130      .140      .150      .160      .170      .180
      .190      .200      .220      .240      .260      .280      .300      .320
      .340      .360      .380      .400      .420      .440      .460      .480
      .500      .550      .600      .650      .700      .750      .800      .850
      .900      .950     1.000     1.100     1.200     1.300     1.400     1.500
     1.600     1.700     1.800     1.900     2.000     2.200     2.400     2.600
     2.800     3.000     3.200     3.400     3.600     3.800     4.000     4.200
     4.400     4.600     4.800     5.000     5.500     6.000     6.500     7.000
     7.500     8.000     8.500     9.000     9.500    10.000    11.000    12.000
    13.000    14.000    15.000      .000      .000      .000      .000      .000
      .000      .000      .000      .000
Fourier amplitude spectra in in/sec.
  .000E+00  .000E+00  .000E+00  .000E+00  .000E+00  .000E+00  .000E+00  .000E+00
  .000E+00  .000E+00  .000E+00  .000E+00  .000E+00  .000E+00  .000E+00  .000E+00
  .000E+00  .000E+00  .000E+00  .000E+00  .000E+00  .000E+00  .000E+00  .000E+00
  .000E+00  .000E+00  .000E+00  .000E+00  .000E+00  .000E+00  .000E+00  .000E+00
  .000E+00  .000E+00  .000E+00  .000E+00  .000E+00  .000E+00  .000E+00  .000E+00
  .000E+00  .000E+00  .000E+00  .000E+00  .000E+00  .000E+00  .000E+00  .000E+00
  .000E+00  .000E+00  .000E+00  .000E+00  .000E+00  .000E+00  .000E+00  .000E+00
  .000E+00  .000E+00  .000E+00  .000E+00  .000E+00  .000E+00  .000E+00  .000E+00
  .000E+00  .000E+00  .000E+00  .000E+00  .000E+00  .000E+00  .000E+00  .000E+00
  .000E+00  .000E+00  .000E+00  .000E+00  .000E+00  .000E+00  .000E+00  .000E+00
  .000E+00  .000E+00  .000E+00  .000E+00  .000E+00  .000E+00  .000E+00  .000E+00
  .000E+00  .000E+00  .000E+00  .000E+00  .000E+00  .000E+00  .000E+00  .000E+00
  .000E+00  .000E+00  .000E+00  .000E+00
Damping =  .05. Data of Sd,Sv,Sa,Pssv,ttSd,ttSv,ttSa :
  .162E-02  .180E-02  .193E-02  .213E-02  .233E-02  .246E-02  .323E-02  .383E-02
  .444E-02  .520E-02  .657E-02  .809E-02  .886E-02  .866E-02  .107E-01  .129E-01
  .197E-01  .253E-01  .329E-01  .423E-01  .559E-01  .686E-01  .833E-01  .965E-01
  .114E+00  .124E+00  .108E+00  .120E+00  .179E+00  .194E+00  .180E+00  .191E+00
  .222E+00  .247E+00  .252E+00  .241E+00  .216E+00  .183E+00  .160E+00  .147E+00
  .136E+00  .138E+00  .151E+00  .157E+00  .154E+00  .146E+00  .135E+00  .127E+00
  .121E+00  .117E+00  .114E+00  .114E+00  .116E+00  .117E+00  .116E+00  .115E+00
  .111E+00  .106E+00  .101E+00  .961E-01  .916E-01  .848E-01  .878E-01  .897E-01
  .904E-01  .902E-01  .894E-01  .884E-01  .874E-01  .864E-01  .854E-01  .846E-01
  .839E-01  .832E-01  .826E-01  .821E-01  .811E-01  .803E-01  .798E-01  .795E-01
  .792E-01  .791E-01  .790E-01  .789E-01  .789E-01  .788E-01  .787E-01  .787E-01
  .785E-01  .785E-01  .785E-01  .000E+00  .000E+00  .000E+00  .000E+00  .000E+00
  .000E+00  .000E+00  .000E+00  .000E+00
  .577E-01  .661E-01  .786E-01  .836E-01  .939E-01  .107E+00  .109E+00  .148E+00
  .205E+00  .281E+00  .293E+00  .302E+00  .417E+00  .467E+00  .398E+00  .467E+00
  .731E+00  .108E+01  .136E+01  .154E+01  .194E+01  .230E+01  .255E+01  .308E+01
  .342E+01  .358E+01  .293E+01  .294E+01  .412E+01  .437E+01  .392E+01  .392E+01
  .442E+01  .459E+01  .445E+01  .442E+01  .411E+01  .365E+01  .325E+01  .296E+01
  .276E+01  .266E+01  .253E+01  .229E+01  .204E+01  .199E+01  .194E+01  .188E+01
  .183E+01  .179E+01  .175E+01  .171E+01  .169E+01  .169E+01  .169E+01  .170E+01
  .170E+01  .169E+01  .169E+01  .168E+01  .166E+01  .164E+01  .162E+01  .160E+01
  .159E+01  .158E+01  .157E+01  .156E+01  .155E+01  .155E+01  .154E+01  .154E+01
  .154E+01  .154E+01  .154E+01  .154E+01  .153E+01  .153E+01  .153E+01  .153E+01
  .153E+01  .153E+01  .153E+01  .153E+01  .153E+01  .153E+01  .153E+01  .153E+01
  .153E+01  .153E+01  .153E+01  .000E+00  .000E+00  .000E+00  .000E+00  .000E+00
  .000E+00  .000E+00  .000E+00  .000E+00
  .104E+00  .104E+00  .102E+00  .103E+00  .103E+00  .101E+00  .109E+00  .109E+00
  .108E+00  .109E+00  .119E+00  .130E+00  .126E+00  .110E+00  .121E+00  .133E+00
  .166E+00  .180E+00  .197E+00  .224E+00  .256E+00  .274E+00  .296E+00  .304E+00
  .324E+00  .320E+00  .232E+00  .214E+00  .272E+00  .253E+00  .206E+00  .191E+00
  .198E+00  .196E+00  .180E+00  .156E+00  .126E+00  .977E-01  .784E-01  .659E-01
  .562E-01  .471E-01  .434E-01  .387E-01  .328E-01  .271E-01  .221E-01  .185E-01
  .158E-01  .137E-01  .122E-01  .102E-01  .874E-02  .756E-02  .656E-02  .569E-02
  .491E-02  .422E-02  .364E-02  .316E-02  .278E-02  .221E-02  .180E-02  .157E-02
  .138E-02  .123E-02  .109E-02  .972E-03  .890E-03  .829E-03  .776E-03  .730E-03
  .688E-03  .651E-03  .617E-03  .586E-03  .524E-03  .474E-03  .432E-03  .396E-03
  .366E-03  .340E-03  .317E-03  .297E-03  .279E-03  .263E-03  .238E-03  .217E-03
  .199E-03  .184E-03  .171E-03  .000E+00  .000E+00  .000E+00  .000E+00  .000E+00
  .000E+00  .000E+00  .000E+00  .000E+00
  .254E+00  .269E+00  .276E+00  .290E+00  .304E+00  .309E+00  .369E+00  .401E+00
  .429E+00  .467E+00  .551E+00  .635E+00  .655E+00  .605E+00  .707E+00  .813E+00
  .113E+01  .132E+01  .159E+01  .190E+01  .234E+01  .269E+01  .308E+01  .337E+01
  .376E+01  .389E+01  .309E+01  .313E+01  .434E+01  .434E+01  .378E+01  .375E+01
  .411E+01  .432E+01  .417E+01  .379E+01  .323E+01  .262E+01  .219E+01  .193E+01
  .171E+01  .157E+01  .158E+01  .152E+01  .138E+01  .122E+01  .106E+01  .938E+00
  .845E+00  .773E+00  .719E+00  .654E+00  .607E+00  .564E+00  .523E+00  .480E+00
  .436E+00  .393E+00  .353E+00  .318E+00  .288E+00  .242E+00  .230E+00  .217E+00
  .203E+00  .189E+00  .176E+00  .163E+00  .152E+00  .143E+00  .134E+00  .127E+00
  .120E+00  .114E+00  .108E+00  .103E+00  .926E-01  .841E-01  .772E-01  .714E-01
  .664E-01  .621E-01  .584E-01  .551E-01  .522E-01  .495E-01  .450E-01  .412E-01
  .380E-01  .352E-01  .329E-01  .000E+00  .000E+00  .000E+00  .000E+00  .000E+00
  .000E+00  .000E+00  .000E+00  .000E+00
  .787E+01  .787E+01  .788E+01  .787E+01  .787E+01  .788E+01  .786E+01  .787E+01
  .786E+01  .788E+01  .786E+01  .787E+01  .788E+01  .769E+01  .786E+01  .785E+01
  .787E+01  .788E+01  .797E+01  .772E+01  .774E+01  .775E+01  .786E+01  .788E+01
  .799E+01  .801E+01  .803E+01  .802E+01  .804E+01  .806E+01  .807E+01  .808E+01
  .810E+01  .795E+01  .796E+01  .798E+01  .799E+01  .799E+01  .784E+01  .784E+01
  .784E+01  .784E+01  .784E+01  .785E+01  .785E+01  .786E+01  .786E+01  .786E+01
  .786E+01  .786E+01  .786E+01  .786E+01  .786E+01  .786E+01  .786E+01  .786E+01
  .786E+01  .786E+01  .786E+01  .786E+01  .786E+01  .770E+01  .770E+01  .770E+01
  .770E+01  .770E+01  .770E+01  .770E+01  .770E+01  .770E+01  .770E+01  .770E+01
  .770E+01  .770E+01  .770E+01  .770E+01  .770E+01  .770E+01  .770E+01  .770E+01
  .770E+01  .770E+01  .770E+01  .770E+01  .770E+01  .770E+01  .770E+01  .770E+01
  .770E+01  .770E+01  .770E+01  .000E+00  .000E+00  .000E+00  .000E+00  .000E+00
  .000E+00  .000E+00  .000E+00  .000E+00
  .790E+01  .790E+01  .790E+01  .790E+01  .790E+01  .790E+01  .790E+01  .790E+01
  .743E+01  .759E+01  .760E+01  .765E+01  .791E+01  .766E+01  .767E+01  .766E+01
  .791E+01  .792E+01  .793E+01  .769E+01  .770E+01  .779E+01  .781E+01  .793E+01
  .794E+01  .806E+01  .808E+01  .808E+01  .810E+01  .799E+01  .800E+01  .801E+01
  .801E+01  .803E+01  .789E+01  .790E+01  .790E+01  .791E+01  .791E+01  .791E+01
  .791E+01  .791E+01  .791E+01  .792E+01  .792E+01  .778E+01  .778E+01  .779E+01
  .779E+01  .779E+01  .779E+01  .779E+01  .779E+01  .779E+01  .779E+01  .779E+01
  .779E+01  .779E+01  .779E+01  .779E+01  .779E+01  .779E+01  .779E+01  .779E+01
  .779E+01  .779E+01  .779E+01  .779E+01  .779E+01  .779E+01  .779E+01  .779E+01
  .779E+01  .779E+01  .779E+01  .779E+01  .779E+01  .779E+01  .779E+01  .779E+01
  .779E+01  .779E+01  .779E+01  .779E+01  .779E+01  .779E+01  .779E+01  .779E+01
  .779E+01  .779E+01  .779E+01  .000E+00  .000E+00  .000E+00  .000E+00  .000E+00
  .000E+00  .000E+00  .000E+00  .000E+00
  .787E+01  .787E+01  .787E+01  .787E+01  .787E+01  .787E+01  .786E+01  .787E+01
  .786E+01  .788E+01  .786E+01  .787E+01  .788E+01  .769E+01  .786E+01  .785E+01
  .787E+01  .788E+01  .796E+01  .772E+01  .773E+01  .775E+01  .786E+01  .788E+01
  .799E+01  .800E+01  .802E+01  .802E+01  .803E+01  .805E+01  .807E+01  .808E+01
  .809E+01  .795E+01  .796E+01  .797E+01  .798E+01  .799E+01  .783E+01  .783E+01
  .783E+01  .783E+01  .783E+01  .784E+01  .784E+01  .784E+01  .784E+01  .784E+01
  .784E+01  .784E+01  .784E+01  .784E+01  .784E+01  .784E+01  .784E+01  .784E+01
  .784E+01  .784E+01  .784E+01  .784E+01  .783E+01  .783E+01  .783E+01  .767E+01
  .767E+01  .767E+01  .767E+01  .767E+01  .782E+01  .782E+01  .782E+01  .782E+01
  .782E+01  .782E+01  .782E+01  .782E+01  .781E+01  .781E+01  .781E+01  .781E+01
  .781E+01  .781E+01  .781E+01  .781E+01  .781E+01  .781E+01  .780E+01  .780E+01
  .780E+01  .780E+01  .780E+01  .000E+00  .000E+00  .000E+00  .000E+00  .000E+00
  .000E+00  .000E+00  .000E+00  .000E+00
/&   ----------  End of spectral data for channel  1  ----------
Response and Fourier amplitude spectra (91 periods,  .04 - 15.0 sec)   for      
Corrected accelerogram   14826-L1182-01248.03       Chan  2:  Up         from   
Uncorrected Accelerogram Data             Processed: 09/10/01, CDMG  826bj003   
Record of Sun Sep  9, 2001 16:59:18 PDT               (Avol1 v4.6  7/01 CSMIP)  
CSMIP Preliminary Processing            (Origin:  To be determined)             
14826-L1182-01248.03                 Start time:  9/09/01, 23:59:18.0 UTC (GPS) 
Station No. 14826   33.996N, 118.255W      Etna  s/n 1182  (3 Channels)         
Los Angeles - 52nd & Central                                                    
Chan  2:  Up                                                                    
Record of Sun Sep  9, 2001 16:59:18 PDT    Sun Sep  9, 2001 16:59:18 PDT        
Hypocenter:  To be determined.               ML:  To be determined.             
Instr Period =  .0111 sec,  Damping =  .680,  Sensitivity =  .63  v/g           
                        Record length = 46.000 sec.                             
                                     Uncor Max  =   .057 g, at   3.780 sec.     
RMS accel of (uncor) record  =        .                                         
Accelerogram bandpass filtered with 3 dB pts at   .30 and 40.00 cyc/sec         
                 instrument- and baseline-corrected                             
                                                                                
                                                                                
                                                                                
                                                                                
                                                                                
Record of Sun Sep  9, 2001 16:59:18 PDT    Sun Sep  9, 2001 16:59:18 PDT        
                                                                                
14826-L1182-01248.03      Los Angeles - 52nd & Central    Chan  2:  Up          
                                                                                
14826-L1182-01248.03      Los Angeles - 52nd & Central    Chan  2:  Up          
                                                                                
Units for spectra are inches and sec, except Sa is in fraction of g.            
                                                                                
    2  100    2    3    3  200    1    3    1   24   12 1182    014826    1    0
   23   59   18    0  252    9    9 2001   10    3  500 9200   39   28   72  360
 9200    1   50    3 1182    1    3  460    1    0    0    0    0    0    0    0
    0    4    0    0 4600    2    0    0    0    0   72   28    0    0    0 4600
    0 4600   29   91    1    3    0    0    0    0    3    0    0    0    0    2
    2    2    4    0   32   99    0   32   32    0    0    1    0    0    0    0
  -99   -1    0    0
      .011      .680    46.000      .004      .000   625.000      .057     3.780
    90.200      .298      .477      .000     5.000      .000      .000      .000
     2.500   -46.644     -.006     -.065     5.000    30.000      .000      .005
     -.002     -.007     2.000    15.000    33.996  -118.255      .040      .187
     4.721     -.017      .003  -999.000      .000      .000   -13.400      .000
  1000.000     1.009      .000      .000      .000      .000      .000      .000
     4.600     4.400      .000   980.665      .010    46.000    14.356      .000
      .000    40.000      .000    46.000      .010      .300      .000      .000
     3.780    55.726     7.860     1.227     7.920      .052      .000      .300
    40.000      .010      .010      .000      .010      .026      .000      .000
      .175      .070      .068      .087      .003      .000      .000      .000
      .000      .000      .000      .000      .000      .000      .000      .000
      .000      .000      .000      .000
      .050
      .040      .042      .044      .046      .048      .050      .055      .060
      .065      .070      .075      .080      .085      .090      .095      .100
      .110      .120      .130      .140      .150      .160      .170      .180
      .190      .200      .220      .240      .260      .280      .300      .320
      .340      .360      .380      .400      .420      .440      .460      .480
      .500      .550      .600      .650      .700      .750      .800      .850
      .900      .950     1.000     1.100     1.200     1.300     1.400     1.500
     1.600     1.700     1.800     1.900     2.000     2.200     2.400     2.600
     2.800     3.000     3.200     3.400     3.600     3.800     4.000     4.200
     4.400     4.600     4.800     5.000     5.500     6.000     6.500     7.000
     7.500     8.000     8.500     9.000     9.500    10.000    11.000    12.000
    13.000    14.000    15.000      .000      .000      .000      .000      .000
      .000      .000      .000      .000
Fourier amplitude spectra in in/sec.
  .000E+00  .000E+00  .000E+00  .000E+00  .000E+00  .000E+00  .000E+00  .000E+00
  .000E+00  .000E+00  .000E+00  .000E+00  .000E+00  .000E+00  .000E+00  .000E+00
  .000E+00  .000E+00  .000E+00  .000E+00  .000E+00  .000E+00  .000E+00  .000E+00
  .000E+00  .000E+00  .000E+00  .000E+00  .000E+00  .000E+00  .000E+00  .000E+00
  .000E+00  .000E+00  .000E+00  .000E+00  .000E+00  .000E+00  .000E+00  .000E+00
  .000E+00  .000E+00  .000E+00  .000E+00  .000E+00  .000E+00  .000E+00  .000E+00
  .000E+00  .000E+00  .000E+00  .000E+00  .000E+00  .000E+00  .000E+00  .000E+00
  .000E+00  .000E+00  .000E+00  .000E+00  .000E+00  .000E+00  .000E+00  .000E+00
  .000E+00  .000E+00  .000E+00  .000E+00  .000E+00  .000E+00  .000E+00  .000E+00
  .000E+00  .000E+00  .000E+00  .000E+00  .000E+00  .000E+00  .000E+00  .000E+00
  .000E+00  .000E+00  .000E+00  .000E+00  .000E+00  .000E+00  .000E+00  .000E+00
  .000E+00  .000E+00  .000E+00  .000E+00  .000E+00  .000E+00  .000E+00  .000E+00
  .000E+00  .000E+00  .000E+00  .000E+00
Damping =  .05. Data of Sd,Sv,Sa,Pssv,ttSd,ttSv,ttSa :
  .120E-02  .133E-02  .144E-02  .150E-02  .157E-02  .182E-02  .290E-02  .372E-02
  .559E-02  .833E-02  .757E-02  .915E-02  .110E-01  .128E-01  .141E-01  .144E-01
  .149E-01  .162E-01  .197E-01  .239E-01  .179E-01  .164E-01  .161E-01  .178E-01
  .209E-01  .298E-01  .309E-01  .360E-01  .603E-01  .697E-01  .801E-01  .786E-01
  .789E-01  .736E-01  .637E-01  .592E-01  .541E-01  .550E-01  .555E-01  .557E-01
