Response and Fourier amplitude spectra (91 periods,  .04 - 15.0 sec)   for      
Corrected accelerogram   24020-L1820-01252.06       Chan  1:   0 Deg     from   
Uncorrected Accelerogram Data             Processed: 09/10/01, CDMG  020at006   
Record of Sun Sep  9, 2001 16:59:19 PDT               (Avol1 v4.6  7/01 CSMIP)  
CSMIP Preliminary Processing            (Origin:  To be determined)             
24020-L1820-01252.06                 Start time:  9/09/01, 23:59:19.0 UTC (GPS) 
Station No. 24020   34.075N, 118.218W      Etna  s/n 1820  (3 Channels)         
Los Angeles - I5 & Pasadena Ave                                                 
Chan  1:   0 Deg                                                                
Record of Sun Sep  9, 2001 16:59:19 PDT    Sun Sep  9, 2001 16:59:19 PDT        
Hypocenter:  To be determined.               ML:  To be determined.             
Instr Period =  .0108 sec,  Damping =  .670,  Sensitivity =  .63  v/g           
                        Record length = 39.000 sec.                             
                                     Uncor Max  =   .012 g, at   5.365 sec.     
RMS accel of (uncor) record  =        .                                         
Accelerogram bandpass filtered with 3 dB pts at   .30 and 40.00 cyc/sec         
                 instrument- and baseline-corrected                             
                                                                                
                                                                                
                                                                                
                                                                                
                                                                                
Record of Sun Sep  9, 2001 16:59:19 PDT    Sun Sep  9, 2001 16:59:19 PDT        
                                                                                
24020-L1820-01252.06      Los Angeles - I5 & Pasadena Ave   Chan  1:   0 Deg    
                                                                                
24020-L1820-01252.06      Los Angeles - I5 & Pasadena Ave   Chan  1:   0 Deg    
                                                                                
Units for spectra are inches and sec, except Sa is in fraction of g.            
                                                                                
    1  100    1    3    3  200    1    3    1   24   12 1820    024020    1    0
   23   59   19    0  252    9    9 2001   10    3    0 7800   39   31   72 -999
 7800    1   50    3 1820    1    6  390    1    0    0    0    0    0    0    0
    0    4    0    0 3900    2    0    0    0    0   72   31    0    0    0 3900
    0 3900   32   91    1    3    0    0    0    0    3    0    0    0    0    2
    2    2    4    0   32   99 -999   32   32    0    0    1    0    0    0    0
  -99   -1    0    0
      .011      .670    39.000      .002      .000   625.000      .012     5.365
    92.300      .298      .477      .000     5.000      .000      .000      .000
     2.500   -10.080      .001     -.014     5.000    30.000      .000     -.006
     -.001      .005     2.000    15.000    34.075  -118.218      .059      .220
     3.710     -.008      .018  -999.000      .000      .000   -13.400      .000
  1000.000     1.014      .000      .000      .000      .000      .000      .000
     4.600     4.400      .000   980.665      .010    39.000    14.690      .000
      .000    40.000      .000    39.000      .010      .300      .000      .000
     5.360    11.507     5.070     -.486     5.200     -.042      .000      .300
    40.000      .010      .010      .000      .010      .016      .000      .000
      .037      .110      .022      .020      .003      .000      .000      .000
      .000      .000      .000      .000      .000      .000      .000      .000
      .000      .000      .000      .000
      .050
      .040      .042      .044      .046      .048      .050      .055      .060
      .065      .070      .075      .080      .085      .090      .095      .100
      .110      .120      .130      .140      .150      .160      .170      .180
      .190      .200      .220      .240      .260      .280      .300      .320
      .340      .360      .380      .400      .420      .440      .460      .480
      .500      .550      .600      .650      .700      .750      .800      .850
      .900      .950     1.000     1.100     1.200     1.300     1.400     1.500
     1.600     1.700     1.800     1.900     2.000     2.200     2.400     2.600
     2.800     3.000     3.200     3.400     3.600     3.800     4.000     4.200
     4.400     4.600     4.800     5.000     5.500     6.000     6.500     7.000
     7.500     8.000     8.500     9.000     9.500    10.000    11.000    12.000
    13.000    14.000    15.000      .000      .000      .000      .000      .000
      .000      .000      .000      .000
Fourier amplitude spectra in in/sec.
  .000E+00  .000E+00  .000E+00  .000E+00  .000E+00  .000E+00  .000E+00  .000E+00
  .000E+00  .000E+00  .000E+00  .000E+00  .000E+00  .000E+00  .000E+00  .000E+00
  .000E+00  .000E+00  .000E+00  .000E+00  .000E+00  .000E+00  .000E+00  .000E+00
  .000E+00  .000E+00  .000E+00  .000E+00  .000E+00  .000E+00  .000E+00  .000E+00
  .000E+00  .000E+00  .000E+00  .000E+00  .000E+00  .000E+00  .000E+00  .000E+00
  .000E+00  .000E+00  .000E+00  .000E+00  .000E+00  .000E+00  .000E+00  .000E+00
  .000E+00  .000E+00  .000E+00  .000E+00  .000E+00  .000E+00  .000E+00  .000E+00
  .000E+00  .000E+00  .000E+00  .000E+00  .000E+00  .000E+00  .000E+00  .000E+00
  .000E+00  .000E+00  .000E+00  .000E+00  .000E+00  .000E+00  .000E+00  .000E+00
  .000E+00  .000E+00  .000E+00  .000E+00  .000E+00  .000E+00  .000E+00  .000E+00
  .000E+00  .000E+00  .000E+00  .000E+00  .000E+00  .000E+00  .000E+00  .000E+00
  .000E+00  .000E+00  .000E+00  .000E+00  .000E+00  .000E+00  .000E+00  .000E+00
  .000E+00  .000E+00  .000E+00  .000E+00
Damping =  .05. Data of Sd,Sv,Sa,Pssv,ttSd,ttSv,ttSa :
  .259E-03  .314E-03  .370E-03  .419E-03  .468E-03  .561E-03  .808E-03  .907E-03
  .116E-02  .145E-02  .141E-02  .195E-02  .241E-02  .255E-02  .212E-02  .302E-02
  .431E-02  .434E-02  .607E-02  .599E-02  .636E-02  .606E-02  .680E-02  .772E-02
  .789E-02  .878E-02  .101E-01  .117E-01  .137E-01  .174E-01  .185E-01  .162E-01
  .189E-01  .279E-01  .359E-01  .428E-01  .485E-01  .453E-01  .333E-01  .265E-01
  .264E-01  .265E-01  .322E-01  .238E-01  .274E-01  .342E-01  .392E-01  .326E-01
  .309E-01  .328E-01  .337E-01  .338E-01  .384E-01  .327E-01  .367E-01  .350E-01
  .334E-01  .326E-01  .319E-01  .312E-01  .302E-01  .278E-01  .259E-01  .252E-01
  .250E-01  .248E-01  .245E-01  .242E-01  .239E-01  .235E-01  .232E-01  .228E-01
  .225E-01  .222E-01  .220E-01  .217E-01  .212E-01  .208E-01  .205E-01  .202E-01
  .200E-01  .198E-01  .197E-01  .196E-01  .195E-01  .194E-01  .192E-01  .191E-01
  .190E-01  .190E-01  .189E-01  .000E+00  .000E+00  .000E+00  .000E+00  .000E+00
  .000E+00  .000E+00  .000E+00  .000E+00
  .223E-01  .261E-01  .335E-01  .428E-01  .498E-01  .554E-01  .874E-01  .934E-01
  .937E-01  .115E+00  .103E+00  .135E+00  .167E+00  .176E+00  .141E+00  .165E+00
  .237E+00  .236E+00  .286E+00  .281E+00  .251E+00  .243E+00  .232E+00  .260E+00
  .252E+00  .264E+00  .267E+00  .311E+00  .343E+00  .416E+00  .380E+00  .390E+00
  .404E+00  .528E+00  .615E+00  .670E+00  .758E+00  .683E+00  .487E+00  .394E+00
  .356E+00  .343E+00  .327E+00  .298E+00  .281E+00  .319E+00  .397E+00  .283E+00
  .246E+00  .262E+00  .256E+00  .277E+00  .275E+00  .304E+00  .250E+00  .220E+00
  .201E+00  .199E+00  .200E+00  .200E+00  .201E+00  .201E+00  .201E+00  .201E+00
  .201E+00  .202E+00  .201E+00  .201E+00  .201E+00  .201E+00  .201E+00  .200E+00
  .200E+00  .200E+00  .199E+00  .199E+00  .198E+00  .198E+00  .197E+00  .197E+00
  .196E+00  .196E+00  .196E+00  .196E+00  .195E+00  .195E+00  .195E+00  .195E+00
  .195E+00  .195E+00  .195E+00  .000E+00  .000E+00  .000E+00  .000E+00  .000E+00
  .000E+00  .000E+00  .000E+00  .000E+00
  .167E-01  .182E-01  .196E-01  .201E-01  .210E-01  .229E-01  .277E-01  .261E-01
  .279E-01  .302E-01  .259E-01  .313E-01  .340E-01  .325E-01  .243E-01  .315E-01
  .369E-01  .309E-01  .362E-01  .318E-01  .287E-01  .247E-01  .242E-01  .246E-01
  .224E-01  .224E-01  .215E-01  .208E-01  .209E-01  .229E-01  .210E-01  .162E-01
  .169E-01  .222E-01  .256E-01  .275E-01  .282E-01  .240E-01  .162E-01  .119E-01
  .109E-01  .902E-02  .920E-02  .580E-02  .576E-02  .627E-02  .632E-02  .466E-02
  .392E-02  .374E-02  .348E-02  .287E-02  .277E-02  .201E-02  .194E-02  .162E-02
  .135E-02  .119E-02  .104E-02  .902E-03  .785E-03  .605E-03  .489E-03  .407E-03
  .352E-03  .307E-03  .269E-03  .238E-03  .211E-03  .189E-03  .170E-03  .154E-03
  .140E-03  .128E-03  .117E-03  .108E-03  .915E-04  .796E-04  .704E-04  .631E-04
  .572E-04  .522E-04  .480E-04  .445E-04  .414E-04  .388E-04  .345E-04  .310E-04
  .282E-04  .259E-04  .239E-04  .000E+00  .000E+00  .000E+00  .000E+00  .000E+00
  .000E+00  .000E+00  .000E+00  .000E+00
  .407E-01  .469E-01  .528E-01  .572E-01  .613E-01  .705E-01  .923E-01  .949E-01
  .112E+00  .130E+00  .118E+00  .153E+00  .178E+00  .178E+00  .140E+00  .190E+00
  .246E+00  .227E+00  .293E+00  .269E+00  .267E+00  .238E+00  .251E+00  .269E+00
  .261E+00  .276E+00  .290E+00  .306E+00  .332E+00  .391E+00  .387E+00  .317E+00
  .349E+00  .487E+00  .594E+00  .673E+00  .725E+00  .647E+00  .455E+00  .347E+00
  .331E+00  .303E+00  .337E+00  .230E+00  .246E+00  .287E+00  .308E+00  .241E+00
  .216E+00  .217E+00  .212E+00  .193E+00  .201E+00  .158E+00  .165E+00  .147E+00
  .131E+00  .120E+00  .111E+00  .103E+00  .949E-01  .794E-01  .677E-01  .609E-01
  .562E-01  .519E-01  .481E-01  .447E-01  .416E-01  .389E-01  .364E-01  .342E-01
  .322E-01  .304E-01  .288E-01  .273E-01  .242E-01  .218E-01  .198E-01  .181E-01
  .167E-01  .156E-01  .145E-01  .137E-01  .129E-01  .122E-01  .110E-01  .100E-01
  .920E-02  .851E-02  .792E-02  .000E+00  .000E+00  .000E+00  .000E+00  .000E+00
  .000E+00  .000E+00  .000E+00  .000E+00
  .528E+01  .528E+01  .528E+01  .595E+01  .596E+01  .536E+01  .540E+01  .544E+01
  .530E+01  .530E+01  .588E+01  .589E+01  .571E+01  .572E+01  .572E+01  .632E+01
  .634E+01  .598E+01  .735E+01  .704E+01  .539E+01  .539E+01  .825E+01  .826E+01
  .827E+01  .828E+01  .841E+01  .857E+01  .585E+01  .590E+01  .593E+01  .536E+01
  .941E+01  .925E+01  .928E+01  .930E+01  .108E+02  .109E+02  .109E+02  .528E+01
  .529E+01  .149E+02  .136E+02  .119E+02  .116E+02  .109E+02  .107E+02  .107E+02
  .599E+01  .602E+01  .604E+01  .614E+01  .799E+01  .760E+01  .775E+01  .713E+01
  .651E+01  .581E+01  .582E+01  .586E+01  .586E+01  .587E+01  .105E+02  .518E+01
  .518E+01  .518E+01  .518E+01  .518E+01  .519E+01  .519E+01  .519E+01  .519E+01
  .519E+01  .519E+01  .519E+01  .519E+01  .519E+01  .519E+01  .519E+01  .519E+01
  .519E+01  .519E+01  .519E+01  .519E+01  .519E+01  .519E+01  .519E+01  .519E+01
  .519E+01  .519E+01  .519E+01  .000E+00  .000E+00  .000E+00  .000E+00  .000E+00
  .000E+00  .000E+00  .000E+00  .000E+00
  .593E+01  .594E+01  .594E+01  .597E+01  .597E+01  .597E+01  .541E+01  .542E+01
  .531E+01  .532E+01  .532E+01  .588E+01  .568E+01  .569E+01  .566E+01  .635E+01
  .637E+01  .595E+01  .738E+01  .701E+01  .557E+01  .536E+01  .830E+01  .831E+01
  .832E+01  .833E+01  .835E+01  .537E+01  .538E+01  .596E+01  .600E+01  .530E+01
  .531E+01  .934E+01  .936E+01  .920E+01  .923E+01  .906E+01  .908E+01  .908E+01
  .592E+01  .575E+01  .137E+02  .525E+01  .558E+01  .115E+02  .108E+02  .109E+02
  .109E+02  .106E+02  .676E+01  .592E+01  .592E+01  .789E+01  .790E+01  .894E+01
  .696E+01  .504E+01  .504E+01  .504E+01  .504E+01  .504E+01  .504E+01  .505E+01
  .505E+01  .505E+01  .505E+01  .505E+01  .505E+01  .505E+01  .505E+01  .505E+01
  .505E+01  .505E+01  .505E+01  .505E+01  .505E+01  .505E+01  .505E+01  .505E+01
  .505E+01  .505E+01  .505E+01  .505E+01  .505E+01  .505E+01  .505E+01  .505E+01
  .505E+01  .505E+01  .505E+01  .000E+00  .000E+00  .000E+00  .000E+00  .000E+00
  .000E+00  .000E+00  .000E+00  .000E+00
  .528E+01  .528E+01  .528E+01  .595E+01  .595E+01  .536E+01  .540E+01  .543E+01
  .530E+01  .530E+01  .588E+01  .589E+01  .570E+01  .571E+01  .572E+01  .632E+01
  .634E+01  .598E+01  .735E+01  .704E+01  .538E+01  .539E+01  .825E+01  .826E+01
  .827E+01  .827E+01  .841E+01  .857E+01  .585E+01  .589E+01  .593E+01  .536E+01
  .940E+01  .942E+01  .927E+01  .929E+01  .108E+02  .109E+02  .109E+02  .528E+01
  .528E+01  .149E+02  .136E+02  .119E+02  .116E+02  .109E+02  .107E+02  .107E+02
  .598E+01  .601E+01  .603E+01  .613E+01  .797E+01  .698E+01  .773E+01  .711E+01
  .650E+01  .578E+01  .578E+01  .578E+01  .585E+01  .585E+01  .105E+02  .516E+01
  .516E+01  .516E+01  .516E+01  .516E+01  .515E+01  .515E+01  .515E+01  .515E+01
  .515E+01  .515E+01  .515E+01  .515E+01  .509E+01  .508E+01  .508E+01  .508E+01
  .508E+01  .508E+01  .508E+01  .508E+01  .507E+01  .507E+01  .507E+01  .507E+01
  .507E+01  .507E+01  .507E+01  .000E+00  .000E+00  .000E+00  .000E+00  .000E+00
  .000E+00  .000E+00  .000E+00  .000E+00
/&   ----------  End of spectral data for channel  1  ----------
Response and Fourier amplitude spectra (91 periods,  .04 - 15.0 sec)   for      
Corrected accelerogram   24020-L1820-01252.06       Chan  2:   0 Deg     from   
Uncorrected Accelerogram Data             Processed: 09/10/01, CDMG  020at006   
Record of Sun Sep  9, 2001 16:59:19 PDT               (Avol1 v4.6  7/01 CSMIP)  
CSMIP Preliminary Processing            (Origin:  To be determined)             
24020-L1820-01252.06                 Start time:  9/09/01, 23:59:19.0 UTC (GPS) 
Station No. 24020   34.075N, 118.218W      Etna  s/n 1820  (3 Channels)         
Los Angeles - I5 & Pasadena Ave                                                 
Chan  2:   0 Deg                                                                
Record of Sun Sep  9, 2001 16:59:19 PDT    Sun Sep  9, 2001 16:59:19 PDT        
Hypocenter:  To be determined.               ML:  To be determined.             
Instr Period =  .0107 sec,  Damping =  .680,  Sensitivity =  .63  v/g           
                        Record length = 39.000 sec.                             
                                     Uncor Max  =   .011 g, at   5.855 sec.     
RMS accel of (uncor) record  =        .                                         
Accelerogram bandpass filtered with 3 dB pts at   .30 and 40.00 cyc/sec         
                 instrument- and baseline-corrected                             
                                                                                
                                                                                
                                                                                
                                                                                
                                                                                
Record of Sun Sep  9, 2001 16:59:19 PDT    Sun Sep  9, 2001 16:59:19 PDT        
                                                                                
24020-L1820-01252.06      Los Angeles - I5 & Pasadena Ave   Chan  2:   0 Deg    
                                                                                
24020-L1820-01252.06      Los Angeles - I5 & Pasadena Ave   Chan  2:   0 Deg    
                                                                                
Units for spectra are inches and sec, except Sa is in fraction of g.            
                                                                                
    2  100    2    3    3  200    1    3    1   24   12 1820    024020    1    0
   23   59   19    0  252    9    9 2001   10    3    0 7800   39   31   72 -999
 7800    1   50    3 1820    1    6  390    1    0    0    0    0    0    0    0
    0    4    0    0 3900    2    0    0    0    0   72   31    0    0    0 3900
    0 3900   32   91    1    3    0    0    0    0    3    0    0    0    0    2
    2    2    4    0   32   99 -999   32   32    0    0    1    0    0    0    0
  -99   -1    0    0
      .011      .680    39.000      .001      .000   625.000      .011     5.855
    93.200      .298      .477      .000     5.000      .000      .000      .000
     2.500   -44.269     -.022     -.035     5.000    30.000      .000     -.001
      .002      .004     2.000    15.000    34.075  -118.218      .087      .159
     1.819     -.010      .017  -999.000      .000      .000   -13.400      .000
  1000.000    -1.025      .000      .000      .000      .000      .000      .000
     4.600     4.400      .000   980.665      .010    39.000    14.833      .000
      .000    40.000      .000    39.000      .010      .300      .000      .000
     5.850    10.868     6.770     -.202     6.070      .014      .000      .300
    40.000      .010      .010      .000      .010      .009      .000      .000
      .038      .085      .015      .012      .001      .000      .000      .000
      .000      .000      .000      .000      .000      .000      .000      .000
      .000      .000      .000      .000
      .050
      .040      .042      .044      .046      .048      .050      .055      .060
      .065      .070      .075      .080      .085      .090      .095      .100
      .110      .120      .130      .140      .150      .160      .170      .180
      .190      .200      .220      .240      .260      .280      .300      .320
      .340      .360      .380      .400      .420      .440      .460      .480
      .500      .550      .600      .650      .700      .750      .800      .850
      .900      .950     1.000     1.100     1.200     1.300     1.400     1.500
     1.600     1.700     1.800     1.900     2.000     2.200     2.400     2.600
     2.800     3.000     3.200     3.400     3.600     3.800     4.000     4.200
     4.400     4.600     4.800     5.000     5.500     6.000     6.500     7.000
     7.500     8.000     8.500     9.000     9.500    10.000    11.000    12.000
    13.000    14.000    15.000      .000      .000      .000      .000      .000
      .000      .000      .000      .000
Fourier amplitude spectra in in/sec.
  .000E+00  .000E+00  .000E+00  .000E+00  .000E+00  .000E+00  .000E+00  .000E+00
  .000E+00  .000E+00  .000E+00  .000E+00  .000E+00  .000E+00  .000E+00  .000E+00
  .000E+00  .000E+00  .000E+00  .000E+00  .000E+00  .000E+00  .000E+00  .000E+00
  .000E+00  .000E+00  .000E+00  .000E+00  .000E+00  .000E+00  .000E+00  .000E+00
  .000E+00  .000E+00  .000E+00  .000E+00  .000E+00  .000E+00  .000E+00  .000E+00
  .000E+00  .000E+00  .000E+00  .000E+00  .000E+00  .000E+00  .000E+00  .000E+00
  .000E+00  .000E+00  .000E+00  .000E+00  .000E+00  .000E+00  .000E+00  .000E+00
  .000E+00  .000E+00  .000E+00  .000E+00  .000E+00  .000E+00  .000E+00  .000E+00
  .000E+00  .000E+00  .000E+00  .000E+00  .000E+00  .000E+00  .000E+00  .000E+00
  .000E+00  .000E+00  .000E+00  .000E+00  .000E+00  .000E+00  .000E+00  .000E+00
  .000E+00  .000E+00  .000E+00  .000E+00  .000E+00  .000E+00  .000E+00  .000E+00
  .000E+00  .000E+00  .000E+00  .000E+00  .000E+00  .000E+00  .000E+00  .000E+00
  .000E+00  .000E+00  .000E+00  .000E+00
Damping =  .05. Data of Sd,Sv,Sa,Pssv,ttSd,ttSv,ttSa :
  .248E-03  .264E-03  .277E-03  .329E-03  .420E-03  .502E-03  .699E-03  .771E-03
  .103E-02  .118E-02  .146E-02  .210E-02  .269E-02  .261E-02  .243E-02  .300E-02
  .361E-02  .480E-02  .581E-02  .492E-02  .416E-02  .361E-02  .470E-02  .683E-02
  .645E-02  .585E-02  .503E-02  .878E-02  .875E-02  .895E-02  .122E-01  .115E-01
  .127E-01  .122E-01  .125E-01  .127E-01  .172E-01  .179E-01  .174E-01  .168E-01
