Response and Fourier amplitude spectra (91 periods,  .04 - 15.0 sec)   for      
Corrected accelerogram   24652-F0214-01337.02       Chan  1:  Up         from   
Uncorrected Accelerogram Data             Processed: 06/06/08, CDMG  ce24652    
Record of Sun Sep  9, 2001 16:59:15.6 PDT             (Avol1 v7.5 7/07 CSMIP)   
CSMIP Preliminary Processing            (Origin:  To be determined)             
24652-F0214-01337.02                 Start time:  9/09/01, 23:59:15.6 UTC (WWVB)
Station No. 24652   34.021N, 118.287W     SSA-2  s/n  214  (3 Chns of 15 at Sta)
Los Angeles - 6-story Univ. Office Bldg   CGS                                   
Chan  1:  Up                        Location: Basement: West Tower, SE Corner   
Record of Sun Sep  9, 2001 16:59:15.6 PDT    Sun Sep  9, 2001 16:59:15.6 PDT    
Hypocenter:  To be determined.               ML:  To be determined.
Instr Period =  .0222 sec,  Damping =  .700,  Sensitivity = 1.25  v/g  (Nominal)
                        Record length = 67.840 sec.
                                     Uncor Max  =  -.044 g , at   5.195 sec.
RMS accel of (uncor) record  =        .   Chn. metadata effective date: 01/01/04
Accelerogram bandpass filtered with 3 dB pts at   .50 and 40.00 cyc/sec
                 instrument- and baseline-corrected





Record of Sun Sep  9, 2001 16:59:15.6 PDT    Sun Sep  9, 2001 16:59:15.6 PDT

24652-F0214-01337.02      Los Angeles - 6-story Univ. Office Bldg   Chan  1:  Up

24652-F0214-01337.02      Los Angeles - 6-story Univ. Office Bldg   Chan  1:  Up

Units for spectra are inches and sec, except Sa is in fraction of g.

    1  100    1    3   15  200    1    3    1   12    6  214    024652    2    0
   23   59   15  615  252    9    9 2001   10    1  50013568   41   39   76  345
13568    0   50    3 3102    1    2   53    1    0   59   17  350    9   10 2001
    0    2    0    013568    1  220    1   12    4   76   39    0    0    013568
    313568   40   91    5    3    5    0    0    0   15    0    0    3    0    2
    2    2    4    0   79   99    1   32   32    0    0    1    0    0    9  333
    1    1    1    0
      .022      .700    67.840      .002      .000  1250.000     -.044     5.195
    45.000  1220.703   976.563      .000     5.000      .000      .000      .000
     2.500    43.894     2.500  -999.000     5.120    30.000      .000      .051
      .052      .000     2.000    15.000    34.021  -118.287      .000      .031
  1000.000     -.001      .002    54.000      .000      .000      .000      .000
      .000    -1.058     7.000      .000      .000      .000      .000      .000
     6.800     7.500     4.600   980.665      .005    67.840     7.162      .000
      .000    40.000      .000    67.840      .005      .500      .000      .000
     5.190   -43.489     5.305     -.969     5.190      .063      .000      .500
    40.000      .005      .005      .000      .005      .022      .000      .000
      .123      .100      .065      .063      .003      .000      .000      .000
      .000      .000      .000      .000      .000      .000      .000      .000
      .000      .000      .000      .000
      .000      .020      .050      .100      .200
      .040      .042      .044      .046      .048      .050      .055      .060
      .065      .070      .075      .080      .085      .090      .095      .100
      .110      .120      .130      .140      .150      .160      .170      .180
      .190      .200      .220      .240      .260      .280      .300      .320
      .340      .360      .380      .400      .420      .440      .460      .480
      .500      .550      .600      .650      .700      .750      .800      .850
      .900      .950     1.000     1.100     1.200     1.300     1.400     1.500
     1.600     1.700     1.800     1.900     2.000     2.200     2.400     2.600
     2.800     3.000     3.200     3.400     3.600     3.800     4.000     4.200
     4.400     4.600     4.800     5.000     5.500     6.000     6.500     7.000
     7.500     8.000     8.500     9.000     9.500    10.000    11.000    12.000
    13.000    14.000    15.000      .000      .000      .000      .000      .000
      .000      .000      .000      .000
Fourier amplitude spectra in in/sec.
  .145E+00  .109E+00  .146E+00  .307E+00  .408E+00  .208E+00  .217E+00  .663E+00
  .328E+00  .623E+00  .177E+00  .596E+00  .477E+00  .387E+00  .166E+00  .182E+01
  .222E+01  .799E+00  .879E+00  .946E+00  .313E+01  .212E+01  .651E+00  .188E+01
  .529E+00  .248E+00  .213E+01  .167E+01  .355E+01  .375E+00  .128E+01  .407E+01
  .691E+00  .189E+01  .565E+00  .273E+01  .776E+00  .418E+00  .177E+01  .120E+01
  .354E+00  .185E+01  .115E+01  .395E-01  .405E+00  .812E+00  .352E+00  .275E-01
  .155E+00  .173E+00  .383E-01  .155E+00  .124E+00  .166E+00  .645E-01  .122E+00
  .725E-01  .940E-01  .897E-01  .662E-01  .351E-01  .265E-01  .127E-01  .626E-02
  .956E-02  .158E-01  .168E-01  .464E-02  .673E-02  .517E-02  .744E-02  .765E-02
  .714E-02  .587E-02  .432E-02  .198E-02  .184E-02  .657E-03  .551E-03  .813E-03
  .542E-03  .178E-03  .433E-03  .297E-03  .371E-03  .473E-03  .184E-03  .275E-03
  .846E-04  .233E-03  .107E-03  .000E+00  .000E+00  .000E+00  .000E+00  .000E+00
  .000E+00  .000E+00  .000E+00  .000E+00
Damping =  .00. Data of Sd,Sv,Sa,Pssv,ttSd,ttSv,ttSa :
  .133E-02  .145E-02  .175E-02  .377E-02  .408E-02  .230E-02  .395E-02  .631E-02
  .510E-02  .707E-02  .425E-02  .856E-02  .914E-02  .111E-01  .159E-01  .320E-01
  .451E-01  .335E-01  .255E-01  .346E-01  .764E-01  .562E-01  .262E-01  .582E-01
  .504E-01  .383E-01  .812E-01  .909E-01  .158E+00  .858E-01  .139E+00  .208E+00
  .790E-01  .137E+00  .816E-01  .180E+00  .104E+00  .826E-01  .134E+00  .963E-01
  .626E-01  .172E+00  .114E+00  .529E-01  .634E-01  .970E-01  .553E-01  .388E-01
  .454E-01  .436E-01  .321E-01  .413E-01  .402E-01  .502E-01  .356E-01  .380E-01
  .311E-01  .278E-01  .279E-01  .279E-01  .279E-01  .279E-01  .278E-01  .277E-01
  .275E-01  .272E-01  .268E-01  .265E-01  .262E-01  .260E-01  .258E-01  .257E-01
  .257E-01  .256E-01  .256E-01  .256E-01  .256E-01  .256E-01  .256E-01  .256E-01
  .255E-01  .255E-01  .254E-01  .254E-01  .253E-01  .252E-01  .251E-01  .250E-01
  .249E-01  .248E-01  .247E-01  .000E+00  .000E+00  .000E+00  .000E+00  .000E+00
  .000E+00  .000E+00  .000E+00  .000E+00
  .165E+00  .146E+00  .212E+00  .497E+00  .490E+00  .243E+00  .415E+00  .658E+00
  .470E+00  .635E+00  .345E+00  .654E+00  .595E+00  .675E+00  .941E+00  .201E+01
  .255E+01  .168E+01  .119E+01  .150E+01  .316E+01  .220E+01  .992E+00  .202E+01
  .165E+01  .122E+01  .232E+01  .239E+01  .382E+01  .196E+01  .293E+01  .408E+01
  .150E+01  .238E+01  .140E+01  .285E+01  .177E+01  .118E+01  .183E+01  .127E+01
  .885E+00  .195E+01  .120E+01  .617E+00  .717E+00  .813E+00  .491E+00  .487E+00
  .481E+00  .477E+00  .472E+00  .462E+00  .453E+00  .444E+00  .437E+00  .430E+00
  .424E+00  .419E+00  .415E+00  .411E+00  .407E+00  .402E+00  .398E+00  .394E+00
  .391E+00  .389E+00  .387E+00  .386E+00  .385E+00  .385E+00  .384E+00  .384E+00
  .384E+00  .384E+00  .383E+00  .383E+00  .383E+00  .382E+00  .382E+00  .382E+00
  .382E+00  .381E+00  .381E+00  .381E+00  .381E+00  .381E+00  .381E+00  .381E+00
  .381E+00  .381E+00  .381E+00  .000E+00  .000E+00  .000E+00  .000E+00  .000E+00
  .000E+00  .000E+00  .000E+00  .000E+00
  .848E-01  .840E-01  .927E-01  .182E+00  .181E+00  .941E-01  .134E+00  .179E+00
  .124E+00  .148E+00  .773E-01  .137E+00  .129E+00  .141E+00  .180E+00  .327E+00
  .382E+00  .238E+00  .155E+00  .181E+00  .347E+00  .225E+00  .926E-01  .184E+00
  .143E+00  .980E-01  .172E+00  .161E+00  .240E+00  .112E+00  .158E+00  .208E+00
  .699E-01  .108E+00  .578E-01  .115E+00  .602E-01  .436E-01  .649E-01  .428E-01
  .256E-01  .583E-01  .323E-01  .128E-01  .132E-01  .176E-01  .884E-02  .549E-02
  .574E-02  .494E-02  .328E-02  .349E-02  .286E-02  .304E-02  .186E-02  .173E-02
  .124E-02  .983E-03  .879E-03  .790E-03  .712E-03  .589E-03  .494E-03  .420E-03
  .359E-03  .309E-03  .268E-03  .234E-03  .207E-03  .184E-03  .165E-03  .149E-03
  .136E-03  .124E-03  .114E-03  .105E-03  .865E-04  .727E-04  .620E-04  .534E-04
  .464E-04  .407E-04  .360E-04  .320E-04  .287E-04  .258E-04  .212E-04  .178E-04
  .151E-04  .129E-04  .112E-04  .000E+00  .000E+00  .000E+00  .000E+00  .000E+00
  .000E+00  .000E+00  .000E+00  .000E+00
  .208E+00  .217E+00  .251E+00  .515E+00  .534E+00  .289E+00  .451E+00  .661E+00
  .493E+00  .635E+00  .356E+00  .672E+00  .675E+00  .777E+00  .105E+01  .201E+01
  .258E+01  .175E+01  .123E+01  .155E+01  .320E+01  .221E+01  .967E+00  .203E+01
  .167E+01  .120E+01  .232E+01  .238E+01  .383E+01  .193E+01  .290E+01  .408E+01
  .146E+01  .240E+01  .135E+01  .283E+01  .155E+01  .118E+01  .183E+01  .126E+01
  .787E+00  .197E+01  .119E+01  .512E+00  .569E+00  .813E+00  .435E+00  .286E+00
  .317E+00  .289E+00  .202E+00  .236E+00  .211E+00  .243E+00  .160E+00  .159E+00
  .122E+00  .103E+00  .972E-01  .922E-01  .875E-01  .796E-01  .729E-01  .670E-01
  .617E-01  .569E-01  .527E-01  .490E-01  .458E-01  .430E-01  .406E-01  .385E-01
  .366E-01  .350E-01  .335E-01  .321E-01  .292E-01  .268E-01  .247E-01  .230E-01
  .214E-01  .200E-01  .188E-01  .177E-01  .167E-01  .159E-01  .143E-01  .131E-01
  .120E-01  .111E-01  .104E-01  .000E+00  .000E+00  .000E+00  .000E+00  .000E+00
  .000E+00  .000E+00  .000E+00  .000E+00
  .822E+01  .534E+01  .535E+01  .732E+01  .824E+01  .532E+01  .592E+01  .333E+02
  .835E+01  .823E+01  .577E+01  .863E+01  .904E+01  .549E+01  .550E+01  .897E+01
  .115E+02  .825E+01  .969E+01  .969E+01  .131E+02  .209E+02  .924E+01  .198E+02
  .105E+02  .839E+01  .163E+02  .995E+01  .128E+02  .639E+01  .798E+01  .371E+02
  .578E+01  .904E+01  .718E+01  .133E+02  .942E+01  .745E+01  .174E+02  .219E+02
  .125E+02  .229E+02  .249E+02  .119E+02  .167E+02  .424E+02  .297E+02  .137E+02
  .223E+02  .172E+02  .534E+01  .307E+02  .133E+02  .216E+02  .822E+01  .326E+02
  .287E+02  .518E+01  .518E+01  .518E+01  .518E+01  .518E+01  .518E+01  .518E+01
  .518E+01  .518E+01  .518E+01  .518E+01  .518E+01  .518E+01  .518E+01  .518E+01
  .518E+01  .518E+01  .518E+01  .518E+01  .518E+01  .518E+01  .518E+01  .518E+01
  .518E+01  .518E+01  .518E+01  .518E+01  .518E+01  .518E+01  .518E+01  .518E+01
  .518E+01  .518E+01  .518E+01  .000E+00  .000E+00  .000E+00  .000E+00  .000E+00
  .000E+00  .000E+00  .000E+00  .000E+00
  .827E+01  .536E+01  .536E+01  .730E+01  .837E+01  .124E+02  .593E+01  .355E+02
  .850E+01  .236E+02  .575E+01  .860E+01  .906E+01  .546E+01  .553E+01  .879E+01
  .115E+02  .828E+01  .973E+01  .965E+01  .131E+02  .210E+02  .928E+01  .197E+02
  .106E+02  .844E+01  .164E+02  .989E+01  .130E+02  .646E+01  .776E+01  .370E+02
  .553E+01  .896E+01  .709E+01  .132E+02  .829E+01  .668E+01  .176E+02  .918E+01
  .126E+02  .230E+02  .247E+02  .545E+01  .830E+01  .422E+02  .530E+01  .530E+01
  .530E+01  .530E+01  .530E+01  .530E+01  .530E+01  .530E+01  .530E+01  .530E+01
  .530E+01  .530E+01  .530E+01  .530E+01  .530E+01  .530E+01  .530E+01  .530E+01
  .530E+01  .530E+01  .530E+01  .530E+01  .530E+01  .530E+01  .530E+01  .530E+01
  .530E+01  .530E+01  .530E+01  .530E+01  .530E+01  .530E+01  .530E+01  .530E+01
  .530E+01  .530E+01  .530E+01  .530E+01  .530E+01  .530E+01  .530E+01  .530E+01
  .530E+01  .530E+01  .530E+01  .000E+00  .000E+00  .000E+00  .000E+00  .000E+00
  .000E+00  .000E+00  .000E+00  .000E+00
  .822E+01  .534E+01  .535E+01  .732E+01  .824E+01  .532E+01  .592E+01  .333E+02
  .835E+01  .823E+01  .577E+01  .863E+01  .904E+01  .549E+01  .550E+01  .897E+01
  .115E+02  .825E+01  .969E+01  .969E+01  .131E+02  .209E+02  .924E+01  .198E+02
  .105E+02  .839E+01  .163E+02  .995E+01  .128E+02  .639E+01  .798E+01  .371E+02
  .578E+01  .904E+01  .718E+01  .133E+02  .942E+01  .745E+01  .174E+02  .219E+02
  .125E+02  .229E+02  .249E+02  .119E+02  .167E+02  .424E+02  .297E+02  .137E+02
  .223E+02  .172E+02  .534E+01  .307E+02  .133E+02  .216E+02  .822E+01  .326E+02
  .287E+02  .518E+01  .518E+01  .518E+01  .518E+01  .518E+01  .518E+01  .518E+01
  .518E+01  .518E+01  .518E+01  .518E+01  .518E+01  .518E+01  .518E+01  .518E+01
  .518E+01  .518E+01  .518E+01  .518E+01  .518E+01  .518E+01  .518E+01  .518E+01
  .518E+01  .518E+01  .518E+01  .518E+01  .518E+01  .518E+01  .518E+01  .518E+01
  .518E+01  .518E+01  .518E+01  .000E+00  .000E+00  .000E+00  .000E+00  .000E+00
  .000E+00  .000E+00  .000E+00  .000E+00
Damping =  .02. Data of Sd,Sv,Sa,Pssv,ttSd,ttSv,ttSa :
  .103E-02  .123E-02  .140E-02  .170E-02  .200E-02  .187E-02  .273E-02  .333E-02
  .300E-02  .311E-02  .360E-02  .418E-02  .587E-02  .933E-02  .130E-01  .165E-01
  .209E-01  .141E-01  .159E-01  .235E-01  .269E-01  .219E-01  .283E-01  .365E-01
  .297E-01  .326E-01  .355E-01  .435E-01  .697E-01  .643E-01  .787E-01  .805E-01
  .668E-01  .775E-01  .637E-01  .799E-01  .626E-01  .585E-01  .563E-01  .592E-01
  .506E-01  .567E-01  .585E-01  .421E-01  .426E-01  .411E-01  .376E-01  .360E-01
  .346E-01  .332E-01  .319E-01  .296E-01  .276E-01  .315E-01  .329E-01  .281E-01
  .273E-01  .275E-01  .276E-01  .276E-01  .276E-01  .276E-01  .276E-01  .275E-01
  .273E-01  .270E-01  .267E-01  .264E-01  .262E-01  .260E-01  .258E-01  .257E-01
  .257E-01  .256E-01  .256E-01  .256E-01  .256E-01  .256E-01  .256E-01  .255E-01
  .255E-01  .255E-01  .254E-01  .253E-01  .253E-01  .252E-01  .251E-01  .249E-01
  .249E-01  .248E-01  .248E-01  .000E+00  .000E+00  .000E+00  .000E+00  .000E+00
  .000E+00  .000E+00  .000E+00  .000E+00
  .843E-01  .114E+00  .158E+00  .204E+00  .217E+00  .186E+00  .221E+00  .282E+00
  .286E+00  .243E+00  .272E+00  .307E+00  .389E+00  .555E+00  .759E+00  .998E+00
  .119E+01  .750E+00  .746E+00  .101E+01  .111E+01  .925E+00  .104E+01  .127E+01
  .104E+01  .103E+01  .104E+01  .122E+01  .165E+01  .151E+01  .166E+01  .160E+01
  .138E+01  .134E+01  .118E+01  .127E+01  .115E+01  .889E+00  .789E+00  .860E+00
  .736E+00  .743E+00  .705E+00  .602E+00  .626E+00  .505E+00  .480E+00  .476E+00
  .472E+00  .468E+00  .464E+00  .455E+00  .448E+00  .440E+00  .433E+00  .427E+00
  .422E+00  .417E+00  .413E+00  .409E+00  .406E+00  .401E+00  .397E+00  .393E+00
  .391E+00  .388E+00  .387E+00  .386E+00  .385E+00  .384E+00  .384E+00  .384E+00
  .383E+00  .383E+00  .383E+00  .383E+00  .382E+00  .382E+00  .382E+00  .382E+00
  .381E+00  .381E+00  .381E+00  .381E+00  .381E+00  .381E+00  .381E+00  .381E+00
  .381E+00  .381E+00  .381E+00  .000E+00  .000E+00  .000E+00  .000E+00  .000E+00
  .000E+00  .000E+00  .000E+00  .000E+00
  .660E-01  .712E-01  .742E-01  .825E-01  .890E-01  .761E-01  .923E-01  .951E-01
  .726E-01  .648E-01  .655E-01  .671E-01  .833E-01  .118E+00  .148E+00  .168E+00
  .176E+00  .996E-01  .961E-01  .123E+00  .122E+00  .879E-01  .100E+00  .115E+00
  .840E-01  .835E-01  .751E-01  .773E-01  .106E+00  .838E-01  .896E-01  .804E-01
  .592E-01  .611E-01  .452E-01  .511E-01  .363E-01  .310E-01  .273E-01  .263E-01
  .207E-01  .192E-01  .166E-01  .102E-01  .890E-02  .749E-02  .604E-02  .514E-02
  .440E-02  .380E-02  .330E-02  .254E-02  .199E-02  .193E-02  .174E-02  .130E-02
  .112E-02  .101E-02  .902E-03  .814E-03  .737E-03  .614E-03  .520E-03  .446E-03
  .385E-03  .336E-03  .295E-03  .261E-03  .233E-03  .210E-03  .190E-03  .174E-03
  .160E-03  .147E-03  .137E-03  .127E-03  .108E-03  .933E-04  .816E-04  .721E-04
  .643E-04  .579E-04  .526E-04  .480E-04  .441E-04  .407E-04  .351E-04  .308E-04
  .273E-04  .245E-04  .222E-04  .000E+00  .000E+00  .000E+00  .000E+00  .000E+00
  .000E+00  .000E+00  .000E+00  .000E+00
  .162E+00  .184E+00  .200E+00  .232E+00  .262E+00  .235E+00  .312E+00  .349E+00
  .290E+00  .279E+00  .301E+00  .328E+00  .434E+00  .651E+00  .863E+00  .103E+01
  .119E+01  .736E+00  .767E+00  .105E+01  .113E+01  .861E+00  .105E+01  .127E+01
  .981E+00  .102E+01  .101E+01  .114E+01  .169E+01  .144E+01  .165E+01  .158E+01
  .123E+01  .135E+01  .105E+01  .125E+01  .937E+00  .835E+00  .769E+00  .775E+00
  .635E+00  .648E+00  .612E+00  .407E+00  .382E+00  .344E+00  .295E+00  .266E+00
  .241E+00  .220E+00  .201E+00  .169E+00  .145E+00  .152E+00  .148E+00  .118E+00
  .107E+00  .102E+00  .962E-01  .913E-01  .868E-01  .789E-01  .723E-01  .665E-01
  .613E-01  .566E-01  .525E-01  .489E-01  .457E-01  .430E-01  .406E-01  .385E-01
  .366E-01  .350E-01  .335E-01  .321E-01  .292E-01  .268E-01  .247E-01  .229E-01
  .214E-01  .200E-01  .188E-01  .177E-01  .167E-01  .158E-01  .143E-01  .131E-01
  .120E-01  .112E-01  .104E-01  .000E+00  .000E+00  .000E+00  .000E+00  .000E+00
  .000E+00  .000E+00  .000E+00  .000E+00
  .534E+01  .534E+01  .535E+01  .547E+01  .548E+01  .532E+01  .534E+01  .549E+01
  .542E+01  .586E+01  .565E+01  .566E+01  .534E+01  .549E+01  .550E+01  .566E+01
  .569E+01  .560E+01  .894E+01  .970E+01  .981E+01  .859E+01  .924E+01  .926E+01
  .928E+01  .838E+01  .537E+01  .946E+01  .841E+01  .584E+01  .754E+01  .843E+01
  .577E+01  .903E+01  .564E+01  .970E+01  .836E+01  .549E+01  .549E+01  .835E+01
  .551E+01  .146E+02  .141E+02  .534E+01  .139E+02  .823E+01  .534E+01  .534E+01
  .534E+01  .534E+01  .534E+01  .534E+01  .534E+01  .822E+01  .822E+01  .823E+01
  .518E+01  .518E+01  .518E+01  .518E+01  .518E+01  .518E+01  .518E+01  .518E+01
  .518E+01  .518E+01  .518E+01  .518E+01  .518E+01  .518E+01  .518E+01  .518E+01
  .518E+01  .518E+01  .518E+01  .518E+01  .518E+01  .518E+01  .518E+01  .518E+01
  .518E+01  .518E+01  .518E+01  .518E+01  .518E+01  .518E+01  .518E+01  .518E+01
  .518E+01  .518E+01  .518E+01  .000E+00  .000E+00  .000E+00  .000E+00  .000E+00
  .000E+00  .000E+00  .000E+00  .000E+00
  .559E+01  .536E+01  .536E+01  .546E+01  .554E+01  .531E+01  .594E+01  .563E+01
  .540E+01  .584E+01  .575E+01  .600E+01  .541E+01  .546E+01  .547E+01  .569E+01
  .566E+01  .557E+01  .871E+01  .974E+01  .985E+01  .855E+01  .928E+01  .922E+01
  .923E+01  .843E+01  .923E+01  .558E+01  .835E+01  .590E+01  .747E+01  .836E+01
  .553E+01  .895E+01  .554E+01  .962E+01  .828E+01  .668E+01  .888E+01  .827E+01
  .544E+01  .849E+01  .830E+01  .545E+01  .829E+01  .545E+01  .530E+01  .530E+01
  .530E+01  .530E+01  .530E+01  .530E+01  .530E+01  .530E+01  .530E+01  .530E+01
  .530E+01  .530E+01  .530E+01  .530E+01  .530E+01  .530E+01  .530E+01  .530E+01
  .530E+01  .530E+01  .530E+01  .530E+01  .530E+01  .530E+01  .530E+01  .530E+01
  .530E+01  .530E+01  .530E+01  .530E+01  .530E+01  .530E+01  .530E+01  .530E+01
  .530E+01  .530E+01  .530E+01  .530E+01  .530E+01  .530E+01  .530E+01  .530E+01
  .530E+01  .530E+01  .530E+01  .000E+00  .000E+00  .000E+00  .000E+00  .000E+00
  .000E+00  .000E+00  .000E+00  .000E+00
  .534E+01  .534E+01  .535E+01  .547E+01  .548E+01  .532E+01  .534E+01  .549E+01
  .542E+01  .586E+01  .565E+01  .566E+01  .534E+01  .549E+01  .550E+01  .566E+01
  .569E+01  .560E+01  .894E+01  .970E+01  .981E+01  .859E+01  .924E+01  .926E+01
  .928E+01  .838E+01  .537E+01  .946E+01  .840E+01  .584E+01  .753E+01  .843E+01
  .577E+01  .903E+01  .564E+01  .970E+01  .836E+01  .549E+01  .549E+01  .835E+01
  .551E+01  .146E+02  .141E+02  .534E+01  .139E+02  .822E+01  .534E+01  .534E+01
  .534E+01  .534E+01  .534E+01  .534E+01  .534E+01  .822E+01  .822E+01  .822E+01
  .517E+01  .517E+01  .517E+01  .517E+01  .517E+01  .517E+01  .517E+01  .517E+01
  .517E+01  .517E+01  .517E+01  .517E+01  .517E+01  .517E+01  .517E+01  .516E+01
  .516E+01  .516E+01  .516E+01  .516E+01  .516E+01  .516E+01  .516E+01  .516E+01
  .516E+01  .516E+01  .516E+01  .516E+01  .516E+01  .516E+01  .516E+01  .516E+01
  .516E+01  .516E+01  .516E+01  .000E+00  .000E+00  .000E+00  .000E+00  .000E+00
  .000E+00  .000E+00  .000E+00  .000E+00
Damping =  .05. Data of Sd,Sv,Sa,Pssv,ttSd,ttSv,ttSa :
  .947E-03  .108E-02  .123E-02  .136E-02  .149E-02  .158E-02  .220E-02  .264E-02
