Response and Fourier amplitude spectra (91 periods,  .04 - 15.0 sec)   for      
Corrected accelerogram   24652-F0218-01337.02       Chan  1: 360 Deg     from   
Uncorrected Accelerogram Data             Processed: 06/06/08, CDMG  ce24652    
Record of Sun Sep  9, 2001 16:59:15.6 PDT             (Avol1 v7.5 7/07 CSMIP)   
CSMIP Preliminary Processing            (Origin:  To be determined)             
24652-F0218-01337.02                 Start time:  9/09/01, 23:59:15.6 UTC (WWVB)
Station No. 24652   34.021N, 118.287W     SSA-2  s/n  218  (3 Chns of 15 at Sta)
Los Angeles - 6-story Univ. Office Bldg   CGS                                   
Chan  1: 360 DegR (Sta Chn: 13)     Location: Roof: West Tower                  
Record of Sun Sep  9, 2001 16:59:15.6 PDT    Sun Sep  9, 2001 16:59:15.6 PDT    
Hypocenter:  To be determined.               ML:  To be determined.
Instr Period =  .0222 sec,  Damping =  .700,  Sensitivity = 1.25  v/g  (Nominal)
                        Record length = 67.840 sec.
                                     Uncor Max  =  -.047 g , at   8.180 sec.
RMS accel of (uncor) record  =        .   Chn. metadata effective date: 01/01/04
Accelerogram bandpass filtered with 3 dB pts at   .50 and 40.00 cyc/sec
                 instrument- and baseline-corrected





Record of Sun Sep  9, 2001 16:59:15.6 PDT    Sun Sep  9, 2001 16:59:15.6 PDT

24652-F0218-01337.02      Los Angeles - 6-story Univ. Office Bldg   Chan  1: 360
 Deg
24652-F0218-01337.02      Los Angeles - 6-story Univ. Office Bldg   Chan  1: 360
 Deg
Units for spectra are inches and sec, except Sa is in fraction of g.

    1  100   13    3   15  200    1    3    1   12    6  218    024652    2    0
   23   59   15  615  252    9    9 2001   10    1  36013568   41   39   76  345
13568    0   50    3 3102    1    2   53    2   23   59   17  950    9    9 2001
    0    2    0    013568    1  220    1   12    4   76   39    0    0    013568
    313568   40   91    5    3    5    0    0    0   15    0    0    3    0    2
    2    2    4    0   79   99    1   32   32    0    0    1    0    0    8  333
    1    1    1    0
      .022      .700    67.840      .004      .000  1250.000     -.047     8.180
    45.000  1220.703   976.563      .000     5.000      .000      .000      .000
     2.500    34.366     2.500  -999.000     5.120    30.000      .000      .004
      .001     -.003     2.000    15.000    34.021  -118.287      .434      .629
     1.451     -.066      .061    54.000      .000      .000      .000      .000
      .000     1.022     7.000      .000      .000      .000      .000      .000
     6.800     7.500     4.600   980.665      .005    67.840     7.162      .000
      .000    40.000      .000    67.840      .005      .500      .000      .000
     8.170   -45.790     8.110     2.244    17.240     -.196      .000      .500
    40.000      .005      .005      .000      .005      .142      .000      .000
      .147      .160      .098      .111      .027      .001      .000      .000
      .000      .000      .000      .000      .000      .000      .000      .000
      .000      .000      .000      .000
      .000      .020      .050      .100      .200
      .040      .042      .044      .046      .048      .050      .055      .060
      .065      .070      .075      .080      .085      .090      .095      .100
      .110      .120      .130      .140      .150      .160      .170      .180
      .190      .200      .220      .240      .260      .280      .300      .320
      .340      .360      .380      .400      .420      .440      .460      .480
      .500      .550      .600      .650      .700      .750      .800      .850
      .900      .950     1.000     1.100     1.200     1.300     1.400     1.500
     1.600     1.700     1.800     1.900     2.000     2.200     2.400     2.600
     2.800     3.000     3.200     3.400     3.600     3.800     4.000     4.200
     4.400     4.600     4.800     5.000     5.500     6.000     6.500     7.000
     7.500     8.000     8.500     9.000     9.500    10.000    11.000    12.000
    13.000    14.000    15.000      .000      .000      .000      .000      .000
      .000      .000      .000      .000
Fourier amplitude spectra in in/sec.
  .880E-01  .968E-01  .108E+00  .666E-01  .231E+00  .218E+00  .835E-01  .194E+00
  .175E+00  .115E+00  .127E+00  .388E+00  .144E+00  .176E+00  .503E+00  .404E+00
  .699E+00  .850E+00  .435E+00  .130E+01  .295E+01  .205E+01  .296E+01  .137E+01
  .181E+01  .861E+00  .331E+01  .826E+01  .498E+00  .274E+01  .349E+01  .179E+01
  .341E+01  .187E+01  .258E+01  .254E+01  .950E+00  .252E+01  .280E+01  .303E+01
  .134E+01  .120E+01  .155E+01  .126E+01  .233E+01  .497E+01  .166E+02  .503E+01
  .218E+01  .493E+01  .151E+01  .241E+00  .390E+00  .310E+00  .444E+00  .466E+00
  .355E+00  .257E+00  .721E-01  .152E+00  .954E-01  .127E+00  .586E-01  .479E-01
  .131E-01  .259E-01  .542E-02  .152E-01  .650E-02  .219E-03  .102E-01  .387E-02
  .307E-02  .934E-03  .179E-02  .124E-02  .148E-03  .655E-03  .359E-03  .617E-03
  .664E-03  .556E-03  .367E-03  .330E-03  .188E-03  .173E-03  .202E-03  .164E-03
  .274E-03  .227E-03  .140E-03  .000E+00  .000E+00  .000E+00  .000E+00  .000E+00
  .000E+00  .000E+00  .000E+00  .000E+00
Damping =  .00. Data of Sd,Sv,Sa,Pssv,ttSd,ttSv,ttSa :
  .922E-03  .963E-03  .132E-02  .144E-02  .181E-02  .337E-02  .206E-02  .376E-02
  .291E-02  .520E-02  .398E-02  .629E-02  .572E-02  .543E-02  .978E-02  .127E-01
  .191E-01  .208E-01  .244E-01  .563E-01  .777E-01  .775E-01  .805E-01  .629E-01
  .761E-01  .552E-01  .128E+00  .342E+00  .162E+00  .207E+00  .217E+00  .161E+00
  .206E+00  .166E+00  .189E+00  .201E+00  .169E+00  .198E+00  .222E+00  .308E+00
  .220E+00  .152E+00  .176E+00  .446E+00  .284E+00  .742E+00  .224E+01  .104E+01
  .740E+00  .773E+00  .431E+00  .270E+00  .229E+00  .151E+00  .153E+00  .181E+00
  .176E+00  .143E+00  .108E+00  .103E+00  .111E+00  .107E+00  .108E+00  .990E-01
  .893E-01  .834E-01  .840E-01  .872E-01  .860E-01  .840E-01  .831E-01  .826E-01
  .818E-01  .809E-01  .801E-01  .796E-01  .795E-01  .793E-01  .789E-01  .786E-01
  .785E-01  .784E-01  .782E-01  .780E-01  .778E-01  .777E-01  .778E-01  .779E-01
  .780E-01  .781E-01  .780E-01  .000E+00  .000E+00  .000E+00  .000E+00  .000E+00
  .000E+00  .000E+00  .000E+00  .000E+00
  .955E-01  .104E+00  .124E+00  .879E-01  .237E+00  .313E+00  .134E+00  .248E+00
  .226E+00  .351E+00  .266E+00  .443E+00  .264E+00  .284E+00  .538E+00  .705E+00
  .980E+00  .100E+01  .109E+01  .245E+01  .317E+01  .299E+01  .297E+01  .218E+01
  .238E+01  .164E+01  .355E+01  .892E+01  .400E+01  .475E+01  .455E+01  .328E+01
  .373E+01  .281E+01  .299E+01  .303E+01  .247E+01  .268E+01  .287E+01  .378E+01
  .283E+01  .158E+01  .175E+01  .420E+01  .253E+01  .605E+01  .177E+02  .796E+01
  .535E+01  .519E+01  .297E+01  .195E+01  .160E+01  .121E+01  .117E+01  .118E+01
  .118E+01  .106E+01  .102E+01  .999E+00  .991E+00  .986E+00  .969E+00  .947E+00
  .932E+00  .923E+00  .917E+00  .913E+00  .909E+00  .905E+00  .902E+00  .899E+00
  .897E+00  .896E+00  .895E+00  .894E+00  .892E+00  .890E+00  .889E+00  .888E+00
  .887E+00  .887E+00  .886E+00  .886E+00  .885E+00  .885E+00  .885E+00  .884E+00
  .884E+00  .884E+00  .884E+00  .000E+00  .000E+00  .000E+00  .000E+00  .000E+00
  .000E+00  .000E+00  .000E+00  .000E+00
  .589E-01  .559E-01  .697E-01  .697E-01  .804E-01  .138E+00  .695E-01  .107E+00
  .705E-01  .109E+00  .724E-01  .101E+00  .809E-01  .685E-01  .111E+00  .129E+00
  .162E+00  .147E+00  .148E+00  .294E+00  .353E+00  .310E+00  .285E+00  .199E+00
  .216E+00  .141E+00  .270E+00  .608E+00  .244E+00  .270E+00  .247E+00  .161E+00
  .183E+00  .131E+00  .134E+00  .129E+00  .980E-01  .105E+00  .107E+00  .137E+00
  .901E-01  .514E-01  .500E-01  .108E+00  .593E-01  .135E+00  .359E+00  .147E+00
  .934E-01  .876E-01  .441E-01  .228E-01  .163E-01  .913E-02  .801E-02  .821E-02
  .702E-02  .506E-02  .340E-02  .291E-02  .285E-02  .226E-02  .192E-02  .150E-02
  .117E-02  .947E-03  .839E-03  .772E-03  .678E-03  .595E-03  .531E-03  .479E-03
  .432E-03  .391E-03  .355E-03  .326E-03  .269E-03  .225E-03  .191E-03  .164E-03
  .143E-03  .125E-03  .111E-03  .985E-04  .882E-04  .795E-04  .657E-04  .553E-04
  .472E-04  .407E-04  .355E-04  .000E+00  .000E+00  .000E+00  .000E+00  .000E+00
  .000E+00  .000E+00  .000E+00  .000E+00
  .145E+00  .144E+00  .189E+00  .197E+00  .237E+00  .424E+00  .235E+00  .394E+00
  .281E+00  .467E+00  .333E+00  .494E+00  .422E+00  .379E+00  .647E+00  .795E+00
  .109E+01  .109E+01  .118E+01  .253E+01  .326E+01  .304E+01  .297E+01  .220E+01
  .252E+01  .174E+01  .365E+01  .896E+01  .390E+01  .465E+01  .455E+01  .316E+01
  .381E+01  .290E+01  .312E+01  .316E+01  .253E+01  .283E+01  .303E+01  .403E+01
  .277E+01  .174E+01  .184E+01  .431E+01  .255E+01  .622E+01  .176E+02  .769E+01
  .517E+01  .512E+01  .271E+01  .154E+01  .120E+01  .729E+00  .689E+00  .756E+00
  .690E+00  .528E+00  .375E+00  .340E+00  .350E+00  .305E+00  .283E+00  .239E+00
  .200E+00  .175E+00  .165E+00  .161E+00  .150E+00  .139E+00  .131E+00  .124E+00
  .117E+00  .110E+00  .105E+00  .100E+00  .908E-01  .830E-01  .762E-01  .706E-01
  .658E-01  .616E-01  .578E-01  .545E-01  .515E-01  .488E-01  .444E-01  .408E-01
  .377E-01  .350E-01  .327E-01  .000E+00  .000E+00  .000E+00  .000E+00  .000E+00
  .000E+00  .000E+00  .000E+00  .000E+00
  .816E+01  .818E+01  .818E+01  .818E+01  .598E+02  .816E+01  .816E+01  .818E+01
  .843E+01  .816E+01  .819E+01  .176E+02  .818E+01  .817E+01  .816E+01  .849E+01
  .930E+01  .131E+02  .904E+01  .977E+01  .188E+02  .104E+02  .644E+02  .918E+01
  .120E+02  .120E+02  .207E+02  .203E+02  .832E+01  .978E+01  .108E+02  .903E+01
  .185E+02  .129E+02  .188E+02  .125E+02  .121E+02  .173E+02  .185E+02  .172E+02
  .125E+02  .125E+02  .136E+02  .211E+02  .274E+02  .176E+02  .278E+02  .189E+02
  .153E+02  .397E+02  .180E+02  .132E+02  .177E+02  .169E+02  .169E+02  .181E+02
  .219E+02  .124E+02  .124E+02  .172E+02  .172E+02  .128E+02  .172E+02  .124E+02
  .124E+02  .124E+02  .172E+02  .172E+02  .172E+02  .172E+02  .172E+02  .172E+02
  .172E+02  .172E+02  .172E+02  .172E+02  .172E+02  .172E+02  .172E+02  .172E+02
  .172E+02  .172E+02  .172E+02  .172E+02  .172E+02  .172E+02  .172E+02  .172E+02
  .172E+02  .172E+02  .172E+02  .000E+00  .000E+00  .000E+00  .000E+00  .000E+00
  .000E+00  .000E+00  .000E+00  .000E+00
  .624E+02  .650E+02  .633E+02  .631E+02  .597E+02  .823E+01  .164E+02  .810E+01
  .853E+01  .853E+01  .641E+01  .183E+02  .860E+01  .936E+01  .503E+02  .846E+01
  .927E+01  .143E+02  .901E+01  .974E+01  .188E+02  .103E+02  .644E+02  .860E+01
  .119E+02  .109E+02  .208E+02  .202E+02  .839E+01  .972E+01  .108E+02  .911E+01
  .257E+02  .145E+02  .189E+02  .126E+02  .925E+01  .174E+02  .209E+02  .171E+02
  .124E+02  .213E+02  .332E+02  .213E+02  .273E+02  .178E+02  .280E+02  .186E+02
  .151E+02  .395E+02  .183E+02  .130E+02  .131E+02  .123E+02  .130E+02  .131E+02
  .127E+02  .123E+02  .810E+01  .810E+01  .810E+01  .810E+01  .810E+01  .810E+01
  .810E+01  .810E+01  .810E+01  .810E+01  .810E+01  .810E+01  .810E+01  .810E+01
  .810E+01  .810E+01  .810E+01  .810E+01  .810E+01  .810E+01  .810E+01  .810E+01
  .810E+01  .810E+01  .810E+01  .810E+01  .810E+01  .810E+01  .810E+01  .810E+01
  .810E+01  .810E+01  .810E+01  .000E+00  .000E+00  .000E+00  .000E+00  .000E+00
  .000E+00  .000E+00  .000E+00  .000E+00
  .816E+01  .818E+01  .818E+01  .818E+01  .598E+02  .816E+01  .816E+01  .818E+01
  .843E+01  .816E+01  .819E+01  .176E+02  .818E+01  .817E+01  .816E+01  .849E+01
  .930E+01  .131E+02  .904E+01  .977E+01  .188E+02  .104E+02  .644E+02  .918E+01
  .120E+02  .120E+02  .207E+02  .203E+02  .832E+01  .978E+01  .108E+02  .903E+01
  .185E+02  .129E+02  .188E+02  .125E+02  .121E+02  .173E+02  .185E+02  .172E+02
  .125E+02  .125E+02  .136E+02  .211E+02  .274E+02  .176E+02  .278E+02  .189E+02
  .153E+02  .397E+02  .180E+02  .132E+02  .177E+02  .169E+02  .169E+02  .181E+02
  .219E+02  .124E+02  .124E+02  .172E+02  .172E+02  .128E+02  .172E+02  .124E+02
  .124E+02  .124E+02  .172E+02  .172E+02  .172E+02  .172E+02  .172E+02  .172E+02
  .172E+02  .172E+02  .172E+02  .172E+02  .172E+02  .172E+02  .172E+02  .172E+02
  .172E+02  .172E+02  .172E+02  .172E+02  .172E+02  .172E+02  .172E+02  .172E+02
  .172E+02  .172E+02  .172E+02  .000E+00  .000E+00  .000E+00  .000E+00  .000E+00
  .000E+00  .000E+00  .000E+00  .000E+00
Damping =  .02. Data of Sd,Sv,Sa,Pssv,ttSd,ttSv,ttSa :
  .775E-03  .835E-03  .946E-03  .103E-02  .116E-02  .140E-02  .149E-02  .177E-02
  .215E-02  .269E-02  .300E-02  .343E-02  .396E-02  .474E-02  .633E-02  .681E-02
  .991E-02  .144E-01  .197E-01  .305E-01  .438E-01  .483E-01  .480E-01  .496E-01
  .493E-01  .426E-01  .571E-01  .118E+00  .114E+00  .134E+00  .127E+00  .117E+00
  .120E+00  .120E+00  .128E+00  .126E+00  .124E+00  .121E+00  .118E+00  .167E+00
  .142E+00  .124E+00  .153E+00  .261E+00  .259E+00  .500E+00  .929E+00  .629E+00
  .527E+00  .428E+00  .342E+00  .243E+00  .205E+00  .144E+00  .135E+00  .160E+00
  .146E+00  .135E+00  .108E+00  .100E+00  .103E+00  .100E+00  .101E+00  .973E-01
  .895E-01  .840E-01  .835E-01  .859E-01  .853E-01  .839E-01  .830E-01  .824E-01
  .817E-01  .809E-01  .802E-01  .798E-01  .795E-01  .792E-01  .789E-01  .787E-01
  .785E-01  .784E-01  .782E-01  .780E-01  .779E-01  .778E-01  .778E-01  .779E-01
  .780E-01  .780E-01  .780E-01  .000E+00  .000E+00  .000E+00  .000E+00  .000E+00
  .000E+00  .000E+00  .000E+00  .000E+00
  .369E-01  .408E-01  .430E-01  .447E-01  .552E-01  .576E-01  .580E-01  .976E-01
  .919E-01  .155E+00  .163E+00  .169E+00  .173E+00  .184E+00  .218E+00  .282E+00
  .529E+00  .709E+00  .876E+00  .132E+01  .182E+01  .191E+01  .186E+01  .177E+01
  .177E+01  .149E+01  .160E+01  .294E+01  .274E+01  .306E+01  .284E+01  .244E+01
  .239E+01  .233E+01  .217E+01  .206E+01  .202E+01  .198E+01  .186E+01  .205E+01
  .178E+01  .116E+01  .135E+01  .239E+01  .214E+01  .405E+01  .737E+01  .487E+01
  .387E+01  .305E+01  .236E+01  .182E+01  .152E+01  .112E+01  .113E+01  .111E+01
  .110E+01  .104E+01  .102E+01  .998E+00  .989E+00  .981E+00  .966E+00  .947E+00
  .932E+00  .923E+00  .917E+00  .913E+00  .909E+00  .905E+00  .902E+00  .900E+00
  .898E+00  .896E+00  .895E+00  .894E+00  .892E+00  .890E+00  .889E+00  .888E+00
  .887E+00  .887E+00  .886E+00  .886E+00  .885E+00  .885E+00  .885E+00  .884E+00
  .884E+00  .884E+00  .884E+00  .000E+00  .000E+00  .000E+00  .000E+00  .000E+00
  .000E+00  .000E+00  .000E+00  .000E+00
  .495E-01  .484E-01  .500E-01  .497E-01  .513E-01  .572E-01  .504E-01  .501E-01
  .520E-01  .561E-01  .545E-01  .548E-01  .560E-01  .598E-01  .718E-01  .697E-01
  .841E-01  .103E+00  .119E+00  .159E+00  .199E+00  .193E+00  .171E+00  .157E+00
  .140E+00  .109E+00  .121E+00  .209E+00  .173E+00  .175E+00  .144E+00  .117E+00
  .107E+00  .951E-01  .907E-01  .804E-01  .719E-01  .642E-01  .571E-01  .740E-01
  .583E-01  .420E-01  .436E-01  .632E-01  .540E-01  .910E-01  .149E+00  .891E-01
  .666E-01  .485E-01  .350E-01  .205E-01  .146E-01  .876E-02  .705E-02  .730E-02
  .587E-02  .478E-02  .344E-02  .285E-02  .263E-02  .213E-02  .182E-02  .149E-02
  .119E-02  .974E-03  .844E-03  .770E-03  .683E-03  .604E-03  .541E-03  .488E-03
  .441E-03  .401E-03  .366E-03  .336E-03  .278E-03  .235E-03  .200E-03  .174E-03
  .153E-03  .137E-03  .123E-03  .112E-03  .102E-03  .934E-04  .798E-04  .694E-04
  .612E-04  .547E-04  .493E-04  .000E+00  .000E+00  .000E+00  .000E+00  .000E+00
  .000E+00  .000E+00  .000E+00  .000E+00
  .122E+00  .125E+00  .135E+00  .141E+00  .151E+00  .176E+00  .170E+00  .185E+00
  .208E+00  .241E+00  .251E+00  .270E+00  .293E+00  .331E+00  .419E+00  .428E+00
  .566E+00  .755E+00  .952E+00  .137E+01  .184E+01  .190E+01  .178E+01  .173E+01
  .163E+01  .134E+01  .163E+01  .308E+01  .276E+01  .301E+01  .266E+01  .230E+01
  .223E+01  .210E+01  .212E+01  .197E+01  .186E+01  .173E+01  .161E+01  .218E+01
  .179E+01  .142E+01  .160E+01  .252E+01  .232E+01  .419E+01  .729E+01  .465E+01
  .368E+01  .283E+01  .215E+01  .139E+01  .107E+01  .698E+00  .605E+00  .672E+00
  .575E+00  .497E+00  .379E+00  .331E+00  .322E+00  .287E+00  .265E+00  .235E+00
  .201E+00  .176E+00  .164E+00  .159E+00  .149E+00  .139E+00  .130E+00  .123E+00
  .117E+00  .111E+00  .105E+00  .100E+00  .908E-01  .830E-01  .762E-01  .706E-01
  .658E-01  .616E-01  .578E-01  .545E-01  .515E-01  .489E-01  .444E-01  .408E-01
  .377E-01  .350E-01  .327E-01  .000E+00  .000E+00  .000E+00  .000E+00  .000E+00
  .000E+00  .000E+00  .000E+00  .000E+00
  .817E+01  .817E+01  .817E+01  .817E+01  .816E+01  .817E+01  .817E+01  .818E+01
  .815E+01  .816E+01  .816E+01  .817E+01  .816E+01  .816E+01  .816E+01  .817E+01
  .868E+01  .894E+01  .878E+01  .880E+01  .881E+01  .861E+01  .855E+01  .855E+01
  .857E+01  .849E+01  .918E+01  .124E+02  .833E+01  .951E+01  .928E+01  .903E+01
  .826E+01  .827E+01  .847E+01  .849E+01  .851E+01  .919E+01  .902E+01  .124E+02
  .125E+02  .125E+02  .133E+02  .136E+02  .137E+02  .177E+02  .199E+02  .188E+02
  .144E+02  .188E+02  .180E+02  .132E+02  .128E+02  .168E+02  .128E+02  .128E+02
  .124E+02  .124E+02  .124E+02  .172E+02  .172E+02  .128E+02  .124E+02  .124E+02
  .124E+02  .124E+02  .172E+02  .172E+02  .172E+02  .172E+02  .172E+02  .172E+02
  .172E+02  .172E+02  .172E+02  .172E+02  .172E+02  .172E+02  .172E+02  .172E+02
  .172E+02  .172E+02  .172E+02  .172E+02  .172E+02  .172E+02  .172E+02  .172E+02
  .172E+02  .172E+02  .172E+02  .000E+00  .000E+00  .000E+00  .000E+00  .000E+00
  .000E+00  .000E+00  .000E+00  .000E+00
  .839E+01  .839E+01  .839E+01  .545E+01  .574E+01  .558E+01  .561E+01  .575E+01
  .853E+01  .580E+01  .588E+01  .589E+01  .845E+01  .846E+01  .865E+01  .846E+01
  .866E+01  .898E+01  .881E+01  .876E+01  .877E+01  .857E+01  .859E+01  .860E+01
  .852E+01  .845E+01  .837E+01  .124E+02  .839E+01  .972E+01  .935E+01  .896E+01
  .852E+01  .853E+01  .855E+01  .821E+01  .822E+01  .822E+01  .822E+01  .126E+02
  .124E+02  .126E+02  .134E+02  .135E+02  .135E+02  .179E+02  .204E+02  .174E+02
  .142E+02  .190E+02  .183E+02  .130E+02  .130E+02  .123E+02  .130E+02  .130E+02
  .127E+02  .810E+01  .810E+01  .810E+01  .810E+01  .810E+01  .810E+01  .810E+01
  .810E+01  .810E+01  .810E+01  .810E+01  .810E+01  .810E+01  .810E+01  .810E+01
  .810E+01  .810E+01  .810E+01  .810E+01  .810E+01  .810E+01  .810E+01  .810E+01
  .810E+01  .810E+01  .810E+01  .810E+01  .810E+01  .810E+01  .810E+01  .810E+01
  .810E+01  .810E+01  .810E+01  .000E+00  .000E+00  .000E+00  .000E+00  .000E+00
  .000E+00  .000E+00  .000E+00  .000E+00
  .817E+01  .817E+01  .817E+01  .817E+01  .816E+01  .817E+01  .817E+01  .818E+01
  .815E+01  .816E+01  .816E+01  .817E+01  .816E+01  .816E+01  .816E+01  .817E+01
  .868E+01  .894E+01  .878E+01  .880E+01  .881E+01  .861E+01  .855E+01  .855E+01
  .857E+01  .849E+01  .918E+01  .124E+02  .833E+01  .951E+01  .928E+01  .903E+01
  .826E+01  .826E+01  .847E+01  .849E+01  .850E+01  .919E+01  .902E+01  .124E+02
  .125E+02  .125E+02  .133E+02  .136E+02  .137E+02  .177E+02  .198E+02  .188E+02
  .144E+02  .188E+02  .180E+02  .132E+02  .128E+02  .168E+02  .128E+02  .128E+02
  .124E+02  .124E+02  .124E+02  .172E+02  .172E+02  .128E+02  .124E+02  .124E+02
  .124E+02  .124E+02  .172E+02  .172E+02  .172E+02  .172E+02  .172E+02  .172E+02
  .172E+02  .172E+02  .172E+02  .172E+02  .172E+02  .172E+02  .172E+02  .123E+02
  .123E+02  .123E+02  .123E+02  .123E+02  .123E+02  .123E+02  .123E+02  .123E+02
  .123E+02  .123E+02  .123E+02  .000E+00  .000E+00  .000E+00  .000E+00  .000E+00
  .000E+00  .000E+00  .000E+00  .000E+00
Damping =  .05. Data of Sd,Sv,Sa,Pssv,ttSd,ttSv,ttSa :
  .771E-03  .844E-03  .935E-03  .103E-02  .115E-02  .127E-02  .147E-02  .171E-02
