Response and Fourier amplitude spectra (91 periods,  .04 - 15.0 sec)   for      
Corrected accelerogram   24652-F0217-01337.02       Chan  3:  90 Deg     from   
Uncorrected Accelerogram Data             Processed: 06/06/08, CDMG  ce24652    
Record of Sun Sep  9, 2001 16:59:15.6 PDT             (Avol1 v7.5 7/07 CSMIP)   
CSMIP Preliminary Processing            (Origin:  To be determined)             
24652-F0217-01337.02                 Start time:  9/09/01, 23:59:15.6 UTC (WWVB)
Station No. 24652   34.021N, 118.287W     SSA-2  s/n  217  (3 Chns of 15 at Sta)
Los Angeles - 6-story Univ. Office Bldg   CGS                                   
Chan  3:  90 DegR (Sta Chn: 12)     Location: Roof: West Tower                  
Record of Sun Sep  9, 2001 16:59:15.6 PDT    Sun Sep  9, 2001 16:59:15.6 PDT    
Hypocenter:  To be determined.               ML:  To be determined.
Instr Period =  .0222 sec,  Damping =  .700,  Sensitivity = 1.25  v/g  (Nominal)
                        Record length = 67.840 sec.
                                     Uncor Max  =   .081 g , at   8.250 sec.
RMS accel of (uncor) record  =        .   Chn. metadata effective date: 01/01/04
Accelerogram bandpass filtered with 3 dB pts at   .50 and 40.00 cyc/sec
                 instrument- and baseline-corrected





Record of Sun Sep  9, 2001 16:59:15.6 PDT    Sun Sep  9, 2001 16:59:15.6 PDT

24652-F0217-01337.02      Los Angeles - 6-story Univ. Office Bldg   Chan  3:  90
 Deg
24652-F0217-01337.02      Los Angeles - 6-story Univ. Office Bldg   Chan  3:  90
 Deg
Units for spectra are inches and sec, except Sa is in fraction of g.

    3  100   12    3   15  200    1    3    1   12    6  217    024652    2    0
   23   59   15  615  252    9    9 2001   10    1   9013568   41   39   76  345
13568    0   50    3 3102    1    2   53    2   23   59   19  110    9    9 2001
    0    2    0    013568    1  220    1   12    4   76   39    0    0    013568
    313568   40   91    5    3    5    0    0    0   15    0    0    3    0    2
    2    2    4    0   79   99    1   32   32    0    0    1    0    0    8  333
    1    1    3    0
      .022      .700    67.840      .007      .000  1250.000      .081     8.250
    45.000  1220.703   976.563      .000     5.000      .000      .000      .000
     2.500    -7.394     2.500  -999.000     5.120    30.000      .000      .028
      .030      .002     2.000    15.000    34.021  -118.287      .487      .565
     1.159     -.066      .071    54.000      .000      .000      .000      .000
      .000     1.109     7.000      .000      .000      .000      .000      .000
     6.800     7.500     4.600   980.665      .005    67.840     7.162      .000
      .000    40.000      .000    67.840      .005      .500      .000      .000
     8.245    78.088     9.230     5.185     8.585      .610      .000      .500
    40.000      .005      .005      .000     1.205      .188      .000      .000
      .244      .240      .214      .163      .077      .003      .000      .000
      .000      .000      .000      .000      .000      .000      .000      .000
      .000      .000      .000      .000
      .000      .020      .050      .100      .200
      .040      .042      .044      .046      .048      .050      .055      .060
      .065      .070      .075      .080      .085      .090      .095      .100
      .110      .120      .130      .140      .150      .160      .170      .180
      .190      .200      .220      .240      .260      .280      .300      .320
      .340      .360      .380      .400      .420      .440      .460      .480
      .500      .550      .600      .650      .700      .750      .800      .850
      .900      .950     1.000     1.100     1.200     1.300     1.400     1.500
     1.600     1.700     1.800     1.900     2.000     2.200     2.400     2.600
     2.800     3.000     3.200     3.400     3.600     3.800     4.000     4.200
     4.400     4.600     4.800     5.000     5.500     6.000     6.500     7.000
     7.500     8.000     8.500     9.000     9.500    10.000    11.000    12.000
    13.000    14.000    15.000      .000      .000      .000      .000      .000
      .000      .000      .000      .000
Fourier amplitude spectra in in/sec.
  .152E+00  .115E+00  .683E-01  .227E+00  .548E-01  .839E-01  .246E+00  .203E+00
  .165E+00  .279E+00  .754E-01  .343E+00  .104E+00  .243E+00  .288E+00  .268E+00
  .142E+00  .115E+00  .188E+00  .173E+00  .158E+01  .230E+01  .242E+01  .146E+01
  .392E+01  .347E+01  .742E+01  .711E+01  .656E+01  .267E+01  .286E+01  .246E+01
  .366E+01  .233E+01  .543E+01  .591E+01  .323E+01  .419E+01  .482E+01  .195E+01
  .461E+01  .468E+01  .851E+01  .485E+01  .821E+01  .102E+02  .246E+02  .258E+02
  .142E+02  .833E+01  .258E+01  .134E+01  .162E+01  .292E+00  .268E+00  .205E+00
  .211E+00  .338E+00  .228E+00  .537E-01  .837E-01  .995E-01  .426E-01  .172E-01
  .301E-01  .274E-01  .120E-01  .689E-02  .127E-01  .133E-01  .104E-01  .684E-02
  .105E-01  .644E-02  .441E-02  .156E-02  .526E-03  .127E-02  .321E-02  .476E-03
  .137E-02  .112E-02  .437E-03  .188E-03  .222E-03  .120E-03  .163E-03  .135E-03
  .520E-04  .105E-03  .131E-03  .000E+00  .000E+00  .000E+00  .000E+00  .000E+00
  .000E+00  .000E+00  .000E+00  .000E+00
Damping =  .00. Data of Sd,Sv,Sa,Pssv,ttSd,ttSv,ttSa :
  .149E-02  .142E-02  .150E-02  .177E-02  .195E-02  .358E-02  .331E-02  .499E-02
  .453E-02  .577E-02  .646E-02  .902E-02  .824E-02  .815E-02  .104E-01  .109E-01
  .122E-01  .195E-01  .228E-01  .284E-01  .436E-01  .777E-01  .783E-01  .849E-01
  .129E+00  .135E+00  .264E+00  .428E+00  .276E+00  .207E+00  .198E+00  .185E+00
  .239E+00  .234E+00  .334E+00  .389E+00  .339E+00  .365E+00  .423E+00  .433E+00
  .467E+00  .596E+00  .884E+00  .937E+00  .124E+01  .163E+01  .315E+01  .364E+01
  .230E+01  .137E+01  .103E+01  .704E+00  .529E+00  .449E+00  .389E+00  .360E+00
  .350E+00  .335E+00  .318E+00  .307E+00  .301E+00  .292E+00  .281E+00  .271E+00
  .265E+00  .261E+00  .258E+00  .256E+00  .255E+00  .253E+00  .252E+00  .251E+00
  .250E+00  .249E+00  .249E+00  .248E+00  .247E+00  .246E+00  .245E+00  .244E+00
  .244E+00  .243E+00  .243E+00  .242E+00  .242E+00  .242E+00  .241E+00  .241E+00
  .241E+00  .241E+00  .241E+00  .000E+00  .000E+00  .000E+00  .000E+00  .000E+00
  .000E+00  .000E+00  .000E+00  .000E+00
  .160E+00  .145E+00  .102E+00  .227E+00  .935E-01  .267E+00  .254E+00  .344E+00
  .173E+00  .280E+00  .250E+00  .421E+00  .273E+00  .322E+00  .455E+00  .392E+00
  .498E+00  .699E+00  .676E+00  .836E+00  .174E+01  .267E+01  .279E+01  .243E+01
  .417E+01  .374E+01  .750E+01  .109E+02  .664E+01  .448E+01  .419E+01  .349E+01
  .404E+01  .413E+01  .548E+01  .600E+01  .489E+01  .522E+01  .575E+01  .542E+01
  .571E+01  .626E+01  .919E+01  .845E+01  .110E+02  .133E+02  .248E+02  .269E+02
  .162E+02  .956E+01  .706E+01  .503E+01  .433E+01  .366E+01  .321E+01  .295E+01
  .270E+01  .254E+01  .246E+01  .240E+01  .234E+01  .228E+01  .224E+01  .221E+01
  .218E+01  .216E+01  .215E+01  .213E+01  .212E+01  .211E+01  .211E+01  .210E+01
  .209E+01  .209E+01  .208E+01  .208E+01  .207E+01  .207E+01  .206E+01  .206E+01
  .206E+01  .206E+01  .205E+01  .205E+01  .205E+01  .205E+01  .205E+01  .205E+01
  .205E+01  .205E+01  .204E+01  .000E+00  .000E+00  .000E+00  .000E+00  .000E+00
  .000E+00  .000E+00  .000E+00  .000E+00
  .950E-01  .826E-01  .792E-01  .855E-01  .865E-01  .146E+00  .112E+00  .142E+00
  .110E+00  .120E+00  .118E+00  .144E+00  .117E+00  .103E+00  .117E+00  .111E+00
  .103E+00  .138E+00  .138E+00  .148E+00  .198E+00  .310E+00  .277E+00  .268E+00
  .365E+00  .346E+00  .557E+00  .760E+00  .417E+00  .270E+00  .225E+00  .185E+00
  .211E+00  .185E+00  .236E+00  .249E+00  .196E+00  .193E+00  .204E+00  .192E+00
  .191E+00  .201E+00  .251E+00  .227E+00  .258E+00  .297E+00  .504E+00  .515E+00
  .290E+00  .155E+00  .106E+00  .595E-01  .375E-01  .272E-01  .203E-01  .163E-01
  .140E-01  .118E-01  .100E-01  .869E-02  .770E-02  .617E-02  .498E-02  .411E-02
  .346E-02  .297E-02  .258E-02  .227E-02  .201E-02  .179E-02  .161E-02  .146E-02
  .132E-02  .121E-02  .110E-02  .101E-02  .834E-03  .698E-03  .593E-03  .510E-03
  .443E-03  .389E-03  .344E-03  .306E-03  .274E-03  .247E-03  .204E-03  .171E-03
  .146E-03  .126E-03  .109E-03  .000E+00  .000E+00  .000E+00  .000E+00  .000E+00
  .000E+00  .000E+00  .000E+00  .000E+00
  .233E+00  .213E+00  .214E+00  .242E+00  .255E+00  .450E+00  .378E+00  .523E+00
  .438E+00  .518E+00  .541E+00  .708E+00  .609E+00  .569E+00  .685E+00  .685E+00
  .698E+00  .102E+01  .110E+01  .127E+01  .183E+01  .305E+01  .290E+01  .296E+01
  .427E+01  .426E+01  .753E+01  .112E+02  .666E+01  .465E+01  .415E+01  .364E+01
  .442E+01  .409E+01  .552E+01  .611E+01  .507E+01  .521E+01  .578E+01  .567E+01
  .586E+01  .680E+01  .925E+01  .906E+01  .111E+02  .137E+02  .248E+02  .269E+02
  .160E+02  .906E+01  .650E+01  .402E+01  .277E+01  .217E+01  .175E+01  .151E+01
  .137E+01  .124E+01  .111E+01  .101E+01  .947E+00  .834E+00  .735E+00  .656E+00
  .596E+00  .547E+00  .508E+00  .474E+00  .444E+00  .419E+00  .396E+00  .376E+00
  .357E+00  .341E+00  .326E+00  .312E+00  .282E+00  .257E+00  .237E+00  .219E+00
  .204E+00  .191E+00  .179E+00  .169E+00  .160E+00  .152E+00  .138E+00  .126E+00
  .116E+00  .108E+00  .101E+00  .000E+00  .000E+00  .000E+00  .000E+00  .000E+00
  .000E+00  .000E+00  .000E+00  .000E+00
  .826E+01  .823E+01  .826E+01  .826E+01  .824E+01  .825E+01  .824E+01  .813E+01
  .824E+01  .826E+01  .826E+01  .826E+01  .825E+01  .929E+01  .822E+01  .813E+01
  .822E+01  .823E+01  .824E+01  .824E+01  .149E+02  .930E+01  .136E+02  .855E+01
  .132E+02  .859E+01  .225E+02  .110E+02  .276E+02  .977E+01  .108E+02  .903E+01
  .906E+01  .106E+02  .185E+02  .172E+02  .945E+01  .864E+01  .160E+02  .867E+01
  .868E+01  .901E+01  .202E+02  .945E+01  .145E+02  .115E+02  .378E+02  .300E+02
  .137E+02  .124E+02  .103E+02  .986E+01  .944E+01  .898E+01  .899E+01  .899E+01
  .857E+01  .857E+01  .858E+01  .858E+01  .858E+01  .858E+01  .858E+01  .858E+01
  .858E+01  .858E+01  .858E+01  .858E+01  .858E+01  .858E+01  .858E+01  .858E+01
  .858E+01  .858E+01  .858E+01  .858E+01  .858E+01  .858E+01  .858E+01  .858E+01
  .858E+01  .858E+01  .858E+01  .858E+01  .858E+01  .858E+01  .858E+01  .858E+01
  .858E+01  .858E+01  .858E+01  .000E+00  .000E+00  .000E+00  .000E+00  .000E+00
  .000E+00  .000E+00  .000E+00  .000E+00
  .658E+02  .634E+02  .444E+02  .672E+02  .435E+02  .819E+01  .641E+02  .667E+01
  .844E+01  .818E+01  .816E+01  .923E+01  .810E+01  .124E+02  .819E+01  .935E+01
  .818E+01  .819E+01  .819E+01  .819E+01  .182E+02  .935E+01  .127E+02  .851E+01
  .127E+02  .864E+01  .495E+02  .111E+02  .276E+02  .970E+01  .109E+02  .126E+02
  .898E+01  .105E+02  .186E+02  .171E+02  .935E+01  .875E+01  .159E+02  .878E+01
  .178E+02  .914E+01  .230E+02  .964E+01  .143E+02  .117E+02  .372E+02  .302E+02
  .134E+02  .113E+02  .100E+02  .922E+01  .922E+01  .922E+01  .922E+01  .923E+01
  .923E+01  .923E+01  .922E+01  .922E+01  .922E+01  .844E+01  .844E+01  .844E+01
  .922E+01  .922E+01  .922E+01  .922E+01  .922E+01  .922E+01  .922E+01  .922E+01
  .922E+01  .922E+01  .922E+01  .922E+01  .922E+01  .922E+01  .922E+01  .922E+01
  .922E+01  .922E+01  .922E+01  .922E+01  .922E+01  .922E+01  .922E+01  .922E+01
  .922E+01  .922E+01  .922E+01  .000E+00  .000E+00  .000E+00  .000E+00  .000E+00
  .000E+00  .000E+00  .000E+00  .000E+00
  .826E+01  .823E+01  .826E+01  .826E+01  .824E+01  .825E+01  .824E+01  .813E+01
  .824E+01  .826E+01  .826E+01  .826E+01  .825E+01  .929E+01  .822E+01  .813E+01
  .822E+01  .823E+01  .824E+01  .824E+01  .149E+02  .930E+01  .136E+02  .855E+01
  .132E+02  .859E+01  .225E+02  .110E+02  .276E+02  .977E+01  .108E+02  .903E+01
  .906E+01  .106E+02  .185E+02  .172E+02  .945E+01  .864E+01  .160E+02  .867E+01
  .868E+01  .901E+01  .202E+02  .945E+01  .145E+02  .115E+02  .378E+02  .300E+02
  .137E+02  .124E+02  .103E+02  .986E+01  .944E+01  .898E+01  .899E+01  .899E+01
  .857E+01  .857E+01  .858E+01  .858E+01  .858E+01  .858E+01  .858E+01  .858E+01
  .858E+01  .858E+01  .858E+01  .858E+01  .858E+01  .858E+01  .858E+01  .858E+01
  .858E+01  .858E+01  .858E+01  .858E+01  .858E+01  .858E+01  .858E+01  .858E+01
  .858E+01  .858E+01  .858E+01  .858E+01  .858E+01  .858E+01  .858E+01  .858E+01
  .858E+01  .858E+01  .858E+01  .000E+00  .000E+00  .000E+00  .000E+00  .000E+00
  .000E+00  .000E+00  .000E+00  .000E+00
Damping =  .02. Data of Sd,Sv,Sa,Pssv,ttSd,ttSv,ttSa :
  .131E-02  .144E-02  .155E-02  .175E-02  .192E-02  .211E-02  .256E-02  .316E-02
  .392E-02  .435E-02  .515E-02  .579E-02  .596E-02  .661E-02  .779E-02  .879E-02
  .124E-01  .185E-01  .235E-01  .316E-01  .395E-01  .524E-01  .607E-01  .743E-01
  .920E-01  .109E+00  .143E+00  .221E+00  .151E+00  .159E+00  .148E+00  .160E+00
  .185E+00  .210E+00  .249E+00  .284E+00  .300E+00  .340E+00  .378E+00  .406E+00
  .435E+00  .528E+00  .640E+00  .798E+00  .928E+00  .123E+01  .163E+01  .190E+01
  .157E+01  .112E+01  .912E+00  .650E+00  .504E+00  .439E+00  .387E+00  .355E+00
  .344E+00  .331E+00  .317E+00  .306E+00  .300E+00  .291E+00  .280E+00  .272E+00
  .266E+00  .262E+00  .259E+00  .257E+00  .255E+00  .253E+00  .252E+00  .251E+00
  .250E+00  .250E+00  .249E+00  .248E+00  .247E+00  .246E+00  .245E+00  .244E+00
  .244E+00  .243E+00  .243E+00  .242E+00  .242E+00  .242E+00  .242E+00  .241E+00
  .241E+00  .241E+00  .241E+00  .000E+00  .000E+00  .000E+00  .000E+00  .000E+00
  .000E+00  .000E+00  .000E+00  .000E+00
  .345E-01  .355E-01  .374E-01  .445E-01  .452E-01  .520E-01  .687E-01  .114E+00
  .110E+00  .113E+00  .135E+00  .163E+00  .206E+00  .240E+00  .290E+00  .332E+00
  .415E+00  .599E+00  .691E+00  .913E+00  .108E+01  .157E+01  .188E+01  .213E+01
  .249E+01  .284E+01  .366E+01  .552E+01  .346E+01  .313E+01  .296E+01  .285E+01
  .315E+01  .322E+01  .386E+01  .430E+01  .439E+01  .472E+01  .492E+01  .493E+01
  .493E+01  .533E+01  .564E+01  .704E+01  .819E+01  .984E+01  .127E+02  .142E+02
  .113E+02  .786E+01  .646E+01  .475E+01  .417E+01  .360E+01  .320E+01  .293E+01
  .271E+01  .256E+01  .247E+01  .240E+01  .235E+01  .227E+01  .223E+01  .220E+01
  .218E+01  .216E+01  .214E+01  .213E+01  .212E+01  .211E+01  .210E+01  .210E+01
  .209E+01  .209E+01  .208E+01  .208E+01  .207E+01  .207E+01  .206E+01  .206E+01
  .206E+01  .206E+01  .205E+01  .205E+01  .205E+01  .205E+01  .205E+01  .205E+01
  .205E+01  .205E+01  .204E+01  .000E+00  .000E+00  .000E+00  .000E+00  .000E+00
  .000E+00  .000E+00  .000E+00  .000E+00
  .837E-01  .836E-01  .820E-01  .845E-01  .852E-01  .864E-01  .866E-01  .897E-01
  .950E-01  .908E-01  .935E-01  .926E-01  .844E-01  .835E-01  .883E-01  .899E-01
  .105E+00  .131E+00  .142E+00  .165E+00  .179E+00  .209E+00  .215E+00  .235E+00
  .261E+00  .279E+00  .303E+00  .392E+00  .228E+00  .207E+00  .169E+00  .160E+00
  .164E+00  .166E+00  .176E+00  .182E+00  .174E+00  .180E+00  .183E+00  .180E+00
  .178E+00  .179E+00  .182E+00  .193E+00  .194E+00  .224E+00  .261E+00  .269E+00
  .199E+00  .127E+00  .934E-01  .550E-01  .359E-01  .266E-01  .202E-01  .162E-01
  .138E-01  .118E-01  .100E-01  .874E-02  .773E-02  .620E-02  .503E-02  .416E-02
  .352E-02  .302E-02  .263E-02  .232E-02  .206E-02  .184E-02  .166E-02  .151E-02
  .137E-02  .126E-02  .115E-02  .106E-02  .883E-03  .746E-03  .641E-03  .557E-03
  .490E-03  .435E-03  .390E-03  .352E-03  .320E-03  .292E-03  .248E-03  .214E-03
  .188E-03  .166E-03  .149E-03  .000E+00  .000E+00  .000E+00  .000E+00  .000E+00
  .000E+00  .000E+00  .000E+00  .000E+00
  .206E+00  .216E+00  .222E+00  .239E+00  .251E+00  .265E+00  .292E+00  .331E+00
  .379E+00  .390E+00  .431E+00  .455E+00  .441E+00  .462E+00  .515E+00  .552E+00
  .711E+00  .967E+00  .113E+01  .142E+01  .165E+01  .206E+01  .224E+01  .259E+01
  .304E+01  .343E+01  .409E+01  .578E+01  .364E+01  .356E+01  .311E+01  .313E+01
  .343E+01  .367E+01  .411E+01  .446E+01  .449E+01  .486E+01  .516E+01  .531E+01
  .546E+01  .603E+01  .670E+01  .772E+01  .833E+01  .103E+02  .128E+02  .140E+02
  .110E+02  .743E+01  .573E+01  .372E+01  .264E+01  .212E+01  .173E+01  .149E+01
  .135E+01  .122E+01  .110E+01  .101E+01  .944E+00  .830E+00  .734E+00  .656E+00
  .596E+00  .548E+00  .508E+00  .474E+00  .445E+00  .419E+00  .396E+00  .376E+00
  .357E+00  .341E+00  .326E+00  .312E+00  .282E+00  .257E+00  .237E+00  .219E+00
  .204E+00  .191E+00  .180E+00  .169E+00  .160E+00  .152E+00  .138E+00  .126E+00
  .116E+00  .108E+00  .101E+00  .000E+00  .000E+00  .000E+00  .000E+00  .000E+00
  .000E+00  .000E+00  .000E+00  .000E+00
  .824E+01  .824E+01  .824E+01  .824E+01  .824E+01  .824E+01  .824E+01  .824E+01
  .824E+01  .824E+01  .825E+01  .825E+01  .825E+01  .825E+01  .823E+01  .823E+01
  .823E+01  .823E+01  .824E+01  .824E+01  .826E+01  .826E+01  .853E+01  .855E+01
  .856E+01  .859E+01  .930E+01  .103E+02  .832E+01  .834E+01  .941E+01  .903E+01
  .906E+01  .859E+01  .860E+01  .941E+01  .864E+01  .864E+01  .865E+01  .867E+01
  .868E+01  .901E+01  .905E+01  .945E+01  .989E+01  .107E+02  .116E+02  .139E+02
  .132E+02  .106E+02  .102E+02  .985E+01  .897E+01  .898E+01  .898E+01  .898E+01
  .857E+01  .857E+01  .857E+01  .857E+01  .857E+01  .858E+01  .858E+01  .858E+01
  .858E+01  .858E+01  .858E+01  .858E+01  .858E+01  .858E+01  .858E+01  .858E+01
  .858E+01  .858E+01  .858E+01  .858E+01  .858E+01  .858E+01  .858E+01  .858E+01
  .858E+01  .858E+01  .858E+01  .858E+01  .858E+01  .858E+01  .858E+01  .858E+01
  .858E+01  .858E+01  .858E+01  .000E+00  .000E+00  .000E+00  .000E+00  .000E+00
  .000E+00  .000E+00  .000E+00  .000E+00
  .819E+01  .819E+01  .821E+01  .818E+01  .818E+01  .818E+01  .542E+01  .601E+01
  .817E+01  .818E+01  .817E+01  .600E+01  .818E+01  .818E+01  .818E+01  .818E+01
  .818E+01  .819E+01  .819E+01  .820E+01  .830E+01  .935E+01  .849E+01  .851E+01
  .851E+01  .864E+01  .924E+01  .100E+02  .108E+02  .840E+01  .935E+01  .911E+01
  .898E+01  .869E+01  .871E+01  .872E+01  .873E+01  .875E+01  .876E+01  .877E+01
  .879E+01  .914E+01  .891E+01  .931E+01  .101E+02  .109E+02  .119E+02  .137E+02
  .125E+02  .104E+02  .999E+01  .921E+01  .922E+01  .922E+01  .922E+01  .922E+01
  .922E+01  .922E+01  .922E+01  .922E+01  .922E+01  .922E+01  .844E+01  .922E+01
  .922E+01  .922E+01  .922E+01  .922E+01  .922E+01  .922E+01  .922E+01  .922E+01
  .922E+01  .922E+01  .922E+01  .922E+01  .922E+01  .922E+01  .922E+01  .922E+01
  .922E+01  .922E+01  .922E+01  .922E+01  .922E+01  .922E+01  .922E+01  .922E+01
  .922E+01  .922E+01  .922E+01  .000E+00  .000E+00  .000E+00  .000E+00  .000E+00
  .000E+00  .000E+00  .000E+00  .000E+00
  .824E+01  .824E+01  .824E+01  .824E+01  .824E+01  .823E+01  .824E+01  .824E+01
  .824E+01  .824E+01  .825E+01  .825E+01  .825E+01  .825E+01  .823E+01  .823E+01
  .823E+01  .823E+01  .824E+01  .824E+01  .826E+01  .826E+01  .853E+01  .855E+01
  .856E+01  .859E+01  .930E+01  .103E+02  .832E+01  .834E+01  .941E+01  .903E+01
  .906E+01  .858E+01  .860E+01  .941E+01  .863E+01  .864E+01  .865E+01  .866E+01
  .868E+01  .901E+01  .905E+01  .945E+01  .989E+01  .107E+02  .116E+02  .139E+02
  .132E+02  .106E+02  .102E+02  .985E+01  .895E+01  .897E+01  .897E+01  .897E+01
  .856E+01  .856E+01  .856E+01  .856E+01  .856E+01  .856E+01  .856E+01  .856E+01
  .856E+01  .856E+01  .856E+01  .855E+01  .855E+01  .855E+01  .855E+01  .855E+01
  .855E+01  .855E+01  .855E+01  .855E+01  .855E+01  .854E+01  .854E+01  .853E+01
  .853E+01  .853E+01  .853E+01  .853E+01  .852E+01  .852E+01  .852E+01  .851E+01
  .851E+01  .851E+01  .851E+01  .000E+00  .000E+00  .000E+00  .000E+00  .000E+00
  .000E+00  .000E+00  .000E+00  .000E+00
Damping =  .05. Data of Sd,Sv,Sa,Pssv,ttSd,ttSv,ttSa :
  .129E-02  .143E-02  .157E-02  .174E-02  .192E-02  .210E-02  .258E-02  .313E-02
