Response and Fourier amplitude spectra (91 periods,  .04 - 15.0 sec)   for      
Corrected accelerogram   24652-F0214-01337.02       Chan  2:  Up         from   
Uncorrected Accelerogram Data             Processed: 06/06/08, CDMG  ce24652    
Record of Sun Sep  9, 2001 16:59:15.6 PDT             (Avol1 v7.5 7/07 CSMIP)   
CSMIP Preliminary Processing            (Origin:  To be determined)             
24652-F0214-01337.02                 Start time:  9/09/01, 23:59:15.6 UTC (WWVB)
Station No. 24652   34.021N, 118.287W     SSA-2  s/n  214  (3 Chns of 15 at Sta)
Los Angeles - 6-story Univ. Office Bldg   CGS                                   
Chan  2:  Up                        Location: Basement: West Tower, SW Corner   
Record of Sun Sep  9, 2001 16:59:15.6 PDT    Sun Sep  9, 2001 16:59:15.6 PDT    
Hypocenter:  To be determined.               ML:  To be determined.
Instr Period =  .0222 sec,  Damping =  .700,  Sensitivity = 1.25  v/g  (Nominal)
                        Record length = 67.840 sec.
                                     Uncor Max  =  -.042 g , at   5.195 sec.
RMS accel of (uncor) record  =        .   Chn. metadata effective date: 01/01/04
Accelerogram bandpass filtered with 3 dB pts at   .50 and 40.00 cyc/sec
                 instrument- and baseline-corrected





Record of Sun Sep  9, 2001 16:59:15.6 PDT    Sun Sep  9, 2001 16:59:15.6 PDT

24652-F0214-01337.02      Los Angeles - 6-story Univ. Office Bldg   Chan  2:  Up

24652-F0214-01337.02      Los Angeles - 6-story Univ. Office Bldg   Chan  2:  Up

Units for spectra are inches and sec, except Sa is in fraction of g.

    2  100    2    3   15  200    1    3    1   12    6  214    024652    2    0
   23   59   15  615  252    9    9 2001   10    1  50013568   41   39   76  345
13568    1   50    3 3102    1    2   53    1    0   59   17  350    9   10 2001
    0    2    0    013568    1  220    1   12    4   76   39    0    0    013568
    313568   40   91    5    3    5    0    0    0   15    0    0    3    0    2
    2    2    4    0   79   99    1   32   32    0    0    1    0    0    9  333
    1    1    2    0
      .022      .700    67.840      .003      .000  1250.000     -.042     5.195
    45.000  1220.703   976.563      .000     5.000      .000      .000      .000
     2.500    40.094     2.500  -999.000     5.120    30.000      .000     -.042
     -.049     -.007     2.000    15.000    34.021  -118.287      .109      .073
      .675     -.021      .008    54.000      .000      .000      .000      .000
      .000     1.039     7.000      .000      .000      .000      .000      .000
     6.800     7.500     4.600   980.665      .005    67.840     7.162      .000
      .000    40.000      .000    67.840      .005      .500      .000      .000
     5.190   -41.417     5.305     -.936     5.190      .058      .000      .500
    40.000      .005      .005      .000      .005      .023      .000      .000
      .125      .100      .064      .063      .003      .000      .000      .000
      .000      .000      .000      .000      .000      .000      .000      .000
      .000      .000      .000      .000
      .000      .020      .050      .100      .200
      .040      .042      .044      .046      .048      .050      .055      .060
      .065      .070      .075      .080      .085      .090      .095      .100
      .110      .120      .130      .140      .150      .160      .170      .180
      .190      .200      .220      .240      .260      .280      .300      .320
      .340      .360      .380      .400      .420      .440      .460      .480
      .500      .550      .600      .650      .700      .750      .800      .850
      .900      .950     1.000     1.100     1.200     1.300     1.400     1.500
     1.600     1.700     1.800     1.900     2.000     2.200     2.400     2.600
     2.800     3.000     3.200     3.400     3.600     3.800     4.000     4.200
     4.400     4.600     4.800     5.000     5.500     6.000     6.500     7.000
     7.500     8.000     8.500     9.000     9.500    10.000    11.000    12.000
    13.000    14.000    15.000      .000      .000      .000      .000      .000
      .000      .000      .000      .000
Fourier amplitude spectra in in/sec.
  .156E+00  .670E-01  .134E+00  .295E+00  .311E+00  .199E+00  .224E+00  .516E+00
  .325E+00  .456E+00  .293E+00  .315E+00  .500E+00  .466E+00  .284E+00  .213E+01
  .254E+01  .818E+00  .898E+00  .103E+01  .329E+01  .253E+01  .784E+00  .195E+01
  .649E+00  .636E+00  .200E+01  .143E+01  .375E+01  .385E+00  .114E+01  .408E+01
  .743E+00  .194E+01  .431E+00  .264E+01  .698E+00  .984E-01  .169E+01  .119E+01
  .468E+00  .184E+01  .120E+01  .232E+00  .607E+00  .839E+00  .134E+00  .327E+00
  .185E+00  .154E+00  .714E-01  .223E+00  .191E+00  .243E+00  .201E+00  .138E+00
  .406E-01  .329E-01  .517E-01  .565E-01  .418E-01  .359E-01  .168E-01  .180E-01
  .110E-01  .148E-01  .923E-02  .383E-02  .587E-02  .815E-02  .675E-02  .598E-02
  .659E-02  .409E-02  .188E-02  .200E-02  .217E-02  .110E-02  .140E-02  .122E-02
  .360E-03  .331E-03  .716E-03  .527E-03  .345E-03  .437E-03  .159E-03  .207E-03
  .135E-03  .267E-03  .134E-03  .000E+00  .000E+00  .000E+00  .000E+00  .000E+00
  .000E+00  .000E+00  .000E+00  .000E+00
Damping =  .00. Data of Sd,Sv,Sa,Pssv,ttSd,ttSv,ttSa :
  .103E-02  .114E-02  .153E-02  .314E-02  .310E-02  .211E-02  .290E-02  .579E-02
  .531E-02  .538E-02  .433E-02  .796E-02  .104E-01  .111E-01  .161E-01  .363E-01
  .497E-01  .337E-01  .248E-01  .370E-01  .791E-01  .662E-01  .306E-01  .602E-01
  .517E-01  .356E-01  .766E-01  .794E-01  .164E+00  .848E-01  .136E+00  .208E+00
  .783E-01  .139E+00  .815E-01  .176E+00  .109E+00  .797E-01  .133E+00  .100E+00
  .694E-01  .178E+00  .122E+00  .542E-01  .764E-01  .101E+00  .357E-01  .625E-01
  .367E-01  .420E-01  .337E-01  .508E-01  .426E-01  .550E-01  .456E-01  .336E-01
  .289E-01  .256E-01  .254E-01  .255E-01  .253E-01  .246E-01  .237E-01  .231E-01
  .237E-01  .239E-01  .235E-01  .231E-01  .232E-01  .232E-01  .232E-01  .232E-01
  .232E-01  .231E-01  .230E-01  .229E-01  .227E-01  .226E-01  .225E-01  .225E-01
  .225E-01  .225E-01  .226E-01  .226E-01  .227E-01  .227E-01  .228E-01  .229E-01
  .230E-01  .231E-01  .232E-01  .000E+00  .000E+00  .000E+00  .000E+00  .000E+00
  .000E+00  .000E+00  .000E+00  .000E+00
  .160E+00  .103E+00  .183E+00  .397E+00  .377E+00  .223E+00  .298E+00  .583E+00
  .490E+00  .455E+00  .350E+00  .586E+00  .716E+00  .675E+00  .959E+00  .228E+01
  .279E+01  .168E+01  .115E+01  .161E+01  .331E+01  .259E+01  .118E+01  .209E+01
  .168E+01  .112E+01  .218E+01  .208E+01  .397E+01  .194E+01  .289E+01  .408E+01
  .148E+01  .243E+01  .140E+01  .278E+01  .181E+01  .115E+01  .180E+01  .133E+01
  .967E+00  .202E+01  .128E+01  .582E+00  .746E+00  .848E+00  .473E+00  .466E+00
  .473E+00  .450E+00  .445E+00  .434E+00  .466E+00  .445E+00  .410E+00  .403E+00
  .399E+00  .395E+00  .391E+00  .387E+00  .384E+00  .379E+00  .376E+00  .375E+00
  .374E+00  .374E+00  .374E+00  .373E+00  .372E+00  .372E+00  .371E+00  .371E+00
  .370E+00  .370E+00  .370E+00  .370E+00  .369E+00  .369E+00  .369E+00  .369E+00
  .369E+00  .369E+00  .369E+00  .369E+00  .369E+00  .369E+00  .368E+00  .368E+00
  .368E+00  .368E+00  .368E+00  .000E+00  .000E+00  .000E+00  .000E+00  .000E+00
  .000E+00  .000E+00  .000E+00  .000E+00
  .656E-01  .660E-01  .810E-01  .152E+00  .138E+00  .863E-01  .982E-01  .164E+00
  .128E+00  .112E+00  .788E-01  .127E+00  .148E+00  .140E+00  .182E+00  .371E+00
  .420E+00  .240E+00  .150E+00  .193E+00  .360E+00  .264E+00  .108E+00  .190E+00
  .146E+00  .910E-01  .162E+00  .141E+00  .248E+00  .111E+00  .155E+00  .207E+00
  .693E-01  .109E+00  .577E-01  .112E+00  .632E-01  .421E-01  .641E-01  .445E-01
  .284E-01  .603E-01  .347E-01  .131E-01  .160E-01  .184E-01  .571E-02  .884E-02
  .464E-02  .476E-02  .345E-02  .429E-02  .303E-02  .333E-02  .238E-02  .153E-02
  .115E-02  .907E-03  .803E-03  .721E-03  .647E-03  .519E-03  .421E-03  .350E-03
  .310E-03  .271E-03  .235E-03  .204E-03  .183E-03  .164E-03  .149E-03  .135E-03
  .122E-03  .112E-03  .102E-03  .938E-04  .769E-04  .642E-04  .545E-04  .469E-04
  .409E-04  .360E-04  .319E-04  .285E-04  .257E-04  .232E-04  .193E-04  .163E-04
  .139E-04  .121E-04  .105E-04  .000E+00  .000E+00  .000E+00  .000E+00  .000E+00
  .000E+00  .000E+00  .000E+00  .000E+00
  .161E+00  .170E+00  .219E+00  .428E+00  .406E+00  .265E+00  .332E+00  .606E+00
  .513E+00  .483E+00  .363E+00  .625E+00  .772E+00  .774E+00  .106E+01  .228E+01
  .284E+01  .177E+01  .120E+01  .166E+01  .331E+01  .260E+01  .113E+01  .210E+01
  .171E+01  .112E+01  .219E+01  .208E+01  .396E+01  .190E+01  .285E+01  .408E+01
  .145E+01  .242E+01  .135E+01  .276E+01  .163E+01  .114E+01  .181E+01  .131E+01
  .872E+00  .204E+01  .128E+01  .524E+00  .686E+00  .848E+00  .281E+00  .462E+00
  .256E+00  .278E+00  .212E+00  .290E+00  .223E+00  .266E+00  .205E+00  .141E+00
  .113E+00  .948E-01  .888E-01  .842E-01  .795E-01  .701E-01  .621E-01  .559E-01
  .533E-01  .500E-01  .462E-01  .427E-01  .404E-01  .384E-01  .365E-01  .347E-01
  .331E-01  .315E-01  .301E-01  .288E-01  .260E-01  .237E-01  .218E-01  .202E-01
  .188E-01  .177E-01  .167E-01  .158E-01  .150E-01  .143E-01  .130E-01  .120E-01
  .111E-01  .104E-01  .972E-02  .000E+00  .000E+00  .000E+00  .000E+00  .000E+00
  .000E+00  .000E+00  .000E+00  .000E+00
  .338E+02  .534E+01  .939E+01  .826E+01  .824E+01  .549E+01  .534E+01  .670E+01
  .835E+01  .823E+01  .577E+01  .822E+01  .904E+01  .549E+01  .550E+01  .876E+01
  .115E+02  .825E+01  .970E+01  .961E+01  .359E+02  .212E+02  .932E+01  .198E+02
  .105E+02  .839E+01  .164E+02  .995E+01  .128E+02  .625E+01  .783E+01  .632E+02
  .578E+01  .904E+01  .717E+01  .133E+02  .942E+01  .745E+01  .175E+02  .216E+02
  .125E+02  .229E+02  .249E+02  .116E+02  .308E+02  .495E+02  .534E+01  .181E+02
  .238E+02  .200E+02  .275E+02  .302E+02  .307E+02  .216E+02  .571E+02  .823E+01
  .823E+01  .823E+01  .518E+01  .518E+01  .518E+01  .518E+01  .518E+01  .518E+01
  .823E+01  .823E+01  .823E+01  .823E+01  .518E+01  .518E+01  .518E+01  .518E+01
  .518E+01  .518E+01  .518E+01  .518E+01  .518E+01  .518E+01  .518E+01  .518E+01
  .518E+01  .518E+01  .518E+01  .518E+01  .518E+01  .518E+01  .518E+01  .518E+01
  .518E+01  .518E+01  .518E+01  .000E+00  .000E+00  .000E+00  .000E+00  .000E+00
  .000E+00  .000E+00  .000E+00  .000E+00
  .338E+02  .536E+01  .934E+01  .730E+01  .861E+01  .124E+02  .593E+01  .669E+01
  .837E+01  .277E+02  .575E+01  .808E+01  .906E+01  .546E+01  .553E+01  .879E+01
  .115E+02  .828E+01  .973E+01  .965E+01  .368E+02  .212E+02  .936E+01  .197E+02
  .106E+02  .844E+01  .164E+02  .989E+01  .130E+02  .646E+01  .776E+01  .632E+02
  .553E+01  .896E+01  .709E+01  .132E+02  .828E+01  .668E+01  .176E+02  .849E+01
  .126E+02  .228E+02  .247E+02  .545E+01  .829E+01  .497E+02  .530E+01  .530E+01
  .828E+01  .530E+01  .530E+01  .530E+01  .828E+01  .828E+01  .530E+01  .530E+01
  .530E+01  .530E+01  .530E+01  .530E+01  .530E+01  .530E+01  .530E+01  .530E+01
  .530E+01  .530E+01  .530E+01  .530E+01  .530E+01  .530E+01  .530E+01  .530E+01
  .530E+01  .530E+01  .530E+01  .530E+01  .530E+01  .530E+01  .530E+01  .530E+01
  .530E+01  .530E+01  .530E+01  .530E+01  .530E+01  .530E+01  .530E+01  .530E+01
  .530E+01  .530E+01  .530E+01  .000E+00  .000E+00  .000E+00  .000E+00  .000E+00
  .000E+00  .000E+00  .000E+00  .000E+00
  .338E+02  .534E+01  .939E+01  .826E+01  .824E+01  .549E+01  .534E+01  .670E+01
  .835E+01  .823E+01  .577E+01  .822E+01  .904E+01  .549E+01  .550E+01  .876E+01
  .115E+02  .825E+01  .970E+01  .961E+01  .359E+02  .212E+02  .932E+01  .198E+02
  .105E+02  .839E+01  .164E+02  .995E+01  .128E+02  .625E+01  .783E+01  .632E+02
  .578E+01  .904E+01  .717E+01  .133E+02  .942E+01  .745E+01  .175E+02  .216E+02
  .125E+02  .229E+02  .249E+02  .116E+02  .308E+02  .495E+02  .534E+01  .181E+02
  .238E+02  .200E+02  .275E+02  .302E+02  .307E+02  .216E+02  .571E+02  .823E+01
  .823E+01  .823E+01  .518E+01  .518E+01  .518E+01  .518E+01  .518E+01  .518E+01
  .823E+01  .823E+01  .823E+01  .823E+01  .518E+01  .518E+01  .518E+01  .518E+01
  .518E+01  .518E+01  .518E+01  .518E+01  .518E+01  .518E+01  .518E+01  .518E+01
  .518E+01  .518E+01  .518E+01  .518E+01  .518E+01  .518E+01  .518E+01  .518E+01
  .518E+01  .518E+01  .518E+01  .000E+00  .000E+00  .000E+00  .000E+00  .000E+00
  .000E+00  .000E+00  .000E+00  .000E+00
Damping =  .02. Data of Sd,Sv,Sa,Pssv,ttSd,ttSv,ttSa :
  .893E-03  .102E-02  .119E-02  .136E-02  .170E-02  .167E-02  .245E-02  .296E-02
  .284E-02  .293E-02  .364E-02  .420E-02  .583E-02  .928E-02  .131E-01  .167E-01
  .212E-01  .144E-01  .176E-01  .224E-01  .288E-01  .269E-01  .311E-01  .386E-01
  .301E-01  .307E-01  .352E-01  .419E-01  .679E-01  .633E-01  .778E-01  .800E-01
  .662E-01  .784E-01  .627E-01  .794E-01  .673E-01  .571E-01  .550E-01  .645E-01
  .491E-01  .592E-01  .618E-01  .409E-01  .419E-01  .429E-01  .352E-01  .352E-01
  .318E-01  .306E-01  .295E-01  .287E-01  .286E-01  .339E-01  .356E-01  .326E-01
  .288E-01  .261E-01  .252E-01  .252E-01  .250E-01  .244E-01  .237E-01  .232E-01
  .236E-01  .237E-01  .234E-01  .231E-01  .231E-01  .232E-01  .232E-01  .232E-01
  .231E-01  .230E-01  .230E-01  .229E-01  .227E-01  .226E-01  .225E-01  .225E-01
  .225E-01  .225E-01  .226E-01  .226E-01  .227E-01  .227E-01  .228E-01  .229E-01
  .230E-01  .231E-01  .233E-01  .000E+00  .000E+00  .000E+00  .000E+00  .000E+00
  .000E+00  .000E+00  .000E+00  .000E+00
  .588E-01  .864E-01  .125E+00  .160E+00  .175E+00  .157E+00  .186E+00  .248E+00
  .275E+00  .234E+00  .272E+00  .316E+00  .382E+00  .556E+00  .760E+00  .102E+01
  .122E+01  .767E+00  .821E+00  .965E+00  .119E+01  .111E+01  .114E+01  .132E+01
  .104E+01  .982E+00  .990E+00  .120E+01  .163E+01  .148E+01  .164E+01  .165E+01
  .137E+01  .138E+01  .117E+01  .127E+01  .121E+01  .873E+00  .805E+00  .938E+00
  .811E+00  .795E+00  .770E+00  .573E+00  .667E+00  .489E+00  .461E+00  .456E+00
  .456E+00  .442E+00  .438E+00  .429E+00  .453E+00  .437E+00  .407E+00  .401E+00
  .396E+00  .393E+00  .389E+00  .386E+00  .383E+00  .378E+00  .375E+00  .374E+00
  .373E+00  .373E+00  .373E+00  .372E+00  .372E+00  .371E+00  .371E+00  .370E+00
  .370E+00  .370E+00  .369E+00  .369E+00  .369E+00  .369E+00  .368E+00  .368E+00
  .368E+00  .368E+00  .368E+00  .368E+00  .368E+00  .368E+00  .368E+00  .368E+00
  .368E+00  .368E+00  .368E+00  .000E+00  .000E+00  .000E+00  .000E+00  .000E+00
  .000E+00  .000E+00  .000E+00  .000E+00
  .570E-01  .593E-01  .628E-01  .657E-01  .755E-01  .681E-01  .830E-01  .836E-01
  .691E-01  .611E-01  .664E-01  .675E-01  .828E-01  .117E+00  .149E+00  .171E+00
  .179E+00  .102E+00  .106E+00  .118E+00  .131E+00  .107E+00  .110E+00  .122E+00
  .853E-01  .788E-01  .745E-01  .746E-01  .103E+00  .825E-01  .886E-01  .799E-01
  .587E-01  .618E-01  .445E-01  .508E-01  .391E-01  .302E-01  .266E-01  .286E-01
  .201E-01  .200E-01  .176E-01  .992E-02  .877E-02  .782E-02  .567E-02  .500E-02
  .405E-02  .351E-02  .305E-02  .243E-02  .204E-02  .207E-02  .188E-02  .150E-02
  .117E-02  .940E-03  .827E-03  .744E-03  .670E-03  .545E-03  .449E-03  .379E-03
  .327E-03  .287E-03  .256E-03  .230E-03  .208E-03  .189E-03  .172E-03  .158E-03
  .146E-03  .134E-03  .125E-03  .116E-03  .981E-04  .844E-04  .737E-04  .652E-04
  .584E-04  .529E-04  .482E-04  .442E-04  .408E-04  .378E-04  .329E-04  .290E-04
  .259E-04  .234E-04  .213E-04  .000E+00  .000E+00  .000E+00  .000E+00  .000E+00
  .000E+00  .000E+00  .000E+00  .000E+00
  .140E+00  .153E+00  .169E+00  .186E+00  .223E+00  .210E+00  .280E+00  .310E+00
  .275E+00  .263E+00  .305E+00  .330E+00  .431E+00  .648E+00  .867E+00  .105E+01
  .121E+01  .754E+00  .850E+00  .101E+01  .121E+01  .106E+01  .115E+01  .135E+01
  .994E+00  .966E+00  .101E+01  .110E+01  .164E+01  .142E+01  .163E+01  .157E+01
  .122E+01  .137E+01  .104E+01  .125E+01  .101E+01  .815E+00  .751E+00  .844E+00
  .617E+00  .676E+00  .647E+00  .395E+00  .376E+00  .359E+00  .277E+00  .261E+00
  .222E+00  .202E+00  .185E+00  .164E+00  .150E+00  .164E+00  .160E+00  .137E+00
  .113E+00  .964E-01  .880E-01  .833E-01  .787E-01  .698E-01  .620E-01  .560E-01
  .529E-01  .496E-01  .460E-01  .427E-01  .403E-01  .383E-01  .364E-01  .346E-01
  .330E-01  .315E-01  .301E-01  .288E-01  .260E-01  .237E-01  .218E-01  .202E-01
  .188E-01  .177E-01  .167E-01  .158E-01  .150E-01  .143E-01  .130E-01  .120E-01
  .111E-01  .104E-01  .975E-02  .000E+00  .000E+00  .000E+00  .000E+00  .000E+00
  .000E+00  .000E+00  .000E+00  .000E+00
  .519E+01  .519E+01  .519E+01  .548E+01  .548E+01  .532E+01  .534E+01  .550E+01
  .539E+01  .565E+01  .565E+01  .566E+01  .534E+01  .549E+01  .550E+01  .566E+01
  .569E+01  .560E+01  .894E+01  .963E+01  .981E+01  .859E+01  .923E+01  .926E+01
  .927E+01  .838E+01  .537E+01  .538E+01  .840E+01  .584E+01  .753E+01  .843E+01
  .577E+01  .903E+01  .564E+01  .970E+01  .857E+01  .549E+01  .549E+01  .859E+01
  .551E+01  .863E+01  .141E+02  .939E+01  .822E+01  .823E+01  .534E+01  .134E+02
  .534E+01  .534E+01  .534E+01  .301E+02  .134E+02  .822E+01  .823E+01  .823E+01
  .823E+01  .823E+01  .518E+01  .518E+01  .518E+01  .518E+01  .518E+01  .518E+01
  .823E+01  .823E+01  .823E+01  .823E+01  .518E+01  .518E+01  .518E+01  .518E+01
  .518E+01  .518E+01  .518E+01  .518E+01  .518E+01  .518E+01  .518E+01  .518E+01
  .518E+01  .518E+01  .518E+01  .518E+01  .518E+01  .518E+01  .518E+01  .518E+01
  .518E+01  .518E+01  .518E+01  .000E+00  .000E+00  .000E+00  .000E+00  .000E+00
  .000E+00  .000E+00  .000E+00  .000E+00
  .559E+01  .536E+01  .536E+01  .563E+01  .547E+01  .531E+01  .532E+01  .594E+01
  .540E+01  .541E+01  .575E+01  .600E+01  .541E+01  .546E+01  .547E+01  .569E+01
  .566E+01  .563E+01  .871E+01  .959E+01  .985E+01  .855E+01  .927E+01  .930E+01
  .923E+01  .843E+01  .923E+01  .557E+01  .835E+01  .590E+01  .746E+01  .835E+01
  .553E+01  .896E+01  .554E+01  .899E+01  .828E+01  .668E+01  .888E+01  .848E+01
  .828E+01  .849E+01  .829E+01  .828E+01  .828E+01  .830E+01  .530E+01  .530E+01
  .828E+01  .530E+01  .530E+01  .530E+01  .828E+01  .828E+01  .530E+01  .530E+01
  .530E+01  .530E+01  .530E+01  .530E+01  .530E+01  .530E+01  .530E+01  .530E+01
  .530E+01  .530E+01  .530E+01  .530E+01  .530E+01  .530E+01  .530E+01  .530E+01
  .530E+01  .530E+01  .530E+01  .530E+01  .530E+01  .530E+01  .530E+01  .530E+01
  .530E+01  .530E+01  .530E+01  .530E+01  .530E+01  .530E+01  .530E+01  .530E+01
  .530E+01  .530E+01  .530E+01  .000E+00  .000E+00  .000E+00  .000E+00  .000E+00
  .000E+00  .000E+00  .000E+00  .000E+00
  .519E+01  .519E+01  .519E+01  .548E+01  .548E+01  .532E+01  .534E+01  .550E+01
  .542E+01  .564E+01  .565E+01  .566E+01  .534E+01  .549E+01  .550E+01  .566E+01
  .569E+01  .560E+01  .894E+01  .963E+01  .981E+01  .859E+01  .923E+01  .926E+01
  .927E+01  .838E+01  .537E+01  .538E+01  .840E+01  .583E+01  .753E+01  .843E+01
  .577E+01  .903E+01  .564E+01  .970E+01  .856E+01  .549E+01  .549E+01  .859E+01
  .550E+01  .862E+01  .141E+02  .938E+01  .821E+01  .822E+01  .534E+01  .134E+02
  .534E+01  .534E+01  .534E+01  .301E+02  .133E+02  .822E+01  .822E+01  .822E+01
  .822E+01  .822E+01  .517E+01  .517E+01  .517E+01  .517E+01  .517E+01  .517E+01
  .517E+01  .517E+01  .517E+01  .517E+01  .517E+01  .517E+01  .516E+01  .516E+01
  .516E+01  .516E+01  .516E+01  .516E+01  .516E+01  .516E+01  .516E+01  .516E+01
  .516E+01  .516E+01  .516E+01  .516E+01  .516E+01  .516E+01  .516E+01  .516E+01
  .516E+01  .516E+01  .515E+01  .000E+00  .000E+00  .000E+00  .000E+00  .000E+00
  .000E+00  .000E+00  .000E+00  .000E+00
Damping =  .05. Data of Sd,Sv,Sa,Pssv,ttSd,ttSv,ttSa :
  .875E-03  .998E-03  .113E-02  .127E-02  .138E-02  .147E-02  .201E-02  .246E-02
