Response and Fourier amplitude spectra (91 periods,  .04 - 15.0 sec)   for      
Corrected accelerogram   24652-F0216-01337.02       Chan  1: 360 Deg     from   
Uncorrected Accelerogram Data             Processed: 06/06/08, CDMG  ce24652    
Record of Sun Sep  9, 2001 16:59:15.6 PDT             (Avol1 v7.5 7/07 CSMIP)   
CSMIP Preliminary Processing            (Origin:  To be determined)             
24652-F0216-01337.02                 Start time:  9/09/01, 23:59:15.6 UTC (WWVB)
Station No. 24652   34.021N, 118.287W     SSA-2  s/n  216  (3 Chns of 15 at Sta)
Los Angeles - 6-story Univ. Office Bldg   CGS                                   
Chan  1: 360 DegR (Sta Chn:  7)     Location: 1st Floor: West Tower             
Record of Sun Sep  9, 2001 16:59:15.6 PDT    Sun Sep  9, 2001 16:59:15.6 PDT    
Hypocenter:  To be determined.               ML:  To be determined.
Instr Period =  .0222 sec,  Damping =  .700,  Sensitivity = 1.25  v/g  (Nominal)
                        Record length = 67.840 sec.
                                     Uncor Max  =   .089 g , at   8.250 sec.
RMS accel of (uncor) record  =        .   Chn. metadata effective date: 01/01/04
Accelerogram bandpass filtered with 3 dB pts at   .50 and 40.00 cyc/sec
                 instrument- and baseline-corrected





Record of Sun Sep  9, 2001 16:59:15.6 PDT    Sun Sep  9, 2001 16:59:15.6 PDT

24652-F0216-01337.02      Los Angeles - 6-story Univ. Office Bldg   Chan  1: 360
 Deg
24652-F0216-01337.02      Los Angeles - 6-story Univ. Office Bldg   Chan  1: 360
 Deg
Units for spectra are inches and sec, except Sa is in fraction of g.

    1  100    7    3   15  200    1    3    1   12    6  216    024652    2    0
   23   59   15  615  252    9    9 2001   10    1  36013568   41   39   76  345
13568    0   50    3 3102    1    2   53    2   23   59   15  830    9    9 2001
    0    2    0    013568    1  220    1   12    4   76   39    0    0    013568
    313568   40   91    5    3    5    0    0    0   15    0    0    3    0    2
    2    2    4    0   79   99    1   32   32    0    0    1    0    0    8  333
    1    1    1    0
      .022      .700    67.840      .004      .000  1250.000      .089     8.250
    45.000  1220.703   976.563      .000     5.000      .000      .000      .000
     2.500     -.475     2.500  -999.000     5.120    30.000      .000      .009
      .103      .095     2.000    15.000    34.021  -118.287      .488      .475
      .972      .028      .162    54.000      .000      .000      .000      .000
      .000    -1.094     7.000      .000      .000      .000      .000      .000
     6.800     7.500     4.600   980.665      .005    67.840     7.162      .000
      .000    40.000      .000    67.840      .005      .500      .000      .000
     8.245    87.813     8.275     2.489     8.235     -.091      .000      .500
    40.000      .005      .005      .000      .410      .033      .000      .000
      .315      .100      .123      .081      .005      .001      .000      .000
      .000      .000      .000      .000      .000      .000      .000      .000
      .000      .000      .000      .000
      .000      .020      .050      .100      .200
      .040      .042      .044      .046      .048      .050      .055      .060
      .065      .070      .075      .080      .085      .090      .095      .100
      .110      .120      .130      .140      .150      .160      .170      .180
      .190      .200      .220      .240      .260      .280      .300      .320
      .340      .360      .380      .400      .420      .440      .460      .480
      .500      .550      .600      .650      .700      .750      .800      .850
      .900      .950     1.000     1.100     1.200     1.300     1.400     1.500
     1.600     1.700     1.800     1.900     2.000     2.200     2.400     2.600
     2.800     3.000     3.200     3.400     3.600     3.800     4.000     4.200
     4.400     4.600     4.800     5.000     5.500     6.000     6.500     7.000
     7.500     8.000     8.500     9.000     9.500    10.000    11.000    12.000
    13.000    14.000    15.000      .000      .000      .000      .000      .000
      .000      .000      .000      .000
Fourier amplitude spectra in in/sec.
  .184E+00  .145E+00  .599E-01  .175E+00  .298E+00  .611E+00  .101E+01  .253E+00
  .159E+01  .199E+01  .260E+01  .345E+01  .798E+00  .199E+01  .249E+01  .159E+01
  .453E+01  .290E+01  .169E+01  .272E+01  .332E+01  .285E+01  .289E+01  .271E+01
  .224E+01  .124E+01  .155E+01  .230E+01  .717E+00  .893E+00  .346E+01  .114E+01
  .352E+01  .192E+01  .282E+01  .282E+01  .110E+01  .233E+01  .237E+01  .273E+01
  .124E+01  .816E+00  .879E+00  .483E+00  .987E-01  .398E-01  .949E+00  .472E+00
  .138E+00  .836E+00  .592E+00  .756E-01  .297E+00  .441E+00  .248E+00  .182E+00
  .260E+00  .253E+00  .275E-01  .178E+00  .710E-01  .119E+00  .362E-01  .889E-02
  .352E-01  .188E-01  .277E-01  .164E-01  .167E-01  .899E-02  .106E-01  .135E-01
  .140E-02  .560E-02  .107E-02  .784E-03  .430E-02  .438E-02  .991E-03  .199E-02
  .967E-03  .307E-03  .137E-02  .771E-03  .413E-03  .900E-03  .200E-03  .834E-03
  .316E-03  .442E-03  .555E-03  .000E+00  .000E+00  .000E+00  .000E+00  .000E+00
  .000E+00  .000E+00  .000E+00  .000E+00
Damping =  .00. Data of Sd,Sv,Sa,Pssv,ttSd,ttSv,ttSa :
  .208E-02  .230E-02  .200E-02  .277E-02  .306E-02  .520E-02  .114E-01  .125E-01
  .178E-01  .253E-01  .360E-01  .450E-01  .181E-01  .287E-01  .380E-01  .449E-01
  .835E-01  .695E-01  .489E-01  .926E-01  .882E-01  .807E-01  .830E-01  .847E-01
  .883E-01  .635E-01  .570E-01  .911E-01  .910E-01  .102E+00  .169E+00  .123E+00
  .211E+00  .152E+00  .187E+00  .203E+00  .162E+00  .168E+00  .174E+00  .229E+00
  .165E+00  .876E-01  .841E-01  .113E+00  .601E-01  .712E-01  .132E+00  .671E-01
  .559E-01  .128E+00  .115E+00  .660E-01  .616E-01  .100E+00  .740E-01  .846E-01
  .961E-01  .737E-01  .574E-01  .613E-01  .332E-01  .451E-01  .350E-01  .340E-01
  .323E-01  .330E-01  .339E-01  .343E-01  .332E-01  .349E-01  .362E-01  .371E-01
  .376E-01  .378E-01  .378E-01  .377E-01  .372E-01  .368E-01  .365E-01  .363E-01
  .362E-01  .361E-01  .360E-01  .359E-01  .358E-01  .358E-01  .357E-01  .356E-01
  .355E-01  .355E-01  .355E-01  .000E+00  .000E+00  .000E+00  .000E+00  .000E+00
  .000E+00  .000E+00  .000E+00  .000E+00
  .223E+00  .236E+00  .206E+00  .294E+00  .377E+00  .675E+00  .120E+01  .118E+01
  .167E+01  .223E+01  .296E+01  .350E+01  .134E+01  .200E+01  .249E+01  .262E+01
  .467E+01  .369E+01  .238E+01  .417E+01  .384E+01  .332E+01  .325E+01  .303E+01
  .286E+01  .209E+01  .180E+01  .238E+01  .220E+01  .225E+01  .353E+01  .265E+01
  .390E+01  .263E+01  .309E+01  .319E+01  .258E+01  .240E+01  .238E+01  .297E+01
  .215E+01  .152E+01  .148E+01  .149E+01  .131E+01  .123E+01  .109E+01  .103E+01
  .986E+00  .987E+00  .997E+00  .103E+01  .969E+00  .937E+00  .959E+00  .983E+00
  .101E+01  .103E+01  .105E+01  .104E+01  .104E+01  .102E+01  .101E+01  .997E+00
  .993E+00  .994E+00  .996E+00  .998E+00  .997E+00  .996E+00  .994E+00  .991E+00
  .989E+00  .987E+00  .986E+00  .984E+00  .982E+00  .981E+00  .980E+00  .980E+00
  .979E+00  .979E+00  .979E+00  .978E+00  .978E+00  .978E+00  .978E+00  .978E+00
  .978E+00  .977E+00  .977E+00  .000E+00  .000E+00  .000E+00  .000E+00  .000E+00
  .000E+00  .000E+00  .000E+00  .000E+00
  .133E+00  .133E+00  .105E+00  .134E+00  .136E+00  .213E+00  .387E+00  .355E+00
  .430E+00  .527E+00  .655E+00  .719E+00  .257E+00  .362E+00  .430E+00  .460E+00
  .705E+00  .494E+00  .296E+00  .483E+00  .401E+00  .322E+00  .294E+00  .267E+00
  .250E+00  .162E+00  .120E+00  .162E+00  .138E+00  .133E+00  .192E+00  .123E+00
  .187E+00  .120E+00  .132E+00  .130E+00  .937E-01  .888E-01  .843E-01  .102E+00
  .675E-01  .296E-01  .239E-01  .273E-01  .125E-01  .130E-01  .211E-01  .950E-02
  .706E-02  .145E-01  .118E-01  .558E-02  .437E-02  .605E-02  .386E-02  .385E-02
  .384E-02  .261E-02  .181E-02  .174E-02  .849E-03  .953E-03  .621E-03  .514E-03
  .422E-03  .375E-03  .338E-03  .304E-03  .262E-03  .247E-03  .232E-03  .215E-03
  .199E-03  .183E-03  .168E-03  .154E-03  .126E-03  .105E-03  .884E-04  .758E-04
  .657E-04  .576E-04  .509E-04  .453E-04  .406E-04  .366E-04  .301E-04  .253E-04
  .215E-04  .185E-04  .161E-04  .000E+00  .000E+00  .000E+00  .000E+00  .000E+00
  .000E+00  .000E+00  .000E+00  .000E+00
  .327E+00  .343E+00  .285E+00  .379E+00  .401E+00  .654E+00  .131E+01  .131E+01
  .172E+01  .227E+01  .302E+01  .354E+01  .134E+01  .200E+01  .251E+01  .282E+01
  .477E+01  .364E+01  .236E+01  .415E+01  .369E+01  .317E+01  .307E+01  .296E+01
  .292E+01  .200E+01  .163E+01  .238E+01  .220E+01  .229E+01  .353E+01  .242E+01
  .391E+01  .266E+01  .309E+01  .318E+01  .242E+01  .240E+01  .238E+01  .299E+01
  .207E+01  .100E+01  .881E+00  .109E+01  .539E+00  .597E+00  .104E+01  .496E+00
  .391E+00  .846E+00  .724E+00  .377E+00  .322E+00  .483E+00  .332E+00  .354E+00
  .378E+00  .272E+00  .200E+00  .203E+00  .104E+00  .129E+00  .915E-01  .821E-01
  .725E-01  .691E-01  .665E-01  .634E-01  .580E-01  .577E-01  .569E-01  .555E-01
  .537E-01  .516E-01  .495E-01  .474E-01  .425E-01  .385E-01  .353E-01  .326E-01
  .303E-01  .283E-01  .266E-01  .251E-01  .237E-01  .225E-01  .204E-01  .186E-01
  .172E-01  .159E-01  .149E-01  .000E+00  .000E+00  .000E+00  .000E+00  .000E+00
  .000E+00  .000E+00  .000E+00  .000E+00
  .824E+01  .838E+01  .848E+01  .865E+01  .878E+01  .615E+02  .860E+01  .843E+01
  .913E+01  .102E+02  .878E+01  .125E+02  .854E+01  .581E+02  .943E+01  .830E+01
  .905E+01  .864E+01  .886E+01  .987E+01  .856E+01  .101E+02  .938E+01  .900E+01
  .118E+02  .104E+02  .205E+02  .199E+02  .817E+01  .949E+01  .486E+02  .856E+01
  .265E+02  .145E+02  .190E+02  .109E+02  .104E+02  .558E+02  .648E+02  .177E+02
  .123E+02  .509E+02  .661E+02  .208E+02  .822E+01  .131E+02  .324E+02  .649E+02
  .798E+01  .630E+02  .488E+02  .126E+02  .224E+02  .618E+02  .412E+02  .287E+02
  .218E+02  .574E+02  .118E+02  .636E+02  .843E+01  .385E+02  .823E+01  .823E+01
  .798E+01  .798E+01  .118E+02  .118E+02  .823E+01  .823E+01  .823E+01  .823E+01
  .823E+01  .823E+01  .823E+01  .823E+01  .823E+01  .823E+01  .823E+01  .823E+01
  .823E+01  .823E+01  .823E+01  .823E+01  .823E+01  .823E+01  .823E+01  .823E+01
  .823E+01  .823E+01  .823E+01  .000E+00  .000E+00  .000E+00  .000E+00  .000E+00
  .000E+00  .000E+00  .000E+00  .000E+00
  .802E+01  .837E+01  .863E+01  .864E+01  .227E+02  .613E+02  .859E+01  .844E+01
  .901E+01  .108E+02  .880E+01  .127E+02  .852E+01  .555E+02  .649E+02  .833E+01
  .885E+01  .868E+01  .863E+01  .963E+01  .845E+01  .839E+01  .840E+01  .896E+01
  .118E+02  .835E+01  .827E+01  .198E+02  .822E+01  .943E+01  .485E+02  .880E+01
  .264E+02  .146E+02  .189E+02  .110E+02  .105E+02  .557E+02  .647E+02  .176E+02
  .124E+02  .827E+01  .827E+01  .827E+01  .827E+01  .827E+01  .827E+01  .827E+01
  .827E+01  .827E+01  .827E+01  .827E+01  .827E+01  .827E+01  .827E+01  .827E+01
  .827E+01  .827E+01  .827E+01  .827E+01  .827E+01  .827E+01  .827E+01  .827E+01
  .827E+01  .827E+01  .827E+01  .827E+01  .827E+01  .827E+01  .827E+01  .827E+01
  .827E+01  .827E+01  .827E+01  .827E+01  .827E+01  .827E+01  .827E+01  .827E+01
  .827E+01  .827E+01  .827E+01  .827E+01  .827E+01  .827E+01  .827E+01  .827E+01
  .827E+01  .827E+01  .827E+01  .000E+00  .000E+00  .000E+00  .000E+00  .000E+00
  .000E+00  .000E+00  .000E+00  .000E+00
  .824E+01  .838E+01  .848E+01  .865E+01  .878E+01  .615E+02  .860E+01  .843E+01
  .913E+01  .102E+02  .878E+01  .125E+02  .854E+01  .581E+02  .943E+01  .830E+01
  .905E+01  .864E+01  .886E+01  .987E+01  .856E+01  .101E+02  .938E+01  .900E+01
  .118E+02  .104E+02  .205E+02  .199E+02  .817E+01  .949E+01  .486E+02  .856E+01
  .265E+02  .145E+02  .190E+02  .109E+02  .104E+02  .558E+02  .648E+02  .177E+02
  .123E+02  .509E+02  .661E+02  .208E+02  .822E+01  .131E+02  .324E+02  .649E+02
  .798E+01  .630E+02  .488E+02  .126E+02  .224E+02  .618E+02  .412E+02  .287E+02
  .218E+02  .574E+02  .118E+02  .636E+02  .843E+01  .385E+02  .823E+01  .823E+01
  .798E+01  .798E+01  .118E+02  .118E+02  .823E+01  .823E+01  .823E+01  .823E+01
  .823E+01  .823E+01  .823E+01  .823E+01  .823E+01  .823E+01  .823E+01  .823E+01
  .823E+01  .823E+01  .823E+01  .823E+01  .823E+01  .823E+01  .823E+01  .823E+01
  .823E+01  .823E+01  .823E+01  .000E+00  .000E+00  .000E+00  .000E+00  .000E+00
  .000E+00  .000E+00  .000E+00  .000E+00
Damping =  .02. Data of Sd,Sv,Sa,Pssv,ttSd,ttSv,ttSa :
  .185E-02  .181E-02  .180E-02  .213E-02  .239E-02  .287E-02  .696E-02  .103E-01
  .132E-01  .143E-01  .200E-01  .170E-01  .142E-01  .162E-01  .288E-01  .392E-01
  .491E-01  .513E-01  .404E-01  .494E-01  .663E-01  .689E-01  .709E-01  .727E-01
  .696E-01  .560E-01  .410E-01  .481E-01  .727E-01  .659E-01  .839E-01  .102E+00
  .110E+00  .118E+00  .127E+00  .126E+00  .121E+00  .116E+00  .109E+00  .104E+00
  .100E+00  .602E-01  .597E-01  .608E-01  .571E-01  .575E-01  .615E-01  .548E-01
  .540E-01  .644E-01  .575E-01  .557E-01  .475E-01  .524E-01  .508E-01  .526E-01
  .558E-01  .508E-01  .503E-01  .391E-01  .331E-01  .330E-01  .341E-01  .334E-01
  .320E-01  .325E-01  .321E-01  .326E-01  .330E-01  .345E-01  .357E-01  .365E-01
  .370E-01  .373E-01  .374E-01  .373E-01  .370E-01  .366E-01  .364E-01  .362E-01
  .361E-01  .360E-01  .359E-01  .358E-01  .358E-01  .357E-01  .356E-01  .354E-01
  .354E-01  .355E-01  .356E-01  .000E+00  .000E+00  .000E+00  .000E+00  .000E+00
  .000E+00  .000E+00  .000E+00  .000E+00
  .142E+00  .170E+00  .154E+00  .196E+00  .225E+00  .297E+00  .702E+00  .902E+00
  .989E+00  .121E+01  .161E+01  .131E+01  .105E+01  .108E+01  .168E+01  .220E+01
  .274E+01  .274E+01  .211E+01  .230E+01  .297E+01  .294E+01  .283E+01  .256E+01
  .229E+01  .193E+01  .157E+01  .154E+01  .174E+01  .162E+01  .170E+01  .206E+01
  .234E+01  .235E+01  .225E+01  .200E+01  .194E+01  .195E+01  .196E+01  .195E+01
  .188E+01  .153E+01  .146E+01  .145E+01  .132E+01  .122E+01  .111E+01  .105E+01
  .101E+01  .100E+01  .101E+01  .102E+01  .978E+00  .951E+00  .965E+00  .985E+00
  .101E+01  .103E+01  .104E+01  .104E+01  .103E+01  .102E+01  .101E+01  .999E+00
  .995E+00  .995E+00  .996E+00  .997E+00  .997E+00  .996E+00  .994E+00  .992E+00
  .990E+00  .988E+00  .986E+00  .985E+00  .983E+00  .982E+00  .981E+00  .980E+00
  .980E+00  .979E+00  .979E+00  .979E+00  .979E+00  .978E+00  .978E+00  .978E+00
  .978E+00  .978E+00  .978E+00  .000E+00  .000E+00  .000E+00  .000E+00  .000E+00
  .000E+00  .000E+00  .000E+00  .000E+00
  .118E+00  .105E+00  .952E-01  .103E+00  .106E+00  .118E+00  .235E+00  .293E+00
  .319E+00  .298E+00  .362E+00  .272E+00  .200E+00  .204E+00  .325E+00  .401E+00
  .416E+00  .366E+00  .244E+00  .258E+00  .302E+00  .276E+00  .251E+00  .229E+00
  .198E+00  .143E+00  .866E-01  .855E-01  .110E+00  .860E-01  .953E-01  .102E+00
  .972E-01  .931E-01  .902E-01  .809E-01  .705E-01  .614E-01  .525E-01  .462E-01
  .410E-01  .204E-01  .170E-01  .147E-01  .120E-01  .105E-01  .983E-02  .780E-02
  .686E-02  .730E-02  .589E-02  .472E-02  .341E-02  .321E-02  .270E-02  .240E-02
  .224E-02  .180E-02  .159E-02  .112E-02  .879E-03  .743E-03  .650E-03  .549E-03
  .457E-03  .408E-03  .356E-03  .320E-03  .300E-03  .283E-03  .266E-03  .248E-03
  .232E-03  .215E-03  .200E-03  .186E-03  .156E-03  .134E-03  .117E-03  .103E-03
  .917E-04  .825E-04  .748E-04  .683E-04  .627E-04  .578E-04  .524E-04  .482E-04
  .446E-04  .415E-04  .389E-04  .000E+00  .000E+00  .000E+00  .000E+00  .000E+00
  .000E+00  .000E+00  .000E+00  .000E+00
  .290E+00  .271E+00  .257E+00  .291E+00  .313E+00  .360E+00  .795E+00  .108E+01
  .127E+01  .128E+01  .168E+01  .134E+01  .105E+01  .113E+01  .191E+01  .246E+01
  .280E+01  .268E+01  .195E+01  .222E+01  .278E+01  .271E+01  .262E+01  .254E+01
  .230E+01  .176E+01  .117E+01  .126E+01  .176E+01  .148E+01  .176E+01  .200E+01
  .203E+01  .206E+01  .210E+01  .199E+01  .182E+01  .166E+01  .148E+01  .136E+01
  .126E+01  .688E+00  .625E+00  .588E+00  .512E+00  .481E+00  .483E+00  .405E+00
  .377E+00  .426E+00  .361E+00  .318E+00  .248E+00  .253E+00  .228E+00  .220E+00
  .219E+00  .188E+00  .176E+00  .129E+00  .104E+00  .941E-01  .892E-01  .807E-01
  .718E-01  .682E-01  .630E-01  .603E-01  .577E-01  .571E-01  .561E-01  .547E-01
  .529E-01  .509E-01  .489E-01  .469E-01  .422E-01  .384E-01  .352E-01  .325E-01
  .302E-01  .283E-01  .266E-01  .250E-01  .237E-01  .224E-01  .203E-01  .186E-01
  .171E-01  .159E-01  .149E-01  .000E+00  .000E+00  .000E+00  .000E+00  .000E+00
  .000E+00  .000E+00  .000E+00  .000E+00
  .825E+01  .825E+01  .839E+01  .825E+01  .804E+01  .857E+01  .861E+01  .823E+01
  .824E+01  .843E+01  .878E+01  .849E+01  .850E+01  .906E+01  .830E+01  .831E+01
  .850E+01  .864E+01  .860E+01  .861E+01  .842E+01  .843E+01  .836E+01  .838E+01
  .839E+01  .839E+01  .814E+01  .815E+01  .817E+01  .922E+01  .839E+01  .857E+01
  .860E+01  .846E+01  .847E+01  .849E+01  .851E+01  .832E+01  .833E+01  .124E+02
  .106E+02  .835E+01  .835E+01  .123E+02  .822E+01  .822E+01  .169E+02  .798E+01
  .798E+01  .231E+02  .180E+02  .126E+02  .798E+01  .798E+01  .798E+01  .158E+02
  .122E+02  .118E+02  .118E+02  .118E+02  .843E+01  .823E+01  .823E+01  .823E+01
  .798E+01  .798E+01  .118E+02  .118E+02  .823E+01  .823E+01  .823E+01  .823E+01
  .823E+01  .823E+01  .823E+01  .823E+01  .823E+01  .823E+01  .823E+01  .823E+01
  .823E+01  .823E+01  .823E+01  .823E+01  .823E+01  .823E+01  .823E+01  .823E+01
  .823E+01  .823E+01  .823E+01  .000E+00  .000E+00  .000E+00  .000E+00  .000E+00
  .000E+00  .000E+00  .000E+00  .000E+00
  .836E+01  .837E+01  .840E+01  .840E+01  .802E+01  .859E+01  .860E+01  .822E+01
  .826E+01  .868E+01  .876E+01  .851E+01  .852E+01  .852E+01  .827E+01  .834E+01
  .853E+01  .867E+01  .863E+01  .858E+01  .845E+01  .839E+01  .840E+01  .841E+01
  .835E+01  .835E+01  .827E+01  .820E+01  .822E+01  .915E+01  .891E+01  .850E+01
  .835E+01  .836E+01  .836E+01  .837E+01  .863E+01  .826E+01  .826E+01  .826E+01
  .827E+01  .827E+01  .827E+01  .827E+01  .827E+01  .827E+01  .827E+01  .827E+01
  .827E+01  .827E+01  .827E+01  .827E+01  .827E+01  .827E+01  .827E+01  .827E+01
  .827E+01  .827E+01  .827E+01  .827E+01  .827E+01  .827E+01  .827E+01  .827E+01
  .827E+01  .827E+01  .827E+01  .827E+01  .827E+01  .827E+01  .827E+01  .827E+01
  .827E+01  .827E+01  .827E+01  .827E+01  .827E+01  .827E+01  .827E+01  .827E+01
  .827E+01  .827E+01  .827E+01  .827E+01  .827E+01  .827E+01  .827E+01  .827E+01
  .827E+01  .827E+01  .827E+01  .000E+00  .000E+00  .000E+00  .000E+00  .000E+00
  .000E+00  .000E+00  .000E+00  .000E+00
  .825E+01  .825E+01  .839E+01  .825E+01  .804E+01  .857E+01  .861E+01  .823E+01
  .824E+01  .843E+01  .878E+01  .849E+01  .850E+01  .906E+01  .830E+01  .831E+01
  .850E+01  .864E+01  .860E+01  .861E+01  .841E+01  .843E+01  .836E+01  .838E+01
  .838E+01  .839E+01  .814E+01  .815E+01  .817E+01  .838E+01  .839E+01  .856E+01
  .860E+01  .845E+01  .847E+01  .848E+01  .850E+01  .832E+01  .832E+01  .124E+02
  .106E+02  .834E+01  .834E+01  .123E+02  .822E+01  .822E+01  .169E+02  .797E+01
  .798E+01  .231E+02  .180E+02  .126E+02  .797E+01  .798E+01  .798E+01  .158E+02
  .122E+02  .118E+02  .118E+02  .118E+02  .841E+01  .822E+01  .822E+01  .822E+01
  .822E+01  .797E+01  .797E+01  .822E+01  .822E+01  .822E+01  .822E+01  .822E+01
  .822E+01  .822E+01  .822E+01  .822E+01  .822E+01  .821E+01  .821E+01  .821E+01
  .821E+01  .821E+01  .821E+01  .821E+01  .821E+01  .821E+01  .828E+01  .828E+01
  .828E+01  .828E+01  .828E+01  .000E+00  .000E+00  .000E+00  .000E+00  .000E+00
  .000E+00  .000E+00  .000E+00  .000E+00
Damping =  .05. Data of Sd,Sv,Sa,Pssv,ttSd,ttSv,ttSa :
  .170E-02  .176E-02  .184E-02  .203E-02  .220E-02  .252E-02  .465E-02  .787E-02
