Response and Fourier amplitude spectra (91 periods,  .04 - 15.0 sec)   for      
Corrected accelerogram   24652-F0215-01337.02       Chan  1: 360 Deg     from   
Uncorrected Accelerogram Data             Processed: 06/06/08, CDMG  ce24652    
Record of Sun Sep  9, 2001 16:59:15.6 PDT             (Avol1 v7.5 7/07 CSMIP)   
CSMIP Preliminary Processing            (Origin:  To be determined)             
24652-F0215-01337.02                 Start time:  9/09/01, 23:59:15.6 UTC (WWVB)
Station No. 24652   34.021N, 118.287W     SSA-2  s/n  215  (3 Chns of 15 at Sta)
Los Angeles - 6-story Univ. Office Bldg   CGS                                   
Chan  1: 360 DegR (Sta Chn:  4)     Location: Basement: West Tower              
Record of Sun Sep  9, 2001 16:59:15.6 PDT    Sun Sep  9, 2001 16:59:15.6 PDT    
Hypocenter:  To be determined.               ML:  To be determined.
Instr Period =  .0222 sec,  Damping =  .700,  Sensitivity = 1.25  v/g  (Nominal)
                        Record length = 67.840 sec.
                                     Uncor Max  =   .057 g , at   8.235 sec.
RMS accel of (uncor) record  =        .   Chn. metadata effective date: 01/01/04
Accelerogram bandpass filtered with 3 dB pts at   .50 and 40.00 cyc/sec
                 instrument- and baseline-corrected





Record of Sun Sep  9, 2001 16:59:15.6 PDT    Sun Sep  9, 2001 16:59:15.6 PDT

24652-F0215-01337.02      Los Angeles - 6-story Univ. Office Bldg   Chan  1: 360
 Deg
24652-F0215-01337.02      Los Angeles - 6-story Univ. Office Bldg   Chan  1: 360
 Deg
Units for spectra are inches and sec, except Sa is in fraction of g.

    1  100    4    3   15  200    1    3    1   12    6  215    024652    2    0
   23   59   15  615  252    9    9 2001   10    1  36013568   41   39   76  345
13568    1   50    3 3102    1    2   53    2   23   59    7  370    9    9 2001
    0    2    0    013568    1  220    1   12    4   76   39    0    0    013568
    313568   40   91    5    3    5    0    0    0   15    0    0    3    0    2
    2    2    4    0   79   99    1   32   32    0    0    1    0    0    8  333
    1    1    1    0
      .022      .700    67.840      .003      .000  1250.000      .057     8.235
    45.000  1220.703   976.563      .000     5.000      .000      .000      .000
     2.500   -26.437     2.500  -999.000     5.120    30.000      .000      .069
      .065     -.004     2.000    15.000    34.021  -118.287      .000      .085
  1000.000     -.008      .000    54.000      .000      .000      .000      .000
      .000    -1.049     7.000      .000      .000      .000      .000      .000
     6.800     7.500     4.600   980.665      .005    67.840     7.162      .000
      .000    40.000      .000    67.840      .005      .500      .000      .000
     8.230    55.475     8.275     1.826     8.225     -.084      .000      .500
    40.000      .005      .005      .000      .020      .027      .000      .000
      .174      .110      .093      .068      .005      .000      .000      .000
      .000      .000      .000      .000      .000      .000      .000      .000
      .000      .000      .000      .000
      .000      .020      .050      .100      .200
      .040      .042      .044      .046      .048      .050      .055      .060
      .065      .070      .075      .080      .085      .090      .095      .100
      .110      .120      .130      .140      .150      .160      .170      .180
      .190      .200      .220      .240      .260      .280      .300      .320
      .340      .360      .380      .400      .420      .440      .460      .480
      .500      .550      .600      .650      .700      .750      .800      .850
      .900      .950     1.000     1.100     1.200     1.300     1.400     1.500
     1.600     1.700     1.800     1.900     2.000     2.200     2.400     2.600
     2.800     3.000     3.200     3.400     3.600     3.800     4.000     4.200
     4.400     4.600     4.800     5.000     5.500     6.000     6.500     7.000
     7.500     8.000     8.500     9.000     9.500    10.000    11.000    12.000
    13.000    14.000    15.000      .000      .000      .000      .000      .000
      .000      .000      .000      .000
Fourier amplitude spectra in in/sec.
  .980E-01  .209E+00  .104E+00  .157E+00  .169E+00  .302E+00  .272E+00  .175E+00
  .429E+00  .540E+00  .660E+00  .154E+01  .407E+00  .773E+00  .115E+01  .988E+00
  .276E+01  .191E+01  .126E+01  .217E+01  .296E+01  .156E+01  .224E+01  .232E+01
  .159E+01  .115E+01  .163E+01  .226E+01  .500E+00  .542E+00  .314E+01  .742E+00
  .329E+01  .166E+01  .259E+01  .264E+01  .915E+00  .233E+01  .229E+01  .266E+01
  .127E+01  .912E+00  .736E+00  .689E+00  .261E+00  .109E+00  .843E+00  .139E+00
  .253E+00  .775E+00  .580E+00  .156E+00  .201E+00  .291E+00  .253E+00  .332E+00
  .202E+00  .174E+00  .720E-01  .742E-01  .480E-01  .715E-01  .351E-01  .463E-01
  .117E-01  .266E-01  .554E-02  .192E-01  .404E-02  .771E-02  .841E-02  .930E-02
  .775E-02  .312E-02  .223E-02  .315E-02  .213E-02  .142E-02  .447E-03  .102E-02
  .846E-03  .486E-03  .357E-03  .252E-03  .506E-03  .639E-03  .170E-03  .268E-03
  .194E-03  .374E-03  .170E-03  .000E+00  .000E+00  .000E+00  .000E+00  .000E+00
  .000E+00  .000E+00  .000E+00  .000E+00
Damping =  .00. Data of Sd,Sv,Sa,Pssv,ttSd,ttSv,ttSa :
  .140E-02  .194E-02  .179E-02  .234E-02  .221E-02  .290E-02  .317E-02  .425E-02
  .659E-02  .749E-02  .826E-02  .204E-01  .833E-02  .115E-01  .208E-01  .256E-01
  .498E-01  .435E-01  .369E-01  .755E-01  .714E-01  .527E-01  .628E-01  .708E-01
  .684E-01  .573E-01  .598E-01  .916E-01  .757E-01  .817E-01  .152E+00  .113E+00
  .193E+00  .152E+00  .182E+00  .199E+00  .160E+00  .172E+00  .174E+00  .243E+00
  .168E+00  .957E-01  .761E-01  .124E+00  .595E-01  .676E-01  .119E+00  .648E-01
  .485E-01  .118E+00  .110E+00  .703E-01  .666E-01  .604E-01  .623E-01  .920E-01
  .894E-01  .592E-01  .569E-01  .406E-01  .376E-01  .359E-01  .305E-01  .312E-01
  .317E-01  .325E-01  .334E-01  .341E-01  .346E-01  .347E-01  .347E-01  .346E-01
  .344E-01  .343E-01  .343E-01  .343E-01  .344E-01  .345E-01  .345E-01  .344E-01
  .342E-01  .339E-01  .337E-01  .335E-01  .333E-01  .332E-01  .330E-01  .329E-01
  .328E-01  .329E-01  .329E-01  .000E+00  .000E+00  .000E+00  .000E+00  .000E+00
  .000E+00  .000E+00  .000E+00  .000E+00
  .132E+00  .210E+00  .203E+00  .212E+00  .228E+00  .349E+00  .324E+00  .396E+00
  .485E+00  .661E+00  .676E+00  .159E+01  .546E+00  .799E+00  .133E+01  .149E+01
  .282E+01  .229E+01  .168E+01  .334E+01  .297E+01  .220E+01  .231E+01  .247E+01
  .220E+01  .176E+01  .170E+01  .239E+01  .169E+01  .188E+01  .317E+01  .235E+01
  .355E+01  .263E+01  .302E+01  .313E+01  .249E+01  .244E+01  .238E+01  .316E+01
  .217E+01  .119E+01  .117E+01  .120E+01  .105E+01  .911E+00  .935E+00  .722E+00
  .707E+00  .784E+00  .735E+00  .731E+00  .706E+00  .696E+00  .709E+00  .733E+00
  .756E+00  .773E+00  .781E+00  .783E+00  .781E+00  .771E+00  .761E+00  .753E+00
  .749E+00  .745E+00  .742E+00  .739E+00  .736E+00  .733E+00  .731E+00  .729E+00
  .728E+00  .727E+00  .726E+00  .725E+00  .724E+00  .723E+00  .722E+00  .721E+00
  .720E+00  .720E+00  .719E+00  .719E+00  .719E+00  .719E+00  .719E+00  .719E+00
  .719E+00  .719E+00  .719E+00  .000E+00  .000E+00  .000E+00  .000E+00  .000E+00
  .000E+00  .000E+00  .000E+00  .000E+00
  .897E-01  .112E+00  .945E-01  .113E+00  .981E-01  .119E+00  .107E+00  .121E+00
  .160E+00  .156E+00  .150E+00  .326E+00  .118E+00  .146E+00  .235E+00  .262E+00
  .421E+00  .309E+00  .223E+00  .394E+00  .324E+00  .210E+00  .222E+00  .223E+00
  .194E+00  .146E+00  .126E+00  .163E+00  .115E+00  .107E+00  .172E+00  .112E+00
  .171E+00  .120E+00  .129E+00  .127E+00  .929E-01  .907E-01  .843E-01  .108E+00
  .688E-01  .324E-01  .216E-01  .300E-01  .124E-01  .123E-01  .190E-01  .917E-02
  .612E-02  .134E-01  .112E-01  .594E-02  .473E-02  .365E-02  .325E-02  .418E-02
  .357E-02  .210E-02  .180E-02  .115E-02  .960E-03  .759E-03  .542E-03  .473E-03
  .414E-03  .369E-03  .334E-03  .302E-03  .273E-03  .246E-03  .222E-03  .200E-03
  .182E-03  .166E-03  .152E-03  .140E-03  .116E-03  .980E-04  .835E-04  .717E-04
  .621E-04  .542E-04  .477E-04  .423E-04  .378E-04  .339E-04  .279E-04  .233E-04
  .199E-04  .172E-04  .150E-04  .000E+00  .000E+00  .000E+00  .000E+00  .000E+00
  .000E+00  .000E+00  .000E+00  .000E+00
  .220E+00  .290E+00  .255E+00  .320E+00  .289E+00  .365E+00  .362E+00  .445E+00
  .637E+00  .673E+00  .692E+00  .160E+01  .616E+00  .805E+00  .137E+01  .161E+01
  .284E+01  .228E+01  .178E+01  .339E+01  .299E+01  .207E+01  .232E+01  .247E+01
  .226E+01  .180E+01  .171E+01  .240E+01  .183E+01  .183E+01  .318E+01  .221E+01
  .357E+01  .265E+01  .301E+01  .312E+01  .240E+01  .245E+01  .238E+01  .318E+01
  .211E+01  .109E+01  .797E+00  .120E+01  .534E+00  .567E+00  .934E+00  .479E+00
  .338E+00  .781E+00  .690E+00  .401E+00  .349E+00  .292E+00  .280E+00  .385E+00
  .351E+00  .219E+00  .199E+00  .134E+00  .118E+00  .103E+00  .799E-01  .755E-01
  .712E-01  .681E-01  .656E-01  .631E-01  .603E-01  .574E-01  .545E-01  .517E-01
  .492E-01  .469E-01  .449E-01  .431E-01  .393E-01  .361E-01  .333E-01  .308E-01
  .286E-01  .267E-01  .249E-01  .234E-01  .220E-01  .208E-01  .188E-01  .172E-01
  .159E-01  .148E-01  .138E-01  .000E+00  .000E+00  .000E+00  .000E+00  .000E+00
  .000E+00  .000E+00  .000E+00  .000E+00
  .823E+01  .823E+01  .831E+01  .798E+01  .832E+01  .118E+02  .823E+01  .818E+01
  .823E+01  .932E+01  .102E+02  .169E+02  .849E+01  .141E+02  .885E+01  .824E+01
  .905E+01  .869E+01  .885E+01  .104E+02  .186E+02  .835E+01  .202E+02  .147E+02
  .118E+02  .104E+02  .222E+02  .199E+02  .816E+01  .949E+01  .282E+02  .856E+01
  .265E+02  .145E+02  .190E+02  .109E+02  .119E+02  .177E+02  .270E+02  .177E+02
  .123E+02  .308E+02  .334E+02  .208E+02  .822E+01  .131E+02  .324E+02  .183E+02
  .798E+01  .554E+02  .205E+02  .121E+02  .214E+02  .593E+02  .293E+02  .287E+02
  .218E+02  .118E+02  .118E+02  .118E+02  .842E+01  .284E+02  .822E+01  .822E+01
  .822E+01  .822E+01  .822E+01  .822E+01  .822E+01  .822E+01  .822E+01  .822E+01
  .822E+01  .822E+01  .822E+01  .822E+01  .822E+01  .822E+01  .822E+01  .822E+01
  .822E+01  .822E+01  .822E+01  .822E+01  .822E+01  .822E+01  .822E+01  .822E+01
  .822E+01  .822E+01  .822E+01  .000E+00  .000E+00  .000E+00  .000E+00  .000E+00
  .000E+00  .000E+00  .000E+00  .000E+00
  .109E+02  .390E+02  .852E+01  .796E+01  .934E+01  .274E+02  .908E+01  .819E+01
  .835E+01  .934E+01  .100E+02  .169E+02  .851E+01  .202E+02  .142E+02  .827E+01
  .229E+02  .866E+01  .882E+01  .963E+01  .184E+02  .839E+01  .242E+02  .146E+02
  .118E+02  .103E+02  .221E+02  .198E+02  .810E+01  .928E+01  .295E+02  .880E+01
  .264E+02  .146E+02  .189E+02  .110E+02  .105E+02  .176E+02  .272E+02  .176E+02
  .124E+02  .827E+01  .827E+01  .216E+02  .827E+01  .827E+01  .322E+02  .827E+01
  .827E+01  .404E+02  .827E+01  .827E+01  .827E+01  .827E+01  .827E+01  .827E+01
  .827E+01  .827E+01  .827E+01  .827E+01  .827E+01  .827E+01  .827E+01  .827E+01
  .827E+01  .827E+01  .827E+01  .827E+01  .827E+01  .827E+01  .827E+01  .827E+01
  .827E+01  .827E+01  .827E+01  .827E+01  .827E+01  .827E+01  .827E+01  .827E+01
  .827E+01  .827E+01  .827E+01  .827E+01  .827E+01  .827E+01  .827E+01  .827E+01
  .827E+01  .827E+01  .827E+01  .000E+00  .000E+00  .000E+00  .000E+00  .000E+00
  .000E+00  .000E+00  .000E+00  .000E+00
  .823E+01  .823E+01  .831E+01  .798E+01  .832E+01  .118E+02  .823E+01  .818E+01
  .823E+01  .932E+01  .102E+02  .169E+02  .849E+01  .141E+02  .885E+01  .824E+01
  .905E+01  .869E+01  .885E+01  .104E+02  .186E+02  .835E+01  .202E+02  .147E+02
  .118E+02  .104E+02  .222E+02  .199E+02  .816E+01  .949E+01  .282E+02  .856E+01
  .265E+02  .145E+02  .190E+02  .109E+02  .119E+02  .177E+02  .270E+02  .177E+02
  .123E+02  .308E+02  .334E+02  .208E+02  .822E+01  .131E+02  .324E+02  .183E+02
  .798E+01  .554E+02  .205E+02  .121E+02  .214E+02  .593E+02  .293E+02  .287E+02
  .218E+02  .118E+02  .118E+02  .118E+02  .842E+01  .284E+02  .822E+01  .822E+01
  .822E+01  .822E+01  .822E+01  .822E+01  .822E+01  .822E+01  .822E+01  .822E+01
  .822E+01  .822E+01  .822E+01  .822E+01  .822E+01  .822E+01  .822E+01  .822E+01
  .822E+01  .822E+01  .822E+01  .822E+01  .822E+01  .822E+01  .822E+01  .822E+01
  .822E+01  .822E+01  .822E+01  .000E+00  .000E+00  .000E+00  .000E+00  .000E+00
  .000E+00  .000E+00  .000E+00  .000E+00
Damping =  .02. Data of Sd,Sv,Sa,Pssv,ttSd,ttSv,ttSa :
  .126E-02  .144E-02  .137E-02  .127E-02  .155E-02  .201E-02  .219E-02  .290E-02
  .520E-02  .556E-02  .576E-02  .913E-02  .759E-02  .995E-02  .160E-01  .192E-01
  .283E-01  .331E-01  .297E-01  .403E-01  .445E-01  .472E-01  .498E-01  .532E-01
  .524E-01  .436E-01  .347E-01  .434E-01  .594E-01  .554E-01  .720E-01  .912E-01
  .102E+00  .110E+00  .120E+00  .118E+00  .113E+00  .109E+00  .104E+00  .110E+00
  .104E+00  .608E-01  .536E-01  .643E-01  .555E-01  .535E-01  .588E-01  .504E-01
  .473E-01  .645E-01  .590E-01  .605E-01  .466E-01  .443E-01  .468E-01  .547E-01
  .531E-01  .498E-01  .496E-01  .393E-01  .368E-01  .320E-01  .297E-01  .307E-01
  .313E-01  .321E-01  .329E-01  .336E-01  .341E-01  .343E-01  .343E-01  .342E-01
  .342E-01  .341E-01  .341E-01  .341E-01  .342E-01  .343E-01  .343E-01  .342E-01
  .340E-01  .338E-01  .337E-01  .334E-01  .333E-01  .331E-01  .329E-01  .328E-01
  .328E-01  .329E-01  .330E-01  .000E+00  .000E+00  .000E+00  .000E+00  .000E+00
  .000E+00  .000E+00  .000E+00  .000E+00
  .734E-01  .898E-01  .106E+00  .953E-01  .127E+00  .127E+00  .168E+00  .218E+00
  .327E+00  .363E+00  .391E+00  .677E+00  .489E+00  .519E+00  .905E+00  .112E+01
  .154E+01  .173E+01  .146E+01  .180E+01  .197E+01  .194E+01  .188E+01  .182E+01
  .176E+01  .148E+01  .108E+01  .111E+01  .134E+01  .130E+01  .150E+01  .183E+01
  .209E+01  .202E+01  .192E+01  .178E+01  .171E+01  .172E+01  .167E+01  .164E+01
  .156E+01  .122E+01  .116E+01  .114E+01  .104E+01  .913E+00  .809E+00  .746E+00
  .726E+00  .730E+00  .737E+00  .731E+00  .712E+00  .704E+00  .714E+00  .733E+00
  .753E+00  .767E+00  .775E+00  .778E+00  .777E+00  .769E+00  .760E+00  .753E+00
  .749E+00  .745E+00  .742E+00  .739E+00  .736E+00  .734E+00  .732E+00  .730E+00
  .729E+00  .728E+00  .727E+00  .726E+00  .724E+00  .723E+00  .722E+00  .721E+00
  .721E+00  .720E+00  .720E+00  .720E+00  .719E+00  .719E+00  .719E+00  .719E+00
  .719E+00  .719E+00  .719E+00  .000E+00  .000E+00  .000E+00  .000E+00  .000E+00
  .000E+00  .000E+00  .000E+00  .000E+00
  .810E-01  .831E-01  .725E-01  .615E-01  .690E-01  .822E-01  .743E-01  .826E-01
  .126E+00  .116E+00  .105E+00  .146E+00  .108E+00  .126E+00  .182E+00  .196E+00
  .238E+00  .235E+00  .180E+00  .211E+00  .202E+00  .189E+00  .176E+00  .169E+00
  .149E+00  .112E+00  .734E-01  .771E-01  .898E-01  .724E-01  .818E-01  .911E-01
  .898E-01  .871E-01  .849E-01  .754E-01  .657E-01  .576E-01  .503E-01  .486E-01
  .427E-01  .206E-01  .152E-01  .156E-01  .116E-01  .977E-02  .941E-02  .717E-02
  .601E-02  .732E-02  .604E-02  .512E-02  .331E-02  .270E-02  .245E-02  .249E-02
  .213E-02  .177E-02  .157E-02  .113E-02  .961E-03  .696E-03  .559E-03  .495E-03
  .439E-03  .394E-03  .358E-03  .326E-03  .296E-03  .270E-03  .246E-03  .224E-03
  .206E-03  .189E-03  .175E-03  .163E-03  .138E-03  .119E-03  .103E-03  .909E-04
  .806E-04  .720E-04  .648E-04  .587E-04  .535E-04  .491E-04  .419E-04  .365E-04
  .337E-04  .313E-04  .292E-04  .000E+00  .000E+00  .000E+00  .000E+00  .000E+00
  .000E+00  .000E+00  .000E+00  .000E+00
  .199E+00  .215E+00  .196E+00  .174E+00  .203E+00  .252E+00  .251E+00  .304E+00
  .503E+00  .499E+00  .483E+00  .717E+00  .561E+00  .695E+00  .106E+01  .120E+01
  .161E+01  .173E+01  .143E+01  .181E+01  .186E+01  .185E+01  .184E+01  .186E+01
  .173E+01  .137E+01  .990E+00  .114E+01  .143E+01  .124E+01  .151E+01  .179E+01
  .188E+01  .193E+01  .198E+01  .185E+01  .170E+01  .156E+01  .142E+01  .143E+01
  .131E+01  .694E+00  .561E+00  .622E+00  .498E+00  .448E+00  .462E+00  .373E+00
  .330E+00  .427E+00  .371E+00  .346E+00  .244E+00  .214E+00  .210E+00  .229E+00
  .209E+00  .184E+00  .173E+00  .130E+00  .116E+00  .915E-01  .779E-01  .742E-01
  .703E-01  .673E-01  .647E-01  .622E-01  .595E-01  .567E-01  .539E-01  .512E-01
  .488E-01  .466E-01  .446E-01  .428E-01  .391E-01  .359E-01  .331E-01  .307E-01
  .285E-01  .266E-01  .249E-01  .233E-01  .220E-01  .208E-01  .188E-01  .172E-01
  .159E-01  .148E-01  .138E-01  .000E+00  .000E+00  .000E+00  .000E+00  .000E+00
  .000E+00  .000E+00  .000E+00  .000E+00
  .823E+01  .823E+01  .824E+01  .832E+01  .822E+01  .822E+01  .823E+01  .822E+01
  .823E+01  .823E+01  .823E+01  .899E+01  .848E+01  .823E+01  .824E+01  .825E+01
  .849E+01  .864E+01  .859E+01  .916E+01  .841E+01  .835E+01  .836E+01  .836E+01
  .838E+01  .839E+01  .853E+01  .103E+02  .816E+01  .922E+01  .106E+02  .856E+01
  .843E+01  .845E+01  .847E+01  .849E+01  .851E+01  .897E+01  .901E+01  .124E+02
  .106E+02  .102E+02  .835E+01  .133E+02  .822E+01  .822E+01  .172E+02  .798E+01
  .798E+01  .231E+02  .170E+02  .121E+02  .118E+02  .102E+02  .102E+02  .158E+02
  .122E+02  .118E+02  .118E+02  .841E+01  .842E+01  .842E+01  .822E+01  .822E+01
  .822E+01  .822E+01  .822E+01  .822E+01  .822E+01  .822E+01  .822E+01  .822E+01
  .822E+01  .822E+01  .822E+01  .822E+01  .822E+01  .822E+01  .822E+01  .822E+01
  .822E+01  .822E+01  .822E+01  .822E+01  .822E+01  .822E+01  .822E+01  .822E+01
  .822E+01  .822E+01  .822E+01  .000E+00  .000E+00  .000E+00  .000E+00  .000E+00
  .000E+00  .000E+00  .000E+00  .000E+00
  .822E+01  .816E+01  .845E+01  .820E+01  .820E+01  .820E+01  .880E+01  .819E+01
  .821E+01  .892E+01  .845E+01  .897E+01  .847E+01  .851E+01  .827E+01  .827E+01
  .847E+01  .860E+01  .862E+01  .920E+01  .845E+01  .839E+01  .840E+01  .840E+01
  .834E+01  .834E+01  .827E+01  .819E+01  .810E+01  .928E+01  .890E+01  .834E+01
  .851E+01  .853E+01  .836E+01  .108E+02  .843E+01  .844E+01  .826E+01  .826E+01
  .826E+01  .827E+01  .827E+01  .827E+01  .827E+01  .827E+01  .827E+01  .827E+01
  .827E+01  .827E+01  .827E+01  .827E+01  .827E+01  .827E+01  .827E+01  .827E+01
  .827E+01  .827E+01  .827E+01  .827E+01  .827E+01  .827E+01  .827E+01  .827E+01
  .827E+01  .827E+01  .827E+01  .827E+01  .827E+01  .827E+01  .827E+01  .827E+01
  .827E+01  .827E+01  .827E+01  .827E+01  .827E+01  .827E+01  .827E+01  .827E+01
  .827E+01  .827E+01  .827E+01  .827E+01  .827E+01  .827E+01  .827E+01  .827E+01
  .827E+01  .827E+01  .827E+01  .000E+00  .000E+00  .000E+00  .000E+00  .000E+00
  .000E+00  .000E+00  .000E+00  .000E+00
  .823E+01  .823E+01  .824E+01  .832E+01  .822E+01  .822E+01  .823E+01  .822E+01
  .822E+01  .823E+01  .823E+01  .899E+01  .848E+01  .823E+01  .824E+01  .830E+01
  .849E+01  .864E+01  .859E+01  .916E+01  .841E+01  .835E+01  .836E+01  .836E+01
  .838E+01  .839E+01  .853E+01  .103E+02  .816E+01  .922E+01  .106E+02  .856E+01
  .843E+01  .845E+01  .847E+01  .848E+01  .851E+01  .897E+01  .901E+01  .124E+02
  .106E+02  .102E+02  .835E+01  .133E+02  .821E+01  .822E+01  .172E+02  .797E+01
  .797E+01  .231E+02  .170E+02  .121E+02  .118E+02  .102E+02  .102E+02  .158E+02
  .122E+02  .118E+02  .118E+02  .841E+01  .841E+01  .841E+01  .820E+01  .820E+01
  .820E+01  .820E+01  .820E+01  .820E+01  .820E+01  .820E+01  .820E+01  .820E+01
  .820E+01  .820E+01  .820E+01  .820E+01  .820E+01  .820E+01  .820E+01  .820E+01
  .820E+01  .820E+01  .820E+01  .820E+01  .820E+01  .820E+01  .820E+01  .828E+01
  .828E+01  .828E+01  .828E+01  .000E+00  .000E+00  .000E+00  .000E+00  .000E+00
  .000E+00  .000E+00  .000E+00  .000E+00
Damping =  .05. Data of Sd,Sv,Sa,Pssv,ttSd,ttSv,ttSa :
  .113E-02  .125E-02  .125E-02  .121E-02  .146E-02  .179E-02  .206E-02  .280E-02
