Response and Fourier amplitude spectra (91 periods,  .04 - 15.0 sec)   for      
Corrected accelerogram   24817-L1179-01248.24       Chan  1: 339 Deg     from   
Uncorrected Accelerogram Data             Processed: 09/10/01, CDMG  817ap024   
Record of Sun Sep  9, 2001 16:59:15 PDT               (Avol1 v4.6  7/01 CSMIP)  
CSMIP Preliminary Processing            (Origin:  To be determined)             
24817-L1179-01248.24                 Start time:  9/09/01, 23:59:15.0 UTC (GPS) 
Station No. 24817   34.059N, 118.479W      Etna  s/n 1179  (3 Channels)         
Los Angeles - Sunset & Kenter                                                   
Chan  1: 339 Deg                                                                
Record of Sun Sep  9, 2001 16:59:15 PDT    Sun Sep  9, 2001 16:59:15 PDT        
Hypocenter:  To be determined.               ML:  To be determined.             
Instr Period =  .0105 sec,  Damping =  .650,  Sensitivity =  .63  v/g           
                        Record length = 44.000 sec.                             
                                     Uncor Max  =  -.030 g, at   7.425 sec.     
RMS accel of (uncor) record  =        .                                         
Accelerogram bandpass filtered with 3 dB pts at   .30 and 40.00 cyc/sec         
                 instrument- and baseline-corrected                             
                                                                                
                                                                                
                                                                                
                                                                                
                                                                                
Record of Sun Sep  9, 2001 16:59:15 PDT    Sun Sep  9, 2001 16:59:15 PDT        
                                                                                
24817-L1179-01248.24      Los Angeles - Sunset & Kenter   Chan  1: 339 Deg      
                                                                                
24817-L1179-01248.24      Los Angeles - Sunset & Kenter   Chan  1: 339 Deg      
                                                                                
Units for spectra are inches and sec, except Sa is in fraction of g.            
                                                                                
    1  100    1    3    3  200    1    3    1   24   12 1179    024817    1    0
   23   59   15    0  252    9    9 2001   10    3  339 8800   39   29   72  339
 8800    1   50    3 1179    1   24  440    1    0    0    0    0    0    0    0
    0    4    0    0 4400    2    0    0    0    0   72   29    0    0    0 4400
    0 4400   30   91    1    3    0    0    0    0    3    0    0    0    0    2
    2    2    4    0   32   99    0   32   32    0    0    1    0    0    0    0
  -99   -1    0    0
      .011      .650    44.000      .003      .000   625.000     -.030     7.425
    95.000      .298      .477      .000     5.000      .000      .000      .000
     2.500   -17.834      .008     -.028     5.000    30.000      .000     -.004
      .003      .007     2.000    15.000    34.059  -118.479      .021      .192
     9.182     -.002      .017  -999.000      .000      .000   -14.100      .000
  1000.000    -1.014      .000      .000      .000      .000      .000      .000
     4.600     4.400      .000   980.665      .010    44.000    15.120      .000
      .000    40.000      .000    44.000      .010      .300      .000      .000
     7.420   -29.292     7.500    -2.245     7.320      .180      .000      .300
    40.000      .010      .010      .000      .010      .025      .000      .000
      .110      .180      .083      .061      .015      .001      .000      .000
      .000      .000      .000      .000      .000      .000      .000      .000
      .000      .000      .000      .000
      .050
      .040      .042      .044      .046      .048      .050      .055      .060
      .065      .070      .075      .080      .085      .090      .095      .100
      .110      .120      .130      .140      .150      .160      .170      .180
      .190      .200      .220      .240      .260      .280      .300      .320
      .340      .360      .380      .400      .420      .440      .460      .480
      .500      .550      .600      .650      .700      .750      .800      .850
      .900      .950     1.000     1.100     1.200     1.300     1.400     1.500
     1.600     1.700     1.800     1.900     2.000     2.200     2.400     2.600
     2.800     3.000     3.200     3.400     3.600     3.800     4.000     4.200
     4.400     4.600     4.800     5.000     5.500     6.000     6.500     7.000
     7.500     8.000     8.500     9.000     9.500    10.000    11.000    12.000
    13.000    14.000    15.000      .000      .000      .000      .000      .000
      .000      .000      .000      .000
Fourier amplitude spectra in in/sec.
  .000E+00  .000E+00  .000E+00  .000E+00  .000E+00  .000E+00  .000E+00  .000E+00
  .000E+00  .000E+00  .000E+00  .000E+00  .000E+00  .000E+00  .000E+00  .000E+00
  .000E+00  .000E+00  .000E+00  .000E+00  .000E+00  .000E+00  .000E+00  .000E+00
  .000E+00  .000E+00  .000E+00  .000E+00  .000E+00  .000E+00  .000E+00  .000E+00
  .000E+00  .000E+00  .000E+00  .000E+00  .000E+00  .000E+00  .000E+00  .000E+00
  .000E+00  .000E+00  .000E+00  .000E+00  .000E+00  .000E+00  .000E+00  .000E+00
  .000E+00  .000E+00  .000E+00  .000E+00  .000E+00  .000E+00  .000E+00  .000E+00
  .000E+00  .000E+00  .000E+00  .000E+00  .000E+00  .000E+00  .000E+00  .000E+00
  .000E+00  .000E+00  .000E+00  .000E+00  .000E+00  .000E+00  .000E+00  .000E+00
  .000E+00  .000E+00  .000E+00  .000E+00  .000E+00  .000E+00  .000E+00  .000E+00
  .000E+00  .000E+00  .000E+00  .000E+00  .000E+00  .000E+00  .000E+00  .000E+00
  .000E+00  .000E+00  .000E+00  .000E+00  .000E+00  .000E+00  .000E+00  .000E+00
  .000E+00  .000E+00  .000E+00  .000E+00
Damping =  .05. Data of Sd,Sv,Sa,Pssv,ttSd,ttSv,ttSa :
  .477E-03  .519E-03  .583E-03  .655E-03  .711E-03  .775E-03  .106E-02  .141E-02
  .179E-02  .261E-02  .313E-02  .401E-02  .452E-02  .436E-02  .559E-02  .637E-02
  .788E-02  .109E-01  .124E-01  .151E-01  .179E-01  .233E-01  .303E-01  .348E-01
  .334E-01  .319E-01  .334E-01  .376E-01  .397E-01  .423E-01  .538E-01  .652E-01
  .731E-01  .831E-01  .925E-01  .993E-01  .104E+00  .107E+00  .110E+00  .112E+00
  .114E+00  .122E+00  .123E+00  .124E+00  .129E+00  .135E+00  .140E+00  .142E+00
  .142E+00  .145E+00  .148E+00  .151E+00  .149E+00  .144E+00  .137E+00  .129E+00
  .121E+00  .113E+00  .106E+00  .100E+00  .952E-01  .863E-01  .803E-01  .813E-01
  .821E-01  .826E-01  .830E-01  .833E-01  .834E-01  .834E-01  .833E-01  .831E-01
  .829E-01  .826E-01  .823E-01  .820E-01  .812E-01  .806E-01  .800E-01  .795E-01
  .790E-01  .787E-01  .784E-01  .781E-01  .779E-01  .778E-01  .775E-01  .773E-01
  .771E-01  .770E-01  .769E-01  .000E+00  .000E+00  .000E+00  .000E+00  .000E+00
  .000E+00  .000E+00  .000E+00  .000E+00
  .198E-01  .236E-01  .293E-01  .361E-01  .394E-01  .380E-01  .557E-01  .694E-01
  .850E-01  .136E+00  .147E+00  .189E+00  .211E+00  .227E+00  .270E+00  .305E+00
  .293E+00  .431E+00  .490E+00  .661E+00  .630E+00  .763E+00  .937E+00  .100E+01
  .906E+00  .945E+00  .979E+00  .919E+00  .102E+01  .986E+00  .112E+01  .137E+01
  .151E+01  .159E+01  .161E+01  .156E+01  .147E+01  .137E+01  .134E+01  .137E+01
  .140E+01  .147E+01  .153E+01  .151E+01  .147E+01  .144E+01  .139E+01  .132E+01
  .124E+01  .114E+01  .106E+01  .112E+01  .116E+01  .118E+01  .117E+01  .116E+01
  .115E+01  .113E+01  .111E+01  .109E+01  .108E+01  .105E+01  .103E+01  .101E+01
  .994E+00  .981E+00  .969E+00  .960E+00  .951E+00  .944E+00  .938E+00  .933E+00
  .928E+00  .924E+00  .921E+00  .918E+00  .912E+00  .908E+00  .905E+00  .903E+00
  .901E+00  .899E+00  .898E+00  .897E+00  .896E+00  .896E+00  .895E+00  .894E+00
  .893E+00  .893E+00  .892E+00  .000E+00  .000E+00  .000E+00  .000E+00  .000E+00
  .000E+00  .000E+00  .000E+00  .000E+00
  .305E-01  .301E-01  .308E-01  .317E-01  .316E-01  .318E-01  .357E-01  .401E-01
  .433E-01  .549E-01  .573E-01  .645E-01  .640E-01  .552E-01  .631E-01  .658E-01
  .673E-01  .771E-01  .766E-01  .789E-01  .823E-01  .943E-01  .107E+00  .110E+00
  .958E-01  .824E-01  .703E-01  .670E-01  .601E-01  .558E-01  .617E-01  .655E-01
  .652E-01  .659E-01  .659E-01  .640E-01  .607E-01  .569E-01  .534E-01  .500E-01
  .471E-01  .415E-01  .352E-01  .301E-01  .271E-01  .248E-01  .225E-01  .201E-01
  .180E-01  .166E-01  .153E-01  .129E-01  .108E-01  .887E-02  .728E-02  .598E-02
  .493E-02  .410E-02  .345E-02  .294E-02  .253E-02  .192E-02  .154E-02  .134E-02
  .118E-02  .105E-02  .935E-03  .841E-03  .761E-03  .693E-03  .633E-03  .581E-03
  .536E-03  .496E-03  .460E-03  .429E-03  .364E-03  .314E-03  .275E-03  .244E-03
  .219E-03  .199E-03  .181E-03  .166E-03  .154E-03  .143E-03  .129E-03  .118E-03
  .109E-03  .101E-03  .943E-04  .000E+00  .000E+00  .000E+00  .000E+00  .000E+00
  .000E+00  .000E+00  .000E+00  .000E+00
  .750E-01  .777E-01  .833E-01  .895E-01  .931E-01  .974E-01  .121E+00  .147E+00
  .173E+00  .234E+00  .262E+00  .315E+00  .334E+00  .304E+00  .370E+00  .400E+00
  .450E+00  .569E+00  .601E+00  .676E+00  .749E+00  .915E+00  .112E+01  .121E+01
  .110E+01  .100E+01  .954E+00  .986E+00  .959E+00  .948E+00  .113E+01  .128E+01
  .135E+01  .145E+01  .153E+01  .156E+01  .155E+01  .153E+01  .150E+01  .146E+01
  .144E+01  .139E+01  .129E+01  .120E+01  .116E+01  .113E+01  .110E+01  .105E+01
  .988E+00  .958E+00  .929E+00  .861E+00  .781E+00  .697E+00  .615E+00  .540E+00
  .474E+00  .417E+00  .371E+00  .332E+00  .299E+00  .246E+00  .210E+00  .197E+00
  .184E+00  .173E+00  .163E+00  .154E+00  .146E+00  .138E+00  .131E+00  .124E+00
  .118E+00  .113E+00  .108E+00  .103E+00  .928E-01  .844E-01  .773E-01  .713E-01
  .662E-01  .618E-01  .580E-01  .546E-01  .516E-01  .489E-01  .443E-01  .405E-01
  .373E-01  .346E-01  .322E-01  .000E+00  .000E+00  .000E+00  .000E+00  .000E+00
  .000E+00  .000E+00  .000E+00  .000E+00
  .742E+01  .743E+01  .741E+01  .741E+01  .742E+01  .741E+01  .741E+01  .741E+01
  .741E+01  .741E+01  .742E+01  .742E+01  .743E+01  .728E+01  .728E+01  .729E+01
  .743E+01  .744E+01  .744E+01  .745E+01  .754E+01  .755E+01  .757E+01  .758E+01
  .760E+01  .760E+01  .785E+01  .811E+01  .813E+01  .777E+01  .777E+01  .779E+01
  .765E+01  .766E+01  .767E+01  .768E+01  .768E+01  .769E+01  .770E+01  .771E+01
  .771E+01  .773E+01  .776E+01  .780E+01  .783E+01  .785E+01  .788E+01  .791E+01
  .794E+01  .756E+01  .757E+01  .758E+01  .759E+01  .760E+01  .760E+01  .761E+01
  .761E+01  .762E+01  .762E+01  .762E+01  .762E+01  .762E+01  .730E+01  .730E+01
  .730E+01  .730E+01  .730E+01  .731E+01  .731E+01  .731E+01  .731E+01  .731E+01
  .731E+01  .731E+01  .731E+01  .731E+01  .731E+01  .731E+01  .731E+01  .731E+01
  .731E+01  .731E+01  .731E+01  .731E+01  .731E+01  .731E+01  .731E+01  .731E+01
  .731E+01  .731E+01  .731E+01  .000E+00  .000E+00  .000E+00  .000E+00  .000E+00
  .000E+00  .000E+00  .000E+00  .000E+00
  .739E+01  .739E+01  .767E+01  .767E+01  .768E+01  .768E+01  .738E+01  .739E+01
  .739E+01  .739E+01  .740E+01  .740E+01  .746E+01  .773E+01  .726E+01  .726E+01
  .746E+01  .747E+01  .810E+01  .812E+01  .750E+01  .751E+01  .752E+01  .754E+01
  .755E+01  .787E+01  .780E+01  .816E+01  .807E+01  .783E+01  .771E+01  .772E+01
  .773E+01  .774E+01  .775E+01  .776E+01  .777E+01  .778E+01  .761E+01  .808E+01
  .809E+01  .764E+01  .765E+01  .765E+01  .766E+01  .766E+01  .766E+01  .767E+01
  .767E+01  .767E+01  .747E+01  .748E+01  .748E+01  .748E+01  .748E+01  .748E+01
  .749E+01  .749E+01  .749E+01  .749E+01  .749E+01  .749E+01  .749E+01  .749E+01
  .749E+01  .749E+01  .749E+01  .749E+01  .749E+01  .749E+01  .749E+01  .749E+01
  .749E+01  .749E+01  .749E+01  .749E+01  .749E+01  .749E+01  .749E+01  .749E+01
  .749E+01  .749E+01  .749E+01  .749E+01  .749E+01  .749E+01  .749E+01  .749E+01
  .749E+01  .749E+01  .749E+01  .000E+00  .000E+00  .000E+00  .000E+00  .000E+00
  .000E+00  .000E+00  .000E+00  .000E+00
  .742E+01  .743E+01  .741E+01  .741E+01  .741E+01  .741E+01  .741E+01  .741E+01
  .741E+01  .741E+01  .742E+01  .742E+01  .743E+01  .771E+01  .728E+01  .728E+01
  .742E+01  .743E+01  .744E+01  .745E+01  .754E+01  .755E+01  .756E+01  .758E+01
  .759E+01  .760E+01  .784E+01  .810E+01  .813E+01  .776E+01  .777E+01  .778E+01
  .764E+01  .765E+01  .766E+01  .767E+01  .768E+01  .769E+01  .769E+01  .770E+01
  .770E+01  .772E+01  .775E+01  .779E+01  .782E+01  .784E+01  .786E+01  .789E+01
  .792E+01  .755E+01  .755E+01  .756E+01  .757E+01  .757E+01  .758E+01  .758E+01
  .759E+01  .759E+01  .759E+01  .758E+01  .758E+01  .758E+01  .726E+01  .726E+01
  .726E+01  .726E+01  .726E+01  .726E+01  .725E+01  .725E+01  .725E+01  .725E+01
  .725E+01  .725E+01  .725E+01  .725E+01  .725E+01  .725E+01  .725E+01  .724E+01
  .724E+01  .724E+01  .724E+01  .724E+01  .724E+01  .724E+01  .750E+01  .750E+01
  .750E+01  .750E+01  .750E+01  .000E+00  .000E+00  .000E+00  .000E+00  .000E+00
  .000E+00  .000E+00  .000E+00  .000E+00
/&   ----------  End of spectral data for channel  1  ----------
Response and Fourier amplitude spectra (91 periods,  .04 - 15.0 sec)   for      
Corrected accelerogram   24817-L1179-01248.24       Chan  2:  Up         from   
Uncorrected Accelerogram Data             Processed: 09/10/01, CDMG  817ap024   
Record of Sun Sep  9, 2001 16:59:15 PDT               (Avol1 v4.6  7/01 CSMIP)  
CSMIP Preliminary Processing            (Origin:  To be determined)             
24817-L1179-01248.24                 Start time:  9/09/01, 23:59:15.0 UTC (GPS) 
Station No. 24817   34.059N, 118.479W      Etna  s/n 1179  (3 Channels)         
Los Angeles - Sunset & Kenter                                                   
Chan  2:  Up                                                                    
Record of Sun Sep  9, 2001 16:59:15 PDT    Sun Sep  9, 2001 16:59:15 PDT        
Hypocenter:  To be determined.               ML:  To be determined.             
Instr Period =  .0105 sec,  Damping =  .660,  Sensitivity =  .63  v/g           
                        Record length = 44.000 sec.                             
                                     Uncor Max  =  -.022 g, at   6.270 sec.     
RMS accel of (uncor) record  =        .                                         
Accelerogram bandpass filtered with 3 dB pts at   .30 and 40.00 cyc/sec         
                 instrument- and baseline-corrected                             
                                                                                
                                                                                
                                                                                
                                                                                
                                                                                
Record of Sun Sep  9, 2001 16:59:15 PDT    Sun Sep  9, 2001 16:59:15 PDT        
                                                                                
24817-L1179-01248.24      Los Angeles - Sunset & Kenter   Chan  2:  Up          
                                                                                
24817-L1179-01248.24      Los Angeles - Sunset & Kenter   Chan  2:  Up          
                                                                                
Units for spectra are inches and sec, except Sa is in fraction of g.            
                                                                                
    2  100    2    3    3  200    1    3    1   24   12 1179    024817    1    0
   23   59   15    0  252    9    9 2001   10    3  500 8800   39   29   72  339
 8800    1   50    3 1179    1   24  440    1    0    0    0    0    0    0    0
    0    4    0    0 4400    2    0    0    0    0   72   29    0    0    0 4400
    0 4400   30   91    1    3    0    0    0    0    3    0    0    0    0    2
    2    2    4    0   32   99    0   32   32    0    0    1    0    0    0    0
  -99   -1    0    0
      .010      .660    44.000      .002      .000   625.000     -.022     6.270
    95.600      .298      .477      .000     5.000      .000      .000      .000
     2.500   -43.348     -.013     -.040     5.000    30.000      .000      .000
      .003      .003     2.000    15.000    34.059  -118.479      .051      .147
     2.905     -.006      .013  -999.000      .000      .000   -14.100      .000
  1000.000    -1.011      .000      .000      .000      .000      .000      .000
     4.600     4.400      .000   980.665      .010    44.000    15.215      .000
      .000    40.000      .000    44.000      .010      .300      .000      .000
     6.270   -21.538     6.310     -.604     5.300      .032      .000      .300
    40.000      .010      .010      .000      .010      .017      .000      .000
      .091      .110      .047      .024      .003      .000      .000      .000
      .000      .000      .000      .000      .000      .000      .000      .000
      .000      .000      .000      .000
      .050
      .040      .042      .044      .046      .048      .050      .055      .060
      .065      .070      .075      .080      .085      .090      .095      .100
      .110      .120      .130      .140      .150      .160      .170      .180
      .190      .200      .220      .240      .260      .280      .300      .320
      .340      .360      .380      .400      .420      .440      .460      .480
      .500      .550      .600      .650      .700      .750      .800      .850
      .900      .950     1.000     1.100     1.200     1.300     1.400     1.500
     1.600     1.700     1.800     1.900     2.000     2.200     2.400     2.600
     2.800     3.000     3.200     3.400     3.600     3.800     4.000     4.200
     4.400     4.600     4.800     5.000     5.500     6.000     6.500     7.000
     7.500     8.000     8.500     9.000     9.500    10.000    11.000    12.000
    13.000    14.000    15.000      .000      .000      .000      .000      .000
      .000      .000      .000      .000
Fourier amplitude spectra in in/sec.
  .000E+00  .000E+00  .000E+00  .000E+00  .000E+00  .000E+00  .000E+00  .000E+00
  .000E+00  .000E+00  .000E+00  .000E+00  .000E+00  .000E+00  .000E+00  .000E+00
  .000E+00  .000E+00  .000E+00  .000E+00  .000E+00  .000E+00  .000E+00  .000E+00
  .000E+00  .000E+00  .000E+00  .000E+00  .000E+00  .000E+00  .000E+00  .000E+00
  .000E+00  .000E+00  .000E+00  .000E+00  .000E+00  .000E+00  .000E+00  .000E+00
  .000E+00  .000E+00  .000E+00  .000E+00  .000E+00  .000E+00  .000E+00  .000E+00
  .000E+00  .000E+00  .000E+00  .000E+00  .000E+00  .000E+00  .000E+00  .000E+00
  .000E+00  .000E+00  .000E+00  .000E+00  .000E+00  .000E+00  .000E+00  .000E+00
  .000E+00  .000E+00  .000E+00  .000E+00  .000E+00  .000E+00  .000E+00  .000E+00
  .000E+00  .000E+00  .000E+00  .000E+00  .000E+00  .000E+00  .000E+00  .000E+00
  .000E+00  .000E+00  .000E+00  .000E+00  .000E+00  .000E+00  .000E+00  .000E+00
  .000E+00  .000E+00  .000E+00  .000E+00  .000E+00  .000E+00  .000E+00  .000E+00
  .000E+00  .000E+00  .000E+00  .000E+00
Damping =  .05. Data of Sd,Sv,Sa,Pssv,ttSd,ttSv,ttSa :
  .544E-03  .610E-03  .686E-03  .750E-03  .848E-03  .998E-03  .145E-02  .126E-02
  .146E-02  .223E-02  .303E-02  .373E-02  .379E-02  .494E-02  .594E-02  .589E-02
  .109E-01  .108E-01  .105E-01  .140E-01  .146E-01  .142E-01  .160E-01  .182E-01
  .191E-01  .155E-01  .218E-01  .185E-01  .191E-01  .181E-01  .201E-01  .238E-01
  .269E-01  .285E-01  .295E-01  .254E-01  .284E-01  .288E-01  .278E-01  .306E-01
