Response and Fourier amplitude spectra (91 periods,  .04 - 15.0 sec)   for      
Corrected accelerogram   24723-M0130-01253.01       Chan  5: 270 Deg     from   
Uncorrected Accelerogram Data             Processed: 09/10/01, CDMG  td001      
Record of Sun Sep  9, 2001 16:59:20 PDT               (Avol1 v4.6  7/01 CSMIP)  
CSMIP Preliminary Processing            (Origin:  To be determined)             
24723-M0130-01253.01                 Start time:  9/09/01, 23:59:20.0 UTC (GPS) 
Station No. 24723   34.049N, 118.176W    MtWtny  s/n  130 (15 Channels)         
Los Angeles - 2-story County EOC Bldg                                           
Chan  5: 270 Deg                    Location: Foundation: S Wall(below isolator)
Record of Sun Sep  9, 2001 16:59:20 PDT    Sun Sep  9, 2001 16:59:20 PDT        
Hypocenter:  To be determined.               ML:  To be determined.
Instr Period =  .0200 sec,  Damping =  .700,  Sensitivity =  .63  v/g
                        Record length = 44.000 sec.
                                     Uncor Max  =  -.015 g, at   5.945 sec.
RMS accel of (uncor) record  =        .
Accelerogram bandpass filtered with 3 dB pts at   .30 and 40.00 cyc/sec
                 instrument- and baseline-corrected





Record of Sun Sep  9, 2001 16:59:20 PDT    Sun Sep  9, 2001 16:59:20 PDT

24723-M0130-01253.01      Los Angeles - 2-story County EOC Bldg   Chan  5: 270 D
eg
24723-M0130-01253.01      Los Angeles - 2-story County EOC Bldg   Chan  5: 270 D
eg
Units for spectra are inches and sec, except Sa is in fraction of g.

    5  100    5   15   15  200    1    3    1   24   13  130    024723    2    0
   23   59   20    0  252    9    9 2001   10    3  270 8800   39   37   72   14
 8800    1   50    3  130    1    1  440    1    0    0    0    0    0    0    0
    0    4    0    0 4400    2    0    0    0    0   72   37    0    0    0 4400
    0 4400   38   91    1   15    0    0    0    0   15    0    0    0    0    2
    2    2    4    0   71   99    0   32   32    0    0    1    0    0    0    0
  -99   -1    0    0
      .020      .700    44.000      .002      .000   625.000     -.015     5.945
    50.000      .298      .477      .000     5.000      .000      .000      .000
     2.500    -3.988      .007     -.011     5.000    30.000      .000     -.004
     -.001      .004     2.000    15.000    34.049  -118.176      .007      .236
    34.722     -.007      .015  -999.000      .000      .000   -13.100      .000
  1000.000     1.000      .000      .000      .000      .000      .000      .000
     4.600     4.400      .000   980.665      .010    44.000     7.958      .000
      .000    40.000      .000    44.000      .010      .300      .000      .000
     5.940   -14.463     5.880      .627     5.950      .049      .000      .300
    40.000      .010      .010      .000      .010      .019      .000      .000
      .052      .170      .042      .030      .003      .000      .000      .000
      .000      .000      .000      .000      .000      .000      .000      .000
      .000      .000      .000      .000
      .050
      .040      .042      .044      .046      .048      .050      .055      .060
      .065      .070      .075      .080      .085      .090      .095      .100
      .110      .120      .130      .140      .150      .160      .170      .180
      .190      .200      .220      .240      .260      .280      .300      .320
      .340      .360      .380      .400      .420      .440      .460      .480
      .500      .550      .600      .650      .700      .750      .800      .850
      .900      .950     1.000     1.100     1.200     1.300     1.400     1.500
     1.600     1.700     1.800     1.900     2.000     2.200     2.400     2.600
     2.800     3.000     3.200     3.400     3.600     3.800     4.000     4.200
     4.400     4.600     4.800     5.000     5.500     6.000     6.500     7.000
     7.500     8.000     8.500     9.000     9.500    10.000    11.000    12.000
    13.000    14.000    15.000      .000      .000      .000      .000      .000
      .000      .000      .000      .000
Fourier amplitude spectra in in/sec.
  .000E+00  .000E+00  .000E+00  .000E+00  .000E+00  .000E+00  .000E+00  .000E+00
  .000E+00  .000E+00  .000E+00  .000E+00  .000E+00  .000E+00  .000E+00  .000E+00
  .000E+00  .000E+00  .000E+00  .000E+00  .000E+00  .000E+00  .000E+00  .000E+00
  .000E+00  .000E+00  .000E+00  .000E+00  .000E+00  .000E+00  .000E+00  .000E+00
  .000E+00  .000E+00  .000E+00  .000E+00  .000E+00  .000E+00  .000E+00  .000E+00
  .000E+00  .000E+00  .000E+00  .000E+00  .000E+00  .000E+00  .000E+00  .000E+00
  .000E+00  .000E+00  .000E+00  .000E+00  .000E+00  .000E+00  .000E+00  .000E+00
  .000E+00  .000E+00  .000E+00  .000E+00  .000E+00  .000E+00  .000E+00  .000E+00
  .000E+00  .000E+00  .000E+00  .000E+00  .000E+00  .000E+00  .000E+00  .000E+00
  .000E+00  .000E+00  .000E+00  .000E+00  .000E+00  .000E+00  .000E+00  .000E+00
  .000E+00  .000E+00  .000E+00  .000E+00  .000E+00  .000E+00  .000E+00  .000E+00
  .000E+00  .000E+00  .000E+00  .000E+00  .000E+00  .000E+00  .000E+00  .000E+00
  .000E+00  .000E+00  .000E+00  .000E+00
Damping =  .05. Data of Sd,Sv,Sa,Pssv,ttSd,ttSv,ttSa :
  .239E-03  .267E-03  .302E-03  .338E-03  .376E-03  .412E-03  .539E-03  .707E-03
  .919E-03  .124E-02  .164E-02  .190E-02  .180E-02  .255E-02  .290E-02  .301E-02
  .467E-02  .576E-02  .580E-02  .670E-02  .827E-02  .110E-01  .146E-01  .153E-01
  .145E-01  .168E-01  .191E-01  .231E-01  .239E-01  .251E-01  .269E-01  .257E-01
  .299E-01  .338E-01  .314E-01  .377E-01  .488E-01  .530E-01  .510E-01  .440E-01
  .429E-01  .400E-01  .401E-01  .451E-01  .458E-01  .426E-01  .370E-01  .333E-01
  .337E-01  .336E-01  .329E-01  .305E-01  .296E-01  .268E-01  .222E-01  .217E-01
  .217E-01  .217E-01  .218E-01  .218E-01  .217E-01  .216E-01  .213E-01  .208E-01
  .203E-01  .199E-01  .196E-01  .194E-01  .192E-01  .191E-01  .191E-01  .191E-01
  .191E-01  .191E-01  .191E-01  .191E-01  .190E-01  .190E-01  .190E-01  .189E-01
  .189E-01  .189E-01  .189E-01  .188E-01  .189E-01  .189E-01  .189E-01  .189E-01
  .189E-01  .189E-01  .190E-01  .000E+00  .000E+00  .000E+00  .000E+00  .000E+00
  .000E+00  .000E+00  .000E+00  .000E+00
  .144E-01  .152E-01  .193E-01  .234E-01  .266E-01  .270E-01  .460E-01  .475E-01
  .603E-01  .743E-01  .959E-01  .102E+00  .107E+00  .125E+00  .137E+00  .131E+00
  .209E+00  .255E+00  .264E+00  .273E+00  .316E+00  .395E+00  .503E+00  .531E+00
  .469E+00  .515E+00  .577E+00  .637E+00  .576E+00  .583E+00  .594E+00  .537E+00
  .515E+00  .591E+00  .550E+00  .613E+00  .722E+00  .770E+00  .745E+00  .630E+00
  .590E+00  .547E+00  .498E+00  .455E+00  .429E+00  .419E+00  .384E+00  .362E+00
  .331E+00  .316E+00  .308E+00  .295E+00  .286E+00  .278E+00  .270E+00  .263E+00
  .257E+00  .252E+00  .248E+00  .247E+00  .248E+00  .249E+00  .250E+00  .250E+00
  .250E+00  .249E+00  .248E+00  .248E+00  .247E+00  .247E+00  .247E+00  .246E+00
  .246E+00  .246E+00  .246E+00  .246E+00  .246E+00  .246E+00  .246E+00  .246E+00
  .246E+00  .245E+00  .245E+00  .245E+00  .245E+00  .245E+00  .245E+00  .245E+00
  .245E+00  .245E+00  .245E+00  .000E+00  .000E+00  .000E+00  .000E+00  .000E+00
  .000E+00  .000E+00  .000E+00  .000E+00
  .153E-01  .155E-01  .159E-01  .163E-01  .167E-01  .169E-01  .182E-01  .200E-01
  .224E-01  .263E-01  .298E-01  .306E-01  .256E-01  .324E-01  .332E-01  .306E-01
  .397E-01  .413E-01  .355E-01  .354E-01  .380E-01  .437E-01  .516E-01  .486E-01
  .410E-01  .430E-01  .407E-01  .415E-01  .362E-01  .330E-01  .308E-01  .257E-01
  .265E-01  .269E-01  .224E-01  .242E-01  .285E-01  .281E-01  .247E-01  .197E-01
  .177E-01  .136E-01  .114E-01  .110E-01  .965E-02  .782E-02  .596E-02  .474E-02
  .432E-02  .389E-02  .344E-02  .265E-02  .214E-02  .165E-02  .120E-02  .106E-02
  .941E-03  .841E-03  .758E-03  .687E-03  .625E-03  .524E-03  .443E-03  .378E-03
  .327E-03  .287E-03  .255E-03  .229E-03  .208E-03  .191E-03  .176E-03  .163E-03
  .152E-03  .142E-03  .133E-03  .126E-03  .110E-03  .973E-04  .872E-04  .788E-04
  .719E-04  .660E-04  .610E-04  .567E-04  .530E-04  .498E-04  .444E-04  .401E-04
  .365E-04  .335E-04  .309E-04  .000E+00  .000E+00  .000E+00  .000E+00  .000E+00
  .000E+00  .000E+00  .000E+00  .000E+00
  .376E-01  .400E-01  .431E-01  .462E-01  .492E-01  .517E-01  .616E-01  .741E-01
  .889E-01  .112E+00  .138E+00  .149E+00  .133E+00  .178E+00  .192E+00  .189E+00
  .267E+00  .301E+00  .280E+00  .301E+00  .346E+00  .431E+00  .538E+00  .535E+00
  .481E+00  .529E+00  .545E+00  .605E+00  .577E+00  .564E+00  .564E+00  .505E+00
  .552E+00  .590E+00  .519E+00  .592E+00  .730E+00  .757E+00  .696E+00  .576E+00
  .539E+00  .457E+00  .419E+00  .436E+00  .411E+00  .357E+00  .291E+00  .246E+00
  .235E+00  .222E+00  .207E+00  .174E+00  .155E+00  .129E+00  .995E-01  .908E-01
  .853E-01  .804E-01  .759E-01  .719E-01  .683E-01  .617E-01  .557E-01  .503E-01
  .456E-01  .417E-01  .385E-01  .358E-01  .335E-01  .316E-01  .300E-01  .285E-01
  .272E-01  .260E-01  .249E-01  .239E-01  .217E-01  .199E-01  .183E-01  .170E-01
  .158E-01  .148E-01  .139E-01  .132E-01  .125E-01  .118E-01  .108E-01  .989E-02
  .914E-02  .850E-02  .795E-02  .000E+00  .000E+00  .000E+00  .000E+00  .000E+00
  .000E+00  .000E+00  .000E+00  .000E+00
  .594E+01  .594E+01  .594E+01  .594E+01  .594E+01  .594E+01  .689E+01  .663E+01
  .663E+01  .663E+01  .663E+01  .663E+01  .663E+01  .663E+01  .664E+01  .664E+01
  .664E+01  .665E+01  .666E+01  .721E+01  .666E+01  .667E+01  .668E+01  .670E+01
  .627E+01  .628E+01  .631E+01  .611E+01  .613E+01  .614E+01  .602E+01  .603E+01
  .981E+01  .984E+01  .986E+01  .128E+02  .124E+02  .124E+02  .125E+02  .123E+02
  .123E+02  .121E+02  .674E+01  .679E+01  .681E+01  .684E+01  .686E+01  .693E+01
  .662E+01  .662E+01  .663E+01  .664E+01  .119E+02  .116E+02  .623E+01  .594E+01
  .594E+01  .594E+01  .594E+01  .594E+01  .594E+01  .594E+01  .594E+01  .594E+01
  .594E+01  .594E+01  .594E+01  .594E+01  .594E+01  .594E+01  .594E+01  .594E+01
  .594E+01  .594E+01  .594E+01  .594E+01  .594E+01  .594E+01  .594E+01  .594E+01
  .594E+01  .594E+01  .594E+01  .594E+01  .594E+01  .594E+01  .594E+01  .594E+01
  .594E+01  .594E+01  .594E+01  .000E+00  .000E+00  .000E+00  .000E+00  .000E+00
  .000E+00  .000E+00  .000E+00  .000E+00
  .660E+01  .660E+01  .660E+01  .660E+01  .660E+01  .687E+01  .691E+01  .692E+01
  .660E+01  .661E+01  .661E+01  .661E+01  .619E+01  .661E+01  .666E+01  .667E+01
  .667E+01  .668E+01  .695E+01  .718E+01  .670E+01  .671E+01  .664E+01  .665E+01
  .659E+01  .623E+01  .625E+01  .617E+01  .607E+01  .608E+01  .609E+01  .610E+01
  .990E+01  .993E+01  .996E+01  .129E+02  .127E+02  .123E+02  .124E+02  .124E+02
  .124E+02  .122E+02  .686E+01  .727E+01  .667E+01  .668E+01  .671E+01  .715E+01
  .676E+01  .600E+01  .600E+01  .600E+01  .600E+01  .600E+01  .600E+01  .600E+01
  .600E+01  .600E+01  .600E+01  .587E+01  .587E+01  .587E+01  .587E+01  .587E+01
  .587E+01  .587E+01  .587E+01  .587E+01  .587E+01  .587E+01  .587E+01  .587E+01
  .587E+01  .587E+01  .587E+01  .587E+01  .587E+01  .587E+01  .587E+01  .587E+01
  .587E+01  .587E+01  .587E+01  .587E+01  .587E+01  .587E+01  .587E+01  .587E+01
  .587E+01  .587E+01  .587E+01  .000E+00  .000E+00  .000E+00  .000E+00  .000E+00
  .000E+00  .000E+00  .000E+00  .000E+00
  .594E+01  .594E+01  .594E+01  .594E+01  .594E+01  .594E+01  .689E+01  .663E+01
  .662E+01  .663E+01  .663E+01  .663E+01  .663E+01  .663E+01  .664E+01  .664E+01
  .664E+01  .665E+01  .711E+01  .721E+01  .666E+01  .667E+01  .668E+01  .669E+01
  .627E+01  .628E+01  .630E+01  .611E+01  .613E+01  .614E+01  .602E+01  .603E+01
  .981E+01  .983E+01  .986E+01  .128E+02  .124E+02  .124E+02  .125E+02  .123E+02
  .123E+02  .121E+02  .673E+01  .678E+01  .680E+01  .682E+01  .684E+01  .692E+01
  .660E+01  .661E+01  .661E+01  .662E+01  .119E+02  .116E+02  .621E+01  .591E+01
  .591E+01  .591E+01  .591E+01  .591E+01  .591E+01  .591E+01  .591E+01  .591E+01
  .590E+01  .590E+01  .590E+01  .590E+01  .590E+01  .590E+01  .590E+01  .590E+01
  .590E+01  .590E+01  .589E+01  .589E+01  .589E+01  .589E+01  .589E+01  .589E+01
  .589E+01  .589E+01  .589E+01  .589E+01  .588E+01  .588E+01  .588E+01  .588E+01
  .588E+01  .588E+01  .588E+01  .000E+00  .000E+00  .000E+00  .000E+00  .000E+00
  .000E+00  .000E+00  .000E+00  .000E+00
/&   ----------  End of spectral data for channel  5  ----------
