Response and Fourier amplitude spectra (91 periods,  .04 - 15.0 sec)   for      
Corrected accelerogram   24723-M0130-01253.01       Chan 11: 270 Deg     from   
Uncorrected Accelerogram Data             Processed: 09/10/01, CDMG  td001      
Record of Sun Sep  9, 2001 16:59:20 PDT               (Avol1 v4.6  7/01 CSMIP)  
CSMIP Preliminary Processing            (Origin:  To be determined)             
24723-M0130-01253.01                 Start time:  9/09/01, 23:59:20.0 UTC (GPS) 
Station No. 24723   34.049N, 118.176W    MtWtny  s/n  130 (15 Channels)         
Los Angeles - 2-story County EOC Bldg                                           
Chan 11: 270 Deg                    Location: 2nd Floor: S Wall                 
Record of Sun Sep  9, 2001 16:59:20 PDT    Sun Sep  9, 2001 16:59:20 PDT        
Hypocenter:  To be determined.               ML:  To be determined.
Instr Period =  .0200 sec,  Damping =  .700,  Sensitivity =  .63  v/g
                        Record length = 44.000 sec.
                                     Uncor Max  =   .013 g, at  12.090 sec.
RMS accel of (uncor) record  =        .
Accelerogram bandpass filtered with 3 dB pts at   .30 and 40.00 cyc/sec
                 instrument- and baseline-corrected





Record of Sun Sep  9, 2001 16:59:20 PDT    Sun Sep  9, 2001 16:59:20 PDT

24723-M0130-01253.01      Los Angeles - 2-story County EOC Bldg   Chan 11: 270 D
eg
24723-M0130-01253.01      Los Angeles - 2-story County EOC Bldg   Chan 11: 270 D
eg
Units for spectra are inches and sec, except Sa is in fraction of g.

   11  100   11   15   15  200    1    3    1   24   13  130    024723    2    0
   23   59   20    0  252    9    9 2001   10    3  270 8800   39   37   72   14
 8800    0   50    3  130    1    1  440    1    0    0    0    0    0    0    0
    0    4    0    0 4400    2    0    0    0    0   72   37    0    0    0 4400
    0 4400   38   91    1   15    0    0    0    0   15    0    0    0    0    2
    2    2    4    0   71   99    0   32   32    0    0    1    0    0    0    0
  -99   -1    0    0
      .020      .700    44.000      .002      .000   625.000      .013    12.090
    50.000      .298      .477      .000     5.000      .000      .000      .000
     2.500    18.906      .020      .004     5.000    30.000      .000      .001
     -.005     -.007     2.000    15.000    34.049  -118.176      .025      .489
    19.361     -.030      .016  -999.000      .000      .000   -13.100      .000
  1000.000     1.073      .000      .000      .000      .000      .000      .000
     4.600     4.400      .000   980.665      .010    44.000     7.958      .000
      .000    40.000      .000    44.000      .010      .300      .000      .000
    12.080    12.387     6.530     1.077     6.380     -.105      .000      .300
    40.000      .010      .010      .000      .010      .048      .000      .000
      .063      .500      .018      .024      .009      .001      .000      .000
      .000      .000      .000      .000      .000      .000      .000      .000
      .000      .000      .000      .000
      .050
      .040      .042      .044      .046      .048      .050      .055      .060
      .065      .070      .075      .080      .085      .090      .095      .100
      .110      .120      .130      .140      .150      .160      .170      .180
      .190      .200      .220      .240      .260      .280      .300      .320
      .340      .360      .380      .400      .420      .440      .460      .480
      .500      .550      .600      .650      .700      .750      .800      .850
      .900      .950     1.000     1.100     1.200     1.300     1.400     1.500
     1.600     1.700     1.800     1.900     2.000     2.200     2.400     2.600
     2.800     3.000     3.200     3.400     3.600     3.800     4.000     4.200
     4.400     4.600     4.800     5.000     5.500     6.000     6.500     7.000
     7.500     8.000     8.500     9.000     9.500    10.000    11.000    12.000
    13.000    14.000    15.000      .000      .000      .000      .000      .000
      .000      .000      .000      .000
Fourier amplitude spectra in in/sec.
  .000E+00  .000E+00  .000E+00  .000E+00  .000E+00  .000E+00  .000E+00  .000E+00
  .000E+00  .000E+00  .000E+00  .000E+00  .000E+00  .000E+00  .000E+00  .000E+00
  .000E+00  .000E+00  .000E+00  .000E+00  .000E+00  .000E+00  .000E+00  .000E+00
  .000E+00  .000E+00  .000E+00  .000E+00  .000E+00  .000E+00  .000E+00  .000E+00
  .000E+00  .000E+00  .000E+00  .000E+00  .000E+00  .000E+00  .000E+00  .000E+00
  .000E+00  .000E+00  .000E+00  .000E+00  .000E+00  .000E+00  .000E+00  .000E+00
  .000E+00  .000E+00  .000E+00  .000E+00  .000E+00  .000E+00  .000E+00  .000E+00
  .000E+00  .000E+00  .000E+00  .000E+00  .000E+00  .000E+00  .000E+00  .000E+00
  .000E+00  .000E+00  .000E+00  .000E+00  .000E+00  .000E+00  .000E+00  .000E+00
  .000E+00  .000E+00  .000E+00  .000E+00  .000E+00  .000E+00  .000E+00  .000E+00
  .000E+00  .000E+00  .000E+00  .000E+00  .000E+00  .000E+00  .000E+00  .000E+00
  .000E+00  .000E+00  .000E+00  .000E+00  .000E+00  .000E+00  .000E+00  .000E+00
  .000E+00  .000E+00  .000E+00  .000E+00
Damping =  .05. Data of Sd,Sv,Sa,Pssv,ttSd,ttSv,ttSa :
  .202E-03  .224E-03  .243E-03  .265E-03  .291E-03  .319E-03  .392E-03  .461E-03
  .551E-03  .692E-03  .844E-03  .928E-03  .101E-02  .113E-02  .126E-02  .139E-02
  .159E-02  .195E-02  .239E-02  .308E-02  .342E-02  .395E-02  .462E-02  .542E-02
  .619E-02  .728E-02  .865E-02  .114E-01  .136E-01  .170E-01  .199E-01  .264E-01
  .326E-01  .454E-01  .497E-01  .744E-01  .964E-01  .111E+00  .116E+00  .113E+00
  .154E+00  .184E+00  .180E+00  .167E+00  .150E+00  .134E+00  .123E+00  .110E+00
  .979E-01  .892E-01  .852E-01  .774E-01  .700E-01  .632E-01  .577E-01  .544E-01
  .529E-01  .513E-01  .499E-01  .486E-01  .475E-01  .460E-01  .451E-01  .445E-01
  .440E-01  .436E-01  .433E-01  .431E-01  .430E-01  .429E-01  .429E-01  .429E-01
  .429E-01  .428E-01  .428E-01  .428E-01  .427E-01  .426E-01  .426E-01  .425E-01
  .424E-01  .423E-01  .423E-01  .422E-01  .422E-01  .422E-01  .421E-01  .421E-01
  .421E-01  .421E-01  .421E-01  .000E+00  .000E+00  .000E+00  .000E+00  .000E+00
  .000E+00  .000E+00  .000E+00  .000E+00
  .403E-02  .462E-02  .599E-02  .685E-02  .743E-02  .840E-02  .107E-01  .116E-01
  .180E-01  .236E-01  .295E-01  .318E-01  .311E-01  .277E-01  .271E-01  .303E-01
  .432E-01  .584E-01  .694E-01  .842E-01  .903E-01  .795E-01  .978E-01  .111E+00
  .121E+00  .115E+00  .145E+00  .190E+00  .216E+00  .241E+00  .313E+00  .398E+00
  .528E+00  .636E+00  .690E+00  .103E+01  .131E+01  .148E+01  .153E+01  .145E+01
  .189E+01  .215E+01  .198E+01  .171E+01  .150E+01  .132E+01  .112E+01  .102E+01
  .942E+00  .867E+00  .799E+00  .685E+00  .640E+00  .602E+00  .571E+00  .545E+00
  .524E+00  .508E+00  .495E+00  .485E+00  .477E+00  .467E+00  .460E+00  .454E+00
  .450E+00  .447E+00  .444E+00  .442E+00  .440E+00  .439E+00  .438E+00  .437E+00
  .436E+00  .435E+00  .434E+00  .433E+00  .432E+00  .430E+00  .430E+00  .429E+00
  .428E+00  .428E+00  .428E+00  .427E+00  .427E+00  .427E+00  .426E+00  .426E+00
  .426E+00  .426E+00  .426E+00  .000E+00  .000E+00  .000E+00  .000E+00  .000E+00
  .000E+00  .000E+00  .000E+00  .000E+00
  .130E-01  .130E-01  .129E-01  .128E-01  .129E-01  .131E-01  .133E-01  .131E-01
  .133E-01  .145E-01  .154E-01  .148E-01  .143E-01  .143E-01  .143E-01  .142E-01
  .135E-01  .139E-01  .145E-01  .162E-01  .156E-01  .158E-01  .164E-01  .171E-01
  .175E-01  .186E-01  .182E-01  .204E-01  .207E-01  .222E-01  .227E-01  .264E-01
  .289E-01  .359E-01  .353E-01  .478E-01  .561E-01  .591E-01  .563E-01  .505E-01
  .634E-01  .625E-01  .513E-01  .406E-01  .314E-01  .245E-01  .198E-01  .157E-01
  .125E-01  .102E-01  .880E-02  .662E-02  .504E-02  .389E-02  .307E-02  .254E-02
  .218E-02  .188E-02  .163E-02  .144E-02  .127E-02  .103E-02  .857E-03  .728E-03
  .628E-03  .549E-03  .486E-03  .434E-03  .391E-03  .356E-03  .325E-03  .299E-03
  .276E-03  .257E-03  .239E-03  .224E-03  .192E-03  .168E-03  .148E-03  .133E-03
  .120E-03  .110E-03  .101E-03  .933E-04  .868E-04  .811E-04  .716E-04  .641E-04
  .579E-04  .529E-04  .487E-04  .000E+00  .000E+00  .000E+00  .000E+00  .000E+00
  .000E+00  .000E+00  .000E+00  .000E+00
  .318E-01  .335E-01  .348E-01  .361E-01  .381E-01  .401E-01  .448E-01  .483E-01
  .533E-01  .621E-01  .707E-01  .729E-01  .749E-01  .787E-01  .836E-01  .873E-01
  .910E-01  .102E+00  .116E+00  .138E+00  .143E+00  .155E+00  .171E+00  .189E+00
  .205E+00  .229E+00  .247E+00  .299E+00  .330E+00  .382E+00  .417E+00  .517E+00
  .602E+00  .793E+00  .822E+00  .117E+01  .144E+01  .159E+01  .158E+01  .148E+01
  .194E+01  .210E+01  .188E+01  .161E+01  .134E+01  .112E+01  .964E+00  .815E+00
  .683E+00  .590E+00  .535E+00  .442E+00  .366E+00  .305E+00  .259E+00  .228E+00
  .208E+00  .190E+00  .174E+00  .161E+00  .149E+00  .131E+00  .118E+00  .107E+00
  .987E-01  .913E-01  .851E-01  .797E-01  .751E-01  .710E-01  .674E-01  .641E-01
  .612E-01  .585E-01  .561E-01  .538E-01  .488E-01  .447E-01  .411E-01  .381E-01
  .355E-01  .333E-01  .313E-01  .295E-01  .279E-01  .265E-01  .241E-01  .220E-01
  .203E-01  .189E-01  .176E-01  .000E+00  .000E+00  .000E+00  .000E+00  .000E+00
  .000E+00  .000E+00  .000E+00  .000E+00
  .121E+02  .121E+02  .121E+02  .123E+02  .123E+02  .123E+02  .123E+02  .123E+02
  .636E+01  .637E+01  .638E+01  .639E+01  .632E+01  .123E+02  .123E+02  .123E+02
  .123E+02  .692E+01  .727E+01  .728E+01  .694E+01  .123E+02  .123E+02  .123E+02
  .123E+02  .694E+01  .639E+01  .695E+01  .612E+01  .123E+02  .123E+02  .123E+02
  .101E+02  .123E+02  .123E+02  .123E+02  .126E+02  .126E+02  .126E+02  .129E+02
  .127E+02  .127E+02  .770E+01  .747E+01  .720E+01  .691E+01  .693E+01  .695E+01
  .696E+01  .664E+01  .665E+01  .666E+01  .667E+01  .668E+01  .668E+01  .636E+01
  .636E+01  .636E+01  .636E+01  .636E+01  .636E+01  .636E+01  .636E+01  .636E+01
  .636E+01  .636E+01  .636E+01  .636E+01  .636E+01  .636E+01  .636E+01  .636E+01
  .636E+01  .636E+01  .636E+01  .636E+01  .636E+01  .636E+01  .637E+01  .637E+01
  .637E+01  .637E+01  .637E+01  .637E+01  .637E+01  .637E+01  .637E+01  .637E+01
  .637E+01  .637E+01  .637E+01  .000E+00  .000E+00  .000E+00  .000E+00  .000E+00
  .000E+00  .000E+00  .000E+00  .000E+00
  .710E+01  .122E+02  .122E+02  .122E+02  .627E+01  .627E+01  .122E+02  .122E+02
  .628E+01  .628E+01  .628E+01  .649E+01  .630E+01  .630E+01  .707E+01  .706E+01
  .787E+01  .708E+01  .709E+01  .710E+01  .734E+01  .736E+01  .790E+01  .792E+01
  .714E+01  .699E+01  .602E+01  .603E+01  .761E+01  .621E+01  .623E+01  .100E+02
  .101E+02  .124E+02  .124E+02  .125E+02  .125E+02  .127E+02  .128E+02  .128E+02
  .128E+02  .126E+02  .756E+01  .732E+01  .705E+01  .707E+01  .709E+01  .680E+01
  .681E+01  .681E+01  .682E+01  .682E+01  .651E+01  .651E+01  .651E+01  .651E+01
  .651E+01  .651E+01  .652E+01  .652E+01  .652E+01  .652E+01  .652E+01  .652E+01
  .652E+01  .652E+01  .652E+01  .652E+01  .652E+01  .652E+01  .652E+01  .652E+01
  .652E+01  .652E+01  .652E+01  .652E+01  .652E+01  .652E+01  .652E+01  .652E+01
  .652E+01  .652E+01  .652E+01  .652E+01  .652E+01  .652E+01  .652E+01  .652E+01
  .652E+01  .652E+01  .652E+01  .000E+00  .000E+00  .000E+00  .000E+00  .000E+00
  .000E+00  .000E+00  .000E+00  .000E+00
  .121E+02  .121E+02  .121E+02  .123E+02  .123E+02  .123E+02  .123E+02  .123E+02
  .636E+01  .637E+01  .638E+01  .639E+01  .632E+01  .123E+02  .123E+02  .123E+02
  .123E+02  .692E+01  .727E+01  .728E+01  .694E+01  .123E+02  .123E+02  .123E+02
  .123E+02  .694E+01  .639E+01  .695E+01  .611E+01  .123E+02  .123E+02  .123E+02
  .101E+02  .123E+02  .123E+02  .123E+02  .126E+02  .126E+02  .126E+02  .129E+02
  .127E+02  .127E+02  .769E+01  .746E+01  .719E+01  .690E+01  .692E+01  .693E+01
  .695E+01  .663E+01  .664E+01  .665E+01  .665E+01  .665E+01  .666E+01  .633E+01
  .633E+01  .633E+01  .633E+01  .633E+01  .633E+01  .633E+01  .633E+01  .632E+01
  .632E+01  .632E+01  .632E+01  .631E+01  .631E+01  .631E+01  .631E+01  .631E+01
  .630E+01  .630E+01  .630E+01  .630E+01  .629E+01  .629E+01  .628E+01  .628E+01
  .628E+01  .628E+01  .627E+01  .627E+01  .627E+01  .627E+01  .627E+01  .627E+01
  .627E+01  .626E+01  .626E+01  .000E+00  .000E+00  .000E+00  .000E+00  .000E+00
  .000E+00  .000E+00  .000E+00  .000E+00
/&   ----------  End of spectral data for channel 11  ----------
