Response and Fourier amplitude spectra (91 periods,  .04 - 15.0 sec)   for      
Corrected accelerogram   24689-F0847-01252.02       Chan  1:  Up         from   
Uncorrected Accelerogram Data             Processed: 09/10/01, CDMG  s689e02    
Earthquake of Sun Sep  9, 2001  17:00 PDT             (Avol1 v4.6  7/01 CSMIP)  
CSMIP Preliminary Processing            (Origin:  To be determined)             
24689-F0847-01252.02                 Start time:  9/10/01, 00:00 GMT (*LoQ*)    
Station No. 24689   34.150N, 118.154W     SSA-2  s/n  847  (3 Channels)         
Pasadena - I210/Hwy134 Interchnge Bridge                                        
Chan  1:  Up                        Location: South Abutment                    
Earthquake of Sun Sep  9, 2001  17:00 PDT    Sun Sep  9, 2001  17:00 PDT        
Hypocenter:  To be determined.               ML:  To be determined.
Instr Period =  .0222 sec,  Damping =  .700,  Sensitivity = 1.25  v/g
                        Record length = 67.840 sec.
                                     Uncor Max  =   .017 g, at   6.005 sec.
RMS accel of (uncor) record  =        .
Accelerogram bandpass filtered with 3 dB pts at   .30 and 40.00 cyc/sec
                 instrument- and baseline-corrected





Earthquake of Sun Sep  9, 2001  17:00 PDT    Sun Sep  9, 2001  17:00 PDT

24689-F0847-01252.02      Pasadena - I210/Hwy134 Interchnge Bridge    Chan  1:
Up
24689-F0847-01252.02      Pasadena - I210/Hwy134 Interchnge Bridge    Chan  1:
Up
Units for spectra are inches and sec, except Sa is in fraction of g.

    1  100    1    3    6  200    1    3    1   12    6  847    024689    3    0
    0    0   30  140  253    9   10 2001    0    1  50013568   41   40   72   40
13568    1   50    0 3117    1    2   53    0    0    0   30  140    9   10 2001
    0    0    0    0 6784    2    0    0    0    0   72   40    0    0    0 6784
    0 6784   41   91    1    3    0    0    0    0    6    0    0    0    0    2
    2    2    4    0   66   99    1   32   32    0    0    0    0    0    9  130
  -99   -1    0    0
      .022      .700    67.840      .001      .000  1250.000      .017     6.005
    45.000  1220.703   976.563      .000     5.000      .000      .000      .000
     2.500   -33.739     -.028     -.063     5.120    30.000      .000      .003
      .008      .005     2.000    15.000    34.150  -118.154     1.139      .552
      .485     -.144      .154  -999.000      .000      .000      .000      .000
     1.356    -1.036      .000      .000      .000      .000      .000      .000
     4.600     4.400      .000   980.665      .010    67.840     7.162      .000
      .000    40.000      .000    67.840      .010      .300      .000      .000
     6.000    16.872     6.020      .356     5.210     -.020      .000      .300
    40.000      .010      .010      .001      .010      .016      .000      .000
      .074      .150      .032      .014      .001      .000      .000      .000
      .000      .000      .000      .000      .000      .000      .000      .000
      .000      .000      .000      .000
      .050
      .040      .042      .044      .046      .048      .050      .055      .060
      .065      .070      .075      .080      .085      .090      .095      .100
      .110      .120      .130      .140      .150      .160      .170      .180
      .190      .200      .220      .240      .260      .280      .300      .320
      .340      .360      .380      .400      .420      .440      .460      .480
      .500      .550      .600      .650      .700      .750      .800      .850
      .900      .950     1.000     1.100     1.200     1.300     1.400     1.500
     1.600     1.700     1.800     1.900     2.000     2.200     2.400     2.600
     2.800     3.000     3.200     3.400     3.600     3.800     4.000     4.200
     4.400     4.600     4.800     5.000     5.500     6.000     6.500     7.000
     7.500     8.000     8.500     9.000     9.500    10.000    11.000    12.000
    13.000    14.000    15.000      .000      .000      .000      .000      .000
      .000      .000      .000      .000
Fourier amplitude spectra in in/sec.
  .000E+00  .000E+00  .000E+00  .000E+00  .000E+00  .000E+00  .000E+00  .000E+00
  .000E+00  .000E+00  .000E+00  .000E+00  .000E+00  .000E+00  .000E+00  .000E+00
  .000E+00  .000E+00  .000E+00  .000E+00  .000E+00  .000E+00  .000E+00  .000E+00
  .000E+00  .000E+00  .000E+00  .000E+00  .000E+00  .000E+00  .000E+00  .000E+00
  .000E+00  .000E+00  .000E+00  .000E+00  .000E+00  .000E+00  .000E+00  .000E+00
  .000E+00  .000E+00  .000E+00  .000E+00  .000E+00  .000E+00  .000E+00  .000E+00
  .000E+00  .000E+00  .000E+00  .000E+00  .000E+00  .000E+00  .000E+00  .000E+00
  .000E+00  .000E+00  .000E+00  .000E+00  .000E+00  .000E+00  .000E+00  .000E+00
  .000E+00  .000E+00  .000E+00  .000E+00  .000E+00  .000E+00  .000E+00  .000E+00
  .000E+00  .000E+00  .000E+00  .000E+00  .000E+00  .000E+00  .000E+00  .000E+00
  .000E+00  .000E+00  .000E+00  .000E+00  .000E+00  .000E+00  .000E+00  .000E+00
  .000E+00  .000E+00  .000E+00  .000E+00  .000E+00  .000E+00  .000E+00  .000E+00
  .000E+00  .000E+00  .000E+00  .000E+00
Damping =  .05. Data of Sd,Sv,Sa,Pssv,ttSd,ttSv,ttSa :
  .304E-03  .324E-03  .361E-03  .414E-03  .477E-03  .531E-03  .768E-03  .109E-02
  .139E-02  .183E-02  .234E-02  .291E-02  .313E-02  .245E-02  .221E-02  .272E-02
  .386E-02  .564E-02  .868E-02  .112E-01  .161E-01  .176E-01  .153E-01  .133E-01
  .138E-01  .125E-01  .109E-01  .118E-01  .997E-02  .111E-01  .133E-01  .125E-01
  .167E-01  .214E-01  .213E-01  .226E-01  .237E-01  .227E-01  .177E-01  .164E-01
  .167E-01  .134E-01  .139E-01  .123E-01  .118E-01  .130E-01  .162E-01  .131E-01
  .134E-01  .143E-01  .136E-01  .142E-01  .177E-01  .273E-01  .172E-01  .130E-01
  .111E-01  .132E-01  .168E-01  .152E-01  .148E-01  .145E-01  .140E-01  .116E-01
  .111E-01  .145E-01  .159E-01  .179E-01  .159E-01  .155E-01  .127E-01  .115E-01
  .118E-01  .135E-01  .131E-01  .109E-01  .120E-01  .128E-01  .130E-01  .130E-01
  .127E-01  .124E-01  .119E-01  .114E-01  .110E-01  .105E-01  .962E-02  .884E-02
  .815E-02  .774E-02  .776E-02  .000E+00  .000E+00  .000E+00  .000E+00  .000E+00
  .000E+00  .000E+00  .000E+00  .000E+00
  .240E-01  .274E-01  .274E-01  .289E-01  .336E-01  .377E-01  .651E-01  .733E-01
  .101E+00  .142E+00  .163E+00  .192E+00  .196E+00  .151E+00  .117E+00  .122E+00
  .167E+00  .239E+00  .369E+00  .476E+00  .663E+00  .693E+00  .601E+00  .538E+00
  .500E+00  .440E+00  .347E+00  .333E+00  .261E+00  .283E+00  .293E+00  .292E+00
  .324E+00  .417E+00  .427E+00  .395E+00  .487E+00  .436E+00  .325E+00  .287E+00
  .267E+00  .233E+00  .225E+00  .220E+00  .213E+00  .212E+00  .204E+00  .199E+00
  .199E+00  .199E+00  .194E+00  .171E+00  .148E+00  .139E+00  .136E+00  .135E+00
  .134E+00  .136E+00  .142E+00  .146E+00  .148E+00  .144E+00  .143E+00  .143E+00
  .139E+00  .135E+00  .136E+00  .137E+00  .137E+00  .136E+00  .137E+00  .139E+00
  .141E+00  .142E+00  .143E+00  .144E+00  .144E+00  .143E+00  .142E+00  .141E+00
  .140E+00  .139E+00  .139E+00  .138E+00  .138E+00  .137E+00  .137E+00  .137E+00
  .137E+00  .137E+00  .137E+00  .000E+00  .000E+00  .000E+00  .000E+00  .000E+00
  .000E+00  .000E+00  .000E+00  .000E+00
  .195E-01  .188E-01  .192E-01  .200E-01  .211E-01  .219E-01  .263E-01  .309E-01
  .335E-01  .387E-01  .424E-01  .471E-01  .443E-01  .312E-01  .251E-01  .281E-01
  .330E-01  .400E-01  .524E-01  .589E-01  .744E-01  .703E-01  .549E-01  .426E-01
  .394E-01  .325E-01  .229E-01  .211E-01  .151E-01  .145E-01  .152E-01  .125E-01
  .149E-01  .171E-01  .152E-01  .146E-01  .139E-01  .120E-01  .864E-02  .732E-02
  .689E-02  .457E-02  .398E-02  .300E-02  .249E-02  .239E-02  .262E-02  .187E-02
  .175E-02  .169E-02  .146E-02  .123E-02  .126E-02  .166E-02  .904E-03  .594E-03
  .446E-03  .471E-03  .533E-03  .436E-03  .382E-03  .309E-03  .250E-03  .178E-03
  .148E-03  .167E-03  .163E-03  .162E-03  .128E-03  .112E-03  .898E-04  .815E-04
  .757E-04  .699E-04  .638E-04  .577E-04  .535E-04  .486E-04  .434E-04  .385E-04
  .353E-04  .334E-04  .315E-04  .295E-04  .276E-04  .258E-04  .226E-04  .200E-04
  .179E-04  .162E-04  .148E-04  .000E+00  .000E+00  .000E+00  .000E+00  .000E+00
  .000E+00  .000E+00  .000E+00  .000E+00
  .478E-01  .485E-01  .515E-01  .565E-01  .625E-01  .667E-01  .877E-01  .114E+00
  .134E+00  .164E+00  .196E+00  .229E+00  .231E+00  .171E+00  .146E+00  .171E+00
  .221E+00  .295E+00  .419E+00  .504E+00  .675E+00  .692E+00  .567E+00  .466E+00
  .456E+00  .392E+00  .310E+00  .309E+00  .241E+00  .249E+00  .278E+00  .245E+00
  .309E+00  .374E+00  .352E+00  .355E+00  .354E+00  .324E+00  .242E+00  .214E+00
  .209E+00  .153E+00  .146E+00  .119E+00  .106E+00  .109E+00  .127E+00  .967E-01
  .933E-01  .945E-01  .855E-01  .811E-01  .926E-01  .132E+00  .773E-01  .543E-01
  .435E-01  .488E-01  .585E-01  .504E-01  .465E-01  .413E-01  .366E-01  .281E-01
  .250E-01  .303E-01  .313E-01  .331E-01  .277E-01  .257E-01  .199E-01  .173E-01
  .169E-01  .184E-01  .172E-01  .137E-01  .137E-01  .134E-01  .126E-01  .117E-01
  .107E-01  .971E-02  .881E-02  .799E-02  .726E-02  .660E-02  .550E-02  .463E-02
  .394E-02  .347E-02  .325E-02  .000E+00  .000E+00  .000E+00  .000E+00  .000E+00
  .000E+00  .000E+00  .000E+00  .000E+00
  .600E+01  .600E+01  .629E+01  .600E+01  .600E+01  .600E+01  .600E+01  .614E+01
  .614E+01  .619E+01  .620E+01  .605E+01  .607E+01  .591E+01  .621E+01  .606E+01
  .621E+01  .621E+01  .622E+01  .630E+01  .631E+01  .633E+01  .634E+01  .611E+01
  .612E+01  .604E+01  .705E+01  .697E+01  .699E+01  .653E+01  .540E+01  .541E+01
  .581E+01  .656E+01  .700E+01  .627E+01  .629E+01  .572E+01  .597E+01  .597E+01
  .598E+01  .690E+01  .533E+01  .534E+01  .535E+01  .861E+01  .863E+01  .865E+01
  .598E+01  .598E+01  .599E+01  .519E+01  .542E+02  .557E+02  .462E+02  .470E+02
  .470E+02  .463E+02  .502E+02  .495E+02  .527E+02  .240E+02  .603E+02  .631E+02
  .548E+02  .451E+02  .442E+02  .443E+02  .443E+02  .540E+02  .398E+02  .845E+01
  .845E+01  .514E+02  .514E+02  .335E+02  .520E+01  .520E+01  .520E+01  .520E+01
  .520E+01  .520E+01  .520E+01  .520E+01  .520E+01  .520E+01  .520E+01  .520E+01
  .520E+01  .239E+01  .239E+01  .000E+00  .000E+00  .000E+00  .000E+00  .000E+00
  .000E+00  .000E+00  .000E+00  .000E+00
  .595E+02  .602E+01  .602E+01  .602E+01  .602E+01  .602E+01  .602E+01  .613E+01
  .616E+01  .617E+01  .618E+01  .603E+01  .605E+01  .593E+01  .594E+01  .609E+01
  .623E+01  .624E+01  .639E+01  .634E+01  .635E+01  .629E+01  .630E+01  .615E+01
  .616E+01  .609E+01  .584E+01  .703E+01  .669E+01  .659E+01  .533E+01  .585E+01
  .586E+01  .650E+01  .651E+01  .601E+01  .601E+01  .602E+01  .602E+01  .602E+01
  .567E+01  .568E+01  .525E+01  .525E+01  .525E+01  .525E+01  .526E+01  .526E+01
  .526E+01  .526E+01  .526E+01  .526E+01  .526E+01  .625E+01  .625E+01  .601E+01
  .601E+01  .526E+01  .526E+01  .526E+01  .526E+01  .526E+01  .601E+01  .601E+01
  .601E+01  .601E+01  .625E+01  .625E+01  .625E+01  .526E+01  .526E+01  .601E+01
  .601E+01  .601E+01  .601E+01  .601E+01  .601E+01  .601E+01  .601E+01  .601E+01
  .601E+01  .601E+01  .601E+01  .601E+01  .601E+01  .601E+01  .601E+01  .601E+01
  .601E+01  .601E+01  .601E+01  .000E+00  .000E+00  .000E+00  .000E+00  .000E+00
  .000E+00  .000E+00  .000E+00  .000E+00
  .600E+01  .600E+01  .629E+01  .600E+01  .600E+01  .599E+01  .600E+01  .614E+01
  .614E+01  .619E+01  .620E+01  .605E+01  .607E+01  .591E+01  .621E+01  .606E+01
  .620E+01  .621E+01  .622E+01  .630E+01  .631E+01  .633E+01  .634E+01  .611E+01
  .612E+01  .604E+01  .704E+01  .697E+01  .699E+01  .653E+01  .539E+01  .541E+01
  .580E+01  .656E+01  .699E+01  .627E+01  .629E+01  .571E+01  .596E+01  .597E+01
  .597E+01  .689E+01  .532E+01  .533E+01  .533E+01  .860E+01  .862E+01  .864E+01
  .597E+01  .597E+01  .597E+01  .518E+01  .542E+02  .557E+02  .462E+02  .470E+02
  .470E+02  .463E+02  .501E+02  .495E+02  .527E+02  .240E+02  .603E+02  .517E+01
  .547E+02  .450E+02  .442E+02  .443E+02  .443E+02  .540E+02  .569E+01  .569E+01
  .602E+01  .617E+01  .617E+01  .617E+01  .517E+01  .516E+01  .516E+01  .516E+01
  .626E+01  .625E+01  .625E+01  .625E+01  .625E+01  .625E+01  .625E+01  .625E+01
  .625E+01  .625E+01  .625E+01  .000E+00  .000E+00  .000E+00  .000E+00  .000E+00
  .000E+00  .000E+00  .000E+00  .000E+00
/&   ----------  End of spectral data for channel  1  ----------
