Response and Fourier amplitude spectra (91 periods,  .04 - 15.0 sec)   for      
Corrected accelerogram   24023-L1822-01248.05       Chan  1:   0 Deg     from   
Uncorrected Accelerogram Data             Processed: 09/10/01, CDMG  023as005   
Record of Sun Sep  9, 2001 16:59:21 PDT               (Avol1 v4.6  7/01 CSMIP)  
CSMIP Preliminary Processing            (Origin:  To be determined)             
24023-L1822-01248.05                 Start time:  9/09/01, 23:59:21.0 UTC (GPS) 
Station No. 24023   34.165N, 118.150W      Etna  s/n 1822  (3 Channels)         
Pasadena - Fair Oaks & Hammond                                                  
Chan  1:   0 Deg                                                                
Record of Sun Sep  9, 2001 16:59:21 PDT    Sun Sep  9, 2001 16:59:21 PDT        
Hypocenter:  To be determined.               ML:  To be determined.             
Instr Period =  .0101 sec,  Damping =  .670,  Sensitivity =  .63  v/g           
                        Record length = 38.000 sec.                             
                                     Uncor Max  =   .006 g, at   6.095 sec.     
RMS accel of (uncor) record  =        .                                         
Accelerogram bandpass filtered with 3 dB pts at   .30 and 40.00 cyc/sec         
                 instrument- and baseline-corrected                             
                                                                                
                                                                                
                                                                                
                                                                                
                                                                                
Record of Sun Sep  9, 2001 16:59:21 PDT    Sun Sep  9, 2001 16:59:21 PDT        
                                                                                
24023-L1822-01248.05      Pasadena - Fair Oaks & Hammond    Chan  1:   0 Deg    
                                                                                
24023-L1822-01248.05      Pasadena - Fair Oaks & Hammond    Chan  1:   0 Deg    
                                                                                
Units for spectra are inches and sec, except Sa is in fraction of g.            
                                                                                
    1  100    1    3    3  200    1    3    1   24   12 1822    024023    1    0
   23   59   21    0  252    9    9 2001   10    3    0 7600   39   30   72 -999
 7600    1   50    3 1822    1    5  380    1    0    0    0    0    0    0    0
    0    4    0    0 3800    2    0    0    0    0   72   30    0    0    0 3800
    0 3800   31   91    1    3    0    0    0    0    3    0    0    0    0    2
    2    2    4    0   32   99 -999   32   32    0    0    1    0    0    0    0
  -99   -1    0    0
      .010      .670    38.000      .001      .000   625.000      .006     6.095
    98.900      .298      .477      .000     5.000      .000      .000      .000
     2.500   -21.487     -.010     -.017     5.000    30.000      .000     -.004
      .002      .006     2.000    15.000    34.165  -118.150      .440      .160
      .364     -.051      .063  -999.000      .000      .000   -13.500      .000
  1000.000     1.081      .000      .000      .000      .000      .000      .000
     4.600     4.400      .000   980.665      .010    38.000    15.740      .000
      .000    40.000      .000    38.000      .010      .300      .000      .000
     6.090     6.148     6.150      .227     7.690     -.017      .000      .300
    40.000      .010      .010      .000      .010      .008      .000      .000
      .024      .090      .021      .012      .002      .000      .000      .000
      .000      .000      .000      .000      .000      .000      .000      .000
      .000      .000      .000      .000
      .050
      .040      .042      .044      .046      .048      .050      .055      .060
      .065      .070      .075      .080      .085      .090      .095      .100
      .110      .120      .130      .140      .150      .160      .170      .180
      .190      .200      .220      .240      .260      .280      .300      .320
      .340      .360      .380      .400      .420      .440      .460      .480
      .500      .550      .600      .650      .700      .750      .800      .850
      .900      .950     1.000     1.100     1.200     1.300     1.400     1.500
     1.600     1.700     1.800     1.900     2.000     2.200     2.400     2.600
     2.800     3.000     3.200     3.400     3.600     3.800     4.000     4.200
     4.400     4.600     4.800     5.000     5.500     6.000     6.500     7.000
     7.500     8.000     8.500     9.000     9.500    10.000    11.000    12.000
    13.000    14.000    15.000      .000      .000      .000      .000      .000
      .000      .000      .000      .000
Fourier amplitude spectra in in/sec.
  .000E+00  .000E+00  .000E+00  .000E+00  .000E+00  .000E+00  .000E+00  .000E+00
  .000E+00  .000E+00  .000E+00  .000E+00  .000E+00  .000E+00  .000E+00  .000E+00
  .000E+00  .000E+00  .000E+00  .000E+00  .000E+00  .000E+00  .000E+00  .000E+00
  .000E+00  .000E+00  .000E+00  .000E+00  .000E+00  .000E+00  .000E+00  .000E+00
  .000E+00  .000E+00  .000E+00  .000E+00  .000E+00  .000E+00  .000E+00  .000E+00
  .000E+00  .000E+00  .000E+00  .000E+00  .000E+00  .000E+00  .000E+00  .000E+00
  .000E+00  .000E+00  .000E+00  .000E+00  .000E+00  .000E+00  .000E+00  .000E+00
  .000E+00  .000E+00  .000E+00  .000E+00  .000E+00  .000E+00  .000E+00  .000E+00
  .000E+00  .000E+00  .000E+00  .000E+00  .000E+00  .000E+00  .000E+00  .000E+00
  .000E+00  .000E+00  .000E+00  .000E+00  .000E+00  .000E+00  .000E+00  .000E+00
  .000E+00  .000E+00  .000E+00  .000E+00  .000E+00  .000E+00  .000E+00  .000E+00
  .000E+00  .000E+00  .000E+00  .000E+00  .000E+00  .000E+00  .000E+00  .000E+00
  .000E+00  .000E+00  .000E+00  .000E+00
Damping =  .05. Data of Sd,Sv,Sa,Pssv,ttSd,ttSv,ttSa :
  .128E-03  .146E-03  .164E-03  .175E-03  .198E-03  .228E-03  .293E-03  .435E-03
  .636E-03  .930E-03  .968E-03  .118E-02  .151E-02  .188E-02  .196E-02  .183E-02
  .200E-02  .242E-02  .234E-02  .357E-02  .459E-02  .572E-02  .644E-02  .637E-02
  .675E-02  .849E-02  .108E-01  .122E-01  .113E-01  .908E-02  .948E-02  .119E-01
  .984E-02  .965E-02  .125E-01  .149E-01  .156E-01  .129E-01  .115E-01  .120E-01
  .112E-01  .108E-01  .148E-01  .133E-01  .122E-01  .129E-01  .166E-01  .205E-01
  .218E-01  .205E-01  .214E-01  .151E-01  .131E-01  .115E-01  .114E-01  .128E-01
  .127E-01  .108E-01  .892E-02  .787E-02  .745E-02  .681E-02  .653E-02  .686E-02
  .722E-02  .783E-02  .810E-02  .809E-02  .794E-02  .774E-02  .755E-02  .740E-02
  .730E-02  .722E-02  .716E-02  .712E-02  .704E-02  .697E-02  .693E-02  .690E-02
  .688E-02  .688E-02  .690E-02  .691E-02  .693E-02  .695E-02  .699E-02  .703E-02
  .705E-02  .707E-02  .710E-02  .000E+00  .000E+00  .000E+00  .000E+00  .000E+00
  .000E+00  .000E+00  .000E+00  .000E+00
  .970E-02  .117E-01  .136E-01  .143E-01  .155E-01  .176E-01  .265E-01  .393E-01
  .557E-01  .710E-01  .610E-01  .758E-01  .969E-01  .119E+00  .124E+00  .114E+00
  .109E+00  .130E+00  .113E+00  .134E+00  .172E+00  .200E+00  .226E+00  .200E+00
  .213E+00  .276E+00  .317E+00  .327E+00  .273E+00  .232E+00  .214E+00  .224E+00
  .224E+00  .189E+00  .196E+00  .231E+00  .240E+00  .225E+00  .198E+00  .190E+00
  .168E+00  .164E+00  .156E+00  .141E+00  .142E+00  .140E+00  .165E+00  .194E+00
  .191E+00  .189E+00  .156E+00  .145E+00  .125E+00  .116E+00  .113E+00  .107E+00
  .103E+00  .106E+00  .103E+00  .989E-01  .962E-01  .931E-01  .899E-01  .873E-01
  .873E-01  .880E-01  .886E-01  .892E-01  .895E-01  .897E-01  .898E-01  .898E-01
  .897E-01  .897E-01  .896E-01  .895E-01  .894E-01  .894E-01  .893E-01  .893E-01
  .892E-01  .892E-01  .891E-01  .891E-01  .891E-01  .890E-01  .890E-01  .889E-01
  .889E-01  .889E-01  .889E-01  .000E+00  .000E+00  .000E+00  .000E+00  .000E+00
  .000E+00  .000E+00  .000E+00  .000E+00
  .823E-02  .846E-02  .868E-02  .851E-02  .878E-02  .932E-02  .982E-02  .125E-01
  .156E-01  .196E-01  .175E-01  .190E-01  .215E-01  .237E-01  .224E-01  .190E-01
  .168E-01  .174E-01  .144E-01  .188E-01  .208E-01  .227E-01  .230E-01  .200E-01
  .194E-01  .220E-01  .230E-01  .219E-01  .171E-01  .120E-01  .108E-01  .120E-01
  .881E-02  .768E-02  .890E-02  .958E-02  .909E-02  .682E-02  .559E-02  .536E-02
  .461E-02  .368E-02  .422E-02  .324E-02  .257E-02  .237E-02  .267E-02  .292E-02
  .277E-02  .233E-02  .221E-02  .129E-02  .939E-03  .706E-03  .618E-03  .607E-03
  .531E-03  .406E-03  .304E-03  .245E-03  .212E-03  .167E-03  .134E-03  .120E-03
  .116E-03  .110E-03  .102E-03  .923E-04  .829E-04  .747E-04  .677E-04  .619E-04
  .570E-04  .529E-04  .494E-04  .463E-04  .401E-04  .354E-04  .317E-04  .286E-04
  .261E-04  .240E-04  .222E-04  .206E-04  .193E-04  .181E-04  .161E-04  .145E-04
  .132E-04  .121E-04  .111E-04  .000E+00  .000E+00  .000E+00  .000E+00  .000E+00
  .000E+00  .000E+00  .000E+00  .000E+00
  .202E-01  .219E-01  .234E-01  .239E-01  .259E-01  .286E-01  .335E-01  .456E-01
  .615E-01  .835E-01  .811E-01  .929E-01  .111E+00  .131E+00  .129E+00  .115E+00
  .114E+00  .127E+00  .113E+00  .160E+00  .192E+00  .225E+00  .238E+00  .222E+00
  .223E+00  .267E+00  .309E+00  .320E+00  .272E+00  .204E+00  .199E+00  .234E+00
  .182E+00  .168E+00  .206E+00  .233E+00  .234E+00  .184E+00  .157E+00  .158E+00
  .141E+00  .123E+00  .155E+00  .129E+00  .110E+00  .108E+00  .130E+00  .152E+00
  .152E+00  .135E+00  .135E+00  .863E-01  .685E-01  .558E-01  .514E-01  .537E-01
  .498E-01  .400E-01  .311E-01  .260E-01  .234E-01  .195E-01  .171E-01  .166E-01
  .162E-01  .164E-01  .159E-01  .150E-01  .139E-01  .128E-01  .119E-01  .111E-01
  .104E-01  .986E-02  .937E-02  .894E-02  .804E-02  .730E-02  .669E-02  .619E-02
  .576E-02  .541E-02  .510E-02  .482E-02  .458E-02  .437E-02  .399E-02  .368E-02
  .341E-02  .317E-02  .297E-02  .000E+00  .000E+00  .000E+00  .000E+00  .000E+00
  .000E+00  .000E+00  .000E+00  .000E+00
  .537E+01  .538E+01  .587E+01  .618E+01  .673E+01  .673E+01  .618E+01  .532E+01
  .532E+01  .586E+01  .599E+01  .599E+01  .538E+01  .538E+01  .539E+01  .539E+01
  .737E+01  .738E+01  .661E+01  .662E+01  .664E+01  .674E+01  .694E+01  .621E+01
  .695E+01  .696E+01  .679E+01  .627E+01  .643E+01  .645E+01  .771E+01  .774E+01
  .683E+01  .775E+01  .776E+01  .840E+01  .843E+01  .826E+01  .828E+01  .829E+01
  .810E+01  .595E+01  .126E+02  .123E+02  .121E+02  .121E+02  .785E+01  .793E+01
  .797E+01  .903E+01  .912E+01  .916E+01  .919E+01  .877E+01  .886E+01  .767E+01
  .768E+01  .768E+01  .768E+01  .768E+01  .768E+01  .768E+01  .548E+01  .833E+01
  .767E+01  .767E+01  .767E+01  .768E+01  .768E+01  .768E+01  .768E+01  .768E+01
  .768E+01  .768E+01  .768E+01  .768E+01  .768E+01  .768E+01  .768E+01  .768E+01
  .768E+01  .768E+01  .768E+01  .768E+01  .768E+01  .768E+01  .768E+01  .768E+01
  .768E+01  .768E+01  .768E+01  .000E+00  .000E+00  .000E+00  .000E+00  .000E+00
  .000E+00  .000E+00  .000E+00  .000E+00
  .641E+01  .539E+01  .539E+01  .580E+01  .216E+01  .215E+01  .216E+01  .572E+01
  .534E+01  .584E+01  .589E+01  .602E+01  .540E+01  .541E+01  .541E+01  .542E+01
  .740E+01  .741E+01  .525E+01  .659E+01  .668E+01  .678E+01  .680E+01  .617E+01
  .691E+01  .692E+01  .684E+01  .620E+01  .611E+01  .725E+01  .687E+01  .781E+01
  .676E+01  .678E+01  .846E+01  .770E+01  .835E+01  .837E+01  .837E+01  .818E+01
  .819E+01  .602E+01  .121E+02  .125E+02  .657E+01  .590E+01  .803E+01  .771E+01
  .772E+01  .924E+01  .924E+01  .614E+01  .614E+01  .614E+01  .614E+01  .614E+01
  .761E+01  .761E+01  .761E+01  .761E+01  .761E+01  .761E+01  .761E+01  .761E+01
  .614E+01  .614E+01  .614E+01  .614E+01  .614E+01  .614E+01  .614E+01  .614E+01
  .614E+01  .614E+01  .614E+01  .614E+01  .614E+01  .614E+01  .614E+01  .614E+01
  .614E+01  .614E+01  .614E+01  .614E+01  .614E+01  .614E+01  .614E+01  .614E+01
  .614E+01  .614E+01  .614E+01  .000E+00  .000E+00  .000E+00  .000E+00  .000E+00
  .000E+00  .000E+00  .000E+00  .000E+00
  .537E+01  .537E+01  .587E+01  .618E+01  .673E+01  .673E+01  .618E+01  .573E+01
  .532E+01  .586E+01  .598E+01  .599E+01  .538E+01  .538E+01  .539E+01  .539E+01
  .731E+01  .738E+01  .522E+01  .662E+01  .664E+01  .674E+01  .693E+01  .620E+01
  .695E+01  .696E+01  .679E+01  .626E+01  .642E+01  .644E+01  .771E+01  .773E+01
  .683E+01  .774E+01  .775E+01  .840E+01  .843E+01  .845E+01  .827E+01  .828E+01
  .810E+01  .595E+01  .126E+02  .123E+02  .120E+02  .121E+02  .784E+01  .792E+01
  .796E+01  .901E+01  .911E+01  .914E+01  .917E+01  .875E+01  .765E+01  .765E+01
  .765E+01  .765E+01  .765E+01  .765E+01  .765E+01  .764E+01  .764E+01  .764E+01
  .763E+01  .763E+01  .763E+01  .763E+01  .763E+01  .763E+01  .763E+01  .763E+01
  .763E+01  .763E+01  .763E+01  .763E+01  .762E+01  .762E+01  .762E+01  .762E+01
  .762E+01  .762E+01  .762E+01  .762E+01  .762E+01  .762E+01  .762E+01  .762E+01
  .762E+01  .762E+01  .761E+01  .000E+00  .000E+00  .000E+00  .000E+00  .000E+00
  .000E+00  .000E+00  .000E+00  .000E+00
/&   ----------  End of spectral data for channel  1  ----------
Response and Fourier amplitude spectra (91 periods,  .04 - 15.0 sec)   for      
Corrected accelerogram   24023-L1822-01248.05       Chan  2:   0 Deg     from   
Uncorrected Accelerogram Data             Processed: 09/10/01, CDMG  023as005   
Record of Sun Sep  9, 2001 16:59:21 PDT               (Avol1 v4.6  7/01 CSMIP)  
CSMIP Preliminary Processing            (Origin:  To be determined)             
24023-L1822-01248.05                 Start time:  9/09/01, 23:59:21.0 UTC (GPS) 
Station No. 24023   34.165N, 118.150W      Etna  s/n 1822  (3 Channels)         
Pasadena - Fair Oaks & Hammond                                                  
Chan  2:   0 Deg                                                                
Record of Sun Sep  9, 2001 16:59:21 PDT    Sun Sep  9, 2001 16:59:21 PDT        
Hypocenter:  To be determined.               ML:  To be determined.             
Instr Period =  .0107 sec,  Damping =  .670,  Sensitivity =  .63  v/g           
                        Record length = 38.000 sec.                             
                                     Uncor Max  =  -.006 g, at   5.080 sec.     
RMS accel of (uncor) record  =        .                                         
Accelerogram bandpass filtered with 3 dB pts at   .30 and 40.00 cyc/sec         
                 instrument- and baseline-corrected                             
                                                                                
                                                                                
                                                                                
                                                                                
                                                                                
Record of Sun Sep  9, 2001 16:59:21 PDT    Sun Sep  9, 2001 16:59:21 PDT        
                                                                                
24023-L1822-01248.05      Pasadena - Fair Oaks & Hammond    Chan  2:   0 Deg    
                                                                                
24023-L1822-01248.05      Pasadena - Fair Oaks & Hammond    Chan  2:   0 Deg    
                                                                                
Units for spectra are inches and sec, except Sa is in fraction of g.            
                                                                                
    2  100    2    3    3  200    1    3    1   24   12 1822    024023    1    0
   23   59   21    0  252    9    9 2001   10    3    0 7600   39   30   72 -999
 7600    1   50    3 1822    1    5  380    1    0    0    0    0    0    0    0
    0    4    0    0 3800    2    0    0    0    0   72   30    0    0    0 3800
    0 3800   31   91    1    3    0    0    0    0    3    0    0    0    0    2
    2    2    4    0   32   99 -999   32   32    0    0    1    0    0    0    0
  -99   -1    0    0
      .011      .670    38.000      .001      .000   625.000     -.006     5.080
    93.300      .298      .477      .000     5.000      .000      .000      .000
     2.500   -79.652     -.046     -.054     5.000    30.000      .000      .014
     -.003     -.017     2.000    15.000    34.165  -118.150      .907      .144
      .158     -.134      .100  -999.000      .000      .000   -13.500      .000
  1000.000    -1.135      .000      .000      .000      .000      .000      .000
     4.600     4.400      .000   980.665      .010    38.000    14.849      .000
      .000    40.000      .000    38.000      .010      .300      .000      .000
     5.080    -6.203     5.720     -.281     6.350      .014      .000      .300
    40.000      .010      .010      .000      .010      .007      .000      .000
      .030      .100      .016      .013      .001      .000      .000      .000
      .000      .000      .000      .000      .000      .000      .000      .000
      .000      .000      .000      .000
      .050
      .040      .042      .044      .046      .048      .050      .055      .060
      .065      .070      .075      .080      .085      .090      .095      .100
      .110      .120      .130      .140      .150      .160      .170      .180
      .190      .200      .220      .240      .260      .280      .300      .320
      .340      .360      .380      .400      .420      .440      .460      .480
      .500      .550      .600      .650      .700      .750      .800      .850
      .900      .950     1.000     1.100     1.200     1.300     1.400     1.500
     1.600     1.700     1.800     1.900     2.000     2.200     2.400     2.600
     2.800     3.000     3.200     3.400     3.600     3.800     4.000     4.200
     4.400     4.600     4.800     5.000     5.500     6.000     6.500     7.000
     7.500     8.000     8.500     9.000     9.500    10.000    11.000    12.000
    13.000    14.000    15.000      .000      .000      .000      .000      .000
      .000      .000      .000      .000
Fourier amplitude spectra in in/sec.
  .000E+00  .000E+00  .000E+00  .000E+00  .000E+00  .000E+00  .000E+00  .000E+00
  .000E+00  .000E+00  .000E+00  .000E+00  .000E+00  .000E+00  .000E+00  .000E+00
  .000E+00  .000E+00  .000E+00  .000E+00  .000E+00  .000E+00  .000E+00  .000E+00
  .000E+00  .000E+00  .000E+00  .000E+00  .000E+00  .000E+00  .000E+00  .000E+00
  .000E+00  .000E+00  .000E+00  .000E+00  .000E+00  .000E+00  .000E+00  .000E+00
  .000E+00  .000E+00  .000E+00  .000E+00  .000E+00  .000E+00  .000E+00  .000E+00
  .000E+00  .000E+00  .000E+00  .000E+00  .000E+00  .000E+00  .000E+00  .000E+00
  .000E+00  .000E+00  .000E+00  .000E+00  .000E+00  .000E+00  .000E+00  .000E+00
  .000E+00  .000E+00  .000E+00  .000E+00  .000E+00  .000E+00  .000E+00  .000E+00
  .000E+00  .000E+00  .000E+00  .000E+00  .000E+00  .000E+00  .000E+00  .000E+00
  .000E+00  .000E+00  .000E+00  .000E+00  .000E+00  .000E+00  .000E+00  .000E+00
  .000E+00  .000E+00  .000E+00  .000E+00  .000E+00  .000E+00  .000E+00  .000E+00
  .000E+00  .000E+00  .000E+00  .000E+00
Damping =  .05. Data of Sd,Sv,Sa,Pssv,ttSd,ttSv,ttSa :
  .139E-03  .138E-03  .156E-03  .182E-03  .202E-03  .234E-03  .383E-03  .413E-03
  .571E-03  .733E-03  .106E-02  .129E-02  .169E-02  .203E-02  .253E-02  .289E-02
  .227E-02  .220E-02  .306E-02  .325E-02  .474E-02  .593E-02  .494E-02  .536E-02
  .602E-02  .729E-02  .600E-02  .767E-02  .124E-01  .127E-01  .107E-01  .111E-01
  .117E-01  .143E-01  .156E-01  .146E-01  .128E-01  .107E-01  .100E-01  .115E-01
