Response and Fourier amplitude spectra (91 periods,  .04 - 15.0 sec)   for      
Corrected accelerogram   14824-L1185-01252.03       Chan  1: 355 Deg     from   
Uncorrected Accelerogram Data             Processed: 09/10/01, CDMG  824av003   
Record of Sun Sep  9, 2001 16:59:22 PDT               (Avol1 v4.6  7/01 CSMIP)  
CSMIP Preliminary Processing            (Origin:  To be determined)             
14824-L1185-01252.03                 Start time:  9/09/01, 23:59:22.0 UTC (GPS) 
Station No. 14824   33.868N, 118.289W      Etna  s/n 1185  (3 Channels)         
Los Angeles - Vermont & 182nd                                                   
Chan  1: 355 Deg                                                                
Record of Sun Sep  9, 2001 16:59:22 PDT    Sun Sep  9, 2001 16:59:22 PDT        
Hypocenter:  To be determined.               ML:  To be determined.             
Instr Period =  .0111 sec,  Damping =  .670,  Sensitivity =  .63  v/g           
                        Record length = 36.000 sec.                             
                                     Uncor Max  =  -.006 g, at   4.985 sec.     
RMS accel of (uncor) record  =        .                                         
Accelerogram bandpass filtered with 3 dB pts at   .30 and 40.00 cyc/sec         
                 instrument- and baseline-corrected                             
                                                                                
                                                                                
                                                                                
                                                                                
                                                                                
Record of Sun Sep  9, 2001 16:59:22 PDT    Sun Sep  9, 2001 16:59:22 PDT        
                                                                                
14824-L1185-01252.03      Los Angeles - Vermont & 182nd   Chan  1: 355 Deg      
                                                                                
14824-L1185-01252.03      Los Angeles - Vermont & 182nd   Chan  1: 355 Deg      
                                                                                
Units for spectra are inches and sec, except Sa is in fraction of g.            
                                                                                
    1  100    1    3    3  200    1    3    1   24   12 1185    014824    1    0
   23   59   22    0  252    9    9 2001   10    3  355 7200   39   29   72  355
 7200    1   50    3 1185    1    3  360    1    0    0    0    0    0    0    0
    0    4    0    0 3600    2    0    0    0    0   72   29    0    0    0 3600
    0 3600   30   91    1    3    0    0    0    0    3    0    0    0    0    2
    2    2    4    0   32   99    0   32   32    0    0    1    0    0    0    0
  -99   -1    0    0
      .011      .670    36.000      .001      .000   625.000     -.006     4.985
    90.400      .298      .477      .000     5.000      .000      .000      .000
     2.500    24.583      .019      .012     5.000    30.000      .000      .001
     -.004     -.005     2.000    15.000    33.868  -118.289      .051      .525
    10.196     -.030      .021  -999.000      .000      .000   -13.400      .000
  1000.000    -1.032      .000      .000      .000      .000      .000      .000
     4.600     4.400      .000   980.665      .010    36.000    14.388      .000
      .000    40.000      .000    36.000      .010      .300      .000      .000
     4.980    -6.055    16.970      .278    17.080      .026      .000      .300
    40.000      .010      .010      .000      .010      .014      .000      .000
      .021      .200      .021      .015      .003      .000      .000      .000
      .000      .000      .000      .000      .000      .000      .000      .000
      .000      .000      .000      .000
      .050
      .040      .042      .044      .046      .048      .050      .055      .060
      .065      .070      .075      .080      .085      .090      .095      .100
      .110      .120      .130      .140      .150      .160      .170      .180
      .190      .200      .220      .240      .260      .280      .300      .320
      .340      .360      .380      .400      .420      .440      .460      .480
      .500      .550      .600      .650      .700      .750      .800      .850
      .900      .950     1.000     1.100     1.200     1.300     1.400     1.500
     1.600     1.700     1.800     1.900     2.000     2.200     2.400     2.600
     2.800     3.000     3.200     3.400     3.600     3.800     4.000     4.200
     4.400     4.600     4.800     5.000     5.500     6.000     6.500     7.000
     7.500     8.000     8.500     9.000     9.500    10.000    11.000    12.000
    13.000    14.000    15.000      .000      .000      .000      .000      .000
      .000      .000      .000      .000
Fourier amplitude spectra in in/sec.
  .000E+00  .000E+00  .000E+00  .000E+00  .000E+00  .000E+00  .000E+00  .000E+00
  .000E+00  .000E+00  .000E+00  .000E+00  .000E+00  .000E+00  .000E+00  .000E+00
  .000E+00  .000E+00  .000E+00  .000E+00  .000E+00  .000E+00  .000E+00  .000E+00
  .000E+00  .000E+00  .000E+00  .000E+00  .000E+00  .000E+00  .000E+00  .000E+00
  .000E+00  .000E+00  .000E+00  .000E+00  .000E+00  .000E+00  .000E+00  .000E+00
  .000E+00  .000E+00  .000E+00  .000E+00  .000E+00  .000E+00  .000E+00  .000E+00
  .000E+00  .000E+00  .000E+00  .000E+00  .000E+00  .000E+00  .000E+00  .000E+00
  .000E+00  .000E+00  .000E+00  .000E+00  .000E+00  .000E+00  .000E+00  .000E+00
  .000E+00  .000E+00  .000E+00  .000E+00  .000E+00  .000E+00  .000E+00  .000E+00
  .000E+00  .000E+00  .000E+00  .000E+00  .000E+00  .000E+00  .000E+00  .000E+00
  .000E+00  .000E+00  .000E+00  .000E+00  .000E+00  .000E+00  .000E+00  .000E+00
  .000E+00  .000E+00  .000E+00  .000E+00  .000E+00  .000E+00  .000E+00  .000E+00
  .000E+00  .000E+00  .000E+00  .000E+00
Damping =  .05. Data of Sd,Sv,Sa,Pssv,ttSd,ttSv,ttSa :
  .108E-03  .120E-03  .132E-03  .147E-03  .169E-03  .185E-03  .226E-03  .245E-03
  .335E-03  .521E-03  .702E-03  .900E-03  .944E-03  .883E-03  .893E-03  .898E-03
  .117E-02  .157E-02  .226E-02  .257E-02  .325E-02  .388E-02  .479E-02  .606E-02
  .723E-02  .834E-02  .979E-02  .107E-01  .113E-01  .125E-01  .126E-01  .130E-01
  .137E-01  .157E-01  .170E-01  .173E-01  .219E-01  .216E-01  .229E-01  .220E-01
  .203E-01  .231E-01  .283E-01  .203E-01  .176E-01  .224E-01  .212E-01  .269E-01
  .275E-01  .244E-01  .227E-01  .289E-01  .294E-01  .339E-01  .359E-01  .246E-01
  .294E-01  .276E-01  .312E-01  .300E-01  .253E-01  .184E-01  .164E-01  .138E-01
  .147E-01  .145E-01  .144E-01  .148E-01  .154E-01  .152E-01  .143E-01  .130E-01
  .118E-01  .111E-01  .109E-01  .109E-01  .115E-01  .117E-01  .115E-01  .112E-01
  .110E-01  .109E-01  .109E-01  .109E-01  .109E-01  .109E-01  .109E-01  .108E-01
  .107E-01  .107E-01  .107E-01  .000E+00  .000E+00  .000E+00  .000E+00  .000E+00
  .000E+00  .000E+00  .000E+00  .000E+00
  .623E-02  .723E-02  .843E-02  .945E-02  .116E-01  .134E-01  .167E-01  .184E-01
  .233E-01  .373E-01  .526E-01  .661E-01  .643E-01  .536E-01  .497E-01  .471E-01
  .568E-01  .624E-01  .927E-01  .985E-01  .956E-01  .129E+00  .171E+00  .182E+00
  .214E+00  .249E+00  .266E+00  .250E+00  .251E+00  .285E+00  .282E+00  .275E+00
  .264E+00  .296E+00  .291E+00  .294E+00  .305E+00  .322E+00  .317E+00  .319E+00
  .302E+00  .260E+00  .322E+00  .249E+00  .178E+00  .192E+00  .177E+00  .190E+00
  .206E+00  .195E+00  .173E+00  .193E+00  .193E+00  .244E+00  .212E+00  .164E+00
  .136E+00  .164E+00  .164E+00  .152E+00  .159E+00  .149E+00  .129E+00  .132E+00
  .126E+00  .118E+00  .114E+00  .112E+00  .112E+00  .111E+00  .111E+00  .111E+00
  .110E+00  .111E+00  .111E+00  .110E+00  .110E+00  .109E+00  .109E+00  .109E+00
  .109E+00  .109E+00  .109E+00  .109E+00  .109E+00  .109E+00  .109E+00  .109E+00
  .109E+00  .109E+00  .109E+00  .000E+00  .000E+00  .000E+00  .000E+00  .000E+00
  .000E+00  .000E+00  .000E+00  .000E+00
  .692E-02  .692E-02  .700E-02  .714E-02  .755E-02  .764E-02  .757E-02  .700E-02
  .820E-02  .109E-01  .128E-01  .143E-01  .134E-01  .112E-01  .101E-01  .933E-02
  .993E-02  .112E-01  .138E-01  .137E-01  .147E-01  .156E-01  .170E-01  .192E-01
  .206E-01  .214E-01  .207E-01  .192E-01  .172E-01  .165E-01  .144E-01  .130E-01
  .121E-01  .125E-01  .121E-01  .111E-01  .128E-01  .115E-01  .111E-01  .980E-02
  .835E-02  .785E-02  .807E-02  .494E-02  .369E-02  .409E-02  .340E-02  .383E-02
  .350E-02  .278E-02  .234E-02  .247E-02  .211E-02  .206E-02  .190E-02  .114E-02
  .120E-02  .984E-03  .101E-02  .864E-03  .654E-03  .399E-03  .297E-03  .219E-03
  .195E-03  .180E-03  .159E-03  .145E-03  .136E-03  .123E-03  .106E-03  .896E-04
  .776E-04  .703E-04  .633E-04  .578E-04  .513E-04  .455E-04  .415E-04  .374E-04
  .339E-04  .310E-04  .286E-04  .265E-04  .248E-04  .232E-04  .206E-04  .185E-04
  .167E-04  .153E-04  .141E-04  .000E+00  .000E+00  .000E+00  .000E+00  .000E+00
  .000E+00  .000E+00  .000E+00  .000E+00
  .169E-01  .179E-01  .189E-01  .201E-01  .221E-01  .233E-01  .258E-01  .256E-01
  .324E-01  .468E-01  .588E-01  .707E-01  .697E-01  .616E-01  .591E-01  .564E-01
  .667E-01  .820E-01  .109E+00  .116E+00  .136E+00  .152E+00  .177E+00  .212E+00
  .239E+00  .262E+00  .280E+00  .281E+00  .273E+00  .280E+00  .264E+00  .255E+00
  .253E+00  .274E+00  .281E+00  .271E+00  .328E+00  .308E+00  .313E+00  .288E+00
  .255E+00  .264E+00  .296E+00  .196E+00  .158E+00  .187E+00  .166E+00  .199E+00
  .192E+00  .161E+00  .143E+00  .165E+00  .154E+00  .164E+00  .161E+00  .103E+00
  .115E+00  .102E+00  .109E+00  .992E-01  .796E-01  .526E-01  .429E-01  .334E-01
  .330E-01  .304E-01  .283E-01  .273E-01  .268E-01  .252E-01  .225E-01  .195E-01
  .169E-01  .152E-01  .142E-01  .137E-01  .131E-01  .123E-01  .111E-01  .100E-01
  .921E-02  .858E-02  .806E-02  .762E-02  .723E-02  .686E-02  .620E-02  .564E-02
  .518E-02  .479E-02  .447E-02  .000E+00  .000E+00  .000E+00  .000E+00  .000E+00
  .000E+00  .000E+00  .000E+00  .000E+00
  .533E+01  .533E+01  .533E+01  .533E+01  .533E+01  .533E+01  .534E+01  .499E+01
  .533E+01  .534E+01  .534E+01  .539E+01  .540E+01  .540E+01  .738E+01  .528E+01
  .738E+01  .496E+01  .594E+01  .596E+01  .498E+01  .499E+01  .509E+01  .510E+01
  .511E+01  .512E+01  .514E+01  .515E+01  .517E+01  .630E+01  .550E+01  .537E+01
  .538E+01  .651E+01  .618E+01  .621E+01  .174E+02  .164E+02  .164E+02  .165E+02
  .163E+02  .174E+02  .175E+02  .176E+02  .176E+02  .176E+02  .176E+02  .186E+02
  .186E+02  .183E+02  .193E+02  .174E+02  .174E+02  .175E+02  .170E+02  .171E+02
  .138E+02  .139E+02  .170E+02  .171E+02  .171E+02  .165E+02  .117E+02  .165E+02
  .167E+02  .159E+02  .159E+02  .159E+02  .159E+02  .159E+02  .159E+02  .159E+02
  .159E+02  .159E+02  .159E+02  .159E+02  .159E+02  .159E+02  .159E+02  .159E+02
  .159E+02  .159E+02  .159E+02  .159E+02  .159E+02  .159E+02  .159E+02  .159E+02
  .159E+02  .159E+02  .159E+02  .000E+00  .000E+00  .000E+00  .000E+00  .000E+00
  .000E+00  .000E+00  .000E+00  .000E+00
  .534E+01  .534E+01  .535E+01  .535E+01  .535E+01  .535E+01  .535E+01  .536E+01
  .549E+01  .536E+01  .536E+01  .537E+01  .538E+01  .538E+01  .735E+01  .526E+01
  .526E+01  .583E+01  .591E+01  .573E+01  .574E+01  .547E+01  .548E+01  .505E+01
  .517E+01  .517E+01  .519E+01  .521E+01  .511E+01  .622E+01  .543E+01  .544E+01
  .545E+01  .659E+01  .627E+01  .612E+01  .173E+02  .165E+02  .165E+02  .164E+02
  .164E+02  .187E+02  .174E+02  .160E+02  .158E+02  .174E+02  .187E+02  .174E+02
  .185E+02  .185E+02  .185E+02  .182E+02  .172E+02  .172E+02  .172E+02  .170E+02
  .503E+01  .137E+02  .137E+02  .170E+02  .170E+02  .170E+02  .170E+02  .170E+02
  .170E+02  .170E+02  .170E+02  .503E+01  .503E+01  .503E+01  .503E+01  .503E+01
  .503E+01  .170E+02  .170E+02  .170E+02  .503E+01  .503E+01  .503E+01  .503E+01
  .170E+02  .170E+02  .170E+02  .170E+02  .170E+02  .170E+02  .170E+02  .170E+02
  .170E+02  .170E+02  .170E+02  .000E+00  .000E+00  .000E+00  .000E+00  .000E+00
  .000E+00  .000E+00  .000E+00  .000E+00
  .533E+01  .533E+01  .533E+01  .533E+01  .533E+01  .533E+01  .533E+01  .499E+01
  .533E+01  .534E+01  .534E+01  .539E+01  .539E+01  .540E+01  .738E+01  .528E+01
  .738E+01  .496E+01  .594E+01  .596E+01  .498E+01  .498E+01  .509E+01  .510E+01
  .511E+01  .512E+01  .514E+01  .515E+01  .516E+01  .629E+01  .549E+01  .536E+01
  .537E+01  .650E+01  .618E+01  .620E+01  .174E+02  .164E+02  .164E+02  .165E+02
  .163E+02  .174E+02  .175E+02  .176E+02  .176E+02  .176E+02  .176E+02  .186E+02
  .186E+02  .183E+02  .193E+02  .173E+02  .173E+02  .174E+02  .170E+02  .138E+02
  .138E+02  .139E+02  .170E+02  .170E+02  .171E+02  .165E+02  .117E+02  .165E+02
  .166E+02  .158E+02  .158E+02  .158E+02  .158E+02  .158E+02  .158E+02  .158E+02
  .170E+02  .170E+02  .170E+02  .492E+01  .158E+02  .170E+02  .170E+02  .170E+02
  .170E+02  .170E+02  .170E+02  .170E+02  .170E+02  .170E+02  .170E+02  .170E+02
  .170E+02  .170E+02  .170E+02  .000E+00  .000E+00  .000E+00  .000E+00  .000E+00
  .000E+00  .000E+00  .000E+00  .000E+00
/&   ----------  End of spectral data for channel  1  ----------
Response and Fourier amplitude spectra (91 periods,  .04 - 15.0 sec)   for      
Corrected accelerogram   14824-L1185-01252.03       Chan  2:  Up         from   
Uncorrected Accelerogram Data             Processed: 09/10/01, CDMG  824av003   
Record of Sun Sep  9, 2001 16:59:22 PDT               (Avol1 v4.6  7/01 CSMIP)  
CSMIP Preliminary Processing            (Origin:  To be determined)             
14824-L1185-01252.03                 Start time:  9/09/01, 23:59:22.0 UTC (GPS) 
Station No. 14824   33.868N, 118.289W      Etna  s/n 1185  (3 Channels)         
Los Angeles - Vermont & 182nd                                                   
Chan  2:  Up                                                                    
Record of Sun Sep  9, 2001 16:59:22 PDT    Sun Sep  9, 2001 16:59:22 PDT        
Hypocenter:  To be determined.               ML:  To be determined.             
Instr Period =  .0110 sec,  Damping =  .680,  Sensitivity =  .63  v/g           
                        Record length = 36.000 sec.                             
                                     Uncor Max  =  -.005 g, at   5.720 sec.     
RMS accel of (uncor) record  =        .                                         
Accelerogram bandpass filtered with 3 dB pts at   .30 and 40.00 cyc/sec         
                 instrument- and baseline-corrected                             
                                                                                
                                                                                
                                                                                
                                                                                
                                                                                
Record of Sun Sep  9, 2001 16:59:22 PDT    Sun Sep  9, 2001 16:59:22 PDT        
                                                                                
14824-L1185-01252.03      Los Angeles - Vermont & 182nd   Chan  2:  Up          
                                                                                
14824-L1185-01252.03      Los Angeles - Vermont & 182nd   Chan  2:  Up          
                                                                                
Units for spectra are inches and sec, except Sa is in fraction of g.            
                                                                                
    2  100    2    3    3  200    1    3    1   24   12 1185    014824    1    0
   23   59   22    0  252    9    9 2001   10    3  500 7200   39   29   72  355
 7200    1   50    3 1185    1    3  360    1    0    0    0    0    0    0    0
    0    4    0    0 3600    2    0    0    0    0   72   29    0    0    0 3600
    0 3600   30   91    1    3    0    0    0    0    3    0    0    0    0    2
    2    2    4    0   32   99    0   32   32    0    0    1    0    0    0    0
  -99   -1    0    0
      .011      .680    36.000      .001      .000   625.000     -.005     5.720
    90.600      .298      .477      .000     5.000      .000      .000      .000
     2.500   -30.348     -.016     -.021     5.000    30.000      .000      .000
     -.001     -.001     2.000    15.000    33.868  -118.289      .428      .302
      .707     -.058      .056  -999.000      .000      .000   -13.400      .000
  1000.000    -1.032      .000      .000      .000      .000      .000      .000
     4.600     4.400      .000   980.665      .010    36.000    14.419      .000
      .000    40.000      .000    36.000      .010      .300      .000      .000
     5.720    -4.623     5.770     -.130     6.520     -.008      .000      .300
    40.000      .010      .010      .000      .010      .007      .000      .000
      .015      .075      .011      .007      .001      .000      .000      .000
      .000      .000      .000      .000      .000      .000      .000      .000
      .000      .000      .000      .000
      .050
      .040      .042      .044      .046      .048      .050      .055      .060
      .065      .070      .075      .080      .085      .090      .095      .100
      .110      .120      .130      .140      .150      .160      .170      .180
      .190      .200      .220      .240      .260      .280      .300      .320
      .340      .360      .380      .400      .420      .440      .460      .480
      .500      .550      .600      .650      .700      .750      .800      .850
      .900      .950     1.000     1.100     1.200     1.300     1.400     1.500
     1.600     1.700     1.800     1.900     2.000     2.200     2.400     2.600
     2.800     3.000     3.200     3.400     3.600     3.800     4.000     4.200
     4.400     4.600     4.800     5.000     5.500     6.000     6.500     7.000
     7.500     8.000     8.500     9.000     9.500    10.000    11.000    12.000
    13.000    14.000    15.000      .000      .000      .000      .000      .000
      .000      .000      .000      .000
Fourier amplitude spectra in in/sec.
  .000E+00  .000E+00  .000E+00  .000E+00  .000E+00  .000E+00  .000E+00  .000E+00
  .000E+00  .000E+00  .000E+00  .000E+00  .000E+00  .000E+00  .000E+00  .000E+00
  .000E+00  .000E+00  .000E+00  .000E+00  .000E+00  .000E+00  .000E+00  .000E+00
  .000E+00  .000E+00  .000E+00  .000E+00  .000E+00  .000E+00  .000E+00  .000E+00
  .000E+00  .000E+00  .000E+00  .000E+00  .000E+00  .000E+00  .000E+00  .000E+00
  .000E+00  .000E+00  .000E+00  .000E+00  .000E+00  .000E+00  .000E+00  .000E+00
  .000E+00  .000E+00  .000E+00  .000E+00  .000E+00  .000E+00  .000E+00  .000E+00
  .000E+00  .000E+00  .000E+00  .000E+00  .000E+00  .000E+00  .000E+00  .000E+00
  .000E+00  .000E+00  .000E+00  .000E+00  .000E+00  .000E+00  .000E+00  .000E+00
  .000E+00  .000E+00  .000E+00  .000E+00  .000E+00  .000E+00  .000E+00  .000E+00
  .000E+00  .000E+00  .000E+00  .000E+00  .000E+00  .000E+00  .000E+00  .000E+00
  .000E+00  .000E+00  .000E+00  .000E+00  .000E+00  .000E+00  .000E+00  .000E+00
  .000E+00  .000E+00  .000E+00  .000E+00
Damping =  .05. Data of Sd,Sv,Sa,Pssv,ttSd,ttSv,ttSa :
  .919E-04  .110E-03  .143E-03  .158E-03  .188E-03  .211E-03  .244E-03  .388E-03
  .484E-03  .550E-03  .799E-03  .751E-03  .711E-03  .637E-03  .745E-03  .927E-03
  .805E-03  .137E-02  .212E-02  .223E-02  .235E-02  .306E-02  .318E-02  .322E-02
  .384E-02  .424E-02  .499E-02  .436E-02  .372E-02  .502E-02  .585E-02  .733E-02
  .785E-02  .680E-02  .719E-02  .818E-02  .880E-02  .904E-02  .929E-02  .976E-02
