Response and Fourier amplitude spectra (91 periods,  .04 - 15.0 sec)   for      
Corrected accelerogram   24865-L1341-01253.35       Chan  1: 295 Deg     from   
Uncorrected Accelerogram Data             Processed: 09/10/01, CDMG  am035      
Record of Sun Sep  9, 2001 16:59:17 PDT               (Avol1 v4.6  7/01 CSMIP)  
CSMIP Preliminary Processing            (Origin:  To be determined)             
24865-L1341-01253.35                 Start time:  9/09/01, 23:59:17.0 UTC (GPS) 
Station No. 24865   34.139N, 118.364W      Etna  s/n 1341  (3 Channels)         
(LADOT 3; real-time?)                                                           
Chan  1: 295 Deg                                                                
Record of Sun Sep  9, 2001 16:59:17 PDT    Sun Sep  9, 2001 16:59:17 PDT        
Hypocenter:  To be determined.               ML:  To be determined.             
Instr Period =  .0106 sec,  Damping =  .650,  Sensitivity =  .63  v/g           
                        Record length = 39.000 sec.                             
                                     Uncor Max  =   .032 g, at   5.565 sec.     
RMS accel of (uncor) record  =        .                                         
Accelerogram bandpass filtered with 3 dB pts at   .30 and 40.00 cyc/sec         
                 instrument- and baseline-corrected                             
                                                                                
                                                                                
                                                                                
                                                                                
                                                                                
Record of Sun Sep  9, 2001 16:59:17 PDT    Sun Sep  9, 2001 16:59:17 PDT        
                                                                                
24865-L1341-01253.35      (LADOT 3; real-time?)   Chan  1: 295 Deg              
                                                                                
24865-L1341-01253.35      (LADOT 3; real-time?)   Chan  1: 295 Deg              
                                                                                
Units for spectra are inches and sec, except Sa is in fraction of g.            
                                                                                
    1  100    1    3    3  200    1    3    1   24   12 1341    024865    1    0
   23   59   17    0  252    9    9 2001   10    3  295 7800   39   21   72  295
 7800    1   50    3 1341    1   35  390    1    0    0    0    0    0    0    0
    0    4    0    0 3900    2    0    0    0    0   72   21    0    0    0 3900
    0 3900   22   91    1    3    0    0    0    0    3    0    0    0    0    2
    2    2    4    0   32   99    0   32   32    0    0    1    0    0    0    0
  -99   -1    0    0
      .011      .650    39.000      .002      .000   625.000      .032     5.565
    94.300      .298      .477      .000     5.000      .000      .000      .000
     2.500   -14.623      .010     -.029     5.000    30.000      .000      .001
      .001      .000     2.000    15.000    34.139  -118.364      .046      .309
     6.746     -.015      .016  -999.000      .000      .000   -13.400      .000
  1000.000     1.008      .000      .000      .000      .000      .000      .000
     4.600     4.400      .000   980.665      .010    39.000    15.008      .000
      .000    40.000      .000    39.000      .010      .300      .000      .000
     5.560    31.234     5.070     1.245     5.130      .115      .000      .300
    40.000      .010      .010      .000      .010      .023      .000      .000
      .078      .130      .056      .067      .008      .001      .000      .000
      .000      .000      .000      .000      .000      .000      .000      .000
      .000      .000      .000      .000
      .050
      .040      .042      .044      .046      .048      .050      .055      .060
      .065      .070      .075      .080      .085      .090      .095      .100
      .110      .120      .130      .140      .150      .160      .170      .180
      .190      .200      .220      .240      .260      .280      .300      .320
      .340      .360      .380      .400      .420      .440      .460      .480
      .500      .550      .600      .650      .700      .750      .800      .850
      .900      .950     1.000     1.100     1.200     1.300     1.400     1.500
     1.600     1.700     1.800     1.900     2.000     2.200     2.400     2.600
     2.800     3.000     3.200     3.400     3.600     3.800     4.000     4.200
     4.400     4.600     4.800     5.000     5.500     6.000     6.500     7.000
     7.500     8.000     8.500     9.000     9.500    10.000    11.000    12.000
    13.000    14.000    15.000      .000      .000      .000      .000      .000
      .000      .000      .000      .000
Fourier amplitude spectra in in/sec.
  .000E+00  .000E+00  .000E+00  .000E+00  .000E+00  .000E+00  .000E+00  .000E+00
  .000E+00  .000E+00  .000E+00  .000E+00  .000E+00  .000E+00  .000E+00  .000E+00
  .000E+00  .000E+00  .000E+00  .000E+00  .000E+00  .000E+00  .000E+00  .000E+00
  .000E+00  .000E+00  .000E+00  .000E+00  .000E+00  .000E+00  .000E+00  .000E+00
  .000E+00  .000E+00  .000E+00  .000E+00  .000E+00  .000E+00  .000E+00  .000E+00
  .000E+00  .000E+00  .000E+00  .000E+00  .000E+00  .000E+00  .000E+00  .000E+00
  .000E+00  .000E+00  .000E+00  .000E+00  .000E+00  .000E+00  .000E+00  .000E+00
  .000E+00  .000E+00  .000E+00  .000E+00  .000E+00  .000E+00  .000E+00  .000E+00
  .000E+00  .000E+00  .000E+00  .000E+00  .000E+00  .000E+00  .000E+00  .000E+00
  .000E+00  .000E+00  .000E+00  .000E+00  .000E+00  .000E+00  .000E+00  .000E+00
  .000E+00  .000E+00  .000E+00  .000E+00  .000E+00  .000E+00  .000E+00  .000E+00
  .000E+00  .000E+00  .000E+00  .000E+00  .000E+00  .000E+00  .000E+00  .000E+00
  .000E+00  .000E+00  .000E+00  .000E+00
Damping =  .05. Data of Sd,Sv,Sa,Pssv,ttSd,ttSv,ttSa :
  .537E-03  .608E-03  .677E-03  .730E-03  .824E-03  .964E-03  .132E-02  .187E-02
  .181E-02  .220E-02  .268E-02  .324E-02  .388E-02  .431E-02  .492E-02  .518E-02
  .698E-02  .963E-02  .130E-01  .118E-01  .134E-01  .156E-01  .178E-01  .214E-01
  .218E-01  .211E-01  .251E-01  .380E-01  .480E-01  .563E-01  .607E-01  .568E-01
  .527E-01  .557E-01  .564E-01  .559E-01  .554E-01  .567E-01  .599E-01  .627E-01
  .648E-01  .750E-01  .722E-01  .789E-01  .917E-01  .120E+00  .129E+00  .124E+00
  .113E+00  .938E-01  .769E-01  .626E-01  .666E-01  .675E-01  .666E-01  .645E-01
  .620E-01  .594E-01  .594E-01  .632E-01  .644E-01  .612E-01  .584E-01  .591E-01
  .594E-01  .592E-01  .587E-01  .581E-01  .573E-01  .566E-01  .559E-01  .552E-01
  .546E-01  .540E-01  .535E-01  .530E-01  .521E-01  .514E-01  .509E-01  .505E-01
  .502E-01  .500E-01  .498E-01  .497E-01  .496E-01  .494E-01  .493E-01  .492E-01
  .491E-01  .490E-01  .490E-01  .000E+00  .000E+00  .000E+00  .000E+00  .000E+00
  .000E+00  .000E+00  .000E+00  .000E+00
  .260E-01  .281E-01  .327E-01  .364E-01  .365E-01  .407E-01  .717E-01  .132E+00
  .162E+00  .164E+00  .161E+00  .165E+00  .216E+00  .260E+00  .290E+00  .284E+00
  .331E+00  .440E+00  .601E+00  .500E+00  .505E+00  .602E+00  .644E+00  .736E+00
  .690E+00  .614E+00  .624E+00  .935E+00  .122E+01  .135E+01  .135E+01  .132E+01
  .114E+01  .105E+01  .101E+01  .981E+00  .962E+00  .943E+00  .921E+00  .889E+00
  .859E+00  .915E+00  .776E+00  .826E+00  .935E+00  .115E+01  .103E+01  .106E+01
  .926E+00  .797E+00  .762E+00  .685E+00  .607E+00  .560E+00  .541E+00  .522E+00
  .506E+00  .493E+00  .481E+00  .471E+00  .463E+00  .465E+00  .471E+00  .477E+00
  .481E+00  .485E+00  .488E+00  .490E+00  .491E+00  .492E+00  .492E+00  .493E+00
  .493E+00  .493E+00  .493E+00  .492E+00  .492E+00  .492E+00  .491E+00  .491E+00
  .491E+00  .490E+00  .490E+00  .490E+00  .490E+00  .490E+00  .490E+00  .490E+00
  .490E+00  .490E+00  .490E+00  .000E+00  .000E+00  .000E+00  .000E+00  .000E+00
  .000E+00  .000E+00  .000E+00  .000E+00
  .344E-01  .353E-01  .357E-01  .352E-01  .366E-01  .393E-01  .444E-01  .532E-01
  .445E-01  .461E-01  .487E-01  .521E-01  .552E-01  .548E-01  .558E-01  .533E-01
  .592E-01  .689E-01  .778E-01  .618E-01  .606E-01  .629E-01  .626E-01  .677E-01
  .618E-01  .543E-01  .534E-01  .683E-01  .735E-01  .741E-01  .698E-01  .573E-01
  .468E-01  .442E-01  .404E-01  .360E-01  .324E-01  .300E-01  .292E-01  .280E-01
  .267E-01  .255E-01  .207E-01  .193E-01  .193E-01  .219E-01  .208E-01  .177E-01
  .143E-01  .107E-01  .793E-02  .535E-02  .482E-02  .419E-02  .358E-02  .304E-02
  .259E-02  .222E-02  .194E-02  .186E-02  .172E-02  .137E-02  .118E-02  .103E-02
  .908E-03  .804E-03  .715E-03  .640E-03  .575E-03  .521E-03  .474E-03  .434E-03
  .399E-03  .369E-03  .342E-03  .319E-03  .272E-03  .238E-03  .210E-03  .188E-03
  .170E-03  .155E-03  .143E-03  .132E-03  .123E-03  .114E-03  .101E-03  .900E-04
  .812E-04  .739E-04  .678E-04  .000E+00  .000E+00  .000E+00  .000E+00  .000E+00
  .000E+00  .000E+00  .000E+00  .000E+00
  .844E-01  .910E-01  .966E-01  .997E-01  .108E+00  .121E+00  .151E+00  .196E+00
  .175E+00  .197E+00  .224E+00  .255E+00  .287E+00  .301E+00  .326E+00  .325E+00
  .399E+00  .504E+00  .628E+00  .528E+00  .560E+00  .611E+00  .656E+00  .747E+00
  .720E+00  .663E+00  .716E+00  .994E+00  .116E+01  .126E+01  .127E+01  .111E+01
  .975E+00  .973E+00  .933E+00  .878E+00  .829E+00  .809E+00  .818E+00  .821E+00
  .815E+00  .857E+00  .756E+00  .763E+00  .823E+00  .100E+01  .102E+01  .917E+00
  .786E+00  .621E+00  .483E+00  .357E+00  .349E+00  .326E+00  .299E+00  .270E+00
  .243E+00  .220E+00  .207E+00  .209E+00  .202E+00  .175E+00  .153E+00  .143E+00
  .133E+00  .124E+00  .115E+00  .107E+00  .100E+00  .936E-01  .878E-01  .826E-01
  .779E-01  .738E-01  .700E-01  .666E-01  .595E-01  .538E-01  .492E-01  .453E-01
  .421E-01  .393E-01  .368E-01  .347E-01  .328E-01  .311E-01  .282E-01  .258E-01
  .237E-01  .220E-01  .205E-01  .000E+00  .000E+00  .000E+00  .000E+00  .000E+00
  .000E+00  .000E+00  .000E+00  .000E+00
  .556E+01  .556E+01  .556E+01  .556E+01  .556E+01  .556E+01  .557E+01  .557E+01
  .571E+01  .511E+01  .511E+01  .512E+01  .513E+01  .638E+01  .557E+01  .563E+01
  .530E+01  .556E+01  .565E+01  .567E+01  .514E+01  .745E+01  .567E+01  .568E+01
  .569E+01  .516E+01  .517E+01  .570E+01  .572E+01  .562E+01  .563E+01  .565E+01
  .538E+01  .539E+01  .540E+01  .542E+01  .543E+01  .525E+01  .526E+01  .526E+01
  .527E+01  .832E+01  .564E+01  .566E+01  .755E+01  .727E+01  .734E+01  .701E+01
  .704E+01  .709E+01  .675E+01  .552E+01  .553E+01  .553E+01  .554E+01  .554E+01
  .554E+01  .555E+01  .677E+01  .677E+01  .677E+01  .678E+01  .512E+01  .512E+01
  .512E+01  .512E+01  .512E+01  .512E+01  .512E+01  .512E+01  .512E+01  .512E+01
  .512E+01  .512E+01  .512E+01  .512E+01  .512E+01  .512E+01  .512E+01  .512E+01
  .512E+01  .512E+01  .512E+01  .512E+01  .512E+01  .512E+01  .512E+01  .512E+01
  .512E+01  .512E+01  .512E+01  .000E+00  .000E+00  .000E+00  .000E+00  .000E+00
  .000E+00  .000E+00  .000E+00  .000E+00
  .559E+01  .559E+01  .559E+01  .559E+01  .559E+01  .592E+01  .559E+01  .559E+01
  .570E+01  .588E+01  .574E+01  .634E+01  .638E+01  .639E+01  .561E+01  .561E+01
  .527E+01  .560E+01  .561E+01  .570E+01  .518E+01  .749E+01  .571E+01  .572E+01
  .573E+01  .520E+01  .574E+01  .565E+01  .567E+01  .568E+01  .557E+01  .558E+01
  .559E+01  .548E+01  .532E+01  .533E+01  .533E+01  .534E+01  .534E+01  .536E+01
  .537E+01  .820E+01  .578E+01  .582E+01  .807E+01  .745E+01  .749E+01  .722E+01
  .723E+01  .559E+01  .559E+01  .559E+01  .559E+01  .524E+01  .524E+01  .524E+01
  .524E+01  .524E+01  .524E+01  .524E+01  .524E+01  .506E+01  .506E+01  .506E+01
  .506E+01  .506E+01  .506E+01  .506E+01  .506E+01  .506E+01  .506E+01  .506E+01
  .506E+01  .506E+01  .506E+01  .506E+01  .506E+01  .506E+01  .506E+01  .506E+01
  .506E+01  .506E+01  .506E+01  .506E+01  .506E+01  .506E+01  .506E+01  .506E+01
  .506E+01  .506E+01  .506E+01  .000E+00  .000E+00  .000E+00  .000E+00  .000E+00
  .000E+00  .000E+00  .000E+00  .000E+00
  .556E+01  .556E+01  .556E+01  .556E+01  .556E+01  .556E+01  .557E+01  .557E+01
  .571E+01  .511E+01  .511E+01  .511E+01  .512E+01  .637E+01  .557E+01  .563E+01
  .530E+01  .556E+01  .565E+01  .566E+01  .514E+01  .745E+01  .567E+01  .568E+01
  .569E+01  .515E+01  .516E+01  .570E+01  .572E+01  .561E+01  .563E+01  .565E+01
  .537E+01  .539E+01  .540E+01  .541E+01  .542E+01  .524E+01  .525E+01  .526E+01
  .526E+01  .831E+01  .563E+01  .565E+01  .754E+01  .726E+01  .732E+01  .699E+01
  .703E+01  .707E+01  .674E+01  .551E+01  .551E+01  .552E+01  .552E+01  .552E+01
  .552E+01  .553E+01  .675E+01  .675E+01  .675E+01  .675E+01  .508E+01  .508E+01
  .508E+01  .508E+01  .508E+01  .508E+01  .508E+01  .508E+01  .508E+01  .508E+01
  .508E+01  .508E+01  .508E+01  .508E+01  .507E+01  .507E+01  .507E+01  .507E+01
  .507E+01  .507E+01  .507E+01  .507E+01  .507E+01  .507E+01  .507E+01  .507E+01
  .507E+01  .507E+01  .507E+01  .000E+00  .000E+00  .000E+00  .000E+00  .000E+00
  .000E+00  .000E+00  .000E+00  .000E+00
/&   ----------  End of spectral data for channel  1  ----------
Response and Fourier amplitude spectra (91 periods,  .04 - 15.0 sec)   for      
Corrected accelerogram   24865-L1341-01253.35       Chan  2:  Up         from   
Uncorrected Accelerogram Data             Processed: 09/10/01, CDMG  am035      
Record of Sun Sep  9, 2001 16:59:17 PDT               (Avol1 v4.6  7/01 CSMIP)  
CSMIP Preliminary Processing            (Origin:  To be determined)             
24865-L1341-01253.35                 Start time:  9/09/01, 23:59:17.0 UTC (GPS) 
Station No. 24865   34.139N, 118.364W      Etna  s/n 1341  (3 Channels)         
(LADOT 3; real-time?)                                                           
Chan  2:  Up                                                                    
Record of Sun Sep  9, 2001 16:59:17 PDT    Sun Sep  9, 2001 16:59:17 PDT        
Hypocenter:  To be determined.               ML:  To be determined.             
Instr Period =  .0103 sec,  Damping =  .670,  Sensitivity =  .63  v/g           
                        Record length = 39.000 sec.                             
                                     Uncor Max  =  -.018 g, at   5.215 sec.     
RMS accel of (uncor) record  =        .                                         
Accelerogram bandpass filtered with 3 dB pts at   .30 and 40.00 cyc/sec         
                 instrument- and baseline-corrected                             
                                                                                
                                                                                
                                                                                
                                                                                
                                                                                
Record of Sun Sep  9, 2001 16:59:17 PDT    Sun Sep  9, 2001 16:59:17 PDT        
                                                                                
24865-L1341-01253.35      (LADOT 3; real-time?)   Chan  2:  Up                  
                                                                                
24865-L1341-01253.35      (LADOT 3; real-time?)   Chan  2:  Up                  
                                                                                
Units for spectra are inches and sec, except Sa is in fraction of g.            
                                                                                
    2  100    2    3    3  200    1    3    1   24   12 1341    024865    1    0
   23   59   17    0  252    9    9 2001   10    3  500 7800   39   21   72  295
 7800    1   50    3 1341    1   35  390    1    0    0    0    0    0    0    0
    0    4    0    0 3900    2    0    0    0    0   72   21    0    0    0 3900
    0 3900   22   91    1    3    0    0    0    0    3    0    0    0    0    2
    2    2    4    0   32   99    0   32   32    0    0    1    0    0    0    0
  -99   -1    0    0
      .010      .670    39.000      .002      .000   625.000     -.018     5.215
    97.500      .298      .477      .000     5.000      .000      .000      .000
     2.500    -8.660      .006     -.015     5.000    30.000      .000      .002
     -.002     -.004     2.000    15.000    34.139  -118.364      .080      .244
     3.033     -.019      .012  -999.000      .000      .000   -13.400      .000
  1000.000     1.001      .000      .000      .000      .000      .000      .000
     4.600     4.400      .000   980.665      .010    39.000    15.518      .000
      .000    40.000      .000    39.000      .010      .300      .000      .000
     5.210   -15.874     5.840     -.367     5.710      .028      .000      .300
    40.000      .010      .010      .000      .010      .010      .000      .000
      .082      .070      .017      .024      .002      .000      .000      .000
      .000      .000      .000      .000      .000      .000      .000      .000
      .000      .000      .000      .000
      .050
      .040      .042      .044      .046      .048      .050      .055      .060
      .065      .070      .075      .080      .085      .090      .095      .100
      .110      .120      .130      .140      .150      .160      .170      .180
      .190      .200      .220      .240      .260      .280      .300      .320
      .340      .360      .380      .400      .420      .440      .460      .480
      .500      .550      .600      .650      .700      .750      .800      .850
      .900      .950     1.000     1.100     1.200     1.300     1.400     1.500
     1.600     1.700     1.800     1.900     2.000     2.200     2.400     2.600
     2.800     3.000     3.200     3.400     3.600     3.800     4.000     4.200
     4.400     4.600     4.800     5.000     5.500     6.000     6.500     7.000
     7.500     8.000     8.500     9.000     9.500    10.000    11.000    12.000
    13.000    14.000    15.000      .000      .000      .000      .000      .000
      .000      .000      .000      .000
Fourier amplitude spectra in in/sec.
  .000E+00  .000E+00  .000E+00  .000E+00  .000E+00  .000E+00  .000E+00  .000E+00
  .000E+00  .000E+00  .000E+00  .000E+00  .000E+00  .000E+00  .000E+00  .000E+00
  .000E+00  .000E+00  .000E+00  .000E+00  .000E+00  .000E+00  .000E+00  .000E+00
  .000E+00  .000E+00  .000E+00  .000E+00  .000E+00  .000E+00  .000E+00  .000E+00
  .000E+00  .000E+00  .000E+00  .000E+00  .000E+00  .000E+00  .000E+00  .000E+00
  .000E+00  .000E+00  .000E+00  .000E+00  .000E+00  .000E+00  .000E+00  .000E+00
  .000E+00  .000E+00  .000E+00  .000E+00  .000E+00  .000E+00  .000E+00  .000E+00
  .000E+00  .000E+00  .000E+00  .000E+00  .000E+00  .000E+00  .000E+00  .000E+00
  .000E+00  .000E+00  .000E+00  .000E+00  .000E+00  .000E+00  .000E+00  .000E+00
  .000E+00  .000E+00  .000E+00  .000E+00  .000E+00  .000E+00  .000E+00  .000E+00
  .000E+00  .000E+00  .000E+00  .000E+00  .000E+00  .000E+00  .000E+00  .000E+00
  .000E+00  .000E+00  .000E+00  .000E+00  .000E+00  .000E+00  .000E+00  .000E+00
  .000E+00  .000E+00  .000E+00  .000E+00
Damping =  .05. Data of Sd,Sv,Sa,Pssv,ttSd,ttSv,ttSa :
  .495E-03  .534E-03  .622E-03  .673E-03  .698E-03  .936E-03  .143E-02  .219E-02
  .258E-02  .388E-02  .359E-02  .357E-02  .376E-02  .445E-02  .430E-02  .397E-02
  .264E-02  .317E-02  .392E-02  .417E-02  .500E-02  .449E-02  .535E-02  .587E-02
  .608E-02  .646E-02  .743E-02  .103E-01  .121E-01  .194E-01  .219E-01  .222E-01
  .238E-01  .228E-01  .215E-01  .201E-01  .182E-01  .195E-01  .190E-01  .184E-01
