Response and Fourier amplitude spectra (91 periods,  .04 - 15.0 sec)   for      
Corrected accelerogram   24833-L1226-01250.03       Chan  1: 360 Deg     from   
Uncorrected Accelerogram Data             Processed: 09/10/01, CDMG  ar003      
Record of Sun Sep  9, 2001 16:59:16 PDT               (Avol1 v4.6  7/01 CSMIP)  
CSMIP Preliminary Processing            (Origin:  To be determined)             
24833-L1226-01250.03                 Start time:  9/09/01, 23:59:16.0 UTC (GPS) 
Station No. 24833   34.062N, 118.315W      Etna  s/n 1226  (3 Channels)         
(LADOT 17)                                                                      
Chan  1: 360 Deg                                                                
Record of Sun Sep  9, 2001 16:59:16 PDT    Sun Sep  9, 2001 16:59:16 PDT        
Hypocenter:  To be determined.               ML:  To be determined.             
Instr Period =  .0109 sec,  Damping =  .650,  Sensitivity =  .63  v/g           
                        Record length = 44.000 sec.                             
                                     Uncor Max  =   .100 g, at   6.690 sec.     
RMS accel of (uncor) record  =        .                                         
Accelerogram bandpass filtered with 3 dB pts at   .30 and 40.00 cyc/sec         
                 instrument- and baseline-corrected                             
                                                                                
                                                                                
                                                                                
                                                                                
                                                                                
Record of Sun Sep  9, 2001 16:59:16 PDT    Sun Sep  9, 2001 16:59:16 PDT        
                                                                                
24833-L1226-01250.03      (LADOT 17)    Chan  1: 360 Deg                        
                                                                                
24833-L1226-01250.03      (LADOT 17)    Chan  1: 360 Deg                        
                                                                                
Units for spectra are inches and sec, except Sa is in fraction of g.            
                                                                                
    1  100    1    3    3  200    1    3    1   24   12 1226    024833    1    0
   23   59   16    0  252    9    9 2001   10    3  360 8800   39   10   72  360
 8800    1   50    3 1226    1    3  440    1    0    0    0    0    0    0    0
    0    4    0    0 4400    2    0    0    0    0   72   10    0    0    0 4400
    0 4400   11   91    1    3    0    0    0    0    3    0    0    0    0    2
    2    2    4    0   32   99    0   32   32    0    0    1    0    0    0    0
  -99   -1    0    0
      .011      .650    44.000      .008      .000   625.000      .100     6.690
    91.600      .298      .477      .000     5.000      .000      .000      .000
     2.500    -9.580      .047     -.069     5.000    30.000      .000      .002
     -.003     -.005     2.000    15.000    34.062  -118.315      .043      .358
     8.391     -.023      .013  -999.000      .000      .000   -14.300      .000
  1000.000    -1.003      .000      .000      .000      .000      .000      .000
     4.600     4.400      .000   980.665      .010    44.000    14.579      .000
      .000    40.000      .000    44.000      .010      .300      .000      .000
     6.690    95.685     6.150    -3.531     6.250     -.414      .000      .300
    40.000      .010      .010      .000      .960      .049      .000      .000
      .439      .095      .121      .162      .022      .003      .000      .000
      .000      .000      .000      .000      .000      .000      .000      .000
      .000      .000      .000      .000
      .050
      .040      .042      .044      .046      .048      .050      .055      .060
      .065      .070      .075      .080      .085      .090      .095      .100
      .110      .120      .130      .140      .150      .160      .170      .180
      .190      .200      .220      .240      .260      .280      .300      .320
      .340      .360      .380      .400      .420      .440      .460      .480
      .500      .550      .600      .650      .700      .750      .800      .850
      .900      .950     1.000     1.100     1.200     1.300     1.400     1.500
     1.600     1.700     1.800     1.900     2.000     2.200     2.400     2.600
     2.800     3.000     3.200     3.400     3.600     3.800     4.000     4.200
     4.400     4.600     4.800     5.000     5.500     6.000     6.500     7.000
     7.500     8.000     8.500     9.000     9.500    10.000    11.000    12.000
    13.000    14.000    15.000      .000      .000      .000      .000      .000
      .000      .000      .000      .000
Fourier amplitude spectra in in/sec.
  .000E+00  .000E+00  .000E+00  .000E+00  .000E+00  .000E+00  .000E+00  .000E+00
  .000E+00  .000E+00  .000E+00  .000E+00  .000E+00  .000E+00  .000E+00  .000E+00
  .000E+00  .000E+00  .000E+00  .000E+00  .000E+00  .000E+00  .000E+00  .000E+00
  .000E+00  .000E+00  .000E+00  .000E+00  .000E+00  .000E+00  .000E+00  .000E+00
  .000E+00  .000E+00  .000E+00  .000E+00  .000E+00  .000E+00  .000E+00  .000E+00
  .000E+00  .000E+00  .000E+00  .000E+00  .000E+00  .000E+00  .000E+00  .000E+00
  .000E+00  .000E+00  .000E+00  .000E+00  .000E+00  .000E+00  .000E+00  .000E+00
  .000E+00  .000E+00  .000E+00  .000E+00  .000E+00  .000E+00  .000E+00  .000E+00
  .000E+00  .000E+00  .000E+00  .000E+00  .000E+00  .000E+00  .000E+00  .000E+00
  .000E+00  .000E+00  .000E+00  .000E+00  .000E+00  .000E+00  .000E+00  .000E+00
  .000E+00  .000E+00  .000E+00  .000E+00  .000E+00  .000E+00  .000E+00  .000E+00
  .000E+00  .000E+00  .000E+00  .000E+00  .000E+00  .000E+00  .000E+00  .000E+00
  .000E+00  .000E+00  .000E+00  .000E+00
Damping =  .05. Data of Sd,Sv,Sa,Pssv,ttSd,ttSv,ttSa :
  .219E-02  .266E-02  .293E-02  .290E-02  .357E-02  .425E-02  .568E-02  .669E-02
  .772E-02  .996E-02  .163E-01  .220E-01  .269E-01  .338E-01  .382E-01  .399E-01
  .401E-01  .389E-01  .367E-01  .498E-01  .492E-01  .497E-01  .463E-01  .433E-01
  .402E-01  .469E-01  .601E-01  .787E-01  .996E-01  .118E+00  .142E+00  .168E+00
  .189E+00  .206E+00  .218E+00  .227E+00  .236E+00  .244E+00  .250E+00  .257E+00
  .266E+00  .295E+00  .305E+00  .290E+00  .272E+00  .268E+00  .260E+00  .249E+00
  .239E+00  .228E+00  .219E+00  .204E+00  .192E+00  .182E+00  .179E+00  .184E+00
  .189E+00  .193E+00  .196E+00  .199E+00  .201E+00  .204E+00  .206E+00  .206E+00
  .205E+00  .204E+00  .202E+00  .199E+00  .197E+00  .195E+00  .193E+00  .191E+00
  .189E+00  .188E+00  .186E+00  .185E+00  .183E+00  .181E+00  .179E+00  .178E+00
  .177E+00  .177E+00  .176E+00  .176E+00  .175E+00  .175E+00  .175E+00  .174E+00
  .174E+00  .174E+00  .173E+00  .000E+00  .000E+00  .000E+00  .000E+00  .000E+00
  .000E+00  .000E+00  .000E+00  .000E+00
  .243E+00  .281E+00  .287E+00  .274E+00  .272E+00  .307E+00  .449E+00  .526E+00
  .597E+00  .749E+00  .119E+01  .152E+01  .187E+01  .223E+01  .250E+01  .235E+01
  .229E+01  .212E+01  .191E+01  .244E+01  .231E+01  .203E+01  .190E+01  .164E+01
  .140E+01  .162E+01  .183E+01  .211E+01  .238E+01  .260E+01  .278E+01  .301E+01
  .316E+01  .319E+01  .342E+01  .354E+01  .361E+01  .395E+01  .408E+01  .397E+01
  .378E+01  .372E+01  .314E+01  .336E+01  .305E+01  .282E+01  .271E+01  .254E+01
  .244E+01  .234E+01  .226E+01  .213E+01  .204E+01  .196E+01  .189E+01  .183E+01
  .178E+01  .173E+01  .168E+01  .164E+01  .161E+01  .155E+01  .150E+01  .146E+01
  .143E+01  .141E+01  .141E+01  .142E+01  .142E+01  .142E+01  .142E+01  .142E+01
  .141E+01  .141E+01  .141E+01  .141E+01  .141E+01  .141E+01  .140E+01  .140E+01
  .140E+01  .140E+01  .140E+01  .140E+01  .140E+01  .140E+01  .140E+01  .140E+01
  .140E+01  .140E+01  .140E+01  .000E+00  .000E+00  .000E+00  .000E+00  .000E+00
  .000E+00  .000E+00  .000E+00  .000E+00
  .141E+00  .154E+00  .153E+00  .141E+00  .159E+00  .175E+00  .191E+00  .190E+00
  .188E+00  .211E+00  .294E+00  .352E+00  .385E+00  .427E+00  .439E+00  .412E+00
  .343E+00  .282E+00  .220E+00  .256E+00  .227E+00  .199E+00  .163E+00  .139E+00
  .114E+00  .119E+00  .128E+00  .139E+00  .151E+00  .156E+00  .163E+00  .168E+00
  .169E+00  .163E+00  .155E+00  .146E+00  .137E+00  .130E+00  .121E+00  .115E+00
  .109E+00  .101E+00  .876E-01  .709E-01  .574E-01  .493E-01  .421E-01  .357E-01
  .304E-01  .261E-01  .226E-01  .174E-01  .136E-01  .111E-01  .971E-02  .874E-02
  .791E-02  .718E-02  .655E-02  .599E-02  .549E-02  .466E-02  .399E-02  .344E-02
  .299E-02  .262E-02  .231E-02  .206E-02  .184E-02  .166E-02  .151E-02  .138E-02
  .126E-02  .116E-02  .108E-02  .999E-03  .845E-03  .730E-03  .640E-03  .569E-03
  .510E-03  .462E-03  .421E-03  .387E-03  .358E-03  .333E-03  .291E-03  .259E-03
  .233E-03  .211E-03  .193E-03  .000E+00  .000E+00  .000E+00  .000E+00  .000E+00
  .000E+00  .000E+00  .000E+00  .000E+00
  .345E+00  .398E+00  .418E+00  .397E+00  .467E+00  .534E+00  .648E+00  .701E+00
  .746E+00  .894E+00  .136E+01  .172E+01  .199E+01  .236E+01  .253E+01  .250E+01
  .229E+01  .204E+01  .178E+01  .223E+01  .206E+01  .195E+01  .171E+01  .151E+01
  .133E+01  .147E+01  .172E+01  .206E+01  .241E+01  .266E+01  .297E+01  .330E+01
  .350E+01  .360E+01  .360E+01  .357E+01  .353E+01  .348E+01  .342E+01  .337E+01
  .334E+01  .338E+01  .319E+01  .280E+01  .244E+01  .225E+01  .204E+01  .184E+01
  .167E+01  .151E+01  .138E+01  .116E+01  .100E+01  .878E+00  .804E+00  .773E+00
  .743E+00  .714E+00  .686E+00  .659E+00  .633E+00  .584E+00  .539E+00  .497E+00
  .460E+00  .426E+00  .396E+00  .368E+00  .344E+00  .322E+00  .303E+00  .286E+00
  .270E+00  .256E+00  .244E+00  .233E+00  .209E+00  .189E+00  .173E+00  .160E+00
  .149E+00  .139E+00  .130E+00  .123E+00  .116E+00  .110E+00  .997E-01  .912E-01
  .840E-01  .779E-01  .727E-01  .000E+00  .000E+00  .000E+00  .000E+00  .000E+00
  .000E+00  .000E+00  .000E+00  .000E+00
  .691E+01  .691E+01  .692E+01  .692E+01  .668E+01  .668E+01  .669E+01  .673E+01
  .677E+01  .677E+01  .686E+01  .687E+01  .692E+01  .693E+01  .693E+01  .704E+01
  .717E+01  .718E+01  .676E+01  .677E+01  .671E+01  .696E+01  .690E+01  .690E+01
  .691E+01  .775E+01  .627E+01  .628E+01  .629E+01  .629E+01  .646E+01  .648E+01
  .650E+01  .651E+01  .652E+01  .654E+01  .655E+01  .657E+01  .658E+01  .660E+01
  .662E+01  .666E+01  .668E+01  .669E+01  .643E+01  .644E+01  .645E+01  .645E+01
  .646E+01  .647E+01  .648E+01  .649E+01  .653E+01  .654E+01  .623E+01  .623E+01
  .623E+01  .623E+01  .623E+01  .623E+01  .623E+01  .623E+01  .623E+01  .624E+01
  .624E+01  .624E+01  .624E+01  .624E+01  .624E+01  .624E+01  .624E+01  .624E+01
  .624E+01  .624E+01  .624E+01  .624E+01  .624E+01  .624E+01  .624E+01  .624E+01
  .624E+01  .624E+01  .624E+01  .624E+01  .624E+01  .624E+01  .624E+01  .624E+01
  .624E+01  .624E+01  .624E+01  .000E+00  .000E+00  .000E+00  .000E+00  .000E+00
  .000E+00  .000E+00  .000E+00  .000E+00
  .690E+01  .690E+01  .690E+01  .684E+01  .676E+01  .666E+01  .670E+01  .675E+01
  .676E+01  .676E+01  .684E+01  .685E+01  .690E+01  .690E+01  .691E+01  .692E+01
  .720E+01  .721E+01  .679E+01  .674E+01  .674E+01  .675E+01  .693E+01  .694E+01
  .694E+01  .718E+01  .711E+01  .670E+01  .635E+01  .636E+01  .653E+01  .656E+01
  .657E+01  .644E+01  .644E+01  .645E+01  .669E+01  .670E+01  .670E+01  .671E+01
  .671E+01  .706E+01  .688E+01  .688E+01  .689E+01  .664E+01  .664E+01  .630E+01
  .630E+01  .630E+01  .630E+01  .630E+01  .630E+01  .630E+01  .630E+01  .630E+01
  .630E+01  .630E+01  .630E+01  .630E+01  .630E+01  .630E+01  .630E+01  .630E+01
  .630E+01  .614E+01  .614E+01  .614E+01  .614E+01  .614E+01  .614E+01  .614E+01
  .614E+01  .614E+01  .614E+01  .614E+01  .614E+01  .614E+01  .614E+01  .614E+01
  .614E+01  .614E+01  .614E+01  .614E+01  .614E+01  .614E+01  .614E+01  .614E+01
  .614E+01  .614E+01  .614E+01  .000E+00  .000E+00  .000E+00  .000E+00  .000E+00
  .000E+00  .000E+00  .000E+00  .000E+00
  .691E+01  .691E+01  .692E+01  .692E+01  .668E+01  .668E+01  .668E+01  .673E+01
  .677E+01  .677E+01  .686E+01  .687E+01  .692E+01  .693E+01  .693E+01  .704E+01
  .717E+01  .718E+01  .675E+01  .677E+01  .671E+01  .696E+01  .689E+01  .690E+01
  .690E+01  .774E+01  .627E+01  .628E+01  .628E+01  .629E+01  .646E+01  .648E+01
  .649E+01  .650E+01  .652E+01  .653E+01  .655E+01  .656E+01  .657E+01  .659E+01
  .661E+01  .665E+01  .667E+01  .668E+01  .642E+01  .643E+01  .643E+01  .644E+01
  .645E+01  .645E+01  .646E+01  .647E+01  .652E+01  .653E+01  .621E+01  .621E+01
  .621E+01  .621E+01  .621E+01  .621E+01  .621E+01  .621E+01  .621E+01  .621E+01
  .621E+01  .621E+01  .620E+01  .620E+01  .620E+01  .620E+01  .620E+01  .620E+01
  .620E+01  .620E+01  .620E+01  .620E+01  .620E+01  .619E+01  .619E+01  .619E+01
  .619E+01  .619E+01  .619E+01  .618E+01  .618E+01  .618E+01  .618E+01  .617E+01
  .617E+01  .617E+01  .616E+01  .000E+00  .000E+00  .000E+00  .000E+00  .000E+00
  .000E+00  .000E+00  .000E+00  .000E+00
/&   ----------  End of spectral data for channel  1  ----------
Response and Fourier amplitude spectra (91 periods,  .04 - 15.0 sec)   for      
Corrected accelerogram   24833-L1226-01250.03       Chan  2:  Up         from   
Uncorrected Accelerogram Data             Processed: 09/10/01, CDMG  ar003      
Record of Sun Sep  9, 2001 16:59:16 PDT               (Avol1 v4.6  7/01 CSMIP)  
CSMIP Preliminary Processing            (Origin:  To be determined)             
24833-L1226-01250.03                 Start time:  9/09/01, 23:59:16.0 UTC (GPS) 
Station No. 24833   34.062N, 118.315W      Etna  s/n 1226  (3 Channels)         
(LADOT 17)                                                                      
Chan  2:  Up                                                                    
Record of Sun Sep  9, 2001 16:59:16 PDT    Sun Sep  9, 2001 16:59:16 PDT        
Hypocenter:  To be determined.               ML:  To be determined.             
Instr Period =  .0107 sec,  Damping =  .660,  Sensitivity =  .63  v/g           
                        Record length = 44.000 sec.                             
                                     Uncor Max  =  -.027 g, at   5.755 sec.     
RMS accel of (uncor) record  =        .                                         
Accelerogram bandpass filtered with 3 dB pts at   .30 and 40.00 cyc/sec         
                 instrument- and baseline-corrected                             
                                                                                
                                                                                
                                                                                
                                                                                
                                                                                
Record of Sun Sep  9, 2001 16:59:16 PDT    Sun Sep  9, 2001 16:59:16 PDT        
                                                                                
24833-L1226-01250.03      (LADOT 17)    Chan  2:  Up                            
                                                                                
24833-L1226-01250.03      (LADOT 17)    Chan  2:  Up                            
                                                                                
Units for spectra are inches and sec, except Sa is in fraction of g.            
                                                                                
    2  100    2    3    3  200    1    3    1   24   12 1226    024833    1    0
   23   59   16    0  252    9    9 2001   10    3  500 8800   39   10   72  360
 8800    1   50    3 1226    1    3  440    1    0    0    0    0    0    0    0
    0    4    0    0 4400    2    0    0    0    0   72   10    0    0    0 4400
    0 4400   11   91    1    3    0    0    0    0    3    0    0    0    0    2
    2    2    4    0   32   99    0   32   32    0    0    1    0    0    0    0
  -99   -1    0    0
      .011      .660    44.000      .003      .000   625.000     -.027     5.755
    93.100      .298      .477      .000     5.000      .000      .000      .000
     2.500   -33.951     -.004     -.036     5.000    30.000      .000      .002
     -.003     -.005     2.000    15.000    34.062  -118.315      .029      .200
     6.936     -.015      .005  -999.000      .000      .000   -14.300      .000
  1000.000     1.017      .000      .000      .000      .000      .000      .000
     4.600     4.400      .000   980.665      .010    44.000    14.817      .000
      .000    40.000      .000    44.000      .010      .300      .000      .000
     5.750   -25.683     7.070     -.480     7.760      .038      .000      .300
    40.000      .010      .010      .000      .010      .020      .000      .000
      .109      .065      .032      .019      .004      .000      .000      .000
      .000      .000      .000      .000      .000      .000      .000      .000
      .000      .000      .000      .000
      .050
      .040      .042      .044      .046      .048      .050      .055      .060
      .065      .070      .075      .080      .085      .090      .095      .100
      .110      .120      .130      .140      .150      .160      .170      .180
      .190      .200      .220      .240      .260      .280      .300      .320
      .340      .360      .380      .400      .420      .440      .460      .480
      .500      .550      .600      .650      .700      .750      .800      .850
      .900      .950     1.000     1.100     1.200     1.300     1.400     1.500
     1.600     1.700     1.800     1.900     2.000     2.200     2.400     2.600
     2.800     3.000     3.200     3.400     3.600     3.800     4.000     4.200
     4.400     4.600     4.800     5.000     5.500     6.000     6.500     7.000
     7.500     8.000     8.500     9.000     9.500    10.000    11.000    12.000
    13.000    14.000    15.000      .000      .000      .000      .000      .000
      .000      .000      .000      .000
Fourier amplitude spectra in in/sec.
  .000E+00  .000E+00  .000E+00  .000E+00  .000E+00  .000E+00  .000E+00  .000E+00
  .000E+00  .000E+00  .000E+00  .000E+00  .000E+00  .000E+00  .000E+00  .000E+00
  .000E+00  .000E+00  .000E+00  .000E+00  .000E+00  .000E+00  .000E+00  .000E+00
  .000E+00  .000E+00  .000E+00  .000E+00  .000E+00  .000E+00  .000E+00  .000E+00
  .000E+00  .000E+00  .000E+00  .000E+00  .000E+00  .000E+00  .000E+00  .000E+00
  .000E+00  .000E+00  .000E+00  .000E+00  .000E+00  .000E+00  .000E+00  .000E+00
  .000E+00  .000E+00  .000E+00  .000E+00  .000E+00  .000E+00  .000E+00  .000E+00
  .000E+00  .000E+00  .000E+00  .000E+00  .000E+00  .000E+00  .000E+00  .000E+00
  .000E+00  .000E+00  .000E+00  .000E+00  .000E+00  .000E+00  .000E+00  .000E+00
  .000E+00  .000E+00  .000E+00  .000E+00  .000E+00  .000E+00  .000E+00  .000E+00
  .000E+00  .000E+00  .000E+00  .000E+00  .000E+00  .000E+00  .000E+00  .000E+00
  .000E+00  .000E+00  .000E+00  .000E+00  .000E+00  .000E+00  .000E+00  .000E+00
  .000E+00  .000E+00  .000E+00  .000E+00
Damping =  .05. Data of Sd,Sv,Sa,Pssv,ttSd,ttSv,ttSa :
  .114E-02  .127E-02  .141E-02  .154E-02  .156E-02  .142E-02  .218E-02  .350E-02
  .444E-02  .472E-02  .443E-02  .390E-02  .414E-02  .394E-02  .510E-02  .509E-02
  .697E-02  .777E-02  .110E-01  .151E-01  .170E-01  .150E-01  .110E-01  .960E-02
  .105E-01  .135E-01  .146E-01  .126E-01  .138E-01  .152E-01  .173E-01  .166E-01
  .216E-01  .250E-01  .231E-01  .244E-01  .249E-01  .314E-01  .372E-01  .367E-01
