Response and Fourier amplitude spectra (91 periods,  .04 - 15.0 sec)   for      
Corrected accelerogram   24030-L1827-01252.05       Chan  1:   0 Deg     from   
Uncorrected Accelerogram Data             Processed: 09/10/01, CDMG  030ap005   
Record of Sun Sep  9, 2001 16:59:22 PDT               (Avol1 v4.6  7/01 CSMIP)  
CSMIP Preliminary Processing            (Origin:  To be determined)             
24030-L1827-01252.05                 Start time:  9/09/01, 23:59:22.0 UTC (GPS) 
Station No. 24030   34.097N, 118.130W      Etna  s/n 1827  (3 Channels)         
Alhambra - 1st & Woodward                                                       
Chan  1:   0 Deg                                                                
Record of Sun Sep  9, 2001 16:59:22 PDT    Sun Sep  9, 2001 16:59:22 PDT        
Hypocenter:  To be determined.               ML:  To be determined.             
Instr Period =  .0105 sec,  Damping =  .680,  Sensitivity =  .63  v/g           
                        Record length = 36.000 sec.                             
                                     Uncor Max  =  -.008 g, at   5.055 sec.     
RMS accel of (uncor) record  =        .                                         
Accelerogram bandpass filtered with 3 dB pts at   .30 and 40.00 cyc/sec         
                 instrument- and baseline-corrected                             
                                                                                
                                                                                
                                                                                
                                                                                
                                                                                
Record of Sun Sep  9, 2001 16:59:22 PDT    Sun Sep  9, 2001 16:59:22 PDT        
                                                                                
24030-L1827-01252.05      Alhambra - 1st & Woodward   Chan  1:   0 Deg          
                                                                                
24030-L1827-01252.05      Alhambra - 1st & Woodward   Chan  1:   0 Deg          
                                                                                
Units for spectra are inches and sec, except Sa is in fraction of g.            
                                                                                
    1  100    1    3    3  200    1    3    1   24   12 1827    024030    1    0
   23   59   22    0  252    9    9 2001   10    3    0 7200   39   25   72 -999
 7200    1   50    3 1827    1    5  360    1    0    0    0    0    0    0    0
    0    4    0    0 3600    2    0    0    0    0   72   25    0    0    0 3600
    0 3600   26   91    1    3    0    0    0    0    3    0    0    0    0    2
    2    2    4    0   32   99 -999   32   32    0    0    1    0    0    0    0
  -99   -1    0    0
      .011      .680    36.000      .001      .000   625.000     -.008     5.055
    95.100      .298      .477      .000     5.000      .000      .000      .000
     2.500    10.007      .011      .003     5.000    30.000      .000     -.004
     -.003      .001     2.000    15.000    34.097  -118.130      .232      .207
      .892     -.031      .032  -999.000      .000      .000   -13.300      .000
  1000.000     1.018      .000      .000      .000      .000      .000      .000
     4.600     4.400      .000   980.665      .010    36.000    15.136      .000
      .000    40.000      .000    36.000      .010      .300      .000      .000
     5.050    -8.082     5.010      .284     8.450      .024      .000      .300
    40.000      .010      .010      .000      .010      .011      .000      .000
      .035      .160      .021      .016      .004      .000      .000      .000
      .000      .000      .000      .000      .000      .000      .000      .000
      .000      .000      .000      .000
      .050
      .040      .042      .044      .046      .048      .050      .055      .060
      .065      .070      .075      .080      .085      .090      .095      .100
      .110      .120      .130      .140      .150      .160      .170      .180
      .190      .200      .220      .240      .260      .280      .300      .320
      .340      .360      .380      .400      .420      .440      .460      .480
      .500      .550      .600      .650      .700      .750      .800      .850
      .900      .950     1.000     1.100     1.200     1.300     1.400     1.500
     1.600     1.700     1.800     1.900     2.000     2.200     2.400     2.600
     2.800     3.000     3.200     3.400     3.600     3.800     4.000     4.200
     4.400     4.600     4.800     5.000     5.500     6.000     6.500     7.000
     7.500     8.000     8.500     9.000     9.500    10.000    11.000    12.000
    13.000    14.000    15.000      .000      .000      .000      .000      .000
      .000      .000      .000      .000
Fourier amplitude spectra in in/sec.
  .000E+00  .000E+00  .000E+00  .000E+00  .000E+00  .000E+00  .000E+00  .000E+00
  .000E+00  .000E+00  .000E+00  .000E+00  .000E+00  .000E+00  .000E+00  .000E+00
  .000E+00  .000E+00  .000E+00  .000E+00  .000E+00  .000E+00  .000E+00  .000E+00
  .000E+00  .000E+00  .000E+00  .000E+00  .000E+00  .000E+00  .000E+00  .000E+00
  .000E+00  .000E+00  .000E+00  .000E+00  .000E+00  .000E+00  .000E+00  .000E+00
  .000E+00  .000E+00  .000E+00  .000E+00  .000E+00  .000E+00  .000E+00  .000E+00
  .000E+00  .000E+00  .000E+00  .000E+00  .000E+00  .000E+00  .000E+00  .000E+00
  .000E+00  .000E+00  .000E+00  .000E+00  .000E+00  .000E+00  .000E+00  .000E+00
  .000E+00  .000E+00  .000E+00  .000E+00  .000E+00  .000E+00  .000E+00  .000E+00
  .000E+00  .000E+00  .000E+00  .000E+00  .000E+00  .000E+00  .000E+00  .000E+00
  .000E+00  .000E+00  .000E+00  .000E+00  .000E+00  .000E+00  .000E+00  .000E+00
  .000E+00  .000E+00  .000E+00  .000E+00  .000E+00  .000E+00  .000E+00  .000E+00
  .000E+00  .000E+00  .000E+00  .000E+00
Damping =  .05. Data of Sd,Sv,Sa,Pssv,ttSd,ttSv,ttSa :
  .146E-03  .171E-03  .198E-03  .221E-03  .235E-03  .246E-03  .311E-03  .346E-03
  .612E-03  .804E-03  .958E-03  .982E-03  .101E-02  .120E-02  .150E-02  .179E-02
  .234E-02  .282E-02  .301E-02  .379E-02  .647E-02  .874E-02  .964E-02  .887E-02
  .827E-02  .806E-02  .835E-02  .825E-02  .110E-01  .148E-01  .156E-01  .115E-01
  .115E-01  .153E-01  .149E-01  .135E-01  .140E-01  .153E-01  .165E-01  .161E-01
  .163E-01  .165E-01  .171E-01  .237E-01  .249E-01  .226E-01  .253E-01  .286E-01
  .288E-01  .355E-01  .414E-01  .426E-01  .284E-01  .226E-01  .251E-01  .258E-01
  .216E-01  .206E-01  .194E-01  .227E-01  .236E-01  .229E-01  .230E-01  .176E-01
  .191E-01  .181E-01  .160E-01  .137E-01  .126E-01  .124E-01  .122E-01  .120E-01
  .119E-01  .118E-01  .117E-01  .116E-01  .114E-01  .112E-01  .110E-01  .108E-01
  .107E-01  .105E-01  .104E-01  .103E-01  .102E-01  .102E-01  .100E-01  .990E-02
  .980E-02  .973E-02  .971E-02  .000E+00  .000E+00  .000E+00  .000E+00  .000E+00
  .000E+00  .000E+00  .000E+00  .000E+00
  .759E-02  .917E-02  .950E-02  .104E-01  .114E-01  .138E-01  .237E-01  .288E-01
  .382E-01  .510E-01  .682E-01  .689E-01  .664E-01  .706E-01  .910E-01  .105E+00
  .122E+00  .133E+00  .142E+00  .162E+00  .269E+00  .326E+00  .374E+00  .327E+00
  .281E+00  .253E+00  .226E+00  .198E+00  .251E+00  .332E+00  .322E+00  .241E+00
  .224E+00  .262E+00  .282E+00  .233E+00  .231E+00  .249E+00  .246E+00  .224E+00
  .211E+00  .210E+00  .207E+00  .242E+00  .233E+00  .221E+00  .229E+00  .228E+00
  .209E+00  .253E+00  .300E+00  .258E+00  .186E+00  .180E+00  .173E+00  .162E+00
  .156E+00  .154E+00  .154E+00  .153E+00  .151E+00  .148E+00  .143E+00  .139E+00
  .135E+00  .131E+00  .128E+00  .126E+00  .124E+00  .123E+00  .121E+00  .120E+00
  .119E+00  .119E+00  .118E+00  .117E+00  .116E+00  .116E+00  .115E+00  .114E+00
  .114E+00  .114E+00  .114E+00  .113E+00  .113E+00  .113E+00  .113E+00  .113E+00
  .113E+00  .113E+00  .113E+00  .000E+00  .000E+00  .000E+00  .000E+00  .000E+00
  .000E+00  .000E+00  .000E+00  .000E+00
  .931E-02  .992E-02  .105E-01  .107E-01  .104E-01  .101E-01  .104E-01  .984E-02
  .148E-01  .169E-01  .173E-01  .158E-01  .143E-01  .152E-01  .170E-01  .181E-01
  .201E-01  .201E-01  .185E-01  .198E-01  .299E-01  .348E-01  .341E-01  .281E-01
  .233E-01  .205E-01  .179E-01  .146E-01  .167E-01  .194E-01  .178E-01  .117E-01
  .102E-01  .122E-01  .106E-01  .869E-02  .819E-02  .815E-02  .801E-02  .719E-02
  .669E-02  .561E-02  .489E-02  .578E-02  .523E-02  .413E-02  .406E-02  .407E-02
  .365E-02  .405E-02  .426E-02  .363E-02  .203E-02  .138E-02  .133E-02  .119E-02
  .880E-03  .751E-03  .631E-03  .663E-03  .623E-03  .494E-03  .416E-03  .280E-03
  .263E-03  .222E-03  .176E-03  .137E-03  .122E-03  .109E-03  .988E-04  .900E-04
  .824E-04  .758E-04  .701E-04  .652E-04  .552E-04  .476E-04  .417E-04  .370E-04
  .332E-04  .300E-04  .274E-04  .252E-04  .232E-04  .216E-04  .189E-04  .169E-04
  .155E-04  .142E-04  .131E-04  .000E+00  .000E+00  .000E+00  .000E+00  .000E+00
  .000E+00  .000E+00  .000E+00  .000E+00
  .229E-01  .256E-01  .283E-01  .302E-01  .308E-01  .309E-01  .355E-01  .362E-01
  .591E-01  .721E-01  .803E-01  .772E-01  .744E-01  .841E-01  .989E-01  .112E+00
  .134E+00  .148E+00  .145E+00  .170E+00  .271E+00  .343E+00  .356E+00  .310E+00
  .274E+00  .253E+00  .238E+00  .216E+00  .266E+00  .332E+00  .327E+00  .226E+00
  .213E+00  .267E+00  .247E+00  .212E+00  .210E+00  .219E+00  .225E+00  .211E+00
  .204E+00  .188E+00  .180E+00  .229E+00  .223E+00  .189E+00  .199E+00  .211E+00
  .201E+00  .235E+00  .260E+00  .243E+00  .149E+00  .109E+00  .113E+00  .108E+00
  .847E-01  .760E-01  .678E-01  .750E-01  .741E-01  .654E-01  .602E-01  .426E-01
  .428E-01  .380E-01  .314E-01  .253E-01  .221E-01  .205E-01  .192E-01  .180E-01
  .170E-01  .161E-01  .153E-01  .146E-01  .130E-01  .117E-01  .106E-01  .971E-02
  .894E-02  .829E-02  .771E-02  .721E-02  .677E-02  .638E-02  .572E-02  .518E-02
  .474E-02  .437E-02  .407E-02  .000E+00  .000E+00  .000E+00  .000E+00  .000E+00
  .000E+00  .000E+00  .000E+00  .000E+00
  .505E+01  .505E+01  .505E+01  .505E+01  .505E+01  .505E+01  .547E+01  .504E+01
  .505E+01  .505E+01  .556E+01  .581E+01  .719E+01  .557E+01  .557E+01  .563E+01
  .564E+01  .513E+01  .529E+01  .529E+01  .530E+01  .541E+01  .543E+01  .544E+01
  .545E+01  .567E+01  .569E+01  .779E+01  .782E+01  .895E+01  .678E+01  .712E+01
  .788E+01  .902E+01  .888E+01  .761E+01  .762E+01  .745E+01  .746E+01  .747E+01
  .748E+01  .750E+01  .943E+01  .102E+02  .113E+02  .992E+01  .993E+01  .998E+01
  .100E+02  .100E+02  .964E+01  .930E+01  .936E+01  .935E+01  .937E+01  .892E+01
  .843E+01  .778E+01  .733E+01  .734E+01  .735E+01  .110E+02  .896E+01  .898E+01
  .843E+01  .844E+01  .844E+01  .845E+01  .465E+01  .465E+01  .465E+01  .465E+01
  .479E+01  .479E+01  .480E+01  .480E+01  .480E+01  .480E+01  .480E+01  .480E+01
  .480E+01  .480E+01  .480E+01  .480E+01  .480E+01  .480E+01  .480E+01  .480E+01
  .480E+01  .480E+01  .844E+01  .000E+00  .000E+00  .000E+00  .000E+00  .000E+00
  .000E+00  .000E+00  .000E+00  .000E+00
  .544E+01  .545E+01  .548E+01  .549E+01  .544E+01  .544E+01  .568E+01  .569E+01
  .492E+01  .553E+01  .554E+01  .579E+01  .716E+01  .559E+01  .560E+01  .560E+01
  .561E+01  .570E+01  .525E+01  .525E+01  .526E+01  .528E+01  .547E+01  .548E+01
  .549E+01  .572E+01  .574E+01  .785E+01  .827E+01  .888E+01  .685E+01  .675E+01
  .780E+01  .893E+01  .880E+01  .882E+01  .753E+01  .754E+01  .756E+01  .757E+01
  .758E+01  .740E+01  .742E+01  .113E+02  .101E+02  .101E+02  .101E+02  .101E+02
  .983E+01  .983E+01  .985E+01  .949E+01  .915E+01  .543E+01  .544E+01  .544E+01
  .882E+01  .500E+01  .500E+01  .500E+01  .500E+01  .500E+01  .500E+01  .500E+01
  .500E+01  .500E+01  .500E+01  .500E+01  .500E+01  .500E+01  .500E+01  .500E+01
  .500E+01  .500E+01  .500E+01  .500E+01  .500E+01  .500E+01  .500E+01  .500E+01
  .500E+01  .500E+01  .500E+01  .500E+01  .500E+01  .500E+01  .500E+01  .500E+01
  .500E+01  .500E+01  .500E+01  .000E+00  .000E+00  .000E+00  .000E+00  .000E+00
  .000E+00  .000E+00  .000E+00  .000E+00
  .504E+01  .505E+01  .505E+01  .505E+01  .505E+01  .505E+01  .546E+01  .504E+01
  .505E+01  .505E+01  .556E+01  .580E+01  .718E+01  .557E+01  .557E+01  .563E+01
  .564E+01  .513E+01  .528E+01  .529E+01  .522E+01  .540E+01  .551E+01  .544E+01
  .545E+01  .567E+01  .569E+01  .778E+01  .847E+01  .895E+01  .678E+01  .712E+01
  .788E+01  .902E+01  .887E+01  .761E+01  .762E+01  .744E+01  .745E+01  .747E+01
  .747E+01  .749E+01  .942E+01  .102E+02  .113E+02  .991E+01  .992E+01  .996E+01
  .999E+01  .100E+02  .963E+01  .928E+01  .934E+01  .933E+01  .935E+01  .888E+01
  .841E+01  .775E+01  .730E+01  .731E+01  .732E+01  .110E+02  .894E+01  .666E+01
  .840E+01  .841E+01  .841E+01  .841E+01  .461E+01  .461E+01  .461E+01  .461E+01
  .461E+01  .461E+01  .460E+01  .460E+01  .460E+01  .460E+01  .460E+01  .460E+01
  .460E+01  .460E+01  .460E+01  .460E+01  .460E+01  .460E+01  .460E+01  .883E+01
  .883E+01  .883E+01  .883E+01  .000E+00  .000E+00  .000E+00  .000E+00  .000E+00
  .000E+00  .000E+00  .000E+00  .000E+00
/&   ----------  End of spectral data for channel  1  ----------
Response and Fourier amplitude spectra (91 periods,  .04 - 15.0 sec)   for      
Corrected accelerogram   24030-L1827-01252.05       Chan  2:   0 Deg     from   
Uncorrected Accelerogram Data             Processed: 09/10/01, CDMG  030ap005   
Record of Sun Sep  9, 2001 16:59:22 PDT               (Avol1 v4.6  7/01 CSMIP)  
CSMIP Preliminary Processing            (Origin:  To be determined)             
24030-L1827-01252.05                 Start time:  9/09/01, 23:59:22.0 UTC (GPS) 
Station No. 24030   34.097N, 118.130W      Etna  s/n 1827  (3 Channels)         
Alhambra - 1st & Woodward                                                       
Chan  2:   0 Deg                                                                
Record of Sun Sep  9, 2001 16:59:22 PDT    Sun Sep  9, 2001 16:59:22 PDT        
Hypocenter:  To be determined.               ML:  To be determined.             
Instr Period =  .0106 sec,  Damping =  .680,  Sensitivity =  .63  v/g           
                        Record length = 36.000 sec.                             
                                     Uncor Max  =  -.005 g, at   6.205 sec.     
RMS accel of (uncor) record  =        .                                         
Accelerogram bandpass filtered with 3 dB pts at   .30 and 40.00 cyc/sec         
                 instrument- and baseline-corrected                             
                                                                                
                                                                                
                                                                                
                                                                                
                                                                                
Record of Sun Sep  9, 2001 16:59:22 PDT    Sun Sep  9, 2001 16:59:22 PDT        
                                                                                
24030-L1827-01252.05      Alhambra - 1st & Woodward   Chan  2:   0 Deg          
                                                                                
24030-L1827-01252.05      Alhambra - 1st & Woodward   Chan  2:   0 Deg          
                                                                                
Units for spectra are inches and sec, except Sa is in fraction of g.            
                                                                                
    2  100    2    3    3  200    1    3    1   24   12 1827    024030    1    0
   23   59   22    0  252    9    9 2001   10    3    0 7200   39   25   72 -999
 7200    1   50    3 1827    1    5  360    1    0    0    0    0    0    0    0
    0    4    0    0 3600    2    0    0    0    0   72   25    0    0    0 3600
    0 3600   26   91    1    3    0    0    0    0    3    0    0    0    0    2
    2    2    4    0   32   99 -999   32   32    0    0    1    0    0    0    0
  -99   -1    0    0
      .011      .680    36.000      .001      .000   625.000     -.005     6.205
    94.500      .298      .477      .000     5.000      .000      .000      .000
     2.500   -37.067     -.020     -.026     5.000    30.000      .000     -.016
     -.001      .016     2.000    15.000    34.097  -118.130      .878      .165
      .188     -.098      .129  -999.000      .000      .000   -13.300      .000
  1000.000     1.007      .000      .000      .000      .000      .000      .000
     4.600     4.400      .000   980.665      .010    36.000    15.040      .000
      .000    40.000      .000    36.000      .010      .300      .000      .000
     6.200    -5.229     4.250      .180     6.200      .016      .000      .300
    40.000      .010      .010      .000      .010      .008      .000      .000
      .019      .130      .011      .015      .002      .000      .000      .000
      .000      .000      .000      .000      .000      .000      .000      .000
      .000      .000      .000      .000
      .050
      .040      .042      .044      .046      .048      .050      .055      .060
      .065      .070      .075      .080      .085      .090      .095      .100
      .110      .120      .130      .140      .150      .160      .170      .180
      .190      .200      .220      .240      .260      .280      .300      .320
      .340      .360      .380      .400      .420      .440      .460      .480
      .500      .550      .600      .650      .700      .750      .800      .850
      .900      .950     1.000     1.100     1.200     1.300     1.400     1.500
     1.600     1.700     1.800     1.900     2.000     2.200     2.400     2.600
     2.800     3.000     3.200     3.400     3.600     3.800     4.000     4.200
     4.400     4.600     4.800     5.000     5.500     6.000     6.500     7.000
     7.500     8.000     8.500     9.000     9.500    10.000    11.000    12.000
    13.000    14.000    15.000      .000      .000      .000      .000      .000
      .000      .000      .000      .000
Fourier amplitude spectra in in/sec.
  .000E+00  .000E+00  .000E+00  .000E+00  .000E+00  .000E+00  .000E+00  .000E+00
  .000E+00  .000E+00  .000E+00  .000E+00  .000E+00  .000E+00  .000E+00  .000E+00
  .000E+00  .000E+00  .000E+00  .000E+00  .000E+00  .000E+00  .000E+00  .000E+00
  .000E+00  .000E+00  .000E+00  .000E+00  .000E+00  .000E+00  .000E+00  .000E+00
  .000E+00  .000E+00  .000E+00  .000E+00  .000E+00  .000E+00  .000E+00  .000E+00
  .000E+00  .000E+00  .000E+00  .000E+00  .000E+00  .000E+00  .000E+00  .000E+00
  .000E+00  .000E+00  .000E+00  .000E+00  .000E+00  .000E+00  .000E+00  .000E+00
  .000E+00  .000E+00  .000E+00  .000E+00  .000E+00  .000E+00  .000E+00  .000E+00
  .000E+00  .000E+00  .000E+00  .000E+00  .000E+00  .000E+00  .000E+00  .000E+00
  .000E+00  .000E+00  .000E+00  .000E+00  .000E+00  .000E+00  .000E+00  .000E+00
  .000E+00  .000E+00  .000E+00  .000E+00  .000E+00  .000E+00  .000E+00  .000E+00
  .000E+00  .000E+00  .000E+00  .000E+00  .000E+00  .000E+00  .000E+00  .000E+00
  .000E+00  .000E+00  .000E+00  .000E+00
Damping =  .05. Data of Sd,Sv,Sa,Pssv,ttSd,ttSv,ttSa :
  .109E-03  .130E-03  .174E-03  .204E-03  .214E-03  .246E-03  .277E-03  .408E-03
  .528E-03  .706E-03  .761E-03  .105E-02  .132E-02  .119E-02  .143E-02  .119E-02
  .144E-02  .191E-02  .318E-02  .302E-02  .400E-02  .450E-02  .411E-02  .341E-02
  .310E-02  .400E-02  .586E-02  .804E-02  .954E-02  .122E-01  .142E-01  .118E-01
  .133E-01  .138E-01  .148E-01  .150E-01  .127E-01  .116E-01  .102E-01  .843E-02
