Response and Fourier amplitude spectra (91 periods,  .04 - 15.0 sec)   for      
Corrected accelerogram   24010-L1794-01252.07       Chan  1:   0 Deg     from   
Uncorrected Accelerogram Data             Processed: 09/10/01, CDMG  010at007   
Record of Sun Sep  9, 2001 16:59:20 PDT               (Avol1 v4.6  7/01 CSMIP)  
CSMIP Preliminary Processing            (Origin:  To be determined)             
24010-L1794-01252.07                 Start time:  9/09/01, 23:59:20.0 UTC (GPS) 
Station No. 24010   34.207N, 118.233W      Etna  s/n 1794  (3 Channels)         
Glendale - Rosemont & Honolulu                                                  
Chan  1:   0 Deg                                                                
Record of Sun Sep  9, 2001 16:59:20 PDT    Sun Sep  9, 2001 16:59:20 PDT        
Hypocenter:  To be determined.               ML:  To be determined.             
Instr Period =  .0099 sec,  Damping =  .670,  Sensitivity =  .63  v/g           
                        Record length = 37.000 sec.                             
                                     Uncor Max  =  -.016 g, at   5.305 sec.     
RMS accel of (uncor) record  =        .                                         
Accelerogram bandpass filtered with 3 dB pts at   .30 and 40.00 cyc/sec         
                 instrument- and baseline-corrected                             
                                                                                
                                                                                
                                                                                
                                                                                
                                                                                
Record of Sun Sep  9, 2001 16:59:20 PDT    Sun Sep  9, 2001 16:59:20 PDT        
                                                                                
24010-L1794-01252.07      Glendale - Rosemont & Honolulu    Chan  1:   0 Deg    
                                                                                
24010-L1794-01252.07      Glendale - Rosemont & Honolulu    Chan  1:   0 Deg    
                                                                                
Units for spectra are inches and sec, except Sa is in fraction of g.            
                                                                                
    1  100    1    3    3  200    1    3    1   24   12 1794    024010    1    0
   23   59   20    0  252    9    9 2001   10    3    0 7400   39   30   72 -999
 7400    1   50    3 1794    1    7  370    1    0    0    0    0    0    0    0
    0    4    0    0 3700    2    0    0    0    0   72   30    0    0    0 3700
    0 3700   31   91    1    3    0    0    0    0    3    0    0    0    0    2
    2    2    4    0   32   99 -999   32   32    0    0    1    0    0    0    0
  -99   -1    0    0
      .010      .670    37.000      .001      .000   625.000     -.016     5.305
   100.700      .298      .477      .000     5.000      .000      .000      .000
     2.500    -1.669      .009     -.006     5.000    30.000      .000     -.035
     -.001      .034     2.000    15.000    34.207  -118.233      .173      .201
     1.164      .010      .058  -999.000      .000      .000   -13.400      .000
  1000.000     1.015      .000      .000      .000      .000      .000      .000
     4.600     4.400      .000   980.665      .010    37.000    16.027      .000
      .000    40.000      .000    37.000      .010      .300      .000      .000
     5.300   -16.044     5.250      .432     5.300      .023      .000      .300
    40.000      .010      .010      .000      .010      .008      .000      .000
      .047      .140      .023      .016      .001      .000      .000      .000
      .000      .000      .000      .000      .000      .000      .000      .000
      .000      .000      .000      .000
      .050
      .040      .042      .044      .046      .048      .050      .055      .060
      .065      .070      .075      .080      .085      .090      .095      .100
      .110      .120      .130      .140      .150      .160      .170      .180
      .190      .200      .220      .240      .260      .280      .300      .320
      .340      .360      .380      .400      .420      .440      .460      .480
      .500      .550      .600      .650      .700      .750      .800      .850
      .900      .950     1.000     1.100     1.200     1.300     1.400     1.500
     1.600     1.700     1.800     1.900     2.000     2.200     2.400     2.600
     2.800     3.000     3.200     3.400     3.600     3.800     4.000     4.200
     4.400     4.600     4.800     5.000     5.500     6.000     6.500     7.000
     7.500     8.000     8.500     9.000     9.500    10.000    11.000    12.000
    13.000    14.000    15.000      .000      .000      .000      .000      .000
      .000      .000      .000      .000
Fourier amplitude spectra in in/sec.
  .000E+00  .000E+00  .000E+00  .000E+00  .000E+00  .000E+00  .000E+00  .000E+00
  .000E+00  .000E+00  .000E+00  .000E+00  .000E+00  .000E+00  .000E+00  .000E+00
  .000E+00  .000E+00  .000E+00  .000E+00  .000E+00  .000E+00  .000E+00  .000E+00
  .000E+00  .000E+00  .000E+00  .000E+00  .000E+00  .000E+00  .000E+00  .000E+00
  .000E+00  .000E+00  .000E+00  .000E+00  .000E+00  .000E+00  .000E+00  .000E+00
  .000E+00  .000E+00  .000E+00  .000E+00  .000E+00  .000E+00  .000E+00  .000E+00
  .000E+00  .000E+00  .000E+00  .000E+00  .000E+00  .000E+00  .000E+00  .000E+00
  .000E+00  .000E+00  .000E+00  .000E+00  .000E+00  .000E+00  .000E+00  .000E+00
  .000E+00  .000E+00  .000E+00  .000E+00  .000E+00  .000E+00  .000E+00  .000E+00
  .000E+00  .000E+00  .000E+00  .000E+00  .000E+00  .000E+00  .000E+00  .000E+00
  .000E+00  .000E+00  .000E+00  .000E+00  .000E+00  .000E+00  .000E+00  .000E+00
  .000E+00  .000E+00  .000E+00  .000E+00  .000E+00  .000E+00  .000E+00  .000E+00
  .000E+00  .000E+00  .000E+00  .000E+00
Damping =  .05. Data of Sd,Sv,Sa,Pssv,ttSd,ttSv,ttSa :
  .297E-03  .325E-03  .360E-03  .385E-03  .402E-03  .452E-03  .550E-03  .838E-03
  .114E-02  .114E-02  .144E-02  .161E-02  .230E-02  .264E-02  .265E-02  .270E-02
  .379E-02  .510E-02  .759E-02  .892E-02  .831E-02  .854E-02  .822E-02  .912E-02
  .870E-02  .855E-02  .108E-01  .125E-01  .130E-01  .149E-01  .138E-01  .116E-01
  .116E-01  .114E-01  .122E-01  .123E-01  .122E-01  .124E-01  .135E-01  .177E-01
  .211E-01  .189E-01  .233E-01  .166E-01  .150E-01  .152E-01  .142E-01  .124E-01
  .125E-01  .126E-01  .131E-01  .115E-01  .106E-01  .114E-01  .122E-01  .121E-01
  .117E-01  .115E-01  .116E-01  .120E-01  .124E-01  .127E-01  .122E-01  .112E-01
  .104E-01  .971E-02  .934E-02  .917E-02  .914E-02  .919E-02  .927E-02  .935E-02
  .942E-02  .947E-02  .950E-02  .952E-02  .949E-02  .942E-02  .933E-02  .925E-02
  .917E-02  .912E-02  .907E-02  .903E-02  .902E-02  .899E-02  .898E-02  .899E-02
  .898E-02  .900E-02  .903E-02  .000E+00  .000E+00  .000E+00  .000E+00  .000E+00
  .000E+00  .000E+00  .000E+00  .000E+00
  .216E-01  .261E-01  .300E-01  .346E-01  .394E-01  .407E-01  .463E-01  .722E-01
  .104E+00  .100E+00  .107E+00  .118E+00  .150E+00  .160E+00  .162E+00  .157E+00
  .209E+00  .255E+00  .363E+00  .411E+00  .366E+00  .348E+00  .322E+00  .317E+00
  .287E+00  .273E+00  .288E+00  .323E+00  .352E+00  .389E+00  .312E+00  .279E+00
  .226E+00  .217E+00  .232E+00  .253E+00  .265E+00  .259E+00  .268E+00  .304E+00
  .333E+00  .277E+00  .260E+00  .220E+00  .175E+00  .175E+00  .188E+00  .185E+00
  .175E+00  .174E+00  .179E+00  .181E+00  .172E+00  .169E+00  .171E+00  .174E+00
  .173E+00  .172E+00  .171E+00  .171E+00  .172E+00  .174E+00  .176E+00  .177E+00
  .176E+00  .175E+00  .173E+00  .172E+00  .172E+00  .171E+00  .171E+00  .170E+00
  .170E+00  .170E+00  .170E+00  .170E+00  .170E+00  .170E+00  .170E+00  .170E+00
  .170E+00  .170E+00  .170E+00  .170E+00  .170E+00  .169E+00  .169E+00  .169E+00
  .169E+00  .169E+00  .169E+00  .000E+00  .000E+00  .000E+00  .000E+00  .000E+00
  .000E+00  .000E+00  .000E+00  .000E+00
  .190E-01  .189E-01  .190E-01  .187E-01  .179E-01  .187E-01  .187E-01  .239E-01
  .272E-01  .237E-01  .261E-01  .260E-01  .325E-01  .336E-01  .301E-01  .276E-01
  .319E-01  .363E-01  .465E-01  .472E-01  .380E-01  .346E-01  .292E-01  .288E-01
  .251E-01  .223E-01  .228E-01  .224E-01  .197E-01  .196E-01  .157E-01  .116E-01
  .104E-01  .912E-02  .870E-02  .798E-02  .707E-02  .655E-02  .656E-02  .790E-02
  .866E-02  .643E-02  .667E-02  .406E-02  .318E-02  .280E-02  .235E-02  .183E-02
  .161E-02  .149E-02  .140E-02  .104E-02  .817E-03  .757E-03  .701E-03  .614E-03
  .530E-03  .468E-03  .429E-03  .401E-03  .378E-03  .327E-03  .272E-03  .224E-03
  .187E-03  .161E-03  .142E-03  .128E-03  .118E-03  .110E-03  .102E-03  .960E-04
  .903E-04  .851E-04  .804E-04  .761E-04  .668E-04  .596E-04  .538E-04  .490E-04
  .449E-04  .415E-04  .385E-04  .360E-04  .338E-04  .318E-04  .285E-04  .258E-04
  .236E-04  .217E-04  .201E-04  .000E+00  .000E+00  .000E+00  .000E+00  .000E+00
  .000E+00  .000E+00  .000E+00  .000E+00
  .467E-01  .487E-01  .514E-01  .526E-01  .526E-01  .568E-01  .628E-01  .878E-01
  .110E+00  .103E+00  .121E+00  .127E+00  .170E+00  .184E+00  .175E+00  .169E+00
  .217E+00  .267E+00  .367E+00  .400E+00  .348E+00  .335E+00  .304E+00  .318E+00
  .288E+00  .269E+00  .309E+00  .326E+00  .314E+00  .334E+00  .288E+00  .229E+00
  .215E+00  .200E+00  .202E+00  .194E+00  .182E+00  .176E+00  .185E+00  .232E+00
  .265E+00  .215E+00  .244E+00  .160E+00  .135E+00  .127E+00  .112E+00  .914E-01
  .874E-01  .833E-01  .821E-01  .659E-01  .555E-01  .553E-01  .546E-01  .506E-01
  .458E-01  .423E-01  .406E-01  .398E-01  .391E-01  .363E-01  .319E-01  .272E-01
  .232E-01  .203E-01  .183E-01  .169E-01  .160E-01  .152E-01  .146E-01  .140E-01
  .135E-01  .129E-01  .124E-01  .120E-01  .108E-01  .986E-02  .902E-02  .830E-02
  .768E-02  .716E-02  .671E-02  .630E-02  .596E-02  .565E-02  .513E-02  .471E-02
  .434E-02  .404E-02  .378E-02  .000E+00  .000E+00  .000E+00  .000E+00  .000E+00
  .000E+00  .000E+00  .000E+00  .000E+00
  .530E+01  .531E+01  .531E+01  .531E+01  .531E+01  .597E+01  .534E+01  .597E+01
  .598E+01  .599E+01  .536E+01  .536E+01  .563E+01  .563E+01  .569E+01  .541E+01
  .542E+01  .549E+01  .564E+01  .566E+01  .560E+01  .623E+01  .533E+01  .788E+01
  .533E+01  .534E+01  .534E+01  .535E+01  .562E+01  .595E+01  .597E+01  .726E+01
  .555E+01  .556E+01  .556E+01  .557E+01  .542E+01  .543E+01  .543E+01  .543E+01
  .842E+01  .547E+01  .824E+01  .587E+01  .587E+01  .589E+01  .529E+01  .529E+01
  .781E+01  .529E+01  .529E+01  .529E+01  .529E+01  .529E+01  .529E+01  .529E+01
  .529E+01  .529E+01  .529E+01  .529E+01  .529E+01  .529E+01  .529E+01  .529E+01
  .529E+01  .529E+01  .529E+01  .529E+01  .529E+01  .529E+01  .529E+01  .529E+01
  .529E+01  .529E+01  .529E+01  .529E+01  .529E+01  .529E+01  .529E+01  .529E+01
  .529E+01  .529E+01  .529E+01  .529E+01  .529E+01  .529E+01  .529E+01  .529E+01
  .529E+01  .529E+01  .529E+01  .000E+00  .000E+00  .000E+00  .000E+00  .000E+00
  .000E+00  .000E+00  .000E+00  .000E+00
  .532E+01  .532E+01  .532E+01  .533E+01  .596E+01  .598E+01  .580E+01  .599E+01
  .600E+01  .600E+01  .538E+01  .538E+01  .560E+01  .561E+01  .571E+01  .572E+01
  .539E+01  .546E+01  .568E+01  .569E+01  .564E+01  .627E+01  .536E+01  .537E+01
  .537E+01  .824E+01  .538E+01  .565E+01  .557E+01  .558E+01  .622E+01  .623E+01
  .532E+01  .532E+01  .551E+01  .551E+01  .552E+01  .552E+01  .552E+01  .552E+01
  .532E+01  .532E+01  .839E+01  .788E+01  .524E+01  .579E+01  .524E+01  .524E+01
  .524E+01  .524E+01  .524E+01  .524E+01  .524E+01  .524E+01  .524E+01  .524E+01
  .524E+01  .524E+01  .524E+01  .524E+01  .524E+01  .524E+01  .524E+01  .524E+01
  .524E+01  .524E+01  .524E+01  .524E+01  .524E+01  .524E+01  .524E+01  .524E+01
  .524E+01  .524E+01  .524E+01  .524E+01  .524E+01  .524E+01  .524E+01  .524E+01
  .524E+01  .524E+01  .524E+01  .524E+01  .524E+01  .524E+01  .524E+01  .524E+01
  .524E+01  .524E+01  .524E+01  .000E+00  .000E+00  .000E+00  .000E+00  .000E+00
  .000E+00  .000E+00  .000E+00  .000E+00
  .530E+01  .530E+01  .531E+01  .531E+01  .597E+01  .597E+01  .534E+01  .597E+01
  .598E+01  .598E+01  .536E+01  .536E+01  .562E+01  .563E+01  .563E+01  .541E+01
  .542E+01  .549E+01  .564E+01  .579E+01  .560E+01  .623E+01  .532E+01  .787E+01
  .533E+01  .533E+01  .533E+01  .534E+01  .562E+01  .594E+01  .596E+01  .726E+01
  .555E+01  .555E+01  .556E+01  .556E+01  .541E+01  .542E+01  .542E+01  .542E+01
  .841E+01  .547E+01  .823E+01  .586E+01  .586E+01  .587E+01  .528E+01  .528E+01
  .780E+01  .528E+01  .528E+01  .528E+01  .527E+01  .527E+01  .527E+01  .527E+01
  .527E+01  .527E+01  .527E+01  .527E+01  .527E+01  .527E+01  .527E+01  .527E+01
  .526E+01  .526E+01  .526E+01  .526E+01  .526E+01  .526E+01  .526E+01  .526E+01
  .526E+01  .526E+01  .526E+01  .526E+01  .526E+01  .525E+01  .525E+01  .525E+01
  .525E+01  .525E+01  .525E+01  .525E+01  .525E+01  .525E+01  .525E+01  .525E+01
  .525E+01  .525E+01  .525E+01  .000E+00  .000E+00  .000E+00  .000E+00  .000E+00
  .000E+00  .000E+00  .000E+00  .000E+00
/&   ----------  End of spectral data for channel  1  ----------
Response and Fourier amplitude spectra (91 periods,  .04 - 15.0 sec)   for      
Corrected accelerogram   24010-L1794-01252.07       Chan  2:   0 Deg     from   
Uncorrected Accelerogram Data             Processed: 09/10/01, CDMG  010at007   
Record of Sun Sep  9, 2001 16:59:20 PDT               (Avol1 v4.6  7/01 CSMIP)  
CSMIP Preliminary Processing            (Origin:  To be determined)             
24010-L1794-01252.07                 Start time:  9/09/01, 23:59:20.0 UTC (GPS) 
Station No. 24010   34.207N, 118.233W      Etna  s/n 1794  (3 Channels)         
Glendale - Rosemont & Honolulu                                                  
Chan  2:   0 Deg                                                                
Record of Sun Sep  9, 2001 16:59:20 PDT    Sun Sep  9, 2001 16:59:20 PDT        
Hypocenter:  To be determined.               ML:  To be determined.             
Instr Period =  .0110 sec,  Damping =  .640,  Sensitivity =  .63  v/g           
                        Record length = 37.000 sec.                             
                                     Uncor Max  =   .009 g, at   5.885 sec.     
RMS accel of (uncor) record  =        .                                         
Accelerogram bandpass filtered with 3 dB pts at   .30 and 40.00 cyc/sec         
                 instrument- and baseline-corrected                             
                                                                                
                                                                                
                                                                                
                                                                                
                                                                                
Record of Sun Sep  9, 2001 16:59:20 PDT    Sun Sep  9, 2001 16:59:20 PDT        
                                                                                
24010-L1794-01252.07      Glendale - Rosemont & Honolulu    Chan  2:   0 Deg    
                                                                                
24010-L1794-01252.07      Glendale - Rosemont & Honolulu    Chan  2:   0 Deg    
                                                                                
Units for spectra are inches and sec, except Sa is in fraction of g.            
                                                                                
    2  100    2    3    3  200    1    3    1   24   12 1794    024010    1    0
   23   59   20    0  252    9    9 2001   10    3    0 7400   39   30   72 -999
 7400    1   50    3 1794    1    7  370    1    0    0    0    0    0    0    0
    0    4    0    0 3700    2    0    0    0    0   72   30    0    0    0 3700
    0 3700   31   91    1    3    0    0    0    0    3    0    0    0    0    2
    2    2    4    0   32   99 -999   32   32    0    0    1    0    0    0    0
  -99   -1    0    0
      .011      .640    37.000      .001      .000   625.000      .009     5.885
    91.300      .298      .477      .000     5.000      .000      .000      .000
     2.500   -30.146     -.014     -.024     5.000    30.000      .000      .070
     -.002     -.072     2.000    15.000    34.207  -118.233     1.076      .153
      .142     -.210      .067  -999.000      .000      .000   -13.400      .000
  1000.000    -1.032      .000      .000      .000      .000      .000      .000
     4.600     4.400      .000   980.665      .010    37.000    14.531      .000
      .000    40.000      .000    37.000      .010      .300      .000      .000
     5.880     7.921     5.200     -.196     1.970     -.012      .000      .300
    40.000      .010      .010      .000      .010      .005      .000      .000
      .030      .090      .017      .014      .001      .000      .000      .000
      .000      .000      .000      .000      .000      .000      .000      .000
      .000      .000      .000      .000
      .050
      .040      .042      .044      .046      .048      .050      .055      .060
      .065      .070      .075      .080      .085      .090      .095      .100
      .110      .120      .130      .140      .150      .160      .170      .180
      .190      .200      .220      .240      .260      .280      .300      .320
      .340      .360      .380      .400      .420      .440      .460      .480
      .500      .550      .600      .650      .700      .750      .800      .850
      .900      .950     1.000     1.100     1.200     1.300     1.400     1.500
     1.600     1.700     1.800     1.900     2.000     2.200     2.400     2.600
     2.800     3.000     3.200     3.400     3.600     3.800     4.000     4.200
     4.400     4.600     4.800     5.000     5.500     6.000     6.500     7.000
     7.500     8.000     8.500     9.000     9.500    10.000    11.000    12.000
    13.000    14.000    15.000      .000      .000      .000      .000      .000
      .000      .000      .000      .000
Fourier amplitude spectra in in/sec.
  .000E+00  .000E+00  .000E+00  .000E+00  .000E+00  .000E+00  .000E+00  .000E+00
  .000E+00  .000E+00  .000E+00  .000E+00  .000E+00  .000E+00  .000E+00  .000E+00
  .000E+00  .000E+00  .000E+00  .000E+00  .000E+00  .000E+00  .000E+00  .000E+00
  .000E+00  .000E+00  .000E+00  .000E+00  .000E+00  .000E+00  .000E+00  .000E+00
  .000E+00  .000E+00  .000E+00  .000E+00  .000E+00  .000E+00  .000E+00  .000E+00
  .000E+00  .000E+00  .000E+00  .000E+00  .000E+00  .000E+00  .000E+00  .000E+00
  .000E+00  .000E+00  .000E+00  .000E+00  .000E+00  .000E+00  .000E+00  .000E+00
  .000E+00  .000E+00  .000E+00  .000E+00  .000E+00  .000E+00  .000E+00  .000E+00
  .000E+00  .000E+00  .000E+00  .000E+00  .000E+00  .000E+00  .000E+00  .000E+00
  .000E+00  .000E+00  .000E+00  .000E+00  .000E+00  .000E+00  .000E+00  .000E+00
  .000E+00  .000E+00  .000E+00  .000E+00  .000E+00  .000E+00  .000E+00  .000E+00
  .000E+00  .000E+00  .000E+00  .000E+00  .000E+00  .000E+00  .000E+00  .000E+00
  .000E+00  .000E+00  .000E+00  .000E+00
Damping =  .05. Data of Sd,Sv,Sa,Pssv,ttSd,ttSv,ttSa :
  .282E-03  .288E-03  .279E-03  .269E-03  .333E-03  .370E-03  .536E-03  .802E-03
  .107E-02  .106E-02  .119E-02  .173E-02  .190E-02  .237E-02  .228E-02  .238E-02
  .287E-02  .369E-02  .428E-02  .442E-02  .414E-02  .407E-02  .433E-02  .498E-02
  .567E-02  .647E-02  .809E-02  .884E-02  .105E-01  .114E-01  .130E-01  .127E-01
  .878E-02  .816E-02  .769E-02  .721E-02  .728E-02  .733E-02  .732E-02  .749E-02
