Response and Fourier amplitude spectra (91 periods,  .04 - 15.0 sec)   for      
Corrected accelerogram   24605-E0774-01252.02       Chan  1: 360 Deg     from   
Uncorrected Accelerogram Data             Processed: 09/10/01, CDMG  s605e02    
Earthquake of Sun Sep  9, 2001  16:59 PDT             (Avol1 v4.6  7/01 CSMIP)  
CSMIP Preliminary Processing            (Origin:  To be determined)             
24605-E0774-01252.02                 Start time:  9/09/01, 23:59 GMT (*LoQ*)    
Station No. 24605   34.062N, 118.198W     SSA-1  s/n  774  (4 Channels)         
Los Angeles - 7-story Univ. Hospital                                            
Chan  1: 360 Deg  (Sta Chn: 25)     Location: Freefield: Southeast of building  
Earthquake of Sun Sep  9, 2001  16:59 PDT    Sun Sep  9, 2001  16:59 PDT        
Hypocenter:  To be determined.               ML:  To be determined.
Instr Period =  .0222 sec,  Damping =  .700,  Sensitivity = 1.25  v/g
                        Record length = 67.840 sec.
                                     Uncor Max  =   .027 g, at   5.480 sec.
RMS accel of (uncor) record  =        .
Accelerogram bandpass filtered with 3 dB pts at   .30 and 40.00 cyc/sec
                 instrument- and baseline-corrected





Earthquake of Sun Sep  9, 2001  16:59 PDT    Sun Sep  9, 2001  16:59 PDT

24605-E0774-01252.02      Los Angeles - 7-story Univ. Hospital    Chan  1: 360 D
eg
24605-E0774-01252.02      Los Angeles - 7-story Univ. Hospital    Chan  1: 360 D
eg
Units for spectra are inches and sec, except Sa is in fraction of g.

    1  100   25    4   27  200    1    3    1   12    5  774    024605    2    0
   23   59   32  100  252    9    9 2001    0    1  36013568   41   36   72    5
13568    1   50    0 2115    1    2   53    1   23   59   32  100    9    9 2001
    0    0    0    0 6784    2    0    0    0    0   72   36    0    0    0 6784
    0 6784   37   91    1    4    0    0    0    0   27    0    0    0    0    2
    2    2    4    1   72   99    7   32   32    0    0    0    0    0    8  128
  -99   -1    0    0
      .022      .700    67.840      .002      .000  1250.000      .027     5.480
    45.000  1220.703   976.563      .000     5.000      .000      .000      .000
     2.500    20.433      .048     -.009     5.120    30.000      .000     -.060
     -.054      .006     2.000    15.000    34.062  -118.198      .137      .155
     1.128     -.013      .025  -999.000      .000      .000      .000      .000
     1.773     1.028      .000      .000      .000      .000      .000      .000
     4.600     4.400      .000   980.665      .010    67.840     7.162      .000
      .000    40.000      .000    67.840      .010      .300      .000      .000
     5.480    26.687     5.510      .949     5.460     -.091     -.001      .300
    40.000      .010      .010     -.001      .010      .023      .000      .000
      .064      .150      .043      .039      .005      .001      .000      .000
      .000      .000      .000      .000      .000      .000      .000      .000
      .000      .000      .000      .000
      .050
      .040      .042      .044      .046      .048      .050      .055      .060
      .065      .070      .075      .080      .085      .090      .095      .100
      .110      .120      .130      .140      .150      .160      .170      .180
      .190      .200      .220      .240      .260      .280      .300      .320
      .340      .360      .380      .400      .420      .440      .460      .480
      .500      .550      .600      .650      .700      .750      .800      .850
      .900      .950     1.000     1.100     1.200     1.300     1.400     1.500
     1.600     1.700     1.800     1.900     2.000     2.200     2.400     2.600
     2.800     3.000     3.200     3.400     3.600     3.800     4.000     4.200
     4.400     4.600     4.800     5.000     5.500     6.000     6.500     7.000
     7.500     8.000     8.500     9.000     9.500    10.000    11.000    12.000
    13.000    14.000    15.000      .000      .000      .000      .000      .000
      .000      .000      .000      .000
Fourier amplitude spectra in in/sec.
  .000E+00  .000E+00  .000E+00  .000E+00  .000E+00  .000E+00  .000E+00  .000E+00
  .000E+00  .000E+00  .000E+00  .000E+00  .000E+00  .000E+00  .000E+00  .000E+00
  .000E+00  .000E+00  .000E+00  .000E+00  .000E+00  .000E+00  .000E+00  .000E+00
  .000E+00  .000E+00  .000E+00  .000E+00  .000E+00  .000E+00  .000E+00  .000E+00
  .000E+00  .000E+00  .000E+00  .000E+00  .000E+00  .000E+00  .000E+00  .000E+00
  .000E+00  .000E+00  .000E+00  .000E+00  .000E+00  .000E+00  .000E+00  .000E+00
  .000E+00  .000E+00  .000E+00  .000E+00  .000E+00  .000E+00  .000E+00  .000E+00
  .000E+00  .000E+00  .000E+00  .000E+00  .000E+00  .000E+00  .000E+00  .000E+00
  .000E+00  .000E+00  .000E+00  .000E+00  .000E+00  .000E+00  .000E+00  .000E+00
  .000E+00  .000E+00  .000E+00  .000E+00  .000E+00  .000E+00  .000E+00  .000E+00
  .000E+00  .000E+00  .000E+00  .000E+00  .000E+00  .000E+00  .000E+00  .000E+00
  .000E+00  .000E+00  .000E+00  .000E+00  .000E+00  .000E+00  .000E+00  .000E+00
  .000E+00  .000E+00  .000E+00  .000E+00
Damping =  .05. Data of Sd,Sv,Sa,Pssv,ttSd,ttSv,ttSa :
  .519E-03  .604E-03  .688E-03  .747E-03  .844E-03  .940E-03  .121E-02  .149E-02
  .199E-02  .210E-02  .255E-02  .317E-02  .358E-02  .352E-02  .409E-02  .474E-02
  .615E-02  .682E-02  .812E-02  .970E-02  .143E-01  .133E-01  .139E-01  .159E-01
  .152E-01  .169E-01  .200E-01  .252E-01  .318E-01  .333E-01  .331E-01  .357E-01
  .393E-01  .446E-01  .465E-01  .455E-01  .454E-01  .472E-01  .490E-01  .505E-01
  .517E-01  .525E-01  .521E-01  .509E-01  .516E-01  .485E-01  .478E-01  .471E-01
  .463E-01  .459E-01  .451E-01  .421E-01  .415E-01  .410E-01  .421E-01  .441E-01
  .457E-01  .463E-01  .457E-01  .445E-01  .430E-01  .417E-01  .432E-01  .465E-01
  .497E-01  .518E-01  .527E-01  .524E-01  .514E-01  .499E-01  .482E-01  .465E-01
  .450E-01  .436E-01  .425E-01  .415E-01  .397E-01  .388E-01  .383E-01  .382E-01
  .381E-01  .382E-01  .383E-01  .384E-01  .385E-01  .386E-01  .388E-01  .389E-01
  .389E-01  .390E-01  .390E-01  .000E+00  .000E+00  .000E+00  .000E+00  .000E+00
  .000E+00  .000E+00  .000E+00  .000E+00
  .399E-01  .465E-01  .556E-01  .685E-01  .787E-01  .877E-01  .113E+00  .126E+00
  .158E+00  .144E+00  .185E+00  .226E+00  .243E+00  .204E+00  .223E+00  .247E+00
  .345E+00  .297E+00  .390E+00  .425E+00  .569E+00  .518E+00  .538E+00  .569E+00
  .525E+00  .551E+00  .570E+00  .612E+00  .740E+00  .796E+00  .776E+00  .809E+00
  .850E+00  .869E+00  .807E+00  .714E+00  .658E+00  .671E+00  .693E+00  .714E+00
  .733E+00  .756E+00  .758E+00  .760E+00  .739E+00  .710E+00  .687E+00  .667E+00
  .649E+00  .632E+00  .614E+00  .570E+00  .533E+00  .514E+00  .502E+00  .490E+00
  .474E+00  .458E+00  .443E+00  .432E+00  .426E+00  .422E+00  .422E+00  .419E+00
  .412E+00  .403E+00  .394E+00  .386E+00  .380E+00  .376E+00  .373E+00  .371E+00
  .369E+00  .369E+00  .369E+00  .369E+00  .369E+00  .370E+00  .370E+00  .371E+00
  .371E+00  .371E+00  .371E+00  .371E+00  .371E+00  .371E+00  .370E+00  .370E+00
  .370E+00  .370E+00  .370E+00  .000E+00  .000E+00  .000E+00  .000E+00  .000E+00
  .000E+00  .000E+00  .000E+00  .000E+00
  .331E-01  .351E-01  .365E-01  .359E-01  .378E-01  .383E-01  .412E-01  .428E-01
  .479E-01  .435E-01  .470E-01  .507E-01  .507E-01  .447E-01  .462E-01  .492E-01
  .529E-01  .481E-01  .501E-01  .502E-01  .644E-01  .533E-01  .489E-01  .504E-01
  .435E-01  .430E-01  .428E-01  .450E-01  .484E-01  .438E-01  .378E-01  .358E-01
  .349E-01  .354E-01  .332E-01  .293E-01  .266E-01  .251E-01  .239E-01  .226E-01
  .213E-01  .179E-01  .149E-01  .124E-01  .108E-01  .887E-02  .770E-02  .672E-02
  .589E-02  .522E-02  .467E-02  .364E-02  .303E-02  .256E-02  .227E-02  .208E-02
  .190E-02  .172E-02  .152E-02  .134E-02  .118E-02  .955E-03  .838E-03  .771E-03
  .715E-03  .655E-03  .591E-03  .528E-03  .469E-03  .415E-03  .369E-03  .329E-03
  .295E-03  .266E-03  .242E-03  .222E-03  .183E-03  .156E-03  .136E-03  .120E-03
  .109E-03  .996E-04  .919E-04  .853E-04  .795E-04  .744E-04  .659E-04  .590E-04
  .534E-04  .487E-04  .447E-04  .000E+00  .000E+00  .000E+00  .000E+00  .000E+00
  .000E+00  .000E+00  .000E+00  .000E+00
  .815E-01  .904E-01  .983E-01  .102E+00  .111E+00  .118E+00  .139E+00  .156E+00
  .193E+00  .188E+00  .214E+00  .249E+00  .265E+00  .246E+00  .271E+00  .298E+00
  .351E+00  .357E+00  .392E+00  .435E+00  .597E+00  .521E+00  .513E+00  .556E+00
  .504E+00  .530E+00  .570E+00  .661E+00  .769E+00  .747E+00  .694E+00  .702E+00
  .726E+00  .778E+00  .769E+00  .715E+00  .680E+00  .674E+00  .669E+00  .661E+00
  .650E+00  .599E+00  .546E+00  .492E+00  .463E+00  .406E+00  .375E+00  .348E+00
  .323E+00  .304E+00  .284E+00  .241E+00  .217E+00  .198E+00  .189E+00  .185E+00
  .180E+00  .171E+00  .160E+00  .147E+00  .135E+00  .119E+00  .113E+00  .112E+00
  .111E+00  .109E+00  .103E+00  .968E-01  .896E-01  .825E-01  .757E-01  .696E-01
  .643E-01  .596E-01  .556E-01  .521E-01  .454E-01  .406E-01  .371E-01  .343E-01
  .320E-01  .300E-01  .283E-01  .268E-01  .255E-01  .243E-01  .221E-01  .204E-01
  .188E-01  .175E-01  .164E-01  .000E+00  .000E+00  .000E+00  .000E+00  .000E+00
  .000E+00  .000E+00  .000E+00  .000E+00
  .548E+01  .548E+01  .549E+01  .549E+01  .545E+01  .545E+01  .546E+01  .637E+01
  .667E+01  .638E+01  .638E+01  .667E+01  .668E+01  .554E+01  .555E+01  .554E+01
  .638E+01  .556E+01  .640E+01  .640E+01  .641E+01  .558E+01  .559E+01  .670E+01
  .672E+01  .560E+01  .560E+01  .561E+01  .562E+01  .564E+01  .565E+01  .566E+01
  .568E+01  .553E+01  .554E+01  .554E+01  .555E+01  .555E+01  .555E+01  .556E+01
  .556E+01  .557E+01  .559E+01  .560E+01  .841E+01  .566E+01  .567E+01  .569E+01
  .570E+01  .573E+01  .574E+01  .543E+01  .544E+01  .544E+01  .544E+01  .544E+01
  .544E+01  .544E+01  .545E+01  .545E+01  .545E+01  .545E+01  .545E+01  .545E+01
  .545E+01  .545E+01  .545E+01  .545E+01  .545E+01  .545E+01  .545E+01  .545E+01
  .545E+01  .545E+01  .545E+01  .545E+01  .545E+01  .545E+01  .545E+01  .545E+01
  .545E+01  .545E+01  .545E+01  .545E+01  .545E+01  .545E+01  .545E+01  .545E+01
  .545E+01  .545E+01  .545E+01  .000E+00  .000E+00  .000E+00  .000E+00  .000E+00
  .000E+00  .000E+00  .000E+00  .000E+00
  .673E+01  .676E+01  .550E+01  .550E+01  .578E+01  .634E+01  .634E+01  .590E+01
  .668E+01  .669E+01  .640E+01  .669E+01  .670E+01  .551E+01  .552E+01  .627E+01
  .641E+01  .642E+01  .643E+01  .643E+01  .638E+01  .562E+01  .563E+01  .674E+01
  .564E+01  .564E+01  .565E+01  .566E+01  .557E+01  .558E+01  .558E+01  .559E+01
  .559E+01  .560E+01  .561E+01  .561E+01  .549E+01  .549E+01  .549E+01  .549E+01
  .549E+01  .549E+01  .550E+01  .550E+01  .550E+01  .550E+01  .550E+01  .550E+01
  .550E+01  .550E+01  .550E+01  .550E+01  .550E+01  .550E+01  .550E+01  .550E+01
  .550E+01  .550E+01  .550E+01  .550E+01  .550E+01  .550E+01  .550E+01  .550E+01
  .550E+01  .550E+01  .550E+01  .550E+01  .550E+01  .550E+01  .550E+01  .550E+01
  .550E+01  .550E+01  .550E+01  .550E+01  .550E+01  .550E+01  .550E+01  .550E+01
  .550E+01  .550E+01  .550E+01  .550E+01  .550E+01  .550E+01  .550E+01  .550E+01
  .550E+01  .550E+01  .550E+01  .000E+00  .000E+00  .000E+00  .000E+00  .000E+00
  .000E+00  .000E+00  .000E+00  .000E+00
  .548E+01  .548E+01  .548E+01  .549E+01  .545E+01  .545E+01  .546E+01  .636E+01
  .667E+01  .638E+01  .638E+01  .667E+01  .668E+01  .554E+01  .555E+01  .554E+01
  .638E+01  .556E+01  .639E+01  .640E+01  .641E+01  .558E+01  .559E+01  .669E+01
  .671E+01  .559E+01  .560E+01  .561E+01  .562E+01  .563E+01  .564E+01  .566E+01
  .567E+01  .552E+01  .553E+01  .554E+01  .554E+01  .554E+01  .555E+01  .555E+01
  .555E+01  .556E+01  .557E+01  .559E+01  .840E+01  .565E+01  .566E+01  .567E+01
  .568E+01  .572E+01  .573E+01  .542E+01  .542E+01  .542E+01  .542E+01  .542E+01
  .542E+01  .542E+01  .542E+01  .542E+01  .542E+01  .542E+01  .542E+01  .542E+01
  .542E+01  .542E+01  .542E+01  .542E+01  .542E+01  .542E+01  .542E+01  .542E+01
  .542E+01  .542E+01  .542E+01  .542E+01  .542E+01  .541E+01  .541E+01  .541E+01
  .538E+01  .537E+01  .537E+01  .537E+01  .537E+01  .537E+01  .537E+01  .537E+01
  .537E+01  .537E+01  .537E+01  .000E+00  .000E+00  .000E+00  .000E+00  .000E+00
  .000E+00  .000E+00  .000E+00  .000E+00
/&   ----------  End of spectral data for channel  1  ----------
