Response and Fourier amplitude spectra (91 periods,  .04 - 15.0 sec)   for      
Corrected accelerogram   24605-E0774-01252.02       Chan  2:  Up         from   
Uncorrected Accelerogram Data             Processed: 09/10/01, CDMG  s605e02    
Earthquake of Sun Sep  9, 2001  16:59 PDT             (Avol1 v4.6  7/01 CSMIP)  
CSMIP Preliminary Processing            (Origin:  To be determined)             
24605-E0774-01252.02                 Start time:  9/09/01, 23:59 GMT (*LoQ*)    
Station No. 24605   34.062N, 118.198W     SSA-1  s/n  774  (4 Channels)         
Los Angeles - 7-story Univ. Hospital                                            
Chan  2:  Up      (Sta Chn: 26)     Location: Freefield: Southeast of building  
Earthquake of Sun Sep  9, 2001  16:59 PDT    Sun Sep  9, 2001  16:59 PDT        
Hypocenter:  To be determined.               ML:  To be determined.
Instr Period =  .0222 sec,  Damping =  .700,  Sensitivity = 1.25  v/g
                        Record length = 67.840 sec.
                                     Uncor Max  =  -.012 g, at   6.460 sec.
RMS accel of (uncor) record  =        .
Accelerogram bandpass filtered with 3 dB pts at   .30 and 40.00 cyc/sec
                 instrument- and baseline-corrected





Earthquake of Sun Sep  9, 2001  16:59 PDT    Sun Sep  9, 2001  16:59 PDT

24605-E0774-01252.02      Los Angeles - 7-story Univ. Hospital    Chan  2:  Up

24605-E0774-01252.02      Los Angeles - 7-story Univ. Hospital    Chan  2:  Up

Units for spectra are inches and sec, except Sa is in fraction of g.

    2  100   26    4    4  200    1    3    1   12    5  774    024605    2    0
   23   59   32  100  252    9    9 2001    0    1  50013568   41   36   72    5
13568    1   50    0 2115    1    2   53    1   23   59   32  100    9    9 2001
    0    0    0    0 6784    2    0    0    0    0   72   36    0    0    0 6784
    0 6784   37   91    1    4    0    0    0    0   27    0    0    0    0    2
    2    2    4    1   72   99    7   32   32    0    0    0    0    0    8  128
  -99   -1    0    0
      .022      .700    67.840      .001      .000  1250.000     -.012     6.460
    45.000  1220.703   976.563      .000     5.000      .000      .000      .000
     2.500    16.607      .035      .009     5.120    30.000      .000      .010
      .011      .001     2.000    15.000    34.062  -118.198      .069      .078
     1.124     -.009      .010  -999.000      .000      .000      .000      .000
      .956    -1.040      .000      .000      .000      .000      .000      .000
     4.600     4.400      .000   980.665      .010    67.840     7.162      .000
      .000    40.000      .000    67.840      .010      .300      .000      .000
     6.450   -10.952     6.420      .282     6.370     -.017      .000      .300
    40.000      .010      .010      .000      .010      .009      .000      .000
      .029      .160      .028      .012      .001      .000      .000      .000
      .000      .000      .000      .000      .000      .000      .000      .000
      .000      .000      .000      .000
      .050
      .040      .042      .044      .046      .048      .050      .055      .060
      .065      .070      .075      .080      .085      .090      .095      .100
      .110      .120      .130      .140      .150      .160      .170      .180
      .190      .200      .220      .240      .260      .280      .300      .320
      .340      .360      .380      .400      .420      .440      .460      .480
      .500      .550      .600      .650      .700      .750      .800      .850
      .900      .950     1.000     1.100     1.200     1.300     1.400     1.500
     1.600     1.700     1.800     1.900     2.000     2.200     2.400     2.600
     2.800     3.000     3.200     3.400     3.600     3.800     4.000     4.200
     4.400     4.600     4.800     5.000     5.500     6.000     6.500     7.000
     7.500     8.000     8.500     9.000     9.500    10.000    11.000    12.000
    13.000    14.000    15.000      .000      .000      .000      .000      .000
      .000      .000      .000      .000
Fourier amplitude spectra in in/sec.
  .000E+00  .000E+00  .000E+00  .000E+00  .000E+00  .000E+00  .000E+00  .000E+00
  .000E+00  .000E+00  .000E+00  .000E+00  .000E+00  .000E+00  .000E+00  .000E+00
  .000E+00  .000E+00  .000E+00  .000E+00  .000E+00  .000E+00  .000E+00  .000E+00
  .000E+00  .000E+00  .000E+00  .000E+00  .000E+00  .000E+00  .000E+00  .000E+00
  .000E+00  .000E+00  .000E+00  .000E+00  .000E+00  .000E+00  .000E+00  .000E+00
  .000E+00  .000E+00  .000E+00  .000E+00  .000E+00  .000E+00  .000E+00  .000E+00
  .000E+00  .000E+00  .000E+00  .000E+00  .000E+00  .000E+00  .000E+00  .000E+00
  .000E+00  .000E+00  .000E+00  .000E+00  .000E+00  .000E+00  .000E+00  .000E+00
  .000E+00  .000E+00  .000E+00  .000E+00  .000E+00  .000E+00  .000E+00  .000E+00
  .000E+00  .000E+00  .000E+00  .000E+00  .000E+00  .000E+00  .000E+00  .000E+00
  .000E+00  .000E+00  .000E+00  .000E+00  .000E+00  .000E+00  .000E+00  .000E+00
  .000E+00  .000E+00  .000E+00  .000E+00  .000E+00  .000E+00  .000E+00  .000E+00
  .000E+00  .000E+00  .000E+00  .000E+00
Damping =  .05. Data of Sd,Sv,Sa,Pssv,ttSd,ttSv,ttSa :
  .293E-03  .360E-03  .419E-03  .437E-03  .496E-03  .506E-03  .521E-03  .710E-03
  .820E-03  .112E-02  .126E-02  .147E-02  .167E-02  .170E-02  .163E-02  .197E-02
  .332E-02  .273E-02  .315E-02  .477E-02  .566E-02  .730E-02  .729E-02  .838E-02
  .102E-01  .114E-01  .125E-01  .122E-01  .873E-02  .106E-01  .111E-01  .102E-01
  .107E-01  .115E-01  .119E-01  .117E-01  .128E-01  .144E-01  .160E-01  .166E-01
  .176E-01  .156E-01  .125E-01  .140E-01  .130E-01  .118E-01  .126E-01  .132E-01
  .111E-01  .891E-02  .749E-02  .969E-02  .102E-01  .968E-02  .124E-01  .129E-01
  .136E-01  .134E-01  .128E-01  .128E-01  .116E-01  .117E-01  .115E-01  .128E-01
  .110E-01  .964E-02  .124E-01  .133E-01  .123E-01  .125E-01  .111E-01  .104E-01
  .931E-02  .904E-02  .883E-02  .832E-02  .768E-02  .816E-02  .849E-02  .869E-02
  .879E-02  .882E-02  .880E-02  .874E-02  .867E-02  .857E-02  .839E-02  .821E-02
  .803E-02  .789E-02  .777E-02  .000E+00  .000E+00  .000E+00  .000E+00  .000E+00
  .000E+00  .000E+00  .000E+00  .000E+00
  .417E-01  .503E-01  .571E-01  .584E-01  .621E-01  .555E-01  .516E-01  .672E-01
  .662E-01  .800E-01  .903E-01  .107E+00  .119E+00  .116E+00  .119E+00  .110E+00
  .174E+00  .134E+00  .150E+00  .205E+00  .250E+00  .291E+00  .281E+00  .313E+00
  .360E+00  .360E+00  .380E+00  .339E+00  .244E+00  .245E+00  .227E+00  .221E+00
  .248E+00  .226E+00  .207E+00  .196E+00  .198E+00  .213E+00  .246E+00  .284E+00
  .298E+00  .232E+00  .169E+00  .168E+00  .137E+00  .133E+00  .137E+00  .152E+00
  .149E+00  .139E+00  .139E+00  .152E+00  .145E+00  .136E+00  .137E+00  .136E+00
  .126E+00  .112E+00  .120E+00  .121E+00  .116E+00  .102E+00  .115E+00  .122E+00
  .123E+00  .122E+00  .120E+00  .118E+00  .117E+00  .116E+00  .116E+00  .116E+00
  .116E+00  .116E+00  .116E+00  .116E+00  .116E+00  .115E+00  .114E+00  .114E+00
  .113E+00  .113E+00  .113E+00  .113E+00  .112E+00  .112E+00  .112E+00  .112E+00
  .112E+00  .112E+00  .112E+00  .000E+00  .000E+00  .000E+00  .000E+00  .000E+00
  .000E+00  .000E+00  .000E+00  .000E+00
  .185E-01  .212E-01  .222E-01  .209E-01  .219E-01  .210E-01  .179E-01  .204E-01
  .197E-01  .232E-01  .228E-01  .234E-01  .235E-01  .214E-01  .185E-01  .198E-01
  .283E-01  .195E-01  .192E-01  .253E-01  .259E-01  .294E-01  .262E-01  .269E-01
  .287E-01  .289E-01  .265E-01  .220E-01  .133E-01  .139E-01  .127E-01  .102E-01
  .951E-02  .921E-02  .850E-02  .754E-02  .755E-02  .769E-02  .779E-02  .743E-02
  .723E-02  .532E-02  .357E-02  .342E-02  .273E-02  .216E-02  .204E-02  .189E-02
  .143E-02  .103E-02  .792E-03  .854E-03  .744E-03  .599E-03  .660E-03  .604E-03
  .564E-03  .503E-03  .429E-03  .388E-03  .318E-03  .263E-03  .214E-03  .206E-03
  .158E-03  .120E-03  .133E-03  .127E-03  .103E-03  .962E-04  .786E-04  .641E-04
  .552E-04  .522E-04  .477E-04  .448E-04  .411E-04  .377E-04  .345E-04  .316E-04
  .290E-04  .267E-04  .246E-04  .228E-04  .211E-04  .197E-04  .173E-04  .154E-04
  .139E-04  .126E-04  .116E-04  .000E+00  .000E+00  .000E+00  .000E+00  .000E+00
  .000E+00  .000E+00  .000E+00  .000E+00
  .461E-01  .539E-01  .599E-01  .596E-01  .650E-01  .636E-01  .595E-01  .744E-01
  .793E-01  .101E+00  .106E+00  .116E+00  .123E+00  .118E+00  .108E+00  .124E+00
  .189E+00  .143E+00  .152E+00  .214E+00  .237E+00  .286E+00  .269E+00  .292E+00
  .337E+00  .357E+00  .358E+00  .320E+00  .211E+00  .237E+00  .231E+00  .199E+00
  .198E+00  .200E+00  .197E+00  .183E+00  .192E+00  .205E+00  .218E+00  .217E+00
  .221E+00  .179E+00  .131E+00  .136E+00  .116E+00  .989E-01  .991E-01  .976E-01
  .776E-01  .589E-01  .470E-01  .554E-01  .535E-01  .468E-01  .555E-01  .540E-01
  .536E-01  .495E-01  .448E-01  .422E-01  .363E-01  .334E-01  .300E-01  .308E-01
  .247E-01  .202E-01  .244E-01  .245E-01  .214E-01  .207E-01  .174E-01  .155E-01
  .133E-01  .123E-01  .116E-01  .104E-01  .877E-02  .854E-02  .821E-02  .780E-02
  .736E-02  .693E-02  .650E-02  .610E-02  .573E-02  .539E-02  .479E-02  .430E-02
  .388E-02  .354E-02  .326E-02  .000E+00  .000E+00  .000E+00  .000E+00  .000E+00
  .000E+00  .000E+00  .000E+00  .000E+00
  .231E+01  .231E+01  .232E+01  .234E+01  .444E+01  .646E+01  .663E+01  .676E+01
  .677E+01  .677E+01  .678E+01  .678E+01  .684E+01  .231E+01  .231E+01  .594E+01
  .646E+01  .762E+01  .699E+01  .764E+01  .694E+01  .688E+01  .666E+01  .667E+01
  .659E+01  .660E+01  .652E+01  .644E+01  .846E+01  .614E+01  .615E+01  .617E+01
  .656E+01  .644E+01  .644E+01  .644E+01  .644E+01  .645E+01  .645E+01  .647E+01
  .778E+01  .956E+01  .937E+01  .118E+02  .118E+02  .885E+01  .887E+01  .863E+01
  .865E+01  .866E+01  .697E+01  .663E+01  .866E+01  .868E+01  .118E+02  .106E+02
  .116E+02  .636E+01  .578E+01  .578E+01  .608E+01  .841E+01  .797E+01  .798E+01
  .798E+01  .103E+02  .174E+02  .174E+02  .163E+02  .163E+02  .163E+02  .150E+02
  .150E+02  .116E+02  .116E+02  .116E+02  .636E+01  .636E+01  .636E+01  .636E+01
  .636E+01  .636E+01  .636E+01  .636E+01  .636E+01  .636E+01  .636E+01  .636E+01
  .636E+01  .636E+01  .636E+01  .000E+00  .000E+00  .000E+00  .000E+00  .000E+00
  .000E+00  .000E+00  .000E+00  .000E+00
  .232E+01  .233E+01  .233E+01  .233E+01  .442E+01  .442E+01  .664E+01  .266E+01
  .324E+01  .675E+01  .680E+01  .231E+01  .232E+01  .228E+01  .229E+01  .591E+01
  .649E+01  .579E+01  .695E+01  .761E+01  .690E+01  .692E+01  .678E+01  .662E+01
  .663E+01  .664E+01  .646E+01  .648E+01  .852E+01  .619E+01  .133E+02  .647E+01
  .648E+01  .650E+01  .650E+01  .132E+02  .130E+02  .639E+01  .639E+01  .640E+01
  .640E+01  .642E+01  .950E+01  .119E+02  .116E+02  .905E+01  .875E+01  .641E+01
  .641E+01  .641E+01  .641E+01  .641E+01  .641E+01  .641E+01  .641E+01  .641E+01
  .641E+01  .629E+01  .629E+01  .629E+01  .629E+01  .641E+01  .641E+01  .641E+01
  .641E+01  .641E+01  .641E+01  .641E+01  .641E+01  .641E+01  .641E+01  .641E+01
  .641E+01  .641E+01  .641E+01  .641E+01  .641E+01  .641E+01  .641E+01  .641E+01
  .641E+01  .641E+01  .641E+01  .641E+01  .641E+01  .641E+01  .641E+01  .641E+01
  .641E+01  .641E+01  .641E+01  .000E+00  .000E+00  .000E+00  .000E+00  .000E+00
  .000E+00  .000E+00  .000E+00  .000E+00
  .231E+01  .231E+01  .232E+01  .234E+01  .444E+01  .645E+01  .663E+01  .676E+01
  .677E+01  .677E+01  .678E+01  .678E+01  .684E+01  .230E+01  .646E+01  .594E+01
  .646E+01  .762E+01  .698E+01  .764E+01  .745E+01  .688E+01  .665E+01  .666E+01
  .658E+01  .660E+01  .651E+01  .643E+01  .846E+01  .613E+01  .615E+01  .616E+01
  .655E+01  .643E+01  .643E+01  .644E+01  .644E+01  .644E+01  .645E+01  .646E+01
  .778E+01  .955E+01  .936E+01  .118E+02  .118E+02  .884E+01  .886E+01  .862E+01
  .864E+01  .864E+01  .661E+01  .661E+01  .864E+01  .866E+01  .118E+02  .106E+02
  .634E+01  .635E+01  .576E+01  .576E+01  .576E+01  .838E+01  .795E+01  .795E+01
  .796E+01  .102E+02  .173E+02  .173E+02  .163E+02  .163E+02  .163E+02  .149E+02
  .116E+02  .116E+02  .116E+02  .631E+01  .631E+01  .631E+01  .630E+01  .630E+01
  .630E+01  .630E+01  .630E+01  .630E+01  .630E+01  .630E+01  .630E+01  .630E+01
  .630E+01  .630E+01  .630E+01  .000E+00  .000E+00  .000E+00  .000E+00  .000E+00
  .000E+00  .000E+00  .000E+00  .000E+00
/&   ----------  End of spectral data for channel  2  ----------
