Response and Fourier amplitude spectra (91 periods,  .04 - 15.0 sec)   for      
Corrected accelerogram   14059-L1878-01252.05       Chan  1:   0 Deg     from   
Uncorrected Accelerogram Data             Processed: 09/10/01, CDMG  059at005   
Record of Sun Sep  9, 2001 16:59:30 PDT               (Avol1 v4.6  7/01 CSMIP)  
CSMIP Preliminary Processing            (Origin:  To be determined)             
14059-L1878-01252.05                 Start time:  9/09/01, 23:59:30.0 UTC (GPS) 
Station No. 14059   33.876N, 118.240W      Etna  s/n 1878  (3 Channels)         
Compton - Hwy 91 & Wilmington                                                   
Chan  1:   0 Deg                                                                
Record of Sun Sep  9, 2001 16:59:30 PDT    Sun Sep  9, 2001 16:59:30 PDT        
Hypocenter:  To be determined.               ML:  To be determined.             
Instr Period =  .0102 sec,  Damping =  .680,  Sensitivity =  .63  v/g           
                        Record length = 36.000 sec.                             
                                     Uncor Max  =  -.007 g, at   5.000 sec.     
RMS accel of (uncor) record  =        .                                         
Accelerogram bandpass filtered with 3 dB pts at   .30 and 40.00 cyc/sec         
                 instrument- and baseline-corrected                             
                                                                                
                                                                                
                                                                                
                                                                                
                                                                                
Record of Sun Sep  9, 2001 16:59:30 PDT    Sun Sep  9, 2001 16:59:30 PDT        
                                                                                
14059-L1878-01252.05      Compton - Hwy 91 & Wilmington   Chan  1:   0 Deg      
                                                                                
14059-L1878-01252.05      Compton - Hwy 91 & Wilmington   Chan  1:   0 Deg      
                                                                                
Units for spectra are inches and sec, except Sa is in fraction of g.            
                                                                                
    1  100    1    3    3  200    1    3    1   24   12 1878    014059    1    0
   23   59   30    0  252    9    9 2001   10    3    0 7200   39   29   72 -999
 7200    1   50    3 1878    1    5  360    1    0    0    0    0    0    0    0
    0    4    0    0 3600    2    0    0    0    0   72   29    0    0    0 3600
    0 3600   30   91    1    3    0    0    0    0    3    0    0    0    0    2
    2    2    4    0   32   99    0   32   32    0    0    1    0    0    0    0
  -99   -1    0    0
      .010      .680    36.000      .001      .000   625.000     -.007     5.000
    98.200      .298      .477      .000     5.000      .000      .000      .000
     2.500    11.461      .011      .003     5.000    30.000      .000      .021
     -.002     -.022     2.000    15.000    33.876  -118.240     1.729      .262
      .152     -.245      .201  -999.000      .000      .000   -13.500      .000
  1000.000    -1.041      .000      .000      .000      .000      .000      .000
     4.600     4.400      .000   980.665      .010    36.000    15.629      .000
      .000    40.000      .000    36.000      .010      .300      .000      .000
     5.000    -6.631     4.610     -.491     4.490      .039      .000      .300
    40.000      .010      .010      .000      .010      .014      .000      .000
      .021      .220      .018      .012      .003      .000      .000      .000
      .000      .000      .000      .000      .000      .000      .000      .000
      .000      .000      .000      .000
      .050
      .040      .042      .044      .046      .048      .050      .055      .060
      .065      .070      .075      .080      .085      .090      .095      .100
      .110      .120      .130      .140      .150      .160      .170      .180
      .190      .200      .220      .240      .260      .280      .300      .320
      .340      .360      .380      .400      .420      .440      .460      .480
      .500      .550      .600      .650      .700      .750      .800      .850
      .900      .950     1.000     1.100     1.200     1.300     1.400     1.500
     1.600     1.700     1.800     1.900     2.000     2.200     2.400     2.600
     2.800     3.000     3.200     3.400     3.600     3.800     4.000     4.200
     4.400     4.600     4.800     5.000     5.500     6.000     6.500     7.000
     7.500     8.000     8.500     9.000     9.500    10.000    11.000    12.000
    13.000    14.000    15.000      .000      .000      .000      .000      .000
      .000      .000      .000      .000
Fourier amplitude spectra in in/sec.
  .000E+00  .000E+00  .000E+00  .000E+00  .000E+00  .000E+00  .000E+00  .000E+00
  .000E+00  .000E+00  .000E+00  .000E+00  .000E+00  .000E+00  .000E+00  .000E+00
  .000E+00  .000E+00  .000E+00  .000E+00  .000E+00  .000E+00  .000E+00  .000E+00
  .000E+00  .000E+00  .000E+00  .000E+00  .000E+00  .000E+00  .000E+00  .000E+00
  .000E+00  .000E+00  .000E+00  .000E+00  .000E+00  .000E+00  .000E+00  .000E+00
  .000E+00  .000E+00  .000E+00  .000E+00  .000E+00  .000E+00  .000E+00  .000E+00
  .000E+00  .000E+00  .000E+00  .000E+00  .000E+00  .000E+00  .000E+00  .000E+00
  .000E+00  .000E+00  .000E+00  .000E+00  .000E+00  .000E+00  .000E+00  .000E+00
  .000E+00  .000E+00  .000E+00  .000E+00  .000E+00  .000E+00  .000E+00  .000E+00
  .000E+00  .000E+00  .000E+00  .000E+00  .000E+00  .000E+00  .000E+00  .000E+00
  .000E+00  .000E+00  .000E+00  .000E+00  .000E+00  .000E+00  .000E+00  .000E+00
  .000E+00  .000E+00  .000E+00  .000E+00  .000E+00  .000E+00  .000E+00  .000E+00
  .000E+00  .000E+00  .000E+00  .000E+00
Damping =  .05. Data of Sd,Sv,Sa,Pssv,ttSd,ttSv,ttSa :
  .111E-03  .122E-03  .134E-03  .149E-03  .166E-03  .179E-03  .220E-03  .256E-03
  .317E-03  .369E-03  .413E-03  .523E-03  .591E-03  .752E-03  .846E-03  .100E-02
  .154E-02  .189E-02  .218E-02  .282E-02  .321E-02  .418E-02  .442E-02  .532E-02
  .591E-02  .687E-02  .987E-02  .940E-02  .848E-02  .842E-02  .909E-02  .149E-01
  .160E-01  .172E-01  .204E-01  .250E-01  .296E-01  .341E-01  .404E-01  .465E-01
  .476E-01  .432E-01  .416E-01  .499E-01  .514E-01  .488E-01  .446E-01  .402E-01
  .353E-01  .369E-01  .355E-01  .249E-01  .245E-01  .299E-01  .286E-01  .296E-01
  .291E-01  .265E-01  .240E-01  .217E-01  .197E-01  .194E-01  .190E-01  .184E-01
  .179E-01  .177E-01  .170E-01  .177E-01  .182E-01  .183E-01  .182E-01  .179E-01
  .175E-01  .171E-01  .168E-01  .164E-01  .158E-01  .155E-01  .153E-01  .152E-01
  .152E-01  .152E-01  .152E-01  .152E-01  .152E-01  .152E-01  .152E-01  .152E-01
  .152E-01  .152E-01  .152E-01  .000E+00  .000E+00  .000E+00  .000E+00  .000E+00
  .000E+00  .000E+00  .000E+00  .000E+00
  .313E-02  .375E-02  .446E-02  .528E-02  .577E-02  .600E-02  .863E-02  .121E-01
  .147E-01  .177E-01  .200E-01  .251E-01  .311E-01  .436E-01  .469E-01  .515E-01
  .579E-01  .597E-01  .874E-01  .116E+00  .125E+00  .129E+00  .133E+00  .167E+00
  .169E+00  .183E+00  .252E+00  .231E+00  .197E+00  .193E+00  .198E+00  .249E+00
  .257E+00  .261E+00  .295E+00  .342E+00  .375E+00  .444E+00  .542E+00  .595E+00
  .613E+00  .504E+00  .461E+00  .535E+00  .519E+00  .427E+00  .351E+00  .350E+00
  .335E+00  .313E+00  .291E+00  .238E+00  .231E+00  .244E+00  .243E+00  .240E+00
  .246E+00  .246E+00  .243E+00  .237E+00  .231E+00  .221E+00  .214E+00  .208E+00
  .205E+00  .203E+00  .201E+00  .200E+00  .199E+00  .198E+00  .198E+00  .197E+00
  .197E+00  .196E+00  .196E+00  .196E+00  .195E+00  .195E+00  .195E+00  .195E+00
  .194E+00  .194E+00  .194E+00  .194E+00  .194E+00  .194E+00  .194E+00  .194E+00
  .194E+00  .194E+00  .194E+00  .000E+00  .000E+00  .000E+00  .000E+00  .000E+00
  .000E+00  .000E+00  .000E+00  .000E+00
  .711E-02  .705E-02  .709E-02  .721E-02  .735E-02  .735E-02  .746E-02  .727E-02
  .767E-02  .769E-02  .753E-02  .836E-02  .838E-02  .945E-02  .958E-02  .103E-01
  .130E-01  .133E-01  .131E-01  .149E-01  .145E-01  .167E-01  .158E-01  .170E-01
  .170E-01  .175E-01  .208E-01  .169E-01  .129E-01  .110E-01  .104E-01  .150E-01
  .142E-01  .136E-01  .146E-01  .161E-01  .172E-01  .181E-01  .196E-01  .207E-01
  .196E-01  .147E-01  .119E-01  .121E-01  .108E-01  .894E-02  .720E-02  .575E-02
  .451E-02  .421E-02  .365E-02  .212E-02  .175E-02  .183E-02  .153E-02  .138E-02
  .119E-02  .966E-03  .784E-03  .639E-03  .528E-03  .428E-03  .356E-03  .297E-03
  .251E-03  .215E-03  .187E-03  .175E-03  .162E-03  .149E-03  .135E-03  .122E-03
  .111E-03  .101E-03  .940E-04  .885E-04  .771E-04  .684E-04  .613E-04  .554E-04
  .505E-04  .465E-04  .430E-04  .401E-04  .375E-04  .352E-04  .313E-04  .283E-04
  .258E-04  .237E-04  .220E-04  .000E+00  .000E+00  .000E+00  .000E+00  .000E+00
  .000E+00  .000E+00  .000E+00  .000E+00
  .175E-01  .182E-01  .192E-01  .204E-01  .217E-01  .226E-01  .252E-01  .268E-01
  .307E-01  .332E-01  .346E-01  .411E-01  .437E-01  .525E-01  .559E-01  .629E-01
  .879E-01  .990E-01  .105E+00  .127E+00  .134E+00  .164E+00  .163E+00  .186E+00
  .196E+00  .216E+00  .282E+00  .246E+00  .205E+00  .189E+00  .190E+00  .293E+00
  .296E+00  .300E+00  .338E+00  .393E+00  .443E+00  .487E+00  .551E+00  .608E+00
  .598E+00  .493E+00  .436E+00  .483E+00  .461E+00  .409E+00  .350E+00  .297E+00
  .246E+00  .244E+00  .223E+00  .142E+00  .128E+00  .144E+00  .128E+00  .124E+00
  .114E+00  .980E-01  .839E-01  .717E-01  .618E-01  .554E-01  .497E-01  .445E-01
  .401E-01  .370E-01  .334E-01  .326E-01  .317E-01  .303E-01  .286E-01  .268E-01
  .250E-01  .234E-01  .219E-01  .207E-01  .181E-01  .162E-01  .148E-01  .137E-01
  .127E-01  .119E-01  .112E-01  .106E-01  .100E-01  .953E-02  .866E-02  .794E-02
  .733E-02  .681E-02  .636E-02  .000E+00  .000E+00  .000E+00  .000E+00  .000E+00
  .000E+00  .000E+00  .000E+00  .000E+00
  .500E+01  .500E+01  .500E+01  .500E+01  .500E+01  .500E+01  .500E+01  .501E+01
  .501E+01  .501E+01  .448E+01  .469E+01  .498E+01  .257E+01  .498E+01  .498E+01
  .499E+01  .500E+01  .501E+01  .128E+01  .501E+01  .502E+01  .502E+01  .875E+01
  .906E+01  .908E+01  .505E+01  .507E+01  .522E+01  .474E+01  .917E+01  .474E+01
  .476E+01  .476E+01  .477E+01  .477E+01  .479E+01  .480E+01  .507E+01  .510E+01
  .512E+01  .516E+01  .518E+01  .522E+01  .497E+01  .499E+01  .500E+01  .502E+01
  .470E+01  .986E+01  .990E+01  .995E+01  .959E+01  .962E+01  .471E+01  .472E+01
  .964E+01  .473E+01  .474E+01  .474E+01  .474E+01  .446E+01  .447E+01  .447E+01
  .447E+01  .128E+02  .447E+01  .907E+01  .907E+01  .908E+01  .908E+01  .908E+01
  .908E+01  .908E+01  .908E+01  .908E+01  .908E+01  .908E+01  .908E+01  .447E+01
  .447E+01  .447E+01  .447E+01  .447E+01  .447E+01  .447E+01  .447E+01  .447E+01
  .447E+01  .447E+01  .447E+01  .000E+00  .000E+00  .000E+00  .000E+00  .000E+00
  .000E+00  .000E+00  .000E+00  .000E+00
  .121E+01  .253E+01  .253E+01  .253E+01  .253E+01  .253E+01  .253E+01  .258E+01
  .121E+01  .121E+01  .494E+01  .258E+01  .259E+01  .260E+01  .279E+01  .379E+01
  .354E+01  .496E+01  .261E+01  .131E+01  .133E+01  .506E+01  .507E+01  .880E+01
  .901E+01  .903E+01  .510E+01  .514E+01  .515E+01  .922E+01  .924E+01  .886E+01
  .484E+01  .485E+01  .486E+01  .487E+01  .488E+01  .517E+01  .519E+01  .571E+01
  .574E+01  .504E+01  .505E+01  .507E+01  .510E+01  .513E+01  .484E+01  .491E+01
  .492E+01  .458E+01  .459E+01  .459E+01  .493E+01  .493E+01  .493E+01  .459E+01
  .459E+01  .459E+01  .459E+01  .459E+01  .459E+01  .460E+01  .460E+01  .460E+01
  .460E+01  .460E+01  .460E+01  .460E+01  .460E+01  .460E+01  .460E+01  .460E+01
  .460E+01  .460E+01  .460E+01  .460E+01  .460E+01  .460E+01  .460E+01  .460E+01
  .460E+01  .460E+01  .460E+01  .460E+01  .460E+01  .460E+01  .460E+01  .460E+01
  .460E+01  .460E+01  .460E+01  .000E+00  .000E+00  .000E+00  .000E+00  .000E+00
  .000E+00  .000E+00  .000E+00  .000E+00
  .500E+01  .500E+01  .500E+01  .500E+01  .500E+01  .500E+01  .500E+01  .501E+01
  .501E+01  .501E+01  .448E+01  .497E+01  .498E+01  .257E+01  .498E+01  .498E+01
  .499E+01  .500E+01  .501E+01  .127E+01  .500E+01  .502E+01  .502E+01  .875E+01
  .906E+01  .908E+01  .505E+01  .507E+01  .521E+01  .337E+01  .917E+01  .473E+01
  .475E+01  .476E+01  .476E+01  .477E+01  .478E+01  .479E+01  .507E+01  .509E+01
  .512E+01  .515E+01  .517E+01  .521E+01  .495E+01  .498E+01  .499E+01  .500E+01
  .469E+01  .985E+01  .989E+01  .993E+01  .958E+01  .960E+01  .469E+01  .469E+01
  .962E+01  .470E+01  .471E+01  .470E+01  .470E+01  .444E+01  .444E+01  .444E+01
  .444E+01  .444E+01  .444E+01  .902E+01  .902E+01  .902E+01  .902E+01  .902E+01
  .902E+01  .902E+01  .466E+01  .466E+01  .465E+01  .465E+01  .465E+01  .465E+01
  .465E+01  .464E+01  .464E+01  .464E+01  .464E+01  .464E+01  .463E+01  .463E+01
  .463E+01  .463E+01  .463E+01  .000E+00  .000E+00  .000E+00  .000E+00  .000E+00
  .000E+00  .000E+00  .000E+00  .000E+00
/&   ----------  End of spectral data for channel  1  ----------
Response and Fourier amplitude spectra (91 periods,  .04 - 15.0 sec)   for      
Corrected accelerogram   14059-L1878-01252.05       Chan  2:   0 Deg     from   
Uncorrected Accelerogram Data             Processed: 09/10/01, CDMG  059at005   
Record of Sun Sep  9, 2001 16:59:30 PDT               (Avol1 v4.6  7/01 CSMIP)  
CSMIP Preliminary Processing            (Origin:  To be determined)             
14059-L1878-01252.05                 Start time:  9/09/01, 23:59:30.0 UTC (GPS) 
Station No. 14059   33.876N, 118.240W      Etna  s/n 1878  (3 Channels)         
Compton - Hwy 91 & Wilmington                                                   
Chan  2:   0 Deg                                                                
Record of Sun Sep  9, 2001 16:59:30 PDT    Sun Sep  9, 2001 16:59:30 PDT        
Hypocenter:  To be determined.               ML:  To be determined.             
Instr Period =  .0105 sec,  Damping =  .660,  Sensitivity =  .63  v/g           
                        Record length = 36.000 sec.                             
                                     Uncor Max  =   .003 g, at    .995 sec.     
RMS accel of (uncor) record  =        .                                         
Accelerogram bandpass filtered with 3 dB pts at   .30 and 40.00 cyc/sec         
                 instrument- and baseline-corrected                             
                                                                                
                                                                                
                                                                                
                                                                                
                                                                                
Record of Sun Sep  9, 2001 16:59:30 PDT    Sun Sep  9, 2001 16:59:30 PDT        
                                                                                
14059-L1878-01252.05      Compton - Hwy 91 & Wilmington   Chan  2:   0 Deg      
                                                                                
14059-L1878-01252.05      Compton - Hwy 91 & Wilmington   Chan  2:   0 Deg      
                                                                                
Units for spectra are inches and sec, except Sa is in fraction of g.            
                                                                                
    2  100    2    3    3  200    1    3    1   24   12 1878    014059    1    0
   23   59   30    0  252    9    9 2001   10    3    0 7200   39   29   72 -999
 7200    1   50    3 1878    1    5  360    1    0    0    0    0    0    0    0
    0    4    0    0 3600    2    0    0    0    0   72   29    0    0    0 3600
    0 3600   30   91    1    3    0    0    0    0    3    0    0    0    0    2
    2    2    4    0   32   99    0   32   32    0    0    1    0    0    0    0
  -99   -1    0    0
      .011      .660    36.000      .001      .000   625.000      .003      .995
    94.800      .298      .477      .000     5.000      .000      .000      .000
     2.500     1.384      .003     -.001     5.000    30.000      .000      .006
      .003     -.003     2.000    15.000    33.876  -118.240     1.387      .222
      .160     -.182      .175  -999.000      .000      .000   -13.500      .000
  1000.000    -1.095      .000      .000      .000      .000      .000      .000
     4.600     4.400      .000   980.665      .010    36.000    15.088      .000
      .000    40.000      .000    36.000      .010      .300      .000      .000
     2.300     3.255     5.130     -.144     3.110     -.010      .000      .300
    40.000      .010      .010      .000      .010      .009      .000      .000
      .013      .320      .010      .011      .001      .000      .000      .000
      .000      .000      .000      .000      .000      .000      .000      .000
      .000      .000      .000      .000
      .050
      .040      .042      .044      .046      .048      .050      .055      .060
      .065      .070      .075      .080      .085      .090      .095      .100
      .110      .120      .130      .140      .150      .160      .170      .180
      .190      .200      .220      .240      .260      .280      .300      .320
      .340      .360      .380      .400      .420      .440      .460      .480
      .500      .550      .600      .650      .700      .750      .800      .850
      .900      .950     1.000     1.100     1.200     1.300     1.400     1.500
     1.600     1.700     1.800     1.900     2.000     2.200     2.400     2.600
     2.800     3.000     3.200     3.400     3.600     3.800     4.000     4.200
     4.400     4.600     4.800     5.000     5.500     6.000     6.500     7.000
     7.500     8.000     8.500     9.000     9.500    10.000    11.000    12.000
    13.000    14.000    15.000      .000      .000      .000      .000      .000
      .000      .000      .000      .000
Fourier amplitude spectra in in/sec.
  .000E+00  .000E+00  .000E+00  .000E+00  .000E+00  .000E+00  .000E+00  .000E+00
  .000E+00  .000E+00  .000E+00  .000E+00  .000E+00  .000E+00  .000E+00  .000E+00
  .000E+00  .000E+00  .000E+00  .000E+00  .000E+00  .000E+00  .000E+00  .000E+00
  .000E+00  .000E+00  .000E+00  .000E+00  .000E+00  .000E+00  .000E+00  .000E+00
  .000E+00  .000E+00  .000E+00  .000E+00  .000E+00  .000E+00  .000E+00  .000E+00
  .000E+00  .000E+00  .000E+00  .000E+00  .000E+00  .000E+00  .000E+00  .000E+00
  .000E+00  .000E+00  .000E+00  .000E+00  .000E+00  .000E+00  .000E+00  .000E+00
  .000E+00  .000E+00  .000E+00  .000E+00  .000E+00  .000E+00  .000E+00  .000E+00
  .000E+00  .000E+00  .000E+00  .000E+00  .000E+00  .000E+00  .000E+00  .000E+00
  .000E+00  .000E+00  .000E+00  .000E+00  .000E+00  .000E+00  .000E+00  .000E+00
  .000E+00  .000E+00  .000E+00  .000E+00  .000E+00  .000E+00  .000E+00  .000E+00
  .000E+00  .000E+00  .000E+00  .000E+00  .000E+00  .000E+00  .000E+00  .000E+00
  .000E+00  .000E+00  .000E+00  .000E+00
Damping =  .05. Data of Sd,Sv,Sa,Pssv,ttSd,ttSv,ttSa :
  .542E-04  .623E-04  .716E-04  .808E-04  .941E-04  .106E-03  .128E-03  .170E-03
  .250E-03  .310E-03  .421E-03  .442E-03  .468E-03  .575E-03  .759E-03  .809E-03
  .832E-03  .104E-02  .131E-02  .130E-02  .186E-02  .234E-02  .239E-02  .296E-02
  .359E-02  .426E-02  .434E-02  .395E-02  .518E-02  .699E-02  .874E-02  .126E-01
  .137E-01  .154E-01  .140E-01  .146E-01  .155E-01  .154E-01  .142E-01  .162E-01
