Response and Fourier amplitude spectra (91 periods,  .04 - 15.0 sec)   for      
Corrected accelerogram   14872-L1342-01252.19       Chan  1: 360 Deg     from   
Uncorrected Accelerogram Data             Processed: 09/10/01, CDMG  872ak019   
Record of Sun Sep  9, 2001 16:59:31 PDT               (Avol1 v4.6  7/01 CSMIP)  
CSMIP Preliminary Processing            (Origin:  To be determined)             
14872-L1342-01252.19                 Start time:  9/09/01, 23:59:31.0 UTC (GPS) 
Station No. 14872   33.873N, 118.175W      Etna  s/n 1342  (3 Channels)         
Long Beach - Artesia & Orange                                                   
Chan  1: 360 Deg                                                                
Record of Sun Sep  9, 2001 16:59:31 PDT    Sun Sep  9, 2001 16:59:31 PDT        
Hypocenter:  To be determined.               ML:  To be determined.             
Instr Period =  .0105 sec,  Damping =  .660,  Sensitivity =  .63  v/g           
                        Record length = 37.000 sec.                             
                                     Uncor Max  =   .010 g, at   5.825 sec.     
RMS accel of (uncor) record  =        .                                         
Accelerogram bandpass filtered with 3 dB pts at   .30 and 40.00 cyc/sec         
                 instrument- and baseline-corrected                             
                                                                                
                                                                                
                                                                                
                                                                                
                                                                                
Record of Sun Sep  9, 2001 16:59:31 PDT    Sun Sep  9, 2001 16:59:31 PDT        
                                                                                
14872-L1342-01252.19      Long Beach - Artesia & Orange   Chan  1: 360 Deg      
                                                                                
14872-L1342-01252.19      Long Beach - Artesia & Orange   Chan  1: 360 Deg      
                                                                                
Units for spectra are inches and sec, except Sa is in fraction of g.            
                                                                                
    1  100    1    3    3  200    1    3    1   24   12 1342    014872    1    0
   23   59   31    0  252    9    9 2001   10    3  360 7400   39   29   72  360
 7400    1   50    3 1342    1   19  370    1    0    0    0    0    0    0    0
    0    4    0    0 3700    2    0    0    0    0   72   29    0    0    0 3700
    0 3700   30   91    1    3    0    0    0    0    3    0    0    0    0    2
    2    2    4    0   32   99    0   32   32    0    0    1    0    0    0    0
  -99   -1    0    0
      .010      .660    37.000      .002      .000   625.000      .010     5.825
    95.300      .298      .477      .000     5.000      .000      .000      .000
     2.500    -9.682      .000     -.012     5.000    30.000      .000      .005
     -.007     -.013     2.000    15.000    33.873  -118.175     2.775      .533
      .192     -.371      .346  -999.000      .000      .000   -13.200      .000
  1000.000    -1.386      .000      .000      .000      .000      .000      .000
     4.600     4.400      .000   980.665      .010    37.000    15.167      .000
      .000    40.000      .000    37.000      .010      .300      .000      .000
     5.820     9.430     5.890      .616     5.980      .036      .000      .300
    40.000      .010      .010      .000      .010      .022      .000      .000
      .041      .280      .030      .034      .003      .000      .000      .000
      .000      .000      .000      .000      .000      .000      .000      .000
      .000      .000      .000      .000
      .050
      .040      .042      .044      .046      .048      .050      .055      .060
      .065      .070      .075      .080      .085      .090      .095      .100
      .110      .120      .130      .140      .150      .160      .170      .180
      .190      .200      .220      .240      .260      .280      .300      .320
      .340      .360      .380      .400      .420      .440      .460      .480
      .500      .550      .600      .650      .700      .750      .800      .850
      .900      .950     1.000     1.100     1.200     1.300     1.400     1.500
     1.600     1.700     1.800     1.900     2.000     2.200     2.400     2.600
     2.800     3.000     3.200     3.400     3.600     3.800     4.000     4.200
     4.400     4.600     4.800     5.000     5.500     6.000     6.500     7.000
     7.500     8.000     8.500     9.000     9.500    10.000    11.000    12.000
    13.000    14.000    15.000      .000      .000      .000      .000      .000
      .000      .000      .000      .000
Fourier amplitude spectra in in/sec.
  .000E+00  .000E+00  .000E+00  .000E+00  .000E+00  .000E+00  .000E+00  .000E+00
  .000E+00  .000E+00  .000E+00  .000E+00  .000E+00  .000E+00  .000E+00  .000E+00
  .000E+00  .000E+00  .000E+00  .000E+00  .000E+00  .000E+00  .000E+00  .000E+00
  .000E+00  .000E+00  .000E+00  .000E+00  .000E+00  .000E+00  .000E+00  .000E+00
  .000E+00  .000E+00  .000E+00  .000E+00  .000E+00  .000E+00  .000E+00  .000E+00
  .000E+00  .000E+00  .000E+00  .000E+00  .000E+00  .000E+00  .000E+00  .000E+00
  .000E+00  .000E+00  .000E+00  .000E+00  .000E+00  .000E+00  .000E+00  .000E+00
  .000E+00  .000E+00  .000E+00  .000E+00  .000E+00  .000E+00  .000E+00  .000E+00
  .000E+00  .000E+00  .000E+00  .000E+00  .000E+00  .000E+00  .000E+00  .000E+00
  .000E+00  .000E+00  .000E+00  .000E+00  .000E+00  .000E+00  .000E+00  .000E+00
  .000E+00  .000E+00  .000E+00  .000E+00  .000E+00  .000E+00  .000E+00  .000E+00
  .000E+00  .000E+00  .000E+00  .000E+00  .000E+00  .000E+00  .000E+00  .000E+00
  .000E+00  .000E+00  .000E+00  .000E+00
Damping =  .05. Data of Sd,Sv,Sa,Pssv,ttSd,ttSv,ttSa :
  .160E-03  .179E-03  .191E-03  .208E-03  .230E-03  .250E-03  .303E-03  .384E-03
  .481E-03  .586E-03  .653E-03  .708E-03  .770E-03  .859E-03  .102E-02  .128E-02
  .181E-02  .284E-02  .359E-02  .353E-02  .473E-02  .550E-02  .697E-02  .795E-02
  .996E-02  .138E-01  .122E-01  .161E-01  .250E-01  .314E-01  .309E-01  .260E-01
  .226E-01  .210E-01  .264E-01  .280E-01  .297E-01  .300E-01  .307E-01  .308E-01
  .298E-01  .405E-01  .528E-01  .508E-01  .478E-01  .538E-01  .391E-01  .337E-01
  .312E-01  .301E-01  .327E-01  .425E-01  .384E-01  .430E-01  .417E-01  .389E-01
  .360E-01  .328E-01  .312E-01  .402E-01  .422E-01  .421E-01  .370E-01  .327E-01
  .323E-01  .344E-01  .307E-01  .259E-01  .218E-01  .209E-01  .202E-01  .195E-01
  .189E-01  .184E-01  .181E-01  .178E-01  .174E-01  .174E-01  .174E-01  .172E-01
  .170E-01  .167E-01  .164E-01  .162E-01  .160E-01  .159E-01  .158E-01  .159E-01
  .160E-01  .161E-01  .162E-01  .000E+00  .000E+00  .000E+00  .000E+00  .000E+00
  .000E+00  .000E+00  .000E+00  .000E+00
  .468E-02  .556E-02  .589E-02  .682E-02  .756E-02  .869E-02  .119E-01  .145E-01
  .228E-01  .283E-01  .343E-01  .390E-01  .387E-01  .444E-01  .476E-01  .626E-01
  .929E-01  .102E+00  .120E+00  .118E+00  .161E+00  .159E+00  .191E+00  .205E+00
  .252E+00  .362E+00  .314E+00  .378E+00  .556E+00  .664E+00  .629E+00  .529E+00
  .427E+00  .386E+00  .410E+00  .434E+00  .472E+00  .470E+00  .451E+00  .406E+00
  .404E+00  .513E+00  .578E+00  .576E+00  .500E+00  .466E+00  .403E+00  .316E+00
  .315E+00  .288E+00  .275E+00  .341E+00  .271E+00  .275E+00  .302E+00  .311E+00
  .315E+00  .315E+00  .312E+00  .305E+00  .297E+00  .283E+00  .275E+00  .270E+00
  .266E+00  .262E+00  .259E+00  .256E+00  .254E+00  .252E+00  .251E+00  .250E+00
  .249E+00  .248E+00  .248E+00  .247E+00  .247E+00  .246E+00  .245E+00  .245E+00
  .245E+00  .244E+00  .244E+00  .244E+00  .244E+00  .244E+00  .243E+00  .243E+00
  .243E+00  .243E+00  .243E+00  .000E+00  .000E+00  .000E+00  .000E+00  .000E+00
  .000E+00  .000E+00  .000E+00  .000E+00
  .102E-01  .104E-01  .101E-01  .101E-01  .102E-01  .102E-01  .103E-01  .109E-01
  .117E-01  .122E-01  .119E-01  .113E-01  .109E-01  .109E-01  .116E-01  .131E-01
  .152E-01  .201E-01  .216E-01  .185E-01  .216E-01  .221E-01  .247E-01  .250E-01
  .282E-01  .354E-01  .259E-01  .286E-01  .382E-01  .412E-01  .355E-01  .261E-01
  .201E-01  .167E-01  .187E-01  .180E-01  .173E-01  .160E-01  .149E-01  .137E-01
  .123E-01  .138E-01  .151E-01  .124E-01  .101E-01  .985E-02  .629E-02  .483E-02
  .398E-02  .344E-02  .337E-02  .363E-02  .278E-02  .267E-02  .224E-02  .182E-02
  .149E-02  .121E-02  .100E-02  .116E-02  .110E-02  .913E-03  .682E-03  .504E-03
  .434E-03  .403E-03  .315E-03  .232E-03  .192E-03  .167E-03  .146E-03  .129E-03
  .115E-03  .106E-03  .100E-03  .949E-04  .837E-04  .747E-04  .677E-04  .619E-04
  .570E-04  .529E-04  .493E-04  .462E-04  .435E-04  .412E-04  .373E-04  .341E-04
  .314E-04  .291E-04  .271E-04  .000E+00  .000E+00  .000E+00  .000E+00  .000E+00
  .000E+00  .000E+00  .000E+00  .000E+00
  .251E-01  .267E-01  .273E-01  .284E-01  .301E-01  .314E-01  .347E-01  .402E-01
  .465E-01  .526E-01  .547E-01  .556E-01  .569E-01  .600E-01  .676E-01  .803E-01
  .103E+00  .149E+00  .174E+00  .159E+00  .198E+00  .216E+00  .258E+00  .277E+00
  .329E+00  .432E+00  .348E+00  .422E+00  .604E+00  .704E+00  .647E+00  .510E+00
  .417E+00  .366E+00  .437E+00  .440E+00  .445E+00  .429E+00  .419E+00  .403E+00
  .375E+00  .462E+00  .553E+00  .491E+00  .429E+00  .451E+00  .307E+00  .249E+00
  .218E+00  .199E+00  .205E+00  .243E+00  .201E+00  .208E+00  .187E+00  .163E+00
  .142E+00  .121E+00  .109E+00  .133E+00  .133E+00  .120E+00  .969E-01  .791E-01
  .725E-01  .721E-01  .602E-01  .479E-01  .380E-01  .345E-01  .317E-01  .292E-01
  .270E-01  .252E-01  .236E-01  .223E-01  .199E-01  .182E-01  .168E-01  .155E-01
  .142E-01  .131E-01  .121E-01  .113E-01  .106E-01  .998E-02  .903E-02  .831E-02
  .772E-02  .722E-02  .677E-02  .000E+00  .000E+00  .000E+00  .000E+00  .000E+00
  .000E+00  .000E+00  .000E+00  .000E+00
  .582E+01  .582E+01  .582E+01  .582E+01  .582E+01  .582E+01  .582E+01  .594E+01
  .582E+01  .582E+01  .595E+01  .595E+01  .595E+01  .277E+01  .594E+01  .131E+01
  .139E+01  .581E+01  .583E+01  .583E+01  .593E+01  .594E+01  .595E+01  .596E+01
  .596E+01  .597E+01  .600E+01  .541E+01  .599E+01  .602E+01  .604E+01  .607E+01
  .780E+01  .783E+01  .123E+02  .124E+02  .116E+02  .114E+02  .110E+02  .111E+02
  .657E+01  .609E+01  .613E+01  .617E+01  .593E+01  .147E+02  .148E+02  .538E+01
  .503E+01  .130E+02  .148E+02  .145E+02  .594E+01  .595E+01  .596E+01  .597E+01
  .597E+01  .598E+01  .109E+02  .180E+02  .181E+02  .145E+02  .146E+02  .123E+02
  .180E+02  .141E+02  .142E+02  .177E+02  .177E+02  .120E+02  .120E+02  .120E+02
  .120E+02  .120E+02  .120E+02  .120E+02  .120E+02  .120E+02  .120E+02  .120E+02
  .120E+02  .120E+02  .120E+02  .120E+02  .120E+02  .120E+02  .120E+02  .120E+02
  .120E+02  .120E+02  .120E+02  .000E+00  .000E+00  .000E+00  .000E+00  .000E+00
  .000E+00  .000E+00  .000E+00  .000E+00
  .517E+01  .517E+01  .121E+01  .122E+01  .122E+01  .121E+01  .204E+01  .122E+01
  .181E+01  .207E+01  .263E+01  .128E+01  .128E+01  .274E+01  .280E+01  .128E+01
  .136E+01  .577E+01  .586E+01  .146E+01  .588E+01  .589E+01  .590E+01  .601E+01
  .601E+01  .602E+01  .605E+01  .547E+01  .606E+01  .609E+01  .612E+01  .615E+01
  .788E+01  .775E+01  .122E+02  .123E+02  .115E+02  .115E+02  .114E+02  .112E+02
  .618E+01  .706E+01  .600E+01  .602E+01  .605E+01  .146E+02  .146E+02  .527E+01
  .528E+01  .529E+01  .150E+02  .146E+02  .606E+01  .587E+01  .587E+01  .587E+01
  .587E+01  .587E+01  .587E+01  .588E+01  .588E+01  .588E+01  .588E+01  .588E+01
  .588E+01  .588E+01  .588E+01  .588E+01  .588E+01  .588E+01  .588E+01  .588E+01
  .588E+01  .588E+01  .588E+01  .588E+01  .588E+01  .588E+01  .588E+01  .588E+01
  .588E+01  .588E+01  .588E+01  .588E+01  .588E+01  .588E+01  .588E+01  .588E+01
  .588E+01  .588E+01  .588E+01  .000E+00  .000E+00  .000E+00  .000E+00  .000E+00
  .000E+00  .000E+00  .000E+00  .000E+00
  .582E+01  .582E+01  .582E+01  .582E+01  .582E+01  .582E+01  .582E+01  .594E+01
  .581E+01  .582E+01  .595E+01  .595E+01  .595E+01  .277E+01  .594E+01  .131E+01
  .139E+01  .581E+01  .583E+01  .583E+01  .593E+01  .594E+01  .595E+01  .596E+01
  .596E+01  .597E+01  .599E+01  .541E+01  .599E+01  .602E+01  .604E+01  .606E+01
  .779E+01  .783E+01  .123E+02  .123E+02  .116E+02  .114E+02  .110E+02  .111E+02
  .656E+01  .608E+01  .612E+01  .616E+01  .592E+01  .147E+02  .145E+02  .536E+01
  .502E+01  .130E+02  .148E+02  .145E+02  .592E+01  .593E+01  .594E+01  .595E+01
  .595E+01  .595E+01  .109E+02  .180E+02  .180E+02  .145E+02  .145E+02  .123E+02
  .141E+02  .141E+02  .141E+02  .177E+02  .102E+02  .102E+02  .102E+02  .102E+02
  .102E+02  .591E+01  .591E+01  .591E+01  .591E+01  .590E+01  .590E+01  .590E+01
  .590E+01  .590E+01  .590E+01  .590E+01  .590E+01  .589E+01  .589E+01  .589E+01
  .589E+01  .589E+01  .589E+01  .000E+00  .000E+00  .000E+00  .000E+00  .000E+00
  .000E+00  .000E+00  .000E+00  .000E+00
/&   ----------  End of spectral data for channel  1  ----------
Response and Fourier amplitude spectra (91 periods,  .04 - 15.0 sec)   for      
Corrected accelerogram   14872-L1342-01252.19       Chan  2:  Up         from   
Uncorrected Accelerogram Data             Processed: 09/10/01, CDMG  872ak019   
Record of Sun Sep  9, 2001 16:59:31 PDT               (Avol1 v4.6  7/01 CSMIP)  
CSMIP Preliminary Processing            (Origin:  To be determined)             
14872-L1342-01252.19                 Start time:  9/09/01, 23:59:31.0 UTC (GPS) 
Station No. 14872   33.873N, 118.175W      Etna  s/n 1342  (3 Channels)         
Long Beach - Artesia & Orange                                                   
Chan  2:  Up                                                                    
Record of Sun Sep  9, 2001 16:59:31 PDT    Sun Sep  9, 2001 16:59:31 PDT        
Hypocenter:  To be determined.               ML:  To be determined.             
Instr Period =  .0104 sec,  Damping =  .660,  Sensitivity =  .63  v/g           
                        Record length = 37.000 sec.                             
                                     Uncor Max  =   .003 g, at    .065 sec.     
RMS accel of (uncor) record  =        .                                         
Accelerogram bandpass filtered with 3 dB pts at   .30 and 40.00 cyc/sec         
                 instrument- and baseline-corrected                             
                                                                                
                                                                                
                                                                                
                                                                                
                                                                                
Record of Sun Sep  9, 2001 16:59:31 PDT    Sun Sep  9, 2001 16:59:31 PDT        
                                                                                
14872-L1342-01252.19      Long Beach - Artesia & Orange   Chan  2:  Up          
                                                                                
14872-L1342-01252.19      Long Beach - Artesia & Orange   Chan  2:  Up          
                                                                                
Units for spectra are inches and sec, except Sa is in fraction of g.            
                                                                                
    2  100    2    3    3  200    1    3    1   24   12 1342    014872    1    0
   23   59   31    0  252    9    9 2001   10    3  500 7400   39   29   72  360
 7400    1   50    3 1342    1   19  370    1    0    0    0    0    0    0    0
    0    4    0    0 3700    2    0    0    0    0   72   29    0    0    0 3700
    0 3700   30   91    1    3    0    0    0    0    3    0    0    0    0    2
    2    2    4    0   32   99    0   32   32    0    0    1    0    0    0    0
  -99   -1    0    0
      .010      .660    37.000      .001      .000   625.000      .003      .065
    95.900      .298      .477      .000     5.000      .000      .000      .000
     2.500   -46.711     -.027     -.031     5.000    30.000      .000      .014
      .001     -.013     2.000    15.000    33.873  -118.175     1.210      .169
      .139     -.169      .143  -999.000      .000      .000   -13.200      .000
  1000.000    -1.320      .000      .000      .000      .000      .000      .000
     4.600     4.400      .000   980.665      .010    37.000    15.263      .000
      .000    40.000      .000    37.000      .010      .300      .000      .000
     1.990     2.964     7.140      .095    22.620      .007      .000      .300
    40.000      .010      .010      .000      .010      .006      .000      .000
      .010      .085      .007      .008      .001      .000      .000      .000
      .000      .000      .000      .000      .000      .000      .000      .000
      .000      .000      .000      .000
      .050
      .040      .042      .044      .046      .048      .050      .055      .060
      .065      .070      .075      .080      .085      .090      .095      .100
      .110      .120      .130      .140      .150      .160      .170      .180
      .190      .200      .220      .240      .260      .280      .300      .320
      .340      .360      .380      .400      .420      .440      .460      .480
      .500      .550      .600      .650      .700      .750      .800      .850
      .900      .950     1.000     1.100     1.200     1.300     1.400     1.500
     1.600     1.700     1.800     1.900     2.000     2.200     2.400     2.600
     2.800     3.000     3.200     3.400     3.600     3.800     4.000     4.200
     4.400     4.600     4.800     5.000     5.500     6.000     6.500     7.000
     7.500     8.000     8.500     9.000     9.500    10.000    11.000    12.000
    13.000    14.000    15.000      .000      .000      .000      .000      .000
      .000      .000      .000      .000
Fourier amplitude spectra in in/sec.
  .000E+00  .000E+00  .000E+00  .000E+00  .000E+00  .000E+00  .000E+00  .000E+00
  .000E+00  .000E+00  .000E+00  .000E+00  .000E+00  .000E+00  .000E+00  .000E+00
  .000E+00  .000E+00  .000E+00  .000E+00  .000E+00  .000E+00  .000E+00  .000E+00
  .000E+00  .000E+00  .000E+00  .000E+00  .000E+00  .000E+00  .000E+00  .000E+00
  .000E+00  .000E+00  .000E+00  .000E+00  .000E+00  .000E+00  .000E+00  .000E+00
  .000E+00  .000E+00  .000E+00  .000E+00  .000E+00  .000E+00  .000E+00  .000E+00
  .000E+00  .000E+00  .000E+00  .000E+00  .000E+00  .000E+00  .000E+00  .000E+00
  .000E+00  .000E+00  .000E+00  .000E+00  .000E+00  .000E+00  .000E+00  .000E+00
  .000E+00  .000E+00  .000E+00  .000E+00  .000E+00  .000E+00  .000E+00  .000E+00
  .000E+00  .000E+00  .000E+00  .000E+00  .000E+00  .000E+00  .000E+00  .000E+00
  .000E+00  .000E+00  .000E+00  .000E+00  .000E+00  .000E+00  .000E+00  .000E+00
  .000E+00  .000E+00  .000E+00  .000E+00  .000E+00  .000E+00  .000E+00  .000E+00
  .000E+00  .000E+00  .000E+00  .000E+00
Damping =  .05. Data of Sd,Sv,Sa,Pssv,ttSd,ttSv,ttSa :
  .691E-04  .742E-04  .741E-04  .847E-04  .951E-04  .105E-03  .158E-03  .198E-03
  .292E-03  .370E-03  .462E-03  .587E-03  .721E-03  .732E-03  .788E-03  .881E-03
  .656E-03  .716E-03  .926E-03  .122E-02  .155E-02  .179E-02  .198E-02  .231E-02
  .234E-02  .273E-02  .296E-02  .361E-02  .497E-02  .643E-02  .623E-02  .802E-02
  .693E-02  .539E-02  .500E-02  .476E-02  .547E-02  .598E-02  .642E-02  .694E-02
