Response and Fourier amplitude spectra (91 periods,  .04 - 15.0 sec)   for      
Corrected accelerogram   14988-L1791-01252.07       Chan  1:   0 Deg     from   
Uncorrected Accelerogram Data             Processed: 09/10/01, CDMG  988aq007   
Record of Sun Sep  9, 2001 16:59:20 PDT               (Avol1 v4.6  7/01 CSMIP)  
CSMIP Preliminary Processing            (Origin:  To be determined)             
14988-L1791-01252.07                 Start time:  9/09/01, 23:59:20.0 UTC (GPS) 
Station No. 14988   33.909N, 118.315W      Etna  s/n 1791  (3 Channels)         
Gardena - 135th & Van Ness                                                      
Chan  1:   0 Deg                                                                
Record of Sun Sep  9, 2001 16:59:20 PDT    Sun Sep  9, 2001 16:59:20 PDT        
Hypocenter:  To be determined.               ML:  To be determined.             
Instr Period =  .0103 sec,  Damping =  .660,  Sensitivity =  .63  v/g           
                        Record length = 44.000 sec.                             
                                     Uncor Max  =  -.014 g, at   5.610 sec.     
RMS accel of (uncor) record  =        .                                         
Accelerogram bandpass filtered with 3 dB pts at   .30 and 40.00 cyc/sec         
                 instrument- and baseline-corrected                             
                                                                                
                                                                                
                                                                                
                                                                                
                                                                                
Record of Sun Sep  9, 2001 16:59:20 PDT    Sun Sep  9, 2001 16:59:20 PDT        
                                                                                
14988-L1791-01252.07      Gardena - 135th & Van Ness    Chan  1:   0 Deg        
                                                                                
14988-L1791-01252.07      Gardena - 135th & Van Ness    Chan  1:   0 Deg        
                                                                                
Units for spectra are inches and sec, except Sa is in fraction of g.            
                                                                                
    1  100    1    3    3  200    1    3    1   24   12 1791    014988    1    0
   23   59   20    0  252    9    9 2001   10    3    0 8800   39   26   72 -999
 8800    1   50    3 1791    1    7  440    1    0    0    0    0    0    0    0
    0    4    0    0 4400    2    0    0    0    0   72   26    0    0    0 4400
    0 4400   27   91    1    3    0    0    0    0    3    0    0    0    0    2
    2    2    4    0   32   99 -999   32   32    0    0    1    0    0    0    0
  -99   -1    0    0
      .010      .660    44.000      .002      .000   625.000     -.014     5.610
    96.800      .298      .477      .000     5.000      .000      .000      .000
     2.500     -.322      .009     -.008     5.000    30.000      .000     -.007
     -.005      .003     2.000    15.000    33.909  -118.315      .048      .347
     7.195     -.015      .020  -999.000      .000      .000   -13.500      .000
  1000.000     1.004      .000      .000      .000      .000      .000      .000
     4.600     4.400      .000   980.665      .010    44.000    15.406      .000
      .000    40.000      .000    44.000      .010      .300      .000      .000
     5.610   -13.806     5.650     -.553    12.950     -.045      .000      .300
    40.000      .010      .010      .000      .010      .023      .000      .000
      .051      .150      .034      .020      .003      .000      .000      .000
      .000      .000      .000      .000      .000      .000      .000      .000
      .000      .000      .000      .000
      .050
      .040      .042      .044      .046      .048      .050      .055      .060
      .065      .070      .075      .080      .085      .090      .095      .100
      .110      .120      .130      .140      .150      .160      .170      .180
      .190      .200      .220      .240      .260      .280      .300      .320
      .340      .360      .380      .400      .420      .440      .460      .480
      .500      .550      .600      .650      .700      .750      .800      .850
      .900      .950     1.000     1.100     1.200     1.300     1.400     1.500
     1.600     1.700     1.800     1.900     2.000     2.200     2.400     2.600
     2.800     3.000     3.200     3.400     3.600     3.800     4.000     4.200
     4.400     4.600     4.800     5.000     5.500     6.000     6.500     7.000
     7.500     8.000     8.500     9.000     9.500    10.000    11.000    12.000
    13.000    14.000    15.000      .000      .000      .000      .000      .000
      .000      .000      .000      .000
Fourier amplitude spectra in in/sec.
  .000E+00  .000E+00  .000E+00  .000E+00  .000E+00  .000E+00  .000E+00  .000E+00
  .000E+00  .000E+00  .000E+00  .000E+00  .000E+00  .000E+00  .000E+00  .000E+00
  .000E+00  .000E+00  .000E+00  .000E+00  .000E+00  .000E+00  .000E+00  .000E+00
  .000E+00  .000E+00  .000E+00  .000E+00  .000E+00  .000E+00  .000E+00  .000E+00
  .000E+00  .000E+00  .000E+00  .000E+00  .000E+00  .000E+00  .000E+00  .000E+00
  .000E+00  .000E+00  .000E+00  .000E+00  .000E+00  .000E+00  .000E+00  .000E+00
  .000E+00  .000E+00  .000E+00  .000E+00  .000E+00  .000E+00  .000E+00  .000E+00
  .000E+00  .000E+00  .000E+00  .000E+00  .000E+00  .000E+00  .000E+00  .000E+00
  .000E+00  .000E+00  .000E+00  .000E+00  .000E+00  .000E+00  .000E+00  .000E+00
  .000E+00  .000E+00  .000E+00  .000E+00  .000E+00  .000E+00  .000E+00  .000E+00
  .000E+00  .000E+00  .000E+00  .000E+00  .000E+00  .000E+00  .000E+00  .000E+00
  .000E+00  .000E+00  .000E+00  .000E+00  .000E+00  .000E+00  .000E+00  .000E+00
  .000E+00  .000E+00  .000E+00  .000E+00
Damping =  .05. Data of Sd,Sv,Sa,Pssv,ttSd,ttSv,ttSa :
  .258E-03  .286E-03  .312E-03  .333E-03  .346E-03  .385E-03  .560E-03  .740E-03
  .835E-03  .974E-03  .960E-03  .133E-02  .172E-02  .211E-02  .246E-02  .294E-02
  .385E-02  .482E-02  .685E-02  .904E-02  .110E-01  .118E-01  .111E-01  .107E-01
  .123E-01  .131E-01  .154E-01  .126E-01  .165E-01  .147E-01  .163E-01  .207E-01
  .278E-01  .279E-01  .279E-01  .310E-01  .346E-01  .430E-01  .428E-01  .451E-01
  .451E-01  .436E-01  .402E-01  .555E-01  .604E-01  .484E-01  .424E-01  .336E-01
  .325E-01  .250E-01  .311E-01  .336E-01  .368E-01  .255E-01  .242E-01  .237E-01
  .252E-01  .312E-01  .321E-01  .248E-01  .200E-01  .247E-01  .266E-01  .224E-01
  .199E-01  .202E-01  .207E-01  .201E-01  .193E-01  .194E-01  .195E-01  .195E-01
  .195E-01  .195E-01  .194E-01  .193E-01  .190E-01  .187E-01  .185E-01  .182E-01
  .180E-01  .179E-01  .178E-01  .177E-01  .177E-01  .176E-01  .176E-01  .176E-01
  .176E-01  .177E-01  .177E-01  .000E+00  .000E+00  .000E+00  .000E+00  .000E+00
  .000E+00  .000E+00  .000E+00  .000E+00
  .119E-01  .145E-01  .169E-01  .189E-01  .194E-01  .210E-01  .276E-01  .491E-01
  .679E-01  .656E-01  .672E-01  .726E-01  .914E-01  .111E+00  .133E+00  .162E+00
  .186E+00  .207E+00  .300E+00  .378E+00  .443E+00  .457E+00  .425E+00  .393E+00
  .385E+00  .394E+00  .452E+00  .315E+00  .400E+00  .328E+00  .353E+00  .399E+00
  .535E+00  .549E+00  .515E+00  .512E+00  .490E+00  .583E+00  .654E+00  .602E+00
  .551E+00  .543E+00  .540E+00  .574E+00  .609E+00  .471E+00  .375E+00  .342E+00
  .337E+00  .330E+00  .323E+00  .312E+00  .306E+00  .302E+00  .296E+00  .287E+00
  .277E+00  .269E+00  .263E+00  .258E+00  .254E+00  .247E+00  .242E+00  .238E+00
  .235E+00  .233E+00  .232E+00  .230E+00  .229E+00  .227E+00  .226E+00  .225E+00
  .224E+00  .223E+00  .223E+00  .222E+00  .221E+00  .220E+00  .220E+00  .219E+00
  .219E+00  .219E+00  .219E+00  .219E+00  .219E+00  .218E+00  .218E+00  .218E+00
  .218E+00  .218E+00  .218E+00  .000E+00  .000E+00  .000E+00  .000E+00  .000E+00
  .000E+00  .000E+00  .000E+00  .000E+00
  .165E-01  .166E-01  .165E-01  .161E-01  .154E-01  .157E-01  .191E-01  .210E-01
  .201E-01  .206E-01  .176E-01  .213E-01  .245E-01  .269E-01  .280E-01  .304E-01
  .329E-01  .345E-01  .411E-01  .471E-01  .508E-01  .466E-01  .391E-01  .335E-01
  .353E-01  .339E-01  .330E-01  .224E-01  .252E-01  .193E-01  .186E-01  .209E-01
  .246E-01  .221E-01  .199E-01  .200E-01  .202E-01  .229E-01  .208E-01  .202E-01
  .186E-01  .148E-01  .115E-01  .135E-01  .127E-01  .886E-02  .682E-02  .479E-02
  .418E-02  .286E-02  .320E-02  .286E-02  .269E-02  .156E-02  .133E-02  .111E-02
  .102E-02  .116E-02  .108E-02  .767E-03  .572E-03  .577E-03  .528E-03  .394E-03
  .313E-03  .281E-03  .258E-03  .227E-03  .194E-03  .166E-03  .148E-03  .136E-03
  .129E-03  .123E-03  .118E-03  .112E-03  .981E-04  .857E-04  .760E-04  .685E-04
  .624E-04  .572E-04  .527E-04  .487E-04  .452E-04  .422E-04  .371E-04  .333E-04
  .302E-04  .276E-04  .254E-04  .000E+00  .000E+00  .000E+00  .000E+00  .000E+00
  .000E+00  .000E+00  .000E+00  .000E+00
  .406E-01  .428E-01  .446E-01  .455E-01  .453E-01  .484E-01  .639E-01  .775E-01
  .807E-01  .875E-01  .804E-01  .105E+00  .127E+00  .147E+00  .163E+00  .185E+00
  .220E+00  .252E+00  .331E+00  .406E+00  .462E+00  .462E+00  .409E+00  .373E+00
  .406E+00  .413E+00  .440E+00  .329E+00  .399E+00  .330E+00  .342E+00  .407E+00
  .513E+00  .487E+00  .462E+00  .487E+00  .518E+00  .614E+00  .585E+00  .591E+00
  .566E+00  .498E+00  .421E+00  .536E+00  .542E+00  .405E+00  .333E+00  .248E+00
  .227E+00  .165E+00  .196E+00  .192E+00  .193E+00  .123E+00  .109E+00  .995E-01
  .989E-01  .115E+00  .112E+00  .821E-01  .627E-01  .705E-01  .695E-01  .541E-01
  .446E-01  .422E-01  .407E-01  .371E-01  .336E-01  .321E-01  .306E-01  .292E-01
  .279E-01  .266E-01  .254E-01  .243E-01  .218E-01  .196E-01  .178E-01  .164E-01
  .151E-01  .141E-01  .132E-01  .124E-01  .117E-01  .111E-01  .101E-01  .922E-02
  .852E-02  .792E-02  .741E-02  .000E+00  .000E+00  .000E+00  .000E+00  .000E+00
  .000E+00  .000E+00  .000E+00  .000E+00
  .561E+01  .561E+01  .561E+01  .561E+01  .570E+01  .570E+01  .561E+01  .561E+01
  .572E+01  .576E+01  .559E+01  .560E+01  .561E+01  .561E+01  .561E+01  .567E+01
  .569E+01  .570E+01  .592E+01  .593E+01  .594E+01  .596E+01  .873E+01  .874E+01
  .874E+01  .875E+01  .878E+01  .124E+02  .130E+02  .136E+02  .155E+02  .115E+02
  .115E+02  .114E+02  .114E+02  .114E+02  .130E+02  .130E+02  .131E+02  .122E+02
  .123E+02  .123E+02  .121E+02  .134E+02  .135E+02  .135E+02  .155E+02  .156E+02
  .129E+02  .676E+01  .133E+02  .168E+02  .129E+02  .651E+01  .663E+01  .113E+02
  .182E+02  .129E+02  .129E+02  .129E+02  .129E+02  .129E+02  .129E+02  .129E+02
  .129E+02  .129E+02  .129E+02  .129E+02  .557E+01  .557E+01  .557E+01  .557E+01
  .557E+01  .557E+01  .557E+01  .557E+01  .557E+01  .557E+01  .557E+01  .557E+01
  .557E+01  .557E+01  .129E+02  .129E+02  .558E+01  .557E+01  .558E+01  .558E+01
  .557E+01  .557E+01  .558E+01  .000E+00  .000E+00  .000E+00  .000E+00  .000E+00
  .000E+00  .000E+00  .000E+00  .000E+00
  .563E+01  .563E+01  .563E+01  .563E+01  .563E+01  .586E+01  .551E+01  .573E+01
  .587E+01  .575E+01  .553E+01  .557E+01  .580E+01  .564E+01  .564E+01  .564E+01
  .565E+01  .566E+01  .588E+01  .589E+01  .591E+01  .592E+01  .585E+01  .586E+01
  .879E+01  .880E+01  .872E+01  .125E+02  .130E+02  .136E+02  .155E+02  .116E+02
  .115E+02  .115E+02  .115E+02  .115E+02  .131E+02  .129E+02  .130E+02  .123E+02
  .123E+02  .122E+02  .122E+02  .136E+02  .130E+02  .130E+02  .154E+02  .563E+01
  .563E+01  .563E+01  .563E+01  .563E+01  .564E+01  .564E+01  .564E+01  .564E+01
  .564E+01  .564E+01  .564E+01  .564E+01  .564E+01  .564E+01  .564E+01  .564E+01
  .564E+01  .564E+01  .564E+01  .564E+01  .564E+01  .564E+01  .564E+01  .564E+01
  .564E+01  .564E+01  .564E+01  .564E+01  .564E+01  .564E+01  .564E+01  .564E+01
  .564E+01  .564E+01  .564E+01  .564E+01  .564E+01  .564E+01  .564E+01  .564E+01
  .564E+01  .564E+01  .564E+01  .000E+00  .000E+00  .000E+00  .000E+00  .000E+00
  .000E+00  .000E+00  .000E+00  .000E+00
  .561E+01  .561E+01  .561E+01  .561E+01  .570E+01  .570E+01  .561E+01  .561E+01
  .589E+01  .576E+01  .559E+01  .559E+01  .561E+01  .561E+01  .561E+01  .567E+01
  .568E+01  .569E+01  .592E+01  .593E+01  .594E+01  .596E+01  .597E+01  .873E+01
  .874E+01  .875E+01  .877E+01  .124E+02  .130E+02  .136E+02  .155E+02  .115E+02
  .115E+02  .114E+02  .114E+02  .114E+02  .130E+02  .130E+02  .131E+02  .122E+02
  .122E+02  .123E+02  .121E+02  .134E+02  .135E+02  .135E+02  .155E+02  .155E+02
  .129E+02  .674E+01  .133E+02  .167E+02  .129E+02  .650E+01  .129E+02  .113E+02
  .181E+02  .129E+02  .129E+02  .129E+02  .129E+02  .129E+02  .129E+02  .129E+02
  .129E+02  .129E+02  .129E+02  .129E+02  .129E+02  .129E+02  .129E+02  .129E+02
  .129E+02  .129E+02  .129E+02  .129E+02  .129E+02  .129E+02  .129E+02  .129E+02
  .129E+02  .129E+02  .129E+02  .129E+02  .129E+02  .129E+02  .129E+02  .129E+02
  .129E+02  .129E+02  .129E+02  .000E+00  .000E+00  .000E+00  .000E+00  .000E+00
  .000E+00  .000E+00  .000E+00  .000E+00
/&   ----------  End of spectral data for channel  1  ----------
Response and Fourier amplitude spectra (91 periods,  .04 - 15.0 sec)   for      
Corrected accelerogram   14988-L1791-01252.07       Chan  2:   0 Deg     from   
Uncorrected Accelerogram Data             Processed: 09/10/01, CDMG  988aq007   
Record of Sun Sep  9, 2001 16:59:20 PDT               (Avol1 v4.6  7/01 CSMIP)  
CSMIP Preliminary Processing            (Origin:  To be determined)             
14988-L1791-01252.07                 Start time:  9/09/01, 23:59:20.0 UTC (GPS) 
Station No. 14988   33.909N, 118.315W      Etna  s/n 1791  (3 Channels)         
Gardena - 135th & Van Ness                                                      
Chan  2:   0 Deg                                                                
Record of Sun Sep  9, 2001 16:59:20 PDT    Sun Sep  9, 2001 16:59:20 PDT        
Hypocenter:  To be determined.               ML:  To be determined.             
Instr Period =  .0108 sec,  Damping =  .660,  Sensitivity =  .63  v/g           
                        Record length = 44.000 sec.                             
                                     Uncor Max  =   .006 g, at   4.990 sec.     
RMS accel of (uncor) record  =        .                                         
Accelerogram bandpass filtered with 3 dB pts at   .30 and 40.00 cyc/sec         
                 instrument- and baseline-corrected                             
                                                                                
                                                                                
                                                                                
                                                                                
                                                                                
Record of Sun Sep  9, 2001 16:59:20 PDT    Sun Sep  9, 2001 16:59:20 PDT        
                                                                                
14988-L1791-01252.07      Gardena - 135th & Van Ness    Chan  2:   0 Deg        
                                                                                
14988-L1791-01252.07      Gardena - 135th & Van Ness    Chan  2:   0 Deg        
                                                                                
Units for spectra are inches and sec, except Sa is in fraction of g.            
                                                                                
    2  100    2    3    3  200    1    3    1   24   12 1791    014988    1    0
   23   59   20    0  252    9    9 2001   10    3    0 8800   39   26   72 -999
 8800    1   50    3 1791    1    7  440    1    0    0    0    0    0    0    0
    0    4    0    0 4400    2    0    0    0    0   72   26    0    0    0 4400
    0 4400   27   91    1    3    0    0    0    0    3    0    0    0    0    2
    2    2    4    0   32   99 -999   32   32    0    0    1    0    0    0    0
  -99   -1    0    0
      .011      .660    44.000      .001      .000   625.000      .006     4.990
    92.500      .298      .477      .000     5.000      .000      .000      .000
     2.500   -43.688     -.024     -.031     5.000    30.000      .000     -.032
      .001      .032     2.000    15.000    33.909  -118.315      .455      .234
      .514     -.027      .092  -999.000      .000      .000   -13.500      .000
  1000.000     1.035      .000      .000      .000      .000      .000      .000
     4.600     4.400      .000   980.665      .010    44.000    14.722      .000
      .000    40.000      .000    44.000      .010      .300      .000      .000
     4.990     5.333     6.620     -.138    20.890      .011      .000      .300
    40.000      .010      .010      .000      .010      .010      .000      .000
      .024      .070      .011      .007      .001      .000      .000      .000
      .000      .000      .000      .000      .000      .000      .000      .000
      .000      .000      .000      .000
      .050
      .040      .042      .044      .046      .048      .050      .055      .060
      .065      .070      .075      .080      .085      .090      .095      .100
      .110      .120      .130      .140      .150      .160      .170      .180
      .190      .200      .220      .240      .260      .280      .300      .320
      .340      .360      .380      .400      .420      .440      .460      .480
      .500      .550      .600      .650      .700      .750      .800      .850
      .900      .950     1.000     1.100     1.200     1.300     1.400     1.500
     1.600     1.700     1.800     1.900     2.000     2.200     2.400     2.600
     2.800     3.000     3.200     3.400     3.600     3.800     4.000     4.200
     4.400     4.600     4.800     5.000     5.500     6.000     6.500     7.000
     7.500     8.000     8.500     9.000     9.500    10.000    11.000    12.000
    13.000    14.000    15.000      .000      .000      .000      .000      .000
      .000      .000      .000      .000
Fourier amplitude spectra in in/sec.
  .000E+00  .000E+00  .000E+00  .000E+00  .000E+00  .000E+00  .000E+00  .000E+00
  .000E+00  .000E+00  .000E+00  .000E+00  .000E+00  .000E+00  .000E+00  .000E+00
  .000E+00  .000E+00  .000E+00  .000E+00  .000E+00  .000E+00  .000E+00  .000E+00
  .000E+00  .000E+00  .000E+00  .000E+00  .000E+00  .000E+00  .000E+00  .000E+00
  .000E+00  .000E+00  .000E+00  .000E+00  .000E+00  .000E+00  .000E+00  .000E+00
  .000E+00  .000E+00  .000E+00  .000E+00  .000E+00  .000E+00  .000E+00  .000E+00
  .000E+00  .000E+00  .000E+00  .000E+00  .000E+00  .000E+00  .000E+00  .000E+00
  .000E+00  .000E+00  .000E+00  .000E+00  .000E+00  .000E+00  .000E+00  .000E+00
  .000E+00  .000E+00  .000E+00  .000E+00  .000E+00  .000E+00  .000E+00  .000E+00
  .000E+00  .000E+00  .000E+00  .000E+00  .000E+00  .000E+00  .000E+00  .000E+00
  .000E+00  .000E+00  .000E+00  .000E+00  .000E+00  .000E+00  .000E+00  .000E+00
  .000E+00  .000E+00  .000E+00  .000E+00  .000E+00  .000E+00  .000E+00  .000E+00
  .000E+00  .000E+00  .000E+00  .000E+00
Damping =  .05. Data of Sd,Sv,Sa,Pssv,ttSd,ttSv,ttSa :
  .170E-03  .156E-03  .162E-03  .196E-03  .221E-03  .302E-03  .366E-03  .450E-03
  .749E-03  .113E-02  .108E-02  .111E-02  .102E-02  .862E-03  .111E-02  .128E-02
  .139E-02  .195E-02  .223E-02  .241E-02  .269E-02  .307E-02  .294E-02  .357E-02
  .429E-02  .453E-02  .430E-02  .513E-02  .521E-02  .502E-02  .578E-02  .640E-02
  .659E-02  .783E-02  .703E-02  .921E-02  .990E-02  .110E-01  .120E-01  .117E-01
