Response and Fourier amplitude spectra (91 periods,  .04 - 15.0 sec)   for      
Corrected accelerogram   24612-L1116-01253.01       Chan  1: 360 Deg     from   
Uncorrected Accelerogram Data             Processed: 09/10/01, CDMG  az001      
Record of Sun Sep  9, 2001 16:59:17 PDT               (Avol1 v4.6  7/01 CSMIP)  
CSMIP Preliminary Processing            (Origin:  To be determined)             
24612-L1116-01253.01                 Start time:  9/09/01, 23:59:17.0 UTC (GPS) 
Station No. 24612   34.043N, 118.271W      Etna  s/n 1116  (3 Channels)         
Los Angeles - Pico & Sentous                                                    
Chan  1: 360 Deg                                                                
Record of Sun Sep  9, 2001 16:59:17 PDT    Sun Sep  9, 2001 16:59:17 PDT        
Hypocenter:  To be determined.               ML:  To be determined.             
Instr Period =  .0100 sec,  Damping =  .650,  Sensitivity =  .63  v/g           
                        Record length = 45.000 sec.                             
                                     Uncor Max  =  -.126 g, at   6.790 sec.     
RMS accel of (uncor) record  =        .                                         
Accelerogram bandpass filtered with 3 dB pts at   .30 and 40.00 cyc/sec         
                 instrument- and baseline-corrected                             
                                                                                
                                                                                
                                                                                
                                                                                
                                                                                
Record of Sun Sep  9, 2001 16:59:17 PDT    Sun Sep  9, 2001 16:59:17 PDT        
                                                                                
24612-L1116-01253.01      Los Angeles - Pico & Sentous    Chan  1: 360 Deg      
                                                                                
24612-L1116-01253.01      Los Angeles - Pico & Sentous    Chan  1: 360 Deg      
                                                                                
Units for spectra are inches and sec, except Sa is in fraction of g.            
                                                                                
    1  100    1    3    3  200    1    3    1   24   12 1116    024612    1    0
   23   59   17    0  252    9    9 2001   10    3  360 9000   39   28   72  360
 9000    1   50    3 1116    1    1  450    1    0    0    0    0    0    0    0
    0    4    0    0 4500    2    0    0    0    0   72   28    0    0    0 4500
    0 4500   29   91    1    3    0    0    0    0    3    0    0    0    0    2
    2    2    4    0   32   99    0   32   32    0    0    1    0    0    0    0
  -99   -1    0    0
      .010      .650    45.000      .006      .000   625.000     -.126     6.790
    99.600      .298      .477      .000     5.000      .000      .000      .000
     2.500   -14.423      .070     -.063     5.000    30.000      .000      .001
     -.003     -.004     2.000    15.000    34.043  -118.271      .072      .195
     2.708     -.017      .009  -999.000      .000      .000   -13.400      .000
  1000.000     1.014      .000      .000      .000      .000      .000      .000
     4.600     4.400      .000   980.665      .010    45.000    15.852      .000
      .000    40.000      .000    45.000      .010      .300      .000      .000
     6.790  -122.521     6.750     4.322     6.620     -.276      .000      .300
    40.000      .010      .010      .000      .250      .035      .000      .000
      .367      .130      .175      .197      .014      .002      .000      .000
      .000      .000      .000      .000      .000      .000      .000      .000
      .000      .000      .000      .000
      .050
      .040      .042      .044      .046      .048      .050      .055      .060
      .065      .070      .075      .080      .085      .090      .095      .100
      .110      .120      .130      .140      .150      .160      .170      .180
      .190      .200      .220      .240      .260      .280      .300      .320
      .340      .360      .380      .400      .420      .440      .460      .480
      .500      .550      .600      .650      .700      .750      .800      .850
      .900      .950     1.000     1.100     1.200     1.300     1.400     1.500
     1.600     1.700     1.800     1.900     2.000     2.200     2.400     2.600
     2.800     3.000     3.200     3.400     3.600     3.800     4.000     4.200
     4.400     4.600     4.800     5.000     5.500     6.000     6.500     7.000
     7.500     8.000     8.500     9.000     9.500    10.000    11.000    12.000
    13.000    14.000    15.000      .000      .000      .000      .000      .000
      .000      .000      .000      .000
Fourier amplitude spectra in in/sec.
  .000E+00  .000E+00  .000E+00  .000E+00  .000E+00  .000E+00  .000E+00  .000E+00
  .000E+00  .000E+00  .000E+00  .000E+00  .000E+00  .000E+00  .000E+00  .000E+00
  .000E+00  .000E+00  .000E+00  .000E+00  .000E+00  .000E+00  .000E+00  .000E+00
  .000E+00  .000E+00  .000E+00  .000E+00  .000E+00  .000E+00  .000E+00  .000E+00
  .000E+00  .000E+00  .000E+00  .000E+00  .000E+00  .000E+00  .000E+00  .000E+00
  .000E+00  .000E+00  .000E+00  .000E+00  .000E+00  .000E+00  .000E+00  .000E+00
  .000E+00  .000E+00  .000E+00  .000E+00  .000E+00  .000E+00  .000E+00  .000E+00
  .000E+00  .000E+00  .000E+00  .000E+00  .000E+00  .000E+00  .000E+00  .000E+00
  .000E+00  .000E+00  .000E+00  .000E+00  .000E+00  .000E+00  .000E+00  .000E+00
  .000E+00  .000E+00  .000E+00  .000E+00  .000E+00  .000E+00  .000E+00  .000E+00
  .000E+00  .000E+00  .000E+00  .000E+00  .000E+00  .000E+00  .000E+00  .000E+00
  .000E+00  .000E+00  .000E+00  .000E+00  .000E+00  .000E+00  .000E+00  .000E+00
  .000E+00  .000E+00  .000E+00  .000E+00
Damping =  .05. Data of Sd,Sv,Sa,Pssv,ttSd,ttSv,ttSa :
  .224E-02  .253E-02  .289E-02  .324E-02  .359E-02  .388E-02  .468E-02  .561E-02
  .693E-02  .907E-02  .109E-01  .127E-01  .143E-01  .162E-01  .197E-01  .246E-01
  .363E-01  .486E-01  .602E-01  .661E-01  .688E-01  .660E-01  .583E-01  .576E-01
  .639E-01  .696E-01  .784E-01  .906E-01  .124E+00  .152E+00  .175E+00  .191E+00
  .212E+00  .227E+00  .232E+00  .225E+00  .211E+00  .205E+00  .203E+00  .200E+00
  .197E+00  .203E+00  .200E+00  .193E+00  .186E+00  .179E+00  .172E+00  .164E+00
  .154E+00  .145E+00  .135E+00  .123E+00  .123E+00  .124E+00  .124E+00  .126E+00
  .127E+00  .129E+00  .131E+00  .132E+00  .133E+00  .136E+00  .137E+00  .138E+00
  .138E+00  .137E+00  .136E+00  .135E+00  .134E+00  .132E+00  .131E+00  .130E+00
  .129E+00  .128E+00  .127E+00  .126E+00  .124E+00  .123E+00  .121E+00  .121E+00
  .120E+00  .119E+00  .119E+00  .118E+00  .118E+00  .118E+00  .117E+00  .117E+00
  .117E+00  .117E+00  .117E+00  .000E+00  .000E+00  .000E+00  .000E+00  .000E+00
  .000E+00  .000E+00  .000E+00  .000E+00
  .904E-01  .110E+00  .124E+00  .131E+00  .150E+00  .168E+00  .200E+00  .232E+00
  .290E+00  .407E+00  .507E+00  .597E+00  .666E+00  .719E+00  .859E+00  .109E+01
  .164E+01  .216E+01  .262E+01  .282E+01  .283E+01  .261E+01  .223E+01  .180E+01
  .189E+01  .187E+01  .178E+01  .248E+01  .303E+01  .335E+01  .349E+01  .398E+01
  .411E+01  .393E+01  .393E+01  .384E+01  .372E+01  .355E+01  .339E+01  .323E+01
  .305E+01  .258E+01  .226E+01  .231E+01  .234E+01  .236E+01  .237E+01  .236E+01
  .234E+01  .232E+01  .229E+01  .222E+01  .215E+01  .210E+01  .206E+01  .203E+01
  .200E+01  .197E+01  .195E+01  .192E+01  .190E+01  .187E+01  .184E+01  .181E+01
  .179E+01  .177E+01  .176E+01  .175E+01  .174E+01  .173E+01  .173E+01  .172E+01
  .172E+01  .171E+01  .171E+01  .171E+01  .170E+01  .170E+01  .170E+01  .170E+01
  .170E+01  .170E+01  .170E+01  .169E+01  .169E+01  .169E+01  .169E+01  .169E+01
  .169E+01  .169E+01  .169E+01  .000E+00  .000E+00  .000E+00  .000E+00  .000E+00
  .000E+00  .000E+00  .000E+00  .000E+00
  .143E+00  .147E+00  .153E+00  .157E+00  .160E+00  .160E+00  .157E+00  .159E+00
  .168E+00  .189E+00  .199E+00  .203E+00  .203E+00  .204E+00  .222E+00  .252E+00
  .308E+00  .350E+00  .367E+00  .346E+00  .310E+00  .264E+00  .209E+00  .183E+00
  .181E+00  .179E+00  .166E+00  .161E+00  .188E+00  .200E+00  .200E+00  .192E+00
  .188E+00  .181E+00  .165E+00  .145E+00  .123E+00  .109E+00  .989E-01  .895E-01
  .812E-01  .697E-01  .576E-01  .476E-01  .397E-01  .334E-01  .281E-01  .237E-01
  .201E-01  .170E-01  .144E-01  .108E-01  .921E-02  .793E-02  .694E-02  .615E-02
  .552E-02  .499E-02  .455E-02  .416E-02  .383E-02  .326E-02  .283E-02  .247E-02
  .218E-02  .193E-02  .172E-02  .155E-02  .140E-02  .128E-02  .117E-02  .107E-02
  .996E-03  .926E-03  .866E-03  .812E-03  .701E-03  .615E-03  .548E-03  .493E-03
  .448E-03  .410E-03  .378E-03  .350E-03  .326E-03  .305E-03  .271E-03  .244E-03
  .221E-03  .203E-03  .187E-03  .000E+00  .000E+00  .000E+00  .000E+00  .000E+00
  .000E+00  .000E+00  .000E+00  .000E+00
  .352E+00  .378E+00  .413E+00  .443E+00  .470E+00  .488E+00  .535E+00  .588E+00
  .670E+00  .815E+00  .911E+00  .100E+01  .106E+01  .113E+01  .130E+01  .155E+01
  .208E+01  .255E+01  .291E+01  .297E+01  .288E+01  .259E+01  .216E+01  .201E+01
  .211E+01  .219E+01  .224E+01  .237E+01  .299E+01  .342E+01  .366E+01  .376E+01
  .392E+01  .396E+01  .384E+01  .353E+01  .316E+01  .293E+01  .277E+01  .262E+01
  .247E+01  .232E+01  .209E+01  .187E+01  .167E+01  .150E+01  .135E+01  .121E+01
  .108E+01  .958E+00  .851E+00  .701E+00  .645E+00  .598E+00  .559E+00  .526E+00
  .500E+00  .476E+00  .456E+00  .437E+00  .419E+00  .387E+00  .359E+00  .333E+00
  .309E+00  .287E+00  .267E+00  .249E+00  .233E+00  .219E+00  .206E+00  .195E+00
  .184E+00  .175E+00  .166E+00  .158E+00  .142E+00  .128E+00  .117E+00  .108E+00
  .100E+00  .937E-01  .878E-01  .827E-01  .781E-01  .741E-01  .671E-01  .614E-01
  .565E-01  .524E-01  .489E-01  .000E+00  .000E+00  .000E+00  .000E+00  .000E+00
  .000E+00  .000E+00  .000E+00  .000E+00
  .679E+01  .678E+01  .679E+01  .679E+01  .679E+01  .678E+01  .679E+01  .679E+01
  .679E+01  .679E+01  .679E+01  .680E+01  .680E+01  .680E+01  .680E+01  .679E+01
  .680E+01  .680E+01  .681E+01  .682E+01  .683E+01  .684E+01  .684E+01  .663E+01
  .664E+01  .664E+01  .665E+01  .683E+01  .684E+01  .685E+01  .686E+01  .687E+01
  .706E+01  .707E+01  .709E+01  .710E+01  .712E+01  .694E+01  .696E+01  .697E+01
  .677E+01  .678E+01  .678E+01  .679E+01  .679E+01  .680E+01  .680E+01  .680E+01
  .680E+01  .680E+01  .680E+01  .660E+01  .660E+01  .660E+01  .660E+01  .660E+01
  .660E+01  .660E+01  .660E+01  .660E+01  .660E+01  .661E+01  .661E+01  .661E+01
  .661E+01  .661E+01  .661E+01  .661E+01  .661E+01  .661E+01  .661E+01  .661E+01
  .661E+01  .661E+01  .661E+01  .661E+01  .661E+01  .661E+01  .661E+01  .661E+01
  .661E+01  .661E+01  .661E+01  .661E+01  .661E+01  .661E+01  .661E+01  .661E+01
  .661E+01  .661E+01  .661E+01  .000E+00  .000E+00  .000E+00  .000E+00  .000E+00
  .000E+00  .000E+00  .000E+00  .000E+00
  .677E+01  .677E+01  .677E+01  .677E+01  .680E+01  .680E+01  .680E+01  .681E+01
  .681E+01  .681E+01  .682E+01  .682E+01  .682E+01  .682E+01  .682E+01  .682E+01
  .683E+01  .684E+01  .685E+01  .686E+01  .687E+01  .688E+01  .688E+01  .667E+01
  .668E+01  .669E+01  .661E+01  .688E+01  .690E+01  .691E+01  .710E+01  .712E+01
  .713E+01  .715E+01  .682E+01  .683E+01  .683E+01  .683E+01  .684E+01  .684E+01
  .684E+01  .685E+01  .673E+01  .674E+01  .674E+01  .674E+01  .674E+01  .674E+01
  .674E+01  .674E+01  .674E+01  .674E+01  .674E+01  .674E+01  .674E+01  .674E+01
  .674E+01  .674E+01  .674E+01  .674E+01  .674E+01  .674E+01  .674E+01  .674E+01
  .674E+01  .674E+01  .674E+01  .674E+01  .674E+01  .674E+01  .674E+01  .674E+01
  .674E+01  .674E+01  .674E+01  .674E+01  .674E+01  .674E+01  .674E+01  .674E+01
  .674E+01  .674E+01  .674E+01  .674E+01  .674E+01  .674E+01  .674E+01  .674E+01
  .674E+01  .674E+01  .674E+01  .000E+00  .000E+00  .000E+00  .000E+00  .000E+00
  .000E+00  .000E+00  .000E+00  .000E+00
  .678E+01  .678E+01  .678E+01  .679E+01  .679E+01  .678E+01  .679E+01  .678E+01
  .678E+01  .679E+01  .679E+01  .679E+01  .680E+01  .680E+01  .680E+01  .679E+01
  .679E+01  .680E+01  .681E+01  .682E+01  .683E+01  .683E+01  .684E+01  .663E+01
  .663E+01  .664E+01  .665E+01  .682E+01  .683E+01  .684E+01  .685E+01  .686E+01
  .705E+01  .707E+01  .708E+01  .710E+01  .711E+01  .694E+01  .695E+01  .696E+01
  .677E+01  .677E+01  .678E+01  .678E+01  .678E+01  .678E+01  .678E+01  .678E+01
  .678E+01  .678E+01  .678E+01  .658E+01  .658E+01  .658E+01  .658E+01  .658E+01
  .658E+01  .658E+01  .658E+01  .658E+01  .658E+01  .657E+01  .657E+01  .657E+01
  .657E+01  .657E+01  .657E+01  .657E+01  .657E+01  .657E+01  .657E+01  .656E+01
  .656E+01  .656E+01  .656E+01  .656E+01  .656E+01  .656E+01  .656E+01  .656E+01
  .656E+01  .656E+01  .656E+01  .656E+01  .656E+01  .656E+01  .655E+01  .655E+01
  .655E+01  .655E+01  .655E+01  .000E+00  .000E+00  .000E+00  .000E+00  .000E+00
  .000E+00  .000E+00  .000E+00  .000E+00
/&   ----------  End of spectral data for channel  1  ----------
Response and Fourier amplitude spectra (91 periods,  .04 - 15.0 sec)   for      
Corrected accelerogram   24612-L1116-01253.01       Chan  2:  Up         from   
Uncorrected Accelerogram Data             Processed: 09/10/01, CDMG  az001      
Record of Sun Sep  9, 2001 16:59:17 PDT               (Avol1 v4.6  7/01 CSMIP)  
CSMIP Preliminary Processing            (Origin:  To be determined)             
24612-L1116-01253.01                 Start time:  9/09/01, 23:59:17.0 UTC (GPS) 
Station No. 24612   34.043N, 118.271W      Etna  s/n 1116  (3 Channels)         
Los Angeles - Pico & Sentous                                                    
Chan  2:  Up                                                                    
Record of Sun Sep  9, 2001 16:59:17 PDT    Sun Sep  9, 2001 16:59:17 PDT        
Hypocenter:  To be determined.               ML:  To be determined.             
Instr Period =  .0099 sec,  Damping =  .640,  Sensitivity =  .63  v/g           
                        Record length = 45.000 sec.                             
                                     Uncor Max  =  -.023 g, at   3.880 sec.     
RMS accel of (uncor) record  =        .                                         
Accelerogram bandpass filtered with 3 dB pts at   .30 and 40.00 cyc/sec         
                 instrument- and baseline-corrected                             
                                                                                
                                                                                
                                                                                
                                                                                
                                                                                
Record of Sun Sep  9, 2001 16:59:17 PDT    Sun Sep  9, 2001 16:59:17 PDT        
                                                                                
24612-L1116-01253.01      Los Angeles - Pico & Sentous    Chan  2:  Up          
                                                                                
24612-L1116-01253.01      Los Angeles - Pico & Sentous    Chan  2:  Up          
                                                                                
Units for spectra are inches and sec, except Sa is in fraction of g.            
                                                                                
    2  100    2    3    3  200    1    3    1   24   12 1116    024612    1    0
   23   59   17    0  252    9    9 2001   10    3  500 9000   39   28   72  360
 9000    1   50    3 1116    1    1  450    1    0    0    0    0    0    0    0
    0    4    0    0 4500    2    0    0    0    0   72   28    0    0    0 4500
    0 4500   29   91    1    3    0    0    0    0    3    0    0    0    0    2
    2    2    4    0   32   99    0   32   32    0    0    1    0    0    0    0
  -99   -1    0    0
      .010      .640    45.000      .002      .000   625.000     -.023     3.880
   100.800      .298      .477      .000     5.000      .000      .000      .000
     2.500   -30.233     -.004     -.032     5.000    30.000      .000      .000
      .003      .003     2.000    15.000    34.043  -118.271      .072      .162
     2.262     -.009      .015  -999.000      .000      .000   -13.400      .000
  1000.000     1.014      .000      .000      .000      .000      .000      .000
     4.600     4.400      .000   980.665      .010    45.000    16.043      .000
      .000    40.000      .000    45.000      .010      .300      .000      .000
     4.150   -22.627     3.890     -.512    10.190     -.024      .000      .300
    40.000      .010      .010      .000      .010      .020      .000      .000
      .098      .095      .040      .027      .002      .000      .000      .000
      .000      .000      .000      .000      .000      .000      .000      .000
      .000      .000      .000      .000
      .050
      .040      .042      .044      .046      .048      .050      .055      .060
      .065      .070      .075      .080      .085      .090      .095      .100
      .110      .120      .130      .140      .150      .160      .170      .180
      .190      .200      .220      .240      .260      .280      .300      .320
      .340      .360      .380      .400      .420      .440      .460      .480
      .500      .550      .600      .650      .700      .750      .800      .850
      .900      .950     1.000     1.100     1.200     1.300     1.400     1.500
     1.600     1.700     1.800     1.900     2.000     2.200     2.400     2.600
     2.800     3.000     3.200     3.400     3.600     3.800     4.000     4.200
     4.400     4.600     4.800     5.000     5.500     6.000     6.500     7.000
     7.500     8.000     8.500     9.000     9.500    10.000    11.000    12.000
    13.000    14.000    15.000      .000      .000      .000      .000      .000
      .000      .000      .000      .000
Fourier amplitude spectra in in/sec.
  .000E+00  .000E+00  .000E+00  .000E+00  .000E+00  .000E+00  .000E+00  .000E+00
  .000E+00  .000E+00  .000E+00  .000E+00  .000E+00  .000E+00  .000E+00  .000E+00
  .000E+00  .000E+00  .000E+00  .000E+00  .000E+00  .000E+00  .000E+00  .000E+00
  .000E+00  .000E+00  .000E+00  .000E+00  .000E+00  .000E+00  .000E+00  .000E+00
  .000E+00  .000E+00  .000E+00  .000E+00  .000E+00  .000E+00  .000E+00  .000E+00
  .000E+00  .000E+00  .000E+00  .000E+00  .000E+00  .000E+00  .000E+00  .000E+00
  .000E+00  .000E+00  .000E+00  .000E+00  .000E+00  .000E+00  .000E+00  .000E+00
  .000E+00  .000E+00  .000E+00  .000E+00  .000E+00  .000E+00  .000E+00  .000E+00
  .000E+00  .000E+00  .000E+00  .000E+00  .000E+00  .000E+00  .000E+00  .000E+00
  .000E+00  .000E+00  .000E+00  .000E+00  .000E+00  .000E+00  .000E+00  .000E+00
  .000E+00  .000E+00  .000E+00  .000E+00  .000E+00  .000E+00  .000E+00  .000E+00
  .000E+00  .000E+00  .000E+00  .000E+00  .000E+00  .000E+00  .000E+00  .000E+00
  .000E+00  .000E+00  .000E+00  .000E+00
Damping =  .05. Data of Sd,Sv,Sa,Pssv,ttSd,ttSv,ttSa :
  .591E-03  .693E-03  .851E-03  .105E-02  .126E-02  .149E-02  .196E-02  .223E-02
  .274E-02  .278E-02  .350E-02  .434E-02  .594E-02  .747E-02  .864E-02  .846E-02
  .712E-02  .749E-02  .843E-02  .118E-01  .162E-01  .141E-01  .141E-01  .151E-01
  .160E-01  .151E-01  .169E-01  .181E-01  .146E-01  .183E-01  .269E-01  .267E-01
  .268E-01  .238E-01  .188E-01  .186E-01  .179E-01  .202E-01  .221E-01  .211E-01
