Response and Fourier amplitude spectra (91 periods,  .04 - 15.0 sec)   for      
Corrected accelerogram   24765-K0228-01253.03       Chan  1:   0 Deg     from   
Uncorrected Accelerogram Data             Processed: 09/10/01, CDMG  765gq003   
Record of Sun Sep  9, 2001 16:59:20 PDT               (Avol1 v4.6  7/01 CSMIP)  
CSMIP Preliminary Processing            (Origin:  To be determined)             
24765-K0228-01253.03                 Start time:  9/09/01, 23:59:20.0 UTC (GPS) 
Station No. 24765   34.219N, 118.429W        K2  s/n  228  (3 Channels)         
Panorama City - Roscoe & Woodman                                                
Chan  1:   0 Deg                                                                
Record of Sun Sep  9, 2001 16:59:20 PDT    Sun Sep  9, 2001 16:59:20 PDT        
Hypocenter:  To be determined.               ML:  To be determined.             
Instr Period =  .0106 sec,  Damping =  .640,  Sensitivity =  .63  v/g           
                        Record length = 40.000 sec.                             
                                     Uncor Max  =  -.046 g, at   5.815 sec.     
RMS accel of (uncor) record  =        .                                         
Accelerogram bandpass filtered with 3 dB pts at   .30 and 40.00 cyc/sec         
                 instrument- and baseline-corrected                             
                                                                                
                                                                                
                                                                                
                                                                                
                                                                                
Record of Sun Sep  9, 2001 16:59:20 PDT    Sun Sep  9, 2001 16:59:20 PDT        
                                                                                
24765-K0228-01253.03      Panorama City - Roscoe & Woodman    Chan  1:   0 Deg  
                                                                                
24765-K0228-01253.03      Panorama City - Roscoe & Woodman    Chan  1:   0 Deg  
                                                                                
Units for spectra are inches and sec, except Sa is in fraction of g.            
                                                                                
    1  100    1    3    3  200    1    3    1   24   11  228    024765    1    0
   23   59   20    0  252    9    9 2001   10    3    0 8000   39   32   72    0
 8000    1   50    3  228    1    3  400    1    0    0    0    0    0    0    0
    0    4    0    0 4000    2    0    0    0    0   72   32    0    0    0 4000
    0 4000   33   91    1    3    0    0    0    0    3    0    0    0    0    2
    2    2    4    0   32   99    0   32   32    0    0    1    0    0    0    0
  -99   -1    0    0
      .011      .640    40.000      .003      .000   625.000     -.046     5.815
    93.900      .298      .477      .000     5.000      .000      .000      .000
     2.500   -14.398      .019     -.032     5.000    30.000      .000      .013
      .001     -.012     2.000    15.000    34.219  -118.429      .242      .317
     1.307     -.047      .022  -999.000      .000      .000   -13.100      .000
  1000.000    -1.014      .000      .000      .000      .000      .000      .000
     4.600     4.400      .000   980.665      .010    40.000    14.945      .000
      .000    40.000      .000    40.000      .010      .300      .000      .000
     5.810   -43.542     5.780     1.064     5.820      .042      .000      .300
    40.000      .010      .010      .000      .010      .024      .000      .000
      .172      .110      .077      .025      .005      .000      .000      .000
      .000      .000      .000      .000      .000      .000      .000      .000
      .000      .000      .000      .000
      .050
      .040      .042      .044      .046      .048      .050      .055      .060
      .065      .070      .075      .080      .085      .090      .095      .100
      .110      .120      .130      .140      .150      .160      .170      .180
      .190      .200      .220      .240      .260      .280      .300      .320
      .340      .360      .380      .400      .420      .440      .460      .480
      .500      .550      .600      .650      .700      .750      .800      .850
      .900      .950     1.000     1.100     1.200     1.300     1.400     1.500
     1.600     1.700     1.800     1.900     2.000     2.200     2.400     2.600
     2.800     3.000     3.200     3.400     3.600     3.800     4.000     4.200
     4.400     4.600     4.800     5.000     5.500     6.000     6.500     7.000
     7.500     8.000     8.500     9.000     9.500    10.000    11.000    12.000
    13.000    14.000    15.000      .000      .000      .000      .000      .000
      .000      .000      .000      .000
Fourier amplitude spectra in in/sec.
  .000E+00  .000E+00  .000E+00  .000E+00  .000E+00  .000E+00  .000E+00  .000E+00
  .000E+00  .000E+00  .000E+00  .000E+00  .000E+00  .000E+00  .000E+00  .000E+00
  .000E+00  .000E+00  .000E+00  .000E+00  .000E+00  .000E+00  .000E+00  .000E+00
  .000E+00  .000E+00  .000E+00  .000E+00  .000E+00  .000E+00  .000E+00  .000E+00
  .000E+00  .000E+00  .000E+00  .000E+00  .000E+00  .000E+00  .000E+00  .000E+00
  .000E+00  .000E+00  .000E+00  .000E+00  .000E+00  .000E+00  .000E+00  .000E+00
  .000E+00  .000E+00  .000E+00  .000E+00  .000E+00  .000E+00  .000E+00  .000E+00
  .000E+00  .000E+00  .000E+00  .000E+00  .000E+00  .000E+00  .000E+00  .000E+00
  .000E+00  .000E+00  .000E+00  .000E+00  .000E+00  .000E+00  .000E+00  .000E+00
  .000E+00  .000E+00  .000E+00  .000E+00  .000E+00  .000E+00  .000E+00  .000E+00
  .000E+00  .000E+00  .000E+00  .000E+00  .000E+00  .000E+00  .000E+00  .000E+00
  .000E+00  .000E+00  .000E+00  .000E+00  .000E+00  .000E+00  .000E+00  .000E+00
  .000E+00  .000E+00  .000E+00  .000E+00
Damping =  .05. Data of Sd,Sv,Sa,Pssv,ttSd,ttSv,ttSa :
  .776E-03  .870E-03  .941E-03  .106E-02  .119E-02  .137E-02  .195E-02  .243E-02
  .295E-02  .385E-02  .521E-02  .675E-02  .825E-02  .110E-01  .134E-01  .168E-01
  .200E-01  .189E-01  .171E-01  .213E-01  .243E-01  .262E-01  .303E-01  .319E-01
  .330E-01  .320E-01  .254E-01  .238E-01  .204E-01  .219E-01  .218E-01  .210E-01
  .197E-01  .226E-01  .252E-01  .283E-01  .326E-01  .325E-01  .315E-01  .349E-01
  .353E-01  .412E-01  .446E-01  .423E-01  .501E-01  .605E-01  .537E-01  .530E-01
  .545E-01  .522E-01  .509E-01  .544E-01  .603E-01  .517E-01  .408E-01  .388E-01
  .421E-01  .470E-01  .386E-01  .301E-01  .294E-01  .327E-01  .323E-01  .281E-01
  .282E-01  .301E-01  .282E-01  .270E-01  .268E-01  .244E-01  .220E-01  .206E-01
  .195E-01  .187E-01  .182E-01  .178E-01  .174E-01  .173E-01  .173E-01  .173E-01
  .172E-01  .172E-01  .172E-01  .172E-01  .172E-01  .172E-01  .172E-01  .172E-01
  .171E-01  .171E-01  .171E-01  .000E+00  .000E+00  .000E+00  .000E+00  .000E+00
  .000E+00  .000E+00  .000E+00  .000E+00
  .461E-01  .471E-01  .549E-01  .614E-01  .725E-01  .779E-01  .126E+00  .158E+00
  .186E+00  .253E+00  .355E+00  .473E+00  .545E+00  .712E+00  .857E+00  .945E+00
  .116E+01  .102E+01  .852E+00  .934E+00  .105E+01  .108E+01  .116E+01  .114E+01
  .117E+01  .106E+01  .940E+00  .809E+00  .638E+00  .605E+00  .639E+00  .633E+00
  .587E+00  .545E+00  .492E+00  .480E+00  .472E+00  .511E+00  .529E+00  .526E+00
  .455E+00  .467E+00  .488E+00  .501E+00  .480E+00  .537E+00  .481E+00  .468E+00
  .465E+00  .457E+00  .453E+00  .455E+00  .446E+00  .425E+00  .422E+00  .423E+00
  .423E+00  .423E+00  .423E+00  .423E+00  .423E+00  .422E+00  .420E+00  .419E+00
  .419E+00  .418E+00  .418E+00  .417E+00  .417E+00  .416E+00  .416E+00  .416E+00
  .416E+00  .415E+00  .415E+00  .415E+00  .414E+00  .414E+00  .414E+00  .414E+00
  .414E+00  .413E+00  .413E+00  .413E+00  .413E+00  .413E+00  .413E+00  .413E+00
  .413E+00  .413E+00  .413E+00  .000E+00  .000E+00  .000E+00  .000E+00  .000E+00
  .000E+00  .000E+00  .000E+00  .000E+00
  .496E-01  .504E-01  .498E-01  .517E-01  .529E-01  .563E-01  .656E-01  .691E-01
  .711E-01  .800E-01  .956E-01  .109E+00  .118E+00  .140E+00  .152E+00  .169E+00
  .172E+00  .134E+00  .104E+00  .112E+00  .112E+00  .107E+00  .109E+00  .102E+00
  .940E-01  .832E-01  .545E-01  .425E-01  .311E-01  .289E-01  .252E-01  .211E-01
  .175E-01  .180E-01  .179E-01  .182E-01  .190E-01  .173E-01  .154E-01  .156E-01
  .145E-01  .140E-01  .127E-01  .103E-01  .105E-01  .111E-01  .864E-02  .757E-02
  .693E-02  .596E-02  .523E-02  .462E-02  .430E-02  .315E-02  .217E-02  .178E-02
  .170E-02  .168E-02  .123E-02  .866E-03  .764E-03  .705E-03  .587E-03  .450E-03
  .400E-03  .360E-03  .326E-03  .298E-03  .273E-03  .253E-03  .235E-03  .219E-03
  .206E-03  .193E-03  .183E-03  .173E-03  .153E-03  .137E-03  .124E-03  .114E-03
  .104E-03  .968E-04  .901E-04  .842E-04  .791E-04  .746E-04  .670E-04  .610E-04
  .559E-04  .516E-04  .480E-04  .000E+00  .000E+00  .000E+00  .000E+00  .000E+00
  .000E+00  .000E+00  .000E+00  .000E+00
  .122E+00  .130E+00  .134E+00  .145E+00  .156E+00  .172E+00  .222E+00  .255E+00
  .285E+00  .346E+00  .436E+00  .530E+00  .610E+00  .769E+00  .889E+00  .105E+01
  .114E+01  .990E+00  .828E+00  .954E+00  .102E+01  .103E+01  .112E+01  .111E+01
  .109E+01  .100E+01  .726E+00  .622E+00  .492E+00  .492E+00  .457E+00  .411E+00
  .365E+00  .394E+00  .416E+00  .445E+00  .488E+00  .463E+00  .431E+00  .457E+00
  .444E+00  .471E+00  .467E+00  .408E+00  .450E+00  .507E+00  .421E+00  .392E+00
  .380E+00  .345E+00  .320E+00  .311E+00  .316E+00  .250E+00  .183E+00  .163E+00
  .165E+00  .174E+00  .135E+00  .997E-01  .925E-01  .935E-01  .845E-01  .680E-01
  .632E-01  .630E-01  .553E-01  .499E-01  .468E-01  .404E-01  .345E-01  .308E-01
  .279E-01  .256E-01  .238E-01  .223E-01  .198E-01  .181E-01  .167E-01  .155E-01
  .144E-01  .135E-01  .127E-01  .120E-01  .114E-01  .108E-01  .982E-02  .899E-02
  .827E-02  .767E-02  .718E-02  .000E+00  .000E+00  .000E+00  .000E+00  .000E+00
  .000E+00  .000E+00  .000E+00  .000E+00
  .581E+01  .581E+01  .598E+01  .598E+01  .581E+01  .581E+01  .582E+01  .574E+01
  .598E+01  .598E+01  .598E+01  .603E+01  .604E+01  .605E+01  .605E+01  .582E+01
  .583E+01  .590E+01  .605E+01  .606E+01  .607E+01  .608E+01  .610E+01  .602E+01
  .661E+01  .653E+01  .588E+01  .580E+01  .580E+01  .103E+02  .628E+01  .616E+01
  .618E+01  .922E+01  .924E+01  .972E+01  .974E+01  .976E+01  .977E+01  .106E+02
  .106E+02  .118E+02  .122E+02  .130E+02  .134E+02  .135E+02  .132E+02  .945E+01
  .168E+02  .128E+02  .129E+02  .165E+02  .161E+02  .162E+02  .121E+02  .162E+02
  .158E+02  .218E+02  .211E+02  .146E+02  .146E+02  .206E+02  .118E+02  .118E+02
  .126E+02  .233E+02  .219E+02  .212E+02  .180E+02  .180E+02  .146E+02  .146E+02
  .146E+02  .146E+02  .146E+02  .146E+02  .581E+01  .581E+01  .581E+01  .581E+01
  .581E+01  .581E+01  .581E+01  .581E+01  .581E+01  .581E+01  .581E+01  .581E+01
  .581E+01  .581E+01  .581E+01  .000E+00  .000E+00  .000E+00  .000E+00  .000E+00
  .000E+00  .000E+00  .000E+00  .000E+00
  .270E+01  .584E+01  .584E+01  .600E+01  .600E+01  .600E+01  .572E+01  .584E+01
  .596E+01  .600E+01  .601E+01  .601E+01  .602E+01  .603E+01  .603E+01  .585E+01
  .586E+01  .587E+01  .587E+01  .603E+01  .604E+01  .604E+01  .605E+01  .599E+01
  .656E+01  .600E+01  .583E+01  .584E+01  .584E+01  .577E+01  .577E+01  .577E+01
  .577E+01  .577E+01  .577E+01  .980E+01  .966E+01  .967E+01  .968E+01  .969E+01
  .970E+01  .116E+02  .583E+01  .583E+01  .583E+01  .133E+02  .959E+01  .600E+01
  .600E+01  .600E+01  .600E+01  .600E+01  .600E+01  .600E+01  .577E+01  .577E+01
  .577E+01  .577E+01  .577E+01  .577E+01  .577E+01  .577E+01  .577E+01  .577E+01
  .577E+01  .577E+01  .577E+01  .577E+01  .577E+01  .577E+01  .577E+01  .577E+01
  .577E+01  .577E+01  .577E+01  .577E+01  .577E+01  .577E+01  .577E+01  .577E+01
  .577E+01  .577E+01  .577E+01  .577E+01  .577E+01  .577E+01  .577E+01  .577E+01
  .577E+01  .577E+01  .577E+01  .000E+00  .000E+00  .000E+00  .000E+00  .000E+00
  .000E+00  .000E+00  .000E+00  .000E+00
  .581E+01  .581E+01  .598E+01  .598E+01  .581E+01  .580E+01  .582E+01  .574E+01
  .597E+01  .598E+01  .598E+01  .603E+01  .604E+01  .605E+01  .582E+01  .587E+01
  .588E+01  .589E+01  .605E+01  .606E+01  .607E+01  .608E+01  .601E+01  .602E+01
  .660E+01  .653E+01  .587E+01  .579E+01  .580E+01  .102E+02  .627E+01  .616E+01
  .617E+01  .922E+01  .924E+01  .971E+01  .973E+01  .975E+01  .977E+01  .106E+02
  .106E+02  .118E+02  .122E+02  .130E+02  .134E+02  .135E+02  .132E+02  .944E+01
  .168E+02  .128E+02  .129E+02  .165E+02  .161E+02  .162E+02  .121E+02  .162E+02
  .157E+02  .218E+02  .211E+02  .145E+02  .117E+02  .205E+02  .117E+02  .578E+01
  .578E+01  .578E+01  .578E+01  .578E+01  .578E+01  .578E+01  .578E+01  .578E+01
  .578E+01  .578E+01  .578E+01  .578E+01  .578E+01  .578E+01  .578E+01  .578E+01
  .578E+01  .578E+01  .578E+01  .578E+01  .578E+01  .578E+01  .577E+01  .577E+01
  .577E+01  .577E+01  .577E+01  .000E+00  .000E+00  .000E+00  .000E+00  .000E+00
  .000E+00  .000E+00  .000E+00  .000E+00
/&   ----------  End of spectral data for channel  1  ----------
Response and Fourier amplitude spectra (91 periods,  .04 - 15.0 sec)   for      
Corrected accelerogram   24765-K0228-01253.03       Chan  2:   0 Deg     from   
Uncorrected Accelerogram Data             Processed: 09/10/01, CDMG  765gq003   
Record of Sun Sep  9, 2001 16:59:20 PDT               (Avol1 v4.6  7/01 CSMIP)  
CSMIP Preliminary Processing            (Origin:  To be determined)             
24765-K0228-01253.03                 Start time:  9/09/01, 23:59:20.0 UTC (GPS) 
Station No. 24765   34.219N, 118.429W        K2  s/n  228  (3 Channels)         
Panorama City - Roscoe & Woodman                                                
Chan  2:   0 Deg                                                                
Record of Sun Sep  9, 2001 16:59:20 PDT    Sun Sep  9, 2001 16:59:20 PDT        
Hypocenter:  To be determined.               ML:  To be determined.             
Instr Period =  .0106 sec,  Damping =  .650,  Sensitivity =  .63  v/g           
                        Record length = 40.000 sec.                             
                                     Uncor Max  =  -.024 g, at   2.145 sec.     
RMS accel of (uncor) record  =        .                                         
Accelerogram bandpass filtered with 3 dB pts at   .30 and 40.00 cyc/sec         
                 instrument- and baseline-corrected                             
                                                                                
                                                                                
                                                                                
                                                                                
                                                                                
Record of Sun Sep  9, 2001 16:59:20 PDT    Sun Sep  9, 2001 16:59:20 PDT        
                                                                                
24765-K0228-01253.03      Panorama City - Roscoe & Woodman    Chan  2:   0 Deg  
                                                                                
24765-K0228-01253.03      Panorama City - Roscoe & Woodman    Chan  2:   0 Deg  
                                                                                
Units for spectra are inches and sec, except Sa is in fraction of g.            
                                                                                
    2  100    2    3    3  200    1    3    1   24   11  228    024765    1    0
   23   59   20    0  252    9    9 2001   10    3    0 8000   39   32   72    0
 8000    1   50    3  228    1    3  400    1    0    0    0    0    0    0    0
    0    4    0    0 4000    2    0    0    0    0   72   32    0    0    0 4000
    0 4000   33   91    1    3    0    0    0    0    3    0    0    0    0    2
    2    2    4    0   32   99    0   32   32    0    0    1    0    0    0    0
  -99   -1    0    0
      .011      .650    40.000      .002      .000   625.000     -.024     2.145
    94.200      .298      .477      .000     5.000      .000      .000      .000
     2.500   -29.311     -.003     -.031     5.000    30.000      .000     -.028
     -.002      .027     2.000    15.000    34.219  -118.429      .966      .219
      .227     -.098      .152  -999.000      .000      .000   -13.100      .000
  1000.000     1.043      .000      .000      .000      .000      .000      .000
     4.600     4.400      .000   980.665      .010    40.000    14.992      .000
      .000    40.000      .000    40.000      .010      .300      .000      .000
     2.150   -20.552     5.890     -.374    20.950     -.033      .000      .300
    40.000      .010      .010      .000      .010      .015      .000      .000
      .088      .040      .026      .011      .003      .000      .000      .000
      .000      .000      .000      .000      .000      .000      .000      .000
      .000      .000      .000      .000
      .050
      .040      .042      .044      .046      .048      .050      .055      .060
      .065      .070      .075      .080      .085      .090      .095      .100
      .110      .120      .130      .140      .150      .160      .170      .180
      .190      .200      .220      .240      .260      .280      .300      .320
      .340      .360      .380      .400      .420      .440      .460      .480
      .500      .550      .600      .650      .700      .750      .800      .850
      .900      .950     1.000     1.100     1.200     1.300     1.400     1.500
     1.600     1.700     1.800     1.900     2.000     2.200     2.400     2.600
     2.800     3.000     3.200     3.400     3.600     3.800     4.000     4.200
     4.400     4.600     4.800     5.000     5.500     6.000     6.500     7.000
     7.500     8.000     8.500     9.000     9.500    10.000    11.000    12.000
    13.000    14.000    15.000      .000      .000      .000      .000      .000
      .000      .000      .000      .000
Fourier amplitude spectra in in/sec.
  .000E+00  .000E+00  .000E+00  .000E+00  .000E+00  .000E+00  .000E+00  .000E+00
  .000E+00  .000E+00  .000E+00  .000E+00  .000E+00  .000E+00  .000E+00  .000E+00
  .000E+00  .000E+00  .000E+00  .000E+00  .000E+00  .000E+00  .000E+00  .000E+00
  .000E+00  .000E+00  .000E+00  .000E+00  .000E+00  .000E+00  .000E+00  .000E+00
  .000E+00  .000E+00  .000E+00  .000E+00  .000E+00  .000E+00  .000E+00  .000E+00
  .000E+00  .000E+00  .000E+00  .000E+00  .000E+00  .000E+00  .000E+00  .000E+00
  .000E+00  .000E+00  .000E+00  .000E+00  .000E+00  .000E+00  .000E+00  .000E+00
  .000E+00  .000E+00  .000E+00  .000E+00  .000E+00  .000E+00  .000E+00  .000E+00
  .000E+00  .000E+00  .000E+00  .000E+00  .000E+00  .000E+00  .000E+00  .000E+00
  .000E+00  .000E+00  .000E+00  .000E+00  .000E+00  .000E+00  .000E+00  .000E+00
  .000E+00  .000E+00  .000E+00  .000E+00  .000E+00  .000E+00  .000E+00  .000E+00
  .000E+00  .000E+00  .000E+00  .000E+00  .000E+00  .000E+00  .000E+00  .000E+00
  .000E+00  .000E+00  .000E+00  .000E+00
Damping =  .05. Data of Sd,Sv,Sa,Pssv,ttSd,ttSv,ttSa :
  .139E-02  .136E-02  .113E-02  .115E-02  .126E-02  .118E-02  .177E-02  .213E-02
  .234E-02  .277E-02  .382E-02  .484E-02  .532E-02  .505E-02  .538E-02  .544E-02
  .726E-02  .889E-02  .788E-02  .963E-02  .128E-01  .106E-01  .879E-02  .100E-01
  .104E-01  .989E-02  .104E-01  .928E-02  .864E-02  .104E-01  .937E-02  .910E-02
  .109E-01  .112E-01  .124E-01  .135E-01  .174E-01  .190E-01  .230E-01  .219E-01
