Response and Fourier amplitude spectra (91 periods,  .04 - 15.0 sec)   for      
Corrected accelerogram   24815-L1127-01253.15       Chan  1: 360 Deg     from   
Uncorrected Accelerogram Data             Processed: 09/10/01, CDMG  at015      
Record of Sun Sep  9, 2001 16:59:19 PDT               (Avol1 v4.6  7/01 CSMIP)  
CSMIP Preliminary Processing            (Origin:  To be determined)             
24815-L1127-01253.15                 Start time:  9/09/01, 23:59:19.0 UTC (GPS) 
Station No. 24815   34.199N, 118.396W      Etna  s/n 1127  (3 Channels)         
North Hollywood - Laurel Cyn & Sherman                                          
Chan  1: 360 Deg                                                                
Record of Sun Sep  9, 2001 16:59:19 PDT    Sun Sep  9, 2001 16:59:19 PDT        
Hypocenter:  To be determined.               ML:  To be determined.             
Instr Period =  .0106 sec,  Damping =  .640,  Sensitivity =  .63  v/g           
                        Record length = 38.000 sec.                             
                                     Uncor Max  =   .027 g, at   5.925 sec.     
RMS accel of (uncor) record  =        .                                         
Accelerogram bandpass filtered with 3 dB pts at   .30 and 40.00 cyc/sec         
                 instrument- and baseline-corrected                             
                                                                                
                                                                                
                                                                                
                                                                                
                                                                                
Record of Sun Sep  9, 2001 16:59:19 PDT    Sun Sep  9, 2001 16:59:19 PDT        
                                                                                
24815-L1127-01253.15      North Hollywood - Laurel Cyn & Sherman    Chan  1: 360
 Deg                                                                            
24815-L1127-01253.15      North Hollywood - Laurel Cyn & Sherman    Chan  1: 360
 Deg                                                                            
Units for spectra are inches and sec, except Sa is in fraction of g.            
                                                                                
    1  100    1    3    3  200    1    3    1   24   12 1127    024815    1    0
   23   59   19    0  252    9    9 2001   10    3  360 7600   39   38   72  360
 7600    1   50    3 1127    1   15  380    1    0    0    0    0    0    0    0
    0    4    0    0 3800    2    0    0    0    0   72   38    0    0    0 3800
    0 3800   39   91    1    3    0    0    0    0    3    0    0    0    0    2
    2    2    4    0   32   99    0   32   32    0    0    1    0    0    0    0
  -99   -1    0    0
      .011      .640    38.000      .002      .000   625.000      .027     5.925
    93.900      .298      .477      .000     5.000      .000      .000      .000
     2.500    -4.602      .008     -.020     5.000    30.000      .000     -.001
     -.004     -.003     2.000    15.000    34.199  -118.396      .018      .312
    17.112     -.018      .011  -999.000      .000      .000   -13.200      .000
  1000.000    -1.017      .000      .000      .000      .000      .000      .000
     4.600     4.400      .000   980.665      .010    38.000    14.945      .000
      .000    40.000      .000    38.000      .010      .300      .000      .000
     5.920    25.274     5.900     -.682     5.840      .034      .000      .300
    40.000      .010      .010      .000      .010      .018      .000      .000
      .076      .085      .029      .021      .004      .000      .000      .000
      .000      .000      .000      .000      .000      .000      .000      .000
      .000      .000      .000      .000
      .050
      .040      .042      .044      .046      .048      .050      .055      .060
      .065      .070      .075      .080      .085      .090      .095      .100
      .110      .120      .130      .140      .150      .160      .170      .180
      .190      .200      .220      .240      .260      .280      .300      .320
      .340      .360      .380      .400      .420      .440      .460      .480
      .500      .550      .600      .650      .700      .750      .800      .850
      .900      .950     1.000     1.100     1.200     1.300     1.400     1.500
     1.600     1.700     1.800     1.900     2.000     2.200     2.400     2.600
     2.800     3.000     3.200     3.400     3.600     3.800     4.000     4.200
     4.400     4.600     4.800     5.000     5.500     6.000     6.500     7.000
     7.500     8.000     8.500     9.000     9.500    10.000    11.000    12.000
    13.000    14.000    15.000      .000      .000      .000      .000      .000
      .000      .000      .000      .000
Fourier amplitude spectra in in/sec.
  .000E+00  .000E+00  .000E+00  .000E+00  .000E+00  .000E+00  .000E+00  .000E+00
  .000E+00  .000E+00  .000E+00  .000E+00  .000E+00  .000E+00  .000E+00  .000E+00
  .000E+00  .000E+00  .000E+00  .000E+00  .000E+00  .000E+00  .000E+00  .000E+00
  .000E+00  .000E+00  .000E+00  .000E+00  .000E+00  .000E+00  .000E+00  .000E+00
  .000E+00  .000E+00  .000E+00  .000E+00  .000E+00  .000E+00  .000E+00  .000E+00
  .000E+00  .000E+00  .000E+00  .000E+00  .000E+00  .000E+00  .000E+00  .000E+00
  .000E+00  .000E+00  .000E+00  .000E+00  .000E+00  .000E+00  .000E+00  .000E+00
  .000E+00  .000E+00  .000E+00  .000E+00  .000E+00  .000E+00  .000E+00  .000E+00
  .000E+00  .000E+00  .000E+00  .000E+00  .000E+00  .000E+00  .000E+00  .000E+00
  .000E+00  .000E+00  .000E+00  .000E+00  .000E+00  .000E+00  .000E+00  .000E+00
  .000E+00  .000E+00  .000E+00  .000E+00  .000E+00  .000E+00  .000E+00  .000E+00
  .000E+00  .000E+00  .000E+00  .000E+00  .000E+00  .000E+00  .000E+00  .000E+00
  .000E+00  .000E+00  .000E+00  .000E+00
Damping =  .05. Data of Sd,Sv,Sa,Pssv,ttSd,ttSv,ttSa :
  .476E-03  .512E-03  .608E-03  .676E-03  .772E-03  .979E-03  .126E-02  .126E-02
  .193E-02  .213E-02  .249E-02  .436E-02  .530E-02  .503E-02  .567E-02  .688E-02
  .760E-02  .879E-02  .106E-01  .115E-01  .110E-01  .890E-02  .815E-02  .798E-02
  .104E-01  .997E-02  .144E-01  .201E-01  .208E-01  .197E-01  .182E-01  .161E-01
  .128E-01  .140E-01  .165E-01  .145E-01  .165E-01  .161E-01  .183E-01  .210E-01
  .239E-01  .304E-01  .342E-01  .338E-01  .390E-01  .501E-01  .415E-01  .400E-01
  .380E-01  .346E-01  .348E-01  .410E-01  .519E-01  .490E-01  .401E-01  .394E-01
  .405E-01  .380E-01  .331E-01  .325E-01  .300E-01  .292E-01  .280E-01  .294E-01
  .294E-01  .228E-01  .197E-01  .183E-01  .161E-01  .156E-01  .156E-01  .155E-01
  .155E-01  .154E-01  .153E-01  .152E-01  .150E-01  .148E-01  .146E-01  .145E-01
  .144E-01  .143E-01  .142E-01  .142E-01  .141E-01  .141E-01  .141E-01  .141E-01
  .140E-01  .140E-01  .141E-01  .000E+00  .000E+00  .000E+00  .000E+00  .000E+00
  .000E+00  .000E+00  .000E+00  .000E+00
  .321E-01  .354E-01  .373E-01  .444E-01  .543E-01  .683E-01  .102E+00  .104E+00
  .149E+00  .152E+00  .177E+00  .302E+00  .372E+00  .327E+00  .353E+00  .432E+00
  .448E+00  .475E+00  .533E+00  .551E+00  .480E+00  .393E+00  .345E+00  .283E+00
  .346E+00  .345E+00  .390E+00  .565E+00  .674E+00  .524E+00  .415E+00  .351E+00
  .306E+00  .257E+00  .273E+00  .265E+00  .296E+00  .317E+00  .321E+00  .314E+00
  .304E+00  .345E+00  .399E+00  .448E+00  .472E+00  .474E+00  .455E+00  .435E+00
  .421E+00  .408E+00  .388E+00  .339E+00  .321E+00  .298E+00  .297E+00  .297E+00
  .295E+00  .292E+00  .289E+00  .285E+00  .283E+00  .278E+00  .275E+00  .274E+00
  .273E+00  .272E+00  .271E+00  .270E+00  .269E+00  .268E+00  .268E+00  .267E+00
  .267E+00  .266E+00  .266E+00  .266E+00  .265E+00  .265E+00  .265E+00  .265E+00
  .265E+00  .265E+00  .264E+00  .264E+00  .264E+00  .264E+00  .264E+00  .264E+00
  .264E+00  .264E+00  .264E+00  .000E+00  .000E+00  .000E+00  .000E+00  .000E+00
  .000E+00  .000E+00  .000E+00  .000E+00
  .304E-01  .298E-01  .322E-01  .328E-01  .343E-01  .399E-01  .428E-01  .360E-01
  .473E-01  .442E-01  .456E-01  .692E-01  .757E-01  .632E-01  .648E-01  .702E-01
  .632E-01  .618E-01  .648E-01  .607E-01  .497E-01  .363E-01  .293E-01  .254E-01
  .295E-01  .259E-01  .307E-01  .359E-01  .316E-01  .261E-01  .207E-01  .165E-01
  .114E-01  .111E-01  .117E-01  .942E-02  .960E-02  .857E-02  .900E-02  .948E-02
  .985E-02  .104E-01  .989E-02  .823E-02  .820E-02  .917E-02  .667E-02  .570E-02
  .483E-02  .395E-02  .358E-02  .349E-02  .371E-02  .298E-02  .213E-02  .182E-02
  .165E-02  .136E-02  .106E-02  .939E-03  .784E-03  .624E-03  .508E-03  .468E-03
  .392E-03  .265E-03  .202E-03  .167E-03  .140E-03  .128E-03  .116E-03  .105E-03
  .969E-04  .895E-04  .830E-04  .772E-04  .663E-04  .596E-04  .536E-04  .501E-04
  .476E-04  .453E-04  .432E-04  .413E-04  .395E-04  .378E-04  .348E-04  .322E-04
  .300E-04  .281E-04  .263E-04  .000E+00  .000E+00  .000E+00  .000E+00  .000E+00
  .000E+00  .000E+00  .000E+00  .000E+00
  .747E-01  .766E-01  .869E-01  .923E-01  .101E+00  .123E+00  .144E+00  .132E+00
  .187E+00  .191E+00  .208E+00  .342E+00  .392E+00  .351E+00  .375E+00  .432E+00
  .434E+00  .460E+00  .513E+00  .516E+00  .459E+00  .349E+00  .301E+00  .279E+00
  .344E+00  .313E+00  .410E+00  .525E+00  .502E+00  .443E+00  .382E+00  .317E+00
  .237E+00  .244E+00  .273E+00  .228E+00  .247E+00  .230E+00  .249E+00  .275E+00
  .301E+00  .348E+00  .358E+00  .327E+00  .350E+00  .420E+00  .326E+00  .296E+00
  .265E+00  .229E+00  .219E+00  .234E+00  .272E+00  .237E+00  .180E+00  .165E+00
  .159E+00  .141E+00  .116E+00  .107E+00  .941E-01  .833E-01  .732E-01  .711E-01
  .660E-01  .477E-01  .387E-01  .338E-01  .281E-01  .258E-01  .245E-01  .232E-01
  .221E-01  .210E-01  .201E-01  .192E-01  .172E-01  .155E-01  .141E-01  .130E-01
  .120E-01  .112E-01  .105E-01  .989E-02  .935E-02  .886E-02  .804E-02  .736E-02
  .678E-02  .630E-02  .589E-02  .000E+00  .000E+00  .000E+00  .000E+00  .000E+00
  .000E+00  .000E+00  .000E+00  .000E+00
  .592E+01  .592E+01  .592E+01  .592E+01  .592E+01  .592E+01  .592E+01  .566E+01
  .592E+01  .597E+01  .592E+01  .593E+01  .598E+01  .603E+01  .603E+01  .604E+01
  .605E+01  .600E+01  .601E+01  .595E+01  .596E+01  .596E+01  .655E+01  .578E+01
  .579E+01  .580E+01  .596E+01  .597E+01  .600E+01  .590E+01  .591E+01  .591E+01
  .554E+01  .131E+02  .152E+02  .555E+01  .902E+01  .609E+01  .591E+01  .591E+01
  .616E+01  .618E+01  .592E+01  .628E+01  .948E+01  .140E+02  .137E+02  .154E+02
  .155E+02  .119E+02  .119E+02  .138E+02  .134E+02  .135E+02  .130E+02  .130E+02
  .130E+02  .130E+02  .125E+02  .117E+02  .117E+02  .113E+02  .149E+02  .130E+02
  .184E+02  .184E+02  .184E+02  .185E+02  .185E+02  .583E+01  .583E+01  .583E+01
  .583E+01  .583E+01  .583E+01  .583E+01  .583E+01  .583E+01  .583E+01  .583E+01
  .583E+01  .583E+01  .583E+01  .583E+01  .583E+01  .583E+01  .583E+01  .583E+01
  .583E+01  .583E+01  .583E+01  .000E+00  .000E+00  .000E+00  .000E+00  .000E+00
  .000E+00  .000E+00  .000E+00  .000E+00
  .594E+01  .595E+01  .520E+01  .528E+01  .528E+01  .528E+01  .594E+01  .519E+01
  .595E+01  .595E+01  .569E+01  .595E+01  .600E+01  .601E+01  .606E+01  .601E+01
  .602E+01  .603E+01  .598E+01  .598E+01  .599E+01  .593E+01  .593E+01  .573E+01
  .574E+01  .599E+01  .600E+01  .593E+01  .594E+01  .594E+01  .595E+01  .588E+01
  .588E+01  .588E+01  .130E+02  .594E+01  .594E+01  .594E+01  .594E+01  .594E+01
  .595E+01  .604E+01  .638E+01  .588E+01  .588E+01  .588E+01  .589E+01  .589E+01
  .589E+01  .589E+01  .589E+01  .589E+01  .136E+02  .589E+01  .589E+01  .589E+01
  .589E+01  .589E+01  .589E+01  .589E+01  .589E+01  .589E+01  .589E+01  .589E+01
  .589E+01  .589E+01  .589E+01  .589E+01  .589E+01  .589E+01  .589E+01  .589E+01
  .589E+01  .589E+01  .589E+01  .589E+01  .589E+01  .589E+01  .589E+01  .589E+01
  .589E+01  .589E+01  .589E+01  .589E+01  .589E+01  .589E+01  .589E+01  .589E+01
  .589E+01  .589E+01  .589E+01  .000E+00  .000E+00  .000E+00  .000E+00  .000E+00
  .000E+00  .000E+00  .000E+00  .000E+00
  .592E+01  .592E+01  .592E+01  .592E+01  .592E+01  .592E+01  .592E+01  .566E+01
  .592E+01  .597E+01  .592E+01  .593E+01  .598E+01  .603E+01  .603E+01  .603E+01
  .605E+01  .600E+01  .600E+01  .595E+01  .596E+01  .596E+01  .655E+01  .577E+01
  .579E+01  .580E+01  .596E+01  .597E+01  .599E+01  .590E+01  .590E+01  .591E+01
  .553E+01  .131E+02  .152E+02  .554E+01  .902E+01  .608E+01  .590E+01  .590E+01
  .615E+01  .617E+01  .591E+01  .627E+01  .947E+01  .140E+02  .137E+02  .154E+02
  .155E+02  .118E+02  .119E+02  .138E+02  .134E+02  .135E+02  .130E+02  .130E+02
  .130E+02  .130E+02  .125E+02  .117E+02  .117E+02  .112E+02  .149E+02  .130E+02
  .184E+02  .184E+02  .184E+02  .184E+02  .130E+02  .130E+02  .130E+02  .576E+01
  .576E+01  .576E+01  .576E+01  .576E+01  .129E+02  .129E+02  .129E+02  .589E+01
  .589E+01  .589E+01  .589E+01  .589E+01  .589E+01  .589E+01  .589E+01  .589E+01
  .589E+01  .589E+01  .589E+01  .000E+00  .000E+00  .000E+00  .000E+00  .000E+00
  .000E+00  .000E+00  .000E+00  .000E+00
/&   ----------  End of spectral data for channel  1  ----------
Response and Fourier amplitude spectra (91 periods,  .04 - 15.0 sec)   for      
Corrected accelerogram   24815-L1127-01253.15       Chan  2:  Up         from   
Uncorrected Accelerogram Data             Processed: 09/10/01, CDMG  at015      
Record of Sun Sep  9, 2001 16:59:19 PDT               (Avol1 v4.6  7/01 CSMIP)  
CSMIP Preliminary Processing            (Origin:  To be determined)             
24815-L1127-01253.15                 Start time:  9/09/01, 23:59:19.0 UTC (GPS) 
Station No. 24815   34.199N, 118.396W      Etna  s/n 1127  (3 Channels)         
North Hollywood - Laurel Cyn & Sherman                                          
Chan  2:  Up                                                                    
Record of Sun Sep  9, 2001 16:59:19 PDT    Sun Sep  9, 2001 16:59:19 PDT        
Hypocenter:  To be determined.               ML:  To be determined.             
Instr Period =  .0108 sec,  Damping =  .660,  Sensitivity =  .63  v/g           
                        Record length = 38.000 sec.                             
                                     Uncor Max  =   .027 g, at   4.985 sec.     
RMS accel of (uncor) record  =        .                                         
Accelerogram bandpass filtered with 3 dB pts at   .30 and 40.00 cyc/sec         
                 instrument- and baseline-corrected                             
                                                                                
                                                                                
                                                                                
                                                                                
                                                                                
Record of Sun Sep  9, 2001 16:59:19 PDT    Sun Sep  9, 2001 16:59:19 PDT        
                                                                                
24815-L1127-01253.15      North Hollywood - Laurel Cyn & Sherman    Chan  2:  Up
                                                                                
24815-L1127-01253.15      North Hollywood - Laurel Cyn & Sherman    Chan  2:  Up
                                                                                
Units for spectra are inches and sec, except Sa is in fraction of g.            
                                                                                
    2  100    2    3    3  200    1    3    1   24   12 1127    024815    1    0
   23   59   19    0  252    9    9 2001   10    3  500 7600   39   38   72  360
 7600    1   50    3 1127    1   15  380    1    0    0    0    0    0    0    0
    0    4    0    0 3800    2    0    0    0    0   72   38    0    0    0 3800
    0 3800   39   91    1    3    0    0    0    0    3    0    0    0    0    2
    2    2    4    0   32   99    0   32   32    0    0    1    0    0    0    0
  -99   -1    0    0
      .011      .660    38.000      .002      .000   625.000      .027     4.985
    92.300      .298      .477      .000     5.000      .000      .000      .000
     2.500   -18.735      .002     -.029     5.000    30.000      .000      .001
      .001      .000     2.000    15.000    34.199  -118.396      .044      .244
     5.572     -.013      .013  -999.000      .000      .000   -13.200      .000
  1000.000     1.003      .000      .000      .000      .000      .000      .000
     4.600     4.400      .000   980.665      .010    38.000    14.690      .000
      .000    40.000      .000    38.000      .010      .300      .000      .000
     4.980    26.694     5.790     -.276    19.150      .026      .000      .300
    40.000      .010      .010      .000      .010      .014      .000      .000
      .100      .060      .017      .015      .002      .000      .000      .000
      .000      .000      .000      .000      .000      .000      .000      .000
      .000      .000      .000      .000
      .050
      .040      .042      .044      .046      .048      .050      .055      .060
      .065      .070      .075      .080      .085      .090      .095      .100
      .110      .120      .130      .140      .150      .160      .170      .180
      .190      .200      .220      .240      .260      .280      .300      .320
      .340      .360      .380      .400      .420      .440      .460      .480
      .500      .550      .600      .650      .700      .750      .800      .850
      .900      .950     1.000     1.100     1.200     1.300     1.400     1.500
     1.600     1.700     1.800     1.900     2.000     2.200     2.400     2.600
     2.800     3.000     3.200     3.400     3.600     3.800     4.000     4.200
     4.400     4.600     4.800     5.000     5.500     6.000     6.500     7.000
     7.500     8.000     8.500     9.000     9.500    10.000    11.000    12.000
    13.000    14.000    15.000      .000      .000      .000      .000      .000
      .000      .000      .000      .000
Fourier amplitude spectra in in/sec.
  .000E+00  .000E+00  .000E+00  .000E+00  .000E+00  .000E+00  .000E+00  .000E+00
  .000E+00  .000E+00  .000E+00  .000E+00  .000E+00  .000E+00  .000E+00  .000E+00
  .000E+00  .000E+00  .000E+00  .000E+00  .000E+00  .000E+00  .000E+00  .000E+00
  .000E+00  .000E+00  .000E+00  .000E+00  .000E+00  .000E+00  .000E+00  .000E+00
  .000E+00  .000E+00  .000E+00  .000E+00  .000E+00  .000E+00  .000E+00  .000E+00
  .000E+00  .000E+00  .000E+00  .000E+00  .000E+00  .000E+00  .000E+00  .000E+00
  .000E+00  .000E+00  .000E+00  .000E+00  .000E+00  .000E+00  .000E+00  .000E+00
  .000E+00  .000E+00  .000E+00  .000E+00  .000E+00  .000E+00  .000E+00  .000E+00
  .000E+00  .000E+00  .000E+00  .000E+00  .000E+00  .000E+00  .000E+00  .000E+00
  .000E+00  .000E+00  .000E+00  .000E+00  .000E+00  .000E+00  .000E+00  .000E+00
  .000E+00  .000E+00  .000E+00  .000E+00  .000E+00  .000E+00  .000E+00  .000E+00
  .000E+00  .000E+00  .000E+00  .000E+00  .000E+00  .000E+00  .000E+00  .000E+00
  .000E+00  .000E+00  .000E+00  .000E+00
Damping =  .05. Data of Sd,Sv,Sa,Pssv,ttSd,ttSv,ttSa :
  .654E-03  .833E-03  .113E-02  .156E-02  .195E-02  .208E-02  .283E-02  .355E-02
  .319E-02  .298E-02  .416E-02  .522E-02  .597E-02  .542E-02  .440E-02  .373E-02
  .492E-02  .739E-02  .676E-02  .578E-02  .528E-02  .548E-02  .591E-02  .589E-02
  .571E-02  .662E-02  .780E-02  .907E-02  .954E-02  .115E-01  .141E-01  .137E-01
  .153E-01  .152E-01  .128E-01  .138E-01  .147E-01  .155E-01  .149E-01  .147E-01
