Response and Fourier amplitude spectra (91 periods,  .04 - 15.0 sec)   for      
Corrected accelerogram   24694-F1363-01252.02       Chan  2:  Up         from   
Uncorrected Accelerogram Data             Processed: 09/10/01, CDMG  s694e02    
Earthquake of Sun Sep  9, 2001  16:59 PDT             (Avol1 v4.6  7/01 CSMIP)  
CSMIP Preliminary Processing            (Origin:  To be determined)             
24694-F1363-01252.02                 Start time:  9/09/01, 23:59 GMT (*LoQ*)    
Station No. 24694   34.334N, 118.504W     SSA-2  s/n 1363  (3 Channels)         
Sylmar - I5/14 Interchange Bridge                                               
Chan  2:  Up      (Sta Chn: 41)     Location: Freefield near Abutment 1         
Earthquake of Sun Sep  9, 2001  16:59 PDT    Sun Sep  9, 2001  16:59 PDT        
Hypocenter:  To be determined.               ML:  To be determined.
Instr Period =  .0222 sec,  Damping =  .700,  Sensitivity = 1.25  v/g
                        Record length = 37.120 sec.
                                     Uncor Max  =   .002 g, at   6.370 sec.
RMS accel of (uncor) record  =        .
Accelerogram bandpass filtered with 3 dB pts at   .30 and 40.00 cyc/sec
                 instrument- and baseline-corrected





Earthquake of Sun Sep  9, 2001  16:59 PDT    Sun Sep  9, 2001  16:59 PDT

24694-F1363-01252.02      Sylmar - I5/14 Interchange Bridge   Chan  2:  Up

24694-F1363-01252.02      Sylmar - I5/14 Interchange Bridge   Chan  2:  Up

Units for spectra are inches and sec, except Sa is in fraction of g.

    2  100   41    3    3  200    1    3    1   12    6 1363    024694    3    0
   23   59   15   20  252    9    9 2001    0    2  500 7424   41   33   72   -1
 7424    1   50    0 4103    1    2   29    1   23   59   15   20    9    9 2001
    0    0    0    0 3712    2    0    0    0    0   72   33    0    0    0 3712
    0 3712   34   91    1    3    0    0    0    0   42    0    0    0    0    2
    2    2    4    1   66   99    4   32   32    0    0    0    0    0   12  128
  -99   -1    0    0
      .022      .700    37.120      .001      .000  1250.000      .002     6.370
    45.000  1220.703   976.563      .000     5.000      .000      .000      .000
     2.500   -34.640     -.040     -.046     5.120    30.000      .000     -.028
     -.037     -.009     2.000    15.000    34.334  -118.504      .486      .484
      .997     -.076      .057  -999.000      .000      .000      .000      .000
      .594     1.494      .000      .000      .000      .000      .000      .000
     4.600     4.400      .000   980.665      .010    37.120     7.162      .000
      .000    40.000      .000    37.120      .010      .300      .000      .000
     7.650    -2.493     4.710      .139    22.340      .016      .001      .300
    40.000      .010      .010      .000      .010      .011      .000      .000
      .009      .340      .007      .007      .002      .000      .000      .000
      .000      .000      .000      .000      .000      .000      .000      .000
      .000      .000      .000      .000
      .050
      .040      .042      .044      .046      .048      .050      .055      .060
      .065      .070      .075      .080      .085      .090      .095      .100
      .110      .120      .130      .140      .150      .160      .170      .180
      .190      .200      .220      .240      .260      .280      .300      .320
      .340      .360      .380      .400      .420      .440      .460      .480
      .500      .550      .600      .650      .700      .750      .800      .850
      .900      .950     1.000     1.100     1.200     1.300     1.400     1.500
     1.600     1.700     1.800     1.900     2.000     2.200     2.400     2.600
     2.800     3.000     3.200     3.400     3.600     3.800     4.000     4.200
     4.400     4.600     4.800     5.000     5.500     6.000     6.500     7.000
     7.500     8.000     8.500     9.000     9.500    10.000    11.000    12.000
    13.000    14.000    15.000      .000      .000      .000      .000      .000
      .000      .000      .000      .000
Fourier amplitude spectra in in/sec.
  .000E+00  .000E+00  .000E+00  .000E+00  .000E+00  .000E+00  .000E+00  .000E+00
  .000E+00  .000E+00  .000E+00  .000E+00  .000E+00  .000E+00  .000E+00  .000E+00
  .000E+00  .000E+00  .000E+00  .000E+00  .000E+00  .000E+00  .000E+00  .000E+00
  .000E+00  .000E+00  .000E+00  .000E+00  .000E+00  .000E+00  .000E+00  .000E+00
  .000E+00  .000E+00  .000E+00  .000E+00  .000E+00  .000E+00  .000E+00  .000E+00
  .000E+00  .000E+00  .000E+00  .000E+00  .000E+00  .000E+00  .000E+00  .000E+00
  .000E+00  .000E+00  .000E+00  .000E+00  .000E+00  .000E+00  .000E+00  .000E+00
  .000E+00  .000E+00  .000E+00  .000E+00  .000E+00  .000E+00  .000E+00  .000E+00
  .000E+00  .000E+00  .000E+00  .000E+00  .000E+00  .000E+00  .000E+00  .000E+00
  .000E+00  .000E+00  .000E+00  .000E+00  .000E+00  .000E+00  .000E+00  .000E+00
  .000E+00  .000E+00  .000E+00  .000E+00  .000E+00  .000E+00  .000E+00  .000E+00
  .000E+00  .000E+00  .000E+00  .000E+00  .000E+00  .000E+00  .000E+00  .000E+00
  .000E+00  .000E+00  .000E+00  .000E+00
Damping =  .05. Data of Sd,Sv,Sa,Pssv,ttSd,ttSv,ttSa :
  .485E-04  .504E-04  .582E-04  .680E-04  .714E-04  .753E-04  .921E-04  .114E-03
  .134E-03  .133E-03  .151E-03  .207E-03  .258E-03  .281E-03  .297E-03  .336E-03
  .458E-03  .547E-03  .773E-03  .807E-03  .117E-02  .128E-02  .164E-02  .168E-02
  .214E-02  .242E-02  .365E-02  .492E-02  .463E-02  .535E-02  .638E-02  .762E-02
  .101E-01  .105E-01  .102E-01  .890E-02  .992E-02  .116E-01  .130E-01  .132E-01
  .135E-01  .129E-01  .159E-01  .169E-01  .176E-01  .183E-01  .207E-01  .195E-01
  .189E-01  .198E-01  .220E-01  .246E-01  .295E-01  .332E-01  .307E-01  .238E-01
  .217E-01  .222E-01  .235E-01  .260E-01  .274E-01  .182E-01  .130E-01  .151E-01
  .168E-01  .164E-01  .163E-01  .154E-01  .182E-01  .192E-01  .151E-01  .141E-01
  .131E-01  .107E-01  .967E-02  .927E-02  .840E-02  .880E-02  .853E-02  .812E-02
  .787E-02  .760E-02  .733E-02  .712E-02  .703E-02  .698E-02  .728E-02  .765E-02
  .787E-02  .789E-02  .776E-02  .000E+00  .000E+00  .000E+00  .000E+00  .000E+00
  .000E+00  .000E+00  .000E+00  .000E+00
  .555E-02  .541E-02  .557E-02  .550E-02  .543E-02  .595E-02  .657E-02  .744E-02
  .717E-02  .108E-01  .112E-01  .108E-01  .136E-01  .145E-01  .131E-01  .149E-01
  .248E-01  .231E-01  .277E-01  .287E-01  .461E-01  .495E-01  .445E-01  .461E-01
  .553E-01  .637E-01  .831E-01  .117E+00  .111E+00  .117E+00  .124E+00  .146E+00
  .185E+00  .199E+00  .168E+00  .139E+00  .149E+00  .181E+00  .187E+00  .178E+00
  .168E+00  .149E+00  .168E+00  .152E+00  .164E+00  .178E+00  .168E+00  .189E+00
  .163E+00  .132E+00  .140E+00  .156E+00  .161E+00  .168E+00  .141E+00  .121E+00
  .114E+00  .956E-01  .106E+00  .100E+00  .943E-01  .713E-01  .641E-01  .605E-01
  .620E-01  .638E-01  .593E-01  .605E-01  .609E-01  .609E-01  .605E-01  .600E-01
  .595E-01  .589E-01  .584E-01  .580E-01  .571E-01  .564E-01  .560E-01  .557E-01
  .555E-01  .554E-01  .553E-01  .553E-01  .552E-01  .552E-01  .551E-01  .551E-01
  .551E-01  .551E-01  .550E-01  .000E+00  .000E+00  .000E+00  .000E+00  .000E+00
  .000E+00  .000E+00  .000E+00  .000E+00
  .310E-02  .295E-02  .311E-02  .331E-02  .319E-02  .308E-02  .312E-02  .322E-02
  .324E-02  .282E-02  .275E-02  .332E-02  .364E-02  .356E-02  .339E-02  .348E-02
  .386E-02  .392E-02  .467E-02  .423E-02  .540E-02  .509E-02  .579E-02  .530E-02
  .609E-02  .622E-02  .772E-02  .874E-02  .708E-02  .698E-02  .731E-02  .763E-02
  .903E-02  .839E-02  .726E-02  .572E-02  .578E-02  .617E-02  .632E-02  .588E-02
  .556E-02  .439E-02  .453E-02  .412E-02  .368E-02  .335E-02  .333E-02  .278E-02
  .240E-02  .225E-02  .227E-02  .209E-02  .211E-02  .202E-02  .161E-02  .109E-02
  .874E-03  .792E-03  .745E-03  .741E-03  .707E-03  .389E-03  .234E-03  .231E-03
  .223E-03  .189E-03  .164E-03  .138E-03  .146E-03  .138E-03  .990E-04  .841E-04
  .711E-04  .536E-04  .445E-04  .396E-04  .303E-04  .266E-04  .222E-04  .185E-04
  .163E-04  .146E-04  .132E-04  .121E-04  .111E-04  .102E-04  .886E-05  .780E-05
  .696E-05  .628E-05  .572E-05  .000E+00  .000E+00  .000E+00  .000E+00  .000E+00
  .000E+00  .000E+00  .000E+00  .000E+00
  .761E-02  .755E-02  .832E-02  .929E-02  .935E-02  .947E-02  .105E-01  .119E-01
  .130E-01  .120E-01  .126E-01  .163E-01  .190E-01  .196E-01  .197E-01  .211E-01
  .262E-01  .286E-01  .374E-01  .362E-01  .491E-01  .503E-01  .608E-01  .585E-01
  .707E-01  .759E-01  .104E+00  .129E+00  .112E+00  .120E+00  .134E+00  .150E+00
  .187E+00  .184E+00  .168E+00  .140E+00  .148E+00  .166E+00  .177E+00  .173E+00
  .170E+00  .148E+00  .166E+00  .163E+00  .158E+00  .154E+00  .163E+00  .144E+00
  .132E+00  .131E+00  .138E+00  .140E+00  .154E+00  .161E+00  .138E+00  .995E-01
  .852E-01  .821E-01  .819E-01  .860E-01  .861E-01  .519E-01  .340E-01  .364E-01
  .377E-01  .343E-01  .319E-01  .284E-01  .317E-01  .317E-01  .237E-01  .211E-01
  .187E-01  .146E-01  .127E-01  .116E-01  .960E-02  .922E-02  .825E-02  .729E-02
  .659E-02  .597E-02  .542E-02  .497E-02  .465E-02  .439E-02  .416E-02  .401E-02
  .380E-02  .354E-02  .325E-02  .000E+00  .000E+00  .000E+00  .000E+00  .000E+00
  .000E+00  .000E+00  .000E+00  .000E+00
  .635E+01  .429E+01  .857E+01  .853E+01  .853E+01  .429E+01  .763E+01  .764E+01
  .765E+01  .376E+01  .377E+01  .763E+01  .667E+01  .668E+01  .638E+01  .637E+01
  .519E+01  .669E+01  .625E+01  .765E+01  .502E+01  .504E+01  .639E+01  .461E+01
  .640E+01  .641E+01  .766E+01  .783E+01  .798E+01  .857E+01  .877E+01  .880E+01
  .790E+01  .776E+01  .692E+01  .693E+01  .693E+01  .695E+01  .888E+01  .945E+01
  .103E+02  .103E+02  .119E+02  .501E+01  .505E+01  .243E+02  .682E+01  .689E+01
  .659E+01  .274E+02  .275E+02  .266E+02  .263E+02  .252E+02  .241E+02  .242E+02
  .236E+02  .352E+02  .353E+02  .346E+02  .347E+02  .237E+02  .253E+02  .136E+02
  .253E+02  .304E+02  .340E+02  .341E+02  .331E+02  .332E+02  .332E+02  .332E+02
  .332E+02  .332E+02  .282E+02  .282E+02  .248E+02  .232E+02  .232E+02  .282E+02
  .119E+02  .119E+02  .119E+02  .223E+02  .223E+02  .223E+02  .332E+02  .332E+02
  .332E+02  .332E+02  .332E+02  .000E+00  .000E+00  .000E+00  .000E+00  .000E+00
  .000E+00  .000E+00  .000E+00  .000E+00
  .258E+02  .272E+01  .269E+02  .852E+01  .291E+02  .291E+02  .336E+02  .276E+01
  .566E+01  .375E+01  .375E+01  .515E+01  .496E+01  .497E+01  .497E+01  .550E+01
  .516E+01  .278E+01  .621E+01  .512E+01  .506E+01  .508E+01  .634E+01  .456E+01
  .457E+01  .501E+01  .760E+01  .776E+01  .805E+01  .794E+01  .868E+01  .795E+01
  .797E+01  .785E+01  .700E+01  .684E+01  .684E+01  .686E+01  .687E+01  .881E+01
  .101E+02  .102E+02  .118E+02  .515E+01  .493E+01  .494E+01  .618E+01  .672E+01
  .675E+01  .276E+02  .273E+02  .264E+02  .260E+02  .243E+02  .239E+02  .239E+02
  .240E+02  .349E+02  .349E+02  .350E+02  .334E+02  .234E+02  .235E+02  .651E+01
  .235E+02  .235E+02  .470E+01  .470E+01  .470E+01  .470E+01  .470E+01  .470E+01
  .470E+01  .470E+01  .470E+01  .470E+01  .470E+01  .470E+01  .470E+01  .470E+01
  .470E+01  .470E+01  .470E+01  .470E+01  .470E+01  .470E+01  .470E+01  .470E+01
  .470E+01  .470E+01  .470E+01  .000E+00  .000E+00  .000E+00  .000E+00  .000E+00
  .000E+00  .000E+00  .000E+00  .000E+00
  .635E+01  .428E+01  .857E+01  .853E+01  .853E+01  .429E+01  .763E+01  .764E+01
  .765E+01  .376E+01  .377E+01  .763E+01  .667E+01  .667E+01  .638E+01  .637E+01
  .519E+01  .668E+01  .625E+01  .765E+01  .502E+01  .504E+01  .638E+01  .460E+01
  .639E+01  .641E+01  .766E+01  .782E+01  .798E+01  .856E+01  .876E+01  .880E+01
  .789E+01  .776E+01  .691E+01  .692E+01  .693E+01  .694E+01  .888E+01  .945E+01
  .103E+02  .103E+02  .116E+02  .500E+01  .504E+01  .243E+02  .681E+01  .687E+01
  .658E+01  .274E+02  .275E+02  .266E+02  .262E+02  .252E+02  .241E+02  .242E+02
  .236E+02  .352E+02  .353E+02  .346E+02  .347E+02  .237E+02  .252E+02  .135E+02
  .252E+02  .303E+02  .340E+02  .340E+02  .330E+02  .331E+02  .331E+02  .331E+02
  .332E+02  .332E+02  .282E+02  .282E+02  .247E+02  .231E+02  .231E+02  .117E+02
  .452E+01  .452E+01  .452E+01  .452E+01  .452E+01  .452E+01  .452E+01  .452E+01
  .452E+01  .452E+01  .451E+01  .000E+00  .000E+00  .000E+00  .000E+00  .000E+00
  .000E+00  .000E+00  .000E+00  .000E+00
/&   ----------  End of spectral data for channel  2  ----------
