Response and Fourier amplitude spectra (91 periods,  .04 - 15.0 sec)   for      
Corrected accelerogram   24109-L2212-01252.03       Chan  1:   0 Deg     from   
Uncorrected Accelerogram Data             Processed: 09/10/01, CDMG  109al003   
Record of Sun Sep  9, 2001 16:59:20 PDT               (Avol1 v4.6  7/01 CSMIP)  
CSMIP Preliminary Processing            (Origin:  To be determined)             
24109-L2212-01252.03                 Start time:  9/09/01, 23:59:20.0 UTC (GPS) 
Station No. 24109   34.108N, 118.153W      Etna  s/n 2212  (3 Channels)         
South Pasadena - Fremont & Oak                                                  
Chan  1:   0 Deg                                                                
Record of Sun Sep  9, 2001 16:59:20 PDT    Sun Sep  9, 2001 16:59:20 PDT        
Hypocenter:  To be determined.               ML:  To be determined.             
Instr Period =  .0106 sec,  Damping =  .660,  Sensitivity =  .63  v/g           
                        Record length = 38.000 sec.                             
                                     Uncor Max  =   .010 g, at   5.735 sec.     
RMS accel of (uncor) record  =        .                                         
Accelerogram bandpass filtered with 3 dB pts at   .30 and 40.00 cyc/sec         
                 instrument- and baseline-corrected                             
                                                                                
                                                                                
                                                                                
                                                                                
                                                                                
Record of Sun Sep  9, 2001 16:59:20 PDT    Sun Sep  9, 2001 16:59:20 PDT        
                                                                                
24109-L2212-01252.03      South Pasadena - Fremont & Oak    Chan  1:   0 Deg    
                                                                                
24109-L2212-01252.03      South Pasadena - Fremont & Oak    Chan  1:   0 Deg    
                                                                                
Units for spectra are inches and sec, except Sa is in fraction of g.            
                                                                                
    1  100    1    3    3  200    1    3    1   24   12 2212    024109    1    0
   23   59   20    0  252    9    9 2001   10    3    0 7600   39   30   72 -999
 7600    1   50    3 2212    1    3  380    1    0    0    0    0    0    0    0
    0    4    0    0 3800    2    0    0    0    0   72   30    0    0    0 3800
    0 3800   31   91    1    3    0    0    0    0    3    0    0    0    0    2
    2    2    4    0   32   99 -999   32   32    0    0    1    0    0    0    0
  -99   -1    0    0
      .011      .660    38.000      .001      .000   625.000      .010     5.735
    94.000      .298      .477      .000     5.000      .000      .000      .000
     2.500    -5.221      .002     -.009     5.000    30.000      .000     -.002
      .001      .004     2.000    15.000    34.108  -118.153      .017      .135
     8.123     -.003      .010  -999.000      .000      .000   -13.400      .000
  1000.000     1.006      .000      .000      .000      .000      .000      .000
     4.600     4.400      .000   980.665      .010    38.000    14.961      .000
      .000    40.000      .000    38.000      .010      .300      .000      .000
     5.740     9.538     5.820      .412     5.740     -.040      .000      .300
    40.000      .010      .010      .000      .010      .008      .000      .000
      .026      .240      .021      .022      .002      .000      .000      .000
      .000      .000      .000      .000      .000      .000      .000      .000
      .000      .000      .000      .000
      .050
      .040      .042      .044      .046      .048      .050      .055      .060
      .065      .070      .075      .080      .085      .090      .095      .100
      .110      .120      .130      .140      .150      .160      .170      .180
      .190      .200      .220      .240      .260      .280      .300      .320
      .340      .360      .380      .400      .420      .440      .460      .480
      .500      .550      .600      .650      .700      .750      .800      .850
      .900      .950     1.000     1.100     1.200     1.300     1.400     1.500
     1.600     1.700     1.800     1.900     2.000     2.200     2.400     2.600
     2.800     3.000     3.200     3.400     3.600     3.800     4.000     4.200
     4.400     4.600     4.800     5.000     5.500     6.000     6.500     7.000
     7.500     8.000     8.500     9.000     9.500    10.000    11.000    12.000
    13.000    14.000    15.000      .000      .000      .000      .000      .000
      .000      .000      .000      .000
Fourier amplitude spectra in in/sec.
  .000E+00  .000E+00  .000E+00  .000E+00  .000E+00  .000E+00  .000E+00  .000E+00
  .000E+00  .000E+00  .000E+00  .000E+00  .000E+00  .000E+00  .000E+00  .000E+00
  .000E+00  .000E+00  .000E+00  .000E+00  .000E+00  .000E+00  .000E+00  .000E+00
  .000E+00  .000E+00  .000E+00  .000E+00  .000E+00  .000E+00  .000E+00  .000E+00
  .000E+00  .000E+00  .000E+00  .000E+00  .000E+00  .000E+00  .000E+00  .000E+00
  .000E+00  .000E+00  .000E+00  .000E+00  .000E+00  .000E+00  .000E+00  .000E+00
  .000E+00  .000E+00  .000E+00  .000E+00  .000E+00  .000E+00  .000E+00  .000E+00
  .000E+00  .000E+00  .000E+00  .000E+00  .000E+00  .000E+00  .000E+00  .000E+00
  .000E+00  .000E+00  .000E+00  .000E+00  .000E+00  .000E+00  .000E+00  .000E+00
  .000E+00  .000E+00  .000E+00  .000E+00  .000E+00  .000E+00  .000E+00  .000E+00
  .000E+00  .000E+00  .000E+00  .000E+00  .000E+00  .000E+00  .000E+00  .000E+00
  .000E+00  .000E+00  .000E+00  .000E+00  .000E+00  .000E+00  .000E+00  .000E+00
  .000E+00  .000E+00  .000E+00  .000E+00
Damping =  .05. Data of Sd,Sv,Sa,Pssv,ttSd,ttSv,ttSa :
  .158E-03  .173E-03  .193E-03  .220E-03  .240E-03  .265E-03  .333E-03  .450E-03
  .594E-03  .639E-03  .738E-03  .824E-03  .955E-03  .104E-02  .121E-02  .140E-02
  .163E-02  .272E-02  .269E-02  .300E-02  .364E-02  .410E-02  .520E-02  .591E-02
  .658E-02  .832E-02  .113E-01  .144E-01  .166E-01  .172E-01  .193E-01  .225E-01
  .231E-01  .226E-01  .219E-01  .221E-01  .232E-01  .250E-01  .256E-01  .241E-01
  .228E-01  .232E-01  .215E-01  .245E-01  .294E-01  .274E-01  .288E-01  .284E-01
  .251E-01  .245E-01  .241E-01  .236E-01  .209E-01  .184E-01  .177E-01  .183E-01
  .185E-01  .182E-01  .180E-01  .185E-01  .187E-01  .190E-01  .191E-01  .192E-01
  .193E-01  .194E-01  .194E-01  .193E-01  .193E-01  .191E-01  .190E-01  .189E-01
  .187E-01  .186E-01  .184E-01  .183E-01  .180E-01  .178E-01  .176E-01  .175E-01
  .173E-01  .173E-01  .172E-01  .171E-01  .171E-01  .170E-01  .170E-01  .169E-01
  .169E-01  .169E-01  .168E-01  .000E+00  .000E+00  .000E+00  .000E+00  .000E+00
  .000E+00  .000E+00  .000E+00  .000E+00
  .554E-02  .669E-02  .786E-02  .968E-02  .116E-01  .136E-01  .169E-01  .249E-01
  .323E-01  .390E-01  .495E-01  .363E-01  .385E-01  .476E-01  .536E-01  .565E-01
  .716E-01  .113E+00  .104E+00  .929E-01  .107E+00  .110E+00  .140E+00  .166E+00
  .194E+00  .247E+00  .310E+00  .382E+00  .413E+00  .399E+00  .409E+00  .429E+00
  .451E+00  .447E+00  .429E+00  .428E+00  .423E+00  .413E+00  .377E+00  .337E+00
  .316E+00  .318E+00  .294E+00  .301E+00  .273E+00  .312E+00  .297E+00  .244E+00
  .236E+00  .233E+00  .234E+00  .233E+00  .226E+00  .220E+00  .217E+00  .214E+00
  .211E+00  .207E+00  .202E+00  .198E+00  .194E+00  .188E+00  .183E+00  .180E+00
  .177E+00  .175E+00  .173E+00  .171E+00  .170E+00  .168E+00  .167E+00  .167E+00
  .166E+00  .165E+00  .165E+00  .165E+00  .164E+00  .163E+00  .163E+00  .163E+00
  .163E+00  .163E+00  .162E+00  .162E+00  .162E+00  .162E+00  .162E+00  .162E+00
  .162E+00  .162E+00  .162E+00  .000E+00  .000E+00  .000E+00  .000E+00  .000E+00
  .000E+00  .000E+00  .000E+00  .000E+00
  .101E-01  .101E-01  .102E-01  .106E-01  .107E-01  .108E-01  .113E-01  .129E-01
  .143E-01  .133E-01  .134E-01  .132E-01  .135E-01  .132E-01  .138E-01  .146E-01
  .138E-01  .194E-01  .161E-01  .158E-01  .165E-01  .164E-01  .186E-01  .187E-01
  .187E-01  .213E-01  .238E-01  .258E-01  .253E-01  .226E-01  .219E-01  .226E-01
  .206E-01  .179E-01  .156E-01  .142E-01  .136E-01  .133E-01  .124E-01  .108E-01
  .937E-02  .793E-02  .618E-02  .598E-02  .620E-02  .503E-02  .463E-02  .406E-02
  .321E-02  .280E-02  .249E-02  .203E-02  .150E-02  .112E-02  .928E-03  .842E-03
  .752E-03  .661E-03  .614E-03  .567E-03  .523E-03  .445E-03  .381E-03  .331E-03
  .291E-03  .258E-03  .231E-03  .207E-03  .188E-03  .170E-03  .156E-03  .143E-03
  .131E-03  .122E-03  .113E-03  .105E-03  .896E-04  .776E-04  .683E-04  .609E-04
  .549E-04  .500E-04  .458E-04  .422E-04  .391E-04  .365E-04  .320E-04  .285E-04
  .257E-04  .233E-04  .214E-04  .000E+00  .000E+00  .000E+00  .000E+00  .000E+00
  .000E+00  .000E+00  .000E+00  .000E+00
  .248E-01  .259E-01  .276E-01  .301E-01  .314E-01  .333E-01  .380E-01  .472E-01
  .574E-01  .574E-01  .618E-01  .647E-01  .706E-01  .727E-01  .803E-01  .882E-01
  .931E-01  .142E+00  .130E+00  .135E+00  .152E+00  .161E+00  .192E+00  .206E+00
  .218E+00  .261E+00  .323E+00  .377E+00  .402E+00  .386E+00  .404E+00  .442E+00
  .426E+00  .395E+00  .362E+00  .347E+00  .347E+00  .357E+00  .350E+00  .316E+00
  .286E+00  .266E+00  .225E+00  .237E+00  .264E+00  .230E+00  .226E+00  .210E+00
  .176E+00  .162E+00  .151E+00  .135E+00  .109E+00  .887E-01  .792E-01  .767E-01
  .727E-01  .673E-01  .630E-01  .610E-01  .589E-01  .543E-01  .501E-01  .465E-01
  .434E-01  .406E-01  .381E-01  .358E-01  .336E-01  .317E-01  .298E-01  .282E-01
  .267E-01  .253E-01  .241E-01  .230E-01  .206E-01  .186E-01  .170E-01  .157E-01
  .145E-01  .136E-01  .127E-01  .120E-01  .113E-01  .107E-01  .970E-02  .887E-02
  .816E-02  .757E-02  .706E-02  .000E+00  .000E+00  .000E+00  .000E+00  .000E+00
  .000E+00  .000E+00  .000E+00  .000E+00
  .573E+01  .573E+01  .573E+01  .573E+01  .573E+01  .572E+01  .572E+01  .572E+01
  .573E+01  .574E+01  .574E+01  .574E+01  .574E+01  .574E+01  .574E+01  .574E+01
  .721E+01  .788E+01  .789E+01  .574E+01  .575E+01  .575E+01  .575E+01  .576E+01
  .588E+01  .589E+01  .602E+01  .604E+01  .593E+01  .594E+01  .595E+01  .596E+01
  .598E+01  .599E+01  .600E+01  .601E+01  .585E+01  .585E+01  .586E+01  .587E+01
  .587E+01  .588E+01  .787E+01  .734E+01  .737E+01  .741E+01  .717E+01  .719E+01
  .722E+01  .689E+01  .648E+01  .650E+01  .652E+01  .658E+01  .616E+01  .618E+01
  .618E+01  .619E+01  .572E+01  .572E+01  .573E+01  .573E+01  .573E+01  .573E+01
  .573E+01  .573E+01  .573E+01  .573E+01  .573E+01  .573E+01  .573E+01  .573E+01
  .573E+01  .573E+01  .573E+01  .573E+01  .573E+01  .573E+01  .573E+01  .573E+01
  .573E+01  .573E+01  .573E+01  .573E+01  .573E+01  .573E+01  .573E+01  .573E+01
  .573E+01  .573E+01  .573E+01  .000E+00  .000E+00  .000E+00  .000E+00  .000E+00
  .000E+00  .000E+00  .000E+00  .000E+00
  .592E+01  .603E+01  .603E+01  .618E+01  .618E+01  .636E+01  .640E+01  .640E+01
  .644E+01  .645E+01  .645E+01  .646E+01  .310E+01  .694E+01  .695E+01  .593E+01
  .782E+01  .791E+01  .792E+01  .603E+01  .793E+01  .794E+01  .581E+01  .582E+01
  .604E+01  .605E+01  .597E+01  .598E+01  .599E+01  .601E+01  .602E+01  .603E+01
  .590E+01  .591E+01  .592E+01  .592E+01  .593E+01  .593E+01  .594E+01  .579E+01
  .579E+01  .579E+01  .580E+01  .781E+01  .782E+01  .729E+01  .730E+01  .581E+01
  .581E+01  .581E+01  .581E+01  .581E+01  .581E+01  .581E+01  .581E+01  .581E+01
  .581E+01  .581E+01  .581E+01  .581E+01  .581E+01  .581E+01  .581E+01  .581E+01
  .581E+01  .581E+01  .581E+01  .581E+01  .581E+01  .581E+01  .581E+01  .581E+01
  .581E+01  .581E+01  .581E+01  .581E+01  .581E+01  .581E+01  .581E+01  .581E+01
  .581E+01  .581E+01  .581E+01  .581E+01  .581E+01  .581E+01  .581E+01  .581E+01
  .581E+01  .581E+01  .581E+01  .000E+00  .000E+00  .000E+00  .000E+00  .000E+00
  .000E+00  .000E+00  .000E+00  .000E+00
  .573E+01  .573E+01  .572E+01  .573E+01  .573E+01  .572E+01  .572E+01  .572E+01
  .573E+01  .574E+01  .574E+01  .574E+01  .574E+01  .574E+01  .574E+01  .574E+01
  .720E+01  .787E+01  .789E+01  .573E+01  .574E+01  .575E+01  .575E+01  .576E+01
  .588E+01  .600E+01  .602E+01  .603E+01  .593E+01  .594E+01  .594E+01  .596E+01
  .597E+01  .598E+01  .599E+01  .600E+01  .584E+01  .585E+01  .585E+01  .586E+01
  .586E+01  .587E+01  .786E+01  .733E+01  .736E+01  .739E+01  .715E+01  .718E+01
  .720E+01  .687E+01  .646E+01  .648E+01  .650E+01  .656E+01  .613E+01  .616E+01
  .617E+01  .570E+01  .570E+01  .570E+01  .570E+01  .570E+01  .570E+01  .570E+01
  .570E+01  .570E+01  .570E+01  .569E+01  .569E+01  .569E+01  .569E+01  .569E+01
  .569E+01  .569E+01  .569E+01  .569E+01  .569E+01  .569E+01  .569E+01  .568E+01
  .568E+01  .568E+01  .568E+01  .568E+01  .568E+01  .568E+01  .568E+01  .568E+01
  .568E+01  .568E+01  .568E+01  .000E+00  .000E+00  .000E+00  .000E+00  .000E+00
  .000E+00  .000E+00  .000E+00  .000E+00
/&   ----------  End of spectral data for channel  1  ----------
Response and Fourier amplitude spectra (91 periods,  .04 - 15.0 sec)   for      
Corrected accelerogram   24109-L2212-01252.03       Chan  2:   0 Deg     from   
Uncorrected Accelerogram Data             Processed: 09/10/01, CDMG  109al003   
Record of Sun Sep  9, 2001 16:59:20 PDT               (Avol1 v4.6  7/01 CSMIP)  
CSMIP Preliminary Processing            (Origin:  To be determined)             
24109-L2212-01252.03                 Start time:  9/09/01, 23:59:20.0 UTC (GPS) 
Station No. 24109   34.108N, 118.153W      Etna  s/n 2212  (3 Channels)         
South Pasadena - Fremont & Oak                                                  
Chan  2:   0 Deg                                                                
Record of Sun Sep  9, 2001 16:59:20 PDT    Sun Sep  9, 2001 16:59:20 PDT        
Hypocenter:  To be determined.               ML:  To be determined.             
Instr Period =  .0103 sec,  Damping =  .670,  Sensitivity =  .63  v/g           
                        Record length = 38.000 sec.                             
                                     Uncor Max  =  -.007 g, at   5.650 sec.     
RMS accel of (uncor) record  =        .                                         
Accelerogram bandpass filtered with 3 dB pts at   .30 and 40.00 cyc/sec         
                 instrument- and baseline-corrected                             
                                                                                
                                                                                
                                                                                
                                                                                
                                                                                
Record of Sun Sep  9, 2001 16:59:20 PDT    Sun Sep  9, 2001 16:59:20 PDT        
                                                                                
24109-L2212-01252.03      South Pasadena - Fremont & Oak    Chan  2:   0 Deg    
                                                                                
24109-L2212-01252.03      South Pasadena - Fremont & Oak    Chan  2:   0 Deg    
                                                                                
Units for spectra are inches and sec, except Sa is in fraction of g.            
                                                                                
    2  100    2    3    3  200    1    3    1   24   12 2212    024109    1    0
   23   59   20    0  252    9    9 2001   10    3    0 7600   39   30   72 -999
 7600    1   50    3 2212    1    3  380    1    0    0    0    0    0    0    0
    0    4    0    0 3800    2    0    0    0    0   72   30    0    0    0 3800
    0 3800   31   91    1    3    0    0    0    0    3    0    0    0    0    2
    2    2    4    0   32   99 -999   32   32    0    0    1    0    0    0    0
  -99   -1    0    0
      .010      .670    38.000      .001      .000   625.000     -.007     5.650
    96.700      .298      .477      .000     5.000      .000      .000      .000
     2.500   -15.780     -.005     -.013     5.000    30.000      .000     -.002
      .001      .003     2.000    15.000    34.108  -118.153      .021      .092
     4.374     -.002      .008  -999.000      .000      .000   -13.400      .000
  1000.000     1.004      .000      .000      .000      .000      .000      .000
     4.600     4.400      .000   980.665      .010    38.000    15.390      .000
      .000    40.000      .000    38.000      .010      .300      .000      .000
     5.650    -7.088     5.680     -.227     5.750     -.012      .000      .300
    40.000      .010      .010      .000      .010      .006      .000      .000
      .028      .220      .025      .018      .001      .000      .000      .000
      .000      .000      .000      .000      .000      .000      .000      .000
      .000      .000      .000      .000
      .050
      .040      .042      .044      .046      .048      .050      .055      .060
      .065      .070      .075      .080      .085      .090      .095      .100
      .110      .120      .130      .140      .150      .160      .170      .180
      .190      .200      .220      .240      .260      .280      .300      .320
      .340      .360      .380      .400      .420      .440      .460      .480
      .500      .550      .600      .650      .700      .750      .800      .850
      .900      .950     1.000     1.100     1.200     1.300     1.400     1.500
     1.600     1.700     1.800     1.900     2.000     2.200     2.400     2.600
     2.800     3.000     3.200     3.400     3.600     3.800     4.000     4.200
     4.400     4.600     4.800     5.000     5.500     6.000     6.500     7.000
     7.500     8.000     8.500     9.000     9.500    10.000    11.000    12.000
    13.000    14.000    15.000      .000      .000      .000      .000      .000
      .000      .000      .000      .000
Fourier amplitude spectra in in/sec.
  .000E+00  .000E+00  .000E+00  .000E+00  .000E+00  .000E+00  .000E+00  .000E+00
  .000E+00  .000E+00  .000E+00  .000E+00  .000E+00  .000E+00  .000E+00  .000E+00
  .000E+00  .000E+00  .000E+00  .000E+00  .000E+00  .000E+00  .000E+00  .000E+00
  .000E+00  .000E+00  .000E+00  .000E+00  .000E+00  .000E+00  .000E+00  .000E+00
  .000E+00  .000E+00  .000E+00  .000E+00  .000E+00  .000E+00  .000E+00  .000E+00
  .000E+00  .000E+00  .000E+00  .000E+00  .000E+00  .000E+00  .000E+00  .000E+00
  .000E+00  .000E+00  .000E+00  .000E+00  .000E+00  .000E+00  .000E+00  .000E+00
  .000E+00  .000E+00  .000E+00  .000E+00  .000E+00  .000E+00  .000E+00  .000E+00
  .000E+00  .000E+00  .000E+00  .000E+00  .000E+00  .000E+00  .000E+00  .000E+00
  .000E+00  .000E+00  .000E+00  .000E+00  .000E+00  .000E+00  .000E+00  .000E+00
  .000E+00  .000E+00  .000E+00  .000E+00  .000E+00  .000E+00  .000E+00  .000E+00
  .000E+00  .000E+00  .000E+00  .000E+00  .000E+00  .000E+00  .000E+00  .000E+00
  .000E+00  .000E+00  .000E+00  .000E+00
Damping =  .05. Data of Sd,Sv,Sa,Pssv,ttSd,ttSv,ttSa :
  .119E-03  .143E-03  .158E-03  .159E-03  .179E-03  .216E-03  .264E-03  .434E-03
  .642E-03  .784E-03  .106E-02  .118E-02  .140E-02  .111E-02  .110E-02  .135E-02
  .202E-02  .272E-02  .314E-02  .458E-02  .500E-02  .512E-02  .591E-02  .726E-02
  .825E-02  .978E-02  .131E-01  .138E-01  .141E-01  .149E-01  .168E-01  .147E-01
  .112E-01  .779E-02  .674E-02  .716E-02  .765E-02  .766E-02  .785E-02  .761E-02
