Response and Fourier amplitude spectra (91 periods,  .04 - 15.0 sec)   for      
Corrected accelerogram   24723-M0130-01253.01       Chan  2:  Up         from   
Uncorrected Accelerogram Data             Processed: 09/10/01, CDMG  td001      
Record of Sun Sep  9, 2001 16:59:20 PDT               (Avol1 v4.6  7/01 CSMIP)  
CSMIP Preliminary Processing            (Origin:  To be determined)             
24723-M0130-01253.01                 Start time:  9/09/01, 23:59:20.0 UTC (GPS) 
Station No. 24723   34.049N, 118.176W    MtWtny  s/n  130 (15 Channels)         
Los Angeles - 2-story County EOC Bldg                                           
Chan  2:  Up                        Location: 1st Floor: SE Crnr(above isolator)
Record of Sun Sep  9, 2001 16:59:20 PDT    Sun Sep  9, 2001 16:59:20 PDT        
Hypocenter:  To be determined.               ML:  To be determined.
Instr Period =  .0200 sec,  Damping =  .700,  Sensitivity =  .63  v/g
                        Record length = 44.000 sec.
                                     Uncor Max  =   .010 g, at   6.185 sec.
RMS accel of (uncor) record  =        .
Accelerogram bandpass filtered with 3 dB pts at   .30 and 40.00 cyc/sec
                 instrument- and baseline-corrected





Record of Sun Sep  9, 2001 16:59:20 PDT    Sun Sep  9, 2001 16:59:20 PDT

24723-M0130-01253.01      Los Angeles - 2-story County EOC Bldg   Chan  2:  Up

24723-M0130-01253.01      Los Angeles - 2-story County EOC Bldg   Chan  2:  Up

Units for spectra are inches and sec, except Sa is in fraction of g.

    2  100    2   15   15  200    1    3    1   24   13  130    024723    2    0
   23   59   20    0  252    9    9 2001   10    3  500 8800   39   37   72   14
 8800    0   50    3  130    1    1  440    1    0    0    0    0    0    0    0
    0    4    0    0 4400    2    0    0    0    0   72   37    0    0    0 4400
    0 4400   38   91    1   15    0    0    0    0   15    0    0    0    0    2
    2    2    4    0   71   99    0   32   32    0    0    1    0    0    0    0
  -99   -1    0    0
      .020      .700    44.000      .001      .000   625.000      .010     6.185
    50.000      .298      .477      .000     5.000      .000      .000      .000
     2.500   -51.398     -.026     -.039     5.000    30.000      .000     -.005
      .005      .010     2.000    15.000    34.049  -118.176      .061      .174
     2.831     -.002      .021  -999.000      .000      .000   -13.100      .000
  1000.000    -1.002      .000      .000      .000      .000      .000      .000
     4.600     4.400      .000   980.665      .010    44.000     7.958      .000
      .000    40.000      .000    44.000      .010      .300      .000      .000
     6.180    10.110     6.150     -.314    12.560     -.017      .000      .300
    40.000      .010      .010      .000      .010      .011      .000      .000
      .040      .120      .031      .012      .001      .000      .000      .000
      .000      .000      .000      .000      .000      .000      .000      .000
      .000      .000      .000      .000
      .050
      .040      .042      .044      .046      .048      .050      .055      .060
      .065      .070      .075      .080      .085      .090      .095      .100
      .110      .120      .130      .140      .150      .160      .170      .180
      .190      .200      .220      .240      .260      .280      .300      .320
      .340      .360      .380      .400      .420      .440      .460      .480
      .500      .550      .600      .650      .700      .750      .800      .850
      .900      .950     1.000     1.100     1.200     1.300     1.400     1.500
     1.600     1.700     1.800     1.900     2.000     2.200     2.400     2.600
     2.800     3.000     3.200     3.400     3.600     3.800     4.000     4.200
     4.400     4.600     4.800     5.000     5.500     6.000     6.500     7.000
     7.500     8.000     8.500     9.000     9.500    10.000    11.000    12.000
    13.000    14.000    15.000      .000      .000      .000      .000      .000
      .000      .000      .000      .000
Fourier amplitude spectra in in/sec.
  .000E+00  .000E+00  .000E+00  .000E+00  .000E+00  .000E+00  .000E+00  .000E+00
  .000E+00  .000E+00  .000E+00  .000E+00  .000E+00  .000E+00  .000E+00  .000E+00
  .000E+00  .000E+00  .000E+00  .000E+00  .000E+00  .000E+00  .000E+00  .000E+00
  .000E+00  .000E+00  .000E+00  .000E+00  .000E+00  .000E+00  .000E+00  .000E+00
  .000E+00  .000E+00  .000E+00  .000E+00  .000E+00  .000E+00  .000E+00  .000E+00
  .000E+00  .000E+00  .000E+00  .000E+00  .000E+00  .000E+00  .000E+00  .000E+00
  .000E+00  .000E+00  .000E+00  .000E+00  .000E+00  .000E+00  .000E+00  .000E+00
  .000E+00  .000E+00  .000E+00  .000E+00  .000E+00  .000E+00  .000E+00  .000E+00
  .000E+00  .000E+00  .000E+00  .000E+00  .000E+00  .000E+00  .000E+00  .000E+00
  .000E+00  .000E+00  .000E+00  .000E+00  .000E+00  .000E+00  .000E+00  .000E+00
  .000E+00  .000E+00  .000E+00  .000E+00  .000E+00  .000E+00  .000E+00  .000E+00
  .000E+00  .000E+00  .000E+00  .000E+00  .000E+00  .000E+00  .000E+00  .000E+00
  .000E+00  .000E+00  .000E+00  .000E+00
Damping =  .05. Data of Sd,Sv,Sa,Pssv,ttSd,ttSv,ttSa :
  .177E-03  .203E-03  .227E-03  .256E-03  .284E-03  .308E-03  .438E-03  .560E-03
  .858E-03  .110E-02  .136E-02  .167E-02  .167E-02  .188E-02  .202E-02  .211E-02
  .313E-02  .556E-02  .542E-02  .494E-02  .670E-02  .873E-02  .109E-01  .118E-01
  .122E-01  .127E-01  .122E-01  .118E-01  .891E-02  .841E-02  .112E-01  .115E-01
  .130E-01  .120E-01  .103E-01  .984E-02  .106E-01  .139E-01  .190E-01  .180E-01
  .162E-01  .157E-01  .147E-01  .137E-01  .159E-01  .164E-01  .128E-01  .116E-01
  .119E-01  .120E-01  .114E-01  .148E-01  .172E-01  .121E-01  .989E-02  .960E-02
  .993E-02  .932E-02  .885E-02  .876E-02  .109E-01  .141E-01  .124E-01  .107E-01
  .104E-01  .103E-01  .956E-02  .848E-02  .808E-02  .721E-02  .696E-02  .675E-02
  .651E-02  .627E-02  .606E-02  .603E-02  .607E-02  .606E-02  .604E-02  .601E-02
  .611E-02  .614E-02  .611E-02  .607E-02  .602E-02  .598E-02  .598E-02  .601E-02
  .603E-02  .607E-02  .611E-02  .000E+00  .000E+00  .000E+00  .000E+00  .000E+00
  .000E+00  .000E+00  .000E+00  .000E+00
  .948E-02  .101E-01  .114E-01  .134E-01  .159E-01  .179E-01  .241E-01  .330E-01
  .661E-01  .874E-01  .991E-01  .119E+00  .109E+00  .106E+00  .118E+00  .116E+00
  .166E+00  .285E+00  .239E+00  .205E+00  .268E+00  .322E+00  .369E+00  .394E+00
  .405E+00  .415E+00  .378E+00  .350E+00  .282E+00  .260E+00  .297E+00  .272E+00
  .268E+00  .277E+00  .234E+00  .223E+00  .220E+00  .221E+00  .267E+00  .257E+00
  .226E+00  .243E+00  .174E+00  .164E+00  .170E+00  .162E+00  .158E+00  .159E+00
  .157E+00  .152E+00  .150E+00  .151E+00  .146E+00  .139E+00  .135E+00  .132E+00
  .129E+00  .127E+00  .125E+00  .124E+00  .123E+00  .124E+00  .125E+00  .126E+00
  .126E+00  .126E+00  .126E+00  .126E+00  .126E+00  .125E+00  .125E+00  .125E+00
  .125E+00  .125E+00  .125E+00  .124E+00  .124E+00  .124E+00  .124E+00  .124E+00
  .124E+00  .123E+00  .123E+00  .123E+00  .123E+00  .123E+00  .123E+00  .123E+00
  .123E+00  .123E+00  .123E+00  .000E+00  .000E+00  .000E+00  .000E+00  .000E+00
  .000E+00  .000E+00  .000E+00  .000E+00
  .113E-01  .118E-01  .120E-01  .124E-01  .126E-01  .127E-01  .149E-01  .158E-01
  .206E-01  .232E-01  .249E-01  .265E-01  .235E-01  .240E-01  .229E-01  .215E-01
  .268E-01  .401E-01  .327E-01  .257E-01  .310E-01  .352E-01  .388E-01  .374E-01
  .347E-01  .324E-01  .259E-01  .210E-01  .136E-01  .110E-01  .127E-01  .117E-01
  .116E-01  .958E-02  .735E-02  .639E-02  .621E-02  .741E-02  .922E-02  .800E-02
  .666E-02  .535E-02  .422E-02  .333E-02  .333E-02  .300E-02  .207E-02  .165E-02
  .152E-02  .137E-02  .118E-02  .127E-02  .124E-02  .743E-03  .526E-03  .450E-03
  .409E-03  .349E-03  .298E-03  .261E-03  .288E-03  .310E-03  .235E-03  .175E-03
  .149E-03  .130E-03  .108E-03  .909E-04  .826E-04  .755E-04  .692E-04  .638E-04
  .592E-04  .551E-04  .516E-04  .486E-04  .426E-04  .381E-04  .345E-04  .315E-04
  .290E-04  .269E-04  .250E-04  .234E-04  .220E-04  .207E-04  .185E-04  .167E-04
  .154E-04  .143E-04  .133E-04  .000E+00  .000E+00  .000E+00  .000E+00  .000E+00
  .000E+00  .000E+00  .000E+00  .000E+00
  .278E-01  .304E-01  .324E-01  .350E-01  .372E-01  .387E-01  .501E-01  .587E-01
  .829E-01  .987E-01  .114E+00  .131E+00  .124E+00  .132E+00  .134E+00  .133E+00
  .179E+00  .291E+00  .262E+00  .222E+00  .281E+00  .343E+00  .401E+00  .410E+00
  .405E+00  .399E+00  .349E+00  .309E+00  .215E+00  .189E+00  .234E+00  .227E+00
  .240E+00  .209E+00  .171E+00  .155E+00  .159E+00  .199E+00  .260E+00  .235E+00
  .203E+00  .180E+00  .154E+00  .132E+00  .142E+00  .137E+00  .101E+00  .854E-01
  .833E-01  .793E-01  .714E-01  .848E-01  .900E-01  .583E-01  .444E-01  .402E-01
  .390E-01  .345E-01  .309E-01  .290E-01  .341E-01  .401E-01  .325E-01  .258E-01
  .234E-01  .216E-01  .188E-01  .157E-01  .141E-01  .119E-01  .109E-01  .101E-01
  .929E-02  .856E-02  .793E-02  .758E-02  .693E-02  .635E-02  .584E-02  .540E-02
  .512E-02  .482E-02  .452E-02  .423E-02  .398E-02  .376E-02  .341E-02  .315E-02
  .292E-02  .272E-02  .256E-02  .000E+00  .000E+00  .000E+00  .000E+00  .000E+00
  .000E+00  .000E+00  .000E+00  .000E+00
  .636E+01  .618E+01  .618E+01  .618E+01  .618E+01  .617E+01  .617E+01  .618E+01
  .659E+01  .659E+01  .619E+01  .664E+01  .665E+01  .636E+01  .638E+01  .620E+01
  .788E+01  .790E+01  .750E+01  .610E+01  .637E+01  .638E+01  .639E+01  .640E+01
  .641E+01  .642E+01  .644E+01  .635E+01  .636E+01  .636E+01  .626E+01  .627E+01
  .627E+01  .629E+01  .128E+02  .616E+01  .103E+02  .128E+02  .129E+02  .129E+02
  .129E+02  .129E+02  .849E+01  .140E+02  .137E+02  .134E+02  .176E+02  .173E+02
  .162E+02  .158E+02  .159E+02  .132E+02  .128E+02  .125E+02  .106E+02  .102E+02
  .151E+02  .128E+02  .128E+02  .102E+02  .125E+02  .126E+02  .126E+02  .126E+02
  .126E+02  .126E+02  .126E+02  .133E+02  .133E+02  .118E+02  .102E+02  .102E+02
  .102E+02  .102E+02  .102E+02  .606E+01  .606E+01  .606E+01  .606E+01  .606E+01
  .126E+02  .126E+02  .126E+02  .126E+02  .126E+02  .126E+02  .606E+01  .606E+01
  .606E+01  .606E+01  .606E+01  .000E+00  .000E+00  .000E+00  .000E+00  .000E+00
  .000E+00  .000E+00  .000E+00  .000E+00
  .615E+01  .656E+01  .656E+01  .548E+01  .549E+01  .493E+01  .615E+01  .656E+01
  .657E+01  .661E+01  .719E+01  .663E+01  .667E+01  .639E+01  .640E+01  .289E+01
  .791E+01  .793E+01  .753E+01  .794E+01  .641E+01  .642E+01  .643E+01  .636E+01
  .637E+01  .637E+01  .638E+01  .630E+01  .631E+01  .631E+01  .632E+01  .632E+01
  .621E+01  .622E+01  .623E+01  .623E+01  .623E+01  .116E+02  .128E+02  .128E+02
  .128E+02  .853E+01  .101E+02  .613E+01  .614E+01  .614E+01  .614E+01  .614E+01
  .614E+01  .614E+01  .614E+01  .614E+01  .614E+01  .614E+01  .614E+01  .614E+01
  .614E+01  .614E+01  .614E+01  .614E+01  .614E+01  .614E+01  .614E+01  .614E+01
  .614E+01  .614E+01  .614E+01  .614E+01  .614E+01  .614E+01  .614E+01  .614E+01
  .614E+01  .614E+01  .614E+01  .614E+01  .614E+01  .614E+01  .614E+01  .614E+01
  .614E+01  .614E+01  .614E+01  .614E+01  .614E+01  .614E+01  .614E+01  .614E+01
  .614E+01  .614E+01  .614E+01  .000E+00  .000E+00  .000E+00  .000E+00  .000E+00
  .000E+00  .000E+00  .000E+00  .000E+00
  .636E+01  .618E+01  .618E+01  .618E+01  .618E+01  .617E+01  .617E+01  .617E+01
  .659E+01  .659E+01  .619E+01  .664E+01  .665E+01  .636E+01  .638E+01  .620E+01
  .788E+01  .789E+01  .749E+01  .798E+01  .637E+01  .638E+01  .639E+01  .640E+01
  .641E+01  .642E+01  .765E+01  .635E+01  .635E+01  .635E+01  .626E+01  .626E+01
  .627E+01  .628E+01  .128E+02  .616E+01  .103E+02  .128E+02  .129E+02  .129E+02
  .129E+02  .129E+02  .848E+01  .140E+02  .137E+02  .134E+02  .176E+02  .173E+02
  .162E+02  .158E+02  .159E+02  .132E+02  .128E+02  .125E+02  .106E+02  .102E+02
  .150E+02  .127E+02  .127E+02  .102E+02  .125E+02  .125E+02  .125E+02  .125E+02
  .125E+02  .125E+02  .125E+02  .633E+01  .633E+01  .633E+01  .633E+01  .633E+01
  .633E+01  .633E+01  .633E+01  .632E+01  .632E+01  .632E+01  .632E+01  .632E+01
  .632E+01  .632E+01  .632E+01  .632E+01  .632E+01  .632E+01  .632E+01  .632E+01
  .614E+01  .614E+01  .614E+01  .000E+00  .000E+00  .000E+00  .000E+00  .000E+00
  .000E+00  .000E+00  .000E+00  .000E+00
/&   ----------  End of spectral data for channel  2  ----------
