Response and Fourier amplitude spectra (91 periods,  .04 - 15.0 sec)   for      
Corrected accelerogram   24814-L1806-01250.06       Chan  1: 356 Deg     from   
Uncorrected Accelerogram Data             Processed: 09/10/01, CDMG  at006      
Record of Sun Sep  9, 2001 16:59:19 PDT               (Avol1 v4.6  7/01 CSMIP)  
CSMIP Preliminary Processing            (Origin:  To be determined)             
24814-L1806-01250.06                 Start time:  9/09/01, 23:59:19.0 UTC (GPS) 
Station No. 24814   34.140N, 118.210W      Etna  s/n 1806  (3 Channels)         
Los Angeles - Colorado & Eagle Rock                                             
Chan  1: 356 Deg                                                                
Record of Sun Sep  9, 2001 16:59:19 PDT    Sun Sep  9, 2001 16:59:19 PDT        
Hypocenter:  To be determined.               ML:  To be determined.             
Instr Period =  .0107 sec,  Damping =  .670,  Sensitivity =  .63  v/g           
                        Record length = 38.000 sec.                             
                                     Uncor Max  =  -.022 g, at   5.630 sec.     
RMS accel of (uncor) record  =        .                                         
Accelerogram bandpass filtered with 3 dB pts at   .30 and 40.00 cyc/sec         
                 instrument- and baseline-corrected                             
                                                                                
                                                                                
                                                                                
                                                                                
                                                                                
Record of Sun Sep  9, 2001 16:59:19 PDT    Sun Sep  9, 2001 16:59:19 PDT        
                                                                                
24814-L1806-01250.06      Los Angeles - Colorado & Eagle Rock   Chan  1: 356 Deg
                                                                                
24814-L1806-01250.06      Los Angeles - Colorado & Eagle Rock   Chan  1: 356 Deg
                                                                                
Units for spectra are inches and sec, except Sa is in fraction of g.            
                                                                                
    1  100    1    3    3  200    1    3    1   24   12 1806    024814    1    0
   23   59   19    0  252    9    9 2001   10    3  356 7600   39   35   72  356
 7600    1   50    3 1806    1    6  380    1    0    0    0    0    0    0    0
    0    4    0    0 3800    2    0    0    0    0   72   35    0    0    0 3800
    0 3800   36   91    1    3    0    0    0    0    3    0    0    0    0    2
    2    2    4    0   32   99    0   32   32    0    0    1    0    0    0    0
  -99   -1    0    0
      .011      .670    38.000      .002      .000   625.000     -.022     5.630
    93.300      .298      .477      .000     5.000      .000      .000      .000
     2.500   -13.698      .005     -.019     5.000    30.000      .000      .002
     -.001     -.003     2.000    15.000    34.140  -118.210      .015      .140
     9.313     -.010      .004  -999.000      .000      .000   -13.400      .000
  1000.000     1.004      .000      .000      .000      .000      .000      .000
     4.600     4.400      .000   980.665      .010    38.000    14.849      .000
      .000    40.000      .000    38.000      .010      .300      .000      .000
     5.630   -22.117     5.410      .516     5.340     -.031      .000      .300
    40.000      .010      .010      .000      .010      .008      .000      .000
      .069      .160      .050      .029      .002      .000      .000      .000
      .000      .000      .000      .000      .000      .000      .000      .000
      .000      .000      .000      .000
      .050
      .040      .042      .044      .046      .048      .050      .055      .060
      .065      .070      .075      .080      .085      .090      .095      .100
      .110      .120      .130      .140      .150      .160      .170      .180
      .190      .200      .220      .240      .260      .280      .300      .320
      .340      .360      .380      .400      .420      .440      .460      .480
      .500      .550      .600      .650      .700      .750      .800      .850
      .900      .950     1.000     1.100     1.200     1.300     1.400     1.500
     1.600     1.700     1.800     1.900     2.000     2.200     2.400     2.600
     2.800     3.000     3.200     3.400     3.600     3.800     4.000     4.200
     4.400     4.600     4.800     5.000     5.500     6.000     6.500     7.000
     7.500     8.000     8.500     9.000     9.500    10.000    11.000    12.000
    13.000    14.000    15.000      .000      .000      .000      .000      .000
      .000      .000      .000      .000
Fourier amplitude spectra in in/sec.
  .000E+00  .000E+00  .000E+00  .000E+00  .000E+00  .000E+00  .000E+00  .000E+00
  .000E+00  .000E+00  .000E+00  .000E+00  .000E+00  .000E+00  .000E+00  .000E+00
  .000E+00  .000E+00  .000E+00  .000E+00  .000E+00  .000E+00  .000E+00  .000E+00
  .000E+00  .000E+00  .000E+00  .000E+00  .000E+00  .000E+00  .000E+00  .000E+00
  .000E+00  .000E+00  .000E+00  .000E+00  .000E+00  .000E+00  .000E+00  .000E+00
  .000E+00  .000E+00  .000E+00  .000E+00  .000E+00  .000E+00  .000E+00  .000E+00
  .000E+00  .000E+00  .000E+00  .000E+00  .000E+00  .000E+00  .000E+00  .000E+00
  .000E+00  .000E+00  .000E+00  .000E+00  .000E+00  .000E+00  .000E+00  .000E+00
  .000E+00  .000E+00  .000E+00  .000E+00  .000E+00  .000E+00  .000E+00  .000E+00
  .000E+00  .000E+00  .000E+00  .000E+00  .000E+00  .000E+00  .000E+00  .000E+00
  .000E+00  .000E+00  .000E+00  .000E+00  .000E+00  .000E+00  .000E+00  .000E+00
  .000E+00  .000E+00  .000E+00  .000E+00  .000E+00  .000E+00  .000E+00  .000E+00
  .000E+00  .000E+00  .000E+00  .000E+00
Damping =  .05. Data of Sd,Sv,Sa,Pssv,ttSd,ttSv,ttSa :
  .427E-03  .476E-03  .531E-03  .632E-03  .762E-03  .869E-03  .121E-02  .156E-02
  .184E-02  .190E-02  .273E-02  .323E-02  .360E-02  .448E-02  .542E-02  .594E-02
  .646E-02  .812E-02  .107E-01  .128E-01  .147E-01  .174E-01  .171E-01  .177E-01
  .180E-01  .192E-01  .236E-01  .259E-01  .258E-01  .250E-01  .240E-01  .265E-01
  .247E-01  .266E-01  .240E-01  .209E-01  .197E-01  .207E-01  .229E-01  .237E-01
  .231E-01  .220E-01  .202E-01  .180E-01  .162E-01  .154E-01  .158E-01  .173E-01
  .179E-01  .165E-01  .140E-01  .136E-01  .132E-01  .137E-01  .138E-01  .140E-01
  .140E-01  .138E-01  .137E-01  .137E-01  .138E-01  .144E-01  .149E-01  .153E-01
  .154E-01  .154E-01  .154E-01  .153E-01  .151E-01  .150E-01  .149E-01  .148E-01
  .146E-01  .145E-01  .144E-01  .143E-01  .141E-01  .139E-01  .138E-01  .136E-01
  .135E-01  .134E-01  .134E-01  .133E-01  .133E-01  .132E-01  .132E-01  .131E-01
  .131E-01  .130E-01  .130E-01  .000E+00  .000E+00  .000E+00  .000E+00  .000E+00
  .000E+00  .000E+00  .000E+00  .000E+00
  .259E-01  .278E-01  .339E-01  .432E-01  .513E-01  .563E-01  .870E-01  .132E+00
  .132E+00  .120E+00  .178E+00  .203E+00  .219E+00  .268E+00  .318E+00  .352E+00
  .355E+00  .405E+00  .498E+00  .553E+00  .608E+00  .661E+00  .620E+00  .646E+00
  .681E+00  .736E+00  .745E+00  .677E+00  .736E+00  .698E+00  .611E+00  .543E+00
  .580E+00  .500E+00  .526E+00  .488E+00  .449E+00  .450E+00  .451E+00  .423E+00
  .384E+00  .325E+00  .324E+00  .308E+00  .294E+00  .279E+00  .275E+00  .281E+00
  .286E+00  .283E+00  .275E+00  .257E+00  .249E+00  .245E+00  .241E+00  .236E+00
  .231E+00  .227E+00  .225E+00  .224E+00  .223E+00  .220E+00  .218E+00  .215E+00
  .213E+00  .211E+00  .209E+00  .208E+00  .207E+00  .206E+00  .205E+00  .205E+00
  .204E+00  .204E+00  .204E+00  .204E+00  .203E+00  .203E+00  .203E+00  .203E+00
  .202E+00  .202E+00  .202E+00  .202E+00  .202E+00  .202E+00  .202E+00  .202E+00
  .202E+00  .202E+00  .202E+00  .000E+00  .000E+00  .000E+00  .000E+00  .000E+00
  .000E+00  .000E+00  .000E+00  .000E+00
  .272E-01  .276E-01  .280E-01  .306E-01  .338E-01  .358E-01  .407E-01  .443E-01
  .444E-01  .398E-01  .503E-01  .521E-01  .507E-01  .569E-01  .613E-01  .620E-01
  .543E-01  .582E-01  .649E-01  .669E-01  .664E-01  .690E-01  .610E-01  .555E-01
  .519E-01  .495E-01  .500E-01  .462E-01  .390E-01  .328E-01  .274E-01  .268E-01
  .219E-01  .212E-01  .171E-01  .135E-01  .116E-01  .111E-01  .112E-01  .106E-01
  .960E-02  .756E-02  .586E-02  .446E-02  .348E-02  .288E-02  .260E-02  .251E-02
  .233E-02  .193E-02  .149E-02  .119E-02  .980E-03  .868E-03  .755E-03  .671E-03
  .591E-03  .520E-03  .463E-03  .420E-03  .387E-03  .338E-03  .299E-03  .265E-03
  .235E-03  .208E-03  .186E-03  .168E-03  .152E-03  .138E-03  .127E-03  .117E-03
  .108E-03  .101E-03  .938E-04  .878E-04  .755E-04  .661E-04  .586E-04  .526E-04
  .476E-04  .435E-04  .401E-04  .372E-04  .347E-04  .325E-04  .288E-04  .259E-04
  .237E-04  .219E-04  .205E-04  .000E+00  .000E+00  .000E+00  .000E+00  .000E+00
  .000E+00  .000E+00  .000E+00  .000E+00
  .670E-01  .712E-01  .758E-01  .864E-01  .998E-01  .109E+00  .138E+00  .163E+00
  .178E+00  .171E+00  .229E+00  .253E+00  .266E+00  .313E+00  .359E+00  .373E+00
  .369E+00  .425E+00  .517E+00  .573E+00  .617E+00  .683E+00  .634E+00  .618E+00
  .596E+00  .602E+00  .673E+00  .679E+00  .624E+00  .561E+00  .502E+00  .520E+00
  .456E+00  .464E+00  .397E+00  .329E+00  .294E+00  .295E+00  .313E+00  .311E+00
  .290E+00  .252E+00  .212E+00  .174E+00  .146E+00  .129E+00  .124E+00  .128E+00
  .125E+00  .109E+00  .880E-01  .777E-01  .692E-01  .661E-01  .618E-01  .588E-01
  .550E-01  .510E-01  .477E-01  .452E-01  .434E-01  .410E-01  .390E-01  .369E-01
  .346E-01  .323E-01  .302E-01  .282E-01  .264E-01  .248E-01  .234E-01  .221E-01
  .209E-01  .198E-01  .189E-01  .180E-01  .161E-01  .146E-01  .133E-01  .122E-01
  .113E-01  .106E-01  .988E-02  .929E-02  .877E-02  .830E-02  .751E-02  .686E-02
  .632E-02  .585E-02  .546E-02  .000E+00  .000E+00  .000E+00  .000E+00  .000E+00
  .000E+00  .000E+00  .000E+00  .000E+00
  .563E+01  .563E+01  .563E+01  .563E+01  .563E+01  .563E+01  .563E+01  .563E+01
  .568E+01  .568E+01  .568E+01  .568E+01  .569E+01  .569E+01  .569E+01  .569E+01
  .576E+01  .577E+01  .578E+01  .579E+01  .580E+01  .613E+01  .656E+01  .567E+01
  .568E+01  .568E+01  .561E+01  .562E+01  .563E+01  .553E+01  .554E+01  .651E+01
  .640E+01  .608E+01  .556E+01  .543E+01  .544E+01  .544E+01  .544E+01  .544E+01
  .545E+01  .545E+01  .546E+01  .546E+01  .546E+01  .546E+01  .546E+01  .600E+01
  .600E+01  .601E+01  .531E+01  .531E+01  .576E+01  .576E+01  .532E+01  .532E+01
  .532E+01  .532E+01  .532E+01  .532E+01  .532E+01  .533E+01  .533E+01  .533E+01
  .533E+01  .533E+01  .533E+01  .533E+01  .533E+01  .533E+01  .533E+01  .533E+01
  .533E+01  .533E+01  .533E+01  .533E+01  .533E+01  .533E+01  .533E+01  .533E+01
  .533E+01  .533E+01  .533E+01  .533E+01  .533E+01  .533E+01  .533E+01  .533E+01
  .533E+01  .533E+01  .533E+01  .000E+00  .000E+00  .000E+00  .000E+00  .000E+00
  .000E+00  .000E+00  .000E+00  .000E+00
  .561E+01  .561E+01  .561E+01  .561E+01  .561E+01  .561E+01  .564E+01  .565E+01
  .566E+01  .566E+01  .566E+01  .571E+01  .571E+01  .571E+01  .572E+01  .572E+01
  .573E+01  .573E+01  .581E+01  .582E+01  .576E+01  .617E+01  .570E+01  .571E+01
  .564E+01  .564E+01  .565E+01  .557E+01  .558E+01  .559E+01  .559E+01  .645E+01
  .647E+01  .549E+01  .550E+01  .550E+01  .551E+01  .551E+01  .551E+01  .551E+01
  .551E+01  .539E+01  .539E+01  .539E+01  .540E+01  .540E+01  .540E+01  .540E+01
  .540E+01  .540E+01  .540E+01  .540E+01  .540E+01  .540E+01  .540E+01  .540E+01
  .540E+01  .540E+01  .540E+01  .540E+01  .540E+01  .540E+01  .540E+01  .540E+01
  .540E+01  .540E+01  .540E+01  .540E+01  .540E+01  .540E+01  .540E+01  .540E+01
  .540E+01  .540E+01  .540E+01  .540E+01  .540E+01  .540E+01  .540E+01  .540E+01
  .540E+01  .540E+01  .540E+01  .540E+01  .540E+01  .540E+01  .540E+01  .540E+01
  .540E+01  .540E+01  .540E+01  .000E+00  .000E+00  .000E+00  .000E+00  .000E+00
  .000E+00  .000E+00  .000E+00  .000E+00
  .563E+01  .563E+01  .563E+01  .562E+01  .563E+01  .563E+01  .563E+01  .563E+01
  .568E+01  .568E+01  .568E+01  .568E+01  .568E+01  .569E+01  .569E+01  .569E+01
  .570E+01  .576E+01  .577E+01  .578E+01  .579E+01  .612E+01  .656E+01  .567E+01
  .567E+01  .568E+01  .560E+01  .561E+01  .563E+01  .553E+01  .553E+01  .651E+01
  .640E+01  .608E+01  .556E+01  .543E+01  .543E+01  .543E+01  .543E+01  .544E+01
  .544E+01  .544E+01  .545E+01  .545E+01  .545E+01  .545E+01  .545E+01  .599E+01
  .599E+01  .600E+01  .600E+01  .529E+01  .574E+01  .574E+01  .575E+01  .529E+01
  .529E+01  .529E+01  .528E+01  .528E+01  .528E+01  .528E+01  .528E+01  .528E+01
  .528E+01  .528E+01  .527E+01  .527E+01  .527E+01  .527E+01  .527E+01  .527E+01
  .527E+01  .527E+01  .527E+01  .527E+01  .527E+01  .527E+01  .527E+01  .527E+01
  .527E+01  .526E+01  .526E+01  .526E+01  .526E+01  .526E+01  .526E+01  .551E+01
  .551E+01  .551E+01  .541E+01  .000E+00  .000E+00  .000E+00  .000E+00  .000E+00
  .000E+00  .000E+00  .000E+00  .000E+00
/&   ----------  End of spectral data for channel  1  ----------
Response and Fourier amplitude spectra (91 periods,  .04 - 15.0 sec)   for      
Corrected accelerogram   24814-L1806-01250.06       Chan  2:  Up         from   
Uncorrected Accelerogram Data             Processed: 09/10/01, CDMG  at006      
Record of Sun Sep  9, 2001 16:59:19 PDT               (Avol1 v4.6  7/01 CSMIP)  
CSMIP Preliminary Processing            (Origin:  To be determined)             
24814-L1806-01250.06                 Start time:  9/09/01, 23:59:19.0 UTC (GPS) 
Station No. 24814   34.140N, 118.210W      Etna  s/n 1806  (3 Channels)         
Los Angeles - Colorado & Eagle Rock                                             
Chan  2:  Up                                                                    
Record of Sun Sep  9, 2001 16:59:19 PDT    Sun Sep  9, 2001 16:59:19 PDT        
Hypocenter:  To be determined.               ML:  To be determined.             
Instr Period =  .0107 sec,  Damping =  .670,  Sensitivity =  .63  v/g           
                        Record length = 38.000 sec.                             
                                     Uncor Max  =  -.021 g, at   2.570 sec.     
RMS accel of (uncor) record  =        .                                         
Accelerogram bandpass filtered with 3 dB pts at   .30 and 40.00 cyc/sec         
                 instrument- and baseline-corrected                             
                                                                                
                                                                                
                                                                                
                                                                                
                                                                                
Record of Sun Sep  9, 2001 16:59:19 PDT    Sun Sep  9, 2001 16:59:19 PDT        
                                                                                
24814-L1806-01250.06      Los Angeles - Colorado & Eagle Rock   Chan  2:  Up    
                                                                                
24814-L1806-01250.06      Los Angeles - Colorado & Eagle Rock   Chan  2:  Up    
                                                                                
Units for spectra are inches and sec, except Sa is in fraction of g.            
                                                                                
    2  100    2    3    3  200    1    3    1   24   12 1806    024814    1    0
   23   59   19    0  252    9    9 2001   10    3  500 7600   39   35   72  356
 7600    1   50    3 1806    1    6  380    1    0    0    0    0    0    0    0
    0    4    0    0 3800    2    0    0    0    0   72   35    0    0    0 3800
    0 3800   36   91    1    3    0    0    0    0    3    0    0    0    0    2
    2    2    4    0   32   99    0   32   32    0    0    1    0    0    0    0
  -99   -1    0    0
      .011      .670    38.000      .002      .000   625.000     -.021     2.570
    93.600      .298      .477      .000     5.000      .000      .000      .000
     2.500   -47.694     -.017     -.041     5.000    30.000      .000      .000
      .000      .000     2.000    15.000    34.140  -118.210      .022      .160
     7.291     -.008      .008  -999.000      .000      .000   -13.400      .000
  1000.000     1.009      .000      .000      .000      .000      .000      .000
     4.600     4.400      .000   980.665      .010    38.000    14.897      .000
      .000    40.000      .000    38.000      .010      .300      .000      .000
     2.570   -20.466     2.540      .295     2.520     -.008      .000      .300
    40.000      .010      .010      .000      .010      .005      .000      .000
      .090      .100      .016      .008      .001      .000      .000      .000
      .000      .000      .000      .000      .000      .000      .000      .000
      .000      .000      .000      .000
      .050
      .040      .042      .044      .046      .048      .050      .055      .060
      .065      .070      .075      .080      .085      .090      .095      .100
      .110      .120      .130      .140      .150      .160      .170      .180
      .190      .200      .220      .240      .260      .280      .300      .320
      .340      .360      .380      .400      .420      .440      .460      .480
      .500      .550      .600      .650      .700      .750      .800      .850
      .900      .950     1.000     1.100     1.200     1.300     1.400     1.500
     1.600     1.700     1.800     1.900     2.000     2.200     2.400     2.600
     2.800     3.000     3.200     3.400     3.600     3.800     4.000     4.200
     4.400     4.600     4.800     5.000     5.500     6.000     6.500     7.000
     7.500     8.000     8.500     9.000     9.500    10.000    11.000    12.000
    13.000    14.000    15.000      .000      .000      .000      .000      .000
      .000      .000      .000      .000
Fourier amplitude spectra in in/sec.
  .000E+00  .000E+00  .000E+00  .000E+00  .000E+00  .000E+00  .000E+00  .000E+00
  .000E+00  .000E+00  .000E+00  .000E+00  .000E+00  .000E+00  .000E+00  .000E+00
  .000E+00  .000E+00  .000E+00  .000E+00  .000E+00  .000E+00  .000E+00  .000E+00
  .000E+00  .000E+00  .000E+00  .000E+00  .000E+00  .000E+00  .000E+00  .000E+00
  .000E+00  .000E+00  .000E+00  .000E+00  .000E+00  .000E+00  .000E+00  .000E+00
  .000E+00  .000E+00  .000E+00  .000E+00  .000E+00  .000E+00  .000E+00  .000E+00
  .000E+00  .000E+00  .000E+00  .000E+00  .000E+00  .000E+00  .000E+00  .000E+00
  .000E+00  .000E+00  .000E+00  .000E+00  .000E+00  .000E+00  .000E+00  .000E+00
  .000E+00  .000E+00  .000E+00  .000E+00  .000E+00  .000E+00  .000E+00  .000E+00
  .000E+00  .000E+00  .000E+00  .000E+00  .000E+00  .000E+00  .000E+00  .000E+00
  .000E+00  .000E+00  .000E+00  .000E+00  .000E+00  .000E+00  .000E+00  .000E+00
  .000E+00  .000E+00  .000E+00  .000E+00  .000E+00  .000E+00  .000E+00  .000E+00
  .000E+00  .000E+00  .000E+00  .000E+00
Damping =  .05. Data of Sd,Sv,Sa,Pssv,ttSd,ttSv,ttSa :
  .585E-03  .645E-03  .613E-03  .648E-03  .687E-03  .797E-03  .102E-02  .123E-02
  .166E-02  .247E-02  .334E-02  .380E-02  .465E-02  .637E-02  .776E-02  .860E-02
  .827E-02  .697E-02  .541E-02  .437E-02  .388E-02  .476E-02  .542E-02  .636E-02
  .659E-02  .608E-02  .601E-02  .478E-02  .488E-02  .591E-02  .805E-02  .749E-02
  .651E-02  .738E-02  .811E-02  .848E-02  .936E-02  .919E-02  .722E-02  .692E-02
