Response and Fourier amplitude spectra (91 periods,  .04 - 15.0 sec)   for      
Corrected accelerogram   24764-K0987-01253.97       Chan  5:  Up         from   
Uncorrected Accelerogram Data             Processed: 09/10/01, CDMG  bm097      
Record of Sun Sep  9, 2001 16:59:19 PDT               (Avol1 v4.6  7/01 CSMIP)  
CSMIP Preliminary Processing            (Origin:  To be determined)             
24764-K0987-01253.97                 Start time:  9/09/01, 23:59:19.0 UTC (GPS) 
Station No. 24764   34.160N, 118.534W        K2  s/n  987  (6 Channels)         
Tarzana - Cedar Hill B                                                          
Chan  5:  Up                        Location: 60 m Depth                        
Record of Sun Sep  9, 2001 16:59:19 PDT    Sun Sep  9, 2001 16:59:19 PDT        
Hypocenter:  To be determined.               ML:  To be determined.
Instr Period =  .0200 sec,  Damping =  .700,  Sensitivity = 1.25  v/g
                        Record length = 39.000 sec.
                                     Uncor Max  =   .005 g, at   5.420 sec.
RMS accel of (uncor) record  =        .
Accelerogram bandpass filtered with 3 dB pts at   .30 and 40.00 cyc/sec
                 instrument- and baseline-corrected





Record of Sun Sep  9, 2001 16:59:19 PDT    Sun Sep  9, 2001 16:59:19 PDT

24764-K0987-01253.97      Tarzana - Cedar Hill B    Chan  5:  Up

24764-K0987-01253.97      Tarzana - Cedar Hill B    Chan  5:  Up

Units for spectra are inches and sec, except Sa is in fraction of g.

    5  100    5    6    6  200    1    3    1   24   11  987    024764    4    0
   23   59   19    0  252    9    9 2001   10    3  500 7800   39   22   72  359
 7800    0   50    3  987    1   97  390    1    0    0    0    0    0    0    0
    0    0    0    0 3900    2    0    0    0    0   72   22    0    0    0 3900
    0 3900   23   91    1    6    0    0    0    0    6    0    0    0    0    2
    2    2    4    1   65   99    0   32   32    0    0    1    0    0    0    0
  -99   -1    0    0
      .020      .700    39.000      .001      .000  1250.000      .005     5.420
    50.000      .298      .238      .000     5.000      .000      .000      .000
     2.500    -1.750      .003     -.008     5.000    30.000      .000      .005
      .000     -.006     2.000    15.000    34.160  -118.534      .028      .134
     4.873     -.013      .002  -999.000      .000      .000    12.600      .000
  1000.000    -1.002      .000      .000      .000      .000      .000      .000
     4.600     4.400      .000   980.665      .010    39.000     7.958      .000
      .000    40.000      .000    39.000      .010      .300      .000      .000
     5.420     4.820     6.330      .246     7.660     -.021      .000      .300
    40.000      .010      .010      .000      .010      .008      .000      .000
      .014      .200      .014      .008      .002      .000      .000      .000
      .000      .000      .000      .000      .000      .000      .000      .000
      .000      .000      .000      .000
      .050
      .040      .042      .044      .046      .048      .050      .055      .060
      .065      .070      .075      .080      .085      .090      .095      .100
      .110      .120      .130      .140      .150      .160      .170      .180
      .190      .200      .220      .240      .260      .280      .300      .320
      .340      .360      .380      .400      .420      .440      .460      .480
      .500      .550      .600      .650      .700      .750      .800      .850
      .900      .950     1.000     1.100     1.200     1.300     1.400     1.500
     1.600     1.700     1.800     1.900     2.000     2.200     2.400     2.600
     2.800     3.000     3.200     3.400     3.600     3.800     4.000     4.200
     4.400     4.600     4.800     5.000     5.500     6.000     6.500     7.000
     7.500     8.000     8.500     9.000     9.500    10.000    11.000    12.000
    13.000    14.000    15.000      .000      .000      .000      .000      .000
      .000      .000      .000      .000
Fourier amplitude spectra in in/sec.
  .000E+00  .000E+00  .000E+00  .000E+00  .000E+00  .000E+00  .000E+00  .000E+00
  .000E+00  .000E+00  .000E+00  .000E+00  .000E+00  .000E+00  .000E+00  .000E+00
  .000E+00  .000E+00  .000E+00  .000E+00  .000E+00  .000E+00  .000E+00  .000E+00
  .000E+00  .000E+00  .000E+00  .000E+00  .000E+00  .000E+00  .000E+00  .000E+00
  .000E+00  .000E+00  .000E+00  .000E+00  .000E+00  .000E+00  .000E+00  .000E+00
  .000E+00  .000E+00  .000E+00  .000E+00  .000E+00  .000E+00  .000E+00  .000E+00
  .000E+00  .000E+00  .000E+00  .000E+00  .000E+00  .000E+00  .000E+00  .000E+00
  .000E+00  .000E+00  .000E+00  .000E+00  .000E+00  .000E+00  .000E+00  .000E+00
  .000E+00  .000E+00  .000E+00  .000E+00  .000E+00  .000E+00  .000E+00  .000E+00
  .000E+00  .000E+00  .000E+00  .000E+00  .000E+00  .000E+00  .000E+00  .000E+00
  .000E+00  .000E+00  .000E+00  .000E+00  .000E+00  .000E+00  .000E+00  .000E+00
  .000E+00  .000E+00  .000E+00  .000E+00  .000E+00  .000E+00  .000E+00  .000E+00
  .000E+00  .000E+00  .000E+00  .000E+00
Damping =  .05. Data of Sd,Sv,Sa,Pssv,ttSd,ttSv,ttSa :
  .938E-04  .115E-03  .131E-03  .150E-03  .158E-03  .195E-03  .268E-03  .318E-03
  .399E-03  .557E-03  .595E-03  .621E-03  .700E-03  .948E-03  .106E-02  .962E-03
  .842E-03  .141E-02  .201E-02  .252E-02  .282E-02  .312E-02  .363E-02  .413E-02
  .500E-02  .556E-02  .559E-02  .562E-02  .594E-02  .624E-02  .644E-02  .711E-02
  .952E-02  .118E-01  .140E-01  .162E-01  .163E-01  .157E-01  .217E-01  .229E-01
  .221E-01  .250E-01  .212E-01  .243E-01  .334E-01  .355E-01  .293E-01  .236E-01
  .197E-01  .167E-01  .131E-01  .163E-01  .157E-01  .196E-01  .226E-01  .213E-01
  .162E-01  .154E-01  .133E-01  .114E-01  .104E-01  .968E-02  .951E-02  .102E-01
  .107E-01  .105E-01  .975E-02  .100E-01  .104E-01  .105E-01  .104E-01  .102E-01
  .992E-02  .967E-02  .946E-02  .928E-02  .899E-02  .886E-02  .881E-02  .880E-02
  .879E-02  .877E-02  .875E-02  .873E-02  .871E-02  .869E-02  .866E-02  .863E-02
  .862E-02  .861E-02  .861E-02  .000E+00  .000E+00  .000E+00  .000E+00  .000E+00
  .000E+00  .000E+00  .000E+00  .000E+00
  .113E-01  .135E-01  .160E-01  .175E-01  .179E-01  .191E-01  .240E-01  .262E-01
  .261E-01  .321E-01  .343E-01  .432E-01  .457E-01  .520E-01  .558E-01  .564E-01
  .425E-01  .558E-01  .651E-01  .907E-01  .108E+00  .117E+00  .131E+00  .146E+00
  .172E+00  .183E+00  .161E+00  .146E+00  .141E+00  .134E+00  .125E+00  .125E+00
  .160E+00  .200E+00  .223E+00  .249E+00  .250E+00  .240E+00  .278E+00  .291E+00
  .277E+00  .291E+00  .239E+00  .252E+00  .321E+00  .314E+00  .297E+00  .245E+00
  .201E+00  .169E+00  .142E+00  .146E+00  .168E+00  .167E+00  .149E+00  .147E+00
  .143E+00  .134E+00  .123E+00  .116E+00  .111E+00  .108E+00  .106E+00  .103E+00
  .101E+00  .984E-01  .972E-01  .967E-01  .966E-01  .968E-01  .970E-01  .973E-01
  .975E-01  .976E-01  .977E-01  .978E-01  .977E-01  .976E-01  .975E-01  .974E-01
  .972E-01  .972E-01  .971E-01  .970E-01  .970E-01  .969E-01  .969E-01  .969E-01
  .968E-01  .968E-01  .968E-01  .000E+00  .000E+00  .000E+00  .000E+00  .000E+00
  .000E+00  .000E+00  .000E+00  .000E+00
  .599E-02  .666E-02  .695E-02  .731E-02  .702E-02  .808E-02  .909E-02  .899E-02
  .963E-02  .117E-01  .108E-01  .992E-02  .998E-02  .120E-01  .120E-01  .100E-01
  .710E-02  .101E-01  .121E-01  .131E-01  .128E-01  .124E-01  .130E-01  .131E-01
  .142E-01  .144E-01  .119E-01  .101E-01  .901E-02  .821E-02  .737E-02  .713E-02
  .844E-02  .932E-02  .100E-01  .104E-01  .953E-02  .833E-02  .105E-01  .102E-01
  .910E-02  .849E-02  .607E-02  .591E-02  .701E-02  .650E-02  .471E-02  .338E-02
  .251E-02  .191E-02  .134E-02  .139E-02  .113E-02  .120E-02  .119E-02  .985E-03
  .663E-03  .555E-03  .431E-03  .334E-03  .276E-03  .215E-03  .179E-03  .164E-03
  .149E-03  .129E-03  .107E-03  .976E-04  .908E-04  .830E-04  .752E-04  .678E-04
  .613E-04  .556E-04  .507E-04  .467E-04  .391E-04  .337E-04  .298E-04  .266E-04
  .240E-04  .219E-04  .200E-04  .185E-04  .171E-04  .160E-04  .141E-04  .127E-04
  .116E-04  .108E-04  .101E-04  .000E+00  .000E+00  .000E+00  .000E+00  .000E+00
  .000E+00  .000E+00  .000E+00  .000E+00
  .147E-01  .172E-01  .187E-01  .205E-01  .206E-01  .245E-01  .306E-01  .333E-01
  .386E-01  .500E-01  .498E-01  .488E-01  .517E-01  .662E-01  .703E-01  .604E-01
  .481E-01  .737E-01  .970E-01  .113E+00  .118E+00  .123E+00  .134E+00  .144E+00
  .165E+00  .175E+00  .160E+00  .147E+00  .143E+00  .140E+00  .135E+00  .140E+00
  .176E+00  .205E+00  .232E+00  .254E+00  .244E+00  .224E+00  .296E+00  .300E+00
  .278E+00  .286E+00  .222E+00  .235E+00  .300E+00  .297E+00  .230E+00  .175E+00
  .138E+00  .111E+00  .822E-01  .930E-01  .822E-01  .947E-01  .101E+00  .893E-01
  .636E-01  .569E-01  .464E-01  .377E-01  .326E-01  .277E-01  .249E-01  .246E-01
  .239E-01  .219E-01  .191E-01  .185E-01  .181E-01  .173E-01  .163E-01  .152E-01
  .142E-01  .132E-01  .124E-01  .117E-01  .103E-01  .928E-02  .852E-02  .790E-02
  .736E-02  .689E-02  .647E-02  .610E-02  .576E-02  .546E-02  .494E-02  .452E-02
  .417E-02  .387E-02  .361E-02  .000E+00  .000E+00  .000E+00  .000E+00  .000E+00
  .000E+00  .000E+00  .000E+00  .000E+00
  .540E+01  .540E+01  .570E+01  .571E+01  .627E+01  .627E+01  .628E+01  .628E+01
  .541E+01  .542E+01  .543E+01  .592E+01  .629E+01  .630E+01  .637E+01  .637E+01
  .533E+01  .542E+01  .543E+01  .544E+01  .545E+01  .554E+01  .554E+01  .555E+01
  .556E+01  .547E+01  .549E+01  .549E+01  .550E+01  .647E+01  .823E+01  .769E+01
  .772E+01  .671E+01  .673E+01  .676E+01  .678E+01  .823E+01  .826E+01  .829E+01
  .832E+01  .835E+01  .898E+01  .871E+01  .844E+01  .817E+01  .820E+01  .791E+01
  .793E+01  .794E+01  .642E+01  .644E+01  .645E+01  .792E+01  .795E+01  .797E+01
  .798E+01  .762E+01  .763E+01  .763E+01  .763E+01  .763E+01  .796E+01  .796E+01
  .797E+01  .797E+01  .797E+01  .763E+01  .763E+01  .764E+01  .764E+01  .764E+01
  .764E+01  .764E+01  .764E+01  .764E+01  .764E+01  .764E+01  .764E+01  .764E+01
  .764E+01  .764E+01  .764E+01  .764E+01  .764E+01  .764E+01  .764E+01  .764E+01
  .764E+01  .764E+01  .764E+01  .000E+00  .000E+00  .000E+00  .000E+00  .000E+00
  .000E+00  .000E+00  .000E+00  .000E+00
  .252E+01  .253E+01  .262E+01  .262E+01  .265E+01  .275E+01  .256E+01  .254E+01
  .297E+01  .540E+01  .590E+01  .590E+01  .599E+01  .600E+01  .634E+01  .645E+01
  .704E+01  .646E+01  .539E+01  .548E+01  .549E+01  .550E+01  .550E+01  .551E+01
  .551E+01  .552E+01  .553E+01  .555E+01  .556E+01  .639E+01  .546E+01  .546E+01
  .780E+01  .680E+01  .682E+01  .666E+01  .668E+01  .671E+01  .838E+01  .818E+01
  .820E+01  .821E+01  .884E+01  .886E+01  .828E+01  .803E+01  .806E+01  .807E+01
  .807E+01  .807E+01  .658E+01  .806E+01  .807E+01  .807E+01  .807E+01  .632E+01
  .632E+01  .632E+01  .632E+01  .632E+01  .632E+01  .632E+01  .632E+01  .632E+01
  .632E+01  .632E+01  .632E+01  .632E+01  .632E+01  .632E+01  .632E+01  .632E+01
  .632E+01  .632E+01  .632E+01  .632E+01  .632E+01  .632E+01  .632E+01  .632E+01
  .632E+01  .632E+01  .632E+01  .632E+01  .632E+01  .632E+01  .632E+01  .632E+01
  .632E+01  .632E+01  .632E+01  .000E+00  .000E+00  .000E+00  .000E+00  .000E+00
  .000E+00  .000E+00  .000E+00  .000E+00
  .540E+01  .540E+01  .570E+01  .571E+01  .627E+01  .626E+01  .628E+01  .628E+01
  .541E+01  .542E+01  .543E+01  .592E+01  .629E+01  .630E+01  .636E+01  .647E+01
  .573E+01  .541E+01  .543E+01  .543E+01  .544E+01  .553E+01  .554E+01  .555E+01
  .546E+01  .547E+01  .548E+01  .549E+01  .549E+01  .647E+01  .822E+01  .768E+01
  .771E+01  .670E+01  .673E+01  .675E+01  .678E+01  .823E+01  .826E+01  .829E+01
  .831E+01  .834E+01  .897E+01  .870E+01  .843E+01  .816E+01  .819E+01  .790E+01
  .792E+01  .793E+01  .640E+01  .642E+01  .644E+01  .790E+01  .792E+01  .795E+01
  .796E+01  .760E+01  .761E+01  .761E+01  .761E+01  .760E+01  .793E+01  .792E+01
  .792E+01  .791E+01  .791E+01  .758E+01  .758E+01  .758E+01  .757E+01  .757E+01
  .757E+01  .757E+01  .756E+01  .756E+01  .756E+01  .755E+01  .755E+01  .755E+01
  .755E+01  .755E+01  .755E+01  .754E+01  .754E+01  .754E+01  .785E+01  .785E+01
  .633E+01  .633E+01  .633E+01  .000E+00  .000E+00  .000E+00  .000E+00  .000E+00
  .000E+00  .000E+00  .000E+00  .000E+00
/&   ----------  End of spectral data for channel  5  ----------
