Response and Fourier amplitude spectra (91 periods,  .04 - 15.0 sec)   for      
Corrected accelerogram   24764-K0987-01253.97       Chan  6: 180 Deg     from   
Uncorrected Accelerogram Data             Processed: 09/10/01, CDMG  bm097      
Record of Sun Sep  9, 2001 16:59:19 PDT               (Avol1 v4.6  7/01 CSMIP)  
CSMIP Preliminary Processing            (Origin:  To be determined)             
24764-K0987-01253.97                 Start time:  9/09/01, 23:59:19.0 UTC (GPS) 
Station No. 24764   34.160N, 118.534W        K2  s/n  987  (6 Channels)         
Tarzana - Cedar Hill B                                                          
Chan  6: 180 Deg                    Location: 60 m Depth                        
Record of Sun Sep  9, 2001 16:59:19 PDT    Sun Sep  9, 2001 16:59:19 PDT        
Hypocenter:  To be determined.               ML:  To be determined.
Instr Period =  .0200 sec,  Damping =  .700,  Sensitivity = 1.25  v/g
                        Record length = 39.000 sec.
                                     Uncor Max  =  -.006 g, at   5.465 sec.
RMS accel of (uncor) record  =        .
Accelerogram bandpass filtered with 3 dB pts at   .30 and 40.00 cyc/sec
                 instrument- and baseline-corrected





Record of Sun Sep  9, 2001 16:59:19 PDT    Sun Sep  9, 2001 16:59:19 PDT

24764-K0987-01253.97      Tarzana - Cedar Hill B    Chan  6: 180 Deg

24764-K0987-01253.97      Tarzana - Cedar Hill B    Chan  6: 180 Deg

Units for spectra are inches and sec, except Sa is in fraction of g.

    6  100    6    6    6  200    1    3    1   24   11  987    024764    4    0
   23   59   19    0  252    9    9 2001   10    3  180 7800   39   22   72  359
 7800    0   50    3  987    1   97  390    1    0    0    0    0    0    0    0
    0    0    0    0 3900    2    0    0    0    0   72   22    0    0    0 3900
    0 3900   23   91    1    6    0    0    0    0    6    0    0    0    0    2
    2    2    4    1   65   99    0   32   32    0    0    1    0    0    0    0
  -99   -1    0    0
      .020      .700    39.000      .001      .000  1250.000     -.006     5.465
    50.000      .298      .238      .000     5.000      .000      .000      .000
     2.500   -73.676     -.084     -.100     5.000    30.000      .000     -.111
     -.008      .103     2.000    15.000    34.160  -118.534      .008      .116
    13.833      .097      .108  -999.000      .000      .000    12.600      .000
  1000.000     1.336      .000      .000      .000      .000      .000      .000
     4.600     4.400      .000   980.665      .010    39.000     7.958      .000
      .000    40.000      .000    39.000      .010      .300      .000      .000
     5.460    -5.945     5.070      .341     5.230      .032     -.002      .300
    40.000      .010      .010      .000      .010      .007      .000      .000
      .024      .120      .013      .015      .003      .000      .000      .000
      .000      .000      .000      .000      .000      .000      .000      .000
      .000      .000      .000      .000
      .050
      .040      .042      .044      .046      .048      .050      .055      .060
      .065      .070      .075      .080      .085      .090      .095      .100
      .110      .120      .130      .140      .150      .160      .170      .180
      .190      .200      .220      .240      .260      .280      .300      .320
      .340      .360      .380      .400      .420      .440      .460      .480
      .500      .550      .600      .650      .700      .750      .800      .850
      .900      .950     1.000     1.100     1.200     1.300     1.400     1.500
     1.600     1.700     1.800     1.900     2.000     2.200     2.400     2.600
     2.800     3.000     3.200     3.400     3.600     3.800     4.000     4.200
     4.400     4.600     4.800     5.000     5.500     6.000     6.500     7.000
     7.500     8.000     8.500     9.000     9.500    10.000    11.000    12.000
    13.000    14.000    15.000      .000      .000      .000      .000      .000
      .000      .000      .000      .000
Fourier amplitude spectra in in/sec.
  .000E+00  .000E+00  .000E+00  .000E+00  .000E+00  .000E+00  .000E+00  .000E+00
  .000E+00  .000E+00  .000E+00  .000E+00  .000E+00  .000E+00  .000E+00  .000E+00
  .000E+00  .000E+00  .000E+00  .000E+00  .000E+00  .000E+00  .000E+00  .000E+00
  .000E+00  .000E+00  .000E+00  .000E+00  .000E+00  .000E+00  .000E+00  .000E+00
  .000E+00  .000E+00  .000E+00  .000E+00  .000E+00  .000E+00  .000E+00  .000E+00
  .000E+00  .000E+00  .000E+00  .000E+00  .000E+00  .000E+00  .000E+00  .000E+00
  .000E+00  .000E+00  .000E+00  .000E+00  .000E+00  .000E+00  .000E+00  .000E+00
  .000E+00  .000E+00  .000E+00  .000E+00  .000E+00  .000E+00  .000E+00  .000E+00
  .000E+00  .000E+00  .000E+00  .000E+00  .000E+00  .000E+00  .000E+00  .000E+00
  .000E+00  .000E+00  .000E+00  .000E+00  .000E+00  .000E+00  .000E+00  .000E+00
  .000E+00  .000E+00  .000E+00  .000E+00  .000E+00  .000E+00  .000E+00  .000E+00
  .000E+00  .000E+00  .000E+00  .000E+00  .000E+00  .000E+00  .000E+00  .000E+00
  .000E+00  .000E+00  .000E+00  .000E+00
Damping =  .05. Data of Sd,Sv,Sa,Pssv,ttSd,ttSv,ttSa :
  .123E-03  .163E-03  .221E-03  .292E-03  .351E-03  .377E-03  .418E-03  .363E-03
  .453E-03  .661E-03  .818E-03  .841E-03  .106E-02  .132E-02  .150E-02  .199E-02
  .283E-02  .332E-02  .276E-02  .347E-02  .345E-02  .397E-02  .504E-02  .522E-02
  .482E-02  .506E-02  .572E-02  .579E-02  .702E-02  .105E-01  .130E-01  .158E-01
  .181E-01  .185E-01  .171E-01  .153E-01  .125E-01  .118E-01  .119E-01  .120E-01
  .120E-01  .137E-01  .149E-01  .167E-01  .195E-01  .211E-01  .211E-01  .225E-01
  .252E-01  .278E-01  .281E-01  .322E-01  .306E-01  .289E-01  .278E-01  .285E-01
  .282E-01  .280E-01  .272E-01  .257E-01  .238E-01  .199E-01  .180E-01  .180E-01
  .189E-01  .196E-01  .197E-01  .194E-01  .188E-01  .178E-01  .166E-01  .165E-01
  .167E-01  .167E-01  .166E-01  .163E-01  .153E-01  .143E-01  .135E-01  .128E-01
  .133E-01  .137E-01  .139E-01  .140E-01  .140E-01  .139E-01  .135E-01  .134E-01
  .139E-01  .144E-01  .149E-01  .000E+00  .000E+00  .000E+00  .000E+00  .000E+00
  .000E+00  .000E+00  .000E+00  .000E+00
  .108E-01  .151E-01  .216E-01  .277E-01  .318E-01  .330E-01  .303E-01  .222E-01
  .336E-01  .471E-01  .542E-01  .571E-01  .617E-01  .695E-01  .749E-01  .105E+00
  .150E+00  .162E+00  .120E+00  .148E+00  .135E+00  .135E+00  .175E+00  .175E+00
  .151E+00  .157E+00  .143E+00  .122E+00  .147E+00  .213E+00  .282E+00  .322E+00
  .363E+00  .332E+00  .274E+00  .241E+00  .220E+00  .207E+00  .198E+00  .190E+00
  .181E+00  .166E+00  .153E+00  .162E+00  .183E+00  .199E+00  .217E+00  .232E+00
  .246E+00  .254E+00  .250E+00  .216E+00  .177E+00  .164E+00  .162E+00  .170E+00
  .172E+00  .171E+00  .174E+00  .175E+00  .174E+00  .166E+00  .157E+00  .152E+00
  .151E+00  .152E+00  .153E+00  .154E+00  .155E+00  .154E+00  .153E+00  .151E+00
  .150E+00  .148E+00  .146E+00  .145E+00  .143E+00  .141E+00  .141E+00  .140E+00
  .140E+00  .140E+00  .140E+00  .140E+00  .141E+00  .141E+00  .141E+00  .141E+00
  .141E+00  .140E+00  .140E+00  .000E+00  .000E+00  .000E+00  .000E+00  .000E+00
  .000E+00  .000E+00  .000E+00  .000E+00
  .783E-02  .949E-02  .116E-01  .142E-01  .157E-01  .154E-01  .142E-01  .104E-01
  .109E-01  .140E-01  .149E-01  .136E-01  .151E-01  .167E-01  .170E-01  .208E-01
  .235E-01  .240E-01  .166E-01  .180E-01  .156E-01  .158E-01  .179E-01  .167E-01
  .139E-01  .130E-01  .122E-01  .104E-01  .107E-01  .138E-01  .148E-01  .159E-01
  .161E-01  .146E-01  .122E-01  .984E-02  .730E-02  .629E-02  .577E-02  .535E-02
  .494E-02  .467E-02  .425E-02  .407E-02  .411E-02  .387E-02  .339E-02  .320E-02
  .320E-02  .318E-02  .289E-02  .275E-02  .220E-02  .176E-02  .147E-02  .131E-02
  .115E-02  .102E-02  .885E-03  .755E-03  .634E-03  .447E-03  .343E-03  .294E-03
  .267E-03  .244E-03  .217E-03  .188E-03  .160E-03  .135E-03  .118E-03  .111E-03
  .103E-03  .956E-04  .882E-04  .813E-04  .666E-04  .555E-04  .473E-04  .414E-04
  .370E-04  .345E-04  .323E-04  .301E-04  .282E-04  .264E-04  .235E-04  .215E-04
  .199E-04  .184E-04  .172E-04  .000E+00  .000E+00  .000E+00  .000E+00  .000E+00
  .000E+00  .000E+00  .000E+00  .000E+00
  .193E-01  .245E-01  .316E-01  .399E-01  .460E-01  .474E-01  .478E-01  .381E-01
  .438E-01  .593E-01  .685E-01  .660E-01  .787E-01  .919E-01  .992E-01  .125E+00
  .162E+00  .174E+00  .133E+00  .156E+00  .145E+00  .156E+00  .186E+00  .182E+00
  .159E+00  .159E+00  .163E+00  .152E+00  .170E+00  .236E+00  .272E+00  .311E+00
  .334E+00  .323E+00  .282E+00  .241E+00  .188E+00  .169E+00  .162E+00  .157E+00
  .151E+00  .157E+00  .156E+00  .161E+00  .175E+00  .177E+00  .166E+00  .166E+00
  .176E+00  .184E+00  .177E+00  .184E+00  .160E+00  .140E+00  .125E+00  .120E+00
  .111E+00  .104E+00  .950E-01  .850E-01  .746E-01  .570E-01  .470E-01  .434E-01
  .424E-01  .411E-01  .386E-01  .358E-01  .328E-01  .294E-01  .260E-01  .247E-01
  .239E-01  .228E-01  .217E-01  .205E-01  .175E-01  .150E-01  .130E-01  .115E-01
  .111E-01  .107E-01  .103E-01  .977E-02  .925E-02  .873E-02  .774E-02  .703E-02
  .674E-02  .648E-02  .625E-02  .000E+00  .000E+00  .000E+00  .000E+00  .000E+00
  .000E+00  .000E+00  .000E+00  .000E+00
  .538E+01  .538E+01  .538E+01  .546E+01  .546E+01  .546E+01  .547E+01  .547E+01
  .614E+01  .615E+01  .616E+01  .616E+01  .572E+01  .573E+01  .573E+01  .573E+01
  .581E+01  .582E+01  .512E+01  .584E+01  .514E+01  .548E+01  .619E+01  .551E+01
  .552E+01  .564E+01  .566E+01  .566E+01  .566E+01  .567E+01  .569E+01  .589E+01
  .592E+01  .578E+01  .580E+01  .581E+01  .582E+01  .530E+01  .531E+01  .532E+01
  .532E+01  .106E+02  .535E+01  .581E+01  .582E+01  .774E+01  .588E+01  .591E+01
  .644E+01  .648E+01  .610E+01  .615E+01  .618E+01  .623E+01  .625E+01  .711E+01
  .571E+01  .572E+01  .572E+01  .572E+01  .573E+01  .573E+01  .573E+01  .572E+01
  .572E+01  .573E+01  .573E+01  .595E+01  .595E+01  .595E+01  .595E+01  .521E+01
  .521E+01  .522E+01  .522E+01  .522E+01  .522E+01  .522E+01  .522E+01  .522E+01
  .595E+01  .595E+01  .595E+01  .595E+01  .595E+01  .595E+01  .595E+01  .522E+01
  .522E+01  .522E+01  .522E+01  .000E+00  .000E+00  .000E+00  .000E+00  .000E+00
  .000E+00  .000E+00  .000E+00  .000E+00
  .536E+01  .536E+01  .537E+01  .544E+01  .545E+01  .545E+01  .548E+01  .541E+01
  .613E+01  .613E+01  .614E+01  .628E+01  .628E+01  .571E+01  .571E+01  .571E+01
  .578E+01  .579E+01  .529E+01  .587E+01  .525E+01  .519E+01  .615E+01  .582E+01
  .568E+01  .569E+01  .570E+01  .562E+01  .513E+01  .562E+01  .563E+01  .564E+01
  .584E+01  .586E+01  .587E+01  .574E+01  .575E+01  .540E+01  .541E+01  .542E+01
  .542E+01  .543E+01  .543E+01  .526E+01  .819E+01  .575E+01  .576E+01  .576E+01
  .576E+01  .576E+01  .576E+01  .577E+01  .577E+01  .727E+01  .611E+01  .611E+01
  .611E+01  .557E+01  .557E+01  .557E+01  .557E+01  .557E+01  .557E+01  .557E+01
  .557E+01  .557E+01  .557E+01  .557E+01  .557E+01  .557E+01  .557E+01  .557E+01
  .557E+01  .557E+01  .557E+01  .557E+01  .557E+01  .557E+01  .557E+01  .557E+01
  .557E+01  .557E+01  .557E+01  .557E+01  .557E+01  .557E+01  .557E+01  .557E+01
  .557E+01  .557E+01  .557E+01  .000E+00  .000E+00  .000E+00  .000E+00  .000E+00
  .000E+00  .000E+00  .000E+00  .000E+00
  .538E+01  .538E+01  .538E+01  .546E+01  .546E+01  .546E+01  .547E+01  .547E+01
  .614E+01  .615E+01  .616E+01  .616E+01  .572E+01  .573E+01  .573E+01  .573E+01
  .580E+01  .582E+01  .512E+01  .583E+01  .514E+01  .548E+01  .619E+01  .550E+01
  .551E+01  .564E+01  .565E+01  .566E+01  .566E+01  .567E+01  .569E+01  .588E+01
  .575E+01  .577E+01  .579E+01  .580E+01  .581E+01  .530E+01  .531E+01  .531E+01
  .532E+01  .106E+02  .534E+01  .580E+01  .581E+01  .773E+01  .587E+01  .590E+01
  .642E+01  .647E+01  .650E+01  .613E+01  .615E+01  .622E+01  .623E+01  .709E+01
  .569E+01  .570E+01  .570E+01  .570E+01  .570E+01  .570E+01  .570E+01  .570E+01
  .570E+01  .570E+01  .570E+01  .570E+01  .570E+01  .569E+01  .510E+01  .510E+01
  .510E+01  .510E+01  .510E+01  .509E+01  .509E+01  .509E+01  .508E+01  .508E+01
  .508E+01  .559E+01  .559E+01  .559E+01  .558E+01  .558E+01  .507E+01  .507E+01
  .507E+01  .507E+01  .507E+01  .000E+00  .000E+00  .000E+00  .000E+00  .000E+00
  .000E+00  .000E+00  .000E+00  .000E+00
/&   ----------  End of spectral data for channel  6  ----------
