Response and Fourier amplitude spectra (91 periods,  .04 - 15.0 sec)   for      
Corrected accelerogram   24764-K0987-01253.97       Chan  2:  Up         from   
Uncorrected Accelerogram Data             Processed: 09/10/01, CDMG  bm097      
Record of Sun Sep  9, 2001 16:59:19 PDT               (Avol1 v4.6  7/01 CSMIP)  
CSMIP Preliminary Processing            (Origin:  To be determined)             
24764-K0987-01253.97                 Start time:  9/09/01, 23:59:19.0 UTC (GPS) 
Station No. 24764   34.160N, 118.534W        K2  s/n  987  (6 Channels)         
Tarzana - Cedar Hill B                                                          
Chan  2:  Up                        Location: Surface                           
Record of Sun Sep  9, 2001 16:59:19 PDT    Sun Sep  9, 2001 16:59:19 PDT        
Hypocenter:  To be determined.               ML:  To be determined.
Instr Period =  .0109 sec,  Damping =  .640,  Sensitivity =  .63  v/g
                        Record length = 39.000 sec.
                                     Uncor Max  =   .017 g, at   5.330 sec.
RMS accel of (uncor) record  =        .
Accelerogram bandpass filtered with 3 dB pts at   .30 and 40.00 cyc/sec
                 instrument- and baseline-corrected





Record of Sun Sep  9, 2001 16:59:19 PDT    Sun Sep  9, 2001 16:59:19 PDT

24764-K0987-01253.97      Tarzana - Cedar Hill B    Chan  2:  Up

24764-K0987-01253.97      Tarzana - Cedar Hill B    Chan  2:  Up

Units for spectra are inches and sec, except Sa is in fraction of g.

    2  100    2    6    6  200    1    3    1   24   11  987    024764    4    0
   23   59   19    0  252    9    9 2001   10    3  500 7800   39   22   72  359
 7800    1   50    3  987    1   97  390    1    0    0    0    0    0    0    0
    0    4    0    0 3900    2    0    0    0    0   72   22    0    0    0 3900
    0 3900   23   91    1    6    0    0    0    0    6    0    0    0    0    2
    2    2    4    1   65   99    0   32   32    0    0    1    0    0    0    0
  -99   -1    0    0
      .011      .640    39.000      .002      .000   625.000      .017     5.330
    92.100      .298      .477      .000     5.000      .000      .000      .000
     2.500   -26.686     -.009     -.027     5.000    30.000      .000      .003
      .000     -.002     2.000    15.000    34.160  -118.534      .015      .235
    15.939     -.014      .009  -999.000      .000      .000    12.600      .000
  1000.000     1.006      .000      .000      .000      .000      .000      .000
     4.600     4.400      .000   980.665      .010    39.000    14.658      .000
      .000    40.000      .000    39.000      .010      .300      .000      .000
     5.330    16.405     6.350      .358     6.130     -.023      .000      .300
    40.000      .010      .010      .000      .010      .011      .000      .000
      .071      .100      .027      .013      .002      .000      .000      .000
      .000      .000      .000      .000      .000      .000      .000      .000
      .000      .000      .000      .000
      .050
      .040      .042      .044      .046      .048      .050      .055      .060
      .065      .070      .075      .080      .085      .090      .095      .100
      .110      .120      .130      .140      .150      .160      .170      .180
      .190      .200      .220      .240      .260      .280      .300      .320
      .340      .360      .380      .400      .420      .440      .460      .480
      .500      .550      .600      .650      .700      .750      .800      .850
      .900      .950     1.000     1.100     1.200     1.300     1.400     1.500
     1.600     1.700     1.800     1.900     2.000     2.200     2.400     2.600
     2.800     3.000     3.200     3.400     3.600     3.800     4.000     4.200
     4.400     4.600     4.800     5.000     5.500     6.000     6.500     7.000
     7.500     8.000     8.500     9.000     9.500    10.000    11.000    12.000
    13.000    14.000    15.000      .000      .000      .000      .000      .000
      .000      .000      .000      .000
Fourier amplitude spectra in in/sec.
  .000E+00  .000E+00  .000E+00  .000E+00  .000E+00  .000E+00  .000E+00  .000E+00
  .000E+00  .000E+00  .000E+00  .000E+00  .000E+00  .000E+00  .000E+00  .000E+00
  .000E+00  .000E+00  .000E+00  .000E+00  .000E+00  .000E+00  .000E+00  .000E+00
  .000E+00  .000E+00  .000E+00  .000E+00  .000E+00  .000E+00  .000E+00  .000E+00
  .000E+00  .000E+00  .000E+00  .000E+00  .000E+00  .000E+00  .000E+00  .000E+00
  .000E+00  .000E+00  .000E+00  .000E+00  .000E+00  .000E+00  .000E+00  .000E+00
  .000E+00  .000E+00  .000E+00  .000E+00  .000E+00  .000E+00  .000E+00  .000E+00
  .000E+00  .000E+00  .000E+00  .000E+00  .000E+00  .000E+00  .000E+00  .000E+00
  .000E+00  .000E+00  .000E+00  .000E+00  .000E+00  .000E+00  .000E+00  .000E+00
  .000E+00  .000E+00  .000E+00  .000E+00  .000E+00  .000E+00  .000E+00  .000E+00
  .000E+00  .000E+00  .000E+00  .000E+00  .000E+00  .000E+00  .000E+00  .000E+00
  .000E+00  .000E+00  .000E+00  .000E+00  .000E+00  .000E+00  .000E+00  .000E+00
  .000E+00  .000E+00  .000E+00  .000E+00
Damping =  .05. Data of Sd,Sv,Sa,Pssv,ttSd,ttSv,ttSa :
  .358E-03  .383E-03  .422E-03  .527E-03  .675E-03  .830E-03  .821E-03  .133E-02
  .161E-02  .220E-02  .229E-02  .276E-02  .357E-02  .459E-02  .587E-02  .695E-02
  .531E-02  .635E-02  .801E-02  .914E-02  .934E-02  .765E-02  .747E-02  .755E-02
  .908E-02  .107E-01  .130E-01  .838E-02  .761E-02  .883E-02  .115E-01  .131E-01
  .128E-01  .131E-01  .168E-01  .204E-01  .224E-01  .245E-01  .243E-01  .226E-01
  .234E-01  .228E-01  .212E-01  .237E-01  .331E-01  .338E-01  .303E-01  .246E-01
  .228E-01  .209E-01  .219E-01  .254E-01  .234E-01  .225E-01  .250E-01  .237E-01
  .180E-01  .183E-01  .173E-01  .158E-01  .145E-01  .132E-01  .128E-01  .126E-01
  .120E-01  .114E-01  .107E-01  .997E-02  .102E-01  .103E-01  .103E-01  .101E-01
  .991E-02  .969E-02  .949E-02  .933E-02  .905E-02  .893E-02  .888E-02  .886E-02
  .885E-02  .884E-02  .883E-02  .882E-02  .881E-02  .880E-02  .879E-02  .880E-02
  .880E-02  .881E-02  .883E-02  .000E+00  .000E+00  .000E+00  .000E+00  .000E+00
  .000E+00  .000E+00  .000E+00  .000E+00
  .369E-01  .410E-01  .466E-01  .568E-01  .799E-01  .942E-01  .769E-01  .114E+00
  .134E+00  .169E+00  .155E+00  .176E+00  .231E+00  .277E+00  .342E+00  .379E+00
  .293E+00  .325E+00  .377E+00  .397E+00  .378E+00  .358E+00  .283E+00  .235E+00
  .278E+00  .329E+00  .384E+00  .254E+00  .181E+00  .231E+00  .268E+00  .284E+00
  .253E+00  .252E+00  .316E+00  .339E+00  .342E+00  .363E+00  .356E+00  .320E+00
  .293E+00  .319E+00  .273E+00  .280E+00  .289E+00  .315E+00  .316E+00  .279E+00
  .243E+00  .249E+00  .260E+00  .240E+00  .200E+00  .191E+00  .191E+00  .198E+00
  .195E+00  .186E+00  .174E+00  .165E+00  .159E+00  .153E+00  .150E+00  .147E+00
  .144E+00  .141E+00  .140E+00  .139E+00  .139E+00  .139E+00  .139E+00  .139E+00
  .140E+00  .140E+00  .140E+00  .140E+00  .140E+00  .140E+00  .140E+00  .140E+00
  .140E+00  .139E+00  .139E+00  .139E+00  .139E+00  .139E+00  .139E+00  .139E+00
  .139E+00  .139E+00  .139E+00  .000E+00  .000E+00  .000E+00  .000E+00  .000E+00
  .000E+00  .000E+00  .000E+00  .000E+00
  .228E-01  .223E-01  .224E-01  .254E-01  .303E-01  .339E-01  .279E-01  .383E-01
  .397E-01  .462E-01  .423E-01  .439E-01  .510E-01  .587E-01  .668E-01  .710E-01
  .451E-01  .461E-01  .481E-01  .473E-01  .428E-01  .313E-01  .264E-01  .239E-01
  .257E-01  .274E-01  .273E-01  .150E-01  .116E-01  .116E-01  .131E-01  .132E-01
  .113E-01  .104E-01  .120E-01  .131E-01  .131E-01  .130E-01  .118E-01  .101E-01
  .965E-02  .772E-02  .607E-02  .579E-02  .696E-02  .619E-02  .488E-02  .351E-02
  .292E-02  .240E-02  .229E-02  .219E-02  .169E-02  .138E-02  .134E-02  .111E-02
  .741E-03  .674E-03  .574E-03  .476E-03  .398E-03  .304E-03  .253E-03  .215E-03
  .181E-03  .157E-03  .133E-03  .114E-03  .104E-03  .965E-04  .886E-04  .811E-04
  .741E-04  .681E-04  .642E-04  .608E-04  .536E-04  .479E-04  .433E-04  .395E-04
  .364E-04  .337E-04  .314E-04  .294E-04  .277E-04  .261E-04  .234E-04  .212E-04
  .194E-04  .179E-04  .166E-04  .000E+00  .000E+00  .000E+00  .000E+00  .000E+00
  .000E+00  .000E+00  .000E+00  .000E+00
  .562E-01  .573E-01  .603E-01  .720E-01  .884E-01  .104E+00  .938E-01  .139E+00
  .156E+00  .197E+00  .192E+00  .216E+00  .264E+00  .320E+00  .388E+00  .437E+00
  .303E+00  .333E+00  .387E+00  .410E+00  .391E+00  .300E+00  .276E+00  .263E+00
  .300E+00  .335E+00  .370E+00  .219E+00  .184E+00  .198E+00  .240E+00  .257E+00
  .236E+00  .229E+00  .278E+00  .320E+00  .335E+00  .350E+00  .332E+00  .296E+00
  .294E+00  .260E+00  .222E+00  .229E+00  .297E+00  .283E+00  .238E+00  .182E+00
  .159E+00  .138E+00  .137E+00  .145E+00  .123E+00  .109E+00  .112E+00  .993E-01
  .705E-01  .676E-01  .603E-01  .524E-01  .457E-01  .376E-01  .336E-01  .304E-01
  .270E-01  .238E-01  .209E-01  .184E-01  .177E-01  .171E-01  .162E-01  .151E-01
  .142E-01  .132E-01  .124E-01  .117E-01  .103E-01  .935E-02  .858E-02  .795E-02
  .742E-02  .695E-02  .653E-02  .616E-02  .583E-02  .553E-02  .502E-02  .461E-02
  .425E-02  .396E-02  .370E-02  .000E+00  .000E+00  .000E+00  .000E+00  .000E+00
  .000E+00  .000E+00  .000E+00  .000E+00
  .533E+01  .374E+01  .374E+01  .533E+01  .295E+01  .377E+01  .594E+01  .533E+01
  .537E+01  .538E+01  .538E+01  .538E+01  .539E+01  .544E+01  .545E+01  .545E+01
  .552E+01  .552E+01  .554E+01  .555E+01  .556E+01  .536E+01  .767E+01  .767E+01
  .768E+01  .769E+01  .882E+01  .885E+01  .646E+01  .665E+01  .685E+01  .721E+01
  .775E+01  .777E+01  .821E+01  .711E+01  .713E+01  .675E+01  .677E+01  .679E+01
  .856E+01  .891E+01  .683E+01  .659E+01  .842E+01  .813E+01  .820E+01  .792E+01
  .794E+01  .668E+01  .637E+01  .639E+01  .641E+01  .641E+01  .794E+01  .796E+01
  .610E+01  .611E+01  .612E+01  .612E+01  .612E+01  .612E+01  .612E+01  .612E+01
  .612E+01  .796E+01  .796E+01  .554E+01  .763E+01  .763E+01  .763E+01  .763E+01
  .764E+01  .764E+01  .764E+01  .764E+01  .764E+01  .764E+01  .764E+01  .764E+01
  .612E+01  .612E+01  .612E+01  .612E+01  .612E+01  .612E+01  .612E+01  .612E+01
  .612E+01  .612E+01  .612E+01  .000E+00  .000E+00  .000E+00  .000E+00  .000E+00
  .000E+00  .000E+00  .000E+00  .000E+00
  .281E+01  .375E+01  .375E+01  .281E+01  .282E+01  .375E+01  .286E+01  .535E+01
  .536E+01  .536E+01  .536E+01  .536E+01  .541E+01  .542E+01  .542E+01  .548E+01
  .549E+01  .549E+01  .550E+01  .551E+01  .553E+01  .540E+01  .534E+01  .763E+01
  .763E+01  .764E+01  .887E+01  .880E+01  .601E+01  .602E+01  .740E+01  .730E+01
  .716E+01  .716E+01  .716E+01  .717E+01  .683E+01  .708E+01  .709E+01  .692E+01
  .815E+01  .880E+01  .670E+01  .672E+01  .854E+01  .836E+01  .804E+01  .804E+01
  .654E+01  .654E+01  .654E+01  .654E+01  .654E+01  .804E+01  .633E+01  .634E+01
  .634E+01  .634E+01  .634E+01  .634E+01  .634E+01  .634E+01  .634E+01  .634E+01
  .634E+01  .634E+01  .634E+01  .634E+01  .634E+01  .634E+01  .634E+01  .634E+01
  .634E+01  .634E+01  .634E+01  .634E+01  .634E+01  .634E+01  .634E+01  .634E+01
  .634E+01  .634E+01  .634E+01  .634E+01  .634E+01  .634E+01  .634E+01  .634E+01
  .634E+01  .634E+01  .634E+01  .000E+00  .000E+00  .000E+00  .000E+00  .000E+00
  .000E+00  .000E+00  .000E+00  .000E+00
  .533E+01  .374E+01  .374E+01  .533E+01  .295E+01  .377E+01  .594E+01  .533E+01
  .537E+01  .538E+01  .538E+01  .538E+01  .538E+01  .544E+01  .544E+01  .545E+01
  .613E+01  .552E+01  .553E+01  .555E+01  .556E+01  .536E+01  .766E+01  .767E+01
  .768E+01  .769E+01  .881E+01  .884E+01  .645E+01  .665E+01  .684E+01  .720E+01
  .774E+01  .776E+01  .820E+01  .710E+01  .712E+01  .674E+01  .676E+01  .678E+01
  .855E+01  .890E+01  .682E+01  .658E+01  .841E+01  .812E+01  .819E+01  .791E+01
  .792E+01  .666E+01  .635E+01  .636E+01  .639E+01  .640E+01  .792E+01  .794E+01
  .609E+01  .609E+01  .609E+01  .609E+01  .609E+01  .609E+01  .609E+01  .609E+01
  .609E+01  .792E+01  .792E+01  .549E+01  .760E+01  .760E+01  .760E+01  .760E+01
  .760E+01  .760E+01  .634E+01  .634E+01  .634E+01  .634E+01  .634E+01  .634E+01
  .634E+01  .634E+01  .634E+01  .634E+01  .634E+01  .634E+01  .634E+01  .634E+01
  .634E+01  .634E+01  .634E+01  .000E+00  .000E+00  .000E+00  .000E+00  .000E+00
  .000E+00  .000E+00  .000E+00  .000E+00
/&   ----------  End of spectral data for channel  2  ----------
