Response and Fourier amplitude spectra (91 periods,  .04 - 15.0 sec)   for      
Corrected accelerogram   24706-F0848-01252.07       Chan  2:  Up         from   
Uncorrected Accelerogram Data             Processed: 09/10/01, CDMG  s706e07    
Earthquake of Sun Sep  9, 2001  16:59 PDT             (Avol1 v4.6  7/01 CSMIP)  
CSMIP Preliminary Processing            (Origin:  To be determined)             
24706-F0848-01252.07                 Start time:  9/09/01, 23:59:32.1 GMT (WWVB)
Station No. 24706   34.546N, 118.129W     SSA-2  s/n  848  (3 Channels)         
Palmdale - Hwy 14/Barrel Springs Bridge                                         
Chan  2:  Up                        Location: Freefield (275 ft NW of East Abut)
Earthquake of Sun Sep  9, 2001  16:59 PDT    Sun Sep  9, 2001  16:59 PDT        
Hypocenter:  To be determined.               ML:  To be determined.
Instr Period =  .0222 sec,  Damping =  .700,  Sensitivity = 1.25  v/g
                        Record length = 67.840 sec.
                                     Uncor Max  =  -.002 g, at  16.685 sec.
RMS accel of (uncor) record  =        .
Accelerogram bandpass filtered with 3 dB pts at   .30 and 40.00 cyc/sec
                 instrument- and baseline-corrected





Earthquake of Sun Sep  9, 2001  16:59 PDT    Sun Sep  9, 2001  16:59 PDT

24706-F0848-01252.07      Palmdale - Hwy 14/Barrel Springs Bridge   Chan  2:  Up

24706-F0848-01252.07      Palmdale - Hwy 14/Barrel Springs Bridge   Chan  2:  Up

Units for spectra are inches and sec, except Sa is in fraction of g.

    2  100    2    3    3  200    1    3    1   12    6  848    024706    3    0
   23   59   32   85  252    9    9 2001   10    1  50013568   41   39   72  335
13568    1   50    0 3126    1    7   53    0   23   59   41  860    9    9 2001
    0    0    0    0 6784    2    0    0    0    0   72   39    0    0    0 6784
    0 6784   40   91    1    3    0    0    0    0   12    0    0    0    0    2
    2    2    4    1   66   99    1   32   32    0    0    0    0    0    9  128
  -99   -1    0    0
      .022      .700    67.840      .000      .000  1250.000     -.002    16.685
    45.000  1220.703   976.563      .000     5.000      .000      .000      .000
     2.500   -29.305     -.034     -.039     5.120    30.000      .000     -.025
     -.002      .023     2.000    15.000    34.546  -118.129      .538      .075
      .140     -.046      .092  -999.000      .000      .000      .000      .000
      .268     1.250      .000      .000      .000      .000      .000      .000
     4.600     4.400      .000   980.665      .010    67.840     7.162      .000
      .000    40.000      .000    67.840      .010      .300      .000      .000
    16.680    -1.642     3.630     -.046     5.240      .004     -.001      .300
    40.000      .010      .010      .000      .010      .002      .000      .000
      .008      .070      .002      .001      .001      .000      .000      .000
      .000      .000      .000      .000      .000      .000      .000      .000
      .000      .000      .000      .000
      .050
      .040      .042      .044      .046      .048      .050      .055      .060
      .065      .070      .075      .080      .085      .090      .095      .100
      .110      .120      .130      .140      .150      .160      .170      .180
      .190      .200      .220      .240      .260      .280      .300      .320
      .340      .360      .380      .400      .420      .440      .460      .480
      .500      .550      .600      .650      .700      .750      .800      .850
      .900      .950     1.000     1.100     1.200     1.300     1.400     1.500
     1.600     1.700     1.800     1.900     2.000     2.200     2.400     2.600
     2.800     3.000     3.200     3.400     3.600     3.800     4.000     4.200
     4.400     4.600     4.800     5.000     5.500     6.000     6.500     7.000
     7.500     8.000     8.500     9.000     9.500    10.000    11.000    12.000
    13.000    14.000    15.000      .000      .000      .000      .000      .000
      .000      .000      .000      .000
Fourier amplitude spectra in in/sec.
  .000E+00  .000E+00  .000E+00  .000E+00  .000E+00  .000E+00  .000E+00  .000E+00
  .000E+00  .000E+00  .000E+00  .000E+00  .000E+00  .000E+00  .000E+00  .000E+00
  .000E+00  .000E+00  .000E+00  .000E+00  .000E+00  .000E+00  .000E+00  .000E+00
  .000E+00  .000E+00  .000E+00  .000E+00  .000E+00  .000E+00  .000E+00  .000E+00
  .000E+00  .000E+00  .000E+00  .000E+00  .000E+00  .000E+00  .000E+00  .000E+00
  .000E+00  .000E+00  .000E+00  .000E+00  .000E+00  .000E+00  .000E+00  .000E+00
  .000E+00  .000E+00  .000E+00  .000E+00  .000E+00  .000E+00  .000E+00  .000E+00
  .000E+00  .000E+00  .000E+00  .000E+00  .000E+00  .000E+00  .000E+00  .000E+00
  .000E+00  .000E+00  .000E+00  .000E+00  .000E+00  .000E+00  .000E+00  .000E+00
  .000E+00  .000E+00  .000E+00  .000E+00  .000E+00  .000E+00  .000E+00  .000E+00
  .000E+00  .000E+00  .000E+00  .000E+00  .000E+00  .000E+00  .000E+00  .000E+00
  .000E+00  .000E+00  .000E+00  .000E+00  .000E+00  .000E+00  .000E+00  .000E+00
  .000E+00  .000E+00  .000E+00  .000E+00
Damping =  .05. Data of Sd,Sv,Sa,Pssv,ttSd,ttSv,ttSa :
  .940E-04  .102E-03  .110E-03  .109E-03  .113E-03  .108E-03  .138E-03  .224E-03
  .286E-03  .372E-03  .328E-03  .369E-03  .366E-03  .464E-03  .509E-03  .551E-03
  .584E-03  .569E-03  .648E-03  .691E-03  .510E-03  .648E-03  .776E-03  .678E-03
  .779E-03  .827E-03  .101E-02  .115E-02  .894E-03  .108E-02  .120E-02  .129E-02
  .146E-02  .150E-02  .166E-02  .231E-02  .266E-02  .236E-02  .225E-02  .250E-02
  .271E-02  .246E-02  .233E-02  .261E-02  .276E-02  .348E-02  .398E-02  .435E-02
  .470E-02  .506E-02  .555E-02  .410E-02  .344E-02  .377E-02  .378E-02  .384E-02
  .407E-02  .429E-02  .425E-02  .375E-02  .383E-02  .654E-02  .730E-02  .668E-02
  .618E-02  .617E-02  .637E-02  .779E-02  .829E-02  .775E-02  .580E-02  .516E-02
  .507E-02  .538E-02  .614E-02  .613E-02  .486E-02  .456E-02  .413E-02  .383E-02
  .355E-02  .332E-02  .316E-02  .313E-02  .310E-02  .307E-02  .302E-02  .296E-02
  .291E-02  .287E-02  .283E-02  .000E+00  .000E+00  .000E+00  .000E+00  .000E+00
  .000E+00  .000E+00  .000E+00  .000E+00
  .149E-01  .157E-01  .161E-01  .158E-01  .145E-01  .138E-01  .137E-01  .213E-01
  .253E-01  .313E-01  .264E-01  .283E-01  .258E-01  .306E-01  .324E-01  .330E-01
  .346E-01  .307E-01  .359E-01  .340E-01  .235E-01  .255E-01  .294E-01  .271E-01
  .280E-01  .285E-01  .310E-01  .360E-01  .249E-01  .242E-01  .280E-01  .250E-01
  .269E-01  .305E-01  .326E-01  .368E-01  .403E-01  .380E-01  .340E-01  .345E-01
  .411E-01  .310E-01  .287E-01  .294E-01  .295E-01  .357E-01  .360E-01  .331E-01
  .364E-01  .426E-01  .415E-01  .312E-01  .287E-01  .285E-01  .310E-01  .257E-01
  .225E-01  .234E-01  .252E-01  .248E-01  .254E-01  .243E-01  .262E-01  .243E-01
  .210E-01  .198E-01  .205E-01  .210E-01  .212E-01  .212E-01  .210E-01  .206E-01
  .201E-01  .195E-01  .190E-01  .184E-01  .188E-01  .189E-01  .189E-01  .188E-01
  .186E-01  .185E-01  .184E-01  .182E-01  .182E-01  .182E-01  .183E-01  .183E-01
  .184E-01  .184E-01  .184E-01  .000E+00  .000E+00  .000E+00  .000E+00  .000E+00
  .000E+00  .000E+00  .000E+00  .000E+00
  .598E-02  .588E-02  .589E-02  .535E-02  .508E-02  .446E-02  .459E-02  .629E-02
  .687E-02  .776E-02  .600E-02  .590E-02  .528E-02  .589E-02  .577E-02  .560E-02
  .496E-02  .401E-02  .390E-02  .367E-02  .234E-02  .258E-02  .272E-02  .213E-02
  .221E-02  .213E-02  .213E-02  .206E-02  .137E-02  .142E-02  .138E-02  .130E-02
  .130E-02  .119E-02  .118E-02  .149E-02  .154E-02  .126E-02  .110E-02  .111E-02
  .111E-02  .841E-03  .670E-03  .638E-03  .583E-03  .638E-03  .640E-03  .618E-03
  .597E-03  .579E-03  .573E-03  .350E-03  .246E-03  .230E-03  .200E-03  .180E-03
  .163E-03  .153E-03  .137E-03  .111E-03  .101E-03  .141E-03  .130E-03  .102E-03
  .820E-04  .705E-04  .639E-04  .693E-04  .659E-04  .553E-04  .373E-04  .311E-04
  .286E-04  .264E-04  .274E-04  .254E-04  .177E-04  .142E-04  .114E-04  .943E-05
  .850E-05  .769E-05  .700E-05  .639E-05  .587E-05  .541E-05  .466E-05  .408E-05
  .362E-05  .324E-05  .294E-05  .000E+00  .000E+00  .000E+00  .000E+00  .000E+00
  .000E+00  .000E+00  .000E+00  .000E+00
  .148E-01  .152E-01  .157E-01  .149E-01  .147E-01  .136E-01  .157E-01  .235E-01
  .277E-01  .334E-01  .275E-01  .290E-01  .271E-01  .324E-01  .336E-01  .346E-01
  .334E-01  .298E-01  .313E-01  .310E-01  .214E-01  .255E-01  .287E-01  .237E-01
  .258E-01  .260E-01  .288E-01  .302E-01  .216E-01  .242E-01  .252E-01  .253E-01
  .270E-01  .262E-01  .274E-01  .363E-01  .397E-01  .338E-01  .307E-01  .327E-01
  .340E-01  .281E-01  .244E-01  .253E-01  .248E-01  .292E-01  .313E-01  .321E-01
  .328E-01  .335E-01  .349E-01  .234E-01  .180E-01  .182E-01  .170E-01  .161E-01
  .160E-01  .159E-01  .148E-01  .124E-01  .120E-01  .187E-01  .191E-01  .162E-01
  .139E-01  .129E-01  .125E-01  .144E-01  .145E-01  .128E-01  .911E-02  .771E-02
  .724E-02  .734E-02  .803E-02  .770E-02  .556E-02  .477E-02  .400E-02  .343E-02
  .298E-02  .261E-02  .233E-02  .219E-02  .205E-02  .193E-02  .172E-02  .155E-02
  .141E-02  .129E-02  .118E-02  .000E+00  .000E+00  .000E+00  .000E+00  .000E+00
  .000E+00  .000E+00  .000E+00  .000E+00
  .173E+02  .173E+02  .173E+02  .173E+02  .169E+02  .169E+02  .440E+01  .441E+01
  .452E+01  .457E+01  .498E+01  .357E+01  .605E+01  .509E+01  .510E+01  .510E+01
  .506E+01  .416E+01  .491E+01  .492E+01  .628E+01  .368E+01  .413E+01  .461E+01
  .400E+01  .487E+01  .488E+01  .503E+01  .438E+01  .440E+01  .374E+01  .376E+01
  .377E+01  .378E+01  .731E+01  .715E+01  .719E+01  .680E+01  .681E+01  .684E+01
  .640E+01  .623E+01  .623E+01  .105E+02  .474E+01  .518E+01  .527E+01  .531E+01
  .538E+01  .596E+01  .602E+01  .607E+01  .108E+02  .610E+01  .573E+01  .574E+01
  .199E+02  .178E+02  .103E+02  .409E+01  .644E+01  .103E+02  .106E+02  .972E+01
  .992E+01  .202E+02  .203E+02  .205E+02  .191E+02  .193E+02  .195E+02  .111E+02
  .111E+02  .194E+02  .195E+02  .196E+02  .993E+01  .165E+02  .523E+01  .523E+01
  .523E+01  .523E+01  .370E+01  .372E+01  .372E+01  .372E+01  .384E+01  .384E+01
  .384E+01  .384E+01  .384E+01  .000E+00  .000E+00  .000E+00  .000E+00  .000E+00
  .000E+00  .000E+00  .000E+00  .000E+00
  .173E+02  .173E+02  .173E+02  .173E+02  .168E+02  .168E+02  .439E+01  .439E+01
  .450E+01  .455E+01  .463E+01  .351E+01  .603E+01  .596E+01  .507E+01  .508E+01
  .508E+01  .504E+01  .494E+01  .489E+01  .415E+01  .415E+01  .409E+01  .410E+01
  .490E+01  .397E+01  .505E+01  .485E+01  .442E+01  .392E+01  .410E+01  .383E+01
  .659E+01  .659E+01  .659E+01  .724E+01  .711E+01  .690E+01  .691E+01  .674E+01
  .653E+01  .633E+01  .410E+01  .410E+01  .411E+01  .500E+01  .500E+01  .471E+01
  .612E+01  .620E+01  .621E+01  .593E+01  .360E+01  .593E+01  .593E+01  .594E+01
  .485E+01  .453E+01  .453E+01  .453E+01  .593E+01  .594E+01  .101E+02  .102E+02
  .940E+01  .571E+01  .571E+01  .571E+01  .571E+01  .571E+01  .571E+01  .571E+01
  .571E+01  .571E+01  .571E+01  .571E+01  .485E+01  .485E+01  .485E+01  .485E+01
  .485E+01  .485E+01  .485E+01  .485E+01  .361E+01  .361E+01  .361E+01  .361E+01
  .361E+01  .361E+01  .361E+01  .000E+00  .000E+00  .000E+00  .000E+00  .000E+00
  .000E+00  .000E+00  .000E+00  .000E+00
  .173E+02  .174E+02  .173E+02  .173E+02  .169E+02  .169E+02  .440E+01  .440E+01
  .452E+01  .457E+01  .498E+01  .357E+01  .605E+01  .509E+01  .509E+01  .510E+01
  .511E+01  .415E+01  .502E+01  .492E+01  .627E+01  .367E+01  .412E+01  .460E+01
  .400E+01  .487E+01  .488E+01  .503E+01  .438E+01  .413E+01  .374E+01  .375E+01
  .376E+01  .377E+01  .731E+01  .715E+01  .718E+01  .680E+01  .681E+01  .683E+01
  .639E+01  .622E+01  .622E+01  .105E+02  .473E+01  .517E+01  .526E+01  .529E+01
  .537E+01  .594E+01  .601E+01  .603E+01  .107E+02  .608E+01  .571E+01  .572E+01
  .199E+02  .178E+02  .103E+02  .405E+01  .642E+01  .103E+02  .106E+02  .964E+01
  .989E+01  .201E+02  .203E+02  .204E+02  .191E+02  .193E+02  .194E+02  .655E+01
  .495E+01  .495E+01  .194E+02  .196E+02  .506E+01  .506E+01  .495E+01  .362E+01
  .362E+01  .362E+01  .362E+01  .362E+01  .362E+01  .362E+01  .362E+01  .362E+01
  .362E+01  .362E+01  .362E+01  .000E+00  .000E+00  .000E+00  .000E+00  .000E+00
  .000E+00  .000E+00  .000E+00  .000E+00
/&   ----------  End of spectral data for channel  2  ----------
