Response and Fourier amplitude spectra (91 periods,  .04 - 15.0 sec)   for      
Corrected accelerogram   24706-F0848-01252.07       Chan  1: 360 Deg     from   
Uncorrected Accelerogram Data             Processed: 09/10/01, CDMG  s706e07    
Earthquake of Sun Sep  9, 2001  16:59 PDT             (Avol1 v4.6  7/01 CSMIP)  
CSMIP Preliminary Processing            (Origin:  To be determined)             
24706-F0848-01252.07                 Start time:  9/09/01, 23:59:32.1 GMT (WWVB)
Station No. 24706   34.546N, 118.129W     SSA-2  s/n  848  (3 Channels)         
Palmdale - Hwy 14/Barrel Springs Bridge                                         
Chan  1: 360 Deg                    Location: Freefield (275 ft NW of East Abut)
Earthquake of Sun Sep  9, 2001  16:59 PDT    Sun Sep  9, 2001  16:59 PDT        
Hypocenter:  To be determined.               ML:  To be determined.
Instr Period =  .0222 sec,  Damping =  .700,  Sensitivity = 1.25  v/g
                        Record length = 67.840 sec.
                                     Uncor Max  =  -.003 g, at   3.725 sec.
RMS accel of (uncor) record  =        .
Accelerogram bandpass filtered with 3 dB pts at   .30 and 40.00 cyc/sec
                 instrument- and baseline-corrected





Earthquake of Sun Sep  9, 2001  16:59 PDT    Sun Sep  9, 2001  16:59 PDT

24706-F0848-01252.07      Palmdale - Hwy 14/Barrel Springs Bridge   Chan  1: 360
 Deg
24706-F0848-01252.07      Palmdale - Hwy 14/Barrel Springs Bridge   Chan  1: 360
 Deg
Units for spectra are inches and sec, except Sa is in fraction of g.

    1  100    1    3   12  200    1    3    1   12    6  848    024706    3    0
   23   59   32   85  252    9    9 2001   10    1  36013568   41   39   72  335
13568    1   50    0 3126    1    7   53    0   23   59   41  860    9    9 2001
    0    0    0    0 6784    2    0    0    0    0   72   39    0    0    0 6784
    0 6784   40   91    1    3    0    0    0    0   12    0    0    0    0    2
    2    2    4    1   66   99    1   32   32    0    0    0    0    0    9  128
  -99   -1    0    0
      .022      .700    67.840      .001      .000  1250.000     -.003     3.725
    45.000  1220.703   976.563      .000     5.000      .000      .000      .000
     2.500    23.152      .033      .026     5.120    30.000      .000      .069
     -.046     -.115     2.000    15.000    34.546  -118.129      .470      .420
      .894     -.178     -.051  -999.000      .000      .000      .000      .000
      .513     1.684      .000      .000      .000      .000      .000      .000
     4.600     4.400      .000   980.665      .010    67.840     7.162      .000
      .000    40.000      .000    67.840      .010      .300      .000      .000
     3.730    -3.375     3.690      .149     4.100     -.007      .000      .300
    40.000      .010      .010      .000      .010      .006      .000      .000
      .011      .220      .009      .006      .001      .000      .000      .000
      .000      .000      .000      .000      .000      .000      .000      .000
      .000      .000      .000      .000
      .050
      .040      .042      .044      .046      .048      .050      .055      .060
      .065      .070      .075      .080      .085      .090      .095      .100
      .110      .120      .130      .140      .150      .160      .170      .180
      .190      .200      .220      .240      .260      .280      .300      .320
      .340      .360      .380      .400      .420      .440      .460      .480
      .500      .550      .600      .650      .700      .750      .800      .850
      .900      .950     1.000     1.100     1.200     1.300     1.400     1.500
     1.600     1.700     1.800     1.900     2.000     2.200     2.400     2.600
     2.800     3.000     3.200     3.400     3.600     3.800     4.000     4.200
     4.400     4.600     4.800     5.000     5.500     6.000     6.500     7.000
     7.500     8.000     8.500     9.000     9.500    10.000    11.000    12.000
    13.000    14.000    15.000      .000      .000      .000      .000      .000
      .000      .000      .000      .000
Fourier amplitude spectra in in/sec.
  .000E+00  .000E+00  .000E+00  .000E+00  .000E+00  .000E+00  .000E+00  .000E+00
  .000E+00  .000E+00  .000E+00  .000E+00  .000E+00  .000E+00  .000E+00  .000E+00
  .000E+00  .000E+00  .000E+00  .000E+00  .000E+00  .000E+00  .000E+00  .000E+00
  .000E+00  .000E+00  .000E+00  .000E+00  .000E+00  .000E+00  .000E+00  .000E+00
  .000E+00  .000E+00  .000E+00  .000E+00  .000E+00  .000E+00  .000E+00  .000E+00
  .000E+00  .000E+00  .000E+00  .000E+00  .000E+00  .000E+00  .000E+00  .000E+00
  .000E+00  .000E+00  .000E+00  .000E+00  .000E+00  .000E+00  .000E+00  .000E+00
  .000E+00  .000E+00  .000E+00  .000E+00  .000E+00  .000E+00  .000E+00  .000E+00
  .000E+00  .000E+00  .000E+00  .000E+00  .000E+00  .000E+00  .000E+00  .000E+00
  .000E+00  .000E+00  .000E+00  .000E+00  .000E+00  .000E+00  .000E+00  .000E+00
  .000E+00  .000E+00  .000E+00  .000E+00  .000E+00  .000E+00  .000E+00  .000E+00
  .000E+00  .000E+00  .000E+00  .000E+00  .000E+00  .000E+00  .000E+00  .000E+00
  .000E+00  .000E+00  .000E+00  .000E+00
Damping =  .05. Data of Sd,Sv,Sa,Pssv,ttSd,ttSv,ttSa :
  .903E-04  .115E-03  .138E-03  .149E-03  .140E-03  .156E-03  .249E-03  .302E-03
  .352E-03  .370E-03  .388E-03  .414E-03  .455E-03  .597E-03  .705E-03  .638E-03
  .721E-03  .108E-02  .140E-02  .150E-02  .177E-02  .183E-02  .185E-02  .241E-02
  .307E-02  .352E-02  .494E-02  .542E-02  .569E-02  .575E-02  .562E-02  .547E-02
  .576E-02  .628E-02  .633E-02  .621E-02  .624E-02  .626E-02  .622E-02  .613E-02
  .614E-02  .618E-02  .667E-02  .768E-02  .936E-02  .959E-02  .799E-02  .709E-02
  .679E-02  .644E-02  .613E-02  .582E-02  .588E-02  .797E-02  .601E-02  .757E-02
  .798E-02  .101E-01  .971E-02  .966E-02  .902E-02  .120E-01  .128E-01  .921E-02
  .113E-01  .118E-01  .118E-01  .129E-01  .149E-01  .129E-01  .124E-01  .120E-01
  .899E-02  .785E-02  .786E-02  .939E-02  .882E-02  .956E-02  .898E-02  .713E-02
  .605E-02  .570E-02  .610E-02  .614E-02  .543E-02  .482E-02  .477E-02  .531E-02
  .507E-02  .437E-02  .467E-02  .000E+00  .000E+00  .000E+00  .000E+00  .000E+00
  .000E+00  .000E+00  .000E+00  .000E+00
  .135E-01  .161E-01  .195E-01  .204E-01  .180E-01  .150E-01  .254E-01  .285E-01
  .271E-01  .308E-01  .285E-01  .280E-01  .292E-01  .368E-01  .429E-01  .411E-01
  .304E-01  .440E-01  .471E-01  .463E-01  .557E-01  .597E-01  .585E-01  .814E-01
  .103E+00  .116E+00  .142E+00  .148E+00  .147E+00  .140E+00  .130E+00  .127E+00
  .126E+00  .124E+00  .113E+00  .101E+00  .990E-01  .993E-01  .982E-01  .964E-01
  .956E-01  .975E-01  .946E-01  .917E-01  .922E-01  .895E-01  .815E-01  .721E-01
  .736E-01  .736E-01  .728E-01  .712E-01  .711E-01  .725E-01  .740E-01  .746E-01
  .742E-01  .733E-01  .721E-01  .707E-01  .694E-01  .667E-01  .643E-01  .622E-01
  .604E-01  .590E-01  .580E-01  .573E-01  .568E-01  .565E-01  .564E-01  .563E-01
  .563E-01  .564E-01  .565E-01  .565E-01  .568E-01  .570E-01  .572E-01  .573E-01
  .574E-01  .575E-01  .575E-01  .576E-01  .576E-01  .576E-01  .576E-01  .576E-01
  .576E-01  .576E-01  .576E-01  .000E+00  .000E+00  .000E+00  .000E+00  .000E+00
  .000E+00  .000E+00  .000E+00  .000E+00
  .580E-02  .673E-02  .728E-02  .720E-02  .619E-02  .630E-02  .838E-02  .866E-02
  .861E-02  .785E-02  .703E-02  .660E-02  .652E-02  .759E-02  .800E-02  .667E-02
  .613E-02  .775E-02  .857E-02  .784E-02  .810E-02  .740E-02  .661E-02  .766E-02
  .881E-02  .910E-02  .105E-01  .969E-02  .869E-02  .755E-02  .641E-02  .548E-02
  .513E-02  .500E-02  .450E-02  .401E-02  .364E-02  .334E-02  .303E-02  .274E-02
  .254E-02  .211E-02  .191E-02  .188E-02  .197E-02  .177E-02  .129E-02  .103E-02
  .874E-03  .747E-03  .644E-03  .508E-03  .432E-03  .485E-03  .316E-03  .346E-03
  .321E-03  .360E-03  .309E-03  .275E-03  .233E-03  .256E-03  .229E-03  .141E-03
  .148E-03  .135E-03  .119E-03  .115E-03  .118E-03  .933E-04  .804E-04  .715E-04
  .481E-04  .392E-04  .357E-04  .391E-04  .308E-04  .280E-04  .226E-04  .155E-04
  .136E-04  .127E-04  .118E-04  .111E-04  .104E-04  .980E-05  .878E-05  .795E-05
  .726E-05  .669E-05  .621E-05  .000E+00  .000E+00  .000E+00  .000E+00  .000E+00
  .000E+00  .000E+00  .000E+00  .000E+00
  .142E-01  .173E-01  .196E-01  .204E-01  .183E-01  .196E-01  .285E-01  .316E-01
  .341E-01  .332E-01  .325E-01  .325E-01  .336E-01  .417E-01  .466E-01  .401E-01
  .412E-01  .566E-01  .676E-01  .674E-01  .743E-01  .719E-01  .682E-01  .842E-01
  .101E+00  .110E+00  .141E+00  .142E+00  .137E+00  .129E+00  .118E+00  .107E+00
  .106E+00  .110E+00  .105E+00  .976E-01  .934E-01  .893E-01  .849E-01  .803E-01
  .772E-01  .706E-01  .699E-01  .743E-01  .840E-01  .803E-01  .628E-01  .524E-01
  .474E-01  .426E-01  .385E-01  .332E-01  .308E-01  .385E-01  .270E-01  .317E-01
  .313E-01  .373E-01  .339E-01  .319E-01  .283E-01  .343E-01  .335E-01  .223E-01
  .253E-01  .246E-01  .232E-01  .238E-01  .260E-01  .214E-01  .195E-01  .180E-01
  .128E-01  .107E-01  .103E-01  .118E-01  .101E-01  .100E-01  .868E-02  .640E-02
  .507E-02  .448E-02  .451E-02  .428E-02  .359E-02  .303E-02  .272E-02  .278E-02
  .245E-02  .196E-02  .196E-02  .000E+00  .000E+00  .000E+00  .000E+00  .000E+00
  .000E+00  .000E+00  .000E+00  .000E+00
  .174E+02  .173E+02  .173E+02  .173E+02  .409E+01  .409E+01  .410E+01  .422E+01
  .424E+01  .485E+01  .457E+01  .458E+01  .458E+01  .459E+01  .459E+01  .479E+01
  .372E+01  .373E+01  .374E+01  .375E+01  .376E+01  .377E+01  .376E+01  .377E+01
  .428E+01  .410E+01  .413E+01  .415E+01  .393E+01  .395E+01  .396E+01  .397E+01
  .384E+01  .384E+01  .385E+01  .386E+01  .386E+01  .386E+01  .387E+01  .387E+01
  .388E+01  .389E+01  .428E+01  .430E+01  .470E+01  .472E+01  .475E+01  .374E+01
  .374E+01  .374E+01  .374E+01  .375E+01  .427E+02  .423E+02  .608E+02  .602E+02
  .596E+02  .566E+02  .567E+02  .569E+02  .603E+02  .597E+02  .381E+02  .314E+02
  .599E+02  .600E+02  .602E+02  .640E+02  .643E+02  .646E+02  .630E+02  .631E+02
  .634E+02  .292E+02  .294E+02  .634E+02  .614E+02  .592E+02  .593E+02  .594E+02
  .580E+02  .580E+02  .580E+02  .580E+02  .580E+02  .580E+02  .593E+02  .580E+02
  .580E+02  .592E+02  .592E+02  .000E+00  .000E+00  .000E+00  .000E+00  .000E+00
  .000E+00  .000E+00  .000E+00  .000E+00
  .174E+02  .173E+02  .173E+02  .173E+02  .173E+02  .411E+01  .417E+01  .412E+01
  .426E+01  .487E+01  .455E+01  .456E+01  .456E+01  .457E+01  .457E+01  .477E+01
  .368E+01  .435E+01  .371E+01  .458E+01  .380E+01  .381E+01  .431E+01  .431E+01
  .424E+01  .425E+01  .418E+01  .410E+01  .400E+01  .401E+01  .389E+01  .390E+01
  .391E+01  .391E+01  .392E+01  .392E+01  .379E+01  .379E+01  .379E+01  .379E+01
  .379E+01  .380E+01  .380E+01  .380E+01  .381E+01  .382E+01  .382E+01  .382E+01
  .367E+01  .367E+01  .367E+01  .368E+01  .368E+01  .368E+01  .368E+01  .368E+01
  .368E+01  .368E+01  .368E+01  .368E+01  .368E+01  .368E+01  .368E+01  .368E+01
  .368E+01  .368E+01  .368E+01  .368E+01  .368E+01  .368E+01  .368E+01  .368E+01
  .368E+01  .368E+01  .368E+01  .368E+01  .368E+01  .368E+01  .368E+01  .368E+01
  .368E+01  .368E+01  .368E+01  .368E+01  .368E+01  .368E+01  .368E+01  .368E+01
  .368E+01  .368E+01  .368E+01  .000E+00  .000E+00  .000E+00  .000E+00  .000E+00
  .000E+00  .000E+00  .000E+00  .000E+00
  .174E+02  .173E+02  .173E+02  .173E+02  .409E+01  .409E+01  .409E+01  .422E+01
  .424E+01  .485E+01  .457E+01  .458E+01  .458E+01  .459E+01  .459E+01  .479E+01
  .372E+01  .373E+01  .374E+01  .375E+01  .375E+01  .376E+01  .376E+01  .387E+01
  .428E+01  .410E+01  .412E+01  .415E+01  .393E+01  .394E+01  .395E+01  .397E+01
  .383E+01  .384E+01  .384E+01  .385E+01  .385E+01  .386E+01  .386E+01  .386E+01
  .387E+01  .388E+01  .427E+01  .429E+01  .469E+01  .471E+01  .473E+01  .372E+01
  .372E+01  .373E+01  .373E+01  .373E+01  .373E+01  .422E+02  .607E+02  .602E+02
  .596E+02  .566E+02  .567E+02  .569E+02  .603E+02  .596E+02  .380E+02  .314E+02
  .598E+02  .599E+02  .601E+02  .639E+02  .643E+02  .645E+02  .629E+02  .630E+02
  .634E+02  .290E+02  .293E+02  .634E+02  .613E+02  .591E+02  .592E+02  .592E+02
  .369E+01  .369E+01  .369E+01  .369E+01  .369E+01  .369E+01  .369E+01  .369E+01
  .369E+01  .369E+01  .368E+01  .000E+00  .000E+00  .000E+00  .000E+00  .000E+00
  .000E+00  .000E+00  .000E+00  .000E+00
/&   ----------  End of spectral data for channel  1  ----------
