Response and Fourier amplitude spectra (68 periods,  .04 -  3.4 sec)   for      
Corrected accelerogram   13067-L1888-08211.01       Chan  1: 360 Deg     from   
Uncorrected Accelerogram Data             Processed: 07/29/08, CDMG  ce13067s   
Record of Tue Jul 29, 2008 11:41:55.0 PDT             (Avol1 v7.9 7/08 CSMIP)   
CSMIP Preliminary Processing            (Origin:  To be determined)             
13067-L1888-08211.01                 Start time:  7/29/08, 18:41:55.0 UTC (GPS) 
Station No. 13067   33.786N, 117.809W      Etna  s/n 1888  (3 Channels)         
Orange - Chapman & Esplanade              CGS                                   
Chan  1: 360 Deg                                                                
Record of Tue Jul 29, 2008 11:41:55.0 PDT    Tue Jul 29, 2008 11:41:55.0 PDT    
Hypocenter:  To be determined.               ML:  To be determined.             
Instr Period =  .0105 sec,  Damping =  .670,  Sensitivity =  .63  v/g           
                        Record length = 75.000 sec.                             
                                     Uncor Max  =  -.098 g , at  29.080 sec.    
RMS accel of (uncor) record  =        .   Chn. metadata effective date: 10/23/02
Accelerogram bandpass filtered with 3 dB pts at   .30 and 40.00 cyc/sec         
                 instrument- and baseline-corrected                             
                                                                                
                                                                                
                                                                                
                                                                                
                                                                                
Record of Tue Jul 29, 2008 11:41:55.0 PDT    Tue Jul 29, 2008 11:41:55.0 PDT    
                                                                                
13067-L1888-08211.01      Orange - Chapman & Esplanade    Chan  1: 360 Deg      
                                                                                
13067-L1888-08211.01      Orange - Chapman & Esplanade    Chan  1: 360 Deg      
                                                                                
Units for spectra are inches and sec, except Sa is in fraction of g.            
                                                                                
    1  100    1    4    3  200    1    3    1   24   12 1888    013067    1    0
   18   41   55    0  211    7   29 2008   10    3  36015000   41   28   76  360
15000    1   50    3 1888    1    1  750    2    0    0    0    0    0    0    0
    0    4    0    015000    1  202    0   18    4   76   28    1    1    015000
    315000   29   68    5    3    5    0    0    0    3    0    0    3    0    2
    2    2    4    0   32   99 -999   32   32    0    0    1    0    0    0  222
    1    0    2    0
      .011      .670    75.000      .006      .000   625.000     -.098    29.080
    95.200      .298      .477      .000     5.000      .000     4.000      .000
     2.500     5.781     2.500  -999.000    25.000    30.000      .000     -.002
     -.001      .002     2.000    15.000    33.786  -117.809      .021      .674
    32.820      .000      .000    89.000    25.800    44.000    13.300    78.260
     1.000     1.458      .000      .000      .000      .000      .000      .000
     4.200     7.900     4.600   980.665      .005    75.000    15.152      .000
      .000    40.000      .000    75.000      .005      .303      .000      .000
    29.075   -95.281    28.935     7.012    29.060     1.133      .000      .303
    40.000      .005      .005      .000     1.700      .180      .000      .000
      .264      .380      .154      .224      .077      .008      .000      .000
      .000      .000      .000      .000      .000      .000      .000      .000
      .000      .000      .000      .000
      .000      .020      .050      .100      .200
      .040      .042      .044      .046      .048      .050      .055      .060
      .065      .070      .075      .080      .085      .090      .095      .100
      .110      .120      .130      .140      .150      .160      .170      .180
      .190      .200      .220      .240      .260      .280      .300      .320
      .340      .360      .380      .400      .420      .440      .460      .480
      .500      .550      .600      .650      .700      .750      .800      .850
      .900      .950     1.000     1.100     1.200     1.300     1.400     1.500
     1.600     1.700     1.800     1.900     2.000     2.200     2.400     2.600
     2.800     3.000     3.200     3.400      .000      .000      .000      .000
      .000      .000      .000      .000      .000      .000      .000      .000
      .000      .000      .000      .000      .000      .000      .000      .000
      .000      .000      .000      .000      .000      .000      .000      .000
      .000      .000      .000      .000
Fourier amplitude spectra in in/sec.
  .305E-01  .357E-01  .553E-01  .108E+00  .315E-01  .167E+00  .168E+00  .223E-01
  .365E+00  .316E+00  .202E+00  .489E+00  .421E+00  .472E+00  .137E+01  .449E+00
  .147E+01  .911E+00  .101E+01  .149E+01  .186E+01  .144E+01  .766E+00  .174E+01
  .206E+01  .150E+01  .132E+01  .211E+01  .312E+01  .797E+01  .501E+01  .674E+01
  .728E+01  .130E+02  .130E+02  .946E+01  .781E+01  .447E+01  .932E+01  .466E+01
  .812E+01  .532E+01  .124E+02  .119E+02  .103E+02  .249E+01  .143E+01  .738E+01
  .503E+01  .394E+01  .158E+02  .612E+01  .953E+01  .645E+01  .643E+01  .424E+01
  .968E+00  .540E+01  .422E+01  .277E+01  .820E+00  .141E+01  .132E+01  .133E+01
  .800E+00  .358E+00  .380E+00  .276E+00  .000E+00  .000E+00  .000E+00  .000E+00
  .000E+00  .000E+00  .000E+00  .000E+00  .000E+00  .000E+00  .000E+00  .000E+00
  .000E+00  .000E+00  .000E+00  .000E+00  .000E+00  .000E+00  .000E+00  .000E+00
  .000E+00  .000E+00  .000E+00  .000E+00  .000E+00  .000E+00  .000E+00  .000E+00
  .000E+00  .000E+00  .000E+00  .000E+00
Damping =  .00. Data of Sd,Sv,Sa,Pssv,ttSd,ttSv,ttSa :
  .185E-02  .219E-02  .226E-02  .259E-02  .240E-02  .317E-02  .312E-02  .406E-02
  .712E-02  .662E-02  .611E-02  .974E-02  .149E-01  .954E-02  .239E-01  .223E-01
  .274E-01  .417E-01  .297E-01  .429E-01  .495E-01  .415E-01  .421E-01  .574E-01
  .698E-01  .873E-01  .753E-01  .116E+00  .235E+00  .364E+00  .271E+00  .457E+00
  .478E+00  .908E+00  .791E+00  .776E+00  .626E+00  .460E+00  .684E+00  .563E+00
  .674E+00  .567E+00  .122E+01  .127E+01  .115E+01  .761E+00  .822E+00  .999E+00
  .839E+00  .927E+00  .256E+01  .155E+01  .216E+01  .182E+01  .173E+01  .126E+01
  .112E+01  .152E+01  .130E+01  .971E+00  .619E+00  .562E+00  .634E+00  .633E+00
  .661E+00  .670E+00  .657E+00  .632E+00  .000E+00  .000E+00  .000E+00  .000E+00
  .000E+00  .000E+00  .000E+00  .000E+00  .000E+00  .000E+00  .000E+00  .000E+00
  .000E+00  .000E+00  .000E+00  .000E+00  .000E+00  .000E+00  .000E+00  .000E+00
  .000E+00  .000E+00  .000E+00  .000E+00  .000E+00  .000E+00  .000E+00  .000E+00
  .000E+00  .000E+00  .000E+00  .000E+00
  .818E-01  .122E+00  .101E+00  .134E+00  .756E-01  .195E+00  .176E+00  .161E+00
  .424E+00  .392E+00  .282E+00  .572E+00  .820E+00  .484E+00  .143E+01  .100E+01
  .153E+01  .188E+01  .114E+01  .168E+01  .195E+01  .158E+01  .108E+01  .186E+01
  .226E+01  .256E+01  .188E+01  .286E+01  .518E+01  .813E+01  .566E+01  .893E+01
  .858E+01  .158E+02  .130E+02  .123E+02  .921E+01  .655E+01  .934E+01  .769E+01
  .845E+01  .659E+01  .127E+02  .123E+02  .103E+02  .623E+01  .666E+01  .739E+01
  .608E+01  .589E+01  .161E+02  .893E+01  .115E+02  .914E+01  .816E+01  .633E+01
  .549E+01  .564E+01  .487E+01  .404E+01  .372E+01  .341E+01  .330E+01  .321E+01
  .306E+01  .296E+01  .301E+01  .304E+01  .000E+00  .000E+00  .000E+00  .000E+00
  .000E+00  .000E+00  .000E+00  .000E+00  .000E+00  .000E+00  .000E+00  .000E+00
  .000E+00  .000E+00  .000E+00  .000E+00  .000E+00  .000E+00  .000E+00  .000E+00
  .000E+00  .000E+00  .000E+00  .000E+00  .000E+00  .000E+00  .000E+00  .000E+00
  .000E+00  .000E+00  .000E+00  .000E+00
  .118E+00  .127E+00  .120E+00  .125E+00  .107E+00  .130E+00  .105E+00  .115E+00
  .172E+00  .138E+00  .111E+00  .156E+00  .211E+00  .121E+00  .271E+00  .228E+00
  .231E+00  .296E+00  .180E+00  .224E+00  .225E+00  .166E+00  .149E+00  .181E+00
  .198E+00  .223E+00  .159E+00  .206E+00  .356E+00  .474E+00  .308E+00  .456E+00
  .423E+00  .717E+00  .560E+00  .496E+00  .363E+00  .243E+00  .330E+00  .250E+00
  .276E+00  .192E+00  .346E+00  .308E+00  .239E+00  .138E+00  .131E+00  .141E+00
  .106E+00  .105E+00  .262E+00  .131E+00  .153E+00  .110E+00  .903E-01  .574E-01
  .449E-01  .537E-01  .411E-01  .275E-01  .158E-01  .119E-01  .113E-01  .958E-02
  .862E-02  .761E-02  .656E-02  .559E-02  .000E+00  .000E+00  .000E+00  .000E+00
  .000E+00  .000E+00  .000E+00  .000E+00  .000E+00  .000E+00  .000E+00  .000E+00
  .000E+00  .000E+00  .000E+00  .000E+00  .000E+00  .000E+00  .000E+00  .000E+00
  .000E+00  .000E+00  .000E+00  .000E+00  .000E+00  .000E+00  .000E+00  .000E+00
  .000E+00  .000E+00  .000E+00  .000E+00
  .291E+00  .327E+00  .323E+00  .353E+00  .314E+00  .399E+00  .356E+00  .425E+00
  .688E+00  .594E+00  .512E+00  .765E+00  .110E+01  .666E+00  .158E+01  .140E+01
  .156E+01  .218E+01  .144E+01  .193E+01  .207E+01  .163E+01  .155E+01  .200E+01
  .231E+01  .274E+01  .215E+01  .303E+01  .568E+01  .816E+01  .568E+01  .897E+01
  .883E+01  .158E+02  .131E+02  .122E+02  .936E+01  .657E+01  .934E+01  .737E+01
  .847E+01  .648E+01  .128E+02  .123E+02  .103E+02  .638E+01  .645E+01  .738E+01
  .586E+01  .613E+01  .161E+02  .887E+01  .113E+02  .880E+01  .777E+01  .529E+01
  .442E+01  .561E+01  .454E+01  .321E+01  .194E+01  .161E+01  .166E+01  .153E+01
  .148E+01  .140E+01  .129E+01  .117E+01  .000E+00  .000E+00  .000E+00  .000E+00
  .000E+00  .000E+00  .000E+00  .000E+00  .000E+00  .000E+00  .000E+00  .000E+00
  .000E+00  .000E+00  .000E+00  .000E+00  .000E+00  .000E+00  .000E+00  .000E+00
  .000E+00  .000E+00  .000E+00  .000E+00  .000E+00  .000E+00  .000E+00  .000E+00
  .000E+00  .000E+00  .000E+00  .000E+00
  .291E+02  .291E+02  .291E+02  .291E+02  .291E+02  .290E+02  .291E+02  .291E+02
  .290E+02  .307E+02  .291E+02  .307E+02  .290E+02  .291E+02  .307E+02  .291E+02
  .344E+02  .306E+02  .306E+02  .292E+02  .290E+02  .403E+02  .291E+02  .315E+02
  .469E+02  .338E+02  .292E+02  .308E+02  .302E+02  .521E+02  .375E+02  .296E+02
  .338E+02  .324E+02  .468E+02  .303E+02  .304E+02  .298E+02  .728E+02  .299E+02
  .639E+02  .303E+02  .514E+02  .474E+02  .616E+02  .292E+02  .293E+02  .739E+02
  .497E+02  .309E+02  .524E+02  .327E+02  .421E+02  .353E+02  .406E+02  .302E+02
  .303E+02  .518E+02  .404E+02  .370E+02  .363E+02  .290E+02  .370E+02  .363E+02
  .290E+02  .290E+02  .291E+02  .291E+02  .000E+00  .000E+00  .000E+00  .000E+00
  .000E+00  .000E+00  .000E+00  .000E+00  .000E+00  .000E+00  .000E+00  .000E+00
  .000E+00  .000E+00  .000E+00  .000E+00  .000E+00  .000E+00  .000E+00  .000E+00
  .000E+00  .000E+00  .000E+00  .000E+00  .000E+00  .000E+00  .000E+00  .000E+00
  .000E+00  .000E+00  .000E+00  .000E+00
  .291E+02  .297E+02  .292E+02  .305E+02  .291E+02  .307E+02  .449E+02  .291E+02
  .295E+02  .301E+02  .297E+02  .310E+02  .291E+02  .519E+02  .306E+02  .295E+02
  .344E+02  .306E+02  .306E+02  .498E+02  .360E+02  .457E+02  .396E+02  .315E+02
  .469E+02  .338E+02  .293E+02  .308E+02  .303E+02  .572E+02  .359E+02  .297E+02
  .337E+02  .323E+02  .467E+02  .304E+02  .305E+02  .299E+02  .729E+02  .295E+02
  .640E+02  .304E+02  .513E+02  .475E+02  .727E+02  .294E+02  .291E+02  .724E+02
  .291E+02  .291E+02  .522E+02  .330E+02  .423E+02  .349E+02  .403E+02  .306E+02
  .301E+02  .488E+02  .373E+02  .301E+02  .301E+02  .301E+02  .291E+02  .291E+02
  .291E+02  .289E+02  .289E+02  .289E+02  .000E+00  .000E+00  .000E+00  .000E+00
  .000E+00  .000E+00  .000E+00  .000E+00  .000E+00  .000E+00  .000E+00  .000E+00
  .000E+00  .000E+00  .000E+00  .000E+00  .000E+00  .000E+00  .000E+00  .000E+00
  .000E+00  .000E+00  .000E+00  .000E+00  .000E+00  .000E+00  .000E+00  .000E+00
  .000E+00  .000E+00  .000E+00  .000E+00
  .291E+02  .291E+02  .291E+02  .291E+02  .291E+02  .290E+02  .291E+02  .291E+02
  .290E+02  .307E+02  .291E+02  .307E+02  .290E+02  .291E+02  .307E+02  .291E+02
  .344E+02  .306E+02  .306E+02  .292E+02  .290E+02  .403E+02  .291E+02  .315E+02
  .469E+02  .338E+02  .292E+02  .308E+02  .302E+02  .521E+02  .375E+02  .296E+02
  .338E+02  .324E+02  .468E+02  .303E+02  .304E+02  .298E+02  .728E+02  .299E+02
  .639E+02  .303E+02  .514E+02  .474E+02  .616E+02  .292E+02  .293E+02  .739E+02
  .497E+02  .309E+02  .524E+02  .327E+02  .421E+02  .353E+02  .406E+02  .302E+02
  .303E+02  .518E+02  .404E+02  .370E+02  .363E+02  .290E+02  .370E+02  .363E+02
  .290E+02  .290E+02  .291E+02  .291E+02  .000E+00  .000E+00  .000E+00  .000E+00
  .000E+00  .000E+00  .000E+00  .000E+00  .000E+00  .000E+00  .000E+00  .000E+00
  .000E+00  .000E+00  .000E+00  .000E+00  .000E+00  .000E+00  .000E+00  .000E+00
  .000E+00  .000E+00  .000E+00  .000E+00  .000E+00  .000E+00  .000E+00  .000E+00
  .000E+00  .000E+00  .000E+00  .000E+00
Damping =  .02. Data of Sd,Sv,Sa,Pssv,ttSd,ttSv,ttSa :
  .156E-02  .170E-02  .193E-02  .209E-02  .222E-02  .238E-02  .297E-02  .368E-02
  .406E-02  .501E-02  .565E-02  .662E-02  .800E-02  .848E-02  .121E-01  .138E-01
  .122E-01  .192E-01  .207E-01  .285E-01  .320E-01  .336E-01  .373E-01  .418E-01
  .537E-01  .657E-01  .815E-01  .973E-01  .154E+00  .222E+00  .231E+00  .318E+00
  .313E+00  .501E+00  .529E+00  .566E+00  .480E+00  .414E+00  .463E+00  .489E+00
  .463E+00  .475E+00  .713E+00  .835E+00  .765E+00  .715E+00  .758E+00  .728E+00
  .685E+00  .802E+00  .973E+00  .113E+01  .124E+01  .123E+01  .114E+01  .114E+01
  .103E+01  .924E+00  .944E+00  .771E+00  .604E+00  .566E+00  .582E+00  .618E+00
  .645E+00  .653E+00  .643E+00  .622E+00  .000E+00  .000E+00  .000E+00  .000E+00
  .000E+00  .000E+00  .000E+00  .000E+00  .000E+00  .000E+00  .000E+00  .000E+00
  .000E+00  .000E+00  .000E+00  .000E+00  .000E+00  .000E+00  .000E+00  .000E+00
  .000E+00  .000E+00  .000E+00  .000E+00  .000E+00  .000E+00  .000E+00  .000E+00
  .000E+00  .000E+00  .000E+00  .000E+00
  .359E-01  .434E-01  .483E-01  .577E-01  .556E-01  .657E-01  .799E-01  .105E+00
  .127E+00  .169E+00  .198E+00  .312E+00  .328E+00  .364E+00  .491E+00  .390E+00
  .423E+00  .641E+00  .673E+00  .839E+00  .760E+00  .656E+00  .880E+00  .972E+00
  .965E+00  .155E+01  .191E+01  .217E+01  .337E+01  .460E+01  .464E+01  .603E+01
  .564E+01  .875E+01  .853E+01  .876E+01  .693E+01  .621E+01  .656E+01  .659E+01
  .619E+01  .587E+01  .746E+01  .850E+01  .710E+01  .570E+01  .625E+01  .627E+01
  .596E+01  .583E+01  .649E+01  .748E+01  .628E+01  .625E+01  .610E+01  .575E+01
  .505E+01  .480E+01  .437E+01  .397E+01  .369E+01  .336E+01  .332E+01  .322E+01
  .308E+01  .293E+01  .296E+01  .299E+01  .000E+00  .000E+00  .000E+00  .000E+00
  .000E+00  .000E+00  .000E+00  .000E+00  .000E+00  .000E+00  .000E+00  .000E+00
  .000E+00  .000E+00  .000E+00  .000E+00  .000E+00  .000E+00  .000E+00  .000E+00
  .000E+00  .000E+00  .000E+00  .000E+00  .000E+00  .000E+00  .000E+00  .000E+00
  .000E+00  .000E+00  .000E+00  .000E+00
  .100E+00  .986E-01  .102E+00  .101E+00  .986E-01  .974E-01  .100E+00  .104E+00
  .982E-01  .104E+00  .103E+00  .106E+00  .113E+00  .107E+00  .138E+00  .141E+00
  .103E+00  .136E+00  .125E+00  .149E+00  .145E+00  .134E+00  .132E+00  .132E+00
  .152E+00  .168E+00  .172E+00  .173E+00  .233E+00  .290E+00  .263E+00  .317E+00
  .277E+00  .396E+00  .375E+00  .362E+00  .279E+00  .219E+00  .224E+00  .217E+00
  .190E+00  .161E+00  .203E+00  .202E+00  .160E+00  .130E+00  .121E+00  .103E+00
  .865E-01  .910E-01  .996E-01  .959E-01  .880E-01  .744E-01  .598E-01  .521E-01
  .413E-01  .327E-01  .298E-01  .219E-01  .155E-01  .120E-01  .104E-01  .944E-02
  .850E-02  .750E-02  .650E-02  .558E-02  .000E+00  .000E+00  .000E+00  .000E+00
  .000E+00  .000E+00  .000E+00  .000E+00  .000E+00  .000E+00  .000E+00  .000E+00
  .000E+00  .000E+00  .000E+00  .000E+00  .000E+00  .000E+00  .000E+00  .000E+00
  .000E+00  .000E+00  .000E+00  .000E+00  .000E+00  .000E+00  .000E+00  .000E+00
  .000E+00  .000E+00  .000E+00  .000E+00
  .246E+00  .254E+00  .276E+00  .286E+00  .291E+00  .299E+00  .339E+00  .385E+00
  .392E+00  .449E+00  .474E+00  .520E+00  .591E+00  .592E+00  .803E+00  .864E+00
  .698E+00  .100E+01  .998E+00  .128E+01  .134E+01  .132E+01  .138E+01  .146E+01
  .178E+01  .206E+01  .233E+01  .255E+01  .372E+01  .499E+01  .484E+01  .624E+01
  .578E+01  .875E+01  .875E+01  .889E+01  .719E+01  .591E+01  .632E+01  .640E+01
  .582E+01  .542E+01  .747E+01  .807E+01  .687E+01  .599E+01  .595E+01  .538E+01
  .478E+01  .531E+01  .611E+01  .648E+01  .648E+01  .593E+01  .514E+01  .480E+01
  .405E+01  .342E+01  .329E+01  .255E+01  .190E+01  .162E+01  .152E+01  .149E+01
  .145E+01  .137E+01  .126E+01  .115E+01  .000E+00  .000E+00  .000E+00  .000E+00
  .000E+00  .000E+00  .000E+00  .000E+00  .000E+00  .000E+00  .000E+00  .000E+00
  .000E+00  .000E+00  .000E+00  .000E+00  .000E+00  .000E+00  .000E+00  .000E+00
  .000E+00  .000E+00  .000E+00  .000E+00  .000E+00  .000E+00  .000E+00  .000E+00
  .000E+00  .000E+00  .000E+00  .000E+00
  .291E+02  .291E+02  .291E+02  .291E+02  .291E+02  .291E+02  .291E+02  .291E+02
  .290E+02  .290E+02  .290E+02  .302E+02  .290E+02  .290E+02  .290E+02  .291E+02
  .292E+02  .292E+02  .292E+02  .292E+02  .290E+02  .291E+02  .292E+02  .290E+02
  .291E+02  .291E+02  .292E+02  .292E+02  .302E+02  .307E+02  .309E+02  .296E+02
  .296E+02  .309E+02  .303E+02  .303E+02  .304E+02  .296E+02  .294E+02  .294E+02
  .294E+02  .303E+02  .319E+02  .308E+02  .309E+02  .292E+02  .292E+02  .293E+02
  .293E+02  .309E+02  .309E+02  .316E+02  .306E+02  .346E+02  .302E+02  .302E+02
  .303E+02  .374E+02  .368E+02  .370E+02  .290E+02  .290E+02  .290E+02  .290E+02
  .290E+02  .290E+02  .290E+02  .291E+02  .000E+00  .000E+00  .000E+00  .000E+00
  .000E+00  .000E+00  .000E+00  .000E+00  .000E+00  .000E+00  .000E+00  .000E+00
  .000E+00  .000E+00  .000E+00  .000E+00  .000E+00  .000E+00  .000E+00  .000E+00
  .000E+00  .000E+00  .000E+00  .000E+00  .000E+00  .000E+00  .000E+00  .000E+00
  .000E+00  .000E+00  .000E+00  .000E+00
  .291E+02  .291E+02  .291E+02  .291E+02  .291E+02  .263E+02  .291E+02  .291E+02
  .268E+02  .300E+02  .301E+02  .301E+02  .299E+02  .299E+02  .292E+02  .292E+02
  .267E+02  .292E+02  .263E+02  .293E+02  .293E+02  .293E+02  .293E+02  .293E+02
  .299E+02  .306E+02  .293E+02  .293E+02  .293E+02  .308E+02  .308E+02  .295E+02
  .296E+02  .310E+02  .306E+02  .304E+02  .305E+02  .295E+02  .295E+02  .293E+02
  .293E+02  .293E+02  .318E+02  .310E+02  .307E+02  .294E+02  .291E+02  .291E+02
  .291E+02  .291E+02  .307E+02  .308E+02  .316E+02  .349E+02  .305E+02  .306E+02
  .301E+02  .301E+02  .301E+02  .301E+02  .301E+02  .301E+02  .291E+02  .291E+02
  .291E+02  .291E+02  .289E+02  .289E+02  .000E+00  .000E+00  .000E+00  .000E+00
  .000E+00  .000E+00  .000E+00  .000E+00  .000E+00  .000E+00  .000E+00  .000E+00
  .000E+00  .000E+00  .000E+00  .000E+00  .000E+00  .000E+00  .000E+00  .000E+00
  .000E+00  .000E+00  .000E+00  .000E+00  .000E+00  .000E+00  .000E+00  .000E+00
  .000E+00  .000E+00  .000E+00  .000E+00
  .291E+02  .291E+02  .291E+02  .291E+02  .291E+02  .291E+02  .291E+02  .291E+02
  .290E+02  .290E+02  .290E+02  .302E+02  .290E+02  .290E+02  .290E+02  .291E+02
  .292E+02  .292E+02  .292E+02  .292E+02  .290E+02  .291E+02  .292E+02  .290E+02
  .291E+02  .291E+02  .292E+02  .292E+02  .302E+02  .307E+02  .309E+02  .296E+02
