Response and Fourier amplitude spectra (68 periods,  .04 -  3.4 sec)   for      
Corrected accelerogram   13927-L1616-08211.01       Chan  1: 360 Deg     from   
Uncorrected Accelerogram Data             Processed: 08/14/08, CDMG  ce13927i   
Record of Tue Jul 29, 2008 11:42:00.0 PDT             (Avol1 v7.9 7/08 CSMIP)   
CSMIP Preliminary Processing            (Origin:  To be determined)             
13927-L1616-08211.01                 Start time:  7/29/08, 18:42:00.0 UTC (GPS) 
Station No. 13927   33.921N, 117.173W      Etna  s/n 1616  (3 Channels)         
Moreno Valley - Alessandro & Moreno Bch   CGS                                   
Chan  1: 360 Deg                                                                
Record of Tue Jul 29, 2008 11:42:00.0 PDT    Tue Jul 29, 2008 11:42:00.0 PDT    
Hypocenter:  To be determined.               ML:  To be determined.             
Instr Period =  .0105 sec,  Damping =  .660,  Sensitivity =  .63  v/g           
                        Record length = 76.000 sec.                             
                                     Uncor Max  =  -.048 g , at  32.215 sec.    
RMS accel of (uncor) record  =        .   Chn. metadata effective date: 12/04/02
Accelerogram bandpass filtered with 3 dB pts at   .30 and 40.00 cyc/sec         
                 instrument- and baseline-corrected                             
                                                                                
                                                                                
                                                                                
                                                                                
                                                                                
Record of Tue Jul 29, 2008 11:42:00.0 PDT    Tue Jul 29, 2008 11:42:00.0 PDT    
                                                                                
13927-L1616-08211.01      Moreno Valley - Alessandro & Moreno Bch   Chan  1: 360
 Deg                                                                            
13927-L1616-08211.01      Moreno Valley - Alessandro & Moreno Bch   Chan  1: 360
 Deg                                                                            
Units for spectra are inches and sec, except Sa is in fraction of g.            
                                                                                
    1  100    1    4    3  200    1    3    1   24   12 1616    013927    1    0
   18   42    0    0  211    7   29 2008   10    3  36015200   41   39   76  360
15200    1   50    3 1616    1    1  760    2    0    0    0    0    0    0    0
    0    4    0    015200    1  202    0   18    4   76   39    1    1    015200
    315200   40   68    5    3    5    0    0    0    3    0    0    3    0    2
    2    2    4    0   32   99 -999   32   32    0    1    1    0    0    0  222
    1    0    3    0
      .011      .660    76.000      .004      .000   625.000     -.048    32.215
    94.800      .298      .477      .000     5.000      .000     4.000      .000
     2.500   -33.883     2.500   339.000    25.000    30.000      .000     -.002
      .001      .003     2.000    15.000    33.921  -117.173      .014      .609
    43.545     -.025      .032   493.000    25.700    45.400    13.400    95.360
     1.000    -1.420      .000      .000      .000      .000      .000      .000
     4.400     7.900     4.600   980.665      .005    76.000    15.088      .000
      .000    40.000      .000    76.000      .005      .303      .000      .000
    32.785    47.070    32.510     1.568    32.210      .138      .000      .303
    40.000      .005      .005      .000      .005      .055      .000      .000
      .192      .110      .118      .087      .011      .001      .000      .000
      .000      .000      .000      .000      .000      .000      .000      .000
      .000      .000      .000      .000
      .000      .020      .050      .100      .200
      .040      .042      .044      .046      .048      .050      .055      .060
      .065      .070      .075      .080      .085      .090      .095      .100
      .110      .120      .130      .140      .150      .160      .170      .180
      .190      .200      .220      .240      .260      .280      .300      .320
      .340      .360      .380      .400      .420      .440      .460      .480
      .500      .550      .600      .650      .700      .750      .800      .850
      .900      .950     1.000     1.100     1.200     1.300     1.400     1.500
     1.600     1.700     1.800     1.900     2.000     2.200     2.400     2.600
     2.800     3.000     3.200     3.400      .000      .000      .000      .000
      .000      .000      .000      .000      .000      .000      .000      .000
      .000      .000      .000      .000      .000      .000      .000      .000
      .000      .000      .000      .000      .000      .000      .000      .000
      .000      .000      .000      .000
Fourier amplitude spectra in in/sec.
  .287E+00  .110E+00  .353E+00  .134E+00  .394E-01  .159E+00  .170E+00  .209E+00
  .709E-01  .972E+00  .167E+01  .106E+01  .184E+01  .707E+00  .112E+01  .173E+01
  .212E+01  .200E+01  .123E+01  .223E+01  .188E+01  .475E+01  .305E+01  .573E+01
  .877E+00  .280E+01  .215E+01  .158E+01  .436E+01  .211E+01  .131E+01  .826E+00
  .267E+01  .442E+01  .248E+01  .382E+01  .653E+01  .319E+01  .279E+01  .290E+01
  .353E+01  .249E+01  .118E+01  .417E+00  .511E+00  .557E+00  .467E+00  .550E+00
  .795E+00  .136E+01  .966E+00  .807E+00  .467E+00  .468E+00  .480E+00  .610E+00
  .386E+00  .300E+00  .107E+00  .224E+00  .192E+00  .216E+00  .193E+00  .124E+00
  .238E+00  .128E+00  .191E+00  .191E+00  .000E+00  .000E+00  .000E+00  .000E+00
  .000E+00  .000E+00  .000E+00  .000E+00  .000E+00  .000E+00  .000E+00  .000E+00
  .000E+00  .000E+00  .000E+00  .000E+00  .000E+00  .000E+00  .000E+00  .000E+00
  .000E+00  .000E+00  .000E+00  .000E+00  .000E+00  .000E+00  .000E+00  .000E+00
  .000E+00  .000E+00  .000E+00  .000E+00
Damping =  .00. Data of Sd,Sv,Sa,Pssv,ttSd,ttSv,ttSa :
  .208E-02  .295E-02  .261E-02  .285E-02  .284E-02  .232E-02  .351E-02  .511E-02
  .329E-02  .129E-01  .218E-01  .226E-01  .261E-01  .195E-01  .302E-01  .391E-01
  .692E-01  .597E-01  .569E-01  .546E-01  .540E-01  .134E+00  .124E+00  .173E+00
  .950E-01  .917E-01  .106E+00  .119E+00  .199E+00  .113E+00  .108E+00  .160E+00
  .166E+00  .260E+00  .281E+00  .336E+00  .437E+00  .256E+00  .222E+00  .222E+00
  .281E+00  .264E+00  .178E+00  .129E+00  .119E+00  .938E-01  .124E+00  .133E+00
  .152E+00  .206E+00  .188E+00  .168E+00  .120E+00  .122E+00  .124E+00  .150E+00
  .105E+00  .963E-01  .856E-01  .852E-01  .844E-01  .951E-01  .103E+00  .864E-01
  .111E+00  .108E+00  .118E+00  .118E+00  .000E+00  .000E+00  .000E+00  .000E+00
  .000E+00  .000E+00  .000E+00  .000E+00  .000E+00  .000E+00  .000E+00  .000E+00
  .000E+00  .000E+00  .000E+00  .000E+00  .000E+00  .000E+00  .000E+00  .000E+00
  .000E+00  .000E+00  .000E+00  .000E+00  .000E+00  .000E+00  .000E+00  .000E+00
  .000E+00  .000E+00  .000E+00  .000E+00
  .314E+00  .409E+00  .362E+00  .280E+00  .316E+00  .242E+00  .308E+00  .506E+00
  .226E+00  .114E+01  .182E+01  .169E+01  .192E+01  .129E+01  .197E+01  .240E+01
  .391E+01  .312E+01  .262E+01  .243E+01  .224E+01  .514E+01  .443E+01  .598E+01
  .328E+01  .286E+01  .302E+01  .313E+01  .480E+01  .254E+01  .227E+01  .318E+01
  .310E+01  .453E+01  .480E+01  .535E+01  .654E+01  .369E+01  .304E+01  .292E+01
  .353E+01  .301E+01  .219E+01  .172E+01  .154E+01  .123E+01  .145E+01  .120E+01
  .132E+01  .138E+01  .129E+01  .121E+01  .106E+01  .898E+00  .764E+00  .725E+00
  .703E+00  .690E+00  .673E+00  .664E+00  .668E+00  .659E+00  .643E+00  .633E+00
  .629E+00  .623E+00  .620E+00  .614E+00  .000E+00  .000E+00  .000E+00  .000E+00
  .000E+00  .000E+00  .000E+00  .000E+00  .000E+00  .000E+00  .000E+00  .000E+00
  .000E+00  .000E+00  .000E+00  .000E+00  .000E+00  .000E+00  .000E+00  .000E+00
  .000E+00  .000E+00  .000E+00  .000E+00  .000E+00  .000E+00  .000E+00  .000E+00
  .000E+00  .000E+00  .000E+00  .000E+00
  .133E+00  .171E+00  .138E+00  .138E+00  .126E+00  .951E-01  .119E+00  .145E+00
  .798E-01  .269E+00  .397E+00  .361E+00  .369E+00  .247E+00  .342E+00  .400E+00
  .585E+00  .424E+00  .344E+00  .285E+00  .245E+00  .533E+00  .438E+00  .546E+00
  .269E+00  .234E+00  .224E+00  .212E+00  .301E+00  .147E+00  .123E+00  .160E+00
  .146E+00  .205E+00  .199E+00  .215E+00  .253E+00  .135E+00  .107E+00  .984E-01
  .115E+00  .893E-01  .506E-01  .311E-01  .249E-01  .171E-01  .198E-01  .189E-01
  .192E-01  .233E-01  .192E-01  .142E-01  .853E-02  .738E-02  .648E-02  .681E-02
  .421E-02  .341E-02  .270E-02  .241E-02  .216E-02  .201E-02  .184E-02  .131E-02
  .145E-02  .123E-02  .118E-02  .104E-02  .000E+00  .000E+00  .000E+00  .000E+00
  .000E+00  .000E+00  .000E+00  .000E+00  .000E+00  .000E+00  .000E+00  .000E+00
  .000E+00  .000E+00  .000E+00  .000E+00  .000E+00  .000E+00  .000E+00  .000E+00
  .000E+00  .000E+00  .000E+00  .000E+00  .000E+00  .000E+00  .000E+00  .000E+00
  .000E+00  .000E+00  .000E+00  .000E+00
  .327E+00  .442E+00  .372E+00  .389E+00  .371E+00  .292E+00  .401E+00  .535E+00
  .318E+00  .115E+01  .183E+01  .177E+01  .193E+01  .136E+01  .200E+01  .246E+01
  .395E+01  .312E+01  .275E+01  .245E+01  .226E+01  .524E+01  .457E+01  .604E+01
  .314E+01  .288E+01  .303E+01  .312E+01  .481E+01  .253E+01  .227E+01  .314E+01
  .306E+01  .454E+01  .465E+01  .528E+01  .654E+01  .365E+01  .303E+01  .290E+01
  .354E+01  .302E+01  .187E+01  .124E+01  .107E+01  .786E+00  .973E+00  .985E+00
  .106E+01  .136E+01  .118E+01  .959E+00  .629E+00  .590E+00  .557E+00  .627E+00
  .414E+00  .356E+00  .299E+00  .282E+00  .265E+00  .272E+00  .271E+00  .209E+00
  .249E+00  .226E+00  .232E+00  .217E+00  .000E+00  .000E+00  .000E+00  .000E+00
  .000E+00  .000E+00  .000E+00  .000E+00  .000E+00  .000E+00  .000E+00  .000E+00
  .000E+00  .000E+00  .000E+00  .000E+00  .000E+00  .000E+00  .000E+00  .000E+00
  .000E+00  .000E+00  .000E+00  .000E+00  .000E+00  .000E+00  .000E+00  .000E+00
  .000E+00  .000E+00  .000E+00  .000E+00
  .363E+02  .337E+02  .505E+02  .322E+02  .342E+02  .336E+02  .322E+02  .333E+02
  .323E+02  .363E+02  .401E+02  .352E+02  .433E+02  .322E+02  .358E+02  .365E+02
  .336E+02  .369E+02  .345E+02  .505E+02  .326E+02  .341E+02  .348E+02  .488E+02
  .324E+02  .493E+02  .401E+02  .390E+02  .460E+02  .506E+02  .501E+02  .383E+02
  .505E+02  .609E+02  .353E+02  .387E+02  .734E+02  .353E+02  .595E+02  .746E+02
  .746E+02  .493E+02  .338E+02  .336E+02  .324E+02  .460E+02  .325E+02  .348E+02
  .501E+02  .749E+02  .431E+02  .517E+02  .333E+02  .488E+02  .609E+02  .490E+02
  .550E+02  .524E+02  .322E+02  .322E+02  .322E+02  .638E+02  .547E+02  .483E+02
  .699E+02  .423E+02  .425E+02  .548E+02  .000E+00  .000E+00  .000E+00  .000E+00
  .000E+00  .000E+00  .000E+00  .000E+00  .000E+00  .000E+00  .000E+00  .000E+00
  .000E+00  .000E+00  .000E+00  .000E+00  .000E+00  .000E+00  .000E+00  .000E+00
  .000E+00  .000E+00  .000E+00  .000E+00  .000E+00  .000E+00  .000E+00  .000E+00
  .000E+00  .000E+00  .000E+00  .000E+00
  .441E+02  .336E+02  .504E+02  .342E+02  .343E+02  .340E+02  .314E+02  .333E+02
  .324E+02  .361E+02  .408E+02  .352E+02  .480E+02  .322E+02  .358E+02  .366E+02
  .336E+02  .369E+02  .345E+02  .505E+02  .326E+02  .341E+02  .347E+02  .489E+02
  .324E+02  .494E+02  .401E+02  .389E+02  .460E+02  .505E+02  .502E+02  .348E+02
  .505E+02  .610E+02  .352E+02  .388E+02  .733E+02  .354E+02  .599E+02  .329E+02
  .747E+02  .500E+02  .337E+02  .325E+02  .323E+02  .323E+02  .323E+02  .336E+02
  .347E+02  .347E+02  .429E+02  .346E+02  .342E+02  .342E+02  .323E+02  .323E+02
  .323E+02  .323E+02  .323E+02  .320E+02  .320E+02  .320E+02  .320E+02  .320E+02
  .320E+02  .320E+02  .320E+02  .320E+02  .000E+00  .000E+00  .000E+00  .000E+00
  .000E+00  .000E+00  .000E+00  .000E+00  .000E+00  .000E+00  .000E+00  .000E+00
  .000E+00  .000E+00  .000E+00  .000E+00  .000E+00  .000E+00  .000E+00  .000E+00
  .000E+00  .000E+00  .000E+00  .000E+00  .000E+00  .000E+00  .000E+00  .000E+00
  .000E+00  .000E+00  .000E+00  .000E+00
  .363E+02  .337E+02  .505E+02  .322E+02  .342E+02  .336E+02  .322E+02  .333E+02
  .323E+02  .363E+02  .401E+02  .352E+02  .433E+02  .322E+02  .358E+02  .365E+02
  .336E+02  .369E+02  .345E+02  .505E+02  .326E+02  .341E+02  .348E+02  .488E+02
  .324E+02  .493E+02  .401E+02  .390E+02  .460E+02  .506E+02  .501E+02  .383E+02
  .505E+02  .609E+02  .353E+02  .387E+02  .734E+02  .353E+02  .595E+02  .746E+02
  .746E+02  .493E+02  .338E+02  .336E+02  .324E+02  .460E+02  .325E+02  .348E+02
  .501E+02  .749E+02  .431E+02  .517E+02  .333E+02  .488E+02  .609E+02  .490E+02
  .550E+02  .524E+02  .322E+02  .322E+02  .322E+02  .638E+02  .547E+02  .483E+02
  .699E+02  .423E+02  .425E+02  .548E+02  .000E+00  .000E+00  .000E+00  .000E+00
  .000E+00  .000E+00  .000E+00  .000E+00  .000E+00  .000E+00  .000E+00  .000E+00
  .000E+00  .000E+00  .000E+00  .000E+00  .000E+00  .000E+00  .000E+00  .000E+00
  .000E+00  .000E+00  .000E+00  .000E+00  .000E+00  .000E+00  .000E+00  .000E+00
  .000E+00  .000E+00  .000E+00  .000E+00
Damping =  .02. Data of Sd,Sv,Sa,Pssv,ttSd,ttSv,ttSa :
  .894E-03  .117E-02  .121E-02  .152E-02  .151E-02  .145E-02  .203E-02  .332E-02
  .323E-02  .503E-02  .747E-02  .793E-02  .107E-01  .105E-01  .138E-01  .208E-01
  .352E-01  .271E-01  .259E-01  .289E-01  .412E-01  .591E-01  .657E-01  .725E-01
  .618E-01  .516E-01  .573E-01  .762E-01  .117E+00  .104E+00  .851E-01  .100E+00
  .121E+00  .181E+00  .208E+00  .220E+00  .227E+00  .170E+00  .142E+00  .165E+00
  .157E+00  .156E+00  .143E+00  .117E+00  .107E+00  .949E-01  .107E+00  .104E+00
  .109E+00  .128E+00  .138E+00  .140E+00  .110E+00  .108E+00  .990E-01  .989E-01
  .845E-01  .840E-01  .842E-01  .839E-01  .829E-01  .780E-01  .739E-01  .747E-01
  .904E-01  .931E-01  .986E-01  .903E-01  .000E+00  .000E+00  .000E+00  .000E+00
  .000E+00  .000E+00  .000E+00  .000E+00  .000E+00  .000E+00  .000E+00  .000E+00
  .000E+00  .000E+00  .000E+00  .000E+00  .000E+00  .000E+00  .000E+00  .000E+00
  .000E+00  .000E+00  .000E+00  .000E+00  .000E+00  .000E+00  .000E+00  .000E+00
  .000E+00  .000E+00  .000E+00  .000E+00
  .803E-01  .106E+00  .105E+00  .110E+00  .115E+00  .109E+00  .126E+00  .230E+00
  .217E+00  .343E+00  .572E+00  .514E+00  .632E+00  .656E+00  .813E+00  .119E+01
  .201E+01  .135E+01  .119E+01  .118E+01  .162E+01  .231E+01  .239E+01  .255E+01
  .217E+01  .176E+01  .163E+01  .205E+01  .286E+01  .248E+01  .191E+01  .212E+01
  .211E+01  .310E+01  .360E+01  .358E+01  .365E+01  .280E+01  .228E+01  .234E+01
  .221E+01  .199E+01  .190E+01  .166E+01  .146E+01  .129E+01  .135E+01  .117E+01
  .116E+01  .118E+01  .979E+00  .103E+01  .957E+00  .848E+00  .773E+00  .737E+00
  .714E+00  .698E+00  .682E+00  .666E+00  .663E+00  .655E+00  .642E+00  .633E+00
  .628E+00  .623E+00  .620E+00  .615E+00  .000E+00  .000E+00  .000E+00  .000E+00
  .000E+00  .000E+00  .000E+00  .000E+00  .000E+00  .000E+00  .000E+00  .000E+00
  .000E+00  .000E+00  .000E+00  .000E+00  .000E+00  .000E+00  .000E+00  .000E+00
  .000E+00  .000E+00  .000E+00  .000E+00  .000E+00  .000E+00  .000E+00  .000E+00
  .000E+00  .000E+00  .000E+00  .000E+00
  .572E-01  .678E-01  .642E-01  .734E-01  .670E-01  .592E-01  .687E-01  .943E-01
  .779E-01  .105E+00  .136E+00  .127E+00  .152E+00  .133E+00  .157E+00  .213E+00
  .296E+00  .192E+00  .156E+00  .151E+00  .187E+00  .236E+00  .232E+00  .229E+00
  .175E+00  .132E+00  .121E+00  .135E+00  .177E+00  .136E+00  .968E-01  .100E+00
  .107E+00  .143E+00  .148E+00  .141E+00  .132E+00  .897E-01  .686E-01  .733E-01
  .644E-01  .526E-01  .407E-01  .285E-01  .223E-01  .173E-01  .171E-01  .147E-01
  .137E-01  .145E-01  .141E-01  .119E-01  .781E-02  .657E-02  .519E-02  .450E-02
  .341E-02  .301E-02  .269E-02  .241E-02  .216E-02  .168E-02  .135E-02  .113E-02
  .119E-02  .106E-02  .987E-03  .802E-03  .000E+00  .000E+00  .000E+00  .000E+00
  .000E+00  .000E+00  .000E+00  .000E+00  .000E+00  .000E+00  .000E+00  .000E+00
  .000E+00  .000E+00  .000E+00  .000E+00  .000E+00  .000E+00  .000E+00  .000E+00
  .000E+00  .000E+00  .000E+00  .000E+00  .000E+00  .000E+00  .000E+00  .000E+00
  .000E+00  .000E+00  .000E+00  .000E+00
  .140E+00  .175E+00  .173E+00  .207E+00  .198E+00  .183E+00  .232E+00  .348E+00
  .312E+00  .452E+00  .625E+00  .623E+00  .789E+00  .732E+00  .916E+00  .131E+01
  .201E+01  .142E+01  .125E+01  .130E+01  .173E+01  .232E+01  .243E+01  .253E+01
  .204E+01  .162E+01  .164E+01  .200E+01  .283E+01  .234E+01  .178E+01  .197E+01
  .224E+01  .316E+01  .344E+01  .346E+01  .340E+01  .242E+01  .194E+01  .216E+01
  .197E+01  .178E+01  .150E+01  .114E+01  .958E+00  .795E+00  .837E+00  .765E+00
  .758E+00  .846E+00  .865E+00  .799E+00  .574E+00  .523E+00  .444E+00  .414E+00
  .332E+00  .310E+00  .294E+00  .277E+00  .260E+00  .223E+00  .193E+00  .181E+00
  .203E+00  .195E+00  .194E+00  .167E+00  .000E+00  .000E+00  .000E+00  .000E+00
  .000E+00  .000E+00  .000E+00  .000E+00  .000E+00  .000E+00  .000E+00  .000E+00
  .000E+00  .000E+00  .000E+00  .000E+00  .000E+00  .000E+00  .000E+00  .000E+00
  .000E+00  .000E+00  .000E+00  .000E+00  .000E+00  .000E+00  .000E+00  .000E+00
  .000E+00  .000E+00  .000E+00  .000E+00
  .328E+02  .325E+02  .325E+02  .325E+02  .323E+02  .323E+02  .323E+02  .323E+02
  .323E+02  .328E+02  .337E+02  .328E+02  .328E+02  .328E+02  .337E+02  .328E+02
  .329E+02  .326E+02  .345E+02  .346E+02  .326E+02  .339E+02  .326E+02  .326E+02
  .327E+02  .324E+02  .353E+02  .353E+02  .352E+02  .350E+02  .349E+02  .349E+02
  .332E+02  .332E+02  .334E+02  .337E+02  .343E+02  .329E+02  .328E+02  .328E+02
  .328E+02  .342E+02  .338E+02  .324E+02  .324E+02  .324E+02  .325E+02  .348E+02
  .344E+02  .336E+02  .346E+02  .342E+02  .333E+02  .333E+02  .334E+02  .444E+02
  .322E+02  .322E+02  .322E+02  .322E+02  .322E+02  .322E+02  .322E+02  .432E+02
  .434E+02  .423E+02  .425E+02  .413E+02  .000E+00  .000E+00  .000E+00  .000E+00
  .000E+00  .000E+00  .000E+00  .000E+00  .000E+00  .000E+00  .000E+00  .000E+00
  .000E+00  .000E+00  .000E+00  .000E+00  .000E+00  .000E+00  .000E+00  .000E+00
  .000E+00  .000E+00  .000E+00  .000E+00  .000E+00  .000E+00  .000E+00  .000E+00
  .000E+00  .000E+00  .000E+00  .000E+00
  .324E+02  .336E+02  .337E+02  .328E+02  .326E+02  .333E+02  .338E+02  .324E+02
  .324E+02  .324E+02  .337E+02  .340E+02  .328E+02  .330E+02  .337E+02  .328E+02
  .328E+02  .326E+02  .345E+02  .326E+02  .326E+02  .338E+02  .326E+02  .326E+02
  .325E+02  .324E+02  .353E+02  .352E+02  .353E+02  .349E+02  .349E+02  .348E+02
  .332E+02  .335E+02  .337E+02  .346E+02  .343E+02  .328E+02  .328E+02  .326E+02
  .327E+02  .341E+02  .336E+02  .325E+02  .323E+02  .323E+02  .323E+02  .323E+02
  .347E+02  .347E+02  .323E+02  .346E+02  .342E+02  .342E+02  .323E+02  .323E+02
  .323E+02  .323E+02  .323E+02  .323E+02  .320E+02  .320E+02  .320E+02  .320E+02
  .320E+02  .320E+02  .320E+02  .320E+02  .000E+00  .000E+00  .000E+00  .000E+00
  .000E+00  .000E+00  .000E+00  .000E+00  .000E+00  .000E+00  .000E+00  .000E+00
  .000E+00  .000E+00  .000E+00  .000E+00  .000E+00  .000E+00  .000E+00  .000E+00
  .000E+00  .000E+00  .000E+00  .000E+00  .000E+00  .000E+00  .000E+00  .000E+00
  .000E+00  .000E+00  .000E+00  .000E+00
  .328E+02  .325E+02  .325E+02  .325E+02  .323E+02  .323E+02  .323E+02  .323E+02
  .323E+02  .328E+02  .337E+02  .328E+02  .328E+02  .328E+02  .337E+02  .328E+02
  .329E+02  .326E+02  .345E+02  .346E+02  .326E+02  .339E+02  .326E+02  .326E+02
  .327E+02  .324E+02  .353E+02  .353E+02  .352E+02  .350E+02  .349E+02  .349E+02
