Response and Fourier amplitude spectra (68 periods,  .04 -  3.4 sec)   for      
Corrected accelerogram   13913-L1380-08211.01       Chan  1: 360 Deg     from   
Uncorrected Accelerogram Data             Processed: 08/01/08, CDMG  ce13913r   
Record of Tue Jul 29, 2008 11:41:55.0 PDT             (Avol1 v7.9 7/08 CSMIP)   
CSMIP Preliminary Processing            (Origin:  To be determined)             
13913-L1380-08211.01                 Start time:  7/29/08, 18:41:55.0 UTC (GPS) 
Station No. 13913   33.919N, 117.488W      Etna  s/n 1380  (3 Channels)         
Riverside - Hole & La Sierra              CGS                                   
Chan  1: 360 Deg                                                                
Record of Tue Jul 29, 2008 11:41:55.0 PDT    Tue Jul 29, 2008 11:41:55.0 PDT    
Hypocenter:  To be determined.               ML:  To be determined.             
Instr Period =  .0104 sec,  Damping =  .650,  Sensitivity =  .62  v/g           
                        Record length = 83.000 sec.                             
                                     Uncor Max  =   .188 g , at  29.600 sec.    
RMS accel of (uncor) record  =        .   Chn. metadata effective date: 12/02/02
Accelerogram bandpass filtered with 3 dB pts at   .30 and 40.00 cyc/sec         
                 instrument- and baseline-corrected                             
                                                                                
                                                                                
                                                                                
                                                                                
                                                                                
Record of Tue Jul 29, 2008 11:41:55.0 PDT    Tue Jul 29, 2008 11:41:55.0 PDT    
                                                                                
13913-L1380-08211.01      Riverside - Hole & La Sierra    Chan  1: 360 Deg      
                                                                                
13913-L1380-08211.01      Riverside - Hole & La Sierra    Chan  1: 360 Deg      
                                                                                
Units for spectra are inches and sec, except Sa is in fraction of g.            
                                                                                
    1  100    1    4    3  200    1    3    1   24   12 1380    013913    1    0
   18   41   55    0  211    7   29 2008   10    3  36016600   41   28   76  360
16600    1   50    3 1380    1    1  830    2    0    0    0    0    0    0    0
    0    4    0    0 8300    2  202    0   18    4   76   28    1    1    0 8300
    3 8300   29   68    5    3    5    0    0    0    3    0    0    3    0    2
    2    2    4    0   32   99 -999   32   32    0    1    1    0    0    0  222
    1    0    4    0
      .010      .650    83.000      .010      .000   623.000      .188    29.600
    95.800      .298      .477      .000     5.000      .000     4.013      .000
     2.500    -1.526     2.500   371.000    25.000    30.000      .000     -.002
     -.002      .000     2.000    15.000    33.919  -117.488      .030      .527
    17.420      .000      .000   217.000    25.900    52.600    13.400    84.560
     1.000     1.544      .000      .000      .000      .000      .000      .000
     4.200     7.900     4.600   980.665      .010    83.000    15.247      .000
      .000    40.000      .000    83.000      .010      .303      .000      .000
    29.600   182.582    29.420     5.958    29.480      .352      .000      .303
    40.000      .010      .010      .000     1.600      .070      .000      .000
      .601      .220      .547      .335      .017      .003      .000      .000
      .000      .000      .000      .000      .000      .000      .000      .000
      .000      .000      .000      .000
      .000      .020      .050      .100      .200
      .040      .042      .044      .046      .048      .050      .055      .060
      .065      .070      .075      .080      .085      .090      .095      .100
      .110      .120      .130      .140      .150      .160      .170      .180
      .190      .200      .220      .240      .260      .280      .300      .320
      .340      .360      .380      .400      .420      .440      .460      .480
      .500      .550      .600      .650      .700      .750      .800      .850
      .900      .950     1.000     1.100     1.200     1.300     1.400     1.500
     1.600     1.700     1.800     1.900     2.000     2.200     2.400     2.600
     2.800     3.000     3.200     3.400      .000      .000      .000      .000
      .000      .000      .000      .000      .000      .000      .000      .000
      .000      .000      .000      .000      .000      .000      .000      .000
      .000      .000      .000      .000      .000      .000      .000      .000
      .000      .000      .000      .000
Fourier amplitude spectra in in/sec.
  .787E+00  .840E+00  .200E+01  .205E+01  .269E+01  .167E+01  .134E+01  .287E+01
  .200E+01  .399E+01  .277E+01  .152E+01  .243E+01  .281E+01  .132E+01  .249E+01
  .103E+02  .954E+01  .607E+01  .720E+00  .233E+01  .379E+01  .181E+01  .295E+01
  .122E+02  .512E+01  .152E+02  .179E+02  .117E+02  .138E+02  .651E+01  .440E+01
  .267E+01  .133E+01  .504E+01  .481E+01  .358E+01  .393E+01  .295E+01  .186E+01
  .197E+01  .147E+01  .169E+01  .285E+01  .529E+00  .439E+00  .120E+01  .998E+00
  .117E+01  .130E+01  .121E+01  .109E+01  .528E+00  .610E+00  .641E-01  .582E+00
  .286E+00  .662E+00  .681E+00  .367E+00  .503E+00  .357E+00  .245E+00  .232E+00
  .352E+00  .263E+00  .238E+00  .228E+00  .000E+00  .000E+00  .000E+00  .000E+00
  .000E+00  .000E+00  .000E+00  .000E+00  .000E+00  .000E+00  .000E+00  .000E+00
  .000E+00  .000E+00  .000E+00  .000E+00  .000E+00  .000E+00  .000E+00  .000E+00
  .000E+00  .000E+00  .000E+00  .000E+00  .000E+00  .000E+00  .000E+00  .000E+00
  .000E+00  .000E+00  .000E+00  .000E+00
Damping =  .00. Data of Sd,Sv,Sa,Pssv,ttSd,ttSv,ttSa :
  .750E-02  .714E-02  .144E-01  .167E-01  .235E-01  .182E-01  .164E-01  .372E-01
  .308E-01  .448E-01  .332E-01  .235E-01  .349E-01  .550E-01  .462E-01  .446E-01
  .190E+00  .186E+00  .132E+00  .657E-01  .649E-01  .111E+00  .143E+00  .177E+00
  .387E+00  .409E+00  .565E+00  .696E+00  .524E+00  .624E+00  .341E+00  .313E+00
  .276E+00  .270E+00  .315E+00  .309E+00  .322E+00  .289E+00  .240E+00  .222E+00
  .213E+00  .232E+00  .216E+00  .305E+00  .170E+00  .154E+00  .170E+00  .176E+00
  .190E+00  .210E+00  .209E+00  .213E+00  .171E+00  .183E+00  .199E+00  .205E+00
  .200E+00  .193E+00  .195E+00  .189E+00  .192E+00  .196E+00  .197E+00  .191E+00
  .187E+00  .181E+00  .175E+00  .173E+00  .000E+00  .000E+00  .000E+00  .000E+00
  .000E+00  .000E+00  .000E+00  .000E+00  .000E+00  .000E+00  .000E+00  .000E+00
  .000E+00  .000E+00  .000E+00  .000E+00  .000E+00  .000E+00  .000E+00  .000E+00
  .000E+00  .000E+00  .000E+00  .000E+00  .000E+00  .000E+00  .000E+00  .000E+00
  .000E+00  .000E+00  .000E+00  .000E+00
  .104E+01  .967E+00  .205E+01  .222E+01  .308E+01  .221E+01  .156E+01  .387E+01
  .298E+01  .409E+01  .277E+01  .163E+01  .256E+01  .373E+01  .301E+01  .277E+01
  .108E+02  .968E+01  .631E+01  .284E+01  .263E+01  .433E+01  .541E+01  .598E+01
  .128E+02  .128E+02  .161E+02  .183E+02  .130E+02  .141E+02  .789E+01  .736E+01
  .640E+01  .632E+01  .563E+01  .513E+01  .511E+01  .429E+01  .399E+01  .377E+01
  .354E+01  .372E+01  .368E+01  .369E+01  .323E+01  .311E+01  .313E+01  .295E+01
  .283E+01  .283E+01  .283E+01  .267E+01  .259E+01  .257E+01  .251E+01  .240E+01
  .238E+01  .238E+01  .238E+01  .236E+01  .236E+01  .238E+01  .240E+01  .241E+01
  .241E+01  .241E+01  .240E+01  .239E+01  .000E+00  .000E+00  .000E+00  .000E+00
  .000E+00  .000E+00  .000E+00  .000E+00  .000E+00  .000E+00  .000E+00  .000E+00
  .000E+00  .000E+00  .000E+00  .000E+00  .000E+00  .000E+00  .000E+00  .000E+00
  .000E+00  .000E+00  .000E+00  .000E+00  .000E+00  .000E+00  .000E+00  .000E+00
  .000E+00  .000E+00  .000E+00  .000E+00
  .479E+00  .414E+00  .761E+00  .806E+00  .104E+01  .745E+00  .555E+00  .106E+01
  .745E+00  .934E+00  .604E+00  .375E+00  .494E+00  .694E+00  .523E+00  .456E+00
  .160E+01  .132E+01  .801E+00  .343E+00  .295E+00  .445E+00  .507E+00  .558E+00
  .110E+01  .105E+01  .119E+01  .124E+01  .793E+00  .814E+00  .388E+00  .313E+00
  .244E+00  .213E+00  .223E+00  .198E+00  .187E+00  .153E+00  .116E+00  .987E-01
  .872E-01  .784E-01  .613E-01  .739E-01  .356E-01  .280E-01  .272E-01  .250E-01
  .240E-01  .238E-01  .214E-01  .180E-01  .121E-01  .110E-01  .104E-01  .931E-02
  .800E-02  .683E-02  .616E-02  .535E-02  .492E-02  .415E-02  .349E-02  .289E-02
  .243E-02  .206E-02  .174E-02  .153E-02  .000E+00  .000E+00  .000E+00  .000E+00
  .000E+00  .000E+00  .000E+00  .000E+00  .000E+00  .000E+00  .000E+00  .000E+00
  .000E+00  .000E+00  .000E+00  .000E+00  .000E+00  .000E+00  .000E+00  .000E+00
  .000E+00  .000E+00  .000E+00  .000E+00  .000E+00  .000E+00  .000E+00  .000E+00
  .000E+00  .000E+00  .000E+00  .000E+00
  .118E+01  .107E+01  .206E+01  .228E+01  .308E+01  .229E+01  .188E+01  .390E+01
  .297E+01  .402E+01  .278E+01  .184E+01  .258E+01  .384E+01  .306E+01  .280E+01
  .108E+02  .971E+01  .640E+01  .295E+01  .272E+01  .437E+01  .530E+01  .617E+01
  .128E+02  .129E+02  .161E+02  .182E+02  .127E+02  .140E+02  .715E+01  .615E+01
  .509E+01  .471E+01  .520E+01  .486E+01  .482E+01  .413E+01  .328E+01  .291E+01
  .268E+01  .265E+01  .226E+01  .295E+01  .153E+01  .129E+01  .134E+01  .130E+01
  .133E+01  .139E+01  .131E+01  .122E+01  .895E+00  .882E+00  .893E+00  .858E+00
  .786E+00  .713E+00  .681E+00  .625E+00  .604E+00  .561E+00  .515E+00  .462E+00
  .419E+00  .379E+00  .343E+00  .319E+00  .000E+00  .000E+00  .000E+00  .000E+00
  .000E+00  .000E+00  .000E+00  .000E+00  .000E+00  .000E+00  .000E+00  .000E+00
  .000E+00  .000E+00  .000E+00  .000E+00  .000E+00  .000E+00  .000E+00  .000E+00
  .000E+00  .000E+00  .000E+00  .000E+00  .000E+00  .000E+00  .000E+00  .000E+00
  .000E+00  .000E+00  .000E+00  .000E+00
  .295E+02  .297E+02  .405E+02  .329E+02  .390E+02  .323E+02  .296E+02  .333E+02
  .331E+02  .503E+02  .751E+02  .296E+02  .579E+02  .325E+02  .309E+02  .463E+02
  .313E+02  .522E+02  .318E+02  .297E+02  .305E+02  .521E+02  .313E+02  .297E+02
  .530E+02  .326E+02  .448E+02  .508E+02  .300E+02  .480E+02  .297E+02  .297E+02
  .297E+02  .297E+02  .326E+02  .516E+02  .313E+02  .456E+02  .296E+02  .296E+02
  .296E+02  .296E+02  .296E+02  .622E+02  .295E+02  .295E+02  .295E+02  .324E+02
  .316E+02  .512E+02  .478E+02  .583E+02  .295E+02  .295E+02  .295E+02  .295E+02
  .295E+02  .295E+02  .825E+02  .295E+02  .295E+02  .295E+02  .295E+02  .295E+02
  .295E+02  .295E+02  .295E+02  .295E+02  .000E+00  .000E+00  .000E+00  .000E+00
  .000E+00  .000E+00  .000E+00  .000E+00  .000E+00  .000E+00  .000E+00  .000E+00
  .000E+00  .000E+00  .000E+00  .000E+00  .000E+00  .000E+00  .000E+00  .000E+00
  .000E+00  .000E+00  .000E+00  .000E+00  .000E+00  .000E+00  .000E+00  .000E+00
  .000E+00  .000E+00  .000E+00  .000E+00
  .304E+02  .391E+02  .451E+02  .331E+02  .389E+02  .323E+02  .306E+02  .332E+02
  .331E+02  .502E+02  .750E+02  .463E+02  .580E+02  .325E+02  .310E+02  .463E+02
  .313E+02  .522E+02  .347E+02  .300E+02  .306E+02  .492E+02  .311E+02  .298E+02
  .570E+02  .332E+02  .448E+02  .508E+02  .301E+02  .479E+02  .296E+02  .296E+02
  .296E+02  .296E+02  .296E+02  .296E+02  .296E+02  .296E+02  .295E+02  .295E+02
  .295E+02  .295E+02  .295E+02  .295E+02  .295E+02  .295E+02  .295E+02  .295E+02
  .295E+02  .295E+02  .295E+02  .295E+02  .295E+02  .295E+02  .295E+02  .295E+02
  .294E+02  .294E+02  .294E+02  .294E+02  .294E+02  .294E+02  .294E+02  .294E+02
  .294E+02  .294E+02  .294E+02  .294E+02  .000E+00  .000E+00  .000E+00  .000E+00
  .000E+00  .000E+00  .000E+00  .000E+00  .000E+00  .000E+00  .000E+00  .000E+00
  .000E+00  .000E+00  .000E+00  .000E+00  .000E+00  .000E+00  .000E+00  .000E+00
  .000E+00  .000E+00  .000E+00  .000E+00  .000E+00  .000E+00  .000E+00  .000E+00
  .000E+00  .000E+00  .000E+00  .000E+00
  .295E+02  .297E+02  .405E+02  .329E+02  .390E+02  .323E+02  .296E+02  .333E+02
  .331E+02  .503E+02  .751E+02  .296E+02  .579E+02  .325E+02  .309E+02  .463E+02
  .313E+02  .522E+02  .318E+02  .297E+02  .305E+02  .521E+02  .313E+02  .297E+02
  .530E+02  .326E+02  .448E+02  .508E+02  .300E+02  .480E+02  .297E+02  .297E+02
  .297E+02  .297E+02  .326E+02  .516E+02  .313E+02  .456E+02  .296E+02  .296E+02
  .296E+02  .296E+02  .296E+02  .622E+02  .295E+02  .295E+02  .295E+02  .324E+02
  .316E+02  .512E+02  .478E+02  .583E+02  .295E+02  .295E+02  .295E+02  .295E+02
  .295E+02  .295E+02  .825E+02  .295E+02  .295E+02  .295E+02  .295E+02  .295E+02
  .295E+02  .295E+02  .295E+02  .295E+02  .000E+00  .000E+00  .000E+00  .000E+00
  .000E+00  .000E+00  .000E+00  .000E+00  .000E+00  .000E+00  .000E+00  .000E+00
  .000E+00  .000E+00  .000E+00  .000E+00  .000E+00  .000E+00  .000E+00  .000E+00
  .000E+00  .000E+00  .000E+00  .000E+00  .000E+00  .000E+00  .000E+00  .000E+00
  .000E+00  .000E+00  .000E+00  .000E+00
Damping =  .02. Data of Sd,Sv,Sa,Pssv,ttSd,ttSv,ttSa :
  .364E-02  .417E-02  .476E-02  .605E-02  .781E-02  .771E-02  .869E-02  .138E-01
  .171E-01  .177E-01  .164E-01  .204E-01  .247E-01  .263E-01  .306E-01  .328E-01
  .703E-01  .772E-01  .819E-01  .656E-01  .713E-01  .916E-01  .112E+00  .160E+00
  .210E+00  .256E+00  .376E+00  .432E+00  .416E+00  .361E+00  .329E+00  .289E+00
  .259E+00  .253E+00  .251E+00  .244E+00  .256E+00  .251E+00  .234E+00  .221E+00
  .214E+00  .221E+00  .208E+00  .179E+00  .166E+00  .156E+00  .165E+00  .166E+00
  .161E+00  .162E+00  .169E+00  .174E+00  .172E+00  .181E+00  .194E+00  .199E+00
  .197E+00  .192E+00  .189E+00  .188E+00  .191E+00  .194E+00  .194E+00  .190E+00
  .185E+00  .180E+00  .175E+00  .173E+00  .000E+00  .000E+00  .000E+00  .000E+00
  .000E+00  .000E+00  .000E+00  .000E+00  .000E+00  .000E+00  .000E+00  .000E+00
  .000E+00  .000E+00  .000E+00  .000E+00  .000E+00  .000E+00  .000E+00  .000E+00
  .000E+00  .000E+00  .000E+00  .000E+00  .000E+00  .000E+00  .000E+00  .000E+00
  .000E+00  .000E+00  .000E+00  .000E+00
  .276E+00  .368E+00  .543E+00  .547E+00  .739E+00  .713E+00  .666E+00  .118E+01
  .137E+01  .110E+01  .915E+00  .111E+01  .133E+01  .164E+01  .173E+01  .161E+01
  .393E+01  .399E+01  .400E+01  .268E+01  .233E+01  .299E+01  .359E+01  .523E+01
  .662E+01  .793E+01  .106E+02  .115E+02  .102E+02  .917E+01  .758E+01  .682E+01
  .622E+01  .600E+01  .543E+01  .503E+01  .481E+01  .424E+01  .385E+01  .367E+01
  .352E+01  .360E+01  .360E+01  .355E+01  .322E+01  .309E+01  .306E+01  .294E+01
  .284E+01  .281E+01  .279E+01  .266E+01  .259E+01  .256E+01  .250E+01  .241E+01
  .236E+01  .236E+01  .236E+01  .235E+01  .235E+01  .237E+01  .238E+01  .239E+01
  .239E+01  .239E+01  .239E+01  .238E+01  .000E+00  .000E+00  .000E+00  .000E+00
  .000E+00  .000E+00  .000E+00  .000E+00  .000E+00  .000E+00  .000E+00  .000E+00
  .000E+00  .000E+00  .000E+00  .000E+00  .000E+00  .000E+00  .000E+00  .000E+00
  .000E+00  .000E+00  .000E+00  .000E+00  .000E+00  .000E+00  .000E+00  .000E+00
  .000E+00  .000E+00  .000E+00  .000E+00
  .233E+00  .242E+00  .251E+00  .292E+00  .346E+00  .314E+00  .295E+00  .393E+00
  .414E+00  .368E+00  .299E+00  .327E+00  .350E+00  .331E+00  .347E+00  .334E+00
  .592E+00  .554E+00  .493E+00  .340E+00  .325E+00  .366E+00  .396E+00  .502E+00
  .597E+00  .657E+00  .796E+00  .767E+00  .630E+00  .472E+00  .373E+00  .289E+00
  .230E+00  .200E+00  .178E+00  .157E+00  .149E+00  .133E+00  .114E+00  .985E-01
  .882E-01  .748E-01  .593E-01  .435E-01  .347E-01  .285E-01  .264E-01  .236E-01
  .204E-01  .184E-01  .173E-01  .149E-01  .124E-01  .111E-01  .103E-01  .919E-02
  .798E-02  .691E-02  .607E-02  .545E-02  .499E-02  .421E-02  .355E-02  .297E-02
  .253E-02  .216E-02  .186E-02  .164E-02  .000E+00  .000E+00  .000E+00  .000E+00
  .000E+00  .000E+00  .000E+00  .000E+00  .000E+00  .000E+00  .000E+00  .000E+00
  .000E+00  .000E+00  .000E+00  .000E+00  .000E+00  .000E+00  .000E+00  .000E+00
  .000E+00  .000E+00  .000E+00  .000E+00  .000E+00  .000E+00  .000E+00  .000E+00
  .000E+00  .000E+00  .000E+00  .000E+00
  .572E+00  .624E+00  .680E+00  .826E+00  .102E+01  .969E+00  .992E+00  .145E+01
  .165E+01  .159E+01  .137E+01  .160E+01  .183E+01  .184E+01  .202E+01  .206E+01
  .402E+01  .404E+01  .396E+01  .294E+01  .299E+01  .360E+01  .415E+01  .557E+01
  .696E+01  .805E+01  .107E+02  .113E+02  .101E+02  .810E+01  .690E+01  .568E+01
  .479E+01  .441E+01  .415E+01  .383E+01  .383E+01  .358E+01  .320E+01  .289E+01
  .269E+01  .253E+01  .218E+01  .173E+01  .149E+01  .131E+01  .130E+01  .123E+01
  .112E+01  .107E+01  .106E+01  .996E+00  .901E+00  .877E+00  .871E+00  .835E+00
  .772E+00  .709E+00  .659E+00  .623E+00  .599E+00  .555E+00  .508E+00  .459E+00
  .416E+00  .378E+00  .344E+00  .319E+00  .000E+00  .000E+00  .000E+00  .000E+00
  .000E+00  .000E+00  .000E+00  .000E+00  .000E+00  .000E+00  .000E+00  .000E+00
  .000E+00  .000E+00  .000E+00  .000E+00  .000E+00  .000E+00  .000E+00  .000E+00
  .000E+00  .000E+00  .000E+00  .000E+00  .000E+00  .000E+00  .000E+00  .000E+00
  .000E+00  .000E+00  .000E+00  .000E+00
  .295E+02  .297E+02  .297E+02  .299E+02  .299E+02  .297E+02  .296E+02  .299E+02
  .297E+02  .296E+02  .296E+02  .296E+02  .296E+02  .296E+02  .296E+02  .297E+02
  .311E+02  .299E+02  .299E+02  .297E+02  .295E+02  .295E+02  .295E+02  .297E+02
  .297E+02  .299E+02  .300E+02  .301E+02  .299E+02  .298E+02  .297E+02  .297E+02
  .297E+02  .296E+02  .296E+02  .296E+02  .296E+02  .296E+02  .296E+02  .296E+02
  .296E+02  .296E+02  .296E+02  .296E+02  .295E+02  .295E+02  .295E+02  .295E+02
  .295E+02  .295E+02  .295E+02  .295E+02  .295E+02  .295E+02  .295E+02  .295E+02
  .295E+02  .295E+02  .295E+02  .295E+02  .295E+02  .295E+02  .295E+02  .295E+02
  .295E+02  .295E+02  .295E+02  .295E+02  .000E+00  .000E+00  .000E+00  .000E+00
  .000E+00  .000E+00  .000E+00  .000E+00  .000E+00  .000E+00  .000E+00  .000E+00
  .000E+00  .000E+00  .000E+00  .000E+00  .000E+00  .000E+00  .000E+00  .000E+00
  .000E+00  .000E+00  .000E+00  .000E+00  .000E+00  .000E+00  .000E+00  .000E+00
  .000E+00  .000E+00  .000E+00  .000E+00
  .316E+02  .304E+02  .306E+02  .301E+02  .299E+02  .297E+02  .296E+02  .299E+02
  .297E+02  .296E+02  .296E+02  .296E+02  .296E+02  .301E+02  .301E+02  .297E+02
  .311E+02  .300E+02  .300E+02  .297E+02  .295E+02  .295E+02  .295E+02  .298E+02
  .298E+02  .300E+02  .301E+02  .299E+02  .298E+02  .299E+02  .296E+02  .296E+02
  .296E+02  .296E+02  .296E+02  .296E+02  .296E+02  .296E+02  .295E+02  .295E+02
  .295E+02  .295E+02  .295E+02  .295E+02  .295E+02  .295E+02  .295E+02  .295E+02
  .295E+02  .295E+02  .295E+02  .295E+02  .295E+02  .295E+02  .295E+02  .295E+02
  .294E+02  .294E+02  .294E+02  .294E+02  .294E+02  .294E+02  .294E+02  .294E+02
  .294E+02  .294E+02  .294E+02  .294E+02  .000E+00  .000E+00  .000E+00  .000E+00
  .000E+00  .000E+00  .000E+00  .000E+00  .000E+00  .000E+00  .000E+00  .000E+00
  .000E+00  .000E+00  .000E+00  .000E+00  .000E+00  .000E+00  .000E+00  .000E+00
  .000E+00  .000E+00  .000E+00  .000E+00  .000E+00  .000E+00  .000E+00  .000E+00
  .000E+00  .000E+00  .000E+00  .000E+00
  .295E+02  .297E+02  .297E+02  .299E+02  .299E+02  .297E+02  .296E+02  .299E+02
  .297E+02  .296E+02  .296E+02  .296E+02  .296E+02  .296E+02  .296E+02  .297E+02
  .311E+02  .299E+02  .299E+02  .297E+02  .295E+02  .295E+02  .295E+02  .297E+02
  .297E+02  .299E+02  .301E+02  .301E+02  .299E+02  .298E+02  .297E+02  .297E+02
