Response and Fourier amplitude spectra (68 periods,  .04 -  3.4 sec)   for      
Corrected accelerogram   13891-L1369-08211.01       Chan  1: 360 Deg     from   
Uncorrected Accelerogram Data             Processed: 07/30/08, CDMG  ce13891e   
Record of Tue Jul 29, 2008 11:41:59.0 PDT             (Avol1 v7.9 7/08 CSMIP)   
CSMIP Preliminary Processing            (Origin:  To be determined)             
13891-L1369-08211.01                 Start time:  7/29/08, 18:41:59.0 UTC (GPS) 
Station No. 13891   33.716N, 117.904W      Etna  s/n 1369  (3 Channels)         
Santa Ana - Warner & Greenville           CGS                                   
Chan  1: 360 Deg                                                                
Record of Tue Jul 29, 2008 11:41:59.0 PDT    Tue Jul 29, 2008 11:41:59.0 PDT    
Hypocenter:  To be determined.               ML:  To be determined.             
Instr Period =  .0109 sec,  Damping =  .670,  Sensitivity =  .63  v/g           
                        Record length = 88.000 sec.                             
                                     Uncor Max  =   .053 g , at  28.215 sec.    
RMS accel of (uncor) record  =        .   Chn. metadata effective date: 01/09/03
Accelerogram bandpass filtered with 3 dB pts at   .30 and 40.00 cyc/sec         
                 instrument- and baseline-corrected                             
                                                                                
                                                                                
                                                                                
                                                                                
                                                                                
Record of Tue Jul 29, 2008 11:41:59.0 PDT    Tue Jul 29, 2008 11:41:59.0 PDT    
                                                                                
13891-L1369-08211.01      Santa Ana - Warner & Greenville   Chan  1: 360 Deg    
                                                                                
13891-L1369-08211.01      Santa Ana - Warner & Greenville   Chan  1: 360 Deg    
                                                                                
Units for spectra are inches and sec, except Sa is in fraction of g.            
                                                                                
    1  100    1    4    3  200    1    3    1   24   12 1369    013891    1    0
   18   41   59    0  211    7   29 2008   10    3  36017600   41   31   76  360
17600    1   50    3 1369    1    1  880    2    0    0    0    0    0    0    0
    0    4    0    0 8800    2  202    0   18    4   76   31    1    1    0 8800
    3 8800   32   68    5    3    5    0    0    0    3    0    0    3    0    2
    2    2    4    0   32   99 -999   32   32    0    0    1    0    0    0  222
    1    0    3    0
      .011      .670    88.000      .005      .000   626.000      .053    28.215
    92.000      .298      .477      .000     5.000      .000     3.994      .000
     2.500     9.748     2.500  -999.000    25.000    30.000      .000     -.003
      .024      .028     2.000    15.000    33.716  -117.904      .026      .969
    37.832      .000      .000    13.000    25.600    57.600    13.400    78.260
     1.000     1.137      .000      .000      .000      .000      .000      .000
     4.200     7.900     4.600   980.665      .010    88.000    14.642      .002
      .000    40.000      .000    88.000      .010      .303      .000      .000
    28.210    52.009    34.190     3.013    33.970     -.494      .000      .303
    40.000      .010      .010      .000      .490      .224      .000      .000
      .211      .150      .173      .161      .047      .004      .000      .000
      .000      .000      .000      .000      .000      .000      .000      .000
      .000      .000      .000      .000
      .000      .020      .050      .100      .200
      .040      .042      .044      .046      .048      .050      .055      .060
      .065      .070      .075      .080      .085      .090      .095      .100
      .110      .120      .130      .140      .150      .160      .170      .180
      .190      .200      .220      .240      .260      .280      .300      .320
      .340      .360      .380      .400      .420      .440      .460      .480
      .500      .550      .600      .650      .700      .750      .800      .850
      .900      .950     1.000     1.100     1.200     1.300     1.400     1.500
     1.600     1.700     1.800     1.900     2.000     2.200     2.400     2.600
     2.800     3.000     3.200     3.400      .000      .000      .000      .000
      .000      .000      .000      .000      .000      .000      .000      .000
      .000      .000      .000      .000      .000      .000      .000      .000
      .000      .000      .000      .000      .000      .000      .000      .000
      .000      .000      .000      .000
Fourier amplitude spectra in in/sec.
  .186E-01  .829E-01  .532E-01  .108E+00  .966E-01  .685E-01  .121E+00  .126E-01
  .390E+00  .495E+00  .227E+00  .788E+00  .163E+01  .441E+00  .108E+01  .681E+00
  .119E+01  .753E-01  .201E+01  .491E+01  .258E+01  .360E+01  .285E+01  .669E+00
  .156E+01  .127E+01  .643E+01  .167E+01  .646E+01  .595E+01  .819E+00  .706E+01
  .495E+01  .533E+01  .120E+02  .385E+01  .339E+01  .954E+01  .616E+01  .697E+01
  .271E+01  .458E+01  .189E+01  .231E+01  .558E+01  .724E+01  .202E+00  .499E+01
  .301E+01  .690E+01  .553E+01  .344E+01  .355E+01  .169E+01  .612E+01  .946E+01
  .446E+01  .290E+01  .193E+01  .417E+01  .237E+00  .286E+01  .872E+00  .689E+00
  .295E+00  .204E+01  .836E+00  .696E-01  .000E+00  .000E+00  .000E+00  .000E+00
  .000E+00  .000E+00  .000E+00  .000E+00  .000E+00  .000E+00  .000E+00  .000E+00
  .000E+00  .000E+00  .000E+00  .000E+00  .000E+00  .000E+00  .000E+00  .000E+00
  .000E+00  .000E+00  .000E+00  .000E+00  .000E+00  .000E+00  .000E+00  .000E+00
  .000E+00  .000E+00  .000E+00  .000E+00
Damping =  .00. Data of Sd,Sv,Sa,Pssv,ttSd,ttSv,ttSa :
  .956E-03  .123E-02  .124E-02  .191E-02  .154E-02  .152E-02  .236E-02  .263E-02
  .650E-02  .864E-02  .659E-02  .122E-01  .243E-01  .103E-01  .180E-01  .163E-01
  .240E-01  .247E-01  .612E-01  .117E+00  .717E-01  .126E+00  .101E+00  .898E-01
  .116E+00  .921E-01  .242E+00  .122E+00  .303E+00  .270E+00  .323E+00  .387E+00
  .336E+00  .412E+00  .805E+00  .368E+00  .412E+00  .710E+00  .628E+00  .622E+00
  .445E+00  .533E+00  .392E+00  .877E+00  .696E+00  .886E+00  .344E+00  .756E+00
  .979E+00  .145E+01  .885E+00  .909E+00  .100E+01  .707E+00  .138E+01  .230E+01
  .117E+01  .918E+00  .878E+00  .126E+01  .645E+00  .113E+01  .878E+00  .708E+00
  .488E+00  .103E+01  .582E+00  .416E+00  .000E+00  .000E+00  .000E+00  .000E+00
  .000E+00  .000E+00  .000E+00  .000E+00  .000E+00  .000E+00  .000E+00  .000E+00
  .000E+00  .000E+00  .000E+00  .000E+00  .000E+00  .000E+00  .000E+00  .000E+00
  .000E+00  .000E+00  .000E+00  .000E+00  .000E+00  .000E+00  .000E+00  .000E+00
  .000E+00  .000E+00  .000E+00  .000E+00
  .537E-01  .979E-01  .657E-01  .142E+00  .127E+00  .844E-01  .165E+00  .179E+00
  .465E+00  .680E+00  .519E+00  .844E+00  .171E+01  .575E+00  .113E+01  .781E+00
  .131E+01  .117E+01  .272E+01  .514E+01  .287E+01  .494E+01  .352E+01  .301E+01
  .361E+01  .285E+01  .687E+01  .301E+01  .723E+01  .602E+01  .680E+01  .753E+01
  .618E+01  .726E+01  .132E+02  .584E+01  .593E+01  .101E+02  .866E+01  .812E+01
  .545E+01  .604E+01  .430E+01  .846E+01  .618E+01  .739E+01  .300E+01  .559E+01
  .681E+01  .955E+01  .555E+01  .512E+01  .519E+01  .358E+01  .622E+01  .963E+01
  .463E+01  .337E+01  .310E+01  .420E+01  .210E+01  .326E+01  .250E+01  .214E+01
  .194E+01  .226E+01  .164E+01  .165E+01  .000E+00  .000E+00  .000E+00  .000E+00
  .000E+00  .000E+00  .000E+00  .000E+00  .000E+00  .000E+00  .000E+00  .000E+00
  .000E+00  .000E+00  .000E+00  .000E+00  .000E+00  .000E+00  .000E+00  .000E+00
  .000E+00  .000E+00  .000E+00  .000E+00  .000E+00  .000E+00  .000E+00  .000E+00
  .000E+00  .000E+00  .000E+00  .000E+00
  .611E-01  .716E-01  .656E-01  .925E-01  .682E-01  .621E-01  .797E-01  .748E-01
  .157E+00  .180E+00  .120E+00  .195E+00  .344E+00  .130E+00  .204E+00  .167E+00
  .203E+00  .175E+00  .370E+00  .612E+00  .326E+00  .503E+00  .357E+00  .283E+00
  .327E+00  .236E+00  .511E+00  .217E+00  .458E+00  .352E+00  .367E+00  .387E+00
  .297E+00  .325E+00  .570E+00  .235E+00  .239E+00  .375E+00  .304E+00  .276E+00
  .182E+00  .180E+00  .111E+00  .212E+00  .145E+00  .161E+00  .549E-01  .107E+00
  .124E+00  .164E+00  .905E-01  .768E-01  .710E-01  .428E-01  .718E-01  .105E+00
  .466E-01  .325E-01  .277E-01  .358E-01  .165E-01  .239E-01  .156E-01  .107E-01
  .637E-02  .118E-01  .581E-02  .368E-02  .000E+00  .000E+00  .000E+00  .000E+00
  .000E+00  .000E+00  .000E+00  .000E+00  .000E+00  .000E+00  .000E+00  .000E+00
  .000E+00  .000E+00  .000E+00  .000E+00  .000E+00  .000E+00  .000E+00  .000E+00
  .000E+00  .000E+00  .000E+00  .000E+00  .000E+00  .000E+00  .000E+00  .000E+00
  .000E+00  .000E+00  .000E+00  .000E+00
  .150E+00  .185E+00  .177E+00  .262E+00  .201E+00  .191E+00  .269E+00  .276E+00
  .628E+00  .776E+00  .552E+00  .958E+00  .179E+01  .719E+00  .119E+01  .102E+01
  .137E+01  .129E+01  .296E+01  .527E+01  .300E+01  .494E+01  .373E+01  .313E+01
  .382E+01  .289E+01  .690E+01  .321E+01  .731E+01  .606E+01  .677E+01  .760E+01
  .620E+01  .719E+01  .133E+02  .578E+01  .617E+01  .101E+02  .858E+01  .814E+01
  .559E+01  .608E+01  .410E+01  .848E+01  .625E+01  .743E+01  .270E+01  .559E+01
  .684E+01  .957E+01  .556E+01  .519E+01  .523E+01  .342E+01  .618E+01  .964E+01
  .458E+01  .339E+01  .306E+01  .417E+01  .203E+01  .323E+01  .230E+01  .171E+01
  .110E+01  .217E+01  .114E+01  .769E+00  .000E+00  .000E+00  .000E+00  .000E+00
  .000E+00  .000E+00  .000E+00  .000E+00  .000E+00  .000E+00  .000E+00  .000E+00
  .000E+00  .000E+00  .000E+00  .000E+00  .000E+00  .000E+00  .000E+00  .000E+00
  .000E+00  .000E+00  .000E+00  .000E+00  .000E+00  .000E+00  .000E+00  .000E+00
  .000E+00  .000E+00  .000E+00  .000E+00
  .300E+02  .300E+02  .284E+02  .287E+02  .282E+02  .300E+02  .282E+02  .293E+02
  .300E+02  .332E+02  .308E+02  .328E+02  .366E+02  .287E+02  .434E+02  .287E+02
  .437E+02  .297E+02  .300E+02  .349E+02  .293E+02  .319E+02  .298E+02  .285E+02
  .285E+02  .286E+02  .511E+02  .298E+02  .408E+02  .594E+02  .318E+02  .475E+02
  .515E+02  .326E+02  .356E+02  .309E+02  .434E+02  .552E+02  .345E+02  .519E+02
  .361E+02  .448E+02  .427E+02  .429E+02  .744E+02  .750E+02  .339E+02  .802E+02
  .390E+02  .441E+02  .862E+02  .587E+02  .595E+02  .461E+02  .840E+02  .808E+02
  .830E+02  .808E+02  .704E+02  .887E+02  .587E+02  .750E+02  .586E+02  .564E+02
  .375E+02  .797E+02  .581E+02  .366E+02  .000E+00  .000E+00  .000E+00  .000E+00
  .000E+00  .000E+00  .000E+00  .000E+00  .000E+00  .000E+00  .000E+00  .000E+00
  .000E+00  .000E+00  .000E+00  .000E+00  .000E+00  .000E+00  .000E+00  .000E+00
  .000E+00  .000E+00  .000E+00  .000E+00  .000E+00  .000E+00  .000E+00  .000E+00
  .000E+00  .000E+00  .000E+00  .000E+00
  .299E+02  .334E+02  .284E+02  .287E+02  .367E+02  .365E+02  .308E+02  .293E+02
  .302E+02  .332E+02  .307E+02  .321E+02  .451E+02  .286E+02  .493E+02  .287E+02
  .435E+02  .297E+02  .300E+02  .349E+02  .288E+02  .320E+02  .299E+02  .286E+02
  .285E+02  .285E+02  .512E+02  .297E+02  .407E+02  .657E+02  .317E+02  .475E+02
  .516E+02  .327E+02  .355E+02  .310E+02  .435E+02  .549E+02  .346E+02  .521E+02
  .367E+02  .446E+02  .428E+02  .428E+02  .743E+02  .846E+02  .286E+02  .804E+02
  .392E+02  .438E+02  .859E+02  .706E+02  .592E+02  .464E+02  .837E+02  .812E+02
  .826E+02  .812E+02  .583E+02  .806E+02  .591E+02  .778E+02  .591E+02  .342E+02
  .342E+02  .790E+02  .342E+02  .342E+02  .000E+00  .000E+00  .000E+00  .000E+00
  .000E+00  .000E+00  .000E+00  .000E+00  .000E+00  .000E+00  .000E+00  .000E+00
  .000E+00  .000E+00  .000E+00  .000E+00  .000E+00  .000E+00  .000E+00  .000E+00
  .000E+00  .000E+00  .000E+00  .000E+00  .000E+00  .000E+00  .000E+00  .000E+00
  .000E+00  .000E+00  .000E+00  .000E+00
  .300E+02  .300E+02  .284E+02  .287E+02  .282E+02  .300E+02  .282E+02  .293E+02
  .300E+02  .332E+02  .308E+02  .328E+02  .366E+02  .287E+02  .434E+02  .287E+02
  .437E+02  .297E+02  .300E+02  .349E+02  .293E+02  .319E+02  .298E+02  .285E+02
  .285E+02  .286E+02  .511E+02  .298E+02  .408E+02  .594E+02  .318E+02  .475E+02
  .515E+02  .326E+02  .356E+02  .309E+02  .434E+02  .552E+02  .345E+02  .519E+02
  .361E+02  .448E+02  .427E+02  .429E+02  .744E+02  .750E+02  .339E+02  .802E+02
  .390E+02  .441E+02  .862E+02  .587E+02  .595E+02  .461E+02  .840E+02  .808E+02
  .830E+02  .808E+02  .704E+02  .887E+02  .587E+02  .750E+02  .586E+02  .564E+02
  .375E+02  .797E+02  .581E+02  .366E+02  .000E+00  .000E+00  .000E+00  .000E+00
  .000E+00  .000E+00  .000E+00  .000E+00  .000E+00  .000E+00  .000E+00  .000E+00
  .000E+00  .000E+00  .000E+00  .000E+00  .000E+00  .000E+00  .000E+00  .000E+00
  .000E+00  .000E+00  .000E+00  .000E+00  .000E+00  .000E+00  .000E+00  .000E+00
  .000E+00  .000E+00  .000E+00  .000E+00
Damping =  .02. Data of Sd,Sv,Sa,Pssv,ttSd,ttSv,ttSa :
  .873E-03  .971E-03  .109E-02  .130E-02  .136E-02  .150E-02  .186E-02  .233E-02
  .306E-02  .428E-02  .573E-02  .749E-02  .990E-02  .963E-02  .103E-01  .106E-01
  .137E-01  .166E-01  .331E-01  .469E-01  .592E-01  .711E-01  .653E-01  .768E-01
  .882E-01  .799E-01  .132E+00  .935E-01  .133E+00  .143E+00  .224E+00  .225E+00
  .210E+00  .258E+00  .343E+00  .290E+00  .282E+00  .279E+00  .297E+00  .262E+00
  .259E+00  .268E+00  .251E+00  .410E+00  .264E+00  .386E+00  .263E+00  .347E+00
  .551E+00  .703E+00  .562E+00  .577E+00  .544E+00  .575E+00  .803E+00  .774E+00
  .618E+00  .490E+00  .533E+00  .476E+00  .454E+00  .534E+00  .612E+00  .555E+00
  .431E+00  .551E+00  .411E+00  .384E+00  .000E+00  .000E+00  .000E+00  .000E+00
  .000E+00  .000E+00  .000E+00  .000E+00  .000E+00  .000E+00  .000E+00  .000E+00
  .000E+00  .000E+00  .000E+00  .000E+00  .000E+00  .000E+00  .000E+00  .000E+00
  .000E+00  .000E+00  .000E+00  .000E+00  .000E+00  .000E+00  .000E+00  .000E+00
  .000E+00  .000E+00  .000E+00  .000E+00
  .382E-01  .479E-01  .491E-01  .538E-01  .648E-01  .617E-01  .825E-01  .112E+00
  .172E+00  .259E+00  .345E+00  .433E+00  .601E+00  .551E+00  .476E+00  .515E+00
  .624E+00  .779E+00  .149E+01  .212E+01  .250E+01  .287E+01  .243E+01  .250E+01
  .281E+01  .247E+01  .362E+01  .234E+01  .311E+01  .309E+01  .444E+01  .439E+01
  .386E+01  .437E+01  .571E+01  .456E+01  .447E+01  .409E+01  .418E+01  .396E+01
  .363E+01  .306E+01  .261E+01  .403E+01  .246E+01  .333E+01  .273E+01  .256E+01
  .375E+01  .487E+01  .399E+01  .350E+01  .299E+01  .296E+01  .392E+01  .342E+01
  .311E+01  .237E+01  .212E+01  .178E+01  .172E+01  .191E+01  .190E+01  .202E+01
  .189E+01  .173E+01  .165E+01  .163E+01  .000E+00  .000E+00  .000E+00  .000E+00
  .000E+00  .000E+00  .000E+00  .000E+00  .000E+00  .000E+00  .000E+00  .000E+00
  .000E+00  .000E+00  .000E+00  .000E+00  .000E+00  .000E+00  .000E+00  .000E+00
  .000E+00  .000E+00  .000E+00  .000E+00  .000E+00  .000E+00  .000E+00  .000E+00
  .000E+00  .000E+00  .000E+00  .000E+00
  .558E-01  .563E-01  .576E-01  .629E-01  .603E-01  .614E-01  .628E-01  .664E-01
  .739E-01  .896E-01  .104E+00  .119E+00  .140E+00  .121E+00  .117E+00  .108E+00
  .115E+00  .117E+00  .201E+00  .243E+00  .269E+00  .283E+00  .231E+00  .243E+00
  .249E+00  .205E+00  .278E+00  .167E+00  .201E+00  .187E+00  .255E+00  .225E+00
  .186E+00  .204E+00  .243E+00  .186E+00  .164E+00  .148E+00  .143E+00  .116E+00
  .106E+00  .907E-01  .715E-01  .993E-01  .552E-01  .702E-01  .421E-01  .491E-01
  .696E-01  .798E-01  .576E-01  .488E-01  .387E-01  .348E-01  .420E-01  .352E-01
  .247E-01  .174E-01  .169E-01  .135E-01  .116E-01  .113E-01  .109E-01  .841E-02
  .562E-02  .627E-02  .411E-02  .342E-02  .000E+00  .000E+00  .000E+00  .000E+00
  .000E+00  .000E+00  .000E+00  .000E+00  .000E+00  .000E+00  .000E+00  .000E+00
  .000E+00  .000E+00  .000E+00  .000E+00  .000E+00  .000E+00  .000E+00  .000E+00
  .000E+00  .000E+00  .000E+00  .000E+00  .000E+00  .000E+00  .000E+00  .000E+00
  .000E+00  .000E+00  .000E+00  .000E+00
  .137E+00  .145E+00  .156E+00  .178E+00  .178E+00  .188E+00  .212E+00  .244E+00
  .296E+00  .384E+00  .480E+00  .588E+00  .732E+00  .672E+00  .680E+00  .668E+00
  .784E+00  .870E+00  .160E+01  .211E+01  .248E+01  .279E+01  .241E+01  .268E+01
  .292E+01  .251E+01  .377E+01  .245E+01  .322E+01  .321E+01  .468E+01  .441E+01
  .389E+01  .451E+01  .566E+01  .456E+01  .422E+01  .399E+01  .405E+01  .344E+01
  .325E+01  .306E+01  .263E+01  .396E+01  .237E+01  .323E+01  .207E+01  .256E+01
  .385E+01  .465E+01  .353E+01  .330E+01  .285E+01  .278E+01  .361E+01  .324E+01
  .243E+01  .181E+01  .186E+01  .158E+01  .143E+01  .153E+01  .160E+01  .134E+01
  .966E+00  .115E+01  .807E+00  .710E+00  .000E+00  .000E+00  .000E+00  .000E+00
  .000E+00  .000E+00  .000E+00  .000E+00  .000E+00  .000E+00  .000E+00  .000E+00
  .000E+00  .000E+00  .000E+00  .000E+00  .000E+00  .000E+00  .000E+00  .000E+00
  .000E+00  .000E+00  .000E+00  .000E+00  .000E+00  .000E+00  .000E+00  .000E+00
  .000E+00  .000E+00  .000E+00  .000E+00
  .282E+02  .282E+02  .287E+02  .287E+02  .287E+02  .287E+02  .282E+02  .282E+02
  .282E+02  .286E+02  .286E+02  .286E+02  .286E+02  .287E+02  .287E+02  .287E+02
  .287E+02  .287E+02  .287E+02  .288E+02  .288E+02  .288E+02  .285E+02  .285E+02
  .285E+02  .285E+02  .301E+02  .296E+02  .335E+02  .335E+02  .302E+02  .302E+02
  .304E+02  .317E+02  .325E+02  .309E+02  .307E+02  .328E+02  .322E+02  .300E+02
  .296E+02  .444E+02  .467E+02  .367E+02  .379E+02  .439E+02  .334E+02  .440E+02
  .373E+02  .374E+02  .347E+02  .358E+02  .348E+02  .375E+02  .370E+02  .614E+02
  .615E+02  .333E+02  .434E+02  .327E+02  .587E+02  .410E+02  .392E+02  .384E+02
  .374E+02  .588E+02  .580E+02  .366E+02  .000E+00  .000E+00  .000E+00  .000E+00
  .000E+00  .000E+00  .000E+00  .000E+00  .000E+00  .000E+00  .000E+00  .000E+00
  .000E+00  .000E+00  .000E+00  .000E+00  .000E+00  .000E+00  .000E+00  .000E+00
  .000E+00  .000E+00  .000E+00  .000E+00  .000E+00  .000E+00  .000E+00  .000E+00
  .000E+00  .000E+00  .000E+00  .000E+00
  .287E+02  .287E+02  .287E+02  .284E+02  .284E+02  .287E+02  .299E+02  .284E+02
  .284E+02  .294E+02  .287E+02  .288E+02  .286E+02  .286E+02  .284E+02  .284E+02
  .286E+02  .290E+02  .289E+02  .288E+02  .288E+02  .288E+02  .287E+02  .286E+02
  .285E+02  .285E+02  .301E+02  .296E+02  .336E+02  .336E+02  .303E+02  .303E+02
  .303E+02  .325E+02  .326E+02  .308E+02  .308E+02  .302E+02  .323E+02  .299E+02
  .297E+02  .443E+02  .468E+02  .369E+02  .299E+02  .441E+02  .286E+02  .286E+02
  .375E+02  .367E+02  .349E+02  .350E+02  .357E+02  .372E+02  .367E+02  .342E+02
  .342E+02  .337E+02  .436E+02  .481E+02  .325E+02  .404E+02  .342E+02  .342E+02
  .342E+02  .342E+02  .342E+02  .342E+02  .000E+00  .000E+00  .000E+00  .000E+00
  .000E+00  .000E+00  .000E+00  .000E+00  .000E+00  .000E+00  .000E+00  .000E+00
  .000E+00  .000E+00  .000E+00  .000E+00  .000E+00  .000E+00  .000E+00  .000E+00
  .000E+00  .000E+00  .000E+00  .000E+00  .000E+00  .000E+00  .000E+00  .000E+00
  .000E+00  .000E+00  .000E+00  .000E+00
  .282E+02  .282E+02  .287E+02  .287E+02  .287E+02  .287E+02  .282E+02  .284E+02
  .282E+02  .286E+02  .286E+02  .286E+02  .286E+02  .287E+02  .287E+02  .287E+02
  .287E+02  .287E+02  .287E+02  .288E+02  .288E+02  .288E+02  .285E+02  .285E+02
  .285E+02  .285E+02  .301E+02  .296E+02  .335E+02  .335E+02  .302E+02  .302E+02
