Response and Fourier amplitude spectra (68 periods,  .04 -  3.4 sec)   for      
Corrected accelerogram   13888-L1359-08211.01       Chan  1: 360 Deg     from   
Uncorrected Accelerogram Data             Processed: 07/30/08, CDMG  ce13888h   
Record of Tue Jul 29, 2008 11:41:56.0 PDT             (Avol1 v7.9 7/08 CSMIP)   
CSMIP Preliminary Processing            (Origin:  To be determined)             
13888-L1359-08211.01                 Start time:  7/29/08, 18:41:56.0 UTC (GPS) 
Station No. 13888   33.819N, 117.849W      Etna  s/n 1359  (3 Channels)         
Orange - Shaffer & Taft                   CGS                                   
Chan  1: 360 Deg                                                                
Record of Tue Jul 29, 2008 11:41:56.0 PDT    Tue Jul 29, 2008 11:41:56.0 PDT    
Hypocenter:  To be determined.               ML:  To be determined.             
Instr Period =  .0109 sec,  Damping =  .640,  Sensitivity =  .63  v/g           
                        Record length = 74.000 sec.                             
                                     Uncor Max  =   .049 g , at  29.175 sec.    
RMS accel of (uncor) record  =        .   Chn. metadata effective date: 01/08/03
Accelerogram bandpass filtered with 3 dB pts at   .30 and 40.00 cyc/sec         
                 instrument- and baseline-corrected                             
                                                                                
                                                                                
                                                                                
                                                                                
                                                                                
Record of Tue Jul 29, 2008 11:41:56.0 PDT    Tue Jul 29, 2008 11:41:56.0 PDT    
                                                                                
13888-L1359-08211.01      Orange - Shaffer & Taft   Chan  1: 360 Deg            
                                                                                
13888-L1359-08211.01      Orange - Shaffer & Taft   Chan  1: 360 Deg            
                                                                                
Units for spectra are inches and sec, except Sa is in fraction of g.            
                                                                                
    1  100    1    4    3  200    1    3    1   24   12 1359    013888    1    0
   18   41   56    0  211    7   29 2008   10    3  36014800   41   23   76  360
14800    1   50    3 1359    1    1  740    2    0    0    0    0    0    0    0
    0    4    0    014800    1  202    0   18    4   76   23    1    1    014800
    314800   24   68    5    3    5    0    0    0    3    0    0    3    0    2
    2    2    4    0   32   99 -999   32   32    0    1    1    0    0    0  222
    1    0    3    0
      .011      .640    74.000      .005      .000   625.000      .049    29.175
    91.700      .298      .477      .000     5.000      .000     4.000      .000
     2.500    13.285     2.500  -999.000    25.000    30.000      .000      .002
      .018      .016     2.000    15.000    33.819  -117.849      .016      .757
    48.213      .000      .000    61.000    25.300    43.600    13.400    79.160
     1.000     1.281      .000      .000      .000      .000      .000      .000
     4.200     7.900     4.600   980.665      .005    74.000    14.595      .000
      .000    40.000      .000    74.000      .005      .303      .000      .000
    29.175    47.575    27.820     5.352    28.090      .855      .000      .303
    40.000      .005      .005      .000      .005      .163      .000      .000
      .144      .095      .127      .105      .073      .007      .000      .000
      .000      .000      .000      .000      .000      .000      .000      .000
      .000      .000      .000      .000
      .000      .020      .050      .100      .200
      .040      .042      .044      .046      .048      .050      .055      .060
      .065      .070      .075      .080      .085      .090      .095      .100
      .110      .120      .130      .140      .150      .160      .170      .180
      .190      .200      .220      .240      .260      .280      .300      .320
      .340      .360      .380      .400      .420      .440      .460      .480
      .500      .550      .600      .650      .700      .750      .800      .850
      .900      .950     1.000     1.100     1.200     1.300     1.400     1.500
     1.600     1.700     1.800     1.900     2.000     2.200     2.400     2.600
     2.800     3.000     3.200     3.400      .000      .000      .000      .000
      .000      .000      .000      .000      .000      .000      .000      .000
      .000      .000      .000      .000      .000      .000      .000      .000
      .000      .000      .000      .000      .000      .000      .000      .000
      .000      .000      .000      .000
Fourier amplitude spectra in in/sec.
  .297E+00  .189E+00  .172E+00  .841E+00  .283E+00  .899E+00  .497E+00  .366E+00
  .722E+00  .822E+00  .506E+00  .958E+00  .135E+01  .390E+00  .178E+01  .109E+01
  .139E+01  .308E+01  .311E+01  .131E+01  .156E+01  .848E+00  .355E+01  .315E+01
  .257E+01  .422E+01  .603E+00  .109E+01  .313E+01  .360E+01  .345E+01  .465E+01
  .521E+01  .791E+01  .366E+01  .272E+01  .488E+01  .724E+01  .677E+01  .587E+01
  .305E+01  .723E+01  .429E+01  .203E+01  .584E+01  .679E+01  .531E+01  .393E+01
  .879E+01  .639E+01  .100E+02  .619E+01  .660E+01  .350E+01  .438E+01  .186E+01
  .666E+01  .174E+01  .440E+01  .338E+01  .311E+01  .199E+01  .119E+01  .167E+01
  .197E+01  .106E+01  .419E+00  .606E+00  .000E+00  .000E+00  .000E+00  .000E+00
  .000E+00  .000E+00  .000E+00  .000E+00  .000E+00  .000E+00  .000E+00  .000E+00
  .000E+00  .000E+00  .000E+00  .000E+00  .000E+00  .000E+00  .000E+00  .000E+00
  .000E+00  .000E+00  .000E+00  .000E+00  .000E+00  .000E+00  .000E+00  .000E+00
  .000E+00  .000E+00  .000E+00  .000E+00
Damping =  .00. Data of Sd,Sv,Sa,Pssv,ttSd,ttSv,ttSa :
  .223E-02  .178E-02  .295E-02  .666E-02  .300E-02  .753E-02  .609E-02  .576E-02
  .942E-02  .107E-01  .829E-02  .187E-01  .275E-01  .176E-01  .405E-01  .316E-01
  .343E-01  .648E-01  .683E-01  .382E-01  .622E-01  .576E-01  .975E-01  .114E+00
  .862E-01  .144E+00  .881E-01  .651E-01  .161E+00  .191E+00  .258E+00  .257E+00
  .326E+00  .469E+00  .321E+00  .235E+00  .507E+00  .507E+00  .520E+00  .511E+00
  .584E+00  .890E+00  .516E+00  .577E+00  .797E+00  .876E+00  .802E+00  .113E+01
  .143E+01  .127E+01  .178E+01  .108E+01  .132E+01  .895E+00  .113E+01  .957E+00
  .170E+01  .109E+01  .126E+01  .118E+01  .999E+00  .891E+00  .810E+00  .774E+00
  .905E+00  .600E+00  .572E+00  .538E+00  .000E+00  .000E+00  .000E+00  .000E+00
  .000E+00  .000E+00  .000E+00  .000E+00  .000E+00  .000E+00  .000E+00  .000E+00
  .000E+00  .000E+00  .000E+00  .000E+00  .000E+00  .000E+00  .000E+00  .000E+00
  .000E+00  .000E+00  .000E+00  .000E+00  .000E+00  .000E+00  .000E+00  .000E+00
  .000E+00  .000E+00  .000E+00  .000E+00
  .322E+00  .200E+00  .340E+00  .877E+00  .355E+00  .885E+00  .651E+00  .577E+00
  .832E+00  .957E+00  .578E+00  .132E+01  .199E+01  .111E+01  .251E+01  .189E+01
  .185E+01  .335E+01  .326E+01  .159E+01  .255E+01  .210E+01  .359E+01  .385E+01
  .280E+01  .450E+01  .249E+01  .128E+01  .377E+01  .410E+01  .520E+01  .484E+01
  .595E+01  .813E+01  .536E+01  .344E+01  .738E+01  .724E+01  .698E+01  .659E+01
  .720E+01  .103E+02  .555E+01  .558E+01  .717E+01  .734E+01  .634E+01  .844E+01
  .991E+01  .906E+01  .113E+02  .655E+01  .697E+01  .455E+01  .502E+01  .443E+01
  .671E+01  .422E+01  .441E+01  .404E+01  .386E+01  .302E+01  .251E+01  .252E+01
  .255E+01  .257E+01  .256E+01  .253E+01  .000E+00  .000E+00  .000E+00  .000E+00
  .000E+00  .000E+00  .000E+00  .000E+00  .000E+00  .000E+00  .000E+00  .000E+00
  .000E+00  .000E+00  .000E+00  .000E+00  .000E+00  .000E+00  .000E+00  .000E+00
  .000E+00  .000E+00  .000E+00  .000E+00  .000E+00  .000E+00  .000E+00  .000E+00
  .000E+00  .000E+00  .000E+00  .000E+00
  .142E+00  .103E+00  .156E+00  .322E+00  .133E+00  .308E+00  .206E+00  .164E+00
  .228E+00  .224E+00  .151E+00  .299E+00  .389E+00  .222E+00  .459E+00  .323E+00
  .290E+00  .460E+00  .413E+00  .199E+00  .283E+00  .230E+00  .345E+00  .359E+00
  .244E+00  .368E+00  .186E+00  .116E+00  .243E+00  .250E+00  .293E+00  .257E+00
  .288E+00  .370E+00  .227E+00  .150E+00  .294E+00  .268E+00  .251E+00  .227E+00
  .239E+00  .301E+00  .147E+00  .140E+00  .166E+00  .159E+00  .128E+00  .160E+00
  .181E+00  .144E+00  .183E+00  .915E-01  .940E-01  .541E-01  .588E-01  .435E-01
  .679E-01  .386E-01  .398E-01  .334E-01  .255E-01  .188E-01  .144E-01  .117E-01
  .118E-01  .682E-02  .571E-02  .476E-02  .000E+00  .000E+00  .000E+00  .000E+00
  .000E+00  .000E+00  .000E+00  .000E+00  .000E+00  .000E+00  .000E+00  .000E+00
  .000E+00  .000E+00  .000E+00  .000E+00  .000E+00  .000E+00  .000E+00  .000E+00
  .000E+00  .000E+00  .000E+00  .000E+00  .000E+00  .000E+00  .000E+00  .000E+00
  .000E+00  .000E+00  .000E+00  .000E+00
  .350E+00  .266E+00  .421E+00  .909E+00  .393E+00  .947E+00  .696E+00  .603E+00
  .911E+00  .962E+00  .695E+00  .147E+01  .203E+01  .123E+01  .268E+01  .199E+01
  .196E+01  .339E+01  .330E+01  .171E+01  .261E+01  .226E+01  .360E+01  .397E+01
  .285E+01  .452E+01  .252E+01  .171E+01  .388E+01  .429E+01  .540E+01  .505E+01
  .602E+01  .818E+01  .531E+01  .369E+01  .758E+01  .724E+01  .710E+01  .669E+01
  .734E+01  .102E+02  .540E+01  .558E+01  .716E+01  .734E+01  .630E+01  .837E+01
  .999E+01  .843E+01  .112E+02  .619E+01  .693E+01  .432E+01  .506E+01  .401E+01
  .668E+01  .403E+01  .440E+01  .389E+01  .314E+01  .254E+01  .212E+01  .187E+01
  .203E+01  .126E+01  .112E+01  .995E+00  .000E+00  .000E+00  .000E+00  .000E+00
  .000E+00  .000E+00  .000E+00  .000E+00  .000E+00  .000E+00  .000E+00  .000E+00
  .000E+00  .000E+00  .000E+00  .000E+00  .000E+00  .000E+00  .000E+00  .000E+00
  .000E+00  .000E+00  .000E+00  .000E+00  .000E+00  .000E+00  .000E+00  .000E+00
  .000E+00  .000E+00  .000E+00  .000E+00
  .363E+02  .282E+02  .278E+02  .320E+02  .292E+02  .326E+02  .289E+02  .294E+02
  .290E+02  .380E+02  .276E+02  .279E+02  .293E+02  .301E+02  .294E+02  .308E+02
  .342E+02  .366E+02  .559E+02  .365E+02  .327E+02  .295E+02  .529E+02  .299E+02
  .396E+02  .519E+02  .297E+02  .290E+02  .327E+02  .308E+02  .325E+02  .336E+02
  .436E+02  .414E+02  .330E+02  .293E+02  .363E+02  .731E+02  .418E+02  .418E+02
  .301E+02  .338E+02  .315E+02  .345E+02  .383E+02  .597E+02  .392E+02  .351E+02
  .431E+02  .311E+02  .378E+02  .733E+02  .559E+02  .441E+02  .629E+02  .323E+02
  .710E+02  .337E+02  .736E+02  .419E+02  .705E+02  .300E+02  .300E+02  .409E+02
  .697E+02  .281E+02  .281E+02  .281E+02  .000E+00  .000E+00  .000E+00  .000E+00
  .000E+00  .000E+00  .000E+00  .000E+00  .000E+00  .000E+00  .000E+00  .000E+00
  .000E+00  .000E+00  .000E+00  .000E+00  .000E+00  .000E+00  .000E+00  .000E+00
  .000E+00  .000E+00  .000E+00  .000E+00  .000E+00  .000E+00  .000E+00  .000E+00
  .000E+00  .000E+00  .000E+00  .000E+00
  .358E+02  .258E+02  .290E+02  .399E+02  .317E+02  .692E+02  .271E+02  .294E+02
  .359E+02  .380E+02  .276E+02  .279E+02  .293E+02  .301E+02  .293E+02  .309E+02
  .340E+02  .360E+02  .559E+02  .365E+02  .327E+02  .294E+02  .528E+02  .299E+02
  .396E+02  .522E+02  .296E+02  .290E+02  .327E+02  .303E+02  .325E+02  .580E+02
  .439E+02  .415E+02  .330E+02  .294E+02  .350E+02  .739E+02  .419E+02  .420E+02
  .302E+02  .337E+02  .316E+02  .337E+02  .381E+02  .595E+02  .390E+02  .349E+02
  .429E+02  .309E+02  .376E+02  .334E+02  .562E+02  .438E+02  .640E+02  .342E+02
  .706E+02  .307E+02  .714E+02  .302E+02  .302E+02  .303E+02  .283E+02  .278E+02
  .278E+02  .278E+02  .278E+02  .278E+02  .000E+00  .000E+00  .000E+00  .000E+00
  .000E+00  .000E+00  .000E+00  .000E+00  .000E+00  .000E+00  .000E+00  .000E+00
  .000E+00  .000E+00  .000E+00  .000E+00  .000E+00  .000E+00  .000E+00  .000E+00
  .000E+00  .000E+00  .000E+00  .000E+00  .000E+00  .000E+00  .000E+00  .000E+00
  .000E+00  .000E+00  .000E+00  .000E+00
  .363E+02  .282E+02  .278E+02  .320E+02  .292E+02  .326E+02  .289E+02  .294E+02
  .290E+02  .380E+02  .276E+02  .279E+02  .293E+02  .301E+02  .294E+02  .308E+02
  .342E+02  .366E+02  .559E+02  .365E+02  .327E+02  .295E+02  .529E+02  .299E+02
  .396E+02  .519E+02  .297E+02  .290E+02  .327E+02  .308E+02  .325E+02  .336E+02
  .436E+02  .414E+02  .330E+02  .293E+02  .363E+02  .731E+02  .418E+02  .418E+02
  .301E+02  .338E+02  .315E+02  .345E+02  .383E+02  .597E+02  .392E+02  .351E+02
  .431E+02  .311E+02  .378E+02  .733E+02  .559E+02  .441E+02  .629E+02  .323E+02
  .710E+02  .337E+02  .736E+02  .419E+02  .705E+02  .300E+02  .300E+02  .409E+02
  .697E+02  .281E+02  .281E+02  .281E+02  .000E+00  .000E+00  .000E+00  .000E+00
  .000E+00  .000E+00  .000E+00  .000E+00  .000E+00  .000E+00  .000E+00  .000E+00
  .000E+00  .000E+00  .000E+00  .000E+00  .000E+00  .000E+00  .000E+00  .000E+00
  .000E+00  .000E+00  .000E+00  .000E+00  .000E+00  .000E+00  .000E+00  .000E+00
  .000E+00  .000E+00  .000E+00  .000E+00
Damping =  .02. Data of Sd,Sv,Sa,Pssv,ttSd,ttSv,ttSa :
  .916E-03  .932E-03  .127E-02  .153E-02  .152E-02  .173E-02  .256E-02  .295E-02
  .543E-02  .656E-02  .506E-02  .808E-02  .133E-01  .130E-01  .199E-01  .181E-01
  .144E-01  .250E-01  .245E-01  .249E-01  .420E-01  .404E-01  .413E-01  .636E-01
  .605E-01  .710E-01  .657E-01  .573E-01  .829E-01  .124E+00  .131E+00  .149E+00
  .182E+00  .225E+00  .205E+00  .198E+00  .234E+00  .269E+00  .292E+00  .351E+00
  .439E+00  .481E+00  .419E+00  .418E+00  .500E+00  .528E+00  .664E+00  .753E+00
  .904E+00  .100E+01  .997E+00  .801E+00  .843E+00  .781E+00  .698E+00  .746E+00
  .796E+00  .885E+00  .929E+00  .880E+00  .761E+00  .805E+00  .740E+00  .611E+00
  .602E+00  .584E+00  .559E+00  .530E+00  .000E+00  .000E+00  .000E+00  .000E+00
  .000E+00  .000E+00  .000E+00  .000E+00  .000E+00  .000E+00  .000E+00  .000E+00
  .000E+00  .000E+00  .000E+00  .000E+00  .000E+00  .000E+00  .000E+00  .000E+00
  .000E+00  .000E+00  .000E+00  .000E+00  .000E+00  .000E+00  .000E+00  .000E+00
  .000E+00  .000E+00  .000E+00  .000E+00
  .776E-01  .124E+00  .123E+00  .193E+00  .159E+00  .198E+00  .258E+00  .228E+00
  .395E+00  .482E+00  .346E+00  .499E+00  .769E+00  .775E+00  .116E+01  .106E+01
  .774E+00  .127E+01  .116E+01  .105E+01  .142E+01  .142E+01  .144E+01  .216E+01
  .193E+01  .207E+01  .184E+01  .111E+01  .185E+01  .267E+01  .282E+01  .273E+01
  .319E+01  .386E+01  .344E+01  .281E+01  .344E+01  .396E+01  .378E+01  .437E+01
  .534E+01  .555E+01  .451E+01  .433E+01  .447E+01  .474E+01  .521E+01  .546E+01
  .624E+01  .711E+01  .631E+01  .559E+01  .448E+01  .415E+01  .404E+01  .384E+01
  .390E+01  .367E+01  .345E+01  .365E+01  .349E+01  .284E+01  .248E+01  .246E+01
  .250E+01  .252E+01  .251E+01  .249E+01  .000E+00  .000E+00  .000E+00  .000E+00
  .000E+00  .000E+00  .000E+00  .000E+00  .000E+00  .000E+00  .000E+00  .000E+00
  .000E+00  .000E+00  .000E+00  .000E+00  .000E+00  .000E+00  .000E+00  .000E+00
  .000E+00  .000E+00  .000E+00  .000E+00  .000E+00  .000E+00  .000E+00  .000E+00
  .000E+00  .000E+00  .000E+00  .000E+00
  .587E-01  .540E-01  .667E-01  .739E-01  .676E-01  .707E-01  .871E-01  .840E-01
  .132E+00  .137E+00  .926E-01  .129E+00  .188E+00  .165E+00  .226E+00  .185E+00
  .122E+00  .178E+00  .149E+00  .130E+00  .191E+00  .161E+00  .146E+00  .201E+00
  .172E+00  .182E+00  .139E+00  .102E+00  .126E+00  .162E+00  .149E+00  .149E+00
  .162E+00  .178E+00  .145E+00  .127E+00  .136E+00  .142E+00  .141E+00  .156E+00
  .180E+00  .163E+00  .119E+00  .101E+00  .105E+00  .960E-01  .106E+00  .107E+00
  .114E+00  .113E+00  .102E+00  .677E-01  .600E-01  .473E-01  .365E-01  .339E-01
  .318E-01  .314E-01  .294E-01  .250E-01  .195E-01  .170E-01  .132E-01  .926E-02
  .788E-02  .666E-02  .560E-02  .470E-02  .000E+00  .000E+00  .000E+00  .000E+00
  .000E+00  .000E+00  .000E+00  .000E+00  .000E+00  .000E+00  .000E+00  .000E+00
  .000E+00  .000E+00  .000E+00  .000E+00  .000E+00  .000E+00  .000E+00  .000E+00
  .000E+00  .000E+00  .000E+00  .000E+00  .000E+00  .000E+00  .000E+00  .000E+00
  .000E+00  .000E+00  .000E+00  .000E+00
  .144E+00  .139E+00  .181E+00  .209E+00  .199E+00  .217E+00  .293E+00  .309E+00
  .525E+00  .589E+00  .424E+00  .635E+00  .983E+00  .907E+00  .132E+01  .114E+01
  .821E+00  .131E+01  .119E+01  .112E+01  .176E+01  .159E+01  .153E+01  .222E+01
  .200E+01  .223E+01  .188E+01  .150E+01  .200E+01  .277E+01  .273E+01  .292E+01
  .337E+01  .393E+01  .338E+01  .311E+01  .351E+01  .385E+01  .399E+01  .460E+01
  .552E+01  .549E+01  .439E+01  .404E+01  .449E+01  .442E+01  .522E+01  .556E+01
  .631E+01  .662E+01  .627E+01  .457E+01  .441E+01  .377E+01  .313E+01  .312E+01
  .313E+01  .327E+01  .324E+01  .291E+01  .239E+01  .230E+01  .194E+01  .148E+01
  .135E+01  .122E+01  .110E+01  .979E+00  .000E+00  .000E+00  .000E+00  .000E+00
  .000E+00  .000E+00  .000E+00  .000E+00  .000E+00  .000E+00  .000E+00  .000E+00
  .000E+00  .000E+00  .000E+00  .000E+00  .000E+00  .000E+00  .000E+00  .000E+00
  .000E+00  .000E+00  .000E+00  .000E+00  .000E+00  .000E+00  .000E+00  .000E+00
  .000E+00  .000E+00  .000E+00  .000E+00
  .279E+02  .292E+02  .279E+02  .280E+02  .280E+02  .252E+02  .278E+02  .278E+02
  .282E+02  .282E+02  .284E+02  .279E+02  .292E+02  .292E+02  .294E+02  .305E+02
  .297E+02  .285E+02  .288E+02  .295E+02  .292E+02  .292E+02  .295E+02  .299E+02
  .299E+02  .295E+02  .296E+02  .290E+02  .297E+02  .299E+02  .293E+02  .336E+02
  .342E+02  .344E+02  .328E+02  .293E+02  .345E+02  .322E+02  .300E+02  .301E+02
  .301E+02  .316E+02  .315E+02  .312E+02  .310E+02  .294E+02  .295E+02  .295E+02
  .310E+02  .307E+02  .308E+02  .289E+02  .290E+02  .290E+02  .285E+02  .316E+02
  .318E+02  .304E+02  .304E+02  .305E+02  .306E+02  .299E+02  .300E+02  .280E+02
  .280E+02  .281E+02  .281E+02  .281E+02  .000E+00  .000E+00  .000E+00  .000E+00
  .000E+00  .000E+00  .000E+00  .000E+00  .000E+00  .000E+00  .000E+00  .000E+00
  .000E+00  .000E+00  .000E+00  .000E+00  .000E+00  .000E+00  .000E+00  .000E+00
  .000E+00  .000E+00  .000E+00  .000E+00  .000E+00  .000E+00  .000E+00  .000E+00
  .000E+00  .000E+00  .000E+00  .000E+00
  .258E+02  .258E+02  .269E+02  .258E+02  .265E+02  .252E+02  .271E+02  .268E+02
  .282E+02  .282E+02  .284E+02  .279E+02  .291E+02  .293E+02  .294E+02  .305E+02
  .282E+02  .285E+02  .289E+02  .294E+02  .291E+02  .294E+02  .294E+02  .295E+02
  .298E+02  .296E+02  .296E+02  .289E+02  .296E+02  .298E+02  .293E+02  .335E+02
  .341E+02  .343E+02  .328E+02  .294E+02  .326E+02  .321E+02  .317E+02  .299E+02
  .300E+02  .318E+02  .316E+02  .311E+02  .308E+02  .296E+02  .297E+02  .294E+02
  .308E+02  .309E+02  .305E+02  .291E+02  .291E+02  .287E+02  .288E+02  .288E+02
  .306E+02  .307E+02  .301E+02  .301E+02  .302E+02  .303E+02  .283E+02  .278E+02
  .278E+02  .278E+02  .278E+02  .278E+02  .000E+00  .000E+00  .000E+00  .000E+00
  .000E+00  .000E+00  .000E+00  .000E+00  .000E+00  .000E+00  .000E+00  .000E+00
  .000E+00  .000E+00  .000E+00  .000E+00  .000E+00  .000E+00  .000E+00  .000E+00
  .000E+00  .000E+00  .000E+00  .000E+00  .000E+00  .000E+00  .000E+00  .000E+00
  .000E+00  .000E+00  .000E+00  .000E+00
  .279E+02  .292E+02  .279E+02  .280E+02  .280E+02  .252E+02  .278E+02  .278E+02
  .282E+02  .282E+02  .284E+02  .279E+02  .292E+02  .292E+02  .294E+02  .305E+02
  .297E+02  .285E+02  .289E+02  .295E+02  .292E+02  .292E+02  .295E+02  .295E+02
  .299E+02  .295E+02  .296E+02  .290E+02  .297E+02  .299E+02  .293E+02  .336E+02
