Response and Fourier amplitude spectra (68 periods,  .04 -  3.4 sec)   for      
Corrected accelerogram   14059-L1878-08212.59       Chan  1: 360 Deg     from   
Uncorrected Accelerogram Data             Processed: 08/06/08, CDMG  ce14059    
Record of Tue Jul 29, 2008 11:42:05.0 PDT             (Avol1 v7.9 7/08 CSMIP)   
CSMIP Preliminary Processing            (Origin:  To be determined)             
14059-L1878-08212.59                 Start time:  7/29/08, 18:42:05.0 UTC (GPS) 
Station No. 14059   33.876N, 118.240W      Etna  s/n 1878  (3 Channels)         
Compton - Hwy 91 & Wilmington             CGS                                   
Chan  1: 360 Deg                                                                
Record of Tue Jul 29, 2008 11:42:05.0 PDT    Tue Jul 29, 2008 11:42:05.0 PDT    
Hypocenter:  To be determined.               ML:  To be determined.             
Instr Period =  .0102 sec,  Damping =  .680,  Sensitivity =  .63  v/g           
                        Record length = 79.000 sec.                             
                                     Uncor Max  =   .047 g , at  26.585 sec.    
RMS accel of (uncor) record  =        .   Chn. metadata effective date: 03/18/03
Accelerogram bandpass filtered with 3 dB pts at   .30 and 40.00 cyc/sec         
                 instrument- and baseline-corrected                             
                                                                                
                                                                                
                                                                                
                                                                                
                                                                                
Record of Tue Jul 29, 2008 11:42:05.0 PDT    Tue Jul 29, 2008 11:42:05.0 PDT    
                                                                                
14059-L1878-08212.59      Compton - Hwy 91 & Wilmington   Chan  1: 360 Deg      
                                                                                
14059-L1878-08212.59      Compton - Hwy 91 & Wilmington   Chan  1: 360 Deg      
                                                                                
Units for spectra are inches and sec, except Sa is in fraction of g.            
                                                                                
    1  100    1    4    3  200    1    3    1   24   12 1878    014059    1    0
   18   42    5    0  211    7   29 2008   10    3  36015800   41   29   76  360
15800    1   50    3 1878    1   59  790    2    0    0    0    0    0    0    0
    0    4    0    015800    1  202    0   18    4   76   29    1    1    015800
    315800   30   68    5    3    5    0    0    0    3    0    0    3    0    2
    2    2    4    0   32   99    0   32   32    0    0    1    0    0    0  222
    1    0    2    0
      .010      .680    79.000      .004      .000   626.000      .047    26.585
    98.200      .298      .477      .000     5.000      .000     3.994      .000
     2.500   -14.017     2.500  -999.000    25.000    30.000      .000      .000
      .001      .001     2.000    15.000    33.876  -118.240      .037     1.164
    31.834      .000      .000    32.000    25.800    48.300    13.500    79.160
     1.000     1.253      .000      .000      .000      .000      .000      .000
     4.200     7.900     4.600   980.665      .005    79.000    15.629      .000
      .000    40.000      .000    79.000      .005      .303      .000      .000
    26.580    46.316    26.540    -3.603    26.350      .290      .000      .303
    40.000      .005      .005      .000      .005      .150      .000      .000
      .174      .200      .167      .069      .025      .002      .000      .000
      .000      .000      .000      .000      .000      .000      .000      .000
      .000      .000      .000      .000
      .000      .020      .050      .100      .200
      .040      .042      .044      .046      .048      .050      .055      .060
      .065      .070      .075      .080      .085      .090      .095      .100
      .110      .120      .130      .140      .150      .160      .170      .180
      .190      .200      .220      .240      .260      .280      .300      .320
      .340      .360      .380      .400      .420      .440      .460      .480
      .500      .550      .600      .650      .700      .750      .800      .850
      .900      .950     1.000     1.100     1.200     1.300     1.400     1.500
     1.600     1.700     1.800     1.900     2.000     2.200     2.400     2.600
     2.800     3.000     3.200     3.400      .000      .000      .000      .000
      .000      .000      .000      .000      .000      .000      .000      .000
      .000      .000      .000      .000      .000      .000      .000      .000
      .000      .000      .000      .000      .000      .000      .000      .000
      .000      .000      .000      .000
Fourier amplitude spectra in in/sec.
  .111E+00  .175E+00  .967E-01  .270E+00  .374E-01  .160E-01  .102E+00  .645E-01
  .418E+00  .759E+00  .486E+00  .284E+00  .440E+00  .302E+00  .555E-01  .156E+01
  .910E+00  .953E+00  .687E+00  .128E+01  .209E+01  .129E+01  .198E+01  .115E+01
  .344E+01  .170E+01  .552E+01  .610E+01  .695E+00  .343E+01  .204E+01  .727E+00
  .146E+01  .135E+01  .217E+01  .210E+01  .208E+01  .209E+01  .305E+01  .562E+01
  .689E+01  .415E+01  .480E+01  .458E+01  .645E+01  .474E+01  .530E+01  .107E+01
  .309E+01  .270E+00  .490E+01  .204E+01  .463E+01  .403E+01  .351E+01  .509E+00
  .259E+01  .273E+01  .335E+01  .105E+01  .733E+00  .223E+01  .126E+01  .101E+01
  .112E+01  .633E+00  .418E+00  .285E+00  .000E+00  .000E+00  .000E+00  .000E+00
  .000E+00  .000E+00  .000E+00  .000E+00  .000E+00  .000E+00  .000E+00  .000E+00
  .000E+00  .000E+00  .000E+00  .000E+00  .000E+00  .000E+00  .000E+00  .000E+00
  .000E+00  .000E+00  .000E+00  .000E+00  .000E+00  .000E+00  .000E+00  .000E+00
  .000E+00  .000E+00  .000E+00  .000E+00
Damping =  .00. Data of Sd,Sv,Sa,Pssv,ttSd,ttSv,ttSa :
  .109E-02  .133E-02  .132E-02  .240E-02  .156E-02  .147E-02  .168E-02  .287E-02
  .508E-02  .864E-02  .679E-02  .902E-02  .884E-02  .130E-01  .107E-01  .289E-01
  .297E-01  .318E-01  .305E-01  .523E-01  .707E-01  .358E-01  .650E-01  .620E-01
  .150E+00  .126E+00  .230E+00  .246E+00  .887E-01  .171E+00  .120E+00  .140E+00
  .993E-01  .234E+00  .156E+00  .172E+00  .194E+00  .199E+00  .327E+00  .445E+00
  .578E+00  .409E+00  .507E+00  .474E+00  .810E+00  .592E+00  .809E+00  .532E+00
  .614E+00  .412E+00  .106E+01  .629E+00  .901E+00  .835E+00  .104E+01  .525E+00
  .671E+00  .801E+00  .107E+01  .557E+00  .349E+00  .895E+00  .620E+00  .555E+00
  .505E+00  .304E+00  .319E+00  .269E+00  .000E+00  .000E+00  .000E+00  .000E+00
  .000E+00  .000E+00  .000E+00  .000E+00  .000E+00  .000E+00  .000E+00  .000E+00
  .000E+00  .000E+00  .000E+00  .000E+00  .000E+00  .000E+00  .000E+00  .000E+00
  .000E+00  .000E+00  .000E+00  .000E+00  .000E+00  .000E+00  .000E+00  .000E+00
  .000E+00  .000E+00  .000E+00  .000E+00
  .114E+00  .178E+00  .168E+00  .298E+00  .132E+00  .131E+00  .141E+00  .233E+00
  .453E+00  .764E+00  .519E+00  .658E+00  .631E+00  .882E+00  .673E+00  .178E+01
  .164E+01  .159E+01  .143E+01  .219E+01  .295E+01  .132E+01  .237E+01  .200E+01
  .490E+01  .394E+01  .652E+01  .640E+01  .227E+01  .374E+01  .249E+01  .276E+01
  .178E+01  .404E+01  .259E+01  .269E+01  .290E+01  .292E+01  .434E+01  .578E+01
  .724E+01  .464E+01  .529E+01  .458E+01  .722E+01  .495E+01  .634E+01  .405E+01
  .416E+01  .290E+01  .665E+01  .360E+01  .470E+01  .404E+01  .470E+01  .229E+01
  .271E+01  .299E+01  .382E+01  .210E+01  .170E+01  .262E+01  .176E+01  .160E+01
  .158E+01  .156E+01  .154E+01  .152E+01  .000E+00  .000E+00  .000E+00  .000E+00
  .000E+00  .000E+00  .000E+00  .000E+00  .000E+00  .000E+00  .000E+00  .000E+00
  .000E+00  .000E+00  .000E+00  .000E+00  .000E+00  .000E+00  .000E+00  .000E+00
  .000E+00  .000E+00  .000E+00  .000E+00  .000E+00  .000E+00  .000E+00  .000E+00
  .000E+00  .000E+00  .000E+00  .000E+00
  .696E-01  .769E-01  .695E-01  .116E+00  .693E-01  .601E-01  .569E-01  .816E-01
  .123E+00  .180E+00  .123E+00  .144E+00  .125E+00  .164E+00  .121E+00  .296E+00
  .251E+00  .226E+00  .184E+00  .273E+00  .321E+00  .143E+00  .230E+00  .196E+00
  .426E+00  .323E+00  .486E+00  .437E+00  .134E+00  .223E+00  .137E+00  .140E+00
  .878E-01  .185E+00  .110E+00  .110E+00  .112E+00  .105E+00  .158E+00  .198E+00
  .236E+00  .138E+00  .144E+00  .115E+00  .169E+00  .108E+00  .129E+00  .754E-01
  .776E-01  .467E-01  .108E+00  .532E-01  .640E-01  .505E-01  .545E-01  .239E-01
  .268E-01  .284E-01  .338E-01  .158E-01  .892E-02  .189E-01  .110E-01  .840E-02
  .658E-02  .346E-02  .318E-02  .238E-02  .000E+00  .000E+00  .000E+00  .000E+00
  .000E+00  .000E+00  .000E+00  .000E+00  .000E+00  .000E+00  .000E+00  .000E+00
  .000E+00  .000E+00  .000E+00  .000E+00  .000E+00  .000E+00  .000E+00  .000E+00
  .000E+00  .000E+00  .000E+00  .000E+00  .000E+00  .000E+00  .000E+00  .000E+00
  .000E+00  .000E+00  .000E+00  .000E+00
  .171E+00  .198E+00  .188E+00  .328E+00  .204E+00  .185E+00  .192E+00  .301E+00
  .491E+00  .776E+00  .569E+00  .708E+00  .654E+00  .907E+00  .705E+00  .182E+01
  .170E+01  .166E+01  .147E+01  .235E+01  .296E+01  .140E+01  .240E+01  .217E+01
  .497E+01  .396E+01  .657E+01  .644E+01  .214E+01  .383E+01  .252E+01  .275E+01
  .183E+01  .409E+01  .258E+01  .271E+01  .290E+01  .284E+01  .447E+01  .583E+01
  .726E+01  .467E+01  .531E+01  .458E+01  .727E+01  .496E+01  .635E+01  .394E+01
  .429E+01  .273E+01  .664E+01  .360E+01  .472E+01  .403E+01  .469E+01  .220E+01
  .264E+01  .296E+01  .373E+01  .184E+01  .110E+01  .256E+01  .162E+01  .134E+01
  .113E+01  .637E+00  .626E+00  .498E+00  .000E+00  .000E+00  .000E+00  .000E+00
  .000E+00  .000E+00  .000E+00  .000E+00  .000E+00  .000E+00  .000E+00  .000E+00
  .000E+00  .000E+00  .000E+00  .000E+00  .000E+00  .000E+00  .000E+00  .000E+00
  .000E+00  .000E+00  .000E+00  .000E+00  .000E+00  .000E+00  .000E+00  .000E+00
  .000E+00  .000E+00  .000E+00  .000E+00
  .266E+02  .479E+02  .316E+02  .369E+02  .266E+02  .269E+02  .269E+02  .266E+02
  .334E+02  .479E+02  .308E+02  .293E+02  .338E+02  .322E+02  .299E+02  .316E+02
  .282E+02  .274E+02  .281E+02  .278E+02  .293E+02  .266E+02  .298E+02  .269E+02
  .298E+02  .271E+02  .299E+02  .355E+02  .273E+02  .451E+02  .434E+02  .363E+02
  .333E+02  .325E+02  .436E+02  .454E+02  .333E+02  .290E+02  .336E+02  .723E+02
  .702E+02  .548E+02  .711E+02  .779E+02  .353E+02  .746E+02  .696E+02  .392E+02
  .558E+02  .480E+02  .581E+02  .381E+02  .759E+02  .774E+02  .706E+02  .440E+02
  .477E+02  .746E+02  .644E+02  .515E+02  .717E+02  .719E+02  .675E+02  .469E+02
  .673E+02  .766E+02  .732E+02  .731E+02  .000E+00  .000E+00  .000E+00  .000E+00
  .000E+00  .000E+00  .000E+00  .000E+00  .000E+00  .000E+00  .000E+00  .000E+00
  .000E+00  .000E+00  .000E+00  .000E+00  .000E+00  .000E+00  .000E+00  .000E+00
  .000E+00  .000E+00  .000E+00  .000E+00  .000E+00  .000E+00  .000E+00  .000E+00
  .000E+00  .000E+00  .000E+00  .000E+00
  .386E+02  .379E+02  .313E+02  .369E+02  .300E+02  .312E+02  .322E+02  .304E+02
  .333E+02  .723E+02  .466E+02  .293E+02  .338E+02  .322E+02  .299E+02  .316E+02
  .282E+02  .275E+02  .281E+02  .278E+02  .292E+02  .695E+02  .297E+02  .269E+02
  .297E+02  .272E+02  .300E+02  .353E+02  .273E+02  .452E+02  .433E+02  .319E+02
  .333E+02  .324E+02  .437E+02  .455E+02  .357E+02  .293E+02  .335E+02  .722E+02
  .701E+02  .549E+02  .712E+02  .781E+02  .355E+02  .748E+02  .698E+02  .390E+02
  .556E+02  .477E+02  .578E+02  .379E+02  .762E+02  .771E+02  .703E+02  .437E+02
  .473E+02  .742E+02  .567E+02  .511E+02  .265E+02  .714E+02  .670E+02  .265E+02
  .265E+02  .265E+02  .265E+02  .265E+02  .000E+00  .000E+00  .000E+00  .000E+00
  .000E+00  .000E+00  .000E+00  .000E+00  .000E+00  .000E+00  .000E+00  .000E+00
  .000E+00  .000E+00  .000E+00  .000E+00  .000E+00  .000E+00  .000E+00  .000E+00
  .000E+00  .000E+00  .000E+00  .000E+00  .000E+00  .000E+00  .000E+00  .000E+00
  .000E+00  .000E+00  .000E+00  .000E+00
  .266E+02  .479E+02  .316E+02  .369E+02  .266E+02  .269E+02  .269E+02  .266E+02
  .334E+02  .479E+02  .308E+02  .293E+02  .338E+02  .322E+02  .299E+02  .316E+02
  .282E+02  .274E+02  .281E+02  .278E+02  .293E+02  .266E+02  .298E+02  .269E+02
  .298E+02  .271E+02  .299E+02  .355E+02  .273E+02  .451E+02  .434E+02  .363E+02
  .333E+02  .325E+02  .436E+02  .454E+02  .333E+02  .290E+02  .336E+02  .723E+02
  .702E+02  .548E+02  .711E+02  .779E+02  .353E+02  .746E+02  .696E+02  .392E+02
  .558E+02  .480E+02  .581E+02  .381E+02  .759E+02  .774E+02  .706E+02  .440E+02
  .477E+02  .746E+02  .644E+02  .515E+02  .717E+02  .719E+02  .675E+02  .469E+02
  .673E+02  .766E+02  .732E+02  .731E+02  .000E+00  .000E+00  .000E+00  .000E+00
  .000E+00  .000E+00  .000E+00  .000E+00  .000E+00  .000E+00  .000E+00  .000E+00
  .000E+00  .000E+00  .000E+00  .000E+00  .000E+00  .000E+00  .000E+00  .000E+00
  .000E+00  .000E+00  .000E+00  .000E+00  .000E+00  .000E+00  .000E+00  .000E+00
  .000E+00  .000E+00  .000E+00  .000E+00
Damping =  .02. Data of Sd,Sv,Sa,Pssv,ttSd,ttSv,ttSa :
  .807E-03  .906E-03  .994E-03  .110E-02  .124E-02  .130E-02  .166E-02  .228E-02
  .279E-02  .387E-02  .488E-02  .501E-02  .573E-02  .684E-02  .902E-02  .128E-01
  .215E-01  .246E-01  .275E-01  .419E-01  .450E-01  .329E-01  .370E-01  .529E-01
  .717E-01  .919E-01  .106E+00  .101E+00  .728E-01  .560E-01  .577E-01  .789E-01
  .902E-01  .104E+00  .105E+00  .112E+00  .129E+00  .148E+00  .190E+00  .235E+00
  .240E+00  .248E+00  .250E+00  .294E+00  .374E+00  .345E+00  .294E+00  .275E+00
  .276E+00  .280E+00  .338E+00  .367E+00  .417E+00  .397E+00  .401E+00  .382E+00
  .405E+00  .429E+00  .522E+00  .398E+00  .273E+00  .481E+00  .370E+00  .364E+00
  .322E+00  .216E+00  .207E+00  .182E+00  .000E+00  .000E+00  .000E+00  .000E+00
  .000E+00  .000E+00  .000E+00  .000E+00  .000E+00  .000E+00  .000E+00  .000E+00
  .000E+00  .000E+00  .000E+00  .000E+00  .000E+00  .000E+00  .000E+00  .000E+00
  .000E+00  .000E+00  .000E+00  .000E+00  .000E+00  .000E+00  .000E+00  .000E+00
  .000E+00  .000E+00  .000E+00  .000E+00
  .322E-01  .358E-01  .430E-01  .551E-01  .632E-01  .723E-01  .893E-01  .125E+00
  .168E+00  .262E+00  .325E+00  .322E+00  .309E+00  .410E+00  .528E+00  .720E+00
  .109E+01  .121E+01  .120E+01  .175E+01  .177E+01  .122E+01  .117E+01  .166E+01
  .226E+01  .279E+01  .312E+01  .264E+01  .194E+01  .135E+01  .110E+01  .163E+01
  .146E+01  .177E+01  .165E+01  .182E+01  .219E+01  .242E+01  .275E+01  .293E+01
  .298E+01  .317E+01  .316E+01  .308E+01  .345E+01  .301E+01  .247E+01  .223E+01
  .221E+01  .231E+01  .237E+01  .232E+01  .227E+01  .207E+01  .183E+01  .178E+01
  .175E+01  .179E+01  .177E+01  .173E+01  .169E+01  .163E+01  .160E+01  .159E+01
  .157E+01  .155E+01  .154E+01  .152E+01  .000E+00  .000E+00  .000E+00  .000E+00
  .000E+00  .000E+00  .000E+00  .000E+00  .000E+00  .000E+00  .000E+00  .000E+00
  .000E+00  .000E+00  .000E+00  .000E+00  .000E+00  .000E+00  .000E+00  .000E+00
  .000E+00  .000E+00  .000E+00  .000E+00  .000E+00  .000E+00  .000E+00  .000E+00
  .000E+00  .000E+00  .000E+00  .000E+00
  .515E-01  .526E-01  .525E-01  .533E-01  .549E-01  .530E-01  .561E-01  .646E-01
  .677E-01  .805E-01  .889E-01  .800E-01  .813E-01  .864E-01  .102E+00  .132E+00
  .182E+00  .174E+00  .167E+00  .218E+00  .205E+00  .132E+00  .131E+00  .167E+00
  .203E+00  .236E+00  .224E+00  .179E+00  .110E+00  .731E-01  .656E-01  .788E-01
  .798E-01  .825E-01  .744E-01  .719E-01  .749E-01  .784E-01  .918E-01  .104E+00
  .984E-01  .840E-01  .711E-01  .712E-01  .781E-01  .628E-01  .471E-01  .390E-01
  .349E-01  .317E-01  .346E-01  .311E-01  .297E-01  .240E-01  .209E-01  .174E-01
  .162E-01  .152E-01  .165E-01  .113E-01  .700E-02  .102E-01  .657E-02  .551E-02
  .421E-02  .246E-02  .207E-02  .162E-02  .000E+00  .000E+00  .000E+00  .000E+00
  .000E+00  .000E+00  .000E+00  .000E+00  .000E+00  .000E+00  .000E+00  .000E+00
  .000E+00  .000E+00  .000E+00  .000E+00  .000E+00  .000E+00  .000E+00  .000E+00
  .000E+00  .000E+00  .000E+00  .000E+00  .000E+00  .000E+00  .000E+00  .000E+00
  .000E+00  .000E+00  .000E+00  .000E+00
  .127E+00  .136E+00  .142E+00  .150E+00  .162E+00  .163E+00  .189E+00  .238E+00
  .270E+00  .347E+00  .409E+00  .393E+00  .424E+00  .478E+00  .597E+00  .806E+00
  .123E+01  .129E+01  .133E+01  .188E+01  .188E+01  .129E+01  .137E+01  .185E+01
  .237E+01  .289E+01  .303E+01  .264E+01  .176E+01  .126E+01  .121E+01  .155E+01
  .167E+01  .182E+01  .173E+01  .177E+01  .193E+01  .212E+01  .259E+01  .307E+01
  .302E+01  .284E+01  .262E+01  .284E+01  .336E+01  .289E+01  .231E+01  .203E+01
  .193E+01  .185E+01  .213E+01  .210E+01  .218E+01  .192E+01  .180E+01  .160E+01
  .159E+01  .159E+01  .182E+01  .132E+01  .859E+00  .137E+01  .967E+00  .879E+00
  .723E+00  .453E+00  .407E+00  .336E+00  .000E+00  .000E+00  .000E+00  .000E+00
  .000E+00  .000E+00  .000E+00  .000E+00  .000E+00  .000E+00  .000E+00  .000E+00
  .000E+00  .000E+00  .000E+00  .000E+00  .000E+00  .000E+00  .000E+00  .000E+00
  .000E+00  .000E+00  .000E+00  .000E+00  .000E+00  .000E+00  .000E+00  .000E+00
  .000E+00  .000E+00  .000E+00  .000E+00
  .266E+02  .266E+02  .266E+02  .266E+02  .266E+02  .266E+02  .266E+02  .266E+02
  .266E+02  .269E+02  .276E+02  .277E+02  .269E+02  .269E+02  .272E+02  .273E+02
  .273E+02  .274E+02  .277E+02  .278E+02  .278E+02  .281E+02  .268E+02  .269E+02
  .269E+02  .271E+02  .278E+02  .279E+02  .272E+02  .267E+02  .267E+02  .308E+02
  .267E+02  .267E+02  .267E+02  .267E+02  .267E+02  .276E+02  .281E+02  .282E+02
  .282E+02  .271E+02  .271E+02  .269E+02  .346E+02  .291E+02  .391E+02  .278E+02
  .558E+02  .275E+02  .576E+02  .578E+02  .574E+02  .569E+02  .546E+02  .440E+02
  .435E+02  .542E+02  .483E+02  .514E+02  .496E+02  .565E+02  .373E+02  .469E+02
  .451E+02  .767E+02  .731E+02  .389E+02  .000E+00  .000E+00  .000E+00  .000E+00
  .000E+00  .000E+00  .000E+00  .000E+00  .000E+00  .000E+00  .000E+00  .000E+00
  .000E+00  .000E+00  .000E+00  .000E+00  .000E+00  .000E+00  .000E+00  .000E+00
  .000E+00  .000E+00  .000E+00  .000E+00  .000E+00  .000E+00  .000E+00  .000E+00
  .000E+00  .000E+00  .000E+00  .000E+00
  .273E+02  .298E+02  .280E+02  .279E+02  .271E+02  .271E+02  .271E+02  .271E+02
  .271E+02  .273E+02  .276E+02  .277E+02  .272E+02  .308E+02  .272E+02  .273E+02
  .273E+02  .274E+02  .278E+02  .278E+02  .278E+02  .281E+02  .267E+02  .270E+02
  .270E+02  .271E+02  .275E+02  .274E+02  .273E+02  .271E+02  .267E+02  .309E+02
  .267E+02  .315E+02  .272E+02  .271E+02  .271E+02  .271E+02  .283E+02  .281E+02
  .281E+02  .269E+02  .270E+02  .270E+02  .344E+02  .297E+02  .279E+02  .268E+02
  .268E+02  .268E+02  .268E+02  .268E+02  .576E+02  .572E+02  .550E+02  .265E+02
  .265E+02  .545E+02  .470E+02  .265E+02  .265E+02  .265E+02  .265E+02  .265E+02
  .265E+02  .265E+02  .265E+02  .265E+02  .000E+00  .000E+00  .000E+00  .000E+00
  .000E+00  .000E+00  .000E+00  .000E+00  .000E+00  .000E+00  .000E+00  .000E+00
  .000E+00  .000E+00  .000E+00  .000E+00  .000E+00  .000E+00  .000E+00  .000E+00
  .000E+00  .000E+00  .000E+00  .000E+00  .000E+00  .000E+00  .000E+00  .000E+00
  .000E+00  .000E+00  .000E+00  .000E+00
  .266E+02  .266E+02  .266E+02  .266E+02  .266E+02  .266E+02  .266E+02  .266E+02
  .266E+02  .269E+02  .276E+02  .277E+02  .269E+02  .269E+02  .272E+02  .273E+02
  .273E+02  .274E+02  .277E+02  .278E+02  .278E+02  .281E+02  .268E+02  .269E+02
  .269E+02  .271E+02  .278E+02  .279E+02  .272E+02  .267E+02  .267E+02  .308E+02
