Response and Fourier amplitude spectra (68 periods,  .04 -  3.4 sec)   for      
Corrected accelerogram   14936-L1776-08211.01       Chan  1: 360 Deg     from   
Uncorrected Accelerogram Data             Processed: 08/04/08, CDMG  ce14936m   
Record of Tue Jul 29, 2008 11:42:04.0 PDT             (Avol1 v7.9 7/08 CSMIP)   
CSMIP Preliminary Processing            (Origin:  To be determined)             
14936-L1776-08211.01                 Start time:  7/29/08, 18:42:04.0 UTC (GPS) 
Station No. 14936   33.834N, 118.161W      Etna  s/n 1776  (3 Channels)         
Lakewood - Carson & Paramount             CGS                                   
Chan  1: 360 Deg                                                                
Record of Tue Jul 29, 2008 11:42:04.0 PDT    Tue Jul 29, 2008 11:42:04.0 PDT    
Hypocenter:  To be determined.               ML:  To be determined.             
Instr Period =  .0108 sec,  Damping =  .660,  Sensitivity =  .63  v/g           
                        Record length = 82.000 sec.                             
                                     Uncor Max  =  -.102 g , at  26.345 sec.    
RMS accel of (uncor) record  =        .   Chn. metadata effective date: 03/06/03
Accelerogram bandpass filtered with 3 dB pts at   .30 and 40.00 cyc/sec         
                 instrument- and baseline-corrected                             
                                                                                
                                                                                
                                                                                
                                                                                
                                                                                
Record of Tue Jul 29, 2008 11:42:04.0 PDT    Tue Jul 29, 2008 11:42:04.0 PDT    
                                                                                
14936-L1776-08211.01      Lakewood - Carson & Paramount   Chan  1: 360 Deg      
                                                                                
14936-L1776-08211.01      Lakewood - Carson & Paramount   Chan  1: 360 Deg      
                                                                                
Units for spectra are inches and sec, except Sa is in fraction of g.            
                                                                                
    1  100    1    4    3  200    1    3    1   24   12 1776    014936    1    0
   18   42    4    0  211    7   29 2008   10    3  36016400   41   29   76  360
16400    1   50    3 1776    1    1  820    2    0    0    0    0    0    0    0
    0    4    0    0 8200    2  202    0   18    4   76   29    1    1    0 8200
    3 8200   30   68    5    3    5    0    0    0    3    0    0    3    0    2
    2    2    4    0   32   99 -999   32   32    0    0    1    0    0    0  222
    1    0    3    0
      .011      .660    82.000      .005      .000   626.000     -.102    26.345
    92.500      .298      .477      .000     5.000      .000     3.994      .000
     2.500      .877     2.500  -999.000    25.000    30.000      .000     -.006
     -.002      .004     2.000    15.000    33.834  -118.161      .020     1.211
    60.373      .000      .000    22.000    25.500    51.300    13.400    83.660
     1.000     1.783      .000      .000      .000      .000      .000      .000
     4.200     7.900     4.600   980.665      .010    82.000    14.722     -.001
      .000    40.000      .000    82.000      .010      .303      .000      .000
    26.340  -100.013    25.940    -3.966    33.180     -.318      .000      .303
    40.000      .010      .010      .000      .480      .179      .000      .000
      .305      .130      .164      .092      .033      .003      .000      .000
      .000      .000      .000      .000      .000      .000      .000      .000
      .000      .000      .000      .000
      .000      .020      .050      .100      .200
      .040      .042      .044      .046      .048      .050      .055      .060
      .065      .070      .075      .080      .085      .090      .095      .100
      .110      .120      .130      .140      .150      .160      .170      .180
      .190      .200      .220      .240      .260      .280      .300      .320
      .340      .360      .380      .400      .420      .440      .460      .480
      .500      .550      .600      .650      .700      .750      .800      .850
      .900      .950     1.000     1.100     1.200     1.300     1.400     1.500
     1.600     1.700     1.800     1.900     2.000     2.200     2.400     2.600
     2.800     3.000     3.200     3.400      .000      .000      .000      .000
      .000      .000      .000      .000      .000      .000      .000      .000
      .000      .000      .000      .000      .000      .000      .000      .000
      .000      .000      .000      .000      .000      .000      .000      .000
      .000      .000      .000      .000
Fourier amplitude spectra in in/sec.
  .450E-01  .996E-02  .225E+00  .192E+00  .128E+00  .438E+00  .174E+00  .430E+00
  .504E+00  .138E+01  .399E+00  .340E+00  .790E+00  .187E+01  .118E+01  .951E+00
  .359E+01  .185E+01  .370E+01  .479E+01  .636E+01  .149E+01  .151E+01  .358E+01
  .408E+01  .245E+01  .335E+01  .437E+01  .302E+01  .280E+01  .322E+01  .328E+01
  .170E+01  .178E+01  .674E+00  .255E+01  .242E+01  .229E+01  .448E+01  .502E+01
  .768E+01  .538E+01  .699E+01  .116E+02  .696E+01  .656E+01  .743E+01  .259E+01
  .548E+01  .299E+01  .444E+01  .598E+01  .180E+01  .433E+01  .367E+01  .205E+01
  .401E+01  .681E+00  .236E+01  .305E+01  .221E+01  .216E+01  .221E+01  .147E+01
  .269E+00  .396E+00  .400E+00  .968E-01  .000E+00  .000E+00  .000E+00  .000E+00
  .000E+00  .000E+00  .000E+00  .000E+00  .000E+00  .000E+00  .000E+00  .000E+00
  .000E+00  .000E+00  .000E+00  .000E+00  .000E+00  .000E+00  .000E+00  .000E+00
  .000E+00  .000E+00  .000E+00  .000E+00  .000E+00  .000E+00  .000E+00  .000E+00
  .000E+00  .000E+00  .000E+00  .000E+00
Damping =  .00. Data of Sd,Sv,Sa,Pssv,ttSd,ttSv,ttSa :
  .180E-02  .220E-02  .208E-02  .231E-02  .307E-02  .382E-02  .362E-02  .762E-02
  .859E-02  .182E-01  .997E-02  .186E-01  .160E-01  .300E-01  .388E-01  .318E-01
  .642E-01  .738E-01  .811E-01  .111E+00  .155E+00  .694E-01  .616E-01  .119E+00
  .128E+00  .101E+00  .126E+00  .177E+00  .157E+00  .141E+00  .192E+00  .177E+00
  .131E+00  .163E+00  .158E+00  .166E+00  .236E+00  .260E+00  .398E+00  .442E+00
  .687E+00  .526E+00  .779E+00  .120E+01  .803E+00  .801E+00  .103E+01  .443E+00
  .852E+00  .710E+00  .831E+00  .111E+01  .714E+00  .106E+01  .882E+00  .567E+00
  .106E+01  .664E+00  .978E+00  .936E+00  .783E+00  .755E+00  .844E+00  .606E+00
  .261E+00  .334E+00  .344E+00  .294E+00  .000E+00  .000E+00  .000E+00  .000E+00
  .000E+00  .000E+00  .000E+00  .000E+00  .000E+00  .000E+00  .000E+00  .000E+00
  .000E+00  .000E+00  .000E+00  .000E+00  .000E+00  .000E+00  .000E+00  .000E+00
  .000E+00  .000E+00  .000E+00  .000E+00  .000E+00  .000E+00  .000E+00  .000E+00
  .000E+00  .000E+00  .000E+00  .000E+00
  .867E-01  .128E+00  .236E+00  .221E+00  .264E+00  .462E+00  .343E+00  .549E+00
  .799E+00  .164E+01  .759E+00  .141E+01  .937E+00  .202E+01  .254E+01  .194E+01
  .366E+01  .379E+01  .389E+01  .495E+01  .648E+01  .276E+01  .219E+01  .419E+01
  .420E+01  .321E+01  .394E+01  .456E+01  .384E+01  .312E+01  .394E+01  .344E+01
  .235E+01  .276E+01  .221E+01  .258E+01  .342E+01  .357E+01  .536E+01  .575E+01
  .861E+01  .590E+01  .812E+01  .116E+02  .716E+01  .665E+01  .805E+01  .346E+01
  .597E+01  .482E+01  .520E+01  .639E+01  .380E+01  .523E+01  .397E+01  .253E+01
  .421E+01  .257E+01  .344E+01  .315E+01  .251E+01  .220E+01  .228E+01  .177E+01
  .173E+01  .171E+01  .169E+01  .167E+01  .000E+00  .000E+00  .000E+00  .000E+00
  .000E+00  .000E+00  .000E+00  .000E+00  .000E+00  .000E+00  .000E+00  .000E+00
  .000E+00  .000E+00  .000E+00  .000E+00  .000E+00  .000E+00  .000E+00  .000E+00
  .000E+00  .000E+00  .000E+00  .000E+00  .000E+00  .000E+00  .000E+00  .000E+00
  .000E+00  .000E+00  .000E+00  .000E+00
  .115E+00  .128E+00  .110E+00  .111E+00  .136E+00  .156E+00  .122E+00  .216E+00
  .208E+00  .380E+00  .181E+00  .297E+00  .226E+00  .379E+00  .440E+00  .325E+00
  .543E+00  .524E+00  .491E+00  .577E+00  .706E+00  .277E+00  .218E+00  .374E+00
  .364E+00  .258E+00  .267E+00  .315E+00  .238E+00  .183E+00  .218E+00  .176E+00
  .116E+00  .129E+00  .112E+00  .106E+00  .137E+00  .137E+00  .192E+00  .196E+00
  .281E+00  .178E+00  .221E+00  .292E+00  .168E+00  .146E+00  .165E+00  .627E-01
  .108E+00  .805E-01  .850E-01  .939E-01  .507E-01  .643E-01  .460E-01  .258E-01
  .423E-01  .235E-01  .309E-01  .265E-01  .200E-01  .160E-01  .150E-01  .917E-02
  .341E-02  .379E-02  .344E-02  .260E-02  .000E+00  .000E+00  .000E+00  .000E+00
  .000E+00  .000E+00  .000E+00  .000E+00  .000E+00  .000E+00  .000E+00  .000E+00
  .000E+00  .000E+00  .000E+00  .000E+00  .000E+00  .000E+00  .000E+00  .000E+00
  .000E+00  .000E+00  .000E+00  .000E+00  .000E+00  .000E+00  .000E+00  .000E+00
  .000E+00  .000E+00  .000E+00  .000E+00
  .283E+00  .329E+00  .297E+00  .315E+00  .401E+00  .480E+00  .414E+00  .798E+00
  .831E+00  .163E+01  .835E+00  .146E+01  .118E+01  .210E+01  .257E+01  .200E+01
  .367E+01  .386E+01  .392E+01  .496E+01  .651E+01  .272E+01  .228E+01  .414E+01
  .424E+01  .317E+01  .361E+01  .465E+01  .380E+01  .315E+01  .401E+01  .347E+01
  .242E+01  .285E+01  .262E+01  .261E+01  .353E+01  .371E+01  .544E+01  .579E+01
  .864E+01  .601E+01  .816E+01  .116E+02  .720E+01  .671E+01  .813E+01  .328E+01
  .595E+01  .470E+01  .522E+01  .635E+01  .374E+01  .514E+01  .396E+01  .237E+01
  .416E+01  .245E+01  .341E+01  .310E+01  .246E+01  .216E+01  .221E+01  .147E+01
  .586E+00  .699E+00  .676E+00  .544E+00  .000E+00  .000E+00  .000E+00  .000E+00
  .000E+00  .000E+00  .000E+00  .000E+00  .000E+00  .000E+00  .000E+00  .000E+00
  .000E+00  .000E+00  .000E+00  .000E+00  .000E+00  .000E+00  .000E+00  .000E+00
  .000E+00  .000E+00  .000E+00  .000E+00  .000E+00  .000E+00  .000E+00  .000E+00
  .000E+00  .000E+00  .000E+00  .000E+00
  .263E+02  .263E+02  .263E+02  .263E+02  .263E+02  .331E+02  .263E+02  .263E+02
  .268E+02  .304E+02  .299E+02  .266E+02  .263E+02  .296E+02  .275E+02  .312E+02
  .346E+02  .265E+02  .364E+02  .478E+02  .493E+02  .287E+02  .339E+02  .305E+02
  .493E+02  .346E+02  .264E+02  .540E+02  .320E+02  .340E+02  .422E+02  .623E+02
  .463E+02  .358E+02  .261E+02  .767E+02  .323E+02  .266E+02  .430E+02  .629E+02
  .407E+02  .581E+02  .513E+02  .792E+02  .753E+02  .782E+02  .604E+02  .263E+02
  .633E+02  .536E+02  .566E+02  .709E+02  .415E+02  .595E+02  .771E+02  .548E+02
  .793E+02  .463E+02  .621E+02  .787E+02  .478E+02  .818E+02  .819E+02  .829E+02
  .435E+02  .760E+02  .442E+02  .443E+02  .000E+00  .000E+00  .000E+00  .000E+00
  .000E+00  .000E+00  .000E+00  .000E+00  .000E+00  .000E+00  .000E+00  .000E+00
  .000E+00  .000E+00  .000E+00  .000E+00  .000E+00  .000E+00  .000E+00  .000E+00
  .000E+00  .000E+00  .000E+00  .000E+00  .000E+00  .000E+00  .000E+00  .000E+00
  .000E+00  .000E+00  .000E+00  .000E+00
  .265E+02  .265E+02  .324E+02  .325E+02  .263E+02  .436E+02  .273E+02  .265E+02
  .268E+02  .304E+02  .299E+02  .267E+02  .264E+02  .296E+02  .274E+02  .312E+02
  .351E+02  .265E+02  .364E+02  .295E+02  .493E+02  .296E+02  .339E+02  .317E+02
  .492E+02  .284E+02  .264E+02  .539E+02  .319E+02  .378E+02  .378E+02  .623E+02
  .462E+02  .357E+02  .260E+02  .774E+02  .410E+02  .278E+02  .429E+02  .631E+02
  .398E+02  .579E+02  .515E+02  .790E+02  .751E+02  .780E+02  .602E+02  .265E+02
  .631E+02  .538E+02  .704E+02  .712E+02  .412E+02  .592E+02  .774E+02  .551E+02
  .789E+02  .511E+02  .625E+02  .689E+02  .493E+02  .790E+02  .789E+02  .259E+02
  .259E+02  .259E+02  .259E+02  .259E+02  .000E+00  .000E+00  .000E+00  .000E+00
  .000E+00  .000E+00  .000E+00  .000E+00  .000E+00  .000E+00  .000E+00  .000E+00
  .000E+00  .000E+00  .000E+00  .000E+00  .000E+00  .000E+00  .000E+00  .000E+00
  .000E+00  .000E+00  .000E+00  .000E+00  .000E+00  .000E+00  .000E+00  .000E+00
  .000E+00  .000E+00  .000E+00  .000E+00
  .263E+02  .263E+02  .263E+02  .263E+02  .263E+02  .331E+02  .263E+02  .263E+02
  .268E+02  .304E+02  .299E+02  .266E+02  .263E+02  .296E+02  .275E+02  .312E+02
  .346E+02  .265E+02  .364E+02  .478E+02  .493E+02  .287E+02  .339E+02  .305E+02
  .493E+02  .346E+02  .264E+02  .540E+02  .320E+02  .340E+02  .422E+02  .623E+02
  .463E+02  .358E+02  .261E+02  .767E+02  .323E+02  .266E+02  .430E+02  .629E+02
  .407E+02  .581E+02  .513E+02  .792E+02  .753E+02  .782E+02  .604E+02  .263E+02
  .633E+02  .536E+02  .566E+02  .709E+02  .415E+02  .595E+02  .771E+02  .548E+02
  .793E+02  .463E+02  .621E+02  .787E+02  .478E+02  .818E+02  .819E+02  .829E+02
  .435E+02  .760E+02  .442E+02  .443E+02  .000E+00  .000E+00  .000E+00  .000E+00
  .000E+00  .000E+00  .000E+00  .000E+00  .000E+00  .000E+00  .000E+00  .000E+00
  .000E+00  .000E+00  .000E+00  .000E+00  .000E+00  .000E+00  .000E+00  .000E+00
  .000E+00  .000E+00  .000E+00  .000E+00  .000E+00  .000E+00  .000E+00  .000E+00
  .000E+00  .000E+00  .000E+00  .000E+00
Damping =  .02. Data of Sd,Sv,Sa,Pssv,ttSd,ttSv,ttSa :
  .172E-02  .193E-02  .205E-02  .222E-02  .242E-02  .298E-02  .396E-02  .645E-02
  .664E-02  .853E-02  .730E-02  .116E-01  .132E-01  .168E-01  .196E-01  .172E-01
  .310E-01  .557E-01  .642E-01  .697E-01  .564E-01  .490E-01  .468E-01  .486E-01
  .578E-01  .766E-01  .112E+00  .122E+00  .985E-01  .775E-01  .795E-01  .966E-01
  .119E+00  .135E+00  .148E+00  .156E+00  .170E+00  .216E+00  .243E+00  .268E+00
  .282E+00  .344E+00  .387E+00  .425E+00  .422E+00  .411E+00  .430E+00  .417E+00
  .394E+00  .366E+00  .364E+00  .428E+00  .392E+00  .497E+00  .409E+00  .421E+00
  .549E+00  .421E+00  .489E+00  .571E+00  .522E+00  .418E+00  .441E+00  .319E+00
  .239E+00  .241E+00  .279E+00  .254E+00  .000E+00  .000E+00  .000E+00  .000E+00
  .000E+00  .000E+00  .000E+00  .000E+00  .000E+00  .000E+00  .000E+00  .000E+00
  .000E+00  .000E+00  .000E+00  .000E+00  .000E+00  .000E+00  .000E+00  .000E+00
  .000E+00  .000E+00  .000E+00  .000E+00  .000E+00  .000E+00  .000E+00  .000E+00
  .000E+00  .000E+00  .000E+00  .000E+00
  .730E-01  .903E-01  .893E-01  .981E-01  .128E+00  .148E+00  .211E+00  .381E+00
  .517E+00  .691E+00  .539E+00  .837E+00  .708E+00  .111E+01  .125E+01  .110E+01
  .167E+01  .293E+01  .312E+01  .306E+01  .245E+01  .176E+01  .161E+01  .178E+01
  .193E+01  .245E+01  .344E+01  .298E+01  .249E+01  .200E+01  .179E+01  .162E+01
  .174E+01  .185E+01  .210E+01  .222E+01  .239E+01  .281E+01  .308E+01  .351E+01
  .378E+01  .422E+01  .434E+01  .437E+01  .392E+01  .401E+01  .384E+01  .329E+01
  .285E+01  .270E+01  .268E+01  .275E+01  .249E+01  .267E+01  .212E+01  .204E+01
  .214E+01  .189E+01  .184E+01  .212E+01  .181E+01  .180E+01  .178E+01  .176E+01
  .173E+01  .170E+01  .168E+01  .167E+01  .000E+00  .000E+00  .000E+00  .000E+00
  .000E+00  .000E+00  .000E+00  .000E+00  .000E+00  .000E+00  .000E+00  .000E+00
  .000E+00  .000E+00  .000E+00  .000E+00  .000E+00  .000E+00  .000E+00  .000E+00
  .000E+00  .000E+00  .000E+00  .000E+00  .000E+00  .000E+00  .000E+00  .000E+00
  .000E+00  .000E+00  .000E+00  .000E+00
  .110E+00  .112E+00  .108E+00  .107E+00  .107E+00  .122E+00  .134E+00  .183E+00
  .161E+00  .179E+00  .133E+00  .187E+00  .187E+00  .213E+00  .222E+00  .177E+00
  .263E+00  .394E+00  .390E+00  .365E+00  .255E+00  .195E+00  .167E+00  .154E+00
  .164E+00  .197E+00  .236E+00  .216E+00  .149E+00  .101E+00  .906E-01  .966E-01
  .105E+00  .107E+00  .105E+00  .995E-01  .987E-01  .114E+00  .117E+00  .119E+00
  .115E+00  .117E+00  .110E+00  .103E+00  .883E-01  .748E-01  .690E-01  .592E-01
  .499E-01  .415E-01  .372E-01  .362E-01  .279E-01  .301E-01  .213E-01  .192E-01
  .219E-01  .149E-01  .154E-01  .162E-01  .134E-01  .883E-02  .784E-02  .483E-02
  .313E-02  .274E-02  .279E-02  .226E-02  .000E+00  .000E+00  .000E+00  .000E+00
  .000E+00  .000E+00  .000E+00  .000E+00  .000E+00  .000E+00  .000E+00  .000E+00
  .000E+00  .000E+00  .000E+00  .000E+00  .000E+00  .000E+00  .000E+00  .000E+00
  .000E+00  .000E+00  .000E+00  .000E+00  .000E+00  .000E+00  .000E+00  .000E+00
  .000E+00  .000E+00  .000E+00  .000E+00
  .271E+00  .289E+00  .293E+00  .303E+00  .316E+00  .374E+00  .452E+00  .676E+00
  .642E+00  .766E+00  .611E+00  .911E+00  .977E+00  .117E+01  .130E+01  .108E+01
  .177E+01  .292E+01  .310E+01  .313E+01  .236E+01  .192E+01  .173E+01  .170E+01
  .191E+01  .241E+01  .319E+01  .320E+01  .238E+01  .174E+01  .166E+01  .190E+01
  .220E+01  .235E+01  .245E+01  .244E+01  .255E+01  .308E+01  .332E+01  .351E+01
  .354E+01  .393E+01  .406E+01  .411E+01  .379E+01  .344E+01  .338E+01  .308E+01
  .275E+01  .242E+01  .228E+01  .244E+01  .205E+01  .240E+01  .183E+01  .176E+01
  .215E+01  .156E+01  .171E+01  .189E+01  .164E+01  .119E+01  .115E+01  .770E+00
  .536E+00  .504E+00  .548E+00  .470E+00  .000E+00  .000E+00  .000E+00  .000E+00
  .000E+00  .000E+00  .000E+00  .000E+00  .000E+00  .000E+00  .000E+00  .000E+00
  .000E+00  .000E+00  .000E+00  .000E+00  .000E+00  .000E+00  .000E+00  .000E+00
  .000E+00  .000E+00  .000E+00  .000E+00  .000E+00  .000E+00  .000E+00  .000E+00
  .000E+00  .000E+00  .000E+00  .000E+00
  .263E+02  .263E+02  .263E+02  .263E+02  .263E+02  .263E+02  .263E+02  .263E+02
  .263E+02  .266E+02  .264E+02  .266E+02  .263E+02  .266E+02  .267E+02  .267E+02
  .263E+02  .265E+02  .265E+02  .267E+02  .268E+02  .262E+02  .262E+02  .266E+02
  .266E+02  .264E+02  .264E+02  .264E+02  .264E+02  .264E+02  .266E+02  .261E+02
  .261E+02  .261E+02  .261E+02  .261E+02  .261E+02  .266E+02  .266E+02  .267E+02
  .267E+02  .268E+02  .265E+02  .265E+02  .266E+02  .266E+02  .263E+02  .263E+02
  .263E+02  .263E+02  .458E+02  .450E+02  .415E+02  .451E+02  .446E+02  .662E+02
  .697E+02  .446E+02  .612E+02  .580E+02  .478E+02  .574E+02  .544E+02  .442E+02
  .340E+02  .340E+02  .442E+02  .443E+02  .000E+00  .000E+00  .000E+00  .000E+00
  .000E+00  .000E+00  .000E+00  .000E+00  .000E+00  .000E+00  .000E+00  .000E+00
  .000E+00  .000E+00  .000E+00  .000E+00  .000E+00  .000E+00  .000E+00  .000E+00
  .000E+00  .000E+00  .000E+00  .000E+00  .000E+00  .000E+00  .000E+00  .000E+00
  .000E+00  .000E+00  .000E+00  .000E+00
  .265E+02  .265E+02  .266E+02  .264E+02  .263E+02  .263E+02  .263E+02  .265E+02
  .266E+02  .266E+02  .266E+02  .267E+02  .264E+02  .267E+02  .269E+02  .267E+02
  .265E+02  .265E+02  .265E+02  .265E+02  .267E+02  .262E+02  .262E+02  .266E+02
  .265E+02  .264E+02  .264E+02  .263E+02  .264E+02  .264E+02  .267E+02  .261E+02
  .261E+02  .260E+02  .260E+02  .260E+02  .260E+02  .267E+02  .265E+02  .266E+02
  .266E+02  .266E+02  .264E+02  .264E+02  .264E+02  .265E+02  .265E+02  .265E+02
  .262E+02  .262E+02  .263E+02  .263E+02  .263E+02  .448E+02  .449E+02  .263E+02
  .700E+02  .259E+02  .259E+02  .584E+02  .444E+02  .259E+02  .259E+02  .259E+02
  .259E+02  .259E+02  .259E+02  .259E+02  .000E+00  .000E+00  .000E+00  .000E+00
  .000E+00  .000E+00  .000E+00  .000E+00  .000E+00  .000E+00  .000E+00  .000E+00
  .000E+00  .000E+00  .000E+00  .000E+00  .000E+00  .000E+00  .000E+00  .000E+00
  .000E+00  .000E+00  .000E+00  .000E+00  .000E+00  .000E+00  .000E+00  .000E+00
  .000E+00  .000E+00  .000E+00  .000E+00
  .263E+02  .263E+02  .263E+02  .263E+02  .263E+02  .263E+02  .263E+02  .263E+02
  .263E+02  .266E+02  .264E+02  .266E+02  .263E+02  .266E+02  .267E+02  .267E+02
  .265E+02  .265E+02  .265E+02  .267E+02  .268E+02  .262E+02  .262E+02  .266E+02
  .266E+02  .264E+02  .264E+02  .264E+02  .264E+02  .264E+02  .266E+02  .261E+02
