Response and Fourier amplitude spectra (68 periods,  .04 -  3.4 sec)   for      
Corrected accelerogram   14175-L3528-08211.01       Chan  1:  90 Deg     from   
Uncorrected Accelerogram Data             Processed: 08/05/08, CDMG  ce14175q   
Record of Tue Jul 29, 2008 11:42:02.0 PDT             (Avol1 v7.9 7/08 CSMIP)   
CSMIP Preliminary Processing            (Origin:  To be determined)             
14175-L3528-08211.01                 Start time:  7/29/08, 18:42:02.0 UTC (GPS) 
Station No. 14175   33.931N, 118.214W      Etna  s/n 3528  (3 Channels)         
Lynwood - Imperial Hwy & Long Beach Blvd  CGS                                   
Chan  1:  90 Deg                                                                
Record of Tue Jul 29, 2008 11:42:02.0 PDT    Tue Jul 29, 2008 11:42:02.0 PDT    
Hypocenter:  To be determined.               ML:  To be determined.             
Instr Period =  .0045 sec,  Damping =  .700,  Sensitivity =  .63  v/g           
                        Record length = 84.000 sec.                             
                                     Uncor Max  =  -.062 g , at  29.925 sec.    
RMS accel of (uncor) record  =        .   Chn. metadata effective date: 02/07/05
Accelerogram bandpass filtered with 3 dB pts at   .30 and 40.00 cyc/sec         
                 instrument- and baseline-corrected                             
                                                                                
                                                                                
                                                                                
                                                                                
                                                                                
Record of Tue Jul 29, 2008 11:42:02.0 PDT    Tue Jul 29, 2008 11:42:02.0 PDT    
                                                                                
14175-L3528-08211.01      Lynwood - Imperial Hwy & Long Beach Blvd  CGChan  1:  
90 Deg                                                                          
14175-L3528-08211.01      Lynwood - Imperial Hwy & Long Beach Blvd  CGChan  1:  
90 Deg                                                                          
Units for spectra are inches and sec, except Sa is in fraction of g.            
                                                                                
    1  100    1    4    3  200    1    3    1   24   12 3528    014175    1    0
   18   42    2    0  211    7   29 2008   10    3   9016800   41   40   76  360
16800    1   50    3 3528    1    1  840    2    0    0    0    0    0    0    0
    0    4    0    0 8400    2  202    0   18   20   76   40    1    1    0 8400
    3 8400   41   68    5    3    5    0    0    0    3    0    0    3    0    2
    2    2    4    0   32   99 -999   32   32    0    5    1    0    0    0  222
    1    0    9    0
      .005      .700    84.000      .006      .000   626.000     -.062    29.925
   220.000      .298      .476      .000     5.000      .000     3.994      .000
     2.500     9.212     2.500  -999.000    25.000    30.000      .000     -.002
      .007      .009     2.000    15.000    33.931  -118.214      .021     1.509
    72.497      .000      .000    23.000    25.600    53.800    13.400    76.460
     1.000     1.250      .000      .000      .000      .000      .000      .000
     4.200     7.900     4.600   980.665      .010    84.000    35.014     -.001
      .000    40.000      .000    84.000      .010      .303      .000      .000
    29.920   -60.687    29.010    -4.233    29.280     -.913      .000      .303
    40.000      .010      .010      .000      .880      .220      .000      .000
      .214      .140      .134      .092      .078      .005      .000      .000
      .000      .000      .000      .000      .000      .000      .000      .000
      .000      .000      .000      .000
      .000      .020      .050      .100      .200
      .040      .042      .044      .046      .048      .050      .055      .060
      .065      .070      .075      .080      .085      .090      .095      .100
      .110      .120      .130      .140      .150      .160      .170      .180
      .190      .200      .220      .240      .260      .280      .300      .320
      .340      .360      .380      .400      .420      .440      .460      .480
      .500      .550      .600      .650      .700      .750      .800      .850
      .900      .950     1.000     1.100     1.200     1.300     1.400     1.500
     1.600     1.700     1.800     1.900     2.000     2.200     2.400     2.600
     2.800     3.000     3.200     3.400      .000      .000      .000      .000
      .000      .000      .000      .000      .000      .000      .000      .000
      .000      .000      .000      .000      .000      .000      .000      .000
      .000      .000      .000      .000      .000      .000      .000      .000
      .000      .000      .000      .000
Fourier amplitude spectra in in/sec.
  .787E-01  .139E+00  .128E+00  .179E+00  .188E+00  .144E+00  .221E+00  .757E+00
  .321E+00  .491E+00  .485E+00  .107E+01  .212E+00  .188E+01  .180E+01  .202E+01
  .371E+01  .230E+01  .179E+01  .924E+00  .273E+01  .394E+01  .545E+01  .540E+01
  .423E+01  .291E+01  .548E+01  .630E+01  .694E+01  .157E+00  .579E+01  .555E+01
  .225E+01  .287E+01  .979E+01  .685E+01  .158E+01  .668E+01  .531E+01  .142E+02
  .284E+01  .422E+01  .219E+01  .172E+01  .604E+01  .582E+01  .559E+01  .595E+01
  .109E+02  .312E+01  .125E+02  .452E+01  .659E+01  .645E+01  .220E+01  .503E+01
  .246E+01  .389E+01  .356E+01  .320E+01  .198E+01  .147E+01  .131E+01  .150E+01
  .608E+00  .306E+00  .105E+01  .716E+00  .000E+00  .000E+00  .000E+00  .000E+00
  .000E+00  .000E+00  .000E+00  .000E+00  .000E+00  .000E+00  .000E+00  .000E+00
  .000E+00  .000E+00  .000E+00  .000E+00  .000E+00  .000E+00  .000E+00  .000E+00
  .000E+00  .000E+00  .000E+00  .000E+00  .000E+00  .000E+00  .000E+00  .000E+00
  .000E+00  .000E+00  .000E+00  .000E+00
Damping =  .00. Data of Sd,Sv,Sa,Pssv,ttSd,ttSv,ttSa :
  .137E-02  .180E-02  .155E-02  .191E-02  .227E-02  .261E-02  .416E-02  .762E-02
  .583E-02  .690E-02  .731E-02  .160E-01  .130E-01  .304E-01  .317E-01  .353E-01
  .662E-01  .490E-01  .616E-01  .759E-01  .906E-01  .106E+00  .157E+00  .170E+00
  .130E+00  .105E+00  .207E+00  .283E+00  .306E+00  .142E+00  .347E+00  .386E+00
  .197E+00  .384E+00  .650E+00  .438E+00  .396E+00  .640E+00  .411E+00  .130E+01
  .480E+00  .596E+00  .355E+00  .452E+00  .700E+00  .809E+00  .101E+01  .100E+01
  .190E+01  .126E+01  .218E+01  .142E+01  .150E+01  .152E+01  .950E+00  .146E+01
  .102E+01  .127E+01  .107E+01  .101E+01  .821E+00  .819E+00  .659E+00  .769E+00
  .462E+00  .467E+00  .588E+00  .464E+00  .000E+00  .000E+00  .000E+00  .000E+00
  .000E+00  .000E+00  .000E+00  .000E+00  .000E+00  .000E+00  .000E+00  .000E+00
  .000E+00  .000E+00  .000E+00  .000E+00  .000E+00  .000E+00  .000E+00  .000E+00
  .000E+00  .000E+00  .000E+00  .000E+00  .000E+00  .000E+00  .000E+00  .000E+00
  .000E+00  .000E+00  .000E+00  .000E+00
  .109E+00  .161E+00  .151E+00  .185E+00  .194E+00  .197E+00  .311E+00  .752E+00
  .470E+00  .552E+00  .560E+00  .121E+01  .835E+00  .206E+01  .204E+01  .219E+01
  .373E+01  .245E+01  .282E+01  .335E+01  .382E+01  .415E+01  .581E+01  .576E+01
  .429E+01  .324E+01  .587E+01  .729E+01  .728E+01  .311E+01  .726E+01  .748E+01
  .372E+01  .634E+01  .106E+02  .685E+01  .615E+01  .917E+01  .556E+01  .169E+02
  .611E+01  .684E+01  .382E+01  .425E+01  .618E+01  .682E+01  .787E+01  .743E+01
  .133E+02  .826E+01  .136E+02  .811E+01  .818E+01  .742E+01  .515E+01  .628E+01
  .480E+01  .481E+01  .377E+01  .354E+01  .309E+01  .281E+01  .254E+01  .237E+01
  .226E+01  .216E+01  .207E+01  .199E+01  .000E+00  .000E+00  .000E+00  .000E+00
  .000E+00  .000E+00  .000E+00  .000E+00  .000E+00  .000E+00  .000E+00  .000E+00
  .000E+00  .000E+00  .000E+00  .000E+00  .000E+00  .000E+00  .000E+00  .000E+00
  .000E+00  .000E+00  .000E+00  .000E+00  .000E+00  .000E+00  .000E+00  .000E+00
  .000E+00  .000E+00  .000E+00  .000E+00
  .877E-01  .104E+00  .817E-01  .921E-01  .101E+00  .107E+00  .141E+00  .216E+00
  .141E+00  .144E+00  .133E+00  .256E+00  .185E+00  .384E+00  .359E+00  .361E+00
  .559E+00  .348E+00  .373E+00  .396E+00  .412E+00  .425E+00  .555E+00  .538E+00
  .369E+00  .268E+00  .438E+00  .503E+00  .463E+00  .186E+00  .395E+00  .386E+00
  .174E+00  .303E+00  .461E+00  .280E+00  .229E+00  .338E+00  .199E+00  .578E+00
  .197E+00  .202E+00  .101E+00  .109E+00  .146E+00  .147E+00  .161E+00  .142E+00
  .240E+00  .142E+00  .222E+00  .120E+00  .106E+00  .922E-01  .496E-01  .664E-01
  .406E-01  .451E-01  .337E-01  .288E-01  .210E-01  .173E-01  .117E-01  .116E-01
  .603E-02  .531E-02  .587E-02  .410E-02  .000E+00  .000E+00  .000E+00  .000E+00
  .000E+00  .000E+00  .000E+00  .000E+00  .000E+00  .000E+00  .000E+00  .000E+00
  .000E+00  .000E+00  .000E+00  .000E+00  .000E+00  .000E+00  .000E+00  .000E+00
  .000E+00  .000E+00  .000E+00  .000E+00  .000E+00  .000E+00  .000E+00  .000E+00
  .000E+00  .000E+00  .000E+00  .000E+00
  .216E+00  .269E+00  .221E+00  .260E+00  .297E+00  .328E+00  .475E+00  .798E+00
  .564E+00  .619E+00  .613E+00  .126E+01  .965E+00  .212E+01  .210E+01  .222E+01
  .378E+01  .257E+01  .298E+01  .341E+01  .379E+01  .418E+01  .580E+01  .595E+01
  .431E+01  .330E+01  .592E+01  .741E+01  .740E+01  .319E+01  .727E+01  .758E+01
  .364E+01  .670E+01  .108E+02  .688E+01  .592E+01  .915E+01  .561E+01  .170E+02
  .604E+01  .681E+01  .372E+01  .437E+01  .628E+01  .677E+01  .790E+01  .743E+01
  .133E+02  .831E+01  .137E+02  .808E+01  .784E+01  .736E+01  .426E+01  .612E+01
  .399E+01  .471E+01  .373E+01  .336E+01  .258E+01  .234E+01  .173E+01  .186E+01
  .104E+01  .978E+00  .115E+01  .857E+00  .000E+00  .000E+00  .000E+00  .000E+00
  .000E+00  .000E+00  .000E+00  .000E+00  .000E+00  .000E+00  .000E+00  .000E+00
  .000E+00  .000E+00  .000E+00  .000E+00  .000E+00  .000E+00  .000E+00  .000E+00
  .000E+00  .000E+00  .000E+00  .000E+00  .000E+00  .000E+00  .000E+00  .000E+00
  .000E+00  .000E+00  .000E+00  .000E+00
  .299E+02  .299E+02  .299E+02  .301E+02  .299E+02  .299E+02  .301E+02  .299E+02
  .298E+02  .302E+02  .291E+02  .370E+02  .301E+02  .332E+02  .318E+02  .425E+02
  .333E+02  .333E+02  .353E+02  .302E+02  .302E+02  .476E+02  .367E+02  .352E+02
  .755E+02  .439E+02  .595E+02  .363E+02  .404E+02  .364E+02  .410E+02  .404E+02
  .372E+02  .347E+02  .567E+02  .795E+02  .336E+02  .475E+02  .663E+02  .531E+02
  .459E+02  .441E+02  .363E+02  .297E+02  .788E+02  .539E+02  .664E+02  .524E+02
  .591E+02  .352E+02  .689E+02  .621E+02  .367E+02  .730E+02  .324E+02  .603E+02
  .359E+02  .729E+02  .807E+02  .795E+02  .629E+02  .463E+02  .592E+02  .583E+02
  .293E+02  .293E+02  .795E+02  .293E+02  .000E+00  .000E+00  .000E+00  .000E+00
  .000E+00  .000E+00  .000E+00  .000E+00  .000E+00  .000E+00  .000E+00  .000E+00
  .000E+00  .000E+00  .000E+00  .000E+00  .000E+00  .000E+00  .000E+00  .000E+00
  .000E+00  .000E+00  .000E+00  .000E+00  .000E+00  .000E+00  .000E+00  .000E+00
  .000E+00  .000E+00  .000E+00  .000E+00
  .303E+02  .350E+02  .400E+02  .433E+02  .525E+02  .298E+02  .301E+02  .423E+02
  .297E+02  .302E+02  .440E+02  .371E+02  .297E+02  .331E+02  .318E+02  .448E+02
  .669E+02  .333E+02  .354E+02  .302E+02  .302E+02  .475E+02  .366E+02  .407E+02
  .773E+02  .435E+02  .596E+02  .363E+02  .363E+02  .304E+02  .410E+02  .405E+02
  .371E+02  .346E+02  .566E+02  .824E+02  .335E+02  .474E+02  .671E+02  .532E+02
  .456E+02  .440E+02  .361E+02  .299E+02  .786E+02  .537E+02  .666E+02  .518E+02
  .598E+02  .350E+02  .687E+02  .623E+02  .365E+02  .727E+02  .300E+02  .450E+02
  .355E+02  .733E+02  .812E+02  .791E+02  .294E+02  .294E+02  .294E+02  .294E+02
  .294E+02  .294E+02  .294E+02  .294E+02  .000E+00  .000E+00  .000E+00  .000E+00
  .000E+00  .000E+00  .000E+00  .000E+00  .000E+00  .000E+00  .000E+00  .000E+00
  .000E+00  .000E+00  .000E+00  .000E+00  .000E+00  .000E+00  .000E+00  .000E+00
  .000E+00  .000E+00  .000E+00  .000E+00  .000E+00  .000E+00  .000E+00  .000E+00
  .000E+00  .000E+00  .000E+00  .000E+00
  .299E+02  .299E+02  .299E+02  .301E+02  .299E+02  .299E+02  .301E+02  .299E+02
  .298E+02  .302E+02  .291E+02  .370E+02  .301E+02  .332E+02  .318E+02  .425E+02
  .333E+02  .333E+02  .353E+02  .302E+02  .302E+02  .476E+02  .367E+02  .352E+02
  .755E+02  .439E+02  .595E+02  .363E+02  .404E+02  .364E+02  .410E+02  .404E+02
  .372E+02  .347E+02  .567E+02  .795E+02  .336E+02  .475E+02  .663E+02  .531E+02
  .459E+02  .441E+02  .363E+02  .297E+02  .788E+02  .539E+02  .664E+02  .524E+02
  .591E+02  .352E+02  .689E+02  .621E+02  .367E+02  .730E+02  .324E+02  .603E+02
  .359E+02  .729E+02  .807E+02  .795E+02  .629E+02  .463E+02  .592E+02  .583E+02
  .293E+02  .293E+02  .795E+02  .293E+02  .000E+00  .000E+00  .000E+00  .000E+00
  .000E+00  .000E+00  .000E+00  .000E+00  .000E+00  .000E+00  .000E+00  .000E+00
  .000E+00  .000E+00  .000E+00  .000E+00  .000E+00  .000E+00  .000E+00  .000E+00
  .000E+00  .000E+00  .000E+00  .000E+00  .000E+00  .000E+00  .000E+00  .000E+00
  .000E+00  .000E+00  .000E+00  .000E+00
Damping =  .02. Data of Sd,Sv,Sa,Pssv,ttSd,ttSv,ttSa :
  .109E-02  .131E-02  .154E-02  .176E-02  .184E-02  .211E-02  .302E-02  .431E-02
  .421E-02  .568E-02  .664E-02  .862E-02  .855E-02  .160E-01  .199E-01  .225E-01
  .295E-01  .278E-01  .316E-01  .534E-01  .669E-01  .485E-01  .676E-01  .826E-01
  .700E-01  .527E-01  .761E-01  .115E+00  .115E+00  .101E+00  .137E+00  .151E+00
  .153E+00  .168E+00  .200E+00  .180E+00  .258E+00  .229E+00  .254E+00  .367E+00
  .266E+00  .305E+00  .316E+00  .373E+00  .437E+00  .532E+00  .635E+00  .668E+00
  .747E+00  .885E+00  .956E+00  .918E+00  .956E+00  .953E+00  .819E+00  .761E+00
  .714E+00  .704E+00  .715E+00  .704E+00  .675E+00  .600E+00  .532E+00  .492E+00
  .454E+00  .457E+00  .459E+00  .455E+00  .000E+00  .000E+00  .000E+00  .000E+00
  .000E+00  .000E+00  .000E+00  .000E+00  .000E+00  .000E+00  .000E+00  .000E+00
  .000E+00  .000E+00  .000E+00  .000E+00  .000E+00  .000E+00  .000E+00  .000E+00
  .000E+00  .000E+00  .000E+00  .000E+00  .000E+00  .000E+00  .000E+00  .000E+00
  .000E+00  .000E+00  .000E+00  .000E+00
  .612E-01  .754E-01  .114E+00  .112E+00  .112E+00  .141E+00  .183E+00  .279E+00
  .274E+00  .354E+00  .380E+00  .561E+00  .539E+00  .100E+01  .112E+01  .137E+01
  .163E+01  .126E+01  .116E+01  .240E+01  .270E+01  .186E+01  .251E+01  .289E+01
  .228E+01  .152E+01  .209E+01  .306E+01  .285E+01  .246E+01  .282E+01  .288E+01
  .290E+01  .276E+01  .337E+01  .292E+01  .414E+01  .293E+01  .323E+01  .465E+01
  .363E+01  .363E+01  .337E+01  .340E+01  .341E+01  .418E+01  .487E+01  .523E+01
  .556E+01  .610E+01  .637E+01  .530E+01  .500E+01  .543E+01  .493E+01  .437E+01
  .411E+01  .386E+01  .350E+01  .311E+01  .302E+01  .278E+01  .254E+01  .238E+01
  .226E+01  .216E+01  .208E+01  .200E+01  .000E+00  .000E+00  .000E+00  .000E+00
  .000E+00  .000E+00  .000E+00  .000E+00  .000E+00  .000E+00  .000E+00  .000E+00
  .000E+00  .000E+00  .000E+00  .000E+00  .000E+00  .000E+00  .000E+00  .000E+00
  .000E+00  .000E+00  .000E+00  .000E+00  .000E+00  .000E+00  .000E+00  .000E+00
  .000E+00  .000E+00  .000E+00  .000E+00
  .700E-01  .759E-01  .813E-01  .851E-01  .814E-01  .862E-01  .102E+00  .122E+00
  .102E+00  .119E+00  .121E+00  .138E+00  .121E+00  .202E+00  .227E+00  .229E+00
  .250E+00  .197E+00  .191E+00  .280E+00  .305E+00  .193E+00  .240E+00  .260E+00
  .197E+00  .135E+00  .161E+00  .206E+00  .173E+00  .132E+00  .155E+00  .151E+00
  .136E+00  .133E+00  .142E+00  .116E+00  .150E+00  .121E+00  .123E+00  .163E+00
  .109E+00  .103E+00  .900E-01  .904E-01  .912E-01  .968E-01  .102E+00  .946E-01
  .944E-01  .100E+00  .978E-01  .777E-01  .680E-01  .577E-01  .427E-01  .346E-01
  .286E-01  .249E-01  .226E-01  .200E-01  .173E-01  .127E-01  .948E-02  .745E-02
  .596E-02  .523E-02  .461E-02  .406E-02  .000E+00  .000E+00  .000E+00  .000E+00
  .000E+00  .000E+00  .000E+00  .000E+00  .000E+00  .000E+00  .000E+00  .000E+00
  .000E+00  .000E+00  .000E+00  .000E+00  .000E+00  .000E+00  .000E+00  .000E+00
  .000E+00  .000E+00  .000E+00  .000E+00  .000E+00  .000E+00  .000E+00  .000E+00
  .000E+00  .000E+00  .000E+00  .000E+00
  .172E+00  .196E+00  .220E+00  .241E+00  .240E+00  .265E+00  .345E+00  .451E+00
  .407E+00  .510E+00  .557E+00  .677E+00  .632E+00  .111E+01  .132E+01  .142E+01
  .169E+01  .146E+01  .153E+01  .240E+01  .280E+01  .190E+01  .250E+01  .288E+01
  .231E+01  .165E+01  .217E+01  .302E+01  .278E+01  .227E+01  .286E+01  .296E+01
  .284E+01  .293E+01  .330E+01  .283E+01  .387E+01  .327E+01  .347E+01  .480E+01
  .335E+01  .349E+01  .331E+01  .360E+01  .392E+01  .446E+01  .499E+01  .494E+01
  .522E+01  .585E+01  .600E+01  .525E+01  .501E+01  .461E+01  .368E+01  .319E+01
  .280E+01  .260E+01  .250E+01  .233E+01  .212E+01  .171E+01  .139E+01  .119E+01
  .102E+01  .958E+00  .900E+00  .841E+00  .000E+00  .000E+00  .000E+00  .000E+00
  .000E+00  .000E+00  .000E+00  .000E+00  .000E+00  .000E+00  .000E+00  .000E+00
  .000E+00  .000E+00  .000E+00  .000E+00  .000E+00  .000E+00  .000E+00  .000E+00
  .000E+00  .000E+00  .000E+00  .000E+00  .000E+00  .000E+00  .000E+00  .000E+00
  .000E+00  .000E+00  .000E+00  .000E+00
  .299E+02  .299E+02  .299E+02  .299E+02  .299E+02  .299E+02  .301E+02  .299E+02
  .301E+02  .299E+02  .299E+02  .296E+02  .297E+02  .303E+02  .298E+02  .303E+02
  .304E+02  .299E+02  .299E+02  .302E+02  .302E+02  .304E+02  .305E+02  .307E+02
  .301E+02  .293E+02  .336E+02  .301E+02  .304E+02  .303E+02  .378E+02  .385E+02
  .368E+02  .347E+02  .411E+02  .335E+02  .334E+02  .354E+02  .357E+02  .358E+02
  .364E+02  .400E+02  .362E+02  .297E+02  .298E+02  .298E+02  .303E+02  .303E+02
  .304E+02  .304E+02  .305E+02  .306E+02  .301E+02  .302E+02  .303E+02  .386E+02
  .304E+02  .297E+02  .298E+02  .298E+02  .298E+02  .299E+02  .299E+02  .583E+02
  .293E+02  .293E+02  .293E+02  .293E+02  .000E+00  .000E+00  .000E+00  .000E+00
  .000E+00  .000E+00  .000E+00  .000E+00  .000E+00  .000E+00  .000E+00  .000E+00
  .000E+00  .000E+00  .000E+00  .000E+00  .000E+00  .000E+00  .000E+00  .000E+00
  .000E+00  .000E+00  .000E+00  .000E+00  .000E+00  .000E+00  .000E+00  .000E+00
  .000E+00  .000E+00  .000E+00  .000E+00
  .298E+02  .301E+02  .301E+02  .299E+02  .299E+02  .299E+02  .302E+02  .299E+02
  .295E+02  .302E+02  .298E+02  .296E+02  .297E+02  .303E+02  .297E+02  .298E+02
  .304E+02  .305E+02  .304E+02  .302E+02  .302E+02  .302E+02  .304E+02  .306E+02
  .300E+02  .297E+02  .335E+02  .300E+02  .306E+02  .304E+02  .379E+02  .384E+02
  .371E+02  .337E+02  .410E+02  .336E+02  .335E+02  .353E+02  .358E+02  .356E+02
  .365E+02  .363E+02  .361E+02  .299E+02  .296E+02  .304E+02  .305E+02  .302E+02
  .302E+02  .302E+02  .303E+02  .304E+02  .304E+02  .300E+02  .300E+02  .300E+02
  .300E+02  .300E+02  .300E+02  .300E+02  .294E+02  .294E+02  .294E+02  .294E+02
  .294E+02  .294E+02  .294E+02  .294E+02  .000E+00  .000E+00  .000E+00  .000E+00
  .000E+00  .000E+00  .000E+00  .000E+00  .000E+00  .000E+00  .000E+00  .000E+00
  .000E+00  .000E+00  .000E+00  .000E+00  .000E+00  .000E+00  .000E+00  .000E+00
  .000E+00  .000E+00  .000E+00  .000E+00  .000E+00  .000E+00  .000E+00  .000E+00
  .000E+00  .000E+00  .000E+00  .000E+00
  .299E+02  .299E+02  .299E+02  .299E+02  .299E+02  .299E+02  .301E+02  .299E+02
  .301E+02  .299E+02  .299E+02  .296E+02  .297E+02  .303E+02  .298E+02  .303E+02
  .304E+02  .299E+02  .299E+02  .299E+02  .302E+02  .304E+02  .305E+02  .307E+02
  .301E+02  .293E+02  .336E+02  .301E+02  .304E+02  .303E+02  .378E+02  .385E+02
