Response and Fourier amplitude spectra (68 periods,  .04 -  3.4 sec)   for      
Corrected accelerogram   14846-L1869-08211.01       Chan  1: 360 Deg     from   
Uncorrected Accelerogram Data             Processed: 08/08/08, CDMG  ce14846c   
Record of Tue Jul 29, 2008 11:42:06.0 PDT             (Avol1 v7.9 7/08 CSMIP)   
CSMIP Preliminary Processing            (Origin:  To be determined)             
14846-L1869-08211.01                 Start time:  7/29/08, 18:42:06.0 UTC (GPS) 
Station No. 14846   33.811N, 118.276W      Etna  s/n 1869  (3 Channels)         
Carson - Main & Sepulveda                 CGS                                   
Chan  1: 360 Deg                                                                
Record of Tue Jul 29, 2008 11:42:06.0 PDT    Tue Jul 29, 2008 11:42:06.0 PDT    
Hypocenter:  To be determined.               ML:  To be determined.             
Instr Period =  .0105 sec,  Damping =  .690,  Sensitivity =  .63  v/g           
                        Record length = 87.000 sec.                             
                                     Uncor Max  =  -.029 g , at  29.330 sec.    
RMS accel of (uncor) record  =        .   Chn. metadata effective date: 11/16/00
Accelerogram bandpass filtered with 3 dB pts at   .30 and 40.00 cyc/sec         
                 instrument- and baseline-corrected                             
                                                                                
                                                                                
                                                                                
                                                                                
                                                                                
Record of Tue Jul 29, 2008 11:42:06.0 PDT    Tue Jul 29, 2008 11:42:06.0 PDT    
                                                                                
14846-L1869-08211.01      Carson - Main & Sepulveda   Chan  1: 360 Deg          
                                                                                
14846-L1869-08211.01      Carson - Main & Sepulveda   Chan  1: 360 Deg          
                                                                                
Units for spectra are inches and sec, except Sa is in fraction of g.            
                                                                                
    1  100    1    4    3  200    1    3    1   24   12 1869    014846    1    0
   18   42    6    0  211    7   29 2008   10    3  36017400   41   25   76  360
17400    1   50    3 1869    1    1  870    2    0    0    0    0    0    0    0
    0    4    0    0 8700    2  202    0   18    4   76   25    1    1    0 8700
    3 8700   26   68    5    3    5    0    0    0    3    0    0    3    0    2
    2    2    4    0   32   99    0   32   32    0    0    1    0    0    0  222
    1    0    2    0
      .011      .690    87.000      .003      .000   625.000     -.029    29.330
    94.800      .298      .477      .000     5.000      .000     4.000      .000
     2.500   -11.470     2.500  -999.000    25.000    30.000      .000     -.004
      .017      .021     2.000    15.000    33.811  -118.276      .023      .826
    35.510      .000      .000    12.000    25.900    55.900    13.400    87.260
     1.000    -1.314      .000      .000      .000      .000      .000      .000
     4.200     7.900     4.600   980.665      .010    87.000    15.088     -.005
      .000    40.000      .000    87.000      .010      .303      .000      .000
    29.330   -28.331    45.080    -1.405    44.810      .262      .000      .303
    40.000      .010      .010      .000      .010      .148      .000      .000
      .109      .130      .076      .039      .025      .002      .000      .000
      .000      .000      .000      .000      .000      .000      .000      .000
      .000      .000      .000      .000
      .000      .020      .050      .100      .200
      .040      .042      .044      .046      .048      .050      .055      .060
      .065      .070      .075      .080      .085      .090      .095      .100
      .110      .120      .130      .140      .150      .160      .170      .180
      .190      .200      .220      .240      .260      .280      .300      .320
      .340      .360      .380      .400      .420      .440      .460      .480
      .500      .550      .600      .650      .700      .750      .800      .850
      .900      .950     1.000     1.100     1.200     1.300     1.400     1.500
     1.600     1.700     1.800     1.900     2.000     2.200     2.400     2.600
     2.800     3.000     3.200     3.400      .000      .000      .000      .000
      .000      .000      .000      .000      .000      .000      .000      .000
      .000      .000      .000      .000      .000      .000      .000      .000
      .000      .000      .000      .000      .000      .000      .000      .000
      .000      .000      .000      .000
Fourier amplitude spectra in in/sec.
  .133E+00  .659E-01  .898E-01  .664E-01  .155E+00  .174E+00  .329E+00  .225E+00
  .389E+00  .728E+00  .260E+00  .210E+00  .149E+01  .534E+00  .250E+01  .153E+01
  .274E+01  .211E+01  .189E+01  .180E+01  .164E+01  .183E+01  .101E+01  .572E+00
  .325E+00  .147E+01  .186E+01  .129E+01  .675E+00  .148E+01  .285E+01  .229E+01
  .105E+01  .158E+01  .151E+01  .394E+01  .204E+01  .550E+01  .156E+01  .364E+01
  .465E+01  .167E+01  .854E+00  .140E+01  .193E+01  .150E+01  .167E+01  .367E+01
  .502E+01  .438E+01  .541E+01  .165E+01  .563E+01  .291E+01  .389E+01  .230E+01
  .210E+01  .184E+01  .981E+00  .193E+01  .132E+01  .150E+01  .163E+01  .121E+01
  .665E+00  .311E+00  .471E+00  .792E-01  .000E+00  .000E+00  .000E+00  .000E+00
  .000E+00  .000E+00  .000E+00  .000E+00  .000E+00  .000E+00  .000E+00  .000E+00
  .000E+00  .000E+00  .000E+00  .000E+00  .000E+00  .000E+00  .000E+00  .000E+00
  .000E+00  .000E+00  .000E+00  .000E+00  .000E+00  .000E+00  .000E+00  .000E+00
  .000E+00  .000E+00  .000E+00  .000E+00
Damping =  .00. Data of Sd,Sv,Sa,Pssv,ttSd,ttSv,ttSa :
  .118E-02  .862E-03  .873E-03  .142E-02  .142E-02  .225E-02  .335E-02  .335E-02
  .428E-02  .843E-02  .582E-02  .751E-02  .216E-01  .116E-01  .390E-01  .259E-01
  .499E-01  .456E-01  .473E-01  .607E-01  .640E-01  .628E-01  .488E-01  .263E-01
  .486E-01  .639E-01  .786E-01  .555E-01  .609E-01  .916E-01  .150E+00  .122E+00
  .707E-01  .126E+00  .187E+00  .312E+00  .212E+00  .411E+00  .134E+00  .285E+00
  .416E+00  .182E+00  .170E+00  .296E+00  .285E+00  .255E+00  .395E+00  .542E+00
  .936E+00  .669E+00  .104E+01  .699E+00  .111E+01  .750E+00  .924E+00  .606E+00
  .757E+00  .539E+00  .480E+00  .773E+00  .421E+00  .641E+00  .915E+00  .586E+00
  .481E+00  .212E+00  .262E+00  .157E+00  .000E+00  .000E+00  .000E+00  .000E+00
  .000E+00  .000E+00  .000E+00  .000E+00  .000E+00  .000E+00  .000E+00  .000E+00
  .000E+00  .000E+00  .000E+00  .000E+00  .000E+00  .000E+00  .000E+00  .000E+00
  .000E+00  .000E+00  .000E+00  .000E+00  .000E+00  .000E+00  .000E+00  .000E+00
  .000E+00  .000E+00  .000E+00  .000E+00
  .146E+00  .101E+00  .102E+00  .145E+00  .167E+00  .232E+00  .355E+00  .330E+00
  .394E+00  .732E+00  .421E+00  .575E+00  .158E+01  .772E+00  .256E+01  .162E+01
  .283E+01  .236E+01  .229E+01  .272E+01  .270E+01  .244E+01  .175E+01  .939E+00
  .157E+01  .204E+01  .222E+01  .140E+01  .147E+01  .196E+01  .309E+01  .234E+01
  .136E+01  .215E+01  .302E+01  .483E+01  .307E+01  .584E+01  .190E+01  .372E+01
  .515E+01  .202E+01  .176E+01  .284E+01  .249E+01  .213E+01  .320E+01  .401E+01
  .649E+01  .444E+01  .661E+01  .400E+01  .589E+01  .383E+01  .419E+01  .255E+01
  .308E+01  .203E+01  .193E+01  .263E+01  .132E+01  .196E+01  .253E+01  .163E+01
  .147E+01  .754E+00  .729E+00  .728E+00  .000E+00  .000E+00  .000E+00  .000E+00
  .000E+00  .000E+00  .000E+00  .000E+00  .000E+00  .000E+00  .000E+00  .000E+00
  .000E+00  .000E+00  .000E+00  .000E+00  .000E+00  .000E+00  .000E+00  .000E+00
  .000E+00  .000E+00  .000E+00  .000E+00  .000E+00  .000E+00  .000E+00  .000E+00
  .000E+00  .000E+00  .000E+00  .000E+00
  .756E-01  .500E-01  .461E-01  .684E-01  .628E-01  .922E-01  .113E+00  .952E-01
  .104E+00  .176E+00  .106E+00  .120E+00  .305E+00  .146E+00  .442E+00  .265E+00
  .422E+00  .324E+00  .286E+00  .317E+00  .291E+00  .251E+00  .173E+00  .830E-01
  .138E+00  .164E+00  .166E+00  .985E-01  .922E-01  .120E+00  .170E+00  .121E+00
  .626E-01  .996E-01  .132E+00  .200E+00  .123E+00  .217E+00  .650E-01  .126E+00
  .170E+00  .617E-01  .483E-01  .717E-01  .594E-01  .463E-01  .631E-01  .768E-01
  .118E+00  .758E-01  .107E+00  .591E-01  .792E-01  .454E-01  .482E-01  .275E-01
  .303E-01  .191E-01  .152E-01  .219E-01  .108E-01  .135E-01  .162E-01  .886E-02
  .628E-02  .241E-02  .261E-02  .139E-02  .000E+00  .000E+00  .000E+00  .000E+00
  .000E+00  .000E+00  .000E+00  .000E+00  .000E+00  .000E+00  .000E+00  .000E+00
  .000E+00  .000E+00  .000E+00  .000E+00  .000E+00  .000E+00  .000E+00  .000E+00
  .000E+00  .000E+00  .000E+00  .000E+00  .000E+00  .000E+00  .000E+00  .000E+00
  .000E+00  .000E+00  .000E+00  .000E+00
  .186E+00  .129E+00  .125E+00  .193E+00  .185E+00  .283E+00  .383E+00  .351E+00
  .414E+00  .756E+00  .487E+00  .590E+00  .159E+01  .809E+00  .258E+01  .163E+01
  .285E+01  .239E+01  .229E+01  .272E+01  .268E+01  .246E+01  .180E+01  .918E+00
  .161E+01  .201E+01  .225E+01  .145E+01  .147E+01  .206E+01  .314E+01  .239E+01
  .131E+01  .220E+01  .309E+01  .491E+01  .317E+01  .587E+01  .184E+01  .373E+01
  .523E+01  .208E+01  .178E+01  .286E+01  .256E+01  .213E+01  .310E+01  .401E+01
  .653E+01  .442E+01  .655E+01  .400E+01  .584E+01  .362E+01  .415E+01  .254E+01
  .297E+01  .199E+01  .168E+01  .256E+01  .132E+01  .183E+01  .240E+01  .142E+01
  .108E+01  .444E+00  .514E+00  .290E+00  .000E+00  .000E+00  .000E+00  .000E+00
  .000E+00  .000E+00  .000E+00  .000E+00  .000E+00  .000E+00  .000E+00  .000E+00
  .000E+00  .000E+00  .000E+00  .000E+00  .000E+00  .000E+00  .000E+00  .000E+00
  .000E+00  .000E+00  .000E+00  .000E+00  .000E+00  .000E+00  .000E+00  .000E+00
  .000E+00  .000E+00  .000E+00  .000E+00
  .293E+02  .285E+02  .285E+02  .293E+02  .293E+02  .293E+02  .453E+02  .286E+02
  .559E+02  .489E+02  .287E+02  .303E+02  .425E+02  .284E+02  .489E+02  .453E+02
  .300E+02  .322E+02  .295E+02  .303E+02  .292E+02  .322E+02  .325E+02  .283E+02
  .321E+02  .298E+02  .358E+02  .497E+02  .364E+02  .381E+02  .580E+02  .618E+02
  .285E+02  .338E+02  .430E+02  .555E+02  .363E+02  .690E+02  .690E+02  .722E+02
  .651E+02  .513E+02  .337E+02  .386E+02  .678E+02  .386E+02  .351E+02  .523E+02
  .646E+02  .846E+02  .760E+02  .471E+02  .798E+02  .519E+02  .783E+02  .745E+02
  .507E+02  .778E+02  .545E+02  .683E+02  .873E+02  .684E+02  .659E+02  .619E+02
  .512E+02  .393E+02  .513E+02  .559E+02  .000E+00  .000E+00  .000E+00  .000E+00
  .000E+00  .000E+00  .000E+00  .000E+00  .000E+00  .000E+00  .000E+00  .000E+00
  .000E+00  .000E+00  .000E+00  .000E+00  .000E+00  .000E+00  .000E+00  .000E+00
  .000E+00  .000E+00  .000E+00  .000E+00  .000E+00  .000E+00  .000E+00  .000E+00
  .000E+00  .000E+00  .000E+00  .000E+00
  .326E+02  .289E+02  .382E+02  .293E+02  .307E+02  .296E+02  .461E+02  .296E+02
  .613E+02  .303E+02  .287E+02  .307E+02  .424E+02  .352E+02  .488E+02  .433E+02
  .301E+02  .323E+02  .297E+02  .303E+02  .292E+02  .323E+02  .325E+02  .283E+02
  .320E+02  .296E+02  .358E+02  .496E+02  .367E+02  .328E+02  .581E+02  .610E+02
  .285E+02  .339E+02  .431E+02  .554E+02  .364E+02  .689E+02  .319E+02  .721E+02
  .653E+02  .511E+02  .315E+02  .394E+02  .676E+02  .388E+02  .349E+02  .525E+02
  .648E+02  .490E+02  .757E+02  .474E+02  .795E+02  .516E+02  .786E+02  .749E+02
  .511E+02  .774E+02  .557E+02  .687E+02  .878E+02  .680E+02  .653E+02  .562E+02
  .516E+02  .443E+02  .451E+02  .451E+02  .000E+00  .000E+00  .000E+00  .000E+00
  .000E+00  .000E+00  .000E+00  .000E+00  .000E+00  .000E+00  .000E+00  .000E+00
  .000E+00  .000E+00  .000E+00  .000E+00  .000E+00  .000E+00  .000E+00  .000E+00
  .000E+00  .000E+00  .000E+00  .000E+00  .000E+00  .000E+00  .000E+00  .000E+00
  .000E+00  .000E+00  .000E+00  .000E+00
  .293E+02  .285E+02  .285E+02  .293E+02  .293E+02  .293E+02  .453E+02  .286E+02
  .559E+02  .489E+02  .287E+02  .303E+02  .425E+02  .284E+02  .489E+02  .453E+02
  .300E+02  .322E+02  .295E+02  .303E+02  .292E+02  .322E+02  .325E+02  .283E+02
  .321E+02  .298E+02  .358E+02  .497E+02  .364E+02  .381E+02  .580E+02  .618E+02
  .285E+02  .338E+02  .430E+02  .555E+02  .363E+02  .690E+02  .690E+02  .722E+02
  .651E+02  .513E+02  .337E+02  .386E+02  .678E+02  .386E+02  .351E+02  .523E+02
  .646E+02  .846E+02  .760E+02  .471E+02  .798E+02  .519E+02  .783E+02  .745E+02
  .507E+02  .778E+02  .545E+02  .683E+02  .873E+02  .684E+02  .659E+02  .619E+02
  .512E+02  .393E+02  .513E+02  .559E+02  .000E+00  .000E+00  .000E+00  .000E+00
  .000E+00  .000E+00  .000E+00  .000E+00  .000E+00  .000E+00  .000E+00  .000E+00
  .000E+00  .000E+00  .000E+00  .000E+00  .000E+00  .000E+00  .000E+00  .000E+00
  .000E+00  .000E+00  .000E+00  .000E+00  .000E+00  .000E+00  .000E+00  .000E+00
  .000E+00  .000E+00  .000E+00  .000E+00
Damping =  .02. Data of Sd,Sv,Sa,Pssv,ttSd,ttSv,ttSa :
  .661E-03  .735E-03  .814E-03  .925E-03  .107E-02  .116E-02  .189E-02  .232E-02
  .303E-02  .380E-02  .402E-02  .564E-02  .690E-02  .675E-02  .104E-01  .912E-02
  .197E-01  .176E-01  .286E-01  .240E-01  .377E-01  .352E-01  .297E-01  .301E-01
  .368E-01  .379E-01  .372E-01  .416E-01  .358E-01  .393E-01  .462E-01  .390E-01
  .500E-01  .530E-01  .685E-01  .879E-01  .954E-01  .889E-01  .831E-01  .928E-01
  .110E+00  .111E+00  .145E+00  .185E+00  .150E+00  .214E+00  .245E+00  .274E+00
  .274E+00  .314E+00  .429E+00  .375E+00  .476E+00  .442E+00  .500E+00  .332E+00
  .472E+00  .403E+00  .364E+00  .402E+00  .260E+00  .341E+00  .456E+00  .437E+00
  .321E+00  .185E+00  .213E+00  .147E+00  .000E+00  .000E+00  .000E+00  .000E+00
  .000E+00  .000E+00  .000E+00  .000E+00  .000E+00  .000E+00  .000E+00  .000E+00
  .000E+00  .000E+00  .000E+00  .000E+00  .000E+00  .000E+00  .000E+00  .000E+00
  .000E+00  .000E+00  .000E+00  .000E+00  .000E+00  .000E+00  .000E+00  .000E+00
  .000E+00  .000E+00  .000E+00  .000E+00
  .540E-01  .466E-01  .558E-01  .693E-01  .735E-01  .843E-01  .149E+00  .189E+00
  .207E+00  .255E+00  .280E+00  .396E+00  .497E+00  .408E+00  .653E+00  .517E+00
  .107E+01  .872E+00  .138E+01  .105E+01  .163E+01  .141E+01  .117E+01  .113E+01
  .129E+01  .115E+01  .112E+01  .122E+01  .979E+00  .103E+01  .121E+01  .894E+00
  .963E+00  .966E+00  .110E+01  .134E+01  .148E+01  .132E+01  .120E+01  .123E+01
  .144E+01  .123E+01  .154E+01  .177E+01  .134E+01  .181E+01  .196E+01  .205E+01
  .202E+01  .204E+01  .271E+01  .216E+01  .259E+01  .233E+01  .248E+01  .138E+01
  .216E+01  .157E+01  .157E+01  .142E+01  .935E+00  .120E+01  .138E+01  .132E+01
  .117E+01  .753E+00  .719E+00  .720E+00  .000E+00  .000E+00  .000E+00  .000E+00
  .000E+00  .000E+00  .000E+00  .000E+00  .000E+00  .000E+00  .000E+00  .000E+00
  .000E+00  .000E+00  .000E+00  .000E+00  .000E+00  .000E+00  .000E+00  .000E+00
  .000E+00  .000E+00  .000E+00  .000E+00  .000E+00  .000E+00  .000E+00  .000E+00
  .000E+00  .000E+00  .000E+00  .000E+00
  .423E-01  .428E-01  .431E-01  .448E-01  .476E-01  .474E-01  .637E-01  .660E-01
  .736E-01  .793E-01  .735E-01  .906E-01  .975E-01  .852E-01  .118E+00  .931E-01
  .167E+00  .124E+00  .175E+00  .126E+00  .170E+00  .140E+00  .106E+00  .950E-01
  .105E+00  .966E-01  .785E-01  .739E-01  .544E-01  .511E-01  .527E-01  .389E-01
  .443E-01  .418E-01  .485E-01  .561E-01  .553E-01  .470E-01  .402E-01  .413E-01
  .450E-01  .375E-01  .410E-01  .449E-01  .313E-01  .390E-01  .391E-01  .389E-01
  .346E-01  .356E-01  .440E-01  .317E-01  .338E-01  .268E-01  .261E-01  .151E-01
  .189E-01  .143E-01  .115E-01  .114E-01  .665E-02  .722E-02  .810E-02  .663E-02
  .419E-02  .211E-02  .213E-02  .130E-02  .000E+00  .000E+00  .000E+00  .000E+00
  .000E+00  .000E+00  .000E+00  .000E+00  .000E+00  .000E+00  .000E+00  .000E+00
  .000E+00  .000E+00  .000E+00  .000E+00  .000E+00  .000E+00  .000E+00  .000E+00
  .000E+00  .000E+00  .000E+00  .000E+00  .000E+00  .000E+00  .000E+00  .000E+00
  .000E+00  .000E+00  .000E+00  .000E+00
  .104E+00  .110E+00  .116E+00  .126E+00  .140E+00  .146E+00  .216E+00  .243E+00
  .293E+00  .341E+00  .337E+00  .443E+00  .510E+00  .471E+00  .689E+00  .573E+00
  .113E+01  .921E+00  .138E+01  .108E+01  .158E+01  .138E+01  .110E+01  .105E+01
  .122E+01  .119E+01  .106E+01  .109E+01  .865E+00  .882E+00  .968E+00  .767E+00
  .925E+00  .926E+00  .113E+01  .138E+01  .143E+01  .127E+01  .114E+01  .121E+01
  .138E+01  .127E+01  .151E+01  .179E+01  .134E+01  .179E+01  .192E+01  .203E+01
  .191E+01  .208E+01  .270E+01  .214E+01  .249E+01  .214E+01  .224E+01  .139E+01
  .185E+01  .149E+01  .127E+01  .133E+01  .816E+00  .975E+00  .119E+01  .106E+01
  .720E+00  .387E+00  .417E+00  .271E+00  .000E+00  .000E+00  .000E+00  .000E+00
  .000E+00  .000E+00  .000E+00  .000E+00  .000E+00  .000E+00  .000E+00  .000E+00
  .000E+00  .000E+00  .000E+00  .000E+00  .000E+00  .000E+00  .000E+00  .000E+00
  .000E+00  .000E+00  .000E+00  .000E+00  .000E+00  .000E+00  .000E+00  .000E+00
  .000E+00  .000E+00  .000E+00  .000E+00
  .293E+02  .293E+02  .293E+02  .285E+02  .285E+02  .285E+02  .286E+02  .293E+02
  .287E+02  .293E+02  .287E+02  .299E+02  .300E+02  .293E+02  .293E+02  .288E+02
  .288E+02  .294E+02  .294E+02  .299E+02  .292E+02  .289E+02  .288E+02  .288E+02
  .287E+02  .295E+02  .294E+02  .288E+02  .287E+02  .287E+02  .287E+02  .285E+02
  .285E+02  .323E+02  .270E+02  .271E+02  .271E+02  .272E+02  .319E+02  .406E+02
  .406E+02  .560E+02  .400E+02  .458E+02  .459E+02  .595E+02  .343E+02  .523E+02
  .579E+02  .459E+02  .535E+02  .466E+02  .563E+02  .507E+02  .452E+02  .579E+02
  .452E+02  .453E+02  .453E+02  .683E+02  .440E+02  .675E+02  .576E+02  .558E+02
  .497E+02  .513E+02  .513E+02  .559E+02  .000E+00  .000E+00  .000E+00  .000E+00
  .000E+00  .000E+00  .000E+00  .000E+00  .000E+00  .000E+00  .000E+00  .000E+00
  .000E+00  .000E+00  .000E+00  .000E+00  .000E+00  .000E+00  .000E+00  .000E+00
  .000E+00  .000E+00  .000E+00  .000E+00  .000E+00  .000E+00  .000E+00  .000E+00
  .000E+00  .000E+00  .000E+00  .000E+00
  .293E+02  .293E+02  .293E+02  .285E+02  .285E+02  .285E+02  .286E+02  .294E+02
  .287E+02  .293E+02  .287E+02  .298E+02  .299E+02  .294E+02  .294E+02  .287E+02
  .288E+02  .294E+02  .295E+02  .293E+02  .292E+02  .289E+02  .288E+02  .288E+02
  .288E+02  .294E+02  .293E+02  .287E+02  .287E+02  .286E+02  .286E+02  .285E+02
  .285E+02  .322E+02  .271E+02  .272E+02  .284E+02  .270E+02  .318E+02  .407E+02
  .405E+02  .561E+02  .399E+02  .456E+02  .460E+02  .594E+02  .348E+02  .521E+02
  .581E+02  .462E+02  .533E+02  .469E+02  .519E+02  .516E+02  .455E+02  .582E+02
  .455E+02  .450E+02  .450E+02  .450E+02  .680E+02  .680E+02  .654E+02  .561E+02
  .516E+02  .516E+02  .451E+02  .451E+02  .000E+00  .000E+00  .000E+00  .000E+00
  .000E+00  .000E+00  .000E+00  .000E+00  .000E+00  .000E+00  .000E+00  .000E+00
  .000E+00  .000E+00  .000E+00  .000E+00  .000E+00  .000E+00  .000E+00  .000E+00
  .000E+00  .000E+00  .000E+00  .000E+00  .000E+00  .000E+00  .000E+00  .000E+00
  .000E+00  .000E+00  .000E+00  .000E+00
  .293E+02  .293E+02  .293E+02  .285E+02  .285E+02  .285E+02  .286E+02  .293E+02
  .287E+02  .293E+02  .287E+02  .299E+02  .300E+02  .293E+02  .293E+02  .288E+02
  .288E+02  .294E+02  .294E+02  .299E+02  .292E+02  .289E+02  .288E+02  .288E+02
  .287E+02  .295E+02  .294E+02  .288E+02  .287E+02  .287E+02  .287E+02  .285E+02
