Response and Fourier amplitude spectra (68 periods,  .04 -  3.4 sec)   for      
Corrected accelerogram   23169-L2391-08211.01       Chan  1: 360 Deg     from   
Uncorrected Accelerogram Data             Processed: 08/19/08, CDMG  ce23169p   
Record of Tue Jul 29, 2008 11:42:08.0 PDT             (Avol1 v7.9 7/08 CSMIP)   
CSMIP Preliminary Processing            (Origin:  To be determined)             
23169-L2391-08211.01                 Start time:  7/29/08, 18:42:08.0 UTC (GPS) 
Station No. 23169   34.074N, 117.183W      Etna  s/n 2391  (3 Channels)         
Redlands - Orange & Pennsylvania          CGS                                   
Chan  1: 360 Deg                                                                
Record of Tue Jul 29, 2008 11:42:08.0 PDT    Tue Jul 29, 2008 11:42:08.0 PDT    
Hypocenter:  To be determined.               ML:  To be determined.             
Instr Period =  .0107 sec,  Damping =  .670,  Sensitivity =  .63  v/g           
                        Record length = 62.000 sec.                             
                                     Uncor Max  =  -.024 g , at  25.320 sec.    
RMS accel of (uncor) record  =        .   Chn. metadata effective date: 06/03/02
Accelerogram bandpass filtered with 3 dB pts at   .30 and 40.00 cyc/sec         
                 instrument- and baseline-corrected                             
                                                                                
                                                                                
                                                                                
                                                                                
                                                                                
Record of Tue Jul 29, 2008 11:42:08.0 PDT    Tue Jul 29, 2008 11:42:08.0 PDT    
                                                                                
23169-L2391-08211.01      Redlands - Orange & Pennsylvania    Chan  1: 360 Deg  
                                                                                
23169-L2391-08211.01      Redlands - Orange & Pennsylvania    Chan  1: 360 Deg  
                                                                                
Units for spectra are inches and sec, except Sa is in fraction of g.            
                                                                                
    1  100    1    4    3  200    1    3    1   24   12 2391    023169    1    0
   18   42    8    0  211    7   29 2008   10    3  36012400   41   32   76  360
12400    1   50    3 2391    1    1  620    2    0    0    0    0    0    0    0
    0    4    0    012400    1  202    0   18    4   76   32    1    1    012400
    312400   33   68    5    3    5    0    0    0    3    0    0    3    0    2
    2    2    4    0   32   99 -999   32   32    0    0    1    0    0    0  222
    1    0    3    0
      .011      .670    62.000      .003      .000   627.000     -.024    25.320
    93.800      .298      .477      .000     5.000      .000     3.987      .000
     2.500    21.741     2.500  -999.000    25.000    30.000      .000     -.003
      .009      .012     2.000    15.000    34.074  -117.183      .022      .755
    34.316     -.023      .048   408.000    25.100    31.100    13.300    91.760
     1.000     1.586      .000      .000      .000      .000      .000      .000
     4.400     7.900     4.600   980.665      .005    62.000    14.929      .000
      .000    40.000      .000    62.000      .005      .303      .000      .000
    25.315   -23.619    24.945     1.365    24.835     -.152      .000      .303
    40.000      .005      .005      .000      .005      .052      .000      .000
      .101      .120      .043      .079      .013      .001      .000      .000
      .000      .000      .000      .000      .000      .000      .000      .000
      .000      .000      .000      .000
      .000      .020      .050      .100      .200
      .040      .042      .044      .046      .048      .050      .055      .060
      .065      .070      .075      .080      .085      .090      .095      .100
      .110      .120      .130      .140      .150      .160      .170      .180
      .190      .200      .220      .240      .260      .280      .300      .320
      .340      .360      .380      .400      .420      .440      .460      .480
      .500      .550      .600      .650      .700      .750      .800      .850
      .900      .950     1.000     1.100     1.200     1.300     1.400     1.500
     1.600     1.700     1.800     1.900     2.000     2.200     2.400     2.600
     2.800     3.000     3.200     3.400      .000      .000      .000      .000
      .000      .000      .000      .000      .000      .000      .000      .000
      .000      .000      .000      .000      .000      .000      .000      .000
      .000      .000      .000      .000      .000      .000      .000      .000
      .000      .000      .000      .000
Fourier amplitude spectra in in/sec.
  .340E-01  .769E-01  .261E-01  .102E+00  .694E-01  .793E-01  .825E-01  .102E+00
  .674E-01  .349E+00  .541E-01  .612E+00  .323E+00  .491E+00  .396E+00  .392E+00
  .801E+00  .780E+00  .128E+01  .232E+01  .213E+01  .934E+00  .859E+00  .993E+00
  .715E+00  .988E-01  .132E+01  .122E+01  .223E+01  .209E+01  .225E+01  .317E+01
  .417E+01  .302E+01  .516E+01  .265E+01  .161E+01  .112E+01  .447E+00  .167E+01
  .644E+00  .887E+00  .296E+01  .298E+01  .146E+01  .158E+01  .555E+00  .741E+00
  .388E+01  .502E+00  .109E+01  .171E+01  .944E+00  .180E+01  .166E+01  .914E+00
  .999E+00  .999E-01  .478E+00  .288E+00  .472E+00  .350E+00  .146E+00  .965E-01
  .195E+00  .188E+00  .109E+00  .727E-01  .000E+00  .000E+00  .000E+00  .000E+00
  .000E+00  .000E+00  .000E+00  .000E+00  .000E+00  .000E+00  .000E+00  .000E+00
  .000E+00  .000E+00  .000E+00  .000E+00  .000E+00  .000E+00  .000E+00  .000E+00
  .000E+00  .000E+00  .000E+00  .000E+00  .000E+00  .000E+00  .000E+00  .000E+00
  .000E+00  .000E+00  .000E+00  .000E+00
Damping =  .00. Data of Sd,Sv,Sa,Pssv,ttSd,ttSv,ttSa :
  .658E-03  .665E-03  .554E-03  .985E-03  .859E-03  .106E-02  .141E-02  .238E-02
  .243E-02  .632E-02  .355E-02  .819E-02  .709E-02  .942E-02  .120E-01  .800E-02
  .197E-01  .292E-01  .339E-01  .590E-01  .542E-01  .503E-01  .515E-01  .346E-01
  .410E-01  .372E-01  .505E-01  .667E-01  .100E+00  .934E-01  .133E+00  .164E+00
  .258E+00  .193E+00  .321E+00  .194E+00  .113E+00  .101E+00  .803E-01  .127E+00
  .627E-01  .952E-01  .299E+00  .348E+00  .192E+00  .200E+00  .147E+00  .164E+00
  .573E+00  .172E+00  .202E+00  .299E+00  .240E+00  .384E+00  .404E+00  .356E+00
  .301E+00  .130E+00  .146E+00  .141E+00  .151E+00  .123E+00  .888E-01  .948E-01
  .960E-01  .107E+00  .766E-01  .706E-01  .000E+00  .000E+00  .000E+00  .000E+00
  .000E+00  .000E+00  .000E+00  .000E+00  .000E+00  .000E+00  .000E+00  .000E+00
  .000E+00  .000E+00  .000E+00  .000E+00  .000E+00  .000E+00  .000E+00  .000E+00
  .000E+00  .000E+00  .000E+00  .000E+00  .000E+00  .000E+00  .000E+00  .000E+00
  .000E+00  .000E+00  .000E+00  .000E+00
  .558E-01  .815E-01  .346E-01  .117E+00  .824E-01  .100E+00  .100E+00  .216E+00
  .215E+00  .543E+00  .292E+00  .630E+00  .501E+00  .634E+00  .757E+00  .426E+00
  .106E+01  .144E+01  .160E+01  .260E+01  .225E+01  .200E+01  .188E+01  .119E+01
  .132E+01  .115E+01  .141E+01  .173E+01  .241E+01  .209E+01  .278E+01  .322E+01
  .475E+01  .337E+01  .539E+01  .302E+01  .168E+01  .144E+01  .118E+01  .167E+01
  .975E+00  .109E+01  .312E+01  .338E+01  .174E+01  .166E+01  .140E+01  .142E+01
  .401E+01  .116E+01  .137E+01  .171E+01  .136E+01  .186E+01  .182E+01  .155E+01
  .121E+01  .764E+00  .715E+00  .696E+00  .687E+00  .635E+00  .601E+00  .591E+00
  .583E+00  .580E+00  .578E+00  .574E+00  .000E+00  .000E+00  .000E+00  .000E+00
  .000E+00  .000E+00  .000E+00  .000E+00  .000E+00  .000E+00  .000E+00  .000E+00
  .000E+00  .000E+00  .000E+00  .000E+00  .000E+00  .000E+00  .000E+00  .000E+00
  .000E+00  .000E+00  .000E+00  .000E+00  .000E+00  .000E+00  .000E+00  .000E+00
  .000E+00  .000E+00  .000E+00  .000E+00
  .421E-01  .386E-01  .293E-01  .476E-01  .381E-01  .432E-01  .476E-01  .677E-01
  .589E-01  .132E+00  .646E-01  .131E+00  .100E+00  .119E+00  .136E+00  .818E-01
  .167E+00  .207E+00  .205E+00  .308E+00  .246E+00  .201E+00  .182E+00  .109E+00
  .116E+00  .952E-01  .107E+00  .118E+00  .152E+00  .122E+00  .152E+00  .164E+00
  .229E+00  .152E+00  .227E+00  .124E+00  .655E-01  .535E-01  .388E-01  .565E-01
  .256E-01  .322E-01  .849E-01  .843E-01  .402E-01  .364E-01  .234E-01  .232E-01
  .724E-01  .195E-01  .207E-01  .253E-01  .171E-01  .232E-01  .211E-01  .162E-01
  .120E-01  .458E-02  .461E-02  .400E-02  .386E-02  .259E-02  .158E-02  .143E-02
  .125E-02  .122E-02  .765E-03  .624E-03  .000E+00  .000E+00  .000E+00  .000E+00
  .000E+00  .000E+00  .000E+00  .000E+00  .000E+00  .000E+00  .000E+00  .000E+00
  .000E+00  .000E+00  .000E+00  .000E+00  .000E+00  .000E+00  .000E+00  .000E+00
  .000E+00  .000E+00  .000E+00  .000E+00  .000E+00  .000E+00  .000E+00  .000E+00
  .000E+00  .000E+00  .000E+00  .000E+00
  .103E+00  .995E-01  .792E-01  .134E+00  .112E+00  .133E+00  .161E+00  .249E+00
  .235E+00  .567E+00  .297E+00  .643E+00  .524E+00  .657E+00  .793E+00  .503E+00
  .113E+01  .153E+01  .164E+01  .265E+01  .227E+01  .198E+01  .191E+01  .121E+01
  .136E+01  .117E+01  .144E+01  .175E+01  .242E+01  .210E+01  .279E+01  .322E+01
  .477E+01  .337E+01  .530E+01  .305E+01  .169E+01  .145E+01  .110E+01  .167E+01
  .787E+00  .109E+01  .313E+01  .337E+01  .173E+01  .168E+01  .115E+01  .121E+01
  .400E+01  .114E+01  .127E+01  .171E+01  .126E+01  .186E+01  .181E+01  .149E+01
  .118E+01  .479E+00  .510E+00  .467E+00  .475E+00  .350E+00  .232E+00  .229E+00
  .215E+00  .224E+00  .150E+00  .130E+00  .000E+00  .000E+00  .000E+00  .000E+00
  .000E+00  .000E+00  .000E+00  .000E+00  .000E+00  .000E+00  .000E+00  .000E+00
  .000E+00  .000E+00  .000E+00  .000E+00  .000E+00  .000E+00  .000E+00  .000E+00
  .000E+00  .000E+00  .000E+00  .000E+00  .000E+00  .000E+00  .000E+00  .000E+00
  .000E+00  .000E+00  .000E+00  .000E+00
  .257E+02  .267E+02  .257E+02  .297E+02  .267E+02  .268E+02  .268E+02  .297E+02
  .268E+02  .286E+02  .273E+02  .396E+02  .288E+02  .378E+02  .297E+02  .257E+02
  .268E+02  .267E+02  .261E+02  .293E+02  .472E+02  .265E+02  .304E+02  .473E+02
  .299E+02  .278E+02  .365E+02  .305E+02  .416E+02  .602E+02  .357E+02  .588E+02
  .370E+02  .265E+02  .296E+02  .320E+02  .566E+02  .339E+02  .257E+02  .618E+02
  .252E+02  .413E+02  .530E+02  .445E+02  .520E+02  .487E+02  .255E+02  .450E+02
  .493E+02  .410E+02  .361E+02  .610E+02  .436E+02  .575E+02  .477E+02  .363E+02
  .417E+02  .300E+02  .547E+02  .391E+02  .584E+02  .619E+02  .338E+02  .338E+02
  .528E+02  .495E+02  .472E+02  .396E+02  .000E+00  .000E+00  .000E+00  .000E+00
  .000E+00  .000E+00  .000E+00  .000E+00  .000E+00  .000E+00  .000E+00  .000E+00
  .000E+00  .000E+00  .000E+00  .000E+00  .000E+00  .000E+00  .000E+00  .000E+00
  .000E+00  .000E+00  .000E+00  .000E+00  .000E+00  .000E+00  .000E+00  .000E+00
  .000E+00  .000E+00  .000E+00  .000E+00
  .257E+02  .326E+02  .277E+02  .293E+02  .284E+02  .285E+02  .268E+02  .298E+02
  .306E+02  .286E+02  .273E+02  .396E+02  .291E+02  .378E+02  .293E+02  .538E+02
  .262E+02  .267E+02  .261E+02  .293E+02  .472E+02  .265E+02  .306E+02  .473E+02
  .298E+02  .278E+02  .364E+02  .307E+02  .415E+02  .607E+02  .306E+02  .588E+02
  .369E+02  .264E+02  .295E+02  .323E+02  .565E+02  .327E+02  .258E+02  .619E+02
  .251E+02  .414E+02  .543E+02  .466E+02  .522E+02  .486E+02  .256E+02  .256E+02
  .496E+02  .268E+02  .358E+02  .607E+02  .439E+02  .572E+02  .480E+02  .366E+02
  .413E+02  .249E+02  .249E+02  .249E+02  .249E+02  .249E+02  .249E+02  .249E+02
  .249E+02  .249E+02  .249E+02  .249E+02  .000E+00  .000E+00  .000E+00  .000E+00
  .000E+00  .000E+00  .000E+00  .000E+00  .000E+00  .000E+00  .000E+00  .000E+00
  .000E+00  .000E+00  .000E+00  .000E+00  .000E+00  .000E+00  .000E+00  .000E+00
  .000E+00  .000E+00  .000E+00  .000E+00  .000E+00  .000E+00  .000E+00  .000E+00
  .000E+00  .000E+00  .000E+00  .000E+00
  .257E+02  .267E+02  .257E+02  .297E+02  .267E+02  .268E+02  .268E+02  .297E+02
  .268E+02  .286E+02  .273E+02  .396E+02  .288E+02  .378E+02  .297E+02  .257E+02
  .268E+02  .267E+02  .261E+02  .293E+02  .472E+02  .265E+02  .304E+02  .473E+02
  .299E+02  .278E+02  .365E+02  .305E+02  .416E+02  .602E+02  .357E+02  .588E+02
  .370E+02  .265E+02  .296E+02  .320E+02  .566E+02  .339E+02  .257E+02  .618E+02
  .252E+02  .413E+02  .530E+02  .445E+02  .520E+02  .487E+02  .255E+02  .450E+02
  .493E+02  .410E+02  .361E+02  .610E+02  .436E+02  .575E+02  .477E+02  .363E+02
  .417E+02  .300E+02  .547E+02  .391E+02  .584E+02  .619E+02  .338E+02  .338E+02
  .528E+02  .495E+02  .472E+02  .396E+02  .000E+00  .000E+00  .000E+00  .000E+00
  .000E+00  .000E+00  .000E+00  .000E+00  .000E+00  .000E+00  .000E+00  .000E+00
  .000E+00  .000E+00  .000E+00  .000E+00  .000E+00  .000E+00  .000E+00  .000E+00
  .000E+00  .000E+00  .000E+00  .000E+00  .000E+00  .000E+00  .000E+00  .000E+00
  .000E+00  .000E+00  .000E+00  .000E+00
Damping =  .02. Data of Sd,Sv,Sa,Pssv,ttSd,ttSv,ttSa :
  .423E-03  .478E-03  .472E-03  .523E-03  .589E-03  .756E-03  .892E-03  .101E-02
  .154E-02  .208E-02  .246E-02  .287E-02  .352E-02  .407E-02  .432E-02  .638E-02
  .125E-01  .191E-01  .234E-01  .252E-01  .220E-01  .266E-01  .182E-01  .202E-01
  .230E-01  .209E-01  .209E-01  .347E-01  .515E-01  .664E-01  .909E-01  .109E+00
  .129E+00  .132E+00  .147E+00  .116E+00  .808E-01  .642E-01  .576E-01  .826E-01
  .727E-01  .705E-01  .107E+00  .138E+00  .124E+00  .125E+00  .132E+00  .141E+00
  .163E+00  .130E+00  .141E+00  .158E+00  .135E+00  .182E+00  .217E+00  .222E+00
  .164E+00  .113E+00  .999E-01  .999E-01  .930E-01  .795E-01  .818E-01  .842E-01
  .712E-01  .773E-01  .692E-01  .681E-01  .000E+00  .000E+00  .000E+00  .000E+00
  .000E+00  .000E+00  .000E+00  .000E+00  .000E+00  .000E+00  .000E+00  .000E+00
  .000E+00  .000E+00  .000E+00  .000E+00  .000E+00  .000E+00  .000E+00  .000E+00
  .000E+00  .000E+00  .000E+00  .000E+00  .000E+00  .000E+00  .000E+00  .000E+00
  .000E+00  .000E+00  .000E+00  .000E+00
  .272E-01  .340E-01  .272E-01  .319E-01  .304E-01  .391E-01  .500E-01  .719E-01
  .964E-01  .148E+00  .143E+00  .162E+00  .171E+00  .193E+00  .214E+00  .309E+00
  .648E+00  .966E+00  .110E+01  .111E+01  .890E+00  .106E+01  .739E+00  .643E+00
  .702E+00  .632E+00  .597E+00  .890E+00  .123E+01  .143E+01  .177E+01  .200E+01
  .227E+01  .237E+01  .249E+01  .184E+01  .134E+01  .106E+01  .942E+00  .119E+01
  .109E+01  .102E+01  .123E+01  .139E+01  .121E+01  .131E+01  .133E+01  .129E+01
  .116E+01  .107E+01  .111E+01  .976E+00  .883E+00  .935E+00  .103E+01  .929E+00
  .794E+00  .757E+00  .718E+00  .697E+00  .683E+00  .639E+00  .607E+00  .594E+00
  .586E+00  .582E+00  .579E+00  .576E+00  .000E+00  .000E+00  .000E+00  .000E+00
  .000E+00  .000E+00  .000E+00  .000E+00  .000E+00  .000E+00  .000E+00  .000E+00
  .000E+00  .000E+00  .000E+00  .000E+00  .000E+00  .000E+00  .000E+00  .000E+00
  .000E+00  .000E+00  .000E+00  .000E+00  .000E+00  .000E+00  .000E+00  .000E+00
  .000E+00  .000E+00  .000E+00  .000E+00
  .270E-01  .277E-01  .249E-01  .253E-01  .262E-01  .309E-01  .302E-01  .288E-01
  .374E-01  .433E-01  .446E-01  .458E-01  .500E-01  .515E-01  .490E-01  .651E-01
  .106E+00  .136E+00  .141E+00  .131E+00  .100E+00  .106E+00  .643E-01  .640E-01
  .650E-01  .537E-01  .442E-01  .616E-01  .781E-01  .868E-01  .103E+00  .109E+00
  .114E+00  .104E+00  .104E+00  .744E-01  .469E-01  .339E-01  .279E-01  .367E-01
  .298E-01  .239E-01  .304E-01  .334E-01  .259E-01  .228E-01  .212E-01  .200E-01
  .206E-01  .148E-01  .145E-01  .134E-01  .960E-02  .110E-01  .114E-01  .101E-01
  .657E-02  .401E-02  .317E-02  .283E-02  .240E-02  .170E-02  .146E-02  .128E-02
  .932E-03  .880E-03  .711E-03  .622E-03  .000E+00  .000E+00  .000E+00  .000E+00
  .000E+00  .000E+00  .000E+00  .000E+00  .000E+00  .000E+00  .000E+00  .000E+00
  .000E+00  .000E+00  .000E+00  .000E+00  .000E+00  .000E+00  .000E+00  .000E+00
  .000E+00  .000E+00  .000E+00  .000E+00  .000E+00  .000E+00  .000E+00  .000E+00
  .000E+00  .000E+00  .000E+00  .000E+00
  .664E-01  .715E-01  .674E-01  .714E-01  .772E-01  .950E-01  .102E+00  .106E+00
  .149E+00  .187E+00  .206E+00  .225E+00  .260E+00  .284E+00  .285E+00  .401E+00
  .714E+00  .100E+01  .113E+01  .113E+01  .924E+00  .105E+01  .672E+00  .706E+00
  .760E+00  .658E+00  .597E+00  .909E+00  .125E+01  .149E+01  .190E+01  .214E+01
  .238E+01  .230E+01  .243E+01  .183E+01  .121E+01  .916E+00  .787E+00  .108E+01
  .914E+00  .806E+00  .112E+01  .133E+01  .111E+01  .105E+01  .104E+01  .104E+01
  .114E+01  .861E+00  .886E+00  .905E+00  .707E+00  .878E+00  .975E+00  .929E+00
  .645E+00  .417E+00  .349E+00  .330E+00  .292E+00  .227E+00  .214E+00  .204E+00
  .160E+00  .162E+00  .136E+00  .126E+00  .000E+00  .000E+00  .000E+00  .000E+00
  .000E+00  .000E+00  .000E+00  .000E+00  .000E+00  .000E+00  .000E+00  .000E+00
  .000E+00  .000E+00  .000E+00  .000E+00  .000E+00  .000E+00  .000E+00  .000E+00
  .000E+00  .000E+00  .000E+00  .000E+00  .000E+00  .000E+00  .000E+00  .000E+00
  .000E+00  .000E+00  .000E+00  .000E+00
  .257E+02  .253E+02  .253E+02  .253E+02  .267E+02  .268E+02  .268E+02  .257E+02
  .253E+02  .253E+02  .253E+02  .257E+02  .257E+02  .257E+02  .257E+02  .257E+02
  .259E+02  .260E+02  .261E+02  .271E+02  .269E+02  .265E+02  .258E+02  .284E+02
  .269E+02  .269E+02  .263E+02  .305E+02  .299E+02  .254E+02  .254E+02  .257E+02
  .259E+02  .265E+02  .289E+02  .270E+02  .257E+02  .252E+02  .257E+02  .252E+02
  .252E+02  .252E+02  .290E+02  .286E+02  .257E+02  .258E+02  .255E+02  .255E+02
  .255E+02  .255E+02  .255E+02  .267E+02  .268E+02  .425E+02  .421E+02  .348E+02
  .416E+02  .284E+02  .253E+02  .381E+02  .253E+02  .253E+02  .338E+02  .338E+02
  .329E+02  .403E+02  .253E+02  .253E+02  .000E+00  .000E+00  .000E+00  .000E+00
  .000E+00  .000E+00  .000E+00  .000E+00  .000E+00  .000E+00  .000E+00  .000E+00
  .000E+00  .000E+00  .000E+00  .000E+00  .000E+00  .000E+00  .000E+00  .000E+00
  .000E+00  .000E+00  .000E+00  .000E+00  .000E+00  .000E+00  .000E+00  .000E+00
  .000E+00  .000E+00  .000E+00  .000E+00
  .258E+02  .258E+02  .258E+02  .258E+02  .258E+02  .267E+02  .268E+02  .287E+02
  .268E+02  .258E+02  .258E+02  .258E+02  .257E+02  .295E+02  .293E+02  .257E+02
  .259E+02  .260E+02  .260E+02  .271E+02  .269E+02  .265E+02  .258E+02  .285E+02
  .269E+02  .269E+02  .262E+02  .304E+02  .300E+02  .254E+02  .254E+02  .260E+02
  .257E+02  .264E+02  .288E+02  .269E+02  .252E+02  .251E+02  .253E+02  .253E+02
  .251E+02  .251E+02  .270E+02  .287E+02  .256E+02  .256E+02  .256E+02  .256E+02
  .396E+02  .268E+02  .268E+02  .255E+02  .255E+02  .255E+02  .418E+02  .344E+02
  .249E+02  .249E+02  .249E+02  .249E+02  .249E+02  .249E+02  .249E+02  .249E+02
  .249E+02  .249E+02  .249E+02  .249E+02  .000E+00  .000E+00  .000E+00  .000E+00
  .000E+00  .000E+00  .000E+00  .000E+00  .000E+00  .000E+00  .000E+00  .000E+00
  .000E+00  .000E+00  .000E+00  .000E+00  .000E+00  .000E+00  .000E+00  .000E+00
  .000E+00  .000E+00  .000E+00  .000E+00  .000E+00  .000E+00  .000E+00  .000E+00
  .000E+00  .000E+00  .000E+00  .000E+00
  .257E+02  .253E+02  .253E+02  .253E+02  .267E+02  .268E+02  .268E+02  .257E+02
  .253E+02  .253E+02  .253E+02  .257E+02  .257E+02  .257E+02  .257E+02  .257E+02
  .259E+02  .260E+02  .261E+02  .271E+02  .269E+02  .265E+02  .258E+02  .284E+02
  .269E+02  .269E+02  .263E+02  .305E+02  .299E+02  .254E+02  .254E+02  .257E+02
