Response and Fourier amplitude spectra (68 periods,  .04 -  3.4 sec)   for      
Corrected accelerogram   24983-L1785-08211.02       Chan  1:   7 Deg     from   
Uncorrected Accelerogram Data             Processed: 08/19/08, CDMG  983bc002   
Record of Tue Jul 29, 2008 11:42:09.0 PDT             (Avol1 v7.9 7/08 CSMIP)   
CSMIP Preliminary Processing            (Origin:  To be determined)             
24983-L1785-08211.02                 Start time:  7/29/08, 18:42:09.0 UTC (GPS) 
Station No. 24983   34.051N, 118.384W      Etna  s/n 1785  (3 Channels)         
Los Angeles - Robertson & Pickford        CGS                                   
Chan  1:   7 Deg                                                                
Record of Tue Jul 29, 2008 11:42:09.0 PDT    Tue Jul 29, 2008 11:42:09.0 PDT    
Hypocenter:  To be determined.               ML:  To be determined.             
Instr Period =  .0110 sec,  Damping =  .650,  Sensitivity =  .63  v/g           
                        Record length = 74.000 sec.                             
                                     Uncor Max  =   .056 g , at  26.105 sec.    
RMS accel of (uncor) record  =        .   Chn. metadata effective date: 05/09/02
Accelerogram bandpass filtered with 3 dB pts at   .30 and 40.00 cyc/sec         
                 instrument- and baseline-corrected                             
                                                                                
                                                                                
                                                                                
                                                                                
                                                                                
Record of Tue Jul 29, 2008 11:42:09.0 PDT    Tue Jul 29, 2008 11:42:09.0 PDT    
                                                                                
24983-L1785-08211.02      Los Angeles - Robertson & Pickford    Chan  1:   7 Deg
                                                                                
24983-L1785-08211.02      Los Angeles - Robertson & Pickford    Chan  1:   7 Deg
                                                                                
Units for spectra are inches and sec, except Sa is in fraction of g.            
                                                                                
    1  100    1    4    3  200    1    3    1   24   12 1785    024983    1    0
   18   42    9    0  211    7   29 2008   10    3    714800   41   34   76    7
14800    1   50    3 1785    1    2  740    2    0    0    0    0    0    0    0
    0    4    0    014800    1  202    0   18    4   76   34    1    1    014800
    314800   35   68    5    3    5    0    0    0    3    0    0    3    0    2
    2    2    4    0   32   99 -999   32   32    0    3    1    0    0    0  222
    1    0    5    0
      .011      .650    74.000      .005      .000   627.000      .056    26.105
    91.000      .298      .477      .000     5.000      .000     3.987      .000
     2.500     1.014     2.500  -999.000    25.000    30.000      .000      .003
     -.012     -.014     2.000    15.000    34.051  -118.384      .027     1.359
    50.881     -.078      .050    40.000    25.900    42.900    13.500    84.560
     1.000     1.010      .000      .000      .000      .000      .000      .000
     4.400     7.900     4.600   980.665      .005    74.000    14.483      .000
      .000    40.000      .000    74.000      .005      .303      .000      .000
    26.100    54.322    26.275     4.794    26.120     -.726      .000      .303
    40.000      .005      .005      .000      .050      .170      .000      .000
      .150      .140      .099      .106      .050      .004      .000      .000
      .000      .000      .000      .000      .000      .000      .000      .000
      .000      .000      .000      .000
      .000      .020      .050      .100      .200
      .040      .042      .044      .046      .048      .050      .055      .060
      .065      .070      .075      .080      .085      .090      .095      .100
      .110      .120      .130      .140      .150      .160      .170      .180
      .190      .200      .220      .240      .260      .280      .300      .320
      .340      .360      .380      .400      .420      .440      .460      .480
      .500      .550      .600      .650      .700      .750      .800      .850
      .900      .950     1.000     1.100     1.200     1.300     1.400     1.500
     1.600     1.700     1.800     1.900     2.000     2.200     2.400     2.600
     2.800     3.000     3.200     3.400      .000      .000      .000      .000
      .000      .000      .000      .000      .000      .000      .000      .000
      .000      .000      .000      .000      .000      .000      .000      .000
      .000      .000      .000      .000      .000      .000      .000      .000
      .000      .000      .000      .000
Fourier amplitude spectra in in/sec.
  .487E-01  .780E-01  .387E-01  .100E+00  .697E-01  .520E-01  .148E+00  .162E+00
  .584E+00  .560E+00  .167E+00  .100E+01  .994E+00  .386E+00  .102E+01  .156E+01
  .796E+00  .249E+01  .110E+01  .227E+01  .373E+01  .140E+01  .122E+01  .149E+01
  .331E+01  .472E+01  .280E+01  .214E+01  .108E+01  .361E+01  .210E+01  .463E+01
  .574E+01  .768E+01  .337E+01  .629E+01  .419E+01  .610E+01  .327E+01  .560E+01
  .779E+01  .665E+01  .897E+01  .398E+01  .393E+01  .606E+01  .330E+01  .863E+01
  .984E+01  .457E+01  .421E+01  .552E+01  .160E+01  .379E+01  .202E+01  .432E+01
  .265E+01  .282E+01  .744E+00  .117E+01  .708E+00  .179E+01  .120E+01  .139E+01
  .359E+00  .286E+00  .139E+00  .196E+00  .000E+00  .000E+00  .000E+00  .000E+00
  .000E+00  .000E+00  .000E+00  .000E+00  .000E+00  .000E+00  .000E+00  .000E+00
  .000E+00  .000E+00  .000E+00  .000E+00  .000E+00  .000E+00  .000E+00  .000E+00
  .000E+00  .000E+00  .000E+00  .000E+00  .000E+00  .000E+00  .000E+00  .000E+00
  .000E+00  .000E+00  .000E+00  .000E+00
Damping =  .00. Data of Sd,Sv,Sa,Pssv,ttSd,ttSv,ttSa :
  .985E-03  .113E-02  .116E-02  .144E-02  .151E-02  .167E-02  .280E-02  .372E-02
  .734E-02  .932E-02  .581E-02  .165E-01  .157E-01  .814E-02  .234E-01  .317E-01
  .305E-01  .633E-01  .463E-01  .539E-01  .110E+00  .373E-01  .585E-01  .565E-01
  .166E+00  .160E+00  .116E+00  .110E+00  .974E-01  .174E+00  .141E+00  .238E+00
  .313E+00  .538E+00  .374E+00  .461E+00  .293E+00  .437E+00  .430E+00  .499E+00
  .624E+00  .627E+00  .104E+01  .621E+00  .795E+00  .875E+00  .687E+00  .139E+01
  .147E+01  .785E+00  .911E+00  .108E+01  .501E+00  .107E+01  .623E+00  .139E+01
  .103E+01  .764E+00  .543E+00  .573E+00  .433E+00  .745E+00  .523E+00  .754E+00
  .335E+00  .326E+00  .312E+00  .308E+00  .000E+00  .000E+00  .000E+00  .000E+00
  .000E+00  .000E+00  .000E+00  .000E+00  .000E+00  .000E+00  .000E+00  .000E+00
  .000E+00  .000E+00  .000E+00  .000E+00  .000E+00  .000E+00  .000E+00  .000E+00
  .000E+00  .000E+00  .000E+00  .000E+00  .000E+00  .000E+00  .000E+00  .000E+00
  .000E+00  .000E+00  .000E+00  .000E+00
  .616E-01  .837E-01  .749E-01  .111E+00  .124E+00  .123E+00  .284E+00  .274E+00
  .685E+00  .743E+00  .415E+00  .123E+01  .112E+01  .508E+00  .148E+01  .188E+01
  .171E+01  .318E+01  .207E+01  .235E+01  .456E+01  .141E+01  .203E+01  .185E+01
  .539E+01  .498E+01  .331E+01  .283E+01  .242E+01  .399E+01  .294E+01  .465E+01
  .578E+01  .935E+01  .625E+01  .718E+01  .435E+01  .621E+01  .581E+01  .646E+01
  .781E+01  .725E+01  .108E+02  .631E+01  .700E+01  .735E+01  .567E+01  .103E+02
  .103E+02  .534E+01  .568E+01  .604E+01  .352E+01  .509E+01  .319E+01  .584E+01
  .414E+01  .295E+01  .286E+01  .273E+01  .262E+01  .247E+01  .238E+01  .229E+01
  .221E+01  .214E+01  .210E+01  .209E+01  .000E+00  .000E+00  .000E+00  .000E+00
  .000E+00  .000E+00  .000E+00  .000E+00  .000E+00  .000E+00  .000E+00  .000E+00
  .000E+00  .000E+00  .000E+00  .000E+00  .000E+00  .000E+00  .000E+00  .000E+00
  .000E+00  .000E+00  .000E+00  .000E+00  .000E+00  .000E+00  .000E+00  .000E+00
  .000E+00  .000E+00  .000E+00  .000E+00
  .630E-01  .656E-01  .612E-01  .696E-01  .669E-01  .685E-01  .947E-01  .106E+00
  .178E+00  .195E+00  .106E+00  .264E+00  .223E+00  .103E+00  .265E+00  .324E+00
  .258E+00  .449E+00  .280E+00  .281E+00  .501E+00  .149E+00  .207E+00  .178E+00
  .471E+00  .409E+00  .244E+00  .196E+00  .147E+00  .228E+00  .160E+00  .237E+00
  .277E+00  .425E+00  .265E+00  .295E+00  .170E+00  .231E+00  .208E+00  .221E+00
  .255E+00  .212E+00  .296E+00  .150E+00  .166E+00  .159E+00  .110E+00  .197E+00
  .186E+00  .889E-01  .932E-01  .914E-01  .356E-01  .647E-01  .325E-01  .633E-01
  .412E-01  .270E-01  .171E-01  .162E-01  .111E-01  .158E-01  .929E-02  .114E-01
  .437E-02  .370E-02  .312E-02  .272E-02  .000E+00  .000E+00  .000E+00  .000E+00
  .000E+00  .000E+00  .000E+00  .000E+00  .000E+00  .000E+00  .000E+00  .000E+00
  .000E+00  .000E+00  .000E+00  .000E+00  .000E+00  .000E+00  .000E+00  .000E+00
  .000E+00  .000E+00  .000E+00  .000E+00  .000E+00  .000E+00  .000E+00  .000E+00
  .000E+00  .000E+00  .000E+00  .000E+00
  .155E+00  .169E+00  .165E+00  .197E+00  .197E+00  .210E+00  .320E+00  .390E+00
  .709E+00  .837E+00  .486E+00  .130E+01  .116E+01  .568E+00  .155E+01  .199E+01
  .174E+01  .331E+01  .224E+01  .242E+01  .462E+01  .146E+01  .216E+01  .197E+01
  .549E+01  .502E+01  .330E+01  .289E+01  .235E+01  .391E+01  .295E+01  .467E+01
  .579E+01  .939E+01  .619E+01  .724E+01  .438E+01  .623E+01  .587E+01  .653E+01
  .784E+01  .716E+01  .109E+02  .600E+01  .713E+01  .733E+01  .540E+01  .103E+02
  .103E+02  .519E+01  .572E+01  .617E+01  .262E+01  .517E+01  .279E+01  .583E+01
  .405E+01  .282E+01  .190E+01  .190E+01  .136E+01  .213E+01  .137E+01  .182E+01
  .751E+00  .682E+00  .613E+00  .568E+00  .000E+00  .000E+00  .000E+00  .000E+00
  .000E+00  .000E+00  .000E+00  .000E+00  .000E+00  .000E+00  .000E+00  .000E+00
  .000E+00  .000E+00  .000E+00  .000E+00  .000E+00  .000E+00  .000E+00  .000E+00
  .000E+00  .000E+00  .000E+00  .000E+00  .000E+00  .000E+00  .000E+00  .000E+00
  .000E+00  .000E+00  .000E+00  .000E+00
  .261E+02  .261E+02  .261E+02  .285E+02  .261E+02  .261E+02  .309E+02  .261E+02
  .333E+02  .307E+02  .269E+02  .321E+02  .302E+02  .273E+02  .298E+02  .299E+02
  .293E+02  .296E+02  .296E+02  .322E+02  .332E+02  .323E+02  .309E+02  .310E+02
  .334E+02  .409E+02  .474E+02  .329E+02  .298E+02  .298E+02  .272E+02  .711E+02
  .643E+02  .390E+02  .294E+02  .499E+02  .511E+02  .669E+02  .288E+02  .430E+02
  .697E+02  .403E+02  .404E+02  .269E+02  .354E+02  .319E+02  .275E+02  .459E+02
  .690E+02  .297E+02  .365E+02  .345E+02  .264E+02  .532E+02  .314E+02  .416E+02
  .430E+02  .739E+02  .375E+02  .523E+02  .565E+02  .523E+02  .352E+02  .576E+02
  .261E+02  .261E+02  .261E+02  .261E+02  .000E+00  .000E+00  .000E+00  .000E+00
  .000E+00  .000E+00  .000E+00  .000E+00  .000E+00  .000E+00  .000E+00  .000E+00
  .000E+00  .000E+00  .000E+00  .000E+00  .000E+00  .000E+00  .000E+00  .000E+00
  .000E+00  .000E+00  .000E+00  .000E+00  .000E+00  .000E+00  .000E+00  .000E+00
  .000E+00  .000E+00  .000E+00  .000E+00
  .290E+02  .321E+02  .292E+02  .288E+02  .277E+02  .288E+02  .315E+02  .277E+02
  .330E+02  .308E+02  .269E+02  .321E+02  .302E+02  .273E+02  .305E+02  .299E+02
  .293E+02  .297E+02  .296E+02  .418E+02  .332E+02  .699E+02  .310E+02  .310E+02
  .334E+02  .410E+02  .298E+02  .330E+02  .298E+02  .298E+02  .286E+02  .712E+02
  .642E+02  .389E+02  .293E+02  .498E+02  .520E+02  .668E+02  .289E+02  .448E+02
  .713E+02  .404E+02  .405E+02  .281E+02  .360E+02  .321E+02  .269E+02  .461E+02
  .670E+02  .295E+02  .363E+02  .342E+02  .263E+02  .529E+02  .311E+02  .419E+02
  .498E+02  .263E+02  .263E+02  .263E+02  .263E+02  .263E+02  .263E+02  .263E+02
  .263E+02  .263E+02  .263E+02  .263E+02  .000E+00  .000E+00  .000E+00  .000E+00
  .000E+00  .000E+00  .000E+00  .000E+00  .000E+00  .000E+00  .000E+00  .000E+00
  .000E+00  .000E+00  .000E+00  .000E+00  .000E+00  .000E+00  .000E+00  .000E+00
  .000E+00  .000E+00  .000E+00  .000E+00  .000E+00  .000E+00  .000E+00  .000E+00
  .000E+00  .000E+00  .000E+00  .000E+00
  .261E+02  .261E+02  .261E+02  .285E+02  .261E+02  .261E+02  .309E+02  .261E+02
  .333E+02  .307E+02  .269E+02  .321E+02  .302E+02  .273E+02  .298E+02  .299E+02
  .293E+02  .296E+02  .296E+02  .322E+02  .332E+02  .323E+02  .309E+02  .310E+02
  .334E+02  .409E+02  .474E+02  .329E+02  .298E+02  .298E+02  .272E+02  .711E+02
  .643E+02  .390E+02  .294E+02  .499E+02  .511E+02  .669E+02  .288E+02  .430E+02
  .697E+02  .403E+02  .404E+02  .269E+02  .354E+02  .319E+02  .275E+02  .459E+02
  .690E+02  .297E+02  .365E+02  .345E+02  .264E+02  .532E+02  .314E+02  .416E+02
  .430E+02  .739E+02  .375E+02  .523E+02  .565E+02  .523E+02  .352E+02  .576E+02
  .261E+02  .261E+02  .261E+02  .261E+02  .000E+00  .000E+00  .000E+00  .000E+00
  .000E+00  .000E+00  .000E+00  .000E+00  .000E+00  .000E+00  .000E+00  .000E+00
  .000E+00  .000E+00  .000E+00  .000E+00  .000E+00  .000E+00  .000E+00  .000E+00
  .000E+00  .000E+00  .000E+00  .000E+00  .000E+00  .000E+00  .000E+00  .000E+00
  .000E+00  .000E+00  .000E+00  .000E+00
Damping =  .02. Data of Sd,Sv,Sa,Pssv,ttSd,ttSv,ttSa :
  .900E-03  .982E-03  .109E-02  .118E-02  .125E-02  .137E-02  .169E-02  .231E-02
  .252E-02  .321E-02  .437E-02  .512E-02  .644E-02  .673E-02  .108E-01  .140E-01
  .180E-01  .298E-01  .290E-01  .390E-01  .385E-01  .270E-01  .285E-01  .341E-01
  .509E-01  .576E-01  .707E-01  .637E-01  .732E-01  .100E+00  .117E+00  .146E+00
  .198E+00  .223E+00  .211E+00  .201E+00  .222E+00  .266E+00  .313E+00  .355E+00
  .397E+00  .486E+00  .506E+00  .529E+00  .549E+00  .573E+00  .571E+00  .587E+00
  .609E+00  .569E+00  .569E+00  .664E+00  .481E+00  .444E+00  .464E+00  .772E+00
  .682E+00  .368E+00  .398E+00  .390E+00  .337E+00  .425E+00  .412E+00  .407E+00
  .330E+00  .322E+00  .312E+00  .308E+00  .000E+00  .000E+00  .000E+00  .000E+00
  .000E+00  .000E+00  .000E+00  .000E+00  .000E+00  .000E+00  .000E+00  .000E+00
  .000E+00  .000E+00  .000E+00  .000E+00  .000E+00  .000E+00  .000E+00  .000E+00
  .000E+00  .000E+00  .000E+00  .000E+00  .000E+00  .000E+00  .000E+00  .000E+00
  .000E+00  .000E+00  .000E+00  .000E+00
  .306E-01  .363E-01  .440E-01  .505E-01  .496E-01  .597E-01  .101E+00  .153E+00
  .191E+00  .241E+00  .284E+00  .354E+00  .431E+00  .401E+00  .609E+00  .771E+00
  .986E+00  .145E+01  .131E+01  .167E+01  .144E+01  .977E+00  .883E+00  .103E+01
  .157E+01  .167E+01  .185E+01  .159E+01  .169E+01  .231E+01  .245E+01  .283E+01
  .359E+01  .391E+01  .349E+01  .345E+01  .364E+01  .401E+01  .442E+01  .467E+01
  .488E+01  .520E+01  .520E+01  .542E+01  .517E+01  .513E+01  .507E+01  .457E+01
  .428E+01  .412E+01  .380E+01  .388E+01  .342E+01  .328E+01  .314E+01  .355E+01
  .298E+01  .291E+01  .282E+01  .271E+01  .261E+01  .247E+01  .238E+01  .229E+01
  .222E+01  .216E+01  .212E+01  .210E+01  .000E+00  .000E+00  .000E+00  .000E+00
  .000E+00  .000E+00  .000E+00  .000E+00  .000E+00  .000E+00  .000E+00  .000E+00
  .000E+00  .000E+00  .000E+00  .000E+00  .000E+00  .000E+00  .000E+00  .000E+00
  .000E+00  .000E+00  .000E+00  .000E+00  .000E+00  .000E+00  .000E+00  .000E+00
  .000E+00  .000E+00  .000E+00  .000E+00
  .576E-01  .569E-01  .573E-01  .572E-01  .556E-01  .560E-01  .570E-01  .657E-01
  .610E-01  .671E-01  .794E-01  .822E-01  .914E-01  .847E-01  .122E+00  .144E+00
  .152E+00  .211E+00  .175E+00  .204E+00  .175E+00  .108E+00  .101E+00  .108E+00
  .144E+00  .148E+00  .149E+00  .113E+00  .111E+00  .131E+00  .133E+00  .146E+00
  .176E+00  .176E+00  .149E+00  .129E+00  .129E+00  .141E+00  .151E+00  .158E+00
  .163E+00  .164E+00  .144E+00  .128E+00  .115E+00  .104E+00  .912E-01  .832E-01
  .770E-01  .646E-01  .582E-01  .562E-01  .342E-01  .269E-01  .243E-01  .351E-01
  .273E-01  .131E-01  .126E-01  .111E-01  .868E-02  .899E-02  .734E-02  .617E-02
  .435E-02  .371E-02  .316E-02  .277E-02  .000E+00  .000E+00  .000E+00  .000E+00
  .000E+00  .000E+00  .000E+00  .000E+00  .000E+00  .000E+00  .000E+00  .000E+00
  .000E+00  .000E+00  .000E+00  .000E+00  .000E+00  .000E+00  .000E+00  .000E+00
  .000E+00  .000E+00  .000E+00  .000E+00  .000E+00  .000E+00  .000E+00  .000E+00
  .000E+00  .000E+00  .000E+00  .000E+00
  .141E+00  .147E+00  .155E+00  .161E+00  .164E+00  .172E+00  .193E+00  .242E+00
  .244E+00  .288E+00  .366E+00  .402E+00  .476E+00  .470E+00  .715E+00  .879E+00
  .103E+01  .156E+01  .140E+01  .175E+01  .161E+01  .106E+01  .105E+01  .119E+01
  .168E+01  .181E+01  .202E+01  .167E+01  .177E+01  .226E+01  .245E+01  .287E+01
  .367E+01  .390E+01  .348E+01  .316E+01  .332E+01  .380E+01  .427E+01  .464E+01
  .499E+01  .555E+01  .530E+01  .511E+01  .493E+01  .480E+01  .448E+01  .434E+01
  .425E+01  .376E+01  .358E+01  .379E+01  .252E+01  .215E+01  .208E+01  .323E+01
  .268E+01  .136E+01  .139E+01  .129E+01  .106E+01  .121E+01  .108E+01  .984E+00
  .740E+00  .675E+00  .613E+00  .568E+00  .000E+00  .000E+00  .000E+00  .000E+00
  .000E+00  .000E+00  .000E+00  .000E+00  .000E+00  .000E+00  .000E+00  .000E+00
  .000E+00  .000E+00  .000E+00  .000E+00  .000E+00  .000E+00  .000E+00  .000E+00
  .000E+00  .000E+00  .000E+00  .000E+00  .000E+00  .000E+00  .000E+00  .000E+00
  .000E+00  .000E+00  .000E+00  .000E+00
  .261E+02  .261E+02  .261E+02  .261E+02  .261E+02  .261E+02  .261E+02  .299E+02
  .261E+02  .298E+02  .261E+02  .296E+02  .277E+02  .293E+02  .298E+02  .299E+02
  .293E+02  .289E+02  .289E+02  .287E+02  .309E+02  .287E+02  .309E+02  .309E+02
  .322E+02  .323E+02  .291E+02  .291E+02  .270E+02  .297E+02  .272E+02  .274E+02
  .280E+02  .284E+02  .284E+02  .268E+02  .266E+02  .264E+02  .265E+02  .265E+02
  .265E+02  .265E+02  .266E+02  .266E+02  .270E+02  .270E+02  .267E+02  .268E+02
  .330E+02  .268E+02  .293E+02  .313E+02  .264E+02  .264E+02  .314E+02  .378E+02
  .374E+02  .569E+02  .367E+02  .352E+02  .261E+02  .456E+02  .352E+02  .538E+02
  .261E+02  .261E+02  .261E+02  .261E+02  .000E+00  .000E+00  .000E+00  .000E+00
  .000E+00  .000E+00  .000E+00  .000E+00  .000E+00  .000E+00  .000E+00  .000E+00
  .000E+00  .000E+00  .000E+00  .000E+00  .000E+00  .000E+00  .000E+00  .000E+00
  .000E+00  .000E+00  .000E+00  .000E+00  .000E+00  .000E+00  .000E+00  .000E+00
  .000E+00  .000E+00  .000E+00  .000E+00
  .288E+02  .286E+02  .290E+02  .292E+02  .291E+02  .299E+02  .299E+02  .296E+02
  .271E+02  .298E+02  .291E+02  .297E+02  .277E+02  .293E+02  .298E+02  .299E+02
  .293E+02  .288E+02  .289E+02  .301E+02  .310E+02  .286E+02  .310E+02  .310E+02
  .295E+02  .322E+02  .290E+02  .324E+02  .271E+02  .298E+02  .271E+02  .275E+02
  .277E+02  .285E+02  .283E+02  .269E+02  .267E+02  .266E+02  .266E+02  .266E+02
  .266E+02  .267E+02  .264E+02  .265E+02  .265E+02  .269E+02  .269E+02  .269E+02
  .323E+02  .280E+02  .296E+02  .315E+02  .263E+02  .263E+02  .263E+02  .382E+02
  .263E+02  .263E+02  .263E+02  .263E+02  .263E+02  .263E+02  .263E+02  .263E+02
  .263E+02  .263E+02  .263E+02  .263E+02  .000E+00  .000E+00  .000E+00  .000E+00
  .000E+00  .000E+00  .000E+00  .000E+00  .000E+00  .000E+00  .000E+00  .000E+00
  .000E+00  .000E+00  .000E+00  .000E+00  .000E+00  .000E+00  .000E+00  .000E+00
  .000E+00  .000E+00  .000E+00  .000E+00  .000E+00  .000E+00  .000E+00  .000E+00
  .000E+00  .000E+00  .000E+00  .000E+00
  .261E+02  .261E+02  .261E+02  .261E+02  .261E+02  .261E+02  .261E+02  .299E+02
  .261E+02  .298E+02  .261E+02  .296E+02  .277E+02  .293E+02  .298E+02  .299E+02
  .293E+02  .289E+02  .289E+02  .287E+02  .309E+02  .287E+02  .309E+02  .309E+02
  .322E+02  .323E+02  .291E+02  .291E+02  .270E+02  .297E+02  .272E+02  .274E+02
