Response and Fourier amplitude spectra (68 periods,  .04 -  3.4 sec)   for      
Corrected accelerogram   24402-L1220-08211.01       Chan  1: 360 Deg     from   
Uncorrected Accelerogram Data             Processed: 08/04/08, CDMG  ce24402k   
Record of Tue Jul 29, 2008 11:42:02.0 PDT             (Avol1 v7.9 7/08 CSMIP)   
CSMIP Preliminary Processing            (Origin:  To be determined)             
24402-L1220-08211.01                 Start time:  7/29/08, 18:42:02.0 UTC (GPS) 
Station No. 24402   34.177N, 118.096W      Etna  s/n 1220  (3 Channels)         
Altadena - Eaton Canyon Park              CGS                                   
Chan  1: 360 Deg                                                                
Record of Tue Jul 29, 2008 11:42:02.0 PDT    Tue Jul 29, 2008 11:42:02.0 PDT    
Hypocenter:  To be determined.               ML:  To be determined.             
Instr Period =  .0107 sec,  Damping =  .650,  Sensitivity =  .63  v/g           
                        Record length = 72.000 sec.                             
                                     Uncor Max  =   .030 g , at  27.550 sec.    
RMS accel of (uncor) record  =        .   Chn. metadata effective date: 05/10/01
Accelerogram bandpass filtered with 3 dB pts at   .30 and 40.00 cyc/sec         
                 instrument- and baseline-corrected                             
                                                                                
                                                                                
                                                                                
                                                                                
                                                                                
Record of Tue Jul 29, 2008 11:42:02.0 PDT    Tue Jul 29, 2008 11:42:02.0 PDT    
                                                                                
24402-L1220-08211.01      Altadena - Eaton Canyon Park    Chan  1: 360 Deg      
                                                                                
24402-L1220-08211.01      Altadena - Eaton Canyon Park    Chan  1: 360 Deg      
                                                                                
Units for spectra are inches and sec, except Sa is in fraction of g.            
                                                                                
    1  100    1    4    3  200    1    3    1   24   12 1220    024402    1    0
   18   42    2    0  211    7   29 2008   10    3  36014400   41   28   76  360
14400    1   50    3 1220    1    1  720    2    0    0    0    0    0    0    0
    0    4    0    014400    1  202    0   18    4   76   28    1    1    014400
    314400   29   68    5    3    5    0    0    0    3    0    0    3    0    2
    2    2    4    0   32   99    0   32   32    0    0    1    0    0    0  222
    1    0    4    0
      .011      .650    72.000      .003      .000   626.000      .030    27.550
    93.600      .298      .477      .000     5.000      .000     3.994      .000
     2.500    19.420     2.500   371.000    25.000    30.000      .000      .002
      .007      .005     2.000    15.000    34.177  -118.096      .020      .725
    37.026      .000      .000   295.000    25.900    40.900    13.300    73.760
     1.000    -1.442      .000      .000      .000      .000      .000      .000
     4.200     7.900     4.600   980.665      .005    72.000    14.897      .000
      .000    40.000      .000    72.000      .005      .303      .000      .000
    27.545    29.515    26.785     1.174    26.160     -.276      .000      .303
    40.000      .005      .005      .000      .005      .079      .000      .000
      .086      .280      .075      .069      .012      .002      .000      .000
      .000      .000      .000      .000      .000      .000      .000      .000
      .000      .000      .000      .000
      .000      .020      .050      .100      .200
      .040      .042      .044      .046      .048      .050      .055      .060
      .065      .070      .075      .080      .085      .090      .095      .100
      .110      .120      .130      .140      .150      .160      .170      .180
      .190      .200      .220      .240      .260      .280      .300      .320
      .340      .360      .380      .400      .420      .440      .460      .480
      .500      .550      .600      .650      .700      .750      .800      .850
      .900      .950     1.000     1.100     1.200     1.300     1.400     1.500
     1.600     1.700     1.800     1.900     2.000     2.200     2.400     2.600
     2.800     3.000     3.200     3.400      .000      .000      .000      .000
      .000      .000      .000      .000      .000      .000      .000      .000
      .000      .000      .000      .000      .000      .000      .000      .000
      .000      .000      .000      .000      .000      .000      .000      .000
      .000      .000      .000      .000
Fourier amplitude spectra in in/sec.
  .156E+00  .122E+00  .159E+00  .239E+00  .181E+00  .338E+00  .219E+00  .218E+00
  .746E+00  .290E+00  .430E+00  .735E+00  .132E+01  .120E+01  .129E+01  .922E+00
  .898E+00  .303E+00  .539E+00  .649E+00  .198E+01  .116E+01  .291E+01  .218E+01
  .174E+01  .275E+01  .145E+01  .126E+01  .226E+01  .232E+01  .159E+01  .150E+00
  .147E+01  .153E+01  .118E+01  .154E+01  .230E+01  .355E+01  .292E+01  .836E+00
  .494E+01  .228E+01  .177E+01  .226E+00  .283E+01  .144E+01  .168E+01  .326E+01
  .154E+01  .182E+01  .467E+00  .279E+01  .267E+01  .251E+01  .734E+00  .139E+01
  .257E+01  .115E+01  .143E+01  .101E+01  .849E+00  .191E+01  .130E+01  .499E+00
  .662E-01  .211E+00  .217E+00  .483E-01  .000E+00  .000E+00  .000E+00  .000E+00
  .000E+00  .000E+00  .000E+00  .000E+00  .000E+00  .000E+00  .000E+00  .000E+00
  .000E+00  .000E+00  .000E+00  .000E+00  .000E+00  .000E+00  .000E+00  .000E+00
  .000E+00  .000E+00  .000E+00  .000E+00  .000E+00  .000E+00  .000E+00  .000E+00
  .000E+00  .000E+00  .000E+00  .000E+00
Damping =  .00. Data of Sd,Sv,Sa,Pssv,ttSd,ttSv,ttSa :
  .140E-02  .170E-02  .179E-02  .191E-02  .248E-02  .376E-02  .230E-02  .401E-02
  .897E-02  .552E-02  .712E-02  .127E-01  .218E-01  .194E-01  .286E-01  .149E-01
  .217E-01  .178E-01  .242E-01  .223E-01  .484E-01  .473E-01  .947E-01  .815E-01
  .737E-01  .931E-01  .852E-01  .770E-01  .117E+00  .131E+00  .125E+00  .876E-01
  .157E+00  .115E+00  .775E-01  .103E+00  .216E+00  .290E+00  .234E+00  .194E+00
  .415E+00  .226E+00  .252E+00  .168E+00  .375E+00  .210E+00  .221E+00  .472E+00
  .285E+00  .319E+00  .322E+00  .501E+00  .595E+00  .523E+00  .326E+00  .463E+00
  .698E+00  .388E+00  .492E+00  .484E+00  .443E+00  .670E+00  .511E+00  .253E+00
  .157E+00  .159E+00  .134E+00  .128E+00  .000E+00  .000E+00  .000E+00  .000E+00
  .000E+00  .000E+00  .000E+00  .000E+00  .000E+00  .000E+00  .000E+00  .000E+00
  .000E+00  .000E+00  .000E+00  .000E+00  .000E+00  .000E+00  .000E+00  .000E+00
  .000E+00  .000E+00  .000E+00  .000E+00  .000E+00  .000E+00  .000E+00  .000E+00
  .000E+00  .000E+00  .000E+00  .000E+00
  .196E+00  .181E+00  .225E+00  .239E+00  .285E+00  .444E+00  .250E+00  .386E+00
  .855E+00  .412E+00  .547E+00  .988E+00  .159E+01  .133E+01  .189E+01  .927E+00
  .122E+01  .941E+00  .115E+01  .941E+00  .201E+01  .181E+01  .349E+01  .281E+01
  .243E+01  .296E+01  .248E+01  .203E+01  .282E+01  .304E+01  .258E+01  .170E+01
  .288E+01  .209E+01  .131E+01  .162E+01  .322E+01  .416E+01  .318E+01  .262E+01
  .517E+01  .258E+01  .265E+01  .168E+01  .337E+01  .180E+01  .174E+01  .347E+01
  .200E+01  .208E+01  .206E+01  .286E+01  .314E+01  .253E+01  .163E+01  .194E+01
  .278E+01  .149E+01  .174E+01  .169E+01  .164E+01  .197E+01  .133E+01  .734E+00
  .624E+00  .575E+00  .548E+00  .536E+00  .000E+00  .000E+00  .000E+00  .000E+00
  .000E+00  .000E+00  .000E+00  .000E+00  .000E+00  .000E+00  .000E+00  .000E+00
  .000E+00  .000E+00  .000E+00  .000E+00  .000E+00  .000E+00  .000E+00  .000E+00
  .000E+00  .000E+00  .000E+00  .000E+00  .000E+00  .000E+00  .000E+00  .000E+00
  .000E+00  .000E+00  .000E+00  .000E+00
  .894E-01  .983E-01  .944E-01  .923E-01  .110E+00  .154E+00  .777E-01  .114E+00
  .217E+00  .115E+00  .129E+00  .204E+00  .308E+00  .245E+00  .324E+00  .152E+00
  .183E+00  .127E+00  .146E+00  .117E+00  .220E+00  .189E+00  .335E+00  .257E+00
  .209E+00  .238E+00  .180E+00  .137E+00  .177E+00  .170E+00  .142E+00  .875E-01
  .139E+00  .909E-01  .549E-01  .655E-01  .125E+00  .153E+00  .113E+00  .860E-01
  .170E+00  .764E-01  .715E-01  .406E-01  .783E-01  .383E-01  .353E-01  .669E-01
  .360E-01  .361E-01  .329E-01  .424E-01  .423E-01  .317E-01  .170E-01  .211E-01
  .279E-01  .137E-01  .155E-01  .137E-01  .113E-01  .142E-01  .907E-02  .383E-02
  .205E-02  .181E-02  .134E-02  .114E-02  .000E+00  .000E+00  .000E+00  .000E+00
  .000E+00  .000E+00  .000E+00  .000E+00  .000E+00  .000E+00  .000E+00  .000E+00
  .000E+00  .000E+00  .000E+00  .000E+00  .000E+00  .000E+00  .000E+00  .000E+00
  .000E+00  .000E+00  .000E+00  .000E+00  .000E+00  .000E+00  .000E+00  .000E+00
  .000E+00  .000E+00  .000E+00  .000E+00
  .220E+00  .254E+00  .255E+00  .261E+00  .325E+00  .473E+00  .263E+00  .420E+00
  .868E+00  .496E+00  .596E+00  .100E+01  .161E+01  .135E+01  .189E+01  .936E+00
  .124E+01  .934E+00  .117E+01  .100E+01  .203E+01  .186E+01  .350E+01  .284E+01
  .244E+01  .292E+01  .243E+01  .201E+01  .283E+01  .293E+01  .261E+01  .172E+01
  .289E+01  .201E+01  .128E+01  .161E+01  .323E+01  .414E+01  .319E+01  .254E+01
  .522E+01  .258E+01  .263E+01  .162E+01  .337E+01  .176E+01  .173E+01  .349E+01
  .199E+01  .211E+01  .202E+01  .286E+01  .312E+01  .253E+01  .146E+01  .194E+01
  .274E+01  .143E+01  .172E+01  .160E+01  .139E+01  .191E+01  .134E+01  .611E+00
  .353E+00  .333E+00  .263E+00  .237E+00  .000E+00  .000E+00  .000E+00  .000E+00
  .000E+00  .000E+00  .000E+00  .000E+00  .000E+00  .000E+00  .000E+00  .000E+00
  .000E+00  .000E+00  .000E+00  .000E+00  .000E+00  .000E+00  .000E+00  .000E+00
  .000E+00  .000E+00  .000E+00  .000E+00  .000E+00  .000E+00  .000E+00  .000E+00
  .000E+00  .000E+00  .000E+00  .000E+00
  .296E+02  .275E+02  .298E+02  .324E+02  .300E+02  .287E+02  .393E+02  .300E+02
  .364E+02  .268E+02  .268E+02  .299E+02  .323E+02  .442E+02  .324E+02  .620E+02
  .328E+02  .275E+02  .324E+02  .276E+02  .545E+02  .315E+02  .390E+02  .341E+02
  .353E+02  .302E+02  .313E+02  .273E+02  .390E+02  .277E+02  .308E+02  .306E+02
  .339E+02  .299E+02  .420E+02  .620E+02  .333E+02  .393E+02  .571E+02  .314E+02
  .522E+02  .543E+02  .423E+02  .283E+02  .539E+02  .338E+02  .609E+02  .608E+02
  .416E+02  .523E+02  .456E+02  .688E+02  .588E+02  .690E+02  .329E+02  .378E+02
  .663E+02  .534E+02  .411E+02  .362E+02  .337E+02  .705E+02  .592E+02  .444E+02
  .261E+02  .592E+02  .261E+02  .261E+02  .000E+00  .000E+00  .000E+00  .000E+00
  .000E+00  .000E+00  .000E+00  .000E+00  .000E+00  .000E+00  .000E+00  .000E+00
  .000E+00  .000E+00  .000E+00  .000E+00  .000E+00  .000E+00  .000E+00  .000E+00
  .000E+00  .000E+00  .000E+00  .000E+00  .000E+00  .000E+00  .000E+00  .000E+00
  .000E+00  .000E+00  .000E+00  .000E+00
  .296E+02  .275E+02  .307E+02  .685E+02  .300E+02  .290E+02  .393E+02  .300E+02
  .363E+02  .269E+02  .331E+02  .300E+02  .323E+02  .442E+02  .325E+02  .691E+02
  .329E+02  .274E+02  .324E+02  .276E+02  .565E+02  .316E+02  .387E+02  .342E+02
  .413E+02  .300E+02  .313E+02  .274E+02  .380E+02  .278E+02  .309E+02  .309E+02
  .340E+02  .300E+02  .398E+02  .300E+02  .330E+02  .394E+02  .570E+02  .312E+02
  .524E+02  .541E+02  .422E+02  .284E+02  .537E+02  .340E+02  .607E+02  .606E+02
  .454E+02  .516E+02  .454E+02  .686E+02  .591E+02  .687E+02  .332E+02  .382E+02
  .595E+02  .462E+02  .407E+02  .366E+02  .342E+02  .623E+02  .611E+02  .275E+02
  .275E+02  .268E+02  .268E+02  .268E+02  .000E+00  .000E+00  .000E+00  .000E+00
  .000E+00  .000E+00  .000E+00  .000E+00  .000E+00  .000E+00  .000E+00  .000E+00
  .000E+00  .000E+00  .000E+00  .000E+00  .000E+00  .000E+00  .000E+00  .000E+00
  .000E+00  .000E+00  .000E+00  .000E+00  .000E+00  .000E+00  .000E+00  .000E+00
  .000E+00  .000E+00  .000E+00  .000E+00
  .296E+02  .275E+02  .298E+02  .324E+02  .300E+02  .287E+02  .393E+02  .300E+02
  .364E+02  .268E+02  .268E+02  .299E+02  .323E+02  .442E+02  .324E+02  .620E+02
  .328E+02  .275E+02  .324E+02  .276E+02  .545E+02  .315E+02  .390E+02  .341E+02
  .353E+02  .302E+02  .313E+02  .273E+02  .390E+02  .277E+02  .308E+02  .306E+02
  .339E+02  .299E+02  .420E+02  .620E+02  .333E+02  .393E+02  .571E+02  .314E+02
  .522E+02  .543E+02  .423E+02  .283E+02  .539E+02  .338E+02  .609E+02  .608E+02
  .416E+02  .523E+02  .456E+02  .688E+02  .588E+02  .690E+02  .329E+02  .378E+02
  .663E+02  .534E+02  .411E+02  .362E+02  .337E+02  .705E+02  .592E+02  .444E+02
  .261E+02  .592E+02  .261E+02  .261E+02  .000E+00  .000E+00  .000E+00  .000E+00
  .000E+00  .000E+00  .000E+00  .000E+00  .000E+00  .000E+00  .000E+00  .000E+00
  .000E+00  .000E+00  .000E+00  .000E+00  .000E+00  .000E+00  .000E+00  .000E+00
  .000E+00  .000E+00  .000E+00  .000E+00  .000E+00  .000E+00  .000E+00  .000E+00
  .000E+00  .000E+00  .000E+00  .000E+00
Damping =  .02. Data of Sd,Sv,Sa,Pssv,ttSd,ttSv,ttSa :
  .665E-03  .798E-03  .865E-03  .108E-02  .114E-02  .145E-02  .140E-02  .219E-02
  .333E-02  .456E-02  .564E-02  .738E-02  .623E-02  .703E-02  .112E-01  .711E-02
  .821E-02  .104E-01  .136E-01  .171E-01  .193E-01  .253E-01  .354E-01  .338E-01
  .336E-01  .440E-01  .518E-01  .540E-01  .677E-01  .897E-01  .726E-01  .612E-01
  .661E-01  .767E-01  .562E-01  .798E-01  .120E+00  .123E+00  .119E+00  .117E+00
  .166E+00  .104E+00  .110E+00  .123E+00  .129E+00  .128E+00  .168E+00  .194E+00
  .130E+00  .180E+00  .178E+00  .197E+00  .218E+00  .189E+00  .239E+00  .273E+00
  .318E+00  .251E+00  .287E+00  .325E+00  .341E+00  .298E+00  .261E+00  .202E+00
  .152E+00  .143E+00  .133E+00  .128E+00  .000E+00  .000E+00  .000E+00  .000E+00
  .000E+00  .000E+00  .000E+00  .000E+00  .000E+00  .000E+00  .000E+00  .000E+00
  .000E+00  .000E+00  .000E+00  .000E+00  .000E+00  .000E+00  .000E+00  .000E+00
  .000E+00  .000E+00  .000E+00  .000E+00  .000E+00  .000E+00  .000E+00  .000E+00
  .000E+00  .000E+00  .000E+00  .000E+00
  .528E-01  .590E-01  .595E-01  .720E-01  .945E-01  .111E+00  .118E+00  .172E+00
  .292E+00  .310E+00  .393E+00  .467E+00  .382E+00  .421E+00  .648E+00  .395E+00
  .476E+00  .493E+00  .604E+00  .642E+00  .746E+00  .919E+00  .122E+01  .111E+01
  .110E+01  .140E+01  .157E+01  .139E+01  .162E+01  .206E+01  .158E+01  .132E+01
  .125E+01  .141E+01  .959E+00  .128E+01  .184E+01  .186E+01  .163E+01  .161E+01
  .206E+01  .133E+01  .148E+01  .145E+01  .124E+01  .134E+01  .132E+01  .141E+01
  .122E+01  .119E+01  .116E+01  .125E+01  .127E+01  .116E+01  .122E+01  .128E+01
  .127E+01  .982E+00  .114E+01  .118E+01  .130E+01  .106E+01  .863E+00  .710E+00
  .619E+00  .563E+00  .540E+00  .529E+00  .000E+00  .000E+00  .000E+00  .000E+00
  .000E+00  .000E+00  .000E+00  .000E+00  .000E+00  .000E+00  .000E+00  .000E+00
  .000E+00  .000E+00  .000E+00  .000E+00  .000E+00  .000E+00  .000E+00  .000E+00
  .000E+00  .000E+00  .000E+00  .000E+00  .000E+00  .000E+00  .000E+00  .000E+00
  .000E+00  .000E+00  .000E+00  .000E+00
  .424E-01  .462E-01  .457E-01  .524E-01  .506E-01  .591E-01  .473E-01  .624E-01
  .806E-01  .954E-01  .103E+00  .118E+00  .884E-01  .890E-01  .127E+00  .724E-01
  .697E-01  .734E-01  .822E-01  .890E-01  .878E-01  .101E+00  .125E+00  .107E+00
  .954E-01  .112E+00  .109E+00  .959E-01  .103E+00  .117E+00  .827E-01  .612E-01
  .585E-01  .605E-01  .399E-01  .510E-01  .698E-01  .650E-01  .575E-01  .518E-01
  .681E-01  .350E-01  .313E-01  .299E-01  .269E-01  .233E-01  .270E-01  .275E-01
  .165E-01  .204E-01  .183E-01  .166E-01  .155E-01  .115E-01  .125E-01  .124E-01
  .127E-01  .888E-02  .906E-02  .921E-02  .872E-02  .630E-02  .465E-02  .306E-02
  .200E-02  .164E-02  .135E-02  .115E-02  .000E+00  .000E+00  .000E+00  .000E+00
  .000E+00  .000E+00  .000E+00  .000E+00  .000E+00  .000E+00  .000E+00  .000E+00
  .000E+00  .000E+00  .000E+00  .000E+00  .000E+00  .000E+00  .000E+00  .000E+00
  .000E+00  .000E+00  .000E+00  .000E+00  .000E+00  .000E+00  .000E+00  .000E+00
  .000E+00  .000E+00  .000E+00  .000E+00
  .104E+00  .119E+00  .124E+00  .148E+00  .149E+00  .182E+00  .160E+00  .229E+00
  .322E+00  .409E+00  .473E+00  .580E+00  .461E+00  .491E+00  .739E+00  .447E+00
  .469E+00  .542E+00  .657E+00  .767E+00  .810E+00  .993E+00  .131E+01  .118E+01
  .111E+01  .138E+01  .148E+01  .141E+01  .164E+01  .201E+01  .152E+01  .120E+01
  .122E+01  .134E+01  .929E+00  .125E+01  .180E+01  .175E+01  .162E+01  .153E+01
  .209E+01  .118E+01  .115E+01  .119E+01  .115E+01  .107E+01  .132E+01  .143E+01
  .910E+00  .119E+01  .112E+01  .112E+01  .114E+01  .914E+00  .107E+01  .115E+01
  .125E+01  .926E+00  .100E+01  .107E+01  .107E+01  .851E+00  .685E+00  .489E+00
  .341E+00  .299E+00  .262E+00  .237E+00  .000E+00  .000E+00  .000E+00  .000E+00
  .000E+00  .000E+00  .000E+00  .000E+00  .000E+00  .000E+00  .000E+00  .000E+00
  .000E+00  .000E+00  .000E+00  .000E+00  .000E+00  .000E+00  .000E+00  .000E+00
  .000E+00  .000E+00  .000E+00  .000E+00  .000E+00  .000E+00  .000E+00  .000E+00
  .000E+00  .000E+00  .000E+00  .000E+00
  .268E+02  .275E+02  .275E+02  .275E+02  .275E+02  .268E+02  .267E+02  .267E+02
  .268E+02  .268E+02  .268E+02  .275E+02  .275E+02  .275E+02  .276E+02  .267E+02
  .274E+02  .275E+02  .276E+02  .268E+02  .276E+02  .277E+02  .304E+02  .305E+02
  .271E+02  .279E+02  .278E+02  .273E+02  .270E+02  .277E+02  .269E+02  .306E+02
  .307E+02  .299E+02  .299E+02  .299E+02  .299E+02  .307E+02  .286E+02  .286E+02
  .345E+02  .268E+02  .299E+02  .267E+02  .298E+02  .267E+02  .267E+02  .345E+02
  .417E+02  .414E+02  .392E+02  .343E+02  .330E+02  .278E+02  .330E+02  .379E+02
  .454E+02  .449E+02  .411E+02  .362E+02  .327E+02  .320E+02  .522E+02  .443E+02
  .261E+02  .261E+02  .261E+02  .261E+02  .000E+00  .000E+00  .000E+00  .000E+00
  .000E+00  .000E+00  .000E+00  .000E+00  .000E+00  .000E+00  .000E+00  .000E+00
  .000E+00  .000E+00  .000E+00  .000E+00  .000E+00  .000E+00  .000E+00  .000E+00
  .000E+00  .000E+00  .000E+00  .000E+00  .000E+00  .000E+00  .000E+00  .000E+00
  .000E+00  .000E+00  .000E+00  .000E+00
  .266E+02  .266E+02  .264E+02  .266E+02  .278E+02  .267E+02  .308E+02  .286E+02
  .270E+02  .269E+02  .269E+02  .275E+02  .278E+02  .266E+02  .276E+02  .268E+02
  .274E+02  .281E+02  .281E+02  .269E+02  .271E+02  .276E+02  .304E+02  .305E+02
  .270E+02  .279E+02  .278E+02  .272E+02  .273E+02  .278E+02  .269E+02  .269E+02
  .306E+02  .300E+02  .300E+02  .300E+02  .298E+02  .312E+02  .287E+02  .276E+02
  .346E+02  .267E+02  .268E+02  .268E+02  .303E+02  .276E+02  .266E+02  .352E+02
  .266E+02  .411E+02  .394E+02  .335E+02  .298E+02  .295E+02  .276E+02  .329E+02
  .451E+02  .445E+02  .372E+02  .329E+02  .323E+02  .323E+02  .295E+02  .275E+02
  .275E+02  .264E+02  .268E+02  .268E+02  .000E+00  .000E+00  .000E+00  .000E+00
  .000E+00  .000E+00  .000E+00  .000E+00  .000E+00  .000E+00  .000E+00  .000E+00
  .000E+00  .000E+00  .000E+00  .000E+00  .000E+00  .000E+00  .000E+00  .000E+00
  .000E+00  .000E+00  .000E+00  .000E+00  .000E+00  .000E+00  .000E+00  .000E+00
  .000E+00  .000E+00  .000E+00  .000E+00
  .268E+02  .275E+02  .275E+02  .275E+02  .275E+02  .268E+02  .267E+02  .267E+02
  .268E+02  .268E+02  .268E+02  .275E+02  .275E+02  .275E+02  .276E+02  .267E+02
  .274E+02  .275E+02  .276E+02  .268E+02  .276E+02  .277E+02  .304E+02  .305E+02
  .271E+02  .279E+02  .278E+02  .273E+02  .270E+02  .277E+02  .269E+02  .306E+02
