Response and Fourier amplitude spectra (76 periods,  .04 -  5.0 sec)   for      
Corrected accelerogram   23792-K1341-08217.20       Chan  2:  Up         from   
Uncorrected Accelerogram Data             Processed: 10/01/08, CDMG  AQ020      
Record of Tue Jul 29, 2008 11:41:59.0 PDT             (Avol1 v8.1 9/08 CSMIP)   
CSMIP Preliminary Processing            (Origin:  To be determined)             
23792-K1341-08217.20                 Start time:  7/29/08, 18:41:59.0 UTC (GPS) 
Station No. 23792   34.064N, 117.294W        K2  s/n 1341 (12 Channels)         
San Bernardino - I10/215 W Geotech Array  CGS                                   
Chan  2:  Up                        Location: Ground Surface                    
Record of Tue Jul 29, 2008 11:41:59.0 PDT    Tue Jul 29, 2008 11:41:59.0 PDT    
Hypocenter:  To be determined.               ML:  To be determined.
Instr Period =  .0106 sec,  Damping =  .660,  Sensitivity =  .63  v/g
                        Record length =109.000 sec.
                                     Uncor Max  =  -.026 g , at  25.265 sec.
RMS accel of (uncor) record  =        .   Chn. metadata effective date: 05/16/08
Accelerogram bandpass filtered with 3 dB pts at   .30 and 40.00 cyc/sec
                 instrument- and baseline-corrected





Record of Tue Jul 29, 2008 11:41:59.0 PDT    Tue Jul 29, 2008 11:41:59.0 PDT

23792-K1341-08217.20      San Bernardino - I10/215 W Geotech Array  CGChan  2:
Up
23792-K1341-08217.20      San Bernardino - I10/215 W Geotech Array  CGChan  2:
Up
Units for spectra are inches and sec, except Sa is in fraction of g.

    2  100    2   12   12  200    1    3    1   24   11 1341    023792    4    0
   18   41   59    0  211    7   29 2008   10    3  50021800   41   40   76   -1
21800    1   50    3 1341    1   20 1090    2    0    0    0    0    0    0    0
    0    4    0    010900    2  222    0   18    4   76   40    1    1    010900
    310900   41   76    5   12    5    0    0    0   12    0    0    3    0    2
    2    2    4    1   65   99    0   32   32    0    0    1    0    0    0  222
    1    0    4    0
      .011      .660   109.000      .003      .000   626.000     -.026    25.265
    94.200      .298      .477      .000     5.000      .000     3.987      .000
     2.500    55.282     2.500  -999.000    25.000    30.000      .000     -.006
      .001      .008     2.000    15.000    34.064  -117.294      .255     3.790
    14.890     -.174      .189   298.000    25.000    78.400    13.100   109.940
     1.000    -1.003      .000      .000      .000      .000      .000      .000
     4.600     8.100     5.000   980.665      .010   109.000    14.992      .006
      .000    40.000      .000   109.000      .010      .300      .000      .000
    31.900    24.488    31.870    -1.058    32.020     -.142      .000      .300
    40.000      .010      .010      .000      .010      .076      .000      .000
      .122      .170      .068      .030      .011      .001      .000      .000
      .000      .000      .000      .000      .000      .000      .000      .000
      .000      .000      .000      .000
      .000      .020      .050      .100      .200
      .040      .042      .044      .046      .048      .050      .055      .060
      .065      .070      .075      .080      .085      .090      .095      .100
      .110      .120      .130      .140      .150      .160      .170      .180
      .190      .200      .220      .240      .260      .280      .300      .320
      .340      .360      .380      .400      .420      .440      .460      .480
      .500      .550      .600      .650      .700      .750      .800      .850
      .900      .950     1.000     1.100     1.200     1.300     1.400     1.500
     1.600     1.700     1.800     1.900     2.000     2.200     2.400     2.600
     2.800     3.000     3.200     3.400     3.600     3.800     4.000     4.200
     4.400     4.600     4.800     5.000      .000      .000      .000      .000
      .000      .000      .000      .000      .000      .000      .000      .000
      .000      .000      .000      .000      .000      .000      .000      .000
      .000      .000      .000      .000
Fourier amplitude spectra in in/sec.
  .570E-01  .537E+00  .371E+00  .167E+00  .657E+00  .304E+00  .301E+00  .108E+00
  .736E+00  .679E-01  .160E+01  .415E+00  .307E+00  .339E+00  .354E+00  .111E+01
  .333E+00  .885E+00  .275E+01  .158E+01  .290E+01  .514E+01  .202E+01  .222E+01
  .289E+01  .189E+01  .146E+01  .829E+00  .135E+01  .169E+01  .232E+01  .219E+01
  .127E+01  .980E+00  .997E+00  .382E+00  .188E+01  .122E+01  .629E+00  .842E+00
  .174E+01  .154E+00  .736E+00  .134E+01  .777E+00  .443E+00  .941E+00  .236E+01
  .842E+00  .229E+01  .696E+00  .127E+01  .840E+00  .673E+00  .157E+01  .233E+01
  .245E+00  .159E+01  .117E+01  .166E+01  .709E+00  .121E+01  .166E+01  .373E+00
  .402E+00  .356E+00  .327E+00  .191E+00  .425E-01  .855E-02  .249E-01  .997E-02
  .117E-01  .109E-01  .559E-02  .313E-02  .000E+00  .000E+00  .000E+00  .000E+00
  .000E+00  .000E+00  .000E+00  .000E+00  .000E+00  .000E+00  .000E+00  .000E+00
  .000E+00  .000E+00  .000E+00  .000E+00  .000E+00  .000E+00  .000E+00  .000E+00
  .000E+00  .000E+00  .000E+00  .000E+00
Damping =  .00. Data of Sd,Sv,Sa,Pssv,ttSd,ttSv,ttSa :
  .101E-02  .394E-02  .282E-02  .232E-02  .514E-02  .381E-02  .425E-02  .434E-02
  .119E-01  .533E-02  .192E-01  .926E-02  .130E-01  .722E-02  .987E-02  .187E-01
  .191E-01  .301E-01  .617E-01  .585E-01  .920E-01  .134E+00  .737E-01  .101E+00
  .951E-01  .896E-01  .525E-01  .497E-01  .695E-01  .966E-01  .115E+00  .119E+00
  .739E-01  .699E-01  .648E-01  .552E-01  .130E+00  .110E+00  .753E-01  .784E-01
  .163E+00  .909E-01  .208E+00  .162E+00  .101E+00  .112E+00  .143E+00  .345E+00
  .178E+00  .347E+00  .145E+00  .245E+00  .200E+00  .220E+00  .453E+00  .571E+00
  .237E+00  .430E+00  .340E+00  .589E+00  .355E+00  .438E+00  .648E+00  .283E+00
  .220E+00  .212E+00  .208E+00  .129E+00  .998E-01  .877E-01  .816E-01  .794E-01
  .770E-01  .748E-01  .737E-01  .728E-01  .000E+00  .000E+00  .000E+00  .000E+00
  .000E+00  .000E+00  .000E+00  .000E+00  .000E+00  .000E+00  .000E+00  .000E+00
  .000E+00  .000E+00  .000E+00  .000E+00  .000E+00  .000E+00  .000E+00  .000E+00
  .000E+00  .000E+00  .000E+00  .000E+00
  .126E+00  .588E+00  .394E+00  .304E+00  .672E+00  .466E+00  .467E+00  .420E+00
  .112E+01  .470E+00  .161E+01  .676E+00  .933E+00  .494E+00  .614E+00  .113E+01
  .106E+01  .154E+01  .295E+01  .258E+01  .387E+01  .525E+01  .274E+01  .348E+01
  .313E+01  .277E+01  .151E+01  .130E+01  .168E+01  .214E+01  .240E+01  .232E+01
  .136E+01  .121E+01  .105E+01  .861E+00  .189E+01  .158E+01  .101E+01  .102E+01
  .204E+01  .107E+01  .218E+01  .155E+01  .907E+00  .920E+00  .115E+01  .255E+01
  .125E+01  .230E+01  .108E+01  .141E+01  .106E+01  .105E+01  .204E+01  .241E+01
  .987E+00  .159E+01  .119E+01  .194E+01  .115E+01  .126E+01  .175E+01  .825E+00
  .655E+00  .555E+00  .541E+00  .489E+00  .481E+00  .468E+00  .456E+00  .450E+00
  .447E+00  .443E+00  .441E+00  .440E+00  .000E+00  .000E+00  .000E+00  .000E+00
  .000E+00  .000E+00  .000E+00  .000E+00  .000E+00  .000E+00  .000E+00  .000E+00
  .000E+00  .000E+00  .000E+00  .000E+00  .000E+00  .000E+00  .000E+00  .000E+00
  .000E+00  .000E+00  .000E+00  .000E+00
  .644E-01  .229E+00  .149E+00  .112E+00  .228E+00  .156E+00  .144E+00  .123E+00
  .289E+00  .111E+00  .348E+00  .148E+00  .184E+00  .911E-01  .112E+00  .192E+00
  .162E+00  .214E+00  .373E+00  .305E+00  .418E+00  .536E+00  .261E+00  .320E+00
  .270E+00  .229E+00  .111E+00  .882E-01  .105E+00  .126E+00  .130E+00  .119E+00
  .654E-01  .551E-01  .459E-01  .353E-01  .751E-01  .581E-01  .364E-01  .348E-01
  .668E-01  .307E-01  .591E-01  .393E-01  .210E-01  .204E-01  .229E-01  .488E-01
  .225E-01  .394E-01  .149E-01  .207E-01  .142E-01  .133E-01  .236E-01  .260E-01
  .949E-02  .152E-01  .107E-01  .167E-01  .907E-02  .925E-02  .115E-01  .427E-02
  .288E-02  .241E-02  .208E-02  .114E-02  .788E-03  .621E-03  .522E-03  .460E-03
  .407E-03  .362E-03  .327E-03  .298E-03  .000E+00  .000E+00  .000E+00  .000E+00
  .000E+00  .000E+00  .000E+00  .000E+00  .000E+00  .000E+00  .000E+00  .000E+00
  .000E+00  .000E+00  .000E+00  .000E+00  .000E+00  .000E+00  .000E+00  .000E+00
  .000E+00  .000E+00  .000E+00  .000E+00
  .158E+00  .590E+00  .402E+00  .317E+00  .673E+00  .479E+00  .485E+00  .455E+00
  .115E+01  .478E+00  .160E+01  .727E+00  .960E+00  .504E+00  .653E+00  .118E+01
  .109E+01  .158E+01  .298E+01  .263E+01  .385E+01  .527E+01  .272E+01  .354E+01
  .315E+01  .281E+01  .150E+01  .130E+01  .168E+01  .217E+01  .240E+01  .235E+01
  .137E+01  .122E+01  .107E+01  .867E+00  .194E+01  .157E+01  .103E+01  .103E+01
  .205E+01  .104E+01  .218E+01  .157E+01  .904E+00  .941E+00  .113E+01  .255E+01
  .124E+01  .230E+01  .913E+00  .140E+01  .104E+01  .106E+01  .203E+01  .239E+01
  .933E+00  .159E+01  .119E+01  .195E+01  .111E+01  .125E+01  .170E+01  .683E+00
  .495E+00  .444E+00  .409E+00  .239E+00  .174E+00  .145E+00  .128E+00  .119E+00
  .110E+00  .102E+00  .965E-01  .915E-01  .000E+00  .000E+00  .000E+00  .000E+00
  .000E+00  .000E+00  .000E+00  .000E+00  .000E+00  .000E+00  .000E+00  .000E+00
  .000E+00  .000E+00  .000E+00  .000E+00  .000E+00  .000E+00  .000E+00  .000E+00
  .000E+00  .000E+00  .000E+00  .000E+00
  .253E+02  .663E+02  .319E+02  .291E+02  .103E+03  .320E+02  .342E+02  .258E+02
  .341E+02  .269E+02  .106E+03  .321E+02  .268E+02  .311E+02  .298E+02  .465E+02
  .347E+02  .335E+02  .548E+02  .369E+02  .340E+02  .408E+02  .389E+02  .282E+02
  .483E+02  .348E+02  .778E+02  .465E+02  .334E+02  .357E+02  .583E+02  .563E+02
  .884E+02  .576E+02  .511E+02  .338E+02  .387E+02  .413E+02  .633E+02  .725E+02
  .647E+02  .341E+02  .390E+02  .565E+02  .820E+02  .548E+02  .329E+02  .761E+02
  .530E+02  .102E+03  .347E+02  .973E+02  .696E+02  .520E+02  .645E+02  .975E+02
  .616E+02  .109E+03  .102E+03  .696E+02  .599E+02  .908E+02  .770E+02  .403E+02
  .383E+02  .452E+02  .523E+02  .670E+02  .320E+02  .320E+02  .320E+02  .320E+02
  .320E+02  .320E+02  .320E+02  .320E+02  .000E+00  .000E+00  .000E+00  .000E+00
  .000E+00  .000E+00  .000E+00  .000E+00  .000E+00  .000E+00  .000E+00  .000E+00
  .000E+00  .000E+00  .000E+00  .000E+00  .000E+00  .000E+00  .000E+00  .000E+00
  .000E+00  .000E+00  .000E+00  .000E+00
  .252E+02  .662E+02  .976E+02  .285E+02  .103E+03  .321E+02  .343E+02  .258E+02
  .341E+02  .270E+02  .106E+03  .337E+02  .268E+02  .311E+02  .270E+02  .595E+02
  .354E+02  .335E+02  .560E+02  .372E+02  .340E+02  .408E+02  .389E+02  .282E+02
  .484E+02  .348E+02  .778E+02  .465E+02  .497E+02  .357E+02  .582E+02  .562E+02
  .885E+02  .574E+02  .512E+02  .337E+02  .947E+02  .398E+02  .634E+02  .727E+02
  .645E+02  .345E+02  .389E+02  .380E+02  .822E+02  .546E+02  .327E+02  .848E+02
  .374E+02  .101E+03  .339E+02  .975E+02  .693E+02  .484E+02  .642E+02  .978E+02
  .612E+02  .110E+03  .101E+03  .700E+02  .624E+02  .991E+02  .764E+02  .410E+02
  .322E+02  .322E+02  .516E+02  .319E+02  .319E+02  .319E+02  .319E+02  .319E+02
  .319E+02  .319E+02  .319E+02  .319E+02  .000E+00  .000E+00  .000E+00  .000E+00
  .000E+00  .000E+00  .000E+00  .000E+00  .000E+00  .000E+00  .000E+00  .000E+00
  .000E+00  .000E+00  .000E+00  .000E+00  .000E+00  .000E+00  .000E+00  .000E+00
  .000E+00  .000E+00  .000E+00  .000E+00
  .253E+02  .663E+02  .319E+02  .291E+02  .103E+03  .320E+02  .342E+02  .258E+02
  .341E+02  .269E+02  .106E+03  .321E+02  .268E+02  .311E+02  .298E+02  .465E+02
  .347E+02  .335E+02  .548E+02  .369E+02  .340E+02  .408E+02  .389E+02  .282E+02
  .483E+02  .348E+02  .778E+02  .465E+02  .334E+02  .357E+02  .583E+02  .563E+02
  .884E+02  .576E+02  .511E+02  .338E+02  .387E+02  .413E+02  .633E+02  .725E+02
  .647E+02  .341E+02  .390E+02  .565E+02  .820E+02  .548E+02  .329E+02  .761E+02
  .530E+02  .102E+03  .347E+02  .973E+02  .696E+02  .520E+02  .645E+02  .975E+02
  .616E+02  .109E+03  .102E+03  .696E+02  .599E+02  .908E+02  .770E+02  .403E+02
  .383E+02  .452E+02  .523E+02  .670E+02  .320E+02  .320E+02  .320E+02  .320E+02
  .320E+02  .320E+02  .320E+02  .320E+02  .000E+00  .000E+00  .000E+00  .000E+00
  .000E+00  .000E+00  .000E+00  .000E+00  .000E+00  .000E+00  .000E+00  .000E+00
  .000E+00  .000E+00  .000E+00  .000E+00  .000E+00  .000E+00  .000E+00  .000E+00
  .000E+00  .000E+00  .000E+00  .000E+00
Damping =  .02. Data of Sd,Sv,Sa,Pssv,ttSd,ttSv,ttSa :
  .582E-03  .775E-03  .893E-03  .108E-02  .158E-02  .184E-02  .260E-02  .298E-02
  .331E-02  .346E-02  .503E-02  .497E-02  .627E-02  .595E-02  .717E-02  .730E-02
  .915E-02  .132E-01  .204E-01  .212E-01  .293E-01  .422E-01  .512E-01  .479E-01
  .428E-01  .327E-01  .265E-01  .279E-01  .347E-01  .372E-01  .449E-01  .415E-01
  .283E-01  .279E-01  .254E-01  .320E-01  .551E-01  .502E-01  .420E-01  .451E-01
  .470E-01  .750E-01  .104E+00  .850E-01  .759E-01  .646E-01  .952E-01  .119E+00
  .117E+00  .145E+00  .131E+00  .138E+00  .111E+00  .126E+00  .255E+00  .225E+00
  .184E+00  .203E+00  .182E+00  .306E+00  .236E+00  .243E+00  .371E+00  .212E+00
  .171E+00  .146E+00  .144E+00  .115E+00  .993E-01  .886E-01  .826E-01  .796E-01
  .772E-01  .751E-01  .737E-01  .725E-01  .000E+00  .000E+00  .000E+00  .000E+00
  .000E+00  .000E+00  .000E+00  .000E+00  .000E+00  .000E+00  .000E+00  .000E+00
  .000E+00  .000E+00  .000E+00  .000E+00  .000E+00  .000E+00  .000E+00  .000E+00
  .000E+00  .000E+00  .000E+00  .000E+00
  .657E-01  .867E-01  .108E+00  .120E+00  .189E+00  .213E+00  .257E+00  .281E+00
  .279E+00  .273E+00  .405E+00  .370E+00  .466E+00  .420E+00  .488E+00  .462E+00
  .451E+00  .686E+00  .951E+00  .937E+00  .121E+01  .167E+01  .189E+01  .172E+01
  .146E+01  .110E+01  .782E+00  .806E+00  .784E+00  .852E+00  .981E+00  .866E+00
  .553E+00  .598E+00  .548E+00  .553E+00  .856E+00  .709E+00  .585E+00  .595E+00
  .561E+00  .809E+00  .124E+01  .941E+00  .676E+00  .522E+00  .782E+00  .878E+00
  .842E+00  .115E+01  .103E+01  .975E+00  .691E+00  .627E+00  .115E+01  .962E+00
  .741E+00  .786E+00  .616E+00  .112E+01  .742E+00  .786E+00  .107E+01  .636E+00
  .628E+00  .551E+00  .470E+00  .468E+00  .467E+00  .459E+00  .451E+00  .446E+00
  .442E+00  .440E+00  .438E+00  .436E+00  .000E+00  .000E+00  .000E+00  .000E+00
  .000E+00  .000E+00  .000E+00  .000E+00  .000E+00  .000E+00  .000E+00  .000E+00
  .000E+00  .000E+00  .000E+00  .000E+00  .000E+00  .000E+00  .000E+00  .000E+00
  .000E+00  .000E+00  .000E+00  .000E+00
  .372E-01  .448E-01  .470E-01  .518E-01  .698E-01  .751E-01  .877E-01  .841E-01
  .797E-01  .719E-01  .919E-01  .795E-01  .891E-01  .749E-01  .814E-01  .746E-01
  .771E-01  .936E-01  .124E+00  .111E+00  .134E+00  .168E+00  .182E+00  .152E+00
  .122E+00  .838E-01  .560E-01  .497E-01  .524E-01  .486E-01  .510E-01  .417E-01
  .250E-01  .219E-01  .179E-01  .205E-01  .319E-01  .265E-01  .203E-01  .200E-01
  .192E-01  .253E-01  .295E-01  .206E-01  .159E-01  .118E-01  .152E-01  .169E-01
  .148E-01  .165E-01  .134E-01  .117E-01  .792E-02  .763E-02  .133E-01  .102E-01
  .734E-02  .718E-02  .576E-02  .868E-02  .604E-02  .514E-02  .659E-02  .322E-02
  .224E-02  .166E-02  .144E-02  .102E-02  .791E-03  .635E-03  .536E-03  .469E-03
  .415E-03  .370E-03  .334E-03  .303E-03  .000E+00  .000E+00  .000E+00  .000E+00
  .000E+00  .000E+00  .000E+00  .000E+00  .000E+00  .000E+00  .000E+00  .000E+00
  .000E+00  .000E+00  .000E+00  .000E+00  .000E+00  .000E+00  .000E+00  .000E+00
  .000E+00  .000E+00  .000E+00  .000E+00
  .915E-01  .116E+00  .127E+00  .147E+00  .207E+00  .231E+00  .297E+00  .312E+00
  .320E+00  .310E+00  .421E+00  .390E+00  .463E+00  .415E+00  .474E+00  .459E+00
  .523E+00  .692E+00  .986E+00  .950E+00  .123E+01  .166E+01  .189E+01  .167E+01
  .142E+01  .103E+01  .758E+00  .730E+00  .837E+00  .835E+00  .941E+00  .816E+00
  .523E+00  .486E+00  .419E+00  .503E+00  .824E+00  .716E+00  .574E+00  .590E+00
  .591E+00  .856E+00  .109E+01  .821E+00  .682E+00  .541E+00  .747E+00  .881E+00
  .817E+00  .962E+00  .822E+00  .786E+00  .584E+00  .609E+00  .115E+01  .941E+00
  .721E+00  .749E+00  .636E+00  .101E+01  .741E+00  .694E+00  .970E+00  .513E+00
  .385E+00  .306E+00  .283E+00  .212E+00  .173E+00  .147E+00  .130E+00  .119E+00
  .110E+00  .103E+00  .965E-01  .911E-01  .000E+00  .000E+00  .000E+00  .000E+00
  .000E+00  .000E+00  .000E+00  .000E+00  .000E+00  .000E+00  .000E+00  .000E+00
  .000E+00  .000E+00  .000E+00  .000E+00  .000E+00  .000E+00  .000E+00  .000E+00
  .000E+00  .000E+00  .000E+00  .000E+00
  .303E+02  .256E+02  .258E+02  .303E+02  .304E+02  .307E+02  .311E+02  .258E+02
  .319E+02  .257E+02  .258E+02  .318E+02  .259E+02  .258E+02  .257E+02  .257E+02
  .318E+02  .322E+02  .342E+02  .255E+02  .255E+02  .267E+02  .258E+02  .256E+02
  .265E+02  .254E+02  .343E+02  .323E+02  .335E+02  .358E+02  .320E+02  .318E+02
  .363E+02  .309E+02  .385E+02  .338E+02  .385E+02  .395E+02  .359E+02  .396E+02
  .332E+02  .341E+02  .339E+02  .340E+02  .325E+02  .544E+02  .325E+02  .365E+02
  .363E+02  .341E+02  .337E+02  .334E+02  .630E+02  .487E+02  .567E+02  .615E+02
  .609E+02  .541E+02  .416E+02  .543E+02  .588E+02  .464E+02  .530E+02  .403E+02
  .383E+02  .452E+02  .522E+02  .320E+02  .320E+02  .320E+02  .320E+02  .320E+02
  .320E+02  .320E+02  .320E+02  .320E+02  .000E+00  .000E+00  .000E+00  .000E+00
  .000E+00  .000E+00  .000E+00  .000E+00  .000E+00  .000E+00  .000E+00  .000E+00
  .000E+00  .000E+00  .000E+00  .000E+00  .000E+00  .000E+00  .000E+00  .000E+00
  .000E+00  .000E+00  .000E+00  .000E+00
  .302E+02  .253E+02  .257E+02  .303E+02  .304E+02  .307E+02  .311E+02  .258E+02
  .320E+02  .256E+02  .260E+02  .315E+02  .259E+02  .259E+02  .257E+02  .257E+02
  .335E+02  .323E+02  .343E+02  .320E+02  .255E+02  .268E+02  .258E+02  .258E+02
  .265E+02  .254E+02  .342E+02  .321E+02  .335E+02  .357E+02  .318E+02  .318E+02
  .318E+02  .310E+02  .252E+02  .252E+02  .385E+02  .394E+02  .358E+02  .397E+02
  .325E+02  .343E+02  .341E+02  .341E+02  .327E+02  .254E+02  .327E+02  .363E+02
  .374E+02  .339E+02  .339E+02  .336E+02  .322E+02  .464E+02  .571E+02  .611E+02
  .613E+02  .544E+02  .421E+02  .539E+02  .541E+02  .459E+02  .525E+02  .322E+02
  .322E+02  .322E+02  .322E+02  .319E+02  .319E+02  .319E+02  .319E+02  .319E+02
  .319E+02  .319E+02  .319E+02  .319E+02  .000E+00  .000E+00  .000E+00  .000E+00
  .000E+00  .000E+00  .000E+00  .000E+00  .000E+00  .000E+00  .000E+00  .000E+00
  .000E+00  .000E+00  .000E+00  .000E+00  .000E+00  .000E+00  .000E+00  .000E+00
  .000E+00  .000E+00  .000E+00  .000E+00
  .303E+02  .256E+02  .258E+02  .303E+02  .304E+02  .307E+02  .311E+02  .258E+02
  .319E+02  .257E+02  .258E+02  .318E+02  .259E+02  .258E+02  .257E+02  .257E+02
  .318E+02  .322E+02  .342E+02  .255E+02  .256E+02  .267E+02  .258E+02  .256E+02
  .265E+02  .254E+02  .343E+02  .323E+02  .335E+02  .358E+02  .320E+02  .318E+02
  .363E+02  .309E+02  .385E+02  .338E+02  .385E+02  .395E+02  .359E+02  .396E+02
  .332E+02  .341E+02  .339E+02  .340E+02  .325E+02  .544E+02  .325E+02  .365E+02
  .362E+02  .341E+02  .337E+02  .334E+02  .630E+02  .487E+02  .567E+02  .615E+02
  .609E+02  .541E+02  .416E+02  .543E+02  .588E+02  .464E+02  .529E+02  .403E+02
  .383E+02  .451E+02  .522E+02  .320E+02  .320E+02  .320E+02  .320E+02  .320E+02
  .320E+02  .320E+02  .320E+02  .320E+02  .000E+00  .000E+00  .000E+00  .000E+00
  .000E+00  .000E+00  .000E+00  .000E+00  .000E+00  .000E+00  .000E+00  .000E+00
  .000E+00  .000E+00  .000E+00  .000E+00  .000E+00  .000E+00  .000E+00  .000E+00
  .000E+00  .000E+00  .000E+00  .000E+00
Damping =  .05. Data of Sd,Sv,Sa,Pssv,ttSd,ttSv,ttSa :
  .527E-03  .602E-03  .699E-03  .838E-03  .970E-03  .118E-02  .175E-02  .232E-02
