Response and Fourier amplitude spectra (80 periods,  .04 -  7.0 sec)   for      
Corrected accelerogram   23701-F1382-08212.18       Chan  1: 360 Deg     from   
Uncorrected Accelerogram Data             Processed: 02/09/09, CGS  CE23701     
Record of Tue Jul 29, 2008 11:42:48.8 PDT             (Avol1 v8.5,11/08 CSMIP)  
CSMIP Preliminary Processing            (Origin:  To be determined)             
23701-F1382-08212.18                 Start time:  7/29/08, 18:42 GMT (*LoQ*)    
Station No. 23701   34.163N, 117.332W     SSA-2  s/n 1382  (3 Chns of 15 at Sta)
San Bernardino - 3-story Motel            CGS                                   
Chan  1: 360 DegR (Sta Chn: 13)     Location: Roof, S. Wing: N. Wall            
Record of Tue Jul 29, 2008 11:42:48.8 PDT    Tue Jul 29, 2008 11:42:48.8 PDT    
Hypocenter:  To be determined.               ML:  To be determined.             
Instr Period =  .0193 sec,  Damping =  .640,  Sensitivity = 1.24  v/g           
                        Record length = 78.080 sec.                             
                                     Uncor Max  =  -.141 g , at  21.975 sec.    
RMS accel of (uncor) record  =        .   Chn. metadata effective date: 09/16/94
Accelerogram bandpass filtered with 3 dB pts at   .14 and 40.00 cyc/sec         
                 instrument- and baseline-corrected                             
                                                                                
                                                                                
                                                                                
                                                                                
                                                                                
Record of Tue Jul 29, 2008 11:42:48.8 PDT    Tue Jul 29, 2008 11:42:48.8 PDT    
                                                                                
23701-F1382-08212.18      San Bernardino - 3-story Motel    Chan  1: 360 Deg    
                                                                                
23701-F1382-08212.18      San Bernardino - 3-story Motel    Chan  1: 360 Deg    
                                                                                
Units for spectra are inches and sec, except Sa is in fraction of g.            
                                                                                
    1  100   13    3   15  200    1    3    1   12    6 1382    023701    2    0
   18   42   48  770  211    7   29 2008    0    6  36015616   41   30   76   45
15616    0  100    3 4104    1   18   61    2   18   42   48  770    7   29 2008
    0    2    0    0 7808    2  222    1   12    4   76   30    3    1    0 7808
    3 7808   31   80    5    3    5    0    0    0   15    0    0    3    0    2
    2    2    4    0   77   99    1   32   32    0    0    1    0    0   12  222
    1    0    1    0
      .019      .640    78.080      .010      .000  1238.000     -.141    21.975
    51.800  1220.703   986.028      .000     5.000      .000      .000      .000
     2.500     5.334     2.500   330.000    15.360    30.000      .000      .062
      .037     -.025     2.000    15.000    34.163  -117.332      .493     1.095
     2.223     -.107      .057   435.000      .000      .000      .000      .000
     1.000     4.566     7.000      .000      .000      .000      .000      .000
     6.800     8.500     5.200   980.665      .010    78.080     8.244      .000
      .000    40.000      .000    78.080      .010      .143      .000      .000
    21.970  -137.938    21.880     5.469    21.660      .341      .003      .143
    40.000      .010      .010      .009     2.150      .133      .000      .000
      .619      .280      .301      .591      .023      .002      .000      .000
      .000      .000      .000      .000      .000      .000      .000      .000
      .000      .000      .000      .000
      .000      .020      .050      .100      .200
      .040      .042      .044      .046      .048      .050      .055      .060
      .065      .070      .075      .080      .085      .090      .095      .100
      .110      .120      .130      .140      .150      .160      .170      .180
      .190      .200      .220      .240      .260      .280      .300      .320
      .340      .360      .380      .400      .420      .440      .460      .480
      .500      .550      .600      .650      .700      .750      .800      .850
      .900      .950     1.000     1.100     1.200     1.300     1.400     1.500
     1.600     1.700     1.800     1.900     2.000     2.200     2.400     2.600
     2.800     3.000     3.200     3.400     3.600     3.800     4.000     4.200
     4.400     4.600     4.800     5.000     5.500     6.000     6.500     7.000
      .000      .000      .000      .000      .000      .000      .000      .000
      .000      .000      .000      .000      .000      .000      .000      .000
      .000      .000      .000      .000
Fourier amplitude spectra in in/sec.
  .116E+00  .769E-01  .691E-01  .209E+00  .181E+00  .255E+00  .107E+00  .765E+00
  .641E+00  .115E+00  .314E+00  .845E+00  .525E+00  .979E+00  .159E+01  .128E+01
  .216E+01  .107E+01  .119E+01  .692E+00  .190E+01  .143E+01  .472E+01  .754E+01
  .975E+01  .123E+02  .740E+01  .473E+01  .282E+02  .136E+02  .201E+02  .659E+01
  .213E+02  .123E+02  .886E+01  .697E+01  .691E+01  .216E+01  .694E+00  .399E+01
  .599E+00  .551E+01  .370E+01  .181E+01  .206E+01  .353E+00  .148E+01  .582E+00
  .593E+00  .142E+00  .105E+01  .416E+00  .698E+00  .385E+00  .630E+00  .100E+01
  .310E+00  .128E+00  .360E+00  .502E+00  .538E+00  .675E+00  .511E+00  .123E+00
  .545E+00  .109E+00  .275E+00  .295E+00  .237E+00  .119E+00  .150E+00  .123E+00
  .101E+00  .175E-01  .106E+00  .104E+00  .168E+00  .153E+00  .158E+00  .135E+00
  .000E+00  .000E+00  .000E+00  .000E+00  .000E+00  .000E+00  .000E+00  .000E+00
  .000E+00  .000E+00  .000E+00  .000E+00  .000E+00  .000E+00  .000E+00  .000E+00
  .000E+00  .000E+00  .000E+00  .000E+00
Damping =  .00. Data of Sd,Sv,Sa,Pssv,ttSd,ttSv,ttSa :
  .264E-02  .248E-02  .309E-02  .377E-02  .488E-02  .545E-02  .531E-02  .936E-02
  .988E-02  .759E-02  .107E-01  .146E-01  .172E-01  .165E-01  .376E-01  .358E-01
  .381E-01  .419E-01  .357E-01  .473E-01  .744E-01  .991E-01  .143E+00  .290E+00
  .344E+00  .393E+00  .374E+00  .457E+00  .120E+01  .786E+00  .103E+01  .847E+00
  .118E+01  .817E+00  .698E+00  .537E+00  .498E+00  .411E+00  .426E+00  .439E+00
  .332E+00  .492E+00  .400E+00  .324E+00  .292E+00  .250E+00  .266E+00  .249E+00
  .255E+00  .250E+00  .231E+00  .193E+00  .196E+00  .212E+00  .199E+00  .247E+00
  .181E+00  .189E+00  .193E+00  .178E+00  .173E+00  .270E+00  .262E+00  .170E+00
  .249E+00  .171E+00  .171E+00  .182E+00  .137E+00  .154E+00  .167E+00  .161E+00
  .146E+00  .146E+00  .144E+00  .150E+00  .171E+00  .181E+00  .190E+00  .203E+00
  .000E+00  .000E+00  .000E+00  .000E+00  .000E+00  .000E+00  .000E+00  .000E+00
  .000E+00  .000E+00  .000E+00  .000E+00  .000E+00  .000E+00  .000E+00  .000E+00
  .000E+00  .000E+00  .000E+00  .000E+00
  .132E+00  .157E+00  .138E+00  .235E+00  .259E+00  .312E+00  .263E+00  .878E+00
  .794E+00  .364E+00  .475E+00  .106E+01  .916E+00  .111E+01  .230E+01  .199E+01
  .217E+01  .204E+01  .137E+01  .185E+01  .272E+01  .333E+01  .528E+01  .101E+02
  .113E+02  .123E+02  .107E+02  .120E+02  .291E+02  .178E+02  .217E+02  .170E+02
  .219E+02  .146E+02  .116E+02  .960E+01  .834E+01  .733E+01  .716E+01  .691E+01
  .549E+01  .564E+01  .464E+01  .443E+01  .380E+01  .355E+01  .334E+01  .303E+01
  .294E+01  .301E+01  .297E+01  .291E+01  .271E+01  .286E+01  .271E+01  .251E+01
  .250E+01  .247E+01  .244E+01  .237E+01  .234E+01  .235E+01  .227E+01  .221E+01
  .223E+01  .223E+01  .222E+01  .220E+01  .216E+01  .217E+01  .223E+01  .226E+01
  .226E+01  .225E+01  .224E+01  .223E+01  .222E+01  .220E+01  .219E+01  .217E+01
  .000E+00  .000E+00  .000E+00  .000E+00  .000E+00  .000E+00  .000E+00  .000E+00
  .000E+00  .000E+00  .000E+00  .000E+00  .000E+00  .000E+00  .000E+00  .000E+00
  .000E+00  .000E+00  .000E+00  .000E+00
  .169E+00  .144E+00  .163E+00  .182E+00  .217E+00  .223E+00  .179E+00  .266E+00
  .239E+00  .158E+00  .195E+00  .234E+00  .243E+00  .208E+00  .426E+00  .366E+00
  .322E+00  .297E+00  .216E+00  .247E+00  .338E+00  .396E+00  .506E+00  .916E+00
  .975E+00  .100E+01  .791E+00  .811E+00  .182E+01  .103E+01  .117E+01  .846E+00
  .105E+01  .645E+00  .495E+00  .343E+00  .289E+00  .217E+00  .206E+00  .195E+00
  .136E+00  .166E+00  .114E+00  .784E-01  .609E-01  .455E-01  .425E-01  .352E-01
  .321E-01  .283E-01  .236E-01  .164E-01  .139E-01  .129E-01  .104E-01  .112E-01
  .721E-02  .670E-02  .609E-02  .503E-02  .442E-02  .570E-02  .466E-02  .257E-02
  .325E-02  .194E-02  .171E-02  .161E-02  .108E-02  .109E-02  .107E-02  .932E-03
  .774E-03  .707E-03  .637E-03  .614E-03  .577E-03  .514E-03  .461E-03  .423E-03
  .000E+00  .000E+00  .000E+00  .000E+00  .000E+00  .000E+00  .000E+00  .000E+00
  .000E+00  .000E+00  .000E+00  .000E+00  .000E+00  .000E+00  .000E+00  .000E+00
  .000E+00  .000E+00  .000E+00  .000E+00
  .414E+00  .371E+00  .441E+00  .515E+00  .639E+00  .685E+00  .606E+00  .980E+00
  .955E+00  .681E+00  .897E+00  .115E+01  .127E+01  .115E+01  .249E+01  .225E+01
  .218E+01  .219E+01  .172E+01  .212E+01  .312E+01  .389E+01  .528E+01  .101E+02
  .114E+02  .123E+02  .107E+02  .120E+02  .290E+02  .176E+02  .215E+02  .166E+02
  .218E+02  .143E+02  .115E+02  .843E+01  .745E+01  .587E+01  .581E+01  .575E+01
  .417E+01  .562E+01  .419E+01  .313E+01  .262E+01  .210E+01  .209E+01  .184E+01
  .178E+01  .165E+01  .145E+01  .111E+01  .102E+01  .103E+01  .893E+00  .103E+01
  .709E+00  .700E+00  .673E+00  .587E+00  .543E+00  .770E+00  .687E+00  .410E+00
  .560E+00  .358E+00  .336E+00  .336E+00  .239E+00  .255E+00  .263E+00  .241E+00
  .209E+00  .200E+00  .188E+00  .189E+00  .195E+00  .190E+00  .184E+00  .182E+00
  .000E+00  .000E+00  .000E+00  .000E+00  .000E+00  .000E+00  .000E+00  .000E+00
  .000E+00  .000E+00  .000E+00  .000E+00  .000E+00  .000E+00  .000E+00  .000E+00
  .000E+00  .000E+00  .000E+00  .000E+00
  .220E+02  .219E+02  .220E+02  .220E+02  .220E+02  .220E+02  .220E+02  .220E+02
  .220E+02  .218E+02  .220E+02  .299E+02  .221E+02  .396E+02  .252E+02  .222E+02
  .228E+02  .247E+02  .221E+02  .236E+02  .219E+02  .221E+02  .401E+02  .271E+02
  .451E+02  .778E+02  .385E+02  .255E+02  .317E+02  .223E+02  .246E+02  .232E+02
  .583E+02  .239E+02  .297E+02  .219E+02  .219E+02  .220E+02  .220E+02  .218E+02
  .218E+02  .276E+02  .357E+02  .252E+02  .355E+02  .216E+02  .216E+02  .216E+02
  .216E+02  .216E+02  .216E+02  .217E+02  .327E+02  .252E+02  .219E+02  .649E+02
  .215E+02  .215E+02  .215E+02  .215E+02  .764E+02  .579E+02  .490E+02  .398E+02
  .629E+02  .329E+02  .468E+02  .428E+02  .758E+02  .215E+02  .221E+02  .221E+02
  .231E+02  .231E+02  .216E+02  .216E+02  .216E+02  .216E+02  .216E+02  .216E+02
  .000E+00  .000E+00  .000E+00  .000E+00  .000E+00  .000E+00  .000E+00  .000E+00
  .000E+00  .000E+00  .000E+00  .000E+00  .000E+00  .000E+00  .000E+00  .000E+00
  .000E+00  .000E+00  .000E+00  .000E+00
  .221E+02  .221E+02  .216E+02  .420E+02  .220E+02  .221E+02  .230E+02  .716E+02
  .251E+02  .229E+02  .379E+02  .290E+02  .221E+02  .390E+02  .252E+02  .224E+02
  .633E+02  .247E+02  .378E+02  .235E+02  .224E+02  .220E+02  .400E+02  .271E+02
  .451E+02  .778E+02  .385E+02  .254E+02  .318E+02  .224E+02  .246E+02  .232E+02
  .583E+02  .239E+02  .298E+02  .220E+02  .219E+02  .219E+02  .219E+02  .219E+02
  .219E+02  .288E+02  .217E+02  .217E+02  .217E+02  .217E+02  .217E+02  .217E+02
  .216E+02  .216E+02  .216E+02  .216E+02  .216E+02  .216E+02  .216E+02  .216E+02
  .216E+02  .216E+02  .219E+02  .219E+02  .219E+02  .219E+02  .219E+02  .217E+02
  .217E+02  .217E+02  .217E+02  .217E+02  .217E+02  .217E+02  .217E+02  .217E+02
  .217E+02  .220E+02  .220E+02  .220E+02  .220E+02  .220E+02  .220E+02  .220E+02
  .000E+00  .000E+00  .000E+00  .000E+00  .000E+00  .000E+00  .000E+00  .000E+00
  .000E+00  .000E+00  .000E+00  .000E+00  .000E+00  .000E+00  .000E+00  .000E+00
  .000E+00  .000E+00  .000E+00  .000E+00
  .220E+02  .219E+02  .220E+02  .220E+02  .220E+02  .220E+02  .220E+02  .220E+02
  .220E+02  .218E+02  .220E+02  .299E+02  .221E+02  .396E+02  .252E+02  .222E+02
  .228E+02  .247E+02  .221E+02  .236E+02  .219E+02  .221E+02  .401E+02  .271E+02
  .451E+02  .778E+02  .385E+02  .255E+02  .317E+02  .223E+02  .246E+02  .232E+02
  .583E+02  .239E+02  .297E+02  .219E+02  .219E+02  .220E+02  .220E+02  .218E+02
  .218E+02  .276E+02  .357E+02  .252E+02  .355E+02  .216E+02  .216E+02  .216E+02
  .216E+02  .216E+02  .216E+02  .217E+02  .327E+02  .252E+02  .219E+02  .649E+02
  .215E+02  .215E+02  .215E+02  .215E+02  .764E+02  .579E+02  .490E+02  .398E+02
  .629E+02  .329E+02  .468E+02  .428E+02  .758E+02  .215E+02  .221E+02  .221E+02
  .231E+02  .231E+02  .216E+02  .216E+02  .216E+02  .216E+02  .216E+02  .216E+02
  .000E+00  .000E+00  .000E+00  .000E+00  .000E+00  .000E+00  .000E+00  .000E+00
  .000E+00  .000E+00  .000E+00  .000E+00  .000E+00  .000E+00  .000E+00  .000E+00
  .000E+00  .000E+00  .000E+00  .000E+00
Damping =  .02. Data of Sd,Sv,Sa,Pssv,ttSd,ttSv,ttSa :
  .224E-02  .243E-02  .285E-02  .333E-02  .377E-02  .413E-02  .478E-02  .621E-02
  .663E-02  .733E-02  .972E-02  .108E-01  .128E-01  .154E-01  .216E-01  .300E-01
  .316E-01  .301E-01  .291E-01  .378E-01  .453E-01  .584E-01  .616E-01  .979E-01
  .146E+00  .196E+00  .157E+00  .254E+00  .470E+00  .624E+00  .671E+00  .672E+00
  .647E+00  .582E+00  .538E+00  .489E+00  .453E+00  .399E+00  .381E+00  .384E+00
  .347E+00  .337E+00  .291E+00  .279E+00  .250E+00  .247E+00  .254E+00  .246E+00
  .246E+00  .242E+00  .230E+00  .196E+00  .185E+00  .184E+00  .185E+00  .170E+00
  .176E+00  .183E+00  .186E+00  .177E+00  .172E+00  .186E+00  .182E+00  .162E+00
  .152E+00  .138E+00  .132E+00  .122E+00  .131E+00  .144E+00  .155E+00  .151E+00
  .135E+00  .137E+00  .141E+00  .148E+00  .166E+00  .177E+00  .187E+00  .196E+00
  .000E+00  .000E+00  .000E+00  .000E+00  .000E+00  .000E+00  .000E+00  .000E+00
  .000E+00  .000E+00  .000E+00  .000E+00  .000E+00  .000E+00  .000E+00  .000E+00
  .000E+00  .000E+00  .000E+00  .000E+00
  .991E-01  .115E+00  .138E+00  .146E+00  .124E+00  .137E+00  .141E+00  .276E+00
  .304E+00  .276E+00  .404E+00  .455E+00  .619E+00  .784E+00  .121E+01  .153E+01
  .152E+01  .132E+01  .110E+01  .131E+01  .130E+01  .169E+01  .194E+01  .320E+01
  .462E+01  .603E+01  .414E+01  .659E+01  .112E+02  .140E+02  .144E+02  .134E+02
  .126E+02  .114E+02  .102E+02  .888E+01  .781E+01  .710E+01  .679E+01  .636E+01
  .560E+01  .495E+01  .466E+01  .426E+01  .374E+01  .352E+01  .331E+01  .306E+01
  .292E+01  .296E+01  .294E+01  .286E+01  .271E+01  .277E+01  .267E+01  .253E+01
  .250E+01  .245E+01  .241E+01  .236E+01  .234E+01  .234E+01  .227E+01  .219E+01
  .222E+01  .222E+01  .221E+01  .219E+01  .217E+01  .218E+01  .222E+01  .224E+01
  .225E+01  .224E+01  .223E+01  .223E+01  .222E+01  .220E+01  .219E+01  .217E+01
  .000E+00  .000E+00  .000E+00  .000E+00  .000E+00  .000E+00  .000E+00  .000E+00
  .000E+00  .000E+00  .000E+00  .000E+00  .000E+00  .000E+00  .000E+00  .000E+00
  .000E+00  .000E+00  .000E+00  .000E+00
  .143E+00  .141E+00  .150E+00  .161E+00  .167E+00  .169E+00  .162E+00  .176E+00
  .160E+00  .153E+00  .177E+00  .173E+00  .181E+00  .194E+00  .245E+00  .306E+00
  .269E+00  .215E+00  .177E+00  .197E+00  .206E+00  .234E+00  .218E+00  .308E+00
  .415E+00  .499E+00  .330E+00  .452E+00  .714E+00  .816E+00  .766E+00  .673E+00
  .573E+00  .460E+00  .380E+00  .314E+00  .264E+00  .212E+00  .184E+00  .171E+00
  .142E+00  .114E+00  .829E-01  .678E-01  .524E-01  .449E-01  .407E-01  .350E-01
  .313E-01  .275E-01  .236E-01  .167E-01  .132E-01  .112E-01  .977E-02  .780E-02
  .709E-02  .654E-02  .592E-02  .506E-02  .446E-02  .399E-02  .330E-02  .255E-02
  .209E-02  .166E-02  .137E-02  .113E-02  .109E-02  .111E-02  .106E-02  .947E-03
  .785E-03  .720E-03  .704E-03  .683E-03  .638E-03  .578E-03  .526E-03  .483E-03
  .000E+00  .000E+00  .000E+00  .000E+00  .000E+00  .000E+00  .000E+00  .000E+00
  .000E+00  .000E+00  .000E+00  .000E+00  .000E+00  .000E+00  .000E+00  .000E+00
  .000E+00  .000E+00  .000E+00  .000E+00
  .352E+00  .363E+00  .406E+00  .455E+00  .493E+00  .520E+00  .546E+00  .650E+00
  .640E+00  .658E+00  .814E+00  .851E+00  .949E+00  .107E+01  .143E+01  .189E+01
  .180E+01  .157E+01  .141E+01  .170E+01  .190E+01  .229E+01  .228E+01  .342E+01
  .482E+01  .614E+01  .447E+01  .664E+01  .114E+02  .140E+02  .141E+02  .132E+02
  .120E+02  .102E+02  .889E+01  .769E+01  .678E+01  .570E+01  .520E+01  .502E+01
  .436E+01  .385E+01  .304E+01  .270E+01  .225E+01  .207E+01  .200E+01  .182E+01
  .172E+01  .160E+01  .145E+01  .112E+01  .970E+00  .889E+00  .831E+00  .712E+00
  .691E+00  .677E+00  .648E+00  .584E+00  .541E+00  .532E+00  .478E+00  .391E+00
  .342E+00  .290E+00  .260E+00  .225E+00  .228E+00  .238E+00  .243E+00  .226E+00
  .193E+00  .188E+00  .184E+00  .186E+00  .190E+00  .186E+00  .180E+00  .176E+00
  .000E+00  .000E+00  .000E+00  .000E+00  .000E+00  .000E+00  .000E+00  .000E+00
  .000E+00  .000E+00  .000E+00  .000E+00  .000E+00  .000E+00  .000E+00  .000E+00
  .000E+00  .000E+00  .000E+00  .000E+00
  .220E+02  .218E+02  .220E+02  .220E+02  .220E+02  .220E+02  .220E+02  .220E+02
  .220E+02  .220E+02  .220E+02  .220E+02  .220E+02  .221E+02  .222E+02  .222E+02
  .222E+02  .222E+02  .221E+02  .219E+02  .219E+02  .221E+02  .230E+02  .231E+02
  .232E+02  .233E+02  .217E+02  .222E+02  .223E+02  .223E+02  .223E+02  .222E+02
  .222E+02  .221E+02  .221E+02  .219E+02  .219E+02  .219E+02  .220E+02  .218E+02
  .218E+02  .218E+02  .218E+02  .216E+02  .216E+02  .216E+02  .216E+02  .216E+02
  .216E+02  .216E+02  .216E+02  .216E+02  .216E+02  .219E+02  .219E+02  .215E+02
  .215E+02  .215E+02  .215E+02  .215E+02  .215E+02  .215E+02  .215E+02  .218E+02
  .218E+02  .221E+02  .303E+02  .375E+02  .215E+02  .215E+02  .221E+02  .221E+02
  .221E+02  .231E+02  .216E+02  .216E+02  .216E+02  .216E+02  .216E+02  .216E+02
  .000E+00  .000E+00  .000E+00  .000E+00  .000E+00  .000E+00  .000E+00  .000E+00
  .000E+00  .000E+00  .000E+00  .000E+00  .000E+00  .000E+00  .000E+00  .000E+00
  .000E+00  .000E+00  .000E+00  .000E+00
  .220E+02  .220E+02  .220E+02  .220E+02  .220E+02  .221E+02  .220E+02  .220E+02
  .220E+02  .219E+02  .220E+02  .220E+02  .220E+02  .222E+02  .222E+02  .222E+02
  .222E+02  .223E+02  .223E+02  .223E+02  .224E+02  .220E+02  .229E+02  .238E+02
  .232E+02  .233E+02  .225E+02  .225E+02  .223E+02  .222E+02  .222E+02  .223E+02
  .221E+02  .221E+02  .220E+02  .220E+02  .219E+02  .219E+02  .219E+02  .219E+02
  .219E+02  .217E+02  .217E+02  .217E+02  .217E+02  .217E+02  .217E+02  .217E+02
  .216E+02  .216E+02  .216E+02  .216E+02  .216E+02  .216E+02  .216E+02  .216E+02
  .216E+02  .216E+02  .219E+02  .219E+02  .219E+02  .219E+02  .219E+02  .217E+02
  .217E+02  .217E+02  .217E+02  .217E+02  .217E+02  .217E+02  .217E+02  .217E+02
  .217E+02  .217E+02  .220E+02  .220E+02  .220E+02  .220E+02  .220E+02  .220E+02
  .000E+00  .000E+00  .000E+00  .000E+00  .000E+00  .000E+00  .000E+00  .000E+00
  .000E+00  .000E+00  .000E+00  .000E+00  .000E+00  .000E+00  .000E+00  .000E+00
  .000E+00  .000E+00  .000E+00  .000E+00
  .220E+02  .218E+02  .220E+02  .220E+02  .220E+02  .220E+02  .220E+02  .220E+02
  .220E+02  .220E+02  .220E+02  .220E+02  .220E+02  .221E+02  .222E+02  .222E+02
  .222E+02  .222E+02  .221E+02  .219E+02  .219E+02  .221E+02  .230E+02  .231E+02
  .232E+02  .233E+02  .217E+02  .222E+02  .223E+02  .223E+02  .223E+02  .222E+02
