Response and Fourier amplitude spectra (76 periods,  .04 -  5.0 sec)   for      
Corrected accelerogram   23792-K1341-08217.20       Chan  4:  90 Deg     from   
Uncorrected Accelerogram Data             Processed: 10/01/08, CDMG  AQ020      
Record of Tue Jul 29, 2008 11:41:59.0 PDT             (Avol1 v8.1 9/08 CSMIP)   
CSMIP Preliminary Processing            (Origin:  To be determined)             
23792-K1341-08217.20                 Start time:  7/29/08, 18:41:59.0 UTC (GPS) 
Station No. 23792   34.064N, 117.294W        K2  s/n 1341 (12 Channels)         
San Bernardino - I10/215 W Geotech Array  CGS                                   
Chan  4:  90 Deg                    Location: 10.7m (35ft) Depth                
Record of Tue Jul 29, 2008 11:41:59.0 PDT    Tue Jul 29, 2008 11:41:59.0 PDT    
Hypocenter:  To be determined.               ML:  To be determined.
Instr Period =  .0196 sec,  Damping =  .640,  Sensitivity = 1.25  v/g
                        Record length =109.000 sec.
                                     Uncor Max  =   .030 g , at  31.690 sec.
RMS accel of (uncor) record  =        .   Chn. metadata effective date: 05/16/08
Accelerogram bandpass filtered with 3 dB pts at   .30 and 40.00 cyc/sec
                 instrument- and baseline-corrected





Record of Tue Jul 29, 2008 11:41:59.0 PDT    Tue Jul 29, 2008 11:41:59.0 PDT

23792-K1341-08217.20      San Bernardino - I10/215 W Geotech Array  CGChan  4:
90 Deg
23792-K1341-08217.20      San Bernardino - I10/215 W Geotech Array  CGChan  4:
90 Deg
Units for spectra are inches and sec, except Sa is in fraction of g.

    4  100    4   12   12  200    1    3    1   24   11 1341    023792    4    0
   18   41   59    0  211    7   29 2008   10    3   9021800   41   40   76   -1
21800    0   50    3 1341    1   20 1090    2    0    0    0    0    0    0    0
    0    2    0    010900    2  222    0   18    7   76   40    1    1    010900
    310900   41   76    5   12    5    0    0    0   12    0    0    3    0    2
    2    2    4    1   65   99    0   32   32    0    0    1    0    0    0  222
    1    0    8    0
      .020      .640   109.000      .002      .000  1248.000      .030    31.690
    50.900      .298      .238      .000     5.000      .000     3.987      .000
     2.500   -26.676     2.500  -999.000    25.000    30.000      .000      .005
     -.014     -.018     2.000    15.000    34.064  -117.294      .120      .984
     8.214     -.067      .030   298.000    25.000    78.400    13.100   109.940
     1.000    -1.046      .000      .000      .000      .000      .000      .000
     4.600     8.100     5.000   980.665      .010   109.000     8.101      .003
      .000    40.000      .000   109.000      .010      .300      .000      .000
    31.690    28.924    31.650    -1.597    38.650     -.166      .000      .300
    40.000      .010      .010      .000      .010      .113      .000      .000
      .090      .300      .047      .087      .013      .002      .000      .000
      .000      .000      .000      .000      .000      .000      .000      .000
      .000      .000      .000      .000
      .000      .020      .050      .100      .200
      .040      .042      .044      .046      .048      .050      .055      .060
      .065      .070      .075      .080      .085      .090      .095      .100
      .110      .120      .130      .140      .150      .160      .170      .180
      .190      .200      .220      .240      .260      .280      .300      .320
      .340      .360      .380      .400      .420      .440      .460      .480
      .500      .550      .600      .650      .700      .750      .800      .850
      .900      .950     1.000     1.100     1.200     1.300     1.400     1.500
     1.600     1.700     1.800     1.900     2.000     2.200     2.400     2.600
     2.800     3.000     3.200     3.400     3.600     3.800     4.000     4.200
     4.400     4.600     4.800     5.000      .000      .000      .000      .000
      .000      .000      .000      .000      .000      .000      .000      .000
      .000      .000      .000      .000      .000      .000      .000      .000
      .000      .000      .000      .000
Fourier amplitude spectra in in/sec.
  .726E-01  .110E+00  .507E-01  .517E-01  .477E-01  .132E+00  .128E+00  .397E+00
  .788E-01  .386E+00  .224E+00  .305E+00  .117E+01  .899E+00  .855E+00  .981E+00
  .833E+00  .573E+00  .476E+00  .183E+01  .204E+00  .662E+00  .866E+00  .597E+00
  .665E+00  .178E+00  .184E+01  .134E+01  .355E+01  .373E+01  .435E+01  .360E+01
  .156E+01  .252E+01  .143E+01  .247E+01  .379E+01  .246E+01  .354E+01  .193E+01
  .436E+01  .259E+01  .746E+00  .238E+01  .286E+01  .486E+01  .562E+01  .186E+01
  .119E+01  .179E+01  .158E+01  .253E+01  .368E+00  .228E+01  .129E+01  .176E+01
  .130E+01  .210E+01  .192E+01  .427E+00  .839E+00  .142E+01  .106E+01  .717E-01
  .130E+00  .397E+00  .267E+00  .190E-01  .231E+00  .139E+00  .324E-01  .532E-01
  .489E-01  .448E-01  .185E-01  .199E-01  .000E+00  .000E+00  .000E+00  .000E+00
  .000E+00  .000E+00  .000E+00  .000E+00  .000E+00  .000E+00  .000E+00  .000E+00
  .000E+00  .000E+00  .000E+00  .000E+00  .000E+00  .000E+00  .000E+00  .000E+00
  .000E+00  .000E+00  .000E+00  .000E+00
Damping =  .00. Data of Sd,Sv,Sa,Pssv,ttSd,ttSv,ttSa :
  .729E-03  .904E-03  .635E-03  .826E-03  .939E-03  .190E-02  .179E-02  .415E-02
  .321E-02  .487E-02  .406E-02  .106E-01  .180E-01  .144E-01  .139E-01  .246E-01
  .166E-01  .152E-01  .150E-01  .435E-01  .169E-01  .206E-01  .267E-01  .381E-01
  .299E-01  .244E-01  .728E-01  .543E-01  .153E+00  .188E+00  .213E+00  .199E+00
  .129E+00  .175E+00  .158E+00  .211E+00  .255E+00  .185E+00  .277E+00  .238E+00
  .414E+00  .368E+00  .275E+00  .285E+00  .490E+00  .634E+00  .716E+00  .260E+00
  .238E+00  .299E+00  .268E+00  .531E+00  .356E+00  .476E+00  .483E+00  .535E+00
  .384E+00  .598E+00  .641E+00  .409E+00  .460E+00  .647E+00  .429E+00  .162E+00
  .179E+00  .190E+00  .225E+00  .160E+00  .189E+00  .140E+00  .110E+00  .107E+00
  .924E-01  .757E-01  .739E-01  .725E-01  .000E+00  .000E+00  .000E+00  .000E+00
  .000E+00  .000E+00  .000E+00  .000E+00  .000E+00  .000E+00  .000E+00  .000E+00
  .000E+00  .000E+00  .000E+00  .000E+00  .000E+00  .000E+00  .000E+00  .000E+00
  .000E+00  .000E+00  .000E+00  .000E+00
  .915E-01  .124E+00  .601E-01  .539E-01  .822E-01  .174E+00  .160E+00  .427E+00
  .282E+00  .416E+00  .320E+00  .736E+00  .133E+01  .989E+00  .888E+00  .143E+01
  .902E+00  .771E+00  .652E+00  .191E+01  .633E+00  .784E+00  .965E+00  .128E+01
  .959E+00  .666E+00  .207E+01  .141E+01  .368E+01  .419E+01  .445E+01  .386E+01
  .233E+01  .301E+01  .252E+01  .331E+01  .380E+01  .258E+01  .376E+01  .322E+01
  .512E+01  .416E+01  .282E+01  .277E+01  .436E+01  .531E+01  .562E+01  .192E+01
  .163E+01  .195E+01  .164E+01  .300E+01  .185E+01  .229E+01  .223E+01  .225E+01
  .153E+01  .221E+01  .227E+01  .136E+01  .146E+01  .186E+01  .113E+01  .691E+00
  .651E+00  .656E+00  .637E+00  .623E+00  .623E+00  .629E+00  .638E+00  .646E+00
  .650E+00  .652E+00  .652E+00  .651E+00  .000E+00  .000E+00  .000E+00  .000E+00
  .000E+00  .000E+00  .000E+00  .000E+00  .000E+00  .000E+00  .000E+00  .000E+00
  .000E+00  .000E+00  .000E+00  .000E+00  .000E+00  .000E+00  .000E+00  .000E+00
  .000E+00  .000E+00  .000E+00  .000E+00
  .466E-01  .524E-01  .336E-01  .399E-01  .417E-01  .776E-01  .604E-01  .118E+00
  .777E-01  .102E+00  .738E-01  .169E+00  .255E+00  .181E+00  .157E+00  .252E+00
  .140E+00  .108E+00  .909E-01  .227E+00  .768E-01  .824E-01  .943E-01  .120E+00
  .847E-01  .624E-01  .154E+00  .965E-01  .232E+00  .245E+00  .242E+00  .199E+00
  .115E+00  .138E+00  .112E+00  .135E+00  .148E+00  .977E-01  .134E+00  .105E+00
  .169E+00  .124E+00  .780E-01  .690E-01  .102E+00  .115E+00  .114E+00  .368E-01
  .301E-01  .339E-01  .274E-01  .448E-01  .253E-01  .288E-01  .252E-01  .243E-01
  .153E-01  .212E-01  .202E-01  .116E-01  .118E-01  .137E-01  .761E-02  .246E-02
  .234E-02  .215E-02  .225E-02  .142E-02  .149E-02  .992E-03  .701E-03  .618E-03
  .488E-03  .366E-03  .328E-03  .297E-03  .000E+00  .000E+00  .000E+00  .000E+00
  .000E+00  .000E+00  .000E+00  .000E+00  .000E+00  .000E+00  .000E+00  .000E+00
  .000E+00  .000E+00  .000E+00  .000E+00  .000E+00  .000E+00  .000E+00  .000E+00
  .000E+00  .000E+00  .000E+00  .000E+00
  .115E+00  .135E+00  .907E-01  .113E+00  .123E+00  .238E+00  .204E+00  .434E+00
  .310E+00  .437E+00  .340E+00  .832E+00  .133E+01  .100E+01  .917E+00  .155E+01
  .947E+00  .797E+00  .726E+00  .195E+01  .707E+00  .810E+00  .985E+00  .133E+01
  .989E+00  .767E+00  .208E+01  .142E+01  .370E+01  .422E+01  .446E+01  .391E+01
  .239E+01  .305E+01  .262E+01  .331E+01  .381E+01  .264E+01  .379E+01  .311E+01
  .520E+01  .420E+01  .287E+01  .276E+01  .440E+01  .531E+01  .562E+01  .192E+01
  .166E+01  .198E+01  .168E+01  .303E+01  .186E+01  .230E+01  .217E+01  .224E+01
  .151E+01  .221E+01  .224E+01  .135E+01  .144E+01  .185E+01  .112E+01  .393E+00
  .402E+00  .397E+00  .442E+00  .296E+00  .331E+00  .231E+00  .172E+00  .160E+00
  .132E+00  .103E+00  .968E-01  .912E-01  .000E+00  .000E+00  .000E+00  .000E+00
  .000E+00  .000E+00  .000E+00  .000E+00  .000E+00  .000E+00  .000E+00  .000E+00
  .000E+00  .000E+00  .000E+00  .000E+00  .000E+00  .000E+00  .000E+00  .000E+00
  .000E+00  .000E+00  .000E+00  .000E+00
  .317E+02  .317E+02  .317E+02  .315E+02  .317E+02  .317E+02  .317E+02  .396E+02
  .337E+02  .439E+02  .315E+02  .317E+02  .464E+02  .370E+02  .439E+02  .331E+02
  .337E+02  .384E+02  .324E+02  .354E+02  .331E+02  .369E+02  .367E+02  .316E+02
  .361E+02  .327E+02  .475E+02  .755E+02  .787E+02  .362E+02  .792E+02  .483E+02
  .322E+02  .499E+02  .334E+02  .449E+02  .649E+02  .395E+02  .587E+02  .328E+02
  .439E+02  .377E+02  .339E+02  .523E+02  .476E+02  .509E+02  .107E+03  .103E+03
  .729E+02  .869E+02  .351E+02  .701E+02  .666E+02  .105E+03  .502E+02  .894E+02
  .758E+02  .980E+02  .927E+02  .687E+02  .794E+02  .875E+02  .102E+03  .395E+02
  .395E+02  .110E+03  .867E+02  .386E+02  .730E+02  .709E+02  .378E+02  .378E+02
  .379E+02  .379E+02  .395E+02  .395E+02  .000E+00  .000E+00  .000E+00  .000E+00
  .000E+00  .000E+00  .000E+00  .000E+00  .000E+00  .000E+00  .000E+00  .000E+00
  .000E+00  .000E+00  .000E+00  .000E+00  .000E+00  .000E+00  .000E+00  .000E+00
  .000E+00  .000E+00  .000E+00  .000E+00
  .605E+02  .581E+02  .101E+03  .581E+02  .282E+02  .317E+02  .410E+02  .397E+02
  .337E+02  .439E+02  .383E+02  .317E+02  .468E+02  .370E+02  .615E+02  .334E+02
  .338E+02  .384E+02  .325E+02  .354E+02  .331E+02  .370E+02  .418E+02  .320E+02
  .361E+02  .328E+02  .475E+02  .756E+02  .786E+02  .364E+02  .811E+02  .484E+02
  .321E+02  .498E+02  .335E+02  .452E+02  .650E+02  .396E+02  .586E+02  .329E+02
  .437E+02  .378E+02  .338E+02  .522E+02  .474E+02  .507E+02  .109E+03  .103E+03
  .732E+02  .962E+02  .820E+02  .704E+02  .669E+02  .104E+03  .470E+02  .898E+02
  .738E+02  .975E+02  .913E+02  .683E+02  .789E+02  .880E+02  .724E+02  .310E+02
  .316E+02  .316E+02  .316E+02  .316E+02  .316E+02  .316E+02  .316E+02  .316E+02
  .316E+02  .316E+02  .316E+02  .316E+02  .000E+00  .000E+00  .000E+00  .000E+00
  .000E+00  .000E+00  .000E+00  .000E+00  .000E+00  .000E+00  .000E+00  .000E+00
  .000E+00  .000E+00  .000E+00  .000E+00  .000E+00  .000E+00  .000E+00  .000E+00
  .000E+00  .000E+00  .000E+00  .000E+00
  .317E+02  .317E+02  .317E+02  .315E+02  .317E+02  .317E+02  .317E+02  .396E+02
  .337E+02  .439E+02  .315E+02  .317E+02  .464E+02  .370E+02  .439E+02  .331E+02
  .337E+02  .384E+02  .324E+02  .354E+02  .331E+02  .369E+02  .367E+02  .316E+02
  .361E+02  .327E+02  .475E+02  .755E+02  .787E+02  .362E+02  .792E+02  .483E+02
  .322E+02  .499E+02  .334E+02  .449E+02  .649E+02  .395E+02  .587E+02  .328E+02
  .439E+02  .377E+02  .339E+02  .523E+02  .476E+02  .509E+02  .107E+03  .103E+03
  .729E+02  .869E+02  .351E+02  .701E+02  .666E+02  .105E+03  .502E+02  .894E+02
  .758E+02  .980E+02  .927E+02  .687E+02  .794E+02  .875E+02  .102E+03  .395E+02
  .395E+02  .110E+03  .867E+02  .386E+02  .730E+02  .709E+02  .378E+02  .378E+02
  .379E+02  .379E+02  .395E+02  .395E+02  .000E+00  .000E+00  .000E+00  .000E+00
  .000E+00  .000E+00  .000E+00  .000E+00  .000E+00  .000E+00  .000E+00  .000E+00
  .000E+00  .000E+00  .000E+00  .000E+00  .000E+00  .000E+00  .000E+00  .000E+00
  .000E+00  .000E+00  .000E+00  .000E+00
Damping =  .02. Data of Sd,Sv,Sa,Pssv,ttSd,ttSv,ttSa :
  .488E-03  .546E-03  .681E-03  .762E-03  .834E-03  .915E-03  .113E-02  .171E-02
  .185E-02  .257E-02  .354E-02  .693E-02  .813E-02  .710E-02  .813E-02  .111E-01
  .115E-01  .111E-01  .141E-01  .161E-01  .123E-01  .126E-01  .122E-01  .168E-01
  .169E-01  .183E-01  .335E-01  .393E-01  .719E-01  .812E-01  .101E+00  .111E+00
  .106E+00  .986E-01  .110E+00  .123E+00  .119E+00  .122E+00  .156E+00  .190E+00
  .214E+00  .192E+00  .206E+00  .192E+00  .240E+00  .300E+00  .290E+00  .174E+00
  .136E+00  .159E+00  .188E+00  .167E+00  .152E+00  .177E+00  .283E+00  .299E+00
  .227E+00  .284E+00  .245E+00  .240E+00  .311E+00  .284E+00  .249E+00  .170E+00
  .169E+00  .165E+00  .153E+00  .152E+00  .146E+00  .128E+00  .102E+00  .969E-01
  .869E-01  .741E-01  .691E-01  .706E-01  .000E+00  .000E+00  .000E+00  .000E+00
  .000E+00  .000E+00  .000E+00  .000E+00  .000E+00  .000E+00  .000E+00  .000E+00
  .000E+00  .000E+00  .000E+00  .000E+00  .000E+00  .000E+00  .000E+00  .000E+00
  .000E+00  .000E+00  .000E+00  .000E+00
  .340E-01  .427E-01  .494E-01  .453E-01  .421E-01  .503E-01  .691E-01  .146E+00
  .102E+00  .166E+00  .216E+00  .439E+00  .534E+00  .459E+00  .505E+00  .657E+00
  .623E+00  .529E+00  .604E+00  .702E+00  .485E+00  .403E+00  .386E+00  .575E+00
  .449E+00  .511E+00  .935E+00  .986E+00  .170E+01  .175E+01  .200E+01  .208E+01
  .195E+01  .167E+01  .178E+01  .187E+01  .181E+01  .173E+01  .217E+01  .252E+01
  .256E+01  .221E+01  .209E+01  .211E+01  .224E+01  .261E+01  .255E+01  .147E+01
  .128E+01  .153E+01  .138E+01  .987E+00  .959E+00  .872E+00  .133E+01  .134E+01
  .927E+00  .109E+01  .931E+00  .848E+00  .987E+00  .836E+00  .747E+00  .672E+00
  .637E+00  .645E+00  .634E+00  .624E+00  .624E+00  .629E+00  .636E+00  .642E+00
  .647E+00  .649E+00  .649E+00  .649E+00  .000E+00  .000E+00  .000E+00  .000E+00
  .000E+00  .000E+00  .000E+00  .000E+00  .000E+00  .000E+00  .000E+00  .000E+00
  .000E+00  .000E+00  .000E+00  .000E+00  .000E+00  .000E+00  .000E+00  .000E+00
  .000E+00  .000E+00  .000E+00  .000E+00
  .312E-01  .317E-01  .359E-01  .368E-01  .370E-01  .374E-01  .383E-01  .486E-01
  .450E-01  .535E-01  .644E-01  .111E+00  .115E+00  .895E-01  .918E-01  .113E+00
  .981E-01  .790E-01  .853E-01  .845E-01  .555E-01  .505E-01  .433E-01  .527E-01
  .479E-01  .467E-01  .708E-01  .697E-01  .109E+00  .106E+00  .115E+00  .110E+00
  .943E-01  .778E-01  .780E-01  .789E-01  .689E-01  .647E-01  .755E-01  .844E-01
  .875E-01  .651E-01  .585E-01  .464E-01  .502E-01  .545E-01  .463E-01  .247E-01
  .173E-01  .181E-01  .192E-01  .141E-01  .108E-01  .107E-01  .148E-01  .136E-01
  .907E-02  .100E-01  .773E-02  .679E-02  .796E-02  .602E-02  .442E-02  .257E-02
  .221E-02  .187E-02  .154E-02  .135E-02  .116E-02  .913E-03  .655E-03  .564E-03
  .462E-03  .362E-03  .308E-03  .295E-03  .000E+00  .000E+00  .000E+00  .000E+00
  .000E+00  .000E+00  .000E+00  .000E+00  .000E+00  .000E+00  .000E+00  .000E+00
  .000E+00  .000E+00  .000E+00  .000E+00  .000E+00  .000E+00  .000E+00  .000E+00
  .000E+00  .000E+00  .000E+00  .000E+00
  .766E-01  .817E-01  .973E-01  .104E+00  .109E+00  .115E+00  .129E+00  .179E+00
  .179E+00  .231E+00  .297E+00  .544E+00  .601E+00  .496E+00  .538E+00  .697E+00
  .658E+00  .580E+00  .681E+00  .722E+00  .513E+00  .495E+00  .452E+00  .585E+00
  .558E+00  .573E+00  .955E+00  .103E+01  .174E+01  .182E+01  .211E+01  .218E+01
  .196E+01  .172E+01  .182E+01  .194E+01  .178E+01  .175E+01  .213E+01  .249E+01
  .268E+01  .220E+01  .215E+01  .185E+01  .216E+01  .251E+01  .227E+01  .129E+01
  .953E+00  .105E+01  .118E+01  .955E+00  .794E+00  .854E+00  .127E+01  .125E+01
  .891E+00  .105E+01  .854E+00  .792E+00  .978E+00  .812E+00  .651E+00  .411E+00
  .379E+00  .345E+00  .301E+00  .281E+00  .255E+00  .212E+00  .160E+00  .145E+00
  .124E+00  .101E+00  .905E-01  .887E-01  .000E+00  .000E+00  .000E+00  .000E+00
  .000E+00  .000E+00  .000E+00  .000E+00  .000E+00  .000E+00  .000E+00  .000E+00
  .000E+00  .000E+00  .000E+00  .000E+00  .000E+00  .000E+00  .000E+00  .000E+00
  .000E+00  .000E+00  .000E+00  .000E+00
  .315E+02  .315E+02  .317E+02  .317E+02  .317E+02  .317E+02  .317E+02  .338E+02
  .317E+02  .317E+02  .317E+02  .317E+02  .324E+02  .318E+02  .318E+02  .322E+02
  .317E+02  .317E+02  .322E+02  .323E+02  .324E+02  .315E+02  .316E+02  .267E+02
  .316E+02  .327E+02  .331E+02  .331E+02  .332E+02  .318E+02  .319E+02  .320E+02
  .320E+02  .324E+02  .334E+02  .335E+02  .325E+02  .325E+02  .328E+02  .328E+02
  .328E+02  .338E+02  .339E+02  .320E+02  .340E+02  .359E+02  .349E+02  .350E+02
  .331E+02  .324E+02  .351E+02  .360E+02  .649E+02  .697E+02  .404E+02  .406E+02
  .416E+02  .615E+02  .647E+02  .688E+02  .793E+02  .402E+02  .394E+02  .395E+02
  .395E+02  .395E+02  .386E+02  .386E+02  .386E+02  .387E+02  .387E+02  .378E+02
  .378E+02  .379E+02  .395E+02  .386E+02  .000E+00  .000E+00  .000E+00  .000E+00
  .000E+00  .000E+00  .000E+00  .000E+00  .000E+00  .000E+00  .000E+00  .000E+00
  .000E+00  .000E+00  .000E+00  .000E+00  .000E+00  .000E+00  .000E+00  .000E+00
  .000E+00  .000E+00  .000E+00  .000E+00
  .316E+02  .316E+02  .317E+02  .317E+02  .317E+02  .317E+02  .316E+02  .338E+02
  .316E+02  .316E+02  .316E+02  .317E+02  .326E+02  .319E+02  .318E+02  .323E+02
  .317E+02  .317E+02  .322E+02  .323E+02  .323E+02  .316E+02  .262E+02  .269E+02
  .355E+02  .328E+02  .338E+02  .332E+02  .332E+02  .325E+02  .319E+02  .319E+02
  .319E+02  .321E+02  .325E+02  .334E+02  .343E+02  .329E+02  .329E+02  .329E+02
  .327E+02  .340E+02  .338E+02  .318E+02  .338E+02  .361E+02  .355E+02  .316E+02
  .316E+02  .316E+02  .316E+02  .345E+02  .370E+02  .694E+02  .422E+02  .418E+02
  .419E+02  .611E+02  .485E+02  .683E+02  .789E+02  .396E+02  .400E+02  .310E+02
  .310E+02  .316E+02  .316E+02  .316E+02  .316E+02  .316E+02  .316E+02  .316E+02
  .316E+02  .316E+02  .316E+02  .316E+02  .000E+00  .000E+00  .000E+00  .000E+00
  .000E+00  .000E+00  .000E+00  .000E+00  .000E+00  .000E+00  .000E+00  .000E+00
  .000E+00  .000E+00  .000E+00  .000E+00  .000E+00  .000E+00  .000E+00  .000E+00
  .000E+00  .000E+00  .000E+00  .000E+00
  .315E+02  .315E+02  .317E+02  .317E+02  .317E+02  .317E+02  .317E+02  .338E+02
  .317E+02  .317E+02  .317E+02  .317E+02  .324E+02  .318E+02  .318E+02  .322E+02
  .317E+02  .317E+02  .322E+02  .323E+02  .324E+02  .315E+02  .316E+02  .267E+02
  .316E+02  .327E+02  .331E+02  .331E+02  .332E+02  .318E+02  .319E+02  .320E+02
  .320E+02  .324E+02  .334E+02  .335E+02  .325E+02  .325E+02  .328E+02  .328E+02
  .328E+02  .338E+02  .339E+02  .320E+02  .339E+02  .359E+02  .349E+02  .350E+02
  .331E+02  .324E+02  .351E+02  .360E+02  .649E+02  .697E+02  .404E+02  .406E+02
  .416E+02  .615E+02  .647E+02  .688E+02  .793E+02  .402E+02  .394E+02  .395E+02
  .395E+02  .395E+02  .386E+02  .386E+02  .386E+02  .386E+02  .386E+02  .378E+02
  .378E+02  .378E+02  .395E+02  .386E+02  .000E+00  .000E+00  .000E+00  .000E+00
  .000E+00  .000E+00  .000E+00  .000E+00  .000E+00  .000E+00  .000E+00  .000E+00
  .000E+00  .000E+00  .000E+00  .000E+00  .000E+00  .000E+00  .000E+00  .000E+00
  .000E+00  .000E+00  .000E+00  .000E+00
Damping =  .05. Data of Sd,Sv,Sa,Pssv,ttSd,ttSv,ttSa :
  .474E-03  .536E-03  .641E-03  .738E-03  .814E-03  .893E-03  .110E-02  .139E-02
