Response and Fourier amplitude spectra (80 periods,  .04 -  7.0 sec)   for      
Corrected accelerogram   23631-E0781-08212.02       Chan  2:  Tran       from   
Uncorrected Accelerogram Data             Processed: 02/09/09, CGS  CE23631     
Record of Tue Jul 29, 2008 11:42:08.9 PDT             (Avol1 v8.5,11/08 CSMIP)  
CSMIP Preliminary Processing            (Origin:  To be determined)             
23631-E0781-08212.02                 Start time:  7/29/08, 18:42: 8.9 UTC (WWVB)
Station No. 23631   34.064N, 117.296W     SSA-1  s/n  781  (4 Chns of 36 at Sta)
San Bernardino - I10/215 Interchange Br   CGS                                   
Chan  2:  Tran    (Sta Chn: 26)     Location: Hinge Near Bent 10: E. Side       
Record of Tue Jul 29, 2008 11:42:08.9 PDT    Tue Jul 29, 2008 11:42:08.9 PDT    
Hypocenter:  To be determined.               ML:  To be determined.             
Instr Period =  .0196 sec,  Damping =  .650,  Sensitivity = 1.25  v/g           
                        Record length = 78.080 sec.                             
                                     Uncor Max  =  -.070 g , at  21.850 sec.    
RMS accel of (uncor) record  =        .   Chn. metadata effective date: 01/10/92
Accelerogram bandpass filtered with 3 dB pts at   .14 and 40.00 cyc/sec         
                 instrument- and baseline-corrected                             
                                                                                
                                                                                
                                                                                
                                                                                
                                                                                
Record of Tue Jul 29, 2008 11:42:08.9 PDT    Tue Jul 29, 2008 11:42:08.9 PDT    
                                                                                
23631-E0781-08212.02      San Bernardino - I10/215 Interchange Br   Chan  2:  Tr
an                                                                              
23631-E0781-08212.02      San Bernardino - I10/215 Interchange Br   Chan  2:  Tr
an                                                                              
Units for spectra are inches and sec, except Sa is in fraction of g.            
                                                                                
    2  100   26    4   36  200    1    3    1   12    5  781    023631    3    0
   18   42    8  935  211    7   29 2008   10    1  90015616   41   39   76   -1
15616    0  100    3 2117    1    2   61    2   18   42   36  670    7   29 2008
    0    2    0    0 7808    2  222    1   12    4   76   39    3    1    0 7808
    3 7808   40   80    5    4    5    0    0    0   36    0    0    3    0    2
    2    2    4    0   66   99    1   32   32    0    0    1    0    0    8  222
    1    0    0    0
      .020      .650    78.080      .010      .000  1253.000     -.070    21.850
    50.900  1220.703   974.224      .000     5.000      .000      .000      .000
     2.500    11.039     2.500  -999.000    15.360    30.000      .000     -.011
     -.058     -.047     2.000    15.000    34.064  -117.296     1.145     3.388
     2.960     -.264      .170   297.000      .000      .000      .000      .000
     1.000     1.452     7.000      .000      .000      .000      .000      .000
     6.800     8.500     5.200   980.665      .010    78.080     8.101      .000
      .000    40.000      .000    78.080      .010      .143      .000      .000
    21.850   -69.448    24.530     5.963    25.130     -.907      .002      .143
    40.000      .010      .010      .013     3.400      .483      .000      .000
      .263      .700      .180      .173      .086      .005      .000      .000
      .000      .000      .000      .000      .000      .000      .000      .000
      .000      .000      .000      .000
      .000      .020      .050      .100      .200
      .040      .042      .044      .046      .048      .050      .055      .060
      .065      .070      .075      .080      .085      .090      .095      .100
      .110      .120      .130      .140      .150      .160      .170      .180
      .190      .200      .220      .240      .260      .280      .300      .320
      .340      .360      .380      .400      .420      .440      .460      .480
      .500      .550      .600      .650      .700      .750      .800      .850
      .900      .950     1.000     1.100     1.200     1.300     1.400     1.500
     1.600     1.700     1.800     1.900     2.000     2.200     2.400     2.600
     2.800     3.000     3.200     3.400     3.600     3.800     4.000     4.200
     4.400     4.600     4.800     5.000     5.500     6.000     6.500     7.000
      .000      .000      .000      .000      .000      .000      .000      .000
      .000      .000      .000      .000      .000      .000      .000      .000
      .000      .000      .000      .000
Fourier amplitude spectra in in/sec.
  .283E+00  .242E+00  .212E+00  .633E+00  .516E+00  .339E+00  .224E+00  .112E+01
  .121E+00  .706E+00  .143E+01  .143E+01  .114E+01  .828E+00  .146E+01  .137E+01
  .112E+01  .468E+00  .614E+00  .666E+01  .146E+01  .579E+01  .263E+01  .159E+01
  .842E+00  .280E+01  .564E+01  .857E+01  .247E+01  .538E+01  .317E+01  .339E+01
  .144E+02  .836E+01  .867E+01  .407E+01  .342E+01  .300E+01  .841E+01  .101E+02
  .511E+01  .614E+01  .307E+01  .183E+02  .253E+02  .309E+02  .231E+02  .201E+02
  .107E+02  .241E+02  .153E+02  .166E+02  .957E+01  .636E+01  .343E+01  .429E+01
  .288E+01  .409E+01  .343E+01  .550E+00  .224E+01  .228E+01  .851E+00  .131E+01
  .130E+01  .601E+00  .136E+01  .459E+00  .864E+00  .618E+00  .352E+00  .585E+00
  .515E+00  .410E+00  .225E+00  .209E+00  .124E+00  .588E-01  .484E-01  .885E-01
  .000E+00  .000E+00  .000E+00  .000E+00  .000E+00  .000E+00  .000E+00  .000E+00
  .000E+00  .000E+00  .000E+00  .000E+00  .000E+00  .000E+00  .000E+00  .000E+00
  .000E+00  .000E+00  .000E+00  .000E+00
Damping =  .00. Data of Sd,Sv,Sa,Pssv,ttSd,ttSv,ttSa :
  .379E-02  .317E-02  .423E-02  .561E-02  .517E-02  .563E-02  .582E-02  .119E-01
  .912E-02  .115E-01  .178E-01  .200E-01  .202E-01  .152E-01  .293E-01  .275E-01
  .261E-01  .202E-01  .419E-01  .151E+00  .826E-01  .154E+00  .123E+00  .745E-01
  .970E-01  .107E+00  .255E+00  .344E+00  .185E+00  .302E+00  .221E+00  .313E+00
  .815E+00  .551E+00  .633E+00  .477E+00  .331E+00  .504E+00  .713E+00  .904E+00
  .722E+00  .721E+00  .994E+00  .219E+01  .292E+01  .424E+01  .302E+01  .330E+01
  .237E+01  .388E+01  .264E+01  .309E+01  .236E+01  .161E+01  .160E+01  .145E+01
  .119E+01  .148E+01  .105E+01  .598E+00  .950E+00  .805E+00  .469E+00  .669E+00
  .741E+00  .628E+00  .763E+00  .662E+00  .612E+00  .469E+00  .446E+00  .529E+00
  .519E+00  .531E+00  .556E+00  .550E+00  .515E+00  .469E+00  .433E+00  .438E+00
  .000E+00  .000E+00  .000E+00  .000E+00  .000E+00  .000E+00  .000E+00  .000E+00
  .000E+00  .000E+00  .000E+00  .000E+00  .000E+00  .000E+00  .000E+00  .000E+00
  .000E+00  .000E+00  .000E+00  .000E+00
  .472E+00  .311E+00  .459E+00  .656E+00  .555E+00  .552E+00  .475E+00  .116E+01
  .729E+00  .852E+00  .147E+01  .149E+01  .129E+01  .957E+00  .185E+01  .168E+01
  .141E+01  .797E+00  .176E+01  .679E+01  .324E+01  .597E+01  .432E+01  .221E+01
  .287E+01  .298E+01  .669E+01  .874E+01  .422E+01  .600E+01  .440E+01  .558E+01
  .149E+02  .927E+01  .102E+02  .703E+01  .504E+01  .678E+01  .935E+01  .117E+02
  .859E+01  .755E+01  .965E+01  .210E+02  .261E+02  .353E+02  .235E+02  .242E+02
  .165E+02  .258E+02  .167E+02  .176E+02  .127E+02  .817E+01  .721E+01  .606E+01
  .493E+01  .569E+01  .387E+01  .284E+01  .300E+01  .339E+01  .280E+01  .296E+01
  .293E+01  .290E+01  .282E+01  .279E+01  .271E+01  .264E+01  .262E+01  .265E+01
  .265E+01  .258E+01  .248E+01  .240E+01  .229E+01  .229E+01  .230E+01  .231E+01
  .000E+00  .000E+00  .000E+00  .000E+00  .000E+00  .000E+00  .000E+00  .000E+00
  .000E+00  .000E+00  .000E+00  .000E+00  .000E+00  .000E+00  .000E+00  .000E+00
  .000E+00  .000E+00  .000E+00  .000E+00
  .243E+00  .184E+00  .223E+00  .271E+00  .230E+00  .230E+00  .197E+00  .339E+00
  .221E+00  .240E+00  .323E+00  .320E+00  .287E+00  .192E+00  .333E+00  .281E+00
  .221E+00  .143E+00  .253E+00  .789E+00  .376E+00  .614E+00  .435E+00  .235E+00
  .275E+00  .273E+00  .538E+00  .611E+00  .280E+00  .394E+00  .251E+00  .312E+00
  .721E+00  .435E+00  .448E+00  .305E+00  .192E+00  .266E+00  .345E+00  .401E+00
  .296E+00  .244E+00  .282E+00  .531E+00  .610E+00  .770E+00  .483E+00  .468E+00
  .299E+00  .440E+00  .270E+00  .261E+00  .167E+00  .976E-01  .837E-01  .658E-01
  .476E-01  .525E-01  .330E-01  .169E-01  .243E-01  .170E-01  .832E-02  .101E-01
  .966E-02  .714E-02  .762E-02  .586E-02  .483E-02  .332E-02  .285E-02  .307E-02
  .274E-02  .257E-02  .247E-02  .225E-02  .174E-02  .133E-02  .105E-02  .915E-03
  .000E+00  .000E+00  .000E+00  .000E+00  .000E+00  .000E+00  .000E+00  .000E+00
  .000E+00  .000E+00  .000E+00  .000E+00  .000E+00  .000E+00  .000E+00  .000E+00
  .000E+00  .000E+00  .000E+00  .000E+00
  .596E+00  .474E+00  .604E+00  .767E+00  .677E+00  .707E+00  .665E+00  .125E+01
  .881E+00  .103E+01  .149E+01  .157E+01  .150E+01  .106E+01  .194E+01  .173E+01
  .149E+01  .106E+01  .202E+01  .679E+01  .346E+01  .604E+01  .454E+01  .260E+01
  .321E+01  .336E+01  .728E+01  .900E+01  .448E+01  .678E+01  .463E+01  .614E+01
  .151E+02  .962E+01  .105E+02  .749E+01  .495E+01  .720E+01  .974E+01  .118E+02
  .908E+01  .823E+01  .104E+02  .212E+02  .262E+02  .355E+02  .237E+02  .244E+02
  .165E+02  .257E+02  .166E+02  .177E+02  .123E+02  .779E+01  .720E+01  .606E+01
  .468E+01  .548E+01  .365E+01  .198E+01  .298E+01  .230E+01  .123E+01  .162E+01
  .166E+01  .132E+01  .150E+01  .122E+01  .107E+01  .775E+00  .700E+00  .792E+00
  .741E+00  .726E+00  .728E+00  .691E+00  .588E+00  .491E+00  .418E+00  .393E+00
  .000E+00  .000E+00  .000E+00  .000E+00  .000E+00  .000E+00  .000E+00  .000E+00
  .000E+00  .000E+00  .000E+00  .000E+00  .000E+00  .000E+00  .000E+00  .000E+00
  .000E+00  .000E+00  .000E+00  .000E+00
  .246E+02  .219E+02  .219E+02  .246E+02  .233E+02  .246E+02  .230E+02  .266E+02
  .251E+02  .220E+02  .711E+02  .239E+02  .252E+02  .221E+02  .304E+02  .300E+02
  .266E+02  .225E+02  .230E+02  .599E+02  .231E+02  .449E+02  .266E+02  .243E+02
  .231E+02  .246E+02  .246E+02  .267E+02  .232E+02  .251E+02  .224E+02  .244E+02
  .612E+02  .235E+02  .295E+02  .255E+02  .222E+02  .255E+02  .390E+02  .428E+02
  .240E+02  .247E+02  .247E+02  .502E+02  .358E+02  .396E+02  .434E+02  .396E+02
  .649E+02  .719E+02  .719E+02  .678E+02  .428E+02  .407E+02  .603E+02  .690E+02
  .434E+02  .542E+02  .746E+02  .615E+02  .711E+02  .754E+02  .246E+02  .739E+02
  .701E+02  .299E+02  .702E+02  .391E+02  .620E+02  .746E+02  .262E+02  .390E+02
  .391E+02  .251E+02  .251E+02  .251E+02  .251E+02  .251E+02  .251E+02  .251E+02
  .000E+00  .000E+00  .000E+00  .000E+00  .000E+00  .000E+00  .000E+00  .000E+00
  .000E+00  .000E+00  .000E+00  .000E+00  .000E+00  .000E+00  .000E+00  .000E+00
  .000E+00  .000E+00  .000E+00  .000E+00
  .248E+02  .219E+02  .224E+02  .569E+02  .264E+02  .260E+02  .231E+02  .263E+02
  .249E+02  .253E+02  .723E+02  .623E+02  .252E+02  .221E+02  .306E+02  .297E+02
  .426E+02  .229E+02  .230E+02  .607E+02  .231E+02  .563E+02  .257E+02  .238E+02
  .231E+02  .666E+02  .249E+02  .632E+02  .241E+02  .251E+02  .224E+02  .243E+02
  .617E+02  .240E+02  .296E+02  .254E+02  .221E+02  .254E+02  .389E+02  .418E+02
  .241E+02  .249E+02  .249E+02  .503E+02  .356E+02  .394E+02  .436E+02  .394E+02
  .651E+02  .717E+02  .717E+02  .725E+02  .431E+02  .403E+02  .607E+02  .687E+02
  .438E+02  .538E+02  .742E+02  .245E+02  .707E+02  .388E+02  .249E+02  .245E+02
  .245E+02  .245E+02  .245E+02  .245E+02  .245E+02  .253E+02  .253E+02  .253E+02
  .253E+02  .253E+02  .253E+02  .253E+02  .253E+02  .249E+02  .245E+02  .245E+02
  .000E+00  .000E+00  .000E+00  .000E+00  .000E+00  .000E+00  .000E+00  .000E+00
  .000E+00  .000E+00  .000E+00  .000E+00  .000E+00  .000E+00  .000E+00  .000E+00
  .000E+00  .000E+00  .000E+00  .000E+00
  .246E+02  .219E+02  .219E+02  .246E+02  .233E+02  .246E+02  .230E+02  .266E+02
  .251E+02  .220E+02  .711E+02  .239E+02  .252E+02  .221E+02  .304E+02  .300E+02
  .266E+02  .225E+02  .230E+02  .599E+02  .231E+02  .449E+02  .266E+02  .243E+02
  .231E+02  .246E+02  .246E+02  .267E+02  .232E+02  .251E+02  .224E+02  .244E+02
  .612E+02  .235E+02  .295E+02  .255E+02  .222E+02  .255E+02  .390E+02  .428E+02
  .240E+02  .247E+02  .247E+02  .502E+02  .358E+02  .396E+02  .434E+02  .396E+02
  .649E+02  .719E+02  .719E+02  .678E+02  .428E+02  .407E+02  .603E+02  .690E+02
  .434E+02  .542E+02  .746E+02  .615E+02  .711E+02  .754E+02  .246E+02  .739E+02
  .701E+02  .299E+02  .702E+02  .391E+02  .620E+02  .746E+02  .262E+02  .390E+02
  .391E+02  .251E+02  .251E+02  .251E+02  .251E+02  .251E+02  .251E+02  .251E+02
  .000E+00  .000E+00  .000E+00  .000E+00  .000E+00  .000E+00  .000E+00  .000E+00
  .000E+00  .000E+00  .000E+00  .000E+00  .000E+00  .000E+00  .000E+00  .000E+00
  .000E+00  .000E+00  .000E+00  .000E+00
Damping =  .02. Data of Sd,Sv,Sa,Pssv,ttSd,ttSv,ttSa :
  .253E-02  .307E-02  .344E-02  .363E-02  .359E-02  .372E-02  .421E-02  .504E-02
  .677E-02  .800E-02  .716E-02  .104E-01  .107E-01  .849E-02  .106E-01  .167E-01
  .160E-01  .167E-01  .291E-01  .526E-01  .520E-01  .415E-01  .500E-01  .459E-01
  .744E-01  .901E-01  .154E+00  .169E+00  .133E+00  .175E+00  .189E+00  .214E+00
  .388E+00  .412E+00  .355E+00  .318E+00  .312E+00  .331E+00  .478E+00  .529E+00
  .536E+00  .464E+00  .757E+00  .127E+01  .180E+01  .233E+01  .177E+01  .140E+01
  .130E+01  .132E+01  .119E+01  .122E+01  .126E+01  .103E+01  .840E+00  .725E+00
  .802E+00  .905E+00  .674E+00  .467E+00  .545E+00  .616E+00  .443E+00  .521E+00
  .525E+00  .553E+00  .461E+00  .505E+00  .445E+00  .417E+00  .429E+00  .450E+00
  .453E+00  .503E+00  .527E+00  .528E+00  .503E+00  .466E+00  .437E+00  .436E+00
  .000E+00  .000E+00  .000E+00  .000E+00  .000E+00  .000E+00  .000E+00  .000E+00
  .000E+00  .000E+00  .000E+00  .000E+00  .000E+00  .000E+00  .000E+00  .000E+00
  .000E+00  .000E+00  .000E+00  .000E+00
  .248E+00  .295E+00  .323E+00  .324E+00  .283E+00  .278E+00  .268E+00  .321E+00
  .425E+00  .545E+00  .390E+00  .617E+00  .654E+00  .512E+00  .550E+00  .811E+00
  .568E+00  .637E+00  .114E+01  .195E+01  .204E+01  .157E+01  .156E+01  .149E+01
  .202E+01  .246E+01  .382E+01  .392E+01  .268E+01  .333E+01  .377E+01  .394E+01
  .641E+01  .663E+01  .556E+01  .494E+01  .489E+01  .508E+01  .612E+01  .639E+01
  .612E+01  .493E+01  .696E+01  .116E+02  .163E+02  .194E+02  .141E+02  .103E+02
  .998E+01  .945E+01  .761E+01  .726E+01  .709E+01  .615E+01  .468E+01  .359E+01
  .375E+01  .402E+01  .311E+01  .285E+01  .274E+01  .279E+01  .271E+01  .288E+01
  .289E+01  .286E+01  .280E+01  .276E+01  .269E+01  .263E+01  .262E+01  .263E+01
  .262E+01  .256E+01  .249E+01  .242E+01  .231E+01  .228E+01  .230E+01  .231E+01
  .000E+00  .000E+00  .000E+00  .000E+00  .000E+00  .000E+00  .000E+00  .000E+00
  .000E+00  .000E+00  .000E+00  .000E+00  .000E+00  .000E+00  .000E+00  .000E+00
  .000E+00  .000E+00  .000E+00  .000E+00
  .161E+00  .178E+00  .182E+00  .175E+00  .159E+00  .153E+00  .142E+00  .144E+00
  .164E+00  .167E+00  .130E+00  .165E+00  .151E+00  .107E+00  .121E+00  .171E+00
  .136E+00  .118E+00  .176E+00  .274E+00  .236E+00  .167E+00  .177E+00  .145E+00
  .210E+00  .230E+00  .325E+00  .299E+00  .201E+00  .229E+00  .215E+00  .214E+00
  .344E+00  .325E+00  .252E+00  .203E+00  .181E+00  .175E+00  .231E+00  .235E+00
  .220E+00  .157E+00  .215E+00  .307E+00  .377E+00  .424E+00  .283E+00  .199E+00
  .165E+00  .149E+00  .122E+00  .104E+00  .897E-01  .627E-01  .439E-01  .330E-01
  .321E-01  .321E-01  .213E-01  .133E-01  .140E-01  .130E-01  .791E-02  .791E-02
  .687E-02  .630E-02  .462E-02  .449E-02  .354E-02  .298E-02  .276E-02  .263E-02
  .243E-02  .247E-02  .238E-02  .220E-02  .174E-02  .136E-02  .110E-02  .950E-03
  .000E+00  .000E+00  .000E+00  .000E+00  .000E+00  .000E+00  .000E+00  .000E+00
  .000E+00  .000E+00  .000E+00  .000E+00  .000E+00  .000E+00  .000E+00  .000E+00
  .000E+00  .000E+00  .000E+00  .000E+00
  .397E+00  .460E+00  .491E+00  .496E+00  .470E+00  .468E+00  .481E+00  .528E+00
  .654E+00  .718E+00  .599E+00  .815E+00  .792E+00  .593E+00  .703E+00  .105E+01
  .915E+00  .873E+00  .141E+01  .236E+01  .218E+01  .163E+01  .185E+01  .160E+01
  .246E+01  .283E+01  .439E+01  .441E+01  .321E+01  .392E+01  .395E+01  .420E+01
  .717E+01  .719E+01  .588E+01  .499E+01  .467E+01  .472E+01  .653E+01  .693E+01
  .673E+01  .530E+01  .793E+01  .122E+02  .162E+02  .195E+02  .139E+02  .104E+02
  .910E+01  .871E+01  .749E+01  .700E+01  .661E+01  .500E+01  .377E+01  .304E+01
  .315E+01  .335E+01  .235E+01  .154E+01  .171E+01  .176E+01  .116E+01  .126E+01
  .118E+01  .116E+01  .905E+00  .934E+00  .777E+00  .690E+00  .674E+00  .674E+00
  .647E+00  .687E+00  .689E+00  .664E+00  .575E+00  .487E+00  .422E+00  .392E+00
  .000E+00  .000E+00  .000E+00  .000E+00  .000E+00  .000E+00  .000E+00  .000E+00
  .000E+00  .000E+00  .000E+00  .000E+00  .000E+00  .000E+00  .000E+00  .000E+00
  .000E+00  .000E+00  .000E+00  .000E+00
  .219E+02  .219E+02  .219E+02  .219E+02  .218E+02  .218E+02  .218E+02  .218E+02
  .219E+02  .219E+02  .239E+02  .220E+02  .221E+02  .219E+02  .225E+02  .225E+02
  .232E+02  .225E+02  .230E+02  .233E+02  .226E+02  .226E+02  .246E+02  .230E+02
  .231E+02  .231E+02  .246E+02  .246E+02  .232E+02  .233E+02  .224E+02  .233E+02
  .233E+02  .234E+02  .236E+02  .221E+02  .222E+02  .222E+02  .236E+02  .236E+02
  .240E+02  .247E+02  .247E+02  .251E+02  .263E+02  .276E+02  .277E+02  .341E+02
  .266E+02  .259E+02  .409E+02  .453E+02  .405E+02  .275E+02  .271E+02  .396E+02
  .402E+02  .397E+02  .390E+02  .390E+02  .390E+02  .391E+02  .246E+02  .390E+02
  .299E+02  .299E+02  .290E+02  .391E+02  .275E+02  .262E+02  .262E+02  .262E+02
  .251E+02  .251E+02  .251E+02  .251E+02  .251E+02  .251E+02  .251E+02  .251E+02
  .000E+00  .000E+00  .000E+00  .000E+00  .000E+00  .000E+00  .000E+00  .000E+00
  .000E+00  .000E+00  .000E+00  .000E+00  .000E+00  .000E+00  .000E+00  .000E+00
  .000E+00  .000E+00  .000E+00  .000E+00
  .219E+02  .219E+02  .219E+02  .219E+02  .218E+02  .218E+02  .218E+02  .225E+02
  .219E+02  .219E+02  .219E+02  .219E+02  .221E+02  .221E+02  .225E+02  .225E+02
  .238E+02  .229E+02  .230E+02  .233E+02  .226E+02  .226E+02  .242E+02  .222E+02
  .231E+02  .231E+02  .245E+02  .247E+02  .232E+02  .234E+02  .223E+02  .223E+02
  .234E+02  .233E+02  .235E+02  .221E+02  .221E+02  .221E+02  .235E+02  .235E+02
  .241E+02  .221E+02  .249E+02  .249E+02  .261E+02  .278E+02  .275E+02  .343E+02
  .260E+02  .256E+02  .411E+02  .451E+02  .408E+02  .253E+02  .253E+02  .399E+02
  .399E+02  .393E+02  .249E+02  .249E+02  .249E+02  .388E+02  .249E+02  .245E+02
  .245E+02  .245E+02  .245E+02  .245E+02  .245E+02  .253E+02  .253E+02  .253E+02
  .253E+02  .253E+02  .253E+02  .253E+02  .253E+02  .245E+02  .245E+02  .245E+02
  .000E+00  .000E+00  .000E+00  .000E+00  .000E+00  .000E+00  .000E+00  .000E+00
  .000E+00  .000E+00  .000E+00  .000E+00  .000E+00  .000E+00  .000E+00  .000E+00
  .000E+00  .000E+00  .000E+00  .000E+00
  .219E+02  .219E+02  .219E+02  .219E+02  .218E+02  .218E+02  .218E+02  .218E+02
  .219E+02  .219E+02  .239E+02  .220E+02  .221E+02  .219E+02  .225E+02  .225E+02
  .232E+02  .225E+02  .230E+02  .233E+02  .226E+02  .226E+02  .246E+02  .230E+02
  .231E+02  .231E+02  .246E+02  .246E+02  .232E+02  .233E+02  .224E+02  .233E+02
