Response and Fourier amplitude spectra (80 periods,  .04 -  7.0 sec)   for      
Corrected accelerogram   23631-E0754-08212.02       Chan  4:  Tran       from   
Uncorrected Accelerogram Data             Processed: 02/09/09, CGS  CE23631     
Record of Tue Jul 29, 2008 11:42:08.9 PDT             (Avol1 v8.5,11/08 CSMIP)  
CSMIP Preliminary Processing            (Origin:  To be determined)             
23631-E0754-08212.02                 Start time:  7/29/08, 18:42: 8.9 UTC (WWVB)
Station No. 23631   34.064N, 117.296W     SSA-1  s/n  754  (4 Chns of 36 at Sta)
San Bernardino - I10/215 Interchange Br   CGS                                   
Chan  4:  Tran    (Sta Chn: 36)     Location: North Abutment                    
Record of Tue Jul 29, 2008 11:42:08.9 PDT    Tue Jul 29, 2008 11:42:08.9 PDT    
Hypocenter:  To be determined.               ML:  To be determined.             
Instr Period =  .0200 sec,  Damping =  .650,  Sensitivity = 1.25  v/g           
                        Record length = 78.080 sec.                             
                                     Uncor Max  =  -.054 g , at  21.745 sec.    
RMS accel of (uncor) record  =        .   Chn. metadata effective date: 01/10/92
Accelerogram bandpass filtered with 3 dB pts at   .14 and 40.00 cyc/sec         
                 instrument- and baseline-corrected                             
                                                                                
                                                                                
                                                                                
                                                                                
                                                                                
Record of Tue Jul 29, 2008 11:42:08.9 PDT    Tue Jul 29, 2008 11:42:08.9 PDT    
                                                                                
23631-E0754-08212.02      San Bernardino - I10/215 Interchange Br   Chan  4:  Tr
an                                                                              
23631-E0754-08212.02      San Bernardino - I10/215 Interchange Br   Chan  4:  Tr
an                                                                              
Units for spectra are inches and sec, except Sa is in fraction of g.            
                                                                                
    4  100   36    4   36  200    1    3    1   12    5  754    023631    3    0
   18   42    8  935  211    7   29 2008   10    1  90015616   41   39   76   -1
15616    1  100    3 2117    1    2   61    2   18   42   33  830    7   29 2008
    0    2    0    0 7808    2  222    1   12    4   76   39    3    1    0 7808
    3 7808   40   80    5    4    5    0    1    0   36    0    0    3    0    2
    2    2    4    0   66   99    1   32   32    0    0    1    0    0   40  222
    1    0    4    0
      .020      .650    78.080      .005      .000  1251.000     -.054    21.745
    50.100  1220.703   975.782      .000     5.000      .000      .000      .000
     2.500      .811     2.500  -999.000    15.360    30.000      .000      .157
     -.027     -.184     2.000    15.000    34.064  -117.296      .109      .793
     7.277     -.224     -.144   297.000      .000      .000      .000      .000
     1.000   -10.182     7.000      .000      .000      .000      .000      .000
     6.800     8.500     5.200   980.665      .010    78.080     7.974      .000
      .000    40.000      .000    78.080      .010      .143      .000      .000
    21.740   -51.629    22.230     2.633    25.160     -.241      .003      .143
    40.000      .010      .010      .022      .770      .129      .000      .000
      .256      .260      .167      .152      .027      .002      .000      .000
      .000      .000      .000      .000      .000      .000      .000      .000
      .000      .000      .000      .000
      .000      .020      .050      .100      .200
      .040      .042      .044      .046      .048      .050      .055      .060
      .065      .070      .075      .080      .085      .090      .095      .100
      .110      .120      .130      .140      .150      .160      .170      .180
      .190      .200      .220      .240      .260      .280      .300      .320
      .340      .360      .380      .400      .420      .440      .460      .480
      .500      .550      .600      .650      .700      .750      .800      .850
      .900      .950     1.000     1.100     1.200     1.300     1.400     1.500
     1.600     1.700     1.800     1.900     2.000     2.200     2.400     2.600
     2.800     3.000     3.200     3.400     3.600     3.800     4.000     4.200
     4.400     4.600     4.800     5.000     5.500     6.000     6.500     7.000
      .000      .000      .000      .000      .000      .000      .000      .000
      .000      .000      .000      .000      .000      .000      .000      .000
      .000      .000      .000      .000
Fourier amplitude spectra in in/sec.
  .898E-01  .123E+00  .497E-01  .224E+00  .265E+00  .204E+00  .268E+00  .332E+00
  .196E+00  .347E+00  .897E+00  .340E+00  .281E+00  .403E+00  .619E+00  .162E+01
  .365E+00  .108E+01  .207E+01  .246E+01  .220E+01  .130E+01  .347E+01  .553E+01
  .260E+01  .625E+01  .571E+01  .134E+02  .372E+01  .129E+02  .192E+01  .411E+01
  .225E+01  .169E+01  .561E+01  .999E+00  .222E+01  .229E+01  .293E+01  .339E+01
  .635E+01  .106E+01  .164E+01  .405E+01  .196E+01  .431E+01  .592E+01  .308E+01
  .289E+01  .464E+01  .172E+01  .147E+01  .166E+01  .249E+01  .629E+00  .168E+01
  .224E+01  .962E+00  .120E+01  .275E+00  .135E+01  .102E+01  .150E+01  .954E+00
  .638E+00  .264E+00  .779E+00  .445E+00  .440E+00  .125E+00  .360E+00  .414E+00
  .391E+00  .277E+00  .223E+00  .479E-01  .619E-01  .287E-01  .115E+00  .625E-01
  .000E+00  .000E+00  .000E+00  .000E+00  .000E+00  .000E+00  .000E+00  .000E+00
  .000E+00  .000E+00  .000E+00  .000E+00  .000E+00  .000E+00  .000E+00  .000E+00
  .000E+00  .000E+00  .000E+00  .000E+00
Damping =  .00. Data of Sd,Sv,Sa,Pssv,ttSd,ttSv,ttSa :
  .123E-02  .171E-02  .170E-02  .246E-02  .229E-02  .236E-02  .424E-02  .478E-02
  .419E-02  .775E-02  .133E-01  .803E-02  .115E-01  .974E-02  .186E-01  .274E-01
  .187E-01  .372E-01  .635E-01  .564E-01  .677E-01  .488E-01  .997E-01  .169E+00
  .963E-01  .201E+00  .243E+00  .537E+00  .444E+00  .578E+00  .214E+00  .291E+00
  .175E+00  .154E+00  .368E+00  .189E+00  .152E+00  .195E+00  .303E+00  .290E+00
  .559E+00  .201E+00  .331E+00  .510E+00  .406E+00  .607E+00  .858E+00  .612E+00
  .501E+00  .781E+00  .363E+00  .467E+00  .364E+00  .556E+00  .223E+00  .535E+00
  .664E+00  .312E+00  .417E+00  .219E+00  .497E+00  .466E+00  .596E+00  .467E+00
  .334E+00  .252E+00  .433E+00  .314E+00  .320E+00  .327E+00  .287E+00  .339E+00
  .318E+00  .293E+00  .233E+00  .195E+00  .137E+00  .145E+00  .159E+00  .193E+00
  .000E+00  .000E+00  .000E+00  .000E+00  .000E+00  .000E+00  .000E+00  .000E+00
  .000E+00  .000E+00  .000E+00  .000E+00  .000E+00  .000E+00  .000E+00  .000E+00
  .000E+00  .000E+00  .000E+00  .000E+00
  .970E-01  .163E+00  .124E+00  .243E+00  .276E+00  .271E+00  .402E+00  .401E+00
  .347E+00  .589E+00  .102E+01  .494E+00  .849E+00  .621E+00  .115E+01  .168E+01
  .954E+00  .183E+01  .277E+01  .252E+01  .281E+01  .188E+01  .363E+01  .579E+01
  .315E+01  .631E+01  .681E+01  .139E+02  .109E+02  .130E+02  .455E+01  .567E+01
  .332E+01  .281E+01  .610E+01  .316E+01  .226E+01  .296E+01  .415E+01  .397E+01
  .701E+01  .262E+01  .342E+01  .499E+01  .347E+01  .510E+01  .666E+01  .443E+01
  .371E+01  .513E+01  .269E+01  .274E+01  .232E+01  .267E+01  .134E+01  .222E+01
  .273E+01  .153E+01  .148E+01  .120E+01  .156E+01  .148E+01  .158E+01  .118E+01
  .104E+01  .961E+00  .982E+00  .102E+01  .108E+01  .109E+01  .107E+01  .109E+01
  .111E+01  .112E+01  .114E+01  .113E+01  .106E+01  .103E+01  .102E+01  .101E+01
  .000E+00  .000E+00  .000E+00  .000E+00  .000E+00  .000E+00  .000E+00  .000E+00
  .000E+00  .000E+00  .000E+00  .000E+00  .000E+00  .000E+00  .000E+00  .000E+00
  .000E+00  .000E+00  .000E+00  .000E+00
  .785E-01  .990E-01  .899E-01  .119E+00  .102E+00  .966E-01  .143E+00  .136E+00
  .102E+00  .162E+00  .242E+00  .128E+00  .163E+00  .123E+00  .211E+00  .280E+00
  .158E+00  .264E+00  .384E+00  .294E+00  .308E+00  .195E+00  .353E+00  .532E+00
  .273E+00  .514E+00  .514E+00  .954E+00  .672E+00  .753E+00  .244E+00  .291E+00
  .154E+00  .121E+00  .261E+00  .121E+00  .880E-01  .103E+00  .147E+00  .129E+00
  .229E+00  .679E-01  .940E-01  .124E+00  .847E-01  .110E+00  .137E+00  .866E-01
  .633E-01  .885E-01  .371E-01  .395E-01  .258E-01  .336E-01  .116E-01  .243E-01
  .265E-01  .110E-01  .132E-01  .620E-02  .127E-01  .984E-02  .106E-01  .707E-02
  .436E-02  .287E-02  .432E-02  .278E-02  .252E-02  .231E-02  .184E-02  .197E-02
  .168E-02  .141E-02  .103E-02  .799E-03  .462E-03  .412E-03  .384E-03  .403E-03
  .000E+00  .000E+00  .000E+00  .000E+00  .000E+00  .000E+00  .000E+00  .000E+00
  .000E+00  .000E+00  .000E+00  .000E+00  .000E+00  .000E+00  .000E+00  .000E+00
  .000E+00  .000E+00  .000E+00  .000E+00
  .193E+00  .255E+00  .243E+00  .336E+00  .300E+00  .297E+00  .485E+00  .501E+00
  .405E+00  .696E+00  .111E+01  .630E+00  .852E+00  .680E+00  .123E+01  .172E+01
  .107E+01  .195E+01  .307E+01  .253E+01  .284E+01  .192E+01  .369E+01  .588E+01
  .319E+01  .632E+01  .695E+01  .141E+02  .107E+02  .130E+02  .449E+01  .572E+01
  .323E+01  .269E+01  .609E+01  .296E+01  .227E+01  .279E+01  .414E+01  .380E+01
  .703E+01  .229E+01  .346E+01  .493E+01  .364E+01  .508E+01  .674E+01  .452E+01
  .350E+01  .517E+01  .228E+01  .267E+01  .190E+01  .269E+01  .100E+01  .224E+01
  .261E+01  .115E+01  .146E+01  .723E+00  .156E+01  .133E+01  .156E+01  .113E+01
  .750E+00  .528E+00  .849E+00  .580E+00  .558E+00  .540E+00  .452E+00  .508E+00
  .454E+00  .400E+00  .304E+00  .245E+00  .156E+00  .152E+00  .153E+00  .173E+00
  .000E+00  .000E+00  .000E+00  .000E+00  .000E+00  .000E+00  .000E+00  .000E+00
  .000E+00  .000E+00  .000E+00  .000E+00  .000E+00  .000E+00  .000E+00  .000E+00
  .000E+00  .000E+00  .000E+00  .000E+00
  .217E+02  .223E+02  .215E+02  .226E+02  .223E+02  .237E+02  .247E+02  .216E+02
  .269E+02  .247E+02  .244E+02  .223E+02  .185E+02  .233E+02  .237E+02  .541E+02
  .230E+02  .239E+02  .223E+02  .445E+02  .312E+02  .259E+02  .268E+02  .342E+02
  .353E+02  .648E+02  .278E+02  .277E+02  .234E+02  .639E+02  .258E+02  .305E+02
  .217E+02  .217E+02  .366E+02  .242E+02  .702E+02  .229E+02  .302E+02  .254E+02
  .436E+02  .220E+02  .337E+02  .299E+02  .231E+02  .413E+02  .377E+02  .377E+02
  .429E+02  .503E+02  .223E+02  .443E+02  .439E+02  .716E+02  .277E+02  .646E+02
  .523E+02  .280E+02  .723E+02  .333E+02  .740E+02  .383E+02  .753E+02  .700E+02
  .548E+02  .301E+02  .702E+02  .509E+02  .596E+02  .277E+02  .278E+02  .516E+02
  .396E+02  .383E+02  .251E+02  .251E+02  .251E+02  .251E+02  .251E+02  .251E+02
  .000E+00  .000E+00  .000E+00  .000E+00  .000E+00  .000E+00  .000E+00  .000E+00
  .000E+00  .000E+00  .000E+00  .000E+00  .000E+00  .000E+00  .000E+00  .000E+00
  .000E+00  .000E+00  .000E+00  .000E+00
  .218E+02  .222E+02  .210E+02  .229E+02  .745E+02  .435E+02  .248E+02  .215E+02
  .268E+02  .249E+02  .245E+02  .231E+02  .185E+02  .233E+02  .236E+02  .538E+02
  .232E+02  .240E+02  .223E+02  .445E+02  .312E+02  .260E+02  .352E+02  .342E+02
  .353E+02  .649E+02  .278E+02  .278E+02  .233E+02  .640E+02  .258E+02  .306E+02
  .216E+02  .216E+02  .360E+02  .243E+02  .601E+02  .228E+02  .301E+02  .256E+02
  .479E+02  .221E+02  .338E+02  .297E+02  .233E+02  .411E+02  .379E+02  .375E+02
  .236E+02  .500E+02  .226E+02  .440E+02  .222E+02  .726E+02  .268E+02  .650E+02
  .519E+02  .250E+02  .737E+02  .218E+02  .735E+02  .410E+02  .759E+02  .705E+02
  .214E+02  .214E+02  .214E+02  .214E+02  .214E+02  .214E+02  .214E+02  .214E+02
  .214E+02  .214E+02  .222E+02  .222E+02  .222E+02  .222E+02  .222E+02  .222E+02
  .000E+00  .000E+00  .000E+00  .000E+00  .000E+00  .000E+00  .000E+00  .000E+00
  .000E+00  .000E+00  .000E+00  .000E+00  .000E+00  .000E+00  .000E+00  .000E+00
  .000E+00  .000E+00  .000E+00  .000E+00
  .217E+02  .223E+02  .215E+02  .226E+02  .223E+02  .237E+02  .247E+02  .216E+02
  .269E+02  .247E+02  .244E+02  .223E+02  .185E+02  .233E+02  .237E+02  .541E+02
  .230E+02  .239E+02  .223E+02  .445E+02  .312E+02  .259E+02  .268E+02  .342E+02
  .353E+02  .648E+02  .278E+02  .277E+02  .234E+02  .639E+02  .258E+02  .305E+02
  .217E+02  .217E+02  .366E+02  .242E+02  .702E+02  .229E+02  .302E+02  .254E+02
  .436E+02  .220E+02  .337E+02  .299E+02  .231E+02  .413E+02  .377E+02  .377E+02
  .429E+02  .503E+02  .223E+02  .443E+02  .439E+02  .716E+02  .277E+02  .646E+02
  .523E+02  .280E+02  .723E+02  .333E+02  .740E+02  .383E+02  .753E+02  .700E+02
  .548E+02  .301E+02  .702E+02  .509E+02  .596E+02  .277E+02  .278E+02  .516E+02
  .396E+02  .383E+02  .251E+02  .251E+02  .251E+02  .251E+02  .251E+02  .251E+02
  .000E+00  .000E+00  .000E+00  .000E+00  .000E+00  .000E+00  .000E+00  .000E+00
  .000E+00  .000E+00  .000E+00  .000E+00  .000E+00  .000E+00  .000E+00  .000E+00
  .000E+00  .000E+00  .000E+00  .000E+00
Damping =  .02. Data of Sd,Sv,Sa,Pssv,ttSd,ttSv,ttSa :
  .109E-02  .130E-02  .139E-02  .138E-02  .153E-02  .173E-02  .246E-02  .216E-02
  .319E-02  .434E-02  .531E-02  .537E-02  .882E-02  .763E-02  .744E-02  .120E-01
  .171E-01  .268E-01  .328E-01  .329E-01  .261E-01  .287E-01  .432E-01  .657E-01
  .702E-01  .817E-01  .134E+00  .241E+00  .274E+00  .204E+00  .168E+00  .122E+00
  .124E+00  .119E+00  .145E+00  .137E+00  .109E+00  .129E+00  .164E+00  .182E+00
  .176E+00  .151E+00  .179E+00  .258E+00  .334E+00  .340E+00  .402E+00  .346E+00
  .364E+00  .367E+00  .319E+00  .253E+00  .242E+00  .280E+00  .200E+00  .244E+00
  .286E+00  .225E+00  .243E+00  .198E+00  .217E+00  .298E+00  .320E+00  .262E+00
  .272E+00  .232E+00  .225E+00  .244E+00  .273E+00  .290E+00  .263E+00  .227E+00
  .225E+00  .211E+00  .207E+00  .185E+00  .142E+00  .145E+00  .158E+00  .183E+00
  .000E+00  .000E+00  .000E+00  .000E+00  .000E+00  .000E+00  .000E+00  .000E+00
  .000E+00  .000E+00  .000E+00  .000E+00  .000E+00  .000E+00  .000E+00  .000E+00
  .000E+00  .000E+00  .000E+00  .000E+00
  .745E-01  .102E+00  .113E+00  .109E+00  .117E+00  .129E+00  .197E+00  .151E+00
  .215E+00  .309E+00  .396E+00  .310E+00  .507E+00  .418E+00  .402E+00  .609E+00
  .730E+00  .121E+01  .126E+01  .124E+01  .968E+00  .102E+01  .135E+01  .195E+01
  .212E+01  .237E+01  .364E+01  .608E+01  .665E+01  .490E+01  .361E+01  .247E+01
  .246E+01  .238E+01  .241E+01  .218E+01  .188E+01  .214E+01  .249E+01  .254E+01
  .245E+01  .201E+01  .204E+01  .265E+01  .277E+01  .328E+01  .323E+01  .294E+01
  .291E+01  .255E+01  .228E+01  .182E+01  .205E+01  .170E+01  .121E+01  .153E+01
  .162E+01  .140E+01  .134E+01  .119E+01  .110E+01  .105E+01  .107E+01  .108E+01
  .103E+01  .974E+00  .985E+00  .102E+01  .106E+01  .107E+01  .107E+01  .108E+01
  .109E+01  .109E+01  .111E+01  .111E+01  .106E+01  .103E+01  .102E+01  .101E+01
  .000E+00  .000E+00  .000E+00  .000E+00  .000E+00  .000E+00  .000E+00  .000E+00
  .000E+00  .000E+00  .000E+00  .000E+00  .000E+00  .000E+00  .000E+00  .000E+00
  .000E+00  .000E+00  .000E+00  .000E+00
  .693E-01  .755E-01  .732E-01  .668E-01  .681E-01  .706E-01  .830E-01  .611E-01
  .775E-01  .908E-01  .968E-01  .857E-01  .125E+00  .967E-01  .846E-01  .124E+00
  .143E+00  .190E+00  .199E+00  .173E+00  .119E+00  .115E+00  .153E+00  .208E+00
  .198E+00  .209E+00  .283E+00  .427E+00  .416E+00  .267E+00  .190E+00  .121E+00
  .110E+00  .940E-01  .103E+00  .879E-01  .631E-01  .681E-01  .792E-01  .811E-01
  .721E-01  .510E-01  .510E-01  .624E-01  .698E-01  .620E-01  .643E-01  .491E-01
  .461E-01  .416E-01  .327E-01  .214E-01  .172E-01  .169E-01  .105E-01  .111E-01
  .115E-01  .799E-02  .768E-02  .567E-02  .555E-02  .631E-02  .569E-02  .397E-02
  .356E-02  .264E-02  .225E-02  .216E-02  .216E-02  .207E-02  .169E-02  .132E-02
  .120E-02  .103E-02  .936E-03  .772E-03  .495E-03  .429E-03  .399E-03  .398E-03
  .000E+00  .000E+00  .000E+00  .000E+00  .000E+00  .000E+00  .000E+00  .000E+00
  .000E+00  .000E+00  .000E+00  .000E+00  .000E+00  .000E+00  .000E+00  .000E+00
  .000E+00  .000E+00  .000E+00  .000E+00
  .170E+00  .194E+00  .198E+00  .188E+00  .201E+00  .217E+00  .282E+00  .226E+00
  .309E+00  .389E+00  .445E+00  .422E+00  .652E+00  .533E+00  .492E+00  .757E+00
  .975E+00  .140E+01  .159E+01  .148E+01  .109E+01  .113E+01  .160E+01  .229E+01
  .232E+01  .257E+01  .382E+01  .631E+01  .662E+01  .457E+01  .351E+01  .239E+01
  .229E+01  .208E+01  .239E+01  .215E+01  .163E+01  .184E+01  .224E+01  .239E+01
  .221E+01  .172E+01  .188E+01  .249E+01  .300E+01  .285E+01  .315E+01  .256E+01
  .254E+01  .243E+01  .200E+01  .145E+01  .127E+01  .135E+01  .898E+00  .102E+01
  .112E+01  .832E+00  .848E+00  .656E+00  .682E+00  .852E+00  .837E+00  .633E+00
  .611E+00  .487E+00  .442E+00  .451E+00  .476E+00  .480E+00  .413E+00  .340E+00
  .321E+00  .289E+00  .271E+00  .232E+00  .162E+00  .152E+00  .153E+00  .164E+00
  .000E+00  .000E+00  .000E+00  .000E+00  .000E+00  .000E+00  .000E+00  .000E+00
  .000E+00  .000E+00  .000E+00  .000E+00  .000E+00  .000E+00  .000E+00  .000E+00
  .000E+00  .000E+00  .000E+00  .000E+00
  .217E+02  .217E+02  .217E+02  .217E+02  .217E+02  .217E+02  .218E+02  .215E+02
  .218E+02  .218E+02  .218E+02  .223E+02  .225E+02  .222E+02  .219E+02  .237E+02
  .222E+02  .223E+02  .223E+02  .227E+02  .257E+02  .220E+02  .223E+02  .223E+02
  .223E+02  .226E+02  .239E+02  .247E+02  .232E+02  .225E+02  .224E+02  .257E+02
  .217E+02  .217E+02  .237E+02  .224E+02  .224E+02  .229E+02  .237E+02  .255E+02
  .255E+02  .220E+02  .220E+02  .231E+02  .232E+02  .232E+02  .253E+02  .254E+02
  .230E+02  .226E+02  .223E+02  .300E+02  .219E+02  .281E+02  .277E+02  .265E+02
  .251E+02  .247E+02  .417E+02  .215E+02  .722E+02  .328E+02  .320E+02  .347E+02
  .312E+02  .301E+02  .302E+02  .289E+02  .277E+02  .277E+02  .277E+02  .264E+02
  .264E+02  .383E+02  .251E+02  .251E+02  .251E+02  .251E+02  .251E+02  .251E+02
  .000E+00  .000E+00  .000E+00  .000E+00  .000E+00  .000E+00  .000E+00  .000E+00
  .000E+00  .000E+00  .000E+00  .000E+00  .000E+00  .000E+00  .000E+00  .000E+00
  .000E+00  .000E+00  .000E+00  .000E+00
  .218E+02  .218E+02  .218E+02  .219E+02  .218E+02  .218E+02  .218E+02  .218E+02
  .218E+02  .218E+02  .218E+02  .218E+02  .225E+02  .226E+02  .226E+02  .235E+02
  .221E+02  .222E+02  .223E+02  .227E+02  .258E+02  .221E+02  .227E+02  .223E+02
  .225E+02  .225E+02  .240E+02  .248E+02  .233E+02  .226E+02  .223E+02  .256E+02
  .216E+02  .217E+02  .238E+02  .217E+02  .223E+02  .228E+02  .248E+02  .236E+02
  .247E+02  .221E+02  .221E+02  .232E+02  .234E+02  .231E+02  .231E+02  .252E+02
  .236E+02  .229E+02  .226E+02  .226E+02  .222E+02  .278E+02  .268E+02  .222E+02
  .222E+02  .218E+02  .218E+02  .218E+02  .218E+02  .218E+02  .214E+02  .214E+02
  .214E+02  .214E+02  .214E+02  .214E+02  .214E+02  .214E+02  .214E+02  .214E+02
  .214E+02  .214E+02  .222E+02  .222E+02  .222E+02  .222E+02  .222E+02  .222E+02
  .000E+00  .000E+00  .000E+00  .000E+00  .000E+00  .000E+00  .000E+00  .000E+00
  .000E+00  .000E+00  .000E+00  .000E+00  .000E+00  .000E+00  .000E+00  .000E+00
  .000E+00  .000E+00  .000E+00  .000E+00
  .217E+02  .217E+02  .217E+02  .217E+02  .217E+02  .217E+02  .218E+02  .215E+02
  .217E+02  .218E+02  .218E+02  .223E+02  .225E+02  .222E+02  .219E+02  .237E+02
  .222E+02  .223E+02  .223E+02  .226E+02  .257E+02  .220E+02  .223E+02  .223E+02
  .223E+02  .226E+02  .239E+02  .247E+02  .232E+02  .225E+02  .224E+02  .257E+02
