Response and Fourier amplitude spectra (80 periods,  .04 -  7.0 sec)   for      
Corrected accelerogram   23631-E0779-08212.02       Chan  3:  Tran       from   
Uncorrected Accelerogram Data             Processed: 02/09/09, CGS  CE23631     
Record of Tue Jul 29, 2008 11:42:08.9 PDT             (Avol1 v8.5,11/08 CSMIP)  
CSMIP Preliminary Processing            (Origin:  To be determined)             
23631-E0779-08212.02                 Start time:  7/29/08, 18:42: 8.9 UTC (WWVB)
Station No. 23631   34.064N, 117.296W     SSA-1  s/n  779  (4 Chns of 36 at Sta)
San Bernardino - I10/215 Interchange Br   CGS                                   
Chan  3:  Tran    (Sta Chn: 19)     Location: Hinge Near Bent 8: W. Side        
Record of Tue Jul 29, 2008 11:42:08.9 PDT    Tue Jul 29, 2008 11:42:08.9 PDT    
Hypocenter:  To be determined.               ML:  To be determined.             
Instr Period =  .0185 sec,  Damping =  .660,  Sensitivity = 1.24  v/g           
                        Record length = 78.080 sec.                             
                                     Uncor Max  =   .069 g , at  22.395 sec.    
RMS accel of (uncor) record  =        .   Chn. metadata effective date: 01/10/92
Accelerogram bandpass filtered with 3 dB pts at   .14 and 40.00 cyc/sec         
                 instrument- and baseline-corrected                             
                                                                                
                                                                                
                                                                                
                                                                                
                                                                                
Record of Tue Jul 29, 2008 11:42:08.9 PDT    Tue Jul 29, 2008 11:42:08.9 PDT    
                                                                                
23631-E0779-08212.02      San Bernardino - I10/215 Interchange Br   Chan  3:  Tr
an                                                                              
23631-E0779-08212.02      San Bernardino - I10/215 Interchange Br   Chan  3:  Tr
an                                                                              
Units for spectra are inches and sec, except Sa is in fraction of g.            
                                                                                
    3  100   19    4   36  200    1    3    1   12    5  779    023631    3    0
   18   42    8  935  211    7   29 2008   10    1  90015616   41   39   76   -1
15616    0  100    3 2117    1    2   61    2   18   42   38  140    7   29 2008
    0    2    0    0 7808    2  222    1   12    4   76   39    3    1    0 7808
    3 7808   40   80    5    4    5    0    0    0   36    0    0    3    0    2
    2    2    4    0   66   99    1   32   32    0    0    1   16    0    8  222
    1    0    0    0
      .019      .660    78.080      .008      .000  1238.000      .069    22.395
    54.000  1220.703   986.028      .000     5.000      .000      .000      .000
     2.500    -6.590     2.500  -999.000    15.360    30.000      .000      .102
     -.097     -.199     2.000    15.000    34.064  -117.296      .786     5.323
     6.774     -.469      .071   297.000      .000      .000      .000      .000
     1.000    -3.205     7.000      .000      .000      .000      .000      .000
     6.800     8.500     5.200   980.665      .010    78.080     8.594      .000
      .000    40.000      .000    78.080      .010      .143      .000      .000
    22.390    67.071    22.510     5.388    38.450     -.806     -.002      .143
    40.000      .010      .010      .001      .770      .495      .000      .000
      .174      .150      .133      .143      .087      .006      .000      .000
      .000      .000      .000      .000      .000      .000      .000      .000
      .000      .000      .000      .000
      .000      .020      .050      .100      .200
      .040      .042      .044      .046      .048      .050      .055      .060
      .065      .070      .075      .080      .085      .090      .095      .100
      .110      .120      .130      .140      .150      .160      .170      .180
      .190      .200      .220      .240      .260      .280      .300      .320
      .340      .360      .380      .400      .420      .440      .460      .480
      .500      .550      .600      .650      .700      .750      .800      .850
      .900      .950     1.000     1.100     1.200     1.300     1.400     1.500
     1.600     1.700     1.800     1.900     2.000     2.200     2.400     2.600
     2.800     3.000     3.200     3.400     3.600     3.800     4.000     4.200
     4.400     4.600     4.800     5.000     5.500     6.000     6.500     7.000
      .000      .000      .000      .000      .000      .000      .000      .000
      .000      .000      .000      .000      .000      .000      .000      .000
      .000      .000      .000      .000
Fourier amplitude spectra in in/sec.
  .834E-01  .155E+00  .374E+00  .214E+00  .211E+00  .430E+00  .336E+00  .481E+00
  .563E+00  .413E+00  .563E+00  .206E+00  .237E+00  .114E+01  .679E+00  .928E+00
  .153E+01  .139E+01  .126E+01  .645E+01  .258E+01  .428E+00  .133E+01  .721E+00
  .600E+00  .255E+01  .556E+01  .516E+01  .901E+00  .241E+01  .985E+01  .802E+01
  .152E+02  .573E+01  .486E+00  .680E+01  .831E+00  .399E+01  .318E+01  .533E+01
  .200E+01  .639E+01  .761E+00  .104E+02  .174E+02  .151E+02  .173E+02  .190E+02
  .169E+02  .361E+02  .170E+02  .135E+02  .105E+02  .964E+01  .365E+01  .627E+01
  .145E+01  .503E+01  .399E+01  .127E+01  .240E+01  .306E+01  .750E+00  .135E+01
  .152E+01  .587E+00  .147E+01  .351E+00  .861E+00  .831E+00  .334E+00  .624E+00
  .494E+00  .407E+00  .331E-01  .297E+00  .119E+00  .945E-01  .115E+00  .916E-01
  .000E+00  .000E+00  .000E+00  .000E+00  .000E+00  .000E+00  .000E+00  .000E+00
  .000E+00  .000E+00  .000E+00  .000E+00  .000E+00  .000E+00  .000E+00  .000E+00
  .000E+00  .000E+00  .000E+00  .000E+00
Damping =  .00. Data of Sd,Sv,Sa,Pssv,ttSd,ttSv,ttSa :
  .173E-02  .224E-02  .353E-02  .301E-02  .301E-02  .447E-02  .340E-02  .742E-02
  .584E-02  .640E-02  .895E-02  .115E-01  .115E-01  .260E-01  .177E-01  .227E-01
  .455E-01  .346E-01  .424E-01  .146E+00  .983E-01  .366E-01  .540E-01  .462E-01
  .511E-01  .926E-01  .205E+00  .229E+00  .147E+00  .336E+00  .480E+00  .418E+00
  .856E+00  .488E+00  .257E+00  .448E+00  .263E+00  .323E+00  .351E+00  .562E+00
  .472E+00  .732E+00  .809E+00  .134E+01  .197E+01  .185E+01  .270E+01  .258E+01
  .340E+01  .575E+01  .279E+01  .237E+01  .345E+01  .210E+01  .181E+01  .193E+01
  .124E+01  .199E+01  .120E+01  .904E+00  .109E+01  .110E+01  .465E+00  .725E+00
  .875E+00  .677E+00  .826E+00  .712E+00  .705E+00  .646E+00  .559E+00  .640E+00
  .527E+00  .558E+00  .505E+00  .367E+00  .367E+00  .413E+00  .374E+00  .311E+00
  .000E+00  .000E+00  .000E+00  .000E+00  .000E+00  .000E+00  .000E+00  .000E+00
  .000E+00  .000E+00  .000E+00  .000E+00  .000E+00  .000E+00  .000E+00  .000E+00
  .000E+00  .000E+00  .000E+00  .000E+00
  .148E+00  .208E+00  .428E+00  .262E+00  .289E+00  .524E+00  .370E+00  .658E+00
  .563E+00  .518E+00  .644E+00  .623E+00  .563E+00  .169E+01  .910E+00  .121E+01
  .254E+01  .147E+01  .181E+01  .646E+01  .412E+01  .134E+01  .186E+01  .137E+01
  .151E+01  .278E+01  .570E+01  .597E+01  .304E+01  .729E+01  .997E+01  .807E+01
  .157E+02  .835E+01  .407E+01  .686E+01  .362E+01  .445E+01  .461E+01  .709E+01
  .601E+01  .798E+01  .810E+01  .125E+02  .175E+02  .154E+02  .207E+02  .190E+02
  .237E+02  .380E+02  .175E+02  .135E+02  .185E+02  .106E+02  .835E+01  .850E+01
  .544E+01  .775E+01  .449E+01  .320E+01  .365E+01  .390E+01  .245E+01  .290E+01
  .339E+01  .276E+01  .251E+01  .236E+01  .228E+01  .210E+01  .216E+01  .218E+01
  .220E+01  .221E+01  .223E+01  .224E+01  .224E+01  .223E+01  .223E+01  .222E+01
  .000E+00  .000E+00  .000E+00  .000E+00  .000E+00  .000E+00  .000E+00  .000E+00
  .000E+00  .000E+00  .000E+00  .000E+00  .000E+00  .000E+00  .000E+00  .000E+00
  .000E+00  .000E+00  .000E+00  .000E+00
  .110E+00  .130E+00  .186E+00  .145E+00  .134E+00  .183E+00  .115E+00  .211E+00
  .141E+00  .134E+00  .163E+00  .184E+00  .162E+00  .329E+00  .200E+00  .232E+00
  .385E+00  .246E+00  .257E+00  .764E+00  .447E+00  .146E+00  .191E+00  .146E+00
  .145E+00  .237E+00  .432E+00  .407E+00  .222E+00  .438E+00  .546E+00  .418E+00
  .758E+00  .385E+00  .182E+00  .286E+00  .152E+00  .170E+00  .170E+00  .249E+00
  .193E+00  .247E+00  .230E+00  .325E+00  .411E+00  .337E+00  .431E+00  .365E+00
  .430E+00  .652E+00  .285E+00  .200E+00  .245E+00  .127E+00  .947E-01  .878E-01
  .496E-01  .705E-01  .380E-01  .256E-01  .278E-01  .233E-01  .825E-02  .110E-01
  .114E-01  .770E-02  .825E-02  .630E-02  .557E-02  .457E-02  .357E-02  .371E-02
  .279E-02  .270E-02  .224E-02  .150E-02  .124E-02  .117E-02  .905E-03  .649E-03
  .000E+00  .000E+00  .000E+00  .000E+00  .000E+00  .000E+00  .000E+00  .000E+00
  .000E+00  .000E+00  .000E+00  .000E+00  .000E+00  .000E+00  .000E+00  .000E+00
  .000E+00  .000E+00  .000E+00  .000E+00
  .271E+00  .335E+00  .504E+00  .411E+00  .394E+00  .562E+00  .388E+00  .777E+00
  .564E+00  .574E+00  .749E+00  .905E+00  .847E+00  .182E+01  .117E+01  .143E+01
  .260E+01  .181E+01  .205E+01  .657E+01  .412E+01  .144E+01  .200E+01  .161E+01
  .169E+01  .291E+01  .584E+01  .600E+01  .355E+01  .754E+01  .101E+02  .821E+01
  .158E+02  .852E+01  .425E+01  .704E+01  .393E+01  .461E+01  .480E+01  .736E+01
  .593E+01  .836E+01  .847E+01  .130E+02  .177E+02  .155E+02  .212E+02  .191E+02
  .238E+02  .380E+02  .175E+02  .135E+02  .181E+02  .101E+02  .814E+01  .809E+01
  .488E+01  .737E+01  .420E+01  .299E+01  .341E+01  .315E+01  .122E+01  .175E+01
  .196E+01  .142E+01  .162E+01  .132E+01  .123E+01  .107E+01  .878E+00  .958E+00
  .753E+00  .762E+00  .661E+00  .461E+00  .420E+00  .432E+00  .361E+00  .279E+00
  .000E+00  .000E+00  .000E+00  .000E+00  .000E+00  .000E+00  .000E+00  .000E+00
  .000E+00  .000E+00  .000E+00  .000E+00  .000E+00  .000E+00  .000E+00  .000E+00
  .000E+00  .000E+00  .000E+00  .000E+00
  .226E+02  .226E+02  .236E+02  .224E+02  .226E+02  .395E+02  .751E+02  .224E+02
  .752E+02  .671E+02  .226E+02  .224E+02  .219E+02  .230E+02  .223E+02  .243E+02
  .262E+02  .226E+02  .226E+02  .730E+02  .228E+02  .224E+02  .366E+02  .226E+02
  .225E+02  .342E+02  .715E+02  .266E+02  .223E+02  .252E+02  .750E+02  .730E+02
  .645E+02  .271E+02  .227E+02  .731E+02  .220E+02  .478E+02  .288E+02  .390E+02
  .264E+02  .354E+02  .275E+02  .473E+02  .750E+02  .702E+02  .385E+02  .760E+02
  .595E+02  .738E+02  .740E+02  .774E+02  .482E+02  .706E+02  .354E+02  .720E+02
  .358E+02  .499E+02  .745E+02  .597E+02  .589E+02  .744E+02  .468E+02  .621E+02
  .715E+02  .385E+02  .688E+02  .391E+02  .384E+02  .468E+02  .280E+02  .390E+02
  .468E+02  .384E+02  .385E+02  .385E+02  .391E+02  .384E+02  .385E+02  .390E+02
  .000E+00  .000E+00  .000E+00  .000E+00  .000E+00  .000E+00  .000E+00  .000E+00
  .000E+00  .000E+00  .000E+00  .000E+00  .000E+00  .000E+00  .000E+00  .000E+00
  .000E+00  .000E+00  .000E+00  .000E+00
  .227E+02  .224E+02  .237E+02  .226E+02  .237E+02  .400E+02  .752E+02  .240E+02
  .771E+02  .683E+02  .532E+02  .224E+02  .219E+02  .230E+02  .222E+02  .244E+02
  .262E+02  .226E+02  .231E+02  .607E+02  .228E+02  .225E+02  .366E+02  .265E+02
  .225E+02  .438E+02  .614E+02  .267E+02  .223E+02  .252E+02  .749E+02  .752E+02
  .639E+02  .272E+02  .243E+02  .756E+02  .221E+02  .488E+02  .535E+02  .365E+02
  .266E+02  .356E+02  .276E+02  .471E+02  .748E+02  .700E+02  .455E+02  .763E+02
  .597E+02  .740E+02  .742E+02  .771E+02  .480E+02  .709E+02  .344E+02  .724E+02
  .355E+02  .495E+02  .714E+02  .592E+02  .393E+02  .388E+02  .393E+02  .393E+02
  .388E+02  .381E+02  .393E+02  .388E+02  .388E+02  .381E+02  .393E+02  .225E+02
  .225E+02  .225E+02  .225E+02  .225E+02  .225E+02  .225E+02  .225E+02  .225E+02
  .000E+00  .000E+00  .000E+00  .000E+00  .000E+00  .000E+00  .000E+00  .000E+00
  .000E+00  .000E+00  .000E+00  .000E+00  .000E+00  .000E+00  .000E+00  .000E+00
  .000E+00  .000E+00  .000E+00  .000E+00
  .226E+02  .226E+02  .236E+02  .224E+02  .226E+02  .395E+02  .751E+02  .224E+02
  .752E+02  .671E+02  .226E+02  .224E+02  .219E+02  .230E+02  .223E+02  .243E+02
  .262E+02  .226E+02  .226E+02  .730E+02  .228E+02  .224E+02  .366E+02  .226E+02
  .225E+02  .342E+02  .715E+02  .266E+02  .223E+02  .252E+02  .750E+02  .730E+02
  .645E+02  .271E+02  .227E+02  .731E+02  .220E+02  .478E+02  .288E+02  .390E+02
  .264E+02  .354E+02  .275E+02  .473E+02  .750E+02  .702E+02  .385E+02  .760E+02
  .595E+02  .738E+02  .740E+02  .774E+02  .482E+02  .706E+02  .354E+02  .720E+02
  .358E+02  .499E+02  .745E+02  .597E+02  .589E+02  .744E+02  .468E+02  .621E+02
  .715E+02  .385E+02  .688E+02  .391E+02  .384E+02  .468E+02  .280E+02  .390E+02
  .468E+02  .384E+02  .385E+02  .385E+02  .391E+02  .384E+02  .385E+02  .390E+02
  .000E+00  .000E+00  .000E+00  .000E+00  .000E+00  .000E+00  .000E+00  .000E+00
  .000E+00  .000E+00  .000E+00  .000E+00  .000E+00  .000E+00  .000E+00  .000E+00
  .000E+00  .000E+00  .000E+00  .000E+00
Damping =  .02. Data of Sd,Sv,Sa,Pssv,ttSd,ttSv,ttSa :
  .137E-02  .143E-02  .193E-02  .193E-02  .215E-02  .214E-02  .268E-02  .380E-02
  .416E-02  .454E-02  .663E-02  .895E-02  .113E-01  .132E-01  .130E-01  .121E-01
  .226E-01  .223E-01  .352E-01  .477E-01  .530E-01  .396E-01  .345E-01  .368E-01
  .464E-01  .652E-01  .104E+00  .109E+00  .131E+00  .159E+00  .169E+00  .164E+00
  .262E+00  .272E+00  .234E+00  .218E+00  .231E+00  .221E+00  .220E+00  .241E+00
  .342E+00  .469E+00  .591E+00  .819E+00  .937E+00  .126E+01  .138E+01  .131E+01
  .142E+01  .126E+01  .122E+01  .125E+01  .194E+01  .151E+01  .106E+01  .116E+01
  .867E+00  .118E+01  .743E+00  .599E+00  .671E+00  .742E+00  .446E+00  .642E+00
  .678E+00  .562E+00  .560E+00  .568E+00  .558E+00  .545E+00  .511E+00  .525E+00
  .451E+00  .478E+00  .456E+00  .373E+00  .340E+00  .388E+00  .362E+00  .302E+00
  .000E+00  .000E+00  .000E+00  .000E+00  .000E+00  .000E+00  .000E+00  .000E+00
  .000E+00  .000E+00  .000E+00  .000E+00  .000E+00  .000E+00  .000E+00  .000E+00
  .000E+00  .000E+00  .000E+00  .000E+00
  .104E+00  .100E+00  .133E+00  .994E-01  .110E+00  .120E+00  .111E+00  .197E+00
  .215E+00  .251E+00  .312E+00  .452E+00  .529E+00  .767E+00  .623E+00  .602E+00
  .113E+01  .885E+00  .150E+01  .196E+01  .227E+01  .139E+01  .113E+01  .115E+01
  .139E+01  .178E+01  .279E+01  .275E+01  .270E+01  .332E+01  .332E+01  .302E+01
  .476E+01  .458E+01  .324E+01  .305E+01  .309E+01  .286E+01  .271E+01  .289E+01
  .404E+01  .545E+01  .584E+01  .794E+01  .834E+01  .102E+02  .106E+02  .102E+02
  .978E+01  .811E+01  .749E+01  .744E+01  .103E+02  .786E+01  .529E+01  .560E+01
  .397E+01  .566E+01  .348E+01  .285E+01  .341E+01  .321E+01  .231E+01  .258E+01
  .286E+01  .230E+01  .216E+01  .214E+01  .209E+01  .210E+01  .214E+01  .217E+01
  .219E+01  .220E+01  .221E+01  .222E+01  .223E+01  .223E+01  .222E+01  .221E+01
  .000E+00  .000E+00  .000E+00  .000E+00  .000E+00  .000E+00  .000E+00  .000E+00
  .000E+00  .000E+00  .000E+00  .000E+00  .000E+00  .000E+00  .000E+00  .000E+00
  .000E+00  .000E+00  .000E+00  .000E+00
  .876E-01  .830E-01  .102E+00  .934E-01  .955E-01  .875E-01  .904E-01  .108E+00
  .101E+00  .946E-01  .121E+00  .143E+00  .159E+00  .167E+00  .147E+00  .124E+00
  .191E+00  .158E+00  .213E+00  .250E+00  .243E+00  .159E+00  .123E+00  .117E+00
  .131E+00  .167E+00  .220E+00  .194E+00  .197E+00  .207E+00  .192E+00  .163E+00
  .233E+00  .215E+00  .165E+00  .139E+00  .134E+00  .117E+00  .106E+00  .107E+00
  .140E+00  .159E+00  .168E+00  .198E+00  .196E+00  .229E+00  .221E+00  .185E+00
  .179E+00  .143E+00  .124E+00  .106E+00  .138E+00  .916E-01  .552E-01  .527E-01
  .347E-01  .418E-01  .235E-01  .170E-01  .172E-01  .157E-01  .795E-02  .973E-02
  .887E-02  .641E-02  .561E-02  .504E-02  .442E-02  .388E-02  .329E-02  .307E-02
  .240E-02  .233E-02  .204E-02  .155E-02  .117E-02  .112E-02  .891E-03  .651E-03
  .000E+00  .000E+00  .000E+00  .000E+00  .000E+00  .000E+00  .000E+00  .000E+00
  .000E+00  .000E+00  .000E+00  .000E+00  .000E+00  .000E+00  .000E+00  .000E+00
  .000E+00  .000E+00  .000E+00  .000E+00
  .215E+00  .214E+00  .275E+00  .264E+00  .281E+00  .269E+00  .306E+00  .397E+00
  .402E+00  .408E+00  .555E+00  .703E+00  .833E+00  .921E+00  .857E+00  .762E+00
  .129E+01  .117E+01  .170E+01  .214E+01  .222E+01  .156E+01  .127E+01  .128E+01
  .153E+01  .205E+01  .298E+01  .285E+01  .316E+01  .357E+01  .353E+01  .322E+01
  .485E+01  .475E+01  .386E+01  .342E+01  .345E+01  .316E+01  .300E+01  .315E+01
  .430E+01  .536E+01  .619E+01  .792E+01  .841E+01  .106E+02  .109E+02  .968E+01
  .990E+01  .832E+01  .764E+01  .717E+01  .102E+02  .731E+01  .475E+01  .485E+01
  .340E+01  .436E+01  .259E+01  .198E+01  .211E+01  .212E+01  .117E+01  .155E+01
  .152E+01  .118E+01  .110E+01  .105E+01  .973E+00  .902E+00  .803E+00  .786E+00
  .644E+00  .652E+00  .597E+00  .469E+00  .388E+00  .407E+00  .350E+00  .271E+00
  .000E+00  .000E+00  .000E+00  .000E+00  .000E+00  .000E+00  .000E+00  .000E+00
  .000E+00  .000E+00  .000E+00  .000E+00  .000E+00  .000E+00  .000E+00  .000E+00
  .000E+00  .000E+00  .000E+00  .000E+00
  .223E+02  .223E+02  .224E+02  .224E+02  .224E+02  .226E+02  .224E+02  .224E+02
  .224E+02  .226E+02  .226E+02  .224E+02  .224E+02  .226E+02  .223E+02  .223E+02
  .236E+02  .226E+02  .231E+02  .231E+02  .228E+02  .224E+02  .224E+02  .224E+02
  .224E+02  .226E+02  .244E+02  .226E+02  .223E+02  .224E+02  .279E+02  .226E+02
  .238E+02  .239E+02  .227E+02  .227E+02  .220E+02  .220E+02  .220E+02  .220E+02
  .242E+02  .244E+02  .227E+02  .231E+02  .232E+02  .244E+02  .245E+02  .250E+02
  .488E+02  .505E+02  .515E+02  .730E+02  .399E+02  .395E+02  .354E+02  .396E+02
  .310E+02  .390E+02  .390E+02  .596E+02  .396E+02  .391E+02  .390E+02  .390E+02
  .384E+02  .385E+02  .289E+02  .391E+02  .384E+02  .279E+02  .280E+02  .390E+02
  .391E+02  .384E+02  .384E+02  .385E+02  .390E+02  .384E+02  .385E+02  .390E+02
  .000E+00  .000E+00  .000E+00  .000E+00  .000E+00  .000E+00  .000E+00  .000E+00
  .000E+00  .000E+00  .000E+00  .000E+00  .000E+00  .000E+00  .000E+00  .000E+00
  .000E+00  .000E+00  .000E+00  .000E+00
  .222E+02  .224E+02  .224E+02  .224E+02  .227E+02  .227E+02  .227E+02  .222E+02
  .224E+02  .220E+02  .226E+02  .222E+02  .224E+02  .227E+02  .222E+02  .227E+02
  .235E+02  .236E+02  .231E+02  .229E+02  .228E+02  .225E+02  .225E+02  .225E+02
  .225E+02  .225E+02  .244E+02  .227E+02  .223E+02  .223E+02  .265E+02  .242E+02
  .255E+02  .238E+02  .228E+02  .221E+02  .221E+02  .254E+02  .252E+02  .251E+02
  .241E+02  .245E+02  .229E+02  .233E+02  .234E+02  .246E+02  .251E+02  .244E+02
  .486E+02  .497E+02  .513E+02  .732E+02  .408E+02  .398E+02  .344E+02  .393E+02
  .398E+02  .393E+02  .393E+02  .393E+02  .393E+02  .388E+02  .393E+02  .393E+02
  .388E+02  .381E+02  .393E+02  .388E+02  .388E+02  .225E+02  .225E+02  .225E+02
  .225E+02  .225E+02  .225E+02  .225E+02  .225E+02  .225E+02  .225E+02  .225E+02
  .000E+00  .000E+00  .000E+00  .000E+00  .000E+00  .000E+00  .000E+00  .000E+00
  .000E+00  .000E+00  .000E+00  .000E+00  .000E+00  .000E+00  .000E+00  .000E+00
  .000E+00  .000E+00  .000E+00  .000E+00
  .223E+02  .223E+02  .224E+02  .224E+02  .224E+02  .226E+02  .224E+02  .224E+02
  .224E+02  .226E+02  .226E+02  .224E+02  .224E+02  .226E+02  .223E+02  .223E+02
  .236E+02  .226E+02  .231E+02  .231E+02  .228E+02  .224E+02  .224E+02  .224E+02
  .225E+02  .226E+02  .244E+02  .226E+02  .223E+02  .224E+02  .279E+02  .226E+02
