Response and Fourier amplitude spectra (76 periods,  .04 -  5.0 sec)   for      
Corrected accelerogram   23792-K1341-08217.20       Chan  8:  Up         from   
Uncorrected Accelerogram Data             Processed: 10/01/08, CDMG  AQ020      
Record of Tue Jul 29, 2008 11:41:59.0 PDT             (Avol1 v8.1 9/08 CSMIP)   
CSMIP Preliminary Processing            (Origin:  To be determined)             
23792-K1341-08217.20                 Start time:  7/29/08, 18:41:59.0 UTC (GPS) 
Station No. 23792   34.064N, 117.294W        K2  s/n 1341 (12 Channels)         
San Bernardino - I10/215 W Geotech Array  CGS                                   
Chan  8:  Up                        Location: 35.0m (115ft) Depth               
Record of Tue Jul 29, 2008 11:41:59.0 PDT    Tue Jul 29, 2008 11:41:59.0 PDT    
Hypocenter:  To be determined.               ML:  To be determined.
Instr Period =  .0193 sec,  Damping =  .650,  Sensitivity = 1.25  v/g
                        Record length =109.000 sec.
                                     Uncor Max  =  -.010 g , at  25.065 sec.
RMS accel of (uncor) record  =        .   Chn. metadata effective date: 05/16/08
Accelerogram bandpass filtered with 3 dB pts at   .30 and 40.00 cyc/sec
                 instrument- and baseline-corrected





Record of Tue Jul 29, 2008 11:41:59.0 PDT    Tue Jul 29, 2008 11:41:59.0 PDT

23792-K1341-08217.20      San Bernardino - I10/215 W Geotech Array  CGChan  8:
Up
23792-K1341-08217.20      San Bernardino - I10/215 W Geotech Array  CGChan  8:
Up
Units for spectra are inches and sec, except Sa is in fraction of g.

    8  100    8   12   12  200    1    3    1   24   11 1341    023792    4    0
   18   41   59    0  211    7   29 2008   10    3  50021800   41   40   76   -1
21800    0   50    3 1341    1   20 1090    2    0    0    0    0    0    0    0
    0    2    0    010900    2  222    0   18    7   76   40    1    1    010900
    310900   41   76    5   12    5    0    0    0   12    0    0    3    0    2
    2    2    4    1   65   99    0   32   32    0    0    1    0    0    0  222
    1    0   16    0
      .019      .650   109.000      .001      .000  1250.000     -.010    25.065
    51.800      .298      .238      .000     5.000      .000     3.987      .000
     2.500    15.403     2.500  -999.000    25.000    30.000      .000      .000
     -.001     -.001     2.000    15.000    34.064  -117.294      .028     1.006
    35.955     -.049      .046   298.000    25.000    78.400    13.100   109.940
     1.000     1.010      .000      .000      .000      .000      .000      .000
     4.600     8.100     5.000   980.665      .010   109.000     8.244      .001
      .000    40.000      .000   109.000      .010      .300      .000      .000
    25.060    -9.845    31.830     -.676    32.010     -.138      .000      .300
    40.000      .010      .010      .000      .010      .067      .000      .000
      .029      .080      .018      .019      .010      .001      .000      .000
      .000      .000      .000      .000      .000      .000      .000      .000
      .000      .000      .000      .000
      .000      .020      .050      .100      .200
      .040      .042      .044      .046      .048      .050      .055      .060
      .065      .070      .075      .080      .085      .090      .095      .100
      .110      .120      .130      .140      .150      .160      .170      .180
      .190      .200      .220      .240      .260      .280      .300      .320
      .340      .360      .380      .400      .420      .440      .460      .480
      .500      .550      .600      .650      .700      .750      .800      .850
      .900      .950     1.000     1.100     1.200     1.300     1.400     1.500
     1.600     1.700     1.800     1.900     2.000     2.200     2.400     2.600
     2.800     3.000     3.200     3.400     3.600     3.800     4.000     4.200
     4.400     4.600     4.800     5.000      .000      .000      .000      .000
      .000      .000      .000      .000      .000      .000      .000      .000
      .000      .000      .000      .000      .000      .000      .000      .000
      .000      .000      .000      .000
Fourier amplitude spectra in in/sec.
  .714E-01  .177E+00  .220E+00  .706E-01  .263E+00  .155E+00  .283E+00  .721E-01
  .111E+00  .110E+00  .671E+00  .155E+00  .239E+00  .745E-01  .287E+00  .415E+00
  .183E+00  .135E+00  .769E+00  .670E+00  .710E+00  .299E+00  .211E-01  .458E+00
  .104E+01  .104E+00  .571E+00  .555E+00  .104E+01  .117E+01  .148E+01  .182E+01
  .468E+00  .535E+00  .880E+00  .492E+00  .517E+00  .919E+00  .231E+00  .113E+01
  .107E+01  .195E+00  .673E+00  .133E+01  .576E+00  .144E+00  .101E+01  .231E+01
  .999E+00  .224E+01  .820E+00  .123E+01  .828E+00  .652E+00  .154E+01  .237E+01
  .234E+00  .159E+01  .117E+01  .161E+01  .709E+00  .117E+01  .164E+01  .361E+00
  .388E+00  .350E+00  .315E+00  .183E+00  .348E-01  .667E-02  .219E-01  .914E-02
  .126E-01  .118E-01  .596E-02  .276E-02  .000E+00  .000E+00  .000E+00  .000E+00
  .000E+00  .000E+00  .000E+00  .000E+00  .000E+00  .000E+00  .000E+00  .000E+00
  .000E+00  .000E+00  .000E+00  .000E+00  .000E+00  .000E+00  .000E+00  .000E+00
  .000E+00  .000E+00  .000E+00  .000E+00
Damping =  .00. Data of Sd,Sv,Sa,Pssv,ttSd,ttSv,ttSa :
  .500E-03  .140E-02  .168E-02  .124E-02  .235E-02  .244E-02  .263E-02  .121E-02
  .287E-02  .168E-02  .813E-02  .332E-02  .889E-02  .351E-02  .571E-02  .845E-02
  .550E-02  .766E-02  .207E-01  .244E-01  .175E-01  .136E-01  .942E-02  .142E-01
  .342E-01  .163E-01  .208E-01  .283E-01  .467E-01  .660E-01  .724E-01  .946E-01
  .299E-01  .441E-01  .569E-01  .379E-01  .585E-01  .832E-01  .360E-01  .948E-01
  .106E+00  .823E-01  .163E+00  .158E+00  .820E-01  .908E-01  .150E+00  .332E+00
  .192E+00  .339E+00  .166E+00  .238E+00  .199E+00  .209E+00  .452E+00  .580E+00
  .229E+00  .431E+00  .338E+00  .575E+00  .350E+00  .424E+00  .641E+00  .275E+00
  .212E+00  .207E+00  .203E+00  .126E+00  .968E-01  .850E-01  .788E-01  .754E-01
  .739E-01  .730E-01  .718E-01  .703E-01  .000E+00  .000E+00  .000E+00  .000E+00
  .000E+00  .000E+00  .000E+00  .000E+00  .000E+00  .000E+00  .000E+00  .000E+00
  .000E+00  .000E+00  .000E+00  .000E+00  .000E+00  .000E+00  .000E+00  .000E+00
  .000E+00  .000E+00  .000E+00  .000E+00
  .732E-01  .208E+00  .237E+00  .155E+00  .300E+00  .278E+00  .295E+00  .111E+00
  .257E+00  .146E+00  .674E+00  .253E+00  .650E+00  .229E+00  .374E+00  .489E+00
  .299E+00  .391E+00  .101E+01  .109E+01  .723E+00  .511E+00  .344E+00  .480E+00
  .113E+01  .475E+00  .591E+00  .740E+00  .113E+01  .148E+01  .151E+01  .185E+01
  .546E+00  .748E+00  .940E+00  .581E+00  .889E+00  .117E+01  .480E+00  .123E+01
  .131E+01  .921E+00  .172E+01  .151E+01  .733E+00  .732E+00  .116E+01  .245E+01
  .131E+01  .224E+01  .104E+01  .137E+01  .106E+01  .969E+00  .204E+01  .245E+01
  .947E+00  .159E+01  .118E+01  .189E+01  .114E+01  .122E+01  .173E+01  .767E+00
  .548E+00  .501E+00  .508E+00  .352E+00  .339E+00  .324E+00  .312E+00  .304E+00
  .299E+00  .296E+00  .294E+00  .293E+00  .000E+00  .000E+00  .000E+00  .000E+00
  .000E+00  .000E+00  .000E+00  .000E+00  .000E+00  .000E+00  .000E+00  .000E+00
  .000E+00  .000E+00  .000E+00  .000E+00  .000E+00  .000E+00  .000E+00  .000E+00
  .000E+00  .000E+00  .000E+00  .000E+00
  .320E-01  .811E-01  .886E-01  .599E-01  .104E+00  .997E-01  .891E-01  .344E-01
  .696E-01  .350E-01  .148E+00  .530E-01  .126E+00  .443E-01  .647E-01  .864E-01
  .465E-01  .544E-01  .125E+00  .127E+00  .794E-01  .541E-01  .333E-01  .449E-01
  .968E-01  .416E-01  .440E-01  .503E-01  .707E-01  .862E-01  .822E-01  .945E-01
  .264E-01  .348E-01  .403E-01  .242E-01  .339E-01  .439E-01  .174E-01  .421E-01
  .434E-01  .278E-01  .463E-01  .382E-01  .171E-01  .165E-01  .239E-01  .470E-01
  .242E-01  .384E-01  .170E-01  .201E-01  .141E-01  .127E-01  .236E-01  .264E-01
  .916E-02  .153E-01  .107E-01  .163E-01  .894E-02  .895E-02  .114E-01  .415E-02
  .276E-02  .236E-02  .202E-02  .111E-02  .764E-03  .602E-03  .504E-03  .437E-03
  .390E-03  .353E-03  .319E-03  .288E-03  .000E+00  .000E+00  .000E+00  .000E+00
  .000E+00  .000E+00  .000E+00  .000E+00  .000E+00  .000E+00  .000E+00  .000E+00
  .000E+00  .000E+00  .000E+00  .000E+00  .000E+00  .000E+00  .000E+00  .000E+00
  .000E+00  .000E+00  .000E+00  .000E+00
  .785E-01  .209E+00  .239E+00  .169E+00  .307E+00  .306E+00  .301E+00  .127E+00
  .278E+00  .151E+00  .681E+00  .260E+00  .657E+00  .245E+00  .378E+00  .531E+00
  .314E+00  .401E+00  .100E+01  .109E+01  .732E+00  .532E+00  .348E+00  .496E+00
  .113E+01  .511E+00  .595E+00  .742E+00  .113E+01  .148E+01  .152E+01  .186E+01
  .552E+00  .770E+00  .940E+00  .596E+00  .875E+00  .119E+01  .492E+00  .124E+01
  .133E+01  .941E+00  .171E+01  .153E+01  .736E+00  .761E+00  .118E+01  .245E+01
  .134E+01  .224E+01  .104E+01  .136E+01  .104E+01  .101E+01  .203E+01  .243E+01
  .900E+00  .159E+01  .118E+01  .190E+01  .110E+01  .121E+01  .168E+01  .664E+00
  .475E+00  .434E+00  .398E+00  .233E+00  .169E+00  .140E+00  .124E+00  .113E+00
  .106E+00  .997E-01  .940E-01  .883E-01  .000E+00  .000E+00  .000E+00  .000E+00
  .000E+00  .000E+00  .000E+00  .000E+00  .000E+00  .000E+00  .000E+00  .000E+00
  .000E+00  .000E+00  .000E+00  .000E+00  .000E+00  .000E+00  .000E+00  .000E+00
  .000E+00  .000E+00  .000E+00  .000E+00
  .360E+02  .365E+02  .366E+02  .301E+02  .338E+02  .322E+02  .436E+02  .328E+02
  .330E+02  .256E+02  .522E+02  .335E+02  .274E+02  .328E+02  .362E+02  .335E+02
  .360E+02  .346E+02  .355E+02  .342E+02  .543E+02  .323E+02  .304E+02  .329E+02
  .465E+02  .319E+02  .763E+02  .467E+02  .498E+02  .356E+02  .936E+02  .635E+02
  .765E+02  .564E+02  .541E+02  .608E+02  .387E+02  .428E+02  .638E+02  .725E+02
  .647E+02  .393E+02  .342E+02  .392E+02  .819E+02  .354E+02  .731E+02  .846E+02
  .530E+02  .108E+03  .833E+02  .973E+02  .696E+02  .520E+02  .645E+02  .982E+02
  .609E+02  .109E+03  .102E+03  .696E+02  .599E+02  .908E+02  .770E+02  .403E+02
  .383E+02  .452E+02  .523E+02  .670E+02  .320E+02  .320E+02  .320E+02  .320E+02
  .320E+02  .320E+02  .320E+02  .320E+02  .000E+00  .000E+00  .000E+00  .000E+00
  .000E+00  .000E+00  .000E+00  .000E+00  .000E+00  .000E+00  .000E+00  .000E+00
  .000E+00  .000E+00  .000E+00  .000E+00  .000E+00  .000E+00  .000E+00  .000E+00
  .000E+00  .000E+00  .000E+00  .000E+00
  .269E+02  .365E+02  .366E+02  .301E+02  .339E+02  .321E+02  .435E+02  .327E+02
  .330E+02  .272E+02  .500E+02  .289E+02  .273E+02  .280E+02  .362E+02  .334E+02
  .360E+02  .346E+02  .354E+02  .342E+02  .531E+02  .323E+02  .304E+02  .601E+02
  .469E+02  .319E+02  .775E+02  .466E+02  .496E+02  .354E+02  .935E+02  .636E+02
  .715E+02  .573E+02  .535E+02  .631E+02  .386E+02  .427E+02  .301E+02  .724E+02
  .648E+02  .391E+02  .343E+02  .393E+02  .821E+02  .356E+02  .733E+02  .848E+02
  .532E+02  .108E+03  .831E+02  .975E+02  .693E+02  .484E+02  .642E+02  .978E+02
  .613E+02  .110E+03  .105E+03  .700E+02  .624E+02  .991E+02  .764E+02  .410E+02
  .336E+02  .446E+02  .516E+02  .410E+02  .318E+02  .318E+02  .318E+02  .318E+02
  .318E+02  .318E+02  .318E+02  .318E+02  .000E+00  .000E+00  .000E+00  .000E+00
  .000E+00  .000E+00  .000E+00  .000E+00  .000E+00  .000E+00  .000E+00  .000E+00
  .000E+00  .000E+00  .000E+00  .000E+00  .000E+00  .000E+00  .000E+00  .000E+00
  .000E+00  .000E+00  .000E+00  .000E+00
  .360E+02  .365E+02  .366E+02  .301E+02  .338E+02  .322E+02  .436E+02  .328E+02
  .330E+02  .256E+02  .522E+02  .335E+02  .274E+02  .328E+02  .362E+02  .335E+02
  .360E+02  .346E+02  .355E+02  .342E+02  .543E+02  .323E+02  .304E+02  .329E+02
  .465E+02  .319E+02  .763E+02  .467E+02  .498E+02  .356E+02  .936E+02  .635E+02
  .765E+02  .564E+02  .541E+02  .608E+02  .387E+02  .428E+02  .638E+02  .725E+02
  .647E+02  .393E+02  .342E+02  .392E+02  .819E+02  .354E+02  .731E+02  .846E+02
  .530E+02  .108E+03  .833E+02  .973E+02  .696E+02  .520E+02  .645E+02  .982E+02
  .609E+02  .109E+03  .102E+03  .696E+02  .599E+02  .908E+02  .770E+02  .403E+02
  .383E+02  .452E+02  .523E+02  .670E+02  .320E+02  .320E+02  .320E+02  .320E+02
  .320E+02  .320E+02  .320E+02  .320E+02  .000E+00  .000E+00  .000E+00  .000E+00
  .000E+00  .000E+00  .000E+00  .000E+00  .000E+00  .000E+00  .000E+00  .000E+00
  .000E+00  .000E+00  .000E+00  .000E+00  .000E+00  .000E+00  .000E+00  .000E+00
  .000E+00  .000E+00  .000E+00  .000E+00
Damping =  .02. Data of Sd,Sv,Sa,Pssv,ttSd,ttSv,ttSa :
  .269E-03  .475E-03  .451E-03  .540E-03  .822E-03  .750E-03  .802E-03  .773E-03
  .868E-03  .127E-02  .233E-02  .238E-02  .328E-02  .236E-02  .249E-02  .440E-02
  .364E-02  .360E-02  .542E-02  .800E-02  .728E-02  .613E-02  .641E-02  .703E-02
  .954E-02  .828E-02  .110E-01  .123E-01  .196E-01  .243E-01  .270E-01  .276E-01
  .179E-01  .191E-01  .180E-01  .203E-01  .283E-01  .313E-01  .348E-01  .342E-01
  .291E-01  .491E-01  .857E-01  .714E-01  .635E-01  .544E-01  .733E-01  .113E+00
  .116E+00  .133E+00  .117E+00  .129E+00  .109E+00  .115E+00  .249E+00  .222E+00
  .180E+00  .203E+00  .177E+00  .300E+00  .232E+00  .239E+00  .367E+00  .207E+00
  .165E+00  .144E+00  .141E+00  .112E+00  .965E-01  .859E-01  .798E-01  .762E-01
  .742E-01  .729E-01  .716E-01  .701E-01  .000E+00  .000E+00  .000E+00  .000E+00
  .000E+00  .000E+00  .000E+00  .000E+00  .000E+00  .000E+00  .000E+00  .000E+00
  .000E+00  .000E+00  .000E+00  .000E+00  .000E+00  .000E+00  .000E+00  .000E+00
  .000E+00  .000E+00  .000E+00  .000E+00
  .292E-01  .562E-01  .550E-01  .650E-01  .992E-01  .899E-01  .816E-01  .612E-01
  .669E-01  .111E+00  .194E+00  .183E+00  .245E+00  .162E+00  .170E+00  .252E+00
  .202E+00  .158E+00  .237E+00  .370E+00  .284E+00  .228E+00  .241E+00  .234E+00
  .295E+00  .232E+00  .288E+00  .310E+00  .469E+00  .526E+00  .538E+00  .551E+00
  .387E+00  .354E+00  .317E+00  .281E+00  .452E+00  .470E+00  .475E+00  .460E+00
  .376E+00  .555E+00  .939E+00  .684E+00  .596E+00  .465E+00  .597E+00  .832E+00
  .808E+00  .974E+00  .810E+00  .857E+00  .594E+00  .581E+00  .112E+01  .949E+00
  .730E+00  .787E+00  .596E+00  .107E+01  .740E+00  .762E+00  .107E+01  .590E+00
  .497E+00  .428E+00  .376E+00  .330E+00  .326E+00  .316E+00  .307E+00  .300E+00
  .296E+00  .293E+00  .291E+00  .290E+00  .000E+00  .000E+00  .000E+00  .000E+00
  .000E+00  .000E+00  .000E+00  .000E+00  .000E+00  .000E+00  .000E+00  .000E+00
  .000E+00  .000E+00  .000E+00  .000E+00  .000E+00  .000E+00  .000E+00  .000E+00
  .000E+00  .000E+00  .000E+00  .000E+00
  .172E-01  .276E-01  .239E-01  .262E-01  .366E-01  .304E-01  .270E-01  .221E-01
  .210E-01  .267E-01  .422E-01  .383E-01  .465E-01  .297E-01  .281E-01  .454E-01
  .306E-01  .256E-01  .329E-01  .421E-01  .329E-01  .244E-01  .227E-01  .222E-01
  .269E-01  .211E-01  .231E-01  .220E-01  .296E-01  .317E-01  .307E-01  .276E-01
  .159E-01  .150E-01  .127E-01  .130E-01  .164E-01  .166E-01  .168E-01  .152E-01
  .119E-01  .166E-01  .244E-01  .173E-01  .133E-01  .990E-02  .117E-01  .160E-01
  .146E-01  .151E-01  .120E-01  .109E-01  .776E-02  .699E-02  .130E-01  .101E-01
  .721E-02  .720E-02  .560E-02  .851E-02  .593E-02  .506E-02  .652E-02  .313E-02
  .216E-02  .163E-02  .141E-02  .993E-03  .766E-03  .614E-03  .515E-03  .447E-03
  .397E-03  .358E-03  .323E-03  .292E-03  .000E+00  .000E+00  .000E+00  .000E+00
  .000E+00  .000E+00  .000E+00  .000E+00  .000E+00  .000E+00  .000E+00  .000E+00
  .000E+00  .000E+00  .000E+00  .000E+00  .000E+00  .000E+00  .000E+00  .000E+00
  .000E+00  .000E+00  .000E+00  .000E+00
  .422E-01  .710E-01  .643E-01  .737E-01  .108E+00  .943E-01  .916E-01  .810E-01
  .839E-01  .114E+00  .195E+00  .187E+00  .243E+00  .165E+00  .164E+00  .276E+00
  .208E+00  .188E+00  .262E+00  .359E+00  .305E+00  .241E+00  .237E+00  .245E+00
  .315E+00  .260E+00  .313E+00  .323E+00  .474E+00  .545E+00  .566E+00  .543E+00
  .332E+00  .332E+00  .297E+00  .319E+00  .423E+00  .448E+00  .475E+00  .448E+00
  .366E+00  .561E+00  .898E+00  .690E+00  .570E+00  .456E+00  .576E+00  .835E+00
  .808E+00  .883E+00  .736E+00  .739E+00  .571E+00  .557E+00  .112E+01  .928E+00
  .708E+00  .751E+00  .618E+00  .992E+00  .728E+00  .684E+00  .961E+00  .500E+00
  .370E+00  .301E+00  .277E+00  .206E+00  .168E+00  .142E+00  .125E+00  .114E+00
  .106E+00  .996E-01  .938E-01  .881E-01  .000E+00  .000E+00  .000E+00  .000E+00
  .000E+00  .000E+00  .000E+00  .000E+00  .000E+00  .000E+00  .000E+00  .000E+00
  .000E+00  .000E+00  .000E+00  .000E+00  .000E+00  .000E+00  .000E+00  .000E+00
  .000E+00  .000E+00  .000E+00  .000E+00
  .256E+02  .256E+02  .257E+02  .303E+02  .303E+02  .306E+02  .310E+02  .320E+02
  .256E+02  .257E+02  .258E+02  .260E+02  .258E+02  .310E+02  .330E+02  .330E+02
  .324E+02  .335E+02  .335E+02  .339E+02  .323E+02  .323E+02  .323E+02  .329E+02
  .330E+02  .319E+02  .334E+02  .334E+02  .334E+02  .335E+02  .320E+02  .317E+02
  .329E+02  .311E+02  .385E+02  .338E+02  .349E+02  .395E+02  .350E+02  .396E+02
  .324E+02  .341E+02  .342E+02  .340E+02  .325E+02  .544E+02  .325E+02  .366E+02
  .367E+02  .341E+02  .337E+02  .334E+02  .630E+02  .487E+02  .567E+02  .615E+02
  .609E+02  .541E+02  .416E+02  .543E+02  .588E+02  .464E+02  .530E+02  .403E+02
  .383E+02  .451E+02  .522E+02  .320E+02  .320E+02  .320E+02  .320E+02  .320E+02
  .320E+02  .320E+02  .320E+02  .320E+02  .000E+00  .000E+00  .000E+00  .000E+00
  .000E+00  .000E+00  .000E+00  .000E+00  .000E+00  .000E+00  .000E+00  .000E+00
  .000E+00  .000E+00  .000E+00  .000E+00  .000E+00  .000E+00  .000E+00  .000E+00
  .000E+00  .000E+00  .000E+00  .000E+00
  .260E+02  .257E+02  .258E+02  .303E+02  .303E+02  .307E+02  .310E+02  .320E+02
  .256E+02  .257E+02  .259E+02  .260E+02  .259E+02  .258E+02  .257E+02  .330E+02
  .324E+02  .333E+02  .348E+02  .339E+02  .323E+02  .323E+02  .323E+02  .328E+02
  .332E+02  .319E+02  .334E+02  .334E+02  .334E+02  .336E+02  .318E+02  .330E+02
  .328E+02  .310E+02  .310E+02  .336E+02  .350E+02  .351E+02  .358E+02  .397E+02
  .327E+02  .342E+02  .341E+02  .341E+02  .323E+02  .328E+02  .323E+02  .363E+02
  .369E+02  .339E+02  .340E+02  .336E+02  .633E+02  .464E+02  .571E+02  .611E+02
  .606E+02  .545E+02  .538E+02  .539E+02  .541E+02  .459E+02  .524E+02  .397E+02
  .322E+02  .322E+02  .516E+02  .318E+02  .318E+02  .318E+02  .318E+02  .318E+02
  .318E+02  .318E+02  .318E+02  .318E+02  .000E+00  .000E+00  .000E+00  .000E+00
  .000E+00  .000E+00  .000E+00  .000E+00  .000E+00  .000E+00  .000E+00  .000E+00
  .000E+00  .000E+00  .000E+00  .000E+00  .000E+00  .000E+00  .000E+00  .000E+00
  .000E+00  .000E+00  .000E+00  .000E+00
  .256E+02  .256E+02  .257E+02  .303E+02  .303E+02  .306E+02  .310E+02  .320E+02
  .256E+02  .257E+02  .258E+02  .260E+02  .258E+02  .310E+02  .330E+02  .330E+02
  .324E+02  .335E+02  .335E+02  .339E+02  .323E+02  .323E+02  .323E+02  .329E+02
  .330E+02  .319E+02  .334E+02  .334E+02  .334E+02  .335E+02  .320E+02  .317E+02
  .329E+02  .311E+02  .385E+02  .338E+02  .349E+02  .395E+02  .350E+02  .396E+02
  .324E+02  .341E+02  .342E+02  .340E+02  .325E+02  .544E+02  .325E+02  .366E+02
  .367E+02  .341E+02  .337E+02  .334E+02  .630E+02  .487E+02  .567E+02  .615E+02
  .609E+02  .541E+02  .416E+02  .543E+02  .588E+02  .464E+02  .529E+02  .403E+02
  .383E+02  .451E+02  .522E+02  .320E+02  .320E+02  .320E+02  .320E+02  .320E+02
  .320E+02  .320E+02  .320E+02  .320E+02  .000E+00  .000E+00  .000E+00  .000E+00
  .000E+00  .000E+00  .000E+00  .000E+00  .000E+00  .000E+00  .000E+00  .000E+00
  .000E+00  .000E+00  .000E+00  .000E+00  .000E+00  .000E+00  .000E+00  .000E+00
  .000E+00  .000E+00  .000E+00  .000E+00
Damping =  .05. Data of Sd,Sv,Sa,Pssv,ttSd,ttSv,ttSa :
  .251E-03  .328E-03  .341E-03  .376E-03  .480E-03  .481E-03  .557E-03  .588E-03
