Response and Fourier amplitude spectra (80 periods,  .04 -  7.0 sec)   for      
Corrected accelerogram   23631-E0782-08212.02       Chan  3:  Tran       from   
Uncorrected Accelerogram Data             Processed: 02/09/09, CGS  CE23631     
Record of Tue Jul 29, 2008 11:42:08.9 PDT             (Avol1 v8.5,11/08 CSMIP)  
CSMIP Preliminary Processing            (Origin:  To be determined)             
23631-E0782-08212.02                 Start time:  7/29/08, 18:42: 8.9 UTC (WWVB)
Station No. 23631   34.064N, 117.296W     SSA-1  s/n  782  (4 Chns of 36 at Sta)
San Bernardino - I10/215 Interchange Br   CGS                                   
Chan  3:  Tran    (Sta Chn: 31)     Location: Hinge Near Bent 14: W. Side       
Record of Tue Jul 29, 2008 11:42:08.9 PDT    Tue Jul 29, 2008 11:42:08.9 PDT    
Hypocenter:  To be determined.               ML:  To be determined.             
Instr Period =  .0185 sec,  Damping =  .610,  Sensitivity = 1.25  v/g           
                        Record length = 78.080 sec.                             
                                     Uncor Max  =   .122 g , at  22.910 sec.    
RMS accel of (uncor) record  =        .   Chn. metadata effective date: 01/10/92
Accelerogram bandpass filtered with 3 dB pts at   .14 and 40.00 cyc/sec         
                 instrument- and baseline-corrected                             
                                                                                
                                                                                
                                                                                
                                                                                
                                                                                
Record of Tue Jul 29, 2008 11:42:08.9 PDT    Tue Jul 29, 2008 11:42:08.9 PDT    
                                                                                
23631-E0782-08212.02      San Bernardino - I10/215 Interchange Br   Chan  3:  Tr
an                                                                              
23631-E0782-08212.02      San Bernardino - I10/215 Interchange Br   Chan  3:  Tr
an                                                                              
Units for spectra are inches and sec, except Sa is in fraction of g.            
                                                                                
    3  100   31    4   36  200    1    3    1   12    5  782    023631    3    0
   18   42    8  935  211    7   29 2008   10    1  90015616   41   39   76   -1
15616    0  100    3 2117    1    2   61    2   20   42   34  920    7   29 2008
    0    2    0    0 7808    2  222    1   12    4   76   39    3    1    0 7808
    3 7808   40   80    5    4    5    0    0    0   36    0    0    3    0    2
    2    2    4    0   66   99    1   32   32    0    0    1   16    0    8  222
    1    0    0    0
      .018      .610    78.080      .014      .000  1246.000      .122    22.910
    54.200  1220.703   979.698      .000     5.000      .000      .000      .000
     2.500    -3.996     2.500  -999.000    15.360    30.000      .000     -.078
     -.067      .010     2.000    15.000    34.064  -117.296      .645     3.574
     5.540     -.177      .198   297.000      .000      .000      .000      .000
     1.000     1.194     7.000      .000      .000      .000      .000      .000
     6.800     8.500     5.200   980.665      .010    78.080     8.626      .000
      .000    40.000      .000    78.080      .010      .143      .000      .000
    22.910   118.492    23.520   -11.101    23.330     1.558      .001      .143
    40.000      .010      .010     -.005     4.260      .673      .000      .000
      .465      .750      .294      .289      .197      .007      .000      .000
      .000      .000      .000      .000      .000      .000      .000      .000
      .000      .000      .000      .000
      .000      .020      .050      .100      .200
      .040      .042      .044      .046      .048      .050      .055      .060
      .065      .070      .075      .080      .085      .090      .095      .100
      .110      .120      .130      .140      .150      .160      .170      .180
      .190      .200      .220      .240      .260      .280      .300      .320
      .340      .360      .380      .400      .420      .440      .460      .480
      .500      .550      .600      .650      .700      .750      .800      .850
      .900      .950     1.000     1.100     1.200     1.300     1.400     1.500
     1.600     1.700     1.800     1.900     2.000     2.200     2.400     2.600
     2.800     3.000     3.200     3.400     3.600     3.800     4.000     4.200
     4.400     4.600     4.800     5.000     5.500     6.000     6.500     7.000
      .000      .000      .000      .000      .000      .000      .000      .000
      .000      .000      .000      .000      .000      .000      .000      .000
      .000      .000      .000      .000
Fourier amplitude spectra in in/sec.
  .406E+00  .269E+00  .407E+00  .391E+00  .575E+00  .573E+00  .735E+00  .650E+00
  .340E+00  .426E+00  .850E+00  .112E+01  .140E+01  .105E+01  .987E-01  .979E+00
  .147E+01  .392E+01  .338E+01  .233E+01  .212E+01  .280E+01  .301E+01  .278E+01
  .304E+01  .439E+01  .741E+01  .896E+01  .233E+01  .126E+02  .427E+00  .263E+01
  .140E+02  .889E+01  .129E+02  .141E+02  .141E+02  .415E+01  .503E+01  .791E+01
  .615E+01  .564E+01  .416E+01  .724E+01  .214E+02  .360E+02  .330E+02  .757E+02
  .346E+02  .325E+02  .179E+01  .102E+02  .585E+01  .319E+01  .380E+01  .222E+01
  .346E+01  .222E+01  .274E+01  .286E+00  .199E+01  .209E+01  .127E+01  .106E+01
  .562E+00  .224E+00  .114E+01  .386E+00  .474E+00  .319E+00  .436E+00  .314E+00
  .365E+00  .350E+00  .230E+00  .250E+00  .129E+00  .206E+00  .350E-01  .530E-01
  .000E+00  .000E+00  .000E+00  .000E+00  .000E+00  .000E+00  .000E+00  .000E+00
  .000E+00  .000E+00  .000E+00  .000E+00  .000E+00  .000E+00  .000E+00  .000E+00
  .000E+00  .000E+00  .000E+00  .000E+00
Damping =  .00. Data of Sd,Sv,Sa,Pssv,ttSd,ttSv,ttSa :
  .463E-02  .354E-02  .497E-02  .460E-02  .711E-02  .725E-02  .756E-02  .103E-01
  .580E-02  .123E-01  .166E-01  .200E-01  .253E-01  .218E-01  .174E-01  .183E-01
  .474E-01  .818E-01  .944E-01  .644E-01  .645E-01  .793E-01  .146E+00  .857E-01
  .137E+00  .163E+00  .314E+00  .392E+00  .352E+00  .575E+00  .353E+00  .532E+00
  .103E+01  .690E+00  .867E+00  .919E+00  .100E+01  .421E+00  .559E+00  .688E+00
  .513E+00  .816E+00  .911E+00  .196E+01  .322E+01  .564E+01  .559E+01  .115E+02
  .607E+01  .499E+01  .217E+01  .229E+01  .124E+01  .129E+01  .111E+01  .863E+00
  .137E+01  .107E+01  .934E+00  .923E+00  .824E+00  .741E+00  .673E+00  .665E+00
  .635E+00  .652E+00  .661E+00  .635E+00  .595E+00  .650E+00  .636E+00  .639E+00
  .638E+00  .630E+00  .649E+00  .696E+00  .783E+00  .733E+00  .663E+00  .632E+00
  .000E+00  .000E+00  .000E+00  .000E+00  .000E+00  .000E+00  .000E+00  .000E+00
  .000E+00  .000E+00  .000E+00  .000E+00  .000E+00  .000E+00  .000E+00  .000E+00
  .000E+00  .000E+00  .000E+00  .000E+00
  .487E+00  .291E+00  .444E+00  .434E+00  .662E+00  .716E+00  .734E+00  .715E+00
  .346E+00  .643E+00  .106E+01  .126E+01  .158E+01  .114E+01  .676E+00  .988E+00
  .237E+01  .399E+01  .410E+01  .248E+01  .251E+01  .294E+01  .472E+01  .294E+01
  .411E+01  .479E+01  .875E+01  .999E+01  .737E+01  .128E+02  .679E+01  .960E+01
  .186E+02  .115E+02  .139E+02  .144E+02  .150E+02  .575E+01  .747E+01  .888E+01
  .646E+01  .912E+01  .899E+01  .170E+02  .290E+02  .470E+02  .433E+02  .849E+02
  .426E+02  .336E+02  .162E+02  .131E+02  .791E+01  .880E+01  .752E+01  .603E+01
  .667E+01  .683E+01  .661E+01  .602E+01  .551E+01  .515E+01  .493E+01  .476E+01
  .480E+01  .482E+01  .486E+01  .476E+01  .466E+01  .472E+01  .478E+01  .475E+01
  .469E+01  .469E+01  .471E+01  .471E+01  .458E+01  .444E+01  .440E+01  .441E+01
  .000E+00  .000E+00  .000E+00  .000E+00  .000E+00  .000E+00  .000E+00  .000E+00
  .000E+00  .000E+00  .000E+00  .000E+00  .000E+00  .000E+00  .000E+00  .000E+00
  .000E+00  .000E+00  .000E+00  .000E+00
  .296E+00  .205E+00  .263E+00  .223E+00  .316E+00  .296E+00  .255E+00  .294E+00
  .140E+00  .257E+00  .302E+00  .319E+00  .359E+00  .275E+00  .197E+00  .187E+00
  .401E+00  .581E+00  .571E+00  .336E+00  .293E+00  .317E+00  .516E+00  .270E+00
  .388E+00  .418E+00  .664E+00  .696E+00  .533E+00  .750E+00  .401E+00  .532E+00
  .914E+00  .545E+00  .614E+00  .587E+00  .583E+00  .222E+00  .270E+00  .305E+00
  .210E+00  .276E+00  .259E+00  .474E+00  .672E+00  .103E+01  .893E+00  .163E+01
  .766E+00  .565E+00  .222E+00  .194E+00  .884E-01  .780E-01  .581E-01  .392E-01
  .545E-01  .380E-01  .295E-01  .261E-01  .211E-01  .157E-01  .119E-01  .101E-01
  .828E-02  .741E-02  .660E-02  .562E-02  .470E-02  .461E-02  .407E-02  .370E-02
  .337E-02  .304E-02  .288E-02  .285E-02  .265E-02  .208E-02  .160E-02  .132E-02
  .000E+00  .000E+00  .000E+00  .000E+00  .000E+00  .000E+00  .000E+00  .000E+00
  .000E+00  .000E+00  .000E+00  .000E+00  .000E+00  .000E+00  .000E+00  .000E+00
  .000E+00  .000E+00  .000E+00  .000E+00
  .727E+00  .530E+00  .710E+00  .629E+00  .930E+00  .910E+00  .863E+00  .108E+01
  .561E+00  .111E+01  .139E+01  .157E+01  .187E+01  .152E+01  .115E+01  .115E+01
  .271E+01  .428E+01  .456E+01  .289E+01  .270E+01  .311E+01  .539E+01  .299E+01
  .453E+01  .514E+01  .898E+01  .103E+02  .851E+01  .129E+02  .740E+01  .105E+02
  .191E+02  .120E+02  .143E+02  .144E+02  .150E+02  .601E+01  .764E+01  .901E+01
  .644E+01  .932E+01  .954E+01  .189E+02  .289E+02  .472E+02  .439E+02  .851E+02
  .424E+02  .330E+02  .136E+02  .131E+02  .652E+01  .623E+01  .500E+01  .362E+01
  .536E+01  .397E+01  .326E+01  .305E+01  .259E+01  .212E+01  .176E+01  .161E+01
  .142E+01  .137E+01  .130E+01  .117E+01  .104E+01  .108E+01  .999E+00  .955E+00
  .911E+00  .860E+00  .850E+00  .875E+00  .894E+00  .768E+00  .640E+00  .567E+00
  .000E+00  .000E+00  .000E+00  .000E+00  .000E+00  .000E+00  .000E+00  .000E+00
  .000E+00  .000E+00  .000E+00  .000E+00  .000E+00  .000E+00  .000E+00  .000E+00
  .000E+00  .000E+00  .000E+00  .000E+00
  .229E+02  .229E+02  .229E+02  .229E+02  .229E+02  .238E+02  .229E+02  .229E+02
  .229E+02  .229E+02  .233E+02  .241E+02  .238E+02  .229E+02  .229E+02  .238E+02
  .222E+02  .238E+02  .221E+02  .229E+02  .281E+02  .436E+02  .229E+02  .716E+02
  .238E+02  .253E+02  .280E+02  .280E+02  .234E+02  .541E+02  .224E+02  .241E+02
  .259E+02  .232E+02  .309E+02  .715E+02  .595E+02  .237E+02  .263E+02  .545E+02
  .684E+02  .245E+02  .229E+02  .237E+02  .368E+02  .423E+02  .292E+02  .422E+02
  .537E+02  .440E+02  .242E+02  .706E+02  .559E+02  .288E+02  .723E+02  .646E+02
  .427E+02  .238E+02  .233E+02  .233E+02  .233E+02  .233E+02  .233E+02  .229E+02
  .238E+02  .238E+02  .625E+02  .233E+02  .238E+02  .238E+02  .238E+02  .233E+02
  .233E+02  .233E+02  .233E+02  .233E+02  .233E+02  .233E+02  .233E+02  .233E+02
  .000E+00  .000E+00  .000E+00  .000E+00  .000E+00  .000E+00  .000E+00  .000E+00
  .000E+00  .000E+00  .000E+00  .000E+00  .000E+00  .000E+00  .000E+00  .000E+00
  .000E+00  .000E+00  .000E+00  .000E+00
  .585E+02  .643E+02  .281E+02  .218E+02  .264E+02  .258E+02  .769E+02  .239E+02
  .755E+02  .249E+02  .287E+02  .236E+02  .324E+02  .235E+02  .218E+02  .749E+02
  .223E+02  .636E+02  .221E+02  .396E+02  .281E+02  .432E+02  .228E+02  .712E+02
  .246E+02  .257E+02  .279E+02  .260E+02  .234E+02  .532E+02  .225E+02  .240E+02
  .265E+02  .231E+02  .656E+02  .708E+02  .594E+02  .219E+02  .261E+02  .546E+02
  .708E+02  .227E+02  .227E+02  .235E+02  .370E+02  .421E+02  .294E+02  .420E+02
  .539E+02  .438E+02  .239E+02  .708E+02  .239E+02  .239E+02  .235E+02  .239E+02
  .239E+02  .235E+02  .235E+02  .235E+02  .235E+02  .235E+02  .235E+02  .235E+02
  .235E+02  .235E+02  .235E+02  .235E+02  .235E+02  .235E+02  .235E+02  .235E+02
  .235E+02  .235E+02  .235E+02  .235E+02  .235E+02  .235E+02  .235E+02  .235E+02
  .000E+00  .000E+00  .000E+00  .000E+00  .000E+00  .000E+00  .000E+00  .000E+00
  .000E+00  .000E+00  .000E+00  .000E+00  .000E+00  .000E+00  .000E+00  .000E+00
  .000E+00  .000E+00  .000E+00  .000E+00
  .229E+02  .229E+02  .229E+02  .229E+02  .229E+02  .238E+02  .229E+02  .229E+02
  .229E+02  .229E+02  .233E+02  .241E+02  .238E+02  .229E+02  .229E+02  .238E+02
  .222E+02  .238E+02  .221E+02  .229E+02  .281E+02  .436E+02  .229E+02  .716E+02
  .238E+02  .253E+02  .280E+02  .280E+02  .234E+02  .541E+02  .224E+02  .241E+02
  .259E+02  .232E+02  .309E+02  .715E+02  .595E+02  .237E+02  .263E+02  .545E+02
  .684E+02  .245E+02  .229E+02  .237E+02  .368E+02  .423E+02  .292E+02  .422E+02
  .537E+02  .440E+02  .242E+02  .706E+02  .559E+02  .288E+02  .723E+02  .646E+02
  .427E+02  .238E+02  .233E+02  .233E+02  .233E+02  .233E+02  .233E+02  .229E+02
  .238E+02  .238E+02  .625E+02  .233E+02  .238E+02  .238E+02  .238E+02  .233E+02
  .233E+02  .233E+02  .233E+02  .233E+02  .233E+02  .233E+02  .233E+02  .233E+02
  .000E+00  .000E+00  .000E+00  .000E+00  .000E+00  .000E+00  .000E+00  .000E+00
  .000E+00  .000E+00  .000E+00  .000E+00  .000E+00  .000E+00  .000E+00  .000E+00
  .000E+00  .000E+00  .000E+00  .000E+00
Damping =  .02. Data of Sd,Sv,Sa,Pssv,ttSd,ttSv,ttSa :
  .262E-02  .278E-02  .330E-02  .371E-02  .385E-02  .412E-02  .473E-02  .553E-02
  .559E-02  .744E-02  .926E-02  .101E-01  .117E-01  .148E-01  .147E-01  .174E-01
  .270E-01  .343E-01  .337E-01  .484E-01  .418E-01  .471E-01  .613E-01  .856E-01
  .104E+00  .146E+00  .167E+00  .192E+00  .256E+00  .242E+00  .314E+00  .375E+00
  .465E+00  .455E+00  .402E+00  .383E+00  .405E+00  .349E+00  .362E+00  .416E+00
  .368E+00  .616E+00  .901E+00  .158E+01  .227E+01  .361E+01  .371E+01  .429E+01
  .378E+01  .303E+01  .210E+01  .140E+01  .111E+01  .112E+01  .979E+00  .813E+00
  .934E+00  .987E+00  .880E+00  .876E+00  .814E+00  .734E+00  .672E+00  .646E+00
  .624E+00  .640E+00  .629E+00  .619E+00  .599E+00  .629E+00  .620E+00  .628E+00
  .635E+00  .637E+00  .655E+00  .690E+00  .755E+00  .722E+00  .666E+00  .637E+00
  .000E+00  .000E+00  .000E+00  .000E+00  .000E+00  .000E+00  .000E+00  .000E+00
  .000E+00  .000E+00  .000E+00  .000E+00  .000E+00  .000E+00  .000E+00  .000E+00
  .000E+00  .000E+00  .000E+00  .000E+00
  .245E+00  .246E+00  .323E+00  .363E+00  .380E+00  .393E+00  .344E+00  .344E+00
  .317E+00  .411E+00  .584E+00  .609E+00  .592E+00  .757E+00  .683E+00  .805E+00
  .116E+01  .144E+01  .134E+01  .150E+01  .115E+01  .114E+01  .159E+01  .207E+01
  .237E+01  .343E+01  .391E+01  .473E+01  .540E+01  .532E+01  .597E+01  .677E+01
  .790E+01  .737E+01  .612E+01  .582E+01  .584E+01  .497E+01  .495E+01  .481E+01
  .419E+01  .678E+01  .820E+01  .137E+02  .195E+02  .297E+02  .291E+02  .320E+02
  .273E+02  .214E+02  .155E+02  .106E+02  .824E+01  .829E+01  .728E+01  .619E+01
  .639E+01  .659E+01  .643E+01  .598E+01  .557E+01  .518E+01  .496E+01  .481E+01
  .481E+01  .482E+01  .483E+01  .476E+01  .469E+01  .472E+01  .475E+01  .473E+01
  .470E+01  .469E+01  .469E+01  .469E+01  .458E+01  .446E+01  .442E+01  .442E+01
  .000E+00  .000E+00  .000E+00  .000E+00  .000E+00  .000E+00  .000E+00  .000E+00
  .000E+00  .000E+00  .000E+00  .000E+00  .000E+00  .000E+00  .000E+00  .000E+00
  .000E+00  .000E+00  .000E+00  .000E+00
  .168E+00  .160E+00  .174E+00  .180E+00  .172E+00  .168E+00  .159E+00  .157E+00
  .136E+00  .155E+00  .168E+00  .160E+00  .165E+00  .186E+00  .167E+00  .179E+00
  .228E+00  .242E+00  .204E+00  .252E+00  .190E+00  .189E+00  .217E+00  .270E+00
  .295E+00  .374E+00  .352E+00  .342E+00  .387E+00  .316E+00  .356E+00  .373E+00
  .411E+00  .359E+00  .285E+00  .245E+00  .235E+00  .184E+00  .175E+00  .185E+00
  .151E+00  .209E+00  .256E+00  .383E+00  .475E+00  .656E+00  .593E+00  .607E+00
  .477E+00  .344E+00  .215E+00  .119E+00  .790E-01  .680E-01  .512E-01  .370E-01
  .374E-01  .350E-01  .279E-01  .249E-01  .209E-01  .156E-01  .120E-01  .989E-02
  .819E-02  .732E-02  .633E-02  .555E-02  .478E-02  .451E-02  .402E-02  .371E-02
  .342E-02  .315E-02  .298E-02  .289E-02  .262E-02  .212E-02  .168E-02  .140E-02
  .000E+00  .000E+00  .000E+00  .000E+00  .000E+00  .000E+00  .000E+00  .000E+00
  .000E+00  .000E+00  .000E+00  .000E+00  .000E+00  .000E+00  .000E+00  .000E+00
  .000E+00  .000E+00  .000E+00  .000E+00
  .411E+00  .415E+00  .472E+00  .507E+00  .504E+00  .518E+00  .541E+00  .579E+00
  .541E+00  .668E+00  .776E+00  .790E+00  .863E+00  .103E+01  .972E+00  .109E+01
  .154E+01  .179E+01  .163E+01  .217E+01  .175E+01  .185E+01  .227E+01  .299E+01
  .344E+01  .459E+01  .476E+01  .503E+01  .618E+01  .544E+01  .658E+01  .735E+01
  .860E+01  .794E+01  .665E+01  .602E+01  .605E+01  .498E+01  .495E+01  .544E+01
  .462E+01  .704E+01  .943E+01  .153E+02  .204E+02  .302E+02  .292E+02  .317E+02
  .264E+02  .201E+02  .132E+02  .801E+01  .581E+01  .543E+01  .439E+01  .341E+01
  .367E+01  .365E+01  .307E+01  .290E+01  .256E+01  .210E+01  .176E+01  .156E+01
  .140E+01  .134E+01  .123E+01  .114E+01  .105E+01  .104E+01  .974E+00  .940E+00
  .906E+00  .870E+00  .857E+00  .867E+00  .863E+00  .756E+00  .644E+00  .571E+00
  .000E+00  .000E+00  .000E+00  .000E+00  .000E+00  .000E+00  .000E+00  .000E+00
  .000E+00  .000E+00  .000E+00  .000E+00  .000E+00  .000E+00  .000E+00  .000E+00
  .000E+00  .000E+00  .000E+00  .000E+00
  .217E+02  .217E+02  .217E+02  .218E+02  .218E+02  .218E+02  .217E+02  .229E+02
  .217E+02  .229E+02  .222E+02  .217E+02  .217E+02  .217E+02  .217E+02  .217E+02
  .222E+02  .229E+02  .221E+02  .229E+02  .217E+02  .225E+02  .229E+02  .229E+02
  .229E+02  .229E+02  .229E+02  .229E+02  .230E+02  .222E+02  .224E+02  .224E+02
  .230E+02  .230E+02  .225E+02  .226E+02  .268E+02  .262E+02  .263E+02  .254E+02
  .254E+02  .226E+02  .229E+02  .237E+02  .242E+02  .246E+02  .255E+02  .311E+02
  .266E+02  .241E+02  .241E+02  .241E+02  .241E+02  .237E+02  .238E+02  .237E+02
  .237E+02  .238E+02  .233E+02  .233E+02  .233E+02  .233E+02  .233E+02  .229E+02
  .238E+02  .238E+02  .238E+02  .233E+02  .238E+02  .238E+02  .238E+02  .233E+02
  .233E+02  .233E+02  .233E+02  .233E+02  .233E+02  .233E+02  .233E+02  .233E+02
  .000E+00  .000E+00  .000E+00  .000E+00  .000E+00  .000E+00  .000E+00  .000E+00
  .000E+00  .000E+00  .000E+00  .000E+00  .000E+00  .000E+00  .000E+00  .000E+00
  .000E+00  .000E+00  .000E+00  .000E+00
  .217E+02  .217E+02  .218E+02  .218E+02  .218E+02  .218E+02  .217E+02  .216E+02
  .216E+02  .218E+02  .218E+02  .219E+02  .216E+02  .216E+02  .217E+02  .216E+02
  .220E+02  .228E+02  .219E+02  .228E+02  .217E+02  .217E+02  .228E+02  .228E+02
  .228E+02  .230E+02  .230E+02  .239E+02  .230E+02  .227E+02  .223E+02  .224E+02
  .224E+02  .224E+02  .268E+02  .227E+02  .269E+02  .261E+02  .261E+02  .255E+02
  .220E+02  .227E+02  .231E+02  .235E+02  .244E+02  .248E+02  .253E+02  .313E+02
  .260E+02  .239E+02  .239E+02  .239E+02  .239E+02  .239E+02  .235E+02  .239E+02
  .239E+02  .235E+02  .235E+02  .235E+02  .235E+02  .235E+02  .235E+02  .235E+02
  .235E+02  .235E+02  .235E+02  .235E+02  .235E+02  .235E+02  .235E+02  .235E+02
  .235E+02  .235E+02  .235E+02  .235E+02  .235E+02  .235E+02  .235E+02  .235E+02
  .000E+00  .000E+00  .000E+00  .000E+00  .000E+00  .000E+00  .000E+00  .000E+00
  .000E+00  .000E+00  .000E+00  .000E+00  .000E+00  .000E+00  .000E+00  .000E+00
  .000E+00  .000E+00  .000E+00  .000E+00
  .217E+02  .217E+02  .217E+02  .218E+02  .218E+02  .218E+02  .217E+02  .229E+02
  .217E+02  .229E+02  .222E+02  .217E+02  .217E+02  .217E+02  .217E+02  .217E+02
  .222E+02  .225E+02  .221E+02  .229E+02  .217E+02  .225E+02  .229E+02  .229E+02
  .229E+02  .229E+02  .229E+02  .229E+02  .230E+02  .222E+02  .224E+02  .224E+02
