Response and Fourier amplitude spectra (80 periods,  .04 -  7.0 sec)   for      
Corrected accelerogram   23631-E0782-08212.02       Chan  1:  Tran       from   
Uncorrected Accelerogram Data             Processed: 02/09/09, CGS  CE23631     
Record of Tue Jul 29, 2008 11:42:08.9 PDT             (Avol1 v8.5,11/08 CSMIP)  
CSMIP Preliminary Processing            (Origin:  To be determined)             
23631-E0782-08212.02                 Start time:  7/29/08, 18:42: 8.9 UTC (WWVB)
Station No. 23631   34.064N, 117.296W     SSA-1  s/n  782  (4 Chns of 36 at Sta)
San Bernardino - I10/215 Interchange Br   CGS                                   
Chan  1:  Tran    (Sta Chn: 29)     Location: Hinge Near Bent 11: W. Side       
Record of Tue Jul 29, 2008 11:42:08.9 PDT    Tue Jul 29, 2008 11:42:08.9 PDT    
Hypocenter:  To be determined.               ML:  To be determined.             
Instr Period =  .0185 sec,  Damping =  .650,  Sensitivity = 1.24  v/g           
                        Record length = 78.080 sec.                             
                                     Uncor Max  =   .068 g , at  23.300 sec.    
RMS accel of (uncor) record  =        .   Chn. metadata effective date: 01/10/92
Accelerogram bandpass filtered with 3 dB pts at   .14 and 40.00 cyc/sec         
                 instrument- and baseline-corrected                             
                                                                                
                                                                                
                                                                                
                                                                                
                                                                                
Record of Tue Jul 29, 2008 11:42:08.9 PDT    Tue Jul 29, 2008 11:42:08.9 PDT    
                                                                                
23631-E0782-08212.02      San Bernardino - I10/215 Interchange Br   Chan  1:  Tr
an                                                                              
23631-E0782-08212.02      San Bernardino - I10/215 Interchange Br   Chan  1:  Tr
an                                                                              
Units for spectra are inches and sec, except Sa is in fraction of g.            
                                                                                
    1  100   29    4   36  200    1    3    1   12    5  782    023631    3    0
   18   42    8  935  211    7   29 2008   10    1  90015616   41   39   76   -1
15616    0  100    3 2117    1    2   61    2   20   42   34  920    7   29 2008
    0    2    0    0 7808    2  222    1   12    4   76   39    3    1    0 7808
    3 7808   40   80    5    4    5    0    0    0   36    0    0    3    0    2
    2    2    4    0   66   99    1   32   32    0    0    1   16    0    8  222
    1    0    0    0
      .018      .650    78.080      .010      .000  1244.000      .068    23.300
    54.200  1220.703   981.273      .000     5.000      .000      .000      .000
     2.500     9.036     2.500  -999.000    15.360    30.000      .000      .149
     -.061     -.210     2.000    15.000    34.064  -117.296      .840     4.813
     5.732     -.461      .041   297.000      .000      .000      .000      .000
     1.000    -2.794     7.000      .000      .000      .000      .000      .000
     6.800     8.500     5.200   980.665      .010    78.080     8.626      .000
      .000    40.000      .000    78.080      .010      .143      .000      .000
    23.300    67.560    22.680     6.138    23.630      .827      .001      .143
    40.000      .010      .010      .011     1.360      .711      .000      .000
      .237      .800      .145      .148      .168      .006      .000      .000
      .000      .000      .000      .000      .000      .000      .000      .000
      .000      .000      .000      .000
      .000      .020      .050      .100      .200
      .040      .042      .044      .046      .048      .050      .055      .060
      .065      .070      .075      .080      .085      .090      .095      .100
      .110      .120      .130      .140      .150      .160      .170      .180
      .190      .200      .220      .240      .260      .280      .300      .320
      .340      .360      .380      .400      .420      .440      .460      .480
      .500      .550      .600      .650      .700      .750      .800      .850
      .900      .950     1.000     1.100     1.200     1.300     1.400     1.500
     1.600     1.700     1.800     1.900     2.000     2.200     2.400     2.600
     2.800     3.000     3.200     3.400     3.600     3.800     4.000     4.200
     4.400     4.600     4.800     5.000     5.500     6.000     6.500     7.000
      .000      .000      .000      .000      .000      .000      .000      .000
      .000      .000      .000      .000      .000      .000      .000      .000
      .000      .000      .000      .000
Fourier amplitude spectra in in/sec.
  .136E+00  .772E-01  .961E-01  .129E+00  .165E-01  .152E+00  .961E-01  .514E+00
  .180E+00  .346E+00  .247E+00  .172E+00  .400E+00  .105E+01  .111E+01  .110E+01
  .960E+00  .646E+00  .903E+00  .206E+01  .117E+01  .336E+01  .113E+01  .401E+01
  .226E+01  .496E+01  .420E+01  .479E+01  .109E+01  .442E+01  .295E+01  .230E+01
  .974E+01  .454E+01  .428E+01  .405E+01  .268E+01  .512E+01  .304E+01  .118E+02
  .185E+02  .719E+00  .287E+01  .294E+01  .911E+01  .235E+02  .128E+02  .352E+02
  .140E+02  .193E+02  .331E+02  .422E+02  .175E+02  .638E+01  .666E+01  .451E+01
  .486E+01  .435E+01  .440E+01  .407E+00  .277E+01  .223E+01  .720E+00  .116E+01
  .107E+01  .437E+00  .147E+01  .578E+00  .624E+00  .412E+00  .540E+00  .691E+00
  .470E+00  .348E+00  .312E+00  .318E+00  .209E+00  .123E+00  .846E-01  .107E+00
  .000E+00  .000E+00  .000E+00  .000E+00  .000E+00  .000E+00  .000E+00  .000E+00
  .000E+00  .000E+00  .000E+00  .000E+00  .000E+00  .000E+00  .000E+00  .000E+00
  .000E+00  .000E+00  .000E+00  .000E+00
Damping =  .00. Data of Sd,Sv,Sa,Pssv,ttSd,ttSv,ttSa :
  .206E-02  .193E-02  .175E-02  .246E-02  .209E-02  .287E-02  .420E-02  .825E-02
  .787E-02  .798E-02  .462E-02  .700E-02  .146E-01  .183E-01  .224E-01  .241E-01
  .209E-01  .175E-01  .272E-01  .546E-01  .405E-01  .948E-01  .729E-01  .129E+00
  .999E-01  .168E+00  .171E+00  .222E+00  .187E+00  .219E+00  .200E+00  .252E+00
  .579E+00  .406E+00  .443E+00  .304E+00  .309E+00  .411E+00  .376E+00  .917E+00
  .152E+01  .378E+00  .549E+00  .835E+00  .153E+01  .364E+01  .254E+01  .494E+01
  .340E+01  .534E+01  .686E+01  .833E+01  .423E+01  .249E+01  .236E+01  .170E+01
  .211E+01  .153E+01  .147E+01  .641E+00  .118E+01  .943E+00  .532E+00  .691E+00
  .696E+00  .616E+00  .841E+00  .756E+00  .639E+00  .571E+00  .551E+00  .699E+00
  .589E+00  .605E+00  .596E+00  .441E+00  .455E+00  .434E+00  .425E+00  .361E+00
  .000E+00  .000E+00  .000E+00  .000E+00  .000E+00  .000E+00  .000E+00  .000E+00
  .000E+00  .000E+00  .000E+00  .000E+00  .000E+00  .000E+00  .000E+00  .000E+00
  .000E+00  .000E+00  .000E+00  .000E+00
  .209E+00  .174E+00  .168E+00  .211E+00  .152E+00  .217E+00  .401E+00  .731E+00
  .541E+00  .562E+00  .286E+00  .375E+00  .823E+00  .119E+01  .133E+01  .135E+01
  .101E+01  .737E+00  .107E+01  .219E+01  .154E+01  .356E+01  .219E+01  .429E+01
  .300E+01  .523E+01  .454E+01  .562E+01  .416E+01  .448E+01  .373E+01  .442E+01
  .104E+02  .676E+01  .706E+01  .431E+01  .412E+01  .563E+01  .500E+01  .118E+02
  .190E+02  .353E+01  .551E+01  .736E+01  .130E+02  .299E+02  .199E+02  .357E+02
  .238E+02  .346E+02  .430E+02  .477E+02  .227E+02  .131E+02  .110E+02  .721E+01
  .884E+01  .600E+01  .573E+01  .365E+01  .441E+01  .401E+01  .301E+01  .311E+01
  .307E+01  .287E+01  .281E+01  .268E+01  .264E+01  .254E+01  .254E+01  .253E+01
  .252E+01  .252E+01  .251E+01  .249E+01  .252E+01  .253E+01  .252E+01  .250E+01
  .000E+00  .000E+00  .000E+00  .000E+00  .000E+00  .000E+00  .000E+00  .000E+00
  .000E+00  .000E+00  .000E+00  .000E+00  .000E+00  .000E+00  .000E+00  .000E+00
  .000E+00  .000E+00  .000E+00  .000E+00
  .132E+00  .112E+00  .923E-01  .119E+00  .928E-01  .117E+00  .142E+00  .234E+00
  .191E+00  .167E+00  .841E-01  .112E+00  .207E+00  .231E+00  .254E+00  .246E+00
  .176E+00  .125E+00  .164E+00  .285E+00  .184E+00  .379E+00  .258E+00  .407E+00
  .283E+00  .430E+00  .362E+00  .395E+00  .283E+00  .286E+00  .227E+00  .252E+00
  .512E+00  .320E+00  .314E+00  .194E+00  .179E+00  .217E+00  .182E+00  .407E+00
  .622E+00  .128E+00  .156E+00  .202E+00  .319E+00  .661E+00  .405E+00  .699E+00
  .429E+00  .605E+00  .702E+00  .704E+00  .300E+00  .150E+00  .123E+00  .771E-01
  .844E-01  .542E-01  .463E-01  .182E-01  .301E-01  .199E-01  .945E-02  .105E-01
  .908E-02  .701E-02  .840E-02  .669E-02  .505E-02  .404E-02  .352E-02  .405E-02
  .311E-02  .293E-02  .265E-02  .180E-02  .154E-02  .123E-02  .103E-02  .754E-03
  .000E+00  .000E+00  .000E+00  .000E+00  .000E+00  .000E+00  .000E+00  .000E+00
  .000E+00  .000E+00  .000E+00  .000E+00  .000E+00  .000E+00  .000E+00  .000E+00
  .000E+00  .000E+00  .000E+00  .000E+00
  .324E+00  .289E+00  .249E+00  .336E+00  .274E+00  .360E+00  .479E+00  .864E+00
  .761E+00  .716E+00  .387E+00  .549E+00  .108E+01  .128E+01  .148E+01  .151E+01
  .119E+01  .918E+00  .131E+01  .245E+01  .169E+01  .372E+01  .269E+01  .450E+01
  .330E+01  .529E+01  .489E+01  .582E+01  .451E+01  .491E+01  .418E+01  .495E+01
  .107E+02  .708E+01  .733E+01  .477E+01  .462E+01  .588E+01  .514E+01  .120E+02
  .191E+02  .431E+01  .575E+01  .807E+01  .137E+02  .305E+02  .199E+02  .365E+02
  .237E+02  .353E+02  .431E+02  .476E+02  .221E+02  .120E+02  .106E+02  .710E+01
  .829E+01  .566E+01  .512E+01  .212E+01  .370E+01  .269E+01  .139E+01  .167E+01
  .156E+01  .129E+01  .165E+01  .140E+01  .112E+01  .944E+00  .865E+00  .105E+01
  .841E+00  .827E+00  .781E+00  .554E+00  .519E+00  .454E+00  .411E+00  .324E+00
  .000E+00  .000E+00  .000E+00  .000E+00  .000E+00  .000E+00  .000E+00  .000E+00
  .000E+00  .000E+00  .000E+00  .000E+00  .000E+00  .000E+00  .000E+00  .000E+00
  .000E+00  .000E+00  .000E+00  .000E+00
  .233E+02  .233E+02  .220E+02  .233E+02  .233E+02  .225E+02  .233E+02  .228E+02
  .233E+02  .225E+02  .233E+02  .220E+02  .225E+02  .233E+02  .308E+02  .308E+02
  .439E+02  .439E+02  .277E+02  .244E+02  .236E+02  .434E+02  .220E+02  .308E+02
  .233E+02  .673E+02  .438E+02  .277E+02  .232E+02  .313E+02  .225E+02  .233E+02
  .313E+02  .235E+02  .305E+02  .229E+02  .229E+02  .736E+02  .260E+02  .746E+02
  .576E+02  .228E+02  .343E+02  .240E+02  .241E+02  .381E+02  .271E+02  .392E+02
  .293E+02  .397E+02  .655E+02  .706E+02  .434E+02  .281E+02  .603E+02  .683E+02
  .434E+02  .543E+02  .747E+02  .614E+02  .742E+02  .392E+02  .368E+02  .699E+02
  .438E+02  .313E+02  .752E+02  .392E+02  .386E+02  .241E+02  .439E+02  .392E+02
  .392E+02  .386E+02  .386E+02  .298E+02  .392E+02  .386E+02  .386E+02  .236E+02
  .000E+00  .000E+00  .000E+00  .000E+00  .000E+00  .000E+00  .000E+00  .000E+00
  .000E+00  .000E+00  .000E+00  .000E+00  .000E+00  .000E+00  .000E+00  .000E+00
  .000E+00  .000E+00  .000E+00  .000E+00
  .246E+02  .219E+02  .255E+02  .225E+02  .218E+02  .222E+02  .217E+02  .225E+02
  .250E+02  .223E+02  .685E+02  .218E+02  .224E+02  .292E+02  .306E+02  .297E+02
  .426E+02  .365E+02  .277E+02  .244E+02  .268E+02  .567E+02  .220E+02  .345E+02
  .423E+02  .668E+02  .446E+02  .285E+02  .231E+02  .615E+02  .226E+02  .238E+02
  .340E+02  .235E+02  .275E+02  .261E+02  .228E+02  .737E+02  .516E+02  .764E+02
  .577E+02  .230E+02  .344E+02  .239E+02  .369E+02  .379E+02  .273E+02  .394E+02
  .290E+02  .394E+02  .652E+02  .709E+02  .431E+02  .278E+02  .607E+02  .680E+02
  .431E+02  .539E+02  .743E+02  .243E+02  .738E+02  .389E+02  .243E+02  .243E+02
  .389E+02  .243E+02  .441E+02  .436E+02  .243E+02  .243E+02  .238E+02  .238E+02
  .238E+02  .238E+02  .238E+02  .238E+02  .227E+02  .227E+02  .227E+02  .227E+02
  .000E+00  .000E+00  .000E+00  .000E+00  .000E+00  .000E+00  .000E+00  .000E+00
  .000E+00  .000E+00  .000E+00  .000E+00  .000E+00  .000E+00  .000E+00  .000E+00
  .000E+00  .000E+00  .000E+00  .000E+00
  .233E+02  .233E+02  .220E+02  .233E+02  .233E+02  .225E+02  .233E+02  .228E+02
  .233E+02  .225E+02  .233E+02  .220E+02  .225E+02  .233E+02  .308E+02  .308E+02
  .439E+02  .439E+02  .277E+02  .244E+02  .236E+02  .434E+02  .220E+02  .308E+02
  .233E+02  .673E+02  .438E+02  .277E+02  .232E+02  .313E+02  .225E+02  .233E+02
  .313E+02  .235E+02  .305E+02  .229E+02  .229E+02  .736E+02  .260E+02  .746E+02
  .576E+02  .228E+02  .343E+02  .240E+02  .241E+02  .381E+02  .271E+02  .392E+02
  .293E+02  .397E+02  .655E+02  .706E+02  .434E+02  .281E+02  .603E+02  .683E+02
  .434E+02  .543E+02  .747E+02  .614E+02  .742E+02  .392E+02  .368E+02  .699E+02
  .438E+02  .313E+02  .752E+02  .392E+02  .386E+02  .241E+02  .439E+02  .392E+02
  .392E+02  .386E+02  .386E+02  .298E+02  .392E+02  .386E+02  .386E+02  .236E+02
  .000E+00  .000E+00  .000E+00  .000E+00  .000E+00  .000E+00  .000E+00  .000E+00
  .000E+00  .000E+00  .000E+00  .000E+00  .000E+00  .000E+00  .000E+00  .000E+00
  .000E+00  .000E+00  .000E+00  .000E+00
Damping =  .02. Data of Sd,Sv,Sa,Pssv,ttSd,ttSv,ttSa :
  .134E-02  .141E-02  .143E-02  .155E-02  .164E-02  .192E-02  .279E-02  .548E-02
  .666E-02  .562E-02  .503E-02  .550E-02  .908E-02  .105E-01  .117E-01  .112E-01
  .116E-01  .116E-01  .185E-01  .232E-01  .212E-01  .352E-01  .413E-01  .512E-01
  .610E-01  .855E-01  .945E-01  .104E+00  .129E+00  .137E+00  .168E+00  .186E+00
  .263E+00  .294E+00  .276E+00  .255E+00  .238E+00  .274E+00  .298E+00  .441E+00
  .525E+00  .316E+00  .461E+00  .745E+00  .125E+01  .178E+01  .190E+01  .198E+01
  .230E+01  .229E+01  .313E+01  .287E+01  .196E+01  .173E+01  .120E+01  .102E+01
  .122E+01  .109E+01  .931E+00  .695E+00  .681E+00  .780E+00  .484E+00  .544E+00
  .582E+00  .536E+00  .518E+00  .626E+00  .528E+00  .547E+00  .534E+00  .583E+00
  .519E+00  .512E+00  .516E+00  .416E+00  .407E+00  .404E+00  .409E+00  .361E+00
  .000E+00  .000E+00  .000E+00  .000E+00  .000E+00  .000E+00  .000E+00  .000E+00
  .000E+00  .000E+00  .000E+00  .000E+00  .000E+00  .000E+00  .000E+00  .000E+00
  .000E+00  .000E+00  .000E+00  .000E+00
  .924E-01  .101E+00  .112E+00  .112E+00  .134E+00  .145E+00  .172E+00  .376E+00
  .407E+00  .389E+00  .296E+00  .292E+00  .377E+00  .452E+00  .522E+00  .564E+00
  .503E+00  .377E+00  .528E+00  .768E+00  .641E+00  .105E+01  .134E+01  .139E+01
  .166E+01  .230E+01  .236E+01  .226E+01  .286E+01  .269E+01  .298E+01  .316E+01
  .449E+01  .500E+01  .421E+01  .345E+01  .322E+01  .362E+01  .360E+01  .537E+01
  .615E+01  .289E+01  .359E+01  .668E+01  .104E+02  .147E+02  .147E+02  .150E+02
  .164E+02  .160E+02  .195E+02  .171E+02  .108E+02  .957E+01  .592E+01  .571E+01
  .582E+01  .505E+01  .437E+01  .358E+01  .328E+01  .343E+01  .300E+01  .304E+01
  .293E+01  .284E+01  .272E+01  .265E+01  .261E+01  .253E+01  .251E+01  .251E+01
  .250E+01  .250E+01  .249E+01  .247E+01  .250E+01  .252E+01  .251E+01  .249E+01
  .000E+00  .000E+00  .000E+00  .000E+00  .000E+00  .000E+00  .000E+00  .000E+00
  .000E+00  .000E+00  .000E+00  .000E+00  .000E+00  .000E+00  .000E+00  .000E+00
  .000E+00  .000E+00  .000E+00  .000E+00
  .854E-01  .822E-01  .755E-01  .749E-01  .728E-01  .785E-01  .943E-01  .156E+00
  .161E+00  .117E+00  .915E-01  .880E-01  .129E+00  .132E+00  .132E+00  .114E+00
  .981E-01  .822E-01  .112E+00  .122E+00  .966E-01  .141E+00  .147E+00  .161E+00
  .173E+00  .218E+00  .200E+00  .186E+00  .196E+00  .179E+00  .192E+00  .185E+00
  .233E+00  .232E+00  .196E+00  .163E+00  .138E+00  .145E+00  .144E+00  .196E+00
  .215E+00  .107E+00  .131E+00  .180E+00  .261E+00  .323E+00  .304E+00  .280E+00
  .291E+00  .260E+00  .320E+00  .243E+00  .140E+00  .105E+00  .625E-01  .464E-01
  .487E-01  .387E-01  .294E-01  .197E-01  .174E-01  .165E-01  .863E-02  .826E-02
  .762E-02  .612E-02  .521E-02  .556E-02  .420E-02  .391E-02  .344E-02  .340E-02
  .276E-02  .249E-02  .231E-02  .172E-02  .140E-02  .117E-02  .101E-02  .780E-03
  .000E+00  .000E+00  .000E+00  .000E+00  .000E+00  .000E+00  .000E+00  .000E+00
  .000E+00  .000E+00  .000E+00  .000E+00  .000E+00  .000E+00  .000E+00  .000E+00
  .000E+00  .000E+00  .000E+00  .000E+00
  .210E+00  .212E+00  .204E+00  .212E+00  .215E+00  .241E+00  .319E+00  .574E+00
  .644E+00  .505E+00  .421E+00  .432E+00  .671E+00  .730E+00  .775E+00  .703E+00
  .661E+00  .607E+00  .892E+00  .104E+01  .887E+00  .138E+01  .153E+01  .179E+01
  .202E+01  .269E+01  .270E+01  .273E+01  .313E+01  .308E+01  .353E+01  .364E+01
  .486E+01  .513E+01  .457E+01  .400E+01  .356E+01  .391E+01  .407E+01  .578E+01
  .659E+01  .361E+01  .483E+01  .720E+01  .112E+02  .149E+02  .149E+02  .146E+02
  .161E+02  .152E+02  .196E+02  .164E+02  .103E+02  .838E+01  .537E+01  .427E+01
  .478E+01  .404E+01  .325E+01  .230E+01  .214E+01  .223E+01  .127E+01  .131E+01
  .131E+01  .112E+01  .102E+01  .116E+01  .922E+00  .904E+00  .838E+00  .873E+00
  .741E+00  .699E+00  .675E+00  .523E+00  .465E+00  .423E+00  .395E+00  .324E+00
  .000E+00  .000E+00  .000E+00  .000E+00  .000E+00  .000E+00  .000E+00  .000E+00
  .000E+00  .000E+00  .000E+00  .000E+00  .000E+00  .000E+00  .000E+00  .000E+00
  .000E+00  .000E+00  .000E+00  .000E+00
  .220E+02  .220E+02  .233E+02  .233E+02  .233E+02  .233E+02  .220E+02  .220E+02
  .220E+02  .220E+02  .233E+02  .220E+02  .220E+02  .220E+02  .220E+02  .220E+02
  .220E+02  .220E+02  .225E+02  .233E+02  .236E+02  .228E+02  .249E+02  .228E+02
  .230E+02  .233E+02  .237E+02  .244E+02  .232E+02  .221E+02  .225E+02  .233E+02
  .233E+02  .235E+02  .236E+02  .229E+02  .229E+02  .224E+02  .260E+02  .280E+02
  .308E+02  .229E+02  .229E+02  .240E+02  .241E+02  .246E+02  .251E+02  .251E+02
  .248E+02  .249E+02  .445E+02  .443E+02  .308E+02  .281E+02  .271E+02  .309E+02
  .396E+02  .397E+02  .391E+02  .391E+02  .391E+02  .392E+02  .245E+02  .391E+02
  .392E+02  .313E+02  .240E+02  .392E+02  .240E+02  .241E+02  .241E+02  .392E+02
  .392E+02  .386E+02  .386E+02  .386E+02  .392E+02  .386E+02  .386E+02  .386E+02
  .000E+00  .000E+00  .000E+00  .000E+00  .000E+00  .000E+00  .000E+00  .000E+00
  .000E+00  .000E+00  .000E+00  .000E+00  .000E+00  .000E+00  .000E+00  .000E+00
  .000E+00  .000E+00  .000E+00  .000E+00
  .219E+02  .219E+02  .218E+02  .218E+02  .218E+02  .218E+02  .219E+02  .220E+02
  .220E+02  .218E+02  .218E+02  .218E+02  .220E+02  .221E+02  .221E+02  .219E+02
  .219E+02  .218E+02  .224E+02  .234E+02  .227E+02  .227E+02  .248E+02  .227E+02
  .230E+02  .234E+02  .234E+02  .244E+02  .231E+02  .221E+02  .226E+02  .232E+02
  .234E+02  .234E+02  .235E+02  .228E+02  .228E+02  .223E+02  .259E+02  .279E+02
  .310E+02  .223E+02  .230E+02  .239E+02  .239E+02  .252E+02  .249E+02  .249E+02
  .250E+02  .247E+02  .448E+02  .445E+02  .305E+02  .278E+02  .310E+02  .306E+02
  .399E+02  .394E+02  .394E+02  .243E+02  .394E+02  .388E+02  .243E+02  .243E+02
  .243E+02  .243E+02  .243E+02  .243E+02  .243E+02  .243E+02  .238E+02  .238E+02
  .238E+02  .238E+02  .238E+02  .238E+02  .227E+02  .227E+02  .227E+02  .227E+02
  .000E+00  .000E+00  .000E+00  .000E+00  .000E+00  .000E+00  .000E+00  .000E+00
  .000E+00  .000E+00  .000E+00  .000E+00  .000E+00  .000E+00  .000E+00  .000E+00
  .000E+00  .000E+00  .000E+00  .000E+00
  .220E+02  .220E+02  .233E+02  .233E+02  .233E+02  .233E+02  .220E+02  .220E+02
  .220E+02  .220E+02  .233E+02  .220E+02  .220E+02  .220E+02  .220E+02  .220E+02
  .220E+02  .220E+02  .225E+02  .233E+02  .236E+02  .228E+02  .249E+02  .228E+02
  .230E+02  .233E+02  .237E+02  .244E+02  .232E+02  .221E+02  .225E+02  .233E+02
