Response and Fourier amplitude spectra (80 periods,  .04 -  7.0 sec)   for      
Corrected accelerogram   23631-E0780-08212.02       Chan  2:  Long       from   
Uncorrected Accelerogram Data             Processed: 02/09/09, CGS  CE23631     
Record of Tue Jul 29, 2008 11:42:08.9 PDT             (Avol1 v8.5,11/08 CSMIP)  
CSMIP Preliminary Processing            (Origin:  To be determined)             
23631-E0780-08212.02                 Start time:  7/29/08, 18:42: 8.9 UTC (WWVB)
Station No. 23631   34.064N, 117.296W     SSA-1  s/n  780  (4 Chns of 36 at Sta)
San Bernardino - I10/215 Interchange Br   CGS                                   
Chan  2:  Long    (Sta Chn: 22)     Location: Bent 8: Footing                   
Record of Tue Jul 29, 2008 11:42:08.9 PDT    Tue Jul 29, 2008 11:42:08.9 PDT    
Hypocenter:  To be determined.               ML:  To be determined.             
Instr Period =  .0197 sec,  Damping =  .690,  Sensitivity = 1.24  v/g           
                        Record length = 78.080 sec.                             
                                     Uncor Max  =   .063 g , at  21.800 sec.    
RMS accel of (uncor) record  =        .   Chn. metadata effective date: 01/10/92
Accelerogram bandpass filtered with 3 dB pts at   .14 and 40.00 cyc/sec         
                 instrument- and baseline-corrected                             
                                                                                
                                                                                
                                                                                
                                                                                
                                                                                
Record of Tue Jul 29, 2008 11:42:08.9 PDT    Tue Jul 29, 2008 11:42:08.9 PDT    
                                                                                
23631-E0780-08212.02      San Bernardino - I10/215 Interchange Br   Chan  2:  Lo
ng                                                                              
23631-E0780-08212.02      San Bernardino - I10/215 Interchange Br   Chan  2:  Lo
ng                                                                              
Units for spectra are inches and sec, except Sa is in fraction of g.            
                                                                                
    2  100   22    4   36  200    1    3    1   12    5  780    023631    3    0
   18   42    8  935  211    7   29 2008   10    1  80015616   41   39   76   -1
15616    0  100    3 2117    1    2   61    2   18   42   37  120    7   28 2008
    0    2    0    0 7808    2  222    1   12    4   76   39    3    1    0 7808
    3 7808   40   80    5    4    5    0    0    0   36    0    0    3    0    2
    2    2    4    0   66   99    1   32   32    0    0    1    0    0    8  222
    1    0    0    0
      .020      .690    78.080      .005      .000  1241.000      .063    21.800
    50.700  1220.703   983.645      .000     5.000      .000      .000      .000
     2.500     4.844     2.500  -999.000    15.360    30.000      .000      .002
     -.045     -.047     2.000    15.000    34.064  -117.296      .480      .896
     1.868     -.122      .028   297.000      .000      .000      .000      .000
     1.000    -1.998     7.000      .000      .000      .000      .000      .000
     6.800     8.500     5.200   980.665      .010    78.080     8.069      .000
      .000    40.000      .000    78.080      .010      .143      .000      .000
    21.800    60.524    21.300     2.159    21.400      .216      .000      .143
    40.000      .010      .010     -.007      .350      .129      .000      .000
      .277      .085      .125      .087      .023      .002      .000      .000
      .000      .000      .000      .000      .000      .000      .000      .000
      .000      .000      .000      .000
      .000      .020      .050      .100      .200
      .040      .042      .044      .046      .048      .050      .055      .060
      .065      .070      .075      .080      .085      .090      .095      .100
      .110      .120      .130      .140      .150      .160      .170      .180
      .190      .200      .220      .240      .260      .280      .300      .320
      .340      .360      .380      .400      .420      .440      .460      .480
      .500      .550      .600      .650      .700      .750      .800      .850
      .900      .950     1.000     1.100     1.200     1.300     1.400     1.500
     1.600     1.700     1.800     1.900     2.000     2.200     2.400     2.600
     2.800     3.000     3.200     3.400     3.600     3.800     4.000     4.200
     4.400     4.600     4.800     5.000     5.500     6.000     6.500     7.000
      .000      .000      .000      .000      .000      .000      .000      .000
      .000      .000      .000      .000      .000      .000      .000      .000
      .000      .000      .000      .000
Fourier amplitude spectra in in/sec.
  .105E+00  .386E+00  .345E+00  .311E+00  .189E+00  .532E+00  .106E+01  .115E+01
  .222E+00  .298E+00  .123E+01  .165E+01  .400E+01  .349E+01  .184E+01  .457E+01
  .204E+01  .132E+01  .633E+00  .119E+01  .121E+01  .210E+01  .197E+01  .309E+01
  .381E+01  .480E+01  .298E+01  .475E+01  .566E+01  .348E+00  .169E+01  .280E+01
  .327E+01  .502E+01  .402E+01  .282E+01  .365E+01  .261E+01  .164E+01  .555E+00
  .439E+01  .353E+01  .270E+01  .135E+01  .147E+01  .496E+01  .308E+01  .290E+01
  .361E+01  .440E+01  .177E+01  .217E+01  .111E+01  .218E+01  .775E+00  .218E+01
  .138E+01  .174E+01  .199E+01  .520E-01  .148E+01  .118E+01  .159E+01  .198E+00
  .485E+00  .654E+00  .252E+00  .161E+00  .589E+00  .626E+00  .272E+00  .121E+00
  .564E-01  .404E-01  .133E+00  .196E+00  .989E-01  .110E+00  .820E-01  .812E-01
  .000E+00  .000E+00  .000E+00  .000E+00  .000E+00  .000E+00  .000E+00  .000E+00
  .000E+00  .000E+00  .000E+00  .000E+00  .000E+00  .000E+00  .000E+00  .000E+00
  .000E+00  .000E+00  .000E+00  .000E+00
Damping =  .00. Data of Sd,Sv,Sa,Pssv,ttSd,ttSv,ttSa :
  .144E-02  .276E-02  .246E-02  .286E-02  .352E-02  .507E-02  .960E-02  .113E-01
  .829E-02  .109E-01  .301E-01  .348E-01  .543E-01  .505E-01  .299E-01  .833E-01
  .490E-01  .263E-01  .557E-01  .486E-01  .404E-01  .670E-01  .826E-01  .132E+00
  .158E+00  .162E+00  .129E+00  .194E+00  .243E+00  .108E+00  .162E+00  .231E+00
  .246E+00  .298E+00  .261E+00  .276E+00  .249E+00  .195E+00  .134E+00  .163E+00
  .366E+00  .336E+00  .368E+00  .265E+00  .269E+00  .608E+00  .522E+00  .576E+00
  .647E+00  .744E+00  .336E+00  .398E+00  .398E+00  .730E+00  .484E+00  .564E+00
  .474E+00  .470E+00  .591E+00  .261E+00  .520E+00  .414E+00  .608E+00  .199E+00
  .248E+00  .397E+00  .180E+00  .184E+00  .435E+00  .389E+00  .213E+00  .224E+00
  .190E+00  .170E+00  .149E+00  .197E+00  .141E+00  .152E+00  .992E-01  .149E+00
  .000E+00  .000E+00  .000E+00  .000E+00  .000E+00  .000E+00  .000E+00  .000E+00
  .000E+00  .000E+00  .000E+00  .000E+00  .000E+00  .000E+00  .000E+00  .000E+00
  .000E+00  .000E+00  .000E+00  .000E+00
  .129E+00  .402E+00  .350E+00  .339E+00  .330E+00  .630E+00  .109E+01  .118E+01
  .712E+00  .856E+00  .245E+01  .263E+01  .400E+01  .356E+01  .188E+01  .501E+01
  .279E+01  .135E+01  .252E+01  .206E+01  .179E+01  .259E+01  .299E+01  .460E+01
  .524E+01  .508E+01  .365E+01  .501E+01  .589E+01  .233E+01  .340E+01  .455E+01
  .451E+01  .519E+01  .437E+01  .442E+01  .373E+01  .277E+01  .187E+01  .224E+01
  .460E+01  .388E+01  .394E+01  .257E+01  .270E+01  .514E+01  .412E+01  .422E+01
  .447E+01  .487E+01  .208E+01  .227E+01  .206E+01  .354E+01  .224E+01  .235E+01
  .193E+01  .174E+01  .213E+01  .129E+01  .161E+01  .128E+01  .165E+01  .113E+01
  .103E+01  .994E+00  .964E+00  .951E+00  .982E+00  .102E+01  .102E+01  .101E+01
  .102E+01  .101E+01  .979E+00  .950E+00  .902E+00  .876E+00  .860E+00  .849E+00
  .000E+00  .000E+00  .000E+00  .000E+00  .000E+00  .000E+00  .000E+00  .000E+00
  .000E+00  .000E+00  .000E+00  .000E+00  .000E+00  .000E+00  .000E+00  .000E+00
  .000E+00  .000E+00  .000E+00  .000E+00
  .922E-01  .160E+00  .130E+00  .138E+00  .156E+00  .207E+00  .325E+00  .321E+00
  .201E+00  .227E+00  .548E+00  .556E+00  .769E+00  .637E+00  .339E+00  .852E+00
  .414E+00  .187E+00  .337E+00  .253E+00  .184E+00  .268E+00  .292E+00  .417E+00
  .448E+00  .413E+00  .273E+00  .344E+00  .368E+00  .141E+00  .184E+00  .231E+00
  .217E+00  .235E+00  .185E+00  .177E+00  .144E+00  .103E+00  .646E-01  .724E-01
  .150E+00  .114E+00  .104E+00  .641E-01  .561E-01  .111E+00  .834E-01  .816E-01
  .817E-01  .843E-01  .343E-01  .337E-01  .282E-01  .442E-01  .253E-01  .256E-01
  .189E-01  .166E-01  .187E-01  .739E-02  .133E-01  .875E-02  .108E-01  .301E-02
  .323E-02  .452E-02  .179E-02  .163E-02  .343E-02  .276E-02  .136E-02  .130E-02
  .100E-02  .822E-03  .662E-03  .804E-03  .477E-03  .433E-03  .240E-03  .311E-03
  .000E+00  .000E+00  .000E+00  .000E+00  .000E+00  .000E+00  .000E+00  .000E+00
  .000E+00  .000E+00  .000E+00  .000E+00  .000E+00  .000E+00  .000E+00  .000E+00
  .000E+00  .000E+00  .000E+00  .000E+00
  .226E+00  .412E+00  .352E+00  .391E+00  .460E+00  .637E+00  .110E+01  .118E+01
  .801E+00  .975E+00  .252E+01  .273E+01  .402E+01  .352E+01  .198E+01  .524E+01
  .280E+01  .138E+01  .269E+01  .218E+01  .169E+01  .263E+01  .305E+01  .461E+01
  .523E+01  .508E+01  .369E+01  .507E+01  .587E+01  .242E+01  .339E+01  .453E+01
  .454E+01  .520E+01  .431E+01  .434E+01  .372E+01  .279E+01  .183E+01  .213E+01
  .460E+01  .384E+01  .385E+01  .256E+01  .241E+01  .509E+01  .410E+01  .426E+01
  .452E+01  .492E+01  .211E+01  .227E+01  .208E+01  .353E+01  .217E+01  .236E+01
  .186E+01  .174E+01  .206E+01  .863E+00  .163E+01  .118E+01  .159E+01  .481E+00
  .556E+00  .832E+00  .353E+00  .341E+00  .760E+00  .644E+00  .334E+00  .335E+00
  .271E+00  .232E+00  .195E+00  .247E+00  .161E+00  .159E+00  .959E-01  .134E+00
  .000E+00  .000E+00  .000E+00  .000E+00  .000E+00  .000E+00  .000E+00  .000E+00
  .000E+00  .000E+00  .000E+00  .000E+00  .000E+00  .000E+00  .000E+00  .000E+00
  .000E+00  .000E+00  .000E+00  .000E+00
  .218E+02  .343E+02  .753E+02  .221E+02  .218E+02  .260E+02  .450E+02  .405E+02
  .219E+02  .218E+02  .246E+02  .221E+02  .406E+02  .418E+02  .222E+02  .243E+02
  .277E+02  .497E+02  .221E+02  .214E+02  .218E+02  .383E+02  .235E+02  .238E+02
  .274E+02  .413E+02  .251E+02  .271E+02  .557E+02  .247E+02  .267E+02  .280E+02
  .346E+02  .697E+02  .260E+02  .292E+02  .378E+02  .697E+02  .286E+02  .217E+02
  .553E+02  .271E+02  .239E+02  .426E+02  .226E+02  .401E+02  .497E+02  .296E+02
  .458E+02  .581E+02  .700E+02  .698E+02  .541E+02  .611E+02  .369E+02  .745E+02
  .581E+02  .781E+02  .453E+02  .540E+02  .745E+02  .784E+02  .824E+02  .227E+02
  .646E+02  .635E+02  .495E+02  .297E+02  .683E+02  .756E+02  .350E+02  .569E+02
  .221E+02  .221E+02  .453E+02  .587E+02  .289E+02  .569E+02  .306E+02  .569E+02
  .000E+00  .000E+00  .000E+00  .000E+00  .000E+00  .000E+00  .000E+00  .000E+00
  .000E+00  .000E+00  .000E+00  .000E+00  .000E+00  .000E+00  .000E+00  .000E+00
  .000E+00  .000E+00  .000E+00  .000E+00
  .222E+02  .329E+02  .751E+02  .730E+02  .218E+02  .260E+02  .460E+02  .406E+02
  .219E+02  .218E+02  .246E+02  .221E+02  .743E+02  .418E+02  .222E+02  .243E+02
  .278E+02  .497E+02  .222E+02  .218E+02  .218E+02  .384E+02  .234E+02  .239E+02
  .273E+02  .419E+02  .252E+02  .270E+02  .558E+02  .247E+02  .268E+02  .288E+02
  .345E+02  .698E+02  .261E+02  .253E+02  .379E+02  .698E+02  .297E+02  .219E+02
  .554E+02  .270E+02  .244E+02  .424E+02  .222E+02  .414E+02  .495E+02  .315E+02
  .456E+02  .583E+02  .702E+02  .701E+02  .538E+02  .601E+02  .365E+02  .749E+02
  .585E+02  .768E+02  .450E+02  .228E+02  .750E+02  .330E+02  .493E+02  .222E+02
  .222E+02  .222E+02  .222E+02  .222E+02  .222E+02  .222E+02  .222E+02  .213E+02
  .213E+02  .213E+02  .213E+02  .213E+02  .213E+02  .213E+02  .213E+02  .213E+02
  .000E+00  .000E+00  .000E+00  .000E+00  .000E+00  .000E+00  .000E+00  .000E+00
  .000E+00  .000E+00  .000E+00  .000E+00  .000E+00  .000E+00  .000E+00  .000E+00
  .000E+00  .000E+00  .000E+00  .000E+00
  .218E+02  .343E+02  .753E+02  .221E+02  .218E+02  .260E+02  .450E+02  .405E+02
  .219E+02  .218E+02  .246E+02  .221E+02  .406E+02  .418E+02  .222E+02  .243E+02
  .277E+02  .497E+02  .221E+02  .214E+02  .218E+02  .383E+02  .235E+02  .238E+02
  .274E+02  .413E+02  .251E+02  .271E+02  .557E+02  .247E+02  .267E+02  .280E+02
  .346E+02  .697E+02  .260E+02  .292E+02  .378E+02  .697E+02  .286E+02  .217E+02
  .553E+02  .271E+02  .239E+02  .426E+02  .226E+02  .401E+02  .497E+02  .296E+02
  .458E+02  .581E+02  .700E+02  .698E+02  .541E+02  .611E+02  .369E+02  .745E+02
  .581E+02  .781E+02  .453E+02  .540E+02  .745E+02  .784E+02  .824E+02  .227E+02
  .646E+02  .635E+02  .495E+02  .297E+02  .683E+02  .756E+02  .350E+02  .569E+02
  .221E+02  .221E+02  .453E+02  .587E+02  .289E+02  .569E+02  .306E+02  .569E+02
  .000E+00  .000E+00  .000E+00  .000E+00  .000E+00  .000E+00  .000E+00  .000E+00
  .000E+00  .000E+00  .000E+00  .000E+00  .000E+00  .000E+00  .000E+00  .000E+00
  .000E+00  .000E+00  .000E+00  .000E+00
Damping =  .02. Data of Sd,Sv,Sa,Pssv,ttSd,ttSv,ttSa :
  .146E-02  .145E-02  .155E-02  .158E-02  .214E-02  .276E-02  .363E-02  .428E-02
  .514E-02  .892E-02  .161E-01  .232E-01  .260E-01  .243E-01  .231E-01  .325E-01
  .198E-01  .194E-01  .212E-01  .279E-01  .234E-01  .354E-01  .440E-01  .545E-01
  .550E-01  .526E-01  .738E-01  .116E+00  .118E+00  .807E-01  .789E-01  .118E+00
  .172E+00  .192E+00  .175E+00  .182E+00  .133E+00  .137E+00  .125E+00  .141E+00
  .153E+00  .173E+00  .221E+00  .198E+00  .231E+00  .253E+00  .337E+00  .357E+00
  .425E+00  .364E+00  .251E+00  .201E+00  .186E+00  .380E+00  .273E+00  .272E+00
  .339E+00  .295E+00  .299E+00  .227E+00  .276E+00  .306E+00  .326E+00  .182E+00
  .161E+00  .224E+00  .152E+00  .165E+00  .253E+00  .226E+00  .175E+00  .166E+00
  .172E+00  .159E+00  .138E+00  .139E+00  .130E+00  .119E+00  .926E-01  .124E+00
  .000E+00  .000E+00  .000E+00  .000E+00  .000E+00  .000E+00  .000E+00  .000E+00
  .000E+00  .000E+00  .000E+00  .000E+00  .000E+00  .000E+00  .000E+00  .000E+00
  .000E+00  .000E+00  .000E+00  .000E+00
  .154E+00  .157E+00  .142E+00  .143E+00  .173E+00  .233E+00  .304E+00  .344E+00
  .417E+00  .689E+00  .126E+01  .172E+01  .182E+01  .168E+01  .150E+01  .204E+01
  .101E+01  .996E+00  .853E+00  .108E+01  .849E+00  .124E+01  .161E+01  .188E+01
  .180E+01  .182E+01  .218E+01  .295E+01  .288E+01  .196E+01  .187E+01  .264E+01
  .312E+01  .358E+01  .317E+01  .299E+01  .245E+01  .209E+01  .185E+01  .198E+01
  .214E+01  .227E+01  .256E+01  .204E+01  .243E+01  .249E+01  .272E+01  .292E+01
  .298E+01  .262E+01  .179E+01  .137E+01  .119E+01  .190E+01  .129E+01  .120E+01
  .141E+01  .120E+01  .126E+01  .123E+01  .115E+01  .112E+01  .107E+01  .110E+01
  .103E+01  .994E+00  .969E+00  .959E+00  .979E+00  .100E+01  .995E+00  .981E+00
  .997E+00  .989E+00  .968E+00  .945E+00  .902E+00  .877E+00  .861E+00  .851E+00
  .000E+00  .000E+00  .000E+00  .000E+00  .000E+00  .000E+00  .000E+00  .000E+00
  .000E+00  .000E+00  .000E+00  .000E+00  .000E+00  .000E+00  .000E+00  .000E+00
  .000E+00  .000E+00  .000E+00  .000E+00
  .930E-01  .846E-01  .816E-01  .763E-01  .952E-01  .113E+00  .123E+00  .122E+00
  .124E+00  .187E+00  .293E+00  .372E+00  .369E+00  .307E+00  .262E+00  .329E+00
  .169E+00  .137E+00  .129E+00  .146E+00  .106E+00  .141E+00  .156E+00  .172E+00
  .156E+00  .134E+00  .156E+00  .206E+00  .178E+00  .105E+00  .898E-01  .118E+00
  .152E+00  .152E+00  .124E+00  .117E+00  .771E-01  .725E-01  .604E-01  .627E-01
  .628E-01  .585E-01  .629E-01  .480E-01  .483E-01  .460E-01  .539E-01  .506E-01
  .538E-01  .413E-01  .258E-01  .171E-01  .132E-01  .230E-01  .142E-01  .124E-01
  .135E-01  .104E-01  .946E-02  .645E-02  .705E-02  .647E-02  .580E-02  .276E-02
  .211E-02  .255E-02  .152E-02  .147E-02  .200E-02  .161E-02  .114E-02  .991E-03
  .934E-03  .796E-03  .642E-03  .570E-03  .444E-03  .342E-03  .230E-03  .261E-03
  .000E+00  .000E+00  .000E+00  .000E+00  .000E+00  .000E+00  .000E+00  .000E+00
  .000E+00  .000E+00  .000E+00  .000E+00  .000E+00  .000E+00  .000E+00  .000E+00
  .000E+00  .000E+00  .000E+00  .000E+00
  .229E+00  .218E+00  .221E+00  .216E+00  .281E+00  .346E+00  .415E+00  .449E+00
  .497E+00  .801E+00  .134E+01  .182E+01  .192E+01  .170E+01  .153E+01  .204E+01
  .113E+01  .101E+01  .103E+01  .125E+01  .980E+00  .139E+01  .163E+01  .190E+01
  .182E+01  .165E+01  .211E+01  .303E+01  .284E+01  .181E+01  .165E+01  .232E+01
  .319E+01  .334E+01  .290E+01  .286E+01  .199E+01  .196E+01  .171E+01  .185E+01
  .192E+01  .198E+01  .231E+01  .192E+01  .207E+01  .212E+01  .265E+01  .264E+01
  .297E+01  .241E+01  .158E+01  .115E+01  .973E+00  .184E+01  .122E+01  .114E+01
  .133E+01  .109E+01  .104E+01  .751E+00  .866E+00  .874E+00  .854E+00  .440E+00
  .362E+00  .469E+00  .299E+00  .305E+00  .441E+00  .374E+00  .275E+00  .249E+00
  .245E+00  .217E+00  .181E+00  .175E+00  .149E+00  .125E+00  .895E-01  .111E+00
  .000E+00  .000E+00  .000E+00  .000E+00  .000E+00  .000E+00  .000E+00  .000E+00
  .000E+00  .000E+00  .000E+00  .000E+00  .000E+00  .000E+00  .000E+00  .000E+00
  .000E+00  .000E+00  .000E+00  .000E+00
  .218E+02  .218E+02  .218E+02  .218E+02  .218E+02  .218E+02  .218E+02  .218E+02
  .218E+02  .218E+02  .218E+02  .219E+02  .219E+02  .219E+02  .219E+02  .227E+02
  .221E+02  .228E+02  .221E+02  .221E+02  .222E+02  .222E+02  .224E+02  .229E+02
  .229E+02  .227E+02  .224E+02  .224E+02  .234E+02  .247E+02  .230E+02  .224E+02
  .223E+02  .224E+02  .222E+02  .222E+02  .223E+02  .217E+02  .217E+02  .217E+02
  .215E+02  .232E+02  .222E+02  .223E+02  .223E+02  .239E+02  .257E+02  .254E+02
  .238E+02  .239E+02  .235E+02  .235E+02  .534E+02  .591E+02  .328E+02  .316E+02
  .581E+02  .552E+02  .453E+02  .231E+02  .744E+02  .313E+02  .438E+02  .227E+02
  .357E+02  .576E+02  .460E+02  .297E+02  .593E+02  .567E+02  .214E+02  .221E+02
  .221E+02  .221E+02  .221E+02  .568E+02  .289E+02  .569E+02  .274E+02  .569E+02
  .000E+00  .000E+00  .000E+00  .000E+00  .000E+00  .000E+00  .000E+00  .000E+00
  .000E+00  .000E+00  .000E+00  .000E+00  .000E+00  .000E+00  .000E+00  .000E+00
  .000E+00  .000E+00  .000E+00  .000E+00
  .218E+02  .218E+02  .218E+02  .218E+02  .218E+02  .218E+02  .218E+02  .219E+02
  .219E+02  .218E+02  .219E+02  .219E+02  .219E+02  .219E+02  .219E+02  .226E+02
  .221E+02  .227E+02  .160E+02  .222E+02  .223E+02  .223E+02  .225E+02  .229E+02
  .229E+02  .226E+02  .225E+02  .226E+02  .233E+02  .218E+02  .218E+02  .224E+02
  .223E+02  .223E+02  .223E+02  .221E+02  .222E+02  .216E+02  .216E+02  .216E+02
  .216E+02  .223E+02  .223E+02  .221E+02  .222E+02  .222E+02  .259E+02  .256E+02
  .235E+02  .237E+02  .233E+02  .233E+02  .220E+02  .594E+02  .331E+02  .313E+02
  .584E+02  .233E+02  .228E+02  .228E+02  .228E+02  .228E+02  .222E+02  .222E+02
  .222E+02  .222E+02  .222E+02  .222E+02  .222E+02  .222E+02  .222E+02  .213E+02
  .213E+02  .213E+02  .213E+02  .213E+02  .213E+02  .213E+02  .213E+02  .213E+02
  .000E+00  .000E+00  .000E+00  .000E+00  .000E+00  .000E+00  .000E+00  .000E+00
  .000E+00  .000E+00  .000E+00  .000E+00  .000E+00  .000E+00  .000E+00  .000E+00
  .000E+00  .000E+00  .000E+00  .000E+00
  .218E+02  .218E+02  .218E+02  .218E+02  .218E+02  .218E+02  .218E+02  .218E+02
  .218E+02  .218E+02  .218E+02  .219E+02  .219E+02  .219E+02  .219E+02  .227E+02
  .221E+02  .228E+02  .221E+02  .221E+02  .222E+02  .222E+02  .224E+02  .229E+02
  .229E+02  .227E+02  .224E+02  .224E+02  .234E+02  .247E+02  .230E+02  .224E+02
