Response and Fourier amplitude spectra (80 periods,  .04 -  7.0 sec)   for      
Corrected accelerogram   23631-E0754-08212.02       Chan  2:  Long       from   
Uncorrected Accelerogram Data             Processed: 02/09/09, CGS  CE23631     
Record of Tue Jul 29, 2008 11:42:08.9 PDT             (Avol1 v8.5,11/08 CSMIP)  
CSMIP Preliminary Processing            (Origin:  To be determined)             
23631-E0754-08212.02                 Start time:  7/29/08, 18:42: 8.9 UTC (WWVB)
Station No. 23631   34.064N, 117.296W     SSA-1  s/n  754  (4 Chns of 36 at Sta)
San Bernardino - I10/215 Interchange Br   CGS                                   
Chan  2:  Long    (Sta Chn: 34)     Location: North Abutment                    
Record of Tue Jul 29, 2008 11:42:08.9 PDT    Tue Jul 29, 2008 11:42:08.9 PDT    
Hypocenter:  To be determined.               ML:  To be determined.             
Instr Period =  .0190 sec,  Damping =  .660,  Sensitivity = 1.25  v/g           
                        Record length = 78.080 sec.                             
                                     Uncor Max  =  -.110 g , at  21.700 sec.    
RMS accel of (uncor) record  =        .   Chn. metadata effective date: 01/10/92
Accelerogram bandpass filtered with 3 dB pts at   .14 and 40.00 cyc/sec         
                 instrument- and baseline-corrected                             
                                                                                
                                                                                
                                                                                
                                                                                
                                                                                
Record of Tue Jul 29, 2008 11:42:08.9 PDT    Tue Jul 29, 2008 11:42:08.9 PDT    
                                                                                
23631-E0754-08212.02      San Bernardino - I10/215 Interchange Br   Chan  2:  Lo
ng                                                                              
23631-E0754-08212.02      San Bernardino - I10/215 Interchange Br   Chan  2:  Lo
ng                                                                              
Units for spectra are inches and sec, except Sa is in fraction of g.            
                                                                                
    2  100   34    4   36  200    1    3    1   12    5  754    023631    3    0
   18   42    8  935  211    7   29 2008   10    1  80015616   41   39   76   -1
15616    1  100    3 2117    1    2   61    2   18   42   33  830    7   29 2008
    0    2    0    0 7808    2  222    1   12    4   76   39    3    1    0 7808
    3 7808   40   80    5    4    5    0    1    0   36    0    0    3    0    2
    2    2    4    0   66   99    1   32   32    0    0    1    0    0   40  222
    1    0    2    0
      .019      .660    78.080      .006      .000  1249.000     -.110    21.700
    52.700  1220.703   977.344      .000     5.000      .000      .000      .000
     2.500    12.991     2.500  -999.000    15.360    30.000      .000     -.068
      .012      .080     2.000    15.000    34.064  -117.296      .430     1.003
     2.333      .007      .153   297.000      .000      .000      .000      .000
     1.000     2.289     7.000      .000      .000      .000      .000      .000
     6.800     8.500     5.200   980.665      .010    78.080     8.387      .000
      .000    40.000      .000    78.080      .010      .143      .000      .000
    21.700  -107.015    21.530    -4.301    21.440      .307     -.002      .143
    40.000      .010      .010     -.010      .620      .144      .000      .000
      .403      .260      .216      .328      .020      .003      .000      .000
      .000      .000      .000      .000      .000      .000      .000      .000
      .000      .000      .000      .000
      .000      .020      .050      .100      .200
      .040      .042      .044      .046      .048      .050      .055      .060
      .065      .070      .075      .080      .085      .090      .095      .100
      .110      .120      .130      .140      .150      .160      .170      .180
      .190      .200      .220      .240      .260      .280      .300      .320
      .340      .360      .380      .400      .420      .440      .460      .480
      .500      .550      .600      .650      .700      .750      .800      .850
      .900      .950     1.000     1.100     1.200     1.300     1.400     1.500
     1.600     1.700     1.800     1.900     2.000     2.200     2.400     2.600
     2.800     3.000     3.200     3.400     3.600     3.800     4.000     4.200
     4.400     4.600     4.800     5.000     5.500     6.000     6.500     7.000
      .000      .000      .000      .000      .000      .000      .000      .000
      .000      .000      .000      .000      .000      .000      .000      .000
      .000      .000      .000      .000
Fourier amplitude spectra in in/sec.
  .130E+00  .116E+00  .251E+00  .282E+00  .375E+00  .695E+00  .379E+00  .327E+00
  .297E+00  .987E+00  .920E+00  .104E+01  .120E+01  .700E+00  .194E+01  .180E+01
  .112E+01  .943E+00  .233E+01  .171E+01  .206E+01  .218E+01  .335E+01  .335E+01
  .260E+01  .160E+01  .566E+01  .110E+02  .922E+01  .151E+02  .901E+01  .692E+01
  .641E+01  .406E+01  .177E+01  .194E+01  .362E+01  .443E+01  .607E+01  .432E+01
  .195E+01  .142E+01  .255E+01  .243E+01  .767E+01  .597E+01  .355E+01  .235E+01
  .347E+00  .507E+00  .160E+01  .174E+01  .170E+01  .934E+00  .207E+01  .197E+01
  .346E+01  .438E+00  .184E+01  .475E+00  .112E+01  .112E+00  .174E+01  .888E+00
  .894E+00  .909E+00  .548E+00  .968E-01  .493E+00  .632E+00  .399E+00  .480E+00
  .438E+00  .269E+00  .147E+00  .139E+00  .112E+00  .161E+00  .121E+00  .126E+00
  .000E+00  .000E+00  .000E+00  .000E+00  .000E+00  .000E+00  .000E+00  .000E+00
  .000E+00  .000E+00  .000E+00  .000E+00  .000E+00  .000E+00  .000E+00  .000E+00
  .000E+00  .000E+00  .000E+00  .000E+00
Damping =  .00. Data of Sd,Sv,Sa,Pssv,ttSd,ttSv,ttSa :
  .255E-02  .319E-02  .467E-02  .414E-02  .375E-02  .577E-02  .690E-02  .698E-02
  .789E-02  .119E-01  .128E-01  .186E-01  .194E-01  .177E-01  .315E-01  .322E-01
  .386E-01  .340E-01  .597E-01  .546E-01  .583E-01  .711E-01  .923E-01  .112E+00
  .877E-01  .786E-01  .255E+00  .498E+00  .539E+00  .707E+00  .487E+00  .416E+00
  .457E+00  .346E+00  .244E+00  .269E+00  .280E+00  .333E+00  .444E+00  .363E+00
  .236E+00  .242E+00  .308E+00  .400E+00  .101E+01  .725E+00  .576E+00  .477E+00
  .320E+00  .349E+00  .518E+00  .423E+00  .396E+00  .441E+00  .711E+00  .616E+00
  .882E+00  .513E+00  .559E+00  .351E+00  .497E+00  .299E+00  .734E+00  .511E+00
  .494E+00  .551E+00  .409E+00  .307E+00  .363E+00  .382E+00  .394E+00  .397E+00
  .365E+00  .262E+00  .213E+00  .206E+00  .194E+00  .201E+00  .197E+00  .201E+00
  .000E+00  .000E+00  .000E+00  .000E+00  .000E+00  .000E+00  .000E+00  .000E+00
  .000E+00  .000E+00  .000E+00  .000E+00  .000E+00  .000E+00  .000E+00  .000E+00
  .000E+00  .000E+00  .000E+00  .000E+00
  .197E+00  .242E+00  .425E+00  .355E+00  .431E+00  .700E+00  .577E+00  .428E+00
  .542E+00  .104E+01  .104E+01  .134E+01  .143E+01  .108E+01  .207E+01  .202E+01
  .211E+01  .179E+01  .287E+01  .239E+01  .235E+01  .259E+01  .339E+01  .389E+01
  .285E+01  .209E+01  .714E+01  .130E+02  .130E+02  .159E+02  .103E+02  .816E+01
  .844E+01  .662E+01  .446E+01  .462E+01  .436E+01  .490E+01  .607E+01  .475E+01
  .431E+01  .397E+01  .333E+01  .392E+01  .907E+01  .605E+01  .461E+01  .352E+01
  .282E+01  .269E+01  .327E+01  .242E+01  .245E+01  .237E+01  .325E+01  .272E+01
  .346E+01  .203E+01  .200E+01  .176E+01  .183E+01  .191E+01  .194E+01  .176E+01
  .168E+01  .166E+01  .162E+01  .166E+01  .170E+01  .169E+01  .169E+01  .172E+01
  .174E+01  .172E+01  .168E+01  .165E+01  .164E+01  .167E+01  .167E+01  .168E+01
  .000E+00  .000E+00  .000E+00  .000E+00  .000E+00  .000E+00  .000E+00  .000E+00
  .000E+00  .000E+00  .000E+00  .000E+00  .000E+00  .000E+00  .000E+00  .000E+00
  .000E+00  .000E+00  .000E+00  .000E+00
  .163E+00  .185E+00  .247E+00  .200E+00  .166E+00  .236E+00  .233E+00  .198E+00
  .191E+00  .248E+00  .233E+00  .297E+00  .274E+00  .223E+00  .357E+00  .329E+00
  .326E+00  .242E+00  .362E+00  .285E+00  .265E+00  .284E+00  .327E+00  .354E+00
  .248E+00  .201E+00  .539E+00  .884E+00  .816E+00  .923E+00  .554E+00  .416E+00
  .404E+00  .273E+00  .173E+00  .172E+00  .163E+00  .176E+00  .214E+00  .161E+00
  .965E-01  .819E-01  .875E-01  .969E-01  .212E+00  .132E+00  .920E-01  .676E-01
  .404E-01  .396E-01  .530E-01  .357E-01  .281E-01  .267E-01  .371E-01  .280E-01
  .353E-01  .182E-01  .176E-01  .995E-02  .127E-01  .631E-02  .130E-01  .774E-02
  .644E-02  .627E-02  .408E-02  .272E-02  .286E-02  .271E-02  .252E-02  .230E-02
  .193E-02  .126E-02  .944E-03  .844E-03  .654E-03  .572E-03  .478E-03  .420E-03
  .000E+00  .000E+00  .000E+00  .000E+00  .000E+00  .000E+00  .000E+00  .000E+00
  .000E+00  .000E+00  .000E+00  .000E+00  .000E+00  .000E+00  .000E+00  .000E+00
  .000E+00  .000E+00  .000E+00  .000E+00
  .400E+00  .477E+00  .667E+00  .566E+00  .491E+00  .725E+00  .788E+00  .731E+00
  .762E+00  .107E+01  .107E+01  .146E+01  .143E+01  .124E+01  .208E+01  .202E+01
  .220E+01  .178E+01  .289E+01  .245E+01  .244E+01  .279E+01  .341E+01  .391E+01
  .290E+01  .247E+01  .728E+01  .130E+02  .130E+02  .159E+02  .102E+02  .817E+01
  .844E+01  .604E+01  .404E+01  .422E+01  .419E+01  .476E+01  .606E+01  .475E+01
  .296E+01  .277E+01  .322E+01  .387E+01  .910E+01  .608E+01  .452E+01  .353E+01
  .223E+01  .231E+01  .325E+01  .242E+01  .207E+01  .213E+01  .319E+01  .258E+01
  .347E+01  .190E+01  .195E+01  .116E+01  .156E+01  .853E+00  .192E+01  .124E+01
  .111E+01  .115E+01  .803E+00  .567E+00  .634E+00  .632E+00  .619E+00  .594E+00
  .521E+00  .357E+00  .278E+00  .259E+00  .221E+00  .211E+00  .191E+00  .181E+00
  .000E+00  .000E+00  .000E+00  .000E+00  .000E+00  .000E+00  .000E+00  .000E+00
  .000E+00  .000E+00  .000E+00  .000E+00  .000E+00  .000E+00  .000E+00  .000E+00
  .000E+00  .000E+00  .000E+00  .000E+00
  .217E+02  .217E+02  .217E+02  .219E+02  .237E+02  .240E+02  .218E+02  .219E+02
  .216E+02  .274E+02  .326E+02  .233E+02  .284E+02  .219E+02  .451E+02  .274E+02
  .240E+02  .232E+02  .276E+02  .247E+02  .275E+02  .217E+02  .634E+02  .258E+02
  .233E+02  .218E+02  .274E+02  .257E+02  .228E+02  .314E+02  .270E+02  .305E+02
  .274E+02  .234E+02  .217E+02  .217E+02  .301E+02  .326E+02  .781E+02  .599E+02
  .216E+02  .217E+02  .229E+02  .229E+02  .370E+02  .677E+02  .348E+02  .490E+02
  .225E+02  .278E+02  .390E+02  .684E+02  .398E+02  .579E+02  .590E+02  .431E+02
  .773E+02  .359E+02  .745E+02  .397E+02  .562E+02  .323E+02  .597E+02  .508E+02
  .385E+02  .621E+02  .544E+02  .295E+02  .624E+02  .848E+02  .422E+02  .580E+02
  .570E+02  .470E+02  .384E+02  .384E+02  .376E+02  .274E+02  .274E+02  .384E+02
  .000E+00  .000E+00  .000E+00  .000E+00  .000E+00  .000E+00  .000E+00  .000E+00
  .000E+00  .000E+00  .000E+00  .000E+00  .000E+00  .000E+00  .000E+00  .000E+00
  .000E+00  .000E+00  .000E+00  .000E+00
  .272E+02  .217E+02  .217E+02  .238E+02  .290E+02  .751E+02  .218E+02  .218E+02
  .217E+02  .682E+02  .328E+02  .233E+02  .284E+02  .287E+02  .453E+02  .273E+02
  .239E+02  .232E+02  .273E+02  .246E+02  .275E+02  .218E+02  .633E+02  .258E+02
  .234E+02  .218E+02  .273E+02  .257E+02  .230E+02  .315E+02  .271E+02  .304E+02
  .250E+02  .219E+02  .218E+02  .216E+02  .300E+02  .327E+02  .782E+02  .612E+02
  .217E+02  .216E+02  .230E+02  .231E+02  .369E+02  .675E+02  .346E+02  .493E+02
  .219E+02  .275E+02  .388E+02  .687E+02  .215E+02  .215E+02  .593E+02  .487E+02
  .777E+02  .355E+02  .749E+02  .215E+02  .215E+02  .215E+02  .675E+02  .215E+02
  .215E+02  .215E+02  .215E+02  .215E+02  .215E+02  .215E+02  .215E+02  .215E+02
  .215E+02  .215E+02  .215E+02  .215E+02  .215E+02  .215E+02  .215E+02  .215E+02
  .000E+00  .000E+00  .000E+00  .000E+00  .000E+00  .000E+00  .000E+00  .000E+00
  .000E+00  .000E+00  .000E+00  .000E+00  .000E+00  .000E+00  .000E+00  .000E+00
  .000E+00  .000E+00  .000E+00  .000E+00
  .217E+02  .217E+02  .217E+02  .219E+02  .237E+02  .240E+02  .218E+02  .219E+02
  .216E+02  .274E+02  .326E+02  .233E+02  .284E+02  .219E+02  .451E+02  .274E+02
  .240E+02  .232E+02  .276E+02  .247E+02  .275E+02  .217E+02  .634E+02  .258E+02
  .233E+02  .218E+02  .274E+02  .257E+02  .228E+02  .314E+02  .270E+02  .305E+02
  .274E+02  .234E+02  .217E+02  .217E+02  .301E+02  .326E+02  .781E+02  .599E+02
  .216E+02  .217E+02  .229E+02  .229E+02  .370E+02  .677E+02  .348E+02  .490E+02
  .225E+02  .278E+02  .390E+02  .684E+02  .398E+02  .579E+02  .590E+02  .431E+02
  .773E+02  .359E+02  .745E+02  .397E+02  .562E+02  .323E+02  .597E+02  .508E+02
  .385E+02  .621E+02  .544E+02  .295E+02  .624E+02  .848E+02  .422E+02  .580E+02
  .570E+02  .470E+02  .384E+02  .384E+02  .376E+02  .274E+02  .274E+02  .384E+02
  .000E+00  .000E+00  .000E+00  .000E+00  .000E+00  .000E+00  .000E+00  .000E+00
  .000E+00  .000E+00  .000E+00  .000E+00  .000E+00  .000E+00  .000E+00  .000E+00
  .000E+00  .000E+00  .000E+00  .000E+00
Damping =  .02. Data of Sd,Sv,Sa,Pssv,ttSd,ttSv,ttSa :
  .238E-02  .276E-02  .306E-02  .335E-02  .363E-02  .386E-02  .507E-02  .636E-02
  .741E-02  .877E-02  .101E-01  .127E-01  .122E-01  .143E-01  .179E-01  .222E-01
  .237E-01  .234E-01  .275E-01  .358E-01  .396E-01  .568E-01  .644E-01  .683E-01
  .704E-01  .777E-01  .138E+00  .267E+00  .373E+00  .378E+00  .369E+00  .319E+00
  .295E+00  .270E+00  .252E+00  .243E+00  .225E+00  .225E+00  .239E+00  .218E+00
  .212E+00  .209E+00  .231E+00  .327E+00  .445E+00  .449E+00  .367E+00  .327E+00
  .279E+00  .247E+00  .263E+00  .184E+00  .197E+00  .219E+00  .328E+00  .425E+00
  .492E+00  .325E+00  .231E+00  .288E+00  .349E+00  .234E+00  .356E+00  .346E+00
  .349E+00  .315E+00  .260E+00  .278E+00  .287E+00  .263E+00  .281E+00  .262E+00
  .248E+00  .212E+00  .185E+00  .179E+00  .178E+00  .187E+00  .185E+00  .184E+00
  .000E+00  .000E+00  .000E+00  .000E+00  .000E+00  .000E+00  .000E+00  .000E+00
  .000E+00  .000E+00  .000E+00  .000E+00  .000E+00  .000E+00  .000E+00  .000E+00
  .000E+00  .000E+00  .000E+00  .000E+00
  .144E+00  .173E+00  .203E+00  .224E+00  .266E+00  .300E+00  .375E+00  .376E+00
  .430E+00  .569E+00  .654E+00  .741E+00  .666E+00  .743E+00  .894E+00  .111E+01
  .126E+01  .105E+01  .115E+01  .134E+01  .129E+01  .187E+01  .212E+01  .219E+01
  .203E+01  .213E+01  .349E+01  .696E+01  .904E+01  .875E+01  .788E+01  .675E+01
  .602E+01  .528E+01  .452E+01  .417E+01  .390E+01  .384E+01  .413E+01  .405E+01
  .390E+01  .369E+01  .297E+01  .311E+01  .404E+01  .421E+01  .315E+01  .276E+01
  .265E+01  .256E+01  .239E+01  .226E+01  .240E+01  .237E+01  .232E+01  .227E+01
  .215E+01  .193E+01  .180E+01  .179E+01  .183E+01  .190E+01  .187E+01  .177E+01
  .170E+01  .167E+01  .165E+01  .167E+01  .169E+01  .169E+01  .170E+01  .172E+01
  .173E+01  .171E+01  .168E+01  .166E+01  .165E+01  .167E+01  .168E+01  .169E+01
  .000E+00  .000E+00  .000E+00  .000E+00  .000E+00  .000E+00  .000E+00  .000E+00
  .000E+00  .000E+00  .000E+00  .000E+00  .000E+00  .000E+00  .000E+00  .000E+00
  .000E+00  .000E+00  .000E+00  .000E+00
  .152E+00  .160E+00  .162E+00  .162E+00  .161E+00  .157E+00  .171E+00  .181E+00
  .179E+00  .182E+00  .183E+00  .203E+00  .173E+00  .181E+00  .203E+00  .226E+00
  .199E+00  .166E+00  .165E+00  .187E+00  .181E+00  .226E+00  .227E+00  .216E+00
  .200E+00  .199E+00  .290E+00  .476E+00  .566E+00  .492E+00  .419E+00  .319E+00
  .262E+00  .214E+00  .178E+00  .156E+00  .131E+00  .119E+00  .116E+00  .971E-01
  .870E-01  .709E-01  .657E-01  .792E-01  .930E-01  .817E-01  .586E-01  .463E-01
  .352E-01  .281E-01  .269E-01  .156E-01  .140E-01  .132E-01  .171E-01  .194E-01
  .197E-01  .115E-01  .731E-02  .816E-02  .893E-02  .494E-02  .632E-02  .524E-02
  .456E-02  .359E-02  .261E-02  .247E-02  .227E-02  .187E-02  .180E-02  .152E-02
  .131E-02  .103E-02  .825E-03  .736E-03  .610E-03  .547E-03  .464E-03  .396E-03
  .000E+00  .000E+00  .000E+00  .000E+00  .000E+00  .000E+00  .000E+00  .000E+00
  .000E+00  .000E+00  .000E+00  .000E+00  .000E+00  .000E+00  .000E+00  .000E+00
  .000E+00  .000E+00  .000E+00  .000E+00
  .374E+00  .412E+00  .437E+00  .458E+00  .476E+00  .485E+00  .579E+00  .666E+00
  .717E+00  .787E+00  .842E+00  .996E+00  .903E+00  .100E+01  .118E+01  .139E+01
  .136E+01  .122E+01  .133E+01  .161E+01  .166E+01  .223E+01  .238E+01  .239E+01
  .233E+01  .244E+01  .393E+01  .700E+01  .900E+01  .847E+01  .773E+01  .627E+01
  .545E+01  .472E+01  .416E+01  .381E+01  .337E+01  .322E+01  .327E+01  .286E+01
  .267E+01  .239E+01  .242E+01  .316E+01  .399E+01  .376E+01  .288E+01  .241E+01
  .195E+01  .164E+01  .165E+01  .105E+01  .103E+01  .106E+01  .147E+01  .178E+01
  .193E+01  .120E+01  .808E+00  .952E+00  .110E+01  .668E+00  .931E+00  .835E+00
  .783E+00  .660E+00  .511E+00  .513E+00  .501E+00  .435E+00  .442E+00  .391E+00
  .354E+00  .290E+00  .242E+00  .225E+00  .203E+00  .196E+00  .179E+00  .165E+00
  .000E+00  .000E+00  .000E+00  .000E+00  .000E+00  .000E+00  .000E+00  .000E+00
  .000E+00  .000E+00  .000E+00  .000E+00  .000E+00  .000E+00  .000E+00  .000E+00
  .000E+00  .000E+00  .000E+00  .000E+00
  .217E+02  .217E+02  .217E+02  .217E+02  .217E+02  .217E+02  .217E+02  .219E+02
  .219E+02  .219E+02  .217E+02  .217E+02  .217E+02  .217E+02  .219E+02  .219E+02
  .219E+02  .220E+02  .220E+02  .220E+02  .217E+02  .217E+02  .217E+02  .218E+02
  .218E+02  .218E+02  .219E+02  .223E+02  .223E+02  .222E+02  .221E+02  .221E+02
  .220E+02  .218E+02  .217E+02  .217E+02  .217E+02  .217E+02  .217E+02  .217E+02
  .216E+02  .216E+02  .229E+02  .229E+02  .244E+02  .242E+02  .239E+02  .236E+02
  .225E+02  .225E+02  .274E+02  .226E+02  .266E+02  .578E+02  .521E+02  .432E+02
  .427E+02  .390E+02  .353E+02  .397E+02  .390E+02  .323E+02  .597E+02  .483E+02
  .384E+02  .376E+02  .294E+02  .295E+02  .296E+02  .299E+02  .422E+02  .285E+02
  .286E+02  .287E+02  .384E+02  .287E+02  .267E+02  .274E+02  .274E+02  .253E+02
  .000E+00  .000E+00  .000E+00  .000E+00  .000E+00  .000E+00  .000E+00  .000E+00
  .000E+00  .000E+00  .000E+00  .000E+00  .000E+00  .000E+00  .000E+00  .000E+00
  .000E+00  .000E+00  .000E+00  .000E+00
  .217E+02  .217E+02  .217E+02  .217E+02  .219E+02  .219E+02  .218E+02  .218E+02
  .219E+02  .219E+02  .219E+02  .217E+02  .217E+02  .217E+02  .217E+02  .220E+02
  .219E+02  .219E+02  .219E+02  .219E+02  .218E+02  .218E+02  .218E+02  .218E+02
  .218E+02  .218E+02  .219E+02  .224E+02  .224E+02  .221E+02  .222E+02  .220E+02
  .219E+02  .218E+02  .218E+02  .216E+02  .216E+02  .216E+02  .216E+02  .216E+02
  .216E+02  .217E+02  .220E+02  .231E+02  .246E+02  .240E+02  .238E+02  .226E+02
  .219E+02  .219E+02  .215E+02  .219E+02  .215E+02  .215E+02  .215E+02  .215E+02
  .215E+02  .215E+02  .215E+02  .215E+02  .215E+02  .215E+02  .215E+02  .215E+02
  .215E+02  .215E+02  .215E+02  .215E+02  .215E+02  .215E+02  .215E+02  .215E+02
  .215E+02  .215E+02  .215E+02  .215E+02  .215E+02  .215E+02  .215E+02  .215E+02
  .000E+00  .000E+00  .000E+00  .000E+00  .000E+00  .000E+00  .000E+00  .000E+00
  .000E+00  .000E+00  .000E+00  .000E+00  .000E+00  .000E+00  .000E+00  .000E+00
  .000E+00  .000E+00  .000E+00  .000E+00
  .217E+02  .217E+02  .217E+02  .217E+02  .217E+02  .217E+02  .217E+02  .219E+02
  .219E+02  .219E+02  .217E+02  .217E+02  .217E+02  .217E+02  .219E+02  .219E+02
  .219E+02  .220E+02  .220E+02  .220E+02  .217E+02  .217E+02  .217E+02  .218E+02
  .218E+02  .218E+02  .219E+02  .223E+02  .223E+02  .222E+02  .221E+02  .221E+02
