Response and Fourier amplitude spectra (80 periods,  .04 -  7.0 sec)   for      
Corrected accelerogram   23631-E0781-08212.02       Chan  1:  Tran       from   
Uncorrected Accelerogram Data             Processed: 02/09/09, CGS  CE23631     
Record of Tue Jul 29, 2008 11:42:08.9 PDT             (Avol1 v8.5,11/08 CSMIP)  
CSMIP Preliminary Processing            (Origin:  To be determined)             
23631-E0781-08212.02                 Start time:  7/29/08, 18:42: 8.9 UTC (WWVB)
Station No. 23631   34.064N, 117.296W     SSA-1  s/n  781  (4 Chns of 36 at Sta)
San Bernardino - I10/215 Interchange Br   CGS                                   
Chan  1:  Tran    (Sta Chn: 25)     Location: Hinge Near Bent 10: W. Side       
Record of Tue Jul 29, 2008 11:42:08.9 PDT    Tue Jul 29, 2008 11:42:08.9 PDT    
Hypocenter:  To be determined.               ML:  To be determined.             
Instr Period =  .0185 sec,  Damping =  .670,  Sensitivity = 1.25  v/g           
                        Record length = 78.080 sec.                             
                                     Uncor Max  =  -.087 g , at  21.860 sec.    
RMS accel of (uncor) record  =        .   Chn. metadata effective date: 01/10/92
Accelerogram bandpass filtered with 3 dB pts at   .14 and 40.00 cyc/sec         
                 instrument- and baseline-corrected                             
                                                                                
                                                                                
                                                                                
                                                                                
                                                                                
Record of Tue Jul 29, 2008 11:42:08.9 PDT    Tue Jul 29, 2008 11:42:08.9 PDT    
                                                                                
23631-E0781-08212.02      San Bernardino - I10/215 Interchange Br   Chan  1:  Tr
an                                                                              
23631-E0781-08212.02      San Bernardino - I10/215 Interchange Br   Chan  1:  Tr
an                                                                              
Units for spectra are inches and sec, except Sa is in fraction of g.            
                                                                                
    1  100   25    4   36  200    1    3    1   12    5  781    023631    3    0
   18   42    8  935  211    7   29 2008   10    1  90015616   41   39   76   -1
15616    0  100    3 2117    1    2   61    2   18   42   36  670    7   29 2008
    0    2    0    0 7808    2  222    1   12    4   76   39    3    1    0 7808
    3 7808   40   80    5    4    5    0    0    0   36    0    0    3    0    2
    2    2    4    0   66   99    1   32   32    0    0    1    0    0    8  222
    1    0    0    0
      .019      .670    78.080      .010      .000  1247.000     -.087    21.860
    54.000  1220.703   978.912      .000     5.000      .000      .000      .000
     2.500    22.839     2.500  -999.000    15.360    30.000      .000     -.003
     -.078     -.075     2.000    15.000    34.064  -117.296     1.072     3.621
     3.379     -.294      .145   297.000      .000      .000      .000      .000
     1.000     1.197     7.000      .000      .000      .000      .000      .000
     6.800     8.500     5.200   980.665      .010    78.080     8.594      .000
      .000    40.000      .000    78.080      .010      .143      .000      .000
    21.860   -82.582    24.530     6.251    25.120     -.930     -.001      .143
    40.000      .010      .010      .003     4.060      .502      .000      .000
      .285      .700      .212      .195      .088      .005      .000      .000
      .000      .000      .000      .000      .000      .000      .000      .000
      .000      .000      .000      .000
      .000      .020      .050      .100      .200
      .040      .042      .044      .046      .048      .050      .055      .060
      .065      .070      .075      .080      .085      .090      .095      .100
      .110      .120      .130      .140      .150      .160      .170      .180
      .190      .200      .220      .240      .260      .280      .300      .320
      .340      .360      .380      .400      .420      .440      .460      .480
      .500      .550      .600      .650      .700      .750      .800      .850
      .900      .950     1.000     1.100     1.200     1.300     1.400     1.500
     1.600     1.700     1.800     1.900     2.000     2.200     2.400     2.600
     2.800     3.000     3.200     3.400     3.600     3.800     4.000     4.200
     4.400     4.600     4.800     5.000     5.500     6.000     6.500     7.000
      .000      .000      .000      .000      .000      .000      .000      .000
      .000      .000      .000      .000      .000      .000      .000      .000
      .000      .000      .000      .000
Fourier amplitude spectra in in/sec.
  .228E+00  .187E+00  .186E+00  .209E+00  .421E+00  .774E-01  .539E+00  .132E+01
  .640E+00  .819E+00  .410E+00  .124E+01  .685E+00  .273E+01  .175E+01  .250E+01
  .234E+01  .106E+01  .173E+01  .138E+01  .187E+01  .445E+01  .190E+01  .306E+01
  .213E+01  .520E+01  .893E+01  .130E+02  .464E+01  .653E+01  .115E+01  .132E+01
  .119E+02  .788E+01  .936E+01  .297E+01  .283E+01  .283E+01  .834E+01  .116E+02
  .312E+01  .566E+01  .288E+01  .195E+02  .280E+02  .337E+02  .241E+02  .203E+02
  .110E+02  .253E+02  .152E+02  .163E+02  .955E+01  .637E+01  .350E+01  .432E+01
  .291E+01  .412E+01  .358E+01  .751E+00  .227E+01  .232E+01  .898E+00  .118E+01
  .127E+01  .647E+00  .127E+01  .367E+00  .737E+00  .576E+00  .501E+00  .625E+00
  .468E+00  .363E+00  .268E+00  .185E+00  .865E-01  .294E-01  .173E-01  .804E-01
  .000E+00  .000E+00  .000E+00  .000E+00  .000E+00  .000E+00  .000E+00  .000E+00
  .000E+00  .000E+00  .000E+00  .000E+00  .000E+00  .000E+00  .000E+00  .000E+00
  .000E+00  .000E+00  .000E+00  .000E+00
Damping =  .00. Data of Sd,Sv,Sa,Pssv,ttSd,ttSv,ttSa :
  .264E-02  .232E-02  .469E-02  .364E-02  .442E-02  .472E-02  .791E-02  .163E-01
  .127E-01  .125E-01  .831E-02  .161E-01  .163E-01  .506E-01  .465E-01  .498E-01
  .678E-01  .456E-01  .461E-01  .644E-01  .727E-01  .121E+00  .665E-01  .154E+00
  .101E+00  .190E+00  .380E+00  .508E+00  .273E+00  .319E+00  .236E+00  .283E+00
  .714E+00  .538E+00  .651E+00  .449E+00  .333E+00  .469E+00  .715E+00  .102E+01
  .809E+00  .723E+00  .105E+01  .232E+01  .321E+01  .462E+01  .318E+01  .334E+01
  .245E+01  .404E+01  .260E+01  .303E+01  .236E+01  .161E+01  .163E+01  .146E+01
  .118E+01  .149E+01  .109E+01  .656E+00  .972E+00  .819E+00  .449E+00  .616E+00
  .744E+00  .612E+00  .734E+00  .604E+00  .548E+00  .449E+00  .485E+00  .576E+00
  .510E+00  .543E+00  .568E+00  .573E+00  .512E+00  .460E+00  .456E+00  .451E+00
  .000E+00  .000E+00  .000E+00  .000E+00  .000E+00  .000E+00  .000E+00  .000E+00
  .000E+00  .000E+00  .000E+00  .000E+00  .000E+00  .000E+00  .000E+00  .000E+00
  .000E+00  .000E+00  .000E+00  .000E+00
  .285E+00  .255E+00  .514E+00  .375E+00  .444E+00  .377E+00  .811E+00  .157E+01
  .122E+01  .942E+00  .515E+00  .126E+01  .971E+00  .339E+01  .292E+01  .291E+01
  .368E+01  .213E+01  .218E+01  .261E+01  .261E+01  .470E+01  .233E+01  .517E+01
  .301E+01  .572E+01  .103E+02  .133E+02  .642E+01  .685E+01  .472E+01  .518E+01
  .130E+02  .912E+01  .105E+02  .670E+01  .503E+01  .640E+01  .923E+01  .132E+02
  .961E+01  .770E+01  .971E+01  .222E+02  .286E+02  .385E+02  .249E+02  .245E+02
  .171E+02  .269E+02  .165E+02  .173E+02  .127E+02  .814E+01  .732E+01  .612E+01
  .493E+01  .574E+01  .404E+01  .312E+01  .305E+01  .344E+01  .295E+01  .306E+01
  .304E+01  .299E+01  .290E+01  .287E+01  .282E+01  .278E+01  .273E+01  .265E+01
  .259E+01  .253E+01  .245E+01  .246E+01  .253E+01  .250E+01  .249E+01  .249E+01
  .000E+00  .000E+00  .000E+00  .000E+00  .000E+00  .000E+00  .000E+00  .000E+00
  .000E+00  .000E+00  .000E+00  .000E+00  .000E+00  .000E+00  .000E+00  .000E+00
  .000E+00  .000E+00  .000E+00  .000E+00
  .169E+00  .134E+00  .248E+00  .176E+00  .196E+00  .193E+00  .267E+00  .463E+00
  .307E+00  .262E+00  .151E+00  .257E+00  .230E+00  .639E+00  .527E+00  .509E+00
  .573E+00  .324E+00  .279E+00  .336E+00  .331E+00  .485E+00  .235E+00  .485E+00
  .287E+00  .486E+00  .802E+00  .902E+00  .413E+00  .416E+00  .268E+00  .283E+00
  .631E+00  .425E+00  .461E+00  .287E+00  .193E+00  .248E+00  .345E+00  .452E+00
  .331E+00  .245E+00  .298E+00  .561E+00  .669E+00  .840E+00  .509E+00  .473E+00
  .310E+00  .458E+00  .266E+00  .256E+00  .167E+00  .976E-01  .849E-01  .664E-01
  .473E-01  .527E-01  .344E-01  .186E-01  .248E-01  .173E-01  .797E-02  .932E-02
  .970E-02  .696E-02  .733E-02  .534E-02  .433E-02  .318E-02  .310E-02  .334E-02
  .269E-02  .263E-02  .252E-02  .234E-02  .173E-02  .131E-02  .110E-02  .941E-03
  .000E+00  .000E+00  .000E+00  .000E+00  .000E+00  .000E+00  .000E+00  .000E+00
  .000E+00  .000E+00  .000E+00  .000E+00  .000E+00  .000E+00  .000E+00  .000E+00
  .000E+00  .000E+00  .000E+00  .000E+00
  .415E+00  .346E+00  .670E+00  .497E+00  .578E+00  .593E+00  .904E+00  .171E+01
  .123E+01  .112E+01  .696E+00  .126E+01  .120E+01  .353E+01  .308E+01  .313E+01
  .387E+01  .239E+01  .223E+01  .289E+01  .305E+01  .477E+01  .246E+01  .536E+01
  .335E+01  .597E+01  .108E+02  .133E+02  .659E+01  .715E+01  .494E+01  .556E+01
  .132E+02  .940E+01  .108E+02  .705E+01  .499E+01  .670E+01  .976E+01  .133E+02
  .102E+02  .826E+01  .110E+02  .224E+02  .288E+02  .387E+02  .250E+02  .247E+02
  .171E+02  .268E+02  .163E+02  .173E+02  .123E+02  .780E+01  .730E+01  .612E+01
  .465E+01  .550E+01  .381E+01  .217E+01  .305E+01  .234E+01  .118E+01  .149E+01
  .167E+01  .128E+01  .144E+01  .112E+01  .957E+00  .742E+00  .761E+00  .861E+00
  .728E+00  .742E+00  .744E+00  .720E+00  .585E+00  .482E+00  .440E+00  .404E+00
  .000E+00  .000E+00  .000E+00  .000E+00  .000E+00  .000E+00  .000E+00  .000E+00
  .000E+00  .000E+00  .000E+00  .000E+00  .000E+00  .000E+00  .000E+00  .000E+00
  .000E+00  .000E+00  .000E+00  .000E+00
  .246E+02  .219E+02  .231E+02  .223E+02  .231E+02  .218E+02  .220E+02  .239E+02
  .618E+02  .220E+02  .231E+02  .758E+02  .246E+02  .271E+02  .223E+02  .256E+02
  .274E+02  .232E+02  .285E+02  .230E+02  .239E+02  .445E+02  .246E+02  .278E+02
  .242E+02  .259E+02  .246E+02  .633E+02  .240E+02  .251E+02  .224E+02  .244E+02
  .339E+02  .234E+02  .295E+02  .255E+02  .222E+02  .255E+02  .248E+02  .429E+02
  .255E+02  .247E+02  .247E+02  .502E+02  .358E+02  .396E+02  .434E+02  .396E+02
  .649E+02  .719E+02  .719E+02  .678E+02  .428E+02  .407E+02  .603E+02  .690E+02
  .402E+02  .542E+02  .746E+02  .615E+02  .711E+02  .754E+02  .332E+02  .739E+02
  .701E+02  .299E+02  .702E+02  .391E+02  .620E+02  .262E+02  .263E+02  .390E+02
  .391E+02  .251E+02  .251E+02  .251E+02  .251E+02  .251E+02  .251E+02  .251E+02
  .000E+00  .000E+00  .000E+00  .000E+00  .000E+00  .000E+00  .000E+00  .000E+00
  .000E+00  .000E+00  .000E+00  .000E+00  .000E+00  .000E+00  .000E+00  .000E+00
  .000E+00  .000E+00  .000E+00  .000E+00
  .249E+02  .203E+02  .235E+02  .222E+02  .749E+02  .218E+02  .176E+02  .240E+02
  .619E+02  .221E+02  .236E+02  .758E+02  .238E+02  .282E+02  .223E+02  .256E+02
  .272E+02  .232E+02  .287E+02  .230E+02  .239E+02  .567E+02  .265E+02  .277E+02
  .242E+02  .260E+02  .245E+02  .629E+02  .241E+02  .265E+02  .223E+02  .243E+02
  .338E+02  .240E+02  .296E+02  .254E+02  .221E+02  .254E+02  .389E+02  .427E+02
  .241E+02  .224E+02  .249E+02  .503E+02  .356E+02  .394E+02  .436E+02  .394E+02
  .651E+02  .722E+02  .717E+02  .736E+02  .431E+02  .455E+02  .607E+02  .717E+02
  .438E+02  .538E+02  .742E+02  .249E+02  .707E+02  .388E+02  .249E+02  .245E+02
  .245E+02  .245E+02  .245E+02  .245E+02  .245E+02  .245E+02  .245E+02  .245E+02
  .253E+02  .253E+02  .253E+02  .249E+02  .249E+02  .249E+02  .249E+02  .249E+02
  .000E+00  .000E+00  .000E+00  .000E+00  .000E+00  .000E+00  .000E+00  .000E+00
  .000E+00  .000E+00  .000E+00  .000E+00  .000E+00  .000E+00  .000E+00  .000E+00
  .000E+00  .000E+00  .000E+00  .000E+00
  .246E+02  .219E+02  .231E+02  .223E+02  .231E+02  .218E+02  .220E+02  .239E+02
  .618E+02  .220E+02  .231E+02  .758E+02  .246E+02  .271E+02  .223E+02  .256E+02
  .274E+02  .232E+02  .285E+02  .230E+02  .239E+02  .445E+02  .246E+02  .278E+02
  .242E+02  .259E+02  .246E+02  .633E+02  .240E+02  .251E+02  .224E+02  .244E+02
  .339E+02  .234E+02  .295E+02  .255E+02  .222E+02  .255E+02  .248E+02  .429E+02
  .255E+02  .247E+02  .247E+02  .502E+02  .358E+02  .396E+02  .434E+02  .396E+02
  .649E+02  .719E+02  .719E+02  .678E+02  .428E+02  .407E+02  .603E+02  .690E+02
  .402E+02  .542E+02  .746E+02  .615E+02  .711E+02  .754E+02  .332E+02  .739E+02
  .701E+02  .299E+02  .702E+02  .391E+02  .620E+02  .262E+02  .263E+02  .390E+02
  .391E+02  .251E+02  .251E+02  .251E+02  .251E+02  .251E+02  .251E+02  .251E+02
  .000E+00  .000E+00  .000E+00  .000E+00  .000E+00  .000E+00  .000E+00  .000E+00
  .000E+00  .000E+00  .000E+00  .000E+00  .000E+00  .000E+00  .000E+00  .000E+00
  .000E+00  .000E+00  .000E+00  .000E+00
Damping =  .02. Data of Sd,Sv,Sa,Pssv,ttSd,ttSv,ttSa :
  .182E-02  .217E-02  .218E-02  .242E-02  .257E-02  .271E-02  .388E-02  .742E-02
  .825E-02  .860E-02  .719E-02  .103E-01  .131E-01  .208E-01  .192E-01  .197E-01
  .313E-01  .277E-01  .257E-01  .358E-01  .385E-01  .429E-01  .490E-01  .696E-01
  .740E-01  .115E+00  .209E+00  .222E+00  .177E+00  .222E+00  .206E+00  .210E+00
  .381E+00  .400E+00  .353E+00  .327E+00  .320E+00  .342E+00  .501E+00  .563E+00
  .590E+00  .473E+00  .804E+00  .138E+01  .195E+01  .253E+01  .188E+01  .144E+01
  .135E+01  .136E+01  .118E+01  .121E+01  .127E+01  .105E+01  .858E+00  .732E+00
  .797E+00  .914E+00  .682E+00  .466E+00  .544E+00  .620E+00  .430E+00  .512E+00
  .526E+00  .541E+00  .451E+00  .473E+00  .451E+00  .425E+00  .453E+00  .459E+00
  .484E+00  .520E+00  .542E+00  .547E+00  .505E+00  .462E+00  .453E+00  .446E+00
  .000E+00  .000E+00  .000E+00  .000E+00  .000E+00  .000E+00  .000E+00  .000E+00
  .000E+00  .000E+00  .000E+00  .000E+00  .000E+00  .000E+00  .000E+00  .000E+00
  .000E+00  .000E+00  .000E+00  .000E+00
  .140E+00  .173E+00  .198E+00  .244E+00  .253E+00  .251E+00  .292E+00  .553E+00
  .606E+00  .549E+00  .488E+00  .679E+00  .757E+00  .128E+01  .101E+01  .106E+01
  .158E+01  .123E+01  .119E+01  .151E+01  .117E+01  .146E+01  .168E+01  .221E+01
  .215E+01  .329E+01  .567E+01  .555E+01  .381E+01  .433E+01  .420E+01  .439E+01
  .610E+01  .654E+01  .509E+01  .504E+01  .497E+01  .523E+01  .600E+01  .685E+01
  .693E+01  .533E+01  .694E+01  .123E+02  .178E+02  .210E+02  .153E+02  .108E+02
  .105E+02  .984E+01  .759E+01  .721E+01  .710E+01  .608E+01  .485E+01  .363E+01
  .372E+01  .404E+01  .333E+01  .312E+01  .299E+01  .299E+01  .290E+01  .298E+01
  .300E+01  .295E+01  .289E+01  .285E+01  .280E+01  .276E+01  .271E+01  .265E+01
  .257E+01  .251E+01  .245E+01  .244E+01  .250E+01  .249E+01  .248E+01  .248E+01
  .000E+00  .000E+00  .000E+00  .000E+00  .000E+00  .000E+00  .000E+00  .000E+00
  .000E+00  .000E+00  .000E+00  .000E+00  .000E+00  .000E+00  .000E+00  .000E+00
  .000E+00  .000E+00  .000E+00  .000E+00
  .117E+00  .126E+00  .115E+00  .118E+00  .114E+00  .111E+00  .131E+00  .211E+00
  .201E+00  .180E+00  .131E+00  .166E+00  .185E+00  .261E+00  .218E+00  .200E+00
  .264E+00  .196E+00  .155E+00  .188E+00  .176E+00  .171E+00  .174E+00  .221E+00
  .209E+00  .296E+00  .444E+00  .394E+00  .268E+00  .291E+00  .234E+00  .210E+00
  .338E+00  .316E+00  .250E+00  .209E+00  .186E+00  .180E+00  .243E+00  .251E+00
  .241E+00  .160E+00  .229E+00  .333E+00  .407E+00  .461E+00  .300E+00  .204E+00
  .171E+00  .154E+00  .121E+00  .103E+00  .905E-01  .635E-01  .448E-01  .333E-01
  .319E-01  .324E-01  .216E-01  .132E-01  .140E-01  .131E-01  .768E-02  .778E-02
  .688E-02  .616E-02  .452E-02  .421E-02  .359E-02  .303E-02  .292E-02  .269E-02
  .260E-02  .256E-02  .245E-02  .228E-02  .175E-02  .136E-02  .114E-02  .974E-03
  .000E+00  .000E+00  .000E+00  .000E+00  .000E+00  .000E+00  .000E+00  .000E+00
  .000E+00  .000E+00  .000E+00  .000E+00  .000E+00  .000E+00  .000E+00  .000E+00
  .000E+00  .000E+00  .000E+00  .000E+00
  .286E+00  .324E+00  .312E+00  .331E+00  .336E+00  .341E+00  .443E+00  .777E+00
  .797E+00  .772E+00  .603E+00  .810E+00  .966E+00  .145E+01  .127E+01  .124E+01
  .179E+01  .145E+01  .124E+01  .160E+01  .161E+01  .169E+01  .181E+01  .243E+01
  .245E+01  .362E+01  .597E+01  .582E+01  .428E+01  .499E+01  .431E+01  .413E+01
  .703E+01  .698E+01  .583E+01  .513E+01  .479E+01  .488E+01  .685E+01  .737E+01
  .742E+01  .540E+01  .842E+01  .133E+02  .175E+02  .212E+02  .148E+02  .106E+02
  .944E+01  .899E+01  .740E+01  .693E+01  .667E+01  .507E+01  .385E+01  .307E+01
  .313E+01  .338E+01  .238E+01  .154E+01  .171E+01  .177E+01  .113E+01  .124E+01
  .118E+01  .113E+01  .886E+00  .874E+00  .787E+00  .702E+00  .712E+00  .687E+00
  .692E+00  .711E+00  .709E+00  .688E+00  .577E+00  .484E+00  .438E+00  .401E+00
  .000E+00  .000E+00  .000E+00  .000E+00  .000E+00  .000E+00  .000E+00  .000E+00
  .000E+00  .000E+00  .000E+00  .000E+00  .000E+00  .000E+00  .000E+00  .000E+00
  .000E+00  .000E+00  .000E+00  .000E+00
  .219E+02  .219E+02  .219E+02  .219E+02  .231E+02  .231E+02  .220E+02  .220E+02
  .220E+02  .220E+02  .224E+02  .224E+02  .226E+02  .226E+02  .220E+02  .235E+02
  .234E+02  .232E+02  .220E+02  .230E+02  .239E+02  .239E+02  .223E+02  .242E+02
  .243E+02  .232E+02  .246E+02  .247E+02  .233E+02  .233E+02  .224E+02  .224E+02
  .233E+02  .234E+02  .236E+02  .221E+02  .222E+02  .222E+02  .236E+02  .236E+02
  .240E+02  .220E+02  .247E+02  .251E+02  .259E+02  .276E+02  .277E+02  .341E+02
  .266E+02  .259E+02  .409E+02  .453E+02  .405E+02  .275E+02  .271E+02  .396E+02
  .402E+02  .390E+02  .390E+02  .390E+02  .390E+02  .391E+02  .246E+02  .390E+02
  .299E+02  .299E+02  .290E+02  .291E+02  .275E+02  .262E+02  .263E+02  .263E+02
  .251E+02  .251E+02  .251E+02  .251E+02  .251E+02  .251E+02  .251E+02  .251E+02
  .000E+00  .000E+00  .000E+00  .000E+00  .000E+00  .000E+00  .000E+00  .000E+00
  .000E+00  .000E+00  .000E+00  .000E+00  .000E+00  .000E+00  .000E+00  .000E+00
  .000E+00  .000E+00  .000E+00  .000E+00
  .219E+02  .220E+02  .220E+02  .220E+02  .220E+02  .220E+02  .220E+02  .220E+02
  .224E+02  .220E+02  .224E+02  .225E+02  .226E+02  .226E+02  .222E+02  .240E+02
  .234E+02  .232E+02  .225E+02  .225E+02  .222E+02  .222E+02  .222E+02  .242E+02
  .242E+02  .232E+02  .242E+02  .250E+02  .233E+02  .234E+02  .223E+02  .223E+02
  .234E+02  .233E+02  .235E+02  .221E+02  .221E+02  .221E+02  .237E+02  .235E+02
  .241E+02  .221E+02  .249E+02  .246E+02  .261E+02  .278E+02  .275E+02  .275E+02
  .260E+02  .256E+02  .411E+02  .451E+02  .408E+02  .253E+02  .253E+02  .249E+02
  .399E+02  .393E+02  .249E+02  .249E+02  .249E+02  .249E+02  .249E+02  .245E+02
  .245E+02  .245E+02  .245E+02  .245E+02  .245E+02  .245E+02  .245E+02  .245E+02
  .245E+02  .253E+02  .245E+02  .249E+02  .249E+02  .249E+02  .249E+02  .249E+02
  .000E+00  .000E+00  .000E+00  .000E+00  .000E+00  .000E+00  .000E+00  .000E+00
  .000E+00  .000E+00  .000E+00  .000E+00  .000E+00  .000E+00  .000E+00  .000E+00
  .000E+00  .000E+00  .000E+00  .000E+00
  .219E+02  .219E+02  .219E+02  .219E+02  .231E+02  .231E+02  .220E+02  .220E+02
  .220E+02  .220E+02  .224E+02  .224E+02  .226E+02  .226E+02  .220E+02  .235E+02
  .234E+02  .232E+02  .220E+02  .230E+02  .239E+02  .239E+02  .223E+02  .242E+02
  .243E+02  .232E+02  .246E+02  .247E+02  .233E+02  .233E+02  .224E+02  .224E+02
