Response and Fourier amplitude spectra (80 periods,  .04 -  7.0 sec)   for      
Corrected accelerogram   23631-E0780-08212.02       Chan  3:  Up         from   
Uncorrected Accelerogram Data             Processed: 02/09/09, CGS  CE23631     
Record of Tue Jul 29, 2008 11:42:08.9 PDT             (Avol1 v8.5,11/08 CSMIP)  
CSMIP Preliminary Processing            (Origin:  To be determined)             
23631-E0780-08212.02                 Start time:  7/29/08, 18:42: 8.9 UTC (WWVB)
Station No. 23631   34.064N, 117.296W     SSA-1  s/n  780  (4 Chns of 36 at Sta)
San Bernardino - I10/215 Interchange Br   CGS                                   
Chan  3:  Up      (Sta Chn: 23)     Location: Bent 8: Footing, S. Edge          
Record of Tue Jul 29, 2008 11:42:08.9 PDT    Tue Jul 29, 2008 11:42:08.9 PDT    
Hypocenter:  To be determined.               ML:  To be determined.             
Instr Period =  .0190 sec,  Damping =  .660,  Sensitivity = 1.25  v/g           
                        Record length = 78.080 sec.                             
                                     Uncor Max  =  -.026 g , at  21.840 sec.    
RMS accel of (uncor) record  =        .   Chn. metadata effective date: 01/10/92
Accelerogram bandpass filtered with 3 dB pts at   .14 and 40.00 cyc/sec         
                 instrument- and baseline-corrected                             
                                                                                
                                                                                
                                                                                
                                                                                
                                                                                
Record of Tue Jul 29, 2008 11:42:08.9 PDT    Tue Jul 29, 2008 11:42:08.9 PDT    
                                                                                
23631-E0780-08212.02      San Bernardino - I10/215 Interchange Br   Chan  3:  Up
                                                                                
23631-E0780-08212.02      San Bernardino - I10/215 Interchange Br   Chan  3:  Up
                                                                                
Units for spectra are inches and sec, except Sa is in fraction of g.            
                                                                                
    3  100   23    4   36  200    1    3    1   12    5  780    023631    3    0
   18   42    8  935  211    7   29 2008   10    1  50015616   41   39   76   -1
15616    0  100    3 2117    1    2   61    2   18   42   37  120    7   28 2008
    0    2    0    0 7808    2  222    1   12    4   76   39    3    1    0 7808
    3 7808   40   80    5    4    5    0    1    0   36    0    0    3    0    2
    2    2    4    0   66   99    1   32   32    0    0    1    0    0    8  222
    1    0    0    0
      .019      .660    78.080      .003      .000  1245.000     -.026    21.840
    52.600  1220.703   980.484      .000     5.000      .000      .000      .000
     2.500    55.684     2.500  -999.000    15.360    30.000      .000     -.017
     -.016      .001     2.000    15.000    34.064  -117.296      .427      .610
     1.429     -.061      .063   297.000      .000      .000      .000      .000
     1.000    -5.809     7.000      .000      .000      .000      .000      .000
     6.800     8.500     5.200   980.665      .010    78.080     8.372      .000
      .000    40.000      .000    78.080      .010      .143      .000      .000
    15.940   -24.644    21.910    -1.102    30.630      .170     -.003      .143
    40.000      .010      .010     -.007      .010      .094      .000      .000
      .142      .170      .079      .052      .012      .002      .000      .000
      .000      .000      .000      .000      .000      .000      .000      .000
      .000      .000      .000      .000
      .000      .020      .050      .100      .200
      .040      .042      .044      .046      .048      .050      .055      .060
      .065      .070      .075      .080      .085      .090      .095      .100
      .110      .120      .130      .140      .150      .160      .170      .180
      .190      .200      .220      .240      .260      .280      .300      .320
      .340      .360      .380      .400      .420      .440      .460      .480
      .500      .550      .600      .650      .700      .750      .800      .850
      .900      .950     1.000     1.100     1.200     1.300     1.400     1.500
     1.600     1.700     1.800     1.900     2.000     2.200     2.400     2.600
     2.800     3.000     3.200     3.400     3.600     3.800     4.000     4.200
     4.400     4.600     4.800     5.000     5.500     6.000     6.500     7.000
      .000      .000      .000      .000      .000      .000      .000      .000
      .000      .000      .000      .000      .000      .000      .000      .000
      .000      .000      .000      .000
Fourier amplitude spectra in in/sec.
  .119E+00  .254E+00  .682E-01  .232E+00  .204E+00  .223E+00  .154E+00  .244E+00
  .354E+00  .336E+00  .422E+00  .677E+00  .149E+01  .409E+00  .387E+00  .285E+00
  .453E+00  .598E+00  .115E+01  .232E+01  .134E+01  .449E+01  .467E+01  .603E+00
  .170E+01  .345E+01  .378E+01  .705E+00  .267E+01  .152E+01  .900E+00  .129E+01
  .257E+01  .112E+01  .247E+01  .185E+01  .326E+01  .235E+01  .748E+00  .936E+00
  .229E+01  .226E+01  .521E+00  .207E+01  .251E+01  .301E+01  .182E+01  .694E+00
  .123E+01  .356E+01  .109E+01  .128E+01  .324E+00  .114E+01  .475E+00  .162E+01
  .113E+01  .452E+00  .182E+01  .175E+01  .993E+00  .173E+01  .196E+01  .470E+00
  .540E+00  .634E+00  .566E+00  .342E+00  .565E-01  .823E-01  .319E-01  .757E-01
  .372E-01  .716E-02  .545E-01  .933E-01  .722E-01  .990E-01  .636E-01  .464E-01
  .000E+00  .000E+00  .000E+00  .000E+00  .000E+00  .000E+00  .000E+00  .000E+00
  .000E+00  .000E+00  .000E+00  .000E+00  .000E+00  .000E+00  .000E+00  .000E+00
  .000E+00  .000E+00  .000E+00  .000E+00
Damping =  .00. Data of Sd,Sv,Sa,Pssv,ttSd,ttSv,ttSa :
  .108E-02  .185E-02  .116E-02  .227E-02  .168E-02  .200E-02  .257E-02  .328E-02
  .588E-02  .639E-02  .804E-02  .965E-02  .227E-01  .129E-01  .845E-02  .640E-02
  .124E-01  .215E-01  .461E-01  .545E-01  .396E-01  .118E+00  .149E+00  .958E-01
  .694E-01  .113E+00  .147E+00  .626E-01  .112E+00  .144E+00  .711E-01  .872E-01
  .170E+00  .121E+00  .180E+00  .130E+00  .250E+00  .187E+00  .116E+00  .151E+00
  .187E+00  .275E+00  .166E+00  .269E+00  .288E+00  .441E+00  .285E+00  .215E+00
  .272E+00  .545E+00  .221E+00  .300E+00  .240E+00  .239E+00  .238E+00  .479E+00
  .490E+00  .290E+00  .561E+00  .601E+00  .471E+00  .642E+00  .772E+00  .396E+00
  .319E+00  .346E+00  .326E+00  .206E+00  .132E+00  .124E+00  .143E+00  .114E+00
  .961E-01  .859E-01  .107E+00  .121E+00  .142E+00  .126E+00  .960E-01  .784E-01
  .000E+00  .000E+00  .000E+00  .000E+00  .000E+00  .000E+00  .000E+00  .000E+00
  .000E+00  .000E+00  .000E+00  .000E+00  .000E+00  .000E+00  .000E+00  .000E+00
  .000E+00  .000E+00  .000E+00  .000E+00
  .168E+00  .276E+00  .125E+00  .289E+00  .219E+00  .240E+00  .271E+00  .341E+00
  .539E+00  .539E+00  .664E+00  .757E+00  .163E+01  .887E+00  .536E+00  .380E+00
  .695E+00  .110E+01  .221E+01  .241E+01  .162E+01  .462E+01  .549E+01  .330E+01
  .216E+01  .353E+01  .421E+01  .164E+01  .272E+01  .320E+01  .146E+01  .169E+01
  .312E+01  .215E+01  .298E+01  .207E+01  .381E+01  .279E+01  .159E+01  .189E+01
  .233E+01  .314E+01  .180E+01  .256E+01  .256E+01  .366E+01  .221E+01  .158E+01
  .190E+01  .359E+01  .146E+01  .170E+01  .122E+01  .120E+01  .110E+01  .202E+01
  .194E+01  .116E+01  .196E+01  .205E+01  .152E+01  .187E+01  .220E+01  .113E+01
  .859E+00  .875E+00  .761E+00  .626E+00  .591E+00  .520E+00  .484E+00  .486E+00
  .470E+00  .464E+00  .463E+00  .448E+00  .475E+00  .512E+00  .494E+00  .468E+00
  .000E+00  .000E+00  .000E+00  .000E+00  .000E+00  .000E+00  .000E+00  .000E+00
  .000E+00  .000E+00  .000E+00  .000E+00  .000E+00  .000E+00  .000E+00  .000E+00
  .000E+00  .000E+00  .000E+00  .000E+00
  .692E-01  .107E+00  .611E-01  .110E+00  .748E-01  .820E-01  .870E-01  .932E-01
  .142E+00  .133E+00  .146E+00  .154E+00  .321E+00  .162E+00  .957E-01  .654E-01
  .105E+00  .153E+00  .279E+00  .284E+00  .180E+00  .471E+00  .526E+00  .302E+00
  .197E+00  .288E+00  .311E+00  .111E+00  .170E+00  .188E+00  .808E-01  .871E-01
  .151E+00  .956E-01  .128E+00  .833E-01  .145E+00  .989E-01  .562E-01  .672E-01
  .763E-01  .929E-01  .470E-01  .650E-01  .601E-01  .802E-01  .455E-01  .304E-01
  .343E-01  .618E-01  .226E-01  .253E-01  .170E-01  .145E-01  .124E-01  .218E-01
  .196E-01  .102E-01  .177E-01  .170E-01  .120E-01  .136E-01  .137E-01  .599E-02
  .417E-02  .394E-02  .326E-02  .182E-02  .104E-02  .881E-03  .915E-03  .660E-03
  .508E-03  .415E-03  .475E-03  .494E-03  .479E-03  .357E-03  .233E-03  .164E-03
  .000E+00  .000E+00  .000E+00  .000E+00  .000E+00  .000E+00  .000E+00  .000E+00
  .000E+00  .000E+00  .000E+00  .000E+00  .000E+00  .000E+00  .000E+00  .000E+00
  .000E+00  .000E+00  .000E+00  .000E+00
  .170E+00  .277E+00  .165E+00  .310E+00  .221E+00  .252E+00  .294E+00  .344E+00
  .568E+00  .573E+00  .674E+00  .758E+00  .168E+01  .898E+00  .559E+00  .402E+00
  .710E+00  .113E+01  .223E+01  .245E+01  .166E+01  .463E+01  .550E+01  .334E+01
  .230E+01  .354E+01  .421E+01  .164E+01  .271E+01  .323E+01  .149E+01  .171E+01
  .314E+01  .212E+01  .298E+01  .205E+01  .374E+01  .267E+01  .159E+01  .198E+01
  .234E+01  .314E+01  .173E+01  .260E+01  .258E+01  .370E+01  .224E+01  .159E+01
  .190E+01  .360E+01  .139E+01  .171E+01  .126E+01  .116E+01  .107E+01  .201E+01
  .193E+01  .107E+01  .196E+01  .199E+01  .148E+01  .183E+01  .202E+01  .956E+00
  .717E+00  .725E+00  .641E+00  .380E+00  .230E+00  .206E+00  .225E+00  .170E+00
  .137E+00  .117E+00  .140E+00  .152E+00  .162E+00  .131E+00  .928E-01  .704E-01
  .000E+00  .000E+00  .000E+00  .000E+00  .000E+00  .000E+00  .000E+00  .000E+00
  .000E+00  .000E+00  .000E+00  .000E+00  .000E+00  .000E+00  .000E+00  .000E+00
  .000E+00  .000E+00  .000E+00  .000E+00
  .607E+02  .626E+02  .153E+02  .242E+02  .747E+02  .745E+02  .218E+02  .611E+02
  .234E+02  .218E+02  .519E+02  .720E+02  .232E+02  .222E+02  .232E+02  .214E+02
  .219E+02  .306E+02  .215E+02  .328E+02  .271E+02  .443E+02  .273E+02  .183E+02
  .235E+02  .441E+02  .332E+02  .229E+02  .711E+02  .233E+02  .274E+02  .315E+02
  .274E+02  .245E+02  .291E+02  .422E+02  .305E+02  .278E+02  .309E+02  .239E+02
  .743E+02  .375E+02  .278E+02  .465E+02  .546E+02  .420E+02  .369E+02  .396E+02
  .484E+02  .743E+02  .457E+02  .314E+02  .471E+02  .384E+02  .313E+02  .673E+02
  .541E+02  .443E+02  .731E+02  .626E+02  .490E+02  .699E+02  .683E+02  .306E+02
  .286E+02  .458E+02  .682E+02  .572E+02  .458E+02  .304E+02  .306E+02  .458E+02
  .295E+02  .297E+02  .458E+02  .458E+02  .306E+02  .224E+02  .464E+02  .316E+02
  .000E+00  .000E+00  .000E+00  .000E+00  .000E+00  .000E+00  .000E+00  .000E+00
  .000E+00  .000E+00  .000E+00  .000E+00  .000E+00  .000E+00  .000E+00  .000E+00
  .000E+00  .000E+00  .000E+00  .000E+00
  .606E+02  .627E+02  .153E+02  .340E+02  .747E+02  .745E+02  .218E+02  .611E+02
  .234E+02  .218E+02  .520E+02  .659E+02  .232E+02  .221E+02  .241E+02  .261E+02
  .219E+02  .307E+02  .218E+02  .327E+02  .271E+02  .443E+02  .274E+02  .183E+02
  .282E+02  .438E+02  .332E+02  .229E+02  .710E+02  .234E+02  .275E+02  .327E+02
  .275E+02  .244E+02  .293E+02  .421E+02  .306E+02  .277E+02  .310E+02  .240E+02
  .742E+02  .390E+02  .277E+02  .467E+02  .548E+02  .422E+02  .367E+02  .394E+02
  .481E+02  .736E+02  .253E+02  .311E+02  .475E+02  .387E+02  .345E+02  .618E+02
  .545E+02  .439E+02  .735E+02  .440E+02  .486E+02  .694E+02  .461E+02  .299E+02
  .241E+02  .241E+02  .418E+02  .461E+02  .219E+02  .219E+02  .241E+02  .241E+02
  .241E+02  .241E+02  .241E+02  .241E+02  .219E+02  .219E+02  .219E+02  .219E+02
  .000E+00  .000E+00  .000E+00  .000E+00  .000E+00  .000E+00  .000E+00  .000E+00
  .000E+00  .000E+00  .000E+00  .000E+00  .000E+00  .000E+00  .000E+00  .000E+00
  .000E+00  .000E+00  .000E+00  .000E+00
  .607E+02  .626E+02  .153E+02  .242E+02  .747E+02  .745E+02  .218E+02  .611E+02
  .234E+02  .218E+02  .519E+02  .720E+02  .232E+02  .222E+02  .232E+02  .214E+02
  .219E+02  .306E+02  .215E+02  .328E+02  .271E+02  .443E+02  .273E+02  .183E+02
  .235E+02  .441E+02  .332E+02  .229E+02  .711E+02  .233E+02  .274E+02  .315E+02
  .274E+02  .245E+02  .291E+02  .422E+02  .305E+02  .278E+02  .309E+02  .239E+02
  .743E+02  .375E+02  .278E+02  .465E+02  .546E+02  .420E+02  .369E+02  .396E+02
  .484E+02  .743E+02  .457E+02  .314E+02  .471E+02  .384E+02  .313E+02  .673E+02
  .541E+02  .443E+02  .731E+02  .626E+02  .490E+02  .699E+02  .683E+02  .306E+02
  .286E+02  .458E+02  .682E+02  .572E+02  .458E+02  .304E+02  .306E+02  .458E+02
  .295E+02  .297E+02  .458E+02  .458E+02  .306E+02  .224E+02  .464E+02  .316E+02
  .000E+00  .000E+00  .000E+00  .000E+00  .000E+00  .000E+00  .000E+00  .000E+00
  .000E+00  .000E+00  .000E+00  .000E+00  .000E+00  .000E+00  .000E+00  .000E+00
  .000E+00  .000E+00  .000E+00  .000E+00
Damping =  .02. Data of Sd,Sv,Sa,Pssv,ttSd,ttSv,ttSa :
  .605E-03  .739E-03  .767E-03  .730E-03  .921E-03  .110E-02  .139E-02  .167E-02
  .186E-02  .336E-02  .493E-02  .598E-02  .727E-02  .536E-02  .484E-02  .523E-02
  .912E-02  .138E-01  .149E-01  .173E-01  .230E-01  .421E-01  .602E-01  .572E-01
  .417E-01  .356E-01  .536E-01  .515E-01  .591E-01  .714E-01  .593E-01  .557E-01
  .705E-01  .844E-01  .906E-01  .651E-01  .100E+00  .730E-01  .996E-01  .109E+00
  .117E+00  .123E+00  .117E+00  .985E-01  .114E+00  .169E+00  .178E+00  .146E+00
  .114E+00  .140E+00  .164E+00  .203E+00  .191E+00  .170E+00  .239E+00  .260E+00
  .312E+00  .193E+00  .251E+00  .309E+00  .310E+00  .303E+00  .423E+00  .284E+00
  .241E+00  .225E+00  .230E+00  .169E+00  .126E+00  .121E+00  .127E+00  .109E+00
  .894E-01  .817E-01  .945E-01  .960E-01  .121E+00  .117E+00  .875E-01  .739E-01
  .000E+00  .000E+00  .000E+00  .000E+00  .000E+00  .000E+00  .000E+00  .000E+00
  .000E+00  .000E+00  .000E+00  .000E+00  .000E+00  .000E+00  .000E+00  .000E+00
  .000E+00  .000E+00  .000E+00  .000E+00
  .595E-01  .674E-01  .643E-01  .612E-01  .875E-01  .109E+00  .133E+00  .118E+00
  .150E+00  .229E+00  .336E+00  .439E+00  .492E+00  .373E+00  .276E+00  .293E+00
  .428E+00  .677E+00  .647E+00  .721E+00  .907E+00  .162E+01  .223E+01  .210E+01
  .149E+01  .118E+01  .156E+01  .135E+01  .146E+01  .167E+01  .120E+01  .103E+01
  .128E+01  .152E+01  .154E+01  .104E+01  .155E+01  .102E+01  .146E+01  .143E+01
  .141E+01  .140E+01  .137E+01  .992E+00  .111E+01  .150E+01  .148E+01  .114E+01
  .876E+00  .102E+01  .121E+01  .120E+01  .106E+01  .845E+00  .106E+01  .112E+01
  .121E+01  .820E+00  .103E+01  .108E+01  .100E+01  .914E+00  .134E+01  .888E+00
  .777E+00  .802E+00  .695E+00  .582E+00  .564E+00  .514E+00  .478E+00  .479E+00
  .469E+00  .462E+00  .456E+00  .442E+00  .470E+00  .499E+00  .489E+00  .470E+00
  .000E+00  .000E+00  .000E+00  .000E+00  .000E+00  .000E+00  .000E+00  .000E+00
  .000E+00  .000E+00  .000E+00  .000E+00  .000E+00  .000E+00  .000E+00  .000E+00
  .000E+00  .000E+00  .000E+00  .000E+00
  .386E-01  .430E-01  .407E-01  .352E-01  .409E-01  .452E-01  .472E-01  .476E-01
  .450E-01  .705E-01  .896E-01  .952E-01  .103E+00  .679E-01  .547E-01  .532E-01
  .775E-01  .991E-01  .906E-01  .901E-01  .105E+00  .169E+00  .213E+00  .180E+00
  .119E+00  .906E-01  .113E+00  .916E-01  .895E-01  .934E-01  .672E-01  .559E-01
  .625E-01  .667E-01  .644E-01  .417E-01  .582E-01  .386E-01  .481E-01  .483E-01
  .481E-01  .417E-01  .333E-01  .239E-01  .239E-01  .307E-01  .285E-01  .208E-01
  .144E-01  .159E-01  .168E-01  .172E-01  .136E-01  .103E-01  .125E-01  .118E-01
  .125E-01  .683E-02  .794E-02  .877E-02  .794E-02  .640E-02  .752E-02  .431E-02
  .315E-02  .256E-02  .230E-02  .149E-02  .996E-03  .862E-03  .818E-03  .635E-03
  .477E-03  .399E-03  .421E-03  .397E-03  .419E-03  .341E-03  .220E-03  .160E-03
  .000E+00  .000E+00  .000E+00  .000E+00  .000E+00  .000E+00  .000E+00  .000E+00
  .000E+00  .000E+00  .000E+00  .000E+00  .000E+00  .000E+00  .000E+00  .000E+00
  .000E+00  .000E+00  .000E+00  .000E+00
  .951E-01  .111E+00  .109E+00  .998E-01  .121E+00  .139E+00  .159E+00  .175E+00
  .179E+00  .301E+00  .413E+00  .470E+00  .537E+00  .374E+00  .320E+00  .328E+00
  .521E+00  .724E+00  .720E+00  .779E+00  .964E+00  .165E+01  .222E+01  .200E+01
  .138E+01  .112E+01  .153E+01  .135E+01  .143E+01  .160E+01  .124E+01  .109E+01
  .130E+01  .147E+01  .150E+01  .102E+01  .150E+01  .104E+01  .136E+01  .142E+01
  .147E+01  .141E+01  .123E+01  .952E+00  .103E+01  .141E+01  .140E+01  .108E+01
  .793E+00  .929E+00  .103E+01  .116E+01  .100E+01  .823E+00  .107E+01  .109E+01
  .122E+01  .712E+00  .878E+00  .102E+01  .975E+00  .864E+00  .111E+01  .687E+00
  .540E+00  .470E+00  .452E+00  .312E+00  .220E+00  .200E+00  .200E+00  .162E+00
  .128E+00  .112E+00  .124E+00  .121E+00  .139E+00  .123E+00  .846E-01  .663E-01
  .000E+00  .000E+00  .000E+00  .000E+00  .000E+00  .000E+00  .000E+00  .000E+00
  .000E+00  .000E+00  .000E+00  .000E+00  .000E+00  .000E+00  .000E+00  .000E+00
  .000E+00  .000E+00  .000E+00  .000E+00
  .218E+02  .159E+02  .159E+02  .158E+02  .159E+02  .221E+02  .160E+02  .215E+02
  .160E+02  .158E+02  .160E+02  .220E+02  .160E+02  .159E+02  .161E+02  .158E+02
  .215E+02  .224E+02  .215E+02  .161E+02  .216E+02  .161E+02  .162E+02  .160E+02
  .159E+02  .156E+02  .237E+02  .225E+02  .225E+02  .220E+02  .221E+02  .233E+02
  .242E+02  .244E+02  .243E+02  .243E+02  .288E+02  .255E+02  .238E+02  .238E+02
  .236E+02  .262E+02  .278E+02  .246E+02  .247E+02  .263E+02  .265E+02  .261E+02
  .276E+02  .258E+02  .255E+02  .242E+02  .466E+02  .473E+02  .475E+02  .620E+02
  .494E+02  .325E+02  .318E+02  .320E+02  .480E+02  .366E+02  .455E+02  .306E+02
  .272E+02  .262E+02  .315E+02  .304E+02  .304E+02  .304E+02  .306E+02  .306E+02
  .295E+02  .238E+02  .458E+02  .316E+02  .224E+02  .224E+02  .224E+02  .316E+02
  .000E+00  .000E+00  .000E+00  .000E+00  .000E+00  .000E+00  .000E+00  .000E+00
  .000E+00  .000E+00  .000E+00  .000E+00  .000E+00  .000E+00  .000E+00  .000E+00
  .000E+00  .000E+00  .000E+00  .000E+00
  .218E+02  .157E+02  .160E+02  .219E+02  .221E+02  .221E+02  .218E+02  .158E+02
  .225E+02  .158E+02  .160E+02  .220E+02  .160E+02  .221E+02  .160E+02  .159E+02
  .215E+02  .224E+02  .215E+02  .160E+02  .216E+02  .161E+02  .162E+02  .160E+02
  .160E+02  .156E+02  .237E+02  .225E+02  .225E+02  .221E+02  .221E+02  .234E+02
  .245E+02  .244E+02  .244E+02  .237E+02  .289E+02  .237E+02  .237E+02  .237E+02
  .237E+02  .266E+02  .277E+02  .184E+02  .246E+02  .246E+02  .263E+02  .260E+02
  .260E+02  .256E+02  .243E+02  .240E+02  .236E+02  .387E+02  .471E+02  .616E+02
  .498E+02  .322E+02  .323E+02  .440E+02  .485E+02  .372E+02  .461E+02  .299E+02
  .241E+02  .241E+02  .241E+02  .219E+02  .219E+02  .219E+02  .241E+02  .241E+02
  .241E+02  .241E+02  .241E+02  .241E+02  .219E+02  .219E+02  .219E+02  .219E+02
  .000E+00  .000E+00  .000E+00  .000E+00  .000E+00  .000E+00  .000E+00  .000E+00
  .000E+00  .000E+00  .000E+00  .000E+00  .000E+00  .000E+00  .000E+00  .000E+00
  .000E+00  .000E+00  .000E+00  .000E+00
  .218E+02  .159E+02  .159E+02  .158E+02  .159E+02  .221E+02  .160E+02  .215E+02
  .160E+02  .158E+02  .160E+02  .220E+02  .160E+02  .221E+02  .161E+02  .158E+02
  .215E+02  .224E+02  .215E+02  .161E+02  .216E+02  .162E+02  .162E+02  .160E+02
  .159E+02  .156E+02  .237E+02  .225E+02  .237E+02  .220E+02  .221E+02  .233E+02
