Response and Fourier amplitude spectra (80 periods,  .04 -  7.0 sec)   for      
Corrected accelerogram   23631-E0779-08212.02       Chan  2:  Long       from   
Uncorrected Accelerogram Data             Processed: 02/09/09, CGS  CE23631     
Record of Tue Jul 29, 2008 11:42:08.9 PDT             (Avol1 v8.5,11/08 CSMIP)  
CSMIP Preliminary Processing            (Origin:  To be determined)             
23631-E0779-08212.02                 Start time:  7/29/08, 18:42: 8.9 UTC (WWVB)
Station No. 23631   34.064N, 117.296W     SSA-1  s/n  779  (4 Chns of 36 at Sta)
San Bernardino - I10/215 Interchange Br   CGS                                   
Chan  2:  Long    (Sta Chn: 18)     Location: Hinge Near Bent 8: E. Side        
Record of Tue Jul 29, 2008 11:42:08.9 PDT    Tue Jul 29, 2008 11:42:08.9 PDT    
Hypocenter:  To be determined.               ML:  To be determined.             
Instr Period =  .0198 sec,  Damping =  .670,  Sensitivity = 1.24  v/g           
                        Record length = 78.080 sec.                             
                                     Uncor Max  =   .063 g , at  22.785 sec.    
RMS accel of (uncor) record  =        .   Chn. metadata effective date: 01/10/92
Accelerogram bandpass filtered with 3 dB pts at   .14 and 40.00 cyc/sec         
                 instrument- and baseline-corrected                             
                                                                                
                                                                                
                                                                                
                                                                                
                                                                                
Record of Tue Jul 29, 2008 11:42:08.9 PDT    Tue Jul 29, 2008 11:42:08.9 PDT    
                                                                                
23631-E0779-08212.02      San Bernardino - I10/215 Interchange Br   Chan  2:  Lo
ng                                                                              
23631-E0779-08212.02      San Bernardino - I10/215 Interchange Br   Chan  2:  Lo
ng                                                                              
Units for spectra are inches and sec, except Sa is in fraction of g.            
                                                                                
    2  100   18    4   36  200    1    3    1   12    5  779    023631    3    0
   18   42    8  935  211    7   29 2008   10    1  80015616   41   39   76   -1
15616    0  100    3 2117    1    2   61    2   18   42   38  140    7   29 2008
    0    2    0    0 7808    2  222    1   12    4   76   39    3    1    0 7808
    3 7808   40   80    5    4    5    0    0    0   36    0    0    3    0    2
    2    2    4    0   66   99    1   32   32    0    0    1   16    0    8  222
    1    0    0    0
      .020      .670    78.080      .006      .000  1244.000      .063    22.785
    50.600  1220.703   981.273      .000     5.000      .000      .000      .000
     2.500   -13.787     2.500  -999.000    15.360    30.000      .000     -.032
     -.068     -.035     2.000    15.000    34.064  -117.296      .709     1.896
     2.675     -.163      .092   297.000      .000      .000      .000      .000
     1.000     1.324     7.000      .000      .000      .000      .000      .000
     6.800     8.500     5.200   980.665      .010    78.080     8.053      .000
      .000    40.000      .000    78.080      .010      .143      .000      .000
    22.780    61.590    22.450    -4.036    22.760     -.454      .001      .143
    40.000      .010      .010      .000     1.020      .240      .000      .000
      .174      .080      .152      .079      .039      .003      .000      .000
      .000      .000      .000      .000      .000      .000      .000      .000
      .000      .000      .000      .000
      .000      .020      .050      .100      .200
      .040      .042      .044      .046      .048      .050      .055      .060
      .065      .070      .075      .080      .085      .090      .095      .100
      .110      .120      .130      .140      .150      .160      .170      .180
      .190      .200      .220      .240      .260      .280      .300      .320
      .340      .360      .380      .400      .420      .440      .460      .480
      .500      .550      .600      .650      .700      .750      .800      .850
      .900      .950     1.000     1.100     1.200     1.300     1.400     1.500
     1.600     1.700     1.800     1.900     2.000     2.200     2.400     2.600
     2.800     3.000     3.200     3.400     3.600     3.800     4.000     4.200
     4.400     4.600     4.800     5.000     5.500     6.000     6.500     7.000
      .000      .000      .000      .000      .000      .000      .000      .000
      .000      .000      .000      .000      .000      .000      .000      .000
      .000      .000      .000      .000
Fourier amplitude spectra in in/sec.
  .919E-01  .165E+00  .432E+00  .585E-01  .684E-01  .238E+00  .240E+00  .894E+00
  .154E+01  .678E+00  .155E+01  .187E+01  .301E+01  .119E+01  .191E+01  .151E+01
  .242E+01  .101E+01  .346E+00  .363E+01  .599E+00  .464E+01  .280E+01  .270E+01
  .742E+01  .507E+01  .707E+01  .196E+01  .316E+01  .283E+01  .332E+01  .512E+01
  .498E+01  .463E+01  .449E+01  .593E+01  .138E+01  .151E+01  .465E+01  .177E+01
  .737E+01  .311E+01  .162E+01  .427E+01  .124E+02  .100E+02  .456E+01  .546E+01
  .536E+01  .350E+01  .537E+01  .995E+01  .343E+01  .980E+00  .205E+01  .316E+01
  .134E+01  .193E+01  .214E+01  .606E+00  .138E+01  .148E+01  .220E+01  .105E+00
  .533E+00  .676E+00  .249E+00  .747E-01  .552E+00  .598E+00  .242E+00  .126E+00
  .953E-01  .511E-01  .162E+00  .142E+00  .712E-01  .100E+00  .768E-01  .344E-01
  .000E+00  .000E+00  .000E+00  .000E+00  .000E+00  .000E+00  .000E+00  .000E+00
  .000E+00  .000E+00  .000E+00  .000E+00  .000E+00  .000E+00  .000E+00  .000E+00
  .000E+00  .000E+00  .000E+00  .000E+00
Damping =  .00. Data of Sd,Sv,Sa,Pssv,ttSd,ttSv,ttSa :
  .205E-02  .296E-02  .332E-02  .272E-02  .288E-02  .561E-02  .436E-02  .117E-01
  .159E-01  .135E-01  .200E-01  .302E-01  .480E-01  .273E-01  .328E-01  .308E-01
  .509E-01  .241E-01  .311E-01  .891E-01  .534E-01  .118E+00  .106E+00  .133E+00
  .249E+00  .188E+00  .281E+00  .157E+00  .213E+00  .165E+00  .172E+00  .266E+00
  .286E+00  .386E+00  .286E+00  .386E+00  .186E+00  .227E+00  .389E+00  .255E+00
  .599E+00  .424E+00  .599E+00  .846E+00  .146E+01  .122E+01  .126E+01  .111E+01
  .102E+01  .853E+00  .124E+01  .189E+01  .114E+01  .798E+00  .686E+00  .899E+00
  .573E+00  .523E+00  .704E+00  .415E+00  .514E+00  .516E+00  .842E+00  .310E+00
  .326E+00  .443E+00  .263E+00  .279E+00  .412E+00  .434E+00  .287E+00  .258E+00
  .241E+00  .206E+00  .179E+00  .199E+00  .163E+00  .196E+00  .194E+00  .207E+00
  .000E+00  .000E+00  .000E+00  .000E+00  .000E+00  .000E+00  .000E+00  .000E+00
  .000E+00  .000E+00  .000E+00  .000E+00  .000E+00  .000E+00  .000E+00  .000E+00
  .000E+00  .000E+00  .000E+00  .000E+00
  .217E+00  .337E+00  .461E+00  .244E+00  .282E+00  .629E+00  .394E+00  .107E+01
  .154E+01  .116E+01  .164E+01  .216E+01  .340E+01  .189E+01  .205E+01  .193E+01
  .287E+01  .119E+01  .140E+01  .389E+01  .221E+01  .463E+01  .385E+01  .455E+01
  .817E+01  .587E+01  .809E+01  .413E+01  .514E+01  .367E+01  .359E+01  .520E+01
  .527E+01  .675E+01  .468E+01  .604E+01  .279E+01  .317E+01  .513E+01  .306E+01
  .752E+01  .484E+01  .622E+01  .803E+01  .130E+02  .102E+02  .101E+02  .817E+01
  .733E+01  .581E+01  .775E+01  .108E+02  .604E+01  .425E+01  .328E+01  .384E+01
  .263E+01  .231E+01  .277E+01  .198E+01  .178E+01  .174E+01  .238E+01  .184E+01
  .183E+01  .176E+01  .171E+01  .176E+01  .172E+01  .174E+01  .179E+01  .180E+01
  .174E+01  .167E+01  .163E+01  .162E+01  .161E+01  .158E+01  .157E+01  .158E+01
  .000E+00  .000E+00  .000E+00  .000E+00  .000E+00  .000E+00  .000E+00  .000E+00
  .000E+00  .000E+00  .000E+00  .000E+00  .000E+00  .000E+00  .000E+00  .000E+00
  .000E+00  .000E+00  .000E+00  .000E+00
  .131E+00  .171E+00  .175E+00  .131E+00  .128E+00  .229E+00  .147E+00  .332E+00
  .385E+00  .282E+00  .363E+00  .483E+00  .680E+00  .344E+00  .371E+00  .315E+00
  .431E+00  .171E+00  .189E+00  .465E+00  .243E+00  .473E+00  .375E+00  .421E+00
  .704E+00  .480E+00  .594E+00  .278E+00  .322E+00  .215E+00  .195E+00  .266E+00
  .253E+00  .305E+00  .203E+00  .247E+00  .108E+00  .120E+00  .188E+00  .113E+00
  .245E+00  .144E+00  .170E+00  .205E+00  .304E+00  .221E+00  .201E+00  .156E+00
  .129E+00  .966E-01  .127E+00  .160E+00  .808E-01  .483E-01  .358E-01  .409E-01
  .229E-01  .185E-01  .222E-01  .117E-01  .131E-01  .109E-01  .149E-01  .469E-02
  .425E-02  .503E-02  .263E-02  .247E-02  .325E-02  .307E-02  .184E-02  .149E-02
  .128E-02  .998E-03  .793E-03  .813E-03  .551E-03  .557E-03  .471E-03  .432E-03
  .000E+00  .000E+00  .000E+00  .000E+00  .000E+00  .000E+00  .000E+00  .000E+00
  .000E+00  .000E+00  .000E+00  .000E+00  .000E+00  .000E+00  .000E+00  .000E+00
  .000E+00  .000E+00  .000E+00  .000E+00
  .322E+00  .442E+00  .474E+00  .371E+00  .376E+00  .704E+00  .498E+00  .122E+01
  .154E+01  .121E+01  .167E+01  .237E+01  .355E+01  .190E+01  .217E+01  .194E+01
  .291E+01  .126E+01  .151E+01  .400E+01  .224E+01  .465E+01  .391E+01  .465E+01
  .822E+01  .590E+01  .803E+01  .410E+01  .514E+01  .370E+01  .359E+01  .522E+01
  .528E+01  .674E+01  .473E+01  .607E+01  .279E+01  .324E+01  .532E+01  .334E+01
  .753E+01  .485E+01  .627E+01  .818E+01  .131E+02  .102E+02  .989E+01  .817E+01
  .711E+01  .564E+01  .782E+01  .108E+02  .596E+01  .386E+01  .308E+01  .377E+01
  .225E+01  .193E+01  .246E+01  .137E+01  .161E+01  .148E+01  .220E+01  .749E+00
  .731E+00  .927E+00  .517E+00  .516E+00  .720E+00  .717E+00  .451E+00  .385E+00
  .345E+00  .282E+00  .234E+00  .250E+00  .186E+00  .205E+00  .188E+00  .186E+00
  .000E+00  .000E+00  .000E+00  .000E+00  .000E+00  .000E+00  .000E+00  .000E+00
  .000E+00  .000E+00  .000E+00  .000E+00  .000E+00  .000E+00  .000E+00  .000E+00
  .000E+00  .000E+00  .000E+00  .000E+00
  .228E+02  .218E+02  .411E+02  .224E+02  .218E+02  .218E+02  .219E+02  .224E+02
  .766E+02  .257E+02  .532E+02  .224E+02  .231E+02  .224E+02  .228E+02  .254E+02
  .263E+02  .367E+02  .224E+02  .250E+02  .228E+02  .677E+02  .279E+02  .220E+02
  .490E+02  .417E+02  .441E+02  .234E+02  .267E+02  .423E+02  .690E+02  .745E+02
  .517E+02  .318E+02  .403E+02  .674E+02  .227E+02  .480E+02  .274E+02  .220E+02
  .741E+02  .407E+02  .451E+02  .270E+02  .532E+02  .735E+02  .281E+02  .259E+02
  .285E+02  .278E+02  .440E+02  .717E+02  .560E+02  .603E+02  .369E+02  .715E+02
  .267E+02  .780E+02  .445E+02  .531E+02  .734E+02  .784E+02  .776E+02  .227E+02
  .633E+02  .634E+02  .228E+02  .296E+02  .627E+02  .568E+02  .348E+02  .216E+02
  .216E+02  .216E+02  .216E+02  .568E+02  .216E+02  .569E+02  .275E+02  .228E+02
  .000E+00  .000E+00  .000E+00  .000E+00  .000E+00  .000E+00  .000E+00  .000E+00
  .000E+00  .000E+00  .000E+00  .000E+00  .000E+00  .000E+00  .000E+00  .000E+00
  .000E+00  .000E+00  .000E+00  .000E+00
  .240E+02  .218E+02  .748E+02  .218E+02  .169E+02  .218E+02  .170E+02  .224E+02
  .766E+02  .257E+02  .540E+02  .224E+02  .233E+02  .221E+02  .227E+02  .254E+02
  .273E+02  .367E+02  .221E+02  .250E+02  .228E+02  .739E+02  .279E+02  .222E+02
  .489E+02  .418E+02  .442E+02  .235E+02  .268E+02  .404E+02  .691E+02  .744E+02
  .518E+02  .317E+02  .404E+02  .687E+02  .226E+02  .481E+02  .273E+02  .371E+02
  .740E+02  .409E+02  .453E+02  .265E+02  .534E+02  .737E+02  .279E+02  .261E+02
  .287E+02  .280E+02  .572E+02  .714E+02  .551E+02  .273E+02  .372E+02  .636E+02
  .264E+02  .218E+02  .449E+02  .229E+02  .230E+02  .230E+02  .578E+02  .224E+02
  .224E+02  .224E+02  .224E+02  .224E+02  .224E+02  .224E+02  .224E+02  .224E+02
  .224E+02  .224E+02  .224E+02  .224E+02  .224E+02  .224E+02  .224E+02  .224E+02
  .000E+00  .000E+00  .000E+00  .000E+00  .000E+00  .000E+00  .000E+00  .000E+00
  .000E+00  .000E+00  .000E+00  .000E+00  .000E+00  .000E+00  .000E+00  .000E+00
  .000E+00  .000E+00  .000E+00  .000E+00
  .228E+02  .218E+02  .411E+02  .224E+02  .218E+02  .218E+02  .219E+02  .224E+02
  .766E+02  .257E+02  .532E+02  .224E+02  .231E+02  .224E+02  .228E+02  .254E+02
  .263E+02  .367E+02  .224E+02  .250E+02  .228E+02  .677E+02  .279E+02  .220E+02
  .490E+02  .417E+02  .441E+02  .234E+02  .267E+02  .423E+02  .690E+02  .745E+02
  .517E+02  .318E+02  .403E+02  .674E+02  .227E+02  .480E+02  .274E+02  .220E+02
  .741E+02  .407E+02  .451E+02  .270E+02  .532E+02  .735E+02  .281E+02  .259E+02
  .285E+02  .278E+02  .440E+02  .717E+02  .560E+02  .603E+02  .369E+02  .715E+02
  .267E+02  .780E+02  .445E+02  .531E+02  .734E+02  .784E+02  .776E+02  .227E+02
  .633E+02  .634E+02  .228E+02  .296E+02  .627E+02  .568E+02  .348E+02  .216E+02
  .216E+02  .216E+02  .216E+02  .568E+02  .216E+02  .569E+02  .275E+02  .228E+02
  .000E+00  .000E+00  .000E+00  .000E+00  .000E+00  .000E+00  .000E+00  .000E+00
  .000E+00  .000E+00  .000E+00  .000E+00  .000E+00  .000E+00  .000E+00  .000E+00
  .000E+00  .000E+00  .000E+00  .000E+00
Damping =  .02. Data of Sd,Sv,Sa,Pssv,ttSd,ttSv,ttSa :
  .154E-02  .168E-02  .158E-02  .196E-02  .227E-02  .294E-02  .445E-02  .636E-02
  .853E-02  .938E-02  .945E-02  .149E-01  .119E-01  .178E-01  .150E-01  .161E-01
  .207E-01  .179E-01  .216E-01  .333E-01  .462E-01  .441E-01  .538E-01  .620E-01
  .710E-01  .735E-01  .106E+00  .127E+00  .126E+00  .918E-01  .638E-01  .750E-01
  .115E+00  .169E+00  .193E+00  .203E+00  .170E+00  .185E+00  .216E+00  .223E+00
  .213E+00  .258E+00  .379E+00  .535E+00  .732E+00  .820E+00  .752E+00  .739E+00
  .674E+00  .588E+00  .430E+00  .617E+00  .524E+00  .567E+00  .485E+00  .418E+00
  .436E+00  .398E+00  .399E+00  .363E+00  .313E+00  .345E+00  .406E+00  .300E+00
  .287E+00  .273E+00  .258E+00  .263E+00  .259E+00  .264E+00  .262E+00  .239E+00
  .229E+00  .205E+00  .183E+00  .172E+00  .162E+00  .170E+00  .183E+00  .203E+00
  .000E+00  .000E+00  .000E+00  .000E+00  .000E+00  .000E+00  .000E+00  .000E+00
  .000E+00  .000E+00  .000E+00  .000E+00  .000E+00  .000E+00  .000E+00  .000E+00
  .000E+00  .000E+00  .000E+00  .000E+00
  .141E+00  .132E+00  .136E+00  .157E+00  .164E+00  .233E+00  .384E+00  .618E+00
  .651E+00  .731E+00  .730E+00  .109E+01  .805E+00  .119E+01  .981E+00  .955E+00
  .108E+01  .937E+00  .781E+00  .133E+01  .183E+01  .164E+01  .191E+01  .219E+01
  .224E+01  .224E+01  .302E+01  .334E+01  .312E+01  .221E+01  .146E+01  .153E+01
  .219E+01  .294E+01  .307E+01  .294E+01  .244E+01  .213E+01  .254E+01  .267E+01
  .260E+01  .272E+01  .350E+01  .513E+01  .656E+01  .681E+01  .621E+01  .565E+01
  .512E+01  .407E+01  .306E+01  .359E+01  .285E+01  .330E+01  .250E+01  .231E+01
  .210E+01  .213E+01  .201E+01  .189E+01  .173E+01  .170E+01  .175E+01  .180E+01
  .180E+01  .176E+01  .172E+01  .174E+01  .173E+01  .174E+01  .177E+01  .177E+01
  .173E+01  .168E+01  .165E+01  .163E+01  .161E+01  .158E+01  .157E+01  .158E+01
  .000E+00  .000E+00  .000E+00  .000E+00  .000E+00  .000E+00  .000E+00  .000E+00
  .000E+00  .000E+00  .000E+00  .000E+00  .000E+00  .000E+00  .000E+00  .000E+00
  .000E+00  .000E+00  .000E+00  .000E+00
  .986E-01  .977E-01  .835E-01  .947E-01  .101E+00  .121E+00  .150E+00  .180E+00
  .207E+00  .196E+00  .172E+00  .238E+00  .167E+00  .225E+00  .171E+00  .165E+00
  .176E+00  .127E+00  .131E+00  .175E+00  .211E+00  .176E+00  .191E+00  .197E+00
  .201E+00  .189E+00  .223E+00  .226E+00  .190E+00  .120E+00  .724E-01  .751E-01
  .102E+00  .133E+00  .137E+00  .130E+00  .988E-01  .978E-01  .104E+00  .990E-01
  .874E-01  .873E-01  .108E+00  .130E+00  .153E+00  .149E+00  .120E+00  .105E+00
  .851E-01  .667E-01  .440E-01  .522E-01  .373E-01  .343E-01  .253E-01  .190E-01
  .175E-01  .141E-01  .126E-01  .103E-01  .800E-02  .730E-02  .722E-02  .455E-02
  .375E-02  .311E-02  .260E-02  .235E-02  .205E-02  .189E-02  .170E-02  .141E-02
  .123E-02  .101E-02  .838E-03  .726E-03  .571E-03  .494E-03  .457E-03  .437E-03
  .000E+00  .000E+00  .000E+00  .000E+00  .000E+00  .000E+00  .000E+00  .000E+00
  .000E+00  .000E+00  .000E+00  .000E+00  .000E+00  .000E+00  .000E+00  .000E+00
  .000E+00  .000E+00  .000E+00  .000E+00
  .241E+00  .252E+00  .226E+00  .268E+00  .297E+00  .370E+00  .508E+00  .666E+00
  .824E+00  .842E+00  .792E+00  .117E+01  .876E+00  .124E+01  .994E+00  .101E+01
  .118E+01  .936E+00  .105E+01  .150E+01  .193E+01  .173E+01  .199E+01  .216E+01
  .235E+01  .231E+01  .302E+01  .332E+01  .304E+01  .206E+01  .134E+01  .147E+01
  .212E+01  .295E+01  .320E+01  .320E+01  .255E+01  .265E+01  .294E+01  .292E+01
  .268E+01  .295E+01  .397E+01  .517E+01  .657E+01  .687E+01  .591E+01  .547E+01
  .470E+01  .389E+01  .270E+01  .352E+01  .275E+01  .274E+01  .218E+01  .175E+01
  .171E+01  .147E+01  .139E+01  .120E+01  .982E+00  .986E+00  .106E+01  .726E+00
  .643E+00  .572E+00  .507E+00  .486E+00  .452E+00  .437E+00  .411E+00  .358E+00
  .327E+00  .280E+00  .240E+00  .216E+00  .185E+00  .178E+00  .177E+00  .182E+00
  .000E+00  .000E+00  .000E+00  .000E+00  .000E+00  .000E+00  .000E+00  .000E+00
  .000E+00  .000E+00  .000E+00  .000E+00  .000E+00  .000E+00  .000E+00  .000E+00
  .000E+00  .000E+00  .000E+00  .000E+00
  .218E+02  .218E+02  .218E+02  .224E+02  .218E+02  .218E+02  .219E+02  .221E+02
  .219E+02  .219E+02  .221E+02  .224E+02  .219E+02  .219E+02  .219E+02  .230E+02
  .231E+02  .220E+02  .231E+02  .228E+02  .228E+02  .228E+02  .162E+02  .172E+02
  .231E+02  .236E+02  .238E+02  .232E+02  .230E+02  .229E+02  .229E+02  .223E+02
  .229E+02  .239E+02  .226E+02  .227E+02  .219E+02  .219E+02  .219E+02  .220E+02
  .223E+02  .223E+02  .227E+02  .271E+02  .297E+02  .233E+02  .281E+02  .238E+02
  .235E+02  .278E+02  .299E+02  .606E+02  .553E+02  .275E+02  .271E+02  .266E+02
  .267E+02  .231E+02  .231E+02  .231E+02  .734E+02  .324E+02  .438E+02  .227E+02
  .227E+02  .576E+02  .228E+02  .228E+02  .576E+02  .228E+02  .228E+02  .216E+02
  .216E+02  .216E+02  .216E+02  .216E+02  .228E+02  .275E+02  .228E+02  .228E+02
  .000E+00  .000E+00  .000E+00  .000E+00  .000E+00  .000E+00  .000E+00  .000E+00
  .000E+00  .000E+00  .000E+00  .000E+00  .000E+00  .000E+00  .000E+00  .000E+00
  .000E+00  .000E+00  .000E+00  .000E+00
  .218E+02  .218E+02  .220E+02  .221E+02  .218E+02  .218E+02  .218E+02  .221E+02
  .219E+02  .219E+02  .222E+02  .221E+02  .219E+02  .219E+02  .219E+02  .230E+02
  .235E+02  .221E+02  .226E+02  .227E+02  .228E+02  .229E+02  .162E+02  .172E+02
  .233E+02  .258E+02  .237E+02  .232E+02  .229E+02  .229E+02  .229E+02  .229E+02
  .228E+02  .238E+02  .227E+02  .226E+02  .226E+02  .218E+02  .250E+02  .219E+02
  .219E+02  .221E+02  .226E+02  .266E+02  .299E+02  .234E+02  .279E+02  .232E+02
  .237E+02  .280E+02  .276E+02  .603E+02  .276E+02  .273E+02  .268E+02  .269E+02
  .264E+02  .218E+02  .218E+02  .218E+02  .229E+02  .218E+02  .230E+02  .224E+02
  .224E+02  .224E+02  .224E+02  .224E+02  .224E+02  .224E+02  .224E+02  .224E+02
  .224E+02  .224E+02  .224E+02  .224E+02  .224E+02  .224E+02  .224E+02  .224E+02
  .000E+00  .000E+00  .000E+00  .000E+00  .000E+00  .000E+00  .000E+00  .000E+00
  .000E+00  .000E+00  .000E+00  .000E+00  .000E+00  .000E+00  .000E+00  .000E+00
  .000E+00  .000E+00  .000E+00  .000E+00
  .218E+02  .218E+02  .218E+02  .224E+02  .218E+02  .218E+02  .219E+02  .221E+02
  .219E+02  .219E+02  .221E+02  .224E+02  .219E+02  .219E+02  .219E+02  .230E+02
  .231E+02  .220E+02  .231E+02  .228E+02  .228E+02  .228E+02  .162E+02  .172E+02
  .231E+02  .236E+02  .238E+02  .232E+02  .230E+02  .229E+02  .229E+02  .223E+02
