Response and Fourier amplitude spectra (76 periods,  .04 -  5.0 sec)   for      
Corrected accelerogram   23792-K1341-08217.20       Chan  7:  90 Deg     from   
Uncorrected Accelerogram Data             Processed: 10/01/08, CDMG  AQ020      
Record of Tue Jul 29, 2008 11:41:59.0 PDT             (Avol1 v8.1 9/08 CSMIP)   
CSMIP Preliminary Processing            (Origin:  To be determined)             
23792-K1341-08217.20                 Start time:  7/29/08, 18:41:59.0 UTC (GPS) 
Station No. 23792   34.064N, 117.294W        K2  s/n 1341 (12 Channels)         
San Bernardino - I10/215 W Geotech Array  CGS                                   
Chan  7:  90 Deg                    Location: 35.0m (115ft) Depth               
Record of Tue Jul 29, 2008 11:41:59.0 PDT    Tue Jul 29, 2008 11:41:59.0 PDT    
Hypocenter:  To be determined.               ML:  To be determined.
Instr Period =  .0193 sec,  Damping =  .640,  Sensitivity = 1.25  v/g
                        Record length =109.000 sec.
                                     Uncor Max  =   .018 g , at  31.515 sec.
RMS accel of (uncor) record  =        .   Chn. metadata effective date: 05/16/08
Accelerogram bandpass filtered with 3 dB pts at   .30 and 40.00 cyc/sec
                 instrument- and baseline-corrected





Record of Tue Jul 29, 2008 11:41:59.0 PDT    Tue Jul 29, 2008 11:41:59.0 PDT

23792-K1341-08217.20      San Bernardino - I10/215 W Geotech Array  CGChan  7:
90 Deg
23792-K1341-08217.20      San Bernardino - I10/215 W Geotech Array  CGChan  7:
90 Deg
Units for spectra are inches and sec, except Sa is in fraction of g.

    7  100    7   12   12  200    1    3    1   24   11 1341    023792    4    0
   18   41   59    0  211    7   29 2008   10    3   9021800   41   40   76   -1
21800    0   50    3 1341    1   20 1090    2    0    0    0    0    0    0    0
    0    2    0    010900    2  222    0   18    7   76   40    1    1    010900
    310900   41   76    5   12    5    0    0    0   12    0    0    3    0    2
    2    2    4    1   65   99    0   32   32    0    0    1    0    0    0  222
    1    0   14    0
      .019      .640   109.000      .002      .000  1252.000      .018    31.515
    51.800      .298      .238      .000     5.000      .000     3.987      .000
     2.500    10.035     2.500  -999.000    25.000    30.000      .000      .004
     -.011     -.016     2.000    15.000    34.064  -117.294      .022      .533
    24.084     -.041      .010   298.000    25.000    78.400    13.100   109.940
     1.000     1.107      .000      .000      .000      .000      .000      .000
     4.600     8.100     5.000   980.665      .010   109.000     8.244      .004
      .000    40.000      .000   109.000      .010      .300      .000      .000
    31.510    18.008    32.940      .910    37.820      .170      .000      .300
    40.000      .010      .010      .000      .010      .101      .000      .000
      .079      .080      .050      .033      .011      .002      .000      .000
      .000      .000      .000      .000      .000      .000      .000      .000
      .000      .000      .000      .000
      .000      .020      .050      .100      .200
      .040      .042      .044      .046      .048      .050      .055      .060
      .065      .070      .075      .080      .085      .090      .095      .100
      .110      .120      .130      .140      .150      .160      .170      .180
      .190      .200      .220      .240      .260      .280      .300      .320
      .340      .360      .380      .400      .420      .440      .460      .480
      .500      .550      .600      .650      .700      .750      .800      .850
      .900      .950     1.000     1.100     1.200     1.300     1.400     1.500
     1.600     1.700     1.800     1.900     2.000     2.200     2.400     2.600
     2.800     3.000     3.200     3.400     3.600     3.800     4.000     4.200
     4.400     4.600     4.800     5.000      .000      .000      .000      .000
      .000      .000      .000      .000      .000      .000      .000      .000
      .000      .000      .000      .000      .000      .000      .000      .000
      .000      .000      .000      .000
Fourier amplitude spectra in in/sec.
  .419E-01  .132E+00  .885E-01  .309E-01  .724E-01  .359E-01  .121E+00  .192E+00
  .126E+00  .239E+00  .316E+00  .630E+00  .978E+00  .468E+00  .295E+00  .449E+00
  .699E+00  .174E+01  .909E-01  .124E+01  .183E+00  .334E+00  .105E+01  .105E+01
  .155E+01  .138E+01  .200E+01  .223E+01  .583E+00  .285E+01  .710E+00  .101E+01
  .331E+00  .725E+00  .158E+01  .539E+00  .758E+00  .159E+01  .807E+00  .828E+00
  .208E+01  .119E+01  .215E+01  .359E+01  .416E+01  .281E+01  .229E+01  .224E+01
  .217E+01  .281E+01  .214E+01  .231E+01  .737E+00  .122E+01  .233E+01  .158E+01
  .113E+01  .214E+01  .160E+01  .269E+00  .806E+00  .167E+01  .103E+01  .455E+00
  .717E+00  .474E+00  .456E+00  .253E-01  .353E+00  .211E+00  .831E-01  .122E+00
  .886E-01  .808E-01  .362E-01  .356E-01  .000E+00  .000E+00  .000E+00  .000E+00
  .000E+00  .000E+00  .000E+00  .000E+00  .000E+00  .000E+00  .000E+00  .000E+00
  .000E+00  .000E+00  .000E+00  .000E+00  .000E+00  .000E+00  .000E+00  .000E+00
  .000E+00  .000E+00  .000E+00  .000E+00
Damping =  .00. Data of Sd,Sv,Sa,Pssv,ttSd,ttSv,ttSa :
  .397E-03  .100E-02  .715E-03  .455E-03  .687E-03  .688E-03  .171E-02  .194E-02
  .209E-02  .376E-02  .504E-02  .109E-01  .143E-01  .904E-02  .843E-02  .953E-02
  .135E-01  .335E-01  .222E-01  .299E-01  .136E-01  .127E-01  .329E-01  .332E-01
  .550E-01  .467E-01  .744E-01  .924E-01  .403E-01  .135E+00  .553E-01  .739E-01
  .472E-01  .481E-01  .109E+00  .552E-01  .753E-01  .114E+00  .863E-01  .777E-01
  .172E+00  .141E+00  .236E+00  .406E+00  .547E+00  .335E+00  .292E+00  .345E+00
  .337E+00  .489E+00  .375E+00  .538E+00  .239E+00  .337E+00  .703E+00  .420E+00
  .397E+00  .655E+00  .465E+00  .279E+00  .344E+00  .715E+00  .443E+00  .290E+00
  .365E+00  .286E+00  .326E+00  .238E+00  .220E+00  .192E+00  .183E+00  .159E+00
  .130E+00  .103E+00  .837E-01  .811E-01  .000E+00  .000E+00  .000E+00  .000E+00
  .000E+00  .000E+00  .000E+00  .000E+00  .000E+00  .000E+00  .000E+00  .000E+00
  .000E+00  .000E+00  .000E+00  .000E+00  .000E+00  .000E+00  .000E+00  .000E+00
  .000E+00  .000E+00  .000E+00  .000E+00
  .465E-01  .141E+00  .911E-01  .406E-01  .739E-01  .516E-01  .184E+00  .194E+00
  .192E+00  .318E+00  .414E+00  .815E+00  .105E+01  .608E+00  .516E+00  .587E+00
  .751E+00  .174E+01  .101E+01  .133E+01  .574E+00  .504E+00  .119E+01  .114E+01
  .177E+01  .144E+01  .207E+01  .240E+01  .986E+00  .299E+01  .116E+01  .144E+01
  .855E+00  .819E+00  .179E+01  .860E+00  .117E+01  .161E+01  .113E+01  .105E+01
  .209E+01  .159E+01  .245E+01  .389E+01  .490E+01  .281E+01  .229E+01  .254E+01
  .230E+01  .320E+01  .234E+01  .306E+01  .121E+01  .162E+01  .316E+01  .175E+01
  .155E+01  .246E+01  .165E+01  .967E+00  .114E+01  .206E+01  .123E+01  .767E+00
  .923E+00  .794E+00  .740E+00  .617E+00  .544E+00  .505E+00  .449E+00  .450E+00
  .438E+00  .416E+00  .397E+00  .387E+00  .000E+00  .000E+00  .000E+00  .000E+00
  .000E+00  .000E+00  .000E+00  .000E+00  .000E+00  .000E+00  .000E+00  .000E+00
  .000E+00  .000E+00  .000E+00  .000E+00  .000E+00  .000E+00  .000E+00  .000E+00
  .000E+00  .000E+00  .000E+00  .000E+00
  .254E-01  .582E-01  .378E-01  .220E-01  .305E-01  .282E-01  .577E-01  .550E-01
  .505E-01  .784E-01  .917E-01  .175E+00  .202E+00  .114E+00  .955E-01  .975E-01
  .114E+00  .238E+00  .134E+00  .156E+00  .617E-01  .508E-01  .117E+00  .105E+00
  .156E+00  .119E+00  .157E+00  .164E+00  .610E-01  .177E+00  .628E-01  .738E-01
  .418E-01  .379E-01  .771E-01  .353E-01  .437E-01  .604E-01  .417E-01  .345E-01
  .703E-01  .475E-01  .671E-01  .984E-01  .114E+00  .610E-01  .466E-01  .488E-01
  .426E-01  .554E-01  .383E-01  .455E-01  .170E-01  .204E-01  .367E-01  .191E-01
  .159E-01  .232E-01  .147E-01  .790E-02  .880E-02  .151E-01  .787E-02  .438E-02
  .476E-02  .325E-02  .326E-02  .210E-02  .173E-02  .136E-02  .117E-02  .924E-03
  .687E-03  .500E-03  .371E-03  .332E-03  .000E+00  .000E+00  .000E+00  .000E+00
  .000E+00  .000E+00  .000E+00  .000E+00  .000E+00  .000E+00  .000E+00  .000E+00
  .000E+00  .000E+00  .000E+00  .000E+00  .000E+00  .000E+00  .000E+00  .000E+00
  .000E+00  .000E+00  .000E+00  .000E+00
  .623E-01  .150E+00  .102E+00  .621E-01  .899E-01  .865E-01  .195E+00  .203E+00
  .202E+00  .337E+00  .423E+00  .859E+00  .106E+01  .631E+00  .557E+00  .599E+00
  .770E+00  .176E+01  .107E+01  .134E+01  .569E+00  .499E+00  .122E+01  .116E+01
  .182E+01  .147E+01  .212E+01  .242E+01  .974E+00  .304E+01  .116E+01  .145E+01
  .873E+00  .839E+00  .180E+01  .867E+00  .113E+01  .163E+01  .118E+01  .102E+01
  .216E+01  .161E+01  .247E+01  .393E+01  .491E+01  .281E+01  .229E+01  .255E+01
  .235E+01  .323E+01  .235E+01  .307E+01  .125E+01  .163E+01  .316E+01  .176E+01
  .156E+01  .242E+01  .162E+01  .922E+00  .108E+01  .204E+01  .116E+01  .700E+00
  .819E+00  .599E+00  .640E+00  .439E+00  .384E+00  .318E+00  .288E+00  .238E+00
  .186E+00  .141E+00  .110E+00  .102E+00  .000E+00  .000E+00  .000E+00  .000E+00
  .000E+00  .000E+00  .000E+00  .000E+00  .000E+00  .000E+00  .000E+00  .000E+00
  .000E+00  .000E+00  .000E+00  .000E+00  .000E+00  .000E+00  .000E+00  .000E+00
  .000E+00  .000E+00  .000E+00  .000E+00
  .322E+02  .439E+02  .394E+02  .315E+02  .315E+02  .315E+02  .349E+02  .542E+02
  .353E+02  .375E+02  .403E+02  .318E+02  .465E+02  .317E+02  .317E+02  .330E+02
  .432E+02  .553E+02  .330E+02  .351E+02  .320E+02  .346E+02  .353E+02  .436E+02
  .465E+02  .465E+02  .461E+02  .515E+02  .323E+02  .470E+02  .361E+02  .412E+02
  .331E+02  .511E+02  .406E+02  .403E+02  .356E+02  .704E+02  .511E+02  .464E+02
  .439E+02  .534E+02  .597E+02  .456E+02  .469E+02  .106E+03  .107E+03  .902E+02
  .729E+02  .869E+02  .825E+02  .690E+02  .386E+02  .691E+02  .802E+02  .918E+02
  .406E+02  .623E+02  .105E+03  .697E+02  .523E+02  .876E+02  .101E+03  .511E+02
  .729E+02  .471E+02  .817E+02  .388E+02  .719E+02  .377E+02  .378E+02  .378E+02
  .378E+02  .378E+02  .378E+02  .396E+02  .000E+00  .000E+00  .000E+00  .000E+00
  .000E+00  .000E+00  .000E+00  .000E+00  .000E+00  .000E+00  .000E+00  .000E+00
  .000E+00  .000E+00  .000E+00  .000E+00  .000E+00  .000E+00  .000E+00  .000E+00
  .000E+00  .000E+00  .000E+00  .000E+00
  .394E+02  .451E+02  .456E+02  .301E+02  .996E+02  .314E+02  .349E+02  .547E+02
  .347E+02  .376E+02  .400E+02  .318E+02  .471E+02  .316E+02  .317E+02  .332E+02
  .433E+02  .553E+02  .330E+02  .351E+02  .320E+02  .320E+02  .355E+02  .539E+02
  .466E+02  .457E+02  .462E+02  .516E+02  .323E+02  .470E+02  .362E+02  .338E+02
  .331E+02  .521E+02  .405E+02  .402E+02  .355E+02  .104E+03  .513E+02  .332E+02
  .438E+02  .535E+02  .608E+02  .455E+02  .489E+02  .507E+02  .108E+03  .913E+02
  .732E+02  .872E+02  .828E+02  .693E+02  .390E+02  .694E+02  .798E+02  .914E+02
  .411E+02  .618E+02  .102E+03  .702E+02  .539E+02  .871E+02  .679E+02  .544E+02
  .485E+02  .393E+02  .394E+02  .394E+02  .383E+02  .384E+02  .329E+02  .375E+02
  .375E+02  .375E+02  .329E+02  .329E+02  .000E+00  .000E+00  .000E+00  .000E+00
  .000E+00  .000E+00  .000E+00  .000E+00  .000E+00  .000E+00  .000E+00  .000E+00
  .000E+00  .000E+00  .000E+00  .000E+00  .000E+00  .000E+00  .000E+00  .000E+00
  .000E+00  .000E+00  .000E+00  .000E+00
  .322E+02  .439E+02  .394E+02  .315E+02  .315E+02  .315E+02  .349E+02  .542E+02
  .353E+02  .375E+02  .403E+02  .318E+02  .465E+02  .317E+02  .317E+02  .330E+02
  .432E+02  .553E+02  .330E+02  .351E+02  .320E+02  .346E+02  .353E+02  .436E+02
  .465E+02  .465E+02  .461E+02  .515E+02  .323E+02  .470E+02  .361E+02  .412E+02
  .331E+02  .511E+02  .406E+02  .403E+02  .356E+02  .704E+02  .511E+02  .464E+02
  .439E+02  .534E+02  .597E+02  .456E+02  .469E+02  .106E+03  .107E+03  .902E+02
  .729E+02  .869E+02  .825E+02  .690E+02  .386E+02  .691E+02  .802E+02  .918E+02
  .406E+02  .623E+02  .105E+03  .697E+02  .523E+02  .876E+02  .101E+03  .511E+02
  .729E+02  .471E+02  .817E+02  .388E+02  .719E+02  .377E+02  .378E+02  .378E+02
  .378E+02  .378E+02  .378E+02  .396E+02  .000E+00  .000E+00  .000E+00  .000E+00
  .000E+00  .000E+00  .000E+00  .000E+00  .000E+00  .000E+00  .000E+00  .000E+00
  .000E+00  .000E+00  .000E+00  .000E+00  .000E+00  .000E+00  .000E+00  .000E+00
  .000E+00  .000E+00  .000E+00  .000E+00
Damping =  .02. Data of Sd,Sv,Sa,Pssv,ttSd,ttSv,ttSa :
  .343E-03  .371E-03  .470E-03  .555E-03  .590E-03  .577E-03  .905E-03  .965E-03
  .173E-02  .270E-02  .383E-02  .678E-02  .748E-02  .618E-02  .579E-02  .647E-02
  .965E-02  .148E-01  .162E-01  .130E-01  .101E-01  .837E-02  .123E-01  .141E-01
  .248E-01  .277E-01  .331E-01  .468E-01  .289E-01  .393E-01  .384E-01  .423E-01
  .319E-01  .338E-01  .446E-01  .371E-01  .408E-01  .430E-01  .542E-01  .618E-01
  .746E-01  .830E-01  .120E+00  .178E+00  .216E+00  .151E+00  .135E+00  .131E+00
  .117E+00  .166E+00  .143E+00  .173E+00  .166E+00  .186E+00  .215E+00  .231E+00
  .303E+00  .320E+00  .224E+00  .176E+00  .228E+00  .275E+00  .240E+00  .224E+00
  .252E+00  .244E+00  .236E+00  .217E+00  .187E+00  .175E+00  .168E+00  .150E+00
  .126E+00  .104E+00  .876E-01  .769E-01  .000E+00  .000E+00  .000E+00  .000E+00
  .000E+00  .000E+00  .000E+00  .000E+00  .000E+00  .000E+00  .000E+00  .000E+00
  .000E+00  .000E+00  .000E+00  .000E+00  .000E+00  .000E+00  .000E+00  .000E+00
  .000E+00  .000E+00  .000E+00  .000E+00
  .250E-01  .332E-01  .325E-01  .388E-01  .476E-01  .439E-01  .758E-01  .693E-01
  .134E+00  .202E+00  .267E+00  .480E+00  .524E+00  .426E+00  .358E+00  .349E+00
  .492E+00  .713E+00  .710E+00  .575E+00  .420E+00  .330E+00  .435E+00  .477E+00
  .723E+00  .827E+00  .855E+00  .116E+01  .706E+00  .871E+00  .740E+00  .823E+00
  .666E+00  .545E+00  .722E+00  .586E+00  .676E+00  .557E+00  .654E+00  .815E+00
  .823E+00  .923E+00  .126E+01  .174E+01  .200E+01  .131E+01  .120E+01  .107E+01
  .871E+00  .109E+01  .102E+01  .990E+00  .947E+00  .887E+00  .992E+00  .921E+00
  .123E+01  .127E+01  .811E+00  .652E+00  .786E+00  .921E+00  .648E+00  .608E+00
  .666E+00  .711E+00  .679E+00  .583E+00  .508E+00  .475E+00  .444E+00  .433E+00
  .420E+00  .409E+00  .398E+00  .389E+00  .000E+00  .000E+00  .000E+00  .000E+00
  .000E+00  .000E+00  .000E+00  .000E+00  .000E+00  .000E+00  .000E+00  .000E+00
  .000E+00  .000E+00  .000E+00  .000E+00  .000E+00  .000E+00  .000E+00  .000E+00
  .000E+00  .000E+00  .000E+00  .000E+00
  .220E-01  .215E-01  .248E-01  .267E-01  .262E-01  .237E-01  .305E-01  .275E-01
  .422E-01  .564E-01  .698E-01  .108E+00  .106E+00  .780E-01  .656E-01  .662E-01
  .813E-01  .105E+00  .977E-01  .677E-01  .460E-01  .336E-01  .436E-01  .445E-01
  .701E-01  .712E-01  .700E-01  .834E-01  .438E-01  .515E-01  .438E-01  .423E-01
  .282E-01  .267E-01  .316E-01  .237E-01  .237E-01  .227E-01  .262E-01  .275E-01
  .306E-01  .281E-01  .341E-01  .431E-01  .452E-01  .274E-01  .215E-01  .186E-01
  .148E-01  .188E-01  .147E-01  .146E-01  .118E-01  .113E-01  .112E-01  .105E-01
  .121E-01  .113E-01  .707E-02  .499E-02  .585E-02  .581E-02  .427E-02  .340E-02
  .329E-02  .278E-02  .236E-02  .192E-02  .148E-02  .124E-02  .108E-02  .869E-03
  .670E-03  .508E-03  .391E-03  .317E-03  .000E+00  .000E+00  .000E+00  .000E+00
  .000E+00  .000E+00  .000E+00  .000E+00  .000E+00  .000E+00  .000E+00  .000E+00
  .000E+00  .000E+00  .000E+00  .000E+00  .000E+00  .000E+00  .000E+00  .000E+00
  .000E+00  .000E+00  .000E+00  .000E+00
  .539E-01  .555E-01  .671E-01  .757E-01  .772E-01  .725E-01  .103E+00  .101E+00
  .167E+00  .242E+00  .321E+00  .532E+00  .553E+00  .432E+00  .383E+00  .407E+00
  .551E+00  .773E+00  .785E+00  .586E+00  .422E+00  .329E+00  .456E+00  .492E+00
  .821E+00  .870E+00  .945E+00  .123E+01  .697E+00  .882E+00  .804E+00  .830E+00
  .590E+00  .590E+00  .737E+00  .583E+00  .610E+00  .614E+00  .740E+00  .809E+00
  .938E+00  .948E+00  .126E+01  .172E+01  .194E+01  .126E+01  .106E+01  .969E+00
  .818E+00  .110E+01  .901E+00  .987E+00  .869E+00  .899E+00  .964E+00  .967E+00
  .119E+01  .118E+01  .781E+00  .582E+00  .718E+00  .784E+00  .629E+00  .542E+00
  .565E+00  .511E+00  .463E+00  .401E+00  .327E+00  .289E+00  .264E+00  .224E+00
  .180E+00  .143E+00  .115E+00  .966E-01  .000E+00  .000E+00  .000E+00  .000E+00
  .000E+00  .000E+00  .000E+00  .000E+00  .000E+00  .000E+00  .000E+00  .000E+00
  .000E+00  .000E+00  .000E+00  .000E+00  .000E+00  .000E+00  .000E+00  .000E+00
  .000E+00  .000E+00  .000E+00  .000E+00
  .315E+02  .315E+02  .315E+02  .315E+02  .315E+02  .315E+02  .315E+02  .315E+02
  .315E+02  .315E+02  .315E+02  .315E+02  .321E+02  .317E+02  .317E+02  .321E+02
  .318E+02  .321E+02  .322E+02  .319E+02  .319E+02  .319E+02  .320E+02  .322E+02
  .322E+02  .325E+02  .330E+02  .334E+02  .320E+02  .335E+02  .318E+02  .337E+02
  .331E+02  .327E+02  .374E+02  .355E+02  .356E+02  .327E+02  .328E+02  .331E+02
  .331E+02  .377E+02  .338E+02  .336E+02  .337E+02  .445E+02  .442E+02  .435E+02
  .421E+02  .505E+02  .362E+02  .557E+02  .537E+02  .685E+02  .738E+02  .406E+02
  .399E+02  .401E+02  .907E+02  .439E+02  .515E+02  .403E+02  .395E+02  .511E+02
  .395E+02  .397E+02  .387E+02  .388E+02  .389E+02  .377E+02  .378E+02  .378E+02
  .378E+02  .378E+02  .378E+02  .378E+02  .000E+00  .000E+00  .000E+00  .000E+00
  .000E+00  .000E+00  .000E+00  .000E+00  .000E+00  .000E+00  .000E+00  .000E+00
  .000E+00  .000E+00  .000E+00  .000E+00  .000E+00  .000E+00  .000E+00  .000E+00
  .000E+00  .000E+00  .000E+00  .000E+00
  .320E+02  .314E+02  .314E+02  .314E+02  .314E+02  .314E+02  .314E+02  .315E+02
  .314E+02  .315E+02  .315E+02  .315E+02  .321E+02  .316E+02  .317E+02  .321E+02
  .318E+02  .321E+02  .322E+02  .320E+02  .320E+02  .320E+02  .319E+02  .319E+02
  .322E+02  .324E+02  .331E+02  .334E+02  .321E+02  .318E+02  .318E+02  .338E+02
  .317E+02  .338E+02  .377E+02  .320E+02  .355E+02  .341E+02  .326E+02  .332E+02
  .332E+02  .376E+02  .337E+02  .337E+02  .335E+02  .336E+02  .329E+02  .437E+02
  .423E+02  .507E+02  .323E+02  .554E+02  .539E+02  .688E+02  .407E+02  .402E+02
  .403E+02  .397E+02  .398E+02  .333E+02  .437E+02  .398E+02  .392E+02  .506E+02
  .485E+02  .393E+02  .393E+02  .394E+02  .381E+02  .384E+02  .329E+02  .329E+02
  .329E+02  .329E+02  .329E+02  .329E+02  .000E+00  .000E+00  .000E+00  .000E+00
  .000E+00  .000E+00  .000E+00  .000E+00  .000E+00  .000E+00  .000E+00  .000E+00
  .000E+00  .000E+00  .000E+00  .000E+00  .000E+00  .000E+00  .000E+00  .000E+00
  .000E+00  .000E+00  .000E+00  .000E+00
  .315E+02  .315E+02  .315E+02  .315E+02  .315E+02  .315E+02  .315E+02  .315E+02
  .315E+02  .315E+02  .315E+02  .315E+02  .321E+02  .317E+02  .317E+02  .321E+02
  .318E+02  .321E+02  .322E+02  .319E+02  .319E+02  .319E+02  .320E+02  .322E+02
  .322E+02  .325E+02  .330E+02  .334E+02  .320E+02  .335E+02  .317E+02  .337E+02
  .331E+02  .327E+02  .374E+02  .355E+02  .356E+02  .327E+02  .328E+02  .331E+02
  .331E+02  .377E+02  .338E+02  .336E+02  .336E+02  .445E+02  .442E+02  .435E+02
  .420E+02  .505E+02  .362E+02  .557E+02  .537E+02  .685E+02  .738E+02  .406E+02
  .399E+02  .401E+02  .907E+02  .439E+02  .515E+02  .403E+02  .395E+02  .511E+02
  .395E+02  .396E+02  .386E+02  .387E+02  .388E+02  .377E+02  .377E+02  .378E+02
  .378E+02  .378E+02  .378E+02  .378E+02  .000E+00  .000E+00  .000E+00  .000E+00
  .000E+00  .000E+00  .000E+00  .000E+00  .000E+00  .000E+00  .000E+00  .000E+00
  .000E+00  .000E+00  .000E+00  .000E+00  .000E+00  .000E+00  .000E+00  .000E+00
  .000E+00  .000E+00  .000E+00  .000E+00
Damping =  .05. Data of Sd,Sv,Sa,Pssv,ttSd,ttSv,ttSa :
  .335E-03  .377E-03  .447E-03  .511E-03  .545E-03  .559E-03  .812E-03  .102E-02
