Response and Fourier amplitude spectra (76 periods,  .04 -  5.0 sec)   for      
Corrected accelerogram   23792-K1341-08217.20       Chan  9: 180 Deg     from   
Uncorrected Accelerogram Data             Processed: 10/01/08, CDMG  AQ020      
Record of Tue Jul 29, 2008 11:41:59.0 PDT             (Avol1 v8.1 9/08 CSMIP)   
CSMIP Preliminary Processing            (Origin:  To be determined)             
23792-K1341-08217.20                 Start time:  7/29/08, 18:41:59.0 UTC (GPS) 
Station No. 23792   34.064N, 117.294W        K2  s/n 1341 (12 Channels)         
San Bernardino - I10/215 W Geotech Array  CGS                                   
Chan  9: 180 Deg                    Location: 35.0m (115ft) Depth               
Record of Tue Jul 29, 2008 11:41:59.0 PDT    Tue Jul 29, 2008 11:41:59.0 PDT    
Hypocenter:  To be determined.               ML:  To be determined.
Instr Period =  .0194 sec,  Damping =  .650,  Sensitivity = 1.26  v/g
                        Record length =109.000 sec.
                                     Uncor Max  =   .020 g , at  31.460 sec.
RMS accel of (uncor) record  =        .   Chn. metadata effective date: 05/16/08
Accelerogram bandpass filtered with 3 dB pts at   .30 and 40.00 cyc/sec
                 instrument- and baseline-corrected





Record of Tue Jul 29, 2008 11:41:59.0 PDT    Tue Jul 29, 2008 11:41:59.0 PDT

23792-K1341-08217.20      San Bernardino - I10/215 W Geotech Array  CGChan  9: 1
80 Deg
23792-K1341-08217.20      San Bernardino - I10/215 W Geotech Array  CGChan  9: 1
80 Deg
Units for spectra are inches and sec, except Sa is in fraction of g.

    9  100    9   12   12  200    1    3    1   24   11 1341    023792    4    0
   18   41   59    0  211    7   29 2008   10    3  18021800   41   40   76   -1
21800    0   50    3 1341    1   20 1090    2    0    0    0    0    0    0    0
    0    2    0    010900    2  222    0   18    7   76   40    1    1    010900
    310900   41   76    5   12    5    0    0    0   12    0    0    3    0    2
    2    2    4    1   65   99    0   32   32    0    0    1    0    0    0  222
    1    0   18    0
      .019      .650   109.000      .002      .000  1256.000      .020    31.460
    51.600      .298      .238      .000     5.000      .000     3.987      .000
     2.500   -22.648     2.500  -999.000    25.000    30.000      .000     -.001
      .003      .004     2.000    15.000    34.064  -117.294      .019      .602
    32.037     -.024      .033   298.000    25.000    78.400    13.100   109.940
     1.000     1.087      .000      .000      .000      .000      .000      .000
     4.600     8.100     5.000   980.665      .010   109.000     8.212      .000
      .000    40.000      .000   109.000      .010      .300      .000      .000
    31.450    18.998    31.360    -1.283    31.260      .129      .000      .300
    40.000      .010      .010      .000      .010      .091      .000      .000
      .074      .280      .048      .066      .012      .001      .000      .000
      .000      .000      .000      .000      .000      .000      .000      .000
      .000      .000      .000      .000
      .000      .020      .050      .100      .200
      .040      .042      .044      .046      .048      .050      .055      .060
      .065      .070      .075      .080      .085      .090      .095      .100
      .110      .120      .130      .140      .150      .160      .170      .180
      .190      .200      .220      .240      .260      .280      .300      .320
      .340      .360      .380      .400      .420      .440      .460      .480
      .500      .550      .600      .650      .700      .750      .800      .850
      .900      .950     1.000     1.100     1.200     1.300     1.400     1.500
     1.600     1.700     1.800     1.900     2.000     2.200     2.400     2.600
     2.800     3.000     3.200     3.400     3.600     3.800     4.000     4.200
     4.400     4.600     4.800     5.000      .000      .000      .000      .000
      .000      .000      .000      .000      .000      .000      .000      .000
      .000      .000      .000      .000      .000      .000      .000      .000
      .000      .000      .000      .000
Fourier amplitude spectra in in/sec.
  .977E-01  .586E-01  .554E-01  .558E-01  .501E-01  .953E-01  .164E+00  .168E+00
  .211E+00  .820E-01  .295E+00  .181E+00  .134E+00  .921E-01  .142E+00  .524E+00
  .644E+00  .419E+00  .117E+00  .111E+01  .408E+00  .465E+00  .369E+00  .414E+00
  .137E+01  .954E+00  .157E+01  .710E+00  .427E+01  .369E+01  .189E+01  .168E+01
  .872E+00  .346E+00  .308E+00  .569E+00  .847E+00  .909E+00  .123E+01  .276E+00
  .200E+01  .848E+00  .670E+00  .456E+01  .178E+01  .294E+01  .422E+01  .289E+01
  .723E+00  .113E+01  .238E+01  .105E+01  .382E+00  .165E+01  .945E+00  .135E+01
  .827E+00  .953E+00  .123E+01  .431E+00  .171E+01  .620E+00  .903E+00  .323E+00
  .438E+00  .375E+00  .666E-01  .305E-02  .252E+00  .188E+00  .271E-01  .461E-01
  .177E-01  .119E-01  .120E-01  .107E-01  .000E+00  .000E+00  .000E+00  .000E+00
  .000E+00  .000E+00  .000E+00  .000E+00  .000E+00  .000E+00  .000E+00  .000E+00
  .000E+00  .000E+00  .000E+00  .000E+00  .000E+00  .000E+00  .000E+00  .000E+00
  .000E+00  .000E+00  .000E+00  .000E+00
Damping =  .00. Data of Sd,Sv,Sa,Pssv,ttSd,ttSv,ttSa :
  .759E-03  .839E-03  .551E-03  .734E-03  .649E-03  .103E-02  .205E-02  .201E-02
  .238E-02  .273E-02  .373E-02  .402E-02  .472E-02  .439E-02  .533E-02  .141E-01
  .124E-01  .113E-01  .110E-01  .251E-01  .160E-01  .150E-01  .146E-01  .210E-01
  .441E-01  .319E-01  .602E-01  .510E-01  .178E+00  .197E+00  .100E+00  .958E-01
  .809E-01  .569E-01  .454E-01  .582E-01  .724E-01  .871E-01  .926E-01  .986E-01
  .190E+00  .186E+00  .195E+00  .486E+00  .210E+00  .421E+00  .540E+00  .396E+00
  .157E+00  .305E+00  .422E+00  .186E+00  .328E+00  .350E+00  .327E+00  .358E+00
  .334E+00  .259E+00  .487E+00  .260E+00  .617E+00  .303E+00  .354E+00  .180E+00
  .227E+00  .214E+00  .142E+00  .117E+00  .184E+00  .152E+00  .909E-01  .770E-01
  .690E-01  .660E-01  .630E-01  .605E-01  .000E+00  .000E+00  .000E+00  .000E+00
  .000E+00  .000E+00  .000E+00  .000E+00  .000E+00  .000E+00  .000E+00  .000E+00
  .000E+00  .000E+00  .000E+00  .000E+00  .000E+00  .000E+00  .000E+00  .000E+00
  .000E+00  .000E+00  .000E+00  .000E+00
  .985E-01  .101E+00  .648E-01  .655E-01  .562E-01  .955E-01  .226E+00  .193E+00
  .223E+00  .229E+00  .304E+00  .268E+00  .262E+00  .212E+00  .283E+00  .847E+00
  .699E+00  .561E+00  .454E+00  .110E+01  .637E+00  .506E+00  .535E+00  .641E+00
  .145E+01  .980E+00  .170E+01  .132E+01  .431E+01  .442E+01  .210E+01  .185E+01
  .151E+01  .105E+01  .693E+00  .881E+00  .105E+01  .124E+01  .125E+01  .127E+01
  .239E+01  .214E+01  .201E+01  .466E+01  .187E+01  .349E+01  .424E+01  .293E+01
  .108E+01  .199E+01  .264E+01  .106E+01  .170E+01  .168E+01  .154E+01  .151E+01
  .134E+01  .108E+01  .176E+01  .906E+00  .200E+01  .909E+00  .952E+00  .624E+00
  .615E+00  .586E+00  .562E+00  .550E+00  .548E+00  .547E+00  .547E+00  .546E+00
  .544E+00  .540E+00  .537E+00  .533E+00  .000E+00  .000E+00  .000E+00  .000E+00
  .000E+00  .000E+00  .000E+00  .000E+00  .000E+00  .000E+00  .000E+00  .000E+00
  .000E+00  .000E+00  .000E+00  .000E+00  .000E+00  .000E+00  .000E+00  .000E+00
  .000E+00  .000E+00  .000E+00  .000E+00
  .485E-01  .486E-01  .291E-01  .355E-01  .288E-01  .422E-01  .694E-01  .570E-01
  .577E-01  .570E-01  .678E-01  .642E-01  .668E-01  .555E-01  .604E-01  .144E+00
  .105E+00  .806E-01  .667E-01  .131E+00  .726E-01  .598E-01  .518E-01  .663E-01
  .125E+00  .817E-01  .127E+00  .905E-01  .269E+00  .257E+00  .114E+00  .957E-01
  .716E-01  .449E-01  .322E-01  .372E-01  .420E-01  .460E-01  .447E-01  .438E-01
  .777E-01  .628E-01  .554E-01  .118E+00  .439E-01  .765E-01  .863E-01  .561E-01
  .198E-01  .346E-01  .432E-01  .157E-01  .233E-01  .212E-01  .171E-01  .163E-01
  .133E-01  .916E-02  .154E-01  .736E-02  .158E-01  .640E-02  .628E-02  .272E-02
  .296E-02  .243E-02  .142E-02  .103E-02  .145E-02  .108E-02  .581E-03  .446E-03
  .365E-03  .319E-03  .280E-03  .248E-03  .000E+00  .000E+00  .000E+00  .000E+00
  .000E+00  .000E+00  .000E+00  .000E+00  .000E+00  .000E+00  .000E+00  .000E+00
  .000E+00  .000E+00  .000E+00  .000E+00  .000E+00  .000E+00  .000E+00  .000E+00
  .000E+00  .000E+00  .000E+00  .000E+00
  .119E+00  .126E+00  .787E-01  .100E+00  .849E-01  .130E+00  .235E+00  .210E+00
  .230E+00  .245E+00  .313E+00  .315E+00  .349E+00  .307E+00  .352E+00  .884E+00
  .709E+00  .594E+00  .533E+00  .113E+01  .669E+00  .588E+00  .541E+00  .733E+00
  .146E+01  .100E+01  .172E+01  .133E+01  .429E+01  .442E+01  .210E+01  .188E+01
  .150E+01  .992E+00  .751E+00  .914E+00  .108E+01  .124E+01  .126E+01  .129E+01
  .239E+01  .212E+01  .204E+01  .469E+01  .189E+01  .353E+01  .424E+01  .293E+01
  .110E+01  .202E+01  .265E+01  .106E+01  .172E+01  .169E+01  .147E+01  .150E+01
  .131E+01  .956E+00  .170E+01  .859E+00  .194E+01  .865E+00  .926E+00  .434E+00
  .510E+00  .448E+00  .280E+00  .216E+00  .322E+00  .252E+00  .143E+00  .115E+00
  .986E-01  .901E-01  .825E-01  .760E-01  .000E+00  .000E+00  .000E+00  .000E+00
  .000E+00  .000E+00  .000E+00  .000E+00  .000E+00  .000E+00  .000E+00  .000E+00
  .000E+00  .000E+00  .000E+00  .000E+00  .000E+00  .000E+00  .000E+00  .000E+00
  .000E+00  .000E+00  .000E+00  .000E+00
  .313E+02  .325E+02  .357E+02  .315E+02  .325E+02  .316E+02  .438E+02  .344E+02
  .359E+02  .320E+02  .554E+02  .354E+02  .314E+02  .314E+02  .318E+02  .331E+02
  .464E+02  .354E+02  .325E+02  .599E+02  .335E+02  .313E+02  .430E+02  .313E+02
  .523E+02  .546E+02  .646E+02  .318E+02  .782E+02  .360E+02  .317E+02  .393E+02
  .346E+02  .316E+02  .311E+02  .386E+02  .429E+02  .397E+02  .937E+02  .328E+02
  .451E+02  .372E+02  .343E+02  .569E+02  .880E+02  .576E+02  .106E+03  .103E+03
  .331E+02  .476E+02  .744E+02  .843E+02  .666E+02  .105E+03  .460E+02  .900E+02
  .516E+02  .998E+02  .685E+02  .687E+02  .824E+02  .938E+02  .547E+02  .578E+02
  .745E+02  .747E+02  .560E+02  .393E+02  .780E+02  .666E+02  .505E+02  .449E+02
  .313E+02  .313E+02  .313E+02  .313E+02  .000E+00  .000E+00  .000E+00  .000E+00
  .000E+00  .000E+00  .000E+00  .000E+00  .000E+00  .000E+00  .000E+00  .000E+00
  .000E+00  .000E+00  .000E+00  .000E+00  .000E+00  .000E+00  .000E+00  .000E+00
  .000E+00  .000E+00  .000E+00  .000E+00
  .606E+02  .344E+02  .400E+02  .327E+02  .530E+02  .852E+02  .437E+02  .395E+02
  .564E+02  .332E+02  .550E+02  .354E+02  .314E+02  .313E+02  .318E+02  .331E+02
  .460E+02  .350E+02  .325E+02  .659E+02  .335E+02  .525E+02  .430E+02  .312E+02
  .523E+02  .546E+02  .636E+02  .319E+02  .782E+02  .359E+02  .318E+02  .390E+02
  .345E+02  .324E+02  .323E+02  .385E+02  .430E+02  .398E+02  .935E+02  .329E+02
  .452E+02  .365E+02  .341E+02  .568E+02  .878E+02  .578E+02  .105E+03  .103E+03
  .333E+02  .473E+02  .741E+02  .917E+02  .669E+02  .106E+03  .464E+02  .897E+02
  .513E+02  .356E+02  .690E+02  .683E+02  .829E+02  .437E+02  .601E+02  .310E+02
  .310E+02  .310E+02  .310E+02  .310E+02  .310E+02  .310E+02  .310E+02  .310E+02
  .310E+02  .310E+02  .310E+02  .310E+02  .000E+00  .000E+00  .000E+00  .000E+00
  .000E+00  .000E+00  .000E+00  .000E+00  .000E+00  .000E+00  .000E+00  .000E+00
  .000E+00  .000E+00  .000E+00  .000E+00  .000E+00  .000E+00  .000E+00  .000E+00
  .000E+00  .000E+00  .000E+00  .000E+00
  .313E+02  .325E+02  .357E+02  .315E+02  .325E+02  .316E+02  .438E+02  .344E+02
  .359E+02  .320E+02  .554E+02  .354E+02  .314E+02  .314E+02  .318E+02  .331E+02
  .464E+02  .354E+02  .325E+02  .599E+02  .335E+02  .313E+02  .430E+02  .313E+02
  .523E+02  .546E+02  .646E+02  .318E+02  .782E+02  .360E+02  .317E+02  .393E+02
  .346E+02  .316E+02  .311E+02  .386E+02  .429E+02  .397E+02  .937E+02  .328E+02
  .451E+02  .372E+02  .343E+02  .569E+02  .880E+02  .576E+02  .106E+03  .103E+03
  .331E+02  .476E+02  .744E+02  .843E+02  .666E+02  .105E+03  .460E+02  .900E+02
  .516E+02  .998E+02  .685E+02  .687E+02  .824E+02  .938E+02  .547E+02  .578E+02
  .745E+02  .747E+02  .560E+02  .393E+02  .780E+02  .666E+02  .505E+02  .449E+02
  .313E+02  .313E+02  .313E+02  .313E+02  .000E+00  .000E+00  .000E+00  .000E+00
  .000E+00  .000E+00  .000E+00  .000E+00  .000E+00  .000E+00  .000E+00  .000E+00
  .000E+00  .000E+00  .000E+00  .000E+00  .000E+00  .000E+00  .000E+00  .000E+00
  .000E+00  .000E+00  .000E+00  .000E+00
Damping =  .02. Data of Sd,Sv,Sa,Pssv,ttSd,ttSv,ttSa :
  .372E-03  .423E-03  .477E-03  .537E-03  .616E-03  .690E-03  .109E-02  .110E-02
  .113E-02  .133E-02  .178E-02  .206E-02  .246E-02  .319E-02  .501E-02  .641E-02
  .529E-02  .584E-02  .599E-02  .917E-02  .902E-02  .819E-02  .981E-02  .143E-01
  .231E-01  .217E-01  .280E-01  .415E-01  .690E-01  .824E-01  .759E-01  .682E-01
  .594E-01  .491E-01  .453E-01  .481E-01  .520E-01  .512E-01  .550E-01  .760E-01
  .952E-01  .111E+00  .142E+00  .209E+00  .155E+00  .219E+00  .271E+00  .167E+00
  .130E+00  .132E+00  .164E+00  .129E+00  .131E+00  .166E+00  .206E+00  .235E+00
  .215E+00  .227E+00  .237E+00  .167E+00  .254E+00  .223E+00  .203E+00  .136E+00
  .131E+00  .118E+00  .110E+00  .103E+00  .108E+00  .113E+00  .770E-01  .711E-01
  .686E-01  .659E-01  .633E-01  .610E-01  .000E+00  .000E+00  .000E+00  .000E+00
  .000E+00  .000E+00  .000E+00  .000E+00  .000E+00  .000E+00  .000E+00  .000E+00
  .000E+00  .000E+00  .000E+00  .000E+00  .000E+00  .000E+00  .000E+00  .000E+00
  .000E+00  .000E+00  .000E+00  .000E+00
  .240E-01  .312E-01  .326E-01  .314E-01  .305E-01  .460E-01  .849E-01  .627E-01
  .752E-01  .892E-01  .110E+00  .130E+00  .129E+00  .143E+00  .264E+00  .363E+00
  .290E+00  .289E+00  .253E+00  .389E+00  .281E+00  .247E+00  .323E+00  .409E+00
  .700E+00  .627E+00  .644E+00  .986E+00  .165E+01  .184E+01  .157E+01  .143E+01
  .123E+01  .909E+00  .677E+00  .677E+00  .729E+00  .752E+00  .821E+00  .102E+01
  .127E+01  .133E+01  .154E+01  .199E+01  .152E+01  .186E+01  .222E+01  .134E+01
  .988E+00  .107E+01  .100E+01  .990E+00  .815E+00  .761E+00  .905E+00  .101E+01
  .991E+00  .997E+00  .915E+00  .756E+00  .798E+00  .709E+00  .665E+00  .608E+00
  .603E+00  .581E+00  .562E+00  .551E+00  .547E+00  .545E+00  .545E+00  .543E+00
  .541E+00  .538E+00  .535E+00  .532E+00  .000E+00  .000E+00  .000E+00  .000E+00
  .000E+00  .000E+00  .000E+00  .000E+00  .000E+00  .000E+00  .000E+00  .000E+00
  .000E+00  .000E+00  .000E+00  .000E+00  .000E+00  .000E+00  .000E+00  .000E+00
  .000E+00  .000E+00  .000E+00  .000E+00
  .238E-01  .245E-01  .252E-01  .260E-01  .273E-01  .283E-01  .370E-01  .311E-01
  .273E-01  .278E-01  .324E-01  .330E-01  .347E-01  .403E-01  .568E-01  .655E-01
  .449E-01  .418E-01  .361E-01  .475E-01  .411E-01  .327E-01  .347E-01  .454E-01
  .651E-01  .556E-01  .592E-01  .736E-01  .105E+00  .108E+00  .865E-01  .682E-01
  .527E-01  .388E-01  .321E-01  .307E-01  .301E-01  .270E-01  .267E-01  .338E-01
  .390E-01  .377E-01  .405E-01  .506E-01  .323E-01  .399E-01  .433E-01  .236E-01
  .165E-01  .150E-01  .168E-01  .109E-01  .929E-02  .100E-01  .108E-01  .107E-01
  .862E-02  .803E-02  .749E-02  .475E-02  .650E-02  .473E-02  .360E-02  .206E-02
  .171E-02  .134E-02  .110E-02  .917E-03  .856E-03  .805E-03  .494E-03  .420E-03
  .370E-03  .326E-03  .288E-03  .257E-03  .000E+00  .000E+00  .000E+00  .000E+00
  .000E+00  .000E+00  .000E+00  .000E+00  .000E+00  .000E+00  .000E+00  .000E+00
  .000E+00  .000E+00  .000E+00  .000E+00  .000E+00  .000E+00  .000E+00  .000E+00
  .000E+00  .000E+00  .000E+00  .000E+00
  .584E-01  .633E-01  .681E-01  .733E-01  .806E-01  .867E-01  .124E+00  .115E+00
  .109E+00  .120E+00  .149E+00  .162E+00  .182E+00  .223E+00  .331E+00  .403E+00
  .302E+00  .306E+00  .289E+00  .411E+00  .378E+00  .321E+00  .363E+00  .500E+00
  .763E+00  .681E+00  .800E+00  .109E+01  .167E+01  .185E+01  .159E+01  .134E+01
  .110E+01  .856E+00  .749E+00  .755E+00  .778E+00  .731E+00  .752E+00  .994E+00
  .120E+01  .127E+01  .149E+01  .202E+01  .139E+01  .184E+01  .213E+01  .123E+01
  .909E+00  .874E+00  .103E+01  .737E+00  .684E+00  .801E+00  .925E+00  .983E+00
  .846E+00  .838E+00  .827E+00  .554E+00  .798E+00  .638E+00  .531E+00  .328E+00
  .294E+00  .247E+00  .216E+00  .191E+00  .189E+00  .188E+00  .121E+00  .106E+00
  .979E-01  .900E-01  .828E-01  .766E-01  .000E+00  .000E+00  .000E+00  .000E+00
  .000E+00  .000E+00  .000E+00  .000E+00  .000E+00  .000E+00  .000E+00  .000E+00
  .000E+00  .000E+00  .000E+00  .000E+00  .000E+00  .000E+00  .000E+00  .000E+00
  .000E+00  .000E+00  .000E+00  .000E+00
  .314E+02  .314E+02  .315E+02  .315E+02  .315E+02  .316E+02  .316E+02  .313E+02
  .313E+02  .331E+02  .320E+02  .320E+02  .318E+02  .315E+02  .318E+02  .320E+02
  .322E+02  .317E+02  .325E+02  .323E+02  .318E+02  .318E+02  .318E+02  .325E+02
  .325E+02  .326E+02  .314E+02  .315E+02  .327E+02  .327E+02  .317E+02  .317E+02
  .316E+02  .316E+02  .311E+02  .311E+02  .312E+02  .312E+02  .328E+02  .328E+02
  .328E+02  .335E+02  .319E+02  .320E+02  .324E+02  .359E+02  .357E+02  .350E+02
  .331E+02  .423E+02  .579E+02  .347E+02  .486E+02  .561E+02  .719E+02  .595E+02
  .358E+02  .608E+02  .576E+02  .679E+02  .793E+02  .410E+02  .546E+02  .578E+02
  .455E+02  .734E+02  .559E+02  .393E+02  .562E+02  .553E+02  .553E+02  .313E+02
  .313E+02  .313E+02  .313E+02  .313E+02  .000E+00  .000E+00  .000E+00  .000E+00
  .000E+00  .000E+00  .000E+00  .000E+00  .000E+00  .000E+00  .000E+00  .000E+00
  .000E+00  .000E+00  .000E+00  .000E+00  .000E+00  .000E+00  .000E+00  .000E+00
  .000E+00  .000E+00  .000E+00  .000E+00
  .312E+02  .316E+02  .316E+02  .316E+02  .311E+02  .316E+02  .316E+02  .316E+02
  .316E+02  .330E+02  .319E+02  .320E+02  .318E+02  .313E+02  .318E+02  .321E+02
  .320E+02  .317E+02  .317E+02  .323E+02  .318E+02  .319E+02  .319E+02  .324E+02
  .326E+02  .326E+02  .315E+02  .319E+02  .326E+02  .325E+02  .316E+02  .316E+02
  .316E+02  .316E+02  .312E+02  .311E+02  .311E+02  .316E+02  .316E+02  .316E+02
  .327E+02  .326E+02  .320E+02  .321E+02  .319E+02  .361E+02  .359E+02  .353E+02
  .316E+02  .316E+02  .576E+02  .313E+02  .313E+02  .313E+02  .700E+02  .592E+02
  .313E+02  .313E+02  .572E+02  .313E+02  .798E+02  .415E+02  .313E+02  .310E+02
  .310E+02  .310E+02  .310E+02  .310E+02  .310E+02  .310E+02  .310E+02  .310E+02
  .310E+02  .310E+02  .310E+02  .310E+02  .000E+00  .000E+00  .000E+00  .000E+00
  .000E+00  .000E+00  .000E+00  .000E+00  .000E+00  .000E+00  .000E+00  .000E+00
  .000E+00  .000E+00  .000E+00  .000E+00  .000E+00  .000E+00  .000E+00  .000E+00
  .000E+00  .000E+00  .000E+00  .000E+00
  .314E+02  .314E+02  .315E+02  .315E+02  .315E+02  .316E+02  .316E+02  .313E+02
  .313E+02  .331E+02  .320E+02  .320E+02  .318E+02  .315E+02  .318E+02  .320E+02
  .322E+02  .317E+02  .325E+02  .323E+02  .318E+02  .318E+02  .318E+02  .325E+02
  .325E+02  .326E+02  .314E+02  .315E+02  .327E+02  .327E+02  .317E+02  .317E+02
  .316E+02  .316E+02  .311E+02  .311E+02  .311E+02  .312E+02  .328E+02  .328E+02
  .328E+02  .335E+02  .319E+02  .319E+02  .324E+02  .359E+02  .357E+02  .350E+02
  .331E+02  .423E+02  .579E+02  .347E+02  .486E+02  .561E+02  .718E+02  .595E+02
  .357E+02  .608E+02  .576E+02  .679E+02  .793E+02  .410E+02  .546E+02  .578E+02
  .454E+02  .734E+02  .559E+02  .393E+02  .561E+02  .552E+02  .553E+02  .312E+02
  .312E+02  .312E+02  .312E+02  .312E+02  .000E+00  .000E+00  .000E+00  .000E+00
  .000E+00  .000E+00  .000E+00  .000E+00  .000E+00  .000E+00  .000E+00  .000E+00
  .000E+00  .000E+00  .000E+00  .000E+00  .000E+00  .000E+00  .000E+00  .000E+00
  .000E+00  .000E+00  .000E+00  .000E+00
Damping =  .05. Data of Sd,Sv,Sa,Pssv,ttSd,ttSv,ttSa :
  .344E-03  .391E-03  .445E-03  .496E-03  .546E-03  .605E-03  .854E-03  .937E-03
