Response and Fourier amplitude spectra (76 periods,  .04 -  5.0 sec)   for      
Corrected accelerogram   23792-K1341-08217.20       Chan  1:  90 Deg     from   
Uncorrected Accelerogram Data             Processed: 10/01/08, CDMG  AQ020      
Record of Tue Jul 29, 2008 11:41:59.0 PDT             (Avol1 v8.1 9/08 CSMIP)   
CSMIP Preliminary Processing            (Origin:  To be determined)             
23792-K1341-08217.20                 Start time:  7/29/08, 18:41:59.0 UTC (GPS) 
Station No. 23792   34.064N, 117.294W        K2  s/n 1341 (12 Channels)         
San Bernardino - I10/215 W Geotech Array  CGS                                   
Chan  1:  90 Deg                    Location: Ground Surface                    
Record of Tue Jul 29, 2008 11:41:59.0 PDT    Tue Jul 29, 2008 11:41:59.0 PDT    
Hypocenter:  To be determined.               ML:  To be determined.
Instr Period =  .0108 sec,  Damping =  .640,  Sensitivity =  .63  v/g
                        Record length =109.000 sec.
                                     Uncor Max  =  -.049 g , at  31.580 sec.
RMS accel of (uncor) record  =        .   Chn. metadata effective date: 05/16/08
Accelerogram bandpass filtered with 3 dB pts at   .30 and 40.00 cyc/sec
                 instrument- and baseline-corrected





Record of Tue Jul 29, 2008 11:41:59.0 PDT    Tue Jul 29, 2008 11:41:59.0 PDT

23792-K1341-08217.20      San Bernardino - I10/215 W Geotech Array  CGChan  1:
90 Deg
23792-K1341-08217.20      San Bernardino - I10/215 W Geotech Array  CGChan  1:
90 Deg
Units for spectra are inches and sec, except Sa is in fraction of g.

    1  100    1   12   12  200    1    3    1   24   11 1341    023792    4    0
   18   41   59    0  211    7   29 2008   10    3   9021800   41   40   76   -1
21800    1   50    3 1341    1   20 1090    2    0    0    0    0    0    0    0
    0    4    0    010900    2  222    0   18    4   76   40    1    1    010900
    310900   41   76    5   12    5    0    0    0   12    0    0    3    0    2
    2    2    4    1   65   99    0   32   32    0    0    1    0    0    0  222
    1    0    2    0
      .011      .640   109.000      .003      .000   627.000     -.049    31.580
    93.000      .298      .477      .000     5.000      .000     3.987      .000
     2.500   -18.660     2.500  -999.000    25.000    30.000      .000      .012
     -.013     -.025     2.000    15.000    34.064  -117.294      .096     1.211
    12.599     -.083      .033   298.000    25.000    78.400    13.100   109.940
     1.000    -1.088      .000      .000      .000      .000      .000      .000
     4.600     8.100     5.000   980.665      .010   109.000    14.801      .001
      .000    40.000      .000   109.000      .010      .300      .000      .000
    31.580   -48.102    32.340     1.910    38.660     -.185      .000      .300
    40.000      .010      .010      .000      .010      .128      .000      .000
      .123      .240      .112      .103      .015      .002      .000      .000
      .000      .000      .000      .000      .000      .000      .000      .000
      .000      .000      .000      .000
      .000      .020      .050      .100      .200
      .040      .042      .044      .046      .048      .050      .055      .060
      .065      .070      .075      .080      .085      .090      .095      .100
      .110      .120      .130      .140      .150      .160      .170      .180
      .190      .200      .220      .240      .260      .280      .300      .320
      .340      .360      .380      .400      .420      .440      .460      .480
      .500      .550      .600      .650      .700      .750      .800      .850
      .900      .950     1.000     1.100     1.200     1.300     1.400     1.500
     1.600     1.700     1.800     1.900     2.000     2.200     2.400     2.600
     2.800     3.000     3.200     3.400     3.600     3.800     4.000     4.200
     4.400     4.600     4.800     5.000      .000      .000      .000      .000
      .000      .000      .000      .000      .000      .000      .000      .000
      .000      .000      .000      .000      .000      .000      .000      .000
      .000      .000      .000      .000
Fourier amplitude spectra in in/sec.
  .737E-01  .689E-01  .632E-01  .738E-01  .869E-01  .981E-01  .744E-01  .292E+00
  .240E+00  .220E+00  .243E+00  .387E+00  .148E+01  .822E+00  .643E+00  .598E+00
  .971E+00  .195E+01  .598E+00  .289E+01  .125E+01  .151E+01  .269E+01  .110E+01
  .169E+01  .314E+01  .437E+01  .459E+01  .433E+01  .710E+01  .558E+01  .393E+01
  .124E+01  .124E+01  .228E+01  .431E+01  .645E+01  .255E+01  .375E+01  .237E+01
  .448E+01  .288E+01  .194E+01  .145E+01  .493E+01  .492E+01  .503E+01  .167E+01
  .209E+01  .300E+01  .193E+01  .298E+01  .575E+00  .216E+01  .217E+01  .185E+01
  .135E+01  .253E+01  .199E+01  .363E+00  .244E+00  .173E+01  .114E+01  .286E+00
  .451E+00  .457E+00  .396E+00  .246E-01  .293E+00  .165E+00  .615E-01  .929E-01
  .760E-01  .680E-01  .311E-01  .305E-01  .000E+00  .000E+00  .000E+00  .000E+00
  .000E+00  .000E+00  .000E+00  .000E+00  .000E+00  .000E+00  .000E+00  .000E+00
  .000E+00  .000E+00  .000E+00  .000E+00  .000E+00  .000E+00  .000E+00  .000E+00
  .000E+00  .000E+00  .000E+00  .000E+00
Damping =  .00. Data of Sd,Sv,Sa,Pssv,ttSd,ttSv,ttSa :
  .106E-02  .105E-02  .119E-02  .113E-02  .156E-02  .151E-02  .253E-02  .326E-02
  .469E-02  .524E-02  .615E-02  .101E-01  .224E-01  .144E-01  .131E-01  .184E-01
  .245E-01  .383E-01  .524E-01  .768E-01  .484E-01  .483E-01  .739E-01  .523E-01
  .860E-01  .105E+00  .162E+00  .182E+00  .187E+00  .329E+00  .279E+00  .269E+00
  .164E+00  .138E+00  .168E+00  .298E+00  .434E+00  .237E+00  .311E+00  .254E+00
  .421E+00  .357E+00  .253E+00  .257E+00  .708E+00  .620E+00  .640E+00  .274E+00
  .363E+00  .514E+00  .329E+00  .647E+00  .288E+00  .458E+00  .631E+00  .545E+00
  .436E+00  .746E+00  .636E+00  .389E+00  .300E+00  .769E+00  .476E+00  .237E+00
  .274E+00  .260E+00  .296E+00  .221E+00  .203E+00  .168E+00  .165E+00  .153E+00
  .130E+00  .106E+00  .951E-01  .939E-01  .000E+00  .000E+00  .000E+00  .000E+00
  .000E+00  .000E+00  .000E+00  .000E+00  .000E+00  .000E+00  .000E+00  .000E+00
  .000E+00  .000E+00  .000E+00  .000E+00  .000E+00  .000E+00  .000E+00  .000E+00
  .000E+00  .000E+00  .000E+00  .000E+00
  .111E+00  .808E-01  .741E-01  .948E-01  .123E+00  .997E-01  .145E+00  .312E+00
  .392E+00  .341E+00  .405E+00  .721E+00  .164E+01  .935E+00  .711E+00  .101E+01
  .138E+01  .198E+01  .244E+01  .343E+01  .199E+01  .190E+01  .273E+01  .175E+01
  .281E+01  .330E+01  .463E+01  .476E+01  .446E+01  .736E+01  .577E+01  .529E+01
  .298E+01  .225E+01  .282E+01  .468E+01  .649E+01  .345E+01  .422E+01  .356E+01
  .520E+01  .410E+01  .258E+01  .249E+01  .630E+01  .524E+01  .502E+01  .201E+01
  .249E+01  .336E+01  .207E+01  .368E+01  .150E+01  .222E+01  .284E+01  .226E+01
  .179E+01  .276E+01  .226E+01  .131E+01  .107E+01  .219E+01  .127E+01  .993E+00
  .909E+00  .838E+00  .809E+00  .807E+00  .808E+00  .804E+00  .794E+00  .781E+00
  .769E+00  .759E+00  .751E+00  .745E+00  .000E+00  .000E+00  .000E+00  .000E+00
  .000E+00  .000E+00  .000E+00  .000E+00  .000E+00  .000E+00  .000E+00  .000E+00
  .000E+00  .000E+00  .000E+00  .000E+00  .000E+00  .000E+00  .000E+00  .000E+00
  .000E+00  .000E+00  .000E+00  .000E+00
  .675E-01  .608E-01  .630E-01  .545E-01  .693E-01  .617E-01  .855E-01  .926E-01
  .114E+00  .109E+00  .112E+00  .161E+00  .317E+00  .182E+00  .149E+00  .188E+00
  .207E+00  .272E+00  .317E+00  .401E+00  .220E+00  .193E+00  .261E+00  .165E+00
  .244E+00  .269E+00  .342E+00  .323E+00  .283E+00  .429E+00  .317E+00  .269E+00
  .145E+00  .109E+00  .119E+00  .191E+00  .251E+00  .125E+00  .150E+00  .113E+00
  .172E+00  .121E+00  .718E-01  .621E-01  .148E+00  .113E+00  .102E+00  .388E-01
  .458E-01  .582E-01  .337E-01  .547E-01  .205E-01  .277E-01  .329E-01  .248E-01
  .174E-01  .264E-01  .201E-01  .110E-01  .767E-02  .162E-01  .845E-02  .358E-02
  .357E-02  .295E-02  .295E-02  .195E-02  .160E-02  .119E-02  .106E-02  .886E-03
  .687E-03  .514E-03  .422E-03  .384E-03  .000E+00  .000E+00  .000E+00  .000E+00
  .000E+00  .000E+00  .000E+00  .000E+00  .000E+00  .000E+00  .000E+00  .000E+00
  .000E+00  .000E+00  .000E+00  .000E+00  .000E+00  .000E+00  .000E+00  .000E+00
  .000E+00  .000E+00  .000E+00  .000E+00
  .166E+00  .157E+00  .170E+00  .154E+00  .204E+00  .190E+00  .289E+00  .341E+00
  .453E+00  .470E+00  .515E+00  .792E+00  .166E+01  .100E+01  .869E+00  .116E+01
  .140E+01  .200E+01  .253E+01  .345E+01  .203E+01  .190E+01  .273E+01  .183E+01
  .284E+01  .331E+01  .462E+01  .477E+01  .452E+01  .739E+01  .584E+01  .528E+01
  .303E+01  .241E+01  .278E+01  .468E+01  .649E+01  .338E+01  .425E+01  .333E+01
  .529E+01  .408E+01  .265E+01  .248E+01  .636E+01  .519E+01  .503E+01  .202E+01
  .253E+01  .340E+01  .207E+01  .370E+01  .151E+01  .221E+01  .283E+01  .228E+01
  .171E+01  .276E+01  .222E+01  .129E+01  .943E+00  .220E+01  .125E+01  .572E+00
  .614E+00  .544E+00  .581E+00  .408E+00  .354E+00  .278E+00  .260E+00  .229E+00
  .186E+00  .145E+00  .124E+00  .118E+00  .000E+00  .000E+00  .000E+00  .000E+00
  .000E+00  .000E+00  .000E+00  .000E+00  .000E+00  .000E+00  .000E+00  .000E+00
  .000E+00  .000E+00  .000E+00  .000E+00  .000E+00  .000E+00  .000E+00  .000E+00
  .000E+00  .000E+00  .000E+00  .000E+00
  .316E+02  .316E+02  .316E+02  .316E+02  .316E+02  .316E+02  .316E+02  .396E+02
  .337E+02  .316E+02  .316E+02  .316E+02  .436E+02  .320E+02  .324E+02  .324E+02
  .341E+02  .383E+02  .324E+02  .347E+02  .317E+02  .397E+02  .589E+02  .317E+02
  .360E+02  .455E+02  .472E+02  .463E+02  .541E+02  .473E+02  .538E+02  .382E+02
  .322E+02  .322E+02  .334E+02  .605E+02  .651E+02  .338E+02  .587E+02  .328E+02
  .439E+02  .537E+02  .339E+02  .453E+02  .476E+02  .509E+02  .107E+03  .867E+02
  .729E+02  .869E+02  .826E+02  .701E+02  .666E+02  .885E+02  .809E+02  .894E+02
  .742E+02  .971E+02  .936E+02  .688E+02  .542E+02  .875E+02  .101E+03  .511E+02
  .633E+02  .396E+02  .867E+02  .387E+02  .769E+02  .655E+02  .378E+02  .379E+02
  .379E+02  .379E+02  .396E+02  .396E+02  .000E+00  .000E+00  .000E+00  .000E+00
  .000E+00  .000E+00  .000E+00  .000E+00  .000E+00  .000E+00  .000E+00  .000E+00
  .000E+00  .000E+00  .000E+00  .000E+00  .000E+00  .000E+00  .000E+00  .000E+00
  .000E+00  .000E+00  .000E+00  .000E+00
  .316E+02  .999E+02  .991E+02  .372E+02  .820E+02  .103E+03  .316E+02  .395E+02
  .337E+02  .316E+02  .316E+02  .316E+02  .469E+02  .425E+02  .324E+02  .324E+02
  .341E+02  .376E+02  .323E+02  .348E+02  .317E+02  .416E+02  .588E+02  .316E+02
  .360E+02  .458E+02  .471E+02  .463E+02  .543E+02  .472E+02  .539E+02  .381E+02
  .321E+02  .321E+02  .333E+02  .606E+02  .652E+02  .339E+02  .591E+02  .329E+02
  .437E+02  .535E+02  .340E+02  .452E+02  .475E+02  .507E+02  .109E+03  .869E+02
  .732E+02  .867E+02  .828E+02  .775E+02  .663E+02  .888E+02  .812E+02  .898E+02
  .738E+02  .975E+02  .922E+02  .702E+02  .436E+02  .870E+02  .101E+03  .323E+02
  .323E+02  .323E+02  .323E+02  .323E+02  .323E+02  .323E+02  .323E+02  .323E+02
  .323E+02  .323E+02  .323E+02  .323E+02  .000E+00  .000E+00  .000E+00  .000E+00
  .000E+00  .000E+00  .000E+00  .000E+00  .000E+00  .000E+00  .000E+00  .000E+00
  .000E+00  .000E+00  .000E+00  .000E+00  .000E+00  .000E+00  .000E+00  .000E+00
  .000E+00  .000E+00  .000E+00  .000E+00
  .316E+02  .316E+02  .316E+02  .316E+02  .316E+02  .316E+02  .316E+02  .396E+02
  .337E+02  .316E+02  .316E+02  .316E+02  .436E+02  .320E+02  .324E+02  .324E+02
  .341E+02  .383E+02  .324E+02  .347E+02  .317E+02  .397E+02  .589E+02  .317E+02
  .360E+02  .455E+02  .472E+02  .463E+02  .541E+02  .473E+02  .538E+02  .382E+02
  .322E+02  .322E+02  .334E+02  .605E+02  .651E+02  .338E+02  .587E+02  .328E+02
  .439E+02  .537E+02  .339E+02  .453E+02  .476E+02  .509E+02  .107E+03  .867E+02
  .729E+02  .869E+02  .826E+02  .701E+02  .666E+02  .885E+02  .809E+02  .894E+02
  .742E+02  .971E+02  .936E+02  .688E+02  .542E+02  .875E+02  .101E+03  .511E+02
  .633E+02  .396E+02  .867E+02  .387E+02  .769E+02  .655E+02  .378E+02  .379E+02
  .379E+02  .379E+02  .396E+02  .396E+02  .000E+00  .000E+00  .000E+00  .000E+00
  .000E+00  .000E+00  .000E+00  .000E+00  .000E+00  .000E+00  .000E+00  .000E+00
  .000E+00  .000E+00  .000E+00  .000E+00  .000E+00  .000E+00  .000E+00  .000E+00
  .000E+00  .000E+00  .000E+00  .000E+00
Damping =  .02. Data of Sd,Sv,Sa,Pssv,ttSd,ttSv,ttSa :
  .815E-03  .911E-03  .914E-03  .111E-02  .122E-02  .145E-02  .196E-02  .239E-02
  .320E-02  .415E-02  .527E-02  .731E-02  .114E-01  .100E-01  .823E-02  .121E-01
  .140E-01  .193E-01  .263E-01  .299E-01  .286E-01  .193E-01  .243E-01  .301E-01
  .477E-01  .644E-01  .756E-01  .891E-01  .101E+00  .105E+00  .121E+00  .133E+00
  .129E+00  .122E+00  .127E+00  .164E+00  .175E+00  .183E+00  .195E+00  .214E+00
  .224E+00  .176E+00  .213E+00  .197E+00  .302E+00  .271E+00  .245E+00  .177E+00
  .143E+00  .194E+00  .187E+00  .202E+00  .179E+00  .206E+00  .292E+00  .315E+00
  .288E+00  .305E+00  .245E+00  .237E+00  .279E+00  .323E+00  .281E+00  .210E+00
  .241E+00  .233E+00  .220E+00  .207E+00  .183E+00  .151E+00  .150E+00  .141E+00
  .124E+00  .105E+00  .896E-01  .888E-01  .000E+00  .000E+00  .000E+00  .000E+00
  .000E+00  .000E+00  .000E+00  .000E+00  .000E+00  .000E+00  .000E+00  .000E+00
  .000E+00  .000E+00  .000E+00  .000E+00  .000E+00  .000E+00  .000E+00  .000E+00
  .000E+00  .000E+00  .000E+00  .000E+00
  .365E-01  .449E-01  .589E-01  .516E-01  .556E-01  .604E-01  .802E-01  .107E+00
  .155E+00  .253E+00  .335E+00  .514E+00  .748E+00  .583E+00  .500E+00  .600E+00
  .780E+00  .862E+00  .115E+01  .126E+01  .120E+01  .781E+00  .890E+00  .996E+00
  .147E+01  .193E+01  .192E+01  .232E+01  .237E+01  .232E+01  .257E+01  .269E+01
  .242E+01  .200E+01  .203E+01  .262E+01  .285E+01  .267E+01  .288E+01  .293E+01
  .277E+01  .207E+01  .212E+01  .202E+01  .299E+01  .244E+01  .220E+01  .144E+01
  .115E+01  .142E+01  .174E+01  .124E+01  .117E+01  .103E+01  .132E+01  .128E+01
  .123E+01  .127E+01  .961E+00  .848E+00  .904E+00  .105E+01  .969E+00  .968E+00
  .904E+00  .845E+00  .817E+00  .810E+00  .808E+00  .803E+00  .794E+00  .782E+00
  .771E+00  .762E+00  .755E+00  .749E+00  .000E+00  .000E+00  .000E+00  .000E+00
  .000E+00  .000E+00  .000E+00  .000E+00  .000E+00  .000E+00  .000E+00  .000E+00
  .000E+00  .000E+00  .000E+00  .000E+00  .000E+00  .000E+00  .000E+00  .000E+00
  .000E+00  .000E+00  .000E+00  .000E+00
  .521E-01  .528E-01  .483E-01  .538E-01  .540E-01  .592E-01  .661E-01  .679E-01
  .775E-01  .869E-01  .957E-01  .118E+00  .162E+00  .127E+00  .934E-01  .123E+00
  .119E+00  .137E+00  .160E+00  .156E+00  .131E+00  .771E-01  .866E-01  .948E-01
  .135E+00  .164E+00  .160E+00  .159E+00  .152E+00  .137E+00  .137E+00  .132E+00
  .115E+00  .965E-01  .901E-01  .105E+00  .101E+00  .967E-01  .942E-01  .952E-01
  .918E-01  .595E-01  .605E-01  .477E-01  .632E-01  .493E-01  .392E-01  .252E-01
  .181E-01  .220E-01  .192E-01  .171E-01  .127E-01  .125E-01  .153E-01  .143E-01
  .115E-01  .108E-01  .774E-02  .673E-02  .715E-02  .682E-02  .499E-02  .318E-02
  .315E-02  .266E-02  .221E-02  .183E-02  .145E-02  .107E-02  .963E-03  .824E-03
  .661E-03  .514E-03  .403E-03  .369E-03  .000E+00  .000E+00  .000E+00  .000E+00
  .000E+00  .000E+00  .000E+00  .000E+00  .000E+00  .000E+00  .000E+00  .000E+00
  .000E+00  .000E+00  .000E+00  .000E+00  .000E+00  .000E+00  .000E+00  .000E+00
  .000E+00  .000E+00  .000E+00  .000E+00
  .128E+00  .136E+00  .131E+00  .152E+00  .159E+00  .182E+00  .224E+00  .250E+00
  .309E+00  .373E+00  .441E+00  .574E+00  .846E+00  .698E+00  .544E+00  .759E+00
  .799E+00  .101E+01  .127E+01  .134E+01  .120E+01  .760E+00  .898E+00  .105E+01
  .158E+01  .202E+01  .216E+01  .233E+01  .244E+01  .236E+01  .253E+01  .260E+01
  .239E+01  .213E+01  .210E+01  .258E+01  .262E+01  .261E+01  .266E+01  .280E+01
  .282E+01  .201E+01  .223E+01  .191E+01  .271E+01  .227E+01  .193E+01  .131E+01
  .996E+00  .128E+01  .118E+01  .115E+01  .936E+00  .997E+00  .131E+01  .132E+01
  .113E+01  .113E+01  .855E+00  .785E+00  .878E+00  .921E+00  .735E+00  .506E+00
  .540E+00  .489E+00  .432E+00  .382E+00  .319E+00  .249E+00  .236E+00  .211E+00
  .177E+00  .144E+00  .117E+00  .112E+00  .000E+00  .000E+00  .000E+00  .000E+00
  .000E+00  .000E+00  .000E+00  .000E+00  .000E+00  .000E+00  .000E+00  .000E+00
  .000E+00  .000E+00  .000E+00  .000E+00  .000E+00  .000E+00  .000E+00  .000E+00
  .000E+00  .000E+00  .000E+00  .000E+00
  .316E+02  .316E+02  .316E+02  .316E+02  .316E+02  .316E+02  .316E+02  .316E+02
  .316E+02  .316E+02  .316E+02  .316E+02  .324E+02  .320E+02  .324E+02  .324E+02
  .318E+02  .320E+02  .324E+02  .324E+02  .317E+02  .326E+02  .321E+02  .321E+02
  .324E+02  .327E+02  .331E+02  .333E+02  .333E+02  .339E+02  .318E+02  .332E+02
  .322E+02  .322E+02  .322E+02  .325E+02  .342E+02  .330E+02  .330E+02  .328E+02
  .328E+02  .357E+02  .339E+02  .339E+02  .343E+02  .356E+02  .346E+02  .324E+02
  .324E+02  .324E+02  .346E+02  .360E+02  .643E+02  .691E+02  .405E+02  .406E+02
  .407E+02  .494E+02  .907E+02  .688E+02  .793E+02  .403E+02  .395E+02  .395E+02
  .395E+02  .396E+02  .386E+02  .386E+02  .387E+02  .376E+02  .378E+02  .379E+02
  .379E+02  .379E+02  .379E+02  .396E+02  .000E+00  .000E+00  .000E+00  .000E+00
  .000E+00  .000E+00  .000E+00  .000E+00  .000E+00  .000E+00  .000E+00  .000E+00
  .000E+00  .000E+00  .000E+00  .000E+00  .000E+00  .000E+00  .000E+00  .000E+00
  .000E+00  .000E+00  .000E+00  .000E+00
  .316E+02  .316E+02  .316E+02  .316E+02  .316E+02  .315E+02  .316E+02  .339E+02
  .316E+02  .316E+02  .316E+02  .316E+02  .323E+02  .318E+02  .318E+02  .324E+02
  .318E+02  .320E+02  .323E+02  .321E+02  .316E+02  .325E+02  .321E+02  .320E+02
  .325E+02  .325E+02  .329E+02  .333E+02  .334E+02  .340E+02  .318E+02  .333E+02
  .321E+02  .321E+02  .321E+02  .332E+02  .330E+02  .329E+02  .329E+02  .329E+02
  .330E+02  .339E+02  .338E+02  .338E+02  .338E+02  .361E+02  .336E+02  .326E+02
  .326E+02  .326E+02  .323E+02  .336E+02  .336E+02  .332E+02  .408E+02  .403E+02
  .404E+02  .405E+02  .441E+02  .323E+02  .788E+02  .397E+02  .323E+02  .323E+02
  .323E+02  .323E+02  .323E+02  .323E+02  .323E+02  .323E+02  .323E+02  .323E+02
  .323E+02  .323E+02  .323E+02  .323E+02  .000E+00  .000E+00  .000E+00  .000E+00
  .000E+00  .000E+00  .000E+00  .000E+00  .000E+00  .000E+00  .000E+00  .000E+00
  .000E+00  .000E+00  .000E+00  .000E+00  .000E+00  .000E+00  .000E+00  .000E+00
  .000E+00  .000E+00  .000E+00  .000E+00
  .316E+02  .316E+02  .316E+02  .316E+02  .316E+02  .316E+02  .316E+02  .316E+02
  .316E+02  .316E+02  .316E+02  .316E+02  .324E+02  .320E+02  .324E+02  .324E+02
  .318E+02  .320E+02  .324E+02  .324E+02  .317E+02  .326E+02  .321E+02  .321E+02
  .324E+02  .327E+02  .331E+02  .333E+02  .333E+02  .339E+02  .318E+02  .332E+02
  .322E+02  .322E+02  .322E+02  .325E+02  .342E+02  .330E+02  .330E+02  .328E+02
  .328E+02  .357E+02  .339E+02  .339E+02  .343E+02  .356E+02  .346E+02  .324E+02
  .324E+02  .324E+02  .346E+02  .360E+02  .642E+02  .691E+02  .404E+02  .406E+02
  .407E+02  .494E+02  .907E+02  .688E+02  .793E+02  .403E+02  .395E+02  .395E+02
  .395E+02  .396E+02  .386E+02  .386E+02  .387E+02  .376E+02  .378E+02  .378E+02
  .378E+02  .378E+02  .378E+02  .395E+02  .000E+00  .000E+00  .000E+00  .000E+00
  .000E+00  .000E+00  .000E+00  .000E+00  .000E+00  .000E+00  .000E+00  .000E+00
  .000E+00  .000E+00  .000E+00  .000E+00  .000E+00  .000E+00  .000E+00  .000E+00
  .000E+00  .000E+00  .000E+00  .000E+00
Damping =  .05. Data of Sd,Sv,Sa,Pssv,ttSd,ttSv,ttSa :
  .811E-03  .891E-03  .958E-03  .109E-02  .123E-02  .140E-02  .185E-02  .230E-02
