Response and Fourier amplitude spectra (80 periods,  .04 -  7.0 sec)   for      
Corrected accelerogram   23631-E0754-08212.02       Chan  1:  Long       from   
Uncorrected Accelerogram Data             Processed: 02/09/09, CGS  CE23631     
Record of Tue Jul 29, 2008 11:42:08.9 PDT             (Avol1 v8.5,11/08 CSMIP)  
CSMIP Preliminary Processing            (Origin:  To be determined)             
23631-E0754-08212.02                 Start time:  7/29/08, 18:42: 8.9 UTC (WWVB)
Station No. 23631   34.064N, 117.296W     SSA-1  s/n  754  (4 Chns of 36 at Sta)
San Bernardino - I10/215 Interchange Br   CGS                                   
Chan  1:  Long    (Sta Chn: 33)     Location: Hinge Near Bent 11: E. Side       
Record of Tue Jul 29, 2008 11:42:08.9 PDT    Tue Jul 29, 2008 11:42:08.9 PDT    
Hypocenter:  To be determined.               ML:  To be determined.             
Instr Period =  .0193 sec,  Damping =  .670,  Sensitivity = 1.25  v/g           
                        Record length = 78.080 sec.                             
                                     Uncor Max  =   .152 g , at  21.690 sec.    
RMS accel of (uncor) record  =        .   Chn. metadata effective date: 01/10/92
Accelerogram bandpass filtered with 3 dB pts at   .14 and 40.00 cyc/sec         
                 instrument- and baseline-corrected                             
                                                                                
                                                                                
                                                                                
                                                                                
                                                                                
Record of Tue Jul 29, 2008 11:42:08.9 PDT    Tue Jul 29, 2008 11:42:08.9 PDT    
                                                                                
23631-E0754-08212.02      San Bernardino - I10/215 Interchange Br   Chan  1:  Lo
ng                                                                              
23631-E0754-08212.02      San Bernardino - I10/215 Interchange Br   Chan  1:  Lo
ng                                                                              
Units for spectra are inches and sec, except Sa is in fraction of g.            
                                                                                
    1  100   33    4   36  200    1    3    1   12    5  754    023631    3    0
   18   42    8  935  211    7   29 2008   10    1  80015616   41   39   76   -1
15616    0  100    3 2117    1    2   61    2   18   42   33  830    7   29 2008
    0    2    0    0 7808    2  222    1   12    4   76   39    3    1    0 7808
    3 7808   40   80    5    4    5    0    0    0   36    0    0    3    0    2
    2    2    4    0   66   99    1   32   32    0    0    1    0    0   40  222
    1    0    1    0
      .019      .670    78.080      .007      .000  1246.000      .152    21.690
    51.800  1220.703   979.698      .000     5.000      .000      .000      .000
     2.500    -6.878     2.500  -999.000    15.360    30.000      .000     -.007
      .025      .032     2.000    15.000    34.064  -117.296      .705     1.787
     2.534     -.092      .156   297.000      .000      .000      .000      .000
     1.000     1.153     7.000      .000      .000      .000      .000      .000
     6.800     8.500     5.200   980.665      .010    78.080     8.244      .000
      .000    40.000      .000    78.080      .010      .143      .000      .000
    21.690   127.879    21.670    -5.001    21.530      .516      .000      .143
    40.000      .010      .010      .001      .820      .237      .000      .000
      .257      .300      .141      .250      .056      .004      .000      .000
      .000      .000      .000      .000      .000      .000      .000      .000
      .000      .000      .000      .000
      .000      .020      .050      .100      .200
      .040      .042      .044      .046      .048      .050      .055      .060
      .065      .070      .075      .080      .085      .090      .095      .100
      .110      .120      .130      .140      .150      .160      .170      .180
      .190      .200      .220      .240      .260      .280      .300      .320
      .340      .360      .380      .400      .420      .440      .460      .480
      .500      .550      .600      .650      .700      .750      .800      .850
      .900      .950     1.000     1.100     1.200     1.300     1.400     1.500
     1.600     1.700     1.800     1.900     2.000     2.200     2.400     2.600
     2.800     3.000     3.200     3.400     3.600     3.800     4.000     4.200
     4.400     4.600     4.800     5.000     5.500     6.000     6.500     7.000
      .000      .000      .000      .000      .000      .000      .000      .000
      .000      .000      .000      .000      .000      .000      .000      .000
      .000      .000      .000      .000
Fourier amplitude spectra in in/sec.
  .379E+00  .245E+00  .382E+00  .803E+00  .607E+00  .243E+00  .269E+00  .731E+00
  .194E+00  .136E+01  .563E+00  .103E+01  .355E+00  .115E+01  .727E+00  .115E+01
  .837E+00  .782E+00  .107E+01  .160E+00  .173E+01  .196E+01  .253E+01  .229E+01
  .200E+01  .285E+01  .203E+01  .760E+00  .289E+01  .109E+02  .485E+01  .513E+01
  .111E+02  .925E+01  .154E+02  .762E+01  .789E+01  .673E+01  .885E+01  .882E+01
  .107E+02  .366E+01  .212E+01  .371E+01  .950E+01  .415E+01  .739E+01  .173E+02
  .103E+02  .123E+02  .145E+01  .276E+01  .127E+01  .135E+01  .565E+00  .250E+01
  .226E+01  .940E+00  .194E+01  .117E+00  .874E+00  .696E+00  .193E+01  .670E+00
  .938E+00  .105E+01  .341E+00  .137E+00  .659E+00  .517E+00  .433E+00  .309E+00
  .335E+00  .927E-01  .118E+00  .960E-01  .118E+00  .561E-01  .187E-01  .117E+00
  .000E+00  .000E+00  .000E+00  .000E+00  .000E+00  .000E+00  .000E+00  .000E+00
  .000E+00  .000E+00  .000E+00  .000E+00  .000E+00  .000E+00  .000E+00  .000E+00
  .000E+00  .000E+00  .000E+00  .000E+00
Damping =  .00. Data of Sd,Sv,Sa,Pssv,ttSd,ttSv,ttSa :
  .439E-02  .317E-02  .416E-02  .727E-02  .612E-02  .695E-02  .764E-02  .715E-02
  .116E-01  .171E-01  .121E-01  .157E-01  .154E-01  .167E-01  .138E-01  .272E-01
  .287E-01  .302E-01  .358E-01  .444E-01  .417E-01  .643E-01  .815E-01  .106E+00
  .832E-01  .121E+00  .112E+00  .141E+00  .237E+00  .510E+00  .356E+00  .412E+00
  .815E+00  .685E+00  .119E+01  .658E+00  .614E+00  .598E+00  .678E+00  .702E+00
  .865E+00  .414E+00  .437E+00  .667E+00  .122E+01  .531E+00  .951E+00  .255E+01
  .185E+01  .186E+01  .762E+00  .611E+00  .397E+00  .406E+00  .537E+00  .751E+00
  .620E+00  .598E+00  .588E+00  .306E+00  .414E+00  .403E+00  .755E+00  .349E+00
  .507E+00  .604E+00  .407E+00  .371E+00  .468E+00  .397E+00  .316E+00  .299E+00
  .274E+00  .261E+00  .257E+00  .258E+00  .256E+00  .261E+00  .266E+00  .267E+00
  .000E+00  .000E+00  .000E+00  .000E+00  .000E+00  .000E+00  .000E+00  .000E+00
  .000E+00  .000E+00  .000E+00  .000E+00  .000E+00  .000E+00  .000E+00  .000E+00
  .000E+00  .000E+00  .000E+00  .000E+00
  .624E+00  .399E+00  .505E+00  .911E+00  .643E+00  .663E+00  .645E+00  .733E+00
  .852E+00  .155E+01  .814E+00  .119E+01  .947E+00  .115E+01  .851E+00  .159E+01
  .145E+01  .142E+01  .153E+01  .175E+01  .174E+01  .244E+01  .280E+01  .344E+01
  .267E+01  .359E+01  .308E+01  .359E+01  .563E+01  .114E+02  .735E+01  .795E+01
  .147E+02  .117E+02  .195E+02  .103E+02  .939E+01  .857E+01  .942E+01  .919E+01
  .109E+02  .475E+01  .430E+01  .607E+01  .110E+02  .446E+01  .743E+01  .189E+02
  .132E+02  .123E+02  .551E+01  .395E+01  .305E+01  .282E+01  .251E+01  .317E+01
  .312E+01  .293E+01  .272E+01  .242E+01  .233E+01  .243E+01  .235E+01  .228E+01
  .220E+01  .211E+01  .206E+01  .214E+01  .217E+01  .213E+01  .209E+01  .208E+01
  .208E+01  .208E+01  .206E+01  .205E+01  .203E+01  .202E+01  .201E+01  .199E+01
  .000E+00  .000E+00  .000E+00  .000E+00  .000E+00  .000E+00  .000E+00  .000E+00
  .000E+00  .000E+00  .000E+00  .000E+00  .000E+00  .000E+00  .000E+00  .000E+00
  .000E+00  .000E+00  .000E+00  .000E+00
  .281E+00  .184E+00  .220E+00  .351E+00  .272E+00  .284E+00  .258E+00  .203E+00
  .280E+00  .356E+00  .220E+00  .251E+00  .218E+00  .211E+00  .157E+00  .278E+00
  .243E+00  .214E+00  .217E+00  .232E+00  .189E+00  .257E+00  .288E+00  .333E+00
  .236E+00  .309E+00  .236E+00  .250E+00  .359E+00  .665E+00  .405E+00  .412E+00
  .721E+00  .541E+00  .841E+00  .421E+00  .356E+00  .316E+00  .328E+00  .312E+00
  .354E+00  .140E+00  .124E+00  .161E+00  .254E+00  .966E-01  .152E+00  .361E+00
  .234E+00  .211E+00  .780E-01  .517E-01  .282E-01  .246E-01  .280E-01  .341E-01
  .248E-01  .212E-01  .186E-01  .867E-02  .106E-01  .852E-02  .134E-01  .528E-02
  .662E-02  .687E-02  .406E-02  .328E-02  .369E-02  .281E-02  .202E-02  .173E-02
  .145E-02  .126E-02  .114E-02  .106E-02  .866E-03  .740E-03  .644E-03  .556E-03
  .000E+00  .000E+00  .000E+00  .000E+00  .000E+00  .000E+00  .000E+00  .000E+00
  .000E+00  .000E+00  .000E+00  .000E+00  .000E+00  .000E+00  .000E+00  .000E+00
  .000E+00  .000E+00  .000E+00  .000E+00
  .690E+00  .474E+00  .594E+00  .993E+00  .802E+00  .874E+00  .873E+00  .748E+00
  .112E+01  .153E+01  .102E+01  .124E+01  .114E+01  .117E+01  .916E+00  .171E+01
  .164E+01  .158E+01  .173E+01  .199E+01  .175E+01  .252E+01  .301E+01  .369E+01
  .275E+01  .380E+01  .319E+01  .368E+01  .573E+01  .114E+02  .746E+01  .809E+01
  .151E+02  .120E+02  .196E+02  .103E+02  .919E+01  .854E+01  .926E+01  .919E+01
  .109E+02  .473E+01  .457E+01  .645E+01  .109E+02  .445E+01  .747E+01  .189E+02
  .129E+02  .123E+02  .479E+01  .349E+01  .208E+01  .196E+01  .241E+01  .315E+01
  .243E+01  .221E+01  .205E+01  .101E+01  .130E+01  .115E+01  .198E+01  .843E+00
  .114E+01  .127E+01  .799E+00  .685E+00  .817E+00  .656E+00  .497E+00  .448E+00
  .391E+00  .357E+00  .336E+00  .324E+00  .293E+00  .273E+00  .257E+00  .239E+00
  .000E+00  .000E+00  .000E+00  .000E+00  .000E+00  .000E+00  .000E+00  .000E+00
  .000E+00  .000E+00  .000E+00  .000E+00  .000E+00  .000E+00  .000E+00  .000E+00
  .000E+00  .000E+00  .000E+00  .000E+00
  .217E+02  .217E+02  .217E+02  .223E+02  .217E+02  .217E+02  .217E+02  .715E+02
  .217E+02  .480E+02  .217E+02  .237E+02  .215E+02  .744E+02  .217E+02  .233E+02
  .244E+02  .217E+02  .220E+02  .216E+02  .756E+02  .248E+02  .270E+02  .255E+02
  .240E+02  .270E+02  .330E+02  .225E+02  .231E+02  .528E+02  .222E+02  .330E+02
  .257E+02  .275E+02  .292E+02  .252E+02  .341E+02  .326E+02  .266E+02  .575E+02
  .683E+02  .470E+02  .238E+02  .246E+02  .444E+02  .625E+02  .761E+02  .418E+02
  .492E+02  .772E+02  .305E+02  .716E+02  .558E+02  .617E+02  .521E+02  .588E+02
  .588E+02  .391E+02  .743E+02  .233E+02  .490E+02  .314E+02  .729E+02  .532E+02
  .632E+02  .635E+02  .497E+02  .296E+02  .625E+02  .568E+02  .368E+02  .584E+02
  .250E+02  .250E+02  .215E+02  .215E+02  .215E+02  .215E+02  .215E+02  .215E+02
  .000E+00  .000E+00  .000E+00  .000E+00  .000E+00  .000E+00  .000E+00  .000E+00
  .000E+00  .000E+00  .000E+00  .000E+00  .000E+00  .000E+00  .000E+00  .000E+00
  .000E+00  .000E+00  .000E+00  .000E+00
  .218E+02  .217E+02  .217E+02  .237E+02  .496E+02  .217E+02  .217E+02  .715E+02
  .217E+02  .490E+02  .217E+02  .236E+02  .233E+02  .743E+02  .496E+02  .233E+02
  .248E+02  .226E+02  .218E+02  .216E+02  .763E+02  .248E+02  .270E+02  .252E+02
  .239E+02  .278E+02  .285E+02  .224E+02  .230E+02  .529E+02  .221E+02  .310E+02
  .258E+02  .276E+02  .293E+02  .253E+02  .340E+02  .325E+02  .268E+02  .591E+02
  .682E+02  .468E+02  .239E+02  .245E+02  .379E+02  .273E+02  .759E+02  .420E+02
  .278E+02  .793E+02  .244E+02  .244E+02  .216E+02  .216E+02  .524E+02  .578E+02
  .216E+02  .216E+02  .216E+02  .216E+02  .216E+02  .216E+02  .216E+02  .216E+02
  .216E+02  .216E+02  .216E+02  .216E+02  .216E+02  .216E+02  .216E+02  .216E+02
  .216E+02  .216E+02  .216E+02  .216E+02  .216E+02  .216E+02  .216E+02  .216E+02
  .000E+00  .000E+00  .000E+00  .000E+00  .000E+00  .000E+00  .000E+00  .000E+00
  .000E+00  .000E+00  .000E+00  .000E+00  .000E+00  .000E+00  .000E+00  .000E+00
  .000E+00  .000E+00  .000E+00  .000E+00
  .217E+02  .217E+02  .217E+02  .223E+02  .217E+02  .217E+02  .217E+02  .715E+02
  .217E+02  .480E+02  .217E+02  .237E+02  .215E+02  .744E+02  .217E+02  .233E+02
  .244E+02  .217E+02  .220E+02  .216E+02  .756E+02  .248E+02  .270E+02  .255E+02
  .240E+02  .270E+02  .330E+02  .225E+02  .231E+02  .528E+02  .222E+02  .330E+02
  .257E+02  .275E+02  .292E+02  .252E+02  .341E+02  .326E+02  .266E+02  .575E+02
  .683E+02  .470E+02  .238E+02  .246E+02  .444E+02  .625E+02  .761E+02  .418E+02
  .492E+02  .772E+02  .305E+02  .716E+02  .558E+02  .617E+02  .521E+02  .588E+02
  .588E+02  .391E+02  .743E+02  .233E+02  .490E+02  .314E+02  .729E+02  .532E+02
  .632E+02  .635E+02  .497E+02  .296E+02  .625E+02  .568E+02  .368E+02  .584E+02
  .250E+02  .250E+02  .215E+02  .215E+02  .215E+02  .215E+02  .215E+02  .215E+02
  .000E+00  .000E+00  .000E+00  .000E+00  .000E+00  .000E+00  .000E+00  .000E+00
  .000E+00  .000E+00  .000E+00  .000E+00  .000E+00  .000E+00  .000E+00  .000E+00
  .000E+00  .000E+00  .000E+00  .000E+00
Damping =  .02. Data of Sd,Sv,Sa,Pssv,ttSd,ttSv,ttSa :
  .377E-02  .397E-02  .414E-02  .481E-02  .535E-02  .562E-02  .649E-02  .647E-02
  .831E-02  .109E-01  .105E-01  .118E-01  .131E-01  .153E-01  .159E-01  .176E-01
  .205E-01  .246E-01  .280E-01  .317E-01  .360E-01  .394E-01  .437E-01  .544E-01
  .505E-01  .536E-01  .696E-01  .113E+00  .172E+00  .230E+00  .284E+00  .304E+00
  .351E+00  .362E+00  .427E+00  .409E+00  .356E+00  .323E+00  .391E+00  .349E+00
  .318E+00  .307E+00  .310E+00  .489E+00  .635E+00  .483E+00  .552E+00  .943E+00
  .117E+01  .902E+00  .639E+00  .489E+00  .324E+00  .294E+00  .339E+00  .356E+00
  .352E+00  .328E+00  .313E+00  .288E+00  .307E+00  .308E+00  .357E+00  .306E+00
  .331E+00  .317E+00  .286E+00  .324E+00  .314E+00  .286E+00  .267E+00  .264E+00
  .260E+00  .249E+00  .253E+00  .255E+00  .255E+00  .259E+00  .263E+00  .263E+00
  .000E+00  .000E+00  .000E+00  .000E+00  .000E+00  .000E+00  .000E+00  .000E+00
  .000E+00  .000E+00  .000E+00  .000E+00  .000E+00  .000E+00  .000E+00  .000E+00
  .000E+00  .000E+00  .000E+00  .000E+00
  .502E+00  .503E+00  .479E+00  .476E+00  .486E+00  .498E+00  .468E+00  .359E+00
  .458E+00  .573E+00  .509E+00  .523E+00  .536E+00  .750E+00  .750E+00  .784E+00
  .874E+00  .956E+00  .107E+01  .112E+01  .130E+01  .134E+01  .140E+01  .181E+01
  .153E+01  .152E+01  .178E+01  .283E+01  .387E+01  .493E+01  .573E+01  .583E+01
  .625E+01  .627E+01  .698E+01  .650E+01  .524E+01  .492E+01  .513E+01  .479E+01
  .436E+01  .409E+01  .391E+01  .457E+01  .556E+01  .435E+01  .473E+01  .733E+01
  .831E+01  .665E+01  .510E+01  .368E+01  .297E+01  .279E+01  .257E+01  .277E+01
  .297E+01  .287E+01  .268E+01  .247E+01  .238E+01  .241E+01  .234E+01  .228E+01
  .220E+01  .213E+01  .209E+01  .213E+01  .215E+01  .213E+01  .210E+01  .209E+01
  .208E+01  .208E+01  .207E+01  .205E+01  .204E+01  .202E+01  .201E+01  .200E+01
  .000E+00  .000E+00  .000E+00  .000E+00  .000E+00  .000E+00  .000E+00  .000E+00
  .000E+00  .000E+00  .000E+00  .000E+00  .000E+00  .000E+00  .000E+00  .000E+00
  .000E+00  .000E+00  .000E+00  .000E+00
  .243E+00  .230E+00  .220E+00  .234E+00  .238E+00  .230E+00  .219E+00  .184E+00
  .201E+00  .228E+00  .191E+00  .190E+00  .186E+00  .192E+00  .180E+00  .180E+00
  .173E+00  .174E+00  .170E+00  .165E+00  .163E+00  .158E+00  .155E+00  .171E+00
  .144E+00  .138E+00  .147E+00  .202E+00  .261E+00  .299E+00  .323E+00  .304E+00
  .310E+00  .285E+00  .303E+00  .262E+00  .206E+00  .171E+00  .189E+00  .155E+00
  .130E+00  .104E+00  .881E-01  .118E+00  .133E+00  .881E-01  .882E-01  .134E+00
  .148E+00  .102E+00  .654E-01  .414E-01  .230E-01  .178E-01  .177E-01  .162E-01
  .141E-01  .116E-01  .990E-02  .817E-02  .786E-02  .652E-02  .635E-02  .465E-02
  .434E-02  .362E-02  .288E-02  .288E-02  .249E-02  .204E-02  .172E-02  .155E-02
  .139E-02  .125E-02  .117E-02  .109E-02  .908E-03  .780E-03  .681E-03  .593E-03
  .000E+00  .000E+00  .000E+00  .000E+00  .000E+00  .000E+00  .000E+00  .000E+00
  .000E+00  .000E+00  .000E+00  .000E+00  .000E+00  .000E+00  .000E+00  .000E+00
  .000E+00  .000E+00  .000E+00  .000E+00
  .592E+00  .593E+00  .592E+00  .658E+00  .700E+00  .706E+00  .741E+00  .677E+00
  .803E+00  .977E+00  .877E+00  .930E+00  .970E+00  .106E+01  .105E+01  .111E+01
  .117E+01  .129E+01  .135E+01  .142E+01  .151E+01  .155E+01  .161E+01  .190E+01
  .167E+01  .168E+01  .199E+01  .297E+01  .417E+01  .515E+01  .595E+01  .597E+01
  .648E+01  .631E+01  .706E+01  .642E+01  .533E+01  .461E+01  .535E+01  .457E+01
  .400E+01  .350E+01  .325E+01  .473E+01  .570E+01  .405E+01  .433E+01  .697E+01
  .815E+01  .597E+01  .401E+01  .279E+01  .170E+01  .142E+01  .152E+01  .149E+01
  .138E+01  .121E+01  .109E+01  .951E+00  .965E+00  .879E+00  .936E+00  .741E+00
  .743E+00  .664E+00  .562E+00  .598E+00  .548E+00  .473E+00  .419E+00  .395E+00
  .371E+00  .340E+00  .331E+00  .320E+00  .291E+00  .271E+00  .254E+00  .236E+00
  .000E+00  .000E+00  .000E+00  .000E+00  .000E+00  .000E+00  .000E+00  .000E+00
  .000E+00  .000E+00  .000E+00  .000E+00  .000E+00  .000E+00  .000E+00  .000E+00
  .000E+00  .000E+00  .000E+00  .000E+00
  .217E+02  .217E+02  .217E+02  .217E+02  .217E+02  .217E+02  .217E+02  .217E+02
  .217E+02  .217E+02  .217E+02  .217E+02  .217E+02  .217E+02  .217E+02  .217E+02
  .217E+02  .217E+02  .217E+02  .217E+02  .217E+02  .217E+02  .217E+02  .251E+02
  .217E+02  .230E+02  .217E+02  .219E+02  .220E+02  .220E+02  .221E+02  .221E+02
  .223E+02  .223E+02  .277E+02  .226E+02  .226E+02  .233E+02  .246E+02  .246E+02
  .219E+02  .219E+02  .238E+02  .246E+02  .259E+02  .259E+02  .260E+02  .316E+02
  .257E+02  .254E+02  .246E+02  .242E+02  .553E+02  .242E+02  .422E+02  .417E+02
  .581E+02  .391E+02  .233E+02  .233E+02  .390E+02  .314E+02  .438E+02  .255E+02
  .255E+02  .242E+02  .242E+02  .296E+02  .296E+02  .284E+02  .250E+02  .250E+02
  .250E+02  .250E+02  .215E+02  .215E+02  .215E+02  .215E+02  .215E+02  .215E+02
  .000E+00  .000E+00  .000E+00  .000E+00  .000E+00  .000E+00  .000E+00  .000E+00
  .000E+00  .000E+00  .000E+00  .000E+00  .000E+00  .000E+00  .000E+00  .000E+00
  .000E+00  .000E+00  .000E+00  .000E+00
  .217E+02  .217E+02  .217E+02  .217E+02  .217E+02  .217E+02  .217E+02  .217E+02
  .217E+02  .217E+02  .217E+02  .217E+02  .217E+02  .217E+02  .217E+02  .217E+02
  .219E+02  .218E+02  .218E+02  .218E+02  .218E+02  .218E+02  .227E+02  .251E+02
  .233E+02  .234E+02  .218E+02  .224E+02  .221E+02  .221E+02  .221E+02  .222E+02
  .220E+02  .224E+02  .225E+02  .227E+02  .227E+02  .219E+02  .247E+02  .259E+02
  .218E+02  .218E+02  .218E+02  .245E+02  .260E+02  .258E+02  .258E+02  .258E+02
  .255E+02  .256E+02  .244E+02  .244E+02  .216E+02  .216E+02  .216E+02  .216E+02
  .216E+02  .216E+02  .216E+02  .216E+02  .216E+02  .216E+02  .216E+02  .216E+02
  .216E+02  .216E+02  .216E+02  .216E+02  .216E+02  .216E+02  .216E+02  .216E+02
  .216E+02  .216E+02  .216E+02  .216E+02  .216E+02  .216E+02  .216E+02  .216E+02
  .000E+00  .000E+00  .000E+00  .000E+00  .000E+00  .000E+00  .000E+00  .000E+00
  .000E+00  .000E+00  .000E+00  .000E+00  .000E+00  .000E+00  .000E+00  .000E+00
  .000E+00  .000E+00  .000E+00  .000E+00
  .217E+02  .217E+02  .217E+02  .217E+02  .217E+02  .217E+02  .217E+02  .217E+02
  .217E+02  .217E+02  .217E+02  .217E+02  .217E+02  .217E+02  .217E+02  .217E+02
  .217E+02  .217E+02  .217E+02  .217E+02  .217E+02  .217E+02  .217E+02  .251E+02
  .217E+02  .230E+02  .217E+02  .219E+02  .220E+02  .220E+02  .221E+02  .221E+02
