Response and Fourier amplitude spectra (76 periods,  .04 -  5.0 sec)   for      
Corrected accelerogram   23792-K1341-08217.20       Chan 12: 180 Deg     from   
Uncorrected Accelerogram Data             Processed: 10/01/08, CDMG  AQ020      
Record of Tue Jul 29, 2008 11:41:59.0 PDT             (Avol1 v8.1 9/08 CSMIP)   
CSMIP Preliminary Processing            (Origin:  To be determined)             
23792-K1341-08217.20                 Start time:  7/29/08, 18:41:59.0 UTC (GPS) 
Station No. 23792   34.064N, 117.294W        K2  s/n 1341 (12 Channels)         
San Bernardino - I10/215 W Geotech Array  CGS                                   
Chan 12: 180 Deg                    Location: 92.1m (302ft) Depth               
Record of Tue Jul 29, 2008 11:41:59.0 PDT    Tue Jul 29, 2008 11:41:59.0 PDT    
Hypocenter:  To be determined.               ML:  To be determined.
Instr Period =  .0197 sec,  Damping =  .680,  Sensitivity = 1.25  v/g
                        Record length =109.000 sec.
                                     Uncor Max  =   .015 g , at  31.935 sec.
RMS accel of (uncor) record  =        .   Chn. metadata effective date: 05/16/08
Accelerogram bandpass filtered with 3 dB pts at   .30 and 40.00 cyc/sec
                 instrument- and baseline-corrected





Record of Tue Jul 29, 2008 11:41:59.0 PDT    Tue Jul 29, 2008 11:41:59.0 PDT

23792-K1341-08217.20      San Bernardino - I10/215 W Geotech Array  CGChan 12: 1
80 Deg
23792-K1341-08217.20      San Bernardino - I10/215 W Geotech Array  CGChan 12: 1
80 Deg
Units for spectra are inches and sec, except Sa is in fraction of g.

   12  100   12   12   12  200    1    3    1   24   11 1341    023792    4    0
   18   41   59    0  211    7   29 2008   10    3  18021800   41   40   76   -1
21800    0   50    3 1341    1   20 1090    2    0    0    0    0    0    0    0
    0    2    0    010900    2  222    0   18    7   76   40    1    1    010900
    310900   41   76    5   12    5    0    0    0   12    0    0    3    0    2
    2    2    4    1   65   99    0   32   32    0    0    1    0    0    0  222
    1    0   24    0
      .020      .680   109.000      .001      .000  1254.000      .015    31.935
    50.700      .298      .238      .000     5.000      .000     3.987      .000
     2.500     2.497     2.500  -999.000    25.000    30.000      .000      .003
     -.003     -.006     2.000    15.000    34.064  -117.294      .013      .819
    64.916     -.044      .033   298.000    25.000    78.400    13.100   109.940
     1.000    -1.207      .000      .000      .000      .000      .000      .000
     4.600     8.100     5.000   980.665      .010   109.000     8.069     -.001
      .000    40.000      .000   109.000      .010      .300      .000      .000
    31.930    14.395    30.870     -.644    30.750      .087      .000      .300
    40.000      .010      .010      .000      .010      .067      .000      .000
      .057      .100      .029      .035      .008      .001      .000      .000
      .000      .000      .000      .000      .000      .000      .000      .000
      .000      .000      .000      .000
      .000      .020      .050      .100      .200
      .040      .042      .044      .046      .048      .050      .055      .060
      .065      .070      .075      .080      .085      .090      .095      .100
      .110      .120      .130      .140      .150      .160      .170      .180
      .190      .200      .220      .240      .260      .280      .300      .320
      .340      .360      .380      .400      .420      .440      .460      .480
      .500      .550      .600      .650      .700      .750      .800      .850
      .900      .950     1.000     1.100     1.200     1.300     1.400     1.500
     1.600     1.700     1.800     1.900     2.000     2.200     2.400     2.600
     2.800     3.000     3.200     3.400     3.600     3.800     4.000     4.200
     4.400     4.600     4.800     5.000      .000      .000      .000      .000
      .000      .000      .000      .000      .000      .000      .000      .000
      .000      .000      .000      .000      .000      .000      .000      .000
      .000      .000      .000      .000
Fourier amplitude spectra in in/sec.
  .107E+00  .927E-01  .869E-01  .120E+00  .217E+00  .532E-01  .904E-01  .305E+00
  .181E+00  .306E+00  .295E+00  .995E-02  .412E+00  .541E+00  .736E-01  .553E+00
  .458E+00  .670E+00  .887E-01  .133E+01  .517E+00  .963E+00  .373E+00  .347E+00
  .971E+00  .396E+00  .206E+01  .655E+00  .176E+01  .512E+00  .119E+01  .127E+01
  .796E+00  .235E+01  .962E+00  .118E+01  .768E-01  .278E+00  .773E+00  .511E+00
  .779E+00  .719E+00  .696E+00  .548E+00  .647E+00  .169E+01  .222E+01  .108E+01
  .108E+00  .691E+00  .149E+01  .109E+01  .125E+00  .136E+01  .247E+00  .118E+01
  .745E+00  .994E+00  .122E+01  .289E+00  .134E+01  .664E+00  .827E+00  .215E+00
  .235E+00  .365E+00  .100E+00  .238E-02  .221E+00  .160E+00  .690E-02  .266E-01
  .146E-01  .102E-01  .895E-02  .797E-02  .000E+00  .000E+00  .000E+00  .000E+00
  .000E+00  .000E+00  .000E+00  .000E+00  .000E+00  .000E+00  .000E+00  .000E+00
  .000E+00  .000E+00  .000E+00  .000E+00  .000E+00  .000E+00  .000E+00  .000E+00
  .000E+00  .000E+00  .000E+00  .000E+00
Damping =  .00. Data of Sd,Sv,Sa,Pssv,ttSd,ttSv,ttSa :
  .761E-03  .820E-03  .111E-02  .100E-02  .170E-02  .124E-02  .178E-02  .319E-02
  .199E-02  .397E-02  .505E-02  .346E-02  .670E-02  .838E-02  .691E-02  .184E-01
  .110E-01  .138E-01  .115E-01  .311E-01  .170E-01  .259E-01  .121E-01  .167E-01
  .331E-01  .145E-01  .745E-01  .463E-01  .825E-01  .534E-01  .574E-01  .657E-01
  .737E-01  .136E+00  .955E-01  .894E-01  .415E-01  .571E-01  .568E-01  .599E-01
  .664E-01  .670E-01  .852E-01  .766E-01  .116E+00  .247E+00  .283E+00  .155E+00
  .100E+00  .207E+00  .257E+00  .208E+00  .229E+00  .287E+00  .258E+00  .325E+00
  .219E+00  .276E+00  .425E+00  .262E+00  .537E+00  .331E+00  .319E+00  .135E+00
  .135E+00  .185E+00  .116E+00  .955E-01  .168E+00  .142E+00  .712E-01  .583E-01
  .510E-01  .467E-01  .411E-01  .442E-01  .000E+00  .000E+00  .000E+00  .000E+00
  .000E+00  .000E+00  .000E+00  .000E+00  .000E+00  .000E+00  .000E+00  .000E+00
  .000E+00  .000E+00  .000E+00  .000E+00  .000E+00  .000E+00  .000E+00  .000E+00
  .000E+00  .000E+00  .000E+00  .000E+00
  .116E+00  .115E+00  .137E+00  .128E+00  .218E+00  .131E+00  .186E+00  .328E+00
  .189E+00  .350E+00  .416E+00  .243E+00  .471E+00  .577E+00  .416E+00  .114E+01
  .629E+00  .706E+00  .550E+00  .138E+01  .705E+00  .102E+01  .459E+00  .556E+00
  .106E+01  .404E+00  .211E+01  .123E+01  .202E+01  .123E+01  .121E+01  .129E+01
  .139E+01  .238E+01  .160E+01  .139E+01  .690E+00  .840E+00  .776E+00  .777E+00
  .830E+00  .754E+00  .904E+00  .756E+00  .104E+01  .206E+01  .222E+01  .113E+01
  .899E+00  .134E+01  .161E+01  .116E+01  .117E+01  .138E+01  .119E+01  .137E+01
  .871E+00  .102E+01  .151E+01  .886E+00  .172E+01  .968E+00  .847E+00  .398E+00
  .357E+00  .408E+00  .293E+00  .288E+00  .351E+00  .293E+00  .294E+00  .292E+00
  .290E+00  .287E+00  .283E+00  .279E+00  .000E+00  .000E+00  .000E+00  .000E+00
  .000E+00  .000E+00  .000E+00  .000E+00  .000E+00  .000E+00  .000E+00  .000E+00
  .000E+00  .000E+00  .000E+00  .000E+00  .000E+00  .000E+00  .000E+00  .000E+00
  .000E+00  .000E+00  .000E+00  .000E+00
  .487E-01  .475E-01  .587E-01  .484E-01  .756E-01  .509E-01  .602E-01  .905E-01
  .481E-01  .828E-01  .918E-01  .554E-01  .949E-01  .106E+00  .783E-01  .188E+00
  .927E-01  .979E-01  .696E-01  .162E+00  .771E-01  .103E+00  .429E-01  .529E-01
  .937E-01  .372E-01  .157E+00  .822E-01  .125E+00  .697E-01  .652E-01  .656E-01
  .652E-01  .107E+00  .676E-01  .571E-01  .240E-01  .302E-01  .275E-01  .266E-01
  .272E-01  .226E-01  .242E-01  .185E-01  .242E-01  .449E-01  .453E-01  .220E-01
  .127E-01  .234E-01  .263E-01  .176E-01  .162E-01  .174E-01  .135E-01  .148E-01
  .877E-02  .976E-02  .134E-01  .741E-02  .137E-01  .700E-02  .567E-02  .204E-02
  .177E-02  .210E-02  .116E-02  .845E-03  .133E-02  .100E-02  .455E-03  .338E-03
  .270E-03  .226E-03  .182E-03  .181E-03  .000E+00  .000E+00  .000E+00  .000E+00
  .000E+00  .000E+00  .000E+00  .000E+00  .000E+00  .000E+00  .000E+00  .000E+00
  .000E+00  .000E+00  .000E+00  .000E+00  .000E+00  .000E+00  .000E+00  .000E+00
  .000E+00  .000E+00  .000E+00  .000E+00
  .120E+00  .123E+00  .159E+00  .137E+00  .223E+00  .156E+00  .203E+00  .334E+00
  .192E+00  .356E+00  .423E+00  .272E+00  .495E+00  .585E+00  .457E+00  .115E+01
  .627E+00  .722E+00  .556E+00  .140E+01  .710E+00  .102E+01  .448E+00  .585E+00
  .109E+01  .457E+00  .213E+01  .121E+01  .199E+01  .120E+01  .120E+01  .129E+01
  .136E+01  .238E+01  .158E+01  .140E+01  .620E+00  .816E+00  .776E+00  .784E+00
  .835E+00  .765E+00  .892E+00  .740E+00  .104E+01  .207E+01  .222E+01  .115E+01
  .702E+00  .137E+01  .161E+01  .119E+01  .120E+01  .139E+01  .116E+01  .136E+01
  .862E+00  .102E+01  .148E+01  .865E+00  .169E+01  .946E+00  .836E+00  .326E+00
  .304E+00  .388E+00  .228E+00  .177E+00  .294E+00  .234E+00  .112E+00  .873E-01
  .728E-01  .638E-01  .537E-01  .555E-01  .000E+00  .000E+00  .000E+00  .000E+00
  .000E+00  .000E+00  .000E+00  .000E+00  .000E+00  .000E+00  .000E+00  .000E+00
  .000E+00  .000E+00  .000E+00  .000E+00  .000E+00  .000E+00  .000E+00  .000E+00
  .000E+00  .000E+00  .000E+00  .000E+00
  .430E+02  .358E+02  .308E+02  .405E+02  .424E+02  .318E+02  .327E+02  .431E+02
  .481E+02  .437E+02  .338E+02  .315E+02  .314E+02  .424E+02  .322E+02  .331E+02
  .318E+02  .368E+02  .319E+02  .511E+02  .469E+02  .526E+02  .260E+02  .334E+02
  .340E+02  .327E+02  .645E+02  .319E+02  .369E+02  .314E+02  .375E+02  .101E+03
  .334E+02  .357E+02  .382E+02  .603E+02  .316E+02  .316E+02  .106E+03  .426E+02
  .900E+02  .826E+02  .421E+02  .316E+02  .339E+02  .576E+02  .106E+03  .635E+02
  .330E+02  .476E+02  .744E+02  .865E+02  .666E+02  .105E+03  .460E+02  .938E+02
  .516E+02  .997E+02  .882E+02  .687E+02  .824E+02  .874E+02  .107E+03  .569E+02
  .759E+02  .102E+03  .855E+02  .559E+02  .781E+02  .667E+02  .449E+02  .667E+02
  .358E+02  .358E+02  .358E+02  .553E+02  .000E+00  .000E+00  .000E+00  .000E+00
  .000E+00  .000E+00  .000E+00  .000E+00  .000E+00  .000E+00  .000E+00  .000E+00
  .000E+00  .000E+00  .000E+00  .000E+00  .000E+00  .000E+00  .000E+00  .000E+00
  .000E+00  .000E+00  .000E+00  .000E+00
  .431E+02  .356E+02  .286E+02  .401E+02  .977E+02  .316E+02  .321E+02  .431E+02
  .481E+02  .437E+02  .336E+02  .314E+02  .314E+02  .424E+02  .321E+02  .331E+02
  .318E+02  .368E+02  .320E+02  .513E+02  .468E+02  .527E+02  .260E+02  .334E+02
  .340E+02  .950E+02  .639E+02  .321E+02  .369E+02  .314E+02  .376E+02  .101E+03
  .332E+02  .358E+02  .381E+02  .700E+02  .317E+02  .317E+02  .106E+03  .427E+02
  .902E+02  .825E+02  .420E+02  .318E+02  .337E+02  .574E+02  .106E+03  .637E+02
  .328E+02  .473E+02  .741E+02  .868E+02  .663E+02  .105E+03  .463E+02  .897E+02
  .512E+02  .100E+03  .877E+02  .682E+02  .829E+02  .879E+02  .106E+03  .573E+02
  .765E+02  .742E+02  .309E+02  .309E+02  .556E+02  .309E+02  .309E+02  .309E+02
  .309E+02  .309E+02  .309E+02  .309E+02  .000E+00  .000E+00  .000E+00  .000E+00
  .000E+00  .000E+00  .000E+00  .000E+00  .000E+00  .000E+00  .000E+00  .000E+00
  .000E+00  .000E+00  .000E+00  .000E+00  .000E+00  .000E+00  .000E+00  .000E+00
  .000E+00  .000E+00  .000E+00  .000E+00
  .430E+02  .358E+02  .308E+02  .405E+02  .424E+02  .318E+02  .327E+02  .431E+02
  .481E+02  .437E+02  .338E+02  .315E+02  .314E+02  .424E+02  .322E+02  .331E+02
  .318E+02  .368E+02  .319E+02  .511E+02  .469E+02  .526E+02  .260E+02  .334E+02
  .340E+02  .327E+02  .645E+02  .319E+02  .369E+02  .314E+02  .375E+02  .101E+03
  .334E+02  .357E+02  .382E+02  .603E+02  .316E+02  .316E+02  .106E+03  .426E+02
  .900E+02  .826E+02  .421E+02  .316E+02  .339E+02  .576E+02  .106E+03  .635E+02
  .330E+02  .476E+02  .744E+02  .865E+02  .666E+02  .105E+03  .460E+02  .938E+02
  .516E+02  .997E+02  .882E+02  .687E+02  .824E+02  .874E+02  .107E+03  .569E+02
  .759E+02  .102E+03  .855E+02  .559E+02  .781E+02  .667E+02  .449E+02  .667E+02
  .358E+02  .358E+02  .358E+02  .553E+02  .000E+00  .000E+00  .000E+00  .000E+00
  .000E+00  .000E+00  .000E+00  .000E+00  .000E+00  .000E+00  .000E+00  .000E+00
  .000E+00  .000E+00  .000E+00  .000E+00  .000E+00  .000E+00  .000E+00  .000E+00
  .000E+00  .000E+00  .000E+00  .000E+00
Damping =  .02. Data of Sd,Sv,Sa,Pssv,ttSd,ttSv,ttSa :
  .297E-03  .355E-03  .464E-03  .527E-03  .487E-03  .737E-03  .990E-03  .934E-03
  .962E-03  .121E-02  .239E-02  .256E-02  .322E-02  .413E-02  .590E-02  .820E-02
  .744E-02  .792E-02  .633E-02  .804E-02  .750E-02  .103E-01  .873E-02  .903E-02
  .122E-01  .146E-01  .241E-01  .319E-01  .334E-01  .356E-01  .337E-01  .477E-01
  .562E-01  .754E-01  .637E-01  .476E-01  .401E-01  .400E-01  .361E-01  .372E-01
  .319E-01  .322E-01  .481E-01  .565E-01  .879E-01  .122E+00  .138E+00  .891E-01
  .807E-01  .938E-01  .104E+00  .106E+00  .951E-01  .125E+00  .156E+00  .186E+00
  .159E+00  .203E+00  .192E+00  .164E+00  .254E+00  .198E+00  .155E+00  .113E+00
  .898E-01  .111E+00  .876E-01  .859E-01  .974E-01  .928E-01  .651E-01  .529E-01
  .478E-01  .448E-01  .407E-01  .412E-01  .000E+00  .000E+00  .000E+00  .000E+00
  .000E+00  .000E+00  .000E+00  .000E+00  .000E+00  .000E+00  .000E+00  .000E+00
  .000E+00  .000E+00  .000E+00  .000E+00  .000E+00  .000E+00  .000E+00  .000E+00
  .000E+00  .000E+00  .000E+00  .000E+00
  .246E-01  .371E-01  .477E-01  .501E-01  .463E-01  .713E-01  .965E-01  .732E-01
  .792E-01  .961E-01  .157E+00  .177E+00  .210E+00  .256E+00  .342E+00  .489E+00
  .406E+00  .396E+00  .303E+00  .368E+00  .323E+00  .413E+00  .309E+00  .325E+00
  .355E+00  .382E+00  .671E+00  .789E+00  .796E+00  .792E+00  .759E+00  .883E+00
  .105E+01  .131E+01  .108E+01  .809E+00  .662E+00  .592E+00  .486E+00  .500E+00
  .480E+00  .440E+00  .517E+00  .558E+00  .793E+00  .101E+01  .116E+01  .678E+00
  .734E+00  .657E+00  .675E+00  .610E+00  .520E+00  .566E+00  .698E+00  .844E+00
  .646E+00  .750E+00  .714E+00  .562E+00  .798E+00  .591E+00  .452E+00  .375E+00
  .348E+00  .317E+00  .298E+00  .291E+00  .291E+00  .292E+00  .293E+00  .291E+00
  .289E+00  .286E+00  .283E+00  .279E+00  .000E+00  .000E+00  .000E+00  .000E+00
  .000E+00  .000E+00  .000E+00  .000E+00  .000E+00  .000E+00  .000E+00  .000E+00
  .000E+00  .000E+00  .000E+00  .000E+00  .000E+00  .000E+00  .000E+00  .000E+00
  .000E+00  .000E+00  .000E+00  .000E+00
  .190E-01  .206E-01  .247E-01  .256E-01  .217E-01  .302E-01  .336E-01  .266E-01
  .233E-01  .253E-01  .436E-01  .408E-01  .458E-01  .522E-01  .672E-01  .834E-01
  .630E-01  .564E-01  .386E-01  .423E-01  .340E-01  .414E-01  .309E-01  .286E-01
  .347E-01  .373E-01  .512E-01  .569E-01  .504E-01  .464E-01  .383E-01  .477E-01
  .498E-01  .596E-01  .452E-01  .304E-01  .233E-01  .211E-01  .175E-01  .165E-01
  .131E-01  .109E-01  .137E-01  .137E-01  .184E-01  .222E-01  .221E-01  .126E-01
  .102E-01  .106E-01  .107E-01  .896E-02  .676E-02  .754E-02  .812E-02  .844E-02
  .636E-02  .719E-02  .606E-02  .465E-02  .650E-02  .418E-02  .276E-02  .171E-02
  .117E-02  .126E-02  .876E-03  .761E-03  .770E-03  .658E-03  .418E-03  .309E-03
  .257E-03  .222E-03  .186E-03  .169E-03  .000E+00  .000E+00  .000E+00  .000E+00
  .000E+00  .000E+00  .000E+00  .000E+00  .000E+00  .000E+00  .000E+00  .000E+00
  .000E+00  .000E+00  .000E+00  .000E+00  .000E+00  .000E+00  .000E+00  .000E+00
  .000E+00  .000E+00  .000E+00  .000E+00
  .467E-01  .531E-01  .663E-01  .719E-01  .637E-01  .927E-01  .113E+00  .978E-01
  .930E-01  .108E+00  .200E+00  .201E+00  .238E+00  .288E+00  .390E+00  .515E+00
  .425E+00  .415E+00  .306E+00  .361E+00  .314E+00  .406E+00  .323E+00  .315E+00
  .404E+00  .459E+00  .688E+00  .835E+00  .807E+00  .799E+00  .706E+00  .937E+00
  .104E+01  .132E+01  .105E+01  .748E+00  .600E+00  .571E+00  .493E+00  .487E+00
  .401E+00  .368E+00  .504E+00  .546E+00  .789E+00  .102E+01  .108E+01  .659E+00
  .563E+00  .621E+00  .656E+00  .605E+00  .498E+00  .602E+00  .698E+00  .777E+00
  .625E+00  .750E+00  .669E+00  .542E+00  .798E+00  .565E+00  .406E+00  .272E+00
  .201E+00  .233E+00  .172E+00  .159E+00  .170E+00  .153E+00  .102E+00  .792E-01
  .683E-01  .612E-01  .533E-01  .517E-01  .000E+00  .000E+00  .000E+00  .000E+00
  .000E+00  .000E+00  .000E+00  .000E+00  .000E+00  .000E+00  .000E+00  .000E+00
  .000E+00  .000E+00  .000E+00  .000E+00  .000E+00  .000E+00  .000E+00  .000E+00
  .000E+00  .000E+00  .000E+00  .000E+00
  .311E+02  .319E+02  .313E+02  .313E+02  .313E+02  .314E+02  .316E+02  .316E+02
  .313E+02  .313E+02  .319E+02  .315E+02  .315E+02  .315E+02  .316E+02  .319E+02
  .318E+02  .317E+02  .319E+02  .315E+02  .322E+02  .323E+02  .256E+02  .257E+02
  .327E+02  .328E+02  .329E+02  .320E+02  .320E+02  .313E+02  .313E+02  .320E+02
  .320E+02  .330E+02  .330E+02  .323E+02  .316E+02  .316E+02  .311E+02  .311E+02
  .311E+02  .350E+02  .338E+02  .316E+02  .339E+02  .359E+02  .361E+02  .350E+02
  .327E+02  .327E+02  .553E+02  .347E+02  .366E+02  .561E+02  .397E+02  .414E+02
  .748E+02  .608E+02  .638E+02  .679E+02  .793E+02  .411E+02  .404E+02  .569E+02
  .701E+02  .735E+02  .727E+02  .559E+02  .728E+02  .666E+02  .386E+02  .386E+02
  .358E+02  .358E+02  .358E+02  .552E+02  .000E+00  .000E+00  .000E+00  .000E+00
  .000E+00  .000E+00  .000E+00  .000E+00  .000E+00  .000E+00  .000E+00  .000E+00
  .000E+00  .000E+00  .000E+00  .000E+00  .000E+00  .000E+00  .000E+00  .000E+00
  .000E+00  .000E+00  .000E+00  .000E+00
  .311E+02  .256E+02  .313E+02  .313E+02  .314E+02  .314E+02  .315E+02  .314E+02
  .313E+02  .313E+02  .319E+02  .314E+02  .314E+02  .314E+02  .316E+02  .320E+02
  .318E+02  .317E+02  .320E+02  .315E+02  .314E+02  .323E+02  .256E+02  .256E+02
  .323E+02  .328E+02  .332E+02  .320E+02  .319E+02  .314E+02  .314E+02  .321E+02
  .319E+02  .329E+02  .329E+02  .322E+02  .317E+02  .317E+02  .310E+02  .310E+02
  .310E+02  .310E+02  .310E+02  .317E+02  .337E+02  .361E+02  .359E+02  .348E+02
  .328E+02  .321E+02  .348E+02  .344E+02  .375E+02  .564E+02  .429E+02  .418E+02
  .361E+02  .612E+02  .572E+02  .683E+02  .798E+02  .415E+02  .408E+02  .308E+02
  .309E+02  .309E+02  .309E+02  .309E+02  .309E+02  .309E+02  .309E+02  .309E+02
  .309E+02  .309E+02  .309E+02  .309E+02  .000E+00  .000E+00  .000E+00  .000E+00
  .000E+00  .000E+00  .000E+00  .000E+00  .000E+00  .000E+00  .000E+00  .000E+00
  .000E+00  .000E+00  .000E+00  .000E+00  .000E+00  .000E+00  .000E+00  .000E+00
  .000E+00  .000E+00  .000E+00  .000E+00
  .311E+02  .319E+02  .313E+02  .313E+02  .313E+02  .314E+02  .315E+02  .316E+02
  .313E+02  .313E+02  .319E+02  .315E+02  .315E+02  .315E+02  .316E+02  .319E+02
  .318E+02  .317E+02  .319E+02  .315E+02  .322E+02  .322E+02  .256E+02  .257E+02
  .327E+02  .327E+02  .329E+02  .319E+02  .320E+02  .313E+02  .313E+02  .320E+02
  .320E+02  .330E+02  .330E+02  .323E+02  .316E+02  .316E+02  .311E+02  .311E+02
  .311E+02  .350E+02  .338E+02  .316E+02  .339E+02  .359E+02  .360E+02  .350E+02
  .327E+02  .327E+02  .553E+02  .347E+02  .366E+02  .561E+02  .397E+02  .414E+02
  .748E+02  .607E+02  .638E+02  .679E+02  .793E+02  .410E+02  .404E+02  .569E+02
  .701E+02  .735E+02  .727E+02  .559E+02  .728E+02  .666E+02  .386E+02  .386E+02
  .358E+02  .358E+02  .358E+02  .552E+02  .000E+00  .000E+00  .000E+00  .000E+00
  .000E+00  .000E+00  .000E+00  .000E+00  .000E+00  .000E+00  .000E+00  .000E+00
  .000E+00  .000E+00  .000E+00  .000E+00  .000E+00  .000E+00  .000E+00  .000E+00
  .000E+00  .000E+00  .000E+00  .000E+00
Damping =  .05. Data of Sd,Sv,Sa,Pssv,ttSd,ttSv,ttSa :
  .254E-03  .311E-03  .379E-03  .445E-03  .477E-03  .543E-03  .690E-03  .748E-03
