Response and Fourier amplitude spectra (80 periods,  .04 -  7.0 sec)   for      
Corrected accelerogram   23701-F1382-08212.18       Chan  3:  90 Deg     from   
Uncorrected Accelerogram Data             Processed: 02/09/09, CGS  CE23701     
Record of Tue Jul 29, 2008 11:42:48.8 PDT             (Avol1 v8.5,11/08 CSMIP)  
CSMIP Preliminary Processing            (Origin:  To be determined)             
23701-F1382-08212.18                 Start time:  7/29/08, 18:42 GMT (*LoQ*)    
Station No. 23701   34.163N, 117.332W     SSA-2  s/n 1382  (3 Chns of 15 at Sta)
San Bernardino - 3-story Motel            CGS                                   
Chan  3:  90 DegR (Sta Chn: 15)     Location: Roof, S. Wing: S. Wall            
Record of Tue Jul 29, 2008 11:42:48.8 PDT    Tue Jul 29, 2008 11:42:48.8 PDT    
Hypocenter:  To be determined.               ML:  To be determined.             
Instr Period =  .0191 sec,  Damping =  .660,  Sensitivity = 1.25  v/g           
                        Record length = 78.080 sec.                             
                                     Uncor Max  =  -.080 g , at  23.270 sec.    
RMS accel of (uncor) record  =        .   Chn. metadata effective date: 09/16/94
Accelerogram bandpass filtered with 3 dB pts at   .14 and 40.00 cyc/sec         
                 instrument- and baseline-corrected                             
                                                                                
                                                                                
                                                                                
                                                                                
                                                                                
Record of Tue Jul 29, 2008 11:42:48.8 PDT    Tue Jul 29, 2008 11:42:48.8 PDT    
                                                                                
23701-F1382-08212.18      San Bernardino - 3-story Motel    Chan  3:  90 Deg    
                                                                                
23701-F1382-08212.18      San Bernardino - 3-story Motel    Chan  3:  90 Deg    
                                                                                
Units for spectra are inches and sec, except Sa is in fraction of g.            
                                                                                
    3  100   15    3   15  200    1    3    1   12    6 1382    023701    2    0
   18   42   48  770  211    7   29 2008    0    6   9015616   41   30   76   45
15616    0  100    3 4104    1   18   61    2   18   42   48  770    7   29 2008
    0    2    0    0 7808    2  222    1   12    4   76   30    3    1    0 7808
    3 7808   31   80    5    3    5    0    0    0   15    0    0    3    0    2
    2    2    4    0   77   99    1   32   32    0    0    1    0    0   12  222
    1    0    3    0
      .019      .660    78.080      .008      .000  1246.000     -.080    23.270
    52.300  1220.703   979.698      .000     5.000      .000      .000      .000
     2.500    12.554     2.500   330.000    15.360    30.000      .000      .060
     -.003     -.063     2.000    15.000    34.163  -117.332      .366      .933
     2.549     -.127      .001   435.000      .000      .000      .000      .000
     1.000   -11.560     7.000      .000      .000      .000      .000      .000
     6.800     8.500     5.200   980.665      .010    78.080     8.324      .000
      .000    40.000      .000    78.080      .010      .143      .000      .000
    23.270   -78.492    23.330    -3.440    23.260      .274      .003      .143
    40.000      .010      .010      .010     3.050      .108      .000      .000
      .447      .200      .424      .219      .013      .002      .000      .000
      .000      .000      .000      .000      .000      .000      .000      .000
      .000      .000      .000      .000
      .000      .020      .050      .100      .200
      .040      .042      .044      .046      .048      .050      .055      .060
      .065      .070      .075      .080      .085      .090      .095      .100
      .110      .120      .130      .140      .150      .160      .170      .180
      .190      .200      .220      .240      .260      .280      .300      .320
      .340      .360      .380      .400      .420      .440      .460      .480
      .500      .550      .600      .650      .700      .750      .800      .850
      .900      .950     1.000     1.100     1.200     1.300     1.400     1.500
     1.600     1.700     1.800     1.900     2.000     2.200     2.400     2.600
     2.800     3.000     3.200     3.400     3.600     3.800     4.000     4.200
     4.400     4.600     4.800     5.000     5.500     6.000     6.500     7.000
      .000      .000      .000      .000      .000      .000      .000      .000
      .000      .000      .000      .000      .000      .000      .000      .000
      .000      .000      .000      .000
Fourier amplitude spectra in in/sec.
  .111E+00  .107E+00  .201E-01  .143E+00  .364E-01  .709E-01  .207E+00  .375E+00
  .302E+00  .361E+00  .497E+00  .677E+00  .155E+00  .494E+00  .536E+00  .108E+01
  .376E+01  .237E+01  .194E+01  .128E+01  .382E+01  .518E+01  .464E+01  .944E+01
  .108E+02  .154E+02  .119E+02  .677E+01  .155E+02  .527E+01  .274E+01  .775E+01
  .840E+01  .259E+01  .190E+01  .758E+00  .231E+01  .318E+01  .174E+01  .671E+00
  .220E+00  .231E+01  .668E+00  .800E+00  .781E+00  .202E+01  .179E+01  .661E+00
  .733E+00  .150E+01  .111E+01  .752E+00  .140E+01  .673E+00  .116E+01  .114E+01
  .133E+01  .112E+01  .460E+00  .400E+00  .381E+00  .320E+00  .124E+00  .328E-01
  .290E+00  .553E+00  .534E+00  .430E+00  .639E+00  .702E+00  .609E+00  .505E+00
  .472E+00  .383E+00  .320E+00  .246E+00  .140E+00  .125E+00  .156E+00  .159E+00
  .000E+00  .000E+00  .000E+00  .000E+00  .000E+00  .000E+00  .000E+00  .000E+00
  .000E+00  .000E+00  .000E+00  .000E+00  .000E+00  .000E+00  .000E+00  .000E+00
  .000E+00  .000E+00  .000E+00  .000E+00
Damping =  .00. Data of Sd,Sv,Sa,Pssv,ttSd,ttSv,ttSa :
  .175E-02  .195E-02  .177E-02  .192E-02  .229E-02  .305E-02  .255E-02  .684E-02
  .672E-02  .727E-02  .793E-02  .120E-01  .729E-02  .102E-01  .155E-01  .197E-01
  .692E-01  .477E-01  .463E-01  .510E-01  .146E+00  .204E+00  .166E+00  .285E+00
  .365E+00  .603E+00  .451E+00  .419E+00  .677E+00  .352E+00  .255E+00  .407E+00
  .485E+00  .232E+00  .143E+00  .148E+00  .190E+00  .229E+00  .180E+00  .162E+00
  .104E+00  .235E+00  .124E+00  .141E+00  .144E+00  .308E+00  .324E+00  .218E+00
  .212E+00  .252E+00  .205E+00  .140E+00  .351E+00  .166E+00  .261E+00  .276E+00
  .347E+00  .354E+00  .182E+00  .162E+00  .161E+00  .141E+00  .106E+00  .111E+00
  .157E+00  .289E+00  .308E+00  .343E+00  .394E+00  .441E+00  .433E+00  .394E+00
  .349E+00  .311E+00  .310E+00  .304E+00  .242E+00  .185E+00  .193E+00  .213E+00
  .000E+00  .000E+00  .000E+00  .000E+00  .000E+00  .000E+00  .000E+00  .000E+00
  .000E+00  .000E+00  .000E+00  .000E+00  .000E+00  .000E+00  .000E+00  .000E+00
  .000E+00  .000E+00  .000E+00  .000E+00
  .190E+00  .156E+00  .102E+00  .149E+00  .140E+00  .217E+00  .229E+00  .523E+00
  .518E+00  .554E+00  .527E+00  .718E+00  .402E+00  .554E+00  .818E+00  .120E+01
  .391E+01  .245E+01  .221E+01  .201E+01  .594E+01  .786E+01  .580E+01  .991E+01
  .119E+02  .189E+02  .129E+02  .114E+02  .166E+02  .802E+01  .568E+01  .817E+01
  .894E+01  .452E+01  .290E+01  .292E+01  .310E+01  .328E+01  .295E+01  .305E+01
  .203E+01  .260E+01  .200E+01  .198E+01  .197E+01  .271E+01  .281E+01  .225E+01
  .234E+01  .224E+01  .178E+01  .155E+01  .184E+01  .151E+01  .149E+01  .163E+01
  .178E+01  .177E+01  .173E+01  .159E+01  .153E+01  .132E+01  .129E+01  .126E+01
  .126E+01  .124E+01  .122E+01  .131E+01  .132E+01  .128E+01  .128E+01  .132E+01
  .134E+01  .136E+01  .139E+01  .143E+01  .149E+01  .145E+01  .144E+01  .147E+01
  .000E+00  .000E+00  .000E+00  .000E+00  .000E+00  .000E+00  .000E+00  .000E+00
  .000E+00  .000E+00  .000E+00  .000E+00  .000E+00  .000E+00  .000E+00  .000E+00
  .000E+00  .000E+00  .000E+00  .000E+00
  .112E+00  .113E+00  .935E-01  .929E-01  .101E+00  .125E+00  .862E-01  .194E+00
  .163E+00  .152E+00  .144E+00  .191E+00  .103E+00  .129E+00  .176E+00  .202E+00
  .585E+00  .339E+00  .280E+00  .266E+00  .663E+00  .815E+00  .588E+00  .899E+00
  .103E+01  .154E+01  .953E+00  .744E+00  .102E+01  .459E+00  .290E+00  .407E+00
  .429E+00  .183E+00  .101E+00  .946E-01  .110E+00  .121E+00  .869E-01  .721E-01
  .425E-01  .793E-01  .352E-01  .342E-01  .301E-01  .560E-01  .519E-01  .308E-01
  .268E-01  .285E-01  .210E-01  .119E-01  .249E-01  .101E-01  .136E-01  .126E-01
  .139E-01  .125E-01  .574E-02  .458E-02  .413E-02  .298E-02  .188E-02  .168E-02
  .205E-02  .328E-02  .308E-02  .303E-02  .311E-02  .312E-02  .277E-02  .228E-02
  .184E-02  .150E-02  .137E-02  .124E-02  .820E-03  .525E-03  .467E-03  .446E-03
  .000E+00  .000E+00  .000E+00  .000E+00  .000E+00  .000E+00  .000E+00  .000E+00
  .000E+00  .000E+00  .000E+00  .000E+00  .000E+00  .000E+00  .000E+00  .000E+00
  .000E+00  .000E+00  .000E+00  .000E+00
  .275E+00  .291E+00  .253E+00  .262E+00  .299E+00  .383E+00  .291E+00  .717E+00
  .649E+00  .653E+00  .664E+00  .939E+00  .539E+00  .715E+00  .103E+01  .124E+01
  .395E+01  .250E+01  .224E+01  .229E+01  .611E+01  .801E+01  .614E+01  .995E+01
  .121E+02  .190E+02  .129E+02  .110E+02  .164E+02  .789E+01  .535E+01  .799E+01
  .896E+01  .404E+01  .236E+01  .232E+01  .284E+01  .327E+01  .246E+01  .213E+01
  .131E+01  .268E+01  .130E+01  .137E+01  .129E+01  .258E+01  .255E+01  .161E+01
  .148E+01  .166E+01  .129E+01  .801E+00  .184E+01  .804E+00  .117E+01  .116E+01
  .136E+01  .131E+01  .635E+00  .534E+00  .507E+00  .403E+00  .277E+00  .269E+00
  .353E+00  .604E+00  .606E+00  .634E+00  .687E+00  .729E+00  .680E+00  .589E+00
  .498E+00  .424E+00  .405E+00  .382E+00  .277E+00  .194E+00  .186E+00  .192E+00
  .000E+00  .000E+00  .000E+00  .000E+00  .000E+00  .000E+00  .000E+00  .000E+00
  .000E+00  .000E+00  .000E+00  .000E+00  .000E+00  .000E+00  .000E+00  .000E+00
  .000E+00  .000E+00  .000E+00  .000E+00
  .234E+02  .232E+02  .236E+02  .234E+02  .220E+02  .233E+02  .237E+02  .234E+02
  .236E+02  .244E+02  .234E+02  .234E+02  .236E+02  .233E+02  .220E+02  .353E+02
  .499E+02  .361E+02  .381E+02  .243E+02  .287E+02  .258E+02  .236E+02  .290E+02
  .248E+02  .265E+02  .477E+02  .234E+02  .357E+02  .222E+02  .223E+02  .355E+02
  .679E+02  .239E+02  .220E+02  .220E+02  .372E+02  .720E+02  .219E+02  .217E+02
  .219E+02  .259E+02  .249E+02  .218E+02  .249E+02  .293E+02  .309E+02  .239E+02
  .239E+02  .392E+02  .267E+02  .599E+02  .414E+02  .254E+02  .754E+02  .738E+02
  .738E+02  .508E+02  .246E+02  .411E+02  .361E+02  .592E+02  .279E+02  .216E+02
  .279E+02  .588E+02  .491E+02  .356E+02  .489E+02  .461E+02  .431E+02  .398E+02
  .385E+02  .322E+02  .282E+02  .282E+02  .263E+02  .243E+02  .243E+02  .243E+02
  .000E+00  .000E+00  .000E+00  .000E+00  .000E+00  .000E+00  .000E+00  .000E+00
  .000E+00  .000E+00  .000E+00  .000E+00  .000E+00  .000E+00  .000E+00  .000E+00
  .000E+00  .000E+00  .000E+00  .000E+00
  .351E+02  .236E+02  .237E+02  .748E+02  .230E+02  .236E+02  .313E+02  .239E+02
  .248E+02  .257E+02  .436E+02  .676E+02  .257E+02  .261E+02  .227E+02  .353E+02
  .560E+02  .361E+02  .381E+02  .243E+02  .287E+02  .258E+02  .235E+02  .303E+02
  .247E+02  .265E+02  .477E+02  .234E+02  .358E+02  .223E+02  .222E+02  .355E+02
  .679E+02  .238E+02  .220E+02  .220E+02  .239E+02  .719E+02  .233E+02  .218E+02
  .218E+02  .260E+02  .233E+02  .232E+02  .248E+02  .355E+02  .287E+02  .236E+02
  .233E+02  .233E+02  .233E+02  .221E+02  .411E+02  .217E+02  .233E+02  .233E+02
  .233E+02  .233E+02  .233E+02  .233E+02  .233E+02  .233E+02  .233E+02  .217E+02
  .233E+02  .233E+02  .217E+02  .233E+02  .233E+02  .233E+02  .233E+02  .233E+02
  .233E+02  .233E+02  .233E+02  .233E+02  .233E+02  .233E+02  .233E+02  .233E+02
  .000E+00  .000E+00  .000E+00  .000E+00  .000E+00  .000E+00  .000E+00  .000E+00
  .000E+00  .000E+00  .000E+00  .000E+00  .000E+00  .000E+00  .000E+00  .000E+00
  .000E+00  .000E+00  .000E+00  .000E+00
  .234E+02  .232E+02  .236E+02  .234E+02  .220E+02  .233E+02  .237E+02  .234E+02
  .236E+02  .244E+02  .234E+02  .234E+02  .236E+02  .233E+02  .220E+02  .353E+02
  .499E+02  .361E+02  .381E+02  .243E+02  .287E+02  .258E+02  .236E+02  .290E+02
  .248E+02  .265E+02  .477E+02  .234E+02  .357E+02  .222E+02  .223E+02  .355E+02
  .679E+02  .239E+02  .220E+02  .220E+02  .372E+02  .720E+02  .219E+02  .217E+02
  .219E+02  .259E+02  .249E+02  .218E+02  .249E+02  .293E+02  .309E+02  .239E+02
  .239E+02  .392E+02  .267E+02  .599E+02  .414E+02  .254E+02  .754E+02  .738E+02
  .738E+02  .508E+02  .246E+02  .411E+02  .361E+02  .592E+02  .279E+02  .216E+02
  .279E+02  .588E+02  .491E+02  .356E+02  .489E+02  .461E+02  .431E+02  .398E+02
  .385E+02  .322E+02  .282E+02  .282E+02  .263E+02  .243E+02  .243E+02  .243E+02
  .000E+00  .000E+00  .000E+00  .000E+00  .000E+00  .000E+00  .000E+00  .000E+00
  .000E+00  .000E+00  .000E+00  .000E+00  .000E+00  .000E+00  .000E+00  .000E+00
  .000E+00  .000E+00  .000E+00  .000E+00
Damping =  .02. Data of Sd,Sv,Sa,Pssv,ttSd,ttSv,ttSa :
  .127E-02  .152E-02  .167E-02  .196E-02  .210E-02  .233E-02  .276E-02  .372E-02
  .497E-02  .539E-02  .582E-02  .810E-02  .671E-02  .863E-02  .961E-02  .149E-01
  .203E-01  .256E-01  .227E-01  .373E-01  .453E-01  .834E-01  .822E-01  .126E+00
  .208E+00  .256E+00  .298E+00  .251E+00  .244E+00  .267E+00  .221E+00  .248E+00
  .253E+00  .176E+00  .138E+00  .134E+00  .141E+00  .142E+00  .155E+00  .142E+00
  .118E+00  .152E+00  .111E+00  .130E+00  .125E+00  .183E+00  .194E+00  .184E+00
  .179E+00  .152E+00  .146E+00  .121E+00  .186E+00  .133E+00  .138E+00  .183E+00
  .188E+00  .176E+00  .157E+00  .131E+00  .131E+00  .122E+00  .988E-01  .106E+00
  .138E+00  .164E+00  .200E+00  .251E+00  .286E+00  .305E+00  .307E+00  .289E+00
  .278E+00  .257E+00  .268E+00  .263E+00  .227E+00  .184E+00  .187E+00  .198E+00
  .000E+00  .000E+00  .000E+00  .000E+00  .000E+00  .000E+00  .000E+00  .000E+00
  .000E+00  .000E+00  .000E+00  .000E+00  .000E+00  .000E+00  .000E+00  .000E+00
  .000E+00  .000E+00  .000E+00  .000E+00
  .614E-01  .644E-01  .615E-01  .780E-01  .842E-01  .949E-01  .982E-01  .172E+00
  .259E+00  .275E+00  .290E+00  .344E+00  .278E+00  .335E+00  .382E+00  .572E+00
  .980E+00  .102E+01  .910E+00  .143E+01  .169E+01  .283E+01  .273E+01  .406E+01
  .680E+01  .790E+01  .862E+01  .691E+01  .610E+01  .610E+01  .504E+01  .540E+01
  .534E+01  .340E+01  .280E+01  .267E+01  .258E+01  .250E+01  .260E+01  .266E+01
  .227E+01  .236E+01  .191E+01  .182E+01  .166E+01  .185E+01  .210E+01  .208E+01
  .217E+01  .209E+01  .177E+01  .151E+01  .151E+01  .148E+01  .150E+01  .160E+01
  .172E+01  .173E+01  .168E+01  .158E+01  .151E+01  .135E+01  .130E+01  .124E+01
  .126E+01  .125E+01  .124E+01  .130E+01  .131E+01  .129E+01  .130E+01  .132E+01
  .134E+01  .136E+01  .139E+01  .142E+01  .147E+01  .145E+01  .144E+01  .146E+01
  .000E+00  .000E+00  .000E+00  .000E+00  .000E+00  .000E+00  .000E+00  .000E+00
  .000E+00  .000E+00  .000E+00  .000E+00  .000E+00  .000E+00  .000E+00  .000E+00
  .000E+00  .000E+00  .000E+00  .000E+00
  .814E-01  .880E-01  .881E-01  .948E-01  .933E-01  .954E-01  .933E-01  .106E+00
  .120E+00  .113E+00  .106E+00  .130E+00  .952E-01  .109E+00  .109E+00  .153E+00
  .173E+00  .181E+00  .137E+00  .194E+00  .206E+00  .331E+00  .291E+00  .399E+00
  .589E+00  .654E+00  .632E+00  .448E+00  .368E+00  .349E+00  .250E+00  .247E+00
  .224E+00  .139E+00  .983E-01  .861E-01  .822E-01  .750E-01  .748E-01  .630E-01
  .481E-01  .515E-01  .315E-01  .316E-01  .263E-01  .335E-01  .311E-01  .261E-01
  .226E-01  .173E-01  .150E-01  .102E-01  .132E-01  .810E-02  .725E-02  .833E-02
  .754E-02  .625E-02  .498E-02  .374E-02  .341E-02  .264E-02  .180E-02  .163E-02
  .181E-02  .187E-02  .201E-02  .224E-02  .227E-02  .217E-02  .197E-02  .168E-02
  .147E-02  .124E-02  .120E-02  .109E-02  .782E-03  .548E-03  .482E-03  .445E-03
  .000E+00  .000E+00  .000E+00  .000E+00  .000E+00  .000E+00  .000E+00  .000E+00
  .000E+00  .000E+00  .000E+00  .000E+00  .000E+00  .000E+00  .000E+00  .000E+00
  .000E+00  .000E+00  .000E+00  .000E+00
  .200E+00  .227E+00  .238E+00  .268E+00  .275E+00  .293E+00  .315E+00  .390E+00
  .481E+00  .483E+00  .487E+00  .636E+00  .496E+00  .603E+00  .635E+00  .937E+00
  .116E+01  .134E+01  .110E+01  .167E+01  .190E+01  .327E+01  .304E+01  .439E+01
  .688E+01  .805E+01  .852E+01  .657E+01  .589E+01  .598E+01  .462E+01  .487E+01
  .468E+01  .308E+01  .229E+01  .211E+01  .211E+01  .202E+01  .212E+01  .186E+01
  .148E+01  .173E+01  .116E+01  .126E+01  .113E+01  .154E+01  .152E+01  .136E+01
  .125E+01  .100E+01  .920E+00  .690E+00  .976E+00  .644E+00  .620E+00  .767E+00
  .740E+00  .652E+00  .548E+00  .433E+00  .412E+00  .348E+00  .259E+00  .257E+00
  .309E+00  .344E+00  .392E+00  .464E+00  .499E+00  .504E+00  .482E+00  .432E+00
  .397E+00  .351E+00  .350E+00  .331E+00  .259E+00  .193E+00  .180E+00  .178E+00
  .000E+00  .000E+00  .000E+00  .000E+00  .000E+00  .000E+00  .000E+00  .000E+00
  .000E+00  .000E+00  .000E+00  .000E+00  .000E+00  .000E+00  .000E+00  .000E+00
  .000E+00  .000E+00  .000E+00  .000E+00
  .234E+02  .233E+02  .233E+02  .233E+02  .233E+02  .233E+02  .233E+02  .233E+02
  .236E+02  .237E+02  .236E+02  .234E+02  .218E+02  .234E+02  .220E+02  .233E+02
  .227E+02  .233E+02  .242E+02  .243E+02  .244E+02  .234E+02  .235E+02  .237E+02
  .246E+02  .239E+02  .241E+02  .231E+02  .245E+02  .222E+02  .221E+02  .234E+02
  .235E+02  .234E+02  .220E+02  .219E+02  .238E+02  .219E+02  .219E+02  .219E+02
  .219E+02  .237E+02  .218E+02  .218E+02  .229E+02  .237E+02  .234E+02  .239E+02
  .239E+02  .236E+02  .266E+02  .218E+02  .342E+02  .248E+02  .242E+02  .296E+02
  .283E+02  .279E+02  .246E+02  .247E+02  .233E+02  .233E+02  .279E+02  .216E+02
  .279E+02  .498E+02  .316E+02  .305E+02  .307E+02  .328E+02  .311E+02  .294E+02
  .297E+02  .300E+02  .282E+02  .282E+02  .263E+02  .240E+02  .243E+02  .243E+02
  .000E+00  .000E+00  .000E+00  .000E+00  .000E+00  .000E+00  .000E+00  .000E+00
  .000E+00  .000E+00  .000E+00  .000E+00  .000E+00  .000E+00  .000E+00  .000E+00
  .000E+00  .000E+00  .000E+00  .000E+00
  .234E+02  .232E+02  .232E+02  .232E+02  .234E+02  .221E+02  .233E+02  .233E+02
  .236E+02  .237E+02  .236E+02  .225E+02  .230E+02  .234E+02  .227E+02  .236E+02
  .225E+02  .233E+02  .242E+02  .243E+02  .244E+02  .234E+02  .235E+02  .237E+02
  .245E+02  .240E+02  .240E+02  .232E+02  .223E+02  .222E+02  .222E+02  .235E+02
  .234E+02  .233E+02  .219E+02  .220E+02  .220E+02  .237E+02  .218E+02  .218E+02
  .218E+02  .218E+02  .233E+02  .218E+02  .218E+02  .234E+02  .236E+02  .233E+02
  .233E+02  .233E+02  .233E+02  .221E+02  .217E+02  .217E+02  .233E+02  .233E+02
  .233E+02  .233E+02  .233E+02  .233E+02  .233E+02  .233E+02  .233E+02  .217E+02
  .233E+02  .233E+02  .233E+02  .233E+02  .233E+02  .233E+02  .233E+02  .233E+02
  .233E+02  .233E+02  .233E+02  .233E+02  .233E+02  .233E+02  .233E+02  .233E+02
  .000E+00  .000E+00  .000E+00  .000E+00  .000E+00  .000E+00  .000E+00  .000E+00
  .000E+00  .000E+00  .000E+00  .000E+00  .000E+00  .000E+00  .000E+00  .000E+00
  .000E+00  .000E+00  .000E+00  .000E+00
  .234E+02  .233E+02  .233E+02  .233E+02  .233E+02  .233E+02  .233E+02  .233E+02
  .236E+02  .237E+02  .236E+02  .234E+02  .218E+02  .234E+02  .220E+02  .233E+02
  .227E+02  .233E+02  .242E+02  .243E+02  .244E+02  .234E+02  .235E+02  .237E+02
  .246E+02  .239E+02  .240E+02  .231E+02  .245E+02  .222E+02  .221E+02  .234E+02
