Response and Fourier amplitude spectra (76 periods,  .04 -  5.0 sec)   for      
Corrected accelerogram   23792-K1341-08217.20       Chan 10:  90 Deg     from   
Uncorrected Accelerogram Data             Processed: 10/01/08, CDMG  AQ020      
Record of Tue Jul 29, 2008 11:41:59.0 PDT             (Avol1 v8.1 9/08 CSMIP)   
CSMIP Preliminary Processing            (Origin:  To be determined)             
23792-K1341-08217.20                 Start time:  7/29/08, 18:41:59.0 UTC (GPS) 
Station No. 23792   34.064N, 117.294W        K2  s/n 1341 (12 Channels)         
San Bernardino - I10/215 W Geotech Array  CGS                                   
Chan 10:  90 Deg                    Location: 92.1m (302ft) Depth               
Record of Tue Jul 29, 2008 11:41:59.0 PDT    Tue Jul 29, 2008 11:41:59.0 PDT    
Hypocenter:  To be determined.               ML:  To be determined.
Instr Period =  .0190 sec,  Damping =  .650,  Sensitivity = 1.25  v/g
                        Record length =109.000 sec.
                                     Uncor Max  =   .018 g , at  31.360 sec.
RMS accel of (uncor) record  =        .   Chn. metadata effective date: 05/16/08
Accelerogram bandpass filtered with 3 dB pts at   .30 and 40.00 cyc/sec
                 instrument- and baseline-corrected





Record of Tue Jul 29, 2008 11:41:59.0 PDT    Tue Jul 29, 2008 11:41:59.0 PDT

23792-K1341-08217.20      San Bernardino - I10/215 W Geotech Array  CGChan 10:
90 Deg
23792-K1341-08217.20      San Bernardino - I10/215 W Geotech Array  CGChan 10:
90 Deg
Units for spectra are inches and sec, except Sa is in fraction of g.

   10  100   10   12   12  200    1    3    1   24   11 1341    023792    4    0
   18   41   59    0  211    7   29 2008   10    3   9021800   41   40   76   -1
21800    0   50    3 1341    1   20 1090    2    0    0    0    0    0    0    0
    0    2    0    010900    2  222    0   18    7   76   40    1    1    010900
    310900   41   76    5   12    5    0    0    0   12    0    0    3    0    2
    2    2    4    1   65   99    0   32   32    0    0    1    0    0    0  222
    1    0   20    0
      .019      .650   109.000      .001      .000  1255.000      .018    31.360
    52.600      .298      .238      .000     5.000      .000     3.987      .000
     2.500   -28.423     2.500  -999.000    25.000    30.000      .000      .000
      .015      .015     2.000    15.000    34.064  -117.294      .015      .422
    28.588     -.005      .035   298.000    25.000    78.400    13.100   109.940
     1.000     1.023      .000      .000      .000      .000      .000      .000
     4.600     8.100     5.000   980.665      .010   109.000     8.372     -.005
      .000    40.000      .000   109.000      .010      .300      .000      .000
    31.360    17.281    32.600     -.746    37.750     -.136      .000      .300
    40.000      .010      .010      .000      .010      .076      .000      .000
      .072      .090      .040      .044      .007      .002      .000      .000
      .000      .000      .000      .000      .000      .000      .000      .000
      .000      .000      .000      .000
      .000      .020      .050      .100      .200
      .040      .042      .044      .046      .048      .050      .055      .060
      .065      .070      .075      .080      .085      .090      .095      .100
      .110      .120      .130      .140      .150      .160      .170      .180
      .190      .200      .220      .240      .260      .280      .300      .320
      .340      .360      .380      .400      .420      .440      .460      .480
      .500      .550      .600      .650      .700      .750      .800      .850
      .900      .950     1.000     1.100     1.200     1.300     1.400     1.500
     1.600     1.700     1.800     1.900     2.000     2.200     2.400     2.600
     2.800     3.000     3.200     3.400     3.600     3.800     4.000     4.200
     4.400     4.600     4.800     5.000      .000      .000      .000      .000
      .000      .000      .000      .000      .000      .000      .000      .000
      .000      .000      .000      .000      .000      .000      .000      .000
      .000      .000      .000      .000
Fourier amplitude spectra in in/sec.
  .542E-01  .517E-01  .645E-01  .202E-01  .172E+00  .123E+00  .103E+00  .184E+00
  .284E+00  .107E+00  .148E+00  .389E+00  .760E+00  .625E+00  .324E+00  .379E+00
  .885E+00  .171E+01  .471E+00  .329E+00  .418E+00  .630E+00  .989E+00  .105E+01
  .119E+00  .861E+00  .925E+00  .236E+01  .114E+01  .185E+01  .563E+00  .104E+01
  .990E+00  .148E+01  .116E+01  .213E+01  .333E+01  .156E+01  .161E+01  .732E+00
  .572E+00  .302E+00  .882E+00  .136E+01  .126E+01  .130E+01  .529E+00  .115E+01
  .157E+01  .139E+01  .135E+01  .128E+01  .671E+00  .489E+00  .161E+01  .108E+01
  .965E+00  .157E+01  .119E+01  .312E+00  .984E+00  .136E+01  .944E+00  .464E+00
  .754E+00  .447E+00  .440E+00  .258E-01  .353E+00  .220E+00  .835E-01  .125E+00
  .864E-01  .796E-01  .371E-01  .352E-01  .000E+00  .000E+00  .000E+00  .000E+00
  .000E+00  .000E+00  .000E+00  .000E+00  .000E+00  .000E+00  .000E+00  .000E+00
  .000E+00  .000E+00  .000E+00  .000E+00  .000E+00  .000E+00  .000E+00  .000E+00
  .000E+00  .000E+00  .000E+00  .000E+00
Damping =  .00. Data of Sd,Sv,Sa,Pssv,ttSd,ttSv,ttSa :
  .537E-03  .679E-03  .694E-03  .532E-03  .138E-02  .116E-02  .150E-02  .202E-02
  .394E-02  .433E-02  .394E-02  .824E-02  .114E-01  .116E-01  .125E-01  .714E-02
  .162E-01  .344E-01  .184E-01  .176E-01  .147E-01  .224E-01  .275E-01  .310E-01
  .158E-01  .336E-01  .373E-01  .979E-01  .652E-01  .978E-01  .436E-01  .676E-01
  .938E-01  .100E+00  .752E-01  .135E+00  .225E+00  .162E+00  .128E+00  .124E+00
  .891E-01  .591E-01  .102E+00  .151E+00  .170E+00  .173E+00  .817E-01  .183E+00
  .234E+00  .246E+00  .237E+00  .329E+00  .164E+00  .220E+00  .516E+00  .265E+00
  .343E+00  .501E+00  .346E+00  .184E+00  .313E+00  .576E+00  .401E+00  .271E+00
  .367E+00  .295E+00  .311E+00  .222E+00  .211E+00  .185E+00  .164E+00  .140E+00
  .112E+00  .874E-01  .813E-01  .773E-01  .000E+00  .000E+00  .000E+00  .000E+00
  .000E+00  .000E+00  .000E+00  .000E+00  .000E+00  .000E+00  .000E+00  .000E+00
  .000E+00  .000E+00  .000E+00  .000E+00  .000E+00  .000E+00  .000E+00  .000E+00
  .000E+00  .000E+00  .000E+00  .000E+00
  .701E-01  .697E-01  .718E-01  .532E-01  .176E+00  .135E+00  .147E+00  .205E+00
  .364E+00  .337E+00  .324E+00  .616E+00  .829E+00  .785E+00  .774E+00  .443E+00
  .922E+00  .179E+01  .867E+00  .772E+00  .655E+00  .872E+00  .101E+01  .107E+01
  .509E+00  .101E+01  .104E+01  .255E+01  .157E+01  .216E+01  .917E+00  .132E+01
  .179E+01  .173E+01  .123E+01  .213E+01  .335E+01  .234E+01  .186E+01  .170E+01
  .130E+01  .724E+00  .104E+01  .143E+01  .150E+01  .143E+01  .638E+00  .136E+01
  .162E+01  .162E+01  .146E+01  .183E+01  .853E+00  .105E+01  .231E+01  .110E+01
  .138E+01  .187E+01  .121E+01  .645E+00  .999E+00  .167E+01  .111E+01  .745E+00
  .847E+00  .719E+00  .660E+00  .516E+00  .504E+00  .459E+00  .390E+00  .371E+00
  .351E+00  .331E+00  .312E+00  .309E+00  .000E+00  .000E+00  .000E+00  .000E+00
  .000E+00  .000E+00  .000E+00  .000E+00  .000E+00  .000E+00  .000E+00  .000E+00
  .000E+00  .000E+00  .000E+00  .000E+00  .000E+00  .000E+00  .000E+00  .000E+00
  .000E+00  .000E+00  .000E+00  .000E+00
  .343E-01  .393E-01  .366E-01  .257E-01  .612E-01  .477E-01  .509E-01  .575E-01
  .954E-01  .903E-01  .717E-01  .132E+00  .161E+00  .146E+00  .142E+00  .730E-01
  .137E+00  .244E+00  .112E+00  .917E-01  .667E-01  .895E-01  .973E-01  .979E-01
  .447E-01  .860E-01  .788E-01  .174E+00  .986E-01  .128E+00  .495E-01  .675E-01
  .830E-01  .789E-01  .533E-01  .865E-01  .130E+00  .856E-01  .618E-01  .549E-01
  .364E-01  .200E-01  .290E-01  .366E-01  .356E-01  .314E-01  .131E-01  .260E-01
  .295E-01  .279E-01  .243E-01  .278E-01  .116E-01  .133E-01  .269E-01  .120E-01
  .137E-01  .177E-01  .109E-01  .521E-02  .800E-02  .122E-01  .712E-02  .410E-02
  .479E-02  .335E-02  .310E-02  .197E-02  .166E-02  .131E-02  .105E-02  .810E-03
  .594E-03  .422E-03  .361E-03  .316E-03  .000E+00  .000E+00  .000E+00  .000E+00
  .000E+00  .000E+00  .000E+00  .000E+00  .000E+00  .000E+00  .000E+00  .000E+00
  .000E+00  .000E+00  .000E+00  .000E+00  .000E+00  .000E+00  .000E+00  .000E+00
  .000E+00  .000E+00  .000E+00  .000E+00
  .844E-01  .102E+00  .991E-01  .727E-01  .180E+00  .146E+00  .172E+00  .212E+00
  .381E+00  .389E+00  .330E+00  .647E+00  .841E+00  .809E+00  .829E+00  .448E+00
  .927E+00  .180E+01  .891E+00  .789E+00  .615E+00  .879E+00  .102E+01  .108E+01
  .521E+00  .106E+01  .107E+01  .256E+01  .158E+01  .219E+01  .912E+00  .133E+01
  .173E+01  .175E+01  .124E+01  .213E+01  .336E+01  .231E+01  .175E+01  .162E+01
  .112E+01  .675E+00  .107E+01  .146E+01  .153E+01  .145E+01  .642E+00  .136E+01
  .163E+01  .163E+01  .149E+01  .188E+01  .856E+00  .106E+01  .232E+01  .111E+01
  .135E+01  .185E+01  .121E+01  .608E+00  .983E+00  .164E+01  .105E+01  .655E+00
  .824E+00  .618E+00  .610E+00  .411E+00  .368E+00  .305E+00  .258E+00  .209E+00
  .161E+00  .119E+00  .106E+00  .971E-01  .000E+00  .000E+00  .000E+00  .000E+00
  .000E+00  .000E+00  .000E+00  .000E+00  .000E+00  .000E+00  .000E+00  .000E+00
  .000E+00  .000E+00  .000E+00  .000E+00  .000E+00  .000E+00  .000E+00  .000E+00
  .000E+00  .000E+00  .000E+00  .000E+00
  .325E+02  .325E+02  .314E+02  .314E+02  .537E+02  .317E+02  .313E+02  .395E+02
  .352E+02  .314E+02  .333E+02  .314E+02  .467E+02  .337E+02  .326E+02  .456E+02
  .537E+02  .373E+02  .332E+02  .345E+02  .316E+02  .396E+02  .777E+02  .583E+02
  .320E+02  .325E+02  .460E+02  .502E+02  .459E+02  .394E+02  .330E+02  .394E+02
  .331E+02  .565E+02  .373E+02  .108E+03  .102E+03  .348E+02  .326E+02  .327E+02
  .325E+02  .365E+02  .633E+02  .547E+02  .465E+02  .650E+02  .450E+02  .567E+02
  .102E+03  .874E+02  .825E+02  .684E+02  .387E+02  .691E+02  .802E+02  .918E+02
  .406E+02  .571E+02  .105E+03  .706E+02  .109E+03  .876E+02  .675E+02  .550E+02
  .729E+02  .472E+02  .817E+02  .389E+02  .720E+02  .885E+02  .378E+02  .379E+02
  .379E+02  .379E+02  .325E+02  .325E+02  .000E+00  .000E+00  .000E+00  .000E+00
  .000E+00  .000E+00  .000E+00  .000E+00  .000E+00  .000E+00  .000E+00  .000E+00
  .000E+00  .000E+00  .000E+00  .000E+00  .000E+00  .000E+00  .000E+00  .000E+00
  .000E+00  .000E+00  .000E+00  .000E+00
  .346E+02  .328E+02  .378E+02  .328E+02  .529E+02  .433E+02  .348E+02  .398E+02
  .347E+02  .314E+02  .342E+02  .314E+02  .467E+02  .337E+02  .326E+02  .457E+02
  .551E+02  .373E+02  .332E+02  .345E+02  .315E+02  .398E+02  .777E+02  .585E+02
  .319E+02  .400E+02  .460E+02  .498E+02  .458E+02  .395E+02  .331E+02  .355E+02
  .330E+02  .559E+02  .462E+02  .108E+03  .102E+03  .349E+02  .327E+02  .326E+02
  .326E+02  .352E+02  .632E+02  .548E+02  .579E+02  .648E+02  .452E+02  .569E+02
  .102E+03  .872E+02  .823E+02  .687E+02  .550E+02  .714E+02  .805E+02  .915E+02
  .402E+02  .618E+02  .102E+03  .701E+02  .519E+02  .871E+02  .680E+02  .544E+02
  .987E+02  .393E+02  .393E+02  .383E+02  .384E+02  .384E+02  .384E+02  .352E+02
  .352E+02  .352E+02  .320E+02  .320E+02  .000E+00  .000E+00  .000E+00  .000E+00
  .000E+00  .000E+00  .000E+00  .000E+00  .000E+00  .000E+00  .000E+00  .000E+00
  .000E+00  .000E+00  .000E+00  .000E+00  .000E+00  .000E+00  .000E+00  .000E+00
  .000E+00  .000E+00  .000E+00  .000E+00
  .325E+02  .325E+02  .314E+02  .314E+02  .537E+02  .317E+02  .313E+02  .395E+02
  .352E+02  .314E+02  .333E+02  .314E+02  .467E+02  .337E+02  .326E+02  .456E+02
  .537E+02  .373E+02  .332E+02  .345E+02  .316E+02  .396E+02  .777E+02  .583E+02
  .320E+02  .325E+02  .460E+02  .502E+02  .459E+02  .394E+02  .330E+02  .394E+02
  .331E+02  .565E+02  .373E+02  .108E+03  .102E+03  .348E+02  .326E+02  .327E+02
  .325E+02  .365E+02  .633E+02  .547E+02  .465E+02  .650E+02  .450E+02  .567E+02
  .102E+03  .874E+02  .825E+02  .684E+02  .387E+02  .691E+02  .802E+02  .918E+02
  .406E+02  .571E+02  .105E+03  .706E+02  .109E+03  .876E+02  .675E+02  .550E+02
  .729E+02  .472E+02  .817E+02  .389E+02  .720E+02  .885E+02  .378E+02  .379E+02
  .379E+02  .379E+02  .325E+02  .325E+02  .000E+00  .000E+00  .000E+00  .000E+00
  .000E+00  .000E+00  .000E+00  .000E+00  .000E+00  .000E+00  .000E+00  .000E+00
  .000E+00  .000E+00  .000E+00  .000E+00  .000E+00  .000E+00  .000E+00  .000E+00
  .000E+00  .000E+00  .000E+00  .000E+00
Damping =  .02. Data of Sd,Sv,Sa,Pssv,ttSd,ttSv,ttSa :
  .307E-03  .347E-03  .398E-03  .453E-03  .468E-03  .598E-03  .980E-03  .105E-02
  .213E-02  .286E-02  .372E-02  .570E-02  .680E-02  .758E-02  .760E-02  .504E-02
  .862E-02  .142E-01  .130E-01  .111E-01  .920E-02  .665E-02  .118E-01  .106E-01
  .139E-01  .213E-01  .283E-01  .589E-01  .450E-01  .460E-01  .430E-01  .532E-01
  .645E-01  .483E-01  .603E-01  .690E-01  .978E-01  .101E+00  .102E+00  .945E-01
  .719E-01  .434E-01  .599E-01  .651E-01  .709E-01  .649E-01  .594E-01  .671E-01
  .774E-01  .926E-01  .902E-01  .119E+00  .128E+00  .134E+00  .182E+00  .149E+00
  .253E+00  .267E+00  .171E+00  .133E+00  .208E+00  .225E+00  .180E+00  .212E+00
  .233E+00  .217E+00  .213E+00  .200E+00  .172E+00  .163E+00  .151E+00  .131E+00
  .109E+00  .879E-01  .794E-01  .760E-01  .000E+00  .000E+00  .000E+00  .000E+00
  .000E+00  .000E+00  .000E+00  .000E+00  .000E+00  .000E+00  .000E+00  .000E+00
  .000E+00  .000E+00  .000E+00  .000E+00  .000E+00  .000E+00  .000E+00  .000E+00
  .000E+00  .000E+00  .000E+00  .000E+00
  .230E-01  .226E-01  .259E-01  .324E-01  .337E-01  .445E-01  .737E-01  .766E-01
  .151E+00  .210E+00  .272E+00  .431E+00  .475E+00  .491E+00  .476E+00  .291E+00
  .437E+00  .704E+00  .599E+00  .511E+00  .414E+00  .315E+00  .339E+00  .322E+00
  .434E+00  .543E+00  .748E+00  .146E+01  .110E+01  .104E+01  .883E+00  .102E+01
  .128E+01  .839E+00  .995E+00  .117E+01  .147E+01  .156E+01  .148E+01  .131E+01
  .110E+01  .633E+00  .601E+00  .622E+00  .676E+00  .539E+00  .456E+00  .488E+00
  .571E+00  .600E+00  .652E+00  .702E+00  .682E+00  .645E+00  .792E+00  .646E+00
  .999E+00  .102E+01  .696E+00  .605E+00  .655E+00  .722E+00  .570E+00  .600E+00
  .579E+00  .636E+00  .606E+00  .492E+00  .466E+00  .432E+00  .377E+00  .361E+00
  .346E+00  .328E+00  .311E+00  .306E+00  .000E+00  .000E+00  .000E+00  .000E+00
  .000E+00  .000E+00  .000E+00  .000E+00  .000E+00  .000E+00  .000E+00  .000E+00
  .000E+00  .000E+00  .000E+00  .000E+00  .000E+00  .000E+00  .000E+00  .000E+00
  .000E+00  .000E+00  .000E+00  .000E+00
  .197E-01  .201E-01  .210E-01  .219E-01  .208E-01  .245E-01  .331E-01  .301E-01
  .515E-01  .600E-01  .679E-01  .912E-01  .966E-01  .963E-01  .858E-01  .521E-01
  .724E-01  .101E+00  .787E-01  .583E-01  .418E-01  .268E-01  .419E-01  .335E-01
  .394E-01  .548E-01  .600E-01  .104E+00  .682E-01  .601E-01  .490E-01  .532E-01
  .571E-01  .382E-01  .428E-01  .441E-01  .567E-01  .536E-01  .495E-01  .420E-01
  .295E-01  .147E-01  .170E-01  .158E-01  .148E-01  .118E-01  .949E-02  .951E-02
  .978E-02  .105E-01  .924E-02  .100E-01  .913E-02  .814E-02  .950E-02  .678E-02
  .101E-01  .946E-02  .541E-02  .378E-02  .532E-02  .476E-02  .321E-02  .322E-02
  .304E-02  .247E-02  .213E-02  .177E-02  .136E-02  .116E-02  .969E-03  .762E-03
  .575E-03  .426E-03  .364E-03  .323E-03  .000E+00  .000E+00  .000E+00  .000E+00
  .000E+00  .000E+00  .000E+00  .000E+00  .000E+00  .000E+00  .000E+00  .000E+00
  .000E+00  .000E+00  .000E+00  .000E+00  .000E+00  .000E+00  .000E+00  .000E+00
  .000E+00  .000E+00  .000E+00  .000E+00
  .482E-01  .519E-01  .568E-01  .619E-01  .613E-01  .751E-01  .112E+00  .110E+00
  .205E+00  .257E+00  .311E+00  .447E+00  .503E+00  .529E+00  .503E+00  .317E+00
  .492E+00  .741E+00  .629E+00  .500E+00  .385E+00  .261E+00  .436E+00  .370E+00
  .460E+00  .670E+00  .807E+00  .154E+01  .109E+01  .103E+01  .902E+00  .104E+01
  .119E+01  .842E+00  .998E+00  .108E+01  .146E+01  .145E+01  .139E+01  .124E+01
  .904E+00  .496E+00  .627E+00  .629E+00  .636E+00  .544E+00  .466E+00  .496E+00
  .541E+00  .612E+00  .567E+00  .678E+00  .672E+00  .649E+00  .816E+00  .624E+00
  .995E+00  .987E+00  .598E+00  .440E+00  .653E+00  .642E+00  .472E+00  .513E+00
  .522E+00  .455E+00  .419E+00  .369E+00  .301E+00  .270E+00  .238E+00  .196E+00
  .155E+00  .120E+00  .104E+00  .955E-01  .000E+00  .000E+00  .000E+00  .000E+00
  .000E+00  .000E+00  .000E+00  .000E+00  .000E+00  .000E+00  .000E+00  .000E+00
  .000E+00  .000E+00  .000E+00  .000E+00  .000E+00  .000E+00  .000E+00  .000E+00
  .000E+00  .000E+00  .000E+00  .000E+00
  .315E+02  .315E+02  .314E+02  .315E+02  .313E+02  .313E+02  .313E+02  .313E+02
  .313E+02  .314E+02  .314E+02  .314E+02  .315E+02  .315E+02  .315E+02  .316E+02
  .317E+02  .320E+02  .321E+02  .319E+02  .316E+02  .314E+02  .325E+02  .325E+02
  .320E+02  .325E+02  .328E+02  .333E+02  .335E+02  .334E+02  .330E+02  .330E+02
  .329E+02  .318E+02  .318E+02  .318E+02  .334E+02  .328E+02  .326E+02  .326E+02
  .325E+02  .315E+02  .396E+02  .436E+02  .370E+02  .482E+02  .450E+02  .483E+02
  .402E+02  .471E+02  .584E+02  .557E+02  .530E+02  .692E+02  .731E+02  .733E+02
  .399E+02  .401E+02  .907E+02  .460E+02  .515E+02  .394E+02  .532E+02  .512E+02
  .480E+02  .398E+02  .387E+02  .388E+02  .389E+02  .377E+02  .377E+02  .378E+02
  .379E+02  .379E+02  .325E+02  .325E+02  .000E+00  .000E+00  .000E+00  .000E+00
  .000E+00  .000E+00  .000E+00  .000E+00  .000E+00  .000E+00  .000E+00  .000E+00
  .000E+00  .000E+00  .000E+00  .000E+00  .000E+00  .000E+00  .000E+00  .000E+00
  .000E+00  .000E+00  .000E+00  .000E+00
  .317E+02  .314E+02  .313E+02  .320E+02  .313E+02  .312E+02  .313E+02  .312E+02
  .313E+02  .314E+02  .314E+02  .314E+02  .315E+02  .315E+02  .316E+02  .316E+02
  .317E+02  .320E+02  .320E+02  .318E+02  .315E+02  .314E+02  .319E+02  .318E+02
  .318E+02  .326E+02  .327E+02  .334E+02  .334E+02  .335E+02  .331E+02  .330E+02
  .328E+02  .327E+02  .317E+02  .317E+02  .328E+02  .327E+02  .327E+02  .325E+02
  .326E+02  .317E+02  .397E+02  .431E+02  .354E+02  .363E+02  .444E+02  .429E+02
  .422E+02  .492E+02  .360E+02  .554E+02  .539E+02  .689E+02  .734E+02  .310E+02
  .403E+02  .397E+02  .332E+02  .332E+02  .519E+02  .398E+02  .326E+02  .507E+02
  .486E+02  .393E+02  .393E+02  .393E+02  .384E+02  .384E+02  .384E+02  .352E+02
  .352E+02  .352E+02  .352E+02  .320E+02  .000E+00  .000E+00  .000E+00  .000E+00
  .000E+00  .000E+00  .000E+00  .000E+00  .000E+00  .000E+00  .000E+00  .000E+00
  .000E+00  .000E+00  .000E+00  .000E+00  .000E+00  .000E+00  .000E+00  .000E+00
  .000E+00  .000E+00  .000E+00  .000E+00
  .315E+02  .315E+02  .314E+02  .315E+02  .313E+02  .313E+02  .313E+02  .313E+02
  .313E+02  .314E+02  .314E+02  .314E+02  .315E+02  .315E+02  .315E+02  .316E+02
  .317E+02  .320E+02  .321E+02  .319E+02  .316E+02  .314E+02  .325E+02  .325E+02
  .320E+02  .325E+02  .328E+02  .333E+02  .335E+02  .334E+02  .330E+02  .330E+02
  .329E+02  .318E+02  .318E+02  .318E+02  .334E+02  .328E+02  .326E+02  .326E+02
  .325E+02  .315E+02  .396E+02  .436E+02  .370E+02  .482E+02  .450E+02  .483E+02
  .402E+02  .471E+02  .584E+02  .557E+02  .530E+02  .692E+02  .731E+02  .733E+02
  .399E+02  .401E+02  .907E+02  .459E+02  .515E+02  .394E+02  .532E+02  .512E+02
  .479E+02  .398E+02  .387E+02  .388E+02  .389E+02  .377E+02  .377E+02  .378E+02
  .378E+02  .378E+02  .325E+02  .325E+02  .000E+00  .000E+00  .000E+00  .000E+00
  .000E+00  .000E+00  .000E+00  .000E+00  .000E+00  .000E+00  .000E+00  .000E+00
  .000E+00  .000E+00  .000E+00  .000E+00  .000E+00  .000E+00  .000E+00  .000E+00
  .000E+00  .000E+00  .000E+00  .000E+00
Damping =  .05. Data of Sd,Sv,Sa,Pssv,ttSd,ttSv,ttSa :
  .312E-03  .347E-03  .386E-03  .416E-03  .471E-03  .539E-03  .825E-03  .112E-02
