Response and Fourier amplitude spectra (80 periods,  .04 -  7.0 sec)   for      
Corrected accelerogram   23631-E0782-08212.02       Chan  4:  Tran       from   
Uncorrected Accelerogram Data             Processed: 02/09/09, CGS  CE23631     
Record of Tue Jul 29, 2008 11:42:08.9 PDT             (Avol1 v8.5,11/08 CSMIP)  
CSMIP Preliminary Processing            (Origin:  To be determined)             
23631-E0782-08212.02                 Start time:  7/29/08, 18:42: 8.9 UTC (WWVB)
Station No. 23631   34.064N, 117.296W     SSA-1  s/n  782  (4 Chns of 36 at Sta)
San Bernardino - I10/215 Interchange Br   CGS                                   
Chan  4:  Tran    (Sta Chn: 32)     Location: Hinge Near Bent 14: E. Side       
Record of Tue Jul 29, 2008 11:42:08.9 PDT    Tue Jul 29, 2008 11:42:08.9 PDT    
Hypocenter:  To be determined.               ML:  To be determined.             
Instr Period =  .0193 sec,  Damping =  .620,  Sensitivity = 1.25  v/g           
                        Record length = 78.080 sec.                             
                                     Uncor Max  =   .111 g , at  22.915 sec.    
RMS accel of (uncor) record  =        .   Chn. metadata effective date: 01/10/92
Accelerogram bandpass filtered with 3 dB pts at   .14 and 40.00 cyc/sec         
                 instrument- and baseline-corrected                             
                                                                                
                                                                                
                                                                                
                                                                                
                                                                                
Record of Tue Jul 29, 2008 11:42:08.9 PDT    Tue Jul 29, 2008 11:42:08.9 PDT    
                                                                                
23631-E0782-08212.02      San Bernardino - I10/215 Interchange Br   Chan  4:  Tr
an                                                                              
23631-E0782-08212.02      San Bernardino - I10/215 Interchange Br   Chan  4:  Tr
an                                                                              
Units for spectra are inches and sec, except Sa is in fraction of g.            
                                                                                
    4  100   32    4   36  200    1    3    1   12    5  782    023631    3    0
   18   42    8  935  211    7   29 2008   10    1  90015616   41   39   76   -1
15616    0  100    3 2117    1    2   61    2   20   42   34  920    7   29 2008
    0    2    0    0 7808    2  222    1   12    4   76   39    3    1    0 7808
    3 7808   40   80    5    4    5    0    0    0   36    0    0    3    0    2
    2    2    4    0   66   99    1   32   32    0    0    1   16    0    8  222
    1    0    0    0
      .019      .620    78.080      .014      .000  1245.000      .111    22.915
    51.700  1220.703   980.484      .000     5.000      .000      .000      .000
     2.500   -12.011     2.500  -999.000    15.360    30.000      .000      .029
     -.058     -.087     2.000    15.000    34.064  -117.296      .618     3.454
     5.587     -.268      .094   297.000      .000      .000      .000      .000
     1.000     1.266     7.000      .000      .000      .000      .000      .000
     6.800     8.500     5.200   980.665      .010    78.080     8.228      .000
      .000    40.000      .000    78.080      .010      .143      .000      .000
    22.910   108.478    23.510   -11.092    23.330     1.518      .003      .143
    40.000      .010      .010      .008     4.260      .662      .000      .000
      .464      .750      .298      .286      .197      .007      .000      .000
      .000      .000      .000      .000      .000      .000      .000      .000
      .000      .000      .000      .000
      .000      .020      .050      .100      .200
      .040      .042      .044      .046      .048      .050      .055      .060
      .065      .070      .075      .080      .085      .090      .095      .100
      .110      .120      .130      .140      .150      .160      .170      .180
      .190      .200      .220      .240      .260      .280      .300      .320
      .340      .360      .380      .400      .420      .440      .460      .480
      .500      .550      .600      .650      .700      .750      .800      .850
      .900      .950     1.000     1.100     1.200     1.300     1.400     1.500
     1.600     1.700     1.800     1.900     2.000     2.200     2.400     2.600
     2.800     3.000     3.200     3.400     3.600     3.800     4.000     4.200
     4.400     4.600     4.800     5.000     5.500     6.000     6.500     7.000
      .000      .000      .000      .000      .000      .000      .000      .000
      .000      .000      .000      .000      .000      .000      .000      .000
      .000      .000      .000      .000
Fourier amplitude spectra in in/sec.
  .271E+00  .172E+00  .381E+00  .277E+00  .534E+00  .735E+00  .401E+00  .234E+00
  .529E+00  .752E+00  .135E+01  .111E+01  .146E+01  .116E+01  .343E+00  .681E+00
  .952E+00  .307E+01  .264E+01  .204E+01  .212E+01  .326E+01  .369E+01  .364E+01
  .330E+01  .379E+01  .779E+01  .826E+01  .159E+01  .121E+02  .114E+00  .247E+01
  .146E+02  .927E+01  .132E+02  .145E+02  .149E+02  .484E+01  .531E+01  .923E+01
  .829E+01  .606E+01  .389E+01  .651E+01  .210E+02  .361E+02  .323E+02  .753E+02
  .345E+02  .324E+02  .114E+01  .923E+01  .552E+01  .327E+01  .353E+01  .229E+01
  .335E+01  .216E+01  .251E+01  .375E+00  .204E+01  .199E+01  .114E+01  .971E+00
  .447E+00  .266E+00  .114E+01  .393E+00  .562E+00  .229E+00  .332E+00  .349E+00
  .254E+00  .230E+00  .101E+00  .147E+00  .204E+00  .356E-01  .627E-01  .808E-01
  .000E+00  .000E+00  .000E+00  .000E+00  .000E+00  .000E+00  .000E+00  .000E+00
  .000E+00  .000E+00  .000E+00  .000E+00  .000E+00  .000E+00  .000E+00  .000E+00
  .000E+00  .000E+00  .000E+00  .000E+00
Damping =  .00. Data of Sd,Sv,Sa,Pssv,ttSd,ttSv,ttSa :
  .319E-02  .278E-02  .389E-02  .430E-02  .699E-02  .877E-02  .560E-02  .634E-02
  .778E-02  .122E-01  .179E-01  .188E-01  .274E-01  .210E-01  .178E-01  .187E-01
  .391E-01  .678E-01  .843E-01  .632E-01  .638E-01  .901E-01  .165E+00  .112E+00
  .153E+00  .160E+00  .335E+00  .373E+00  .318E+00  .545E+00  .346E+00  .540E+00
  .107E+01  .708E+00  .894E+00  .944E+00  .105E+01  .452E+00  .581E+00  .772E+00
  .683E+00  .832E+00  .890E+00  .190E+01  .317E+01  .561E+01  .552E+01  .114E+02
  .600E+01  .500E+01  .219E+01  .209E+01  .117E+01  .126E+01  .104E+01  .838E+00
  .132E+01  .107E+01  .941E+00  .918E+00  .845E+00  .733E+00  .661E+00  .641E+00
  .614E+00  .613E+00  .674E+00  .612E+00  .603E+00  .603E+00  .605E+00  .622E+00
  .630E+00  .637E+00  .652E+00  .675E+00  .721E+00  .695E+00  .649E+00  .637E+00
  .000E+00  .000E+00  .000E+00  .000E+00  .000E+00  .000E+00  .000E+00  .000E+00
  .000E+00  .000E+00  .000E+00  .000E+00  .000E+00  .000E+00  .000E+00  .000E+00
  .000E+00  .000E+00  .000E+00  .000E+00
  .336E+00  .233E+00  .411E+00  .382E+00  .629E+00  .915E+00  .423E+00  .343E+00
  .590E+00  .871E+00  .139E+01  .117E+01  .170E+01  .118E+01  .729E+00  .689E+00
  .190E+01  .310E+01  .359E+01  .232E+01  .244E+01  .334E+01  .536E+01  .381E+01
  .446E+01  .467E+01  .926E+01  .946E+01  .659E+01  .121E+02  .665E+01  .976E+01
  .192E+02  .118E+02  .142E+02  .148E+02  .158E+02  .583E+01  .781E+01  .999E+01
  .856E+01  .900E+01  .885E+01  .164E+02  .285E+02  .468E+02  .428E+02  .842E+02
  .422E+02  .337E+02  .163E+02  .120E+02  .784E+01  .877E+01  .743E+01  .608E+01
  .670E+01  .686E+01  .664E+01  .602E+01  .553E+01  .514E+01  .496E+01  .480E+01
  .481E+01  .476E+01  .480E+01  .478E+01  .471E+01  .470E+01  .471E+01  .470E+01
  .467E+01  .466E+01  .466E+01  .464E+01  .456E+01  .446E+01  .444E+01  .444E+01
  .000E+00  .000E+00  .000E+00  .000E+00  .000E+00  .000E+00  .000E+00  .000E+00
  .000E+00  .000E+00  .000E+00  .000E+00  .000E+00  .000E+00  .000E+00  .000E+00
  .000E+00  .000E+00  .000E+00  .000E+00
  .204E+00  .161E+00  .205E+00  .208E+00  .310E+00  .359E+00  .189E+00  .180E+00
  .188E+00  .255E+00  .326E+00  .301E+00  .388E+00  .265E+00  .202E+00  .191E+00
  .331E+00  .481E+00  .510E+00  .330E+00  .290E+00  .360E+00  .583E+00  .352E+00
  .434E+00  .410E+00  .708E+00  .663E+00  .481E+00  .711E+00  .394E+00  .539E+00
  .943E+00  .559E+00  .633E+00  .603E+00  .610E+00  .239E+00  .281E+00  .343E+00
  .279E+00  .281E+00  .253E+00  .460E+00  .662E+00  .102E+01  .883E+00  .162E+01
  .758E+00  .566E+00  .224E+00  .177E+00  .834E-01  .761E-01  .544E-01  .381E-01
  .529E-01  .380E-01  .297E-01  .260E-01  .216E-01  .155E-01  .117E-01  .969E-02
  .801E-02  .696E-02  .673E-02  .542E-02  .476E-02  .427E-02  .387E-02  .361E-02
  .333E-02  .308E-02  .289E-02  .276E-02  .244E-02  .197E-02  .157E-02  .133E-02
  .000E+00  .000E+00  .000E+00  .000E+00  .000E+00  .000E+00  .000E+00  .000E+00
  .000E+00  .000E+00  .000E+00  .000E+00  .000E+00  .000E+00  .000E+00  .000E+00
  .000E+00  .000E+00  .000E+00  .000E+00
  .501E+00  .416E+00  .555E+00  .588E+00  .914E+00  .110E+01  .639E+00  .664E+00
  .752E+00  .109E+01  .150E+01  .148E+01  .202E+01  .147E+01  .118E+01  .117E+01
  .224E+01  .355E+01  .407E+01  .284E+01  .267E+01  .354E+01  .608E+01  .389E+01
  .507E+01  .503E+01  .957E+01  .977E+01  .769E+01  .122E+02  .725E+01  .106E+02
  .197E+02  .124E+02  .148E+02  .148E+02  .157E+02  .645E+01  .794E+01  .101E+02
  .858E+01  .951E+01  .932E+01  .184E+02  .285E+02  .470E+02  .434E+02  .844E+02
  .419E+02  .330E+02  .137E+02  .119E+02  .615E+01  .608E+01  .468E+01  .351E+01
  .520E+01  .397E+01  .328E+01  .303E+01  .266E+01  .209E+01  .173E+01  .155E+01
  .138E+01  .128E+01  .132E+01  .113E+01  .105E+01  .998E+00  .950E+00  .931E+00
  .900E+00  .870E+00  .853E+00  .849E+00  .823E+00  .727E+00  .627E+00  .572E+00
  .000E+00  .000E+00  .000E+00  .000E+00  .000E+00  .000E+00  .000E+00  .000E+00
  .000E+00  .000E+00  .000E+00  .000E+00  .000E+00  .000E+00  .000E+00  .000E+00
  .000E+00  .000E+00  .000E+00  .000E+00
  .241E+02  .229E+02  .229E+02  .229E+02  .229E+02  .242E+02  .229E+02  .229E+02
  .222E+02  .246E+02  .238E+02  .241E+02  .241E+02  .234E+02  .241E+02  .229E+02
  .241E+02  .238E+02  .221E+02  .229E+02  .281E+02  .436E+02  .229E+02  .716E+02
  .238E+02  .253E+02  .280E+02  .280E+02  .234E+02  .541E+02  .224E+02  .241E+02
  .259E+02  .232E+02  .309E+02  .715E+02  .595E+02  .237E+02  .263E+02  .545E+02
  .684E+02  .245E+02  .229E+02  .237E+02  .368E+02  .423E+02  .292E+02  .422E+02
  .537E+02  .440E+02  .241E+02  .705E+02  .559E+02  .288E+02  .723E+02  .646E+02
  .427E+02  .238E+02  .233E+02  .233E+02  .233E+02  .233E+02  .233E+02  .229E+02
  .238E+02  .238E+02  .625E+02  .233E+02  .233E+02  .238E+02  .233E+02  .233E+02
  .233E+02  .233E+02  .233E+02  .233E+02  .233E+02  .233E+02  .233E+02  .233E+02
  .000E+00  .000E+00  .000E+00  .000E+00  .000E+00  .000E+00  .000E+00  .000E+00
  .000E+00  .000E+00  .000E+00  .000E+00  .000E+00  .000E+00  .000E+00  .000E+00
  .000E+00  .000E+00  .000E+00  .000E+00
  .626E+02  .218E+02  .664E+02  .218E+02  .229E+02  .257E+02  .332E+02  .233E+02
  .429E+02  .248E+02  .642E+02  .235E+02  .314E+02  .289E+02  .245E+02  .749E+02
  .224E+02  .636E+02  .221E+02  .244E+02  .281E+02  .436E+02  .228E+02  .712E+02
  .246E+02  .257E+02  .279E+02  .279E+02  .234E+02  .532E+02  .225E+02  .240E+02
  .259E+02  .231E+02  .656E+02  .708E+02  .594E+02  .219E+02  .261E+02  .546E+02
  .708E+02  .227E+02  .227E+02  .235E+02  .370E+02  .421E+02  .294E+02  .420E+02
  .539E+02  .438E+02  .239E+02  .708E+02  .239E+02  .239E+02  .235E+02  .239E+02
  .239E+02  .235E+02  .235E+02  .235E+02  .235E+02  .235E+02  .235E+02  .235E+02
  .235E+02  .235E+02  .235E+02  .235E+02  .235E+02  .235E+02  .235E+02  .235E+02
  .235E+02  .235E+02  .235E+02  .235E+02  .235E+02  .235E+02  .235E+02  .235E+02
  .000E+00  .000E+00  .000E+00  .000E+00  .000E+00  .000E+00  .000E+00  .000E+00
  .000E+00  .000E+00  .000E+00  .000E+00  .000E+00  .000E+00  .000E+00  .000E+00
  .000E+00  .000E+00  .000E+00  .000E+00
  .241E+02  .229E+02  .229E+02  .229E+02  .229E+02  .242E+02  .229E+02  .229E+02
  .222E+02  .246E+02  .238E+02  .241E+02  .241E+02  .234E+02  .241E+02  .229E+02
  .241E+02  .238E+02  .221E+02  .229E+02  .281E+02  .436E+02  .229E+02  .716E+02
  .238E+02  .253E+02  .280E+02  .280E+02  .234E+02  .541E+02  .224E+02  .241E+02
  .259E+02  .232E+02  .309E+02  .715E+02  .595E+02  .237E+02  .263E+02  .545E+02
  .684E+02  .245E+02  .229E+02  .237E+02  .368E+02  .423E+02  .292E+02  .422E+02
  .537E+02  .440E+02  .241E+02  .705E+02  .559E+02  .288E+02  .723E+02  .646E+02
  .427E+02  .238E+02  .233E+02  .233E+02  .233E+02  .233E+02  .233E+02  .229E+02
  .238E+02  .238E+02  .625E+02  .233E+02  .233E+02  .238E+02  .233E+02  .233E+02
  .233E+02  .233E+02  .233E+02  .233E+02  .233E+02  .233E+02  .233E+02  .233E+02
  .000E+00  .000E+00  .000E+00  .000E+00  .000E+00  .000E+00  .000E+00  .000E+00
  .000E+00  .000E+00  .000E+00  .000E+00  .000E+00  .000E+00  .000E+00  .000E+00
  .000E+00  .000E+00  .000E+00  .000E+00
Damping =  .02. Data of Sd,Sv,Sa,Pssv,ttSd,ttSv,ttSa :
  .184E-02  .221E-02  .287E-02  .332E-02  .388E-02  .428E-02  .459E-02  .479E-02
  .545E-02  .733E-02  .108E-01  .973E-02  .951E-02  .112E-01  .113E-01  .145E-01
  .231E-01  .312E-01  .306E-01  .497E-01  .390E-01  .448E-01  .641E-01  .867E-01
  .108E+00  .147E+00  .172E+00  .188E+00  .235E+00  .237E+00  .314E+00  .379E+00
  .474E+00  .466E+00  .414E+00  .394E+00  .421E+00  .375E+00  .386E+00  .440E+00
  .403E+00  .603E+00  .880E+00  .154E+01  .225E+01  .359E+01  .370E+01  .425E+01
  .375E+01  .303E+01  .211E+01  .139E+01  .110E+01  .112E+01  .972E+00  .822E+00
  .938E+00  .991E+00  .883E+00  .877E+00  .823E+00  .727E+00  .666E+00  .629E+00
  .605E+00  .611E+00  .624E+00  .605E+00  .602E+00  .597E+00  .606E+00  .620E+00
  .629E+00  .637E+00  .651E+00  .670E+00  .705E+00  .687E+00  .652E+00  .641E+00
  .000E+00  .000E+00  .000E+00  .000E+00  .000E+00  .000E+00  .000E+00  .000E+00
  .000E+00  .000E+00  .000E+00  .000E+00  .000E+00  .000E+00  .000E+00  .000E+00
  .000E+00  .000E+00  .000E+00  .000E+00
  .126E+00  .186E+00  .283E+00  .333E+00  .390E+00  .420E+00  .355E+00  .293E+00
  .272E+00  .396E+00  .615E+00  .587E+00  .542E+00  .456E+00  .400E+00  .469E+00
  .891E+00  .139E+01  .113E+01  .153E+01  .889E+00  .120E+01  .161E+01  .205E+01
  .246E+01  .340E+01  .401E+01  .465E+01  .492E+01  .506E+01  .589E+01  .681E+01
  .810E+01  .763E+01  .646E+01  .594E+01  .606E+01  .533E+01  .533E+01  .518E+01
  .461E+01  .666E+01  .799E+01  .133E+02  .193E+02  .294E+02  .290E+02  .317E+02
  .271E+02  .214E+02  .156E+02  .105E+02  .819E+01  .826E+01  .724E+01  .621E+01
  .640E+01  .662E+01  .645E+01  .599E+01  .558E+01  .517E+01  .498E+01  .484E+01
  .481E+01  .478E+01  .479E+01  .477E+01  .473E+01  .471E+01  .471E+01  .469E+01
  .468E+01  .466E+01  .465E+01  .464E+01  .456E+01  .448E+01  .445E+01  .445E+01
  .000E+00  .000E+00  .000E+00  .000E+00  .000E+00  .000E+00  .000E+00  .000E+00
  .000E+00  .000E+00  .000E+00  .000E+00  .000E+00  .000E+00  .000E+00  .000E+00
  .000E+00  .000E+00  .000E+00  .000E+00
  .118E+00  .129E+00  .152E+00  .162E+00  .173E+00  .175E+00  .155E+00  .136E+00
  .132E+00  .153E+00  .196E+00  .156E+00  .135E+00  .142E+00  .128E+00  .148E+00
  .196E+00  .223E+00  .185E+00  .260E+00  .178E+00  .179E+00  .228E+00  .274E+00
  .305E+00  .375E+00  .363E+00  .335E+00  .356E+00  .309E+00  .357E+00  .378E+00
  .421E+00  .368E+00  .293E+00  .252E+00  .244E+00  .199E+00  .187E+00  .195E+00
  .165E+00  .204E+00  .250E+00  .373E+00  .469E+00  .652E+00  .592E+00  .602E+00
  .474E+00  .344E+00  .216E+00  .118E+00  .784E-01  .676E-01  .508E-01  .374E-01
  .376E-01  .351E-01  .280E-01  .249E-01  .211E-01  .154E-01  .119E-01  .960E-02
  .795E-02  .700E-02  .629E-02  .543E-02  .483E-02  .430E-02  .395E-02  .367E-02
  .339E-02  .315E-02  .296E-02  .281E-02  .245E-02  .202E-02  .165E-02  .140E-02
  .000E+00  .000E+00  .000E+00  .000E+00  .000E+00  .000E+00  .000E+00  .000E+00
  .000E+00  .000E+00  .000E+00  .000E+00  .000E+00  .000E+00  .000E+00  .000E+00
  .000E+00  .000E+00  .000E+00  .000E+00
  .289E+00  .330E+00  .410E+00  .454E+00  .507E+00  .538E+00  .525E+00  .502E+00
  .527E+00  .658E+00  .903E+00  .764E+00  .703E+00  .782E+00  .749E+00  .909E+00
  .132E+01  .163E+01  .148E+01  .223E+01  .163E+01  .176E+01  .237E+01  .303E+01
  .356E+01  .460E+01  .491E+01  .493E+01  .567E+01  .532E+01  .658E+01  .744E+01
  .876E+01  .813E+01  .685E+01  .618E+01  .629E+01  .536E+01  .528E+01  .576E+01
  .507E+01  .689E+01  .921E+01  .149E+02  .202E+02  .300E+02  .291E+02  .314E+02
  .262E+02  .201E+02  .133E+02  .795E+01  .578E+01  .539E+01  .436E+01  .344E+01
  .368E+01  .366E+01  .308E+01  .290E+01  .258E+01  .208E+01  .174E+01  .152E+01
  .136E+01  .128E+01  .123E+01  .112E+01  .105E+01  .987E+00  .953E+00  .927E+00
  .898E+00  .870E+00  .852E+00  .841E+00  .805E+00  .719E+00  .631E+00  .576E+00
  .000E+00  .000E+00  .000E+00  .000E+00  .000E+00  .000E+00  .000E+00  .000E+00
  .000E+00  .000E+00  .000E+00  .000E+00  .000E+00  .000E+00  .000E+00  .000E+00
  .000E+00  .000E+00  .000E+00  .000E+00
  .229E+02  .217E+02  .218E+02  .218E+02  .218E+02  .222E+02  .217E+02  .217E+02
  .222E+02  .222E+02  .222E+02  .222E+02  .238E+02  .234E+02  .229E+02  .229E+02
  .222E+02  .229E+02  .228E+02  .229E+02  .229E+02  .225E+02  .229E+02  .229E+02
  .229E+02  .229E+02  .229E+02  .229E+02  .230E+02  .240E+02  .224E+02  .224E+02
  .230E+02  .230E+02  .225E+02  .226E+02  .268E+02  .262E+02  .263E+02  .254E+02
  .254E+02  .225E+02  .229E+02  .237E+02  .242E+02  .246E+02  .255E+02  .311E+02
  .266E+02  .241E+02  .241E+02  .241E+02  .241E+02  .237E+02  .238E+02  .237E+02
  .237E+02  .238E+02  .233E+02  .233E+02  .233E+02  .233E+02  .233E+02  .233E+02
  .238E+02  .238E+02  .238E+02  .233E+02  .233E+02  .233E+02  .233E+02  .233E+02
  .233E+02  .233E+02  .233E+02  .233E+02  .233E+02  .233E+02  .233E+02  .233E+02
  .000E+00  .000E+00  .000E+00  .000E+00  .000E+00  .000E+00  .000E+00  .000E+00
  .000E+00  .000E+00  .000E+00  .000E+00  .000E+00  .000E+00  .000E+00  .000E+00
  .000E+00  .000E+00  .000E+00  .000E+00
  .216E+02  .218E+02  .218E+02  .218E+02  .218E+02  .218E+02  .218E+02  .220E+02
  .217E+02  .221E+02  .221E+02  .219E+02  .219E+02  .216E+02  .217E+02  .216E+02
  .224E+02  .228E+02  .228E+02  .228E+02  .217E+02  .252E+02  .228E+02  .228E+02
  .228E+02  .229E+02  .230E+02  .239E+02  .230E+02  .227E+02  .223E+02  .224E+02
  .224E+02  .224E+02  .274E+02  .227E+02  .269E+02  .261E+02  .261E+02  .255E+02
  .256E+02  .227E+02  .231E+02  .235E+02  .244E+02  .248E+02  .253E+02  .313E+02
  .260E+02  .239E+02  .239E+02  .239E+02  .239E+02  .239E+02  .235E+02  .239E+02
  .239E+02  .235E+02  .235E+02  .235E+02  .235E+02  .235E+02  .235E+02  .235E+02
  .235E+02  .235E+02  .235E+02  .235E+02  .235E+02  .235E+02  .235E+02  .235E+02
  .235E+02  .235E+02  .235E+02  .235E+02  .235E+02  .235E+02  .235E+02  .235E+02
  .000E+00  .000E+00  .000E+00  .000E+00  .000E+00  .000E+00  .000E+00  .000E+00
  .000E+00  .000E+00  .000E+00  .000E+00  .000E+00  .000E+00  .000E+00  .000E+00
  .000E+00  .000E+00  .000E+00  .000E+00
  .229E+02  .217E+02  .218E+02  .218E+02  .218E+02  .222E+02  .217E+02  .217E+02
  .222E+02  .222E+02  .222E+02  .222E+02  .238E+02  .234E+02  .229E+02  .229E+02
  .222E+02  .229E+02  .228E+02  .229E+02  .229E+02  .225E+02  .229E+02  .229E+02
  .229E+02  .229E+02  .229E+02  .229E+02  .230E+02  .240E+02  .224E+02  .224E+02
