Response and Fourier amplitude spectra (80 periods,  .04 -  7.0 sec)   for      
Corrected accelerogram   23701-F1382-08212.18       Chan  2:  90 Deg     from   
Uncorrected Accelerogram Data             Processed: 02/09/09, CGS  CE23701     
Record of Tue Jul 29, 2008 11:42:48.8 PDT             (Avol1 v8.5,11/08 CSMIP)  
CSMIP Preliminary Processing            (Origin:  To be determined)             
23701-F1382-08212.18                 Start time:  7/29/08, 18:42 GMT (*LoQ*)    
Station No. 23701   34.163N, 117.332W     SSA-2  s/n 1382  (3 Chns of 15 at Sta)
San Bernardino - 3-story Motel            CGS                                   
Chan  2:  90 DegR (Sta Chn: 14)     Location: Roof, N. Wing: Center             
Record of Tue Jul 29, 2008 11:42:48.8 PDT    Tue Jul 29, 2008 11:42:48.8 PDT    
Hypocenter:  To be determined.               ML:  To be determined.             
Instr Period =  .0194 sec,  Damping =  .670,  Sensitivity = 1.25  v/g           
                        Record length = 78.080 sec.                             
                                     Uncor Max  =  -.061 g , at  22.920 sec.    
RMS accel of (uncor) record  =        .   Chn. metadata effective date: 09/16/94
Accelerogram bandpass filtered with 3 dB pts at   .14 and 40.00 cyc/sec         
                 instrument- and baseline-corrected                             
                                                                                
                                                                                
                                                                                
                                                                                
                                                                                
Record of Tue Jul 29, 2008 11:42:48.8 PDT    Tue Jul 29, 2008 11:42:48.8 PDT    
                                                                                
23701-F1382-08212.18      San Bernardino - 3-story Motel    Chan  2:  90 Deg    
                                                                                
23701-F1382-08212.18      San Bernardino - 3-story Motel    Chan  2:  90 Deg    
                                                                                
Units for spectra are inches and sec, except Sa is in fraction of g.            
                                                                                
    2  100   14    3   15  200    1    3    1   12    6 1382    023701    2    0
   18   42   48  770  211    7   29 2008    0    6   9015616   41   30   76   45
15616    0  100    3 4104    1   18   61    2   18   42   48  770    7   29 2008
    0    2    0    0 7808    2  222    1   12    4   76   30    3    1    0 7808
    3 7808   31   80    5    3    5    0    1    0   15    0    0    3    0    2
    2    2    4    0   77   99    1   32   32    0    0    1    0    0   12  222
    1    0    2    0
      .019      .670    78.080      .007      .000  1246.000     -.061    22.920
    51.500  1220.703   979.698      .000     5.000      .000      .000      .000
     2.500    -1.204     2.500   330.000    15.360    30.000      .000     -.033
     -.091     -.058     2.000    15.000    34.163  -117.332      .437      .974
     2.228     -.131      .015   435.000      .000      .000      .000      .000
     1.000   -13.950     7.000      .000      .000      .000      .000      .000
     6.800     8.500     5.200   980.665      .010    78.080     8.196      .000
      .000    40.000      .000    78.080      .010      .143      .000      .000
    22.920   -59.610    22.850     2.809    23.240      .241      .001      .143
    40.000      .010      .010      .000     2.330      .109      .000      .000
      .307      .260      .177      .258      .013      .002      .000      .000
      .000      .000      .000      .000      .000      .000      .000      .000
      .000      .000      .000      .000
      .000      .020      .050      .100      .200
      .040      .042      .044      .046      .048      .050      .055      .060
      .065      .070      .075      .080      .085      .090      .095      .100
      .110      .120      .130      .140      .150      .160      .170      .180
      .190      .200      .220      .240      .260      .280      .300      .320
      .340      .360      .380      .400      .420      .440      .460      .480
      .500      .550      .600      .650      .700      .750      .800      .850
      .900      .950     1.000     1.100     1.200     1.300     1.400     1.500
     1.600     1.700     1.800     1.900     2.000     2.200     2.400     2.600
     2.800     3.000     3.200     3.400     3.600     3.800     4.000     4.200
     4.400     4.600     4.800     5.000     5.500     6.000     6.500     7.000
      .000      .000      .000      .000      .000      .000      .000      .000
      .000      .000      .000      .000      .000      .000      .000      .000
      .000      .000      .000      .000
Fourier amplitude spectra in in/sec.
  .987E-01  .399E-01  .179E+00  .200E+00  .110E+00  .175E+00  .417E+00  .261E+00
  .103E+00  .152E+00  .236E+00  .171E+00  .182E+00  .788E+00  .251E+00  .482E+00
  .386E+00  .534E+00  .600E+00  .774E+00  .212E+01  .118E+01  .302E+01  .153E+01
  .619E+01  .113E+02  .612E+01  .315E+01  .140E+02  .674E+01  .438E+01  .169E+02
  .156E+02  .427E+01  .341E+01  .952E+00  .293E+01  .427E+01  .295E+01  .707E+00
  .442E+00  .273E+01  .561E+00  .108E+01  .969E+00  .230E+01  .177E+01  .729E+00
  .834E+00  .143E+01  .110E+01  .830E+00  .155E+01  .633E+00  .120E+01  .115E+01
  .139E+01  .106E+01  .577E+00  .444E+00  .411E+00  .377E+00  .180E+00  .167E+00
  .259E+00  .511E+00  .415E+00  .478E+00  .729E+00  .821E+00  .633E+00  .423E+00
  .255E+00  .253E+00  .770E-01  .196E+00  .127E+00  .860E-01  .775E-01  .167E-01
  .000E+00  .000E+00  .000E+00  .000E+00  .000E+00  .000E+00  .000E+00  .000E+00
  .000E+00  .000E+00  .000E+00  .000E+00  .000E+00  .000E+00  .000E+00  .000E+00
  .000E+00  .000E+00  .000E+00  .000E+00
Damping =  .00. Data of Sd,Sv,Sa,Pssv,ttSd,ttSv,ttSa :
  .113E-02  .132E-02  .211E-02  .230E-02  .200E-02  .333E-02  .431E-02  .413E-02
  .341E-02  .635E-02  .887E-02  .621E-02  .727E-02  .134E-01  .106E-01  .925E-02
  .165E-01  .193E-01  .198E-01  .241E-01  .599E-01  .475E-01  .918E-01  .108E+00
  .197E+00  .358E+00  .220E+00  .230E+00  .617E+00  .389E+00  .356E+00  .869E+00
  .879E+00  .419E+00  .247E+00  .181E+00  .237E+00  .306E+00  .234E+00  .248E+00
  .124E+00  .286E+00  .169E+00  .208E+00  .192E+00  .356E+00  .351E+00  .255E+00
  .233E+00  .237E+00  .206E+00  .156E+00  .388E+00  .172E+00  .273E+00  .279E+00
  .361E+00  .343E+00  .171E+00  .176E+00  .139E+00  .173E+00  .107E+00  .116E+00
  .126E+00  .260E+00  .268E+00  .362E+00  .466E+00  .497E+00  .444E+00  .327E+00
  .237E+00  .214E+00  .218E+00  .248E+00  .226E+00  .147E+00  .151E+00  .144E+00
  .000E+00  .000E+00  .000E+00  .000E+00  .000E+00  .000E+00  .000E+00  .000E+00
  .000E+00  .000E+00  .000E+00  .000E+00  .000E+00  .000E+00  .000E+00  .000E+00
  .000E+00  .000E+00  .000E+00  .000E+00
  .109E+00  .987E-01  .213E+00  .214E+00  .157E+00  .281E+00  .431E+00  .313E+00
  .191E+00  .386E+00  .534E+00  .288E+00  .359E+00  .847E+00  .463E+00  .555E+00
  .818E+00  .842E+00  .910E+00  .857E+00  .246E+01  .162E+01  .337E+01  .327E+01
  .649E+01  .112E+02  .628E+01  .568E+01  .149E+02  .866E+01  .706E+01  .170E+02
  .162E+02  .769E+01  .415E+01  .323E+01  .405E+01  .438E+01  .354E+01  .367E+01
  .221E+01  .377E+01  .199E+01  .262E+01  .259E+01  .303E+01  .295E+01  .221E+01
  .206E+01  .193E+01  .158E+01  .129E+01  .210E+01  .164E+01  .160E+01  .131E+01
  .142E+01  .150E+01  .134E+01  .128E+01  .134E+01  .132E+01  .126E+01  .121E+01
  .120E+01  .115E+01  .113E+01  .103E+01  .107E+01  .107E+01  .110E+01  .113E+01
  .111E+01  .109E+01  .109E+01  .111E+01  .115E+01  .111E+01  .113E+01  .115E+01
  .000E+00  .000E+00  .000E+00  .000E+00  .000E+00  .000E+00  .000E+00  .000E+00
  .000E+00  .000E+00  .000E+00  .000E+00  .000E+00  .000E+00  .000E+00  .000E+00
  .000E+00  .000E+00  .000E+00  .000E+00
  .724E-01  .765E-01  .111E+00  .111E+00  .889E-01  .136E+00  .146E+00  .117E+00
  .826E-01  .133E+00  .161E+00  .992E-01  .103E+00  .170E+00  .120E+00  .946E-01
  .139E+00  .137E+00  .120E+00  .126E+00  .272E+00  .190E+00  .325E+00  .340E+00
  .557E+00  .915E+00  .465E+00  .408E+00  .933E+00  .507E+00  .405E+00  .868E+00
  .777E+00  .330E+00  .175E+00  .116E+00  .137E+00  .162E+00  .113E+00  .110E+00
  .508E-01  .966E-01  .481E-01  .504E-01  .400E-01  .646E-01  .560E-01  .361E-01
  .294E-01  .268E-01  .211E-01  .132E-01  .276E-01  .104E-01  .143E-01  .127E-01
  .144E-01  .121E-01  .540E-02  .499E-02  .356E-02  .366E-02  .189E-02  .176E-02
  .164E-02  .295E-02  .268E-02  .320E-02  .367E-02  .352E-02  .284E-02  .190E-02
  .125E-02  .103E-02  .969E-03  .101E-02  .764E-03  .418E-03  .367E-03  .301E-03
  .000E+00  .000E+00  .000E+00  .000E+00  .000E+00  .000E+00  .000E+00  .000E+00
  .000E+00  .000E+00  .000E+00  .000E+00  .000E+00  .000E+00  .000E+00  .000E+00
  .000E+00  .000E+00  .000E+00  .000E+00
  .178E+00  .197E+00  .301E+00  .315E+00  .262E+00  .418E+00  .492E+00  .433E+00
  .330E+00  .570E+00  .743E+00  .487E+00  .538E+00  .938E+00  .698E+00  .581E+00
  .940E+00  .101E+01  .957E+00  .108E+01  .251E+01  .186E+01  .339E+01  .376E+01
  .650E+01  .112E+02  .629E+01  .602E+01  .149E+02  .872E+01  .746E+01  .171E+02
  .162E+02  .730E+01  .409E+01  .284E+01  .354E+01  .437E+01  .320E+01  .324E+01
  .156E+01  .326E+01  .177E+01  .201E+01  .172E+01  .298E+01  .275E+01  .189E+01
  .163E+01  .157E+01  .130E+01  .891E+00  .203E+01  .830E+00  .123E+01  .117E+01
  .142E+01  .127E+01  .597E+00  .582E+00  .437E+00  .495E+00  .279E+00  .281E+00
  .283E+00  .544E+00  .527E+00  .669E+00  .813E+00  .821E+00  .698E+00  .489E+00
  .338E+00  .292E+00  .286E+00  .311E+00  .258E+00  .154E+00  .146E+00  .129E+00
  .000E+00  .000E+00  .000E+00  .000E+00  .000E+00  .000E+00  .000E+00  .000E+00
  .000E+00  .000E+00  .000E+00  .000E+00  .000E+00  .000E+00  .000E+00  .000E+00
  .000E+00  .000E+00  .000E+00  .000E+00
  .229E+02  .252E+02  .229E+02  .251E+02  .229E+02  .251E+02  .249E+02  .229E+02
  .230E+02  .230E+02  .230E+02  .249E+02  .229E+02  .252E+02  .229E+02  .381E+02
  .230E+02  .251E+02  .338E+02  .240E+02  .363E+02  .253E+02  .408E+02  .229E+02
  .545E+02  .749E+02  .696E+02  .240E+02  .397E+02  .257E+02  .233E+02  .713E+02
  .679E+02  .239E+02  .365E+02  .238E+02  .368E+02  .720E+02  .230E+02  .229E+02
  .229E+02  .261E+02  .249E+02  .231E+02  .249E+02  .353E+02  .285E+02  .239E+02
  .239E+02  .392E+02  .603E+02  .599E+02  .414E+02  .254E+02  .523E+02  .738E+02
  .738E+02  .508E+02  .751E+02  .401E+02  .329E+02  .514E+02  .216E+02  .278E+02
  .278E+02  .587E+02  .475E+02  .355E+02  .489E+02  .843E+02  .432E+02  .419E+02
  .299E+02  .299E+02  .301E+02  .283E+02  .263E+02  .229E+02  .232E+02  .283E+02
  .000E+00  .000E+00  .000E+00  .000E+00  .000E+00  .000E+00  .000E+00  .000E+00
  .000E+00  .000E+00  .000E+00  .000E+00  .000E+00  .000E+00  .000E+00  .000E+00
  .000E+00  .000E+00  .000E+00  .000E+00
  .732E+02  .240E+02  .384E+02  .738E+02  .298E+02  .250E+02  .677E+02  .297E+02
  .184E+02  .237E+02  .231E+02  .248E+02  .229E+02  .408E+02  .237E+02  .394E+02
  .220E+02  .249E+02  .338E+02  .240E+02  .363E+02  .253E+02  .408E+02  .229E+02
  .526E+02  .748E+02  .461E+02  .240E+02  .406E+02  .258E+02  .233E+02  .712E+02
  .679E+02  .238E+02  .379E+02  .238E+02  .251E+02  .722E+02  .230E+02  .228E+02
  .228E+02  .252E+02  .249E+02  .230E+02  .230E+02  .299E+02  .287E+02  .240E+02
  .228E+02  .234E+02  .234E+02  .221E+02  .417E+02  .251E+02  .251E+02  .251E+02
  .742E+02  .250E+02  .228E+02  .228E+02  .228E+02  .228E+02  .228E+02  .228E+02
  .228E+02  .228E+02  .228E+02  .230E+02  .230E+02  .251E+02  .251E+02  .251E+02
  .251E+02  .228E+02  .228E+02  .251E+02  .251E+02  .234E+02  .228E+02  .228E+02
  .000E+00  .000E+00  .000E+00  .000E+00  .000E+00  .000E+00  .000E+00  .000E+00
  .000E+00  .000E+00  .000E+00  .000E+00  .000E+00  .000E+00  .000E+00  .000E+00
  .000E+00  .000E+00  .000E+00  .000E+00
  .229E+02  .252E+02  .229E+02  .251E+02  .229E+02  .251E+02  .249E+02  .229E+02
  .230E+02  .230E+02  .230E+02  .249E+02  .229E+02  .252E+02  .229E+02  .381E+02
  .230E+02  .251E+02  .338E+02  .240E+02  .363E+02  .253E+02  .408E+02  .229E+02
  .545E+02  .749E+02  .696E+02  .240E+02  .397E+02  .257E+02  .233E+02  .713E+02
  .679E+02  .239E+02  .365E+02  .238E+02  .368E+02  .720E+02  .230E+02  .229E+02
  .229E+02  .261E+02  .249E+02  .231E+02  .249E+02  .353E+02  .285E+02  .239E+02
  .239E+02  .392E+02  .603E+02  .599E+02  .414E+02  .254E+02  .523E+02  .738E+02
  .738E+02  .508E+02  .751E+02  .401E+02  .329E+02  .514E+02  .216E+02  .278E+02
  .278E+02  .587E+02  .475E+02  .355E+02  .489E+02  .843E+02  .432E+02  .419E+02
  .299E+02  .299E+02  .301E+02  .283E+02  .263E+02  .229E+02  .232E+02  .283E+02
  .000E+00  .000E+00  .000E+00  .000E+00  .000E+00  .000E+00  .000E+00  .000E+00
  .000E+00  .000E+00  .000E+00  .000E+00  .000E+00  .000E+00  .000E+00  .000E+00
  .000E+00  .000E+00  .000E+00  .000E+00
Damping =  .02. Data of Sd,Sv,Sa,Pssv,ttSd,ttSv,ttSa :
  .105E-02  .117E-02  .139E-02  .142E-02  .149E-02  .168E-02  .211E-02  .285E-02
  .309E-02  .428E-02  .521E-02  .419E-02  .547E-02  .794E-02  .755E-02  .690E-02
  .938E-02  .126E-01  .147E-01  .184E-01  .287E-01  .310E-01  .449E-01  .745E-01
  .934E-01  .114E+00  .846E-01  .145E+00  .315E+00  .229E+00  .288E+00  .482E+00
  .486E+00  .327E+00  .212E+00  .177E+00  .197E+00  .181E+00  .177E+00  .179E+00
  .135E+00  .180E+00  .130E+00  .168E+00  .159E+00  .212E+00  .210E+00  .212E+00
  .198E+00  .152E+00  .153E+00  .118E+00  .199E+00  .137E+00  .144E+00  .180E+00
  .188E+00  .175E+00  .133E+00  .122E+00  .126E+00  .113E+00  .103E+00  .107E+00
  .120E+00  .153E+00  .210E+00  .265E+00  .324E+00  .321E+00  .287E+00  .250E+00
  .216E+00  .199E+00  .196E+00  .216E+00  .201E+00  .143E+00  .133E+00  .129E+00
  .000E+00  .000E+00  .000E+00  .000E+00  .000E+00  .000E+00  .000E+00  .000E+00
  .000E+00  .000E+00  .000E+00  .000E+00  .000E+00  .000E+00  .000E+00  .000E+00
  .000E+00  .000E+00  .000E+00  .000E+00
  .528E-01  .550E-01  .513E-01  .541E-01  .657E-01  .106E+00  .950E-01  .119E+00
  .137E+00  .198E+00  .272E+00  .232E+00  .253E+00  .301E+00  .274E+00  .230E+00
  .295E+00  .515E+00  .432E+00  .577E+00  .996E+00  .896E+00  .142E+01  .218E+01
  .274E+01  .315E+01  .228E+01  .353E+01  .763E+01  .526E+01  .571E+01  .964E+01
  .935E+01  .606E+01  .375E+01  .304E+01  .320E+01  .283E+01  .304E+01  .284E+01
  .236E+01  .257E+01  .181E+01  .227E+01  .238E+01  .208E+01  .239E+01  .205E+01
  .195E+01  .178E+01  .150E+01  .127E+01  .126E+01  .148E+01  .148E+01  .126E+01
  .135E+01  .137E+01  .129E+01  .128E+01  .131E+01  .130E+01  .125E+01  .121E+01
  .119E+01  .115E+01  .112E+01  .104E+01  .105E+01  .105E+01  .108E+01  .111E+01
  .110E+01  .108E+01  .108E+01  .110E+01  .112E+01  .109E+01  .111E+01  .113E+01
  .000E+00  .000E+00  .000E+00  .000E+00  .000E+00  .000E+00  .000E+00  .000E+00
  .000E+00  .000E+00  .000E+00  .000E+00  .000E+00  .000E+00  .000E+00  .000E+00
  .000E+00  .000E+00  .000E+00  .000E+00
  .670E-01  .679E-01  .734E-01  .687E-01  .663E-01  .685E-01  .711E-01  .809E-01
  .749E-01  .894E-01  .945E-01  .669E-01  .774E-01  .100E+00  .855E-01  .705E-01
  .791E-01  .900E-01  .889E-01  .963E-01  .130E+00  .124E+00  .159E+00  .235E+00
  .266E+00  .291E+00  .178E+00  .258E+00  .476E+00  .298E+00  .328E+00  .483E+00
  .429E+00  .258E+00  .150E+00  .114E+00  .114E+00  .957E-01  .860E-01  .798E-01
  .554E-01  .608E-01  .368E-01  .407E-01  .333E-01  .385E-01  .336E-01  .301E-01
  .250E-01  .173E-01  .157E-01  .100E-01  .142E-01  .832E-02  .757E-02  .822E-02
  .752E-02  .622E-02  .420E-02  .348E-02  .325E-02  .242E-02  .185E-02  .162E-02
  .157E-02  .175E-02  .211E-02  .235E-02  .256E-02  .228E-02  .184E-02  .146E-02
  .115E-02  .977E-03  .871E-03  .889E-03  .707E-03  .440E-03  .345E-03  .283E-03
  .000E+00  .000E+00  .000E+00  .000E+00  .000E+00  .000E+00  .000E+00  .000E+00
  .000E+00  .000E+00  .000E+00  .000E+00  .000E+00  .000E+00  .000E+00  .000E+00
  .000E+00  .000E+00  .000E+00  .000E+00
  .165E+00  .175E+00  .199E+00  .194E+00  .195E+00  .211E+00  .241E+00  .298E+00
  .299E+00  .384E+00  .437E+00  .329E+00  .404E+00  .555E+00  .499E+00  .433E+00
  .536E+00  .661E+00  .710E+00  .825E+00  .120E+01  .122E+01  .166E+01  .260E+01
  .309E+01  .358E+01  .241E+01  .379E+01  .761E+01  .515E+01  .603E+01  .947E+01
  .898E+01  .571E+01  .350E+01  .278E+01  .294E+01  .258E+01  .242E+01  .235E+01
  .170E+01  .205E+01  .136E+01  .162E+01  .143E+01  .177E+01  .165E+01  .157E+01
  .138E+01  .101E+01  .959E+00  .676E+00  .104E+01  .662E+00  .647E+00  .754E+00
  .738E+00  .648E+00  .464E+00  .404E+00  .395E+00  .323E+00  .269E+00  .258E+00
  .269E+00  .321E+00  .412E+00  .490E+00  .565E+00  .531E+00  .451E+00  .375E+00
  .309E+00  .272E+00  .256E+00  .272E+00  .229E+00  .150E+00  .129E+00  .115E+00
  .000E+00  .000E+00  .000E+00  .000E+00  .000E+00  .000E+00  .000E+00  .000E+00
  .000E+00  .000E+00  .000E+00  .000E+00  .000E+00  .000E+00  .000E+00  .000E+00
  .000E+00  .000E+00  .000E+00  .000E+00
  .229E+02  .229E+02  .229E+02  .229E+02  .229E+02  .220E+02  .229E+02  .229E+02
  .229E+02  .221E+02  .221E+02  .220E+02  .229E+02  .229E+02  .229E+02  .221E+02
  .221E+02  .238E+02  .229E+02  .221E+02  .248E+02  .228E+02  .249E+02  .229E+02
  .230E+02  .251E+02  .222E+02  .231E+02  .255E+02  .254E+02  .233E+02  .243E+02
  .240E+02  .237E+02  .238E+02  .238E+02  .236E+02  .234E+02  .230E+02  .229E+02
  .229E+02  .251E+02  .249E+02  .231E+02  .229E+02  .240E+02  .234E+02  .239E+02
  .239E+02  .227E+02  .228E+02  .218E+02  .342E+02  .234E+02  .248E+02  .296E+02
  .283E+02  .278E+02  .246E+02  .247E+02  .232E+02  .232E+02  .216E+02  .278E+02
  .278E+02  .498E+02  .317E+02  .306E+02  .326E+02  .329E+02  .432E+02  .297E+02
  .297E+02  .299E+02  .282E+02  .283E+02  .263E+02  .240E+02  .232E+02  .263E+02
  .000E+00  .000E+00  .000E+00  .000E+00  .000E+00  .000E+00  .000E+00  .000E+00
  .000E+00  .000E+00  .000E+00  .000E+00  .000E+00  .000E+00  .000E+00  .000E+00
  .000E+00  .000E+00  .000E+00  .000E+00
  .220E+02  .220E+02  .228E+02  .228E+02  .220E+02  .220E+02  .228E+02  .221E+02
  .219E+02  .221E+02  .222E+02  .220E+02  .229E+02  .229E+02  .224E+02  .251E+02
  .241E+02  .240E+02  .235E+02  .221E+02  .249E+02  .225E+02  .249E+02  .229E+02
  .230E+02  .250E+02  .222E+02  .231E+02  .255E+02  .254E+02  .232E+02  .242E+02
  .241E+02  .238E+02  .238E+02  .238E+02  .237E+02  .235E+02  .230E+02  .230E+02
  .228E+02  .251E+02  .231E+02  .230E+02  .230E+02  .230E+02  .240E+02  .228E+02
  .228E+02  .234E+02  .228E+02  .221E+02  .230E+02  .251E+02  .251E+02  .234E+02
  .234E+02  .250E+02  .228E+02  .228E+02  .228E+02  .228E+02  .228E+02  .228E+02
  .228E+02  .228E+02  .228E+02  .228E+02  .230E+02  .251E+02  .251E+02  .251E+02
  .251E+02  .228E+02  .228E+02  .251E+02  .251E+02  .234E+02  .228E+02  .228E+02
  .000E+00  .000E+00  .000E+00  .000E+00  .000E+00  .000E+00  .000E+00  .000E+00
  .000E+00  .000E+00  .000E+00  .000E+00  .000E+00  .000E+00  .000E+00  .000E+00
  .000E+00  .000E+00  .000E+00  .000E+00
  .229E+02  .229E+02  .229E+02  .229E+02  .229E+02  .220E+02  .229E+02  .229E+02
  .229E+02  .221E+02  .221E+02  .220E+02  .229E+02  .229E+02  .229E+02  .220E+02
  .221E+02  .238E+02  .229E+02  .221E+02  .248E+02  .228E+02  .249E+02  .229E+02
  .230E+02  .251E+02  .222E+02  .231E+02  .255E+02  .254E+02  .233E+02  .243E+02
