Response and Fourier amplitude spectra (80 periods,  .04 -  7.0 sec)   for      
Corrected accelerogram   23631-E0778-08212.02       Chan  4:  Up         from   
Uncorrected Accelerogram Data             Processed: 02/09/09, CGS  CE23631     
Record of Tue Jul 29, 2008 11:42:08.9 PDT             (Avol1 v8.5,11/08 CSMIP)  
CSMIP Preliminary Processing            (Origin:  To be determined)             
23631-E0778-08212.02                 Start time:  7/29/08, 18:42: 8.9 UTC (WWVB)
Station No. 23631   34.064N, 117.296W     SSA-1  s/n  778  (4 Chns of 36 at Sta)
San Bernardino - I10/215 Interchange Br   CGS                                   
Chan  4:  Up      (Sta Chn: 16)     Location: Hinge Near Bent 8: S. Edge of Deck
Record of Tue Jul 29, 2008 11:42:08.9 PDT    Tue Jul 29, 2008 11:42:08.9 PDT    
Hypocenter:  To be determined.               ML:  To be determined.             
Instr Period =  .0186 sec,  Damping =  .670,  Sensitivity = 1.25  v/g           
                        Record length = 78.080 sec.                             
                                     Uncor Max  =   .138 g , at  22.505 sec.    
RMS accel of (uncor) record  =        .   Chn. metadata effective date: 01/10/92
Accelerogram bandpass filtered with 3 dB pts at   .14 and 40.00 cyc/sec         
                 instrument- and baseline-corrected                             
                                                                                
                                                                                
                                                                                
                                                                                
                                                                                
Record of Tue Jul 29, 2008 11:42:08.9 PDT    Tue Jul 29, 2008 11:42:08.9 PDT    
                                                                                
23631-E0778-08212.02      San Bernardino - I10/215 Interchange Br   Chan  4:  Up
                                                                                
23631-E0778-08212.02      San Bernardino - I10/215 Interchange Br   Chan  4:  Up
                                                                                
Units for spectra are inches and sec, except Sa is in fraction of g.            
                                                                                
    4  100   16    4   36  200    1    3    1   12    5  778    023631    3    0
   18   42    8  935  211    7   29 2008   10    1  50015616   41   39   76   -1
15616    0  100    3 2117    1    2   61    2   18   42   40  780    7   29 2008
    0    2    0    0 7808    2  222    1   12    4   76   39    3    1    0 7808
    3 7808   40   80    5    4    5    0    0    0   36    0    0    3    0    2
    2    2    4    0   66   99    1   32   32    0    0    1    0    0    8  222
    1    0    0    0
      .019      .670    78.080      .014      .000  1245.000      .138    22.505
    53.700  1220.703   980.484      .000     5.000      .000      .000      .000
     2.500    47.103     2.500  -999.000    15.360    30.000      .000     -.344
      .119      .463     2.000    15.000    34.064  -117.296     1.590     3.485
     2.192      .201      .725   297.000      .000      .000      .000      .000
     1.000    -1.124     7.000      .000      .000      .000      .000      .000
     6.800     8.500     5.200   980.665      .010    78.080     8.547      .000
      .000    40.000      .000    78.080      .010      .143      .000      .000
    22.500   133.055    22.550     7.738    22.470     -.517     -.008      .143
    40.000      .010      .010     -.047    11.310      .330      .000      .000
      .645      .240      .429      .327      .047      .004      .000      .000
      .000      .000      .000      .000      .000      .000      .000      .000
      .000      .000      .000      .000
      .000      .020      .050      .100      .200
      .040      .042      .044      .046      .048      .050      .055      .060
      .065      .070      .075      .080      .085      .090      .095      .100
      .110      .120      .130      .140      .150      .160      .170      .180
      .190      .200      .220      .240      .260      .280      .300      .320
      .340      .360      .380      .400      .420      .440      .460      .480
      .500      .550      .600      .650      .700      .750      .800      .850
      .900      .950     1.000     1.100     1.200     1.300     1.400     1.500
     1.600     1.700     1.800     1.900     2.000     2.200     2.400     2.600
     2.800     3.000     3.200     3.400     3.600     3.800     4.000     4.200
     4.400     4.600     4.800     5.000     5.500     6.000     6.500     7.000
      .000      .000      .000      .000      .000      .000      .000      .000
      .000      .000      .000      .000      .000      .000      .000      .000
      .000      .000      .000      .000
Fourier amplitude spectra in in/sec.
  .424E+00  .117E+00  .107E+01  .358E+00  .127E+00  .809E+00  .114E+01  .789E+00
  .134E+01  .929E+00  .174E+01  .146E+00  .583E+00  .215E+01  .451E+01  .146E+01
  .643E+01  .237E+01  .659E+01  .108E+01  .336E+01  .127E+02  .511E+01  .793E+01
  .239E+02  .330E+02  .108E+02  .920E+01  .162E+02  .121E+02  .504E+01  .814E+01
  .179E+01  .230E+01  .122E+01  .125E+02  .854E+01  .296E+01  .486E+01  .106E+01
  .201E+01  .139E+01  .168E+01  .686E+01  .176E+02  .717E+01  .552E+01  .119E+02
  .107E+02  .186E+02  .588E+01  .572E+01  .301E+01  .291E+01  .932E+00  .344E+01
  .770E+00  .287E+00  .228E+01  .203E+01  .755E+00  .212E+01  .217E+01  .585E+00
  .648E+00  .842E+00  .804E+00  .397E+00  .121E+00  .837E-01  .146E+00  .173E+00
  .207E+00  .248E+00  .199E+00  .126E+00  .216E+00  .159E+00  .607E-01  .843E-01
  .000E+00  .000E+00  .000E+00  .000E+00  .000E+00  .000E+00  .000E+00  .000E+00
  .000E+00  .000E+00  .000E+00  .000E+00  .000E+00  .000E+00  .000E+00  .000E+00
  .000E+00  .000E+00  .000E+00  .000E+00
Damping =  .00. Data of Sd,Sv,Sa,Pssv,ttSd,ttSv,ttSa :
  .676E-02  .477E-02  .106E-01  .606E-02  .721E-02  .759E-02  .116E-01  .134E-01
  .199E-01  .192E-01  .384E-01  .217E-01  .245E-01  .425E-01  .696E-01  .420E-01
  .168E+00  .969E-01  .174E+00  .158E+00  .180E+00  .331E+00  .181E+00  .264E+00
  .770E+00  .107E+01  .648E+00  .693E+00  .744E+00  .746E+00  .346E+00  .453E+00
  .323E+00  .396E+00  .424E+00  .805E+00  .717E+00  .534E+00  .427E+00  .313E+00
  .278E+00  .335E+00  .471E+00  .796E+00  .199E+01  .990E+00  .116E+01  .161E+01
  .200E+01  .297E+01  .967E+00  .100E+01  .135E+01  .653E+00  .715E+00  .990E+00
  .582E+00  .308E+00  .756E+00  .796E+00  .458E+00  .788E+00  .942E+00  .417E+00
  .427E+00  .465E+00  .457E+00  .331E+00  .321E+00  .310E+00  .289E+00  .299E+00
  .328E+00  .335E+00  .318E+00  .300E+00  .320E+00  .326E+00  .270E+00  .254E+00
  .000E+00  .000E+00  .000E+00  .000E+00  .000E+00  .000E+00  .000E+00  .000E+00
  .000E+00  .000E+00  .000E+00  .000E+00  .000E+00  .000E+00  .000E+00  .000E+00
  .000E+00  .000E+00  .000E+00  .000E+00
  .783E+00  .611E+00  .138E+01  .631E+00  .683E+00  .923E+00  .121E+01  .132E+01
  .160E+01  .139E+01  .308E+01  .131E+01  .166E+01  .286E+01  .451E+01  .206E+01
  .958E+01  .476E+01  .818E+01  .702E+01  .711E+01  .129E+02  .640E+01  .920E+01
  .253E+02  .337E+02  .183E+02  .187E+02  .184E+02  .170E+02  .768E+01  .901E+01
  .645E+01  .718E+01  .727E+01  .126E+02  .106E+02  .781E+01  .613E+01  .415E+01
  .396E+01  .451E+01  .487E+01  .743E+01  .178E+02  .943E+01  .912E+01  .119E+02
  .140E+02  .196E+02  .613E+01  .572E+01  .718E+01  .412E+01  .401E+01  .436E+01
  .365E+01  .331E+01  .331E+01  .352E+01  .370E+01  .344E+01  .344E+01  .360E+01
  .377E+01  .364E+01  .348E+01  .336E+01  .332E+01  .326E+01  .324E+01  .325E+01
  .324E+01  .319E+01  .314E+01  .313E+01  .313E+01  .305E+01  .303E+01  .306E+01
  .000E+00  .000E+00  .000E+00  .000E+00  .000E+00  .000E+00  .000E+00  .000E+00
  .000E+00  .000E+00  .000E+00  .000E+00  .000E+00  .000E+00  .000E+00  .000E+00
  .000E+00  .000E+00  .000E+00  .000E+00
  .432E+00  .277E+00  .560E+00  .293E+00  .320E+00  .311E+00  .393E+00  .380E+00
  .482E+00  .400E+00  .698E+00  .347E+00  .347E+00  .537E+00  .788E+00  .430E+00
  .142E+01  .688E+00  .105E+01  .826E+00  .819E+00  .132E+01  .642E+00  .835E+00
  .218E+01  .274E+01  .137E+01  .123E+01  .113E+01  .973E+00  .393E+00  .453E+00
  .286E+00  .313E+00  .300E+00  .515E+00  .416E+00  .282E+00  .207E+00  .139E+00
  .114E+00  .113E+00  .134E+00  .193E+00  .415E+00  .180E+00  .185E+00  .228E+00
  .252E+00  .336E+00  .989E-01  .847E-01  .959E-01  .395E-01  .373E-01  .450E-01
  .233E-01  .109E-01  .239E-01  .225E-01  .117E-01  .167E-01  .167E-01  .631E-02
  .558E-02  .528E-02  .456E-02  .293E-02  .254E-02  .220E-02  .185E-02  .173E-02
  .173E-02  .162E-02  .141E-02  .123E-02  .108E-02  .926E-03  .653E-03  .531E-03
  .000E+00  .000E+00  .000E+00  .000E+00  .000E+00  .000E+00  .000E+00  .000E+00
  .000E+00  .000E+00  .000E+00  .000E+00  .000E+00  .000E+00  .000E+00  .000E+00
  .000E+00  .000E+00  .000E+00  .000E+00
  .106E+01  .714E+00  .151E+01  .827E+00  .944E+00  .954E+00  .133E+01  .140E+01
  .193E+01  .172E+01  .322E+01  .170E+01  .181E+01  .297E+01  .460E+01  .264E+01
  .958E+01  .508E+01  .839E+01  .710E+01  .755E+01  .130E+02  .670E+01  .923E+01
  .254E+02  .337E+02  .185E+02  .181E+02  .180E+02  .167E+02  .724E+01  .890E+01
  .597E+01  .691E+01  .701E+01  .127E+02  .107E+02  .763E+01  .584E+01  .410E+01
  .349E+01  .383E+01  .494E+01  .769E+01  .178E+02  .830E+01  .911E+01  .119E+02
  .139E+02  .196E+02  .607E+01  .572E+01  .707E+01  .316E+01  .321E+01  .415E+01
  .229E+01  .114E+01  .264E+01  .263E+01  .144E+01  .225E+01  .247E+01  .101E+01
  .959E+00  .974E+00  .897E+00  .611E+00  .561E+00  .513E+00  .454E+00  .447E+00
  .468E+00  .458E+00  .416E+00  .377E+00  .366E+00  .341E+00  .261E+00  .228E+00
  .000E+00  .000E+00  .000E+00  .000E+00  .000E+00  .000E+00  .000E+00  .000E+00
  .000E+00  .000E+00  .000E+00  .000E+00  .000E+00  .000E+00  .000E+00  .000E+00
  .000E+00  .000E+00  .000E+00  .000E+00
  .226E+02  .219E+02  .233E+02  .218E+02  .226E+02  .660E+02  .225E+02  .222E+02
  .238E+02  .218E+02  .248E+02  .226E+02  .219E+02  .256E+02  .243E+02  .226E+02
  .266E+02  .225E+02  .230E+02  .173E+02  .225E+02  .440E+02  .266E+02  .192E+02
  .465E+02  .426E+02  .293E+02  .238E+02  .244E+02  .227E+02  .296E+02  .283E+02
  .224E+02  .271E+02  .261E+02  .754E+02  .379E+02  .254E+02  .369E+02  .220E+02
  .354E+02  .220E+02  .228E+02  .473E+02  .750E+02  .240E+02  .458E+02  .765E+02
  .595E+02  .738E+02  .739E+02  .780E+02  .477E+02  .395E+02  .354E+02  .726E+02
  .526E+02  .395E+02  .730E+02  .597E+02  .481E+02  .721E+02  .671E+02  .306E+02
  .400E+02  .354E+02  .745E+02  .223E+02  .223E+02  .223E+02  .223E+02  .223E+02
  .223E+02  .223E+02  .225E+02  .225E+02  .225E+02  .225E+02  .225E+02  .225E+02
  .000E+00  .000E+00  .000E+00  .000E+00  .000E+00  .000E+00  .000E+00  .000E+00
  .000E+00  .000E+00  .000E+00  .000E+00  .000E+00  .000E+00  .000E+00  .000E+00
  .000E+00  .000E+00  .000E+00  .000E+00
  .226E+02  .196E+02  .234E+02  .217E+02  .226E+02  .660E+02  .755E+02  .376E+02
  .238E+02  .218E+02  .248E+02  .226E+02  .219E+02  .256E+02  .767E+02  .236E+02
  .259E+02  .209E+02  .230E+02  .173E+02  .213E+02  .441E+02  .266E+02  .167E+02
  .464E+02  .427E+02  .293E+02  .239E+02  .244E+02  .227E+02  .243E+02  .283E+02
  .223E+02  .272E+02  .260E+02  .755E+02  .385E+02  .255E+02  .299E+02  .219E+02
  .224E+02  .224E+02  .235E+02  .471E+02  .748E+02  .242E+02  .456E+02  .763E+02
  .597E+02  .740E+02  .737E+02  .772E+02  .480E+02  .225E+02  .225E+02  .723E+02
  .225E+02  .225E+02  .225E+02  .225E+02  .225E+02  .225E+02  .225E+02  .225E+02
  .225E+02  .225E+02  .225E+02  .225E+02  .225E+02  .225E+02  .225E+02  .225E+02
  .225E+02  .225E+02  .225E+02  .225E+02  .225E+02  .225E+02  .225E+02  .225E+02
  .000E+00  .000E+00  .000E+00  .000E+00  .000E+00  .000E+00  .000E+00  .000E+00
  .000E+00  .000E+00  .000E+00  .000E+00  .000E+00  .000E+00  .000E+00  .000E+00
  .000E+00  .000E+00  .000E+00  .000E+00
  .226E+02  .219E+02  .233E+02  .218E+02  .226E+02  .660E+02  .225E+02  .222E+02
  .238E+02  .218E+02  .248E+02  .226E+02  .219E+02  .256E+02  .243E+02  .226E+02
  .266E+02  .225E+02  .230E+02  .173E+02  .225E+02  .440E+02  .266E+02  .192E+02
  .465E+02  .426E+02  .293E+02  .238E+02  .244E+02  .227E+02  .296E+02  .283E+02
  .224E+02  .271E+02  .261E+02  .754E+02  .379E+02  .254E+02  .369E+02  .220E+02
  .354E+02  .220E+02  .228E+02  .473E+02  .750E+02  .240E+02  .458E+02  .765E+02
  .595E+02  .738E+02  .739E+02  .780E+02  .477E+02  .395E+02  .354E+02  .726E+02
  .526E+02  .395E+02  .730E+02  .597E+02  .481E+02  .721E+02  .671E+02  .306E+02
  .400E+02  .354E+02  .745E+02  .223E+02  .223E+02  .223E+02  .223E+02  .223E+02
  .223E+02  .223E+02  .225E+02  .225E+02  .225E+02  .225E+02  .225E+02  .225E+02
  .000E+00  .000E+00  .000E+00  .000E+00  .000E+00  .000E+00  .000E+00  .000E+00
  .000E+00  .000E+00  .000E+00  .000E+00  .000E+00  .000E+00  .000E+00  .000E+00
  .000E+00  .000E+00  .000E+00  .000E+00
Damping =  .02. Data of Sd,Sv,Sa,Pssv,ttSd,ttSv,ttSa :
  .285E-02  .322E-02  .437E-02  .342E-02  .388E-02  .439E-02  .499E-02  .619E-02
  .904E-02  .938E-02  .164E-01  .162E-01  .158E-01  .200E-01  .218E-01  .289E-01
  .552E-01  .492E-01  .593E-01  .906E-01  .116E+00  .101E+00  .111E+00  .165E+00
  .228E+00  .266E+00  .324E+00  .475E+00  .533E+00  .456E+00  .328E+00  .237E+00
  .247E+00  .231E+00  .222E+00  .379E+00  .341E+00  .279E+00  .294E+00  .280E+00
  .266E+00  .299E+00  .381E+00  .494E+00  .730E+00  .767E+00  .734E+00  .826E+00
  .706E+00  .578E+00  .550E+00  .514E+00  .781E+00  .582E+00  .435E+00  .462E+00
  .339E+00  .255E+00  .326E+00  .334E+00  .334E+00  .388E+00  .465E+00  .315E+00
  .315E+00  .338E+00  .345E+00  .326E+00  .316E+00  .307E+00  .295E+00  .301E+00
  .318E+00  .323E+00  .313E+00  .302E+00  .313E+00  .314E+00  .274E+00  .261E+00
  .000E+00  .000E+00  .000E+00  .000E+00  .000E+00  .000E+00  .000E+00  .000E+00
  .000E+00  .000E+00  .000E+00  .000E+00  .000E+00  .000E+00  .000E+00  .000E+00
  .000E+00  .000E+00  .000E+00  .000E+00
  .251E+00  .273E+00  .433E+00  .267E+00  .251E+00  .356E+00  .374E+00  .506E+00
  .548E+00  .605E+00  .117E+01  .107E+01  .953E+00  .121E+01  .113E+01  .147E+01
  .289E+01  .229E+01  .278E+01  .387E+01  .474E+01  .374E+01  .396E+01  .570E+01
  .761E+01  .812E+01  .938E+01  .123E+02  .130E+02  .108E+02  .749E+01  .505E+01
  .491E+01  .476E+01  .427E+01  .597E+01  .557E+01  .428E+01  .417E+01  .380E+01
  .370E+01  .378E+01  .416E+01  .468E+01  .694E+01  .729E+01  .670E+01  .666E+01
  .523E+01  .434E+01  .425E+01  .442E+01  .456E+01  .413E+01  .399E+01  .389E+01
  .364E+01  .339E+01  .337E+01  .351E+01  .362E+01  .347E+01  .345E+01  .358E+01
  .369E+01  .361E+01  .348E+01  .338E+01  .332E+01  .327E+01  .325E+01  .325E+01
  .323E+01  .320E+01  .316E+01  .314E+01  .313E+01  .307E+01  .304E+01  .306E+01
  .000E+00  .000E+00  .000E+00  .000E+00  .000E+00  .000E+00  .000E+00  .000E+00
  .000E+00  .000E+00  .000E+00  .000E+00  .000E+00  .000E+00  .000E+00  .000E+00
  .000E+00  .000E+00  .000E+00  .000E+00
  .183E+00  .187E+00  .232E+00  .165E+00  .172E+00  .179E+00  .169E+00  .176E+00
  .219E+00  .196E+00  .300E+00  .258E+00  .224E+00  .253E+00  .247E+00  .293E+00
  .463E+00  .348E+00  .362E+00  .473E+00  .524E+00  .400E+00  .392E+00  .523E+00
  .647E+00  .680E+00  .686E+00  .843E+00  .810E+00  .594E+00  .372E+00  .236E+00
  .219E+00  .182E+00  .157E+00  .242E+00  .198E+00  .148E+00  .142E+00  .125E+00
  .109E+00  .101E+00  .108E+00  .120E+00  .152E+00  .140E+00  .117E+00  .117E+00
  .892E-01  .656E-01  .563E-01  .435E-01  .555E-01  .352E-01  .227E-01  .210E-01
  .135E-01  .906E-02  .103E-01  .947E-02  .854E-02  .822E-02  .828E-02  .481E-02
  .414E-02  .392E-02  .351E-02  .295E-02  .256E-02  .224E-02  .195E-02  .182E-02
  .175E-02  .163E-02  .146E-02  .131E-02  .113E-02  .950E-03  .721E-03  .605E-03
  .000E+00  .000E+00  .000E+00  .000E+00  .000E+00  .000E+00  .000E+00  .000E+00
  .000E+00  .000E+00  .000E+00  .000E+00  .000E+00  .000E+00  .000E+00  .000E+00
  .000E+00  .000E+00  .000E+00  .000E+00
  .448E+00  .482E+00  .624E+00  .466E+00  .508E+00  .551E+00  .571E+00  .648E+00
  .874E+00  .842E+00  .137E+01  .127E+01  .117E+01  .140E+01  .144E+01  .181E+01
  .315E+01  .258E+01  .287E+01  .407E+01  .485E+01  .395E+01  .411E+01  .576E+01
  .755E+01  .834E+01  .924E+01  .124E+02  .129E+02  .102E+02  .687E+01  .465E+01
  .457E+01  .403E+01  .367E+01  .595E+01  .511E+01  .399E+01  .401E+01  .367E+01
  .335E+01  .341E+01  .399E+01  .478E+01  .655E+01  .643E+01  .577E+01  .611E+01
  .493E+01  .382E+01  .345E+01  .293E+01  .409E+01  .281E+01  .195E+01  .193E+01
  .133E+01  .944E+00  .114E+01  .110E+01  .105E+01  .111E+01  .122E+01  .761E+00
  .706E+00  .708E+00  .677E+00  .603E+00  .552E+00  .507E+00  .463E+00  .450E+00
  .454E+00  .442E+00  .410E+00  .379E+00  .357E+00  .328E+00  .265E+00  .235E+00
  .000E+00  .000E+00  .000E+00  .000E+00  .000E+00  .000E+00  .000E+00  .000E+00
  .000E+00  .000E+00  .000E+00  .000E+00  .000E+00  .000E+00  .000E+00  .000E+00
  .000E+00  .000E+00  .000E+00  .000E+00
  .222E+02  .222E+02  .221E+02  .225E+02  .226E+02  .226E+02  .225E+02  .243E+02
  .226E+02  .218E+02  .222E+02  .222E+02  .219E+02  .155E+02  .239E+02  .239E+02
  .244E+02  .162E+02  .170E+02  .162E+02  .163E+02  .240E+02  .157E+02  .163E+02
  .170E+02  .251E+02  .249E+02  .226E+02  .227E+02  .227E+02  .224E+02  .224E+02
  .224E+02  .224E+02  .259E+02  .282E+02  .283E+02  .254E+02  .220E+02  .220E+02
  .220E+02  .224E+02  .228E+02  .265E+02  .239E+02  .233E+02  .241E+02  .238E+02
  .483E+02  .445E+02  .520E+02  .573E+02  .405E+02  .395E+02  .341E+02  .390E+02
  .493E+02  .390E+02  .390E+02  .340E+02  .469E+02  .390E+02  .384E+02  .228E+02
  .271E+02  .223E+02  .223E+02  .223E+02  .223E+02  .223E+02  .223E+02  .223E+02
  .223E+02  .223E+02  .223E+02  .223E+02  .223E+02  .225E+02  .225E+02  .225E+02
  .000E+00  .000E+00  .000E+00  .000E+00  .000E+00  .000E+00  .000E+00  .000E+00
  .000E+00  .000E+00  .000E+00  .000E+00  .000E+00  .000E+00  .000E+00  .000E+00
  .000E+00  .000E+00  .000E+00  .000E+00
  .222E+02  .217E+02  .222E+02  .219E+02  .219E+02  .226E+02  .165E+02  .228E+02
  .229E+02  .229E+02  .222E+02  .220E+02  .219E+02  .156E+02  .162E+02  .239E+02
  .244E+02  .165E+02  .170E+02  .163E+02  .163E+02  .240E+02  .157E+02  .163E+02
  .171E+02  .251E+02  .249E+02  .227E+02  .226E+02  .226E+02  .224E+02  .224E+02
  .223E+02  .223E+02  .222E+02  .283E+02  .282E+02  .227E+02  .243E+02  .219E+02
  .219E+02  .224E+02  .226E+02  .266E+02  .234E+02  .242E+02  .239E+02  .262E+02
  .232E+02  .225E+02  .225E+02  .225E+02  .225E+02  .225E+02  .225E+02  .225E+02
  .225E+02  .225E+02  .225E+02  .225E+02  .225E+02  .225E+02  .225E+02  .225E+02
  .225E+02  .225E+02  .225E+02  .225E+02  .225E+02  .225E+02  .225E+02  .225E+02
  .225E+02  .225E+02  .225E+02  .225E+02  .225E+02  .225E+02  .225E+02  .225E+02
  .000E+00  .000E+00  .000E+00  .000E+00  .000E+00  .000E+00  .000E+00  .000E+00
  .000E+00  .000E+00  .000E+00  .000E+00  .000E+00  .000E+00  .000E+00  .000E+00
  .000E+00  .000E+00  .000E+00  .000E+00
  .222E+02  .222E+02  .221E+02  .225E+02  .226E+02  .226E+02  .225E+02  .243E+02
  .226E+02  .226E+02  .222E+02  .222E+02  .219E+02  .155E+02  .239E+02  .239E+02
  .244E+02  .162E+02  .170E+02  .162E+02  .163E+02  .240E+02  .157E+02  .163E+02
  .170E+02  .251E+02  .249E+02  .226E+02  .227E+02  .227E+02  .224E+02  .224E+02
