Response and Fourier amplitude spectra (80 periods,  .04 -  7.0 sec)   for      
Corrected accelerogram   23631-E0780-08212.02       Chan  4:  Tran       from   
Uncorrected Accelerogram Data             Processed: 02/09/09, CGS  CE23631     
Record of Tue Jul 29, 2008 11:42:08.9 PDT             (Avol1 v8.5,11/08 CSMIP)  
CSMIP Preliminary Processing            (Origin:  To be determined)             
23631-E0780-08212.02                 Start time:  7/29/08, 18:42: 8.9 UTC (WWVB)
Station No. 23631   34.064N, 117.296W     SSA-1  s/n  780  (4 Chns of 36 at Sta)
San Bernardino - I10/215 Interchange Br   CGS                                   
Chan  4:  Tran    (Sta Chn: 24)     Location: Bent 8: Footing                   
Record of Tue Jul 29, 2008 11:42:08.9 PDT    Tue Jul 29, 2008 11:42:08.9 PDT    
Hypocenter:  To be determined.               ML:  To be determined.             
Instr Period =  .0186 sec,  Damping =  .630,  Sensitivity = 1.25  v/g           
                        Record length = 78.080 sec.                             
                                     Uncor Max  =   .073 g , at  21.890 sec.    
RMS accel of (uncor) record  =        .   Chn. metadata effective date: 01/10/92
Accelerogram bandpass filtered with 3 dB pts at   .14 and 40.00 cyc/sec         
                 instrument- and baseline-corrected                             
                                                                                
                                                                                
                                                                                
                                                                                
                                                                                
Record of Tue Jul 29, 2008 11:42:08.9 PDT    Tue Jul 29, 2008 11:42:08.9 PDT    
                                                                                
23631-E0780-08212.02      San Bernardino - I10/215 Interchange Br   Chan  4:  Tr
an                                                                              
23631-E0780-08212.02      San Bernardino - I10/215 Interchange Br   Chan  4:  Tr
an                                                                              
Units for spectra are inches and sec, except Sa is in fraction of g.            
                                                                                
    4  100   24    4   36  200    1    3    1   12    5  780    023631    3    0
   18   42    8  935  211    7   29 2008   10    1  90015616   41   39   76   -1
15616    0  100    3 2117    1    2   61    2   18   42   37  120    7   28 2008
    0    2    0    0 7808    2  222    1   12    4   76   39    3    1    0 7808
    3 7808   40   80    5    4    5    0    1    0   36    0    0    3    0    2
    2    2    4    0   66   99    1   32   32    0    0    1    0    0    8  222
    1    0    0    0
      .019      .630    78.080      .005      .000  1246.000      .073    21.890
    53.800  1220.703   979.698      .000     5.000      .000      .000      .000
     2.500    -8.119     2.500  -999.000    15.360    30.000      .000     -.073
      .006      .080     2.000    15.000    34.064  -117.296      .482     1.100
     2.284     -.001      .161   297.000      .000      .000      .000      .000
     1.000    -5.151     7.000      .000      .000      .000      .000      .000
     6.800     8.500     5.200   980.665      .010    78.080     8.563      .000
      .000    40.000      .000    78.080      .010      .143      .000      .000
    21.890    71.066    22.430     2.605    38.390     -.313     -.003      .143
    40.000      .010      .010     -.014      .830      .162      .000      .000
      .288      .240      .202      .188      .019      .004      .000      .000
      .000      .000      .000      .000      .000      .000      .000      .000
      .000      .000      .000      .000
      .000      .020      .050      .100      .200
      .040      .042      .044      .046      .048      .050      .055      .060
      .065      .070      .075      .080      .085      .090      .095      .100
      .110      .120      .130      .140      .150      .160      .170      .180
      .190      .200      .220      .240      .260      .280      .300      .320
      .340      .360      .380      .400      .420      .440      .460      .480
      .500      .550      .600      .650      .700      .750      .800      .850
      .900      .950     1.000     1.100     1.200     1.300     1.400     1.500
     1.600     1.700     1.800     1.900     2.000     2.200     2.400     2.600
     2.800     3.000     3.200     3.400     3.600     3.800     4.000     4.200
     4.400     4.600     4.800     5.000     5.500     6.000     6.500     7.000
      .000      .000      .000      .000      .000      .000      .000      .000
      .000      .000      .000      .000      .000      .000      .000      .000
      .000      .000      .000      .000
Fourier amplitude spectra in in/sec.
  .129E+00  .343E+00  .195E+00  .109E+00  .259E+00  .342E+00  .609E+00  .884E+00
  .471E+00  .110E+01  .796E+00  .117E+01  .213E+01  .100E+01  .156E+01  .169E+01
  .543E+00  .802E+00  .133E+01  .358E+01  .195E+01  .434E+01  .391E+01  .406E+01
  .527E+01  .476E+01  .171E+01  .593E+01  .977E+01  .346E+01  .248E+01  .159E+01
  .142E+01  .356E+01  .631E+01  .208E+01  .493E+01  .209E+01  .383E+01  .262E+01
  .682E+01  .217E+01  .208E+01  .142E+01  .822E+01  .491E+01  .389E+01  .635E+01
  .294E+01  .295E+01  .291E+01  .754E+00  .251E+01  .384E+01  .114E+01  .315E+01
  .846E+00  .311E+01  .225E+01  .741E+00  .189E+01  .219E+01  .996E+00  .114E+01
  .131E+01  .652E+00  .124E+01  .379E+00  .614E+00  .745E+00  .412E+00  .455E+00
  .293E+00  .248E+00  .224E+00  .187E+00  .777E-01  .320E-01  .215E-01  .305E-01
  .000E+00  .000E+00  .000E+00  .000E+00  .000E+00  .000E+00  .000E+00  .000E+00
  .000E+00  .000E+00  .000E+00  .000E+00  .000E+00  .000E+00  .000E+00  .000E+00
  .000E+00  .000E+00  .000E+00  .000E+00
Damping =  .00. Data of Sd,Sv,Sa,Pssv,ttSd,ttSv,ttSa :
  .173E-02  .262E-02  .251E-02  .242E-02  .229E-02  .311E-02  .604E-02  .926E-02
  .773E-02  .140E-01  .121E-01  .189E-01  .296E-01  .203E-01  .238E-01  .273E-01
  .269E-01  .352E-01  .385E-01  .894E-01  .668E-01  .112E+00  .123E+00  .117E+00
  .177E+00  .172E+00  .140E+00  .294E+00  .451E+00  .293E+00  .224E+00  .176E+00
  .195E+00  .241E+00  .420E+00  .204E+00  .400E+00  .297E+00  .364E+00  .273E+00
  .572E+00  .291E+00  .229E+00  .287E+00  .916E+00  .666E+00  .574E+00  .861E+00
  .475E+00  .469E+00  .463E+00  .202E+00  .642E+00  .829E+00  .633E+00  .917E+00
  .582E+00  .109E+01  .645E+00  .527E+00  .806E+00  .772E+00  .391E+00  .545E+00
  .678E+00  .570E+00  .697E+00  .483E+00  .469E+00  .474E+00  .437E+00  .360E+00
  .287E+00  .293E+00  .310E+00  .228E+00  .205E+00  .151E+00  .153E+00  .148E+00
  .000E+00  .000E+00  .000E+00  .000E+00  .000E+00  .000E+00  .000E+00  .000E+00
  .000E+00  .000E+00  .000E+00  .000E+00  .000E+00  .000E+00  .000E+00  .000E+00
  .000E+00  .000E+00  .000E+00  .000E+00
  .136E+00  .367E+00  .228E+00  .220E+00  .260E+00  .352E+00  .634E+00  .925E+00
  .724E+00  .122E+01  .957E+00  .143E+01  .218E+01  .135E+01  .157E+01  .167E+01
  .128E+01  .175E+01  .172E+01  .391E+01  .273E+01  .438E+01  .449E+01  .408E+01
  .584E+01  .534E+01  .393E+01  .757E+01  .108E+02  .685E+01  .498E+01  .365E+01
  .393E+01  .407E+01  .700E+01  .318E+01  .599E+01  .433E+01  .494E+01  .356E+01
  .716E+01  .329E+01  .239E+01  .285E+01  .821E+01  .558E+01  .481E+01  .636E+01
  .327E+01  .306E+01  .291E+01  .150E+01  .336E+01  .401E+01  .292E+01  .392E+01
  .251E+01  .410E+01  .226E+01  .189E+01  .260E+01  .223E+01  .119E+01  .139E+01
  .192E+01  .158E+01  .143E+01  .113E+01  .117E+01  .113E+01  .106E+01  .107E+01
  .106E+01  .104E+01  .103E+01  .106E+01  .111E+01  .108E+01  .105E+01  .105E+01
  .000E+00  .000E+00  .000E+00  .000E+00  .000E+00  .000E+00  .000E+00  .000E+00
  .000E+00  .000E+00  .000E+00  .000E+00  .000E+00  .000E+00  .000E+00  .000E+00
  .000E+00  .000E+00  .000E+00  .000E+00
  .110E+00  .152E+00  .132E+00  .117E+00  .102E+00  .127E+00  .204E+00  .263E+00
  .187E+00  .293E+00  .219E+00  .302E+00  .419E+00  .256E+00  .270E+00  .280E+00
  .228E+00  .250E+00  .233E+00  .466E+00  .304E+00  .447E+00  .434E+00  .368E+00
  .502E+00  .439E+00  .296E+00  .522E+00  .682E+00  .382E+00  .254E+00  .176E+00
  .172E+00  .190E+00  .297E+00  .130E+00  .232E+00  .157E+00  .176E+00  .121E+00
  .234E+00  .984E-01  .651E-01  .695E-01  .191E+00  .121E+00  .918E-01  .122E+00
  .599E-01  .531E-01  .473E-01  .171E-01  .456E-01  .502E-01  .330E-01  .417E-01
  .233E-01  .386E-01  .204E-01  .149E-01  .206E-01  .163E-01  .695E-02  .825E-02
  .884E-02  .648E-02  .696E-02  .427E-02  .370E-02  .336E-02  .279E-02  .209E-02
  .152E-02  .142E-02  .138E-02  .931E-03  .693E-03  .430E-03  .371E-03  .309E-03
  .000E+00  .000E+00  .000E+00  .000E+00  .000E+00  .000E+00  .000E+00  .000E+00
  .000E+00  .000E+00  .000E+00  .000E+00  .000E+00  .000E+00  .000E+00  .000E+00
  .000E+00  .000E+00  .000E+00  .000E+00
  .271E+00  .393E+00  .358E+00  .331E+00  .300E+00  .391E+00  .690E+00  .969E+00
  .747E+00  .126E+01  .101E+01  .148E+01  .219E+01  .142E+01  .158E+01  .172E+01
  .154E+01  .184E+01  .186E+01  .401E+01  .280E+01  .439E+01  .453E+01  .407E+01
  .586E+01  .540E+01  .400E+01  .769E+01  .109E+02  .658E+01  .468E+01  .345E+01
  .360E+01  .421E+01  .694E+01  .320E+01  .598E+01  .424E+01  .498E+01  .357E+01
  .719E+01  .332E+01  .240E+01  .278E+01  .822E+01  .558E+01  .451E+01  .637E+01
  .331E+01  .310E+01  .291E+01  .115E+01  .336E+01  .401E+01  .284E+01  .384E+01
  .229E+01  .403E+01  .225E+01  .174E+01  .253E+01  .221E+01  .102E+01  .132E+01
  .152E+01  .119E+01  .137E+01  .892E+00  .818E+00  .784E+00  .686E+00  .538E+00
  .410E+00  .400E+00  .406E+00  .286E+00  .234E+00  .158E+00  .148E+00  .133E+00
  .000E+00  .000E+00  .000E+00  .000E+00  .000E+00  .000E+00  .000E+00  .000E+00
  .000E+00  .000E+00  .000E+00  .000E+00  .000E+00  .000E+00  .000E+00  .000E+00
  .000E+00  .000E+00  .000E+00  .000E+00
  .219E+02  .314E+02  .219E+02  .219E+02  .219E+02  .219E+02  .265E+02  .268E+02
  .280E+02  .331E+02  .256E+02  .291E+02  .443E+02  .244E+02  .677E+02  .638E+02
  .221E+02  .237E+02  .225E+02  .356E+02  .314E+02  .567E+02  .299E+02  .706E+02
  .366E+02  .292E+02  .293E+02  .290E+02  .291E+02  .232E+02  .222E+02  .223E+02
  .223E+02  .246E+02  .368E+02  .228E+02  .283E+02  .263E+02  .431E+02  .263E+02
  .591E+02  .466E+02  .614E+02  .236E+02  .776E+02  .391E+02  .246E+02  .762E+02
  .342E+02  .737E+02  .778E+02  .391E+02  .476E+02  .745E+02  .581E+02  .691E+02
  .310E+02  .490E+02  .808E+02  .606E+02  .599E+02  .755E+02  .756E+02  .738E+02
  .729E+02  .375E+02  .687E+02  .290E+02  .291E+02  .749E+02  .281E+02  .580E+02
  .506E+02  .383E+02  .384E+02  .249E+02  .231E+02  .231E+02  .384E+02  .231E+02
  .000E+00  .000E+00  .000E+00  .000E+00  .000E+00  .000E+00  .000E+00  .000E+00
  .000E+00  .000E+00  .000E+00  .000E+00  .000E+00  .000E+00  .000E+00  .000E+00
  .000E+00  .000E+00  .000E+00  .000E+00
  .215E+02  .324E+02  .224E+02  .293E+02  .747E+02  .390E+02  .265E+02  .268E+02
  .279E+02  .330E+02  .256E+02  .290E+02  .446E+02  .329E+02  .712E+02  .637E+02
  .222E+02  .238E+02  .225E+02  .357E+02  .314E+02  .570E+02  .298E+02  .706E+02
  .362E+02  .293E+02  .293E+02  .289E+02  .290E+02  .224E+02  .223E+02  .222E+02
  .222E+02  .246E+02  .369E+02  .226E+02  .282E+02  .251E+02  .430E+02  .264E+02
  .593E+02  .468E+02  .657E+02  .234E+02  .778E+02  .393E+02  .248E+02  .764E+02
  .381E+02  .735E+02  .781E+02  .218E+02  .479E+02  .748E+02  .535E+02  .694E+02
  .314E+02  .495E+02  .759E+02  .610E+02  .603E+02  .760E+02  .225E+02  .577E+02
  .388E+02  .382E+02  .726E+02  .284E+02  .284E+02  .284E+02  .219E+02  .219E+02
  .224E+02  .224E+02  .224E+02  .224E+02  .224E+02  .224E+02  .224E+02  .224E+02
  .000E+00  .000E+00  .000E+00  .000E+00  .000E+00  .000E+00  .000E+00  .000E+00
  .000E+00  .000E+00  .000E+00  .000E+00  .000E+00  .000E+00  .000E+00  .000E+00
  .000E+00  .000E+00  .000E+00  .000E+00
  .219E+02  .314E+02  .219E+02  .219E+02  .219E+02  .219E+02  .265E+02  .268E+02
  .280E+02  .331E+02  .256E+02  .291E+02  .443E+02  .244E+02  .677E+02  .638E+02
  .221E+02  .237E+02  .225E+02  .356E+02  .314E+02  .567E+02  .299E+02  .706E+02
  .366E+02  .292E+02  .293E+02  .290E+02  .291E+02  .232E+02  .222E+02  .223E+02
  .223E+02  .246E+02  .368E+02  .228E+02  .283E+02  .263E+02  .431E+02  .263E+02
  .591E+02  .466E+02  .614E+02  .236E+02  .776E+02  .391E+02  .246E+02  .762E+02
  .342E+02  .737E+02  .778E+02  .391E+02  .476E+02  .745E+02  .581E+02  .691E+02
  .310E+02  .490E+02  .808E+02  .606E+02  .599E+02  .755E+02  .756E+02  .738E+02
  .729E+02  .375E+02  .687E+02  .290E+02  .291E+02  .749E+02  .281E+02  .580E+02
  .506E+02  .383E+02  .384E+02  .249E+02  .231E+02  .231E+02  .384E+02  .231E+02
  .000E+00  .000E+00  .000E+00  .000E+00  .000E+00  .000E+00  .000E+00  .000E+00
  .000E+00  .000E+00  .000E+00  .000E+00  .000E+00  .000E+00  .000E+00  .000E+00
  .000E+00  .000E+00  .000E+00  .000E+00
Damping =  .02. Data of Sd,Sv,Sa,Pssv,ttSd,ttSv,ttSa :
  .120E-02  .132E-02  .150E-02  .162E-02  .177E-02  .201E-02  .265E-02  .410E-02
  .444E-02  .511E-02  .735E-02  .101E-01  .115E-01  .116E-01  .108E-01  .136E-01
  .152E-01  .261E-01  .408E-01  .431E-01  .441E-01  .460E-01  .484E-01  .459E-01
  .788E-01  .108E+00  .107E+00  .217E+00  .258E+00  .229E+00  .204E+00  .162E+00
  .157E+00  .157E+00  .170E+00  .164E+00  .182E+00  .190E+00  .178E+00  .165E+00
  .185E+00  .191E+00  .162E+00  .204E+00  .337E+00  .445E+00  .446E+00  .377E+00
  .352E+00  .242E+00  .217E+00  .219E+00  .443E+00  .446E+00  .359E+00  .379E+00
  .450E+00  .581E+00  .385E+00  .352E+00  .414E+00  .415E+00  .293E+00  .356E+00
  .466E+00  .431E+00  .435E+00  .438E+00  .416E+00  .385E+00  .375E+00  .324E+00
  .268E+00  .241E+00  .252E+00  .206E+00  .191E+00  .154E+00  .147E+00  .144E+00
  .000E+00  .000E+00  .000E+00  .000E+00  .000E+00  .000E+00  .000E+00  .000E+00
  .000E+00  .000E+00  .000E+00  .000E+00  .000E+00  .000E+00  .000E+00  .000E+00
  .000E+00  .000E+00  .000E+00  .000E+00
  .676E-01  .694E-01  .847E-01  .102E+00  .109E+00  .112E+00  .166E+00  .258E+00
  .288E+00  .268E+00  .386E+00  .596E+00  .638E+00  .509E+00  .624E+00  .555E+00
  .641E+00  .987E+00  .168E+01  .172E+01  .171E+01  .175E+01  .177E+01  .164E+01
  .264E+01  .338E+01  .313E+01  .565E+01  .631E+01  .565E+01  .448E+01  .349E+01
  .334E+01  .319E+01  .283E+01  .269E+01  .277E+01  .299E+01  .280E+01  .237E+01
  .243E+01  .269E+01  .236E+01  .227E+01  .327E+01  .377E+01  .370E+01  .338E+01
  .240E+01  .203E+01  .180E+01  .153E+01  .220E+01  .225E+01  .180E+01  .159E+01
  .184E+01  .214E+01  .136E+01  .129E+01  .132E+01  .152E+01  .116E+01  .109E+01
  .144E+01  .125E+01  .120E+01  .106E+01  .109E+01  .104E+01  .104E+01  .105E+01
  .104E+01  .103E+01  .103E+01  .105E+01  .109E+01  .107E+01  .105E+01  .105E+01
  .000E+00  .000E+00  .000E+00  .000E+00  .000E+00  .000E+00  .000E+00  .000E+00
  .000E+00  .000E+00  .000E+00  .000E+00  .000E+00  .000E+00  .000E+00  .000E+00
  .000E+00  .000E+00  .000E+00  .000E+00
  .770E-01  .768E-01  .792E-01  .785E-01  .784E-01  .822E-01  .897E-01  .116E+00
  .108E+00  .107E+00  .134E+00  .162E+00  .163E+00  .146E+00  .122E+00  .138E+00
  .129E+00  .185E+00  .247E+00  .226E+00  .201E+00  .183E+00  .171E+00  .146E+00
  .224E+00  .277E+00  .228E+00  .383E+00  .392E+00  .300E+00  .232E+00  .162E+00
  .139E+00  .124E+00  .120E+00  .105E+00  .106E+00  .101E+00  .865E-01  .733E-01
  .758E-01  .646E-01  .462E-01  .494E-01  .704E-01  .811E-01  .714E-01  .535E-01
  .445E-01  .274E-01  .222E-01  .185E-01  .315E-01  .270E-01  .188E-01  .172E-01
  .180E-01  .206E-01  .122E-01  .999E-02  .106E-01  .878E-02  .521E-02  .540E-02
  .609E-02  .490E-02  .435E-02  .389E-02  .330E-02  .274E-02  .241E-02  .188E-02
  .142E-02  .117E-02  .112E-02  .856E-03  .663E-03  .453E-03  .361E-03  .316E-03
  .000E+00  .000E+00  .000E+00  .000E+00  .000E+00  .000E+00  .000E+00  .000E+00
  .000E+00  .000E+00  .000E+00  .000E+00  .000E+00  .000E+00  .000E+00  .000E+00
  .000E+00  .000E+00  .000E+00  .000E+00
  .189E+00  .198E+00  .214E+00  .222E+00  .232E+00  .252E+00  .302E+00  .429E+00
  .430E+00  .459E+00  .616E+00  .792E+00  .849E+00  .809E+00  .711E+00  .852E+00
  .867E+00  .136E+01  .197E+01  .193E+01  .185E+01  .181E+01  .179E+01  .160E+01
  .260E+01  .340E+01  .307E+01  .567E+01  .624E+01  .514E+01  .427E+01  .319E+01
  .291E+01  .274E+01  .281E+01  .257E+01  .272E+01  .272E+01  .243E+01  .216E+01
  .233E+01  .218E+01  .170E+01  .197E+01  .302E+01  .373E+01  .351E+01  .279E+01
  .246E+01  .160E+01  .136E+01  .125E+01  .232E+01  .216E+01  .161E+01  .159E+01
  .177E+01  .215E+01  .134E+01  .116E+01  .130E+01  .118E+01  .767E+00  .861E+00
  .105E+01  .902E+00  .853E+00  .810E+00  .726E+00  .637E+00  .589E+00  .484E+00
  .383E+00  .329E+00  .330E+00  .259E+00  .218E+00  .161E+00  .142E+00  .129E+00
  .000E+00  .000E+00  .000E+00  .000E+00  .000E+00  .000E+00  .000E+00  .000E+00
  .000E+00  .000E+00  .000E+00  .000E+00  .000E+00  .000E+00  .000E+00  .000E+00
  .000E+00  .000E+00  .000E+00  .000E+00
  .221E+02  .225E+02  .219E+02  .219E+02  .225E+02  .219E+02  .219E+02  .221E+02
  .225E+02  .219E+02  .219E+02  .219E+02  .225E+02  .225E+02  .220E+02  .225E+02
  .221E+02  .225E+02  .225E+02  .223E+02  .220E+02  .225E+02  .239E+02  .228E+02
  .225E+02  .226E+02  .226E+02  .226E+02  .226E+02  .223E+02  .222E+02  .223E+02
  .223E+02  .221E+02  .259E+02  .228E+02  .226E+02  .228E+02  .220E+02  .232E+02
  .252E+02  .220E+02  .220E+02  .236E+02  .268E+02  .249E+02  .246E+02  .243E+02
  .266E+02  .266E+02  .359E+02  .391E+02  .392E+02  .401E+02  .292E+02  .396E+02
  .302E+02  .397E+02  .691E+02  .606E+02  .589E+02  .383E+02  .321E+02  .390E+02
  .383E+02  .299E+02  .289E+02  .290E+02  .290E+02  .278E+02  .281E+02  .281E+02
  .282E+02  .383E+02  .384E+02  .249E+02  .231E+02  .231E+02  .384E+02  .231E+02
  .000E+00  .000E+00  .000E+00  .000E+00  .000E+00  .000E+00  .000E+00  .000E+00
  .000E+00  .000E+00  .000E+00  .000E+00  .000E+00  .000E+00  .000E+00  .000E+00
  .000E+00  .000E+00  .000E+00  .000E+00
  .219E+02  .226E+02  .219E+02  .219E+02  .219E+02  .241E+02  .224E+02  .219E+02
  .226E+02  .234E+02  .245E+02  .219E+02  .224E+02  .224E+02  .219E+02  .219E+02
  .222E+02  .224E+02  .225E+02  .223E+02  .223E+02  .229E+02  .239E+02  .227E+02
  .227E+02  .227E+02  .227E+02  .226E+02  .226E+02  .224E+02  .223E+02  .222E+02
  .222E+02  .222E+02  .258E+02  .221E+02  .221E+02  .225E+02  .219E+02  .219E+02
  .253E+02  .219E+02  .219E+02  .219E+02  .270E+02  .250E+02  .248E+02  .245E+02
  .267E+02  .238E+02  .225E+02  .218E+02  .401E+02  .398E+02  .350E+02  .399E+02
  .314E+02  .393E+02  .687E+02  .610E+02  .594E+02  .387E+02  .225E+02  .225E+02
  .388E+02  .294E+02  .294E+02  .284E+02  .284E+02  .284E+02  .219E+02  .219E+02
  .224E+02  .224E+02  .224E+02  .224E+02  .224E+02  .224E+02  .224E+02  .224E+02
  .000E+00  .000E+00  .000E+00  .000E+00  .000E+00  .000E+00  .000E+00  .000E+00
  .000E+00  .000E+00  .000E+00  .000E+00  .000E+00  .000E+00  .000E+00  .000E+00
  .000E+00  .000E+00  .000E+00  .000E+00
  .221E+02  .225E+02  .219E+02  .219E+02  .225E+02  .219E+02  .219E+02  .221E+02
  .225E+02  .219E+02  .219E+02  .219E+02  .225E+02  .225E+02  .220E+02  .225E+02
  .221E+02  .225E+02  .225E+02  .223E+02  .220E+02  .225E+02  .239E+02  .228E+02
  .225E+02  .226E+02  .226E+02  .226E+02  .226E+02  .223E+02  .222E+02  .222E+02
