Response and Fourier amplitude spectra (76 periods,  .04 -  5.0 sec)   for      
Corrected accelerogram   23792-K1341-08217.20       Chan  5:  Up         from   
Uncorrected Accelerogram Data             Processed: 10/01/08, CDMG  AQ020      
Record of Tue Jul 29, 2008 11:41:59.0 PDT             (Avol1 v8.1 9/08 CSMIP)   
CSMIP Preliminary Processing            (Origin:  To be determined)             
23792-K1341-08217.20                 Start time:  7/29/08, 18:41:59.0 UTC (GPS) 
Station No. 23792   34.064N, 117.294W        K2  s/n 1341 (12 Channels)         
San Bernardino - I10/215 W Geotech Array  CGS                                   
Chan  5:  Up                        Location: 10.7m (35ft) Depth                
Record of Tue Jul 29, 2008 11:41:59.0 PDT    Tue Jul 29, 2008 11:41:59.0 PDT    
Hypocenter:  To be determined.               ML:  To be determined.
Instr Period =  .0191 sec,  Damping =  .650,  Sensitivity = 1.25  v/g
                        Record length =109.000 sec.
                                     Uncor Max  =   .020 g , at  25.335 sec.
RMS accel of (uncor) record  =        .   Chn. metadata effective date: 05/16/08
Accelerogram bandpass filtered with 3 dB pts at   .30 and 40.00 cyc/sec
                 instrument- and baseline-corrected





Record of Tue Jul 29, 2008 11:41:59.0 PDT    Tue Jul 29, 2008 11:41:59.0 PDT

23792-K1341-08217.20      San Bernardino - I10/215 W Geotech Array  CGChan  5:
Up
23792-K1341-08217.20      San Bernardino - I10/215 W Geotech Array  CGChan  5:
Up
Units for spectra are inches and sec, except Sa is in fraction of g.

    5  100    5   12   12  200    1    3    1   24   11 1341    023792    4    0
   18   41   59    0  211    7   29 2008   10    3  50021800   41   40   76   -1
21800    0   50    3 1341    1   20 1090    2    0    0    0    0    0    0    0
    0    2    0    010900    2  222    0   18    7   76   40    1    1    010900
    310900   41   76    5   12    5    0    0    0   12    0    0    3    0    2
    2    2    4    1   65   99    0   32   32    0    0    1    0    0    0  222
    1    0   10    0
      .019      .650   109.000      .002      .000  1253.000      .020    25.335
    52.300      .298      .238      .000     5.000      .000     3.987      .000
     2.500    19.476     2.500  -999.000    25.000    30.000      .000      .002
      .004      .001     2.000    15.000    34.064  -117.294      .136     2.458
    18.115     -.116      .118   298.000    25.000    78.400    13.100   109.940
     1.000    -1.029      .000      .000      .000      .000      .000      .000
     4.600     8.100     5.000   980.665      .010   109.000     8.324      .001
      .000    40.000      .000   109.000      .010      .300      .000      .000
    25.250   -19.230    31.860     -.854    32.030     -.138      .000      .300
    40.000      .010      .010      .000      .010      .070      .000      .000
      .078      .170      .046      .028      .010      .001      .000      .000
      .000      .000      .000      .000      .000      .000      .000      .000
      .000      .000      .000      .000
      .000      .020      .050      .100      .200
      .040      .042      .044      .046      .048      .050      .055      .060
      .065      .070      .075      .080      .085      .090      .095      .100
      .110      .120      .130      .140      .150      .160      .170      .180
      .190      .200      .220      .240      .260      .280      .300      .320
      .340      .360      .380      .400      .420      .440      .460      .480
      .500      .550      .600      .650      .700      .750      .800      .850
      .900      .950     1.000     1.100     1.200     1.300     1.400     1.500
     1.600     1.700     1.800     1.900     2.000     2.200     2.400     2.600
     2.800     3.000     3.200     3.400     3.600     3.800     4.000     4.200
     4.400     4.600     4.800     5.000      .000      .000      .000      .000
      .000      .000      .000      .000      .000      .000      .000      .000
      .000      .000      .000      .000      .000      .000      .000      .000
      .000      .000      .000      .000
Fourier amplitude spectra in in/sec.
  .193E+00  .616E+00  .389E+00  .729E-01  .540E+00  .545E+00  .369E+00  .778E-01
  .511E+00  .101E+00  .577E+00  .511E-01  .488E+00  .855E-01  .214E+00  .127E+00
  .466E+00  .178E+00  .133E+01  .901E+00  .145E+01  .306E+01  .120E+01  .151E+01
  .197E+01  .142E+01  .127E+01  .104E+01  .131E+01  .141E+01  .228E+01  .234E+01
  .106E+01  .602E+00  .894E+00  .437E+00  .142E+01  .115E+01  .578E+00  .833E+00
  .153E+01  .320E-01  .608E+00  .129E+01  .715E+00  .367E+00  .102E+01  .231E+01
  .861E+00  .218E+01  .768E+00  .123E+01  .815E+00  .633E+00  .159E+01  .225E+01
  .190E+00  .163E+01  .108E+01  .161E+01  .677E+00  .114E+01  .163E+01  .365E+00
  .389E+00  .362E+00  .318E+00  .184E+00  .368E-01  .118E-01  .227E-01  .925E-02
  .131E-01  .127E-01  .627E-02  .158E-02  .000E+00  .000E+00  .000E+00  .000E+00
  .000E+00  .000E+00  .000E+00  .000E+00  .000E+00  .000E+00  .000E+00  .000E+00
  .000E+00  .000E+00  .000E+00  .000E+00  .000E+00  .000E+00  .000E+00  .000E+00
  .000E+00  .000E+00  .000E+00  .000E+00
Damping =  .00. Data of Sd,Sv,Sa,Pssv,ttSd,ttSv,ttSa :
  .134E-02  .488E-02  .292E-02  .229E-02  .516E-02  .566E-02  .584E-02  .375E-02
  .737E-02  .376E-02  .788E-02  .328E-02  .668E-02  .386E-02  .521E-02  .451E-02
  .846E-02  .778E-02  .301E-01  .285E-01  .450E-01  .795E-01  .447E-01  .695E-01
  .633E-01  .671E-01  .465E-01  .519E-01  .634E-01  .844E-01  .112E+00  .124E+00
  .623E-01  .497E-01  .580E-01  .491E-01  .104E+00  .102E+00  .673E-01  .775E-01
  .145E+00  .736E-01  .182E+00  .161E+00  .940E-01  .961E-01  .143E+00  .337E+00
  .170E+00  .330E+00  .153E+00  .236E+00  .184E+00  .209E+00  .452E+00  .549E+00
  .217E+00  .440E+00  .313E+00  .563E+00  .338E+00  .412E+00  .637E+00  .273E+00
  .214E+00  .208E+00  .204E+00  .127E+00  .975E-01  .850E-01  .786E-01  .761E-01
  .753E-01  .744E-01  .728E-01  .709E-01  .000E+00  .000E+00  .000E+00  .000E+00
  .000E+00  .000E+00  .000E+00  .000E+00  .000E+00  .000E+00  .000E+00  .000E+00
  .000E+00  .000E+00  .000E+00  .000E+00  .000E+00  .000E+00  .000E+00  .000E+00
  .000E+00  .000E+00  .000E+00  .000E+00
  .201E+00  .728E+00  .402E+00  .314E+00  .667E+00  .685E+00  .663E+00  .390E+00
  .697E+00  .324E+00  .656E+00  .226E+00  .490E+00  .236E+00  .322E+00  .273E+00
  .475E+00  .381E+00  .145E+01  .125E+01  .187E+01  .311E+01  .164E+01  .240E+01
  .208E+01  .207E+01  .132E+01  .136E+01  .154E+01  .186E+01  .233E+01  .243E+01
  .116E+01  .856E+00  .947E+00  .736E+00  .151E+01  .148E+01  .905E+00  .101E+01
  .180E+01  .898E+00  .192E+01  .158E+01  .846E+00  .792E+00  .111E+01  .249E+01
  .117E+01  .218E+01  .954E+00  .136E+01  .977E+00  .985E+00  .204E+01  .232E+01
  .903E+00  .163E+01  .110E+01  .187E+01  .111E+01  .119E+01  .171E+01  .778E+00
  .588E+00  .519E+00  .518E+00  .406E+00  .400E+00  .386E+00  .374E+00  .366E+00
  .363E+00  .361E+00  .360E+00  .359E+00  .000E+00  .000E+00  .000E+00  .000E+00
  .000E+00  .000E+00  .000E+00  .000E+00  .000E+00  .000E+00  .000E+00  .000E+00
  .000E+00  .000E+00  .000E+00  .000E+00  .000E+00  .000E+00  .000E+00  .000E+00
  .000E+00  .000E+00  .000E+00  .000E+00
  .858E-01  .283E+00  .154E+00  .111E+00  .229E+00  .231E+00  .197E+00  .106E+00
  .179E+00  .784E-01  .143E+00  .524E-01  .946E-01  .488E-01  .591E-01  .462E-01
  .715E-01  .553E-01  .182E+00  .149E+00  .205E+00  .318E+00  .158E+00  .219E+00
  .179E+00  .171E+00  .984E-01  .922E-01  .960E-01  .110E+00  .127E+00  .124E+00
  .551E-01  .392E-01  .411E-01  .314E-01  .601E-01  .541E-01  .325E-01  .344E-01
  .592E-01  .249E-01  .518E-01  .389E-01  .196E-01  .175E-01  .228E-01  .477E-01
  .215E-01  .374E-01  .156E-01  .200E-01  .131E-01  .127E-01  .236E-01  .250E-01
  .867E-02  .156E-01  .989E-02  .159E-01  .865E-02  .871E-02  .113E-01  .413E-02
  .279E-02  .237E-02  .204E-02  .112E-02  .769E-03  .602E-03  .503E-03  .441E-03
  .398E-03  .360E-03  .323E-03  .290E-03  .000E+00  .000E+00  .000E+00  .000E+00
  .000E+00  .000E+00  .000E+00  .000E+00  .000E+00  .000E+00  .000E+00  .000E+00
  .000E+00  .000E+00  .000E+00  .000E+00  .000E+00  .000E+00  .000E+00  .000E+00
  .000E+00  .000E+00  .000E+00  .000E+00
  .211E+00  .730E+00  .417E+00  .312E+00  .675E+00  .711E+00  .667E+00  .392E+00
  .713E+00  .337E+00  .660E+00  .257E+00  .494E+00  .270E+00  .345E+00  .284E+00
  .483E+00  .407E+00  .146E+01  .128E+01  .189E+01  .312E+01  .165E+01  .243E+01
  .209E+01  .211E+01  .133E+01  .136E+01  .153E+01  .189E+01  .234E+01  .244E+01
  .115E+01  .867E+00  .959E+00  .772E+00  .155E+01  .146E+01  .920E+00  .101E+01
  .182E+01  .841E+00  .191E+01  .155E+01  .844E+00  .805E+00  .112E+01  .249E+01
  .119E+01  .218E+01  .960E+00  .135E+01  .963E+00  .101E+01  .203E+01  .230E+01
  .852E+00  .163E+01  .109E+01  .186E+01  .106E+01  .118E+01  .167E+01  .659E+00
  .480E+00  .436E+00  .401E+00  .234E+00  .170E+00  .141E+00  .124E+00  .114E+00
  .108E+00  .102E+00  .953E-01  .891E-01  .000E+00  .000E+00  .000E+00  .000E+00
  .000E+00  .000E+00  .000E+00  .000E+00  .000E+00  .000E+00  .000E+00  .000E+00
  .000E+00  .000E+00  .000E+00  .000E+00  .000E+00  .000E+00  .000E+00  .000E+00
  .000E+00  .000E+00  .000E+00  .000E+00
  .303E+02  .368E+02  .304E+02  .291E+02  .344E+02  .321E+02  .343E+02  .327E+02
  .341E+02  .270E+02  .422E+02  .334E+02  .638E+02  .263E+02  .361E+02  .334E+02
  .542E+02  .335E+02  .548E+02  .348E+02  .340E+02  .407E+02  .259E+02  .282E+02
  .486E+02  .348E+02  .408E+02  .465E+02  .334E+02  .357E+02  .936E+02  .701E+02
  .716E+02  .576E+02  .515E+02  .338E+02  .387E+02  .397E+02  .633E+02  .725E+02
  .647E+02  .344E+02  .390E+02  .379E+02  .823E+02  .548E+02  .730E+02  .846E+02
  .530E+02  .102E+03  .833E+02  .962E+02  .696E+02  .520E+02  .645E+02  .982E+02
  .616E+02  .109E+03  .105E+03  .696E+02  .599E+02  .908E+02  .986E+02  .403E+02
  .383E+02  .452E+02  .523E+02  .670E+02  .320E+02  .320E+02  .320E+02  .320E+02
  .320E+02  .320E+02  .320E+02  .320E+02  .000E+00  .000E+00  .000E+00  .000E+00
  .000E+00  .000E+00  .000E+00  .000E+00  .000E+00  .000E+00  .000E+00  .000E+00
  .000E+00  .000E+00  .000E+00  .000E+00  .000E+00  .000E+00  .000E+00  .000E+00
  .000E+00  .000E+00  .000E+00  .000E+00
  .303E+02  .367E+02  .366E+02  .291E+02  .340E+02  .320E+02  .342E+02  .327E+02
  .340E+02  .270E+02  .422E+02  .335E+02  .649E+02  .262E+02  .361E+02  .329E+02
  .536E+02  .336E+02  .540E+02  .351E+02  .340E+02  .407E+02  .259E+02  .282E+02
  .484E+02  .349E+02  .778E+02  .466E+02  .335E+02  .357E+02  .915E+02  .692E+02
  .715E+02  .575E+02  .883E+02  .337E+02  .388E+02  .398E+02  .634E+02  .724E+02
  .645E+02  .348E+02  .392E+02  .380E+02  .821E+02  .546E+02  .732E+02  .848E+02
  .373E+02  .101E+03  .831E+02  .976E+02  .693E+02  .484E+02  .642E+02  .978E+02
  .613E+02  .110E+03  .105E+03  .539E+02  .624E+02  .991E+02  .764E+02  .410E+02
  .336E+02  .446E+02  .516E+02  .318E+02  .318E+02  .318E+02  .318E+02  .318E+02
  .318E+02  .318E+02  .318E+02  .318E+02  .000E+00  .000E+00  .000E+00  .000E+00
  .000E+00  .000E+00  .000E+00  .000E+00  .000E+00  .000E+00  .000E+00  .000E+00
  .000E+00  .000E+00  .000E+00  .000E+00  .000E+00  .000E+00  .000E+00  .000E+00
  .000E+00  .000E+00  .000E+00  .000E+00
  .303E+02  .368E+02  .304E+02  .291E+02  .344E+02  .321E+02  .343E+02  .327E+02
  .341E+02  .270E+02  .422E+02  .334E+02  .638E+02  .263E+02  .361E+02  .334E+02
  .542E+02  .335E+02  .548E+02  .348E+02  .340E+02  .407E+02  .259E+02  .282E+02
  .486E+02  .348E+02  .408E+02  .465E+02  .334E+02  .357E+02  .936E+02  .701E+02
  .716E+02  .576E+02  .515E+02  .338E+02  .387E+02  .397E+02  .633E+02  .725E+02
  .647E+02  .344E+02  .390E+02  .379E+02  .823E+02  .548E+02  .730E+02  .846E+02
  .530E+02  .102E+03  .833E+02  .962E+02  .696E+02  .520E+02  .645E+02  .982E+02
  .616E+02  .109E+03  .105E+03  .696E+02  .599E+02  .908E+02  .986E+02  .403E+02
  .383E+02  .452E+02  .523E+02  .670E+02  .320E+02  .320E+02  .320E+02  .320E+02
  .320E+02  .320E+02  .320E+02  .320E+02  .000E+00  .000E+00  .000E+00  .000E+00
  .000E+00  .000E+00  .000E+00  .000E+00  .000E+00  .000E+00  .000E+00  .000E+00
  .000E+00  .000E+00  .000E+00  .000E+00  .000E+00  .000E+00  .000E+00  .000E+00
  .000E+00  .000E+00  .000E+00  .000E+00
Damping =  .02. Data of Sd,Sv,Sa,Pssv,ttSd,ttSv,ttSa :
  .581E-03  .899E-03  .967E-03  .130E-02  .194E-02  .185E-02  .201E-02  .228E-02
  .252E-02  .226E-02  .238E-02  .203E-02  .270E-02  .274E-02  .264E-02  .312E-02
  .449E-02  .494E-02  .866E-02  .117E-01  .173E-01  .250E-01  .313E-01  .320E-01
  .307E-01  .233E-01  .211E-01  .217E-01  .333E-01  .329E-01  .408E-01  .401E-01
  .259E-01  .242E-01  .214E-01  .297E-01  .446E-01  .449E-01  .402E-01  .423E-01
  .377E-01  .613E-01  .896E-01  .780E-01  .735E-01  .618E-01  .938E-01  .112E+00
  .112E+00  .138E+00  .123E+00  .130E+00  .105E+00  .120E+00  .252E+00  .218E+00
  .174E+00  .202E+00  .170E+00  .299E+00  .227E+00  .233E+00  .363E+00  .204E+00
  .166E+00  .144E+00  .141E+00  .112E+00  .967E-01  .859E-01  .797E-01  .767E-01
  .753E-01  .740E-01  .724E-01  .706E-01  .000E+00  .000E+00  .000E+00  .000E+00
  .000E+00  .000E+00  .000E+00  .000E+00  .000E+00  .000E+00  .000E+00  .000E+00
  .000E+00  .000E+00  .000E+00  .000E+00  .000E+00  .000E+00  .000E+00  .000E+00
  .000E+00  .000E+00  .000E+00  .000E+00
  .757E-01  .117E+00  .109E+00  .154E+00  .237E+00  .229E+00  .223E+00  .232E+00
  .210E+00  .160E+00  .196E+00  .149E+00  .189E+00  .156E+00  .140E+00  .159E+00
  .214E+00  .240E+00  .403E+00  .522E+00  .668E+00  .947E+00  .116E+01  .113E+01
  .103E+01  .721E+00  .597E+00  .577E+00  .774E+00  .734E+00  .908E+00  .847E+00
  .533E+00  .527E+00  .440E+00  .465E+00  .685E+00  .630E+00  .555E+00  .558E+00
  .508E+00  .651E+00  .103E+01  .822E+00  .602E+00  .500E+00  .694E+00  .824E+00
  .798E+00  .102E+01  .886E+00  .892E+00  .596E+00  .607E+00  .113E+01  .933E+00
  .709E+00  .768E+00  .617E+00  .109E+01  .727E+00  .755E+00  .105E+01  .590E+00
  .552E+00  .477E+00  .398E+00  .387E+00  .386E+00  .377E+00  .369E+00  .362E+00
  .359E+00  .358E+00  .357E+00  .355E+00  .000E+00  .000E+00  .000E+00  .000E+00
  .000E+00  .000E+00  .000E+00  .000E+00  .000E+00  .000E+00  .000E+00  .000E+00
  .000E+00  .000E+00  .000E+00  .000E+00  .000E+00  .000E+00  .000E+00  .000E+00
  .000E+00  .000E+00  .000E+00  .000E+00
  .371E-01  .522E-01  .512E-01  .624E-01  .857E-01  .752E-01  .686E-01  .652E-01
  .613E-01  .472E-01  .431E-01  .323E-01  .384E-01  .346E-01  .298E-01  .317E-01
  .380E-01  .352E-01  .524E-01  .611E-01  .782E-01  .100E+00  .110E+00  .102E+00
  .873E-01  .595E-01  .446E-01  .387E-01  .506E-01  .429E-01  .465E-01  .400E-01
  .230E-01  .190E-01  .152E-01  .190E-01  .259E-01  .237E-01  .195E-01  .188E-01
  .154E-01  .207E-01  .255E-01  .189E-01  .153E-01  .112E-01  .150E-01  .158E-01
  .142E-01  .157E-01  .126E-01  .110E-01  .747E-02  .726E-02  .131E-01  .991E-02
  .694E-02  .717E-02  .536E-02  .849E-02  .581E-02  .494E-02  .646E-02  .309E-02
  .217E-02  .164E-02  .141E-02  .992E-03  .766E-03  .611E-03  .512E-03  .447E-03
  .400E-03  .360E-03  .324E-03  .292E-03  .000E+00  .000E+00  .000E+00  .000E+00
  .000E+00  .000E+00  .000E+00  .000E+00  .000E+00  .000E+00  .000E+00  .000E+00
  .000E+00  .000E+00  .000E+00  .000E+00  .000E+00  .000E+00  .000E+00  .000E+00
  .000E+00  .000E+00  .000E+00  .000E+00
  .913E-01  .135E+00  .138E+00  .177E+00  .254E+00  .233E+00  .230E+00  .239E+00
  .244E+00  .202E+00  .199E+00  .159E+00  .199E+00  .191E+00  .175E+00  .196E+00
  .256E+00  .259E+00  .418E+00  .527E+00  .724E+00  .982E+00  .116E+01  .112E+01
  .102E+01  .732E+00  .602E+00  .568E+00  .806E+00  .739E+00  .854E+00  .787E+00
  .478E+00  .422E+00  .354E+00  .467E+00  .667E+00  .641E+00  .549E+00  .554E+00
  .474E+00  .700E+00  .939E+00  .754E+00  .660E+00  .518E+00  .737E+00  .826E+00
  .783E+00  .913E+00  .774E+00  .745E+00  .550E+00  .579E+00  .113E+01  .912E+00
  .681E+00  .748E+00  .592E+00  .990E+00  .714E+00  .667E+00  .951E+00  .493E+00
  .372E+00  .302E+00  .278E+00  .206E+00  .169E+00  .142E+00  .125E+00  .115E+00
  .107E+00  .101E+00  .948E-01  .888E-01  .000E+00  .000E+00  .000E+00  .000E+00
  .000E+00  .000E+00  .000E+00  .000E+00  .000E+00  .000E+00  .000E+00  .000E+00
  .000E+00  .000E+00  .000E+00  .000E+00  .000E+00  .000E+00  .000E+00  .000E+00
  .000E+00  .000E+00  .000E+00  .000E+00
  .252E+02  .257E+02  .253E+02  .304E+02  .304E+02  .307E+02  .311E+02  .258E+02
  .256E+02  .256E+02  .258E+02  .254E+02  .258E+02  .263E+02  .318E+02  .318E+02
  .319E+02  .322E+02  .347E+02  .319E+02  .256E+02  .256E+02  .257E+02  .267E+02
  .265E+02  .323E+02  .334E+02  .323E+02  .335E+02  .358E+02  .321E+02  .318E+02
  .363E+02  .309E+02  .309E+02  .338E+02  .385E+02  .395E+02  .359E+02  .396E+02
  .358E+02  .341E+02  .342E+02  .340E+02  .325E+02  .544E+02  .325E+02  .365E+02
  .362E+02  .341E+02  .337E+02  .334E+02  .630E+02  .487E+02  .567E+02  .615E+02
  .609E+02  .674E+02  .542E+02  .543E+02  .537E+02  .464E+02  .530E+02  .403E+02
  .383E+02  .451E+02  .522E+02  .320E+02  .320E+02  .320E+02  .320E+02  .320E+02
  .320E+02  .320E+02  .320E+02  .320E+02  .000E+00  .000E+00  .000E+00  .000E+00
  .000E+00  .000E+00  .000E+00  .000E+00  .000E+00  .000E+00  .000E+00  .000E+00
  .000E+00  .000E+00  .000E+00  .000E+00  .000E+00  .000E+00  .000E+00  .000E+00
  .000E+00  .000E+00  .000E+00  .000E+00
  .303E+02  .255E+02  .257E+02  .303E+02  .304E+02  .307E+02  .311E+02  .258E+02
  .256E+02  .256E+02  .258E+02  .254E+02  .257E+02  .262E+02  .318E+02  .318E+02
  .319E+02  .322E+02  .342E+02  .320E+02  .264E+02  .256E+02  .258E+02  .267E+02
  .265E+02  .254E+02  .337E+02  .323E+02  .335E+02  .357E+02  .318E+02  .318E+02
  .318E+02  .310E+02  .310E+02  .337E+02  .385E+02  .396E+02  .358E+02  .397E+02
  .356E+02  .343E+02  .341E+02  .341E+02  .324E+02  .546E+02  .327E+02  .363E+02
  .365E+02  .339E+02  .339E+02  .336E+02  .322E+02  .464E+02  .571E+02  .611E+02
  .606E+02  .545E+02  .538E+02  .539E+02  .541E+02  .459E+02  .524E+02  .410E+02
  .322E+02  .322E+02  .322E+02  .318E+02  .318E+02  .318E+02  .318E+02  .318E+02
  .318E+02  .318E+02  .318E+02  .318E+02  .000E+00  .000E+00  .000E+00  .000E+00
  .000E+00  .000E+00  .000E+00  .000E+00  .000E+00  .000E+00  .000E+00  .000E+00
  .000E+00  .000E+00  .000E+00  .000E+00  .000E+00  .000E+00  .000E+00  .000E+00
  .000E+00  .000E+00  .000E+00  .000E+00
  .252E+02  .257E+02  .253E+02  .304E+02  .304E+02  .307E+02  .311E+02  .258E+02
  .256E+02  .256E+02  .258E+02  .254E+02  .258E+02  .263E+02  .318E+02  .318E+02
  .319E+02  .322E+02  .347E+02  .319E+02  .256E+02  .256E+02  .258E+02  .267E+02
  .265E+02  .323E+02  .334E+02  .323E+02  .335E+02  .358E+02  .320E+02  .318E+02
  .363E+02  .309E+02  .309E+02  .338E+02  .385E+02  .395E+02  .359E+02  .396E+02
  .357E+02  .341E+02  .342E+02  .340E+02  .325E+02  .544E+02  .325E+02  .365E+02
  .362E+02  .341E+02  .337E+02  .334E+02  .630E+02  .487E+02  .567E+02  .615E+02
  .609E+02  .674E+02  .542E+02  .543E+02  .537E+02  .464E+02  .529E+02  .403E+02
  .383E+02  .451E+02  .522E+02  .320E+02  .320E+02  .320E+02  .320E+02  .320E+02
  .320E+02  .320E+02  .320E+02  .320E+02  .000E+00  .000E+00  .000E+00  .000E+00
  .000E+00  .000E+00  .000E+00  .000E+00  .000E+00  .000E+00  .000E+00  .000E+00
  .000E+00  .000E+00  .000E+00  .000E+00  .000E+00  .000E+00  .000E+00  .000E+00
  .000E+00  .000E+00  .000E+00  .000E+00
Damping =  .05. Data of Sd,Sv,Sa,Pssv,ttSd,ttSv,ttSa :
  .507E-03  .615E-03  .772E-03  .915E-03  .118E-02  .117E-02  .153E-02  .154E-02
