Response and Fourier amplitude spectra (80 periods,  .04 -  7.0 sec)   for      
Corrected accelerogram   23631-E0779-08212.02       Chan  4:  Tran       from   
Uncorrected Accelerogram Data             Processed: 02/09/09, CGS  CE23631     
Record of Tue Jul 29, 2008 11:42:08.9 PDT             (Avol1 v8.5,11/08 CSMIP)  
CSMIP Preliminary Processing            (Origin:  To be determined)             
23631-E0779-08212.02                 Start time:  7/29/08, 18:42: 8.9 UTC (WWVB)
Station No. 23631   34.064N, 117.296W     SSA-1  s/n  779  (4 Chns of 36 at Sta)
San Bernardino - I10/215 Interchange Br   CGS                                   
Chan  4:  Tran    (Sta Chn: 20)     Location: Hinge Near Bent 8: E. Side        
Record of Tue Jul 29, 2008 11:42:08.9 PDT    Tue Jul 29, 2008 11:42:08.9 PDT    
Hypocenter:  To be determined.               ML:  To be determined.             
Instr Period =  .0186 sec,  Damping =  .660,  Sensitivity = 1.25  v/g           
                        Record length = 78.080 sec.                             
                                     Uncor Max  =   .063 g , at  22.395 sec.    
RMS accel of (uncor) record  =        .   Chn. metadata effective date: 01/10/92
Accelerogram bandpass filtered with 3 dB pts at   .14 and 40.00 cyc/sec         
                 instrument- and baseline-corrected                             
                                                                                
                                                                                
                                                                                
                                                                                
                                                                                
Record of Tue Jul 29, 2008 11:42:08.9 PDT    Tue Jul 29, 2008 11:42:08.9 PDT    
                                                                                
23631-E0779-08212.02      San Bernardino - I10/215 Interchange Br   Chan  4:  Tr
an                                                                              
23631-E0779-08212.02      San Bernardino - I10/215 Interchange Br   Chan  4:  Tr
an                                                                              
Units for spectra are inches and sec, except Sa is in fraction of g.            
                                                                                
    4  100   20    4   36  200    1    3    1   12    5  779    023631    3    0
   18   42    8  935  211    7   29 2008   10    1  90015616   41   39   76   -1
15616    0  100    3 2117    1    2   61    2   18   42   38  140    7   29 2008
    0    2    0    0 7808    2  222    1   12    4   76   39    3    1    0 7808
    3 7808   40   80    5    4    5    0    1    0   36    0    0    3    0    2
    2    2    4    0   66   99    1   32   32    0    0    1   16    0    8  222
    1    0    0    0
      .019      .660    78.080      .008      .000  1249.000      .063    22.395
    53.900  1220.703   977.344      .000     5.000      .000      .000      .000
     2.500    -7.556     2.500  -999.000    15.360    30.000      .000      .131
     -.112     -.243     2.000    15.000    34.064  -117.296      .726     5.304
     7.306     -.510      .023   297.000      .000      .000      .000      .000
     1.000   -21.281     7.000      .000      .000      .000      .000      .000
     6.800     8.500     5.200   980.665      .010    78.080     8.578      .000
      .000    40.000      .000    78.080      .010      .143      .000      .000
    22.390    61.547    22.500     5.370    38.450     -.804      .002      .143
    40.000      .010      .010      .007      .760      .488      .000      .000
      .161      .650      .132      .132      .087      .006      .000      .000
      .000      .000      .000      .000      .000      .000      .000      .000
      .000      .000      .000      .000
      .000      .020      .050      .100      .200
      .040      .042      .044      .046      .048      .050      .055      .060
      .065      .070      .075      .080      .085      .090      .095      .100
      .110      .120      .130      .140      .150      .160      .170      .180
      .190      .200      .220      .240      .260      .280      .300      .320
      .340      .360      .380      .400      .420      .440      .460      .480
      .500      .550      .600      .650      .700      .750      .800      .850
      .900      .950     1.000     1.100     1.200     1.300     1.400     1.500
     1.600     1.700     1.800     1.900     2.000     2.200     2.400     2.600
     2.800     3.000     3.200     3.400     3.600     3.800     4.000     4.200
     4.400     4.600     4.800     5.000     5.500     6.000     6.500     7.000
      .000      .000      .000      .000      .000      .000      .000      .000
      .000      .000      .000      .000      .000      .000      .000      .000
      .000      .000      .000      .000
Fourier amplitude spectra in in/sec.
  .112E+00  .674E-01  .250E+00  .132E+00  .224E+00  .311E+00  .474E+00  .895E-01
  .238E+00  .364E+00  .420E+00  .176E+00  .319E+00  .108E+01  .847E+00  .105E+01
  .114E+01  .141E+01  .811E+00  .524E+01  .265E+01  .506E+00  .125E+01  .791E+00
  .632E+00  .195E+01  .518E+01  .503E+01  .110E+01  .175E+01  .965E+01  .773E+01
  .139E+02  .521E+01  .498E+00  .588E+01  .252E+00  .353E+01  .264E+01  .524E+01
  .312E+01  .665E+01  .105E+01  .100E+02  .179E+02  .144E+02  .167E+02  .191E+02
  .168E+02  .361E+02  .170E+02  .136E+02  .106E+02  .954E+01  .364E+01  .639E+01
  .151E+01  .505E+01  .402E+01  .122E+01  .230E+01  .301E+01  .779E+00  .141E+01
  .146E+01  .633E+00  .133E+01  .387E+00  .954E+00  .674E+00  .382E+00  .580E+00
  .468E+00  .332E+00  .109E+00  .106E+00  .147E+00  .984E-01  .842E-01  .417E-01
  .000E+00  .000E+00  .000E+00  .000E+00  .000E+00  .000E+00  .000E+00  .000E+00
  .000E+00  .000E+00  .000E+00  .000E+00  .000E+00  .000E+00  .000E+00  .000E+00
  .000E+00  .000E+00  .000E+00  .000E+00
Damping =  .00. Data of Sd,Sv,Sa,Pssv,ttSd,ttSv,ttSa :
  .176E-02  .144E-02  .227E-02  .223E-02  .250E-02  .363E-02  .483E-02  .466E-02
  .461E-02  .614E-02  .792E-02  .938E-02  .102E-01  .234E-01  .192E-01  .230E-01
  .379E-01  .329E-01  .356E-01  .120E+00  .850E-01  .394E-01  .582E-01  .447E-01
  .448E-01  .767E-01  .191E+00  .224E+00  .133E+00  .311E+00  .471E+00  .403E+00
  .782E+00  .445E+00  .239E+00  .390E+00  .247E+00  .279E+00  .312E+00  .565E+00
  .462E+00  .753E+00  .806E+00  .131E+01  .202E+01  .177E+01  .259E+01  .259E+01
  .338E+01  .575E+01  .280E+01  .238E+01  .344E+01  .210E+01  .181E+01  .197E+01
  .123E+01  .197E+01  .121E+01  .892E+00  .104E+01  .108E+01  .454E+00  .738E+00
  .873E+00  .646E+00  .762E+00  .739E+00  .718E+00  .593E+00  .529E+00  .630E+00
  .519E+00  .526E+00  .468E+00  .366E+00  .365E+00  .429E+00  .345E+00  .320E+00
  .000E+00  .000E+00  .000E+00  .000E+00  .000E+00  .000E+00  .000E+00  .000E+00
  .000E+00  .000E+00  .000E+00  .000E+00  .000E+00  .000E+00  .000E+00  .000E+00
  .000E+00  .000E+00  .000E+00  .000E+00
  .161E+00  .980E-01  .266E+00  .172E+00  .261E+00  .418E+00  .524E+00  .296E+00
  .276E+00  .510E+00  .606E+00  .473E+00  .504E+00  .153E+01  .102E+01  .130E+01
  .206E+01  .148E+01  .158E+01  .524E+01  .357E+01  .136E+01  .210E+01  .122E+01
  .112E+01  .232E+01  .535E+01  .581E+01  .270E+01  .674E+01  .978E+01  .779E+01
  .143E+02  .763E+01  .363E+01  .594E+01  .335E+01  .384E+01  .407E+01  .717E+01
  .587E+01  .822E+01  .807E+01  .122E+02  .180E+02  .147E+02  .198E+02  .191E+02
  .235E+02  .380E+02  .175E+02  .136E+02  .184E+02  .106E+02  .834E+01  .864E+01
  .545E+01  .766E+01  .450E+01  .319E+01  .356E+01  .386E+01  .238E+01  .289E+01
  .335E+01  .270E+01  .248E+01  .237E+01  .226E+01  .214E+01  .215E+01  .216E+01
  .219E+01  .222E+01  .224E+01  .223E+01  .224E+01  .225E+01  .222E+01  .218E+01
  .000E+00  .000E+00  .000E+00  .000E+00  .000E+00  .000E+00  .000E+00  .000E+00
  .000E+00  .000E+00  .000E+00  .000E+00  .000E+00  .000E+00  .000E+00  .000E+00
  .000E+00  .000E+00  .000E+00  .000E+00
  .113E+00  .837E-01  .120E+00  .108E+00  .111E+00  .149E+00  .163E+00  .132E+00
  .112E+00  .128E+00  .144E+00  .150E+00  .145E+00  .296E+00  .217E+00  .236E+00
  .321E+00  .234E+00  .215E+00  .625E+00  .386E+00  .157E+00  .206E+00  .141E+00
  .127E+00  .196E+00  .403E+00  .398E+00  .201E+00  .406E+00  .535E+00  .403E+00
  .692E+00  .351E+00  .169E+00  .249E+00  .143E+00  .148E+00  .151E+00  .251E+00
  .189E+00  .255E+00  .229E+00  .316E+00  .422E+00  .323E+00  .415E+00  .366E+00
  .427E+00  .652E+00  .287E+00  .201E+00  .244E+00  .127E+00  .942E-01  .895E-01
  .493E-01  .696E-01  .382E-01  .253E-01  .267E-01  .227E-01  .806E-02  .112E-01
  .114E-01  .734E-02  .761E-02  .654E-02  .567E-02  .420E-02  .338E-02  .365E-02
  .274E-02  .254E-02  .208E-02  .150E-02  .123E-02  .122E-02  .836E-03  .667E-03
  .000E+00  .000E+00  .000E+00  .000E+00  .000E+00  .000E+00  .000E+00  .000E+00
  .000E+00  .000E+00  .000E+00  .000E+00  .000E+00  .000E+00  .000E+00  .000E+00
  .000E+00  .000E+00  .000E+00  .000E+00
  .277E+00  .216E+00  .324E+00  .304E+00  .327E+00  .457E+00  .552E+00  .488E+00
  .446E+00  .551E+00  .664E+00  .737E+00  .755E+00  .163E+01  .127E+01  .145E+01
  .217E+01  .172E+01  .172E+01  .538E+01  .356E+01  .155E+01  .215E+01  .156E+01
  .148E+01  .241E+01  .545E+01  .586E+01  .321E+01  .699E+01  .985E+01  .792E+01
  .144E+02  .777E+01  .395E+01  .613E+01  .369E+01  .399E+01  .426E+01  .739E+01
  .581E+01  .860E+01  .844E+01  .126E+02  .182E+02  .149E+02  .204E+02  .191E+02
  .236E+02  .380E+02  .176E+02  .136E+02  .180E+02  .102E+02  .811E+01  .824E+01
  .484E+01  .727E+01  .423E+01  .295E+01  .328E+01  .307E+01  .119E+01  .178E+01
  .196E+01  .135E+01  .150E+01  .137E+01  .125E+01  .981E+00  .830E+00  .942E+00
  .741E+00  .718E+00  .613E+00  .460E+00  .417E+00  .449E+00  .334E+00  .287E+00
  .000E+00  .000E+00  .000E+00  .000E+00  .000E+00  .000E+00  .000E+00  .000E+00
  .000E+00  .000E+00  .000E+00  .000E+00  .000E+00  .000E+00  .000E+00  .000E+00
  .000E+00  .000E+00  .000E+00  .000E+00
  .226E+02  .219E+02  .236E+02  .224E+02  .226E+02  .445E+02  .716E+02  .224E+02
  .219E+02  .355E+02  .469E+02  .224E+02  .226E+02  .230E+02  .223E+02  .243E+02
  .262E+02  .226E+02  .231E+02  .715E+02  .229E+02  .219E+02  .260E+02  .219E+02
  .219E+02  .260E+02  .715E+02  .266E+02  .223E+02  .252E+02  .750E+02  .730E+02
  .645E+02  .271E+02  .227E+02  .731E+02  .220E+02  .487E+02  .288E+02  .390E+02
  .264E+02  .354E+02  .275E+02  .473E+02  .750E+02  .702E+02  .385E+02  .760E+02
  .595E+02  .738E+02  .740E+02  .774E+02  .482E+02  .706E+02  .354E+02  .720E+02
  .358E+02  .499E+02  .745E+02  .597E+02  .589E+02  .744E+02  .468E+02  .622E+02
  .384E+02  .385E+02  .687E+02  .391E+02  .621E+02  .468E+02  .280E+02  .390E+02
  .391E+02  .384E+02  .385E+02  .385E+02  .391E+02  .384E+02  .385E+02  .385E+02
  .000E+00  .000E+00  .000E+00  .000E+00  .000E+00  .000E+00  .000E+00  .000E+00
  .000E+00  .000E+00  .000E+00  .000E+00  .000E+00  .000E+00  .000E+00  .000E+00
  .000E+00  .000E+00  .000E+00  .000E+00
  .227E+02  .319E+02  .652E+02  .224E+02  .611E+02  .443E+02  .740E+02  .227E+02
  .746E+02  .590E+02  .475E+02  .224E+02  .226E+02  .230E+02  .222E+02  .256E+02
  .262E+02  .729E+02  .231E+02  .609E+02  .228E+02  .220E+02  .260E+02  .219E+02
  .220E+02  .260E+02  .611E+02  .267E+02  .223E+02  .258E+02  .749E+02  .752E+02
  .639E+02  .272E+02  .243E+02  .686E+02  .221E+02  .488E+02  .535E+02  .365E+02
  .251E+02  .356E+02  .276E+02  .471E+02  .748E+02  .700E+02  .387E+02  .758E+02
  .597E+02  .740E+02  .742E+02  .771E+02  .480E+02  .709E+02  .351E+02  .724E+02
  .355E+02  .495E+02  .714E+02  .592E+02  .393E+02  .388E+02  .393E+02  .393E+02
  .388E+02  .381E+02  .393E+02  .388E+02  .388E+02  .225E+02  .225E+02  .225E+02
  .225E+02  .225E+02  .225E+02  .225E+02  .225E+02  .225E+02  .225E+02  .225E+02
  .000E+00  .000E+00  .000E+00  .000E+00  .000E+00  .000E+00  .000E+00  .000E+00
  .000E+00  .000E+00  .000E+00  .000E+00  .000E+00  .000E+00  .000E+00  .000E+00
  .000E+00  .000E+00  .000E+00  .000E+00
  .226E+02  .219E+02  .236E+02  .224E+02  .226E+02  .445E+02  .716E+02  .224E+02
  .219E+02  .355E+02  .469E+02  .224E+02  .226E+02  .230E+02  .223E+02  .243E+02
  .262E+02  .226E+02  .231E+02  .715E+02  .229E+02  .219E+02  .260E+02  .219E+02
  .219E+02  .260E+02  .715E+02  .266E+02  .223E+02  .252E+02  .750E+02  .730E+02
  .645E+02  .271E+02  .227E+02  .731E+02  .220E+02  .487E+02  .288E+02  .390E+02
  .264E+02  .354E+02  .275E+02  .473E+02  .750E+02  .702E+02  .385E+02  .760E+02
  .595E+02  .738E+02  .740E+02  .774E+02  .482E+02  .706E+02  .354E+02  .720E+02
  .358E+02  .499E+02  .745E+02  .597E+02  .589E+02  .744E+02  .468E+02  .622E+02
  .384E+02  .385E+02  .687E+02  .391E+02  .621E+02  .468E+02  .280E+02  .390E+02
  .391E+02  .384E+02  .385E+02  .385E+02  .391E+02  .384E+02  .385E+02  .385E+02
  .000E+00  .000E+00  .000E+00  .000E+00  .000E+00  .000E+00  .000E+00  .000E+00
  .000E+00  .000E+00  .000E+00  .000E+00  .000E+00  .000E+00  .000E+00  .000E+00
  .000E+00  .000E+00  .000E+00  .000E+00
Damping =  .02. Data of Sd,Sv,Sa,Pssv,ttSd,ttSv,ttSa :
  .124E-02  .125E-02  .143E-02  .177E-02  .194E-02  .200E-02  .247E-02  .306E-02
  .295E-02  .385E-02  .526E-02  .812E-02  .102E-01  .118E-01  .122E-01  .110E-01
  .194E-01  .215E-01  .314E-01  .402E-01  .454E-01  .360E-01  .302E-01  .352E-01
  .471E-01  .650E-01  .950E-01  .101E+00  .119E+00  .144E+00  .166E+00  .155E+00
  .234E+00  .241E+00  .216E+00  .198E+00  .217E+00  .211E+00  .207E+00  .244E+00
  .343E+00  .468E+00  .583E+00  .826E+00  .921E+00  .122E+01  .135E+01  .127E+01
  .142E+01  .125E+01  .120E+01  .126E+01  .193E+01  .150E+01  .105E+01  .115E+01
  .855E+00  .117E+01  .762E+00  .583E+00  .652E+00  .745E+00  .435E+00  .644E+00
  .679E+00  .542E+00  .547E+00  .579E+00  .552E+00  .521E+00  .490E+00  .520E+00
  .462E+00  .452E+00  .432E+00  .369E+00  .337E+00  .399E+00  .349E+00  .322E+00
  .000E+00  .000E+00  .000E+00  .000E+00  .000E+00  .000E+00  .000E+00  .000E+00
  .000E+00  .000E+00  .000E+00  .000E+00  .000E+00  .000E+00  .000E+00  .000E+00
  .000E+00  .000E+00  .000E+00  .000E+00
  .686E-01  .678E-01  .871E-01  .996E-01  .102E+00  .105E+00  .109E+00  .128E+00
  .156E+00  .174E+00  .231E+00  .386E+00  .461E+00  .682E+00  .581E+00  .538E+00
  .957E+00  .934E+00  .135E+01  .170E+01  .192E+01  .127E+01  .999E+00  .109E+01
  .138E+01  .175E+01  .255E+01  .256E+01  .239E+01  .294E+01  .335E+01  .279E+01
  .431E+01  .404E+01  .296E+01  .281E+01  .285E+01  .254E+01  .238E+01  .271E+01
  .412E+01  .544E+01  .586E+01  .802E+01  .823E+01  .999E+01  .103E+02  .995E+01
  .976E+01  .809E+01  .739E+01  .749E+01  .102E+02  .780E+01  .523E+01  .556E+01
  .397E+01  .563E+01  .354E+01  .281E+01  .334E+01  .317E+01  .228E+01  .257E+01
  .284E+01  .226E+01  .216E+01  .214E+01  .210E+01  .213E+01  .214E+01  .216E+01
  .218E+01  .221E+01  .222E+01  .222E+01  .223E+01  .223E+01  .221E+01  .218E+01
  .000E+00  .000E+00  .000E+00  .000E+00  .000E+00  .000E+00  .000E+00  .000E+00
  .000E+00  .000E+00  .000E+00  .000E+00  .000E+00  .000E+00  .000E+00  .000E+00
  .000E+00  .000E+00  .000E+00  .000E+00
  .790E-01  .725E-01  .757E-01  .856E-01  .864E-01  .820E-01  .835E-01  .869E-01
  .714E-01  .805E-01  .958E-01  .130E+00  .144E+00  .149E+00  .139E+00  .112E+00
  .164E+00  .152E+00  .189E+00  .211E+00  .206E+00  .144E+00  .107E+00  .112E+00
  .134E+00  .166E+00  .202E+00  .179E+00  .179E+00  .187E+00  .189E+00  .155E+00
  .207E+00  .191E+00  .153E+00  .127E+00  .126E+00  .112E+00  .998E-01  .108E+00
  .141E+00  .159E+00  .166E+00  .200E+00  .192E+00  .222E+00  .215E+00  .180E+00
  .179E+00  .142E+00  .122E+00  .107E+00  .137E+00  .909E-01  .551E-01  .522E-01
  .342E-01  .414E-01  .241E-01  .165E-01  .167E-01  .158E-01  .774E-02  .977E-02
  .888E-02  .617E-02  .548E-02  .514E-02  .438E-02  .371E-02  .315E-02  .303E-02
  .246E-02  .220E-02  .193E-02  .153E-02  .116E-02  .115E-02  .861E-03  .688E-03
  .000E+00  .000E+00  .000E+00  .000E+00  .000E+00  .000E+00  .000E+00  .000E+00
  .000E+00  .000E+00  .000E+00  .000E+00  .000E+00  .000E+00  .000E+00  .000E+00
  .000E+00  .000E+00  .000E+00  .000E+00
  .194E+00  .187E+00  .204E+00  .242E+00  .255E+00  .251E+00  .282E+00  .320E+00
  .285E+00  .345E+00  .441E+00  .638E+00  .751E+00  .826E+00  .808E+00  .690E+00
  .111E+01  .112E+01  .152E+01  .180E+01  .190E+01  .141E+01  .112E+01  .123E+01
  .156E+01  .204E+01  .271E+01  .264E+01  .287E+01  .322E+01  .347E+01  .304E+01
  .433E+01  .421E+01  .357E+01  .311E+01  .325E+01  .301E+01  .282E+01  .319E+01
  .432E+01  .535E+01  .610E+01  .798E+01  .827E+01  .102E+02  .106E+02  .938E+01
  .988E+01  .830E+01  .752E+01  .721E+01  .101E+02  .725E+01  .473E+01  .480E+01
  .336E+01  .432E+01  .266E+01  .193E+01  .205E+01  .213E+01  .114E+01  .156E+01
  .152E+01  .113E+01  .107E+01  .107E+01  .964E+00  .861E+00  .769E+00  .777E+00
  .660E+00  .618E+00  .565E+00  .464E+00  .385E+00  .418E+00  .338E+00  .289E+00
  .000E+00  .000E+00  .000E+00  .000E+00  .000E+00  .000E+00  .000E+00  .000E+00
  .000E+00  .000E+00  .000E+00  .000E+00  .000E+00  .000E+00  .000E+00  .000E+00
  .000E+00  .000E+00  .000E+00  .000E+00
  .223E+02  .223E+02  .224E+02  .224E+02  .224E+02  .226E+02  .224E+02  .224E+02
  .224E+02  .226E+02  .226E+02  .224E+02  .224E+02  .226E+02  .223E+02  .223E+02
  .236E+02  .236E+02  .231E+02  .231E+02  .224E+02  .224E+02  .225E+02  .225E+02
  .225E+02  .226E+02  .244E+02  .226E+02  .223E+02  .224E+02  .279E+02  .226E+02
  .238E+02  .239E+02  .227E+02  .227E+02  .220E+02  .220E+02  .220E+02  .227E+02
  .242E+02  .244E+02  .227E+02  .231E+02  .232E+02  .244E+02  .245E+02  .246E+02
  .488E+02  .505E+02  .515E+02  .730E+02  .399E+02  .395E+02  .354E+02  .396E+02
  .310E+02  .390E+02  .390E+02  .596E+02  .396E+02  .391E+02  .390E+02  .390E+02
  .384E+02  .385E+02  .289E+02  .391E+02  .384E+02  .279E+02  .280E+02  .390E+02
  .391E+02  .384E+02  .384E+02  .384E+02  .391E+02  .384E+02  .385E+02  .384E+02
  .000E+00  .000E+00  .000E+00  .000E+00  .000E+00  .000E+00  .000E+00  .000E+00
  .000E+00  .000E+00  .000E+00  .000E+00  .000E+00  .000E+00  .000E+00  .000E+00
  .000E+00  .000E+00  .000E+00  .000E+00
  .223E+02  .223E+02  .223E+02  .224E+02  .227E+02  .227E+02  .230E+02  .222E+02
  .223E+02  .220E+02  .222E+02  .224E+02  .224E+02  .227E+02  .222E+02  .228E+02
  .235E+02  .238E+02  .231E+02  .229E+02  .228E+02  .225E+02  .225E+02  .225E+02
  .225E+02  .225E+02  .244E+02  .266E+02  .223E+02  .223E+02  .265E+02  .227E+02
  .255E+02  .238E+02  .228E+02  .228E+02  .221E+02  .221E+02  .252E+02  .251E+02
  .241E+02  .245E+02  .229E+02  .233E+02  .233E+02  .246E+02  .243E+02  .244E+02
  .486E+02  .502E+02  .513E+02  .732E+02  .408E+02  .398E+02  .344E+02  .393E+02
  .398E+02  .393E+02  .393E+02  .393E+02  .393E+02  .388E+02  .393E+02  .393E+02
  .388E+02  .381E+02  .393E+02  .388E+02  .225E+02  .225E+02  .225E+02  .225E+02
  .225E+02  .225E+02  .225E+02  .225E+02  .225E+02  .225E+02  .225E+02  .225E+02
  .000E+00  .000E+00  .000E+00  .000E+00  .000E+00  .000E+00  .000E+00  .000E+00
  .000E+00  .000E+00  .000E+00  .000E+00  .000E+00  .000E+00  .000E+00  .000E+00
  .000E+00  .000E+00  .000E+00  .000E+00
  .223E+02  .223E+02  .224E+02  .224E+02  .224E+02  .226E+02  .224E+02  .224E+02
  .224E+02  .226E+02  .226E+02  .224E+02  .224E+02  .226E+02  .223E+02  .223E+02
  .236E+02  .236E+02  .231E+02  .231E+02  .224E+02  .224E+02  .224E+02  .225E+02
  .225E+02  .226E+02  .244E+02  .226E+02  .223E+02  .224E+02  .279E+02  .226E+02
