Response and Fourier amplitude spectra (76 periods,  .04 -  5.0 sec)   for      
Corrected accelerogram   23792-K1341-08217.20       Chan  6: 180 Deg     from   
Uncorrected Accelerogram Data             Processed: 10/01/08, CDMG  AQ020      
Record of Tue Jul 29, 2008 11:41:59.0 PDT             (Avol1 v8.1 9/08 CSMIP)   
CSMIP Preliminary Processing            (Origin:  To be determined)             
23792-K1341-08217.20                 Start time:  7/29/08, 18:41:59.0 UTC (GPS) 
Station No. 23792   34.064N, 117.294W        K2  s/n 1341 (12 Channels)         
San Bernardino - I10/215 W Geotech Array  CGS                                   
Chan  6: 180 Deg                    Location: 10.7m (35ft) Depth                
Record of Tue Jul 29, 2008 11:41:59.0 PDT    Tue Jul 29, 2008 11:41:59.0 PDT    
Hypocenter:  To be determined.               ML:  To be determined.
Instr Period =  .0193 sec,  Damping =  .640,  Sensitivity = 1.25  v/g
                        Record length =109.000 sec.
                                     Uncor Max  =   .031 g , at  31.340 sec.
RMS accel of (uncor) record  =        .   Chn. metadata effective date: 05/16/08
Accelerogram bandpass filtered with 3 dB pts at   .30 and 40.00 cyc/sec
                 instrument- and baseline-corrected





Record of Tue Jul 29, 2008 11:41:59.0 PDT    Tue Jul 29, 2008 11:41:59.0 PDT

23792-K1341-08217.20      San Bernardino - I10/215 W Geotech Array  CGChan  6: 1
80 Deg
23792-K1341-08217.20      San Bernardino - I10/215 W Geotech Array  CGChan  6: 1
80 Deg
Units for spectra are inches and sec, except Sa is in fraction of g.

    6  100    6   12   12  200    1    3    1   24   11 1341    023792    4    0
   18   41   59    0  211    7   29 2008   10    3  18021800   41   40   76   -1
21800    0   50    3 1341    1   20 1090    2    0    0    0    0    0    0    0
    0    2    0    010900    2  222    0   18    7   76   40    1    1    010900
    310900   41   76    5   12    5    0    0    0   12    0    0    3    0    2
    2    2    4    1   65   99    0   32   32    0    0    1    0    0    0  222
    1    0   12    0
      .019      .640   109.000      .002      .000  1251.000      .031    31.340
    51.900      .298      .238      .000     5.000      .000     3.987      .000
     2.500     3.957     2.500  -999.000    25.000    30.000      .000      .004
     -.005     -.009     2.000    15.000    34.064  -117.294      .109      .869
     7.953     -.052      .034   298.000    25.000    78.400    13.100   109.940
     1.000     1.015      .000      .000      .000      .000      .000      .000
     4.600     8.100     5.000   980.665      .010   109.000     8.260      .003
      .000    40.000      .000   109.000      .010      .300      .000      .000
    31.330    29.908    31.230    -1.950    31.140      .242      .000      .300
    40.000      .010      .010      .000      .010      .116      .000      .000
      .112      .085      .049      .079      .015      .002      .000      .000
      .000      .000      .000      .000      .000      .000      .000      .000
      .000      .000      .000      .000
      .000      .020      .050      .100      .200
      .040      .042      .044      .046      .048      .050      .055      .060
      .065      .070      .075      .080      .085      .090      .095      .100
      .110      .120      .130      .140      .150      .160      .170      .180
      .190      .200      .220      .240      .260      .280      .300      .320
      .340      .360      .380      .400      .420      .440      .460      .480
      .500      .550      .600      .650      .700      .750      .800      .850
      .900      .950     1.000     1.100     1.200     1.300     1.400     1.500
     1.600     1.700     1.800     1.900     2.000     2.200     2.400     2.600
     2.800     3.000     3.200     3.400     3.600     3.800     4.000     4.200
     4.400     4.600     4.800     5.000      .000      .000      .000      .000
      .000      .000      .000      .000      .000      .000      .000      .000
      .000      .000      .000      .000      .000      .000      .000      .000
      .000      .000      .000      .000
Fourier amplitude spectra in in/sec.
  .461E-01  .101E+00  .660E-01  .664E-01  .111E+00  .204E+00  .126E+00  .206E+00
  .360E+00  .301E+00  .438E+00  .631E+00  .175E+01  .859E+00  .457E+00  .356E+00
  .858E+00  .145E+01  .168E+01  .698E+00  .145E+01  .353E+00  .900E+00  .207E+00
  .488E+00  .937E+00  .832E+00  .232E+01  .395E+01  .515E+01  .186E+01  .279E+01
  .173E+01  .457E+01  .293E+01  .265E+01  .404E+01  .465E+00  .160E+01  .354E+00
  .829E+00  .256E+00  .328E+01  .813E+01  .572E+01  .184E+01  .258E+01  .416E+01
  .239E+01  .337E+01  .333E+01  .146E+01  .820E+00  .174E+00  .257E+01  .150E+01
  .612E+00  .122E+01  .948E+00  .335E+00  .179E+01  .122E+01  .888E+00  .553E+00
  .834E+00  .433E+00  .372E+00  .250E-01  .365E+00  .244E+00  .786E-01  .118E+00
  .753E-01  .678E-01  .339E-01  .319E-01  .000E+00  .000E+00  .000E+00  .000E+00
  .000E+00  .000E+00  .000E+00  .000E+00  .000E+00  .000E+00  .000E+00  .000E+00
  .000E+00  .000E+00  .000E+00  .000E+00  .000E+00  .000E+00  .000E+00  .000E+00
  .000E+00  .000E+00  .000E+00  .000E+00
Damping =  .00. Data of Sd,Sv,Sa,Pssv,ttSd,ttSv,ttSa :
  .995E-03  .840E-03  .806E-03  .137E-02  .135E-02  .170E-02  .194E-02  .278E-02
  .428E-02  .440E-02  .624E-02  .138E-01  .251E-01  .156E-01  .128E-01  .205E-01
  .228E-01  .307E-01  .424E-01  .186E-01  .358E-01  .203E-01  .277E-01  .182E-01
  .191E-01  .405E-01  .298E-01  .934E-01  .177E+00  .263E+00  .117E+00  .151E+00
  .187E+00  .279E+00  .179E+00  .169E+00  .275E+00  .190E+00  .146E+00  .168E+00
  .152E+00  .183E+00  .367E+00  .880E+00  .662E+00  .324E+00  .390E+00  .590E+00
  .354E+00  .581E+00  .567E+00  .389E+00  .271E+00  .191E+00  .754E+00  .359E+00
  .433E+00  .532E+00  .314E+00  .184E+00  .569E+00  .492E+00  .416E+00  .311E+00
  .406E+00  .305E+00  .296E+00  .214E+00  .217E+00  .191E+00  .153E+00  .129E+00
  .113E+00  .113E+00  .112E+00  .112E+00  .000E+00  .000E+00  .000E+00  .000E+00
  .000E+00  .000E+00  .000E+00  .000E+00  .000E+00  .000E+00  .000E+00  .000E+00
  .000E+00  .000E+00  .000E+00  .000E+00  .000E+00  .000E+00  .000E+00  .000E+00
  .000E+00  .000E+00  .000E+00  .000E+00
  .895E-01  .105E+00  .900E-01  .128E+00  .122E+00  .209E+00  .187E+00  .269E+00
  .396E+00  .338E+00  .516E+00  .103E+01  .185E+01  .104E+01  .761E+00  .125E+01
  .126E+01  .157E+01  .200E+01  .836E+00  .148E+01  .741E+00  .101E+01  .477E+00
  .612E+00  .124E+01  .845E+00  .241E+01  .425E+01  .586E+01  .228E+01  .296E+01
  .346E+01  .483E+01  .296E+01  .265E+01  .411E+01  .286E+01  .205E+01  .217E+01
  .180E+01  .205E+01  .383E+01  .851E+01  .598E+01  .303E+01  .314E+01  .436E+01
  .247E+01  .385E+01  .356E+01  .223E+01  .154E+01  .964E+00  .340E+01  .150E+01
  .180E+01  .204E+01  .118E+01  .965E+00  .179E+01  .144E+01  .112E+01  .940E+00
  .955E+00  .830E+00  .810E+00  .804E+00  .803E+00  .801E+00  .799E+00  .795E+00
  .791E+00  .788E+00  .784E+00  .780E+00  .000E+00  .000E+00  .000E+00  .000E+00
  .000E+00  .000E+00  .000E+00  .000E+00  .000E+00  .000E+00  .000E+00  .000E+00
  .000E+00  .000E+00  .000E+00  .000E+00  .000E+00  .000E+00  .000E+00  .000E+00
  .000E+00  .000E+00  .000E+00  .000E+00
  .636E-01  .487E-01  .426E-01  .664E-01  .598E-01  .696E-01  .657E-01  .790E-01
  .104E+00  .918E-01  .114E+00  .221E+00  .356E+00  .197E+00  .145E+00  .210E+00
  .193E+00  .218E+00  .256E+00  .972E-01  .163E+00  .811E-01  .981E-01  .574E-01
  .540E-01  .104E+00  .629E-01  .166E+00  .268E+00  .344E+00  .133E+00  .151E+00
  .166E+00  .220E+00  .127E+00  .108E+00  .160E+00  .100E+00  .707E-01  .744E-01
  .620E-01  .618E-01  .104E+00  .213E+00  .138E+00  .590E-01  .623E-01  .835E-01
  .447E-01  .658E-01  .580E-01  .329E-01  .192E-01  .115E-01  .393E-01  .163E-01
  .173E-01  .188E-01  .991E-02  .522E-02  .146E-01  .104E-01  .739E-02  .470E-02
  .530E-02  .347E-02  .296E-02  .190E-02  .171E-02  .135E-02  .977E-03  .749E-03
  .594E-03  .544E-03  .499E-03  .457E-03  .000E+00  .000E+00  .000E+00  .000E+00
  .000E+00  .000E+00  .000E+00  .000E+00  .000E+00  .000E+00  .000E+00  .000E+00
  .000E+00  .000E+00  .000E+00  .000E+00  .000E+00  .000E+00  .000E+00  .000E+00
  .000E+00  .000E+00  .000E+00  .000E+00
  .156E+00  .126E+00  .115E+00  .188E+00  .176E+00  .214E+00  .222E+00  .291E+00
  .413E+00  .395E+00  .523E+00  .108E+01  .186E+01  .109E+01  .849E+00  .129E+01
  .130E+01  .161E+01  .205E+01  .836E+00  .150E+01  .797E+00  .102E+01  .635E+00
  .631E+00  .127E+01  .850E+00  .244E+01  .428E+01  .591E+01  .246E+01  .297E+01
  .346E+01  .487E+01  .296E+01  .266E+01  .412E+01  .271E+01  .200E+01  .219E+01
  .191E+01  .209E+01  .384E+01  .851E+01  .594E+01  .272E+01  .306E+01  .436E+01
  .247E+01  .384E+01  .356E+01  .222E+01  .142E+01  .922E+00  .338E+01  .150E+01
  .170E+01  .197E+01  .110E+01  .609E+00  .179E+01  .141E+01  .109E+01  .751E+00
  .912E+00  .640E+00  .581E+00  .396E+00  .379E+00  .316E+00  .240E+00  .193E+00
  .161E+00  .154E+00  .147E+00  .140E+00  .000E+00  .000E+00  .000E+00  .000E+00
  .000E+00  .000E+00  .000E+00  .000E+00  .000E+00  .000E+00  .000E+00  .000E+00
  .000E+00  .000E+00  .000E+00  .000E+00  .000E+00  .000E+00  .000E+00  .000E+00
  .000E+00  .000E+00  .000E+00  .000E+00
  .311E+02  .313E+02  .313E+02  .313E+02  .313E+02  .554E+02  .313E+02  .367E+02
  .379E+02  .316E+02  .473E+02  .319E+02  .487E+02  .323E+02  .318E+02  .327E+02
  .355E+02  .325E+02  .355E+02  .383E+02  .367E+02  .327E+02  .432E+02  .311E+02
  .312E+02  .355E+02  .831E+02  .511E+02  .455E+02  .396E+02  .318E+02  .624E+02
  .333E+02  .564E+02  .105E+03  .106E+03  .856E+02  .337E+02  .395E+02  .315E+02
  .318E+02  .321E+02  .600E+02  .833E+02  .529E+02  .328E+02  .456E+02  .920E+02
  .102E+03  .870E+02  .825E+02  .684E+02  .558E+02  .347E+02  .801E+02  .108E+03
  .461E+02  .546E+02  .621E+02  .338E+02  .106E+03  .877E+02  .652E+02  .900E+02
  .743E+02  .471E+02  .608E+02  .390E+02  .722E+02  .850E+02  .379E+02  .379E+02
  .311E+02  .311E+02  .311E+02  .311E+02  .000E+00  .000E+00  .000E+00  .000E+00
  .000E+00  .000E+00  .000E+00  .000E+00  .000E+00  .000E+00  .000E+00  .000E+00
  .000E+00  .000E+00  .000E+00  .000E+00  .000E+00  .000E+00  .000E+00  .000E+00
  .000E+00  .000E+00  .000E+00  .000E+00
  .310E+02  .980E+02  .459E+02  .330E+02  .892E+02  .988E+02  .379E+02  .367E+02
  .566E+02  .316E+02  .480E+02  .319E+02  .487E+02  .323E+02  .317E+02  .333E+02
  .353E+02  .325E+02  .386E+02  .386E+02  .367E+02  .326E+02  .528E+02  .331E+02
  .485E+02  .434E+02  .946E+02  .499E+02  .456E+02  .397E+02  .319E+02  .625E+02
  .332E+02  .565E+02  .104E+03  .106E+03  .101E+03  .338E+02  .330E+02  .314E+02
  .409E+02  .323E+02  .602E+02  .834E+02  .524E+02  .326E+02  .458E+02  .909E+02
  .974E+02  .867E+02  .822E+02  .687E+02  .555E+02  .345E+02  .798E+02  .107E+03
  .513E+02  .550E+02  .625E+02  .312E+02  .107E+03  .883E+02  .646E+02  .312E+02
  .486E+02  .312E+02  .312E+02  .312E+02  .312E+02  .312E+02  .312E+02  .312E+02
  .312E+02  .312E+02  .312E+02  .312E+02  .000E+00  .000E+00  .000E+00  .000E+00
  .000E+00  .000E+00  .000E+00  .000E+00  .000E+00  .000E+00  .000E+00  .000E+00
  .000E+00  .000E+00  .000E+00  .000E+00  .000E+00  .000E+00  .000E+00  .000E+00
  .000E+00  .000E+00  .000E+00  .000E+00
  .311E+02  .313E+02  .313E+02  .313E+02  .313E+02  .554E+02  .313E+02  .367E+02
  .379E+02  .316E+02  .473E+02  .319E+02  .487E+02  .323E+02  .318E+02  .327E+02
  .355E+02  .325E+02  .355E+02  .383E+02  .367E+02  .327E+02  .432E+02  .311E+02
  .312E+02  .355E+02  .831E+02  .511E+02  .455E+02  .396E+02  .318E+02  .624E+02
  .333E+02  .564E+02  .105E+03  .106E+03  .856E+02  .337E+02  .395E+02  .315E+02
  .318E+02  .321E+02  .600E+02  .833E+02  .529E+02  .328E+02  .456E+02  .920E+02
  .102E+03  .870E+02  .825E+02  .684E+02  .558E+02  .347E+02  .801E+02  .108E+03
  .461E+02  .546E+02  .621E+02  .338E+02  .106E+03  .877E+02  .652E+02  .900E+02
  .743E+02  .471E+02  .608E+02  .390E+02  .722E+02  .850E+02  .379E+02  .379E+02
  .311E+02  .311E+02  .311E+02  .311E+02  .000E+00  .000E+00  .000E+00  .000E+00
  .000E+00  .000E+00  .000E+00  .000E+00  .000E+00  .000E+00  .000E+00  .000E+00
  .000E+00  .000E+00  .000E+00  .000E+00  .000E+00  .000E+00  .000E+00  .000E+00
  .000E+00  .000E+00  .000E+00  .000E+00
Damping =  .02. Data of Sd,Sv,Sa,Pssv,ttSd,ttSv,ttSa :
  .629E-03  .694E-03  .734E-03  .838E-03  .830E-03  .109E-02  .151E-02  .139E-02
  .190E-02  .353E-02  .496E-02  .858E-02  .110E-01  .123E-01  .990E-02  .974E-02
  .103E-01  .179E-01  .139E-01  .101E-01  .130E-01  .129E-01  .136E-01  .135E-01
  .171E-01  .211E-01  .257E-01  .533E-01  .690E-01  .874E-01  .909E-01  .949E-01
  .120E+00  .121E+00  .111E+00  .125E+00  .137E+00  .142E+00  .133E+00  .143E+00
  .141E+00  .164E+00  .226E+00  .301E+00  .280E+00  .265E+00  .231E+00  .194E+00
  .174E+00  .220E+00  .209E+00  .203E+00  .183E+00  .165E+00  .274E+00  .229E+00
  .287E+00  .309E+00  .205E+00  .162E+00  .272E+00  .246E+00  .232E+00  .234E+00
  .247E+00  .223E+00  .191E+00  .189E+00  .168E+00  .153E+00  .140E+00  .122E+00
  .112E+00  .112E+00  .112E+00  .111E+00  .000E+00  .000E+00  .000E+00  .000E+00
  .000E+00  .000E+00  .000E+00  .000E+00  .000E+00  .000E+00  .000E+00  .000E+00
  .000E+00  .000E+00  .000E+00  .000E+00  .000E+00  .000E+00  .000E+00  .000E+00
  .000E+00  .000E+00  .000E+00  .000E+00
  .342E-01  .368E-01  .413E-01  .519E-01  .600E-01  .722E-01  .103E+00  .114E+00
  .133E+00  .244E+00  .324E+00  .603E+00  .757E+00  .801E+00  .583E+00  .562E+00
  .543E+00  .914E+00  .658E+00  .447E+00  .519E+00  .449E+00  .470E+00  .382E+00
  .373E+00  .542E+00  .638E+00  .137E+01  .160E+01  .194E+01  .173E+01  .178E+01
  .229E+01  .213E+01  .174E+01  .185E+01  .200E+01  .202E+01  .183E+01  .191E+01
  .179E+01  .183E+01  .255E+01  .310E+01  .257E+01  .251E+01  .190E+01  .156E+01
  .133E+01  .150E+01  .132E+01  .127E+01  .107E+01  .908E+00  .125E+01  .126E+01
  .140E+01  .140E+01  .115E+01  .100E+01  .941E+00  .965E+00  .982E+00  .939E+00
  .881E+00  .842E+00  .821E+00  .813E+00  .809E+00  .806E+00  .803E+00  .799E+00
  .795E+00  .791E+00  .788E+00  .784E+00  .000E+00  .000E+00  .000E+00  .000E+00
  .000E+00  .000E+00  .000E+00  .000E+00  .000E+00  .000E+00  .000E+00  .000E+00
  .000E+00  .000E+00  .000E+00  .000E+00  .000E+00  .000E+00  .000E+00  .000E+00
  .000E+00  .000E+00  .000E+00  .000E+00
  .401E-01  .402E-01  .388E-01  .404E-01  .369E-01  .447E-01  .513E-01  .394E-01
  .459E-01  .733E-01  .898E-01  .137E+00  .156E+00  .155E+00  .112E+00  .997E-01
  .873E-01  .127E+00  .850E-01  .528E-01  .595E-01  .513E-01  .478E-01  .427E-01
  .486E-01  .540E-01  .544E-01  .949E-01  .105E+00  .114E+00  .103E+00  .946E-01
  .106E+00  .960E-01  .785E-01  .801E-01  .797E-01  .749E-01  .643E-01  .636E-01
  .576E-01  .554E-01  .643E-01  .730E-01  .584E-01  .483E-01  .370E-01  .275E-01
  .220E-01  .249E-01  .214E-01  .172E-01  .130E-01  .999E-02  .143E-01  .104E-01
  .115E-01  .109E-01  .649E-02  .459E-02  .697E-02  .520E-02  .413E-02  .354E-02
  .322E-02  .254E-02  .191E-02  .168E-02  .133E-02  .109E-02  .900E-03  .714E-03
  .612E-03  .562E-03  .516E-03  .475E-03  .000E+00  .000E+00  .000E+00  .000E+00
  .000E+00  .000E+00  .000E+00  .000E+00  .000E+00  .000E+00  .000E+00  .000E+00
  .000E+00  .000E+00  .000E+00  .000E+00  .000E+00  .000E+00  .000E+00  .000E+00
  .000E+00  .000E+00  .000E+00  .000E+00
  .988E-01  .104E+00  .105E+00  .114E+00  .109E+00  .137E+00  .172E+00  .145E+00
  .184E+00  .316E+00  .415E+00  .674E+00  .814E+00  .856E+00  .655E+00  .612E+00
  .590E+00  .937E+00  .672E+00  .451E+00  .546E+00  .505E+00  .501E+00  .472E+00
  .567E+00  .664E+00  .735E+00  .139E+01  .167E+01  .196E+01  .190E+01  .186E+01
  .222E+01  .212E+01  .183E+01  .197E+01  .206E+01  .202E+01  .182E+01  .188E+01
  .177E+01  .187E+01  .237E+01  .291E+01  .251E+01  .222E+01  .182E+01  .143E+01
  .121E+01  .145E+01  .131E+01  .116E+01  .957E+00  .797E+00  .123E+01  .957E+00
  .113E+01  .114E+01  .716E+00  .535E+00  .855E+00  .702E+00  .608E+00  .565E+00
  .554E+00  .467E+00  .376E+00  .350E+00  .294E+00  .252E+00  .220E+00  .183E+00
  .160E+00  .153E+00  .146E+00  .139E+00  .000E+00  .000E+00  .000E+00  .000E+00
  .000E+00  .000E+00  .000E+00  .000E+00  .000E+00  .000E+00  .000E+00  .000E+00
  .000E+00  .000E+00  .000E+00  .000E+00  .000E+00  .000E+00  .000E+00  .000E+00
  .000E+00  .000E+00  .000E+00  .000E+00
  .313E+02  .313E+02  .313E+02  .313E+02  .313E+02  .311E+02  .313E+02  .314E+02
  .316E+02  .316E+02  .316E+02  .316E+02  .316E+02  .318E+02  .318E+02  .327E+02
  .321E+02  .323E+02  .319E+02  .319E+02  .338E+02  .327E+02  .330E+02  .311E+02
  .311E+02  .312E+02  .313E+02  .337E+02  .325E+02  .355E+02  .318E+02  .318E+02
  .333E+02  .339E+02  .314E+02  .314E+02  .314E+02  .315E+02  .315E+02  .315E+02
  .315E+02  .321E+02  .322E+02  .329E+02  .327E+02  .324E+02  .325E+02  .325E+02
  .407E+02  .471E+02  .584E+02  .557E+02  .537E+02  .561E+02  .703E+02  .588E+02
  .398E+02  .401E+02  .355E+02  .338E+02  .515E+02  .416E+02  .510E+02  .511E+02
  .480E+02  .470E+02  .388E+02  .390E+02  .391E+02  .377E+02  .379E+02  .379E+02
  .311E+02  .311E+02  .311E+02  .311E+02  .000E+00  .000E+00  .000E+00  .000E+00
  .000E+00  .000E+00  .000E+00  .000E+00  .000E+00  .000E+00  .000E+00  .000E+00
  .000E+00  .000E+00  .000E+00  .000E+00  .000E+00  .000E+00  .000E+00  .000E+00
  .000E+00  .000E+00  .000E+00  .000E+00
  .319E+02  .313E+02  .314E+02  .314E+02  .315E+02  .316E+02  .315E+02  .314E+02
  .315E+02  .316E+02  .316E+02  .316E+02  .317E+02  .317E+02  .317E+02  .326E+02
  .320E+02  .324E+02  .320E+02  .319E+02  .328E+02  .326E+02  .331E+02  .330E+02
  .312E+02  .339E+02  .314E+02  .336E+02  .323E+02  .356E+02  .319E+02  .318E+02
  .332E+02  .342E+02  .315E+02  .313E+02  .313E+02  .313E+02  .314E+02  .314E+02
  .314E+02  .323E+02  .330E+02  .328E+02  .335E+02  .326E+02  .326E+02  .323E+02
  .423E+02  .474E+02  .571E+02  .312E+02  .539E+02  .316E+02  .707E+02  .312E+02
  .312E+02  .397E+02  .312E+02  .312E+02  .312E+02  .312E+02  .312E+02  .312E+02
  .312E+02  .312E+02  .312E+02  .312E+02  .312E+02  .312E+02  .312E+02  .312E+02
  .312E+02  .312E+02  .312E+02  .312E+02  .000E+00  .000E+00  .000E+00  .000E+00
  .000E+00  .000E+00  .000E+00  .000E+00  .000E+00  .000E+00  .000E+00  .000E+00
  .000E+00  .000E+00  .000E+00  .000E+00  .000E+00  .000E+00  .000E+00  .000E+00
  .000E+00  .000E+00  .000E+00  .000E+00
  .313E+02  .313E+02  .313E+02  .313E+02  .313E+02  .311E+02  .313E+02  .314E+02
  .316E+02  .316E+02  .316E+02  .316E+02  .316E+02  .318E+02  .318E+02  .327E+02
  .321E+02  .323E+02  .319E+02  .319E+02  .338E+02  .327E+02  .330E+02  .311E+02
  .311E+02  .312E+02  .313E+02  .337E+02  .325E+02  .355E+02  .318E+02  .318E+02
  .333E+02  .339E+02  .314E+02  .314E+02  .314E+02  .314E+02  .315E+02  .315E+02
  .315E+02  .321E+02  .322E+02  .329E+02  .327E+02  .324E+02  .325E+02  .325E+02
  .407E+02  .471E+02  .584E+02  .557E+02  .536E+02  .561E+02  .703E+02  .588E+02
  .398E+02  .401E+02  .355E+02  .338E+02  .515E+02  .416E+02  .510E+02  .511E+02
  .479E+02  .470E+02  .388E+02  .389E+02  .391E+02  .376E+02  .379E+02  .379E+02
  .311E+02  .311E+02  .311E+02  .311E+02  .000E+00  .000E+00  .000E+00  .000E+00
  .000E+00  .000E+00  .000E+00  .000E+00  .000E+00  .000E+00  .000E+00  .000E+00
  .000E+00  .000E+00  .000E+00  .000E+00  .000E+00  .000E+00  .000E+00  .000E+00
  .000E+00  .000E+00  .000E+00  .000E+00
Damping =  .05. Data of Sd,Sv,Sa,Pssv,ttSd,ttSv,ttSa :
  .595E-03  .659E-03  .713E-03  .764E-03  .820E-03  .944E-03  .125E-02  .126E-02
