Response and Fourier amplitude spectra (76 periods,  .04 -  5.0 sec)   for      
Corrected accelerogram   23792-K1341-08217.20       Chan  3: 180 Deg     from   
Uncorrected Accelerogram Data             Processed: 10/01/08, CDMG  AQ020      
Record of Tue Jul 29, 2008 11:41:59.0 PDT             (Avol1 v8.1 9/08 CSMIP)   
CSMIP Preliminary Processing            (Origin:  To be determined)             
23792-K1341-08217.20                 Start time:  7/29/08, 18:41:59.0 UTC (GPS) 
Station No. 23792   34.064N, 117.294W        K2  s/n 1341 (12 Channels)         
San Bernardino - I10/215 W Geotech Array  CGS                                   
Chan  3: 180 Deg                    Location: Ground Surface                    
Record of Tue Jul 29, 2008 11:41:59.0 PDT    Tue Jul 29, 2008 11:41:59.0 PDT    
Hypocenter:  To be determined.               ML:  To be determined.
Instr Period =  .0105 sec,  Damping =  .650,  Sensitivity =  .63  v/g
                        Record length =109.000 sec.
                                     Uncor Max  =  -.047 g , at  31.150 sec.
RMS accel of (uncor) record  =        .   Chn. metadata effective date: 05/16/08
Accelerogram bandpass filtered with 3 dB pts at   .30 and 40.00 cyc/sec
                 instrument- and baseline-corrected





Record of Tue Jul 29, 2008 11:41:59.0 PDT    Tue Jul 29, 2008 11:41:59.0 PDT

23792-K1341-08217.20      San Bernardino - I10/215 W Geotech Array  CGChan  3: 1
80 Deg
23792-K1341-08217.20      San Bernardino - I10/215 W Geotech Array  CGChan  3: 1
80 Deg
Units for spectra are inches and sec, except Sa is in fraction of g.

    3  100    3   12   12  200    1    3    1   24   11 1341    023792    4    0
   18   41   59    0  211    7   29 2008   10    3  18021800   41   40   76   -1
21800    1   50    3 1341    1   20 1090    2    0    0    0    0    0    0    0
    0    4    0    010900    2  222    0   18    4   76   40    1    1    010900
    310900   41   76    5   12    5    0    0    0   12    0    0    3    0    2
    2    2    4    1   65   99    0   32   32    0    0    1    0    0    0  222
    1    0    6    0
      .010      .650   109.000      .003      .000   625.000     -.047    31.150
    95.600      .298      .477      .000     5.000      .000     3.987      .000
     2.500    -5.069     2.500  -999.000    25.000    30.000      .000     -.003
     -.004      .000     2.000    15.000    34.064  -117.294      .137     1.508
    11.008     -.073      .073   298.000    25.000    78.400    13.100   109.940
     1.000     1.003      .000      .000      .000      .000      .000      .000
     4.600     8.100     5.000   980.665      .010   109.000    15.215      .006
      .000    40.000      .000   109.000      .010      .300      .000      .000
    31.150   -45.794    31.250    -2.775    31.150      .298      .000      .300
    40.000      .010      .010      .000      .010      .126      .000      .000
      .181      .280      .093      .165      .015      .002      .000      .000
      .000      .000      .000      .000      .000      .000      .000      .000
      .000      .000      .000      .000
      .000      .020      .050      .100      .200
      .040      .042      .044      .046      .048      .050      .055      .060
      .065      .070      .075      .080      .085      .090      .095      .100
      .110      .120      .130      .140      .150      .160      .170      .180
      .190      .200      .220      .240      .260      .280      .300      .320
      .340      .360      .380      .400      .420      .440      .460      .480
      .500      .550      .600      .650      .700      .750      .800      .850
      .900      .950     1.000     1.100     1.200     1.300     1.400     1.500
     1.600     1.700     1.800     1.900     2.000     2.200     2.400     2.600
     2.800     3.000     3.200     3.400     3.600     3.800     4.000     4.200
     4.400     4.600     4.800     5.000      .000      .000      .000      .000
      .000      .000      .000      .000      .000      .000      .000      .000
      .000      .000      .000      .000      .000      .000      .000      .000
      .000      .000      .000      .000
Fourier amplitude spectra in in/sec.
  .638E-01  .173E+00  .593E-01  .412E-01  .129E+00  .185E+00  .117E+00  .129E+00
  .401E+00  .362E+00  .275E+00  .440E+00  .105E+01  .299E+00  .441E+00  .180E+00
  .110E+01  .131E+01  .584E+00  .250E+01  .177E+01  .733E+00  .663E+00  .169E+01
  .181E+01  .210E+01  .216E+01  .228E+01  .818E+01  .933E+01  .494E+01  .567E+01
  .346E+01  .728E+01  .348E+01  .187E+01  .323E+01  .745E+00  .288E+01  .632E+00
  .149E+01  .990E+00  .310E+01  .918E+01  .505E+01  .271E+01  .446E+01  .464E+01
  .179E+01  .256E+01  .338E+01  .532E+00  .725E+00  .110E+01  .212E+01  .154E+01
  .601E+00  .654E+00  .982E+00  .433E+00  .203E+01  .833E+00  .897E+00  .503E+00
  .745E+00  .401E+00  .252E+00  .189E-01  .329E+00  .235E+00  .618E-01  .927E-01
  .510E-01  .458E-01  .257E-01  .234E-01  .000E+00  .000E+00  .000E+00  .000E+00
  .000E+00  .000E+00  .000E+00  .000E+00  .000E+00  .000E+00  .000E+00  .000E+00
  .000E+00  .000E+00  .000E+00  .000E+00  .000E+00  .000E+00  .000E+00  .000E+00
  .000E+00  .000E+00  .000E+00  .000E+00
Damping =  .00. Data of Sd,Sv,Sa,Pssv,ttSd,ttSv,ttSa :
  .936E-03  .170E-02  .145E-02  .106E-02  .208E-02  .226E-02  .303E-02  .251E-02
  .449E-02  .420E-02  .496E-02  .847E-02  .180E-01  .988E-02  .128E-01  .171E-01
  .214E-01  .292E-01  .363E-01  .573E-01  .479E-01  .556E-01  .414E-01  .639E-01
  .655E-01  .878E-01  .806E-01  .133E+00  .348E+00  .481E+00  .251E+00  .297E+00
  .282E+00  .440E+00  .229E+00  .199E+00  .229E+00  .233E+00  .212E+00  .236E+00
  .268E+00  .286E+00  .381E+00  .979E+00  .569E+00  .399E+00  .573E+00  .641E+00
  .266E+00  .449E+00  .586E+00  .232E+00  .327E+00  .240E+00  .605E+00  .377E+00
  .441E+00  .402E+00  .462E+00  .214E+00  .653E+00  .335E+00  .417E+00  .278E+00
  .365E+00  .285E+00  .244E+00  .179E+00  .199E+00  .183E+00  .139E+00  .138E+00
  .137E+00  .136E+00  .133E+00  .131E+00  .000E+00  .000E+00  .000E+00  .000E+00
  .000E+00  .000E+00  .000E+00  .000E+00  .000E+00  .000E+00  .000E+00  .000E+00
  .000E+00  .000E+00  .000E+00  .000E+00  .000E+00  .000E+00  .000E+00  .000E+00
  .000E+00  .000E+00  .000E+00  .000E+00
  .718E-01  .206E+00  .107E+00  .980E-01  .199E+00  .192E+00  .292E+00  .215E+00
  .430E+00  .374E+00  .332E+00  .641E+00  .131E+01  .586E+00  .750E+00  .106E+01
  .121E+01  .151E+01  .159E+01  .260E+01  .195E+01  .184E+01  .121E+01  .215E+01
  .196E+01  .261E+01  .227E+01  .344E+01  .841E+01  .107E+02  .544E+01  .581E+01
  .522E+01  .763E+01  .384E+01  .312E+01  .341E+01  .350E+01  .288E+01  .337E+01
  .340E+01  .328E+01  .403E+01  .946E+01  .510E+01  .332E+01  .453E+01  .474E+01
  .197E+01  .298E+01  .367E+01  .182E+01  .176E+01  .133E+01  .273E+01  .167E+01
  .186E+01  .176E+01  .166E+01  .132E+01  .207E+01  .131E+01  .130E+01  .123E+01
  .117E+01  .114E+01  .113E+01  .113E+01  .112E+01  .112E+01  .111E+01  .111E+01
  .110E+01  .110E+01  .110E+01  .109E+01  .000E+00  .000E+00  .000E+00  .000E+00
  .000E+00  .000E+00  .000E+00  .000E+00  .000E+00  .000E+00  .000E+00  .000E+00
  .000E+00  .000E+00  .000E+00  .000E+00  .000E+00  .000E+00  .000E+00  .000E+00
  .000E+00  .000E+00  .000E+00  .000E+00
  .598E-01  .986E-01  .768E-01  .513E-01  .925E-01  .924E-01  .102E+00  .714E-01
  .109E+00  .876E-01  .902E-01  .135E+00  .255E+00  .125E+00  .145E+00  .175E+00
  .181E+00  .207E+00  .220E+00  .299E+00  .218E+00  .222E+00  .146E+00  .202E+00
  .186E+00  .225E+00  .170E+00  .236E+00  .526E+00  .628E+00  .286E+00  .296E+00
  .250E+00  .347E+00  .162E+00  .127E+00  .133E+00  .123E+00  .103E+00  .105E+00
  .110E+00  .968E-01  .108E+00  .237E+00  .119E+00  .726E-01  .916E-01  .908E-01
  .335E-01  .509E-01  .599E-01  .196E-01  .232E-01  .145E-01  .316E-01  .171E-01
  .176E-01  .142E-01  .146E-01  .607E-02  .167E-01  .709E-02  .740E-02  .421E-02
  .477E-02  .324E-02  .243E-02  .158E-02  .157E-02  .130E-02  .891E-03  .801E-03
  .725E-03  .656E-03  .592E-03  .537E-03  .000E+00  .000E+00  .000E+00  .000E+00
  .000E+00  .000E+00  .000E+00  .000E+00  .000E+00  .000E+00  .000E+00  .000E+00
  .000E+00  .000E+00  .000E+00  .000E+00  .000E+00  .000E+00  .000E+00  .000E+00
  .000E+00  .000E+00  .000E+00  .000E+00
  .147E+00  .254E+00  .208E+00  .145E+00  .273E+00  .284E+00  .346E+00  .263E+00
  .434E+00  .377E+00  .415E+00  .665E+00  .133E+01  .690E+00  .845E+00  .108E+01
  .122E+01  .153E+01  .176E+01  .257E+01  .200E+01  .218E+01  .153E+01  .223E+01
  .217E+01  .276E+01  .230E+01  .348E+01  .841E+01  .108E+02  .526E+01  .583E+01
  .522E+01  .767E+01  .378E+01  .312E+01  .343E+01  .333E+01  .290E+01  .309E+01
  .337E+01  .327E+01  .399E+01  .946E+01  .511E+01  .334E+01  .450E+01  .474E+01
  .185E+01  .297E+01  .368E+01  .133E+01  .171E+01  .116E+01  .271E+01  .158E+01
  .173E+01  .149E+01  .161E+01  .708E+00  .205E+01  .958E+00  .109E+01  .672E+00
  .820E+00  .598E+00  .478E+00  .330E+00  .347E+00  .303E+00  .219E+00  .207E+00
  .196E+00  .185E+00  .175E+00  .165E+00  .000E+00  .000E+00  .000E+00  .000E+00
  .000E+00  .000E+00  .000E+00  .000E+00  .000E+00  .000E+00  .000E+00  .000E+00
  .000E+00  .000E+00  .000E+00  .000E+00  .000E+00  .000E+00  .000E+00  .000E+00
  .000E+00  .000E+00  .000E+00  .000E+00
  .312E+02  .313E+02  .312E+02  .312E+02  .313E+02  .311E+02  .323E+02  .367E+02
  .864E+02  .458E+02  .313E+02  .451E+02  .387E+02  .317E+02  .355E+02  .329E+02
  .459E+02  .404E+02  .313E+02  .471E+02  .553E+02  .311E+02  .312E+02  .311E+02
  .355E+02  .355E+02  .644E+02  .337E+02  .789E+02  .396E+02  .318E+02  .760E+02
  .333E+02  .564E+02  .347E+02  .314E+02  .856E+02  .315E+02  .936E+02  .315E+02
  .405E+02  .360E+02  .340E+02  .833E+02  .827E+02  .576E+02  .105E+03  .920E+02
  .103E+03  .889E+02  .724E+02  .563E+02  .757E+02  .105E+03  .801E+02  .103E+03
  .517E+02  .832E+02  .622E+02  .338E+02  .895E+02  .879E+02  .546E+02  .900E+02
  .744E+02  .745E+02  .608E+02  .391E+02  .723E+02  .851E+02  .311E+02  .311E+02
  .311E+02  .311E+02  .311E+02  .311E+02  .000E+00  .000E+00  .000E+00  .000E+00
  .000E+00  .000E+00  .000E+00  .000E+00  .000E+00  .000E+00  .000E+00  .000E+00
  .000E+00  .000E+00  .000E+00  .000E+00  .000E+00  .000E+00  .000E+00  .000E+00
  .000E+00  .000E+00  .000E+00  .000E+00
  .950E+02  .366E+02  .314E+02  .286E+02  .358E+02  .912E+02  .330E+02  .372E+02
  .839E+02  .101E+03  .469E+02  .451E+02  .388E+02  .324E+02  .354E+02  .330E+02
  .492E+02  .400E+02  .313E+02  .490E+02  .555E+02  .312E+02  .312E+02  .439E+02
  .355E+02  .434E+02  .644E+02  .337E+02  .790E+02  .397E+02  .319E+02  .761E+02
  .332E+02  .565E+02  .348E+02  .315E+02  .851E+02  .314E+02  .935E+02  .314E+02
  .404E+02  .334E+02  .329E+02  .834E+02  .868E+02  .578E+02  .383E+02  .103E+03
  .423E+02  .887E+02  .732E+02  .312E+02  .555E+02  .312E+02  .798E+02  .312E+02
  .312E+02  .312E+02  .573E+02  .312E+02  .899E+02  .312E+02  .312E+02  .312E+02
  .312E+02  .312E+02  .312E+02  .312E+02  .312E+02  .312E+02  .312E+02  .312E+02
  .312E+02  .312E+02  .312E+02  .312E+02  .000E+00  .000E+00  .000E+00  .000E+00
  .000E+00  .000E+00  .000E+00  .000E+00  .000E+00  .000E+00  .000E+00  .000E+00
  .000E+00  .000E+00  .000E+00  .000E+00  .000E+00  .000E+00  .000E+00  .000E+00
  .000E+00  .000E+00  .000E+00  .000E+00
  .312E+02  .313E+02  .312E+02  .312E+02  .313E+02  .311E+02  .323E+02  .367E+02
  .864E+02  .458E+02  .313E+02  .451E+02  .387E+02  .317E+02  .355E+02  .329E+02
  .459E+02  .404E+02  .313E+02  .471E+02  .553E+02  .311E+02  .312E+02  .311E+02
  .355E+02  .355E+02  .644E+02  .337E+02  .789E+02  .396E+02  .318E+02  .760E+02
  .333E+02  .564E+02  .347E+02  .314E+02  .856E+02  .315E+02  .936E+02  .315E+02
  .405E+02  .360E+02  .340E+02  .833E+02  .827E+02  .576E+02  .105E+03  .920E+02
  .103E+03  .889E+02  .724E+02  .563E+02  .757E+02  .105E+03  .801E+02  .103E+03
  .517E+02  .832E+02  .622E+02  .338E+02  .895E+02  .879E+02  .546E+02  .900E+02
  .744E+02  .745E+02  .608E+02  .391E+02  .723E+02  .851E+02  .311E+02  .311E+02
  .311E+02  .311E+02  .311E+02  .311E+02  .000E+00  .000E+00  .000E+00  .000E+00
  .000E+00  .000E+00  .000E+00  .000E+00  .000E+00  .000E+00  .000E+00  .000E+00
  .000E+00  .000E+00  .000E+00  .000E+00  .000E+00  .000E+00  .000E+00  .000E+00
  .000E+00  .000E+00  .000E+00  .000E+00
Damping =  .02. Data of Sd,Sv,Sa,Pssv,ttSd,ttSv,ttSa :
  .753E-03  .840E-03  .988E-03  .117E-02  .124E-02  .135E-02  .167E-02  .191E-02
  .230E-02  .300E-02  .400E-02  .603E-02  .839E-02  .104E-01  .103E-01  .935E-02
  .100E-01  .134E-01  .136E-01  .150E-01  .223E-01  .230E-01  .266E-01  .310E-01
  .323E-01  .414E-01  .543E-01  .840E-01  .150E+00  .183E+00  .193E+00  .191E+00
  .179E+00  .187E+00  .166E+00  .182E+00  .194E+00  .198E+00  .180E+00  .194E+00
  .191E+00  .236E+00  .301E+00  .354E+00  .290E+00  .283E+00  .344E+00  .230E+00
  .171E+00  .208E+00  .226E+00  .180E+00  .165E+00  .198E+00  .278E+00  .285E+00
  .248E+00  .249E+00  .220E+00  .190E+00  .252E+00  .228E+00  .255E+00  .191E+00
  .210E+00  .193E+00  .171E+00  .156E+00  .141E+00  .140E+00  .139E+00  .138E+00
  .137E+00  .135E+00  .133E+00  .131E+00  .000E+00  .000E+00  .000E+00  .000E+00
  .000E+00  .000E+00  .000E+00  .000E+00  .000E+00  .000E+00  .000E+00  .000E+00
  .000E+00  .000E+00  .000E+00  .000E+00  .000E+00  .000E+00  .000E+00  .000E+00
  .000E+00  .000E+00  .000E+00  .000E+00
  .270E-01  .300E-01  .371E-01  .455E-01  .505E-01  .558E-01  .108E+00  .120E+00
  .116E+00  .177E+00  .233E+00  .392E+00  .511E+00  .582E+00  .489E+00  .525E+00
  .535E+00  .668E+00  .563E+00  .548E+00  .874E+00  .770E+00  .771E+00  .726E+00
  .996E+00  .127E+01  .138E+01  .216E+01  .352E+01  .397E+01  .410E+01  .371E+01
  .326E+01  .343E+01  .273E+01  .282E+01  .299E+01  .305E+01  .278E+01  .290E+01
  .268E+01  .266E+01  .300E+01  .379E+01  .278E+01  .261E+01  .276E+01  .212E+01
  .181E+01  .172E+01  .183E+01  .176E+01  .144E+01  .137E+01  .142E+01  .163E+01
  .176E+01  .169E+01  .151E+01  .136E+01  .129E+01  .130E+01  .129E+01  .123E+01
  .118E+01  .115E+01  .114E+01  .113E+01  .113E+01  .112E+01  .112E+01  .111E+01
  .111E+01  .110E+01  .110E+01  .110E+01  .000E+00  .000E+00  .000E+00  .000E+00
  .000E+00  .000E+00  .000E+00  .000E+00  .000E+00  .000E+00  .000E+00  .000E+00
  .000E+00  .000E+00  .000E+00  .000E+00  .000E+00  .000E+00  .000E+00  .000E+00
  .000E+00  .000E+00  .000E+00  .000E+00
  .481E-01  .487E-01  .522E-01  .564E-01  .552E-01  .551E-01  .566E-01  .543E-01
  .557E-01  .628E-01  .728E-01  .967E-01  .119E+00  .132E+00  .117E+00  .960E-01
  .846E-01  .949E-01  .817E-01  .785E-01  .102E+00  .920E-01  .946E-01  .974E-01
  .915E-01  .106E+00  .115E+00  .150E+00  .226E+00  .239E+00  .219E+00  .191E+00
  .158E+00  .148E+00  .118E+00  .117E+00  .113E+00  .104E+00  .875E-01  .859E-01
  .782E-01  .797E-01  .857E-01  .857E-01  .605E-01  .516E-01  .549E-01  .327E-01
  .217E-01  .236E-01  .232E-01  .152E-01  .117E-01  .120E-01  .145E-01  .129E-01
  .991E-02  .883E-02  .694E-02  .541E-02  .644E-02  .483E-02  .453E-02  .289E-02
  .274E-02  .219E-02  .171E-02  .138E-02  .115E-02  .103E-02  .924E-03  .835E-03
  .758E-03  .690E-03  .628E-03  .573E-03  .000E+00  .000E+00  .000E+00  .000E+00
  .000E+00  .000E+00  .000E+00  .000E+00  .000E+00  .000E+00  .000E+00  .000E+00
  .000E+00  .000E+00  .000E+00  .000E+00  .000E+00  .000E+00  .000E+00  .000E+00
  .000E+00  .000E+00  .000E+00  .000E+00
  .118E+00  .126E+00  .141E+00  .160E+00  .163E+00  .169E+00  .191E+00  .200E+00
  .223E+00  .269E+00  .335E+00  .473E+00  .620E+00  .724E+00  .679E+00  .587E+00
  .571E+00  .704E+00  .655E+00  .672E+00  .936E+00  .902E+00  .984E+00  .108E+01
  .107E+01  .130E+01  .155E+01  .220E+01  .362E+01  .410E+01  .404E+01  .375E+01
  .331E+01  .326E+01  .275E+01  .287E+01  .290E+01  .282E+01  .247E+01  .254E+01
  .240E+01  .269E+01  .315E+01  .342E+01  .260E+01  .237E+01  .270E+01  .170E+01
  .120E+01  .137E+01  .142E+01  .103E+01  .862E+00  .956E+00  .125E+01  .119E+01
  .973E+00  .921E+00  .767E+00  .629E+00  .791E+00  .653E+00  .667E+00  .462E+00
  .471E+00  .404E+00  .336E+00  .287E+00  .247E+00  .232E+00  .218E+00  .206E+00
  .195E+00  .185E+00  .175E+00  .165E+00  .000E+00  .000E+00  .000E+00  .000E+00
  .000E+00  .000E+00  .000E+00  .000E+00  .000E+00  .000E+00  .000E+00  .000E+00
  .000E+00  .000E+00  .000E+00  .000E+00  .000E+00  .000E+00  .000E+00  .000E+00
  .000E+00  .000E+00  .000E+00  .000E+00
  .313E+02  .311E+02  .313E+02  .313E+02  .313E+02  .311E+02  .317E+02  .311E+02
  .311E+02  .315E+02  .315E+02  .315E+02  .317E+02  .317E+02  .317E+02  .321E+02
  .322E+02  .324E+02  .313E+02  .313E+02  .317E+02  .317E+02  .311E+02  .312E+02
  .322E+02  .322E+02  .316E+02  .316E+02  .325E+02  .318E+02  .318E+02  .318E+02
  .331E+02  .331E+02  .314E+02  .314E+02  .314E+02  .314E+02  .315E+02  .315E+02
  .318E+02  .321E+02  .322E+02  .323E+02  .327E+02  .320E+02  .357E+02  .354E+02
  .425E+02  .471E+02  .584E+02  .562E+02  .346E+02  .561E+02  .703E+02  .588E+02
  .358E+02  .343E+02  .576E+02  .338E+02  .577E+02  .419E+02  .546E+02  .512E+02
  .479E+02  .471E+02  .403E+02  .391E+02  .311E+02  .311E+02  .311E+02  .311E+02
  .311E+02  .311E+02  .311E+02  .311E+02  .000E+00  .000E+00  .000E+00  .000E+00
  .000E+00  .000E+00  .000E+00  .000E+00  .000E+00  .000E+00  .000E+00  .000E+00
  .000E+00  .000E+00  .000E+00  .000E+00  .000E+00  .000E+00  .000E+00  .000E+00
  .000E+00  .000E+00  .000E+00  .000E+00
  .313E+02  .313E+02  .313E+02  .312E+02  .314E+02  .315E+02  .316E+02  .317E+02
  .320E+02  .315E+02  .315E+02  .317E+02  .317E+02  .317E+02  .317E+02  .321E+02
  .320E+02  .324E+02  .269E+02  .368E+02  .324E+02  .318E+02  .261E+02  .312E+02
  .322E+02  .322E+02  .315E+02  .323E+02  .325E+02  .318E+02  .319E+02  .319E+02
  .332E+02  .331E+02  .315E+02  .313E+02  .313E+02  .313E+02  .314E+02  .314E+02
  .314E+02  .323E+02  .323E+02  .321E+02  .325E+02  .326E+02  .359E+02  .356E+02
  .312E+02  .312E+02  .312E+02  .312E+02  .312E+02  .312E+02  .312E+02  .312E+02
  .312E+02  .312E+02  .312E+02  .312E+02  .312E+02  .312E+02  .312E+02  .312E+02
  .312E+02  .312E+02  .312E+02  .312E+02  .312E+02  .312E+02  .312E+02  .312E+02
  .312E+02  .312E+02  .312E+02  .312E+02  .000E+00  .000E+00  .000E+00  .000E+00
  .000E+00  .000E+00  .000E+00  .000E+00  .000E+00  .000E+00  .000E+00  .000E+00
  .000E+00  .000E+00  .000E+00  .000E+00  .000E+00  .000E+00  .000E+00  .000E+00
  .000E+00  .000E+00  .000E+00  .000E+00
  .313E+02  .311E+02  .313E+02  .313E+02  .313E+02  .311E+02  .317E+02  .311E+02
  .311E+02  .315E+02  .315E+02  .315E+02  .317E+02  .317E+02  .317E+02  .321E+02
  .322E+02  .324E+02  .313E+02  .313E+02  .317E+02  .317E+02  .311E+02  .312E+02
  .322E+02  .322E+02  .316E+02  .322E+02  .325E+02  .318E+02  .318E+02  .318E+02
  .331E+02  .331E+02  .314E+02  .314E+02  .314E+02  .314E+02  .315E+02  .315E+02
  .318E+02  .321E+02  .322E+02  .323E+02  .327E+02  .320E+02  .357E+02  .354E+02
  .425E+02  .471E+02  .584E+02  .562E+02  .346E+02  .561E+02  .703E+02  .588E+02
  .357E+02  .343E+02  .576E+02  .338E+02  .576E+02  .419E+02  .546E+02  .511E+02
  .479E+02  .470E+02  .403E+02  .391E+02  .311E+02  .311E+02  .311E+02  .311E+02
  .311E+02  .311E+02  .311E+02  .311E+02  .000E+00  .000E+00  .000E+00  .000E+00
  .000E+00  .000E+00  .000E+00  .000E+00  .000E+00  .000E+00  .000E+00  .000E+00
  .000E+00  .000E+00  .000E+00  .000E+00  .000E+00  .000E+00  .000E+00  .000E+00
  .000E+00  .000E+00  .000E+00  .000E+00
Damping =  .05. Data of Sd,Sv,Sa,Pssv,ttSd,ttSv,ttSa :
  .741E-03  .830E-03  .953E-03  .107E-02  .118E-02  .127E-02  .152E-02  .173E-02
