Response and Fourier amplitude spectra (80 periods,  .04 -  7.0 sec)   for      
Corrected accelerogram   23631-E0779-08212.02       Chan  1:  Long       from   
Uncorrected Accelerogram Data             Processed: 02/09/09, CGS  CE23631     
Record of Tue Jul 29, 2008 11:42:08.9 PDT             (Avol1 v8.5,11/08 CSMIP)  
CSMIP Preliminary Processing            (Origin:  To be determined)             
23631-E0779-08212.02                 Start time:  7/29/08, 18:42: 8.9 UTC (WWVB)
Station No. 23631   34.064N, 117.296W     SSA-1  s/n  779  (4 Chns of 36 at Sta)
San Bernardino - I10/215 Interchange Br   CGS                                   
Chan  1:  Long    (Sta Chn: 17)     Location: Hinge Near Bent 8                 
Record of Tue Jul 29, 2008 11:42:08.9 PDT    Tue Jul 29, 2008 11:42:08.9 PDT    
Hypocenter:  To be determined.               ML:  To be determined.             
Instr Period =  .0196 sec,  Damping =  .670,  Sensitivity = 1.25  v/g           
                        Record length = 78.080 sec.                             
                                     Uncor Max  =   .053 g , at  21.945 sec.    
RMS accel of (uncor) record  =        .   Chn. metadata effective date: 01/10/92
Accelerogram bandpass filtered with 3 dB pts at   .14 and 40.00 cyc/sec         
                 instrument- and baseline-corrected                             
                                                                                
                                                                                
                                                                                
                                                                                
                                                                                
Record of Tue Jul 29, 2008 11:42:08.9 PDT    Tue Jul 29, 2008 11:42:08.9 PDT    
                                                                                
23631-E0779-08212.02      San Bernardino - I10/215 Interchange Br   Chan  1:  Lo
ng                                                                              
23631-E0779-08212.02      San Bernardino - I10/215 Interchange Br   Chan  1:  Lo
ng                                                                              
Units for spectra are inches and sec, except Sa is in fraction of g.            
                                                                                
    1  100   17    4   36  200    1    3    1   12    5  779    023631    3    0
   18   42    8  935  211    7   29 2008   10    1  80015616   41   39   76   -1
15616    0  100    3 2117    1    2   61    2   18   42   38  140    7   29 2008
    0    2    0    0 7808    2  222    1   12    4   76   39    3    1    0 7808
    3 7808   40   80    5    4    5    0    1    0   36    0    0    3    0    2
    2    2    4    0   66   99    1   32   32    0    0    1   16    0    8  222
    1    0    0    0
      .020      .670    78.080      .005      .000  1249.000      .053    21.945
    51.100  1220.703   977.344      .000     5.000      .000      .000      .000
     2.500     9.290     2.500  -999.000    15.360    30.000      .000      .043
     -.052     -.096     2.000    15.000    34.064  -117.296      .560     1.910
     3.411     -.211      .019   297.000      .000      .000      .000      .000
     1.000     2.047     7.000      .000      .000      .000      .000      .000
     6.800     8.500     5.200   980.665      .010    78.080     8.133      .000
      .000    40.000      .000    78.080      .010      .143      .000      .000
    21.940    52.623    21.770    -3.158    22.740     -.460      .001      .143
    40.000      .010      .010      .002      .010      .241      .000      .000
      .126      .140      .076      .062      .042      .003      .000      .000
      .000      .000      .000      .000      .000      .000      .000      .000
      .000      .000      .000      .000
      .000      .020      .050      .100      .200
      .040      .042      .044      .046      .048      .050      .055      .060
      .065      .070      .075      .080      .085      .090      .095      .100
      .110      .120      .130      .140      .150      .160      .170      .180
      .190      .200      .220      .240      .260      .280      .300      .320
      .340      .360      .380      .400      .420      .440      .460      .480
      .500      .550      .600      .650      .700      .750      .800      .850
      .900      .950     1.000     1.100     1.200     1.300     1.400     1.500
     1.600     1.700     1.800     1.900     2.000     2.200     2.400     2.600
     2.800     3.000     3.200     3.400     3.600     3.800     4.000     4.200
     4.400     4.600     4.800     5.000     5.500     6.000     6.500     7.000
      .000      .000      .000      .000      .000      .000      .000      .000
      .000      .000      .000      .000      .000      .000      .000      .000
      .000      .000      .000      .000
Fourier amplitude spectra in in/sec.
  .265E+00  .131E+00  .223E+00  .190E+00  .529E+00  .502E+00  .128E+00  .736E+00
  .218E+00  .840E+00  .816E-01  .100E+01  .150E+01  .833E+00  .362E+00  .105E+01
  .847E+00  .658E+00  .314E+01  .250E+01  .157E+01  .325E+01  .102E+01  .260E+01
  .487E+01  .265E+01  .357E+01  .119E+01  .718E+00  .436E+00  .340E+01  .146E+01
  .188E+01  .548E+01  .280E+01  .846E+00  .477E+00  .251E+01  .461E+01  .360E+01
  .588E+01  .336E+01  .350E+01  .180E+01  .133E+02  .934E+01  .143E+01  .536E+01
  .468E+01  .190E+01  .582E+01  .995E+01  .341E+01  .140E+01  .231E+01  .323E+01
  .149E+01  .212E+01  .206E+01  .473E+00  .146E+01  .139E+01  .197E+01  .137E+00
  .433E+00  .862E+00  .232E+00  .805E-01  .628E+00  .559E+00  .610E-01  .325E-01
  .731E-01  .137E+00  .550E-01  .909E-01  .698E-01  .744E-01  .660E-01  .117E+00
  .000E+00  .000E+00  .000E+00  .000E+00  .000E+00  .000E+00  .000E+00  .000E+00
  .000E+00  .000E+00  .000E+00  .000E+00  .000E+00  .000E+00  .000E+00  .000E+00
  .000E+00  .000E+00  .000E+00  .000E+00
Damping =  .00. Data of Sd,Sv,Sa,Pssv,ttSd,ttSv,ttSa :
  .257E-02  .171E-02  .226E-02  .356E-02  .489E-02  .602E-02  .398E-02  .866E-02
  .468E-02  .107E-01  .108E-01  .174E-01  .246E-01  .224E-01  .123E-01  .185E-01
  .150E-01  .320E-01  .772E-01  .784E-01  .634E-01  .861E-01  .668E-01  .740E-01
  .167E+00  .102E+00  .163E+00  .114E+00  .776E-01  .800E-01  .168E+00  .130E+00
  .165E+00  .314E+00  .258E+00  .156E+00  .152E+00  .282E+00  .370E+00  .375E+00
  .482E+00  .452E+00  .692E+00  .106E+01  .161E+01  .113E+01  .895E+00  .964E+00
  .102E+01  .856E+00  .124E+01  .185E+01  .118E+01  .868E+00  .725E+00  .925E+00
  .548E+00  .573E+00  .684E+00  .389E+00  .534E+00  .488E+00  .783E+00  .352E+00
  .347E+00  .496E+00  .271E+00  .280E+00  .451E+00  .411E+00  .226E+00  .204E+00
  .191E+00  .191E+00  .180E+00  .166E+00  .195E+00  .192E+00  .167E+00  .191E+00
  .000E+00  .000E+00  .000E+00  .000E+00  .000E+00  .000E+00  .000E+00  .000E+00
  .000E+00  .000E+00  .000E+00  .000E+00  .000E+00  .000E+00  .000E+00  .000E+00
  .000E+00  .000E+00  .000E+00  .000E+00
  .359E+00  .219E+00  .283E+00  .393E+00  .630E+00  .720E+00  .403E+00  .853E+00
  .376E+00  .899E+00  .798E+00  .126E+01  .172E+01  .146E+01  .754E+00  .106E+01
  .846E+00  .161E+01  .373E+01  .347E+01  .245E+01  .333E+01  .247E+01  .261E+01
  .549E+01  .316E+01  .464E+01  .290E+01  .181E+01  .159E+01  .347E+01  .252E+01
  .308E+01  .548E+01  .417E+01  .244E+01  .230E+01  .396E+01  .498E+01  .485E+01
  .602E+01  .513E+01  .714E+01  .100E+02  .147E+02  .948E+01  .722E+01  .742E+01
  .724E+01  .580E+01  .773E+01  .105E+02  .629E+01  .431E+01  .337E+01  .393E+01
  .247E+01  .220E+01  .269E+01  .209E+01  .193E+01  .183E+01  .222E+01  .170E+01
  .149E+01  .139E+01  .135E+01  .136E+01  .134E+01  .133E+01  .132E+01  .130E+01
  .128E+01  .124E+01  .120E+01  .121E+01  .125E+01  .126E+01  .124E+01  .123E+01
  .000E+00  .000E+00  .000E+00  .000E+00  .000E+00  .000E+00  .000E+00  .000E+00
  .000E+00  .000E+00  .000E+00  .000E+00  .000E+00  .000E+00  .000E+00  .000E+00
  .000E+00  .000E+00  .000E+00  .000E+00
  .164E+00  .989E-01  .120E+00  .172E+00  .217E+00  .246E+00  .135E+00  .246E+00
  .113E+00  .222E+00  .196E+00  .278E+00  .348E+00  .282E+00  .140E+00  .189E+00
  .127E+00  .227E+00  .467E+00  .409E+00  .288E+00  .344E+00  .236E+00  .234E+00
  .472E+00  .260E+00  .345E+00  .202E+00  .117E+00  .104E+00  .191E+00  .130E+00
  .146E+00  .248E+00  .183E+00  .100E+00  .879E-01  .149E+00  .179E+00  .166E+00
  .197E+00  .153E+00  .197E+00  .256E+00  .337E+00  .206E+00  .143E+00  .137E+00
  .129E+00  .970E-01  .127E+00  .156E+00  .835E-01  .525E-01  .379E-01  .420E-01
  .219E-01  .203E-01  .216E-01  .110E-01  .137E-01  .103E-01  .139E-01  .533E-02
  .452E-02  .564E-02  .270E-02  .248E-02  .356E-02  .291E-02  .144E-02  .118E-02
  .101E-02  .922E-03  .801E-03  .677E-03  .660E-03  .545E-03  .405E-03  .400E-03
  .000E+00  .000E+00  .000E+00  .000E+00  .000E+00  .000E+00  .000E+00  .000E+00
  .000E+00  .000E+00  .000E+00  .000E+00  .000E+00  .000E+00  .000E+00  .000E+00
  .000E+00  .000E+00  .000E+00  .000E+00
  .404E+00  .255E+00  .323E+00  .486E+00  .640E+00  .757E+00  .455E+00  .906E+00
  .452E+00  .956E+00  .902E+00  .137E+01  .182E+01  .156E+01  .814E+00  .116E+01
  .856E+00  .167E+01  .373E+01  .352E+01  .266E+01  .338E+01  .247E+01  .258E+01
  .551E+01  .319E+01  .466E+01  .297E+01  .188E+01  .179E+01  .353E+01  .255E+01
  .305E+01  .549E+01  .426E+01  .246E+01  .227E+01  .402E+01  .506E+01  .491E+01
  .606E+01  .516E+01  .725E+01  .102E+02  .145E+02  .949E+01  .703E+01  .713E+01
  .715E+01  .566E+01  .778E+01  .106E+02  .616E+01  .419E+01  .326E+01  .387E+01
  .215E+01  .212E+01  .239E+01  .129E+01  .168E+01  .139E+01  .205E+01  .851E+00
  .778E+00  .104E+01  .532E+00  .518E+00  .787E+00  .680E+00  .355E+00  .305E+00
  .273E+00  .261E+00  .236E+00  .208E+00  .223E+00  .201E+00  .162E+00  .172E+00
  .000E+00  .000E+00  .000E+00  .000E+00  .000E+00  .000E+00  .000E+00  .000E+00
  .000E+00  .000E+00  .000E+00  .000E+00  .000E+00  .000E+00  .000E+00  .000E+00
  .000E+00  .000E+00  .000E+00  .000E+00
  .254E+02  .243E+02  .239E+02  .218E+02  .650E+02  .220E+02  .237E+02  .233E+02
  .228E+02  .295E+02  .219E+02  .223E+02  .230E+02  .228E+02  .218E+02  .260E+02
  .742E+02  .243E+02  .326E+02  .237E+02  .223E+02  .403E+02  .279E+02  .767E+02
  .486E+02  .418E+02  .296E+02  .281E+02  .267E+02  .219E+02  .745E+02  .313E+02
  .253E+02  .767E+02  .369E+02  .403E+02  .228E+02  .480E+02  .266E+02  .462E+02
  .741E+02  .410E+02  .451E+02  .271E+02  .375E+02  .716E+02  .281E+02  .259E+02
  .285E+02  .278E+02  .570E+02  .733E+02  .554E+02  .603E+02  .369E+02  .723E+02
  .267E+02  .780E+02  .445E+02  .588E+02  .734E+02  .784E+02  .583E+02  .227E+02
  .227E+02  .635E+02  .227E+02  .296E+02  .627E+02  .568E+02  .227E+02  .227E+02
  .216E+02  .223E+02  .223E+02  .568E+02  .227E+02  .227E+02  .227E+02  .537E+02
  .000E+00  .000E+00  .000E+00  .000E+00  .000E+00  .000E+00  .000E+00  .000E+00
  .000E+00  .000E+00  .000E+00  .000E+00  .000E+00  .000E+00  .000E+00  .000E+00
  .000E+00  .000E+00  .000E+00  .000E+00
  .265E+02  .241E+02  .238E+02  .218E+02  .651E+02  .222E+02  .237E+02  .233E+02
  .222E+02  .294E+02  .220E+02  .223E+02  .306E+02  .226E+02  .218E+02  .259E+02
  .767E+02  .240E+02  .323E+02  .238E+02  .224E+02  .398E+02  .279E+02  .765E+02
  .485E+02  .418E+02  .301E+02  .280E+02  .306E+02  .261E+02  .746E+02  .312E+02
  .252E+02  .768E+02  .361E+02  .404E+02  .229E+02  .481E+02  .264E+02  .461E+02
  .740E+02  .409E+02  .453E+02  .272E+02  .310E+02  .718E+02  .279E+02  .261E+02
  .283E+02  .319E+02  .573E+02  .736E+02  .551E+02  .613E+02  .372E+02  .719E+02
  .263E+02  .243E+02  .450E+02  .230E+02  .230E+02  .230E+02  .578E+02  .230E+02
  .230E+02  .225E+02  .218E+02  .218E+02  .225E+02  .225E+02  .225E+02  .225E+02
  .225E+02  .225E+02  .218E+02  .218E+02  .218E+02  .218E+02  .218E+02  .218E+02
  .000E+00  .000E+00  .000E+00  .000E+00  .000E+00  .000E+00  .000E+00  .000E+00
  .000E+00  .000E+00  .000E+00  .000E+00  .000E+00  .000E+00  .000E+00  .000E+00
  .000E+00  .000E+00  .000E+00  .000E+00
  .254E+02  .243E+02  .239E+02  .218E+02  .650E+02  .220E+02  .237E+02  .233E+02
  .228E+02  .295E+02  .219E+02  .223E+02  .230E+02  .228E+02  .218E+02  .260E+02
  .742E+02  .243E+02  .326E+02  .237E+02  .223E+02  .403E+02  .279E+02  .767E+02
  .486E+02  .418E+02  .296E+02  .281E+02  .267E+02  .219E+02  .745E+02  .313E+02
  .253E+02  .767E+02  .369E+02  .403E+02  .228E+02  .480E+02  .266E+02  .462E+02
  .741E+02  .410E+02  .451E+02  .271E+02  .375E+02  .716E+02  .281E+02  .259E+02
  .285E+02  .278E+02  .570E+02  .733E+02  .554E+02  .603E+02  .369E+02  .723E+02
  .267E+02  .780E+02  .445E+02  .588E+02  .734E+02  .784E+02  .583E+02  .227E+02
  .227E+02  .635E+02  .227E+02  .296E+02  .627E+02  .568E+02  .227E+02  .227E+02
  .216E+02  .223E+02  .223E+02  .568E+02  .227E+02  .227E+02  .227E+02  .537E+02
  .000E+00  .000E+00  .000E+00  .000E+00  .000E+00  .000E+00  .000E+00  .000E+00
  .000E+00  .000E+00  .000E+00  .000E+00  .000E+00  .000E+00  .000E+00  .000E+00
  .000E+00  .000E+00  .000E+00  .000E+00
Damping =  .02. Data of Sd,Sv,Sa,Pssv,ttSd,ttSv,ttSa :
  .158E-02  .159E-02  .179E-02  .223E-02  .233E-02  .293E-02  .293E-02  .364E-02
  .391E-02  .624E-02  .771E-02  .982E-02  .987E-02  .111E-01  .874E-02  .868E-02
  .123E-01  .207E-01  .290E-01  .353E-01  .364E-01  .310E-01  .396E-01  .407E-01
  .389E-01  .409E-01  .567E-01  .511E-01  .447E-01  .539E-01  .694E-01  .739E-01
  .101E+00  .124E+00  .108E+00  .120E+00  .131E+00  .153E+00  .188E+00  .208E+00
  .225E+00  .286E+00  .327E+00  .670E+00  .767E+00  .837E+00  .723E+00  .752E+00
  .680E+00  .567E+00  .478E+00  .599E+00  .549E+00  .567E+00  .488E+00  .406E+00
  .444E+00  .378E+00  .379E+00  .340E+00  .317E+00  .344E+00  .380E+00  .334E+00
  .328E+00  .299E+00  .271E+00  .268E+00  .287E+00  .267E+00  .224E+00  .205E+00
  .185E+00  .180E+00  .173E+00  .169E+00  .191E+00  .189E+00  .170E+00  .167E+00
  .000E+00  .000E+00  .000E+00  .000E+00  .000E+00  .000E+00  .000E+00  .000E+00
  .000E+00  .000E+00  .000E+00  .000E+00  .000E+00  .000E+00  .000E+00  .000E+00
  .000E+00  .000E+00  .000E+00  .000E+00
  .162E+00  .141E+00  .155E+00  .195E+00  .222E+00  .286E+00  .267E+00  .304E+00
  .278E+00  .443E+00  .537E+00  .729E+00  .633E+00  .711E+00  .522E+00  .507E+00
  .632E+00  .103E+01  .136E+01  .149E+01  .142E+01  .114E+01  .124E+01  .144E+01
  .132E+01  .122E+01  .143E+01  .151E+01  .109E+01  .962E+00  .133E+01  .151E+01
  .174E+01  .195E+01  .162E+01  .166E+01  .187E+01  .194E+01  .257E+01  .256E+01
  .279E+01  .315E+01  .312E+01  .644E+01  .696E+01  .698E+01  .576E+01  .579E+01
  .499E+01  .380E+01  .312E+01  .348E+01  .291E+01  .315E+01  .252E+01  .216E+01
  .199E+01  .200E+01  .194E+01  .196E+01  .188E+01  .179E+01  .178E+01  .167E+01
  .149E+01  .138E+01  .136E+01  .136E+01  .134E+01  .132E+01  .130E+01  .129E+01
  .126E+01  .123E+01  .122E+01  .122E+01  .125E+01  .126E+01  .125E+01  .123E+01
  .000E+00  .000E+00  .000E+00  .000E+00  .000E+00  .000E+00  .000E+00  .000E+00
  .000E+00  .000E+00  .000E+00  .000E+00  .000E+00  .000E+00  .000E+00  .000E+00
  .000E+00  .000E+00  .000E+00  .000E+00
  .101E+00  .921E-01  .948E-01  .108E+00  .103E+00  .120E+00  .988E-01  .103E+00
  .943E-01  .131E+00  .141E+00  .157E+00  .140E+00  .140E+00  .991E-01  .879E-01
  .105E+00  .148E+00  .177E+00  .184E+00  .165E+00  .124E+00  .140E+00  .129E+00
  .111E+00  .105E+00  .120E+00  .908E-01  .679E-01  .702E-01  .790E-01  .738E-01
  .895E-01  .976E-01  .768E-01  .766E-01  .758E-01  .809E-01  .910E-01  .922E-01
  .923E-01  .967E-01  .931E-01  .162E+00  .160E+00  .152E+00  .116E+00  .107E+00
  .859E-01  .644E-01  .490E-01  .506E-01  .390E-01  .344E-01  .255E-01  .185E-01
  .178E-01  .134E-01  .120E-01  .966E-02  .812E-02  .728E-02  .675E-02  .508E-02
  .431E-02  .340E-02  .273E-02  .240E-02  .227E-02  .189E-02  .146E-02  .121E-02
  .100E-02  .886E-03  .782E-03  .712E-03  .667E-03  .557E-03  .432E-03  .363E-03
  .000E+00  .000E+00  .000E+00  .000E+00  .000E+00  .000E+00  .000E+00  .000E+00
  .000E+00  .000E+00  .000E+00  .000E+00  .000E+00  .000E+00  .000E+00  .000E+00
  .000E+00  .000E+00  .000E+00  .000E+00
  .248E+00  .237E+00  .256E+00  .305E+00  .305E+00  .369E+00  .335E+00  .381E+00
  .378E+00  .560E+00  .646E+00  .772E+00  .729E+00  .777E+00  .578E+00  .546E+00
  .704E+00  .109E+01  .140E+01  .158E+01  .153E+01  .122E+01  .146E+01  .142E+01
  .129E+01  .128E+01  .162E+01  .134E+01  .108E+01  .121E+01  .145E+01  .145E+01
  .187E+01  .216E+01  .179E+01  .188E+01  .196E+01  .219E+01  .257E+01  .272E+01
  .283E+01  .327E+01  .343E+01  .647E+01  .688E+01  .701E+01  .568E+01  .556E+01
  .475E+01  .375E+01  .301E+01  .342E+01  .287E+01  .274E+01  .219E+01  .170E+01
  .174E+01  .140E+01  .132E+01  .112E+01  .997E+00  .982E+00  .994E+00  .807E+00
  .737E+00  .626E+00  .532E+00  .496E+00  .500E+00  .441E+00  .352E+00  .306E+00
  .264E+00  .246E+00  .226E+00  .212E+00  .218E+00  .198E+00  .164E+00  .150E+00
  .000E+00  .000E+00  .000E+00  .000E+00  .000E+00  .000E+00  .000E+00  .000E+00
  .000E+00  .000E+00  .000E+00  .000E+00  .000E+00  .000E+00  .000E+00  .000E+00
  .000E+00  .000E+00  .000E+00  .000E+00
  .219E+02  .218E+02  .218E+02  .218E+02  .219E+02  .218E+02  .218E+02  .221E+02
  .219E+02  .219E+02  .219E+02  .223E+02  .230E+02  .221E+02  .221E+02  .221E+02
  .218E+02  .221E+02  .240E+02  .237E+02  .223E+02  .230E+02  .231E+02  .164E+02
  .174E+02  .237E+02  .244E+02  .233E+02  .228E+02  .219E+02  .267E+02  .268E+02
  .246E+02  .219E+02  .219E+02  .219E+02  .220E+02  .220E+02  .250E+02  .223E+02
  .223E+02  .223E+02  .227E+02  .271E+02  .246E+02  .233E+02  .233E+02  .234E+02
  .234E+02  .278E+02  .246E+02  .601E+02  .553E+02  .269E+02  .599E+02  .266E+02
  .581E+02  .576E+02  .231E+02  .231E+02  .734E+02  .313E+02  .438E+02  .227E+02
  .227E+02  .576E+02  .227E+02  .227E+02  .576E+02  .568E+02  .227E+02  .227E+02
  .216E+02  .223E+02  .223E+02  .227E+02  .227E+02  .227E+02  .227E+02  .223E+02
  .000E+00  .000E+00  .000E+00  .000E+00  .000E+00  .000E+00  .000E+00  .000E+00
  .000E+00  .000E+00  .000E+00  .000E+00  .000E+00  .000E+00  .000E+00  .000E+00
  .000E+00  .000E+00  .000E+00  .000E+00
  .220E+02  .218E+02  .218E+02  .218E+02  .242E+02  .221E+02  .219E+02  .221E+02
  .222E+02  .220E+02  .220E+02  .222E+02  .228E+02  .221E+02  .221E+02  .221E+02
  .218E+02  .221E+02  .240E+02  .238E+02  .221E+02  .234E+02  .231E+02  .164E+02
  .172E+02  .238E+02  .245E+02  .233E+02  .229E+02  .218E+02  .265E+02  .264E+02
  .247E+02  .218E+02  .220E+02  .220E+02  .229E+02  .229E+02  .233E+02  .221E+02
  .222E+02  .222E+02  .229E+02  .263E+02  .244E+02  .234E+02  .232E+02  .232E+02
  .232E+02  .280E+02  .248E+02  .603E+02  .550E+02  .272E+02  .268E+02  .269E+02
  .263E+02  .218E+02  .218E+02  .230E+02  .230E+02  .230E+02  .230E+02  .230E+02
  .230E+02  .218E+02  .218E+02  .218E+02  .218E+02  .218E+02  .225E+02  .225E+02
  .225E+02  .225E+02  .218E+02  .218E+02  .218E+02  .218E+02  .218E+02  .218E+02
  .000E+00  .000E+00  .000E+00  .000E+00  .000E+00  .000E+00  .000E+00  .000E+00
  .000E+00  .000E+00  .000E+00  .000E+00  .000E+00  .000E+00  .000E+00  .000E+00
  .000E+00  .000E+00  .000E+00  .000E+00
  .219E+02  .218E+02  .218E+02  .218E+02  .219E+02  .218E+02  .218E+02  .221E+02
  .219E+02  .219E+02  .219E+02  .223E+02  .230E+02  .221E+02  .221E+02  .221E+02
  .218E+02  .221E+02  .240E+02  .237E+02  .223E+02  .230E+02  .231E+02  .164E+02
  .174E+02  .237E+02  .244E+02  .233E+02  .228E+02  .219E+02  .267E+02  .268E+02
