Response and Fourier amplitude spectra (76 periods,  .04 -  5.0 sec)   for      
Corrected accelerogram   23792-K1341-08217.20       Chan 11:  Up         from   
Uncorrected Accelerogram Data             Processed: 10/01/08, CDMG  AQ020      
Record of Tue Jul 29, 2008 11:41:59.0 PDT             (Avol1 v8.1 9/08 CSMIP)   
CSMIP Preliminary Processing            (Origin:  To be determined)             
23792-K1341-08217.20                 Start time:  7/29/08, 18:41:59.0 UTC (GPS) 
Station No. 23792   34.064N, 117.294W        K2  s/n 1341 (12 Channels)         
San Bernardino - I10/215 W Geotech Array  CGS                                   
Chan 11:  Up                        Location: 92.1m (302ft) Depth               
Record of Tue Jul 29, 2008 11:41:59.0 PDT    Tue Jul 29, 2008 11:41:59.0 PDT    
Hypocenter:  To be determined.               ML:  To be determined.
Instr Period =  .0198 sec,  Damping =  .650,  Sensitivity = 1.25  v/g
                        Record length =109.000 sec.
                                     Uncor Max  =   .008 g , at  32.185 sec.
RMS accel of (uncor) record  =        .   Chn. metadata effective date: 05/16/08
Accelerogram bandpass filtered with 3 dB pts at   .30 and 40.00 cyc/sec
                 instrument- and baseline-corrected





Record of Tue Jul 29, 2008 11:41:59.0 PDT    Tue Jul 29, 2008 11:41:59.0 PDT

23792-K1341-08217.20      San Bernardino - I10/215 W Geotech Array  CGChan 11:
Up
23792-K1341-08217.20      San Bernardino - I10/215 W Geotech Array  CGChan 11:
Up
Units for spectra are inches and sec, except Sa is in fraction of g.

   11  100   11   12   12  200    1    3    1   24   11 1341    023792    4    0
   18   41   59    0  211    7   29 2008   10    3  50021800   41   40   76   -1
21800    0   50    3 1341    1   20 1090    2    0    0    0    0    0    0    0
    0    2    0    010900    2  222    0   18    7   76   40    1    1    010900
    310900   41   76    5   12    5    0    0    0   12    0    0    3    0    2
    2    2    4    1   65   99    0   32   32    0    0    1    0    0    0  222
    1    0   22    0
      .020      .650   109.000      .001      .000  1252.000      .008    32.185
    50.400      .298      .238      .000     5.000      .000     3.987      .000
     2.500    -2.092     2.500  -999.000    25.000    30.000      .000     -.001
     -.002      .000     2.000    15.000    34.064  -117.294      .019      .936
    50.115     -.044      .044   298.000    25.000    78.400    13.100   109.940
     1.000     1.264      .000      .000      .000      .000      .000      .000
     4.600     8.100     5.000   980.665      .010   109.000     8.021      .001
      .000    40.000      .000   109.000      .010      .300      .000      .000
    31.300     7.900    32.200      .640    32.080     -.125      .000      .300
    40.000      .010      .010      .000      .010      .067      .000      .000
      .032      .280      .016      .026      .009      .001      .000      .000
      .000      .000      .000      .000      .000      .000      .000      .000
      .000      .000      .000      .000
      .000      .020      .050      .100      .200
      .040      .042      .044      .046      .048      .050      .055      .060
      .065      .070      .075      .080      .085      .090      .095      .100
      .110      .120      .130      .140      .150      .160      .170      .180
      .190      .200      .220      .240      .260      .280      .300      .320
      .340      .360      .380      .400      .420      .440      .460      .480
      .500      .550      .600      .650      .700      .750      .800      .850
      .900      .950     1.000     1.100     1.200     1.300     1.400     1.500
     1.600     1.700     1.800     1.900     2.000     2.200     2.400     2.600
     2.800     3.000     3.200     3.400     3.600     3.800     4.000     4.200
     4.400     4.600     4.800     5.000      .000      .000      .000      .000
      .000      .000      .000      .000      .000      .000      .000      .000
      .000      .000      .000      .000      .000      .000      .000      .000
      .000      .000      .000      .000
Fourier amplitude spectra in in/sec.
  .101E+00  .678E-01  .112E+00  .421E-01  .132E+00  .154E+00  .203E+00  .646E-01
  .269E+00  .261E+00  .706E+00  .111E+00  .286E+00  .212E+00  .378E+00  .227E+00
  .103E+00  .220E+00  .479E+00  .510E+00  .488E+00  .654E+00  .354E-01  .297E+00
  .231E+00  .117E+00  .118E+00  .363E+00  .105E+01  .257E+01  .447E+00  .532E+00
  .281E+00  .145E+00  .780E+00  .819E+00  .263E+00  .420E+00  .228E+00  .760E+00
  .418E+00  .634E+00  .581E+00  .126E+01  .768E+00  .451E+00  .107E+01  .223E+01
  .131E+01  .237E+01  .115E+01  .127E+01  .848E+00  .663E+00  .157E+01  .261E+01
  .261E+00  .168E+01  .129E+01  .164E+01  .745E+00  .120E+01  .171E+01  .369E+00
  .382E+00  .351E+00  .312E+00  .184E+00  .361E-01  .842E-02  .211E-01  .777E-02
  .107E-01  .110E-01  .526E-02  .187E-02  .000E+00  .000E+00  .000E+00  .000E+00
  .000E+00  .000E+00  .000E+00  .000E+00  .000E+00  .000E+00  .000E+00  .000E+00
  .000E+00  .000E+00  .000E+00  .000E+00  .000E+00  .000E+00  .000E+00  .000E+00
  .000E+00  .000E+00  .000E+00  .000E+00
Damping =  .00. Data of Sd,Sv,Sa,Pssv,ttSd,ttSv,ttSa :
  .917E-03  .673E-03  .829E-03  .774E-03  .116E-02  .187E-02  .185E-02  .186E-02
  .456E-02  .432E-02  .867E-02  .403E-02  .661E-02  .401E-02  .612E-02  .512E-02
  .302E-02  .596E-02  .133E-01  .121E-01  .124E-01  .180E-01  .148E-01  .978E-02
  .120E-01  .683E-02  .101E-01  .199E-01  .461E-01  .133E+00  .486E-01  .306E-01
  .231E-01  .220E-01  .479E-01  .552E-01  .433E-01  .379E-01  .354E-01  .630E-01
  .472E-01  .104E+00  .123E+00  .159E+00  .111E+00  .958E-01  .159E+00  .314E+00
  .227E+00  .358E+00  .226E+00  .245E+00  .213E+00  .197E+00  .476E+00  .643E+00
  .237E+00  .455E+00  .372E+00  .593E+00  .364E+00  .437E+00  .672E+00  .280E+00
  .214E+00  .207E+00  .203E+00  .129E+00  .968E-01  .806E-01  .741E-01  .712E-01
  .696E-01  .685E-01  .673E-01  .657E-01  .000E+00  .000E+00  .000E+00  .000E+00
  .000E+00  .000E+00  .000E+00  .000E+00  .000E+00  .000E+00  .000E+00  .000E+00
  .000E+00  .000E+00  .000E+00  .000E+00  .000E+00  .000E+00  .000E+00  .000E+00
  .000E+00  .000E+00  .000E+00  .000E+00
  .139E+00  .990E-01  .114E+00  .100E+00  .140E+00  .218E+00  .211E+00  .185E+00
  .425E+00  .372E+00  .723E+00  .320E+00  .491E+00  .275E+00  .405E+00  .306E+00
  .161E+00  .304E+00  .634E+00  .533E+00  .515E+00  .695E+00  .503E+00  .332E+00
  .385E+00  .200E+00  .262E+00  .516E+00  .110E+01  .296E+01  .101E+01  .590E+00
  .412E+00  .367E+00  .784E+00  .855E+00  .649E+00  .520E+00  .477E+00  .817E+00
  .596E+00  .117E+01  .126E+01  .152E+01  .980E+00  .796E+00  .124E+01  .231E+01
  .155E+01  .237E+01  .142E+01  .141E+01  .113E+01  .895E+00  .214E+01  .270E+01
  .978E+00  .168E+01  .130E+01  .194E+01  .118E+01  .125E+01  .181E+01  .769E+00
  .543E+00  .494E+00  .506E+00  .343E+00  .313E+00  .294E+00  .280E+00  .271E+00
  .266E+00  .263E+00  .260E+00  .258E+00  .000E+00  .000E+00  .000E+00  .000E+00
  .000E+00  .000E+00  .000E+00  .000E+00  .000E+00  .000E+00  .000E+00  .000E+00
  .000E+00  .000E+00  .000E+00  .000E+00  .000E+00  .000E+00  .000E+00  .000E+00
  .000E+00  .000E+00  .000E+00  .000E+00
  .586E-01  .390E-01  .438E-01  .374E-01  .517E-01  .766E-01  .624E-01  .529E-01
  .110E+00  .902E-01  .158E+00  .644E-01  .936E-01  .507E-01  .693E-01  .523E-01
  .256E-01  .423E-01  .807E-01  .629E-01  .562E-01  .718E-01  .525E-01  .309E-01
  .340E-01  .175E-01  .214E-01  .354E-01  .698E-01  .173E+00  .552E-01  .306E-01
  .205E-01  .174E-01  .339E-01  .353E-01  .251E-01  .200E-01  .171E-01  .280E-01
  .193E-01  .351E-01  .349E-01  .385E-01  .231E-01  .174E-01  .254E-01  .444E-01
  .287E-01  .406E-01  .231E-01  .207E-01  .151E-01  .119E-01  .248E-01  .292E-01
  .949E-02  .161E-01  .118E-01  .168E-01  .932E-02  .923E-02  .119E-01  .424E-02
  .279E-02  .235E-02  .203E-02  .114E-02  .764E-03  .571E-03  .473E-03  .413E-03
  .368E-03  .331E-03  .299E-03  .269E-03  .000E+00  .000E+00  .000E+00  .000E+00
  .000E+00  .000E+00  .000E+00  .000E+00  .000E+00  .000E+00  .000E+00  .000E+00
  .000E+00  .000E+00  .000E+00  .000E+00  .000E+00  .000E+00  .000E+00  .000E+00
  .000E+00  .000E+00  .000E+00  .000E+00
  .144E+00  .101E+00  .118E+00  .106E+00  .152E+00  .235E+00  .211E+00  .195E+00
  .441E+00  .388E+00  .726E+00  .317E+00  .489E+00  .280E+00  .404E+00  .321E+00
  .173E+00  .312E+00  .644E+00  .541E+00  .518E+00  .706E+00  .548E+00  .341E+00
  .397E+00  .215E+00  .290E+00  .522E+00  .111E+01  .298E+01  .102E+01  .601E+00
  .428E+00  .384E+00  .792E+00  .868E+00  .648E+00  .541E+00  .483E+00  .825E+00
  .593E+00  .118E+01  .129E+01  .154E+01  .995E+00  .802E+00  .125E+01  .232E+01
  .159E+01  .237E+01  .142E+01  .140E+01  .112E+01  .954E+00  .214E+01  .269E+01
  .933E+00  .168E+01  .130E+01  .196E+01  .114E+01  .125E+01  .176E+01  .676E+00
  .480E+00  .433E+00  .399E+00  .239E+00  .169E+00  .133E+00  .116E+00  .107E+00
  .995E-01  .936E-01  .881E-01  .825E-01  .000E+00  .000E+00  .000E+00  .000E+00
  .000E+00  .000E+00  .000E+00  .000E+00  .000E+00  .000E+00  .000E+00  .000E+00
  .000E+00  .000E+00  .000E+00  .000E+00  .000E+00  .000E+00  .000E+00  .000E+00
  .000E+00  .000E+00  .000E+00  .000E+00
  .347E+02  .363E+02  .455E+02  .300E+02  .338E+02  .324E+02  .432E+02  .327E+02
  .329E+02  .317E+02  .575E+02  .328E+02  .269E+02  .451E+02  .468E+02  .347E+02
  .365E+02  .365E+02  .360E+02  .347E+02  .394E+02  .530E+02  .315E+02  .446E+02
  .323E+02  .323E+02  .334E+02  .420E+02  .453E+02  .445E+02  .320E+02  .621E+02
  .377E+02  .347E+02  .878E+02  .606E+02  .364E+02  .538E+02  .316E+02  .853E+02
  .647E+02  .392E+02  .342E+02  .392E+02  .604E+02  .477E+02  .731E+02  .846E+02
  .529E+02  .107E+03  .833E+02  .978E+02  .691E+02  .520E+02  .645E+02  .982E+02
  .609E+02  .109E+03  .102E+03  .696E+02  .599E+02  .908E+02  .770E+02  .403E+02
  .383E+02  .452E+02  .523E+02  .402E+02  .403E+02  .321E+02  .321E+02  .321E+02
  .321E+02  .321E+02  .321E+02  .321E+02  .000E+00  .000E+00  .000E+00  .000E+00
  .000E+00  .000E+00  .000E+00  .000E+00  .000E+00  .000E+00  .000E+00  .000E+00
  .000E+00  .000E+00  .000E+00  .000E+00  .000E+00  .000E+00  .000E+00  .000E+00
  .000E+00  .000E+00  .000E+00  .000E+00
  .346E+02  .363E+02  .453E+02  .300E+02  .339E+02  .325E+02  .433E+02  .327E+02
  .330E+02  .317E+02  .574E+02  .328E+02  .269E+02  .451E+02  .467E+02  .346E+02
  .371E+02  .365E+02  .357E+02  .372E+02  .397E+02  .548E+02  .315E+02  .445E+02
  .323E+02  .323E+02  .335E+02  .419E+02  .465E+02  .445E+02  .316E+02  .644E+02
  .378E+02  .346E+02  .877E+02  .607E+02  .350E+02  .532E+02  .324E+02  .854E+02
  .380E+02  .394E+02  .340E+02  .393E+02  .582E+02  .475E+02  .733E+02  .848E+02
  .532E+02  .108E+03  .831E+02  .975E+02  .693E+02  .517E+02  .642E+02  .978E+02
  .613E+02  .110E+03  .102E+03  .691E+02  .624E+02  .903E+02  .764E+02  .398E+02
  .322E+02  .446E+02  .517E+02  .561E+02  .318E+02  .318E+02  .318E+02  .318E+02
  .318E+02  .318E+02  .318E+02  .318E+02  .000E+00  .000E+00  .000E+00  .000E+00
  .000E+00  .000E+00  .000E+00  .000E+00  .000E+00  .000E+00  .000E+00  .000E+00
  .000E+00  .000E+00  .000E+00  .000E+00  .000E+00  .000E+00  .000E+00  .000E+00
  .000E+00  .000E+00  .000E+00  .000E+00
  .347E+02  .363E+02  .455E+02  .300E+02  .338E+02  .324E+02  .432E+02  .327E+02
  .329E+02  .317E+02  .575E+02  .328E+02  .269E+02  .451E+02  .468E+02  .347E+02
  .365E+02  .365E+02  .360E+02  .347E+02  .394E+02  .530E+02  .315E+02  .446E+02
  .323E+02  .323E+02  .334E+02  .420E+02  .453E+02  .445E+02  .320E+02  .621E+02
  .377E+02  .347E+02  .878E+02  .606E+02  .364E+02  .538E+02  .316E+02  .853E+02
  .647E+02  .392E+02  .342E+02  .392E+02  .604E+02  .477E+02  .731E+02  .846E+02
  .529E+02  .107E+03  .833E+02  .978E+02  .691E+02  .520E+02  .645E+02  .982E+02
  .609E+02  .109E+03  .102E+03  .696E+02  .599E+02  .908E+02  .770E+02  .403E+02
  .383E+02  .452E+02  .523E+02  .402E+02  .403E+02  .321E+02  .321E+02  .321E+02
  .321E+02  .321E+02  .321E+02  .321E+02  .000E+00  .000E+00  .000E+00  .000E+00
  .000E+00  .000E+00  .000E+00  .000E+00  .000E+00  .000E+00  .000E+00  .000E+00
  .000E+00  .000E+00  .000E+00  .000E+00  .000E+00  .000E+00  .000E+00  .000E+00
  .000E+00  .000E+00  .000E+00  .000E+00
Damping =  .02. Data of Sd,Sv,Sa,Pssv,ttSd,ttSv,ttSa :
  .211E-03  .251E-03  .267E-03  .411E-03  .547E-03  .548E-03  .636E-03  .923E-03
  .112E-02  .158E-02  .261E-02  .222E-02  .261E-02  .188E-02  .236E-02  .237E-02
  .209E-02  .277E-02  .445E-02  .483E-02  .438E-02  .750E-02  .707E-02  .552E-02
  .657E-02  .770E-02  .690E-02  .105E-01  .232E-01  .437E-01  .338E-01  .234E-01
  .207E-01  .198E-01  .214E-01  .239E-01  .239E-01  .213E-01  .222E-01  .277E-01
  .296E-01  .420E-01  .620E-01  .685E-01  .510E-01  .552E-01  .719E-01  .109E+00
  .122E+00  .124E+00  .101E+00  .131E+00  .114E+00  .110E+00  .251E+00  .236E+00
  .188E+00  .219E+00  .181E+00  .305E+00  .240E+00  .251E+00  .382E+00  .212E+00
  .167E+00  .144E+00  .142E+00  .113E+00  .932E-01  .811E-01  .748E-01  .715E-01
  .696E-01  .682E-01  .668E-01  .653E-01  .000E+00  .000E+00  .000E+00  .000E+00
  .000E+00  .000E+00  .000E+00  .000E+00  .000E+00  .000E+00  .000E+00  .000E+00
  .000E+00  .000E+00  .000E+00  .000E+00  .000E+00  .000E+00  .000E+00  .000E+00
  .000E+00  .000E+00  .000E+00  .000E+00
  .281E-01  .263E-01  .267E-01  .456E-01  .662E-01  .631E-01  .627E-01  .842E-01
  .949E-01  .131E+00  .214E+00  .163E+00  .188E+00  .132E+00  .145E+00  .143E+00
  .111E+00  .115E+00  .207E+00  .221E+00  .186E+00  .282E+00  .266E+00  .171E+00
  .197E+00  .225E+00  .179E+00  .263E+00  .536E+00  .967E+00  .692E+00  .466E+00
  .377E+00  .335E+00  .366E+00  .395E+00  .358E+00  .291E+00  .281E+00  .320E+00
  .355E+00  .479E+00  .650E+00  .639E+00  .527E+00  .477E+00  .572E+00  .801E+00
  .875E+00  .903E+00  .705E+00  .789E+00  .610E+00  .547E+00  .113E+01  .101E+01
  .762E+00  .849E+00  .629E+00  .108E+01  .783E+00  .793E+00  .110E+01  .601E+00
  .515E+00  .443E+00  .372E+00  .313E+00  .302E+00  .288E+00  .276E+00  .270E+00
  .268E+00  .265E+00  .263E+00  .260E+00  .000E+00  .000E+00  .000E+00  .000E+00
  .000E+00  .000E+00  .000E+00  .000E+00  .000E+00  .000E+00  .000E+00  .000E+00
  .000E+00  .000E+00  .000E+00  .000E+00  .000E+00  .000E+00  .000E+00  .000E+00
  .000E+00  .000E+00  .000E+00  .000E+00
  .134E-01  .146E-01  .141E-01  .198E-01  .243E-01  .226E-01  .214E-01  .263E-01
  .273E-01  .331E-01  .473E-01  .354E-01  .368E-01  .237E-01  .268E-01  .243E-01
  .175E-01  .197E-01  .268E-01  .251E-01  .200E-01  .301E-01  .251E-01  .174E-01
  .186E-01  .196E-01  .146E-01  .186E-01  .349E-01  .570E-01  .383E-01  .234E-01
  .183E-01  .157E-01  .152E-01  .153E-01  .139E-01  .113E-01  .107E-01  .123E-01
  .121E-01  .142E-01  .176E-01  .166E-01  .107E-01  .100E-01  .115E-01  .154E-01
  .154E-01  .141E-01  .103E-01  .110E-01  .814E-02  .663E-02  .131E-01  .107E-01
  .750E-02  .776E-02  .572E-02  .865E-02  .615E-02  .531E-02  .679E-02  .322E-02
  .218E-02  .164E-02  .142E-02  .100E-02  .737E-03  .576E-03  .479E-03  .416E-03
  .369E-03  .331E-03  .298E-03  .268E-03  .000E+00  .000E+00  .000E+00  .000E+00
  .000E+00  .000E+00  .000E+00  .000E+00  .000E+00  .000E+00  .000E+00  .000E+00
  .000E+00  .000E+00  .000E+00  .000E+00  .000E+00  .000E+00  .000E+00  .000E+00
  .000E+00  .000E+00  .000E+00  .000E+00
  .331E-01  .376E-01  .381E-01  .561E-01  .716E-01  .689E-01  .726E-01  .967E-01
  .108E+00  .142E+00  .218E+00  .175E+00  .193E+00  .131E+00  .156E+00  .149E+00
  .119E+00  .145E+00  .215E+00  .217E+00  .183E+00  .295E+00  .261E+00  .193E+00
  .217E+00  .242E+00  .197E+00  .275E+00  .560E+00  .981E+00  .707E+00  .459E+00
  .382E+00  .346E+00  .354E+00  .376E+00  .358E+00  .304E+00  .303E+00  .362E+00
  .372E+00  .480E+00  .649E+00  .662E+00  .458E+00  .462E+00  .564E+00  .804E+00
  .853E+00  .819E+00  .634E+00  .745E+00  .599E+00  .529E+00  .113E+01  .988E+00
  .737E+00  .810E+00  .633E+00  .101E+01  .755E+00  .717E+00  .100E+01  .513E+00
  .375E+00  .302E+00  .278E+00  .209E+00  .163E+00  .134E+00  .118E+00  .107E+00
  .994E-01  .932E-01  .875E-01  .820E-01  .000E+00  .000E+00  .000E+00  .000E+00
  .000E+00  .000E+00  .000E+00  .000E+00  .000E+00  .000E+00  .000E+00  .000E+00
  .000E+00  .000E+00  .000E+00  .000E+00  .000E+00  .000E+00  .000E+00  .000E+00
  .000E+00  .000E+00  .000E+00  .000E+00
  .257E+02  .313E+02  .257E+02  .303E+02  .303E+02  .310E+02  .312E+02  .257E+02
  .329E+02  .257E+02  .259E+02  .314E+02  .259E+02  .259E+02  .326E+02  .319E+02
  .330E+02  .322E+02  .341E+02  .340E+02  .258E+02  .263E+02  .260E+02  .323E+02
  .323E+02  .323E+02  .323E+02  .319E+02  .323E+02  .326E+02  .316E+02  .316E+02
  .327E+02  .327E+02  .335E+02  .324E+02  .350E+02  .350E+02  .357E+02  .361E+02
  .361E+02  .365E+02  .342E+02  .366E+02  .325E+02  .354E+02  .351E+02  .366E+02
  .367E+02  .341E+02  .342E+02  .338E+02  .678E+02  .573E+02  .567E+02  .585E+02
  .609E+02  .541E+02  .406E+02  .543E+02  .537E+02  .464E+02  .530E+02  .392E+02
  .383E+02  .451E+02  .522E+02  .402E+02  .403E+02  .321E+02  .321E+02  .321E+02
  .321E+02  .321E+02  .321E+02  .321E+02  .000E+00  .000E+00  .000E+00  .000E+00
  .000E+00  .000E+00  .000E+00  .000E+00  .000E+00  .000E+00  .000E+00  .000E+00
  .000E+00  .000E+00  .000E+00  .000E+00  .000E+00  .000E+00  .000E+00  .000E+00
  .000E+00  .000E+00  .000E+00  .000E+00
  .313E+02  .312E+02  .258E+02  .302E+02  .305E+02  .311E+02  .312E+02  .322E+02
  .329E+02  .256E+02  .259E+02  .314E+02  .259E+02  .258E+02  .325E+02  .331E+02
  .330E+02  .322E+02  .340E+02  .340E+02  .258E+02  .262E+02  .261E+02  .255E+02
  .323E+02  .323E+02  .318E+02  .318E+02  .325E+02  .326E+02  .316E+02  .315E+02
  .328E+02  .326E+02  .336E+02  .325E+02  .350E+02  .351E+02  .354E+02  .362E+02
  .362E+02  .366E+02  .340E+02  .371E+02  .324E+02  .324E+02  .353E+02  .351E+02
  .365E+02  .339E+02  .339E+02  .336E+02  .633E+02  .464E+02  .571E+02  .611E+02
  .606E+02  .545E+02  .539E+02  .539E+02  .532E+02  .459E+02  .524E+02  .398E+02
  .322E+02  .322E+02  .517E+02  .322E+02  .318E+02  .318E+02  .318E+02  .322E+02
  .322E+02  .322E+02  .322E+02  .322E+02  .000E+00  .000E+00  .000E+00  .000E+00
  .000E+00  .000E+00  .000E+00  .000E+00  .000E+00  .000E+00  .000E+00  .000E+00
  .000E+00  .000E+00  .000E+00  .000E+00  .000E+00  .000E+00  .000E+00  .000E+00
  .000E+00  .000E+00  .000E+00  .000E+00
  .257E+02  .313E+02  .257E+02  .303E+02  .305E+02  .310E+02  .312E+02  .257E+02
  .329E+02  .257E+02  .259E+02  .314E+02  .259E+02  .259E+02  .326E+02  .334E+02
  .330E+02  .322E+02  .341E+02  .340E+02  .258E+02  .263E+02  .260E+02  .323E+02
  .323E+02  .323E+02  .323E+02  .319E+02  .323E+02  .326E+02  .316E+02  .316E+02
  .327E+02  .327E+02  .335E+02  .324E+02  .350E+02  .350E+02  .357E+02  .360E+02
  .361E+02  .365E+02  .342E+02  .366E+02  .325E+02  .354E+02  .351E+02  .366E+02
  .367E+02  .341E+02  .342E+02  .338E+02  .678E+02  .572E+02  .567E+02  .584E+02
  .609E+02  .541E+02  .406E+02  .543E+02  .537E+02  .464E+02  .529E+02  .392E+02
  .383E+02  .451E+02  .522E+02  .402E+02  .403E+02  .320E+02  .320E+02  .320E+02
  .320E+02  .320E+02  .320E+02  .320E+02  .000E+00  .000E+00  .000E+00  .000E+00
  .000E+00  .000E+00  .000E+00  .000E+00  .000E+00  .000E+00  .000E+00  .000E+00
  .000E+00  .000E+00  .000E+00  .000E+00  .000E+00  .000E+00  .000E+00  .000E+00
  .000E+00  .000E+00  .000E+00  .000E+00
Damping =  .05. Data of Sd,Sv,Sa,Pssv,ttSd,ttSv,ttSa :
  .190E-03  .216E-03  .251E-03  .297E-03  .350E-03  .383E-03  .517E-03  .673E-03
