Response and Fourier amplitude spectra (68 periods,  .04 -  3.4 sec)   for      
Corrected accelerogram   14383980.CI.OGC.HNE.m      Chan  1:  90 Deg     from   
Uncorrected Accelerogram Data            CProcessed: 07/31/08, CDMG  ciogc-~1   
Record of Tue Jul 29, 2008 11:42:15.0 PDT             (Avol1 v7.9 7/08 CSMIP)   
                                        (Origin:  To be determined)             
14383980.CI.OGC.HNE.m                Start time:  7/29/08, 18:42:15.0 UTC (GPS) 
Station Id. OGC     33.788N, 117.844W        K2  s/n  282  (3 Chns of  4 at Sta)
Orange, Chapman Ave. & Cambridge St.     SCSN                                   
Chan  1:  90 Deg                    Location: Depth   0 m                       
Record of Tue Jul 29, 2008 11:42:15.0 PDT    Tue Jul 29, 2008 11:42:15.0 PDT    
Hypocenter:  To be determined.               ML:  To be determined.             
Instr Period =  .0190 sec,  Damping =  .650,  Sensitivity = 1.25  v/g  (Nominal)
                        Record length =301.000 sec.                             
                                     Uncor Max  =  -.100 g , at   9.710 sec.    
RMS accel of (uncor) record  =        .                                         
Accelerogram bandpass filtered with 3 dB pts at   .30 and 23.00 cyc/sec         
                 instrument- and baseline-corrected                             
                                                                                
                                                                                
                                                                                
                                                                                
                                                                                
Record of Tue Jul 29, 2008 11:42:15.0 PDT    Tue Jul 29, 2008 11:42:15.0 PDT    
                                                                                
14383980.CI.OGC.HNE.m     Orange, Chapman Ave. & Cambridge St.    Chan  1:  90 D
eg                                                                              
14383980.CI.OGC.HNE.m     Orange, Chapman Ave. & Cambridge St.    Chan  1:  90 D
eg                                                                              
Units for spectra are inches and sec, except Sa is in fraction of g.            
                                                                                
    1  100    1    4    4  100 -999    3    1    0   11  282    050508   41    0
   18   42   15    0  211    7   29 2008   10    3   9032500   41   36   76 -999
32500 -999   50    6 -999 -999 -999 -999 -999 -999 -999 -999 -999 -999 -999 -999
 -999    2 -999 -99915050    2 -999    0 -999   20   76 -999    1 -999    015050
    615050 -998   68    5    3    5 -999 -999 -999 -999 -999 -999    6 -999    2
    2    2    4 -999 -999 -999 -999 -999 -999 -999 -999    1 -999 -999 -999  111
    1    1 -999 -999
      .019      .650   325.000      .005  -999.000  1250.000     -.100     9.710
    52.600      .298      .238  -999.000    10.000  -999.000     2.000  -999.000
     2.500     1.098      .000  -999.000  -999.000  -999.000  -999.000      .001
     -.004     -.005     2.000    15.000    33.788  -117.844      .017      .115
     6.825      .000      .000    -2.000  -999.000  -999.000  -999.000  -999.000
     1.000     1.208      .000  -999.000  -999.000  -999.000  -999.000   120.000
     2.600     7.900     4.600   980.665      .020   301.000     8.372      .001
      .000    23.000      .000   301.000      .020      .303      .000      .000
     9.700   -95.539     9.140    -4.255     9.440     -.596      .000      .303
    23.000      .020      .020      .000     1.060      .232      .000      .000
      .346      .170      .168      .170      .036      .005      .000      .000
      .000      .000      .000      .000      .000      .000      .000      .000
      .000      .000      .000      .000
      .000      .020      .050      .100      .200
      .040      .042      .044      .046      .048      .050      .055      .060
      .065      .070      .075      .080      .085      .090      .095      .100
      .110      .120      .130      .140      .150      .160      .170      .180
      .190      .200      .220      .240      .260      .280      .300      .320
      .340      .360      .380      .400      .420      .440      .460      .480
      .500      .550      .600      .650      .700      .750      .800      .850
      .900      .950     1.000     1.100     1.200     1.300     1.400     1.500
     1.600     1.700     1.800     1.900     2.000     2.200     2.400     2.600
     2.800     3.000     3.200     3.400      .000      .000      .000      .000
      .000      .000      .000      .000      .000      .000      .000      .000
      .000      .000      .000      .000      .000      .000      .000      .000
      .000      .000      .000      .000      .000      .000      .000      .000
      .000      .000      .000      .000
Fourier amplitude spectra in in/sec.
  .308E-01  .500E-01  .124E+00  .839E-01  .116E+00  .176E+00  .467E+00  .547E+00
  .476E+00  .867E-01  .186E+01  .145E+01  .250E+01  .263E+01  .223E+01  .494E+01
  .100E+01  .177E+01  .159E+01  .213E+01  .125E+01  .665E+01  .704E+01  .714E+01
  .202E+01  .930E+00  .194E+01  .191E+01  .607E+01  .286E+01  .533E+01  .600E+01
  .117E+02  .584E+01  .984E+01  .183E+01  .414E+01  .600E+01  .168E+01  .394E+01
  .627E+01  .706E+01  .744E+01  .488E+01  .371E+01  .432E+01  .815E+01  .149E+01
  .460E+01  .179E+01  .582E+01  .319E+01  .955E+01  .376E+01  .435E+01  .129E+01
  .518E+01  .158E+01  .277E+01  .149E+01  .310E+01  .287E+01  .174E+01  .890E+00
  .131E+01  .118E+01  .776E+00  .746E+00  .000E+00  .000E+00  .000E+00  .000E+00
  .000E+00  .000E+00  .000E+00  .000E+00  .000E+00  .000E+00  .000E+00  .000E+00
  .000E+00  .000E+00  .000E+00  .000E+00  .000E+00  .000E+00  .000E+00  .000E+00
  .000E+00  .000E+00  .000E+00  .000E+00  .000E+00  .000E+00  .000E+00  .000E+00
  .000E+00  .000E+00  .000E+00  .000E+00
Damping =  .00. Data of Sd,Sv,Sa,Pssv,ttSd,ttSv,ttSa :
  .162E-02  .219E-02  .229E-02  .295E-02  .314E-02  .482E-02  .702E-02  .879E-02
  .833E-02  .113E-01  .265E-01  .291E-01  .383E-01  .411E-01  .346E-01  .796E-01
  .276E-01  .422E-01  .508E-01  .649E-01  .806E-01  .173E+00  .252E+00  .216E+00
  .135E+00  .864E-01  .104E+00  .152E+00  .289E+00  .217E+00  .272E+00  .388E+00
  .716E+00  .458E+00  .624E+00  .305E+00  .327E+00  .457E+00  .270E+00  .483E+00
  .646E+00  .653E+00  .716E+00  .641E+00  .614E+00  .982E+00  .124E+01  .666E+00
  .668E+00  .407E+00  .104E+01  .566E+00  .199E+01  .156E+01  .107E+01  .713E+00
  .134E+01  .708E+00  .916E+00  .686E+00  .110E+01  .138E+01  .101E+01  .693E+00
  .947E+00  .782E+00  .575E+00  .488E+00  .000E+00  .000E+00  .000E+00  .000E+00
  .000E+00  .000E+00  .000E+00  .000E+00  .000E+00  .000E+00  .000E+00  .000E+00
  .000E+00  .000E+00  .000E+00  .000E+00  .000E+00  .000E+00  .000E+00  .000E+00
  .000E+00  .000E+00  .000E+00  .000E+00  .000E+00  .000E+00  .000E+00  .000E+00
  .000E+00  .000E+00  .000E+00  .000E+00
  .109E+00  .126E+00  .192E+00  .243E+00  .199E+00  .391E+00  .604E+00  .799E+00
  .705E+00  .811E+00  .218E+01  .214E+01  .272E+01  .282E+01  .227E+01  .493E+01
  .143E+01  .216E+01  .220E+01  .283E+01  .303E+01  .674E+01  .914E+01  .744E+01
  .446E+01  .292E+01  .294E+01  .391E+01  .684E+01  .473E+01  .572E+01  .777E+01
  .132E+02  .804E+01  .103E+02  .489E+01  .477E+01  .654E+01  .366E+01  .598E+01
  .805E+01  .742E+01  .747E+01  .618E+01  .562E+01  .807E+01  .979E+01  .485E+01
  .463E+01  .384E+01  .654E+01  .341E+01  .104E+02  .775E+01  .508E+01  .352E+01
  .525E+01  .298E+01  .343E+01  .255E+01  .343E+01  .401E+01  .265E+01  .239E+01
  .222E+01  .202E+01  .200E+01  .197E+01  .000E+00  .000E+00  .000E+00  .000E+00
  .000E+00  .000E+00  .000E+00  .000E+00  .000E+00  .000E+00  .000E+00  .000E+00
  .000E+00  .000E+00  .000E+00  .000E+00  .000E+00  .000E+00  .000E+00  .000E+00
  .000E+00  .000E+00  .000E+00  .000E+00  .000E+00  .000E+00  .000E+00  .000E+00
  .000E+00  .000E+00  .000E+00  .000E+00
  .103E+00  .127E+00  .121E+00  .143E+00  .140E+00  .197E+00  .237E+00  .250E+00
  .202E+00  .236E+00  .482E+00  .465E+00  .542E+00  .519E+00  .392E+00  .814E+00
  .233E+00  .300E+00  .307E+00  .339E+00  .366E+00  .692E+00  .890E+00  .682E+00
  .382E+00  .221E+00  .220E+00  .270E+00  .437E+00  .282E+00  .309E+00  .388E+00
  .633E+00  .361E+00  .442E+00  .195E+00  .190E+00  .242E+00  .130E+00  .214E+00
  .264E+00  .221E+00  .204E+00  .155E+00  .128E+00  .179E+00  .198E+00  .943E-01
  .844E-01  .461E-01  .107E+00  .478E-01  .141E+00  .945E-01  .559E-01  .324E-01
  .534E-01  .251E-01  .289E-01  .194E-01  .282E-01  .292E-01  .180E-01  .105E-01
  .124E-01  .889E-02  .574E-02  .432E-02  .000E+00  .000E+00  .000E+00  .000E+00
  .000E+00  .000E+00  .000E+00  .000E+00  .000E+00  .000E+00  .000E+00  .000E+00
  .000E+00  .000E+00  .000E+00  .000E+00  .000E+00  .000E+00  .000E+00  .000E+00
  .000E+00  .000E+00  .000E+00  .000E+00  .000E+00  .000E+00  .000E+00  .000E+00
  .000E+00  .000E+00  .000E+00  .000E+00
  .254E+00  .328E+00  .326E+00  .403E+00  .412E+00  .605E+00  .802E+00  .921E+00
  .805E+00  .101E+01  .222E+01  .228E+01  .283E+01  .287E+01  .229E+01  .500E+01
  .157E+01  .221E+01  .245E+01  .291E+01  .338E+01  .681E+01  .930E+01  .754E+01
  .446E+01  .271E+01  .297E+01  .399E+01  .698E+01  .486E+01  .570E+01  .762E+01
  .132E+02  .799E+01  .103E+02  .480E+01  .490E+01  .653E+01  .368E+01  .632E+01
  .812E+01  .746E+01  .750E+01  .620E+01  .551E+01  .823E+01  .975E+01  .492E+01
  .466E+01  .269E+01  .654E+01  .323E+01  .104E+02  .754E+01  .480E+01  .298E+01
  .525E+01  .262E+01  .320E+01  .227E+01  .347E+01  .395E+01  .265E+01  .167E+01
  .213E+01  .164E+01  .113E+01  .902E+00  .000E+00  .000E+00  .000E+00  .000E+00
  .000E+00  .000E+00  .000E+00  .000E+00  .000E+00  .000E+00  .000E+00  .000E+00
  .000E+00  .000E+00  .000E+00  .000E+00  .000E+00  .000E+00  .000E+00  .000E+00
  .000E+00  .000E+00  .000E+00  .000E+00  .000E+00  .000E+00  .000E+00  .000E+00
  .000E+00  .000E+00  .000E+00  .000E+00
  .100E+02  .970E+01  .969E+01  .100E+02  .970E+01  .969E+01  .969E+01  .101E+02
  .101E+02  .925E+01  .128E+02  .102E+02  .995E+01  .146E+02  .300E+02  .159E+02
  .990E+01  .113E+02  .992E+01  .138E+02  .103E+02  .173E+02  .112E+02  .115E+02
  .101E+02  .984E+01  .131E+02  .119E+02  .145E+02  .123E+02  .101E+02  .114E+02
  .139E+02  .118E+02  .206E+02  .128E+02  .146E+02  .198E+02  .106E+02  .147E+02
  .177E+02  .415E+02  .256E+02  .211E+02  .128E+02  .152E+02  .251E+02  .141E+02
  .383E+02  .105E+02  .573E+02  .202E+03  .676E+02  .195E+02  .257E+02  .113E+02
  .196E+03  .108E+02  .262E+02  .109E+02  .585E+02  .431E+02  .498E+02  .153E+02
  .328E+02  .550E+02  .198E+02  .375E+02  .000E+00  .000E+00  .000E+00  .000E+00
  .000E+00  .000E+00  .000E+00  .000E+00  .000E+00  .000E+00  .000E+00  .000E+00
  .000E+00  .000E+00  .000E+00  .000E+00  .000E+00  .000E+00  .000E+00  .000E+00
  .000E+00  .000E+00  .000E+00  .000E+00  .000E+00  .000E+00  .000E+00  .000E+00
  .000E+00  .000E+00  .000E+00  .000E+00
  .928E+01  .927E+01  .928E+01  .998E+01  .998E+01  .998E+01  .945E+01  .101E+02
  .101E+02  .927E+01  .128E+02  .102E+02  .997E+01  .194E+02  .299E+02  .231E+02
  .987E+01  .113E+02  .996E+01  .138E+02  .101E+02  .293E+02  .112E+02  .114E+02
  .101E+02  .978E+01  .136E+02  .120E+02  .145E+02  .122E+02  .101E+02  .113E+02
  .140E+02  .117E+02  .207E+02  .129E+02  .147E+02  .280E+02  .118E+02  .148E+02
  .175E+02  .417E+02  .111E+03  .229E+02  .130E+02  .154E+02  .237E+02  .143E+02
  .123E+03  .103E+02  .576E+02  .117E+02  .679E+02  .179E+02  .253E+02  .110E+02
  .197E+03  .112E+02  .258E+02  .144E+02  .580E+02  .426E+02  .419E+02  .149E+02
  .334E+02  .996E+01  .996E+01  .996E+01  .000E+00  .000E+00  .000E+00  .000E+00
  .000E+00  .000E+00  .000E+00  .000E+00  .000E+00  .000E+00  .000E+00  .000E+00
  .000E+00  .000E+00  .000E+00  .000E+00  .000E+00  .000E+00  .000E+00  .000E+00
  .000E+00  .000E+00  .000E+00  .000E+00  .000E+00  .000E+00  .000E+00  .000E+00
  .000E+00  .000E+00  .000E+00  .000E+00
  .100E+02  .970E+01  .969E+01  .100E+02  .970E+01  .969E+01  .969E+01  .101E+02
  .101E+02  .925E+01  .128E+02  .102E+02  .995E+01  .146E+02  .300E+02  .159E+02
  .990E+01  .113E+02  .992E+01  .138E+02  .103E+02  .173E+02  .112E+02  .115E+02
  .101E+02  .984E+01  .131E+02  .119E+02  .145E+02  .123E+02  .101E+02  .114E+02
  .139E+02  .118E+02  .206E+02  .128E+02  .146E+02  .198E+02  .106E+02  .147E+02
  .177E+02  .415E+02  .256E+02  .211E+02  .128E+02  .152E+02  .251E+02  .141E+02
  .383E+02  .105E+02  .573E+02  .202E+03  .676E+02  .195E+02  .257E+02  .113E+02
  .196E+03  .108E+02  .262E+02  .109E+02  .585E+02  .431E+02  .498E+02  .153E+02
  .328E+02  .550E+02  .198E+02  .375E+02  .000E+00  .000E+00  .000E+00  .000E+00
  .000E+00  .000E+00  .000E+00  .000E+00  .000E+00  .000E+00  .000E+00  .000E+00
  .000E+00  .000E+00  .000E+00  .000E+00  .000E+00  .000E+00  .000E+00  .000E+00
  .000E+00  .000E+00  .000E+00  .000E+00  .000E+00  .000E+00  .000E+00  .000E+00
  .000E+00  .000E+00  .000E+00  .000E+00
Damping =  .02. Data of Sd,Sv,Sa,Pssv,ttSd,ttSv,ttSa :
  .169E-02  .183E-02  .204E-02  .215E-02  .263E-02  .314E-02  .424E-02  .448E-02
  .534E-02  .845E-02  .154E-01  .188E-01  .228E-01  .281E-01  .299E-01  .354E-01
  .272E-01  .357E-01  .411E-01  .450E-01  .695E-01  .117E+00  .149E+00  .129E+00
  .991E-01  .797E-01  .728E-01  .868E-01  .132E+00  .138E+00  .202E+00  .274E+00
  .355E+00  .350E+00  .317E+00  .254E+00  .223E+00  .247E+00  .254E+00  .308E+00
  .332E+00  .353E+00  .329E+00  .353E+00  .453E+00  .605E+00  .585E+00  .467E+00
  .342E+00  .349E+00  .426E+00  .470E+00  .890E+00  .105E+01  .712E+00  .624E+00
  .590E+00  .645E+00  .654E+00  .634E+00  .591E+00  .765E+00  .621E+00  .576E+00
  .539E+00  .516E+00  .452E+00  .414E+00  .000E+00  .000E+00  .000E+00  .000E+00
  .000E+00  .000E+00  .000E+00  .000E+00  .000E+00  .000E+00  .000E+00  .000E+00
  .000E+00  .000E+00  .000E+00  .000E+00  .000E+00  .000E+00  .000E+00  .000E+00
  .000E+00  .000E+00  .000E+00  .000E+00  .000E+00  .000E+00  .000E+00  .000E+00
  .000E+00  .000E+00  .000E+00  .000E+00
  .806E-01  .872E-01  .997E-01  .126E+00  .123E+00  .154E+00  .262E+00  .368E+00
  .381E+00  .586E+00  .110E+01  .134E+01  .155E+01  .182E+01  .174E+01  .184E+01
  .144E+01  .158E+01  .174E+01  .178E+01  .258E+01  .429E+01  .533E+01  .440E+01
  .341E+01  .268E+01  .227E+01  .223E+01  .322E+01  .300E+01  .417E+01  .512E+01
  .638E+01  .609E+01  .536E+01  .384E+01  .321E+01  .325E+01  .319E+01  .366E+01
  .411E+01  .392E+01  .342E+01  .322E+01  .415E+01  .515E+01  .505E+01  .370E+01
  .321E+01  .346E+01  .335E+01  .288E+01  .463E+01  .535E+01  .387E+01  .320E+01
  .298E+01  .268E+01  .243E+01  .240E+01  .235E+01  .230E+01  .232E+01  .209E+01
  .198E+01  .198E+01  .196E+01  .193E+01  .000E+00  .000E+00  .000E+00  .000E+00
  .000E+00  .000E+00  .000E+00  .000E+00  .000E+00  .000E+00  .000E+00  .000E+00
  .000E+00  .000E+00  .000E+00  .000E+00  .000E+00  .000E+00  .000E+00  .000E+00
  .000E+00  .000E+00  .000E+00  .000E+00  .000E+00  .000E+00  .000E+00  .000E+00
  .000E+00  .000E+00  .000E+00  .000E+00
  .108E+00  .106E+00  .108E+00  .104E+00  .117E+00  .128E+00  .143E+00  .127E+00
  .129E+00  .177E+00  .281E+00  .299E+00  .321E+00  .357E+00  .336E+00  .360E+00
  .230E+00  .253E+00  .250E+00  .234E+00  .317E+00  .465E+00  .528E+00  .409E+00
  .280E+00  .204E+00  .153E+00  .154E+00  .201E+00  .181E+00  .230E+00  .273E+00
  .314E+00  .276E+00  .224E+00  .162E+00  .130E+00  .130E+00  .123E+00  .136E+00
  .136E+00  .120E+00  .933E-01  .858E-01  .947E-01  .110E+00  .935E-01  .663E-01
  .432E-01  .397E-01  .435E-01  .397E-01  .632E-01  .638E-01  .372E-01  .284E-01
  .236E-01  .229E-01  .207E-01  .180E-01  .151E-01  .162E-01  .111E-01  .874E-02
  .704E-02  .588E-02  .453E-02  .368E-02  .000E+00  .000E+00  .000E+00  .000E+00
  .000E+00  .000E+00  .000E+00  .000E+00  .000E+00  .000E+00  .000E+00  .000E+00
  .000E+00  .000E+00  .000E+00  .000E+00  .000E+00  .000E+00  .000E+00  .000E+00
  .000E+00  .000E+00  .000E+00  .000E+00  .000E+00  .000E+00  .000E+00  .000E+00
  .000E+00  .000E+00  .000E+00  .000E+00
  .266E+00  .274E+00  .291E+00  .294E+00  .344E+00  .395E+00  .485E+00  .469E+00
  .516E+00  .758E+00  .129E+01  .147E+01  .168E+01  .196E+01  .197E+01  .222E+01
  .155E+01  .187E+01  .199E+01  .202E+01  .291E+01  .458E+01  .551E+01  .452E+01
  .328E+01  .250E+01  .208E+01  .227E+01  .319E+01  .310E+01  .424E+01  .538E+01
  .655E+01  .610E+01  .524E+01  .399E+01  .334E+01  .353E+01  .346E+01  .403E+01
  .417E+01  .404E+01  .344E+01  .342E+01  .407E+01  .507E+01  .459E+01  .346E+01
  .239E+01  .231E+01  .267E+01  .268E+01  .466E+01  .509E+01  .320E+01  .261E+01
  .232E+01  .238E+01  .228E+01  .210E+01  .186E+01  .218E+01  .163E+01  .139E+01
  .121E+01  .108E+01  .888E+00  .764E+00  .000E+00  .000E+00  .000E+00  .000E+00
  .000E+00  .000E+00  .000E+00  .000E+00  .000E+00  .000E+00  .000E+00  .000E+00
  .000E+00  .000E+00  .000E+00  .000E+00  .000E+00  .000E+00  .000E+00  .000E+00
  .000E+00  .000E+00  .000E+00  .000E+00  .000E+00  .000E+00  .000E+00  .000E+00
  .000E+00  .000E+00  .000E+00  .000E+00
  .970E+01  .970E+01  .970E+01  .924E+01  .970E+01  .970E+01  .970E+01  .924E+01
  .925E+01  .103E+02  .102E+02  .976E+01  .977E+01  .102E+02  .102E+02  .103E+02
  .990E+01  .103E+02  .993E+01  .100E+02  .100E+02  .103E+02  .104E+02  .104E+02
  .983E+01  .974E+01  .950E+01  .119E+02  .119E+02  .123E+02  .101E+02  .104E+02
  .105E+02  .105E+02  .106E+02  .106E+02  .146E+02  .147E+02  .106E+02  .106E+02
  .109E+02  .113E+02  .135E+02  .152E+02  .124E+02  .118E+02  .135E+02  .116E+02
  .116E+02  .964E+01  .164E+02  .102E+02  .214E+02  .162E+02  .146E+02  .113E+02
  .108E+02  .108E+02  .108E+02  .109E+02  .109E+02  .212E+02  .151E+02  .128E+02
  .328E+02  .206E+02  .182E+02  .105E+02  .000E+00  .000E+00  .000E+00  .000E+00
  .000E+00  .000E+00  .000E+00  .000E+00  .000E+00  .000E+00  .000E+00  .000E+00
  .000E+00  .000E+00  .000E+00  .000E+00  .000E+00  .000E+00  .000E+00  .000E+00
  .000E+00  .000E+00  .000E+00  .000E+00  .000E+00  .000E+00  .000E+00  .000E+00
  .000E+00  .000E+00  .000E+00  .000E+00
  .972E+01  .972E+01  .101E+02  .973E+01  .968E+01  .972E+01  .972E+01  .101E+02
  .101E+02  .101E+02  .102E+02  .973E+01  .979E+01  .102E+02  .102E+02  .100E+02
  .987E+01  .103E+02  .989E+01  .101E+02  .101E+02  .103E+02  .103E+02  .101E+02
  .978E+01  .978E+01  .944E+01  .119E+02  .119E+02  .122E+02  .101E+02  .110E+02
  .104E+02  .106E+02  .106E+02  .107E+02  .145E+02  .146E+02  .107E+02  .105E+02
  .138E+02  .111E+02  .136E+02  .151E+02  .126E+02  .124E+02  .117E+02  .117E+02
  .103E+02  .103E+02  .103E+02  .117E+02  .211E+02  .160E+02  .149E+02  .110E+02
  .110E+02  .112E+02  .112E+02  .105E+02  .106E+02  .207E+02  .132E+02  .149E+02
  .996E+01  .996E+01  .996E+01  .996E+01  .000E+00  .000E+00  .000E+00  .000E+00
  .000E+00  .000E+00  .000E+00  .000E+00  .000E+00  .000E+00  .000E+00  .000E+00
  .000E+00  .000E+00  .000E+00  .000E+00  .000E+00  .000E+00  .000E+00  .000E+00
  .000E+00  .000E+00  .000E+00  .000E+00  .000E+00  .000E+00  .000E+00  .000E+00
  .000E+00  .000E+00  .000E+00  .000E+00
  .970E+01  .970E+01  .970E+01  .924E+01  .970E+01  .970E+01  .970E+01  .924E+01
  .925E+01  .103E+02  .102E+02  .975E+01  .977E+01  .102E+02  .102E+02  .103E+02
  .990E+01  .103E+02  .992E+01  .100E+02  .100E+02  .103E+02  .104E+02  .104E+02
  .983E+01  .974E+01  .950E+01  .119E+02  .119E+02  .123E+02  .101E+02  .104E+02
