Response and Fourier amplitude spectra (68 periods,  .04 -  3.4 sec)   for      
Corrected accelerogram   14383980.CI.PLS.HNE.m      Chan  1:  90 Deg     from   
Uncorrected Accelerogram Data            CProcessed: 07/31/08, CDMG  cipls-~1   
Record of Tue Jul 29, 2008 11:42:15.0 PDT             (Avol1 v7.9 7/08 CSMIP)   
                                        (Origin:  To be determined)             
14383980.CI.PLS.HNE.m                Start time:  7/29/08, 18:42:15.0 UTC (GPS) 
Station Id. PLS     33.795N, 117.609W     Q4120  s/n60110  (3 Chns of 18 at Sta)
Silverado, Pleasants Peak Radio Facility SCSN                                   
Chan  1:  90 Deg                    Location: Depth   0 m                       
Record of Tue Jul 29, 2008 11:42:15.0 PDT    Tue Jul 29, 2008 11:42:15.0 PDT    
Hypocenter:  To be determined.               ML:  To be determined.             
Instr Period =  .0050 sec,  Damping =  .707,  Sensitivity =10.00  v/g  (Nominal)
                        Record length =301.000 sec.                             
                                     Uncor Max  =  -.039 g , at   8.960 sec.    
RMS accel of (uncor) record  =        .                                         
Accelerogram bandpass filtered with 3 dB pts at   .30 and 23.00 cyc/sec         
                 instrument- and baseline-corrected                             
                                                                                
                                                                                
                                                                                
                                                                                
                                                                                
Record of Tue Jul 29, 2008 11:42:15.0 PDT    Tue Jul 29, 2008 11:42:15.0 PDT    
                                                                                
14383980.CI.PLS.HNE.m     Silverado, Pleasants Peak Radio Facility SCSChan  1:  
90 Deg                                                                          
14383980.CI.PLS.HNE.m     Silverado, Pleasants Peak Radio Facility SCSChan  1:  
90 Deg                                                                          
Units for spectra are inches and sec, except Sa is in fraction of g.            
                                                                                
    1  100    1   18   18  100 -999    3    1    0  60060110    050560   41    0
   18   42   15    3  211    7   29 2008   10    3   9032347   41   40   76 -999
32347 -999   50    6 -999 -999 -999 -999 -999 -999 -999 -999 -999 -999 -999 -999
 -999    2 -999 -99915050    2 -999    0 -999   20   76 -999    1 -999    015050
    615050 -998   68    5    3    5 -999 -999 -999 -999 -999 -999    6 -999    2
    2    2    4 -999 -999 -999 -999 -999 -999 -999 -999    1 -999 -999 -999  111
    1    1 -999 -999
      .005      .707   323.470      .002  -999.000 10000.000     -.039     8.960
   200.000     2.481      .248  -999.000    10.000  -999.000     2.000  -999.000
    20.000      .605      .000  -999.000  -999.000  -999.000  -999.000     -.003
      .000      .003     2.000    15.000    33.795  -117.609      .005      .023
     4.481      .000      .000  1199.000  -999.000  -999.000  -999.000  -999.000
     1.000    -1.035      .000  -999.000  -999.000  -999.000  -999.000   120.000
     2.600     7.900     4.600   980.665      .020   301.000    31.831      .000
      .000    23.000      .000   301.000      .020      .303      .000      .000
     8.960   -37.294     9.480     3.049     9.620      .372      .000      .303
    23.000      .020      .020      .000      .020      .097      .000      .000
      .104      .340      .093      .086      .027      .002      .000      .000
      .000      .000      .000      .000      .000      .000      .000      .000
      .000      .000      .000      .000
      .000      .020      .050      .100      .200
      .040      .042      .044      .046      .048      .050      .055      .060
      .065      .070      .075      .080      .085      .090      .095      .100
      .110      .120      .130      .140      .150      .160      .170      .180
      .190      .200      .220      .240      .260      .280      .300      .320
      .340      .360      .380      .400      .420      .440      .460      .480
      .500      .550      .600      .650      .700      .750      .800      .850
      .900      .950     1.000     1.100     1.200     1.300     1.400     1.500
     1.600     1.700     1.800     1.900     2.000     2.200     2.400     2.600
     2.800     3.000     3.200     3.400      .000      .000      .000      .000
      .000      .000      .000      .000      .000      .000      .000      .000
      .000      .000      .000      .000      .000      .000      .000      .000
      .000      .000      .000      .000      .000      .000      .000      .000
      .000      .000      .000      .000
Fourier amplitude spectra in in/sec.
  .780E-02  .375E-02  .665E-02  .449E-01  .267E-01  .350E-01  .655E-01  .648E-01
  .907E-01  .101E-01  .160E+00  .185E+00  .486E+00  .876E-01  .529E+00  .428E+00
  .495E+00  .175E+00  .910E+00  .511E+00  .458E+00  .565E+00  .192E+01  .109E+01
  .136E+01  .372E+01  .928E+00  .456E+00  .262E+01  .125E+01  .285E+01  .815E+00
  .411E+01  .555E+01  .125E+01  .494E+01  .400E+01  .253E+01  .416E+01  .115E+01
  .140E+01  .523E+01  .681E+01  .558E+01  .809E+01  .374E+01  .832E+01  .550E+01
  .402E+01  .152E+01  .219E+01  .244E+01  .145E+01  .374E+00  .137E+01  .539E+00
  .883E+00  .886E+00  .564E+00  .658E+00  .808E+00  .657E+00  .200E+00  .158E+00
  .173E+00  .955E-01  .134E+00  .210E+00  .000E+00  .000E+00  .000E+00  .000E+00
  .000E+00  .000E+00  .000E+00  .000E+00  .000E+00  .000E+00  .000E+00  .000E+00
  .000E+00  .000E+00  .000E+00  .000E+00  .000E+00  .000E+00  .000E+00  .000E+00
  .000E+00  .000E+00  .000E+00  .000E+00  .000E+00  .000E+00  .000E+00  .000E+00
  .000E+00  .000E+00  .000E+00  .000E+00
Damping =  .00. Data of Sd,Sv,Sa,Pssv,ttSd,ttSv,ttSa :
  .632E-03  .664E-03  .772E-03  .930E-03  .865E-03  .117E-02  .150E-02  .179E-02
  .213E-02  .294E-02  .327E-02  .399E-02  .735E-02  .473E-02  .953E-02  .808E-02
  .117E-01  .876E-02  .208E-01  .148E-01  .309E-01  .317E-01  .628E-01  .595E-01
  .573E-01  .153E+00  .550E-01  .552E-01  .125E+00  .913E-01  .141E+00  .175E+00
  .292E+00  .358E+00  .152E+00  .329E+00  .272E+00  .212E+00  .397E+00  .261E+00
  .269E+00  .467E+00  .708E+00  .788E+00  .943E+00  .651E+00  .111E+01  .885E+00
  .576E+00  .340E+00  .481E+00  .440E+00  .313E+00  .192E+00  .335E+00  .190E+00
  .243E+00  .241E+00  .228E+00  .212E+00  .274E+00  .281E+00  .189E+00  .149E+00
  .169E+00  .181E+00  .172E+00  .154E+00  .000E+00  .000E+00  .000E+00  .000E+00
  .000E+00  .000E+00  .000E+00  .000E+00  .000E+00  .000E+00  .000E+00  .000E+00
  .000E+00  .000E+00  .000E+00  .000E+00  .000E+00  .000E+00  .000E+00  .000E+00
  .000E+00  .000E+00  .000E+00  .000E+00  .000E+00  .000E+00  .000E+00  .000E+00
  .000E+00  .000E+00  .000E+00  .000E+00
  .252E-01  .232E-01  .295E-01  .468E-01  .470E-01  .787E-01  .102E+00  .130E+00
  .125E+00  .196E+00  .237E+00  .280E+00  .526E+00  .243E+00  .556E+00  .440E+00
  .591E+00  .333E+00  .974E+00  .627E+00  .121E+01  .123E+01  .228E+01  .206E+01
  .175E+01  .472E+01  .151E+01  .123E+01  .301E+01  .204E+01  .293E+01  .338E+01
  .532E+01  .625E+01  .234E+01  .518E+01  .406E+01  .267E+01  .537E+01  .329E+01
  .306E+01  .534E+01  .745E+01  .751E+01  .850E+01  .553E+01  .872E+01  .655E+01
  .402E+01  .264E+01  .312E+01  .265E+01  .180E+01  .164E+01  .158E+01  .153E+01
  .144E+01  .132E+01  .122E+01  .115E+01  .117E+01  .120E+01  .117E+01  .115E+01
  .116E+01  .116E+01  .115E+01  .116E+01  .000E+00  .000E+00  .000E+00  .000E+00
  .000E+00  .000E+00  .000E+00  .000E+00  .000E+00  .000E+00  .000E+00  .000E+00
  .000E+00  .000E+00  .000E+00  .000E+00  .000E+00  .000E+00  .000E+00  .000E+00
  .000E+00  .000E+00  .000E+00  .000E+00  .000E+00  .000E+00  .000E+00  .000E+00
  .000E+00  .000E+00  .000E+00  .000E+00
  .404E-01  .385E-01  .408E-01  .449E-01  .384E-01  .480E-01  .508E-01  .509E-01
  .517E-01  .615E-01  .594E-01  .637E-01  .104E+00  .597E-01  .108E+00  .827E-01
  .989E-01  .622E-01  .126E+00  .773E-01  .140E+00  .127E+00  .222E+00  .188E+00
  .162E+00  .391E+00  .116E+00  .980E-01  .189E+00  .119E+00  .160E+00  .175E+00
  .258E+00  .282E+00  .108E+00  .210E+00  .158E+00  .112E+00  .192E+00  .116E+00
  .110E+00  .158E+00  .201E+00  .191E+00  .197E+00  .118E+00  .178E+00  .125E+00
  .727E-01  .385E-01  .492E-01  .372E-01  .222E-01  .116E-01  .175E-01  .862E-02
  .972E-02  .854E-02  .721E-02  .602E-02  .700E-02  .593E-02  .335E-02  .225E-02
  .220E-02  .206E-02  .172E-02  .136E-02  .000E+00  .000E+00  .000E+00  .000E+00
  .000E+00  .000E+00  .000E+00  .000E+00  .000E+00  .000E+00  .000E+00  .000E+00
  .000E+00  .000E+00  .000E+00  .000E+00  .000E+00  .000E+00  .000E+00  .000E+00
  .000E+00  .000E+00  .000E+00  .000E+00  .000E+00  .000E+00  .000E+00  .000E+00
  .000E+00  .000E+00  .000E+00  .000E+00
  .992E-01  .994E-01  .110E+00  .127E+00  .113E+00  .147E+00  .172E+00  .188E+00
  .206E+00  .264E+00  .274E+00  .313E+00  .543E+00  .330E+00  .631E+00  .508E+00
  .669E+00  .458E+00  .101E+01  .665E+00  .129E+01  .124E+01  .232E+01  .208E+01
  .190E+01  .480E+01  .157E+01  .144E+01  .302E+01  .205E+01  .295E+01  .345E+01
  .539E+01  .624E+01  .252E+01  .517E+01  .407E+01  .303E+01  .542E+01  .342E+01
  .338E+01  .533E+01  .741E+01  .761E+01  .847E+01  .545E+01  .873E+01  .654E+01
  .402E+01  .225E+01  .302E+01  .252E+01  .164E+01  .929E+00  .151E+01  .794E+00
  .955E+00  .892E+00  .797E+00  .702E+00  .860E+00  .802E+00  .494E+00  .359E+00
  .378E+00  .380E+00  .337E+00  .285E+00  .000E+00  .000E+00  .000E+00  .000E+00
  .000E+00  .000E+00  .000E+00  .000E+00  .000E+00  .000E+00  .000E+00  .000E+00
  .000E+00  .000E+00  .000E+00  .000E+00  .000E+00  .000E+00  .000E+00  .000E+00
  .000E+00  .000E+00  .000E+00  .000E+00  .000E+00  .000E+00  .000E+00  .000E+00
  .000E+00  .000E+00  .000E+00  .000E+00
  .896E+01  .896E+01  .896E+01  .894E+01  .894E+01  .958E+01  .893E+01  .100E+02
  .919E+01  .891E+01  .116E+02  .163E+02  .230E+02  .960E+01  .116E+02  .155E+02
  .963E+01  .999E+01  .191E+02  .893E+01  .145E+02  .109E+02  .149E+02  .149E+02
  .100E+02  .153E+02  .125E+02  .960E+01  .201E+02  .160E+02  .602E+02  .103E+02
  .128E+02  .165E+02  .992E+01  .406E+02  .392E+02  .926E+01  .183E+02  .129E+02
  .990E+01  .655E+02  .154E+02  .130E+02  .258E+02  .106E+02  .227E+02  .145E+02
  .133E+03  .113E+02  .171E+02  .984E+02  .294E+02  .134E+02  .540E+02  .213E+02
  .147E+03  .252E+03  .213E+02  .134E+03  .620E+02  .498E+02  .196E+02  .100E+02
  .133E+02  .134E+02  .134E+02  .960E+01  .000E+00  .000E+00  .000E+00  .000E+00
  .000E+00  .000E+00  .000E+00  .000E+00  .000E+00  .000E+00  .000E+00  .000E+00
  .000E+00  .000E+00  .000E+00  .000E+00  .000E+00  .000E+00  .000E+00  .000E+00
  .000E+00  .000E+00  .000E+00  .000E+00  .000E+00  .000E+00  .000E+00  .000E+00
  .000E+00  .000E+00  .000E+00  .000E+00
  .898E+01  .898E+01  .898E+01  .229E+02  .183E+02  .969E+01  .110E+02  .110E+02
  .947E+01  .107E+02  .164E+02  .161E+02  .253E+02  .971E+01  .115E+02  .173E+02
  .257E+02  .996E+01  .188E+02  .222E+02  .145E+02  .109E+02  .150E+02  .150E+02
  .101E+02  .159E+02  .126E+02  .224E+02  .202E+02  .161E+02  .602E+02  .102E+02
  .127E+02  .379E+02  .984E+01  .407E+02  .393E+02  .712E+02  .184E+02  .130E+02
  .978E+01  .654E+02  .153E+02  .132E+02  .253E+02  .104E+02  .473E+02  .147E+02
  .191E+03  .974E+01  .164E+02  .156E+02  .946E+01  .946E+01  .946E+01  .946E+01
  .946E+01  .946E+01  .946E+01  .946E+01  .972E+01  .972E+01  .972E+01  .946E+01
  .946E+01  .946E+01  .946E+01  .946E+01  .000E+00  .000E+00  .000E+00  .000E+00
  .000E+00  .000E+00  .000E+00  .000E+00  .000E+00  .000E+00  .000E+00  .000E+00
  .000E+00  .000E+00  .000E+00  .000E+00  .000E+00  .000E+00  .000E+00  .000E+00
  .000E+00  .000E+00  .000E+00  .000E+00  .000E+00  .000E+00  .000E+00  .000E+00
  .000E+00  .000E+00  .000E+00  .000E+00
  .896E+01  .896E+01  .896E+01  .894E+01  .894E+01  .958E+01  .893E+01  .100E+02
  .919E+01  .891E+01  .116E+02  .163E+02  .230E+02  .960E+01  .116E+02  .155E+02
  .963E+01  .999E+01  .191E+02  .893E+01  .145E+02  .109E+02  .149E+02  .149E+02
  .100E+02  .153E+02  .125E+02  .960E+01  .201E+02  .160E+02  .602E+02  .103E+02
  .128E+02  .165E+02  .992E+01  .406E+02  .392E+02  .926E+01  .183E+02  .129E+02
  .990E+01  .655E+02  .154E+02  .130E+02  .258E+02  .106E+02  .227E+02  .145E+02
  .133E+03  .113E+02  .171E+02  .984E+02  .294E+02  .134E+02  .540E+02  .213E+02
  .147E+03  .252E+03  .213E+02  .134E+03  .620E+02  .498E+02  .196E+02  .100E+02
  .133E+02  .134E+02  .134E+02  .960E+01  .000E+00  .000E+00  .000E+00  .000E+00
  .000E+00  .000E+00  .000E+00  .000E+00  .000E+00  .000E+00  .000E+00  .000E+00
  .000E+00  .000E+00  .000E+00  .000E+00  .000E+00  .000E+00  .000E+00  .000E+00
  .000E+00  .000E+00  .000E+00  .000E+00  .000E+00  .000E+00  .000E+00  .000E+00
  .000E+00  .000E+00  .000E+00  .000E+00
Damping =  .02. Data of Sd,Sv,Sa,Pssv,ttSd,ttSv,ttSa :
  .596E-03  .650E-03  .732E-03  .797E-03  .894E-03  .971E-03  .124E-02  .154E-02
  .190E-02  .202E-02  .236E-02  .279E-02  .298E-02  .335E-02  .464E-02  .448E-02
  .720E-02  .756E-02  .115E-01  .146E-01  .188E-01  .257E-01  .371E-01  .353E-01
  .419E-01  .507E-01  .494E-01  .506E-01  .623E-01  .671E-01  .845E-01  .131E+00
  .158E+00  .169E+00  .132E+00  .128E+00  .156E+00  .186E+00  .206E+00  .208E+00
  .227E+00  .341E+00  .473E+00  .524E+00  .559E+00  .545E+00  .645E+00  .592E+00
  .361E+00  .310E+00  .318E+00  .334E+00  .248E+00  .187E+00  .159E+00  .147E+00
  .155E+00  .173E+00  .181E+00  .166E+00  .176E+00  .179E+00  .160E+00  .148E+00
  .157E+00  .169E+00  .161E+00  .153E+00  .000E+00  .000E+00  .000E+00  .000E+00
  .000E+00  .000E+00  .000E+00  .000E+00  .000E+00  .000E+00  .000E+00  .000E+00
  .000E+00  .000E+00  .000E+00  .000E+00  .000E+00  .000E+00  .000E+00  .000E+00
  .000E+00  .000E+00  .000E+00  .000E+00  .000E+00  .000E+00  .000E+00  .000E+00
  .000E+00  .000E+00  .000E+00  .000E+00
  .168E-01  .184E-01  .213E-01  .261E-01  .254E-01  .341E-01  .410E-01  .534E-01
  .799E-01  .838E-01  .114E+00  .113E+00  .104E+00  .132E+00  .174E+00  .177E+00
  .280E+00  .266E+00  .399E+00  .573E+00  .629E+00  .840E+00  .119E+01  .110E+01
  .118E+01  .142E+01  .108E+01  .945E+00  .146E+01  .133E+01  .153E+01  .230E+01
  .276E+01  .303E+01  .203E+01  .180E+01  .203E+01  .220E+01  .238E+01  .243E+01
  .264E+01  .380E+01  .502E+01  .519E+01  .501E+01  .477E+01  .503E+01  .446E+01
  .299E+01  .257E+01  .226E+01  .226E+01  .177E+01  .162E+01  .156E+01  .150E+01
  .142E+01  .132E+01  .123E+01  .117E+01  .116E+01  .119E+01  .117E+01  .115E+01
  .115E+01  .115E+01  .115E+01  .116E+01  .000E+00  .000E+00  .000E+00  .000E+00
  .000E+00  .000E+00  .000E+00  .000E+00  .000E+00  .000E+00  .000E+00  .000E+00
  .000E+00  .000E+00  .000E+00  .000E+00  .000E+00  .000E+00  .000E+00  .000E+00
  .000E+00  .000E+00  .000E+00  .000E+00  .000E+00  .000E+00  .000E+00  .000E+00
  .000E+00  .000E+00  .000E+00  .000E+00
  .381E-01  .377E-01  .386E-01  .386E-01  .397E-01  .397E-01  .419E-01  .438E-01
  .460E-01  .423E-01  .430E-01  .446E-01  .421E-01  .423E-01  .525E-01  .456E-01
  .608E-01  .535E-01  .698E-01  .767E-01  .857E-01  .103E+00  .131E+00  .112E+00
  .118E+00  .129E+00  .105E+00  .902E-01  .936E-01  .875E-01  .959E-01  .131E+00
  .139E+00  .134E+00  .933E-01  .817E-01  .911E-01  .988E-01  .100E+00  .927E-01
  .934E-01  .116E+00  .135E+00  .127E+00  .117E+00  .992E-01  .103E+00  .838E-01
  .457E-01  .351E-01  .325E-01  .283E-01  .177E-01  .114E-01  .832E-02  .670E-02
  .620E-02  .612E-02  .575E-02  .472E-02  .451E-02  .378E-02  .287E-02  .226E-02
  .206E-02  .193E-02  .162E-02  .137E-02  .000E+00  .000E+00  .000E+00  .000E+00
  .000E+00  .000E+00  .000E+00  .000E+00  .000E+00  .000E+00  .000E+00  .000E+00
  .000E+00  .000E+00  .000E+00  .000E+00  .000E+00  .000E+00  .000E+00  .000E+00
  .000E+00  .000E+00  .000E+00  .000E+00  .000E+00  .000E+00  .000E+00  .000E+00
  .000E+00  .000E+00  .000E+00  .000E+00
  .936E-01  .972E-01  .104E+00  .109E+00  .117E+00  .122E+00  .141E+00  .161E+00
  .184E+00  .181E+00  .198E+00  .219E+00  .220E+00  .234E+00  .307E+00  .281E+00
  .411E+00  .396E+00  .556E+00  .657E+00  .789E+00  .101E+01  .137E+01  .123E+01
  .139E+01  .159E+01  .141E+01  .132E+01  .150E+01  .151E+01  .177E+01  .257E+01
  .291E+01  .294E+01  .218E+01  .201E+01  .234E+01  .266E+01  .282E+01  .272E+01
  .286E+01  .389E+01  .495E+01  .507E+01  .502E+01  .457E+01  .506E+01  .438E+01
  .252E+01  .205E+01  .200E+01  .191E+01  .130E+01  .903E+00  .715E+00  .616E+00
  .608E+00  .638E+00  .633E+00  .549E+00  .553E+00  .510E+00  .420E+00  .357E+00
  .353E+00  .354E+00  .317E+00  .282E+00  .000E+00  .000E+00  .000E+00  .000E+00
  .000E+00  .000E+00  .000E+00  .000E+00  .000E+00  .000E+00  .000E+00  .000E+00
  .000E+00  .000E+00  .000E+00  .000E+00  .000E+00  .000E+00  .000E+00  .000E+00
  .000E+00  .000E+00  .000E+00  .000E+00  .000E+00  .000E+00  .000E+00  .000E+00
  .000E+00  .000E+00  .000E+00  .000E+00
  .896E+01  .896E+01  .896E+01  .893E+01  .894E+01  .894E+01  .893E+01  .895E+01
  .897E+01  .959E+01  .893E+01  .895E+01  .894E+01  .894E+01  .895E+01  .962E+01
  .953E+01  .955E+01  .100E+02  .100E+02  .938E+01  .939E+01  .941E+01  .953E+01
  .955E+01  .114E+02  .958E+01  .960E+01  .111E+02  .894E+01  .960E+01  .962E+01
  .114E+02  .118E+02  .992E+01  .924E+01  .924E+01  .926E+01  .928E+01  .930E+01
  .990E+01  .996E+01  .116E+02  .104E+02  .105E+02  .106E+02  .139E+02  .140E+02
  .103E+02  .996E+01  .166E+02  .137E+02  .133E+02  .134E+02  .231E+02  .924E+01
  .163E+02  .173E+02  .134E+02  .998E+01  .998E+01  .201E+02  .100E+02  .100E+02
  .133E+02  .134E+02  .134E+02  .960E+01  .000E+00  .000E+00  .000E+00  .000E+00
  .000E+00  .000E+00  .000E+00  .000E+00  .000E+00  .000E+00  .000E+00  .000E+00
  .000E+00  .000E+00  .000E+00  .000E+00  .000E+00  .000E+00  .000E+00  .000E+00
  .000E+00  .000E+00  .000E+00  .000E+00  .000E+00  .000E+00  .000E+00  .000E+00
  .000E+00  .000E+00  .000E+00  .000E+00
  .898E+01  .898E+01  .898E+01  .898E+01  .899E+01  .969E+01  .970E+01  .987E+01
  .898E+01  .899E+01  .113E+02  .113E+02  .119E+02  .972E+01  .973E+01  .989E+01
  .950E+01  .900E+01  .108E+02  .101E+02  .934E+01  .935E+01  .937E+01  .948E+01
  .950E+01  .101E+02  .952E+01  .954E+01  .110E+02  .902E+01  .904E+01  .102E+02
  .976E+01  .117E+02  .982E+01  .932E+01  .934E+01  .936E+01  .918E+01  .920E+01
  .978E+01  .984E+01  .117E+02  .106E+02  .107E+02  .104E+02  .137E+02  .138E+02
  .972E+01  .974E+01  .974E+01  .135E+02  .946E+01  .946E+01  .946E+01  .946E+01
  .946E+01  .946E+01  .946E+01  .946E+01  .972E+01  .972E+01  .972E+01  .946E+01
  .946E+01  .946E+01  .946E+01  .946E+01  .000E+00  .000E+00  .000E+00  .000E+00
  .000E+00  .000E+00  .000E+00  .000E+00  .000E+00  .000E+00  .000E+00  .000E+00
  .000E+00  .000E+00  .000E+00  .000E+00  .000E+00  .000E+00  .000E+00  .000E+00
  .000E+00  .000E+00  .000E+00  .000E+00  .000E+00  .000E+00  .000E+00  .000E+00
  .000E+00  .000E+00  .000E+00  .000E+00
  .896E+01  .896E+01  .896E+01  .893E+01  .894E+01  .894E+01  .893E+01  .895E+01
  .897E+01  .959E+01  .893E+01  .895E+01  .894E+01  .894E+01  .895E+01  .962E+01
  .953E+01  .955E+01  .100E+02  .100E+02  .938E+01  .939E+01  .941E+01  .953E+01
  .955E+01  .114E+02  .958E+01  .960E+01  .111E+02  .894E+01  .960E+01  .962E+01
