Response and Fourier amplitude spectra (68 periods,  .04 -  3.4 sec)   for      
Corrected accelerogram   14383980.CI.SDD.HNE.m      Chan  1:  90 Deg     from   
Uncorrected Accelerogram Data            CProcessed: 08/01/08, CDMG  cisdd-~1   
Record of Tue Jul 29, 2008 11:42:15.0 PDT             (Avol1 v7.9 7/08 CSMIP)   
                                        (Origin:  To be determined)             
14383980.CI.SDD.HNE.m                Start time:  7/29/08, 18:42:15.0 UTC (GPS) 
Station Id. SDD     33.553N, 117.662W     Q4120  s/n60106  (3 Chns of 21 at Sta)
Mission Viejo, Saddleback College        SCSN                                   
Chan  1:  90 Deg                    Location: Depth   0 m                       
Record of Tue Jul 29, 2008 11:42:15.0 PDT    Tue Jul 29, 2008 11:42:15.0 PDT    
Hypocenter:  To be determined.               ML:  To be determined.             
Instr Period =  .0050 sec,  Damping =  .707,  Sensitivity =10.00  v/g  (Nominal)
                        Record length =301.000 sec.                             
                                     Uncor Max  =  -.036 g , at  15.620 sec.    
RMS accel of (uncor) record  =        .                                         
Accelerogram bandpass filtered with 3 dB pts at   .30 and 23.00 cyc/sec         
                 instrument- and baseline-corrected                             
                                                                                
                                                                                
                                                                                
                                                                                
                                                                                
Record of Tue Jul 29, 2008 11:42:15.0 PDT    Tue Jul 29, 2008 11:42:15.0 PDT    
                                                                                
14383980.CI.SDD.HNE.m     Mission Viejo, Saddleback College   Chan  1:  90 Deg  
                                                                                
14383980.CI.SDD.HNE.m     Mission Viejo, Saddleback College   Chan  1:  90 Deg  
                                                                                
Units for spectra are inches and sec, except Sa is in fraction of g.            
                                                                                
    1  100    1   21   21  100 -999    3    1    0  60060106    050569   41    0
   18   42   15    7  211    7   29 2008   10    3   9032485   41   33   76 -999
32485 -999   50    6 -999 -999 -999 -999 -999 -999 -999 -999 -999 -999 -999 -999
 -999    2 -999 -99915050    2 -999    0 -999   20   76 -999    1 -999    015050
    615050 -998   68    5    3    5 -999 -999 -999 -999 -999 -999    6 -999    2
    2    2    4 -999 -999 -999 -999 -999 -999 -999 -999    1 -999 -999 -999  111
    1    1 -999 -999
      .005      .707   324.850      .002  -999.000 10000.000     -.036    15.620
   200.000     2.302      .230  -999.000    10.000  -999.000     2.000  -999.000
    20.000     5.464      .000  -999.000  -999.000  -999.000  -999.000      .001
     -.001     -.002     2.000    15.000    33.553  -117.662      .003      .120
    44.376      .000      .000   120.000  -999.000  -999.000  -999.000  -999.000
     1.000     1.041      .000  -999.000  -999.000  -999.000  -999.000   120.000
     2.600     7.900     4.600   980.665      .020   301.000    31.831     -.001
      .000    23.000      .000   301.000      .020      .303      .000      .000
    15.620   -35.717    24.760    -1.399    34.700      .371      .000      .303
    23.000      .020      .020      .000      .020      .183      .000      .000
      .113      .190      .107      .057      .018      .004      .000      .000
      .000      .000      .000      .000      .000      .000      .000      .000
      .000      .000      .000      .000
      .000      .020      .050      .100      .200
      .040      .042      .044      .046      .048      .050      .055      .060
      .065      .070      .075      .080      .085      .090      .095      .100
      .110      .120      .130      .140      .150      .160      .170      .180
      .190      .200      .220      .240      .260      .280      .300      .320
      .340      .360      .380      .400      .420      .440      .460      .480
      .500      .550      .600      .650      .700      .750      .800      .850
      .900      .950     1.000     1.100     1.200     1.300     1.400     1.500
     1.600     1.700     1.800     1.900     2.000     2.200     2.400     2.600
     2.800     3.000     3.200     3.400      .000      .000      .000      .000
      .000      .000      .000      .000      .000      .000      .000      .000
      .000      .000      .000      .000      .000      .000      .000      .000
      .000      .000      .000      .000      .000      .000      .000      .000
      .000      .000      .000      .000
Fourier amplitude spectra in in/sec.
  .375E-03  .181E-01  .531E-03  .611E-01  .231E-01  .282E-01  .689E-01  .116E+00
  .246E+00  .230E+00  .931E-01  .203E+00  .562E+00  .479E+00  .327E+00  .535E+00
  .684E+00  .587E-01  .314E+00  .110E+01  .430E+00  .196E+01  .180E+01  .113E+01
  .132E+01  .354E+01  .104E+01  .303E+01  .163E+01  .284E+01  .230E+01  .229E+01
  .325E+01  .340E+01  .182E+01  .151E+01  .135E+01  .241E+01  .110E+01  .186E+01
  .188E+01  .640E+00  .242E+01  .325E+01  .170E+01  .366E+01  .266E+01  .538E+01
  .477E+01  .299E+01  .113E+01  .167E+01  .185E+01  .485E+01  .872E+00  .557E+01
  .210E+01  .329E+01  .164E+01  .310E+01  .245E+01  .104E+01  .209E+01  .237E+01
  .159E+01  .678E+00  .955E+00  .681E+00  .000E+00  .000E+00  .000E+00  .000E+00
  .000E+00  .000E+00  .000E+00  .000E+00  .000E+00  .000E+00  .000E+00  .000E+00
  .000E+00  .000E+00  .000E+00  .000E+00  .000E+00  .000E+00  .000E+00  .000E+00
  .000E+00  .000E+00  .000E+00  .000E+00  .000E+00  .000E+00  .000E+00  .000E+00
  .000E+00  .000E+00  .000E+00  .000E+00
Damping =  .00. Data of Sd,Sv,Sa,Pssv,ttSd,ttSv,ttSa :
  .570E-03  .725E-03  .720E-03  .872E-03  .938E-03  .108E-02  .121E-02  .241E-02
  .300E-02  .396E-02  .301E-02  .338E-02  .102E-01  .814E-02  .991E-02  .137E-01
  .132E-01  .899E-02  .119E-01  .319E-01  .249E-01  .557E-01  .533E-01  .565E-01
  .655E-01  .118E+00  .722E-01  .125E+00  .739E-01  .134E+00  .116E+00  .129E+00
  .212E+00  .198E+00  .140E+00  .121E+00  .148E+00  .175E+00  .120E+00  .146E+00
  .170E+00  .173E+00  .245E+00  .362E+00  .247E+00  .445E+00  .465E+00  .755E+00
  .710E+00  .580E+00  .375E+00  .354E+00  .693E+00  .102E+01  .607E+00  .139E+01
  .958E+00  .124E+01  .740E+00  .964E+00  .837E+00  .641E+00  .108E+01  .994E+00
  .714E+00  .551E+00  .509E+00  .442E+00  .000E+00  .000E+00  .000E+00  .000E+00
  .000E+00  .000E+00  .000E+00  .000E+00  .000E+00  .000E+00  .000E+00  .000E+00
  .000E+00  .000E+00  .000E+00  .000E+00  .000E+00  .000E+00  .000E+00  .000E+00
  .000E+00  .000E+00  .000E+00  .000E+00  .000E+00  .000E+00  .000E+00  .000E+00
  .000E+00  .000E+00  .000E+00  .000E+00
  .208E-01  .352E-01  .259E-01  .625E-01  .382E-01  .597E-01  .788E-01  .142E+00
  .271E+00  .288E+00  .134E+00  .208E+00  .722E+00  .542E+00  .600E+00  .788E+00
  .712E+00  .340E+00  .530E+00  .133E+01  .101E+01  .215E+01  .190E+01  .190E+01
  .213E+01  .358E+01  .200E+01  .326E+01  .185E+01  .296E+01  .242E+01  .251E+01
  .388E+01  .347E+01  .224E+01  .197E+01  .217E+01  .251E+01  .152E+01  .188E+01
  .203E+01  .207E+01  .253E+01  .347E+01  .212E+01  .372E+01  .362E+01  .551E+01
  .496E+01  .383E+01  .234E+01  .201E+01  .368E+01  .495E+01  .275E+01  .585E+01
  .378E+01  .464E+01  .261E+01  .318E+01  .266E+01  .200E+01  .287E+01  .241E+01
  .167E+01  .116E+01  .105E+01  .104E+01  .000E+00  .000E+00  .000E+00  .000E+00
  .000E+00  .000E+00  .000E+00  .000E+00  .000E+00  .000E+00  .000E+00  .000E+00
  .000E+00  .000E+00  .000E+00  .000E+00  .000E+00  .000E+00  .000E+00  .000E+00
  .000E+00  .000E+00  .000E+00  .000E+00  .000E+00  .000E+00  .000E+00  .000E+00
  .000E+00  .000E+00  .000E+00  .000E+00
  .364E-01  .420E-01  .380E-01  .421E-01  .416E-01  .441E-01  .410E-01  .684E-01
  .726E-01  .827E-01  .547E-01  .540E-01  .144E+00  .103E+00  .112E+00  .140E+00
  .112E+00  .638E-01  .722E-01  .167E+00  .113E+00  .223E+00  .189E+00  .178E+00
  .186E+00  .301E+00  .153E+00  .222E+00  .112E+00  .175E+00  .132E+00  .129E+00
  .188E+00  .157E+00  .991E-01  .775E-01  .855E-01  .926E-01  .582E-01  .646E-01
  .694E-01  .586E-01  .696E-01  .876E-01  .515E-01  .809E-01  .743E-01  .107E+00
  .897E-01  .658E-01  .384E-01  .300E-01  .492E-01  .620E-01  .317E-01  .632E-01
  .383E-01  .440E-01  .234E-01  .273E-01  .214E-01  .136E-01  .192E-01  .150E-01
  .932E-02  .626E-02  .509E-02  .391E-02  .000E+00  .000E+00  .000E+00  .000E+00
  .000E+00  .000E+00  .000E+00  .000E+00  .000E+00  .000E+00  .000E+00  .000E+00
  .000E+00  .000E+00  .000E+00  .000E+00  .000E+00  .000E+00  .000E+00  .000E+00
  .000E+00  .000E+00  .000E+00  .000E+00  .000E+00  .000E+00  .000E+00  .000E+00
  .000E+00  .000E+00  .000E+00  .000E+00
  .895E-01  .108E+00  .103E+00  .119E+00  .123E+00  .135E+00  .139E+00  .252E+00
  .290E+00  .355E+00  .252E+00  .265E+00  .751E+00  .569E+00  .655E+00  .863E+00
  .754E+00  .471E+00  .576E+00  .143E+01  .104E+01  .219E+01  .197E+01  .197E+01
  .217E+01  .370E+01  .206E+01  .328E+01  .179E+01  .301E+01  .243E+01  .254E+01
  .392E+01  .346E+01  .231E+01  .191E+01  .221E+01  .250E+01  .164E+01  .191E+01
  .213E+01  .198E+01  .257E+01  .350E+01  .222E+01  .373E+01  .365E+01  .558E+01
  .496E+01  .384E+01  .236E+01  .202E+01  .363E+01  .495E+01  .272E+01  .583E+01
  .376E+01  .459E+01  .258E+01  .319E+01  .263E+01  .183E+01  .282E+01  .240E+01
  .160E+01  .115E+01  .100E+01  .818E+00  .000E+00  .000E+00  .000E+00  .000E+00
  .000E+00  .000E+00  .000E+00  .000E+00  .000E+00  .000E+00  .000E+00  .000E+00
  .000E+00  .000E+00  .000E+00  .000E+00  .000E+00  .000E+00  .000E+00  .000E+00
  .000E+00  .000E+00  .000E+00  .000E+00  .000E+00  .000E+00  .000E+00  .000E+00
  .000E+00  .000E+00  .000E+00  .000E+00
  .156E+02  .156E+02  .156E+02  .157E+02  .156E+02  .156E+02  .156E+02  .156E+02
  .199E+02  .156E+02  .156E+02  .156E+02  .172E+02  .213E+02  .166E+02  .168E+02
  .299E+02  .157E+02  .157E+02  .168E+02  .163E+02  .273E+02  .274E+02  .157E+02
  .196E+02  .418E+02  .191E+02  .364E+02  .167E+02  .206E+02  .618E+02  .401E+02
  .246E+02  .587E+02  .300E+02  .208E+02  .320E+02  .694E+02  .245E+02  .354E+02
  .320E+02  .171E+02  .440E+02  .827E+02  .250E+02  .125E+03  .411E+02  .349E+02
  .832E+02  .384E+02  .312E+02  .658E+02  .339E+02  .109E+03  .275E+02  .646E+02
  .328E+02  .450E+02  .361E+02  .211E+03  .613E+02  .411E+02  .401E+02  .181E+03
  .575E+02  .455E+02  .232E+03  .384E+02  .000E+00  .000E+00  .000E+00  .000E+00
  .000E+00  .000E+00  .000E+00  .000E+00  .000E+00  .000E+00  .000E+00  .000E+00
  .000E+00  .000E+00  .000E+00  .000E+00  .000E+00  .000E+00  .000E+00  .000E+00
  .000E+00  .000E+00  .000E+00  .000E+00  .000E+00  .000E+00  .000E+00  .000E+00
  .000E+00  .000E+00  .000E+00  .000E+00
  .157E+02  .157E+02  .157E+02  .233E+02  .166E+02  .169E+02  .209E+02  .157E+02
  .199E+02  .163E+02  .268E+02  .267E+02  .174E+02  .213E+02  .164E+02  .167E+02
  .296E+02  .163E+02  .185E+02  .168E+02  .162E+02  .273E+02  .274E+02  .158E+02
  .195E+02  .415E+02  .187E+02  .364E+02  .166E+02  .206E+02  .610E+02  .401E+02
  .226E+02  .588E+02  .301E+02  .209E+02  .344E+02  .695E+02  .246E+02  .138E+03
  .318E+02  .170E+02  .531E+02  .828E+02  .283E+02  .138E+03  .401E+02  .351E+02
  .834E+02  .387E+02  .315E+02  .661E+02  .342E+02  .137E+03  .278E+02  .484E+02
  .323E+02  .446E+02  .357E+02  .211E+03  .608E+02  .247E+02  .407E+02  .180E+03
  .624E+02  .389E+02  .389E+02  .377E+02  .000E+00  .000E+00  .000E+00  .000E+00
  .000E+00  .000E+00  .000E+00  .000E+00  .000E+00  .000E+00  .000E+00  .000E+00
  .000E+00  .000E+00  .000E+00  .000E+00  .000E+00  .000E+00  .000E+00  .000E+00
  .000E+00  .000E+00  .000E+00  .000E+00  .000E+00  .000E+00  .000E+00  .000E+00
  .000E+00  .000E+00  .000E+00  .000E+00
  .156E+02  .156E+02  .156E+02  .157E+02  .156E+02  .156E+02  .156E+02  .156E+02
  .199E+02  .156E+02  .156E+02  .156E+02  .172E+02  .213E+02  .166E+02  .168E+02
  .299E+02  .157E+02  .157E+02  .168E+02  .163E+02  .273E+02  .274E+02  .157E+02
  .196E+02  .418E+02  .191E+02  .364E+02  .167E+02  .206E+02  .618E+02  .401E+02
  .246E+02  .587E+02  .300E+02  .208E+02  .320E+02  .694E+02  .245E+02  .354E+02
  .320E+02  .171E+02  .440E+02  .827E+02  .250E+02  .125E+03  .411E+02  .349E+02
  .832E+02  .384E+02  .312E+02  .658E+02  .339E+02  .109E+03  .275E+02  .646E+02
  .328E+02  .450E+02  .361E+02  .211E+03  .613E+02  .411E+02  .401E+02  .181E+03
  .575E+02  .455E+02  .232E+03  .384E+02  .000E+00  .000E+00  .000E+00  .000E+00
  .000E+00  .000E+00  .000E+00  .000E+00  .000E+00  .000E+00  .000E+00  .000E+00
  .000E+00  .000E+00  .000E+00  .000E+00  .000E+00  .000E+00  .000E+00  .000E+00
  .000E+00  .000E+00  .000E+00  .000E+00  .000E+00  .000E+00  .000E+00  .000E+00
  .000E+00  .000E+00  .000E+00  .000E+00
Damping =  .02. Data of Sd,Sv,Sa,Pssv,ttSd,ttSv,ttSa :
  .573E-03  .644E-03  .710E-03  .786E-03  .867E-03  .943E-03  .111E-02  .133E-02
  .156E-02  .210E-02  .256E-02  .300E-02  .310E-02  .424E-02  .429E-02  .520E-02
  .716E-02  .101E-01  .132E-01  .180E-01  .222E-01  .265E-01  .331E-01  .418E-01
  .436E-01  .539E-01  .514E-01  .644E-01  .664E-01  .606E-01  .496E-01  .708E-01
  .716E-01  .731E-01  .812E-01  .765E-01  .661E-01  .688E-01  .642E-01  .749E-01
  .755E-01  .101E+00  .109E+00  .173E+00  .154E+00  .150E+00  .213E+00  .292E+00
  .214E+00  .240E+00  .232E+00  .229E+00  .419E+00  .425E+00  .507E+00  .656E+00
  .720E+00  .625E+00  .538E+00  .459E+00  .533E+00  .576E+00  .762E+00  .580E+00
  .496E+00  .422E+00  .416E+00  .383E+00  .000E+00  .000E+00  .000E+00  .000E+00
  .000E+00  .000E+00  .000E+00  .000E+00  .000E+00  .000E+00  .000E+00  .000E+00
  .000E+00  .000E+00  .000E+00  .000E+00  .000E+00  .000E+00  .000E+00  .000E+00
  .000E+00  .000E+00  .000E+00  .000E+00  .000E+00  .000E+00  .000E+00  .000E+00
  .000E+00  .000E+00  .000E+00  .000E+00
  .195E-01  .228E-01  .252E-01  .285E-01  .305E-01  .321E-01  .404E-01  .706E-01
  .819E-01  .111E+00  .890E-01  .111E+00  .167E+00  .178E+00  .169E+00  .240E+00
  .314E+00  .387E+00  .508E+00  .677E+00  .818E+00  .934E+00  .119E+01  .137E+01
  .136E+01  .173E+01  .146E+01  .169E+01  .162E+01  .129E+01  .105E+01  .138E+01
  .130E+01  .127E+01  .141E+01  .121E+01  .104E+01  .124E+01  .919E+00  .970E+00
  .116E+01  .116E+01  .109E+01  .160E+01  .134E+01  .125E+01  .174E+01  .215E+01
  .170E+01  .156E+01  .135E+01  .116E+01  .216E+01  .207E+01  .217E+01  .288E+01
  .282E+01  .251E+01  .190E+01  .166E+01  .176E+01  .175E+01  .203E+01  .142E+01
  .122E+01  .106E+01  .963E+00  .936E+00  .000E+00  .000E+00  .000E+00  .000E+00
  .000E+00  .000E+00  .000E+00  .000E+00  .000E+00  .000E+00  .000E+00  .000E+00
  .000E+00  .000E+00  .000E+00  .000E+00  .000E+00  .000E+00  .000E+00  .000E+00
  .000E+00  .000E+00  .000E+00  .000E+00  .000E+00  .000E+00  .000E+00  .000E+00
  .000E+00  .000E+00  .000E+00  .000E+00
  .367E-01  .374E-01  .375E-01  .380E-01  .385E-01  .386E-01  .376E-01  .377E-01
  .379E-01  .438E-01  .466E-01  .480E-01  .439E-01  .536E-01  .486E-01  .533E-01
  .603E-01  .721E-01  .800E-01  .940E-01  .101E+00  .106E+00  .118E+00  .132E+00
  .124E+00  .139E+00  .108E+00  .114E+00  .100E+00  .788E-01  .566E-01  .708E-01
  .636E-01  .577E-01  .574E-01  .490E-01  .384E-01  .365E-01  .311E-01  .332E-01
  .308E-01  .342E-01  .311E-01  .417E-01  .321E-01  .273E-01  .341E-01  .413E-01
  .270E-01  .272E-01  .238E-01  .194E-01  .298E-01  .257E-01  .264E-01  .298E-01
  .288E-01  .221E-01  .170E-01  .130E-01  .136E-01  .122E-01  .135E-01  .879E-02
  .648E-02  .481E-02  .416E-02  .339E-02  .000E+00  .000E+00  .000E+00  .000E+00
  .000E+00  .000E+00  .000E+00  .000E+00  .000E+00  .000E+00  .000E+00  .000E+00
  .000E+00  .000E+00  .000E+00  .000E+00  .000E+00  .000E+00  .000E+00  .000E+00
  .000E+00  .000E+00  .000E+00  .000E+00  .000E+00  .000E+00  .000E+00  .000E+00
  .000E+00  .000E+00  .000E+00  .000E+00
  .901E-01  .964E-01  .101E+00  .107E+00  .113E+00  .118E+00  .127E+00  .139E+00
  .151E+00  .188E+00  .214E+00  .235E+00  .229E+00  .296E+00  .284E+00  .327E+00
  .409E+00  .531E+00  .637E+00  .810E+00  .932E+00  .104E+01  .122E+01  .146E+01
  .144E+01  .169E+01  .147E+01  .169E+01  .161E+01  .136E+01  .104E+01  .139E+01
  .132E+01  .128E+01  .134E+01  .120E+01  .988E+00  .983E+00  .877E+00  .980E+00
  .948E+00  .115E+01  .115E+01  .167E+01  .138E+01  .126E+01  .167E+01  .216E+01
  .149E+01  .158E+01  .146E+01  .131E+01  .219E+01  .205E+01  .227E+01  .275E+01
  .283E+01  .231E+01  .188E+01  .152E+01  .167E+01  .165E+01  .199E+01  .140E+01
  .111E+01  .885E+00  .817E+00  .707E+00  .000E+00  .000E+00  .000E+00  .000E+00
  .000E+00  .000E+00  .000E+00  .000E+00  .000E+00  .000E+00  .000E+00  .000E+00
  .000E+00  .000E+00  .000E+00  .000E+00  .000E+00  .000E+00  .000E+00  .000E+00
  .000E+00  .000E+00  .000E+00  .000E+00  .000E+00  .000E+00  .000E+00  .000E+00
  .000E+00  .000E+00  .000E+00  .000E+00
  .156E+02  .156E+02  .156E+02  .156E+02  .156E+02  .156E+02  .156E+02  .156E+02
  .156E+02  .157E+02  .156E+02  .156E+02  .156E+02  .156E+02  .156E+02  .157E+02
  .157E+02  .157E+02  .157E+02  .157E+02  .157E+02  .157E+02  .169E+02  .157E+02
  .158E+02  .167E+02  .164E+02  .158E+02  .158E+02  .172E+02  .158E+02  .211E+02
  .225E+02  .226E+02  .168E+02  .169E+02  .161E+02  .164E+02  .209E+02  .294E+02
  .129E+02  .135E+02  .337E+02  .195E+02  .250E+02  .238E+02  .174E+02  .205E+02
  .355E+02  .370E+02  .252E+02  .258E+02  .308E+02  .357E+02  .275E+02  .277E+02
  .320E+02  .357E+02  .360E+02  .266E+02  .361E+02  .410E+02  .401E+02  .392E+02
  .463E+02  .382E+02  .383E+02  .384E+02  .000E+00  .000E+00  .000E+00  .000E+00
  .000E+00  .000E+00  .000E+00  .000E+00  .000E+00  .000E+00  .000E+00  .000E+00
  .000E+00  .000E+00  .000E+00  .000E+00  .000E+00  .000E+00  .000E+00  .000E+00
  .000E+00  .000E+00  .000E+00  .000E+00  .000E+00  .000E+00  .000E+00  .000E+00
  .000E+00  .000E+00  .000E+00  .000E+00
  .157E+02  .157E+02  .157E+02  .157E+02  .157E+02  .157E+02  .157E+02  .102E+02
  .166E+02  .103E+02  .157E+02  .100E+02  .161E+02  .162E+02  .160E+02  .167E+02
  .167E+02  .158E+02  .158E+02  .158E+02  .158E+02  .158E+02  .169E+02  .158E+02
  .158E+02  .166E+02  .164E+02  .158E+02  .159E+02  .182E+02  .159E+02  .212E+02
  .224E+02  .181E+02  .169E+02  .170E+02  .168E+02  .156E+02  .157E+02  .296E+02
  .155E+02  .169E+02  .335E+02  .197E+02  .213E+02  .175E+02  .168E+02  .211E+02
  .204E+02  .368E+02  .255E+02  .255E+02  .311E+02  .366E+02  .278E+02  .274E+02
  .323E+02  .318E+02  .356E+02  .261E+02  .254E+02  .247E+02  .395E+02  .398E+02
  .458E+02  .389E+02  .389E+02  .377E+02  .000E+00  .000E+00  .000E+00  .000E+00
  .000E+00  .000E+00  .000E+00  .000E+00  .000E+00  .000E+00  .000E+00  .000E+00
  .000E+00  .000E+00  .000E+00  .000E+00  .000E+00  .000E+00  .000E+00  .000E+00
  .000E+00  .000E+00  .000E+00  .000E+00  .000E+00  .000E+00  .000E+00  .000E+00
  .000E+00  .000E+00  .000E+00  .000E+00
  .156E+02  .156E+02  .156E+02  .156E+02  .156E+02  .156E+02  .156E+02  .156E+02
  .156E+02  .157E+02  .156E+02  .156E+02  .157E+02  .156E+02  .156E+02  .156E+02
  .157E+02  .157E+02  .157E+02  .157E+02  .157E+02  .157E+02  .169E+02  .157E+02
  .158E+02  .167E+02  .164E+02  .158E+02  .158E+02  .172E+02  .158E+02  .211E+02
