Response and Fourier amplitude spectra (68 periods,  .04 -  3.4 sec)   for      
Corrected accelerogram   14383980.CI.STS.HNE.m      Chan  1:  90 Deg     from   
Uncorrected Accelerogram Data            CProcessed: 08/01/08, CDMG  cists-~1   
Record of Tue Jul 29, 2008 11:42:15.0 PDT             (Avol1 v7.9 7/08 CSMIP)   
                                        (Origin:  To be determined)             
14383980.CI.STS.HNE.m                Start time:  7/29/08, 18:42:15.0 UTC (GPS) 
Station Id. STS     33.790N, 118.199W     Q4120  s/n   89  (3 Chns of 18 at Sta)
Long Beach, I-405 & Pacific Coast Hwy    SCSN                                   
Chan  1:  90 Deg                    Location: Depth   0 m                       
Record of Tue Jul 29, 2008 11:42:15.0 PDT    Tue Jul 29, 2008 11:42:15.0 PDT    
Hypocenter:  To be determined.               ML:  To be determined.             
Instr Period =  .0050 sec,  Damping =  .707,  Sensitivity =10.00  v/g  (Nominal)
                        Record length =301.000 sec.                             
                                     Uncor Max  =   .044 g , at  15.960 sec.    
RMS accel of (uncor) record  =        .                                         
Accelerogram bandpass filtered with 3 dB pts at   .30 and 23.00 cyc/sec         
                 instrument- and baseline-corrected                             
                                                                                
                                                                                
                                                                                
                                                                                
                                                                                
Record of Tue Jul 29, 2008 11:42:15.0 PDT    Tue Jul 29, 2008 11:42:15.0 PDT    
                                                                                
14383980.CI.STS.HNE.m     Long Beach, I-405 & Pacific Coast Hwy   Chan  1:  90 D
eg                                                                              
14383980.CI.STS.HNE.m     Long Beach, I-405 & Pacific Coast Hwy   Chan  1:  90 D
eg                                                                              
Units for spectra are inches and sec, except Sa is in fraction of g.            
                                                                                
    1  100    1   18   18  100 -999    3    1    0  600   89    050576   41    0
   18   42   15    1  211    7   29 2008   10    3   9032466   41   37   76 -999
32466 -999   50    6 -999 -999 -999 -999 -999 -999 -999 -999 -999 -999 -999 -999
 -999    2 -999 -99915050    2 -999    0 -999   20   76 -999    1 -999    015050
    615050 -998   68    5    3    5 -999 -999 -999 -999 -999 -999    6 -999    2
    2    2    4 -999 -999 -999 -999 -999 -999 -999 -999    1 -999 -999 -999  111
    1    1 -999 -999
      .005      .707   324.660      .003  -999.000 10000.000      .044    15.960
   200.000     2.322      .232  -999.000    10.000  -999.000     2.000  -999.000
    20.000   -18.334      .000  -999.000  -999.000  -999.000  -999.000     -.002
      .000      .001     2.000    15.000    33.790  -118.199      .014      .184
    13.347      .000      .000     4.000  -999.000  -999.000  -999.000  -999.000
     1.000    -1.085      .000  -999.000  -999.000  -999.000  -999.000   120.000
     2.600     7.900     4.600   980.665      .020   301.000    31.831      .002
      .000    23.000      .000   301.000      .020      .303      .000      .000
    15.960    42.662    15.920    -3.739    23.640      .600      .000      .303
    23.000      .020      .020      .000      .020      .321      .000      .000
      .113      .150      .099      .063      .036      .006      .000      .000
      .000      .000      .000      .000      .000      .000      .000      .000
      .000      .000      .000      .000
      .000      .020      .050      .100      .200
      .040      .042      .044      .046      .048      .050      .055      .060
      .065      .070      .075      .080      .085      .090      .095      .100
      .110      .120      .130      .140      .150      .160      .170      .180
      .190      .200      .220      .240      .260      .280      .300      .320
      .340      .360      .380      .400      .420      .440      .460      .480
      .500      .550      .600      .650      .700      .750      .800      .850
      .900      .950     1.000     1.100     1.200     1.300     1.400     1.500
     1.600     1.700     1.800     1.900     2.000     2.200     2.400     2.600
     2.800     3.000     3.200     3.400      .000      .000      .000      .000
      .000      .000      .000      .000      .000      .000      .000      .000
      .000      .000      .000      .000      .000      .000      .000      .000
      .000      .000      .000      .000      .000      .000      .000      .000
      .000      .000      .000      .000
Fourier amplitude spectra in in/sec.
  .142E-02  .259E-01  .330E-01  .606E-01  .123E+00  .112E+00  .237E+00  .185E+00
  .178E+00  .166E+00  .952E+00  .823E+00  .643E+00  .218E+01  .193E+01  .109E+01
  .197E+01  .558E+00  .488E+00  .225E+01  .142E+01  .213E+01  .284E+01  .127E+01
  .249E+00  .890E+00  .493E+00  .953E+00  .117E+01  .260E+01  .620E+00  .222E+01
  .355E+01  .212E+01  .684E+01  .614E+01  .536E+01  .823E+01  .572E+01  .250E+01
  .367E+01  .259E+01  .567E+01  .640E+01  .363E+01  .852E+01  .556E+01  .543E+01
  .648E+01  .360E+01  .673E+01  .784E+01  .821E+01  .394E+01  .388E+01  .755E+01
  .701E+01  .441E+01  .445E+01  .216E+01  .372E+01  .186E+01  .112E+01  .235E+01
  .220E+01  .159E+01  .274E+00  .188E-01  .000E+00  .000E+00  .000E+00  .000E+00
  .000E+00  .000E+00  .000E+00  .000E+00  .000E+00  .000E+00  .000E+00  .000E+00
  .000E+00  .000E+00  .000E+00  .000E+00  .000E+00  .000E+00  .000E+00  .000E+00
  .000E+00  .000E+00  .000E+00  .000E+00  .000E+00  .000E+00  .000E+00  .000E+00
  .000E+00  .000E+00  .000E+00  .000E+00
Damping =  .00. Data of Sd,Sv,Sa,Pssv,ttSd,ttSv,ttSa :
  .689E-03  .788E-03  .843E-03  .104E-02  .133E-02  .150E-02  .295E-02  .205E-02
  .327E-02  .366E-02  .120E-01  .117E-01  .130E-01  .319E-01  .299E-01  .225E-01
  .366E-01  .197E-01  .269E-01  .614E-01  .358E-01  .639E-01  .884E-01  .558E-01
  .659E-01  .727E-01  .559E-01  .962E-01  .573E-01  .117E+00  .124E+00  .185E+00
  .205E+00  .238E+00  .453E+00  .401E+00  .363E+00  .590E+00  .423E+00  .460E+00
  .466E+00  .376E+00  .791E+00  .668E+00  .511E+00  .102E+01  .980E+00  .930E+00
  .109E+01  .722E+00  .133E+01  .148E+01  .184E+01  .103E+01  .134E+01  .200E+01
  .207E+01  .121E+01  .129E+01  .118E+01  .156E+01  .878E+00  .578E+00  .101E+01
  .104E+01  .846E+00  .568E+00  .447E+00  .000E+00  .000E+00  .000E+00  .000E+00
  .000E+00  .000E+00  .000E+00  .000E+00  .000E+00  .000E+00  .000E+00  .000E+00
  .000E+00  .000E+00  .000E+00  .000E+00  .000E+00  .000E+00  .000E+00  .000E+00
  .000E+00  .000E+00  .000E+00  .000E+00  .000E+00  .000E+00  .000E+00  .000E+00
  .000E+00  .000E+00  .000E+00  .000E+00
  .290E-01  .414E-01  .491E-01  .908E-01  .131E+00  .151E+00  .305E+00  .188E+00
  .288E+00  .305E+00  .961E+00  .888E+00  .935E+00  .219E+01  .195E+01  .133E+01
  .206E+01  .962E+00  .129E+01  .264E+01  .144E+01  .243E+01  .323E+01  .201E+01
  .219E+01  .217E+01  .152E+01  .247E+01  .136E+01  .264E+01  .267E+01  .360E+01
  .376E+01  .398E+01  .750E+01  .628E+01  .541E+01  .844E+01  .576E+01  .597E+01
  .576E+01  .429E+01  .826E+01  .645E+01  .467E+01  .853E+01  .764E+01  .676E+01
  .762E+01  .482E+01  .836E+01  .842E+01  .963E+01  .506E+01  .603E+01  .834E+01
  .818E+01  .448E+01  .452E+01  .395E+01  .489E+01  .304E+01  .171E+01  .246E+01
  .252E+01  .257E+01  .207E+01  .166E+01  .000E+00  .000E+00  .000E+00  .000E+00
  .000E+00  .000E+00  .000E+00  .000E+00  .000E+00  .000E+00  .000E+00  .000E+00
  .000E+00  .000E+00  .000E+00  .000E+00  .000E+00  .000E+00  .000E+00  .000E+00
  .000E+00  .000E+00  .000E+00  .000E+00  .000E+00  .000E+00  .000E+00  .000E+00
  .000E+00  .000E+00  .000E+00  .000E+00
  .440E-01  .457E-01  .446E-01  .500E-01  .591E-01  .615E-01  .999E-01  .581E-01
  .791E-01  .763E-01  .219E+00  .187E+00  .184E+00  .403E+00  .339E+00  .231E+00
  .310E+00  .140E+00  .163E+00  .320E+00  .163E+00  .255E+00  .313E+00  .176E+00
  .187E+00  .186E+00  .118E+00  .171E+00  .866E-01  .153E+00  .140E+00  .185E+00
  .181E+00  .187E+00  .321E+00  .256E+00  .211E+00  .312E+00  .204E+00  .204E+00
  .191E+00  .127E+00  .225E+00  .162E+00  .107E+00  .186E+00  .157E+00  .132E+00
  .138E+00  .818E-01  .136E+00  .125E+00  .131E+00  .623E-01  .698E-01  .909E-01
  .828E-01  .429E-01  .408E-01  .335E-01  .399E-01  .186E-01  .103E-01  .154E-01
  .136E-01  .961E-02  .567E-02  .396E-02  .000E+00  .000E+00  .000E+00  .000E+00
  .000E+00  .000E+00  .000E+00  .000E+00  .000E+00  .000E+00  .000E+00  .000E+00
  .000E+00  .000E+00  .000E+00  .000E+00  .000E+00  .000E+00  .000E+00  .000E+00
  .000E+00  .000E+00  .000E+00  .000E+00  .000E+00  .000E+00  .000E+00  .000E+00
  .000E+00  .000E+00  .000E+00  .000E+00
  .108E+00  .118E+00  .120E+00  .141E+00  .174E+00  .189E+00  .338E+00  .214E+00
  .316E+00  .328E+00  .101E+01  .919E+00  .960E+00  .223E+01  .198E+01  .142E+01
  .209E+01  .103E+01  .130E+01  .275E+01  .150E+01  .251E+01  .327E+01  .195E+01
  .218E+01  .228E+01  .160E+01  .252E+01  .138E+01  .263E+01  .259E+01  .363E+01
  .379E+01  .415E+01  .749E+01  .630E+01  .544E+01  .842E+01  .577E+01  .602E+01
  .586E+01  .429E+01  .828E+01  .645E+01  .458E+01  .855E+01  .770E+01  .688E+01
  .764E+01  .478E+01  .833E+01  .843E+01  .962E+01  .498E+01  .600E+01  .837E+01
  .814E+01  .448E+01  .451E+01  .392E+01  .490E+01  .251E+01  .151E+01  .245E+01
  .234E+01  .177E+01  .111E+01  .827E+00  .000E+00  .000E+00  .000E+00  .000E+00
  .000E+00  .000E+00  .000E+00  .000E+00  .000E+00  .000E+00  .000E+00  .000E+00
  .000E+00  .000E+00  .000E+00  .000E+00  .000E+00  .000E+00  .000E+00  .000E+00
  .000E+00  .000E+00  .000E+00  .000E+00  .000E+00  .000E+00  .000E+00  .000E+00
  .000E+00  .000E+00  .000E+00  .000E+00
  .160E+02  .160E+02  .160E+02  .196E+02  .241E+02  .244E+02  .196E+02  .411E+02
  .226E+02  .160E+02  .244E+02  .235E+02  .202E+02  .196E+02  .472E+02  .222E+02
  .294E+02  .165E+02  .187E+02  .254E+02  .369E+02  .252E+02  .306E+02  .165E+02
  .185E+02  .193E+02  .163E+02  .192E+02  .206E+02  .661E+02  .194E+02  .253E+02
  .569E+02  .331E+02  .513E+02  .800E+02  .821E+02  .775E+02  .101E+03  .388E+02
  .314E+02  .172E+02  .258E+02  .126E+03  .214E+02  .127E+03  .308E+02  .403E+02
  .721E+02  .647E+02  .848E+02  .639E+02  .673E+02  .118E+03  .730E+02  .117E+03
  .104E+03  .178E+03  .123E+03  .952E+02  .799E+02  .438E+02  .107E+03  .195E+03
  .537E+02  .172E+03  .236E+02  .236E+02  .000E+00  .000E+00  .000E+00  .000E+00
  .000E+00  .000E+00  .000E+00  .000E+00  .000E+00  .000E+00  .000E+00  .000E+00
  .000E+00  .000E+00  .000E+00  .000E+00  .000E+00  .000E+00  .000E+00  .000E+00
  .000E+00  .000E+00  .000E+00  .000E+00  .000E+00  .000E+00  .000E+00  .000E+00
  .000E+00  .000E+00  .000E+00  .000E+00
  .186E+02  .219E+02  .205E+02  .201E+02  .252E+02  .229E+02  .211E+02  .377E+02
  .228E+02  .177E+02  .435E+02  .232E+02  .202E+02  .683E+02  .470E+02  .221E+02
  .291E+02  .164E+02  .187E+02  .254E+02  .684E+02  .252E+02  .309E+02  .166E+02
  .185E+02  .192E+02  .164E+02  .186E+02  .207E+02  .664E+02  .194E+02  .252E+02
  .570E+02  .331E+02  .518E+02  .799E+02  .820E+02  .776E+02  .114E+03  .389E+02
  .312E+02  .190E+02  .256E+02  .128E+03  .212E+02  .179E+03  .310E+02  .414E+02
  .728E+02  .649E+02  .851E+02  .636E+02  .676E+02  .319E+02  .733E+02  .116E+03
  .103E+03  .178E+03  .122E+03  .947E+02  .794E+02  .239E+02  .239E+02  .195E+03
  .502E+02  .239E+02  .239E+02  .159E+02  .000E+00  .000E+00  .000E+00  .000E+00
  .000E+00  .000E+00  .000E+00  .000E+00  .000E+00  .000E+00  .000E+00  .000E+00
  .000E+00  .000E+00  .000E+00  .000E+00  .000E+00  .000E+00  .000E+00  .000E+00
  .000E+00  .000E+00  .000E+00  .000E+00  .000E+00  .000E+00  .000E+00  .000E+00
  .000E+00  .000E+00  .000E+00  .000E+00
  .160E+02  .160E+02  .160E+02  .196E+02  .241E+02  .244E+02  .196E+02  .411E+02
  .226E+02  .160E+02  .244E+02  .235E+02  .202E+02  .196E+02  .472E+02  .222E+02
  .294E+02  .165E+02  .187E+02  .254E+02  .369E+02  .252E+02  .306E+02  .165E+02
  .185E+02  .193E+02  .163E+02  .192E+02  .206E+02  .661E+02  .194E+02  .253E+02
  .569E+02  .331E+02  .513E+02  .800E+02  .821E+02  .775E+02  .101E+03  .388E+02
  .314E+02  .172E+02  .258E+02  .126E+03  .214E+02  .127E+03  .308E+02  .403E+02
  .721E+02  .647E+02  .848E+02  .639E+02  .673E+02  .118E+03  .730E+02  .117E+03
  .104E+03  .178E+03  .123E+03  .952E+02  .799E+02  .438E+02  .107E+03  .195E+03
  .537E+02  .172E+03  .236E+02  .236E+02  .000E+00  .000E+00  .000E+00  .000E+00
  .000E+00  .000E+00  .000E+00  .000E+00  .000E+00  .000E+00  .000E+00  .000E+00
  .000E+00  .000E+00  .000E+00  .000E+00  .000E+00  .000E+00  .000E+00  .000E+00
  .000E+00  .000E+00  .000E+00  .000E+00  .000E+00  .000E+00  .000E+00  .000E+00
  .000E+00  .000E+00  .000E+00  .000E+00
Damping =  .02. Data of Sd,Sv,Sa,Pssv,ttSd,ttSv,ttSa :
  .681E-03  .747E-03  .839E-03  .912E-03  .102E-02  .111E-02  .145E-02  .176E-02
  .196E-02  .284E-02  .361E-02  .498E-02  .701E-02  .126E-01  .103E-01  .114E-01
  .142E-01  .149E-01  .189E-01  .253E-01  .293E-01  .379E-01  .361E-01  .419E-01
  .475E-01  .496E-01  .473E-01  .519E-01  .570E-01  .719E-01  .660E-01  .864E-01
  .811E-01  .115E+00  .129E+00  .124E+00  .129E+00  .209E+00  .181E+00  .209E+00
  .226E+00  .274E+00  .353E+00  .310E+00  .328E+00  .431E+00  .473E+00  .375E+00
  .378E+00  .450E+00  .512E+00  .552E+00  .559E+00  .633E+00  .656E+00  .691E+00
  .976E+00  .717E+00  .454E+00  .760E+00  .927E+00  .735E+00  .405E+00  .574E+00
  .714E+00  .615E+00  .501E+00  .420E+00  .000E+00  .000E+00  .000E+00  .000E+00
  .000E+00  .000E+00  .000E+00  .000E+00  .000E+00  .000E+00  .000E+00  .000E+00
  .000E+00  .000E+00  .000E+00  .000E+00  .000E+00  .000E+00  .000E+00  .000E+00
  .000E+00  .000E+00  .000E+00  .000E+00  .000E+00  .000E+00  .000E+00  .000E+00
  .000E+00  .000E+00  .000E+00  .000E+00
  .261E-01  .267E-01  .341E-01  .458E-01  .493E-01  .620E-01  .102E+00  .984E-01
  .127E+00  .184E+00  .228E+00  .336E+00  .422E+00  .739E+00  .626E+00  .696E+00
  .707E+00  .746E+00  .883E+00  .103E+01  .106E+01  .141E+01  .137E+01  .139E+01
  .146E+01  .146E+01  .132E+01  .136E+01  .134E+01  .161E+01  .138E+01  .167E+01
  .149E+01  .188E+01  .206E+01  .180E+01  .175E+01  .293E+01  .244E+01  .267E+01
  .281E+01  .312E+01  .362E+01  .295E+01  .294E+01  .331E+01  .385E+01  .268E+01
  .280E+01  .291E+01  .322E+01  .321E+01  .292E+01  .314E+01  .295E+01  .287E+01
  .403E+01  .311E+01  .192E+01  .273E+01  .326E+01  .277E+01  .183E+01  .221E+01
  .232E+01  .239E+01  .204E+01  .170E+01  .000E+00  .000E+00  .000E+00  .000E+00
  .000E+00  .000E+00  .000E+00  .000E+00  .000E+00  .000E+00  .000E+00  .000E+00
  .000E+00  .000E+00  .000E+00  .000E+00  .000E+00  .000E+00  .000E+00  .000E+00
  .000E+00  .000E+00  .000E+00  .000E+00  .000E+00  .000E+00  .000E+00  .000E+00
  .000E+00  .000E+00  .000E+00  .000E+00
  .436E-01  .433E-01  .443E-01  .441E-01  .454E-01  .454E-01  .488E-01  .501E-01
  .474E-01  .593E-01  .655E-01  .797E-01  .998E-01  .159E+00  .116E+00  .117E+00
  .121E+00  .106E+00  .115E+00  .132E+00  .133E+00  .152E+00  .128E+00  .132E+00
  .135E+00  .128E+00  .101E+00  .926E-01  .863E-01  .944E-01  .748E-01  .863E-01
  .720E-01  .905E-01  .911E-01  .789E-01  .750E-01  .111E+00  .871E-01  .928E-01
  .929E-01  .924E-01  .100E+00  .750E-01  .684E-01  .784E-01  .755E-01  .530E-01
  .478E-01  .509E-01  .524E-01  .466E-01  .398E-01  .383E-01  .343E-01  .314E-01
  .390E-01  .254E-01  .144E-01  .215E-01  .237E-01  .155E-01  .720E-02  .870E-02
  .932E-02  .701E-02  .502E-02  .373E-02  .000E+00  .000E+00  .000E+00  .000E+00
  .000E+00  .000E+00  .000E+00  .000E+00  .000E+00  .000E+00  .000E+00  .000E+00
  .000E+00  .000E+00  .000E+00  .000E+00  .000E+00  .000E+00  .000E+00  .000E+00
  .000E+00  .000E+00  .000E+00  .000E+00  .000E+00  .000E+00  .000E+00  .000E+00
  .000E+00  .000E+00  .000E+00  .000E+00
  .107E+00  .112E+00  .120E+00  .125E+00  .134E+00  .140E+00  .165E+00  .184E+00
  .189E+00  .255E+00  .302E+00  .391E+00  .518E+00  .879E+00  .680E+00  .719E+00
  .814E+00  .779E+00  .916E+00  .114E+01  .123E+01  .149E+01  .133E+01  .146E+01
  .157E+01  .156E+01  .135E+01  .136E+01  .138E+01  .161E+01  .138E+01  .170E+01
  .150E+01  .200E+01  .213E+01  .194E+01  .193E+01  .298E+01  .247E+01  .273E+01
  .284E+01  .313E+01  .369E+01  .299E+01  .294E+01  .361E+01  .372E+01  .277E+01
  .264E+01  .297E+01  .322E+01  .315E+01  .293E+01  .306E+01  .295E+01  .289E+01
  .383E+01  .265E+01  .159E+01  .251E+01  .291E+01  .210E+01  .106E+01  .139E+01
  .160E+01  .129E+01  .984E+00  .777E+00  .000E+00  .000E+00  .000E+00  .000E+00
  .000E+00  .000E+00  .000E+00  .000E+00  .000E+00  .000E+00  .000E+00  .000E+00
  .000E+00  .000E+00  .000E+00  .000E+00  .000E+00  .000E+00  .000E+00  .000E+00
  .000E+00  .000E+00  .000E+00  .000E+00  .000E+00  .000E+00  .000E+00  .000E+00
  .000E+00  .000E+00  .000E+00  .000E+00
  .160E+02  .160E+02  .160E+02  .160E+02  .160E+02  .160E+02  .196E+02  .159E+02
  .159E+02  .160E+02  .191E+02  .202E+02  .191E+02  .191E+02  .166E+02  .170E+02
  .191E+02  .163E+02  .161E+02  .161E+02  .161E+02  .171E+02  .166E+02  .163E+02
  .163E+02  .163E+02  .163E+02  .198E+02  .198E+02  .198E+02  .176E+02  .253E+02
  .160E+02  .261E+02  .194E+02  .198E+02  .237E+02  .247E+02  .370E+02  .335E+02
  .199E+02  .172E+02  .227E+02  .191E+02  .340E+02  .243E+02  .292E+02  .323E+02
  .249E+02  .429E+02  .429E+02  .250E+02  .252E+02  .252E+02  .261E+02  .261E+02
  .255E+02  .257E+02  .256E+02  .256E+02  .258E+02  .242E+02  .242E+02  .252E+02
  .242E+02  .244E+02  .236E+02  .236E+02  .000E+00  .000E+00  .000E+00  .000E+00
  .000E+00  .000E+00  .000E+00  .000E+00  .000E+00  .000E+00  .000E+00  .000E+00
  .000E+00  .000E+00  .000E+00  .000E+00  .000E+00  .000E+00  .000E+00  .000E+00
  .000E+00  .000E+00  .000E+00  .000E+00  .000E+00  .000E+00  .000E+00  .000E+00
  .000E+00  .000E+00  .000E+00  .000E+00
  .191E+02  .191E+02  .191E+02  .191E+02  .191E+02  .191E+02  .168E+02  .197E+02
  .169E+02  .202E+02  .169E+02  .202E+02  .191E+02  .191E+02  .166E+02  .166E+02
  .191E+02  .163E+02  .167E+02  .199E+02  .162E+02  .171E+02  .165E+02  .166E+02
  .163E+02  .162E+02  .163E+02  .198E+02  .198E+02  .198E+02  .194E+02  .252E+02
  .253E+02  .260E+02  .195E+02  .198E+02  .370E+02  .248E+02  .371E+02  .336E+02
  .203E+02  .171E+02  .226E+02  .189E+02  .342E+02  .241E+02  .293E+02  .329E+02
  .197E+02  .427E+02  .427E+02  .247E+02  .352E+02  .262E+02  .264E+02  .264E+02
  .259E+02  .245E+02  .260E+02  .260E+02  .245E+02  .245E+02  .239E+02  .245E+02
  .239E+02  .239E+02  .239E+02  .239E+02  .000E+00  .000E+00  .000E+00  .000E+00
  .000E+00  .000E+00  .000E+00  .000E+00  .000E+00  .000E+00  .000E+00  .000E+00
  .000E+00  .000E+00  .000E+00  .000E+00  .000E+00  .000E+00  .000E+00  .000E+00
  .000E+00  .000E+00  .000E+00  .000E+00  .000E+00  .000E+00  .000E+00  .000E+00
  .000E+00  .000E+00  .000E+00  .000E+00
  .160E+02  .160E+02  .160E+02  .160E+02  .160E+02  .160E+02  .196E+02  .159E+02
  .159E+02  .160E+02  .191E+02  .202E+02  .191E+02  .191E+02  .166E+02  .170E+02
  .191E+02  .163E+02  .161E+02  .161E+02  .161E+02  .171E+02  .166E+02  .163E+02
  .163E+02  .163E+02  .163E+02  .198E+02  .198E+02  .198E+02  .193E+02  .253E+02
