Response and Fourier amplitude spectra (68 periods,  .04 -  3.4 sec)   for      
Corrected accelerogram   05341-K1983-08211.13       Chan  1:  90 Deg     from   
Uncorrected Accelerogram Data             Processed: 07/29/08, CDMG  aq013      
Record of Tue Jul 29, 2008 11:41:36.0 PDT             (Avol1 v7.9 7/08 CSMIP)   
CSMIP Preliminary Processing            (Origin:  To be determined)             
05341-K1983-08211.13                 Start time:  7/29/08, 18:41 GMT (*LoQ*)    
Station No.  5341   34.058N, 117.305W        K2  s/n 1983  (3 Channels)         
Colton - Kaiser Medical Clinic           USGS                                   
Chan  1:  90 Deg                                                                
Record of Tue Jul 29, 2008 11:41:36.0 PDT    Tue Jul 29, 2008 11:41:36.0 PDT    
Hypocenter:  To be determined.               ML:  To be determined.             
Instr Period =  .0047 sec,  Damping =  .700,  Sensitivity = 1.25  v/g  (Nominal)
                        Record length = 95.000 sec.                             
                                     Uncor Max  =   .023 g , at  36.415 sec.    
RMS accel of (uncor) record  =        .   Chn. metadata effective date:         
Accelerogram bandpass filtered with 3 dB pts at   .30 and 40.00 cyc/sec         
                 instrument- and baseline-corrected                             
                                                                                
                                                                                
                                                                                
                                                                                
                                                                                
Record of Tue Jul 29, 2008 11:41:36.0 PDT    Tue Jul 29, 2008 11:41:36.0 PDT    
                                                                                
05341-K1983-08211.13      Colton - Kaiser Medical Clinic    Chan  1:  90 Deg    
                                                                                
05341-K1983-08211.13      Colton - Kaiser Medical Clinic    Chan  1:  90 Deg    
                                                                                
Units for spectra are inches and sec, except Sa is in fraction of g.            
                                                                                
    1  100    1    4    3  200    1    3    1   24   11 1983    0 5341    1    0
   18   41   36    0  211    7   29 2008    3    8   9019000   41   30   76  -99
19000    1   50    2 1983    1   13  950    2    0    0    0    0    0    0    0
    0    2    0    0 9500    2  200    0   18   20   76   30    1    1    0 9500
    3 9500   31   68    5    3    5    0    0    0    3    0    0    2    0    2
    2    2    4    0   32   99    0   32   32    0    6    1    0    0    0    0
    1    1    9    0
      .005      .700    95.000      .003      .000  1252.200      .023    36.415
   214.000      .298      .238      .000     5.000      .000     1.996      .000
     2.500    -5.410     2.500  -999.000    30.000    40.000      .000     -.003
      .015      .018     2.000    15.000    34.058  -117.305      .025      .300
    11.854      .000      .000  -999.000    30.900    54.000    13.600    81.860
     1.000     1.228      .000      .000      .000      .000      .000      .000
     4.200     7.900     4.600   980.665      .010    95.000    34.059      .001
      .000    40.000      .000    95.000      .010      .303      .000      .000
    36.420    22.581    36.330    -1.500    36.190      .161      .000      .303
    40.000      .010      .010      .000      .010      .078      .000      .000
      .098      .280      .055      .091      .012      .001      .000      .000
      .000      .000      .000      .000      .000      .000      .000      .000
      .000      .000      .000      .000
      .000      .020      .050      .100      .200
      .040      .042      .044      .046      .048      .050      .055      .060
      .065      .070      .075      .080      .085      .090      .095      .100
      .110      .120      .130      .140      .150      .160      .170      .180
      .190      .200      .220      .240      .260      .280      .300      .320
      .340      .360      .380      .400      .420      .440      .460      .480
      .500      .550      .600      .650      .700      .750      .800      .850
      .900      .950     1.000     1.100     1.200     1.300     1.400     1.500
     1.600     1.700     1.800     1.900     2.000     2.200     2.400     2.600
     2.800     3.000     3.200     3.400      .000      .000      .000      .000
      .000      .000      .000      .000      .000      .000      .000      .000
      .000      .000      .000      .000      .000      .000      .000      .000
      .000      .000      .000      .000      .000      .000      .000      .000
      .000      .000      .000      .000
Fourier amplitude spectra in in/sec.
  .206E-01  .239E-01  .704E-01  .106E+00  .871E-01  .379E-01  .459E-01  .144E+00
  .311E+00  .170E+00  .637E+00  .280E+00  .682E+00  .650E+00  .351E+00  .151E+01
  .101E+00  .447E+00  .623E+00  .130E+01  .186E+01  .864E+00  .110E+01  .128E+01
  .536E+00  .229E+01  .270E+01  .118E+01  .921E+00  .507E+01  .329E+01  .404E+01
  .843E+00  .875E+00  .294E+01  .114E+01  .140E+01  .172E+01  .338E+01  .334E+01
  .156E+01  .560E+00  .208E+01  .164E+01  .522E+01  .221E+01  .737E+00  .113E+01
  .161E+01  .103E+01  .616E+00  .215E+00  .116E+01  .159E+01  .526E+00  .136E+01
  .129E+01  .179E+00  .962E+00  .924E+00  .166E+01  .657E-01  .708E+00  .343E+00
  .338E+00  .105E+00  .152E+00  .179E+00  .000E+00  .000E+00  .000E+00  .000E+00
  .000E+00  .000E+00  .000E+00  .000E+00  .000E+00  .000E+00  .000E+00  .000E+00
  .000E+00  .000E+00  .000E+00  .000E+00  .000E+00  .000E+00  .000E+00  .000E+00
  .000E+00  .000E+00  .000E+00  .000E+00  .000E+00  .000E+00  .000E+00  .000E+00
  .000E+00  .000E+00  .000E+00  .000E+00
Damping =  .00. Data of Sd,Sv,Sa,Pssv,ttSd,ttSv,ttSa :
  .547E-03  .538E-03  .835E-03  .990E-03  .118E-02  .935E-03  .138E-02  .157E-02
  .438E-02  .309E-02  .833E-02  .562E-02  .945E-02  .109E-01  .141E-01  .262E-01
  .218E-01  .143E-01  .289E-01  .379E-01  .476E-01  .415E-01  .373E-01  .467E-01
  .491E-01  .749E-01  .945E-01  .107E+00  .739E-01  .245E+00  .203E+00  .264E+00
  .177E+00  .229E+00  .187E+00  .199E+00  .191E+00  .146E+00  .303E+00  .285E+00
  .177E+00  .132E+00  .239E+00  .228E+00  .583E+00  .264E+00  .174E+00  .187E+00
  .256E+00  .225E+00  .220E+00  .151E+00  .269E+00  .359E+00  .220E+00  .345E+00
  .344E+00  .247E+00  .284E+00  .306E+00  .616E+00  .265E+00  .300E+00  .176E+00
  .196E+00  .112E+00  .116E+00  .130E+00  .000E+00  .000E+00  .000E+00  .000E+00
  .000E+00  .000E+00  .000E+00  .000E+00  .000E+00  .000E+00  .000E+00  .000E+00
  .000E+00  .000E+00  .000E+00  .000E+00  .000E+00  .000E+00  .000E+00  .000E+00
  .000E+00  .000E+00  .000E+00  .000E+00  .000E+00  .000E+00  .000E+00  .000E+00
  .000E+00  .000E+00  .000E+00  .000E+00
  .511E-01  .436E-01  .757E-01  .121E+00  .117E+00  .670E-01  .114E+00  .146E+00
  .368E+00  .240E+00  .657E+00  .400E+00  .694E+00  .714E+00  .905E+00  .165E+01
  .125E+01  .732E+00  .130E+01  .162E+01  .199E+01  .164E+01  .136E+01  .157E+01
  .158E+01  .235E+01  .271E+01  .270E+01  .178E+01  .552E+01  .427E+01  .515E+01
  .345E+01  .416E+01  .310E+01  .313E+01  .294E+01  .210E+01  .412E+01  .372E+01
  .219E+01  .161E+01  .250E+01  .234E+01  .522E+01  .221E+01  .135E+01  .142E+01
  .180E+01  .147E+01  .141E+01  .125E+01  .142E+01  .169E+01  .108E+01  .145E+01
  .134E+01  .101E+01  .988E+00  .102E+01  .194E+01  .822E+00  .857E+00  .780E+00
  .715E+00  .666E+00  .643E+00  .639E+00  .000E+00  .000E+00  .000E+00  .000E+00
  .000E+00  .000E+00  .000E+00  .000E+00  .000E+00  .000E+00  .000E+00  .000E+00
  .000E+00  .000E+00  .000E+00  .000E+00  .000E+00  .000E+00  .000E+00  .000E+00
  .000E+00  .000E+00  .000E+00  .000E+00  .000E+00  .000E+00  .000E+00  .000E+00
  .000E+00  .000E+00  .000E+00  .000E+00
  .350E-01  .312E-01  .441E-01  .479E-01  .525E-01  .383E-01  .468E-01  .445E-01
  .106E+00  .646E-01  .152E+00  .899E-01  .134E+00  .138E+00  .160E+00  .268E+00
  .185E+00  .102E+00  .175E+00  .198E+00  .216E+00  .166E+00  .132E+00  .147E+00
  .139E+00  .192E+00  .200E+00  .191E+00  .112E+00  .320E+00  .231E+00  .264E+00
  .157E+00  .180E+00  .133E+00  .127E+00  .111E+00  .770E-01  .146E+00  .127E+00
  .723E-01  .448E-01  .680E-01  .553E-01  .122E+00  .481E-01  .278E-01  .265E-01
  .323E-01  .256E-01  .225E-01  .128E-01  .191E-01  .217E-01  .115E-01  .157E-01
  .137E-01  .873E-02  .896E-02  .866E-02  .158E-01  .560E-02  .532E-02  .267E-02
  .256E-02  .127E-02  .116E-02  .115E-02  .000E+00  .000E+00  .000E+00  .000E+00
  .000E+00  .000E+00  .000E+00  .000E+00  .000E+00  .000E+00  .000E+00  .000E+00
  .000E+00  .000E+00  .000E+00  .000E+00  .000E+00  .000E+00  .000E+00  .000E+00
  .000E+00  .000E+00  .000E+00  .000E+00  .000E+00  .000E+00  .000E+00  .000E+00
  .000E+00  .000E+00  .000E+00  .000E+00
  .860E-01  .805E-01  .119E+00  .135E+00  .155E+00  .118E+00  .158E+00  .164E+00
  .424E+00  .278E+00  .698E+00  .442E+00  .699E+00  .763E+00  .932E+00  .165E+01
  .125E+01  .751E+00  .140E+01  .170E+01  .199E+01  .163E+01  .138E+01  .163E+01
  .162E+01  .235E+01  .270E+01  .281E+01  .179E+01  .551E+01  .425E+01  .519E+01
  .327E+01  .399E+01  .310E+01  .313E+01  .286E+01  .208E+01  .413E+01  .373E+01
  .222E+01  .151E+01  .251E+01  .221E+01  .524E+01  .221E+01  .136E+01  .138E+01
  .179E+01  .149E+01  .138E+01  .862E+00  .141E+01  .173E+01  .989E+00  .144E+01
  .135E+01  .911E+00  .991E+00  .101E+01  .194E+01  .757E+00  .785E+00  .426E+00
  .440E+00  .235E+00  .228E+00  .241E+00  .000E+00  .000E+00  .000E+00  .000E+00
  .000E+00  .000E+00  .000E+00  .000E+00  .000E+00  .000E+00  .000E+00  .000E+00
  .000E+00  .000E+00  .000E+00  .000E+00  .000E+00  .000E+00  .000E+00  .000E+00
  .000E+00  .000E+00  .000E+00  .000E+00  .000E+00  .000E+00  .000E+00  .000E+00
  .000E+00  .000E+00  .000E+00  .000E+00
  .378E+02  .401E+02  .381E+02  .416E+02  .416E+02  .401E+02  .375E+02  .372E+02
  .401E+02  .401E+02  .401E+02  .405E+02  .668E+02  .402E+02  .375E+02  .512E+02
  .380E+02  .393E+02  .405E+02  .417E+02  .543E+02  .394E+02  .400E+02  .380E+02
  .399E+02  .641E+02  .919E+02  .402E+02  .388E+02  .411E+02  .398E+02  .448E+02
  .382E+02  .407E+02  .727E+02  .437E+02  .373E+02  .479E+02  .671E+02  .528E+02
  .566E+02  .368E+02  .502E+02  .395E+02  .854E+02  .951E+02  .485E+02  .574E+02
  .785E+02  .573E+02  .467E+02  .364E+02  .839E+02  .819E+02  .524E+02  .867E+02
  .870E+02  .458E+02  .912E+02  .790E+02  .834E+02  .698E+02  .857E+02  .821E+02
  .821E+02  .448E+02  .811E+02  .777E+02  .000E+00  .000E+00  .000E+00  .000E+00
  .000E+00  .000E+00  .000E+00  .000E+00  .000E+00  .000E+00  .000E+00  .000E+00
  .000E+00  .000E+00  .000E+00  .000E+00  .000E+00  .000E+00  .000E+00  .000E+00
  .000E+00  .000E+00  .000E+00  .000E+00  .000E+00  .000E+00  .000E+00  .000E+00
  .000E+00  .000E+00  .000E+00  .000E+00
  .366E+02  .401E+02  .560E+02  .419E+02  .444E+02  .405E+02  .375E+02  .625E+02
  .427E+02  .398E+02  .659E+02  .407E+02  .664E+02  .508E+02  .375E+02  .512E+02
  .380E+02  .394E+02  .405E+02  .417E+02  .578E+02  .394E+02  .400E+02  .379E+02
  .400E+02  .642E+02  .919E+02  .402E+02  .389E+02  .412E+02  .399E+02  .447E+02
  .382E+02  .406E+02  .726E+02  .436E+02  .374E+02  .406E+02  .670E+02  .529E+02
  .567E+02  .369E+02  .504E+02  .397E+02  .947E+02  .964E+02  .482E+02  .500E+02
  .783E+02  .571E+02  .469E+02  .371E+02  .842E+02  .842E+02  .521E+02  .871E+02
  .858E+02  .363E+02  .916E+02  .794E+02  .829E+02  .703E+02  .816E+02  .363E+02
  .363E+02  .363E+02  .363E+02  .363E+02  .000E+00  .000E+00  .000E+00  .000E+00
  .000E+00  .000E+00  .000E+00  .000E+00  .000E+00  .000E+00  .000E+00  .000E+00
  .000E+00  .000E+00  .000E+00  .000E+00  .000E+00  .000E+00  .000E+00  .000E+00
  .000E+00  .000E+00  .000E+00  .000E+00  .000E+00  .000E+00  .000E+00  .000E+00
  .000E+00  .000E+00  .000E+00  .000E+00
  .378E+02  .401E+02  .381E+02  .416E+02  .416E+02  .401E+02  .375E+02  .372E+02
  .401E+02  .401E+02  .401E+02  .405E+02  .668E+02  .402E+02  .375E+02  .512E+02
  .380E+02  .393E+02  .405E+02  .417E+02  .543E+02  .394E+02  .400E+02  .380E+02
  .399E+02  .641E+02  .919E+02  .402E+02  .388E+02  .411E+02  .398E+02  .448E+02
  .382E+02  .407E+02  .727E+02  .437E+02  .373E+02  .479E+02  .671E+02  .528E+02
  .566E+02  .368E+02  .502E+02  .395E+02  .854E+02  .951E+02  .485E+02  .574E+02
  .785E+02  .573E+02  .467E+02  .364E+02  .839E+02  .819E+02  .524E+02  .867E+02
  .870E+02  .458E+02  .912E+02  .790E+02  .834E+02  .698E+02  .857E+02  .821E+02
  .821E+02  .448E+02  .811E+02  .777E+02  .000E+00  .000E+00  .000E+00  .000E+00
  .000E+00  .000E+00  .000E+00  .000E+00  .000E+00  .000E+00  .000E+00  .000E+00
  .000E+00  .000E+00  .000E+00  .000E+00  .000E+00  .000E+00  .000E+00  .000E+00
  .000E+00  .000E+00  .000E+00  .000E+00  .000E+00  .000E+00  .000E+00  .000E+00
  .000E+00  .000E+00  .000E+00  .000E+00
Damping =  .02. Data of Sd,Sv,Sa,Pssv,ttSd,ttSv,ttSa :
  .410E-03  .447E-03  .524E-03  .539E-03  .586E-03  .695E-03  .105E-02  .127E-02
  .151E-02  .211E-02  .244E-02  .266E-02  .505E-02  .616E-02  .725E-02  .851E-02
  .108E-01  .833E-02  .147E-01  .200E-01  .160E-01  .147E-01  .224E-01  .238E-01
  .262E-01  .291E-01  .448E-01  .605E-01  .678E-01  .120E+00  .123E+00  .116E+00
  .128E+00  .124E+00  .133E+00  .141E+00  .143E+00  .107E+00  .123E+00  .108E+00
  .927E-01  .108E+00  .112E+00  .160E+00  .203E+00  .161E+00  .131E+00  .125E+00
  .139E+00  .134E+00  .126E+00  .136E+00  .151E+00  .142E+00  .140E+00  .149E+00
  .140E+00  .164E+00  .139E+00  .149E+00  .260E+00  .181E+00  .134E+00  .108E+00
  .101E+00  .968E-01  .103E+00  .982E-01  .000E+00  .000E+00  .000E+00  .000E+00
  .000E+00  .000E+00  .000E+00  .000E+00  .000E+00  .000E+00  .000E+00  .000E+00
  .000E+00  .000E+00  .000E+00  .000E+00  .000E+00  .000E+00  .000E+00  .000E+00
  .000E+00  .000E+00  .000E+00  .000E+00  .000E+00  .000E+00  .000E+00  .000E+00
  .000E+00  .000E+00  .000E+00  .000E+00
  .182E-01  .218E-01  .287E-01  .318E-01  .376E-01  .451E-01  .669E-01  .732E-01
  .959E-01  .120E+00  .172E+00  .147E+00  .290E+00  .374E+00  .442E+00  .507E+00
  .567E+00  .419E+00  .711E+00  .921E+00  .627E+00  .563E+00  .778E+00  .783E+00
  .905E+00  .875E+00  .119E+01  .150E+01  .170E+01  .263E+01  .266E+01  .236E+01
  .250E+01  .228E+01  .221E+01  .237E+01  .219E+01  .160E+01  .178E+01  .155E+01
  .125E+01  .128E+01  .129E+01  .167E+01  .203E+01  .144E+01  .122E+01  .117E+01
  .106E+01  .112E+01  .117E+01  .114E+01  .970E+00  .804E+00  .708E+00  .789E+00
  .865E+00  .943E+00  .893E+00  .801E+00  .795E+00  .747E+00  .785E+00  .766E+00
  .714E+00  .672E+00  .650E+00  .642E+00  .000E+00  .000E+00  .000E+00  .000E+00
  .000E+00  .000E+00  .000E+00  .000E+00  .000E+00  .000E+00  .000E+00  .000E+00
  .000E+00  .000E+00  .000E+00  .000E+00  .000E+00  .000E+00  .000E+00  .000E+00
  .000E+00  .000E+00  .000E+00  .000E+00  .000E+00  .000E+00  .000E+00  .000E+00
  .000E+00  .000E+00  .000E+00  .000E+00
  .262E-01  .259E-01  .276E-01  .260E-01  .260E-01  .285E-01  .356E-01  .360E-01
  .364E-01  .441E-01  .445E-01  .426E-01  .716E-01  .780E-01  .820E-01  .875E-01
  .908E-01  .590E-01  .885E-01  .105E+00  .726E-01  .588E-01  .790E-01  .750E-01
  .743E-01  .746E-01  .951E-01  .108E+00  .103E+00  .156E+00  .140E+00  .117E+00
  .113E+00  .979E-01  .940E-01  .903E-01  .832E-01  .566E-01  .595E-01  .481E-01
  .380E-01  .366E-01  .318E-01  .387E-01  .424E-01  .293E-01  .210E-01  .177E-01
  .175E-01  .152E-01  .129E-01  .115E-01  .107E-01  .860E-02  .732E-02  .678E-02
  .560E-02  .581E-02  .439E-02  .422E-02  .666E-02  .383E-02  .237E-02  .163E-02
  .132E-02  .111E-02  .104E-02  .874E-03  .000E+00  .000E+00  .000E+00  .000E+00
  .000E+00  .000E+00  .000E+00  .000E+00  .000E+00  .000E+00  .000E+00  .000E+00
  .000E+00  .000E+00  .000E+00  .000E+00  .000E+00  .000E+00  .000E+00  .000E+00
  .000E+00  .000E+00  .000E+00  .000E+00  .000E+00  .000E+00  .000E+00  .000E+00
  .000E+00  .000E+00  .000E+00  .000E+00
  .645E-01  .669E-01  .748E-01  .736E-01  .768E-01  .873E-01  .120E+00  .133E+00
  .146E+00  .189E+00  .205E+00  .209E+00  .373E+00  .430E+00  .479E+00  .535E+00
  .615E+00  .436E+00  .709E+00  .899E+00  .670E+00  .578E+00  .827E+00  .830E+00
  .868E+00  .913E+00  .128E+01  .158E+01  .164E+01  .269E+01  .257E+01  .229E+01
  .236E+01  .217E+01  .219E+01  .221E+01  .214E+01  .153E+01  .168E+01  .142E+01
  .117E+01  .123E+01  .117E+01  .155E+01  .182E+01  .135E+01  .103E+01  .925E+00
  .968E+00  .885E+00  .794E+00  .778E+00  .788E+00  .686E+00  .629E+00  .624E+00
  .548E+00  .606E+00  .485E+00  .492E+00  .817E+00  .517E+00  .350E+00  .260E+00
  .226E+00  .203E+00  .203E+00  .182E+00  .000E+00  .000E+00  .000E+00  .000E+00
  .000E+00  .000E+00  .000E+00  .000E+00  .000E+00  .000E+00  .000E+00  .000E+00
  .000E+00  .000E+00  .000E+00  .000E+00  .000E+00  .000E+00  .000E+00  .000E+00
  .000E+00  .000E+00  .000E+00  .000E+00  .000E+00  .000E+00  .000E+00  .000E+00
  .000E+00  .000E+00  .000E+00  .000E+00
  .364E+02  .364E+02  .381E+02  .381E+02  .364E+02  .364E+02  .375E+02  .375E+02
  .401E+02  .381E+02  .401E+02  .380E+02  .375E+02  .401E+02  .375E+02  .381E+02
  .380E+02  .379E+02  .398E+02  .398E+02  .410E+02  .411E+02  .388E+02  .380E+02
  .390E+02  .401E+02  .384E+02  .403E+02  .411E+02  .388E+02  .388E+02  .382E+02
  .381E+02  .381E+02  .375E+02  .375E+02  .373E+02  .373E+02  .404E+02  .386E+02
  .368E+02  .368E+02  .369E+02  .380E+02  .378E+02  .378E+02  .378E+02  .376E+02
  .372E+02  .372E+02  .372E+02  .364E+02  .599E+02  .585E+02  .511E+02  .860E+02
  .364E+02  .458E+02  .660E+02  .790E+02  .825E+02  .487E+02  .437E+02  .574E+02
  .541E+02  .448E+02  .438E+02  .438E+02  .000E+00  .000E+00  .000E+00  .000E+00
  .000E+00  .000E+00  .000E+00  .000E+00  .000E+00  .000E+00  .000E+00  .000E+00
  .000E+00  .000E+00  .000E+00  .000E+00  .000E+00  .000E+00  .000E+00  .000E+00
  .000E+00  .000E+00  .000E+00  .000E+00  .000E+00  .000E+00  .000E+00  .000E+00
  .000E+00  .000E+00  .000E+00  .000E+00
  .379E+02  .366E+02  .379E+02  .397E+02  .373E+02  .373E+02  .375E+02  .395E+02
  .394E+02  .381E+02  .398E+02  .398E+02  .375E+02  .382E+02  .375E+02  .382E+02
  .380E+02  .379E+02  .398E+02  .398E+02  .411E+02  .412E+02  .391E+02  .379E+02
  .389E+02  .407E+02  .383E+02  .402E+02  .410E+02  .388E+02  .387E+02  .383E+02
  .382E+02  .380E+02  .374E+02  .374E+02  .374E+02  .373E+02  .403E+02  .371E+02
  .369E+02  .369E+02  .401E+02  .384E+02  .379E+02  .373E+02  .373E+02  .373E+02
  .373E+02  .371E+02  .371E+02  .371E+02  .363E+02  .363E+02  .507E+02  .406E+02
  .363E+02  .363E+02  .363E+02  .363E+02  .829E+02  .363E+02  .363E+02  .363E+02
  .363E+02  .363E+02  .363E+02  .363E+02  .000E+00  .000E+00  .000E+00  .000E+00
  .000E+00  .000E+00  .000E+00  .000E+00  .000E+00  .000E+00  .000E+00  .000E+00
  .000E+00  .000E+00  .000E+00  .000E+00  .000E+00  .000E+00  .000E+00  .000E+00
  .000E+00  .000E+00  .000E+00  .000E+00  .000E+00  .000E+00  .000E+00  .000E+00
  .000E+00  .000E+00  .000E+00  .000E+00
  .364E+02  .364E+02  .381E+02  .381E+02  .364E+02  .364E+02  .375E+02  .375E+02
  .401E+02  .381E+02  .401E+02  .380E+02  .375E+02  .401E+02  .375E+02  .381E+02
  .380E+02  .378E+02  .398E+02  .398E+02  .410E+02  .411E+02  .388E+02  .380E+02
  .390E+02  .401E+02  .384E+02  .402E+02  .411E+02  .388E+02  .388E+02  .382E+02
