Response and Fourier amplitude spectra (91 periods,  .04 - 15.0 sec)   for      
Corrected accelerogram   00557-K2228-08219.35       Chan  1:  X          from   
Uncorrected Accelerogram Data             Processed: 08/14/08, CDMG  ci035      
Record of Tue Jul 29, 2008 11:41:56.0 PDT             (Avol1 v7.9 7/08 CSMIP)   
CSMIP Preliminary Processing            (Origin:  To be determined)             
00557-K2228-08219.35                 Start time:  7/29/08, 18:41:56.0 UTC (GPS) 
Station No.   557   34.304N, 117.313W        K2  s/n 2228  (3 Channels)         
Cedar Springs Dam                        CDWR                                   
Chan  1:  X                         Location: Crest                             
Record of Tue Jul 29, 2008 11:41:56.0 PDT    Tue Jul 29, 2008 11:41:56.0 PDT    
Hypocenter:  To be determined.               ML:  To be determined.             
Instr Period =  .0049 sec,  Damping =  .700,  Sensitivity = 2.49  v/g           
                        Record length = 96.000 sec.                             
                                     Uncor Max  =  -.046 g , at  38.384 sec.    
RMS accel of (uncor) record  =        .   Chn. metadata effective date: 01/01/01
Accelerogram bandpass filtered with 3 dB pts at   .30 and 40.00 cyc/sec         
                 instrument- and baseline-corrected                             
                                                                                
                                                                                
                                                                                
                                                                                
                                                                                
Record of Tue Jul 29, 2008 11:41:56.0 PDT    Tue Jul 29, 2008 11:41:56.0 PDT    
                                                                                
00557-K2228-08219.35      Cedar Springs Dam   Chan  1:  X                       
                                                                                
00557-K2228-08219.35      Cedar Springs Dam   Chan  1:  X                       
                                                                                
Units for spectra are inches and sec, except Sa is in fraction of g.            
                                                                                
    1  100    1    4    3  250    1    3    1   24   11 2228    0  557    5    0
   18   41   56    0  211    7   29 2008   10    3 130024000   41   17   76    0
24000    0   50   20 2228    1   35  960    2    0    0    0    0    0    0    0
    0    1    0    012000    2  222    1   18   20   76   17    1    1    012000
    312000   18   91    5    3    5    0    0    0    3    0    0   20    0    2
    2    2    4    0   68   99 -999   32   32    0    4    1    0    0    0  222
    1    0   13    0
      .005      .700    96.000      .004      .000  2495.000     -.046    38.384
   204.100      .298      .119      .000     4.000      .000     1.002      .000
     2.500    -9.685     2.500  -999.000    30.000    30.000      .000     -.003
     -.003      .000     2.000    15.000    34.304  -117.313      .008      .282
    35.154     -.012      .012      .000    30.300    65.700    13.300    85.460
     1.000    -1.211      .000      .000      .000      .000      .000      .000
     4.400     7.900     4.600   980.665      .008    96.000    32.484     -.001
      .000    40.000      .000    96.000      .008      .303      .000      .000
    38.384   -45.156    38.560    -4.417    38.408      .507      .000      .303
    40.000      .008      .008      .000      .008      .128      .000      .000
      .226      .650      .077      .081      .046      .003      .000      .000
      .000      .000      .000      .000      .000      .000      .000      .000
      .000      .000      .000      .000
      .000      .020      .050      .100      .200
      .040      .042      .044      .046      .048      .050      .055      .060
      .065      .070      .075      .080      .085      .090      .095      .100
      .110      .120      .130      .140      .150      .160      .170      .180
      .190      .200      .220      .240      .260      .280      .300      .320
      .340      .360      .380      .400      .420      .440      .460      .480
      .500      .550      .600      .650      .700      .750      .800      .850
      .900      .950     1.000     1.100     1.200     1.300     1.400     1.500
     1.600     1.700     1.800     1.900     2.000     2.200     2.400     2.600
     2.800     3.000     3.200     3.400     3.600     3.800     4.000     4.200
     4.400     4.600     4.800     5.000     5.500     6.000     6.500     7.000
     7.500     8.000     8.500     9.000     9.500    10.000    11.000    12.000
    13.000    14.000    15.000      .000      .000      .000      .000      .000
      .000      .000      .000      .000
Fourier amplitude spectra in in/sec.
  .907E-02  .103E-01  .919E-02  .339E-01  .179E-01  .537E-01  .805E-01  .600E-01
  .454E-01  .170E+00  .200E+00  .326E+00  .228E+00  .452E+00  .253E+00  .757E-01
  .251E+00  .505E+00  .455E+00  .609E+00  .241E+01  .204E+01  .256E+00  .648E+00
  .560E+00  .169E+01  .181E+01  .185E+01  .160E+01  .183E+01  .902E+00  .189E+01
  .126E+01  .264E+01  .157E+01  .317E+01  .661E+00  .223E+01  .308E+01  .951E+00
  .188E+01  .224E+01  .121E+02  .214E+02  .157E+02  .974E+01  .659E+01  .244E+01
  .158E+01  .288E+01  .894E+00  .104E+01  .701E+00  .158E+01  .306E+00  .137E+01
  .149E+01  .128E+01  .868E+00  .940E+00  .101E+01  .639E+00  .161E+00  .272E+00
  .502E-01  .174E+00  .113E+00  .881E-01  .743E-01  .912E-01  .573E-01  .615E-01
  .328E-01  .205E-01  .143E-01  .937E-02  .161E-02  .133E-02  .686E-03  .119E-02
  .795E-03  .686E-03  .556E-03  .904E-04  .193E-03  .297E-03  .955E-04  .153E-03
  .740E-04  .475E-04  .991E-04  .000E+00  .000E+00  .000E+00  .000E+00  .000E+00
  .000E+00  .000E+00  .000E+00  .000E+00
Damping =  .00. Data of Sd,Sv,Sa,Pssv,ttSd,ttSv,ttSa :
  .786E-03  .874E-03  .994E-03  .102E-02  .105E-02  .159E-02  .182E-02  .219E-02
  .290E-02  .310E-02  .420E-02  .475E-02  .451E-02  .118E-01  .877E-02  .665E-02
  .692E-02  .167E-01  .173E-01  .157E-01  .598E-01  .621E-01  .374E-01  .366E-01
  .442E-01  .579E-01  .697E-01  .811E-01  .754E-01  .109E+00  .871E-01  .118E+00
  .149E+00  .175E+00  .172E+00  .218E+00  .198E+00  .206E+00  .283E+00  .230E+00
  .352E+00  .571E+00  .132E+01  .236E+01  .191E+01  .140E+01  .102E+01  .805E+00
  .676E+00  .611E+00  .550E+00  .459E+00  .397E+00  .446E+00  .388E+00  .384E+00
  .479E+00  .395E+00  .385E+00  .369E+00  .350E+00  .291E+00  .251E+00  .254E+00
  .256E+00  .255E+00  .250E+00  .241E+00  .232E+00  .224E+00  .218E+00  .212E+00
  .209E+00  .206E+00  .205E+00  .204E+00  .203E+00  .203E+00  .203E+00  .203E+00
  .203E+00  .202E+00  .202E+00  .202E+00  .202E+00  .201E+00  .201E+00  .201E+00
  .201E+00  .201E+00  .200E+00  .000E+00  .000E+00  .000E+00  .000E+00  .000E+00
  .000E+00  .000E+00  .000E+00  .000E+00
  .247E-01  .295E-01  .270E-01  .417E-01  .282E-01  .877E-01  .921E-01  .105E+00
  .135E+00  .193E+00  .229E+00  .336E+00  .272E+00  .635E+00  .482E+00  .215E+00
  .264E+00  .762E+00  .601E+00  .695E+00  .249E+01  .225E+01  .124E+01  .115E+01
  .117E+01  .173E+01  .197E+01  .198E+01  .166E+01  .231E+01  .177E+01  .214E+01
  .263E+01  .306E+01  .249E+01  .343E+01  .292E+01  .288E+01  .385E+01  .243E+01
  .368E+01  .603E+01  .138E+02  .229E+02  .175E+02  .122E+02  .879E+01  .685E+01
  .563E+01  .494E+01  .441E+01  .352E+01  .317E+01  .287E+01  .250E+01  .235E+01
  .237E+01  .225E+01  .234E+01  .235E+01  .236E+01  .229E+01  .217E+01  .207E+01
  .200E+01  .194E+01  .189E+01  .185E+01  .183E+01  .181E+01  .180E+01  .179E+01
  .179E+01  .178E+01  .178E+01  .178E+01  .177E+01  .177E+01  .177E+01  .176E+01
  .176E+01  .176E+01  .175E+01  .175E+01  .175E+01  .175E+01  .175E+01  .175E+01
  .174E+01  .174E+01  .174E+01  .000E+00  .000E+00  .000E+00  .000E+00  .000E+00
  .000E+00  .000E+00  .000E+00  .000E+00
  .502E-01  .506E-01  .525E-01  .492E-01  .468E-01  .652E-01  .614E-01  .621E-01
  .703E-01  .647E-01  .764E-01  .760E-01  .638E-01  .149E+00  .994E-01  .680E-01
  .585E-01  .119E+00  .105E+00  .821E-01  .272E+00  .248E+00  .132E+00  .116E+00
  .125E+00  .148E+00  .147E+00  .144E+00  .114E+00  .142E+00  .990E-01  .118E+00
  .132E+00  .138E+00  .122E+00  .139E+00  .115E+00  .109E+00  .137E+00  .102E+00
  .144E+00  .193E+00  .376E+00  .572E+00  .398E+00  .255E+00  .163E+00  .114E+00
  .853E-01  .692E-01  .563E-01  .388E-01  .282E-01  .270E-01  .202E-01  .175E-01
  .191E-01  .140E-01  .122E-01  .104E-01  .896E-02  .615E-02  .445E-02  .384E-02
  .334E-02  .290E-02  .250E-02  .214E-02  .183E-02  .159E-02  .139E-02  .123E-02
  .110E-02  .997E-03  .909E-03  .835E-03  .687E-03  .577E-03  .492E-03  .424E-03
  .369E-03  .323E-03  .286E-03  .255E-03  .228E-03  .206E-03  .170E-03  .143E-03
  .121E-03  .105E-03  .911E-04  .000E+00  .000E+00  .000E+00  .000E+00  .000E+00
  .000E+00  .000E+00  .000E+00  .000E+00
  .123E+00  .131E+00  .142E+00  .139E+00  .138E+00  .200E+00  .207E+00  .229E+00
  .281E+00  .278E+00  .352E+00  .373E+00  .333E+00  .822E+00  .580E+00  .418E+00
  .395E+00  .874E+00  .835E+00  .706E+00  .251E+01  .244E+01  .138E+01  .128E+01
  .146E+01  .182E+01  .199E+01  .212E+01  .182E+01  .244E+01  .182E+01  .232E+01
  .276E+01  .305E+01  .284E+01  .343E+01  .296E+01  .295E+01  .386E+01  .301E+01
  .442E+01  .653E+01  .138E+02  .229E+02  .171E+02  .118E+02  .802E+01  .595E+01
  .472E+01  .404E+01  .346E+01  .262E+01  .208E+01  .215E+01  .174E+01  .161E+01
  .188E+01  .146E+01  .135E+01  .122E+01  .110E+01  .831E+00  .657E+00  .614E+00
  .575E+00  .535E+00  .491E+00  .446E+00  .406E+00  .371E+00  .342E+00  .318E+00
  .298E+00  .282E+00  .268E+00  .256E+00  .232E+00  .213E+00  .196E+00  .182E+00
  .170E+00  .159E+00  .149E+00  .141E+00  .133E+00  .127E+00  .115E+00  .105E+00
  .970E-01  .900E-01  .840E-01  .000E+00  .000E+00  .000E+00  .000E+00  .000E+00
  .000E+00  .000E+00  .000E+00  .000E+00
  .384E+02  .384E+02  .384E+02  .384E+02  .384E+02  .384E+02  .384E+02  .384E+02
  .384E+02  .384E+02  .384E+02  .384E+02  .381E+02  .384E+02  .406E+02  .384E+02
  .383E+02  .382E+02  .381E+02  .387E+02  .520E+02  .384E+02  .384E+02  .378E+02
  .384E+02  .391E+02  .396E+02  .407E+02  .378E+02  .423E+02  .384E+02  .385E+02
  .416E+02  .714E+02  .394E+02  .679E+02  .412E+02  .516E+02  .498E+02  .387E+02
  .381E+02  .387E+02  .560E+02  .454E+02  .407E+02  .401E+02  .391E+02  .387E+02
  .384E+02  .384E+02  .381E+02  .381E+02  .381E+02  .391E+02  .391E+02  .529E+02
  .474E+02  .387E+02  .387E+02  .387E+02  .388E+02  .388E+02  .384E+02  .384E+02
  .384E+02  .384E+02  .384E+02  .384E+02  .384E+02  .384E+02  .384E+02  .384E+02
  .384E+02  .384E+02  .384E+02  .384E+02  .384E+02  .384E+02  .384E+02  .384E+02
  .384E+02  .384E+02  .384E+02  .384E+02  .384E+02  .384E+02  .384E+02  .384E+02
  .384E+02  .384E+02  .384E+02  .000E+00  .000E+00  .000E+00  .000E+00  .000E+00
  .000E+00  .000E+00  .000E+00  .000E+00
  .392E+02  .376E+02  .385E+02  .376E+02  .376E+02  .376E+02  .521E+02  .383E+02
  .383E+02  .422E+02  .456E+02  .487E+02  .521E+02  .396E+02  .406E+02  .393E+02
  .601E+02  .376E+02  .501E+02  .542E+02  .520E+02  .442E+02  .366E+02  .379E+02
  .379E+02  .721E+02  .537E+02  .408E+02  .882E+02  .422E+02  .431E+02  .475E+02
  .417E+02  .715E+02  .396E+02  .680E+02  .411E+02  .515E+02  .481E+02  .389E+02
  .380E+02  .389E+02  .546E+02  .478E+02  .408E+02  .399E+02  .392E+02  .386E+02
  .386E+02  .382E+02  .383E+02  .379E+02  .379E+02  .379E+02  .389E+02  .389E+02
  .389E+02  .385E+02  .385E+02  .385E+02  .386E+02  .386E+02  .386E+02  .386E+02
  .386E+02  .386E+02  .386E+02  .386E+02  .386E+02  .386E+02  .386E+02  .386E+02
  .386E+02  .386E+02  .386E+02  .386E+02  .386E+02  .386E+02  .386E+02  .386E+02
  .386E+02  .386E+02  .386E+02  .386E+02  .386E+02  .386E+02  .386E+02  .386E+02
  .386E+02  .386E+02  .386E+02  .000E+00  .000E+00  .000E+00  .000E+00  .000E+00
  .000E+00  .000E+00  .000E+00  .000E+00
  .384E+02  .384E+02  .384E+02  .384E+02  .384E+02  .384E+02  .384E+02  .384E+02
  .384E+02  .384E+02  .384E+02  .384E+02  .381E+02  .384E+02  .406E+02  .384E+02
  .383E+02  .382E+02  .381E+02  .387E+02  .520E+02  .384E+02  .384E+02  .378E+02
  .384E+02  .391E+02  .396E+02  .407E+02  .378E+02  .423E+02  .384E+02  .385E+02
  .416E+02  .714E+02  .394E+02  .679E+02  .412E+02  .516E+02  .498E+02  .387E+02
  .381E+02  .387E+02  .560E+02  .454E+02  .407E+02  .401E+02  .391E+02  .387E+02
  .384E+02  .384E+02  .381E+02  .381E+02  .381E+02  .391E+02  .391E+02  .529E+02
  .474E+02  .387E+02  .387E+02  .387E+02  .388E+02  .388E+02  .384E+02  .384E+02
  .384E+02  .384E+02  .384E+02  .384E+02  .384E+02  .384E+02  .384E+02  .384E+02
  .384E+02  .384E+02  .384E+02  .384E+02  .384E+02  .384E+02  .384E+02  .384E+02
  .384E+02  .384E+02  .384E+02  .384E+02  .384E+02  .384E+02  .384E+02  .384E+02
  .384E+02  .384E+02  .384E+02  .000E+00  .000E+00  .000E+00  .000E+00  .000E+00
  .000E+00  .000E+00  .000E+00  .000E+00
Damping =  .02. Data of Sd,Sv,Sa,Pssv,ttSd,ttSv,ttSa :
  .730E-03  .799E-03  .896E-03  .975E-03  .105E-02  .113E-02  .138E-02  .177E-02
  .224E-02  .292E-02  .280E-02  .337E-02  .405E-02  .588E-02  .589E-02  .590E-02
  .596E-02  .783E-02  .112E-01  .170E-01  .264E-01  .305E-01  .216E-01  .271E-01
  .310E-01  .381E-01  .473E-01  .579E-01  .646E-01  .642E-01  .828E-01  .979E-01
  .120E+00  .138E+00  .142E+00  .157E+00  .162E+00  .158E+00  .212E+00  .223E+00
  .278E+00  .496E+00  .927E+00  .138E+01  .137E+01  .111E+01  .885E+00  .719E+00
  .623E+00  .557E+00  .511E+00  .436E+00  .376E+00  .394E+00  .366E+00  .324E+00
  .344E+00  .371E+00  .368E+00  .355E+00  .338E+00  .287E+00  .243E+00  .248E+00
  .250E+00  .250E+00  .246E+00  .238E+00  .231E+00  .223E+00  .217E+00  .213E+00
  .209E+00  .207E+00  .205E+00  .204E+00  .203E+00  .203E+00  .203E+00  .203E+00
  .202E+00  .202E+00  .202E+00  .202E+00  .201E+00  .201E+00  .201E+00  .201E+00
  .201E+00  .200E+00  .200E+00  .000E+00  .000E+00  .000E+00  .000E+00  .000E+00
  .000E+00  .000E+00  .000E+00  .000E+00
  .160E-01  .214E-01  .219E-01  .236E-01  .226E-01  .258E-01  .355E-01  .630E-01
  .585E-01  .914E-01  .824E-01  .121E+00  .178E+00  .244E+00  .186E+00  .159E+00
  .167E+00  .222E+00  .291E+00  .527E+00  .820E+00  .906E+00  .637E+00  .787E+00
  .682E+00  .104E+01  .118E+01  .116E+01  .119E+01  .102E+01  .108E+01  .149E+01
  .182E+01  .190E+01  .192E+01  .205E+01  .224E+01  .187E+01  .228E+01  .227E+01
  .286E+01  .512E+01  .919E+01  .134E+02  .125E+02  .999E+01  .768E+01  .627E+01
  .527E+01  .459E+01  .414E+01  .339E+01  .308E+01  .277E+01  .238E+01  .229E+01
  .227E+01  .219E+01  .228E+01  .230E+01  .231E+01  .226E+01  .215E+01  .207E+01
  .200E+01  .194E+01  .190E+01  .186E+01  .183E+01  .182E+01  .180E+01  .180E+01
  .179E+01  .179E+01  .179E+01  .178E+01  .178E+01  .177E+01  .177E+01  .176E+01
  .176E+01  .176E+01  .175E+01  .175E+01  .175E+01  .175E+01  .175E+01  .175E+01
  .175E+01  .174E+01  .174E+01  .000E+00  .000E+00  .000E+00  .000E+00  .000E+00
  .000E+00  .000E+00  .000E+00  .000E+00
  .466E-01  .463E-01  .473E-01  .471E-01  .465E-01  .463E-01  .467E-01  .503E-01
  .543E-01  .611E-01  .508E-01  .540E-01  .574E-01  .742E-01  .668E-01  .604E-01
  .504E-01  .555E-01  .675E-01  .890E-01  .120E+00  .122E+00  .762E-01  .858E-01
  .880E-01  .972E-01  .100E+00  .103E+00  .977E-01  .838E-01  .943E-01  .978E-01
  .106E+00  .109E+00  .101E+00  .100E+00  .939E-01  .835E-01  .102E+00  .989E-01
  .114E+00  .168E+00  .263E+00  .334E+00  .285E+00  .202E+00  .142E+00  .102E+00
  .788E-01  .631E-01  .523E-01  .369E-01  .267E-01  .239E-01  .191E-01  .148E-01
  .138E-01  .132E-01  .116E-01  .101E-01  .867E-02  .610E-02  .435E-02  .379E-02
  .331E-02  .288E-02  .249E-02  .215E-02  .186E-02  .162E-02  .143E-02  .127E-02
  .114E-02  .104E-02  .948E-03  .873E-03  .724E-03  .614E-03  .528E-03  .459E-03
  .404E-03  .359E-03  .321E-03  .289E-03  .262E-03  .240E-03  .203E-03  .175E-03
  .153E-03  .135E-03  .121E-03  .000E+00  .000E+00  .000E+00  .000E+00  .000E+00
  .000E+00  .000E+00  .000E+00  .000E+00
  .115E+00  .120E+00  .128E+00  .133E+00  .137E+00  .142E+00  .158E+00  .185E+00
  .217E+00  .262E+00  .234E+00  .265E+00  .300E+00  .410E+00  .390E+00  .371E+00
  .340E+00  .410E+00  .540E+00  .763E+00  .111E+01  .120E+01  .797E+00  .946E+00
  .102E+01  .120E+01  .135E+01  .152E+01  .156E+01  .144E+01  .173E+01  .192E+01
  .223E+01  .241E+01  .235E+01  .247E+01  .242E+01  .226E+01  .289E+01  .291E+01
  .350E+01  .566E+01  .970E+01  .133E+02  .123E+02  .930E+01  .695E+01  .531E+01
  .435E+01  .368E+01  .321E+01  .249E+01  .197E+01  .190E+01  .164E+01  .136E+01
  .135E+01  .137E+01  .128E+01  .117E+01  .106E+01  .820E+00  .635E+00  .599E+00
  .562E+00  .524E+00  .482E+00  .441E+00  .403E+00  .370E+00  .342E+00  .318E+00
  .299E+00  .282E+00  .269E+00  .257E+00  .232E+00  .213E+00  .196E+00  .182E+00
  .170E+00  .159E+00  .149E+00  .141E+00  .133E+00  .126E+00  .115E+00  .105E+00
  .969E-01  .900E-01  .839E-01  .000E+00  .000E+00  .000E+00  .000E+00  .000E+00
  .000E+00  .000E+00  .000E+00  .000E+00
  .384E+02  .384E+02  .384E+02  .384E+02  .384E+02  .384E+02  .384E+02  .384E+02
  .384E+02  .384E+02  .384E+02  .384E+02  .381E+02  .384E+02  .384E+02  .384E+02
  .378E+02  .391E+02  .381E+02  .384E+02  .384E+02  .384E+02  .378E+02  .377E+02
  .384E+02  .382E+02  .383E+02  .384E+02  .377E+02  .384E+02  .384E+02  .385E+02
  .394E+02  .394E+02  .394E+02  .387E+02  .388E+02  .388E+02  .381E+02  .381E+02
  .381E+02  .388E+02  .398E+02  .408E+02  .403E+02  .397E+02  .391E+02  .387E+02
  .384E+02  .384E+02  .381E+02  .381E+02  .377E+02  .391E+02  .391E+02  .391E+02
  .387E+02  .387E+02  .387E+02  .387E+02  .388E+02  .388E+02  .384E+02  .384E+02
  .384E+02  .384E+02  .384E+02  .384E+02  .384E+02  .384E+02  .384E+02  .384E+02
  .384E+02  .384E+02  .384E+02  .384E+02  .384E+02  .384E+02  .384E+02  .384E+02
  .384E+02  .384E+02  .384E+02  .384E+02  .384E+02  .384E+02  .384E+02  .384E+02
  .384E+02  .384E+02  .384E+02  .000E+00  .000E+00  .000E+00  .000E+00  .000E+00
  .000E+00  .000E+00  .000E+00  .000E+00
  .376E+02  .376E+02  .376E+02  .376E+02  .376E+02  .376E+02  .378E+02  .378E+02
  .375E+02  .385E+02  .376E+02  .376E+02  .379E+02  .379E+02  .377E+02  .385E+02
  .386E+02  .376E+02  .382E+02  .386E+02  .386E+02  .382E+02  .379E+02  .379E+02
  .379E+02  .382E+02  .383E+02  .377E+02  .377E+02  .393E+02  .385E+02  .386E+02
  .393E+02  .393E+02  .396E+02  .411E+02  .411E+02  .411E+02  .379E+02  .380E+02
  .380E+02  .389E+02  .396E+02  .410E+02  .405E+02  .395E+02  .392E+02  .385E+02
  .386E+02  .382E+02  .382E+02  .379E+02  .379E+02  .379E+02  .389E+02  .389E+02
  .389E+02  .385E+02  .385E+02  .385E+02  .386E+02  .386E+02  .386E+02  .386E+02
  .386E+02  .386E+02  .386E+02  .386E+02  .386E+02  .386E+02  .386E+02  .386E+02
  .386E+02  .386E+02  .386E+02  .386E+02  .386E+02  .386E+02  .386E+02  .386E+02
  .386E+02  .386E+02  .386E+02  .386E+02  .386E+02  .386E+02  .386E+02  .386E+02
  .386E+02  .386E+02  .386E+02  .000E+00  .000E+00  .000E+00  .000E+00  .000E+00
  .000E+00  .000E+00  .000E+00  .000E+00
  .384E+02  .384E+02  .384E+02  .384E+02  .384E+02  .384E+02  .384E+02  .384E+02
  .384E+02  .384E+02  .384E+02  .384E+02  .381E+02  .384E+02  .384E+02  .384E+02
  .378E+02  .391E+02  .381E+02  .384E+02  .384E+02  .384E+02  .378E+02  .377E+02
  .384E+02  .382E+02  .383E+02  .384E+02  .377E+02  .384E+02  .384E+02  .385E+02
