
 PEER Ground Motion Database, Time Series Search Report -- NGA-West2 -- 2020-08-05


 -- Summary of PEER Ground Motion Database Search Criteria --
Magnitude Min:, -1.0e-06
Magnitude Max:, 99999
Rrup Min (km):, -1.0e-06
Rrup Max (km):, 99999
Rjb Min (km):, -1.0e-06
Rjb Max (km):, 99999
Vs30 Min (m/sec):, -1.0e-06
Vs30 Max (m/sec):, 99999
D9-95 Min (sec):, -1.0e-06
D9-95 Max (sec):, 99999
Scale Factor Min:, -1.0e-06
Scale Factor Max:, 99999
Period Array:, 
Weight Array:, 
Record Sequence Number:, 
Earthquake Name:, whittier narrows
Station Name:, 
User-Defined Maximum Number of Records:, 80
Pulse:, 1
Damping Ratio:, 0.05
Scaling Method:, No Scaling
Suite Average:, Arithmetic
Single-Period-Scaling Period (sec):, 
Component:, RotD50
Fault Type:, All Types


 -- Summary of Metadata of Selected Records --
Result ID, Spectral Ordinate, Record Sequence Number, Mean Squared Error, Scale Factor, Tp-Pulse Period (sec), 5-75% Duration (sec), 5-95% Duration (sec), Arias Intensity (m/sec), Earthquake Name, Year, Station Name, Magnitude, Mechanism, Rjb (km), Rrup (km), Vs30 (m/sec), Lowest Useable Frequency (Hz), Initial-search Scale Factor, Horizontal-1 Acc. Filename, Horizontal-2 Acc. Filename, Vertical Acc. Filename
1, RotD50, 589, -, 1.0, -, 2.3, 5.7, 0.9, "Whittier Narrows-01", 1987, "Alhambra - Fremont School", 5.99, Reverse Oblique, 1.67, 14.66, 549.75, 0.4125, 1.0, RSN589_WHITTIER.A_A-ALH180.AT2, RSN589_WHITTIER.A_A-ALH270.AT2 , RSN589_WHITTIER.A_A-ALH-UP.AT2  
2, RotD50, 590, -, 1.0, -, 2.4, 8.2, 0.4, "Whittier Narrows-01", 1987, "Altadena - Eaton Canyon", 5.99, Reverse Oblique, 8.72, 19.52, 375.16, 0.2625, 1.0, RSN590_WHITTIER.A_A-ALT000.AT2, RSN590_WHITTIER.A_A-ALT090.AT2 , RSN590_WHITTIER.A_A-ALT-UP.AT2  
3, RotD50, 591, -, 1.0, -, 7.0, 14.1, 0.1, "Whittier Narrows-01", 1987, "Anaheim - W Ball Rd", 5.99, Reverse Oblique, 25.81, 29.6, 269.29, 0.7, 1.0, RSN591_WHITTIER.A_A-WBA000.AT2, RSN591_WHITTIER.A_A-WBA090.AT2 , RSN591_WHITTIER.A_A-WBA-UP.AT2  
4, RotD50, 592, -, 1.0, -, 3.0, 10.5, 0.9, "Whittier Narrows-01", 1987, "Arcadia - Campus Dr", 5.99, Reverse Oblique, 4.53, 17.42, 367.53, 0.2, 1.0, RSN592_WHITTIER.A_A-CAM009.AT2, RSN592_WHITTIER.A_A-CAM279.AT2 , RSN592_WHITTIER.A_A-CAM-UP.AT2  
5, RotD50, 593, -, 1.0, -, 5.4, 13.6, 0.1, "Whittier Narrows-01", 1987, "Arleta - Nordhoff Fire Sta", 5.99, Reverse Oblique, 32.56, 36.97, 297.71, 0.2875, 1.0, RSN593_WHITTIER.A_A-ARL180.AT2, RSN593_WHITTIER.A_A-ARL270.AT2 , RSN593_WHITTIER.A_A-ARL-UP.AT2  
6, RotD50, 594, -, 1.0, -, 6.8, 11.9, 0.1, "Whittier Narrows-01", 1987, "Baldwin Park - N Holly", 5.99, Reverse Oblique, 4.34, 16.72, 544.68, 0.1, 1.0, RSN594_WHITTIER.A_A-NHO180.AT2, RSN594_WHITTIER.A_A-NHO270.AT2 , RSN594_WHITTIER.A_A-NHO-UP.AT2  
7, RotD50, 595, -, 1.0, -, 3.6, 10.4, 0.6, "Whittier Narrows-01", 1987, "Bell Gardens - Jaboneria", 5.99, Reverse Oblique, 10.31, 17.79, 267.13, 0.12, 1.0, RSN595_WHITTIER.A_A-JAB207.AT2, RSN595_WHITTIER.A_A-JAB297.AT2 , RSN595_WHITTIER.A_A-JAB-UP.AT2  
8, RotD50, 596, -, 1.0, -, 4.3, 11.7, 0.1, "Whittier Narrows-01", 1987, "Beverly Hills - 12520 Mulhol", 5.99, Reverse Oblique, 25.91, 29.9, 545.66, 0.33, 1.0, RSN596_WHITTIER.A_A-MU2032.AT2, RSN596_WHITTIER.A_A-MU2122.AT2 , RSN596_WHITTIER.A_A-MU2-UP.AT2  
9, RotD50, 597, -, 1.0, -, 5.7, 16.1, 0.2, "Whittier Narrows-01", 1987, "Beverly Hills - 14145 Mulhol", 5.99, Reverse Oblique, 29.09, 32.7, 355.81, 0.23, 1.0, RSN597_WHITTIER.A_A-MUL009.AT2, RSN597_WHITTIER.A_A-MUL279.AT2 , RSN597_WHITTIER.A_A-MUL-UP.AT2  
10, RotD50, 598, -, 1.0, -, 4.8, 11.0, 0.2, "Whittier Narrows-01", 1987, "Big Tujunga_ Angeles Nat F", 5.99, Reverse Oblique, 22.5, 28.5, 550.11, 1.0, 1.0, RSN598_WHITTIER.A_A-TUJ262.AT2, RSN598_WHITTIER.A_A-TUJ352.AT2 , RSN598_WHITTIER.A_A-TUJ-UP.AT2  
11, RotD50, 599, -, 1.0, -, 3.6, 9.2, 0.1, "Whittier Narrows-01", 1987, "Brea - S Flower Av", 5.99, Reverse Oblique, 18.39, 23.42, 322.75, 0.2, 1.0, RSN599_WHITTIER.A_A-FLO020.AT2, RSN599_WHITTIER.A_A-FLO290.AT2 ,  -----   
12, RotD50, 600, -, 1.0, -, 1.9, 9.1, 0.4, "Whittier Narrows-01", 1987, "Brea Dam (Downstream)", 5.99, Reverse Oblique, 19.11, 23.99, 437.5, 0.25, 1.0, RSN600_WHITTIER.A_A-BRD040.AT2, RSN600_WHITTIER.A_A-BRD130.AT2 , RSN600_WHITTIER.A_A-BRD-UP.AT2  
13, RotD50, 601, -, 1.0, -, 6.0, 13.9, 0.2, "Whittier Narrows-01", 1987, "Brea Dam (L Abut)", 5.99, Reverse Oblique, 19.12, 24.0, 437.5, 0.25, 1.0, RSN601_WHITTIER.A_A-BRL040.AT2, RSN601_WHITTIER.A_A-BRL130.AT2 , RSN601_WHITTIER.A_A-BRL-UP.AT2  
14, RotD50, 602, -, 1.0, -, 3.2, 9.7, 0.4, "Whittier Narrows-01", 1987, "Burbank - N Buena Vista", 5.99, Reverse Oblique, 20.37, 26.34, 320.57, 0.3, 1.0, RSN602_WHITTIER.A_A-BUE250.AT2, RSN602_WHITTIER.A_A-BUE340.AT2 , RSN602_WHITTIER.A_A-BUE-UP.AT2  
15, RotD50, 603, -, 1.0, -, 7.5, 16.8, 0.0, "Whittier Narrows-01", 1987, "Calabasas - N Las Virg", 5.99, Reverse Oblique, 52.76, 54.74, 403.72, 0.3, 1.0, RSN603_WHITTIER.A_A-VIR200.AT2, RSN603_WHITTIER.A_A-VIR290.AT2 , RSN603_WHITTIER.A_A-VIR-UP.AT2  
16, RotD50, 604, -, 1.0, -, 5.7, 14.5, 0.2, "Whittier Narrows-01", 1987, "Canoga Park - Topanga Can", 5.99, Reverse Oblique, 45.98, 48.96, 267.49, 0.3, 1.0, RSN604_WHITTIER.A_A-CNP106.AT2, RSN604_WHITTIER.A_A-CNP196.AT2 , RSN604_WHITTIER.A_A-CNP-UP.AT2  
17, RotD50, 605, -, 1.0, -, 3.8, 8.9, 0.1, "Whittier Narrows-01", 1987, "Canyon Country - W Lost Cany", 5.99, Reverse Oblique, 44.88, 48.18, 325.6, 0.4, 1.0, RSN605_WHITTIER.A_A-LOS000.AT2, RSN605_WHITTIER.A_A-LOS270.AT2 , RSN605_WHITTIER.A_A-LOS-UP.AT2  
18, RotD50, 606, -, 1.0, -, 2.0, 7.3, 0.2, "Whittier Narrows-01", 1987, "Carbon Canyon Dam", 5.99, Reverse Oblique, 22.57, 26.82, 235.0, 0.625, 1.0, RSN606_WHITTIER.A_A-CNB040.AT2, RSN606_WHITTIER.A_A-CNB130.AT2 , RSN606_WHITTIER.A_A-CNB-UP.AT2  
19, RotD50, 607, -, 1.0, -, 11.8, 22.8, 0.0, "Whittier Narrows-01", 1987, "Carson - Catskill Ave", 5.99, Reverse Oblique, 29.85, 33.19, 305.14, 0.2, 1.0, RSN607_WHITTIER.A_A-CAT090.AT2, RSN607_WHITTIER.A_A-CAT180.AT2 , RSN607_WHITTIER.A_A-CAT-UP.AT2  
20, RotD50, 608, -, 1.0, -, 7.3, 15.1, 0.2, "Whittier Narrows-01", 1987, "Carson - Water St", 5.99, Reverse Oblique, 26.3, 30.03, 160.58, 0.22, 1.0, RSN608_WHITTIER.A_A-WAT180.AT2, RSN608_WHITTIER.A_A-WAT270.AT2 , RSN608_WHITTIER.A_A-WAT-UP.AT2  
21, RotD50, 609, -, 1.0, -, 9.1, 17.3, 0.0, "Whittier Narrows-01", 1987, "Castaic - Hasley Canyon", 5.99, Reverse Oblique, 62.56, 64.96, 421.05, 0.275, 1.0, RSN609_WHITTIER.A_A-CSH000.AT2, RSN609_WHITTIER.A_A-CSH090.AT2 , RSN609_WHITTIER.A_A-CSH-UP.AT2  
22, RotD50, 610, -, 1.0, -, 7.1, 13.4, 0.1, "Whittier Narrows-01", 1987, "Castaic - Old Ridge Route", 5.99, Reverse Oblique, 70.04, 72.2, 450.28, 0.5375, 1.0, RSN610_WHITTIER.A_A-ORR000.AT2, RSN610_WHITTIER.A_A-ORR090.AT2 , RSN610_WHITTIER.A_A-ORR-UP.AT2  
23, RotD50, 611, -, 1.0, -, 2.1, 8.4, 0.7, "Whittier Narrows-01", 1987, "Compton - Castlegate St", 5.99, Reverse Oblique, 18.32, 23.37, 266.9, 0.3, 1.0, RSN611_WHITTIER.A_A-CAS000.AT2, RSN611_WHITTIER.A_A-CAS270.AT2 , RSN611_WHITTIER.A_A-CAS-UP.AT2  
24, RotD50, 612, -, 1.0, -, 7.6, 19.6, 0.1, "Whittier Narrows-01", 1987, "Covina - S Grand Ave", 5.99, Reverse Oblique, 13.58, 20.91, 346.62, 0.13, 1.0, RSN612_WHITTIER.A_A-GRA015.AT2, RSN612_WHITTIER.A_A-GRA105.AT2 , RSN612_WHITTIER.A_A-GRA-UP.AT2  
25, RotD50, 613, -, 1.0, -, 6.2, 15.3, 0.2, "Whittier Narrows-01", 1987, "Covina - W Badillo", 5.99, Reverse Oblique, 9.49, 18.59, 324.79, 0.15, 1.0, RSN613_WHITTIER.A_A-BAD000.AT2, RSN613_WHITTIER.A_A-BAD270.AT2 , RSN613_WHITTIER.A_A-BAD-UP.AT2  
26, RotD50, 614, -, 1.0, -, 1.9, 9.6, 1.0, "Whittier Narrows-01", 1987, "Downey - Birchdale", 5.99, Reverse Oblique, 14.9, 20.79, 245.06, 0.13, 1.0, RSN614_WHITTIER.A_A-BIR090.AT2, RSN614_WHITTIER.A_A-BIR180.AT2 , RSN614_WHITTIER.A_A-BIR-UP.AT2  
27, RotD50, 615, -, 1.0, -, 4.3, 12.4, 0.4, "Whittier Narrows-01", 1987, "Downey - Co Maint Bldg", 5.99, Reverse Oblique, 14.95, 20.82, 271.9, 0.25, 1.0, RSN615_WHITTIER.A_A-DWN180.AT2, RSN615_WHITTIER.A_A-DWN270.AT2 , RSN615_WHITTIER.A_A-DWN-UP.AT2  
28, RotD50, 616, -, 1.0, -, 4.2, 11.4, 0.5, "Whittier Narrows-01", 1987, "El Monte - Fairview Av", 5.99, Reverse Oblique, 0.75, 15.67, 290.63, 0.15, 1.0, RSN616_WHITTIER.A_A-FAI095.AT2, RSN616_WHITTIER.A_A-FAI185.AT2 , RSN616_WHITTIER.A_A-FAI-UP.AT2  
29, RotD50, 617, -, 1.0, -, 3.9, 9.2, 0.1, "Whittier Narrows-01", 1987, "Featherly Park - Maint", 5.99, Reverse Oblique, 35.04, 37.92, 367.54, 0.75, 1.0, RSN617_WHITTIER.A_A-FEA000.AT2, RSN617_WHITTIER.A_A-FEA090.AT2 , RSN617_WHITTIER.A_A-FEA-UP.AT2  
30, RotD50, 618, -, 1.0, -, 9.9, 18.2, 0.1, "Whittier Narrows-01", 1987, "Fountain Valley - Euclid", 5.99, Reverse Oblique, 36.69, 39.45, 270.54, 0.6, 1.0, RSN618_WHITTIER.A_A-EUC022.AT2, RSN618_WHITTIER.A_A-EUC292.AT2 , RSN618_WHITTIER.A_A-EUC-UP.AT2  
31, RotD50, 619, -, 1.0, -, 2.5, 5.6, 1.2, "Whittier Narrows-01", 1987, "Garvey Res. - Control Bldg", 5.99, Reverse Oblique, 0.36, 14.5, 468.18, 0.375, 1.0, RSN619_WHITTIER.A_A-GRV060.AT2, RSN619_WHITTIER.A_A-GRV330.AT2 , RSN619_WHITTIER.A_A-GRV-UP.AT2  
32, RotD50, 620, -, 1.0, -, 2.9, 7.4, 0.4, "Whittier Narrows-01", 1987, "Glendale - Las Palmas", 5.99, Reverse Oblique, 14.68, 22.82, 371.07, 0.4, 1.0, RSN620_WHITTIER.A_A-GLP177.AT2, RSN620_WHITTIER.A_A-GLP267.AT2 , RSN620_WHITTIER.A_A-GLP-UP.AT2  
33, RotD50, 621, -, 1.0, -, 4.1, 12.7, 0.1, "Whittier Narrows-01", 1987, "Glendora - N Oakbank", 5.99, Reverse Oblique, 13.67, 22.11, 362.31, 0.5, 1.0, RSN621_WHITTIER.A_A-OAK080.AT2, RSN621_WHITTIER.A_A-OAK170.AT2 , RSN621_WHITTIER.A_A-OAK-UP.AT2  
34, RotD50, 622, -, 1.0, -, 3.2, 11.4, 0.2, "Whittier Narrows-01", 1987, "Hacienda Heights - Colima", 5.99, Reverse Oblique, 9.6, 17.39, 337.0, 0.2, 1.0, RSN622_WHITTIER.A_A-COM140.AT2, RSN622_WHITTIER.A_A-COM230.AT2 , RSN622_WHITTIER.A_A-COM-UP.AT2  
35, RotD50, 623, -, 1.0, -, 11.5, 20.4, 0.0, "Whittier Narrows-01", 1987, "Hemet Fire Station", 5.99, Reverse Oblique, 102.88, 103.9, 328.09, 0.375, 1.0, RSN623_WHITTIER.A_A-H05270.AT2, RSN623_WHITTIER.A_A-H05360.AT2 , RSN623_WHITTIER.A_A-H05-UP.AT2  
36, RotD50, 624, -, 1.0, -, 11.1, 23.2, 0.0, "Whittier Narrows-01", 1987, "Huntington Beach - Lake St", 5.99, Reverse Oblique, 42.16, 44.58, 315.52, 0.25, 1.0, RSN624_WHITTIER.A_A-HNT270.AT2, RSN624_WHITTIER.A_A-HNT360.AT2 , RSN624_WHITTIER.A_A-HNT-UP.AT2  
37, RotD50, 625, -, 1.0, -, 1.9, 11.2, 0.5, "Whittier Narrows-01", 1987, "Inglewood - Union Oil", 5.99, Reverse Oblique, 21.41, 25.86, 316.02, 0.175, 1.0, RSN625_WHITTIER.A_A-ING000.AT2, RSN625_WHITTIER.A_A-ING090.AT2 , RSN625_WHITTIER.A_A-ING-UP.AT2  
38, RotD50, 626, -, 1.0, -, 1.8, 9.5, 0.9, "Whittier Narrows-01", 1987, "LA - 116th St School", 5.99, Reverse Oblique, 18.23, 23.29, 301.0, 0.1625, 1.0, RSN626_WHITTIER.A_A-116270.AT2, RSN626_WHITTIER.A_A-116360.AT2 , RSN626_WHITTIER.A_A-116-UP.AT2  
39, RotD50, 627, -, 1.0, -, 3.9, 14.4, 0.3, "Whittier Narrows-01", 1987, "LA - Baldwin Hills", 5.99, Reverse Oblique, 21.51, 25.94, 297.07, 0.2875, 1.0, RSN627_WHITTIER.A_A-BLD000.AT2, RSN627_WHITTIER.A_A-BLD090.AT2 , RSN627_WHITTIER.A_A-BLD-UP.AT2  
40, RotD50, 628, -, 1.0, -, 7.4, 14.6, 0.1, "Whittier Narrows-01", 1987, "LA - Centinela St", 5.99, Reverse Oblique, 28.0, 31.53, 321.91, 0.22, 1.0, RSN628_WHITTIER.A_A-CEN155.AT2, RSN628_WHITTIER.A_A-CEN245.AT2 , RSN628_WHITTIER.A_A-CEN-UP.AT2  
41, RotD50, 629, -, 1.0, -, 6.3, 17.0, 0.2, "Whittier Narrows-01", 1987, "LA - Century City CC North", 5.99, Reverse Oblique, 26.14, 29.89, 277.98, 0.2875, 1.0, RSN629_WHITTIER.A_A-CCN000.AT2, RSN629_WHITTIER.A_A-CCN090.AT2 , RSN629_WHITTIER.A_A-CCN-UP.AT2  
42, RotD50, 630, -, 1.0, -, 7.4, 20.1, 0.1, "Whittier Narrows-01", 1987, "LA - Century City CC South", 5.99, Reverse Oblique, 25.95, 29.73, 277.98, 0.25, 1.0, RSN630_WHITTIER.A_A-CTS000.AT2, RSN630_WHITTIER.A_A-CTS090.AT2 , RSN630_WHITTIER.A_A-CTS-UP.AT2  
43, RotD50, 631, -, 1.0, -, 5.6, 11.6, 0.0, "Whittier Narrows-01", 1987, "LA - Chalon Rd", 5.99, Reverse Oblique, 32.11, 35.23, 740.05, 0.4, 1.0, RSN631_WHITTIER.A_A-CHL030.AT2, RSN631_WHITTIER.A_A-CHL120.AT2 , RSN631_WHITTIER.A_A-CHL-UP.AT2  
44, RotD50, 632, -, 1.0, -, 3.1, 9.7, 0.2, "Whittier Narrows-01", 1987, "LA - Cypress Ave", 5.99, Reverse Oblique, 8.56, 16.97, 366.71, 0.3, 1.0, RSN632_WHITTIER.A_A-CYP053.AT2, RSN632_WHITTIER.A_A-CYP143.AT2 , RSN632_WHITTIER.A_A-CYP-UP.AT2  
45, RotD50, 633, -, 1.0, -, 5.6, 11.8, 0.2, "Whittier Narrows-01", 1987, "LA - E Vernon Ave", 5.99, Reverse Oblique, 10.5, 17.91, 283.14, 0.14, 1.0, RSN633_WHITTIER.A_A-VER083.AT2, RSN633_WHITTIER.A_A-VER173.AT2 , RSN633_WHITTIER.A_A-VER-UP.AT2  
46, RotD50, 634, -, 1.0, -, 2.9, 7.6, 0.4, "Whittier Narrows-01", 1987, "LA - Fletcher Dr", 5.99, Reverse Oblique, 11.07, 18.86, 329.06, 0.33, 1.0, RSN634_WHITTIER.A_A-FLE144.AT2, RSN634_WHITTIER.A_A-FLE234.AT2 , RSN634_WHITTIER.A_A-FLE-UP.AT2  
47, RotD50, 635, -, 1.0, -, 6.4, 13.6, 0.3, "Whittier Narrows-01", 1987, "LA - Hollywood Stor FF", 5.99, Reverse Oblique, 19.22, 24.08, 316.46, 0.4125, 1.0, RSN635_WHITTIER.A_A-PEL000.AT2, RSN635_WHITTIER.A_A-PEL090.AT2 , RSN635_WHITTIER.A_A-PEL-UP.AT2  
48, RotD50, 636, -, 1.0, -, 4.5, 10.8, 0.0, "Whittier Narrows-01", 1987, "LA - N Faring Rd", 5.99, Reverse Oblique, 27.94, 31.48, 255.0, 0.33, 1.0, RSN636_WHITTIER.A_A-FAR000.AT2, RSN636_WHITTIER.A_A-FAR090.AT2 , RSN636_WHITTIER.A_A-FAR-UP.AT2  
49, RotD50, 637, -, 1.0, -, 3.4, 8.6, 0.4, "Whittier Narrows-01", 1987, "LA - N Figueroa St", 5.99, Reverse Oblique, 6.0, 16.53, 364.91, 0.4, 1.0, RSN637_WHITTIER.A_A-FIG058.AT2, RSN637_WHITTIER.A_A-FIG328.AT2 , RSN637_WHITTIER.A_A-FIG-UP.AT2  
50, RotD50, 638, -, 1.0, -, 2.8, 8.6, 0.5, "Whittier Narrows-01", 1987, "LA - N Westmoreland", 5.99, Reverse Oblique, 15.34, 21.11, 315.06, 0.0, 1.0, RSN638_WHITTIER.A_A-WST000.AT2, RSN638_WHITTIER.A_A-WST270.AT2 , RSN638_WHITTIER.A_A-WST-UP.AT2  
51, RotD50, 639, -, 1.0, -, 3.1, 8.0, 1.3, "Whittier Narrows-01", 1987, "LA - Obregon Park", 5.99, Reverse Oblique, 4.5, 15.18, 349.43, 0.2875, 1.0, RSN639_WHITTIER.A_A-OBR270.AT2, RSN639_WHITTIER.A_A-OBR360.AT2 , RSN639_WHITTIER.A_A-OBR-UP.AT2  
52, RotD50, 640, -, 1.0, -, 4.0, 11.0, 0.4, "Whittier Narrows-01", 1987, "LA - S Grand Ave", 5.99, Reverse Oblique, 14.46, 20.48, 285.28, 0.2, 1.0, RSN640_WHITTIER.A_A-GR2090.AT2, RSN640_WHITTIER.A_A-GR2180.AT2 , RSN640_WHITTIER.A_A-GR2-UP.AT2  
53, RotD50, 641, -, 1.0, -, 3.7, 12.0, 0.1, "Whittier Narrows-01", 1987, "LA - Saturn St", 5.99, Reverse Oblique, 20.35, 24.99, 308.71, 0.3, 1.0, RSN641_WHITTIER.A_A-STN020.AT2, RSN641_WHITTIER.A_A-STN110.AT2 , RSN641_WHITTIER.A_A-STN-UP.AT2  
54, RotD50, 642, -, 1.0, -, 6.0, 11.2, 0.3, "Whittier Narrows-01", 1987, "LA - W 70th St", 5.99, Reverse Oblique, 16.77, 22.17, 241.41, 0.33, 1.0, RSN642_WHITTIER.A_A-W70000.AT2, RSN642_WHITTIER.A_A-W70270.AT2 , RSN642_WHITTIER.A_A-W70-UP.AT2  
55, RotD50, 643, -, 1.0, -, 2.9, 7.1, 0.0, "Whittier Narrows-01", 1987, "LA - Wonderland Ave", 5.99, Reverse Oblique, 23.4, 27.64, 1222.52, 0.6, 1.0, RSN643_WHITTIER.A_A-WON075.AT2, RSN643_WHITTIER.A_A-WON165.AT2 , RSN643_WHITTIER.A_A-WON-UP.AT2  
56, RotD50, 644, -, 1.0, -, 15.6, 24.9, 0.1, "Whittier Narrows-01", 1987, "LB - Harbor Admin FF", 5.99, Reverse Oblique, 34.1, 37.05, 230.0, 0.1125, 1.0, RSN644_WHITTIER.A_A-HAR000.AT2, RSN644_WHITTIER.A_A-HAR090.AT2 , RSN644_WHITTIER.A_A-HAR-UP.AT2  
57, RotD50, 645, -, 1.0, -, 5.6, 11.7, 0.6, "Whittier Narrows-01", 1987, "LB - Orange Ave", 5.99, Reverse Oblique, 19.8, 24.54, 344.72, 0.13, 1.0, RSN645_WHITTIER.A_A-OR2010.AT2, RSN645_WHITTIER.A_A-OR2280.AT2 , RSN645_WHITTIER.A_A-OR2-UP.AT2  
58, RotD50, 646, -, 1.0, -, 2.3, 10.6, 0.4, "Whittier Narrows-01", 1987, "LB - Rancho Los Cerritos", 5.99, Reverse Oblique, 24.61, 28.56, 302.73, 0.25, 1.0, RSN646_WHITTIER.A_A-LBR000.AT2, RSN646_WHITTIER.A_A-LBR090.AT2 , RSN646_WHITTIER.A_A-LBR-UP.AT2  
59, RotD50, 647, -, 1.0, -, 10.1, 22.8, 0.1, "Whittier Narrows-01", 1987, "LB - Recreation Park", 5.99, Reverse Oblique, 30.4, 33.68, 282.0, 0.1625, 1.0, RSN647_WHITTIER.A_A-REC090.AT2, RSN647_WHITTIER.A_A-REC180.AT2 , RSN647_WHITTIER.A_A-REC-UP.AT2  
60, RotD50, 648, -, 1.0, -, 3.1, 5.9, 0.2, "Whittier Narrows-01", 1987, "La Crescenta - New York", 5.99, Reverse Oblique, 19.28, 26.04, 411.55, 0.5, 1.0, RSN648_WHITTIER.A_A-NYA090.AT2, RSN648_WHITTIER.A_A-NYA180.AT2 , RSN648_WHITTIER.A_A-NYA-UP.AT2  
61, RotD50, 649, -, 1.0, -, 5.2, 10.9, 0.2, "Whittier Narrows-01", 1987, "La Habra - Briarcliff", 5.99, Reverse Oblique, 14.17, 20.28, 338.27, 0.12, 1.0, RSN649_WHITTIER.A_A-BRC000.AT2, RSN649_WHITTIER.A_A-BRC090.AT2 , RSN649_WHITTIER.A_A-BRC-UP.AT2  
62, RotD50, 650, -, 1.0, -, 3.8, 14.1, 0.2, "Whittier Narrows-01", 1987, "La Puente - Rimgrove Av", 5.99, Reverse Oblique, 10.24, 17.75, 339.52, 0.5, 1.0, RSN650_WHITTIER.A_A-RIM015.AT2, RSN650_WHITTIER.A_A-RIM105.AT2 , RSN650_WHITTIER.A_A-RIM-UP.AT2  
63, RotD50, 651, -, 1.0, -, 8.2, 17.0, 0.0, "Whittier Narrows-01", 1987, "Lake Hughes #1", 5.99, Reverse Oblique, 69.59, 71.75, 425.34, 1.0, 1.0, RSN651_WHITTIER.A_A-L01000.AT2, RSN651_WHITTIER.A_A-L01090.AT2 ,  -----   
64, RotD50, 652, -, 1.0, -, 5.2, 12.0, 0.6, "Whittier Narrows-01", 1987, "Lakewood - Del Amo Blvd", 5.99, Reverse Oblique, 22.4, 26.68, 267.35, 0.3, 1.0, RSN652_WHITTIER.A_A-DEL000.AT2, RSN652_WHITTIER.A_A-DEL090.AT2 , RSN652_WHITTIER.A_A-DEL-UP.AT2  
65, RotD50, 653, -, 1.0, -, 5.5, 11.5, 0.0, "Whittier Narrows-01", 1987, "Lancaster - Med Off FF", 5.99, Reverse Oblique, 65.32, 67.62, 339.14, 0.2875, 1.0, RSN653_WHITTIER.A_A-LMD010.AT2, RSN653_WHITTIER.A_A-LMD100.AT2 , RSN653_WHITTIER.A_A-LMD-UP.AT2  
66, RotD50, 654, -, 1.0, -, 8.2, 12.3, 0.1, "Whittier Narrows-01", 1987, "Lawndale - Osage Ave", 5.99, Reverse Oblique, 26.31, 30.04, 311.86, 0.4, 1.0, RSN654_WHITTIER.A_A-LOA092.AT2, RSN654_WHITTIER.A_A-LOA182.AT2 , RSN654_WHITTIER.A_A-LOA-UP.AT2  
67, RotD50, 655, -, 1.0, -, 7.4, 14.0, 0.0, "Whittier Narrows-01", 1987, "Leona Valley #5 - Ritter", 5.99, Reverse Oblique, 56.48, 59.13, 375.22, 0.875, 1.0, RSN655_WHITTIER.A_A-LV5000.AT2, RSN655_WHITTIER.A_A-LV5090.AT2 , RSN655_WHITTIER.A_A-LV5-UP.AT2  
68, RotD50, 656, -, 1.0, -, 6.6, 14.7, 0.0, "Whittier Narrows-01", 1987, "Leona Valley #6", 5.99, Reverse Oblique, 56.97, 59.6, 327.44, 0.875, 1.0, RSN656_WHITTIER.A_A-LV6000.AT2, RSN656_WHITTIER.A_A-LV6090.AT2 , RSN656_WHITTIER.A_A-LV6-UP.AT2  
69, RotD50, 657, -, 1.0, -, 3.5, 7.4, 0.0, "Whittier Narrows-01", 1987, "Malibu - Las Flores Canyon", 5.99, Reverse Oblique, 46.43, 48.64, 578.11, 0.8, 1.0, RSN657_WHITTIER.A_A-LAS160.AT2, RSN657_WHITTIER.A_A-LAS250.AT2 , RSN657_WHITTIER.A_A-LAS-UP.AT2  
70, RotD50, 658, -, 1.0, -, 5.7, 15.1, 0.0, "Whittier Narrows-01", 1987, "Malibu - Point Dume Sch", 5.99, Reverse Oblique, 61.54, 63.23, 349.54, 0.25, 1.0, RSN658_WHITTIER.A_A-MAL180.AT2, RSN658_WHITTIER.A_A-MAL270.AT2 , RSN658_WHITTIER.A_A-MAL-UP.AT2  
71, RotD50, 659, -, 1.0, -, 10.7, 16.9, 0.0, "Whittier Narrows-01", 1987, "Malibu - W Pacific Cst Hwy", 5.99, Reverse Oblique, 60.35, 62.07, 436.53, 0.4, 1.0, RSN659_WHITTIER.A_A-WPA060.AT2, RSN659_WHITTIER.A_A-WPA150.AT2 , RSN659_WHITTIER.A_A-WPA-UP.AT2  
72, RotD50, 661, -, 1.0, -, 4.9, 11.5, 0.1, "Whittier Narrows-01", 1987, "Mill Creek_ Angeles Nat For", 5.99, Reverse Oblique, 32.36, 36.79, 569.84, 0.6, 1.0, RSN661_WHITTIER.A_A-ANG000.AT2, RSN661_WHITTIER.A_A-ANG090.AT2 , RSN661_WHITTIER.A_A-ANG-UP.AT2  
73, RotD50, 662, -, 1.0, -, 9.7, 17.9, 0.0, "Whittier Narrows-01", 1987, "Moorpark - Fire Sta", 5.99, Reverse Oblique, 72.62, 74.69, 341.58, 0.25, 1.0, RSN662_WHITTIER.A_A-MRP090.AT2, RSN662_WHITTIER.A_A-MRP180.AT2 , RSN662_WHITTIER.A_A-MRP-UP.AT2  
74, RotD50, 663, -, 1.0, -, 4.1, 9.8, 0.3, "Whittier Narrows-01", 1987, "Mt Wilson - CIT Seis Sta", 5.99, Reverse Oblique, 14.5, 22.73, 680.37, 0.2875, 1.0, RSN663_WHITTIER.A_A-MTW000.AT2, RSN663_WHITTIER.A_A-MTW090.AT2 , RSN663_WHITTIER.A_A-MTW-UP.AT2  
