Response and Fourier amplitude spectra (91 periods,  .04 - 15.0 sec)   for      
Corrected accelerogram   24851-L1228-01252.01       Chan  1:  13 Deg     from   
Uncorrected Accelerogram Data             Processed: 09/10/01, CDMG  851as001   
Record of Sun Sep  9, 2001 16:59:16 PDT               (Avol1 v4.6  7/01 CSMIP)  
CSMIP Preliminary Processing            (Origin:  To be determined)             
24851-L1228-01252.01                 Start time:  9/09/01, 23:59:16.0 UTC (GPS) 
Station No. 24851   34.070N, 118.346W      Etna  s/n 1228  (3 Channels)         
(LADOT 18)                                                                      
Chan  1:  13 Deg                                                                
Record of Sun Sep  9, 2001 16:59:16 PDT    Sun Sep  9, 2001 16:59:16 PDT        
Hypocenter:  To be determined.               ML:  To be determined.             
Instr Period =  .0103 sec,  Damping =  .650,  Sensitivity =  .63  v/g           
                        Record length = 45.000 sec.                             
                                     Uncor Max  =  -.244 g, at   5.910 sec.     
RMS accel of (uncor) record  =        .                                         
Accelerogram bandpass filtered with 3 dB pts at   .30 and 23.00 cyc/sec         
                 instrument- and baseline-corrected                             
                                                                                
                                                                                
                                                                                
                                                                                
                                                                                
Record of Sun Sep  9, 2001 16:59:16 PDT    Sun Sep  9, 2001 16:59:16 PDT        
                                                                                
24851-L1228-01252.01      (LADOT 18)    Chan  1:  13 Deg                        
                                                                                
24851-L1228-01252.01      (LADOT 18)    Chan  1:  13 Deg                        
                                                                                
Units for spectra are inches and sec, except Sa is in fraction of g.            
                                                                                
    1  100    1    3    3  100    1    3    1   24   12 1228    024851    1    0
   23   59   16    0  252    9    9 2001   10    3   13 4500   39   10   72   13
 4500    1   50    3 1228    1    1  450    1    0    0    0    0    0    0    0
    0    4    0    0 2250    2    0    0    0    0   72   10    0    0    0 2250
    0 2250   11   91    1    3    0    0    0    0    3    0    0    0    0    2
    2    2    4    0   32   99    0   32   32    0    0    1    0    0    0    0
  -99   -1    0    0
      .010      .650    45.000      .012      .000   625.000     -.244     5.910
    96.700      .298      .477      .000    10.000      .000      .000      .000
     2.500   -27.558      .135     -.132     5.000    30.000      .000      .012
      .000     -.013     2.000    15.000    34.070  -118.346      .013      .310
    23.171     -.033      .008  -999.000      .000      .000   -13.400      .000
  1000.000    -1.004      .000      .000      .000      .000      .000      .000
     4.600     4.400      .000   980.665      .020    45.000    15.390      .000
      .000    23.000      .000    45.000      .020      .300      .000      .000
     5.920  -205.654     5.900     7.115     5.840     -.612      .000      .300
    23.000      .020      .020      .000     1.040      .059      .000      .000
      .686      .085      .316      .286      .028      .004      .000      .000
      .000      .000      .000      .000      .000      .000      .000      .000
      .000      .000      .000      .000
      .050
      .040      .042      .044      .046      .048      .050      .055      .060
      .065      .070      .075      .080      .085      .090      .095      .100
      .110      .120      .130      .140      .150      .160      .170      .180
      .190      .200      .220      .240      .260      .280      .300      .320
      .340      .360      .380      .400      .420      .440      .460      .480
      .500      .550      .600      .650      .700      .750      .800      .850
      .900      .950     1.000     1.100     1.200     1.300     1.400     1.500
     1.600     1.700     1.800     1.900     2.000     2.200     2.400     2.600
     2.800     3.000     3.200     3.400     3.600     3.800     4.000     4.200
     4.400     4.600     4.800     5.000     5.500     6.000     6.500     7.000
     7.500     8.000     8.500     9.000     9.500    10.000    11.000    12.000
    13.000    14.000    15.000      .000      .000      .000      .000      .000
      .000      .000      .000      .000
Fourier amplitude spectra in in/sec.
  .000E+00  .000E+00  .000E+00  .000E+00  .000E+00  .000E+00  .000E+00  .000E+00
  .000E+00  .000E+00  .000E+00  .000E+00  .000E+00  .000E+00  .000E+00  .000E+00
  .000E+00  .000E+00  .000E+00  .000E+00  .000E+00  .000E+00  .000E+00  .000E+00
  .000E+00  .000E+00  .000E+00  .000E+00  .000E+00  .000E+00  .000E+00  .000E+00
  .000E+00  .000E+00  .000E+00  .000E+00  .000E+00  .000E+00  .000E+00  .000E+00
  .000E+00  .000E+00  .000E+00  .000E+00  .000E+00  .000E+00  .000E+00  .000E+00
  .000E+00  .000E+00  .000E+00  .000E+00  .000E+00  .000E+00  .000E+00  .000E+00
  .000E+00  .000E+00  .000E+00  .000E+00  .000E+00  .000E+00  .000E+00  .000E+00
  .000E+00  .000E+00  .000E+00  .000E+00  .000E+00  .000E+00  .000E+00  .000E+00
  .000E+00  .000E+00  .000E+00  .000E+00  .000E+00  .000E+00  .000E+00  .000E+00
  .000E+00  .000E+00  .000E+00  .000E+00  .000E+00  .000E+00  .000E+00  .000E+00
  .000E+00  .000E+00  .000E+00  .000E+00  .000E+00  .000E+00  .000E+00  .000E+00
  .000E+00  .000E+00  .000E+00  .000E+00
Damping =  .05. Data of Sd,Sv,Sa,Pssv,ttSd,ttSv,ttSa :
  .498E-02  .563E-02  .628E-02  .699E-02  .796E-02  .898E-02  .124E-01  .173E-01
  .225E-01  .277E-01  .348E-01  .423E-01  .485E-01  .523E-01  .533E-01  .550E-01
  .735E-01  .942E-01  .108E+00  .107E+00  .110E+00  .112E+00  .117E+00  .112E+00
  .117E+00  .124E+00  .145E+00  .168E+00  .185E+00  .214E+00  .255E+00  .287E+00
  .314E+00  .331E+00  .346E+00  .357E+00  .366E+00  .373E+00  .380E+00  .377E+00
  .374E+00  .354E+00  .353E+00  .350E+00  .341E+00  .331E+00  .323E+00  .313E+00
  .302E+00  .291E+00  .279E+00  .256E+00  .234E+00  .240E+00  .247E+00  .253E+00
  .259E+00  .264E+00  .268E+00  .273E+00  .276E+00  .282E+00  .286E+00  .287E+00
  .288E+00  .287E+00  .286E+00  .284E+00  .282E+00  .280E+00  .278E+00  .276E+00
  .274E+00  .273E+00  .271E+00  .270E+00  .267E+00  .264E+00  .263E+00  .261E+00
  .260E+00  .259E+00  .258E+00  .258E+00  .257E+00  .257E+00  .256E+00  .256E+00
  .255E+00  .255E+00  .255E+00  .000E+00  .000E+00  .000E+00  .000E+00  .000E+00
  .000E+00  .000E+00  .000E+00  .000E+00
  .419E+00  .453E+00  .490E+00  .542E+00  .642E+00  .778E+00  .109E+01  .147E+01
  .180E+01  .222E+01  .268E+01  .298E+01  .314E+01  .318E+01  .311E+01  .300E+01
  .367E+01  .461E+01  .508E+01  .487E+01  .473E+01  .477E+01  .504E+01  .506E+01
  .504E+01  .472E+01  .481E+01  .473E+01  .442E+01  .483E+01  .487E+01  .491E+01
  .521E+01  .552E+01  .581E+01  .600E+01  .615E+01  .611E+01  .592E+01  .564E+01
  .540E+01  .511E+01  .488E+01  .464E+01  .444E+01  .429E+01  .417E+01  .406E+01
  .396E+01  .387E+01  .379E+01  .365E+01  .353E+01  .343E+01  .334E+01  .326E+01
  .320E+01  .314E+01  .309E+01  .304E+01  .300E+01  .292E+01  .286E+01  .281E+01
  .277E+01  .274E+01  .271E+01  .269E+01  .268E+01  .266E+01  .265E+01  .264E+01
  .264E+01  .263E+01  .262E+01  .262E+01  .261E+01  .261E+01  .260E+01  .260E+01
  .259E+01  .259E+01  .259E+01  .259E+01  .259E+01  .259E+01  .259E+01  .258E+01
  .258E+01  .258E+01  .258E+01  .000E+00  .000E+00  .000E+00  .000E+00  .000E+00
  .000E+00  .000E+00  .000E+00  .000E+00
  .317E+00  .327E+00  .334E+00  .342E+00  .351E+00  .369E+00  .413E+00  .497E+00
  .545E+00  .576E+00  .640E+00  .679E+00  .686E+00  .656E+00  .613E+00  .573E+00
  .620E+00  .668E+00  .658E+00  .566E+00  .497E+00  .460E+00  .415E+00  .361E+00
  .333E+00  .311E+00  .302E+00  .300E+00  .284E+00  .281E+00  .286E+00  .290E+00
  .275E+00  .265E+00  .245E+00  .227E+00  .213E+00  .200E+00  .184E+00  .169E+00
  .154E+00  .121E+00  .102E+00  .850E-01  .720E-01  .615E-01  .526E-01  .451E-01
  .388E-01  .336E-01  .292E-01  .223E-01  .174E-01  .154E-01  .137E-01  .123E-01
  .111E-01  .100E-01  .916E-02  .839E-02  .772E-02  .663E-02  .574E-02  .502E-02
  .442E-02  .392E-02  .351E-02  .315E-02  .285E-02  .260E-02  .238E-02  .219E-02
  .202E-02  .188E-02  .175E-02  .164E-02  .140E-02  .122E-02  .108E-02  .968E-03
  .874E-03  .795E-03  .729E-03  .672E-03  .623E-03  .581E-03  .510E-03  .454E-03
  .409E-03  .373E-03  .343E-03  .000E+00  .000E+00  .000E+00  .000E+00  .000E+00
  .000E+00  .000E+00  .000E+00  .000E+00
  .782E+00  .842E+00  .897E+00  .954E+00  .104E+01  .113E+01  .141E+01  .181E+01
  .217E+01  .249E+01  .292E+01  .332E+01  .359E+01  .365E+01  .353E+01  .346E+01
  .420E+01  .493E+01  .522E+01  .479E+01  .459E+01  .442E+01  .433E+01  .392E+01
  .386E+01  .391E+01  .413E+01  .440E+01  .447E+01  .480E+01  .533E+01  .563E+01
  .580E+01  .578E+01  .573E+01  .560E+01  .548E+01  .533E+01  .519E+01  .493E+01
  .470E+01  .405E+01  .370E+01  .338E+01  .306E+01  .277E+01  .253E+01  .231E+01
  .211E+01  .192E+01  .175E+01  .146E+01  .123E+01  .116E+01  .111E+01  .106E+01
  .102E+01  .975E+00  .937E+00  .902E+00  .868E+00  .805E+00  .748E+00  .694E+00
  .646E+00  .601E+00  .561E+00  .525E+00  .492E+00  .463E+00  .437E+00  .413E+00
  .392E+00  .373E+00  .355E+00  .339E+00  .305E+00  .277E+00  .254E+00  .234E+00
  .218E+00  .203E+00  .191E+00  .180E+00  .170E+00  .161E+00  .146E+00  .134E+00
  .123E+00  .115E+00  .107E+00  .000E+00  .000E+00  .000E+00  .000E+00  .000E+00
  .000E+00  .000E+00  .000E+00  .000E+00
  .591E+01  .591E+01  .591E+01  .591E+01  .591E+01  .591E+01  .595E+01  .595E+01
  .595E+01  .596E+01  .600E+01  .601E+01  .601E+01  .602E+01  .603E+01  .602E+01
  .603E+01  .604E+01  .605E+01  .606E+01  .594E+01  .595E+01  .595E+01  .596E+01
  .588E+01  .588E+01  .588E+01  .588E+01  .588E+01  .604E+01  .606E+01  .606E+01
  .608E+01  .608E+01  .610E+01  .612E+01  .614E+01  .614E+01  .616E+01  .618E+01
  .618E+01  .598E+01  .600E+01  .600E+01  .600E+01  .600E+01  .602E+01  .602E+01
  .602E+01  .602E+01  .602E+01  .602E+01  .602E+01  .582E+01  .582E+01  .582E+01
  .582E+01  .582E+01  .582E+01  .582E+01  .582E+01  .582E+01  .582E+01  .582E+01
  .582E+01  .582E+01  .582E+01  .582E+01  .582E+01  .582E+01  .582E+01  .582E+01
  .582E+01  .582E+01  .582E+01  .582E+01  .582E+01  .582E+01  .582E+01  .582E+01
  .582E+01  .582E+01  .582E+01  .582E+01  .582E+01  .582E+01  .582E+01  .582E+01
  .582E+01  .582E+01  .582E+01  .000E+00  .000E+00  .000E+00  .000E+00  .000E+00
  .000E+00  .000E+00  .000E+00  .000E+00
  .590E+01  .590E+01  .590E+01  .593E+01  .593E+01  .593E+01  .593E+01  .593E+01
  .597E+01  .597E+01  .598E+01  .599E+01  .599E+01  .599E+01  .600E+01  .600E+01
  .600E+01  .613E+01  .608E+01  .610E+01  .597E+01  .591E+01  .592E+01  .592E+01
  .592E+01  .592E+01  .592E+01  .592E+01  .592E+01  .610E+01  .612E+01  .614E+01
  .616E+01  .618E+01  .602E+01  .604E+01  .604E+01  .604E+01  .604E+01  .604E+01
  .606E+01  .586E+01  .586E+01  .586E+01  .586E+01  .588E+01  .588E+01  .588E+01
  .588E+01  .588E+01  .588E+01  .588E+01  .588E+01  .588E+01  .588E+01  .588E+01
  .588E+01  .588E+01  .588E+01  .588E+01  .588E+01  .588E+01  .588E+01  .588E+01
  .588E+01  .588E+01  .588E+01  .588E+01  .588E+01  .588E+01  .588E+01  .588E+01
  .588E+01  .588E+01  .588E+01  .588E+01  .588E+01  .588E+01  .588E+01  .588E+01
  .588E+01  .588E+01  .588E+01  .588E+01  .588E+01  .588E+01  .588E+01  .588E+01
  .588E+01  .588E+01  .588E+01  .000E+00  .000E+00  .000E+00  .000E+00  .000E+00
  .000E+00  .000E+00  .000E+00  .000E+00
  .591E+01  .591E+01  .591E+01  .591E+01  .591E+01  .591E+01  .595E+01  .595E+01
  .595E+01  .595E+01  .600E+01  .601E+01  .601E+01  .602E+01  .602E+01  .602E+01
  .603E+01  .604E+01  .605E+01  .606E+01  .594E+01  .594E+01  .595E+01  .595E+01
  .588E+01  .588E+01  .588E+01  .588E+01  .588E+01  .604E+01  .606E+01  .606E+01
  .608E+01  .608E+01  .610E+01  .612E+01  .612E+01  .614E+01  .616E+01  .616E+01
  .618E+01  .598E+01  .598E+01  .598E+01  .600E+01  .600E+01  .600E+01  .600E+01
  .600E+01  .600E+01  .600E+01  .600E+01  .580E+01  .580E+01  .580E+01  .580E+01
  .580E+01  .580E+01  .580E+01  .580E+01  .578E+01  .578E+01  .578E+01  .578E+01
  .578E+01  .578E+01  .578E+01  .578E+01  .578E+01  .578E+01  .578E+01  .578E+01
  .578E+01  .578E+01  .578E+01  .578E+01  .578E+01  .578E+01  .578E+01  .578E+01
  .578E+01  .578E+01  .578E+01  .578E+01  .578E+01  .578E+01  .578E+01  .578E+01
  .576E+01  .576E+01  .576E+01  .000E+00  .000E+00  .000E+00  .000E+00  .000E+00
  .000E+00  .000E+00  .000E+00  .000E+00
/&   ----------  End of spectral data for channel  1  ----------
Response and Fourier amplitude spectra (91 periods,  .04 - 15.0 sec)   for      
Corrected accelerogram   24851-L1228-01252.01       Chan  2:  Up         from   
Uncorrected Accelerogram Data             Processed: 09/10/01, CDMG  851as001   
Record of Sun Sep  9, 2001 16:59:16 PDT               (Avol1 v4.6  7/01 CSMIP)  
CSMIP Preliminary Processing            (Origin:  To be determined)             
24851-L1228-01252.01                 Start time:  9/09/01, 23:59:16.0 UTC (GPS) 
Station No. 24851   34.070N, 118.346W      Etna  s/n 1228  (3 Channels)         
(LADOT 18)                                                                      
Chan  2:  Up                                                                    
Record of Sun Sep  9, 2001 16:59:16 PDT    Sun Sep  9, 2001 16:59:16 PDT        
Hypocenter:  To be determined.               ML:  To be determined.             
Instr Period =  .0106 sec,  Damping =  .650,  Sensitivity =  .63  v/g           
                        Record length = 45.000 sec.                             
                                     Uncor Max  =  -.067 g, at   5.930 sec.     
RMS accel of (uncor) record  =        .                                         
Accelerogram bandpass filtered with 3 dB pts at   .30 and 23.00 cyc/sec         
                 instrument- and baseline-corrected                             
                                                                                
                                                                                
                                                                                
                                                                                
                                                                                
Record of Sun Sep  9, 2001 16:59:16 PDT    Sun Sep  9, 2001 16:59:16 PDT        
                                                                                
24851-L1228-01252.01      (LADOT 18)    Chan  2:  Up                            
                                                                                
24851-L1228-01252.01      (LADOT 18)    Chan  2:  Up                            
                                                                                
Units for spectra are inches and sec, except Sa is in fraction of g.            
                                                                                
    2  100    2    3    3  100    1    3    1   24   12 1228    024851    1    0
   23   59   16    0  252    9    9 2001   10    3  500 4500   39   10   72   13
 4500    1   50    3 1228    1    1  450    1    0    0    0    0    0    0    0
    0    4    0    0 2250    2    0    0    0    0   72   10    0    0    0 2250
    0 2250   11   91    1    3    0    0    0    0    3    0    0    0    0    2
    2    2    4    0   32   99    0   32   32    0    0    1    0    0    0    0
  -99   -1    0    0
      .011      .650    45.000      .004      .000   625.000     -.067     5.930
    94.300      .298      .477      .000    10.000      .000      .000      .000
     2.500   -31.287      .023     -.053     5.000    30.000      .000      .001
      .000     -.002     2.000    15.000    34.070  -118.346      .024      .218
     9.171     -.017      .013  -999.000      .000      .000   -13.400      .000
  1000.000     1.008      .000      .000      .000      .000      .000      .000
     4.600     4.400      .000   980.665      .020    45.000    15.008      .000
      .000    23.000      .000    45.000      .020      .300      .000      .000
     5.920   -56.872     5.900     1.073     9.360     -.064      .000      .300
    23.000      .020      .020      .000      .020      .027      .000      .000
      .148      .130      .052      .026      .006      .000      .000      .000
      .000      .000      .000      .000      .000      .000      .000      .000
      .000      .000      .000      .000
      .050
      .040      .042      .044      .046      .048      .050      .055      .060
      .065      .070      .075      .080      .085      .090      .095      .100
      .110      .120      .130      .140      .150      .160      .170      .180
      .190      .200      .220      .240      .260      .280      .300      .320
      .340      .360      .380      .400      .420      .440      .460      .480
      .500      .550      .600      .650      .700      .750      .800      .850
      .900      .950     1.000     1.100     1.200     1.300     1.400     1.500
     1.600     1.700     1.800     1.900     2.000     2.200     2.400     2.600
     2.800     3.000     3.200     3.400     3.600     3.800     4.000     4.200
     4.400     4.600     4.800     5.000     5.500     6.000     6.500     7.000
     7.500     8.000     8.500     9.000     9.500    10.000    11.000    12.000
    13.000    14.000    15.000      .000      .000      .000      .000      .000
      .000      .000      .000      .000
Fourier amplitude spectra in in/sec.
  .000E+00  .000E+00  .000E+00  .000E+00  .000E+00  .000E+00  .000E+00  .000E+00
  .000E+00  .000E+00  .000E+00  .000E+00  .000E+00  .000E+00  .000E+00  .000E+00
  .000E+00  .000E+00  .000E+00  .000E+00  .000E+00  .000E+00  .000E+00  .000E+00
  .000E+00  .000E+00  .000E+00  .000E+00  .000E+00  .000E+00  .000E+00  .000E+00
  .000E+00  .000E+00  .000E+00  .000E+00  .000E+00  .000E+00  .000E+00  .000E+00
  .000E+00  .000E+00  .000E+00  .000E+00  .000E+00  .000E+00  .000E+00  .000E+00
  .000E+00  .000E+00  .000E+00  .000E+00  .000E+00  .000E+00  .000E+00  .000E+00
  .000E+00  .000E+00  .000E+00  .000E+00  .000E+00  .000E+00  .000E+00  .000E+00
  .000E+00  .000E+00  .000E+00  .000E+00  .000E+00  .000E+00  .000E+00  .000E+00
  .000E+00  .000E+00  .000E+00  .000E+00  .000E+00  .000E+00  .000E+00  .000E+00
  .000E+00  .000E+00  .000E+00  .000E+00  .000E+00  .000E+00  .000E+00  .000E+00
  .000E+00  .000E+00  .000E+00  .000E+00  .000E+00  .000E+00  .000E+00  .000E+00
  .000E+00  .000E+00  .000E+00  .000E+00
Damping =  .05. Data of Sd,Sv,Sa,Pssv,ttSd,ttSv,ttSa :
  .112E-02  .128E-02  .145E-02  .182E-02  .210E-02  .228E-02  .232E-02  .323E-02
  .535E-02  .551E-02  .517E-02  .714E-02  .798E-02  .783E-02  .915E-02  .136E-01
  .168E-01  .194E-01  .244E-01  .258E-01  .181E-01  .204E-01  .226E-01  .201E-01
  .200E-01  .203E-01  .220E-01  .212E-01  .201E-01  .219E-01  .232E-01  .230E-01
  .202E-01  .200E-01  .231E-01  .277E-01  .325E-01  .349E-01  .367E-01  .434E-01
