Response and Fourier amplitude spectra (91 periods,  .04 - 15.0 sec)   for      
Corrected accelerogram   14043-L1865-01253.05       Chan  1:   0 Deg     from   
Uncorrected Accelerogram Data             Processed: 09/10/01, CDMG  aw005      
Record of Sun Sep  9, 2001 16:59:20 PDT               (Avol1 v4.6  7/01 CSMIP)  
CSMIP Preliminary Processing            (Origin:  To be determined)             
14043-L1865-01253.05                 Start time:  9/09/01, 23:59:20.0 UTC (GPS) 
Station No. 14043   33.938N, 118.327W      Etna  s/n 1865  (3 Channels)         
Inglewood - 108th & Crenshaw                                                    
Chan  1:   0 Deg                                                                
Record of Sun Sep  9, 2001 16:59:20 PDT    Sun Sep  9, 2001 16:59:20 PDT        
Hypocenter:  To be determined.               ML:  To be determined.             
Instr Period =  .0108 sec,  Damping =  .660,  Sensitivity =  .63  v/g           
                        Record length = 42.000 sec.                             
                                     Uncor Max  =  -.020 g, at   4.985 sec.     
RMS accel of (uncor) record  =        .                                         
Accelerogram bandpass filtered with 3 dB pts at   .30 and 40.00 cyc/sec         
                 instrument- and baseline-corrected                             
                                                                                
                                                                                
                                                                                
                                                                                
                                                                                
Record of Sun Sep  9, 2001 16:59:20 PDT    Sun Sep  9, 2001 16:59:20 PDT        
                                                                                
14043-L1865-01253.05      Inglewood - 108th & Crenshaw    Chan  1:   0 Deg      
                                                                                
14043-L1865-01253.05      Inglewood - 108th & Crenshaw    Chan  1:   0 Deg      
                                                                                
Units for spectra are inches and sec, except Sa is in fraction of g.            
                                                                                
    1  100    1    3    3  200    1    3    1   24   12 1865    014043    1    0
   23   59   20    0  252    9    9 2001   10    3    0 8400   39   28   72 -999
 8400    1   50    3 1865    1    5  420    1    0    0    0    0    0    0    0
    0    4    0    0 4200    2    0    0    0    0   72   28    0    0    0 4200
    0 4200   29   91    1    3    0    0    0    0    3    0    0    0    0    2
    2    2    4    0   32   99 -999   32   32    0    0    1    0    0    0    0
  -99   -1    0    0
      .011      .660    42.000      .002      .000   625.000     -.020     4.985
    92.800      .298      .477      .000     5.000      .000      .000      .000
     2.500     4.061      .015     -.005     5.000    30.000      .000     -.004
      .006      .010     2.000    15.000    33.938  -118.327      .181      .308
     1.701     -.018      .037  -999.000      .000      .000   -13.400      .000
  1000.000     1.014      .000      .000      .000      .000      .000      .000
     4.600     4.400      .000   980.665      .010    42.000    14.770      .000
      .000    40.000      .000    42.000      .010      .300      .000      .000
     4.980   -19.277     4.720     -.720     4.620      .054      .000      .300
    40.000      .010      .010      .000      .010      .020      .000      .000
      .050      .150      .025      .026      .004      .000      .000      .000
      .000      .000      .000      .000      .000      .000      .000      .000
      .000      .000      .000      .000
      .050
      .040      .042      .044      .046      .048      .050      .055      .060
      .065      .070      .075      .080      .085      .090      .095      .100
      .110      .120      .130      .140      .150      .160      .170      .180
      .190      .200      .220      .240      .260      .280      .300      .320
      .340      .360      .380      .400      .420      .440      .460      .480
      .500      .550      .600      .650      .700      .750      .800      .850
      .900      .950     1.000     1.100     1.200     1.300     1.400     1.500
     1.600     1.700     1.800     1.900     2.000     2.200     2.400     2.600
     2.800     3.000     3.200     3.400     3.600     3.800     4.000     4.200
     4.400     4.600     4.800     5.000     5.500     6.000     6.500     7.000
     7.500     8.000     8.500     9.000     9.500    10.000    11.000    12.000
    13.000    14.000    15.000      .000      .000      .000      .000      .000
      .000      .000      .000      .000
Fourier amplitude spectra in in/sec.
  .000E+00  .000E+00  .000E+00  .000E+00  .000E+00  .000E+00  .000E+00  .000E+00
  .000E+00  .000E+00  .000E+00  .000E+00  .000E+00  .000E+00  .000E+00  .000E+00
  .000E+00  .000E+00  .000E+00  .000E+00  .000E+00  .000E+00  .000E+00  .000E+00
  .000E+00  .000E+00  .000E+00  .000E+00  .000E+00  .000E+00  .000E+00  .000E+00
  .000E+00  .000E+00  .000E+00  .000E+00  .000E+00  .000E+00  .000E+00  .000E+00
  .000E+00  .000E+00  .000E+00  .000E+00  .000E+00  .000E+00  .000E+00  .000E+00
  .000E+00  .000E+00  .000E+00  .000E+00  .000E+00  .000E+00  .000E+00  .000E+00
  .000E+00  .000E+00  .000E+00  .000E+00  .000E+00  .000E+00  .000E+00  .000E+00
  .000E+00  .000E+00  .000E+00  .000E+00  .000E+00  .000E+00  .000E+00  .000E+00
  .000E+00  .000E+00  .000E+00  .000E+00  .000E+00  .000E+00  .000E+00  .000E+00
  .000E+00  .000E+00  .000E+00  .000E+00  .000E+00  .000E+00  .000E+00  .000E+00
  .000E+00  .000E+00  .000E+00  .000E+00  .000E+00  .000E+00  .000E+00  .000E+00
  .000E+00  .000E+00  .000E+00  .000E+00
Damping =  .05. Data of Sd,Sv,Sa,Pssv,ttSd,ttSv,ttSa :
  .423E-03  .529E-03  .609E-03  .649E-03  .618E-03  .751E-03  .803E-03  .102E-02
  .165E-02  .196E-02  .179E-02  .232E-02  .277E-02  .328E-02  .311E-02  .320E-02
  .447E-02  .688E-02  .656E-02  .782E-02  .111E-01  .119E-01  .116E-01  .111E-01
  .931E-02  .975E-02  .106E-01  .133E-01  .141E-01  .185E-01  .236E-01  .281E-01
  .325E-01  .383E-01  .417E-01  .433E-01  .443E-01  .463E-01  .498E-01  .522E-01
  .531E-01  .508E-01  .458E-01  .441E-01  .419E-01  .394E-01  .388E-01  .353E-01
  .331E-01  .357E-01  .354E-01  .389E-01  .376E-01  .270E-01  .270E-01  .267E-01
  .262E-01  .304E-01  .338E-01  .311E-01  .282E-01  .256E-01  .237E-01  .236E-01
  .236E-01  .237E-01  .238E-01  .239E-01  .240E-01  .240E-01  .240E-01  .240E-01
  .239E-01  .238E-01  .237E-01  .236E-01  .234E-01  .232E-01  .230E-01  .228E-01
  .227E-01  .226E-01  .225E-01  .224E-01  .223E-01  .222E-01  .221E-01  .221E-01
  .220E-01  .219E-01  .219E-01  .000E+00  .000E+00  .000E+00  .000E+00  .000E+00
  .000E+00  .000E+00  .000E+00  .000E+00
  .341E-01  .451E-01  .510E-01  .579E-01  .591E-01  .756E-01  .822E-01  .922E-01
  .128E+00  .172E+00  .121E+00  .140E+00  .168E+00  .200E+00  .174E+00  .170E+00
  .239E+00  .328E+00  .315E+00  .371E+00  .471E+00  .483E+00  .450E+00  .408E+00
  .329E+00  .308E+00  .274E+00  .350E+00  .327E+00  .367E+00  .421E+00  .516E+00
  .584E+00  .689E+00  .731E+00  .775E+00  .784E+00  .775E+00  .745E+00  .689E+00
  .622E+00  .554E+00  .583E+00  .558E+00  .517E+00  .470E+00  .461E+00  .455E+00
  .449E+00  .439E+00  .425E+00  .395E+00  .375E+00  .360E+00  .348E+00  .336E+00
  .327E+00  .320E+00  .315E+00  .311E+00  .307E+00  .303E+00  .300E+00  .297E+00
  .296E+00  .294E+00  .292E+00  .291E+00  .290E+00  .289E+00  .288E+00  .287E+00
  .286E+00  .286E+00  .285E+00  .285E+00  .284E+00  .283E+00  .283E+00  .282E+00
  .282E+00  .282E+00  .282E+00  .282E+00  .282E+00  .282E+00  .282E+00  .282E+00
  .281E+00  .281E+00  .281E+00  .000E+00  .000E+00  .000E+00  .000E+00  .000E+00
  .000E+00  .000E+00  .000E+00  .000E+00
  .271E-01  .309E-01  .324E-01  .316E-01  .276E-01  .305E-01  .271E-01  .289E-01
  .404E-01  .415E-01  .329E-01  .375E-01  .389E-01  .416E-01  .351E-01  .328E-01
  .372E-01  .481E-01  .403E-01  .410E-01  .502E-01  .482E-01  .410E-01  .351E-01
  .263E-01  .252E-01  .224E-01  .238E-01  .213E-01  .242E-01  .270E-01  .283E-01
  .289E-01  .305E-01  .296E-01  .278E-01  .258E-01  .246E-01  .242E-01  .233E-01
  .219E-01  .174E-01  .131E-01  .108E-01  .883E-02  .725E-02  .624E-02  .506E-02
  .423E-02  .407E-02  .365E-02  .330E-02  .269E-02  .169E-02  .146E-02  .126E-02
  .110E-02  .109E-02  .108E-02  .889E-03  .729E-03  .550E-03  .462E-03  .397E-03
  .347E-03  .307E-03  .274E-03  .246E-03  .222E-03  .202E-03  .185E-03  .169E-03
  .156E-03  .144E-03  .134E-03  .124E-03  .105E-03  .901E-04  .785E-04  .692E-04
  .617E-04  .555E-04  .511E-04  .476E-04  .450E-04  .429E-04  .392E-04  .361E-04
  .335E-04  .312E-04  .292E-04  .000E+00  .000E+00  .000E+00  .000E+00  .000E+00
  .000E+00  .000E+00  .000E+00  .000E+00
  .665E-01  .791E-01  .869E-01  .886E-01  .809E-01  .944E-01  .918E-01  .106E+00
  .160E+00  .176E+00  .150E+00  .182E+00  .204E+00  .229E+00  .206E+00  .201E+00
  .256E+00  .360E+00  .317E+00  .351E+00  .463E+00  .466E+00  .428E+00  .389E+00
  .308E+00  .306E+00  .303E+00  .348E+00  .341E+00  .416E+00  .495E+00  .552E+00
  .601E+00  .668E+00  .689E+00  .680E+00  .663E+00  .662E+00  .680E+00  .683E+00
  .668E+00  .580E+00  .480E+00  .426E+00  .376E+00  .330E+00  .305E+00  .261E+00
  .231E+00  .236E+00  .222E+00  .222E+00  .197E+00  .131E+00  .121E+00  .112E+00
  .103E+00  .112E+00  .118E+00  .103E+00  .886E-01  .730E-01  .619E-01  .570E-01
  .530E-01  .497E-01  .468E-01  .442E-01  .419E-01  .397E-01  .377E-01  .358E-01
  .341E-01  .325E-01  .311E-01  .297E-01  .267E-01  .243E-01  .222E-01  .205E-01
  .190E-01  .177E-01  .166E-01  .156E-01  .148E-01  .140E-01  .126E-01  .116E-01
  .106E-01  .985E-02  .919E-02  .000E+00  .000E+00  .000E+00  .000E+00  .000E+00
  .000E+00  .000E+00  .000E+00  .000E+00
  .498E+01  .498E+01  .498E+01  .499E+01  .499E+01  .522E+01  .522E+01  .497E+01
  .498E+01  .523E+01  .476E+01  .476E+01  .499E+01  .499E+01  .478E+01  .478E+01
  .549E+01  .500E+01  .507E+01  .551E+01  .539E+01  .533E+01  .503E+01  .504E+01
  .480E+01  .481E+01  .145E+02  .117E+02  .118E+02  .482E+01  .483E+01  .484E+01
  .504E+01  .505E+01  .507E+01  .509E+01  .511E+01  .493E+01  .495E+01  .496E+01
  .497E+01  .498E+01  .477E+01  .478E+01  .478E+01  .479E+01  .109E+02  .480E+01
  .481E+01  .120E+02  .107E+02  .276E+02  .273E+02  .460E+01  .461E+01  .461E+01
  .461E+01  .223E+02  .244E+02  .245E+02  .219E+02  .203E+02  .461E+01  .461E+01
  .461E+01  .461E+01  .461E+01  .461E+01  .461E+01  .461E+01  .461E+01  .461E+01
  .461E+01  .461E+01  .461E+01  .461E+01  .461E+01  .461E+01  .461E+01  .461E+01
  .461E+01  .461E+01  .461E+01  .461E+01  .461E+01  .461E+01  .461E+01  .461E+01
  .461E+01  .461E+01  .461E+01  .000E+00  .000E+00  .000E+00  .000E+00  .000E+00
  .000E+00  .000E+00  .000E+00  .000E+00
  .533E+01  .534E+01  .500E+01  .500E+01  .523E+01  .523E+01  .524E+01  .524E+01
  .524E+01  .525E+01  .526E+01  .474E+01  .501E+01  .502E+01  .503E+01  .539E+01
  .551E+01  .503E+01  .511E+01  .548E+01  .535E+01  .537E+01  .507E+01  .508E+01
  .500E+01  .485E+01  .486E+01  .116E+02  .117E+02  .488E+01  .489E+01  .509E+01
  .531E+01  .532E+01  .499E+01  .500E+01  .501E+01  .502E+01  .503E+01  .504E+01
  .482E+01  .491E+01  .493E+01  .494E+01  .494E+01  .471E+01  .471E+01  .471E+01
  .471E+01  .471E+01  .471E+01  .471E+01  .471E+01  .471E+01  .471E+01  .471E+01
  .471E+01  .471E+01  .471E+01  .471E+01  .471E+01  .471E+01  .471E+01  .471E+01
  .471E+01  .471E+01  .471E+01  .471E+01  .471E+01  .471E+01  .471E+01  .471E+01
  .471E+01  .471E+01  .471E+01  .471E+01  .471E+01  .471E+01  .471E+01  .471E+01
  .471E+01  .471E+01  .471E+01  .471E+01  .471E+01  .471E+01  .471E+01  .471E+01
  .471E+01  .471E+01  .471E+01  .000E+00  .000E+00  .000E+00  .000E+00  .000E+00
  .000E+00  .000E+00  .000E+00  .000E+00
  .498E+01  .498E+01  .498E+01  .499E+01  .522E+01  .522E+01  .522E+01  .497E+01
  .498E+01  .523E+01  .476E+01  .476E+01  .498E+01  .499E+01  .478E+01  .478E+01
  .549E+01  .500E+01  .507E+01  .551E+01  .539E+01  .533E+01  .503E+01  .504E+01
  .480E+01  .480E+01  .144E+02  .117E+02  .118E+02  .481E+01  .482E+01  .483E+01
  .503E+01  .505E+01  .507E+01  .508E+01  .511E+01  .493E+01  .494E+01  .495E+01
  .496E+01  .498E+01  .476E+01  .477E+01  .477E+01  .478E+01  .109E+02  .479E+01
  .479E+01  .120E+02  .106E+02  .276E+02  .272E+02  .459E+01  .459E+01  .459E+01
  .459E+01  .223E+02  .244E+02  .245E+02  .219E+02  .459E+01  .459E+01  .459E+01
  .459E+01  .459E+01  .459E+01  .459E+01  .459E+01  .459E+01  .458E+01  .458E+01
  .458E+01  .458E+01  .458E+01  .458E+01  .458E+01  .458E+01  .458E+01  .458E+01
  .458E+01  .458E+01  .450E+01  .449E+01  .472E+01  .472E+01  .472E+01  .472E+01
  .472E+01  .472E+01  .472E+01  .000E+00  .000E+00  .000E+00  .000E+00  .000E+00
  .000E+00  .000E+00  .000E+00  .000E+00
/&   ----------  End of spectral data for channel  1  ----------
Response and Fourier amplitude spectra (91 periods,  .04 - 15.0 sec)   for      
Corrected accelerogram   14043-L1865-01253.05       Chan  2:   0 Deg     from   
Uncorrected Accelerogram Data             Processed: 09/10/01, CDMG  aw005      
Record of Sun Sep  9, 2001 16:59:20 PDT               (Avol1 v4.6  7/01 CSMIP)  
CSMIP Preliminary Processing            (Origin:  To be determined)             
14043-L1865-01253.05                 Start time:  9/09/01, 23:59:20.0 UTC (GPS) 
Station No. 14043   33.938N, 118.327W      Etna  s/n 1865  (3 Channels)         
Inglewood - 108th & Crenshaw                                                    
Chan  2:   0 Deg                                                                
Record of Sun Sep  9, 2001 16:59:20 PDT    Sun Sep  9, 2001 16:59:20 PDT        
Hypocenter:  To be determined.               ML:  To be determined.             
Instr Period =  .0105 sec,  Damping =  .660,  Sensitivity =  .63  v/g           
                        Record length = 42.000 sec.                             
                                     Uncor Max  =  -.008 g, at   5.205 sec.     
RMS accel of (uncor) record  =        .                                         
Accelerogram bandpass filtered with 3 dB pts at   .30 and 40.00 cyc/sec         
                 instrument- and baseline-corrected                             
                                                                                
                                                                                
                                                                                
                                                                                
                                                                                
Record of Sun Sep  9, 2001 16:59:20 PDT    Sun Sep  9, 2001 16:59:20 PDT        
                                                                                
14043-L1865-01253.05      Inglewood - 108th & Crenshaw    Chan  2:   0 Deg      
                                                                                
14043-L1865-01253.05      Inglewood - 108th & Crenshaw    Chan  2:   0 Deg      
                                                                                
Units for spectra are inches and sec, except Sa is in fraction of g.            
                                                                                
    2  100    2    3    3  200    1    3    1   24   12 1865    014043    1    0
   23   59   20    0  252    9    9 2001   10    3    0 8400   39   28   72 -999
 8400    1   50    3 1865    1    5  420    1    0    0    0    0    0    0    0
    0    4    0    0 4200    2    0    0    0    0   72   28    0    0    0 4200
    0 4200   29   91    1    3    0    0    0    0    3    0    0    0    0    2
    2    2    4    0   32   99 -999   32   32    0    0    1    0    0    0    0
  -99   -1    0    0
      .010      .660    42.000      .001      .000   625.000     -.008     5.205
    95.400      .298      .477      .000     5.000      .000      .000      .000
     2.500    -8.276      .000     -.010     5.000    30.000      .000     -.034
     -.008      .026     2.000    15.000    33.938  -118.327      .985      .271
      .276     -.101      .154  -999.000      .000      .000   -13.400      .000
  1000.000    -1.026      .000      .000      .000      .000      .000      .000
     4.600     4.400      .000   980.665      .010    42.000    15.183      .000
      .000    40.000      .000    42.000      .010      .300      .000      .000
     5.200    -7.966     7.370     -.234     8.350     -.015     -.001      .300
    40.000      .010      .010      .000      .010      .014      .000      .000
      .031      .170      .029      .013      .003      .000      .000      .000
      .000      .000      .000      .000      .000      .000      .000      .000
      .000      .000      .000      .000
      .050
      .040      .042      .044      .046      .048      .050      .055      .060
      .065      .070      .075      .080      .085      .090      .095      .100
      .110      .120      .130      .140      .150      .160      .170      .180
      .190      .200      .220      .240      .260      .280      .300      .320
      .340      .360      .380      .400      .420      .440      .460      .480
      .500      .550      .600      .650      .700      .750      .800      .850
      .900      .950     1.000     1.100     1.200     1.300     1.400     1.500
     1.600     1.700     1.800     1.900     2.000     2.200     2.400     2.600
     2.800     3.000     3.200     3.400     3.600     3.800     4.000     4.200
     4.400     4.600     4.800     5.000     5.500     6.000     6.500     7.000
     7.500     8.000     8.500     9.000     9.500    10.000    11.000    12.000
    13.000    14.000    15.000      .000      .000      .000      .000      .000
      .000      .000      .000      .000
Fourier amplitude spectra in in/sec.
  .000E+00  .000E+00  .000E+00  .000E+00  .000E+00  .000E+00  .000E+00  .000E+00
  .000E+00  .000E+00  .000E+00  .000E+00  .000E+00  .000E+00  .000E+00  .000E+00
  .000E+00  .000E+00  .000E+00  .000E+00  .000E+00  .000E+00  .000E+00  .000E+00
  .000E+00  .000E+00  .000E+00  .000E+00  .000E+00  .000E+00  .000E+00  .000E+00
  .000E+00  .000E+00  .000E+00  .000E+00  .000E+00  .000E+00  .000E+00  .000E+00
  .000E+00  .000E+00  .000E+00  .000E+00  .000E+00  .000E+00  .000E+00  .000E+00
  .000E+00  .000E+00  .000E+00  .000E+00  .000E+00  .000E+00  .000E+00  .000E+00
  .000E+00  .000E+00  .000E+00  .000E+00  .000E+00  .000E+00  .000E+00  .000E+00
  .000E+00  .000E+00  .000E+00  .000E+00  .000E+00  .000E+00  .000E+00  .000E+00
  .000E+00  .000E+00  .000E+00  .000E+00  .000E+00  .000E+00  .000E+00  .000E+00
  .000E+00  .000E+00  .000E+00  .000E+00  .000E+00  .000E+00  .000E+00  .000E+00
  .000E+00  .000E+00  .000E+00  .000E+00  .000E+00  .000E+00  .000E+00  .000E+00
  .000E+00  .000E+00  .000E+00  .000E+00
Damping =  .05. Data of Sd,Sv,Sa,Pssv,ttSd,ttSv,ttSa :
  .155E-03  .188E-03  .211E-03  .239E-03  .269E-03  .294E-03  .435E-03  .606E-03
  .659E-03  .837E-03  .128E-02  .132E-02  .189E-02  .203E-02  .225E-02  .257E-02
  .298E-02  .363E-02  .422E-02  .528E-02  .572E-02  .652E-02  .867E-02  .861E-02
  .105E-01  .120E-01  .122E-01  .136E-01  .135E-01  .106E-01  .108E-01  .130E-01
  .138E-01  .142E-01  .145E-01  .144E-01  .145E-01  .147E-01  .145E-01  .161E-01
