Response and Fourier amplitude spectra (91 periods,  .04 - 15.0 sec)   for      
Corrected accelerogram   14058-L1887-01252.04       Chan  1:   0 Deg     from   
Uncorrected Accelerogram Data             Processed: 09/10/01, CDMG  058ap004   
Record of Sun Sep  9, 2001 16:59:23 PDT               (Avol1 v4.6  7/01 CSMIP)  
CSMIP Preliminary Processing            (Origin:  To be determined)             
14058-L1887-01252.04                 Start time:  9/09/01, 23:59:23.0 UTC (GPS) 
Station No. 14058   33.898N, 118.209W      Etna  s/n 1887  (3 Channels)         
Compton - Long Beach & Palmer                                                   
Chan  1:   0 Deg                                                                
Record of Sun Sep  9, 2001 16:59:23 PDT    Sun Sep  9, 2001 16:59:23 PDT        
Hypocenter:  To be determined.               ML:  To be determined.             
Instr Period =  .0108 sec,  Damping =  .670,  Sensitivity =  .63  v/g           
                        Record length = 47.000 sec.                             
                                     Uncor Max  =  -.018 g, at  11.410 sec.     
RMS accel of (uncor) record  =        .                                         
Accelerogram bandpass filtered with 3 dB pts at   .30 and 40.00 cyc/sec         
                 instrument- and baseline-corrected                             
                                                                                
                                                                                
                                                                                
                                                                                
                                                                                
Record of Sun Sep  9, 2001 16:59:23 PDT    Sun Sep  9, 2001 16:59:23 PDT        
                                                                                
14058-L1887-01252.04      Compton - Long Beach & Palmer   Chan  1:   0 Deg      
                                                                                
14058-L1887-01252.04      Compton - Long Beach & Palmer   Chan  1:   0 Deg      
                                                                                
Units for spectra are inches and sec, except Sa is in fraction of g.            
                                                                                
    1  100    1    3    3  200    1    3    1   24   12 1887    014058    1    0
   23   59   23    0  252    9    9 2001   10    3    0 9400   39   29   72 -999
 9400    1   50    3 1887    1    4  470    1    0    0    0    0    0    0    0
    0    4    0    0 4700    2    0    0    0    0   72   29    0    0    0 4700
    0 4700   30   91    1    3    0    0    0    0    3    0    0    0    0    2
    2    2    4    0   32   99 -999   32   32    0    0    1    0    0    0    0
  -99   -1    0    0
      .011      .670    47.000      .002      .000   625.000     -.018    11.410
    92.800      .298      .477      .000     5.000      .000      .000      .000
     2.500    -3.291      .009     -.011     5.000    30.000      .000      .005
      .000     -.005     2.000    15.000    33.898  -118.209      .137      .478
     3.478     -.033      .024  -999.000      .000      .000   -13.400      .000
  1000.000     1.012      .000      .000      .000      .000      .000      .000
     4.600     4.400      .000   980.665      .010    47.000    14.770      .000
      .000    40.000      .000    47.000      .010      .300      .000      .000
    11.410   -17.234    11.360      .599     5.260      .049      .000      .300
    40.000      .010      .010      .000      .010      .032      .000      .000
      .066      .190      .064      .030      .005      .000      .000      .000
      .000      .000      .000      .000      .000      .000      .000      .000
      .000      .000      .000      .000
      .050
      .040      .042      .044      .046      .048      .050      .055      .060
      .065      .070      .075      .080      .085      .090      .095      .100
      .110      .120      .130      .140      .150      .160      .170      .180
      .190      .200      .220      .240      .260      .280      .300      .320
      .340      .360      .380      .400      .420      .440      .460      .480
      .500      .550      .600      .650      .700      .750      .800      .850
      .900      .950     1.000     1.100     1.200     1.300     1.400     1.500
     1.600     1.700     1.800     1.900     2.000     2.200     2.400     2.600
     2.800     3.000     3.200     3.400     3.600     3.800     4.000     4.200
     4.400     4.600     4.800     5.000     5.500     6.000     6.500     7.000
     7.500     8.000     8.500     9.000     9.500    10.000    11.000    12.000
    13.000    14.000    15.000      .000      .000      .000      .000      .000
      .000      .000      .000      .000
Fourier amplitude spectra in in/sec.
  .000E+00  .000E+00  .000E+00  .000E+00  .000E+00  .000E+00  .000E+00  .000E+00
  .000E+00  .000E+00  .000E+00  .000E+00  .000E+00  .000E+00  .000E+00  .000E+00
  .000E+00  .000E+00  .000E+00  .000E+00  .000E+00  .000E+00  .000E+00  .000E+00
  .000E+00  .000E+00  .000E+00  .000E+00  .000E+00  .000E+00  .000E+00  .000E+00
  .000E+00  .000E+00  .000E+00  .000E+00  .000E+00  .000E+00  .000E+00  .000E+00
  .000E+00  .000E+00  .000E+00  .000E+00  .000E+00  .000E+00  .000E+00  .000E+00
  .000E+00  .000E+00  .000E+00  .000E+00  .000E+00  .000E+00  .000E+00  .000E+00
  .000E+00  .000E+00  .000E+00  .000E+00  .000E+00  .000E+00  .000E+00  .000E+00
  .000E+00  .000E+00  .000E+00  .000E+00  .000E+00  .000E+00  .000E+00  .000E+00
  .000E+00  .000E+00  .000E+00  .000E+00  .000E+00  .000E+00  .000E+00  .000E+00
  .000E+00  .000E+00  .000E+00  .000E+00  .000E+00  .000E+00  .000E+00  .000E+00
  .000E+00  .000E+00  .000E+00  .000E+00  .000E+00  .000E+00  .000E+00  .000E+00
  .000E+00  .000E+00  .000E+00  .000E+00
Damping =  .05. Data of Sd,Sv,Sa,Pssv,ttSd,ttSv,ttSa :
  .282E-03  .314E-03  .347E-03  .386E-03  .429E-03  .477E-03  .577E-03  .709E-03
  .975E-03  .113E-02  .133E-02  .149E-02  .170E-02  .195E-02  .207E-02  .249E-02
  .386E-02  .472E-02  .579E-02  .770E-02  .105E-01  .116E-01  .160E-01  .198E-01
  .229E-01  .250E-01  .284E-01  .269E-01  .249E-01  .225E-01  .270E-01  .305E-01
  .342E-01  .405E-01  .432E-01  .388E-01  .410E-01  .427E-01  .414E-01  .422E-01
  .497E-01  .470E-01  .497E-01  .474E-01  .434E-01  .354E-01  .423E-01  .437E-01
  .518E-01  .467E-01  .524E-01  .432E-01  .418E-01  .314E-01  .339E-01  .295E-01
  .285E-01  .290E-01  .359E-01  .429E-01  .482E-01  .467E-01  .401E-01  .374E-01
  .388E-01  .358E-01  .308E-01  .301E-01  .293E-01  .280E-01  .265E-01  .253E-01
  .244E-01  .239E-01  .237E-01  .236E-01  .235E-01  .233E-01  .230E-01  .227E-01
  .225E-01  .223E-01  .222E-01  .222E-01  .221E-01  .221E-01  .219E-01  .218E-01
  .217E-01  .216E-01  .215E-01  .000E+00  .000E+00  .000E+00  .000E+00  .000E+00
  .000E+00  .000E+00  .000E+00  .000E+00
  .982E-02  .112E-01  .126E-01  .146E-01  .169E-01  .192E-01  .257E-01  .369E-01
  .436E-01  .677E-01  .875E-01  .870E-01  .944E-01  .105E+00  .108E+00  .138E+00
  .205E+00  .204E+00  .222E+00  .296E+00  .397E+00  .429E+00  .553E+00  .644E+00
  .718E+00  .745E+00  .788E+00  .726E+00  .640E+00  .528E+00  .555E+00  .585E+00
  .619E+00  .691E+00  .729E+00  .653E+00  .618E+00  .645E+00  .585E+00  .559E+00
  .587E+00  .586E+00  .543E+00  .477E+00  .420E+00  .397E+00  .386E+00  .429E+00
  .402E+00  .402E+00  .452E+00  .371E+00  .317E+00  .317E+00  .313E+00  .302E+00
  .289E+00  .275E+00  .265E+00  .256E+00  .250E+00  .254E+00  .253E+00  .255E+00
  .260E+00  .255E+00  .246E+00  .247E+00  .247E+00  .247E+00  .247E+00  .245E+00
  .244E+00  .242E+00  .241E+00  .240E+00  .239E+00  .238E+00  .238E+00  .237E+00
  .237E+00  .236E+00  .236E+00  .236E+00  .235E+00  .235E+00  .235E+00  .235E+00
  .235E+00  .235E+00  .234E+00  .000E+00  .000E+00  .000E+00  .000E+00  .000E+00
  .000E+00  .000E+00  .000E+00  .000E+00
  .180E-01  .182E-01  .183E-01  .186E-01  .190E-01  .195E-01  .195E-01  .202E-01
  .236E-01  .237E-01  .243E-01  .239E-01  .242E-01  .246E-01  .235E-01  .252E-01
  .329E-01  .333E-01  .350E-01  .407E-01  .476E-01  .468E-01  .565E-01  .628E-01
  .658E-01  .647E-01  .602E-01  .480E-01  .381E-01  .294E-01  .310E-01  .305E-01
  .305E-01  .322E-01  .307E-01  .250E-01  .239E-01  .227E-01  .201E-01  .188E-01
  .204E-01  .160E-01  .142E-01  .115E-01  .912E-02  .651E-02  .682E-02  .623E-02
  .661E-02  .535E-02  .543E-02  .371E-02  .302E-02  .193E-02  .182E-02  .139E-02
  .120E-02  .106E-02  .116E-02  .123E-02  .127E-02  .102E-02  .743E-03  .595E-03
  .513E-03  .416E-03  .346E-03  .305E-03  .269E-03  .236E-03  .207E-03  .184E-03
  .166E-03  .152E-03  .141E-03  .132E-03  .114E-03  .994E-04  .877E-04  .783E-04
  .711E-04  .652E-04  .602E-04  .558E-04  .521E-04  .487E-04  .432E-04  .387E-04
  .351E-04  .321E-04  .296E-04  .000E+00  .000E+00  .000E+00  .000E+00  .000E+00
  .000E+00  .000E+00  .000E+00  .000E+00
  .443E-01  .470E-01  .495E-01  .527E-01  .562E-01  .599E-01  .659E-01  .743E-01
  .943E-01  .102E+00  .112E+00  .117E+00  .126E+00  .136E+00  .137E+00  .156E+00
  .220E+00  .247E+00  .280E+00  .346E+00  .439E+00  .456E+00  .590E+00  .690E+00
  .757E+00  .786E+00  .810E+00  .705E+00  .603E+00  .504E+00  .565E+00  .598E+00
  .631E+00  .707E+00  .714E+00  .610E+00  .613E+00  .610E+00  .565E+00  .552E+00
  .625E+00  .537E+00  .521E+00  .458E+00  .389E+00  .296E+00  .332E+00  .323E+00
  .362E+00  .309E+00  .330E+00  .247E+00  .219E+00  .152E+00  .152E+00  .123E+00
  .112E+00  .107E+00  .125E+00  .142E+00  .151E+00  .133E+00  .105E+00  .903E-01
  .872E-01  .751E-01  .604E-01  .556E-01  .511E-01  .463E-01  .417E-01  .378E-01
  .349E-01  .327E-01  .310E-01  .297E-01  .269E-01  .244E-01  .222E-01  .204E-01
  .188E-01  .175E-01  .164E-01  .155E-01  .146E-01  .139E-01  .125E-01  .114E-01
  .105E-01  .969E-02  .902E-02  .000E+00  .000E+00  .000E+00  .000E+00  .000E+00
  .000E+00  .000E+00  .000E+00  .000E+00
  .114E+02  .114E+02  .114E+02  .114E+02  .114E+02  .114E+02  .114E+02  .114E+02
  .114E+02  .114E+02  .114E+02  .114E+02  .114E+02  .823E+01  .114E+02  .723E+01
  .730E+01  .114E+02  .115E+02  .115E+02  .115E+02  .116E+02  .116E+02  .116E+02
  .116E+02  .116E+02  .118E+02  .119E+02  .118E+02  .118E+02  .548E+01  .166E+02
  .158E+02  .158E+02  .158E+02  .157E+02  .168E+02  .166E+02  .173E+02  .174E+02
  .184E+02  .190E+02  .165E+02  .189E+02  .183E+02  .183E+02  .165E+02  .126E+02
  .126E+02  .126E+02  .163E+02  .123E+02  .123E+02  .181E+02  .163E+02  .123E+02
  .523E+01  .232E+02  .170E+02  .191E+02  .183E+02  .183E+02  .183E+02  .184E+02
  .229E+02  .229E+02  .163E+02  .163E+02  .163E+02  .163E+02  .163E+02  .163E+02
  .163E+02  .163E+02  .163E+02  .163E+02  .163E+02  .163E+02  .163E+02  .163E+02
  .163E+02  .163E+02  .163E+02  .163E+02  .163E+02  .163E+02  .163E+02  .163E+02
  .163E+02  .163E+02  .163E+02  .000E+00  .000E+00  .000E+00  .000E+00  .000E+00
  .000E+00  .000E+00  .000E+00  .000E+00
  .115E+02  .115E+02  .115E+02  .115E+02  .115E+02  .115E+02  .593E+01  .631E+01
  .632E+01  .632E+01  .636E+01  .650E+01  .819E+01  .820E+01  .709E+01  .715E+01
  .727E+01  .729E+01  .115E+02  .115E+02  .116E+02  .116E+02  .116E+02  .116E+02
  .116E+02  .116E+02  .117E+02  .120E+02  .119E+02  .119E+02  .571E+01  .558E+01
  .159E+02  .157E+02  .158E+02  .156E+02  .167E+02  .167E+02  .174E+02  .172E+02
  .191E+02  .189E+02  .164E+02  .190E+02  .164E+02  .149E+02  .164E+02  .164E+02
  .123E+02  .164E+02  .164E+02  .162E+02  .536E+01  .536E+01  .536E+01  .536E+01
  .536E+01  .536E+01  .536E+01  .536E+01  .536E+01  .162E+02  .182E+02  .182E+02
  .182E+02  .182E+02  .162E+02  .162E+02  .162E+02  .162E+02  .162E+02  .162E+02
  .162E+02  .162E+02  .162E+02  .162E+02  .162E+02  .162E+02  .162E+02  .162E+02
  .162E+02  .162E+02  .162E+02  .162E+02  .162E+02  .162E+02  .162E+02  .162E+02
  .162E+02  .162E+02  .162E+02  .000E+00  .000E+00  .000E+00  .000E+00  .000E+00
  .000E+00  .000E+00  .000E+00  .000E+00
  .114E+02  .114E+02  .114E+02  .114E+02  .114E+02  .114E+02  .114E+02  .114E+02
  .114E+02  .114E+02  .114E+02  .114E+02  .114E+02  .823E+01  .114E+02  .723E+01
  .730E+01  .114E+02  .115E+02  .115E+02  .115E+02  .116E+02  .116E+02  .116E+02
  .116E+02  .116E+02  .118E+02  .119E+02  .118E+02  .118E+02  .548E+01  .166E+02
  .158E+02  .158E+02  .158E+02  .157E+02  .168E+02  .166E+02  .173E+02  .173E+02
  .184E+02  .190E+02  .165E+02  .188E+02  .183E+02  .183E+02  .165E+02  .125E+02
  .126E+02  .126E+02  .163E+02  .123E+02  .123E+02  .181E+02  .163E+02  .123E+02
  .521E+01  .521E+01  .170E+02  .190E+02  .183E+02  .183E+02  .183E+02  .183E+02
  .228E+02  .229E+02  .163E+02  .163E+02  .163E+02  .163E+02  .163E+02  .163E+02
  .163E+02  .163E+02  .163E+02  .163E+02  .163E+02  .163E+02  .163E+02  .163E+02
  .518E+01  .518E+01  .518E+01  .518E+01  .518E+01  .518E+01  .518E+01  .518E+01
  .518E+01  .518E+01  .517E+01  .000E+00  .000E+00  .000E+00  .000E+00  .000E+00
  .000E+00  .000E+00  .000E+00  .000E+00
/&   ----------  End of spectral data for channel  1  ----------
Response and Fourier amplitude spectra (91 periods,  .04 - 15.0 sec)   for      
Corrected accelerogram   14058-L1887-01252.04       Chan  2:   0 Deg     from   
Uncorrected Accelerogram Data             Processed: 09/10/01, CDMG  058ap004   
Record of Sun Sep  9, 2001 16:59:23 PDT               (Avol1 v4.6  7/01 CSMIP)  
CSMIP Preliminary Processing            (Origin:  To be determined)             
14058-L1887-01252.04                 Start time:  9/09/01, 23:59:23.0 UTC (GPS) 
Station No. 14058   33.898N, 118.209W      Etna  s/n 1887  (3 Channels)         
Compton - Long Beach & Palmer                                                   
Chan  2:   0 Deg                                                                
Record of Sun Sep  9, 2001 16:59:23 PDT    Sun Sep  9, 2001 16:59:23 PDT        
Hypocenter:  To be determined.               ML:  To be determined.             
Instr Period =  .0108 sec,  Damping =  .680,  Sensitivity =  .63  v/g           
                        Record length = 47.000 sec.                             
                                     Uncor Max  =   .011 g, at   3.295 sec.     
RMS accel of (uncor) record  =        .                                         
Accelerogram bandpass filtered with 3 dB pts at   .30 and 40.00 cyc/sec         
                 instrument- and baseline-corrected                             
                                                                                
                                                                                
                                                                                
                                                                                
                                                                                
Record of Sun Sep  9, 2001 16:59:23 PDT    Sun Sep  9, 2001 16:59:23 PDT        
                                                                                
14058-L1887-01252.04      Compton - Long Beach & Palmer   Chan  2:   0 Deg      
                                                                                
14058-L1887-01252.04      Compton - Long Beach & Palmer   Chan  2:   0 Deg      
                                                                                
Units for spectra are inches and sec, except Sa is in fraction of g.            
                                                                                
    2  100    2    3    3  200    1    3    1   24   12 1887    014058    1    0
   23   59   23    0  252    9    9 2001   10    3    0 9400   39   29   72 -999
 9400    1   50    3 1887    1    4  470    1    0    0    0    0    0    0    0
    0    4    0    0 4700    2    0    0    0    0   72   29    0    0    0 4700
    0 4700   30   91    1    3    0    0    0    0    3    0    0    0    0    2
    2    2    4    0   32   99 -999   32   32    0    0    1    0    0    0    0
  -99   -1    0    0
      .011      .680    47.000      .001      .000   625.000      .011     3.295
    92.400      .298      .477      .000     5.000      .000      .000      .000
     2.500   -36.679     -.018     -.030     5.000    30.000      .000      .007
     -.002     -.008     2.000    15.000    33.898  -118.209     1.684      .224
      .133     -.226      .209  -999.000      .000      .000   -13.400      .000
  1000.000    -1.132      .000      .000      .000      .000      .000      .000
     4.600     4.400      .000   980.665      .010    47.000    14.706      .000
      .000    40.000      .000    47.000      .010      .300      .000      .000
     3.290    10.728     3.260     -.290     2.970      .012      .001      .300
    40.000      .010      .010      .000      .010      .013      .000      .000
      .045      .150      .022      .011      .001      .000      .000      .000
      .000      .000      .000      .000      .000      .000      .000      .000
      .000      .000      .000      .000
      .050
      .040      .042      .044      .046      .048      .050      .055      .060
      .065      .070      .075      .080      .085      .090      .095      .100
      .110      .120      .130      .140      .150      .160      .170      .180
      .190      .200      .220      .240      .260      .280      .300      .320
      .340      .360      .380      .400      .420      .440      .460      .480
      .500      .550      .600      .650      .700      .750      .800      .850
      .900      .950     1.000     1.100     1.200     1.300     1.400     1.500
     1.600     1.700     1.800     1.900     2.000     2.200     2.400     2.600
     2.800     3.000     3.200     3.400     3.600     3.800     4.000     4.200
     4.400     4.600     4.800     5.000     5.500     6.000     6.500     7.000
     7.500     8.000     8.500     9.000     9.500    10.000    11.000    12.000
    13.000    14.000    15.000      .000      .000      .000      .000      .000
      .000      .000      .000      .000
Fourier amplitude spectra in in/sec.
  .000E+00  .000E+00  .000E+00  .000E+00  .000E+00  .000E+00  .000E+00  .000E+00
  .000E+00  .000E+00  .000E+00  .000E+00  .000E+00  .000E+00  .000E+00  .000E+00
  .000E+00  .000E+00  .000E+00  .000E+00  .000E+00  .000E+00  .000E+00  .000E+00
  .000E+00  .000E+00  .000E+00  .000E+00  .000E+00  .000E+00  .000E+00  .000E+00
  .000E+00  .000E+00  .000E+00  .000E+00  .000E+00  .000E+00  .000E+00  .000E+00
  .000E+00  .000E+00  .000E+00  .000E+00  .000E+00  .000E+00  .000E+00  .000E+00
  .000E+00  .000E+00  .000E+00  .000E+00  .000E+00  .000E+00  .000E+00  .000E+00
  .000E+00  .000E+00  .000E+00  .000E+00  .000E+00  .000E+00  .000E+00  .000E+00
  .000E+00  .000E+00  .000E+00  .000E+00  .000E+00  .000E+00  .000E+00  .000E+00
  .000E+00  .000E+00  .000E+00  .000E+00  .000E+00  .000E+00  .000E+00  .000E+00
  .000E+00  .000E+00  .000E+00  .000E+00  .000E+00  .000E+00  .000E+00  .000E+00
  .000E+00  .000E+00  .000E+00  .000E+00  .000E+00  .000E+00  .000E+00  .000E+00
  .000E+00  .000E+00  .000E+00  .000E+00
Damping =  .05. Data of Sd,Sv,Sa,Pssv,ttSd,ttSv,ttSa :
  .186E-03  .230E-03  .268E-03  .309E-03  .362E-03  .379E-03  .561E-03  .788E-03
  .852E-03  .928E-03  .140E-02  .154E-02  .140E-02  .180E-02  .200E-02  .194E-02
  .279E-02  .385E-02  .563E-02  .704E-02  .969E-02  .854E-02  .932E-02  .921E-02
  .976E-02  .744E-02  .883E-02  .915E-02  .972E-02  .106E-01  .905E-02  .951E-02
  .871E-02  .909E-02  .904E-02  .110E-01  .113E-01  .993E-02  .941E-02  .921E-02
