Response and Fourier amplitude spectra (91 periods,  .04 - 15.0 sec)   for      
Corrected accelerogram   14368-L0781-01252.03       Chan  1: 360 Deg     from   
Uncorrected Accelerogram Data             Processed: 09/10/01, CDMG  368bt003   
Record of Sun Sep  9, 2001 16:59:24 PDT               (Avol1 v4.6  7/01 CSMIP)  
CSMIP Preliminary Processing            (Origin:  To be determined)             
14368-L0781-01252.03                 Start time:  9/09/01, 23:59:24.0 UTC (GPS) 
Station No. 14368   33.924N, 118.167W      Etna  s/n  781  (3 Channels)         
Downey - County Maint. Bldg.                                                    
Chan  1: 360 Deg                                                                
Record of Sun Sep  9, 2001 16:59:24 PDT    Sun Sep  9, 2001 16:59:24 PDT        
Hypocenter:  To be determined.               ML:  To be determined.             
Instr Period =  .0109 sec,  Damping =  .660,  Sensitivity =  .63  v/g           
                        Record length = 46.000 sec.                             
                                     Uncor Max  =  -.019 g, at   5.305 sec.     
RMS accel of (uncor) record  =        .                                         
Accelerogram bandpass filtered with 3 dB pts at   .30 and 40.00 cyc/sec         
                 instrument- and baseline-corrected                             
                                                                                
                                                                                
                                                                                
                                                                                
                                                                                
Record of Sun Sep  9, 2001 16:59:24 PDT    Sun Sep  9, 2001 16:59:24 PDT        
                                                                                
14368-L0781-01252.03      Downey - County Maint. Bldg.    Chan  1: 360 Deg      
                                                                                
14368-L0781-01252.03      Downey - County Maint. Bldg.    Chan  1: 360 Deg      
                                                                                
Units for spectra are inches and sec, except Sa is in fraction of g.            
                                                                                
    1  100    1    3    3  200    1    3    1   24   12  781    014368    1    0
   23   59   24    0  252    9    9 2001   10    3  360 9200   39   28   72  360
 9200    1   50    3  781    1    3  460    1    0    0    0    0    0    0    0
    0    4    0    0 4600    2    0    0    0    0   72   28    0    0    0 4600
    0 4600   29   91    1    3    0    0    0    0    3    0    0    0    0    2
    2    2    4    0   32   99    0   32   32    0    0    1    0    0    0    0
  -99   -1    0    0
      .011      .660    46.000      .002      .000   625.000     -.019     5.305
    91.700      .298      .477      .000     5.000      .000      .000      .000
     2.500    18.855      .023      .002     5.000    30.000      .000     -.009
      .001      .011     2.000    15.000    33.924  -118.167      .559      .418
      .748     -.064      .086  -999.000      .000      .000   -13.400      .000
  1000.000    -1.023      .000      .000      .000      .000      .000      .000
     4.600     4.400      .000   980.665      .010    46.000    14.595      .000
      .000    40.000      .000    46.000      .010      .300      .000      .000
     5.300   -18.363    10.890     -.742    10.270      .071      .000      .300
    40.000      .010      .010      .000      .010      .033      .000      .000
      .075      .180      .063      .046      .005      .000      .000      .000
      .000      .000      .000      .000      .000      .000      .000      .000
      .000      .000      .000      .000
      .050
      .040      .042      .044      .046      .048      .050      .055      .060
      .065      .070      .075      .080      .085      .090      .095      .100
      .110      .120      .130      .140      .150      .160      .170      .180
      .190      .200      .220      .240      .260      .280      .300      .320
      .340      .360      .380      .400      .420      .440      .460      .480
      .500      .550      .600      .650      .700      .750      .800      .850
      .900      .950     1.000     1.100     1.200     1.300     1.400     1.500
     1.600     1.700     1.800     1.900     2.000     2.200     2.400     2.600
     2.800     3.000     3.200     3.400     3.600     3.800     4.000     4.200
     4.400     4.600     4.800     5.000     5.500     6.000     6.500     7.000
     7.500     8.000     8.500     9.000     9.500    10.000    11.000    12.000
    13.000    14.000    15.000      .000      .000      .000      .000      .000
      .000      .000      .000      .000
Fourier amplitude spectra in in/sec.
  .000E+00  .000E+00  .000E+00  .000E+00  .000E+00  .000E+00  .000E+00  .000E+00
  .000E+00  .000E+00  .000E+00  .000E+00  .000E+00  .000E+00  .000E+00  .000E+00
  .000E+00  .000E+00  .000E+00  .000E+00  .000E+00  .000E+00  .000E+00  .000E+00
  .000E+00  .000E+00  .000E+00  .000E+00  .000E+00  .000E+00  .000E+00  .000E+00
  .000E+00  .000E+00  .000E+00  .000E+00  .000E+00  .000E+00  .000E+00  .000E+00
  .000E+00  .000E+00  .000E+00  .000E+00  .000E+00  .000E+00  .000E+00  .000E+00
  .000E+00  .000E+00  .000E+00  .000E+00  .000E+00  .000E+00  .000E+00  .000E+00
  .000E+00  .000E+00  .000E+00  .000E+00  .000E+00  .000E+00  .000E+00  .000E+00
  .000E+00  .000E+00  .000E+00  .000E+00  .000E+00  .000E+00  .000E+00  .000E+00
  .000E+00  .000E+00  .000E+00  .000E+00  .000E+00  .000E+00  .000E+00  .000E+00
  .000E+00  .000E+00  .000E+00  .000E+00  .000E+00  .000E+00  .000E+00  .000E+00
  .000E+00  .000E+00  .000E+00  .000E+00  .000E+00  .000E+00  .000E+00  .000E+00
  .000E+00  .000E+00  .000E+00  .000E+00
Damping =  .05. Data of Sd,Sv,Sa,Pssv,ttSd,ttSv,ttSa :
  .311E-03  .357E-03  .401E-03  .452E-03  .546E-03  .626E-03  .733E-03  .861E-03
  .105E-02  .141E-02  .167E-02  .238E-02  .280E-02  .297E-02  .319E-02  .366E-02
  .573E-02  .682E-02  .827E-02  .980E-02  .106E-01  .152E-01  .194E-01  .239E-01
  .258E-01  .255E-01  .235E-01  .298E-01  .341E-01  .390E-01  .407E-01  .411E-01
  .482E-01  .507E-01  .540E-01  .568E-01  .576E-01  .675E-01  .759E-01  .741E-01
  .710E-01  .692E-01  .690E-01  .600E-01  .532E-01  .470E-01  .451E-01  .393E-01
  .428E-01  .464E-01  .503E-01  .420E-01  .510E-01  .530E-01  .500E-01  .469E-01
  .476E-01  .421E-01  .375E-01  .345E-01  .437E-01  .451E-01  .415E-01  .467E-01
  .392E-01  .375E-01  .357E-01  .348E-01  .347E-01  .350E-01  .353E-01  .354E-01
  .354E-01  .353E-01  .351E-01  .348E-01  .341E-01  .336E-01  .333E-01  .330E-01
  .328E-01  .326E-01  .325E-01  .324E-01  .323E-01  .322E-01  .320E-01  .319E-01
  .318E-01  .317E-01  .317E-01  .000E+00  .000E+00  .000E+00  .000E+00  .000E+00
  .000E+00  .000E+00  .000E+00  .000E+00
  .166E-01  .180E-01  .194E-01  .232E-01  .291E-01  .298E-01  .364E-01  .418E-01
  .646E-01  .843E-01  .106E+00  .132E+00  .165E+00  .138E+00  .145E+00  .181E+00
  .251E+00  .289E+00  .327E+00  .400E+00  .356E+00  .498E+00  .623E+00  .742E+00
  .791E+00  .754E+00  .658E+00  .779E+00  .810E+00  .795E+00  .781E+00  .858E+00
  .891E+00  .851E+00  .877E+00  .836E+00  .968E+00  .101E+01  .107E+01  .107E+01
  .103E+01  .814E+00  .839E+00  .793E+00  .682E+00  .589E+00  .497E+00  .467E+00
  .485E+00  .494E+00  .463E+00  .432E+00  .379E+00  .403E+00  .371E+00  .370E+00
  .395E+00  .391E+00  .359E+00  .330E+00  .320E+00  .332E+00  .336E+00  .324E+00
  .326E+00  .322E+00  .315E+00  .311E+00  .311E+00  .310E+00  .310E+00  .309E+00
  .308E+00  .307E+00  .306E+00  .305E+00  .302E+00  .301E+00  .300E+00  .299E+00
  .299E+00  .298E+00  .298E+00  .298E+00  .298E+00  .297E+00  .297E+00  .297E+00
  .297E+00  .297E+00  .296E+00  .000E+00  .000E+00  .000E+00  .000E+00  .000E+00
  .000E+00  .000E+00  .000E+00  .000E+00
  .199E-01  .208E-01  .212E-01  .219E-01  .242E-01  .256E-01  .248E-01  .246E-01
  .255E-01  .294E-01  .306E-01  .382E-01  .394E-01  .376E-01  .361E-01  .380E-01
  .488E-01  .484E-01  .506E-01  .513E-01  .482E-01  .601E-01  .683E-01  .752E-01
  .734E-01  .657E-01  .500E-01  .531E-01  .522E-01  .508E-01  .467E-01  .414E-01
  .427E-01  .401E-01  .386E-01  .364E-01  .336E-01  .359E-01  .369E-01  .331E-01
  .293E-01  .236E-01  .198E-01  .146E-01  .112E-01  .861E-02  .726E-02  .561E-02
  .549E-02  .530E-02  .519E-02  .360E-02  .364E-02  .324E-02  .263E-02  .215E-02
  .195E-02  .154E-02  .121E-02  .100E-02  .113E-02  .978E-03  .783E-03  .753E-03
  .536E-03  .450E-03  .380E-03  .331E-03  .297E-03  .270E-03  .248E-03  .227E-03
  .209E-03  .192E-03  .176E-03  .163E-03  .135E-03  .114E-03  .989E-04  .874E-04
  .782E-04  .706E-04  .643E-04  .590E-04  .548E-04  .516E-04  .463E-04  .422E-04
  .388E-04  .359E-04  .334E-04  .000E+00  .000E+00  .000E+00  .000E+00  .000E+00
  .000E+00  .000E+00  .000E+00  .000E+00
  .488E-01  .534E-01  .573E-01  .617E-01  .714E-01  .787E-01  .837E-01  .901E-01
  .102E+00  .127E+00  .140E+00  .187E+00  .207E+00  .207E+00  .211E+00  .230E+00
  .328E+00  .357E+00  .400E+00  .440E+00  .444E+00  .595E+00  .718E+00  .833E+00
  .852E+00  .800E+00  .672E+00  .781E+00  .825E+00  .875E+00  .853E+00  .806E+00
  .891E+00  .885E+00  .893E+00  .892E+00  .862E+00  .964E+00  .104E+01  .970E+00
  .892E+00  .790E+00  .722E+00  .580E+00  .478E+00  .394E+00  .354E+00  .291E+00
  .299E+00  .307E+00  .316E+00  .240E+00  .267E+00  .256E+00  .224E+00  .196E+00
  .187E+00  .156E+00  .131E+00  .114E+00  .137E+00  .129E+00  .109E+00  .113E+00
  .880E-01  .785E-01  .701E-01  .643E-01  .606E-01  .579E-01  .554E-01  .530E-01
  .506E-01  .482E-01  .459E-01  .437E-01  .390E-01  .352E-01  .322E-01  .296E-01
  .275E-01  .256E-01  .240E-01  .226E-01  .213E-01  .202E-01  .183E-01  .167E-01
  .154E-01  .142E-01  .133E-01  .000E+00  .000E+00  .000E+00  .000E+00  .000E+00
  .000E+00  .000E+00  .000E+00  .000E+00
  .529E+01  .529E+01  .529E+01  .529E+01  .529E+01  .530E+01  .530E+01  .540E+01
  .530E+01  .541E+01  .583E+01  .530E+01  .530E+01  .531E+01  .531E+01  .530E+01
  .531E+01  .532E+01  .540E+01  .542E+01  .109E+02  .109E+02  .110E+02  .110E+02
  .110E+02  .110E+02  .559E+01  .561E+01  .563E+01  .564E+01  .565E+01  .567E+01
  .604E+01  .606E+01  .149E+02  .149E+02  .149E+02  .111E+02  .111E+02  .111E+02
  .111E+02  .109E+02  .109E+02  .163E+02  .148E+02  .237E+02  .226E+02  .211E+02
  .108E+02  .105E+02  .105E+02  .105E+02  .183E+02  .166E+02  .166E+02  .161E+02
  .148E+02  .148E+02  .102E+02  .198E+02  .191E+02  .183E+02  .148E+02  .148E+02
  .103E+02  .103E+02  .103E+02  .103E+02  .103E+02  .103E+02  .103E+02  .103E+02
  .103E+02  .103E+02  .103E+02  .103E+02  .103E+02  .103E+02  .103E+02  .103E+02
  .103E+02  .103E+02  .103E+02  .103E+02  .103E+02  .103E+02  .103E+02  .103E+02
  .103E+02  .103E+02  .103E+02  .000E+00  .000E+00  .000E+00  .000E+00  .000E+00
  .000E+00  .000E+00  .000E+00  .000E+00
  .527E+01  .527E+01  .527E+01  .527E+01  .528E+01  .528E+01  .603E+01  .564E+01
  .568E+01  .580E+01  .502E+01  .586E+01  .587E+01  .588E+01  .603E+01  .610E+01
  .534E+01  .535E+01  .536E+01  .620E+01  .109E+02  .109E+02  .110E+02  .110E+02
  .110E+02  .110E+02  .608E+01  .567E+01  .568E+01  .570E+01  .559E+01  .609E+01
  .611E+01  .599E+01  .601E+01  .602E+01  .107E+02  .111E+02  .110E+02  .110E+02
  .110E+02  .110E+02  .109E+02  .109E+02  .109E+02  .109E+02  .106E+02  .106E+02
  .106E+02  .106E+02  .106E+02  .145E+02  .103E+02  .103E+02  .103E+02  .103E+02
  .103E+02  .103E+02  .103E+02  .103E+02  .103E+02  .103E+02  .103E+02  .103E+02
  .147E+02  .147E+02  .147E+02  .109E+02  .109E+02  .109E+02  .109E+02  .109E+02
  .109E+02  .109E+02  .109E+02  .109E+02  .109E+02  .109E+02  .109E+02  .109E+02
  .109E+02  .109E+02  .109E+02  .109E+02  .109E+02  .109E+02  .109E+02  .109E+02
  .109E+02  .109E+02  .109E+02  .000E+00  .000E+00  .000E+00  .000E+00  .000E+00
  .000E+00  .000E+00  .000E+00  .000E+00
  .529E+01  .529E+01  .529E+01  .529E+01  .529E+01  .530E+01  .530E+01  .540E+01
  .540E+01  .541E+01  .583E+01  .530E+01  .530E+01  .530E+01  .531E+01  .530E+01
  .531E+01  .532E+01  .540E+01  .541E+01  .109E+02  .109E+02  .110E+02  .110E+02
  .110E+02  .110E+02  .558E+01  .560E+01  .562E+01  .564E+01  .565E+01  .566E+01
  .604E+01  .606E+01  .149E+02  .149E+02  .149E+02  .110E+02  .111E+02  .111E+02
  .111E+02  .109E+02  .109E+02  .163E+02  .148E+02  .237E+02  .226E+02  .211E+02
  .108E+02  .105E+02  .105E+02  .105E+02  .183E+02  .165E+02  .166E+02  .161E+02
  .148E+02  .148E+02  .102E+02  .198E+02  .191E+02  .183E+02  .148E+02  .148E+02
  .102E+02  .102E+02  .102E+02  .102E+02  .102E+02  .102E+02  .102E+02  .102E+02
  .102E+02  .102E+02  .102E+02  .102E+02  .102E+02  .102E+02  .102E+02  .101E+02
  .101E+02  .101E+02  .101E+02  .101E+02  .147E+02  .147E+02  .109E+02  .109E+02
  .109E+02  .109E+02  .109E+02  .000E+00  .000E+00  .000E+00  .000E+00  .000E+00
  .000E+00  .000E+00  .000E+00  .000E+00
/&   ----------  End of spectral data for channel  1  ----------
Response and Fourier amplitude spectra (91 periods,  .04 - 15.0 sec)   for      
Corrected accelerogram   14368-L0781-01252.03       Chan  2:  Up         from   
Uncorrected Accelerogram Data             Processed: 09/10/01, CDMG  368bt003   
Record of Sun Sep  9, 2001 16:59:24 PDT               (Avol1 v4.6  7/01 CSMIP)  
CSMIP Preliminary Processing            (Origin:  To be determined)             
14368-L0781-01252.03                 Start time:  9/09/01, 23:59:24.0 UTC (GPS) 
Station No. 14368   33.924N, 118.167W      Etna  s/n  781  (3 Channels)         
Downey - County Maint. Bldg.                                                    
Chan  2:  Up                                                                    
Record of Sun Sep  9, 2001 16:59:24 PDT    Sun Sep  9, 2001 16:59:24 PDT        
Hypocenter:  To be determined.               ML:  To be determined.             
Instr Period =  .0108 sec,  Damping =  .670,  Sensitivity =  .63  v/g           
                        Record length = 46.000 sec.                             
                                     Uncor Max  =  -.010 g, at   6.285 sec.     
RMS accel of (uncor) record  =        .                                         
Accelerogram bandpass filtered with 3 dB pts at   .30 and 40.00 cyc/sec         
                 instrument- and baseline-corrected                             
                                                                                
                                                                                
                                                                                
                                                                                
                                                                                
Record of Sun Sep  9, 2001 16:59:24 PDT    Sun Sep  9, 2001 16:59:24 PDT        
                                                                                
14368-L0781-01252.03      Downey - County Maint. Bldg.    Chan  2:  Up          
                                                                                
14368-L0781-01252.03      Downey - County Maint. Bldg.    Chan  2:  Up          
                                                                                
Units for spectra are inches and sec, except Sa is in fraction of g.            
                                                                                
    2  100    2    3    3  200    1    3    1   24   12  781    014368    1    0
   23   59   24    0  252    9    9 2001   10    3  500 9200   39   28   72  360
 9200    1   50    3  781    1    3  460    1    0    0    0    0    0    0    0
    0    4    0    0 4600    2    0    0    0    0   72   28    0    0    0 4600
    0 4600   29   91    1    3    0    0    0    0    3    0    0    0    0    2
    2    2    4    0   32   99    0   32   32    0    0    1    0    0    0    0
  -99   -1    0    0
      .011      .670    46.000      .001      .000   625.000     -.010     6.285
    92.600      .298      .477      .000     5.000      .000      .000      .000
     2.500   -32.700     -.014     -.026     5.000    30.000      .000     -.006
      .002      .008     2.000    15.000    33.924  -118.167     3.254      .181
      .056     -.411      .427  -999.000      .000      .000   -13.400      .000
  1000.000     1.296      .000      .000      .000      .000      .000      .000
     4.600     4.400      .000   980.665      .010    46.000    14.738      .000
      .000    40.000      .000    46.000      .010      .300      .000      .000
     2.600    -9.093     2.630     -.282     2.250      .016      .000      .300
    40.000      .010      .010      .000      .010      .013      .000      .000
      .036      .140      .027      .016      .001      .000      .000      .000
      .000      .000      .000      .000      .000      .000      .000      .000
      .000      .000      .000      .000
      .050
      .040      .042      .044      .046      .048      .050      .055      .060
      .065      .070      .075      .080      .085      .090      .095      .100
      .110      .120      .130      .140      .150      .160      .170      .180
      .190      .200      .220      .240      .260      .280      .300      .320
      .340      .360      .380      .400      .420      .440      .460      .480
      .500      .550      .600      .650      .700      .750      .800      .850
      .900      .950     1.000     1.100     1.200     1.300     1.400     1.500
     1.600     1.700     1.800     1.900     2.000     2.200     2.400     2.600
     2.800     3.000     3.200     3.400     3.600     3.800     4.000     4.200
     4.400     4.600     4.800     5.000     5.500     6.000     6.500     7.000
     7.500     8.000     8.500     9.000     9.500    10.000    11.000    12.000
    13.000    14.000    15.000      .000      .000      .000      .000      .000
      .000      .000      .000      .000
Fourier amplitude spectra in in/sec.
  .000E+00  .000E+00  .000E+00  .000E+00  .000E+00  .000E+00  .000E+00  .000E+00
  .000E+00  .000E+00  .000E+00  .000E+00  .000E+00  .000E+00  .000E+00  .000E+00
  .000E+00  .000E+00  .000E+00  .000E+00  .000E+00  .000E+00  .000E+00  .000E+00
  .000E+00  .000E+00  .000E+00  .000E+00  .000E+00  .000E+00  .000E+00  .000E+00
  .000E+00  .000E+00  .000E+00  .000E+00  .000E+00  .000E+00  .000E+00  .000E+00
  .000E+00  .000E+00  .000E+00  .000E+00  .000E+00  .000E+00  .000E+00  .000E+00
  .000E+00  .000E+00  .000E+00  .000E+00  .000E+00  .000E+00  .000E+00  .000E+00
  .000E+00  .000E+00  .000E+00  .000E+00  .000E+00  .000E+00  .000E+00  .000E+00
  .000E+00  .000E+00  .000E+00  .000E+00  .000E+00  .000E+00  .000E+00  .000E+00
  .000E+00  .000E+00  .000E+00  .000E+00  .000E+00  .000E+00  .000E+00  .000E+00
  .000E+00  .000E+00  .000E+00  .000E+00  .000E+00  .000E+00  .000E+00  .000E+00
  .000E+00  .000E+00  .000E+00  .000E+00  .000E+00  .000E+00  .000E+00  .000E+00
  .000E+00  .000E+00  .000E+00  .000E+00
Damping =  .05. Data of Sd,Sv,Sa,Pssv,ttSd,ttSv,ttSa :
  .257E-03  .266E-03  .257E-03  .302E-03  .368E-03  .427E-03  .577E-03  .711E-03
  .831E-03  .963E-03  .128E-02  .138E-02  .185E-02  .192E-02  .185E-02  .205E-02
  .315E-02  .398E-02  .479E-02  .682E-02  .675E-02  .794E-02  .955E-02  .108E-01
  .109E-01  .103E-01  .107E-01  .106E-01  .129E-01  .142E-01  .133E-01  .129E-01
  .129E-01  .126E-01  .122E-01  .126E-01  .118E-01  .130E-01  .144E-01  .172E-01
