Response and Fourier amplitude spectra (91 periods,  .04 - 15.0 sec)   for      
Corrected accelerogram   14403-F0225-01252.02       Chan  1: 360 Deg     from   
Uncorrected Accelerogram Data             Processed: 09/10/01, CDMG  s403e02    
Earthquake of Sun Sep  9, 2001  16:59 PDT             (Avol1 v4.6  7/01 CSMIP)  
CSMIP Preliminary Processing            (Origin:  To be determined)             
14403-F0225-01252.02                 Start time:  9/09/01, 23:59:19.6 GMT (OEM) 
Station No. 14403   33.929N, 118.260W     SSA-2  s/n  225  (3 Channels)         
Los Angeles - 116th St. School                                                  
Chan  1: 360 Deg                                                                
Earthquake of Sun Sep  9, 2001  16:59 PDT    Sun Sep  9, 2001  16:59 PDT        
Hypocenter:  To be determined.               ML:  To be determined.             
Instr Period =  .0222 sec,  Damping =  .700,  Sensitivity = 1.25  v/g           
                        Record length = 44.800 sec.                             
                                     Uncor Max  =  -.021 g, at   6.540 sec.     
RMS accel of (uncor) record  =        .                                         
Accelerogram bandpass filtered with 3 dB pts at   .30 and 40.00 cyc/sec         
                 instrument- and baseline-corrected                             
                                                                                
                                                                                
                                                                                
                                                                                
                                                                                
Earthquake of Sun Sep  9, 2001  16:59 PDT    Sun Sep  9, 2001  16:59 PDT        
                                                                                
14403-F0225-01252.02      Los Angeles - 116th St. School    Chan  1: 360 Deg    
                                                                                
14403-F0225-01252.02      Los Angeles - 116th St. School    Chan  1: 360 Deg    
                                                                                
Units for spectra are inches and sec, except Sa is in fraction of g.            
                                                                                
    1  100    1    3    3  200    1    3    1   12    6  225    014403    1    0
   23   59   19  610  252    9    9 2001   10    2  360 8960   41   30   72  360
 8960    1   50    0    0    1    2   35    0   23   59   19  740    9    9 2001
    0    0    0    0 4480    2    0    0    0    0   72   30    0    0    0 4480
    0 4480   31   91    1    3    0    0    0    0    3    0    0    0    0    2
    2    2    4    0   32   99    1   32   32    0    0    0    0    0    9  130
  -99   -1    0    0
      .022      .700    44.800      .002      .000  1250.000     -.021     6.540
    45.000  1220.703   976.563      .000     5.000      .000      .000      .000
     2.500    -4.966      .020     -.026     5.120    30.000      .000     -.083
      .007      .090     2.000    15.000    33.929  -118.260      .000      .356
  1000.000      .073      .107  -999.000      .000      .000      .000      .000
     2.082     1.024      .000      .000      .000      .000      .000      .000
     4.600     4.400      .000   980.665      .010    44.800     7.162      .000
      .000    40.000      .000    44.800      .010      .300      .000      .000
     6.540   -20.037    12.860      .794     6.540      .058     -.001      .300
    40.000      .010      .010      .000      .010      .027      .000      .000
      .047      .140      .037      .033      .004      .000      .000      .000
      .000      .000      .000      .000      .000      .000      .000      .000
      .000      .000      .000      .000
      .050
      .040      .042      .044      .046      .048      .050      .055      .060
      .065      .070      .075      .080      .085      .090      .095      .100
      .110      .120      .130      .140      .150      .160      .170      .180
      .190      .200      .220      .240      .260      .280      .300      .320
      .340      .360      .380      .400      .420      .440      .460      .480
      .500      .550      .600      .650      .700      .750      .800      .850
      .900      .950     1.000     1.100     1.200     1.300     1.400     1.500
     1.600     1.700     1.800     1.900     2.000     2.200     2.400     2.600
     2.800     3.000     3.200     3.400     3.600     3.800     4.000     4.200
     4.400     4.600     4.800     5.000     5.500     6.000     6.500     7.000
     7.500     8.000     8.500     9.000     9.500    10.000    11.000    12.000
    13.000    14.000    15.000      .000      .000      .000      .000      .000
      .000      .000      .000      .000
Fourier amplitude spectra in in/sec.
  .000E+00  .000E+00  .000E+00  .000E+00  .000E+00  .000E+00  .000E+00  .000E+00
  .000E+00  .000E+00  .000E+00  .000E+00  .000E+00  .000E+00  .000E+00  .000E+00
  .000E+00  .000E+00  .000E+00  .000E+00  .000E+00  .000E+00  .000E+00  .000E+00
  .000E+00  .000E+00  .000E+00  .000E+00  .000E+00  .000E+00  .000E+00  .000E+00
  .000E+00  .000E+00  .000E+00  .000E+00  .000E+00  .000E+00  .000E+00  .000E+00
  .000E+00  .000E+00  .000E+00  .000E+00  .000E+00  .000E+00  .000E+00  .000E+00
  .000E+00  .000E+00  .000E+00  .000E+00  .000E+00  .000E+00  .000E+00  .000E+00
  .000E+00  .000E+00  .000E+00  .000E+00  .000E+00  .000E+00  .000E+00  .000E+00
  .000E+00  .000E+00  .000E+00  .000E+00  .000E+00  .000E+00  .000E+00  .000E+00
  .000E+00  .000E+00  .000E+00  .000E+00  .000E+00  .000E+00  .000E+00  .000E+00
  .000E+00  .000E+00  .000E+00  .000E+00  .000E+00  .000E+00  .000E+00  .000E+00
  .000E+00  .000E+00  .000E+00  .000E+00  .000E+00  .000E+00  .000E+00  .000E+00
  .000E+00  .000E+00  .000E+00  .000E+00
Damping =  .05. Data of Sd,Sv,Sa,Pssv,ttSd,ttSv,ttSa :
  .353E-03  .374E-03  .409E-03  .467E-03  .522E-03  .589E-03  .785E-03  .964E-03
  .127E-02  .157E-02  .184E-02  .236E-02  .273E-02  .315E-02  .315E-02  .343E-02
  .503E-02  .575E-02  .625E-02  .888E-02  .874E-02  .111E-01  .987E-02  .110E-01
  .133E-01  .153E-01  .160E-01  .190E-01  .249E-01  .260E-01  .283E-01  .315E-01
  .340E-01  .375E-01  .391E-01  .474E-01  .483E-01  .459E-01  .466E-01  .460E-01
  .573E-01  .746E-01  .893E-01  .903E-01  .775E-01  .638E-01  .577E-01  .542E-01
  .472E-01  .483E-01  .434E-01  .370E-01  .424E-01  .339E-01  .322E-01  .297E-01
  .276E-01  .268E-01  .295E-01  .323E-01  .379E-01  .347E-01  .294E-01  .283E-01
  .279E-01  .272E-01  .265E-01  .264E-01  .264E-01  .270E-01  .279E-01  .290E-01
  .300E-01  .308E-01  .315E-01  .320E-01  .324E-01  .318E-01  .308E-01  .295E-01
  .283E-01  .273E-01  .263E-01  .256E-01  .250E-01  .245E-01  .247E-01  .252E-01
  .252E-01  .250E-01  .246E-01  .000E+00  .000E+00  .000E+00  .000E+00  .000E+00
  .000E+00  .000E+00  .000E+00  .000E+00
  .162E-01  .205E-01  .193E-01  .231E-01  .291E-01  .317E-01  .509E-01  .486E-01
  .687E-01  .963E-01  .108E+00  .157E+00  .181E+00  .198E+00  .201E+00  .203E+00
  .287E+00  .303E+00  .322E+00  .367E+00  .342E+00  .398E+00  .346E+00  .363E+00
  .439E+00  .474E+00  .472E+00  .472E+00  .622E+00  .619E+00  .579E+00  .607E+00
  .627E+00  .671E+00  .676E+00  .721E+00  .729E+00  .679E+00  .658E+00  .609E+00
  .682E+00  .963E+00  .933E+00  .937E+00  .813E+00  .714E+00  .637E+00  .628E+00
  .556E+00  .577E+00  .496E+00  .463E+00  .376E+00  .338E+00  .344E+00  .330E+00
  .334E+00  .339E+00  .327E+00  .301E+00  .291E+00  .306E+00  .327E+00  .329E+00
  .317E+00  .310E+00  .308E+00  .309E+00  .312E+00  .316E+00  .317E+00  .317E+00
  .313E+00  .309E+00  .306E+00  .304E+00  .304E+00  .309E+00  .313E+00  .315E+00
  .315E+00  .314E+00  .314E+00  .313E+00  .312E+00  .312E+00  .312E+00  .312E+00
  .312E+00  .312E+00  .312E+00  .000E+00  .000E+00  .000E+00  .000E+00  .000E+00
  .000E+00  .000E+00  .000E+00  .000E+00
  .226E-01  .217E-01  .216E-01  .226E-01  .232E-01  .241E-01  .266E-01  .275E-01
  .307E-01  .327E-01  .336E-01  .383E-01  .387E-01  .401E-01  .361E-01  .349E-01
  .429E-01  .413E-01  .383E-01  .465E-01  .401E-01  .442E-01  .353E-01  .351E-01
  .378E-01  .389E-01  .341E-01  .337E-01  .380E-01  .341E-01  .323E-01  .318E-01
  .303E-01  .298E-01  .278E-01  .305E-01  .282E-01  .243E-01  .227E-01  .205E-01
  .236E-01  .253E-01  .255E-01  .220E-01  .163E-01  .117E-01  .929E-02  .777E-02
  .604E-02  .555E-02  .449E-02  .316E-02  .306E-02  .214E-02  .178E-02  .144E-02
  .119E-02  .103E-02  .983E-03  .957E-03  .101E-02  .778E-03  .571E-03  .498E-03
  .433E-03  .376E-03  .329E-03  .294E-03  .268E-03  .249E-03  .235E-03  .222E-03
  .211E-03  .201E-03  .190E-03  .180E-03  .156E-03  .134E-03  .116E-03  .102E-03
  .895E-04  .797E-04  .718E-04  .653E-04  .599E-04  .554E-04  .482E-04  .431E-04
  .397E-04  .366E-04  .340E-04  .000E+00  .000E+00  .000E+00  .000E+00  .000E+00
  .000E+00  .000E+00  .000E+00  .000E+00
  .555E-01  .559E-01  .583E-01  .638E-01  .683E-01  .740E-01  .897E-01  .101E+00
  .123E+00  .141E+00  .154E+00  .186E+00  .202E+00  .220E+00  .209E+00  .216E+00
  .288E+00  .301E+00  .302E+00  .399E+00  .366E+00  .436E+00  .365E+00  .385E+00
  .441E+00  .480E+00  .456E+00  .498E+00  .601E+00  .584E+00  .594E+00  .619E+00
  .628E+00  .655E+00  .647E+00  .745E+00  .723E+00  .656E+00  .637E+00  .602E+00
  .721E+00  .852E+00  .935E+00  .873E+00  .695E+00  .534E+00  .453E+00  .401E+00
  .329E+00  .320E+00  .273E+00  .211E+00  .222E+00  .164E+00  .145E+00  .125E+00
  .109E+00  .989E-01  .103E+00  .107E+00  .119E+00  .990E-01  .771E-01  .684E-01
  .627E-01  .569E-01  .520E-01  .488E-01  .460E-01  .447E-01  .439E-01  .433E-01
  .428E-01  .421E-01  .413E-01  .402E-01  .370E-01  .333E-01  .297E-01  .265E-01
  .237E-01  .214E-01  .195E-01  .179E-01  .165E-01  .154E-01  .141E-01  .132E-01
  .122E-01  .112E-01  .103E-01  .000E+00  .000E+00  .000E+00  .000E+00  .000E+00
  .000E+00  .000E+00  .000E+00  .000E+00
  .654E+01  .654E+01  .653E+01  .654E+01  .653E+01  .653E+01  .653E+01  .654E+01
  .654E+01  .655E+01  .655E+01  .834E+01  .839E+01  .840E+01  .840E+01  .661E+01
  .841E+01  .842E+01  .843E+01  .887E+01  .131E+02  .131E+02  .131E+02  .909E+01
  .920E+01  .129E+02  .913E+01  .130E+02  .130E+02  .658E+01  .659E+01  .660E+01
  .713E+01  .716E+01  .124E+02  .124E+02  .125E+02  .125E+02  .125E+02  .125E+02
  .136E+02  .134E+02  .135E+02  .135E+02  .133E+02  .130E+02  .130E+02  .130E+02
  .130E+02  .130E+02  .128E+02  .128E+02  .124E+02  .124E+02  .653E+01  .653E+01
  .653E+01  .653E+01  .128E+02  .124E+02  .124E+02  .124E+02  .130E+02  .653E+01
  .653E+01  .653E+01  .653E+01  .124E+02  .653E+01  .653E+01  .653E+01  .653E+01
  .653E+01  .653E+01  .653E+01  .653E+01  .653E+01  .653E+01  .653E+01  .653E+01
  .653E+01  .653E+01  .653E+01  .653E+01  .653E+01  .653E+01  .130E+02  .130E+02
  .130E+02  .130E+02  .130E+02  .000E+00  .000E+00  .000E+00  .000E+00  .000E+00
  .000E+00  .000E+00  .000E+00  .000E+00
  .739E+01  .748E+01  .748E+01  .713E+01  .786E+01  .825E+01  .826E+01  .826E+01
  .826E+01  .794E+01  .749E+01  .836E+01  .838E+01  .843E+01  .848E+01  .848E+01
  .844E+01  .845E+01  .840E+01  .891E+01  .892E+01  .131E+02  .131E+02  .914E+01
  .915E+01  .916E+01  .929E+01  .129E+02  .129E+02  .129E+02  .666E+01  .667E+01
  .722E+01  .707E+01  .710E+01  .126E+02  .126E+02  .126E+02  .126E+02  .126E+02
  .132E+02  .135E+02  .136E+02  .134E+02  .131E+02  .128E+02  .128E+02  .128E+02
  .128E+02  .128E+02  .128E+02  .128E+02  .128E+02  .122E+02  .128E+02  .128E+02
  .128E+02  .128E+02  .128E+02  .128E+02  .643E+01  .122E+02  .128E+02  .128E+02
  .128E+02  .128E+02  .128E+02  .128E+02  .128E+02  .128E+02  .128E+02  .128E+02
  .128E+02  .128E+02  .128E+02  .128E+02  .128E+02  .128E+02  .128E+02  .128E+02
  .128E+02  .128E+02  .128E+02  .128E+02  .128E+02  .128E+02  .128E+02  .128E+02
  .128E+02  .128E+02  .128E+02  .000E+00  .000E+00  .000E+00  .000E+00  .000E+00
  .000E+00  .000E+00  .000E+00  .000E+00
  .654E+01  .654E+01  .653E+01  .653E+01  .653E+01  .653E+01  .653E+01  .653E+01
  .654E+01  .654E+01  .655E+01  .834E+01  .839E+01  .840E+01  .840E+01  .661E+01
  .841E+01  .842E+01  .843E+01  .887E+01  .131E+02  .131E+02  .131E+02  .909E+01
  .910E+01  .129E+02  .913E+01  .130E+02  .130E+02  .658E+01  .658E+01  .659E+01
  .660E+01  .715E+01  .124E+02  .124E+02  .125E+02  .125E+02  .125E+02  .125E+02
  .136E+02  .134E+02  .135E+02  .135E+02  .133E+02  .130E+02  .130E+02  .130E+02
  .130E+02  .130E+02  .128E+02  .127E+02  .124E+02  .651E+01  .651E+01  .651E+01
  .651E+01  .651E+01  .128E+02  .124E+02  .124E+02  .124E+02  .651E+01  .650E+01
  .650E+01  .650E+01  .650E+01  .650E+01  .650E+01  .650E+01  .650E+01  .650E+01
  .650E+01  .650E+01  .650E+01  .650E+01  .650E+01  .649E+01  .649E+01  .649E+01
  .649E+01  .649E+01  .649E+01  .649E+01  .649E+01  .649E+01  .649E+01  .129E+02
  .129E+02  .129E+02  .129E+02  .000E+00  .000E+00  .000E+00  .000E+00  .000E+00
  .000E+00  .000E+00  .000E+00  .000E+00
/&   ----------  End of spectral data for channel  1  ----------
Response and Fourier amplitude spectra (91 periods,  .04 - 15.0 sec)   for      
Corrected accelerogram   14403-F0225-01252.02       Chan  2:  Up         from   
Uncorrected Accelerogram Data             Processed: 09/10/01, CDMG  s403e02    
Earthquake of Sun Sep  9, 2001  16:59 PDT             (Avol1 v4.6  7/01 CSMIP)  
CSMIP Preliminary Processing            (Origin:  To be determined)             
14403-F0225-01252.02                 Start time:  9/09/01, 23:59:19.6 GMT (OEM) 
Station No. 14403   33.929N, 118.260W     SSA-2  s/n  225  (3 Channels)         
Los Angeles - 116th St. School                                                  
Chan  2:  Up                                                                    
Earthquake of Sun Sep  9, 2001  16:59 PDT    Sun Sep  9, 2001  16:59 PDT        
Hypocenter:  To be determined.               ML:  To be determined.             
Instr Period =  .0222 sec,  Damping =  .700,  Sensitivity = 1.25  v/g           
                        Record length = 44.800 sec.                             
                                     Uncor Max  =   .009 g, at   5.170 sec.     
RMS accel of (uncor) record  =        .                                         
Accelerogram bandpass filtered with 3 dB pts at   .30 and 40.00 cyc/sec         
                 instrument- and baseline-corrected                             
                                                                                
                                                                                
                                                                                
                                                                                
                                                                                
Earthquake of Sun Sep  9, 2001  16:59 PDT    Sun Sep  9, 2001  16:59 PDT        
                                                                                
14403-F0225-01252.02      Los Angeles - 116th St. School    Chan  2:  Up        
                                                                                
14403-F0225-01252.02      Los Angeles - 116th St. School    Chan  2:  Up        
                                                                                
Units for spectra are inches and sec, except Sa is in fraction of g.            
                                                                                
    2  100    2    3    3  200    1    3    1   12    6  225    014403    1    0
   23   59   19  610  252    9    9 2001   10    2  500 8960   41   30   72  360
 8960    1   50    0    0    1    2   35    0   23   59   19  740    9    9 2001
    0    0    0    0 4480    2    0    0    0    0   72   30    0    0    0 4480
    0 4480   31   91    1    3    0    0    0    0    3    0    0    0    0    2
    2    2    4    0   32   99    1   32   32    0    0    0    0    0    9  130
  -99   -1    0    0
      .022      .700    44.800      .001      .000  1250.000      .009     5.170
    45.000  1220.703   976.563      .000     5.000      .000      .000      .000
     2.500   -11.368     -.004     -.026     5.120    30.000      .000      .092
      .004     -.088     2.000    15.000    33.929  -118.260      .432      .467
     1.083     -.148     -.028  -999.000      .000      .000      .000      .000
     1.355    -1.055      .000      .000      .000      .000      .000      .000
     4.600     4.400      .000   980.665      .010    44.800     7.162      .000
      .000    40.000      .000    44.800      .010      .300      .000      .000
     5.170     8.916     7.310     -.285    35.010      .015      .002      .300
    40.000      .010      .010      .000      .010      .016      .000      .000
      .029      .110      .026      .016      .003      .000      .000      .000
      .000      .000      .000      .000      .000      .000      .000      .000
      .000      .000      .000      .000
      .050
      .040      .042      .044      .046      .048      .050      .055      .060
      .065      .070      .075      .080      .085      .090      .095      .100
      .110      .120      .130      .140      .150      .160      .170      .180
      .190      .200      .220      .240      .260      .280      .300      .320
      .340      .360      .380      .400      .420      .440      .460      .480
      .500      .550      .600      .650      .700      .750      .800      .850
      .900      .950     1.000     1.100     1.200     1.300     1.400     1.500
     1.600     1.700     1.800     1.900     2.000     2.200     2.400     2.600
     2.800     3.000     3.200     3.400     3.600     3.800     4.000     4.200
     4.400     4.600     4.800     5.000     5.500     6.000     6.500     7.000
     7.500     8.000     8.500     9.000     9.500    10.000    11.000    12.000
    13.000    14.000    15.000      .000      .000      .000      .000      .000
      .000      .000      .000      .000
Fourier amplitude spectra in in/sec.
  .000E+00  .000E+00  .000E+00  .000E+00  .000E+00  .000E+00  .000E+00  .000E+00
  .000E+00  .000E+00  .000E+00  .000E+00  .000E+00  .000E+00  .000E+00  .000E+00
  .000E+00  .000E+00  .000E+00  .000E+00  .000E+00  .000E+00  .000E+00  .000E+00
  .000E+00  .000E+00  .000E+00  .000E+00  .000E+00  .000E+00  .000E+00  .000E+00
  .000E+00  .000E+00  .000E+00  .000E+00  .000E+00  .000E+00  .000E+00  .000E+00
  .000E+00  .000E+00  .000E+00  .000E+00  .000E+00  .000E+00  .000E+00  .000E+00
  .000E+00  .000E+00  .000E+00  .000E+00  .000E+00  .000E+00  .000E+00  .000E+00
  .000E+00  .000E+00  .000E+00  .000E+00  .000E+00  .000E+00  .000E+00  .000E+00
  .000E+00  .000E+00  .000E+00  .000E+00  .000E+00  .000E+00  .000E+00  .000E+00
  .000E+00  .000E+00  .000E+00  .000E+00  .000E+00  .000E+00  .000E+00  .000E+00
  .000E+00  .000E+00  .000E+00  .000E+00  .000E+00  .000E+00  .000E+00  .000E+00
  .000E+00  .000E+00  .000E+00  .000E+00  .000E+00  .000E+00  .000E+00  .000E+00
  .000E+00  .000E+00  .000E+00  .000E+00
Damping =  .05. Data of Sd,Sv,Sa,Pssv,ttSd,ttSv,ttSa :
  .171E-03  .223E-03  .249E-03  .253E-03  .277E-03  .304E-03  .399E-03  .596E-03
  .815E-03  .114E-02  .143E-02  .147E-02  .163E-02  .209E-02  .199E-02  .272E-02
  .342E-02  .363E-02  .406E-02  .512E-02  .550E-02  .603E-02  .790E-02  .874E-02
  .944E-02  .105E-01  .121E-01  .136E-01  .132E-01  .124E-01  .138E-01  .157E-01
  .141E-01  .152E-01  .165E-01  .166E-01  .141E-01  .123E-01  .117E-01  .115E-01
