Response and Fourier amplitude spectra (91 periods,  .04 - 15.0 sec)   for      
Corrected accelerogram   14829-L1187-01252.02       Chan  1: 360 Deg     from   
Uncorrected Accelerogram Data             Processed: 09/10/01, CDMG  829ax002   
Record of Sun Sep  9, 2001 16:59:31 PDT               (Avol1 v4.6  7/01 CSMIP)  
CSMIP Preliminary Processing            (Origin:  To be determined)             
14829-L1187-01252.02                 Start time:  9/09/01, 23:59:31.0 UTC (GPS) 
Station No. 14829   33.883N, 118.117W      Etna  s/n 1187  (3 Channels)         
Bellflower - Flora Vista & Woodruff                                             
Chan  1: 360 Deg                                                                
Record of Sun Sep  9, 2001 16:59:31 PDT    Sun Sep  9, 2001 16:59:31 PDT        
Hypocenter:  To be determined.               ML:  To be determined.             
Instr Period =  .0105 sec,  Damping =  .680,  Sensitivity =  .63  v/g           
                        Record length = 37.000 sec.                             
                                     Uncor Max  =   .009 g, at   5.470 sec.     
RMS accel of (uncor) record  =        .                                         
Accelerogram bandpass filtered with 3 dB pts at   .30 and 40.00 cyc/sec         
                 instrument- and baseline-corrected                             
                                                                                
                                                                                
                                                                                
                                                                                
                                                                                
Record of Sun Sep  9, 2001 16:59:31 PDT    Sun Sep  9, 2001 16:59:31 PDT        
                                                                                
14829-L1187-01252.02      Bellflower - Flora Vista & Woodruff   Chan  1: 360 Deg
                                                                                
14829-L1187-01252.02      Bellflower - Flora Vista & Woodruff   Chan  1: 360 Deg
                                                                                
Units for spectra are inches and sec, except Sa is in fraction of g.            
                                                                                
    1  100    1    3    3  200    1    3    1   24   12 1187    014829    1    0
   23   59   31    0  252    9    9 2001   10    3  360 7400   39   35   72  360
 7400    1   50    3 1187    1    2  370    1    0    0    0    0    0    0    0
    0    4    0    0 3700    2    0    0    0    0   72   35    0    0    0 3700
    0 3700   36   91    1    3    0    0    0    0    3    0    0    0    0    2
    2    2    4    0   32   99    0   32   32    0    0    1    0    0    0    0
  -99   -1    0    0
      .011      .680    37.000      .002      .000   625.000      .009     5.470
    95.200      .298      .477      .000     5.000      .000      .000      .000
     2.500    -8.204      .000     -.011     5.000    30.000      .000     -.030
     -.004      .025     2.000    15.000    33.883  -118.117     2.302      .502
      .218     -.272      .323  -999.000      .000      .000   -13.900      .000
  1000.000     1.420      .000      .000      .000      .000      .000      .000
     4.600     4.400      .000   980.665      .010    37.000    15.152      .000
      .000    40.000      .000    37.000      .010      .300      .000      .000
     5.470     8.639     5.570      .465     5.680      .047      .001      .300
    40.000      .010      .010      .000      .010      .024      .000      .000
      .030      .190      .026      .023      .004      .000      .000      .000
      .000      .000      .000      .000      .000      .000      .000      .000
      .000      .000      .000      .000
      .050
      .040      .042      .044      .046      .048      .050      .055      .060
      .065      .070      .075      .080      .085      .090      .095      .100
      .110      .120      .130      .140      .150      .160      .170      .180
      .190      .200      .220      .240      .260      .280      .300      .320
      .340      .360      .380      .400      .420      .440      .460      .480
      .500      .550      .600      .650      .700      .750      .800      .850
      .900      .950     1.000     1.100     1.200     1.300     1.400     1.500
     1.600     1.700     1.800     1.900     2.000     2.200     2.400     2.600
     2.800     3.000     3.200     3.400     3.600     3.800     4.000     4.200
     4.400     4.600     4.800     5.000     5.500     6.000     6.500     7.000
     7.500     8.000     8.500     9.000     9.500    10.000    11.000    12.000
    13.000    14.000    15.000      .000      .000      .000      .000      .000
      .000      .000      .000      .000
Fourier amplitude spectra in in/sec.
  .000E+00  .000E+00  .000E+00  .000E+00  .000E+00  .000E+00  .000E+00  .000E+00
  .000E+00  .000E+00  .000E+00  .000E+00  .000E+00  .000E+00  .000E+00  .000E+00
  .000E+00  .000E+00  .000E+00  .000E+00  .000E+00  .000E+00  .000E+00  .000E+00
  .000E+00  .000E+00  .000E+00  .000E+00  .000E+00  .000E+00  .000E+00  .000E+00
  .000E+00  .000E+00  .000E+00  .000E+00  .000E+00  .000E+00  .000E+00  .000E+00
  .000E+00  .000E+00  .000E+00  .000E+00  .000E+00  .000E+00  .000E+00  .000E+00
  .000E+00  .000E+00  .000E+00  .000E+00  .000E+00  .000E+00  .000E+00  .000E+00
  .000E+00  .000E+00  .000E+00  .000E+00  .000E+00  .000E+00  .000E+00  .000E+00
  .000E+00  .000E+00  .000E+00  .000E+00  .000E+00  .000E+00  .000E+00  .000E+00
  .000E+00  .000E+00  .000E+00  .000E+00  .000E+00  .000E+00  .000E+00  .000E+00
  .000E+00  .000E+00  .000E+00  .000E+00  .000E+00  .000E+00  .000E+00  .000E+00
  .000E+00  .000E+00  .000E+00  .000E+00  .000E+00  .000E+00  .000E+00  .000E+00
  .000E+00  .000E+00  .000E+00  .000E+00
Damping =  .05. Data of Sd,Sv,Sa,Pssv,ttSd,ttSv,ttSa :
  .145E-03  .160E-03  .173E-03  .190E-03  .215E-03  .235E-03  .295E-03  .329E-03
  .421E-03  .563E-03  .690E-03  .837E-03  .100E-02  .140E-02  .146E-02  .149E-02
  .161E-02  .205E-02  .350E-02  .536E-02  .595E-02  .624E-02  .652E-02  .865E-02
  .106E-01  .110E-01  .993E-02  .996E-02  .144E-01  .180E-01  .196E-01  .240E-01
  .257E-01  .292E-01  .343E-01  .387E-01  .426E-01  .476E-01  .472E-01  .471E-01
  .482E-01  .478E-01  .395E-01  .510E-01  .544E-01  .470E-01  .335E-01  .331E-01
  .325E-01  .341E-01  .371E-01  .403E-01  .331E-01  .320E-01  .336E-01  .369E-01
  .344E-01  .312E-01  .358E-01  .324E-01  .344E-01  .288E-01  .290E-01  .282E-01
  .274E-01  .291E-01  .254E-01  .277E-01  .303E-01  .301E-01  .285E-01  .267E-01
  .249E-01  .242E-01  .240E-01  .238E-01  .235E-01  .233E-01  .232E-01  .232E-01
  .231E-01  .231E-01  .230E-01  .229E-01  .228E-01  .227E-01  .224E-01  .222E-01
  .219E-01  .217E-01  .215E-01  .000E+00  .000E+00  .000E+00  .000E+00  .000E+00
  .000E+00  .000E+00  .000E+00  .000E+00
  .664E-02  .769E-02  .800E-02  .768E-02  .865E-02  .109E-01  .162E-01  .211E-01
  .250E-01  .319E-01  .392E-01  .481E-01  .527E-01  .744E-01  .810E-01  .815E-01
  .760E-01  .905E-01  .160E+00  .219E+00  .245E+00  .246E+00  .224E+00  .249E+00
  .302E+00  .309E+00  .259E+00  .242E+00  .329E+00  .396E+00  .341E+00  .398E+00
  .436E+00  .495E+00  .557E+00  .598E+00  .623E+00  .697E+00  .635E+00  .609E+00
  .577E+00  .565E+00  .505E+00  .533E+00  .499E+00  .457E+00  .340E+00  .290E+00
  .283E+00  .288E+00  .311E+00  .322E+00  .270E+00  .254E+00  .277E+00  .274E+00
  .284E+00  .239E+00  .239E+00  .237E+00  .232E+00  .247E+00  .216E+00  .213E+00
  .211E+00  .208E+00  .211E+00  .206E+00  .198E+00  .195E+00  .193E+00  .191E+00
  .190E+00  .188E+00  .187E+00  .187E+00  .185E+00  .184E+00  .183E+00  .183E+00
  .183E+00  .183E+00  .183E+00  .183E+00  .183E+00  .183E+00  .183E+00  .183E+00
  .183E+00  .183E+00  .183E+00  .000E+00  .000E+00  .000E+00  .000E+00  .000E+00
  .000E+00  .000E+00  .000E+00  .000E+00
  .928E-02  .926E-02  .912E-02  .917E-02  .956E-02  .961E-02  .999E-02  .936E-02
  .102E-01  .118E-01  .126E-01  .134E-01  .142E-01  .176E-01  .168E-01  .149E-01
  .135E-01  .146E-01  .209E-01  .278E-01  .268E-01  .250E-01  .232E-01  .276E-01
  .299E-01  .284E-01  .212E-01  .176E-01  .220E-01  .237E-01  .224E-01  .241E-01
  .228E-01  .231E-01  .244E-01  .249E-01  .249E-01  .253E-01  .229E-01  .210E-01
  .198E-01  .162E-01  .113E-01  .124E-01  .114E-01  .860E-02  .540E-02  .472E-02
  .413E-02  .390E-02  .382E-02  .342E-02  .237E-02  .197E-02  .178E-02  .170E-02
  .140E-02  .112E-02  .117E-02  .963E-03  .893E-03  .627E-03  .529E-03  .438E-03
  .369E-03  .344E-03  .266E-03  .256E-03  .250E-03  .225E-03  .194E-03  .169E-03
  .155E-03  .143E-03  .132E-03  .123E-03  .104E-03  .908E-04  .802E-04  .717E-04
  .647E-04  .589E-04  .540E-04  .498E-04  .461E-04  .429E-04  .376E-04  .333E-04
  .299E-04  .271E-04  .249E-04  .000E+00  .000E+00  .000E+00  .000E+00  .000E+00
  .000E+00  .000E+00  .000E+00  .000E+00
  .228E-01  .239E-01  .247E-01  .259E-01  .282E-01  .295E-01  .337E-01  .345E-01
  .407E-01  .506E-01  .578E-01  .658E-01  .741E-01  .975E-01  .969E-01  .934E-01
  .917E-01  .107E+00  .169E+00  .240E+00  .249E+00  .245E+00  .241E+00  .302E+00
  .350E+00  .346E+00  .284E+00  .261E+00  .348E+00  .405E+00  .410E+00  .472E+00
  .475E+00  .510E+00  .568E+00  .608E+00  .638E+00  .680E+00  .645E+00  .616E+00
  .606E+00  .546E+00  .413E+00  .493E+00  .488E+00  .394E+00  .263E+00  .244E+00
  .227E+00  .226E+00  .233E+00  .230E+00  .174E+00  .155E+00  .151E+00  .155E+00
  .135E+00  .115E+00  .125E+00  .107E+00  .108E+00  .822E-01  .760E-01  .682E-01
  .615E-01  .610E-01  .498E-01  .511E-01  .528E-01  .498E-01  .448E-01  .399E-01
  .356E-01  .331E-01  .314E-01  .299E-01  .268E-01  .244E-01  .225E-01  .208E-01
  .194E-01  .181E-01  .170E-01  .160E-01  .151E-01  .142E-01  .128E-01  .116E-01
  .106E-01  .972E-02  .899E-02  .000E+00  .000E+00  .000E+00  .000E+00  .000E+00
  .000E+00  .000E+00  .000E+00  .000E+00
  .546E+01  .547E+01  .547E+01  .546E+01  .546E+01  .546E+01  .546E+01  .546E+01
  .545E+01  .546E+01  .547E+01  .180E+01  .232E+01  .232E+01  .233E+01  .268E+01
  .107E+02  .547E+01  .181E+01  .233E+01  .235E+01  .361E+01  .107E+02  .107E+02
  .107E+02  .108E+02  .108E+02  .108E+02  .108E+02  .109E+02  .569E+01  .572E+01
  .593E+01  .595E+01  .616E+01  .161E+02  .620E+01  .161E+02  .625E+01  .653E+01
  .655E+01  .660E+01  .612E+01  .128E+02  .125E+02  .126E+02  .126E+02  .126E+02
  .126E+02  .126E+02  .126E+02  .123E+02  .123E+02  .155E+02  .187E+02  .123E+02
  .124E+02  .120E+02  .107E+02  .107E+02  .123E+02  .124E+02  .120E+02  .184E+02
  .184E+02  .185E+02  .147E+02  .120E+02  .120E+02  .120E+02  .120E+02  .120E+02
  .120E+02  .567E+01  .567E+01  .567E+01  .567E+01  .567E+01  .567E+01  .567E+01
  .567E+01  .567E+01  .567E+01  .567E+01  .567E+01  .567E+01  .567E+01  .567E+01
  .567E+01  .567E+01  .567E+01  .000E+00  .000E+00  .000E+00  .000E+00  .000E+00
  .000E+00  .000E+00  .000E+00  .000E+00
  .227E+01  .227E+01  .228E+01  .228E+01  .227E+01  .227E+01  .227E+01  .228E+01
  .228E+01  .257E+01  .176E+01  .182E+01  .229E+01  .235E+01  .264E+01  .270E+01
  .183E+01  .242E+01  .184E+01  .237E+01  .238E+01  .333E+01  .335E+01  .108E+02
  .108E+02  .108E+02  .108E+02  .108E+02  .108E+02  .109E+02  .562E+01  .563E+01
  .603E+01  .605E+01  .606E+01  .161E+02  .610E+01  .160E+02  .614E+01  .616E+01
  .617E+01  .596E+01  .598E+01  .126E+02  .159E+02  .156E+02  .110E+02  .124E+02
  .124E+02  .124E+02  .124E+02  .124E+02  .121E+02  .121E+02  .154E+02  .154E+02
  .121E+02  .580E+01  .580E+01  .580E+01  .580E+01  .121E+02  .580E+01  .580E+01
  .580E+01  .580E+01  .121E+02  .121E+02  .580E+01  .580E+01  .580E+01  .580E+01
  .580E+01  .580E+01  .580E+01  .580E+01  .580E+01  .580E+01  .580E+01  .580E+01
  .556E+01  .556E+01  .556E+01  .556E+01  .556E+01  .556E+01  .556E+01  .556E+01
  .556E+01  .556E+01  .556E+01  .000E+00  .000E+00  .000E+00  .000E+00  .000E+00
  .000E+00  .000E+00  .000E+00  .000E+00
  .546E+01  .547E+01  .547E+01  .546E+01  .546E+01  .546E+01  .546E+01  .546E+01
  .545E+01  .546E+01  .546E+01  .179E+01  .231E+01  .232E+01  .233E+01  .268E+01
  .107E+02  .547E+01  .180E+01  .233E+01  .234E+01  .361E+01  .107E+02  .107E+02
  .107E+02  .108E+02  .108E+02  .108E+02  .108E+02  .108E+02  .569E+01  .571E+01
  .593E+01  .594E+01  .616E+01  .160E+02  .620E+01  .161E+02  .625E+01  .652E+01
  .654E+01  .659E+01  .611E+01  .128E+02  .125E+02  .125E+02  .126E+02  .126E+02
  .126E+02  .126E+02  .126E+02  .123E+02  .123E+02  .155E+02  .187E+02  .123E+02
  .123E+02  .120E+02  .107E+02  .107E+02  .123E+02  .123E+02  .120E+02  .184E+02
  .184E+02  .184E+02  .561E+01  .119E+02  .119E+02  .119E+02  .120E+02  .560E+01
  .560E+01  .560E+01  .560E+01  .560E+01  .559E+01  .559E+01  .559E+01  .559E+01
  .558E+01  .558E+01  .558E+01  .558E+01  .558E+01  .558E+01  .558E+01  .558E+01
  .558E+01  .557E+01  .557E+01  .000E+00  .000E+00  .000E+00  .000E+00  .000E+00
  .000E+00  .000E+00  .000E+00  .000E+00
/&   ----------  End of spectral data for channel  1  ----------
Response and Fourier amplitude spectra (91 periods,  .04 - 15.0 sec)   for      
Corrected accelerogram   14829-L1187-01252.02       Chan  2:  Up         from   
Uncorrected Accelerogram Data             Processed: 09/10/01, CDMG  829ax002   
Record of Sun Sep  9, 2001 16:59:31 PDT               (Avol1 v4.6  7/01 CSMIP)  
CSMIP Preliminary Processing            (Origin:  To be determined)             
14829-L1187-01252.02                 Start time:  9/09/01, 23:59:31.0 UTC (GPS) 
Station No. 14829   33.883N, 118.117W      Etna  s/n 1187  (3 Channels)         
Bellflower - Flora Vista & Woodruff                                             
Chan  2:  Up                                                                    
Record of Sun Sep  9, 2001 16:59:31 PDT    Sun Sep  9, 2001 16:59:31 PDT        
Hypocenter:  To be determined.               ML:  To be determined.             
Instr Period =  .0104 sec,  Damping =  .660,  Sensitivity =  .63  v/g           
                        Record length = 37.000 sec.                             
                                     Uncor Max  =  -.006 g, at   1.465 sec.     
RMS accel of (uncor) record  =        .                                         
Accelerogram bandpass filtered with 3 dB pts at   .30 and 40.00 cyc/sec         
                 instrument- and baseline-corrected                             
                                                                                
                                                                                
                                                                                
                                                                                
                                                                                
Record of Sun Sep  9, 2001 16:59:31 PDT    Sun Sep  9, 2001 16:59:31 PDT        
                                                                                
14829-L1187-01252.02      Bellflower - Flora Vista & Woodruff   Chan  2:  Up    
                                                                                
14829-L1187-01252.02      Bellflower - Flora Vista & Woodruff   Chan  2:  Up    
                                                                                
Units for spectra are inches and sec, except Sa is in fraction of g.            
                                                                                
    2  100    2    3    3  200    1    3    1   24   12 1187    014829    1    0
   23   59   31    0  252    9    9 2001   10    3  500 7400   39   35   72  360
 7400    1   50    3 1187    1    2  370    1    0    0    0    0    0    0    0
    0    4    0    0 3700    2    0    0    0    0   72   35    0    0    0 3700
    0 3700   36   91    1    3    0    0    0    0    3    0    0    0    0    2
    2    2    4    0   32   99    0   32   32    0    0    1    0    0    0    0
  -99   -1    0    0
      .010      .660    37.000      .001      .000   625.000     -.006     1.465
    96.500      .298      .477      .000     5.000      .000      .000      .000
     2.500   -31.520     -.016     -.023     5.000    30.000      .000      .031
      .001     -.030     2.000    15.000    33.883  -118.117     2.101      .186
      .089     -.301      .241  -999.000      .000      .000   -13.900      .000
  1000.000     1.444      .000      .000      .000      .000      .000      .000
     4.600     4.400      .000   980.665      .010    37.000    15.358      .000
      .000    40.000      .000    37.000      .010      .300      .000      .000
     1.460    -5.230     2.910      .150     4.410     -.011      .000      .300
    40.000      .010      .010      .000      .010      .008      .000      .000
      .021      .140      .011      .010      .001      .000      .000      .000
      .000      .000      .000      .000      .000      .000      .000      .000
      .000      .000      .000      .000
      .050
      .040      .042      .044      .046      .048      .050      .055      .060
      .065      .070      .075      .080      .085      .090      .095      .100
      .110      .120      .130      .140      .150      .160      .170      .180
      .190      .200      .220      .240      .260      .280      .300      .320
      .340      .360      .380      .400      .420      .440      .460      .480
      .500      .550      .600      .650      .700      .750      .800      .850
      .900      .950     1.000     1.100     1.200     1.300     1.400     1.500
     1.600     1.700     1.800     1.900     2.000     2.200     2.400     2.600
     2.800     3.000     3.200     3.400     3.600     3.800     4.000     4.200
     4.400     4.600     4.800     5.000     5.500     6.000     6.500     7.000
     7.500     8.000     8.500     9.000     9.500    10.000    11.000    12.000
    13.000    14.000    15.000      .000      .000      .000      .000      .000
      .000      .000      .000      .000
Fourier amplitude spectra in in/sec.
  .000E+00  .000E+00  .000E+00  .000E+00  .000E+00  .000E+00  .000E+00  .000E+00
  .000E+00  .000E+00  .000E+00  .000E+00  .000E+00  .000E+00  .000E+00  .000E+00
  .000E+00  .000E+00  .000E+00  .000E+00  .000E+00  .000E+00  .000E+00  .000E+00
  .000E+00  .000E+00  .000E+00  .000E+00  .000E+00  .000E+00  .000E+00  .000E+00
  .000E+00  .000E+00  .000E+00  .000E+00  .000E+00  .000E+00  .000E+00  .000E+00
  .000E+00  .000E+00  .000E+00  .000E+00  .000E+00  .000E+00  .000E+00  .000E+00
  .000E+00  .000E+00  .000E+00  .000E+00  .000E+00  .000E+00  .000E+00  .000E+00
  .000E+00  .000E+00  .000E+00  .000E+00  .000E+00  .000E+00  .000E+00  .000E+00
  .000E+00  .000E+00  .000E+00  .000E+00  .000E+00  .000E+00  .000E+00  .000E+00
  .000E+00  .000E+00  .000E+00  .000E+00  .000E+00  .000E+00  .000E+00  .000E+00
  .000E+00  .000E+00  .000E+00  .000E+00  .000E+00  .000E+00  .000E+00  .000E+00
  .000E+00  .000E+00  .000E+00  .000E+00  .000E+00  .000E+00  .000E+00  .000E+00
  .000E+00  .000E+00  .000E+00  .000E+00
Damping =  .05. Data of Sd,Sv,Sa,Pssv,ttSd,ttSv,ttSa :
  .115E-03  .137E-03  .142E-03  .147E-03  .183E-03  .211E-03  .330E-03  .412E-03
  .428E-03  .410E-03  .486E-03  .492E-03  .667E-03  .885E-03  .110E-02  .137E-02
  .185E-02  .248E-02  .329E-02  .385E-02  .405E-02  .379E-02  .402E-02  .377E-02
  .413E-02  .506E-02  .431E-02  .634E-02  .711E-02  .769E-02  .912E-02  .881E-02
  .817E-02  .778E-02  .851E-02  .940E-02  .927E-02  .860E-02  .832E-02  .917E-02
