Response and Fourier amplitude spectra (91 periods,  .04 - 15.0 sec)   for      
Corrected accelerogram   14822-L1178-01252.06       Chan  1: 360 Deg     from   
Uncorrected Accelerogram Data             Processed: 09/10/01, CDMG  822bb006   
Record of Sun Sep  9, 2001 16:59:19 PDT               (Avol1 v4.6  7/01 CSMIP)  
CSMIP Preliminary Processing            (Origin:  To be determined)             
14822-L1178-01252.06                 Start time:  9/09/01, 23:59:19.0 UTC (GPS) 
Station No. 14822   33.945N, 118.380W      Etna  s/n 1178  (3 Channels)         
Los Angeles - Century & Aviation                                                
Chan  1: 360 Deg                                                                
Record of Sun Sep  9, 2001 16:59:19 PDT    Sun Sep  9, 2001 16:59:19 PDT        
Hypocenter:  To be determined.               ML:  To be determined.             
Instr Period =  .0107 sec,  Damping =  .670,  Sensitivity =  .63  v/g           
                        Record length = 41.000 sec.                             
                                     Uncor Max  =   .017 g, at   4.980 sec.     
RMS accel of (uncor) record  =        .                                         
Accelerogram bandpass filtered with 3 dB pts at   .30 and 40.00 cyc/sec         
                 instrument- and baseline-corrected                             
                                                                                
                                                                                
                                                                                
                                                                                
                                                                                
Record of Sun Sep  9, 2001 16:59:19 PDT    Sun Sep  9, 2001 16:59:19 PDT        
                                                                                
14822-L1178-01252.06      Los Angeles - Century & Aviation    Chan  1: 360 Deg  
                                                                                
14822-L1178-01252.06      Los Angeles - Century & Aviation    Chan  1: 360 Deg  
                                                                                
Units for spectra are inches and sec, except Sa is in fraction of g.            
                                                                                
    1  100    1    3    3  200    1    3    1   24   12 1178    014822    1    0
   23   59   19    0  252    9    9 2001   10    3  360 8200   39   32   72  360
 8200    1   50    3 1178    1    6  410    1    0    0    0    0    0    0    0
    0    4    0    0 4100    2    0    0    0    0   72   32    0    0    0 4100
    0 4100   33   91    1    3    0    0    0    0    3    0    0    0    0    2
    2    2    4    0   32   99    0   32   32    0    0    1    0    0    0    0
  -99   -1    0    0
      .011      .670    41.000      .002      .000   625.000      .017     4.980
    93.500      .298      .477      .000     5.000      .000      .000      .000
     2.500     -.540      .008     -.011     5.000    30.000      .000      .001
      .000     -.001     2.000    15.000    33.945  -118.380      .066      .501
     7.566     -.026      .024  -999.000      .000      .000   -13.400      .000
  1000.000    -1.010      .000      .000      .000      .000      .000      .000
     4.600     4.400      .000   980.665      .010    41.000    14.881      .000
      .000    40.000      .000    41.000      .010      .300      .000      .000
     4.980    16.794    10.350      .828    10.250     -.056      .000      .300
    40.000      .010      .010      .000      .010      .026      .000      .000
      .047      .280      .028      .045      .005      .000      .000      .000
      .000      .000      .000      .000      .000      .000      .000      .000
      .000      .000      .000      .000
      .050
      .040      .042      .044      .046      .048      .050      .055      .060
      .065      .070      .075      .080      .085      .090      .095      .100
      .110      .120      .130      .140      .150      .160      .170      .180
      .190      .200      .220      .240      .260      .280      .300      .320
      .340      .360      .380      .400      .420      .440      .460      .480
      .500      .550      .600      .650      .700      .750      .800      .850
      .900      .950     1.000     1.100     1.200     1.300     1.400     1.500
     1.600     1.700     1.800     1.900     2.000     2.200     2.400     2.600
     2.800     3.000     3.200     3.400     3.600     3.800     4.000     4.200
     4.400     4.600     4.800     5.000     5.500     6.000     6.500     7.000
     7.500     8.000     8.500     9.000     9.500    10.000    11.000    12.000
    13.000    14.000    15.000      .000      .000      .000      .000      .000
      .000      .000      .000      .000
Fourier amplitude spectra in in/sec.
  .000E+00  .000E+00  .000E+00  .000E+00  .000E+00  .000E+00  .000E+00  .000E+00
  .000E+00  .000E+00  .000E+00  .000E+00  .000E+00  .000E+00  .000E+00  .000E+00
  .000E+00  .000E+00  .000E+00  .000E+00  .000E+00  .000E+00  .000E+00  .000E+00
  .000E+00  .000E+00  .000E+00  .000E+00  .000E+00  .000E+00  .000E+00  .000E+00
  .000E+00  .000E+00  .000E+00  .000E+00  .000E+00  .000E+00  .000E+00  .000E+00
  .000E+00  .000E+00  .000E+00  .000E+00  .000E+00  .000E+00  .000E+00  .000E+00
  .000E+00  .000E+00  .000E+00  .000E+00  .000E+00  .000E+00  .000E+00  .000E+00
  .000E+00  .000E+00  .000E+00  .000E+00  .000E+00  .000E+00  .000E+00  .000E+00
  .000E+00  .000E+00  .000E+00  .000E+00  .000E+00  .000E+00  .000E+00  .000E+00
  .000E+00  .000E+00  .000E+00  .000E+00  .000E+00  .000E+00  .000E+00  .000E+00
  .000E+00  .000E+00  .000E+00  .000E+00  .000E+00  .000E+00  .000E+00  .000E+00
  .000E+00  .000E+00  .000E+00  .000E+00  .000E+00  .000E+00  .000E+00  .000E+00
  .000E+00  .000E+00  .000E+00  .000E+00
Damping =  .05. Data of Sd,Sv,Sa,Pssv,ttSd,ttSv,ttSa :
  .292E-03  .338E-03  .397E-03  .452E-03  .512E-03  .582E-03  .720E-03  .637E-03
  .882E-03  .130E-02  .162E-02  .199E-02  .222E-02  .243E-02  .257E-02  .303E-02
  .357E-02  .436E-02  .486E-02  .517E-02  .658E-02  .958E-02  .112E-01  .111E-01
  .108E-01  .107E-01  .125E-01  .176E-01  .274E-01  .357E-01  .378E-01  .462E-01
  .472E-01  .497E-01  .447E-01  .387E-01  .404E-01  .414E-01  .403E-01  .436E-01
  .503E-01  .552E-01  .465E-01  .474E-01  .366E-01  .387E-01  .383E-01  .394E-01
  .383E-01  .418E-01  .510E-01  .433E-01  .640E-01  .564E-01  .429E-01  .483E-01
  .478E-01  .351E-01  .373E-01  .346E-01  .315E-01  .357E-01  .401E-01  .396E-01
  .383E-01  .333E-01  .294E-01  .282E-01  .289E-01  .301E-01  .312E-01  .317E-01
  .316E-01  .311E-01  .303E-01  .295E-01  .274E-01  .260E-01  .252E-01  .248E-01
  .246E-01  .245E-01  .245E-01  .244E-01  .244E-01  .244E-01  .243E-01  .243E-01
  .242E-01  .242E-01  .242E-01  .000E+00  .000E+00  .000E+00  .000E+00  .000E+00
  .000E+00  .000E+00  .000E+00  .000E+00
  .266E-01  .310E-01  .297E-01  .261E-01  .288E-01  .324E-01  .363E-01  .383E-01
  .418E-01  .578E-01  .691E-01  .884E-01  .993E-01  .112E+00  .123E+00  .139E+00
  .174E+00  .196E+00  .217E+00  .205E+00  .242E+00  .346E+00  .388E+00  .369E+00
  .321E+00  .304E+00  .327E+00  .417E+00  .535E+00  .751E+00  .760E+00  .921E+00
  .903E+00  .907E+00  .760E+00  .720E+00  .700E+00  .659E+00  .603E+00  .575E+00
  .649E+00  .705E+00  .621E+00  .613E+00  .512E+00  .504E+00  .486E+00  .500E+00
  .462E+00  .477E+00  .462E+00  .408E+00  .426E+00  .489E+00  .433E+00  .429E+00
  .465E+00  .463E+00  .422E+00  .381E+00  .365E+00  .389E+00  .402E+00  .382E+00
  .356E+00  .343E+00  .340E+00  .341E+00  .342E+00  .341E+00  .339E+00  .336E+00
  .333E+00  .331E+00  .329E+00  .327E+00  .326E+00  .325E+00  .325E+00  .326E+00
  .326E+00  .326E+00  .326E+00  .325E+00  .325E+00  .325E+00  .325E+00  .325E+00
  .325E+00  .325E+00  .325E+00  .000E+00  .000E+00  .000E+00  .000E+00  .000E+00
  .000E+00  .000E+00  .000E+00  .000E+00
  .187E-01  .196E-01  .211E-01  .219E-01  .227E-01  .238E-01  .245E-01  .181E-01
  .214E-01  .271E-01  .295E-01  .317E-01  .312E-01  .309E-01  .293E-01  .312E-01
  .309E-01  .308E-01  .295E-01  .271E-01  .299E-01  .386E-01  .396E-01  .352E-01
  .307E-01  .275E-01  .265E-01  .313E-01  .415E-01  .467E-01  .431E-01  .465E-01
  .418E-01  .395E-01  .318E-01  .249E-01  .236E-01  .219E-01  .196E-01  .195E-01
  .207E-01  .188E-01  .133E-01  .115E-01  .770E-02  .707E-02  .615E-02  .566E-02
  .490E-02  .482E-02  .526E-02  .368E-02  .463E-02  .350E-02  .231E-02  .227E-02
  .199E-02  .131E-02  .120E-02  .993E-03  .868E-03  .773E-03  .725E-03  .616E-03
  .521E-03  .400E-03  .315E-03  .270E-03  .247E-03  .232E-03  .218E-03  .202E-03
  .185E-03  .169E-03  .153E-03  .139E-03  .112E-03  .938E-04  .819E-04  .761E-04
  .707E-04  .661E-04  .620E-04  .583E-04  .550E-04  .520E-04  .470E-04  .430E-04
  .397E-04  .368E-04  .344E-04  .000E+00  .000E+00  .000E+00  .000E+00  .000E+00
  .000E+00  .000E+00  .000E+00  .000E+00
  .459E-01  .506E-01  .566E-01  .617E-01  .670E-01  .731E-01  .823E-01  .667E-01
  .853E-01  .117E+00  .136E+00  .156E+00  .164E+00  .170E+00  .170E+00  .190E+00
  .204E+00  .228E+00  .235E+00  .232E+00  .276E+00  .376E+00  .415E+00  .387E+00
  .357E+00  .336E+00  .357E+00  .462E+00  .661E+00  .802E+00  .791E+00  .908E+00
  .872E+00  .867E+00  .739E+00  .608E+00  .604E+00  .591E+00  .551E+00  .571E+00
  .633E+00  .631E+00  .487E+00  .458E+00  .328E+00  .324E+00  .300E+00  .291E+00
  .267E+00  .277E+00  .321E+00  .247E+00  .335E+00  .273E+00  .192E+00  .202E+00
  .188E+00  .130E+00  .130E+00  .114E+00  .989E-01  .102E+00  .105E+00  .958E-01
  .859E-01  .696E-01  .578E-01  .522E-01  .504E-01  .498E-01  .490E-01  .474E-01
  .451E-01  .425E-01  .397E-01  .370E-01  .313E-01  .273E-01  .244E-01  .223E-01
  .206E-01  .193E-01  .181E-01  .170E-01  .161E-01  .153E-01  .139E-01  .127E-01
  .117E-01  .109E-01  .101E-01  .000E+00  .000E+00  .000E+00  .000E+00  .000E+00
  .000E+00  .000E+00  .000E+00  .000E+00
  .496E+01  .496E+01  .496E+01  .496E+01  .496E+01  .496E+01  .497E+01  .497E+01
  .496E+01  .497E+01  .497E+01  .498E+01  .498E+01  .499E+01  .499E+01  .103E+02
  .539E+01  .519E+01  .520E+01  .104E+02  .531E+01  .541E+01  .543E+01  .544E+01
  .511E+01  .511E+01  .512E+01  .103E+02  .104E+02  .106E+02  .106E+02  .107E+02
  .107E+02  .107E+02  .107E+02  .542E+01  .108E+02  .108E+02  .528E+01  .108E+02
  .108E+02  .106E+02  .106E+02  .106E+02  .515E+01  .107E+02  .107E+02  .107E+02
  .104E+02  .104E+02  .205E+02  .206E+02  .104E+02  .104E+02  .104E+02  .104E+02
  .105E+02  .105E+02  .102E+02  .140E+02  .140E+02  .141E+02  .135E+02  .102E+02
  .102E+02  .102E+02  .102E+02  .102E+02  .102E+02  .102E+02  .102E+02  .102E+02
  .102E+02  .102E+02  .102E+02  .102E+02  .102E+02  .102E+02  .102E+02  .102E+02
  .102E+02  .102E+02  .102E+02  .102E+02  .102E+02  .102E+02  .102E+02  .102E+02
  .102E+02  .102E+02  .102E+02  .000E+00  .000E+00  .000E+00  .000E+00  .000E+00
  .000E+00  .000E+00  .000E+00  .000E+00
  .537E+01  .538E+01  .545E+01  .495E+01  .495E+01  .540E+01  .486E+01  .486E+01
  .486E+01  .494E+01  .495E+01  .500E+01  .501E+01  .501E+01  .503E+01  .535E+01
  .537E+01  .522E+01  .517E+01  .518E+01  .512E+01  .545E+01  .539E+01  .540E+01
  .506E+01  .507E+01  .507E+01  .102E+02  .105E+02  .106E+02  .106E+02  .106E+02
  .106E+02  .106E+02  .106E+02  .534E+01  .535E+01  .536E+01  .536E+01  .107E+02
  .107E+02  .105E+02  .105E+02  .105E+02  .502E+01  .105E+02  .105E+02  .105E+02
  .105E+02  .105E+02  .105E+02  .105E+02  .105E+02  .103E+02  .103E+02  .103E+02
  .103E+02  .103E+02  .103E+02  .103E+02  .103E+02  .103E+02  .103E+02  .103E+02
  .103E+02  .103E+02  .103E+02  .103E+02  .103E+02  .103E+02  .103E+02  .103E+02
  .103E+02  .103E+02  .103E+02  .103E+02  .103E+02  .103E+02  .103E+02  .103E+02
  .103E+02  .103E+02  .103E+02  .103E+02  .103E+02  .103E+02  .103E+02  .103E+02
  .103E+02  .103E+02  .103E+02  .000E+00  .000E+00  .000E+00  .000E+00  .000E+00
  .000E+00  .000E+00  .000E+00  .000E+00
  .495E+01  .496E+01  .496E+01  .496E+01  .496E+01  .496E+01  .497E+01  .497E+01
  .496E+01  .496E+01  .497E+01  .498E+01  .498E+01  .498E+01  .499E+01  .103E+02
  .539E+01  .519E+01  .507E+01  .104E+02  .531E+01  .541E+01  .543E+01  .544E+01
  .510E+01  .511E+01  .511E+01  .103E+02  .104E+02  .106E+02  .106E+02  .107E+02
  .107E+02  .107E+02  .107E+02  .542E+01  .108E+02  .108E+02  .527E+01  .108E+02
  .106E+02  .106E+02  .106E+02  .106E+02  .514E+01  .106E+02  .107E+02  .104E+02
  .104E+02  .104E+02  .205E+02  .205E+02  .104E+02  .104E+02  .104E+02  .104E+02
  .104E+02  .104E+02  .102E+02  .140E+02  .494E+01  .140E+02  .134E+02  .102E+02
  .102E+02  .102E+02  .102E+02  .102E+02  .102E+02  .102E+02  .102E+02  .102E+02
  .102E+02  .102E+02  .102E+02  .102E+02  .101E+02  .101E+02  .104E+02  .104E+02
  .104E+02  .104E+02  .104E+02  .104E+02  .104E+02  .104E+02  .104E+02  .104E+02
  .104E+02  .104E+02  .104E+02  .000E+00  .000E+00  .000E+00  .000E+00  .000E+00
  .000E+00  .000E+00  .000E+00  .000E+00
/&   ----------  End of spectral data for channel  1  ----------
Response and Fourier amplitude spectra (91 periods,  .04 - 15.0 sec)   for      
Corrected accelerogram   14822-L1178-01252.06       Chan  2:  Up         from   
Uncorrected Accelerogram Data             Processed: 09/10/01, CDMG  822bb006   
Record of Sun Sep  9, 2001 16:59:19 PDT               (Avol1 v4.6  7/01 CSMIP)  
CSMIP Preliminary Processing            (Origin:  To be determined)             
14822-L1178-01252.06                 Start time:  9/09/01, 23:59:19.0 UTC (GPS) 
Station No. 14822   33.945N, 118.380W      Etna  s/n 1178  (3 Channels)         
Los Angeles - Century & Aviation                                                
Chan  2:  Up                                                                    
Record of Sun Sep  9, 2001 16:59:19 PDT    Sun Sep  9, 2001 16:59:19 PDT        
Hypocenter:  To be determined.               ML:  To be determined.             
Instr Period =  .0101 sec,  Damping =  .680,  Sensitivity =  .63  v/g           
                        Record length = 41.000 sec.                             
                                     Uncor Max  =   .009 g, at   5.130 sec.     
RMS accel of (uncor) record  =        .                                         
Accelerogram bandpass filtered with 3 dB pts at   .30 and 40.00 cyc/sec         
                 instrument- and baseline-corrected                             
                                                                                
                                                                                
                                                                                
                                                                                
                                                                                
Record of Sun Sep  9, 2001 16:59:19 PDT    Sun Sep  9, 2001 16:59:19 PDT        
                                                                                
14822-L1178-01252.06      Los Angeles - Century & Aviation    Chan  2:  Up      
                                                                                
14822-L1178-01252.06      Los Angeles - Century & Aviation    Chan  2:  Up      
                                                                                
Units for spectra are inches and sec, except Sa is in fraction of g.            
                                                                                
    2  100    2    3    3  200    1    3    1   24   12 1178    014822    1    0
   23   59   19    0  252    9    9 2001   10    3  500 8200   39   32   72  360
 8200    1   50    3 1178    1    6  410    1    0    0    0    0    0    0    0
    0    4    0    0 4100    2    0    0    0    0   72   32    0    0    0 4100
    0 4100   33   91    1    3    0    0    0    0    3    0    0    0    0    2
    2    2    4    0   32   99    0   32   32    0    0    1    0    0    0    0
  -99   -1    0    0
      .010      .680    41.000      .001      .000   625.000      .009     5.130
    98.900      .298      .477      .000     5.000      .000      .000      .000
     2.500   -41.203     -.022     -.031     5.000    30.000      .000      .004
      .004      .000     2.000    15.000    33.945  -118.380      .408      .319
      .782     -.055      .055  -999.000      .000      .000   -13.400      .000
  1000.000     1.001      .000      .000      .000      .000      .000      .000
     4.600     4.400      .000   980.665      .010    41.000    15.740      .000
      .000    40.000      .000    41.000      .010      .300      .000      .000
     5.130     8.569     5.150      .175    22.860      .018      .000      .300
    40.000      .010      .010      .000      .010      .014      .000      .000
      .025      .180      .015      .012      .002      .000      .000      .000
      .000      .000      .000      .000      .000      .000      .000      .000
      .000      .000      .000      .000
      .050
      .040      .042      .044      .046      .048      .050      .055      .060
      .065      .070      .075      .080      .085      .090      .095      .100
      .110      .120      .130      .140      .150      .160      .170      .180
      .190      .200      .220      .240      .260      .280      .300      .320
      .340      .360      .380      .400      .420      .440      .460      .480
      .500      .550      .600      .650      .700      .750      .800      .850
      .900      .950     1.000     1.100     1.200     1.300     1.400     1.500
     1.600     1.700     1.800     1.900     2.000     2.200     2.400     2.600
     2.800     3.000     3.200     3.400     3.600     3.800     4.000     4.200
     4.400     4.600     4.800     5.000     5.500     6.000     6.500     7.000
     7.500     8.000     8.500     9.000     9.500    10.000    11.000    12.000
    13.000    14.000    15.000      .000      .000      .000      .000      .000
      .000      .000      .000      .000
Fourier amplitude spectra in in/sec.
  .000E+00  .000E+00  .000E+00  .000E+00  .000E+00  .000E+00  .000E+00  .000E+00
  .000E+00  .000E+00  .000E+00  .000E+00  .000E+00  .000E+00  .000E+00  .000E+00
  .000E+00  .000E+00  .000E+00  .000E+00  .000E+00  .000E+00  .000E+00  .000E+00
  .000E+00  .000E+00  .000E+00  .000E+00  .000E+00  .000E+00  .000E+00  .000E+00
  .000E+00  .000E+00  .000E+00  .000E+00  .000E+00  .000E+00  .000E+00  .000E+00
  .000E+00  .000E+00  .000E+00  .000E+00  .000E+00  .000E+00  .000E+00  .000E+00
  .000E+00  .000E+00  .000E+00  .000E+00  .000E+00  .000E+00  .000E+00  .000E+00
  .000E+00  .000E+00  .000E+00  .000E+00  .000E+00  .000E+00  .000E+00  .000E+00
  .000E+00  .000E+00  .000E+00  .000E+00  .000E+00  .000E+00  .000E+00  .000E+00
  .000E+00  .000E+00  .000E+00  .000E+00  .000E+00  .000E+00  .000E+00  .000E+00
  .000E+00  .000E+00  .000E+00  .000E+00  .000E+00  .000E+00  .000E+00  .000E+00
  .000E+00  .000E+00  .000E+00  .000E+00  .000E+00  .000E+00  .000E+00  .000E+00
  .000E+00  .000E+00  .000E+00  .000E+00
Damping =  .05. Data of Sd,Sv,Sa,Pssv,ttSd,ttSv,ttSa :
  .214E-03  .241E-03  .277E-03  .294E-03  .341E-03  .403E-03  .431E-03  .677E-03
  .737E-03  .109E-02  .116E-02  .122E-02  .117E-02  .134E-02  .154E-02  .165E-02
  .217E-02  .255E-02  .320E-02  .397E-02  .500E-02  .604E-02  .712E-02  .806E-02
  .642E-02  .572E-02  .597E-02  .583E-02  .722E-02  .942E-02  .112E-01  .116E-01
  .127E-01  .119E-01  .118E-01  .107E-01  .918E-02  .926E-02  .108E-01  .142E-01
