Response and Fourier amplitude spectra (91 periods,  .04 - 15.0 sec)   for      
Corrected accelerogram   24012-L1811-01248.07       Chan  1:   0 Deg     from   
Uncorrected Accelerogram Data             Processed: 09/10/01, CDMG  012ca007   
Record of Sun Sep  9, 2001 16:59:17 PDT               (Avol1 v4.6  7/01 CSMIP)  
CSMIP Preliminary Processing            (Origin:  To be determined)             
24012-L1811-01248.07                 Start time:  9/09/01, 23:59:17.0 UTC (GPS) 
Station No. 24012   34.148N, 118.371W      Etna  s/n 1811  (3 Channels)         
North Hollywood - Hwy 101 & Vineland                                            
Chan  1:   0 Deg                                                                
Record of Sun Sep  9, 2001 16:59:17 PDT    Sun Sep  9, 2001 16:59:17 PDT        
Hypocenter:  To be determined.               ML:  To be determined.             
Instr Period =  .0098 sec,  Damping =  .670,  Sensitivity =  .63  v/g           
                        Record length = 40.000 sec.                             
                                     Uncor Max  =   .033 g, at   6.095 sec.     
RMS accel of (uncor) record  =        .                                         
Accelerogram bandpass filtered with 3 dB pts at   .30 and 40.00 cyc/sec         
                 instrument- and baseline-corrected                             
                                                                                
                                                                                
                                                                                
                                                                                
                                                                                
Record of Sun Sep  9, 2001 16:59:17 PDT    Sun Sep  9, 2001 16:59:17 PDT        
                                                                                
24012-L1811-01248.07      North Hollywood - Hwy 101 & Vineland    Chan  1:   0 D
eg                                                                              
24012-L1811-01248.07      North Hollywood - Hwy 101 & Vineland    Chan  1:   0 D
eg                                                                              
Units for spectra are inches and sec, except Sa is in fraction of g.            
                                                                                
    1  100    1    3    3  200    1    3    1   24   12 1811    024012    1    0
   23   59   17    0  252    9    9 2001   10    3    0 8000   39   36   72 -999
 8000    1   50    3 1811    1    7  400    1    0    0    0    0    0    0    0
    0    4    0    0 4000    2    0    0    0    0   72   36    0    0    0 4000
    0 4000   37   91    1    3    0    0    0    0    3    0    0    0    0    2
    2    2    4    0   32   99 -999   32   32    0    0    1    0    0    0    0
  -99   -1    0    0
      .010      .670    40.000      .003      .000   625.000      .033     6.095
   102.300      .298      .477      .000     5.000      .000      .000      .000
     2.500     2.512      .022     -.019     5.000    30.000      .000      .000
     -.002     -.002     2.000    15.000    34.148  -118.371      .023      .378
    16.630     -.020      .016  -999.000      .000      .000   -13.400      .000
  1000.000     1.016      .000      .000      .000      .000      .000      .000
     4.600     4.400      .000   980.665      .010    40.000    16.282      .000
      .000    40.000      .000    40.000      .010      .300      .000      .000
     6.090    31.763     5.720    -1.126     5.650      .052      .000      .300
    40.000      .010      .010      .000      .010      .023      .000      .000
      .143      .170      .096      .062      .004      .000      .000      .000
      .000      .000      .000      .000      .000      .000      .000      .000
      .000      .000      .000      .000
      .050
      .040      .042      .044      .046      .048      .050      .055      .060
      .065      .070      .075      .080      .085      .090      .095      .100
      .110      .120      .130      .140      .150      .160      .170      .180
      .190      .200      .220      .240      .260      .280      .300      .320
      .340      .360      .380      .400      .420      .440      .460      .480
      .500      .550      .600      .650      .700      .750      .800      .850
      .900      .950     1.000     1.100     1.200     1.300     1.400     1.500
     1.600     1.700     1.800     1.900     2.000     2.200     2.400     2.600
     2.800     3.000     3.200     3.400     3.600     3.800     4.000     4.200
     4.400     4.600     4.800     5.000     5.500     6.000     6.500     7.000
     7.500     8.000     8.500     9.000     9.500    10.000    11.000    12.000
    13.000    14.000    15.000      .000      .000      .000      .000      .000
      .000      .000      .000      .000
Fourier amplitude spectra in in/sec.
  .000E+00  .000E+00  .000E+00  .000E+00  .000E+00  .000E+00  .000E+00  .000E+00
  .000E+00  .000E+00  .000E+00  .000E+00  .000E+00  .000E+00  .000E+00  .000E+00
  .000E+00  .000E+00  .000E+00  .000E+00  .000E+00  .000E+00  .000E+00  .000E+00
  .000E+00  .000E+00  .000E+00  .000E+00  .000E+00  .000E+00  .000E+00  .000E+00
  .000E+00  .000E+00  .000E+00  .000E+00  .000E+00  .000E+00  .000E+00  .000E+00
  .000E+00  .000E+00  .000E+00  .000E+00  .000E+00  .000E+00  .000E+00  .000E+00
  .000E+00  .000E+00  .000E+00  .000E+00  .000E+00  .000E+00  .000E+00  .000E+00
  .000E+00  .000E+00  .000E+00  .000E+00  .000E+00  .000E+00  .000E+00  .000E+00
  .000E+00  .000E+00  .000E+00  .000E+00  .000E+00  .000E+00  .000E+00  .000E+00
  .000E+00  .000E+00  .000E+00  .000E+00  .000E+00  .000E+00  .000E+00  .000E+00
  .000E+00  .000E+00  .000E+00  .000E+00  .000E+00  .000E+00  .000E+00  .000E+00
  .000E+00  .000E+00  .000E+00  .000E+00  .000E+00  .000E+00  .000E+00  .000E+00
  .000E+00  .000E+00  .000E+00  .000E+00
Damping =  .05. Data of Sd,Sv,Sa,Pssv,ttSd,ttSv,ttSa :
  .640E-03  .741E-03  .885E-03  .102E-02  .114E-02  .122E-02  .176E-02  .257E-02
  .328E-02  .344E-02  .314E-02  .444E-02  .527E-02  .617E-02  .747E-02  .845E-02
  .106E-01  .105E-01  .151E-01  .236E-01  .284E-01  .338E-01  .404E-01  .433E-01
  .368E-01  .342E-01  .453E-01  .482E-01  .489E-01  .516E-01  .515E-01  .587E-01
  .608E-01  .570E-01  .509E-01  .443E-01  .442E-01  .447E-01  .451E-01  .445E-01
  .410E-01  .351E-01  .388E-01  .473E-01  .625E-01  .605E-01  .494E-01  .445E-01
  .445E-01  .392E-01  .364E-01  .381E-01  .385E-01  .419E-01  .420E-01  .419E-01
  .378E-01  .348E-01  .395E-01  .372E-01  .308E-01  .250E-01  .223E-01  .204E-01
  .204E-01  .194E-01  .207E-01  .216E-01  .221E-01  .224E-01  .225E-01  .224E-01
  .223E-01  .222E-01  .221E-01  .219E-01  .216E-01  .213E-01  .211E-01  .209E-01
  .208E-01  .208E-01  .207E-01  .206E-01  .206E-01  .206E-01  .206E-01  .206E-01
  .205E-01  .205E-01  .205E-01  .000E+00  .000E+00  .000E+00  .000E+00  .000E+00
  .000E+00  .000E+00  .000E+00  .000E+00
  .444E-01  .585E-01  .747E-01  .742E-01  .792E-01  .973E-01  .136E+00  .187E+00
  .252E+00  .230E+00  .186E+00  .269E+00  .336E+00  .397E+00  .467E+00  .498E+00
  .550E+00  .524E+00  .680E+00  .980E+00  .113E+01  .134E+01  .159E+01  .159E+01
  .135E+01  .111E+01  .131E+01  .120E+01  .121E+01  .126E+01  .138E+01  .133E+01
  .111E+01  .107E+01  .104E+01  .991E+00  .940E+00  .879E+00  .807E+00  .750E+00
  .769E+00  .718E+00  .657E+00  .657E+00  .648E+00  .611E+00  .566E+00  .526E+00
  .499E+00  .482E+00  .474E+00  .466E+00  .457E+00  .444E+00  .445E+00  .443E+00
  .437E+00  .428E+00  .420E+00  .426E+00  .433E+00  .445E+00  .453E+00  .456E+00
  .457E+00  .455E+00  .453E+00  .451E+00  .449E+00  .447E+00  .445E+00  .444E+00
  .443E+00  .442E+00  .442E+00  .441E+00  .441E+00  .440E+00  .440E+00  .440E+00
  .439E+00  .439E+00  .439E+00  .439E+00  .439E+00  .439E+00  .439E+00  .439E+00
  .439E+00  .439E+00  .439E+00  .000E+00  .000E+00  .000E+00  .000E+00  .000E+00
  .000E+00  .000E+00  .000E+00  .000E+00
  .409E-01  .432E-01  .466E-01  .495E-01  .506E-01  .499E-01  .597E-01  .736E-01
  .802E-01  .720E-01  .579E-01  .717E-01  .754E-01  .781E-01  .847E-01  .881E-01
  .900E-01  .753E-01  .921E-01  .124E+00  .130E+00  .136E+00  .143E+00  .137E+00
  .105E+00  .881E-01  .954E-01  .867E-01  .750E-01  .679E-01  .589E-01  .588E-01
  .540E-01  .453E-01  .362E-01  .286E-01  .257E-01  .238E-01  .220E-01  .199E-01
  .170E-01  .119E-01  .111E-01  .115E-01  .131E-01  .111E-01  .795E-02  .636E-02
  .569E-02  .448E-02  .374E-02  .325E-02  .275E-02  .257E-02  .220E-02  .193E-02
  .154E-02  .125E-02  .128E-02  .109E-02  .825E-03  .618E-03  .505E-03  .418E-03
  .348E-03  .334E-03  .317E-03  .298E-03  .278E-03  .259E-03  .242E-03  .225E-03
  .210E-03  .197E-03  .185E-03  .174E-03  .152E-03  .134E-03  .121E-03  .110E-03
  .101E-03  .934E-04  .868E-04  .811E-04  .760E-04  .716E-04  .641E-04  .585E-04
  .539E-04  .500E-04  .466E-04  .000E+00  .000E+00  .000E+00  .000E+00  .000E+00
  .000E+00  .000E+00  .000E+00  .000E+00
  .101E+00  .111E+00  .126E+00  .139E+00  .149E+00  .153E+00  .201E+00  .269E+00
  .317E+00  .308E+00  .263E+00  .348E+00  .390E+00  .431E+00  .494E+00  .531E+00
  .606E+00  .549E+00  .729E+00  .106E+01  .119E+01  .133E+01  .149E+01  .151E+01
  .122E+01  .108E+01  .129E+01  .126E+01  .118E+01  .116E+01  .108E+01  .115E+01
  .112E+01  .995E+00  .842E+00  .696E+00  .661E+00  .638E+00  .617E+00  .582E+00
  .516E+00  .401E+00  .407E+00  .457E+00  .561E+00  .507E+00  .388E+00  .329E+00
  .311E+00  .259E+00  .228E+00  .218E+00  .202E+00  .203E+00  .188E+00  .176E+00
  .149E+00  .128E+00  .138E+00  .123E+00  .968E-01  .714E-01  .584E-01  .493E-01
  .459E-01  .406E-01  .407E-01  .399E-01  .386E-01  .370E-01  .353E-01  .336E-01
  .319E-01  .303E-01  .289E-01  .275E-01  .246E-01  .223E-01  .204E-01  .188E-01
  .174E-01  .163E-01  .153E-01  .144E-01  .137E-01  .129E-01  .118E-01  .108E-01
  .992E-02  .921E-02  .861E-02  .000E+00  .000E+00  .000E+00  .000E+00  .000E+00
  .000E+00  .000E+00  .000E+00  .000E+00
  .563E+01  .563E+01  .564E+01  .564E+01  .564E+01  .564E+01  .564E+01  .564E+01
  .575E+01  .576E+01  .576E+01  .615E+01  .615E+01  .616E+01  .688E+01  .621E+01
  .623E+01  .623E+01  .623E+01  .624E+01  .625E+01  .626E+01  .620E+01  .613E+01
  .614E+01  .580E+01  .581E+01  .582E+01  .583E+01  .615E+01  .604E+01  .606E+01
  .607E+01  .608E+01  .609E+01  .610E+01  .596E+01  .597E+01  .597E+01  .598E+01
  .577E+01  .876E+01  .945E+01  .950E+01  .103E+02  .100E+02  .101E+02  .101E+02
  .101E+02  .978E+01  .982E+01  .135E+02  .136E+02  .126E+02  .121E+02  .116E+02
  .941E+01  .903E+01  .905E+01  .906E+01  .907E+01  .653E+01  .577E+01  .577E+01
  .906E+01  .564E+01  .564E+01  .564E+01  .564E+01  .564E+01  .564E+01  .564E+01
  .564E+01  .564E+01  .564E+01  .564E+01  .564E+01  .564E+01  .564E+01  .564E+01
  .564E+01  .564E+01  .564E+01  .564E+01  .564E+01  .564E+01  .564E+01  .564E+01
  .564E+01  .564E+01  .564E+01  .000E+00  .000E+00  .000E+00  .000E+00  .000E+00
  .000E+00  .000E+00  .000E+00  .000E+00
  .625E+01  .625E+01  .625E+01  .581E+01  .625E+01  .625E+01  .642E+01  .572E+01
  .573E+01  .574E+01  .575E+01  .617E+01  .618E+01  .618E+01  .690E+01  .619E+01
  .626E+01  .626E+01  .626E+01  .627E+01  .622E+01  .622E+01  .616E+01  .617E+01
  .610E+01  .585E+01  .586E+01  .577E+01  .578E+01  .579E+01  .611E+01  .612E+01
  .612E+01  .602E+01  .603E+01  .603E+01  .604E+01  .604E+01  .604E+01  .571E+01
  .571E+01  .571E+01  .571E+01  .571E+01  .571E+01  .571E+01  .571E+01  .571E+01
  .571E+01  .571E+01  .571E+01  .571E+01  .571E+01  .571E+01  .557E+01  .557E+01
  .557E+01  .557E+01  .571E+01  .571E+01  .571E+01  .571E+01  .571E+01  .571E+01
  .571E+01  .571E+01  .571E+01  .571E+01  .571E+01  .571E+01  .571E+01  .571E+01
  .571E+01  .571E+01  .571E+01  .571E+01  .571E+01  .571E+01  .571E+01  .571E+01
  .571E+01  .571E+01  .571E+01  .571E+01  .571E+01  .571E+01  .571E+01  .571E+01
  .571E+01  .571E+01  .571E+01  .000E+00  .000E+00  .000E+00  .000E+00  .000E+00
  .000E+00  .000E+00  .000E+00  .000E+00
  .563E+01  .563E+01  .564E+01  .564E+01  .564E+01  .564E+01  .564E+01  .564E+01
  .575E+01  .576E+01  .576E+01  .615E+01  .615E+01  .616E+01  .688E+01  .621E+01
  .622E+01  .623E+01  .623E+01  .624E+01  .625E+01  .626E+01  .619E+01  .613E+01
  .614E+01  .579E+01  .581E+01  .582E+01  .583E+01  .614E+01  .604E+01  .605E+01
  .607E+01  .608E+01  .608E+01  .609E+01  .596E+01  .596E+01  .597E+01  .597E+01
  .598E+01  .875E+01  .944E+01  .949E+01  .103E+02  .100E+02  .101E+02  .101E+02
  .101E+02  .976E+01  .981E+01  .135E+02  .136E+02  .125E+02  .121E+02  .115E+02
  .937E+01  .902E+01  .903E+01  .904E+01  .904E+01  .650E+01  .573E+01  .573E+01
  .573E+01  .561E+01  .561E+01  .561E+01  .561E+01  .561E+01  .561E+01  .561E+01
  .561E+01  .561E+01  .561E+01  .561E+01  .561E+01  .561E+01  .560E+01  .560E+01
  .560E+01  .560E+01  .560E+01  .560E+01  .560E+01  .560E+01  .560E+01  .572E+01
  .572E+01  .572E+01  .572E+01  .000E+00  .000E+00  .000E+00  .000E+00  .000E+00
  .000E+00  .000E+00  .000E+00  .000E+00
/&   ----------  End of spectral data for channel  1  ----------
Response and Fourier amplitude spectra (91 periods,  .04 - 15.0 sec)   for      
Corrected accelerogram   24012-L1811-01248.07       Chan  2:   0 Deg     from   
Uncorrected Accelerogram Data             Processed: 09/10/01, CDMG  012ca007   
Record of Sun Sep  9, 2001 16:59:17 PDT               (Avol1 v4.6  7/01 CSMIP)  
CSMIP Preliminary Processing            (Origin:  To be determined)             
24012-L1811-01248.07                 Start time:  9/09/01, 23:59:17.0 UTC (GPS) 
Station No. 24012   34.148N, 118.371W      Etna  s/n 1811  (3 Channels)         
North Hollywood - Hwy 101 & Vineland                                            
Chan  2:   0 Deg                                                                
Record of Sun Sep  9, 2001 16:59:17 PDT    Sun Sep  9, 2001 16:59:17 PDT        
Hypocenter:  To be determined.               ML:  To be determined.             
Instr Period =  .0106 sec,  Damping =  .670,  Sensitivity =  .63  v/g           
                        Record length = 40.000 sec.                             
                                     Uncor Max  =  -.043 g, at   5.045 sec.     
RMS accel of (uncor) record  =        .                                         
Accelerogram bandpass filtered with 3 dB pts at   .30 and 40.00 cyc/sec         
                 instrument- and baseline-corrected                             
                                                                                
                                                                                
                                                                                
                                                                                
                                                                                
Record of Sun Sep  9, 2001 16:59:17 PDT    Sun Sep  9, 2001 16:59:17 PDT        
                                                                                
24012-L1811-01248.07      North Hollywood - Hwy 101 & Vineland    Chan  2:   0 D
eg                                                                              
24012-L1811-01248.07      North Hollywood - Hwy 101 & Vineland    Chan  2:   0 D
eg                                                                              
Units for spectra are inches and sec, except Sa is in fraction of g.            
                                                                                
    2  100    2    3    3  200    1    3    1   24   12 1811    024012    1    0
   23   59   17    0  252    9    9 2001   10    3    0 8000   39   36   72 -999
 8000    1   50    3 1811    1    7  400    1    0    0    0    0    0    0    0
    0    4    0    0 4000    2    0    0    0    0   72   36    0    0    0 4000
    0 4000   37   91    1    3    0    0    0    0    3    0    0    0    0    2
    2    2    4    0   32   99 -999   32   32    0    0    1    0    0    0    0
  -99   -1    0    0
      .011      .670    40.000      .005      .000   625.000     -.043     5.045
    94.200      .298      .477      .000     5.000      .000      .000      .000
     2.500   -46.398     -.002     -.052     5.000    30.000      .000      .004
      .001     -.003     2.000    15.000    34.148  -118.371      .111      .275
     2.471     -.022      .016  -999.000      .000      .000   -13.400      .000
  1000.000    -1.023      .000      .000      .000      .000      .000      .000
     4.600     4.400      .000   980.665      .010    40.000    14.992      .000
      .000    40.000      .000    40.000      .010      .300      .000      .000
     5.040   -41.190     5.930     -.786     5.970     -.031      .000      .300
    40.000      .010      .010      .000      .010      .016      .000      .000
      .189      .070      .057      .050      .002      .000      .000      .000
      .000      .000      .000      .000      .000      .000      .000      .000
      .000      .000      .000      .000
      .050
      .040      .042      .044      .046      .048      .050      .055      .060
      .065      .070      .075      .080      .085      .090      .095      .100
      .110      .120      .130      .140      .150      .160      .170      .180
      .190      .200      .220      .240      .260      .280      .300      .320
      .340      .360      .380      .400      .420      .440      .460      .480
      .500      .550      .600      .650      .700      .750      .800      .850
      .900      .950     1.000     1.100     1.200     1.300     1.400     1.500
     1.600     1.700     1.800     1.900     2.000     2.200     2.400     2.600
     2.800     3.000     3.200     3.400     3.600     3.800     4.000     4.200
     4.400     4.600     4.800     5.000     5.500     6.000     6.500     7.000
     7.500     8.000     8.500     9.000     9.500    10.000    11.000    12.000
    13.000    14.000    15.000      .000      .000      .000      .000      .000
      .000      .000      .000      .000
Fourier amplitude spectra in in/sec.
  .000E+00  .000E+00  .000E+00  .000E+00  .000E+00  .000E+00  .000E+00  .000E+00
  .000E+00  .000E+00  .000E+00  .000E+00  .000E+00  .000E+00  .000E+00  .000E+00
  .000E+00  .000E+00  .000E+00  .000E+00  .000E+00  .000E+00  .000E+00  .000E+00
  .000E+00  .000E+00  .000E+00  .000E+00  .000E+00  .000E+00  .000E+00  .000E+00
  .000E+00  .000E+00  .000E+00  .000E+00  .000E+00  .000E+00  .000E+00  .000E+00
  .000E+00  .000E+00  .000E+00  .000E+00  .000E+00  .000E+00  .000E+00  .000E+00
  .000E+00  .000E+00  .000E+00  .000E+00  .000E+00  .000E+00  .000E+00  .000E+00
  .000E+00  .000E+00  .000E+00  .000E+00  .000E+00  .000E+00  .000E+00  .000E+00
  .000E+00  .000E+00  .000E+00  .000E+00  .000E+00  .000E+00  .000E+00  .000E+00
  .000E+00  .000E+00  .000E+00  .000E+00  .000E+00  .000E+00  .000E+00  .000E+00
  .000E+00  .000E+00  .000E+00  .000E+00  .000E+00  .000E+00  .000E+00  .000E+00
  .000E+00  .000E+00  .000E+00  .000E+00  .000E+00  .000E+00  .000E+00  .000E+00
  .000E+00  .000E+00  .000E+00  .000E+00
Damping =  .05. Data of Sd,Sv,Sa,Pssv,ttSd,ttSv,ttSa :
  .995E-03  .113E-02  .131E-02  .170E-02  .205E-02  .241E-02  .348E-02  .483E-02
  .714E-02  .891E-02  .935E-02  .108E-01  .981E-02  .852E-02  .900E-02  .969E-02
  .137E-01  .142E-01  .138E-01  .158E-01  .183E-01  .161E-01  .202E-01  .210E-01
  .199E-01  .246E-01  .237E-01  .255E-01  .357E-01  .399E-01  .459E-01  .454E-01
  .398E-01  .398E-01  .433E-01  .386E-01  .370E-01  .321E-01  .258E-01  .195E-01
