Response and Fourier amplitude spectra (91 periods,  .04 - 15.0 sec)   for      
Corrected accelerogram   24015-L1808-01250.01       Chan  1:   0 Deg     from   
Uncorrected Accelerogram Data             Processed: 09/10/01, CDMG  al008a     
Record of Sun Sep  9, 2001 16:59:19 PDT               (Avol1 v4.6  7/01 CSMIP)  
CSMIP Preliminary Processing            (Origin:  To be determined)             
24015-L1808-01250.01                 Start time:  9/09/01, 23:59:19.0 UTC (GPS) 
Station No. 24015   34.196N, 118.341W      Etna  s/n 1808  (3 Channels)         
Burbank - Thornton & Catalina                                                   
Chan  1:   0 Deg                                                                
Record of Sun Sep  9, 2001 16:59:19 PDT    Sun Sep  9, 2001 16:59:19 PDT        
Hypocenter:  To be determined.               ML:  To be determined.             
Instr Period =  .0104 sec,  Damping =  .670,  Sensitivity =  .63  v/g           
                        Record length = 38.000 sec.                             
                                     Uncor Max  =   .023 g, at   5.275 sec.     
RMS accel of (uncor) record  =        .                                         
Accelerogram bandpass filtered with 3 dB pts at   .30 and 40.00 cyc/sec         
                 instrument- and baseline-corrected                             
                                                                                
                                                                                
                                                                                
                                                                                
                                                                                
Record of Sun Sep  9, 2001 16:59:19 PDT    Sun Sep  9, 2001 16:59:19 PDT        
                                                                                
24015-L1808-01250.01      Burbank - Thornton & Catalina   Chan  1:   0 Deg      
                                                                                
24015-L1808-01250.01      Burbank - Thornton & Catalina   Chan  1:   0 Deg      
                                                                                
Units for spectra are inches and sec, except Sa is in fraction of g.            
                                                                                
    1  100    1    3    3  200    1    3    1   24   12 1808    024015    1    0
   23   59   19    0  252    9    9 2001   10    3    0 7600   39   29   72 -999
 7600    1   50    3 1808    1    1  380    1    0    0    0    0    0    0    0
    0    4    0    0 3800    2    0    0    0    0   72   29    0    0    0 3800
    0 3800   30   91    1    3    0    0    0    0    3    0    0    0    0    2
    2    2    4    0   32   99 -999   32   32    0    0    1    0    0    0    0
  -99   -1    0    0
      .010      .670    38.000      .002      .000   625.000      .023     5.275
    96.600      .298      .477      .000     5.000      .000      .000      .000
     2.500     5.145      .016     -.011     5.000    30.000      .000     -.006
      .000      .006     2.000    15.000    34.196  -118.341      .019      .309
    16.127     -.009      .021  -999.000      .000      .000   -13.400      .000
  1000.000     1.001      .000      .000      .000      .000      .000      .000
     4.600     4.400      .000   980.665      .010    38.000    15.374      .000
      .000    40.000      .000    38.000      .010      .300      .000      .000
     5.270    21.468     4.960      .809     5.020      .032     -.001      .300
    40.000      .010      .010      .000      .010      .015      .000      .000
      .070      .120      .048      .033      .003      .000      .000      .000
      .000      .000      .000      .000      .000      .000      .000      .000
      .000      .000      .000      .000
      .050
      .040      .042      .044      .046      .048      .050      .055      .060
      .065      .070      .075      .080      .085      .090      .095      .100
      .110      .120      .130      .140      .150      .160      .170      .180
      .190      .200      .220      .240      .260      .280      .300      .320
      .340      .360      .380      .400      .420      .440      .460      .480
      .500      .550      .600      .650      .700      .750      .800      .850
      .900      .950     1.000     1.100     1.200     1.300     1.400     1.500
     1.600     1.700     1.800     1.900     2.000     2.200     2.400     2.600
     2.800     3.000     3.200     3.400     3.600     3.800     4.000     4.200
     4.400     4.600     4.800     5.000     5.500     6.000     6.500     7.000
     7.500     8.000     8.500     9.000     9.500    10.000    11.000    12.000
    13.000    14.000    15.000      .000      .000      .000      .000      .000
      .000      .000      .000      .000
Fourier amplitude spectra in in/sec.
  .000E+00  .000E+00  .000E+00  .000E+00  .000E+00  .000E+00  .000E+00  .000E+00
  .000E+00  .000E+00  .000E+00  .000E+00  .000E+00  .000E+00  .000E+00  .000E+00
  .000E+00  .000E+00  .000E+00  .000E+00  .000E+00  .000E+00  .000E+00  .000E+00
  .000E+00  .000E+00  .000E+00  .000E+00  .000E+00  .000E+00  .000E+00  .000E+00
  .000E+00  .000E+00  .000E+00  .000E+00  .000E+00  .000E+00  .000E+00  .000E+00
  .000E+00  .000E+00  .000E+00  .000E+00  .000E+00  .000E+00  .000E+00  .000E+00
  .000E+00  .000E+00  .000E+00  .000E+00  .000E+00  .000E+00  .000E+00  .000E+00
  .000E+00  .000E+00  .000E+00  .000E+00  .000E+00  .000E+00  .000E+00  .000E+00
  .000E+00  .000E+00  .000E+00  .000E+00  .000E+00  .000E+00  .000E+00  .000E+00
  .000E+00  .000E+00  .000E+00  .000E+00  .000E+00  .000E+00  .000E+00  .000E+00
  .000E+00  .000E+00  .000E+00  .000E+00  .000E+00  .000E+00  .000E+00  .000E+00
  .000E+00  .000E+00  .000E+00  .000E+00  .000E+00  .000E+00  .000E+00  .000E+00
  .000E+00  .000E+00  .000E+00  .000E+00
Damping =  .05. Data of Sd,Sv,Sa,Pssv,ttSd,ttSv,ttSa :
  .438E-03  .496E-03  .564E-03  .666E-03  .774E-03  .877E-03  .121E-02  .159E-02
  .213E-02  .250E-02  .286E-02  .340E-02  .359E-02  .327E-02  .382E-02  .439E-02
  .655E-02  .977E-02  .924E-02  .104E-01  .108E-01  .122E-01  .173E-01  .202E-01
  .200E-01  .192E-01  .177E-01  .169E-01  .173E-01  .222E-01  .298E-01  .364E-01
  .365E-01  .355E-01  .358E-01  .370E-01  .366E-01  .352E-01  .331E-01  .320E-01
  .314E-01  .305E-01  .291E-01  .257E-01  .247E-01  .248E-01  .243E-01  .236E-01
  .279E-01  .274E-01  .281E-01  .242E-01  .207E-01  .176E-01  .161E-01  .163E-01
  .174E-01  .212E-01  .197E-01  .202E-01  .201E-01  .213E-01  .195E-01  .167E-01
  .159E-01  .161E-01  .163E-01  .165E-01  .167E-01  .168E-01  .168E-01  .167E-01
  .166E-01  .165E-01  .163E-01  .161E-01  .156E-01  .152E-01  .148E-01  .146E-01
  .144E-01  .142E-01  .141E-01  .141E-01  .140E-01  .140E-01  .140E-01  .140E-01
  .140E-01  .141E-01  .141E-01  .000E+00  .000E+00  .000E+00  .000E+00  .000E+00
  .000E+00  .000E+00  .000E+00  .000E+00
  .250E-01  .304E-01  .340E-01  .409E-01  .474E-01  .607E-01  .113E+00  .151E+00
  .194E+00  .214E+00  .184E+00  .222E+00  .235E+00  .222E+00  .247E+00  .230E+00
  .391E+00  .489E+00  .398E+00  .456E+00  .449E+00  .464E+00  .543E+00  .653E+00
  .666E+00  .638E+00  .485E+00  .451E+00  .438E+00  .520E+00  .688E+00  .782E+00
  .684E+00  .637E+00  .673E+00  .657E+00  .610E+00  .592E+00  .578E+00  .574E+00
  .584E+00  .553E+00  .448E+00  .376E+00  .343E+00  .317E+00  .315E+00  .313E+00
  .310E+00  .312E+00  .320E+00  .341E+00  .349E+00  .342E+00  .330E+00  .322E+00
  .319E+00  .320E+00  .322E+00  .325E+00  .327E+00  .327E+00  .326E+00  .323E+00
  .322E+00  .320E+00  .320E+00  .320E+00  .320E+00  .320E+00  .320E+00  .320E+00
  .320E+00  .321E+00  .321E+00  .320E+00  .320E+00  .320E+00  .320E+00  .319E+00
  .319E+00  .319E+00  .318E+00  .318E+00  .318E+00  .318E+00  .318E+00  .318E+00
  .318E+00  .318E+00  .318E+00  .000E+00  .000E+00  .000E+00  .000E+00  .000E+00
  .000E+00  .000E+00  .000E+00  .000E+00
  .281E-01  .287E-01  .297E-01  .322E-01  .343E-01  .360E-01  .415E-01  .456E-01
  .526E-01  .526E-01  .526E-01  .549E-01  .514E-01  .417E-01  .433E-01  .447E-01
  .564E-01  .697E-01  .571E-01  .542E-01  .497E-01  .486E-01  .619E-01  .647E-01
  .565E-01  .488E-01  .373E-01  .299E-01  .265E-01  .289E-01  .339E-01  .364E-01
  .324E-01  .281E-01  .256E-01  .238E-01  .215E-01  .187E-01  .162E-01  .143E-01
  .130E-01  .104E-01  .834E-02  .633E-02  .526E-02  .461E-02  .400E-02  .345E-02
  .355E-02  .312E-02  .289E-02  .207E-02  .157E-02  .117E-02  .948E-03  .848E-03
  .797E-03  .762E-03  .702E-03  .642E-03  .581E-03  .478E-03  .391E-03  .336E-03
  .298E-03  .270E-03  .248E-03  .229E-03  .212E-03  .197E-03  .184E-03  .172E-03
  .161E-03  .151E-03  .142E-03  .134E-03  .117E-03  .104E-03  .938E-04  .853E-04
  .782E-04  .723E-04  .673E-04  .629E-04  .591E-04  .558E-04  .501E-04  .457E-04
  .420E-04  .388E-04  .362E-04  .000E+00  .000E+00  .000E+00  .000E+00  .000E+00
  .000E+00  .000E+00  .000E+00  .000E+00
  .688E-01  .742E-01  .805E-01  .910E-01  .101E+00  .110E+00  .138E+00  .167E+00
  .206E+00  .224E+00  .240E+00  .267E+00  .265E+00  .228E+00  .253E+00  .276E+00
  .374E+00  .512E+00  .447E+00  .468E+00  .451E+00  .479E+00  .639E+00  .704E+00
  .662E+00  .603E+00  .507E+00  .443E+00  .419E+00  .497E+00  .623E+00  .714E+00
  .674E+00  .620E+00  .592E+00  .581E+00  .548E+00  .503E+00  .453E+00  .419E+00
  .395E+00  .349E+00  .304E+00  .249E+00  .222E+00  .208E+00  .191E+00  .174E+00
  .195E+00  .181E+00  .177E+00  .138E+00  .108E+00  .852E-01  .724E-01  .684E-01
  .682E-01  .784E-01  .688E-01  .668E-01  .633E-01  .608E-01  .510E-01  .402E-01
  .357E-01  .336E-01  .320E-01  .306E-01  .292E-01  .278E-01  .264E-01  .250E-01
  .237E-01  .225E-01  .213E-01  .202E-01  .178E-01  .159E-01  .143E-01  .131E-01
  .120E-01  .112E-01  .105E-01  .982E-02  .928E-02  .879E-02  .799E-02  .733E-02
  .678E-02  .631E-02  .591E-02  .000E+00  .000E+00  .000E+00  .000E+00  .000E+00
  .000E+00  .000E+00  .000E+00  .000E+00
  .527E+01  .527E+01  .527E+01  .527E+01  .528E+01  .536E+01  .536E+01  .543E+01
  .557E+01  .562E+01  .528E+01  .528E+01  .530E+01  .530E+01  .500E+01  .500E+01
  .563E+01  .537E+01  .539E+01  .502E+01  .502E+01  .503E+01  .538E+01  .540E+01
  .541E+01  .553E+01  .555E+01  .506E+01  .506E+01  .556E+01  .558E+01  .546E+01
  .548E+01  .549E+01  .550E+01  .535E+01  .536E+01  .536E+01  .537E+01  .537E+01
  .538E+01  .523E+01  .525E+01  .525E+01  .526E+01  .526E+01  .526E+01  .526E+01
  .128E+02  .129E+02  .130E+02  .126E+02  .501E+01  .501E+01  .501E+01  .500E+01
  .500E+01  .126E+02  .147E+02  .684E+01  .685E+01  .808E+01  .809E+01  .810E+01
  .501E+01  .501E+01  .501E+01  .501E+01  .501E+01  .501E+01  .501E+01  .501E+01
  .501E+01  .501E+01  .501E+01  .501E+01  .501E+01  .501E+01  .501E+01  .501E+01
  .501E+01  .501E+01  .501E+01  .501E+01  .501E+01  .501E+01  .501E+01  .501E+01
  .501E+01  .501E+01  .501E+01  .000E+00  .000E+00  .000E+00  .000E+00  .000E+00
  .000E+00  .000E+00  .000E+00  .000E+00
  .554E+01  .554E+01  .544E+01  .544E+01  .529E+01  .538E+01  .544E+01  .545E+01
  .559E+01  .560E+01  .530E+01  .531E+01  .532E+01  .601E+01  .602E+01  .570E+01
  .566E+01  .540E+01  .505E+01  .505E+01  .506E+01  .506E+01  .542E+01  .536E+01
  .537E+01  .557E+01  .559E+01  .501E+01  .501E+01  .501E+01  .552E+01  .553E+01
  .554E+01  .542E+01  .543E+01  .544E+01  .544E+01  .529E+01  .530E+01  .530E+01
  .530E+01  .531E+01  .532E+01  .532E+01  .532E+01  .495E+01  .495E+01  .495E+01
  .495E+01  .495E+01  .495E+01  .495E+01  .495E+01  .495E+01  .495E+01  .495E+01
  .495E+01  .495E+01  .495E+01  .495E+01  .495E+01  .495E+01  .495E+01  .495E+01
  .495E+01  .495E+01  .495E+01  .495E+01  .495E+01  .495E+01  .495E+01  .495E+01
  .495E+01  .495E+01  .495E+01  .495E+01  .495E+01  .495E+01  .495E+01  .495E+01
  .495E+01  .495E+01  .495E+01  .495E+01  .495E+01  .495E+01  .495E+01  .495E+01
  .495E+01  .495E+01  .495E+01  .000E+00  .000E+00  .000E+00  .000E+00  .000E+00
  .000E+00  .000E+00  .000E+00  .000E+00
  .527E+01  .527E+01  .527E+01  .527E+01  .527E+01  .536E+01  .536E+01  .543E+01
  .557E+01  .561E+01  .528E+01  .528E+01  .529E+01  .530E+01  .500E+01  .500E+01
  .563E+01  .537E+01  .538E+01  .502E+01  .502E+01  .502E+01  .538E+01  .539E+01
  .540E+01  .552E+01  .555E+01  .505E+01  .506E+01  .556E+01  .557E+01  .546E+01
  .547E+01  .549E+01  .550E+01  .534E+01  .535E+01  .536E+01  .536E+01  .536E+01
  .537E+01  .522E+01  .524E+01  .525E+01  .525E+01  .525E+01  .525E+01  .525E+01
  .128E+02  .129E+02  .129E+02  .498E+01  .499E+01  .498E+01  .498E+01  .498E+01
  .498E+01  .126E+02  .498E+01  .498E+01  .498E+01  .805E+01  .497E+01  .497E+01
  .497E+01  .497E+01  .497E+01  .497E+01  .497E+01  .496E+01  .496E+01  .496E+01
  .496E+01  .496E+01  .496E+01  .496E+01  .496E+01  .496E+01  .496E+01  .496E+01
  .496E+01  .496E+01  .496E+01  .496E+01  .496E+01  .496E+01  .496E+01  .495E+01
  .495E+01  .495E+01  .495E+01  .000E+00  .000E+00  .000E+00  .000E+00  .000E+00
  .000E+00  .000E+00  .000E+00  .000E+00
/&   ----------  End of spectral data for channel  1  ----------
Response and Fourier amplitude spectra (91 periods,  .04 - 15.0 sec)   for      
Corrected accelerogram   24015-L1808-01250.01       Chan  2:   0 Deg     from   
Uncorrected Accelerogram Data             Processed: 09/10/01, CDMG  al008a     
Record of Sun Sep  9, 2001 16:59:19 PDT               (Avol1 v4.6  7/01 CSMIP)  
CSMIP Preliminary Processing            (Origin:  To be determined)             
24015-L1808-01250.01                 Start time:  9/09/01, 23:59:19.0 UTC (GPS) 
Station No. 24015   34.196N, 118.341W      Etna  s/n 1808  (3 Channels)         
Burbank - Thornton & Catalina                                                   
Chan  2:   0 Deg                                                                
Record of Sun Sep  9, 2001 16:59:19 PDT    Sun Sep  9, 2001 16:59:19 PDT        
Hypocenter:  To be determined.               ML:  To be determined.             
Instr Period =  .0108 sec,  Damping =  .680,  Sensitivity =  .63  v/g           
                        Record length = 38.000 sec.                             
                                     Uncor Max  =   .016 g, at   4.760 sec.     
RMS accel of (uncor) record  =        .                                         
Accelerogram bandpass filtered with 3 dB pts at   .30 and 40.00 cyc/sec         
                 instrument- and baseline-corrected                             
                                                                                
                                                                                
                                                                                
                                                                                
                                                                                
Record of Sun Sep  9, 2001 16:59:19 PDT    Sun Sep  9, 2001 16:59:19 PDT        
                                                                                
24015-L1808-01250.01      Burbank - Thornton & Catalina   Chan  2:   0 Deg      
                                                                                
24015-L1808-01250.01      Burbank - Thornton & Catalina   Chan  2:   0 Deg      
                                                                                
Units for spectra are inches and sec, except Sa is in fraction of g.            
                                                                                
    2  100    2    3    3  200    1    3    1   24   12 1808    024015    1    0
   23   59   19    0  252    9    9 2001   10    3    0 7600   39   29   72 -999
 7600    1   50    3 1808    1    1  380    1    0    0    0    0    0    0    0
    0    4    0    0 3800    2    0    0    0    0   72   29    0    0    0 3800
    0 3800   30   91    1    3    0    0    0    0    3    0    0    0    0    2
    2    2    4    0   32   99 -999   32   32    0    0    1    0    0    0    0
  -99   -1    0    0
      .011      .680    38.000      .002      .000   625.000      .016     4.760
    92.800      .298      .477      .000     5.000      .000      .000      .000
     2.500   -24.284     -.006     -.025     5.000    30.000      .000     -.018
      .002      .019     2.000    15.000    34.196  -118.341      .083      .167
     2.018      .006      .033  -999.000      .000      .000   -13.400      .000
  1000.000     1.010      .000      .000      .000      .000      .000      .000
     4.600     4.400      .000   980.665      .010    38.000    14.770      .000
      .000    40.000      .000    38.000      .010      .300      .000      .000
     4.710   -14.626     4.680      .287     2.210     -.015      .000      .300
    40.000      .010      .010      .000      .010      .010      .000      .000
      .058      .110      .017      .017      .002      .000      .000      .000
      .000      .000      .000      .000      .000      .000      .000      .000
      .000      .000      .000      .000
      .050
      .040      .042      .044      .046      .048      .050      .055      .060
      .065      .070      .075      .080      .085      .090      .095      .100
      .110      .120      .130      .140      .150      .160      .170      .180
      .190      .200      .220      .240      .260      .280      .300      .320
      .340      .360      .380      .400      .420      .440      .460      .480
      .500      .550      .600      .650      .700      .750      .800      .850
      .900      .950     1.000     1.100     1.200     1.300     1.400     1.500
     1.600     1.700     1.800     1.900     2.000     2.200     2.400     2.600
     2.800     3.000     3.200     3.400     3.600     3.800     4.000     4.200
     4.400     4.600     4.800     5.000     5.500     6.000     6.500     7.000
     7.500     8.000     8.500     9.000     9.500    10.000    11.000    12.000
    13.000    14.000    15.000      .000      .000      .000      .000      .000
      .000      .000      .000      .000
Fourier amplitude spectra in in/sec.
  .000E+00  .000E+00  .000E+00  .000E+00  .000E+00  .000E+00  .000E+00  .000E+00
  .000E+00  .000E+00  .000E+00  .000E+00  .000E+00  .000E+00  .000E+00  .000E+00
  .000E+00  .000E+00  .000E+00  .000E+00  .000E+00  .000E+00  .000E+00  .000E+00
  .000E+00  .000E+00  .000E+00  .000E+00  .000E+00  .000E+00  .000E+00  .000E+00
  .000E+00  .000E+00  .000E+00  .000E+00  .000E+00  .000E+00  .000E+00  .000E+00
  .000E+00  .000E+00  .000E+00  .000E+00  .000E+00  .000E+00  .000E+00  .000E+00
  .000E+00  .000E+00  .000E+00  .000E+00  .000E+00  .000E+00  .000E+00  .000E+00
  .000E+00  .000E+00  .000E+00  .000E+00  .000E+00  .000E+00  .000E+00  .000E+00
  .000E+00  .000E+00  .000E+00  .000E+00  .000E+00  .000E+00  .000E+00  .000E+00
  .000E+00  .000E+00  .000E+00  .000E+00  .000E+00  .000E+00  .000E+00  .000E+00
  .000E+00  .000E+00  .000E+00  .000E+00  .000E+00  .000E+00  .000E+00  .000E+00
  .000E+00  .000E+00  .000E+00  .000E+00  .000E+00  .000E+00  .000E+00  .000E+00
  .000E+00  .000E+00  .000E+00  .000E+00
Damping =  .05. Data of Sd,Sv,Sa,Pssv,ttSd,ttSv,ttSa :
  .386E-03  .415E-03  .477E-03  .498E-03  .575E-03  .714E-03  .104E-02  .112E-02
  .130E-02  .214E-02  .201E-02  .278E-02  .295E-02  .313E-02  .328E-02  .347E-02
  .676E-02  .785E-02  .717E-02  .663E-02  .485E-02  .469E-02  .474E-02  .619E-02
  .627E-02  .653E-02  .769E-02  .103E-01  .138E-01  .141E-01  .150E-01  .164E-01
  .157E-01  .149E-01  .129E-01  .142E-01  .150E-01  .135E-01  .137E-01  .125E-01
