Response and Fourier amplitude spectra (91 periods,  .04 - 15.0 sec)   for      
Corrected accelerogram   24014-L1795-01252.05       Chan  1:   0 Deg     from   
Uncorrected Accelerogram Data             Processed: 09/10/01, CDMG  014at005   
Record of Sun Sep  9, 2001 16:59:18 PDT               (Avol1 v4.6  7/01 CSMIP)  
CSMIP Preliminary Processing            (Origin:  To be determined)             
24014-L1795-01252.05                 Start time:  9/09/01, 23:59:18.0 UTC (GPS) 
Station No. 24014   34.045N, 118.522W      Etna  s/n 1795  (3 Channels)         
Pacific Palisades - Sunset & Carey                                              
Chan  1:   0 Deg                                                                
Record of Sun Sep  9, 2001 16:59:18 PDT    Sun Sep  9, 2001 16:59:18 PDT        
Hypocenter:  To be determined.               ML:  To be determined.             
Instr Period =  .0106 sec,  Damping =  .660,  Sensitivity =  .63  v/g           
                        Record length = 40.000 sec.                             
                                     Uncor Max  =   .019 g, at   7.020 sec.     
RMS accel of (uncor) record  =        .                                         
Accelerogram bandpass filtered with 3 dB pts at   .30 and 40.00 cyc/sec         
                 instrument- and baseline-corrected                             
                                                                                
                                                                                
                                                                                
                                                                                
                                                                                
Record of Sun Sep  9, 2001 16:59:18 PDT    Sun Sep  9, 2001 16:59:18 PDT        
                                                                                
24014-L1795-01252.05      Pacific Palisades - Sunset & Carey    Chan  1:   0 Deg
                                                                                
24014-L1795-01252.05      Pacific Palisades - Sunset & Carey    Chan  1:   0 Deg
                                                                                
Units for spectra are inches and sec, except Sa is in fraction of g.            
                                                                                
    1  100    1    3    3  200    1    3    1   24   12 1795    024014    1    0
   23   59   18    0  252    9    9 2001   10    3    0 8000   39   34   72 -999
 8000    1   50    3 1795    1    5  400    1    0    0    0    0    0    0    0
    0    4    0    0 4000    2    0    0    0    0   72   34    0    0    0 4000
    0 4000   35   91    1    3    0    0    0    0    3    0    0    0    0    2
    2    2    4    0   32   99 -999   32   32    0    0    1    0    0    0    0
  -99   -1    0    0
      .011      .660    40.000      .002      .000   625.000      .019     7.020
    94.400      .298      .477      .000     5.000      .000      .000      .000
     2.500   -11.263      .002     -.019     5.000    30.000      .000     -.005
     -.004      .001     2.000    15.000    34.045  -118.522      .014      .331
    23.395     -.015      .017  -999.000      .000      .000   -13.400      .000
  1000.000    -1.038      .000      .000      .000      .000      .000      .000
     4.600     4.400      .000   980.665      .010    40.000    15.024      .000
      .000    40.000      .000    40.000      .010      .300      .000      .000
     7.020    18.813     5.810     -.975     5.610      .116      .000      .300
    40.000      .010      .010      .000      .010      .026      .000      .000
      .076      .220      .065      .039      .011      .001      .000      .000
      .000      .000      .000      .000      .000      .000      .000      .000
      .000      .000      .000      .000
      .050
      .040      .042      .044      .046      .048      .050      .055      .060
      .065      .070      .075      .080      .085      .090      .095      .100
      .110      .120      .130      .140      .150      .160      .170      .180
      .190      .200      .220      .240      .260      .280      .300      .320
      .340      .360      .380      .400      .420      .440      .460      .480
      .500      .550      .600      .650      .700      .750      .800      .850
      .900      .950     1.000     1.100     1.200     1.300     1.400     1.500
     1.600     1.700     1.800     1.900     2.000     2.200     2.400     2.600
     2.800     3.000     3.200     3.400     3.600     3.800     4.000     4.200
     4.400     4.600     4.800     5.000     5.500     6.000     6.500     7.000
     7.500     8.000     8.500     9.000     9.500    10.000    11.000    12.000
    13.000    14.000    15.000      .000      .000      .000      .000      .000
      .000      .000      .000      .000
Fourier amplitude spectra in in/sec.
  .000E+00  .000E+00  .000E+00  .000E+00  .000E+00  .000E+00  .000E+00  .000E+00
  .000E+00  .000E+00  .000E+00  .000E+00  .000E+00  .000E+00  .000E+00  .000E+00
  .000E+00  .000E+00  .000E+00  .000E+00  .000E+00  .000E+00  .000E+00  .000E+00
  .000E+00  .000E+00  .000E+00  .000E+00  .000E+00  .000E+00  .000E+00  .000E+00
  .000E+00  .000E+00  .000E+00  .000E+00  .000E+00  .000E+00  .000E+00  .000E+00
  .000E+00  .000E+00  .000E+00  .000E+00  .000E+00  .000E+00  .000E+00  .000E+00
  .000E+00  .000E+00  .000E+00  .000E+00  .000E+00  .000E+00  .000E+00  .000E+00
  .000E+00  .000E+00  .000E+00  .000E+00  .000E+00  .000E+00  .000E+00  .000E+00
  .000E+00  .000E+00  .000E+00  .000E+00  .000E+00  .000E+00  .000E+00  .000E+00
  .000E+00  .000E+00  .000E+00  .000E+00  .000E+00  .000E+00  .000E+00  .000E+00
  .000E+00  .000E+00  .000E+00  .000E+00  .000E+00  .000E+00  .000E+00  .000E+00
  .000E+00  .000E+00  .000E+00  .000E+00  .000E+00  .000E+00  .000E+00  .000E+00
  .000E+00  .000E+00  .000E+00  .000E+00
Damping =  .05. Data of Sd,Sv,Sa,Pssv,ttSd,ttSv,ttSa :
  .323E-03  .361E-03  .404E-03  .459E-03  .504E-03  .528E-03  .670E-03  .831E-03
  .113E-02  .168E-02  .213E-02  .199E-02  .203E-02  .290E-02  .381E-02  .427E-02
  .429E-02  .570E-02  .595E-02  .628E-02  .767E-02  .110E-01  .141E-01  .159E-01
  .208E-01  .236E-01  .362E-01  .287E-01  .233E-01  .297E-01  .323E-01  .411E-01
  .418E-01  .407E-01  .397E-01  .407E-01  .397E-01  .447E-01  .589E-01  .748E-01
  .789E-01  .689E-01  .749E-01  .785E-01  .799E-01  .796E-01  .792E-01  .862E-01
  .102E+00  .117E+00  .126E+00  .918E-01  .913E-01  .837E-01  .899E-01  .921E-01
  .967E-01  .892E-01  .833E-01  .806E-01  .743E-01  .596E-01  .600E-01  .601E-01
  .599E-01  .597E-01  .594E-01  .590E-01  .586E-01  .583E-01  .579E-01  .575E-01
  .571E-01  .567E-01  .563E-01  .559E-01  .550E-01  .543E-01  .537E-01  .532E-01
  .528E-01  .524E-01  .522E-01  .520E-01  .518E-01  .517E-01  .515E-01  .513E-01
  .512E-01  .512E-01  .511E-01  .000E+00  .000E+00  .000E+00  .000E+00  .000E+00
  .000E+00  .000E+00  .000E+00  .000E+00
  .121E-01  .125E-01  .165E-01  .183E-01  .207E-01  .240E-01  .329E-01  .513E-01
  .624E-01  .101E+00  .139E+00  .132E+00  .128E+00  .175E+00  .221E+00  .240E+00
  .219E+00  .243E+00  .247E+00  .251E+00  .279E+00  .356E+00  .441E+00  .477E+00
  .598E+00  .663E+00  .966E+00  .712E+00  .547E+00  .636E+00  .663E+00  .829E+00
  .809E+00  .731E+00  .626E+00  .585E+00  .619E+00  .702E+00  .758E+00  .982E+00
  .103E+01  .769E+00  .824E+00  .845E+00  .817E+00  .753E+00  .730E+00  .625E+00
  .782E+00  .921E+00  .792E+00  .619E+00  .605E+00  .609E+00  .604E+00  .594E+00
  .581E+00  .568E+00  .555E+00  .542E+00  .530E+00  .509E+00  .490E+00  .475E+00
  .462E+00  .451E+00  .443E+00  .435E+00  .429E+00  .424E+00  .420E+00  .416E+00
  .413E+00  .411E+00  .408E+00  .406E+00  .402E+00  .400E+00  .398E+00  .396E+00
  .395E+00  .394E+00  .393E+00  .393E+00  .392E+00  .392E+00  .391E+00  .391E+00
  .390E+00  .390E+00  .390E+00  .000E+00  .000E+00  .000E+00  .000E+00  .000E+00
  .000E+00  .000E+00  .000E+00  .000E+00
  .207E-01  .209E-01  .214E-01  .222E-01  .224E-01  .216E-01  .227E-01  .237E-01
  .275E-01  .353E-01  .393E-01  .318E-01  .289E-01  .371E-01  .431E-01  .430E-01
  .361E-01  .408E-01  .362E-01  .333E-01  .352E-01  .442E-01  .502E-01  .502E-01
  .587E-01  .600E-01  .763E-01  .511E-01  .354E-01  .391E-01  .367E-01  .411E-01
  .373E-01  .323E-01  .282E-01  .261E-01  .231E-01  .238E-01  .286E-01  .334E-01
  .325E-01  .234E-01  .214E-01  .191E-01  .168E-01  .145E-01  .127E-01  .123E-01
  .129E-01  .133E-01  .130E-01  .781E-02  .656E-02  .512E-02  .473E-02  .424E-02
  .388E-02  .320E-02  .266E-02  .230E-02  .192E-02  .133E-02  .113E-02  .974E-03
  .846E-03  .741E-03  .655E-03  .584E-03  .524E-03  .474E-03  .431E-03  .394E-03
  .361E-03  .333E-03  .308E-03  .286E-03  .242E-03  .209E-03  .183E-03  .162E-03
  .145E-03  .131E-03  .120E-03  .110E-03  .102E-03  .946E-04  .828E-04  .735E-04
  .660E-04  .598E-04  .546E-04  .000E+00  .000E+00  .000E+00  .000E+00  .000E+00
  .000E+00  .000E+00  .000E+00  .000E+00
  .508E-01  .541E-01  .577E-01  .626E-01  .659E-01  .663E-01  .766E-01  .870E-01
  .109E+00  .151E+00  .178E+00  .156E+00  .150E+00  .203E+00  .252E+00  .269E+00
  .245E+00  .298E+00  .288E+00  .282E+00  .321E+00  .432E+00  .520E+00  .555E+00
  .688E+00  .740E+00  .103E+01  .752E+00  .563E+00  .667E+00  .676E+00  .806E+00
  .772E+00  .711E+00  .656E+00  .639E+00  .594E+00  .638E+00  .804E+00  .979E+00
  .991E+00  .788E+00  .784E+00  .759E+00  .717E+00  .667E+00  .622E+00  .637E+00
  .712E+00  .775E+00  .789E+00  .524E+00  .478E+00  .404E+00  .404E+00  .386E+00
  .380E+00  .330E+00  .291E+00  .266E+00  .233E+00  .170E+00  .157E+00  .145E+00
  .134E+00  .125E+00  .117E+00  .109E+00  .102E+00  .963E-01  .909E-01  .860E-01
  .815E-01  .774E-01  .737E-01  .703E-01  .629E-01  .569E-01  .519E-01  .477E-01
  .442E-01  .412E-01  .386E-01  .363E-01  .343E-01  .325E-01  .294E-01  .269E-01
  .248E-01  .230E-01  .214E-01  .000E+00  .000E+00  .000E+00  .000E+00  .000E+00
  .000E+00  .000E+00  .000E+00  .000E+00
  .701E+01  .702E+01  .701E+01  .702E+01  .702E+01  .702E+01  .701E+01  .701E+01
  .701E+01  .634E+01  .636E+01  .703E+01  .669E+01  .669E+01  .670E+01  .671E+01
  .678E+01  .710E+01  .711E+01  .680E+01  .690E+01  .711E+01  .713E+01  .713E+01
  .714E+01  .715E+01  .717E+01  .720E+01  .734E+01  .751E+01  .753E+01  .755E+01
  .742E+01  .743E+01  .785E+01  .788E+01  .568E+01  .663E+01  .790E+01  .794E+01
  .798E+01  .604E+01  .608E+01  .612E+01  .615E+01  .619E+01  .622E+01  .712E+01
  .908E+01  .921E+01  .103E+02  .646E+01  .649E+01  .594E+01  .889E+01  .836E+01
  .844E+01  .848E+01  .788E+01  .793E+01  .796E+01  .558E+01  .558E+01  .559E+01
  .559E+01  .559E+01  .559E+01  .559E+01  .559E+01  .559E+01  .559E+01  .559E+01
  .559E+01  .560E+01  .560E+01  .560E+01  .560E+01  .560E+01  .560E+01  .560E+01
  .560E+01  .560E+01  .560E+01  .560E+01  .560E+01  .560E+01  .560E+01  .560E+01
  .560E+01  .560E+01  .560E+01  .000E+00  .000E+00  .000E+00  .000E+00  .000E+00
  .000E+00  .000E+00  .000E+00  .000E+00
  .705E+01  .705E+01  .579E+01  .652E+01  .652E+01  .598E+01  .602E+01  .603E+01
  .603E+01  .632E+01  .637E+01  .706E+01  .666E+01  .667E+01  .668E+01  .673E+01
  .675E+01  .707E+01  .639E+01  .640E+01  .686E+01  .707E+01  .743E+01  .745E+01
  .709E+01  .720E+01  .722E+01  .715E+01  .603E+01  .745E+01  .746E+01  .747E+01
  .749E+01  .751E+01  .753E+01  .837E+01  .693E+01  .652E+01  .108E+02  .782E+01
  .785E+01  .592E+01  .595E+01  .597E+01  .597E+01  .598E+01  .721E+01  .727E+01
  .933E+01  .104E+02  .898E+01  .770E+01  .579E+01  .580E+01  .580E+01  .580E+01
  .580E+01  .580E+01  .580E+01  .580E+01  .580E+01  .580E+01  .580E+01  .580E+01
  .580E+01  .580E+01  .580E+01  .580E+01  .580E+01  .580E+01  .580E+01  .580E+01
  .580E+01  .580E+01  .580E+01  .580E+01  .580E+01  .580E+01  .580E+01  .580E+01
  .580E+01  .580E+01  .580E+01  .580E+01  .580E+01  .580E+01  .580E+01  .580E+01
  .580E+01  .580E+01  .580E+01  .000E+00  .000E+00  .000E+00  .000E+00  .000E+00
  .000E+00  .000E+00  .000E+00  .000E+00
  .701E+01  .701E+01  .701E+01  .702E+01  .702E+01  .701E+01  .701E+01  .701E+01
  .701E+01  .634E+01  .635E+01  .703E+01  .669E+01  .669E+01  .670E+01  .671E+01
  .678E+01  .710E+01  .711E+01  .680E+01  .690E+01  .711E+01  .712E+01  .713E+01
  .714E+01  .714E+01  .717E+01  .720E+01  .733E+01  .751E+01  .752E+01  .755E+01
  .741E+01  .742E+01  .785E+01  .788E+01  .567E+01  .662E+01  .790E+01  .793E+01
  .797E+01  .604E+01  .607E+01  .611E+01  .614E+01  .618E+01  .621E+01  .711E+01
  .906E+01  .919E+01  .103E+02  .644E+01  .647E+01  .592E+01  .887E+01  .833E+01
  .842E+01  .845E+01  .784E+01  .790E+01  .793E+01  .554E+01  .554E+01  .554E+01
  .554E+01  .554E+01  .554E+01  .554E+01  .553E+01  .553E+01  .553E+01  .553E+01
  .553E+01  .553E+01  .553E+01  .553E+01  .552E+01  .552E+01  .552E+01  .552E+01
  .552E+01  .551E+01  .551E+01  .551E+01  .551E+01  .551E+01  .551E+01  .551E+01
  .551E+01  .551E+01  .551E+01  .000E+00  .000E+00  .000E+00  .000E+00  .000E+00
  .000E+00  .000E+00  .000E+00  .000E+00
/&   ----------  End of spectral data for channel  1  ----------
Response and Fourier amplitude spectra (91 periods,  .04 - 15.0 sec)   for      
Corrected accelerogram   24014-L1795-01252.05       Chan  2:   0 Deg     from   
Uncorrected Accelerogram Data             Processed: 09/10/01, CDMG  014at005   
Record of Sun Sep  9, 2001 16:59:18 PDT               (Avol1 v4.6  7/01 CSMIP)  
CSMIP Preliminary Processing            (Origin:  To be determined)             
24014-L1795-01252.05                 Start time:  9/09/01, 23:59:18.0 UTC (GPS) 
Station No. 24014   34.045N, 118.522W      Etna  s/n 1795  (3 Channels)         
Pacific Palisades - Sunset & Carey                                              
Chan  2:   0 Deg                                                                
Record of Sun Sep  9, 2001 16:59:18 PDT    Sun Sep  9, 2001 16:59:18 PDT        
Hypocenter:  To be determined.               ML:  To be determined.             
Instr Period =  .0104 sec,  Damping =  .680,  Sensitivity =  .63  v/g           
                        Record length = 40.000 sec.                             
                                     Uncor Max  =  -.013 g, at   6.360 sec.     
RMS accel of (uncor) record  =        .                                         
Accelerogram bandpass filtered with 3 dB pts at   .30 and 40.00 cyc/sec         
                 instrument- and baseline-corrected                             
                                                                                
                                                                                
                                                                                
                                                                                
                                                                                
Record of Sun Sep  9, 2001 16:59:18 PDT    Sun Sep  9, 2001 16:59:18 PDT        
                                                                                
24014-L1795-01252.05      Pacific Palisades - Sunset & Carey    Chan  2:   0 Deg
                                                                                
24014-L1795-01252.05      Pacific Palisades - Sunset & Carey    Chan  2:   0 Deg
                                                                                
Units for spectra are inches and sec, except Sa is in fraction of g.            
                                                                                
    2  100    2    3    3  200    1    3    1   24   12 1795    024014    1    0
   23   59   18    0  252    9    9 2001   10    3    0 8000   39   34   72 -999
 8000    1   50    3 1795    1    5  400    1    0    0    0    0    0    0    0
    0    4    0    0 4000    2    0    0    0    0   72   34    0    0    0 4000
    0 4000   35   91    1    3    0    0    0    0    3    0    0    0    0    2
    2    2    4    0   32   99 -999   32   32    0    0    1    0    0    0    0
  -99   -1    0    0
      .010      .680    40.000      .002      .000   625.000     -.013     6.360
    95.700      .298      .477      .000     5.000      .000      .000      .000
     2.500   -27.630     -.009     -.024     5.000    30.000      .000     -.003
      .000      .003     2.000    15.000    34.045  -118.522      .033      .188
     5.746     -.007      .012  -999.000      .000      .000   -13.400      .000
  1000.000    -1.001      .000      .000      .000      .000      .000      .000
     4.600     4.400      .000   980.665      .010    40.000    15.231      .000
      .000    40.000      .000    40.000      .010      .300      .000      .000
     6.360   -12.876     6.060     -.475     5.900      .055      .000      .300
    40.000      .010      .010      .000      .010      .017      .000      .000
      .047      .220      .044      .019      .003      .000      .000      .000
      .000      .000      .000      .000      .000      .000      .000      .000
      .000      .000      .000      .000
      .050
      .040      .042      .044      .046      .048      .050      .055      .060
      .065      .070      .075      .080      .085      .090      .095      .100
      .110      .120      .130      .140      .150      .160      .170      .180
      .190      .200      .220      .240      .260      .280      .300      .320
      .340      .360      .380      .400      .420      .440      .460      .480
      .500      .550      .600      .650      .700      .750      .800      .850
      .900      .950     1.000     1.100     1.200     1.300     1.400     1.500
     1.600     1.700     1.800     1.900     2.000     2.200     2.400     2.600
     2.800     3.000     3.200     3.400     3.600     3.800     4.000     4.200
     4.400     4.600     4.800     5.000     5.500     6.000     6.500     7.000
     7.500     8.000     8.500     9.000     9.500    10.000    11.000    12.000
    13.000    14.000    15.000      .000      .000      .000      .000      .000
      .000      .000      .000      .000
Fourier amplitude spectra in in/sec.
  .000E+00  .000E+00  .000E+00  .000E+00  .000E+00  .000E+00  .000E+00  .000E+00
  .000E+00  .000E+00  .000E+00  .000E+00  .000E+00  .000E+00  .000E+00  .000E+00
  .000E+00  .000E+00  .000E+00  .000E+00  .000E+00  .000E+00  .000E+00  .000E+00
  .000E+00  .000E+00  .000E+00  .000E+00  .000E+00  .000E+00  .000E+00  .000E+00
  .000E+00  .000E+00  .000E+00  .000E+00  .000E+00  .000E+00  .000E+00  .000E+00
  .000E+00  .000E+00  .000E+00  .000E+00  .000E+00  .000E+00  .000E+00  .000E+00
  .000E+00  .000E+00  .000E+00  .000E+00  .000E+00  .000E+00  .000E+00  .000E+00
  .000E+00  .000E+00  .000E+00  .000E+00  .000E+00  .000E+00  .000E+00  .000E+00
  .000E+00  .000E+00  .000E+00  .000E+00  .000E+00  .000E+00  .000E+00  .000E+00
  .000E+00  .000E+00  .000E+00  .000E+00  .000E+00  .000E+00  .000E+00  .000E+00
  .000E+00  .000E+00  .000E+00  .000E+00  .000E+00  .000E+00  .000E+00  .000E+00
  .000E+00  .000E+00  .000E+00  .000E+00  .000E+00  .000E+00  .000E+00  .000E+00
  .000E+00  .000E+00  .000E+00  .000E+00
Damping =  .05. Data of Sd,Sv,Sa,Pssv,ttSd,ttSv,ttSa :
  .231E-03  .248E-03  .268E-03  .308E-03  .343E-03  .374E-03  .510E-03  .663E-03
  .944E-03  .116E-02  .124E-02  .133E-02  .192E-02  .246E-02  .246E-02  .274E-02
  .385E-02  .488E-02  .484E-02  .514E-02  .533E-02  .739E-02  .874E-02  .121E-01
  .145E-01  .169E-01  .223E-01  .183E-01  .170E-01  .156E-01  .167E-01  .169E-01
  .213E-01  .245E-01  .257E-01  .346E-01  .400E-01  .407E-01  .418E-01  .418E-01
