Response and Fourier amplitude spectra (91 periods,  .04 - 15.0 sec)   for      
Corrected accelerogram   24025-L1844-01250.05       Chan  1:   0 Deg     from   
Uncorrected Accelerogram Data             Processed: 09/10/01, CDMG  an005      
Record of Sun Sep  9, 2001 16:59:22 PDT               (Avol1 v4.6  7/01 CSMIP)  
CSMIP Preliminary Processing            (Origin:  To be determined)             
24025-L1844-01250.05                 Start time:  9/09/01, 23:59:22.0 UTC (GPS) 
Station No. 24025   34.041N, 118.129W      Etna  s/n 1844  (3 Channels)         
Monterey Park - Elmgate & Garfield                                              
Chan  1:   0 Deg                                                                
Record of Sun Sep  9, 2001 16:59:22 PDT    Sun Sep  9, 2001 16:59:22 PDT        
Hypocenter:  To be determined.               ML:  To be determined.             
Instr Period =  .0107 sec,  Damping =  .640,  Sensitivity =  .63  v/g           
                        Record length = 37.000 sec.                             
                                     Uncor Max  =  -.012 g, at   5.205 sec.     
RMS accel of (uncor) record  =        .                                         
Accelerogram bandpass filtered with 3 dB pts at   .30 and 40.00 cyc/sec         
                 instrument- and baseline-corrected                             
                                                                                
                                                                                
                                                                                
                                                                                
                                                                                
Record of Sun Sep  9, 2001 16:59:22 PDT    Sun Sep  9, 2001 16:59:22 PDT        
                                                                                
24025-L1844-01250.05      Monterey Park - Elmgate & Garfield    Chan  1:   0 Deg
                                                                                
24025-L1844-01250.05      Monterey Park - Elmgate & Garfield    Chan  1:   0 Deg
                                                                                
Units for spectra are inches and sec, except Sa is in fraction of g.            
                                                                                
    1  100    1    3    3  200    1    3    1   24   12 1844    024025    1    0
   23   59   22    0  252    9    9 2001   10    3    0 7400   39   34   72 -999
 7400    1   50    3 1844    1    5  370    1    0    0    0    0    0    0    0
    0    4    0    0 3700    2    0    0    0    0   72   34    0    0    0 3700
    0 3700   35   91    1    3    0    0    0    0    3    0    0    0    0    2
    2    2    4    0   32   99 -999   32   32    0    0    1    0    0    0    0
  -99   -1    0    0
      .011      .640    37.000      .001      .000   625.000     -.012     5.205
    93.800      .298      .477      .000     5.000      .000      .000      .000
     2.500     6.983      .012     -.003     5.000    30.000      .000     -.006
      .002      .008     2.000    15.000    34.041  -118.129      .563      .239
      .425     -.065      .082  -999.000      .000      .000   -13.400      .000
  1000.000    -1.004      .000      .000      .000      .000      .000      .000
     4.600     4.400      .000   980.665      .010    37.000    14.929      .000
      .000    40.000      .000    37.000      .010      .300      .000      .000
     5.200   -11.689     5.000     -.403     5.050     -.036      .000      .300
    40.000      .010      .010      .000      .010      .011      .000      .000
      .038      .075      .019      .029      .002      .000      .000      .000
      .000      .000      .000      .000      .000      .000      .000      .000
      .000      .000      .000      .000
      .050
      .040      .042      .044      .046      .048      .050      .055      .060
      .065      .070      .075      .080      .085      .090      .095      .100
      .110      .120      .130      .140      .150      .160      .170      .180
      .190      .200      .220      .240      .260      .280      .300      .320
      .340      .360      .380      .400      .420      .440      .460      .480
      .500      .550      .600      .650      .700      .750      .800      .850
      .900      .950     1.000     1.100     1.200     1.300     1.400     1.500
     1.600     1.700     1.800     1.900     2.000     2.200     2.400     2.600
     2.800     3.000     3.200     3.400     3.600     3.800     4.000     4.200
     4.400     4.600     4.800     5.000     5.500     6.000     6.500     7.000
     7.500     8.000     8.500     9.000     9.500    10.000    11.000    12.000
    13.000    14.000    15.000      .000      .000      .000      .000      .000
      .000      .000      .000      .000
Fourier amplitude spectra in in/sec.
  .000E+00  .000E+00  .000E+00  .000E+00  .000E+00  .000E+00  .000E+00  .000E+00
  .000E+00  .000E+00  .000E+00  .000E+00  .000E+00  .000E+00  .000E+00  .000E+00
  .000E+00  .000E+00  .000E+00  .000E+00  .000E+00  .000E+00  .000E+00  .000E+00
  .000E+00  .000E+00  .000E+00  .000E+00  .000E+00  .000E+00  .000E+00  .000E+00
  .000E+00  .000E+00  .000E+00  .000E+00  .000E+00  .000E+00  .000E+00  .000E+00
  .000E+00  .000E+00  .000E+00  .000E+00  .000E+00  .000E+00  .000E+00  .000E+00
  .000E+00  .000E+00  .000E+00  .000E+00  .000E+00  .000E+00  .000E+00  .000E+00
  .000E+00  .000E+00  .000E+00  .000E+00  .000E+00  .000E+00  .000E+00  .000E+00
  .000E+00  .000E+00  .000E+00  .000E+00  .000E+00  .000E+00  .000E+00  .000E+00
  .000E+00  .000E+00  .000E+00  .000E+00  .000E+00  .000E+00  .000E+00  .000E+00
  .000E+00  .000E+00  .000E+00  .000E+00  .000E+00  .000E+00  .000E+00  .000E+00
  .000E+00  .000E+00  .000E+00  .000E+00  .000E+00  .000E+00  .000E+00  .000E+00
  .000E+00  .000E+00  .000E+00  .000E+00
Damping =  .05. Data of Sd,Sv,Sa,Pssv,ttSd,ttSv,ttSa :
  .211E-03  .247E-03  .284E-03  .330E-03  .376E-03  .417E-03  .532E-03  .673E-03
  .102E-02  .156E-02  .208E-02  .223E-02  .218E-02  .262E-02  .298E-02  .311E-02
  .346E-02  .339E-02  .534E-02  .588E-02  .458E-02  .515E-02  .489E-02  .542E-02
  .615E-02  .685E-02  .999E-02  .131E-01  .174E-01  .226E-01  .253E-01  .272E-01
  .290E-01  .294E-01  .292E-01  .282E-01  .268E-01  .259E-01  .250E-01  .239E-01
  .231E-01  .238E-01  .235E-01  .225E-01  .212E-01  .196E-01  .214E-01  .225E-01
  .239E-01  .188E-01  .161E-01  .168E-01  .181E-01  .190E-01  .225E-01  .206E-01
  .194E-01  .193E-01  .192E-01  .191E-01  .188E-01  .189E-01  .191E-01  .192E-01
  .192E-01  .192E-01  .191E-01  .190E-01  .189E-01  .187E-01  .185E-01  .184E-01
  .182E-01  .181E-01  .179E-01  .178E-01  .175E-01  .172E-01  .170E-01  .169E-01
  .167E-01  .166E-01  .165E-01  .165E-01  .164E-01  .163E-01  .163E-01  .162E-01
  .161E-01  .161E-01  .161E-01  .000E+00  .000E+00  .000E+00  .000E+00  .000E+00
  .000E+00  .000E+00  .000E+00  .000E+00
  .127E-01  .148E-01  .190E-01  .230E-01  .244E-01  .249E-01  .359E-01  .555E-01
  .697E-01  .108E+00  .142E+00  .148E+00  .138E+00  .159E+00  .175E+00  .164E+00
  .183E+00  .172E+00  .245E+00  .264E+00  .194E+00  .210E+00  .188E+00  .187E+00
  .204E+00  .226E+00  .243E+00  .314E+00  .388E+00  .498E+00  .543E+00  .572E+00
  .588E+00  .535E+00  .462E+00  .425E+00  .409E+00  .429E+00  .398E+00  .398E+00
  .394E+00  .369E+00  .326E+00  .284E+00  .275E+00  .263E+00  .252E+00  .244E+00
  .236E+00  .229E+00  .222E+00  .210E+00  .201E+00  .194E+00  .188E+00  .182E+00
  .178E+00  .173E+00  .170E+00  .166E+00  .163E+00  .158E+00  .154E+00  .155E+00
  .156E+00  .157E+00  .158E+00  .158E+00  .159E+00  .159E+00  .159E+00  .159E+00
  .159E+00  .159E+00  .159E+00  .159E+00  .159E+00  .159E+00  .159E+00  .159E+00
  .159E+00  .159E+00  .159E+00  .159E+00  .159E+00  .159E+00  .159E+00  .159E+00
  .159E+00  .159E+00  .159E+00  .000E+00  .000E+00  .000E+00  .000E+00  .000E+00
  .000E+00  .000E+00  .000E+00  .000E+00
  .135E-01  .143E-01  .150E-01  .160E-01  .168E-01  .172E-01  .179E-01  .191E-01
  .245E-01  .328E-01  .378E-01  .358E-01  .308E-01  .333E-01  .342E-01  .319E-01
  .290E-01  .241E-01  .320E-01  .310E-01  .208E-01  .208E-01  .172E-01  .170E-01
  .174E-01  .175E-01  .213E-01  .235E-01  .264E-01  .298E-01  .291E-01  .273E-01
  .257E-01  .233E-01  .208E-01  .182E-01  .156E-01  .138E-01  .122E-01  .107E-01
  .955E-02  .815E-02  .676E-02  .553E-02  .450E-02  .364E-02  .343E-02  .321E-02
  .304E-02  .215E-02  .171E-02  .144E-02  .132E-02  .116E-02  .118E-02  .959E-03
  .785E-03  .706E-03  .635E-03  .580E-03  .532E-03  .452E-03  .389E-03  .338E-03
  .297E-03  .264E-03  .236E-03  .212E-03  .192E-03  .174E-03  .159E-03  .146E-03
  .135E-03  .125E-03  .116E-03  .108E-03  .922E-04  .801E-04  .705E-04  .629E-04
  .568E-04  .518E-04  .475E-04  .439E-04  .407E-04  .380E-04  .335E-04  .299E-04
  .269E-04  .245E-04  .225E-04  .000E+00  .000E+00  .000E+00  .000E+00  .000E+00
  .000E+00  .000E+00  .000E+00  .000E+00
  .331E-01  .369E-01  .405E-01  .451E-01  .492E-01  .524E-01  .608E-01  .705E-01
  .985E-01  .140E+00  .175E+00  .175E+00  .161E+00  .183E+00  .197E+00  .195E+00
  .198E+00  .178E+00  .258E+00  .264E+00  .192E+00  .202E+00  .181E+00  .189E+00
  .203E+00  .215E+00  .285E+00  .343E+00  .421E+00  .508E+00  .531E+00  .534E+00
  .536E+00  .513E+00  .482E+00  .443E+00  .400E+00  .370E+00  .342E+00  .313E+00
  .290E+00  .272E+00  .246E+00  .217E+00  .190E+00  .164E+00  .168E+00  .167E+00
  .167E+00  .125E+00  .101E+00  .958E-01  .950E-01  .919E-01  .101E+00  .862E-01
  .764E-01  .715E-01  .671E-01  .633E-01  .592E-01  .541E-01  .500E-01  .463E-01
  .431E-01  .402E-01  .375E-01  .351E-01  .329E-01  .309E-01  .291E-01  .275E-01
  .260E-01  .247E-01  .235E-01  .223E-01  .200E-01  .180E-01  .165E-01  .151E-01
  .140E-01  .131E-01  .122E-01  .115E-01  .108E-01  .103E-01  .929E-02  .848E-02
  .780E-02  .723E-02  .674E-02  .000E+00  .000E+00  .000E+00  .000E+00  .000E+00
  .000E+00  .000E+00  .000E+00  .000E+00
  .520E+01  .520E+01  .520E+01  .520E+01  .520E+01  .520E+01  .520E+01  .591E+01
  .532E+01  .533E+01  .534E+01  .534E+01  .534E+01  .534E+01  .535E+01  .551E+01
  .553E+01  .523E+01  .594E+01  .596E+01  .507E+01  .687E+01  .742E+01  .651E+01
  .597E+01  .598E+01  .521E+01  .536E+01  .538E+01  .539E+01  .541E+01  .544E+01
  .546E+01  .548E+01  .549E+01  .551E+01  .552E+01  .534E+01  .534E+01  .535E+01
  .518E+01  .519E+01  .519E+01  .520E+01  .520E+01  .521E+01  .116E+02  .116E+02
  .113E+02  .114E+02  .502E+01  .605E+01  .675E+01  .687E+01  .111E+02  .846E+01
  .641E+01  .728E+01  .572E+01  .573E+01  .573E+01  .503E+01  .503E+01  .503E+01
  .504E+01  .504E+01  .504E+01  .504E+01  .504E+01  .504E+01  .504E+01  .504E+01
  .504E+01  .504E+01  .504E+01  .504E+01  .504E+01  .504E+01  .504E+01  .504E+01
  .504E+01  .504E+01  .504E+01  .504E+01  .504E+01  .504E+01  .504E+01  .504E+01
  .504E+01  .504E+01  .504E+01  .000E+00  .000E+00  .000E+00  .000E+00  .000E+00
  .000E+00  .000E+00  .000E+00  .000E+00
  .530E+01  .589E+01  .589E+01  .589E+01  .531E+01  .530E+01  .589E+01  .589E+01
  .530E+01  .531E+01  .536E+01  .536E+01  .536E+01  .537E+01  .538E+01  .548E+01
  .556E+01  .581E+01  .597E+01  .592E+01  .690E+01  .683E+01  .677E+01  .655E+01
  .593E+01  .593E+01  .514E+01  .594E+01  .597E+01  .588E+01  .534E+01  .552E+01
  .554E+01  .555E+01  .556E+01  .541E+01  .544E+01  .588E+01  .589E+01  .528E+01
  .528E+01  .529E+01  .529E+01  .510E+01  .510E+01  .510E+01  .511E+01  .511E+01
  .511E+01  .511E+01  .511E+01  .511E+01  .511E+01  .511E+01  .511E+01  .511E+01
  .511E+01  .511E+01  .511E+01  .511E+01  .511E+01  .511E+01  .511E+01  .498E+01
  .498E+01  .498E+01  .498E+01  .498E+01  .498E+01  .498E+01  .498E+01  .498E+01
  .498E+01  .498E+01  .498E+01  .498E+01  .498E+01  .498E+01  .498E+01  .498E+01
  .498E+01  .498E+01  .498E+01  .498E+01  .498E+01  .498E+01  .498E+01  .498E+01
  .498E+01  .498E+01  .498E+01  .000E+00  .000E+00  .000E+00  .000E+00  .000E+00
  .000E+00  .000E+00  .000E+00  .000E+00
  .520E+01  .520E+01  .520E+01  .520E+01  .520E+01  .520E+01  .520E+01  .520E+01
  .532E+01  .532E+01  .534E+01  .534E+01  .534E+01  .534E+01  .535E+01  .551E+01
  .553E+01  .523E+01  .594E+01  .595E+01  .507E+01  .679E+01  .742E+01  .651E+01
  .597E+01  .598E+01  .521E+01  .536E+01  .537E+01  .539E+01  .541E+01  .543E+01
  .546E+01  .547E+01  .549E+01  .550E+01  .551E+01  .533E+01  .534E+01  .534E+01
  .517E+01  .518E+01  .518E+01  .519E+01  .519E+01  .519E+01  .116E+02  .116E+02
  .113E+02  .113E+02  .501E+01  .501E+01  .673E+01  .685E+01  .111E+02  .843E+01
  .639E+01  .725E+01  .501E+01  .501E+01  .501E+01  .501E+01  .501E+01  .501E+01
  .500E+01  .500E+01  .500E+01  .500E+01  .500E+01  .500E+01  .500E+01  .500E+01
  .500E+01  .500E+01  .500E+01  .500E+01  .500E+01  .500E+01  .500E+01  .500E+01
  .499E+01  .499E+01  .499E+01  .499E+01  .499E+01  .499E+01  .499E+01  .499E+01
  .499E+01  .499E+01  .499E+01  .000E+00  .000E+00  .000E+00  .000E+00  .000E+00
  .000E+00  .000E+00  .000E+00  .000E+00
/&   ----------  End of spectral data for channel  1  ----------
Response and Fourier amplitude spectra (91 periods,  .04 - 15.0 sec)   for      
Corrected accelerogram   24025-L1844-01250.05       Chan  2:   0 Deg     from   
Uncorrected Accelerogram Data             Processed: 09/10/01, CDMG  an005      
Record of Sun Sep  9, 2001 16:59:22 PDT               (Avol1 v4.6  7/01 CSMIP)  
CSMIP Preliminary Processing            (Origin:  To be determined)             
24025-L1844-01250.05                 Start time:  9/09/01, 23:59:22.0 UTC (GPS) 
Station No. 24025   34.041N, 118.129W      Etna  s/n 1844  (3 Channels)         
Monterey Park - Elmgate & Garfield                                              
Chan  2:   0 Deg                                                                
Record of Sun Sep  9, 2001 16:59:22 PDT    Sun Sep  9, 2001 16:59:22 PDT        
Hypocenter:  To be determined.               ML:  To be determined.             
Instr Period =  .0108 sec,  Damping =  .660,  Sensitivity =  .63  v/g           
                        Record length = 37.000 sec.                             
                                     Uncor Max  =   .009 g, at   5.130 sec.     
RMS accel of (uncor) record  =        .                                         
Accelerogram bandpass filtered with 3 dB pts at   .30 and 40.00 cyc/sec         
                 instrument- and baseline-corrected                             
                                                                                
                                                                                
                                                                                
                                                                                
                                                                                
Record of Sun Sep  9, 2001 16:59:22 PDT    Sun Sep  9, 2001 16:59:22 PDT        
                                                                                
24025-L1844-01250.05      Monterey Park - Elmgate & Garfield    Chan  2:   0 Deg
                                                                                
24025-L1844-01250.05      Monterey Park - Elmgate & Garfield    Chan  2:   0 Deg
                                                                                
Units for spectra are inches and sec, except Sa is in fraction of g.            
                                                                                
    2  100    2    3    3  200    1    3    1   24   12 1844    024025    1    0
   23   59   22    0  252    9    9 2001   10    3    0 7400   39   34   72 -999
 7400    1   50    3 1844    1    5  370    1    0    0    0    0    0    0    0
    0    4    0    0 3700    2    0    0    0    0   72   34    0    0    0 3700
    0 3700   35   91    1    3    0    0    0    0    3    0    0    0    0    2
    2    2    4    0   32   99 -999   32   32    0    0    1    0    0    0    0
  -99   -1    0    0
      .011      .660    37.000      .001      .000   625.000      .009     5.130
    92.500      .298      .477      .000     5.000      .000      .000      .000
     2.500   -33.886     -.015     -.027     5.000    30.000      .000      .021
      .002     -.019     2.000    15.000    34.041  -118.129     1.267      .137
      .108     -.183      .144  -999.000      .000      .000   -13.400      .000
  1000.000    -1.037      .000      .000      .000      .000      .000      .000
     4.600     4.400      .000   980.665      .010    37.000    14.722      .000
      .000    40.000      .000    37.000      .010      .300      .000      .000
     5.130     9.112     5.080     -.300     5.030      .012      .000      .300
    40.000      .010      .010      .000      .010      .007      .000      .000
      .032      .220      .032      .015      .001      .000      .000      .000
      .000      .000      .000      .000      .000      .000      .000      .000
      .000      .000      .000      .000
      .050
      .040      .042      .044      .046      .048      .050      .055      .060
      .065      .070      .075      .080      .085      .090      .095      .100
      .110      .120      .130      .140      .150      .160      .170      .180
      .190      .200      .220      .240      .260      .280      .300      .320
      .340      .360      .380      .400      .420      .440      .460      .480
      .500      .550      .600      .650      .700      .750      .800      .850
      .900      .950     1.000     1.100     1.200     1.300     1.400     1.500
     1.600     1.700     1.800     1.900     2.000     2.200     2.400     2.600
     2.800     3.000     3.200     3.400     3.600     3.800     4.000     4.200
     4.400     4.600     4.800     5.000     5.500     6.000     6.500     7.000
     7.500     8.000     8.500     9.000     9.500    10.000    11.000    12.000
    13.000    14.000    15.000      .000      .000      .000      .000      .000
      .000      .000      .000      .000
Fourier amplitude spectra in in/sec.
  .000E+00  .000E+00  .000E+00  .000E+00  .000E+00  .000E+00  .000E+00  .000E+00
  .000E+00  .000E+00  .000E+00  .000E+00  .000E+00  .000E+00  .000E+00  .000E+00
  .000E+00  .000E+00  .000E+00  .000E+00  .000E+00  .000E+00  .000E+00  .000E+00
  .000E+00  .000E+00  .000E+00  .000E+00  .000E+00  .000E+00  .000E+00  .000E+00
  .000E+00  .000E+00  .000E+00  .000E+00  .000E+00  .000E+00  .000E+00  .000E+00
  .000E+00  .000E+00  .000E+00  .000E+00  .000E+00  .000E+00  .000E+00  .000E+00
  .000E+00  .000E+00  .000E+00  .000E+00  .000E+00  .000E+00  .000E+00  .000E+00
  .000E+00  .000E+00  .000E+00  .000E+00  .000E+00  .000E+00  .000E+00  .000E+00
  .000E+00  .000E+00  .000E+00  .000E+00  .000E+00  .000E+00  .000E+00  .000E+00
  .000E+00  .000E+00  .000E+00  .000E+00  .000E+00  .000E+00  .000E+00  .000E+00
  .000E+00  .000E+00  .000E+00  .000E+00  .000E+00  .000E+00  .000E+00  .000E+00
  .000E+00  .000E+00  .000E+00  .000E+00  .000E+00  .000E+00  .000E+00  .000E+00
  .000E+00  .000E+00  .000E+00  .000E+00
Damping =  .05. Data of Sd,Sv,Sa,Pssv,ttSd,ttSv,ttSa :
  .185E-03  .211E-03  .231E-03  .236E-03  .264E-03  .298E-03  .376E-03  .563E-03
  .783E-03  .808E-03  .862E-03  .103E-02  .122E-02  .147E-02  .165E-02  .155E-02
  .163E-02  .241E-02  .295E-02  .392E-02  .501E-02  .619E-02  .785E-02  .894E-02
  .110E-01  .125E-01  .151E-01  .147E-01  .162E-01  .139E-01  .122E-01  .122E-01
  .108E-01  .113E-01  .108E-01  .104E-01  .906E-02  .864E-02  .814E-02  .830E-02
