Response and Fourier amplitude spectra (91 periods,  .04 - 15.0 sec)   for      
Corrected accelerogram   24039-L1857-01252.05       Chan  1:   0 Deg     from   
Uncorrected Accelerogram Data             Processed: 09/10/01, CDMG  039al005   
Record of Sun Sep  9, 2001 16:59:16 PDT               (Avol1 v4.6  7/01 CSMIP)  
CSMIP Preliminary Processing            (Origin:  To be determined)             
24039-L1857-01252.05                 Start time:  9/09/01, 23:59:16.0 UTC (GPS) 
Station No. 24039   34.004N, 118.287W      Etna  s/n 1857  (3 Channels)         
Los Angeles - Vernon & Hoover                                                   
Chan  1:   0 Deg                                                                
Record of Sun Sep  9, 2001 16:59:16 PDT    Sun Sep  9, 2001 16:59:16 PDT        
Hypocenter:  To be determined.               ML:  To be determined.             
Instr Period =  .0108 sec,  Damping =  .670,  Sensitivity =  .63  v/g           
                        Record length = 48.000 sec.                             
                                     Uncor Max  =  -.126 g, at   8.675 sec.     
RMS accel of (uncor) record  =        .                                         
Accelerogram bandpass filtered with 3 dB pts at   .30 and 40.00 cyc/sec         
                 instrument- and baseline-corrected                             
                                                                                
                                                                                
                                                                                
                                                                                
                                                                                
Record of Sun Sep  9, 2001 16:59:16 PDT    Sun Sep  9, 2001 16:59:16 PDT        
                                                                                
24039-L1857-01252.05      Los Angeles - Vernon & Hoover   Chan  1:   0 Deg      
                                                                                
24039-L1857-01252.05      Los Angeles - Vernon & Hoover   Chan  1:   0 Deg      
                                                                                
Units for spectra are inches and sec, except Sa is in fraction of g.            
                                                                                
    1  100    1    3    3  200    1    3    1   24   12 1857    024039    1    0
   23   59   16    0  252    9    9 2001   10    3    0 9600   39   29   72 -999
 9600    1   50    3 1857    1    5  480    1    0    0    0    0    0    0    0
    0    4    0    0 4800    2    0    0    0    0   72   29    0    0    0 4800
    0 4800   30   91    1    3    0    0    0    0    3    0    0    0    0    2
    2    2    4    0   32   99 -999   32   32    0    0    1    0    0    0    0
  -99   -1    0    0
      .011      .670    48.000      .009      .000   625.000     -.126     8.675
    92.300      .298      .477      .000     5.000      .000      .000      .000
     2.500   -18.090      .067     -.078     5.000    30.000      .000      .004
     -.004     -.008     2.000    15.000    34.004  -118.287      .028      .291
    10.464     -.023      .006  -999.000      .000      .000   -13.400      .000
  1000.000     1.002      .000      .000      .000      .000      .000      .000
     4.600     4.400      .000   980.665      .010    48.000    14.690      .000
      .000    40.000      .000    48.000      .010      .300      .000      .000
     8.670  -123.060     8.630     4.243     8.680      .173      .000      .300
    40.000      .010      .010      .000     1.060      .053      .000      .000
      .484      .190      .379      .197      .009      .001      .000      .000
      .000      .000      .000      .000      .000      .000      .000      .000
      .000      .000      .000      .000
      .050
      .040      .042      .044      .046      .048      .050      .055      .060
      .065      .070      .075      .080      .085      .090      .095      .100
      .110      .120      .130      .140      .150      .160      .170      .180
      .190      .200      .220      .240      .260      .280      .300      .320
      .340      .360      .380      .400      .420      .440      .460      .480
      .500      .550      .600      .650      .700      .750      .800      .850
      .900      .950     1.000     1.100     1.200     1.300     1.400     1.500
     1.600     1.700     1.800     1.900     2.000     2.200     2.400     2.600
     2.800     3.000     3.200     3.400     3.600     3.800     4.000     4.200
     4.400     4.600     4.800     5.000     5.500     6.000     6.500     7.000
     7.500     8.000     8.500     9.000     9.500    10.000    11.000    12.000
    13.000    14.000    15.000      .000      .000      .000      .000      .000
      .000      .000      .000      .000
Fourier amplitude spectra in in/sec.
  .000E+00  .000E+00  .000E+00  .000E+00  .000E+00  .000E+00  .000E+00  .000E+00
  .000E+00  .000E+00  .000E+00  .000E+00  .000E+00  .000E+00  .000E+00  .000E+00
  .000E+00  .000E+00  .000E+00  .000E+00  .000E+00  .000E+00  .000E+00  .000E+00
  .000E+00  .000E+00  .000E+00  .000E+00  .000E+00  .000E+00  .000E+00  .000E+00
  .000E+00  .000E+00  .000E+00  .000E+00  .000E+00  .000E+00  .000E+00  .000E+00
  .000E+00  .000E+00  .000E+00  .000E+00  .000E+00  .000E+00  .000E+00  .000E+00
  .000E+00  .000E+00  .000E+00  .000E+00  .000E+00  .000E+00  .000E+00  .000E+00
  .000E+00  .000E+00  .000E+00  .000E+00  .000E+00  .000E+00  .000E+00  .000E+00
  .000E+00  .000E+00  .000E+00  .000E+00  .000E+00  .000E+00  .000E+00  .000E+00
  .000E+00  .000E+00  .000E+00  .000E+00  .000E+00  .000E+00  .000E+00  .000E+00
  .000E+00  .000E+00  .000E+00  .000E+00  .000E+00  .000E+00  .000E+00  .000E+00
  .000E+00  .000E+00  .000E+00  .000E+00  .000E+00  .000E+00  .000E+00  .000E+00
  .000E+00  .000E+00  .000E+00  .000E+00
Damping =  .05. Data of Sd,Sv,Sa,Pssv,ttSd,ttSv,ttSa :
  .219E-02  .247E-02  .273E-02  .294E-02  .316E-02  .339E-02  .429E-02  .534E-02
  .566E-02  .712E-02  .829E-02  .104E-01  .126E-01  .146E-01  .175E-01  .209E-01
  .295E-01  .359E-01  .470E-01  .612E-01  .759E-01  .909E-01  .121E+00  .150E+00
  .169E+00  .158E+00  .117E+00  .171E+00  .211E+00  .204E+00  .171E+00  .125E+00
  .109E+00  .100E+00  .123E+00  .139E+00  .158E+00  .164E+00  .146E+00  .125E+00
  .110E+00  .932E-01  .102E+00  .115E+00  .109E+00  .106E+00  .102E+00  .941E-01
  .909E-01  .864E-01  .801E-01  .669E-01  .678E-01  .674E-01  .730E-01  .757E-01
  .755E-01  .739E-01  .714E-01  .702E-01  .703E-01  .764E-01  .810E-01  .838E-01
  .850E-01  .850E-01  .843E-01  .832E-01  .820E-01  .808E-01  .797E-01  .788E-01
  .779E-01  .771E-01  .765E-01  .759E-01  .747E-01  .738E-01  .731E-01  .727E-01
  .723E-01  .721E-01  .719E-01  .717E-01  .716E-01  .714E-01  .713E-01  .712E-01
  .710E-01  .709E-01  .710E-01  .000E+00  .000E+00  .000E+00  .000E+00  .000E+00
  .000E+00  .000E+00  .000E+00  .000E+00
  .115E+00  .119E+00  .115E+00  .129E+00  .149E+00  .170E+00  .206E+00  .284E+00
  .336E+00  .435E+00  .548E+00  .577E+00  .623E+00  .713E+00  .866E+00  .108E+01
  .156E+01  .175E+01  .212E+01  .268E+01  .310E+01  .346E+01  .441E+01  .540E+01
  .587E+01  .505E+01  .338E+01  .433E+01  .573E+01  .532E+01  .430E+01  .333E+01
  .247E+01  .224E+01  .221E+01  .250E+01  .255E+01  .250E+01  .250E+01  .238E+01
  .222E+01  .192E+01  .174E+01  .163E+01  .167E+01  .172E+01  .174E+01  .179E+01
  .183E+01  .185E+01  .185E+01  .182E+01  .176E+01  .170E+01  .165E+01  .163E+01
  .162E+01  .161E+01  .161E+01  .161E+01  .161E+01  .162E+01  .163E+01  .164E+01
  .165E+01  .166E+01  .166E+01  .166E+01  .167E+01  .167E+01  .167E+01  .167E+01
  .167E+01  .167E+01  .167E+01  .167E+01  .167E+01  .167E+01  .166E+01  .166E+01
  .166E+01  .166E+01  .166E+01  .166E+01  .166E+01  .166E+01  .166E+01  .166E+01
  .166E+01  .166E+01  .166E+01  .000E+00  .000E+00  .000E+00  .000E+00  .000E+00
  .000E+00  .000E+00  .000E+00  .000E+00
  .140E+00  .144E+00  .144E+00  .142E+00  .140E+00  .138E+00  .145E+00  .153E+00
  .137E+00  .148E+00  .152E+00  .166E+00  .179E+00  .184E+00  .199E+00  .214E+00
  .253E+00  .257E+00  .281E+00  .317E+00  .342E+00  .362E+00  .430E+00  .474E+00
  .484E+00  .405E+00  .248E+00  .306E+00  .321E+00  .270E+00  .194E+00  .126E+00
  .966E-01  .796E-01  .875E-01  .895E-01  .924E-01  .872E-01  .714E-01  .561E-01
  .453E-01  .318E-01  .294E-01  .281E-01  .232E-01  .195E-01  .166E-01  .136E-01
  .122E-01  .104E-01  .883E-02  .628E-02  .525E-02  .450E-02  .401E-02  .364E-02
  .322E-02  .282E-02  .257E-02  .246E-02  .236E-02  .216E-02  .196E-02  .177E-02
  .160E-02  .144E-02  .130E-02  .119E-02  .109E-02  .100E-02  .928E-03  .864E-03
  .809E-03  .760E-03  .716E-03  .677E-03  .597E-03  .533E-03  .482E-03  .440E-03
  .405E-03  .377E-03  .352E-03  .331E-03  .312E-03  .295E-03  .266E-03  .242E-03
  .222E-03  .205E-03  .191E-03  .000E+00  .000E+00  .000E+00  .000E+00  .000E+00
  .000E+00  .000E+00  .000E+00  .000E+00
  .345E+00  .370E+00  .390E+00  .401E+00  .413E+00  .426E+00  .490E+00  .559E+00
  .547E+00  .639E+00  .694E+00  .814E+00  .931E+00  .102E+01  .116E+01  .131E+01
  .169E+01  .188E+01  .227E+01  .275E+01  .318E+01  .357E+01  .446E+01  .524E+01
  .560E+01  .496E+01  .333E+01  .447E+01  .511E+01  .459E+01  .359E+01  .245E+01
  .201E+01  .175E+01  .203E+01  .219E+01  .236E+01  .234E+01  .200E+01  .164E+01
  .138E+01  .107E+01  .107E+01  .111E+01  .982E+00  .885E+00  .802E+00  .696E+00
  .635E+00  .572E+00  .503E+00  .382E+00  .355E+00  .326E+00  .328E+00  .317E+00
  .296E+00  .273E+00  .249E+00  .232E+00  .221E+00  .218E+00  .212E+00  .202E+00
  .191E+00  .178E+00  .165E+00  .154E+00  .143E+00  .134E+00  .125E+00  .118E+00
  .111E+00  .105E+00  .100E+00  .953E-01  .853E-01  .773E-01  .707E-01  .652E-01
  .605E-01  .566E-01  .531E-01  .500E-01  .474E-01  .449E-01  .407E-01  .373E-01
  .343E-01  .318E-01  .298E-01  .000E+00  .000E+00  .000E+00  .000E+00  .000E+00
  .000E+00  .000E+00  .000E+00  .000E+00
  .867E+01  .867E+01  .867E+01  .867E+01  .867E+01  .867E+01  .867E+01  .867E+01
  .867E+01  .873E+01  .873E+01  .866E+01  .867E+01  .867E+01  .867E+01  .867E+01
  .880E+01  .881E+01  .882E+01  .883E+01  .884E+01  .893E+01  .894E+01  .896E+01
  .871E+01  .872E+01  .872E+01  .872E+01  .874E+01  .865E+01  .866E+01  .900E+01
  .813E+01  .900E+01  .901E+01  .902E+01  .928E+01  .929E+01  .931E+01  .932E+01
  .932E+01  .916E+01  .917E+01  .918E+01  .919E+01  .892E+01  .893E+01  .893E+01
  .867E+01  .867E+01  .867E+01  .790E+01  .856E+01  .856E+01  .893E+01  .893E+01
  .893E+01  .893E+01  .893E+01  .128E+02  .867E+01  .867E+01  .867E+01  .867E+01
  .867E+01  .867E+01  .867E+01  .867E+01  .867E+01  .867E+01  .867E+01  .867E+01
  .867E+01  .867E+01  .867E+01  .867E+01  .867E+01  .867E+01  .867E+01  .867E+01
  .867E+01  .867E+01  .867E+01  .867E+01  .867E+01  .867E+01  .867E+01  .867E+01
  .867E+01  .867E+01  .867E+01  .000E+00  .000E+00  .000E+00  .000E+00  .000E+00
  .000E+00  .000E+00  .000E+00  .000E+00
  .871E+01  .871E+01  .871E+01  .871E+01  .871E+01  .870E+01  .870E+01  .897E+01
  .898E+01  .898E+01  .899E+01  .889E+01  .889E+01  .876E+01  .877E+01  .876E+01
  .877E+01  .878E+01  .878E+01  .879E+01  .880E+01  .889E+01  .890E+01  .874E+01
  .875E+01  .876E+01  .877E+01  .877E+01  .869E+01  .870E+01  .860E+01  .861E+01
  .806E+01  .806E+01  .870E+01  .934E+01  .935E+01  .897E+01  .861E+01  .861E+01
  .861E+01  .861E+01  .861E+01  .861E+01  .861E+01  .861E+01  .861E+01  .861E+01
  .861E+01  .861E+01  .861E+01  .861E+01  .861E+01  .861E+01  .861E+01  .861E+01
  .861E+01  .861E+01  .861E+01  .861E+01  .861E+01  .861E+01  .861E+01  .861E+01
  .862E+01  .862E+01  .862E+01  .862E+01  .862E+01  .862E+01  .862E+01  .862E+01
  .862E+01  .862E+01  .862E+01  .862E+01  .862E+01  .862E+01  .862E+01  .862E+01
  .862E+01  .862E+01  .862E+01  .862E+01  .862E+01  .862E+01  .862E+01  .862E+01
  .862E+01  .862E+01  .862E+01  .000E+00  .000E+00  .000E+00  .000E+00  .000E+00
  .000E+00  .000E+00  .000E+00  .000E+00
  .867E+01  .867E+01  .867E+01  .867E+01  .867E+01  .867E+01  .867E+01  .867E+01
  .867E+01  .873E+01  .873E+01  .866E+01  .866E+01  .866E+01  .867E+01  .867E+01
  .880E+01  .881E+01  .882E+01  .882E+01  .884E+01  .893E+01  .894E+01  .896E+01
  .870E+01  .871E+01  .872E+01  .872E+01  .874E+01  .864E+01  .866E+01  .855E+01
  .812E+01  .900E+01  .900E+01  .901E+01  .927E+01  .929E+01  .930E+01  .931E+01
  .931E+01  .915E+01  .916E+01  .917E+01  .918E+01  .891E+01  .892E+01  .865E+01
  .865E+01  .865E+01  .865E+01  .865E+01  .854E+01  .854E+01  .891E+01  .891E+01
  .891E+01  .891E+01  .864E+01  .864E+01  .864E+01  .864E+01  .864E+01  .864E+01
  .864E+01  .864E+01  .863E+01  .863E+01  .863E+01  .863E+01  .863E+01  .863E+01
  .863E+01  .863E+01  .863E+01  .863E+01  .863E+01  .863E+01  .863E+01  .863E+01
  .862E+01  .862E+01  .862E+01  .862E+01  .862E+01  .862E+01  .862E+01  .862E+01
  .862E+01  .862E+01  .862E+01  .000E+00  .000E+00  .000E+00  .000E+00  .000E+00
  .000E+00  .000E+00  .000E+00  .000E+00
/&   ----------  End of spectral data for channel  1  ----------
Response and Fourier amplitude spectra (91 periods,  .04 - 15.0 sec)   for      
Corrected accelerogram   24039-L1857-01252.05       Chan  2:   0 Deg     from   
Uncorrected Accelerogram Data             Processed: 09/10/01, CDMG  039al005   
Record of Sun Sep  9, 2001 16:59:16 PDT               (Avol1 v4.6  7/01 CSMIP)  
CSMIP Preliminary Processing            (Origin:  To be determined)             
24039-L1857-01252.05                 Start time:  9/09/01, 23:59:16.0 UTC (GPS) 
Station No. 24039   34.004N, 118.287W      Etna  s/n 1857  (3 Channels)         
Los Angeles - Vernon & Hoover                                                   
Chan  2:   0 Deg                                                                
Record of Sun Sep  9, 2001 16:59:16 PDT    Sun Sep  9, 2001 16:59:16 PDT        
Hypocenter:  To be determined.               ML:  To be determined.             
Instr Period =  .0101 sec,  Damping =  .670,  Sensitivity =  .63  v/g           
                        Record length = 48.000 sec.                             
                                     Uncor Max  =  -.055 g, at   5.655 sec.     
RMS accel of (uncor) record  =        .                                         
Accelerogram bandpass filtered with 3 dB pts at   .30 and 40.00 cyc/sec         
                 instrument- and baseline-corrected                             
                                                                                
                                                                                
                                                                                
                                                                                
                                                                                
Record of Sun Sep  9, 2001 16:59:16 PDT    Sun Sep  9, 2001 16:59:16 PDT        
                                                                                
24039-L1857-01252.05      Los Angeles - Vernon & Hoover   Chan  2:   0 Deg      
                                                                                
24039-L1857-01252.05      Los Angeles - Vernon & Hoover   Chan  2:   0 Deg      
                                                                                
Units for spectra are inches and sec, except Sa is in fraction of g.            
                                                                                
    2  100    2    3    3  200    1    3    1   24   12 1857    024039    1    0
   23   59   16    0  252    9    9 2001   10    3    0 9600   39   29   72 -999
 9600    1   50    3 1857    1    5  480    1    0    0    0    0    0    0    0
    0    4    0    0 4800    2    0    0    0    0   72   29    0    0    0 4800
    0 4800   30   91    1    3    0    0    0    0    3    0    0    0    0    2
    2    2    4    0   32   99 -999   32   32    0    0    1    0    0    0    0
  -99   -1    0    0
      .010      .670    48.000      .005      .000   625.000     -.055     5.655
    99.300      .298      .477      .000     5.000      .000      .000      .000
     2.500   -27.957      .017     -.051     5.000    30.000      .000      .002
     -.004     -.007     2.000    15.000    34.004  -118.287      .077      .178
     2.311     -.020      .006  -999.000      .000      .000   -13.400      .000
  1000.000     1.007      .000      .000      .000      .000      .000      .000
     4.600     4.400      .000   980.665      .010    48.000    15.804      .000
      .000    40.000      .000    48.000      .010      .300      .000      .000
     5.650   -54.231     8.670    -1.182     5.050      .061      .000      .300
    40.000      .010      .010      .000      .180      .027      .000      .000
      .248      .065      .113      .054      .003      .000      .000      .000
      .000      .000      .000      .000      .000      .000      .000      .000
      .000      .000      .000      .000
      .050
      .040      .042      .044      .046      .048      .050      .055      .060
      .065      .070      .075      .080      .085      .090      .095      .100
      .110      .120      .130      .140      .150      .160      .170      .180
      .190      .200      .220      .240      .260      .280      .300      .320
      .340      .360      .380      .400      .420      .440      .460      .480
      .500      .550      .600      .650      .700      .750      .800      .850
      .900      .950     1.000     1.100     1.200     1.300     1.400     1.500
     1.600     1.700     1.800     1.900     2.000     2.200     2.400     2.600
     2.800     3.000     3.200     3.400     3.600     3.800     4.000     4.200
     4.400     4.600     4.800     5.000     5.500     6.000     6.500     7.000
     7.500     8.000     8.500     9.000     9.500    10.000    11.000    12.000
    13.000    14.000    15.000      .000      .000      .000      .000      .000
      .000      .000      .000      .000
Fourier amplitude spectra in in/sec.
  .000E+00  .000E+00  .000E+00  .000E+00  .000E+00  .000E+00  .000E+00  .000E+00
  .000E+00  .000E+00  .000E+00  .000E+00  .000E+00  .000E+00  .000E+00  .000E+00
  .000E+00  .000E+00  .000E+00  .000E+00  .000E+00  .000E+00  .000E+00  .000E+00
  .000E+00  .000E+00  .000E+00  .000E+00  .000E+00  .000E+00  .000E+00  .000E+00
  .000E+00  .000E+00  .000E+00  .000E+00  .000E+00  .000E+00  .000E+00  .000E+00
  .000E+00  .000E+00  .000E+00  .000E+00  .000E+00  .000E+00  .000E+00  .000E+00
  .000E+00  .000E+00  .000E+00  .000E+00  .000E+00  .000E+00  .000E+00  .000E+00
  .000E+00  .000E+00  .000E+00  .000E+00  .000E+00  .000E+00  .000E+00  .000E+00
  .000E+00  .000E+00  .000E+00  .000E+00  .000E+00  .000E+00  .000E+00  .000E+00
  .000E+00  .000E+00  .000E+00  .000E+00  .000E+00  .000E+00  .000E+00  .000E+00
  .000E+00  .000E+00  .000E+00  .000E+00  .000E+00  .000E+00  .000E+00  .000E+00
  .000E+00  .000E+00  .000E+00  .000E+00  .000E+00  .000E+00  .000E+00  .000E+00
  .000E+00  .000E+00  .000E+00  .000E+00
Damping =  .05. Data of Sd,Sv,Sa,Pssv,ttSd,ttSv,ttSa :
  .140E-02  .165E-02  .177E-02  .216E-02  .280E-02  .381E-02  .522E-02  .849E-02
  .102E-01  .109E-01  .106E-01  .101E-01  .116E-01  .154E-01  .147E-01  .165E-01
  .145E-01  .205E-01  .199E-01  .242E-01  .238E-01  .274E-01  .370E-01  .478E-01
  .476E-01  .476E-01  .382E-01  .385E-01  .423E-01  .445E-01  .521E-01  .431E-01
  .405E-01  .369E-01  .358E-01  .364E-01  .366E-01  .368E-01  .369E-01  .380E-01
