Response and Fourier amplitude spectra (91 periods,  .04 - 15.0 sec)   for      
Corrected accelerogram   24040-L1858-01252.05       Chan  1:   0 Deg     from   
Uncorrected Accelerogram Data             Processed: 09/10/01, CDMG  040al005   
Record of Sun Sep  9, 2001 16:59:21 PDT               (Avol1 v4.6  7/01 CSMIP)  
CSMIP Preliminary Processing            (Origin:  To be determined)             
24040-L1858-01252.05                 Start time:  9/09/01, 23:59:21.0 UTC (GPS) 
Station No. 24040   34.031N, 118.208W      Etna  s/n 1858  (3 Channels)         
Los Angeles - Whittier & Euclid                                                 
Chan  1:   0 Deg                                                                
Record of Sun Sep  9, 2001 16:59:21 PDT    Sun Sep  9, 2001 16:59:21 PDT        
Hypocenter:  To be determined.               ML:  To be determined.             
Instr Period =  .0101 sec,  Damping =  .670,  Sensitivity =  .63  v/g           
                        Record length = 40.000 sec.                             
                                     Uncor Max  =   .014 g, at   4.840 sec.     
RMS accel of (uncor) record  =        .                                         
Accelerogram bandpass filtered with 3 dB pts at   .30 and 40.00 cyc/sec         
                 instrument- and baseline-corrected                             
                                                                                
                                                                                
                                                                                
                                                                                
                                                                                
Record of Sun Sep  9, 2001 16:59:21 PDT    Sun Sep  9, 2001 16:59:21 PDT        
                                                                                
24040-L1858-01252.05      Los Angeles - Whittier & Euclid   Chan  1:   0 Deg    
                                                                                
24040-L1858-01252.05      Los Angeles - Whittier & Euclid   Chan  1:   0 Deg    
                                                                                
Units for spectra are inches and sec, except Sa is in fraction of g.            
                                                                                
    1  100    1    3    3  200    1    3    1   24   12 1858    024040    1    0
   23   59   21    0  252    9    9 2001   10    3    0 8000   39   31   72 -999
 8000    1   50    3 1858    1    5  400    1    0    0    0    0    0    0    0
    0    4    0    0 4000    2    0    0    0    0   72   31    0    0    0 4000
    0 4000   32   91    1    3    0    0    0    0    3    0    0    0    0    2
    2    2    4    0   32   99 -999   32   32    0    0    1    0    0    0    0
  -99   -1    0    0
      .010      .670    40.000      .002      .000   625.000      .014     4.840
    99.200      .298      .477      .000     5.000      .000      .000      .000
     2.500    -6.824      .002     -.013     5.000    30.000      .000      .005
     -.002     -.007     2.000    15.000    34.031  -118.208      .153      .242
     1.586     -.030      .015  -999.000      .000      .000   -13.400      .000
  1000.000    -1.007      .000      .000      .000      .000      .000      .000
     4.600     4.400      .000   980.665      .010    40.000    15.788      .000
      .000    40.000      .000    40.000      .010      .300      .000      .000
     4.840    13.193     4.280     -.551     4.450     -.069      .000      .300
    40.000      .010      .010      .000      .010      .020      .000      .000
      .039      .180      .029      .025      .005      .001      .000      .000
      .000      .000      .000      .000      .000      .000      .000      .000
      .000      .000      .000      .000
      .050
      .040      .042      .044      .046      .048      .050      .055      .060
      .065      .070      .075      .080      .085      .090      .095      .100
      .110      .120      .130      .140      .150      .160      .170      .180
      .190      .200      .220      .240      .260      .280      .300      .320
      .340      .360      .380      .400      .420      .440      .460      .480
      .500      .550      .600      .650      .700      .750      .800      .850
      .900      .950     1.000     1.100     1.200     1.300     1.400     1.500
     1.600     1.700     1.800     1.900     2.000     2.200     2.400     2.600
     2.800     3.000     3.200     3.400     3.600     3.800     4.000     4.200
     4.400     4.600     4.800     5.000     5.500     6.000     6.500     7.000
     7.500     8.000     8.500     9.000     9.500    10.000    11.000    12.000
    13.000    14.000    15.000      .000      .000      .000      .000      .000
      .000      .000      .000      .000
Fourier amplitude spectra in in/sec.
  .000E+00  .000E+00  .000E+00  .000E+00  .000E+00  .000E+00  .000E+00  .000E+00
  .000E+00  .000E+00  .000E+00  .000E+00  .000E+00  .000E+00  .000E+00  .000E+00
  .000E+00  .000E+00  .000E+00  .000E+00  .000E+00  .000E+00  .000E+00  .000E+00
  .000E+00  .000E+00  .000E+00  .000E+00  .000E+00  .000E+00  .000E+00  .000E+00
  .000E+00  .000E+00  .000E+00  .000E+00  .000E+00  .000E+00  .000E+00  .000E+00
  .000E+00  .000E+00  .000E+00  .000E+00  .000E+00  .000E+00  .000E+00  .000E+00
  .000E+00  .000E+00  .000E+00  .000E+00  .000E+00  .000E+00  .000E+00  .000E+00
  .000E+00  .000E+00  .000E+00  .000E+00  .000E+00  .000E+00  .000E+00  .000E+00
  .000E+00  .000E+00  .000E+00  .000E+00  .000E+00  .000E+00  .000E+00  .000E+00
  .000E+00  .000E+00  .000E+00  .000E+00  .000E+00  .000E+00  .000E+00  .000E+00
  .000E+00  .000E+00  .000E+00  .000E+00  .000E+00  .000E+00  .000E+00  .000E+00
  .000E+00  .000E+00  .000E+00  .000E+00  .000E+00  .000E+00  .000E+00  .000E+00
  .000E+00  .000E+00  .000E+00  .000E+00
Damping =  .05. Data of Sd,Sv,Sa,Pssv,ttSd,ttSv,ttSa :
  .230E-03  .277E-03  .309E-03  .345E-03  .407E-03  .429E-03  .592E-03  .825E-03
  .870E-03  .113E-02  .121E-02  .157E-02  .207E-02  .260E-02  .308E-02  .349E-02
  .426E-02  .470E-02  .584E-02  .691E-02  .689E-02  .819E-02  .105E-01  .122E-01
  .124E-01  .115E-01  .110E-01  .123E-01  .163E-01  .169E-01  .219E-01  .271E-01
  .291E-01  .306E-01  .406E-01  .469E-01  .440E-01  .470E-01  .465E-01  .432E-01
  .479E-01  .505E-01  .590E-01  .402E-01  .441E-01  .513E-01  .439E-01  .457E-01
  .472E-01  .548E-01  .490E-01  .487E-01  .465E-01  .567E-01  .549E-01  .483E-01
  .442E-01  .462E-01  .477E-01  .440E-01  .423E-01  .441E-01  .489E-01  .487E-01
  .423E-01  .421E-01  .417E-01  .412E-01  .406E-01  .400E-01  .394E-01  .388E-01
  .382E-01  .377E-01  .372E-01  .367E-01  .357E-01  .349E-01  .343E-01  .338E-01
  .334E-01  .331E-01  .329E-01  .326E-01  .325E-01  .323E-01  .321E-01  .320E-01
  .318E-01  .317E-01  .317E-01  .000E+00  .000E+00  .000E+00  .000E+00  .000E+00
  .000E+00  .000E+00  .000E+00  .000E+00
  .154E-01  .175E-01  .195E-01  .228E-01  .267E-01  .332E-01  .542E-01  .669E-01
  .687E-01  .925E-01  .792E-01  .767E-01  .100E+00  .135E+00  .166E+00  .190E+00
  .225E+00  .241E+00  .275E+00  .298E+00  .283E+00  .298E+00  .379E+00  .439E+00
  .438E+00  .389E+00  .330E+00  .363E+00  .395E+00  .375E+00  .431E+00  .477E+00
  .552E+00  .548E+00  .633E+00  .778E+00  .737E+00  .750E+00  .663E+00  .584E+00
  .644E+00  .648E+00  .710E+00  .512E+00  .516E+00  .514E+00  .447E+00  .398E+00
  .412E+00  .425E+00  .413E+00  .326E+00  .308E+00  .367E+00  .337E+00  .320E+00
  .318E+00  .261E+00  .265E+00  .240E+00  .246E+00  .271E+00  .239E+00  .231E+00
  .243E+00  .244E+00  .238E+00  .233E+00  .233E+00  .233E+00  .232E+00  .232E+00
  .231E+00  .231E+00  .230E+00  .230E+00  .229E+00  .228E+00  .227E+00  .226E+00
  .225E+00  .225E+00  .224E+00  .224E+00  .224E+00  .224E+00  .223E+00  .223E+00
  .223E+00  .222E+00  .222E+00  .000E+00  .000E+00  .000E+00  .000E+00  .000E+00
  .000E+00  .000E+00  .000E+00  .000E+00
  .147E-01  .161E-01  .163E-01  .168E-01  .180E-01  .177E-01  .201E-01  .236E-01
  .212E-01  .240E-01  .219E-01  .251E-01  .294E-01  .329E-01  .353E-01  .359E-01
  .358E-01  .330E-01  .358E-01  .364E-01  .310E-01  .327E-01  .374E-01  .386E-01
  .351E-01  .293E-01  .233E-01  .220E-01  .247E-01  .223E-01  .251E-01  .271E-01
  .259E-01  .243E-01  .289E-01  .302E-01  .256E-01  .249E-01  .226E-01  .193E-01
  .197E-01  .172E-01  .169E-01  .979E-02  .925E-02  .938E-02  .706E-02  .650E-02
  .599E-02  .628E-02  .506E-02  .417E-02  .336E-02  .347E-02  .292E-02  .223E-02
  .178E-02  .166E-02  .153E-02  .127E-02  .111E-02  .980E-03  .911E-03  .775E-03
  .584E-03  .509E-03  .447E-03  .394E-03  .350E-03  .312E-03  .280E-03  .253E-03
  .229E-03  .209E-03  .192E-03  .176E-03  .146E-03  .124E-03  .107E-03  .941E-04
  .836E-04  .750E-04  .679E-04  .620E-04  .570E-04  .527E-04  .457E-04  .402E-04
  .358E-04  .323E-04  .293E-04  .000E+00  .000E+00  .000E+00  .000E+00  .000E+00
  .000E+00  .000E+00  .000E+00  .000E+00
  .361E-01  .415E-01  .441E-01  .471E-01  .532E-01  .538E-01  .677E-01  .863E-01
  .841E-01  .102E+00  .101E+00  .123E+00  .153E+00  .181E+00  .204E+00  .219E+00
  .243E+00  .246E+00  .282E+00  .310E+00  .289E+00  .322E+00  .388E+00  .426E+00
  .409E+00  .361E+00  .313E+00  .321E+00  .393E+00  .380E+00  .459E+00  .533E+00
  .539E+00  .535E+00  .671E+00  .737E+00  .658E+00  .672E+00  .635E+00  .565E+00
  .602E+00  .577E+00  .618E+00  .388E+00  .395E+00  .429E+00  .345E+00  .338E+00
  .329E+00  .362E+00  .308E+00  .278E+00  .243E+00  .274E+00  .246E+00  .202E+00
  .173E+00  .171E+00  .167E+00  .146E+00  .133E+00  .126E+00  .128E+00  .118E+00
  .950E-01  .881E-01  .818E-01  .761E-01  .708E-01  .661E-01  .619E-01  .580E-01
  .546E-01  .515E-01  .487E-01  .462E-01  .408E-01  .366E-01  .332E-01  .304E-01
  .280E-01  .260E-01  .243E-01  .228E-01  .215E-01  .203E-01  .183E-01  .167E-01
  .154E-01  .142E-01  .133E-01  .000E+00  .000E+00  .000E+00  .000E+00  .000E+00
  .000E+00  .000E+00  .000E+00  .000E+00
  .482E+01  .482E+01  .483E+01  .482E+01  .483E+01  .482E+01  .482E+01  .483E+01
  .476E+01  .536E+01  .483E+01  .483E+01  .484E+01  .484E+01  .484E+01  .484E+01
  .491E+01  .492E+01  .492E+01  .493E+01  .494E+01  .494E+01  .495E+01  .496E+01
  .488E+01  .489E+01  .489E+01  .490E+01  .840E+01  .117E+02  .921E+01  .923E+01
  .944E+01  .948E+01  .845E+01  .848E+01  .850E+01  .832E+01  .834E+01  .835E+01
  .835E+01  .816E+01  .820E+01  .117E+02  .114E+02  .800E+01  .468E+01  .470E+01
  .472E+01  .803E+01  .474E+01  .475E+01  .476E+01  .940E+01  .774E+01  .777E+01
  .498E+01  .127E+02  .106E+02  .106E+02  .914E+01  .837E+01  .774E+01  .776E+01
  .444E+01  .444E+01  .444E+01  .444E+01  .444E+01  .444E+01  .444E+01  .444E+01
  .444E+01  .444E+01  .444E+01  .444E+01  .444E+01  .444E+01  .444E+01  .444E+01
  .444E+01  .444E+01  .444E+01  .444E+01  .444E+01  .444E+01  .444E+01  .444E+01
  .444E+01  .444E+01  .444E+01  .000E+00  .000E+00  .000E+00  .000E+00  .000E+00
  .000E+00  .000E+00  .000E+00  .000E+00
  .480E+01  .481E+01  .548E+01  .532E+01  .532E+01  .564E+01  .565E+01  .566E+01
  .509E+01  .538E+01  .538E+01  .480E+01  .481E+01  .486E+01  .487E+01  .487E+01
  .500E+01  .501E+01  .496E+01  .496E+01  .541E+01  .497E+01  .491E+01  .492E+01
  .492E+01  .493E+01  .494E+01  .485E+01  .846E+01  .848E+01  .927E+01  .916E+01
  .918E+01  .920E+01  .837E+01  .839E+01  .840E+01  .841E+01  .843E+01  .825E+01
  .825E+01  .828E+01  .808E+01  .479E+01  .479E+01  .812E+01  .479E+01  .479E+01
  .812E+01  .786E+01  .789E+01  .452E+01  .453E+01  .788E+01  .790E+01  .765E+01
  .766E+01  .767E+01  .108E+02  .932E+01  .789E+01  .789E+01  .790E+01  .427E+01
  .766E+01  .766E+01  .766E+01  .427E+01  .427E+01  .427E+01  .427E+01  .427E+01
  .427E+01  .427E+01  .427E+01  .427E+01  .427E+01  .427E+01  .427E+01  .427E+01
  .427E+01  .427E+01  .427E+01  .427E+01  .427E+01  .427E+01  .427E+01  .427E+01
  .427E+01  .427E+01  .427E+01  .000E+00  .000E+00  .000E+00  .000E+00  .000E+00
  .000E+00  .000E+00  .000E+00  .000E+00
  .482E+01  .482E+01  .482E+01  .482E+01  .483E+01  .482E+01  .482E+01  .483E+01
  .476E+01  .536E+01  .483E+01  .483E+01  .483E+01  .484E+01  .484E+01  .484E+01
  .491E+01  .492E+01  .492E+01  .493E+01  .493E+01  .494E+01  .494E+01  .495E+01
  .488E+01  .488E+01  .489E+01  .490E+01  .839E+01  .117E+02  .920E+01  .922E+01
  .943E+01  .947E+01  .844E+01  .847E+01  .849E+01  .831E+01  .833E+01  .834E+01
  .835E+01  .815E+01  .819E+01  .116E+02  .114E+02  .799E+01  .467E+01  .468E+01
  .470E+01  .801E+01  .472E+01  .473E+01  .474E+01  .938E+01  .771E+01  .775E+01
  .490E+01  .126E+02  .105E+02  .106E+02  .912E+01  .834E+01  .770E+01  .771E+01
  .440E+01  .440E+01  .440E+01  .440E+01  .440E+01  .440E+01  .440E+01  .440E+01
  .440E+01  .439E+01  .439E+01  .438E+01  .438E+01  .437E+01  .437E+01  .437E+01
  .437E+01  .437E+01  .436E+01  .436E+01  .436E+01  .436E+01  .436E+01  .436E+01
  .436E+01  .436E+01  .436E+01  .000E+00  .000E+00  .000E+00  .000E+00  .000E+00
  .000E+00  .000E+00  .000E+00  .000E+00
/&   ----------  End of spectral data for channel  1  ----------
Response and Fourier amplitude spectra (91 periods,  .04 - 15.0 sec)   for      
Corrected accelerogram   24040-L1858-01252.05       Chan  2:   0 Deg     from   
Uncorrected Accelerogram Data             Processed: 09/10/01, CDMG  040al005   
Record of Sun Sep  9, 2001 16:59:21 PDT               (Avol1 v4.6  7/01 CSMIP)  
CSMIP Preliminary Processing            (Origin:  To be determined)             
24040-L1858-01252.05                 Start time:  9/09/01, 23:59:21.0 UTC (GPS) 
Station No. 24040   34.031N, 118.208W      Etna  s/n 1858  (3 Channels)         
Los Angeles - Whittier & Euclid                                                 
Chan  2:   0 Deg                                                                
Record of Sun Sep  9, 2001 16:59:21 PDT    Sun Sep  9, 2001 16:59:21 PDT        
Hypocenter:  To be determined.               ML:  To be determined.             
Instr Period =  .0103 sec,  Damping =  .680,  Sensitivity =  .63  v/g           
                        Record length = 40.000 sec.                             
                                     Uncor Max  =  -.006 g, at   4.780 sec.     
RMS accel of (uncor) record  =        .                                         
Accelerogram bandpass filtered with 3 dB pts at   .30 and 40.00 cyc/sec         
                 instrument- and baseline-corrected                             
                                                                                
                                                                                
                                                                                
                                                                                
                                                                                
Record of Sun Sep  9, 2001 16:59:21 PDT    Sun Sep  9, 2001 16:59:21 PDT        
                                                                                
24040-L1858-01252.05      Los Angeles - Whittier & Euclid   Chan  2:   0 Deg    
                                                                                
24040-L1858-01252.05      Los Angeles - Whittier & Euclid   Chan  2:   0 Deg    
                                                                                
Units for spectra are inches and sec, except Sa is in fraction of g.            
                                                                                
    2  100    2    3    3  200    1    3    1   24   12 1858    024040    1    0
   23   59   21    0  252    9    9 2001   10    3    0 8000   39   31   72 -999
 8000    1   50    3 1858    1    5  400    1    0    0    0    0    0    0    0
    0    4    0    0 4000    2    0    0    0    0   72   31    0    0    0 4000
    0 4000   32   91    1    3    0    0    0    0    3    0    0    0    0    2
    2    2    4    0   32   99 -999   32   32    0    0    1    0    0    0    0
  -99   -1    0    0
      .010      .680    40.000      .001      .000   625.000     -.006     4.780
    97.500      .298      .477      .000     5.000      .000      .000      .000
     2.500   -29.656     -.015     -.022     5.000    30.000      .000      .014
      .004     -.010     2.000    15.000    34.031  -118.208      .743      .211
      .284     -.107      .086  -999.000      .000      .000   -13.400      .000
  1000.000    -1.031      .000      .000      .000      .000      .000      .000
     4.600     4.400      .000   980.665      .010    40.000    15.518      .000
      .000    40.000      .000    40.000      .010      .300      .000      .000
     4.780    -5.694    11.740      .234    11.650     -.020      .000      .300
    40.000      .010      .010      .000      .010      .013      .000      .000
      .024      .200      .021      .013      .002      .000      .000      .000
      .000      .000      .000      .000      .000      .000      .000      .000
      .000      .000      .000      .000
      .050
      .040      .042      .044      .046      .048      .050      .055      .060
      .065      .070      .075      .080      .085      .090      .095      .100
      .110      .120      .130      .140      .150      .160      .170      .180
      .190      .200      .220      .240      .260      .280      .300      .320
      .340      .360      .380      .400      .420      .440      .460      .480
      .500      .550      .600      .650      .700      .750      .800      .850
      .900      .950     1.000     1.100     1.200     1.300     1.400     1.500
     1.600     1.700     1.800     1.900     2.000     2.200     2.400     2.600
     2.800     3.000     3.200     3.400     3.600     3.800     4.000     4.200
     4.400     4.600     4.800     5.000     5.500     6.000     6.500     7.000
     7.500     8.000     8.500     9.000     9.500    10.000    11.000    12.000
    13.000    14.000    15.000      .000      .000      .000      .000      .000
      .000      .000      .000      .000
Fourier amplitude spectra in in/sec.
  .000E+00  .000E+00  .000E+00  .000E+00  .000E+00  .000E+00  .000E+00  .000E+00
  .000E+00  .000E+00  .000E+00  .000E+00  .000E+00  .000E+00  .000E+00  .000E+00
  .000E+00  .000E+00  .000E+00  .000E+00  .000E+00  .000E+00  .000E+00  .000E+00
  .000E+00  .000E+00  .000E+00  .000E+00  .000E+00  .000E+00  .000E+00  .000E+00
  .000E+00  .000E+00  .000E+00  .000E+00  .000E+00  .000E+00  .000E+00  .000E+00
  .000E+00  .000E+00  .000E+00  .000E+00  .000E+00  .000E+00  .000E+00  .000E+00
  .000E+00  .000E+00  .000E+00  .000E+00  .000E+00  .000E+00  .000E+00  .000E+00
  .000E+00  .000E+00  .000E+00  .000E+00  .000E+00  .000E+00  .000E+00  .000E+00
  .000E+00  .000E+00  .000E+00  .000E+00  .000E+00  .000E+00  .000E+00  .000E+00
  .000E+00  .000E+00  .000E+00  .000E+00  .000E+00  .000E+00  .000E+00  .000E+00
  .000E+00  .000E+00  .000E+00  .000E+00  .000E+00  .000E+00  .000E+00  .000E+00
  .000E+00  .000E+00  .000E+00  .000E+00  .000E+00  .000E+00  .000E+00  .000E+00
  .000E+00  .000E+00  .000E+00  .000E+00
Damping =  .05. Data of Sd,Sv,Sa,Pssv,ttSd,ttSv,ttSa :
  .110E-03  .127E-03  .165E-03  .186E-03  .190E-03  .237E-03  .383E-03  .549E-03
  .894E-03  .102E-02  .950E-03  .989E-03  .115E-02  .120E-02  .149E-02  .172E-02
  .189E-02  .210E-02  .222E-02  .307E-02  .407E-02  .439E-02  .531E-02  .581E-02
  .767E-02  .920E-02  .790E-02  .999E-02  .110E-01  .925E-02  .107E-01  .133E-01
  .182E-01  .194E-01  .223E-01  .231E-01  .185E-01  .142E-01  .165E-01  .172E-01
