Response and Fourier amplitude spectra (91 periods,  .04 - 15.0 sec)   for      
Corrected accelerogram   24051-L1871-01253.03       Chan  1:   0 Deg     from   
Uncorrected Accelerogram Data             Processed: 09/10/01, CDMG  ba003      
Record of Sun Sep  9, 2001 16:59:23 PDT               (Avol1 v4.6  7/01 CSMIP)  
CSMIP Preliminary Processing            (Origin:  To be determined)             
24051-L1871-01253.03                 Start time:  9/09/01, 23:59:23.0 UTC (GPS) 
Station No. 24051   34.250N, 118.536W      Etna  s/n 1871  (3 Channels)         
Northridge - Lassen & Reseda                                                    
Chan  1:   0 Deg                                                                
Record of Sun Sep  9, 2001 16:59:23 PDT    Sun Sep  9, 2001 16:59:23 PDT        
Hypocenter:  To be determined.               ML:  To be determined.             
Instr Period =  .0103 sec,  Damping =  .650,  Sensitivity =  .63  v/g           
                        Record length = 38.000 sec.                             
                                     Uncor Max  =  -.019 g, at   5.115 sec.     
RMS accel of (uncor) record  =        .                                         
Accelerogram bandpass filtered with 3 dB pts at   .30 and 40.00 cyc/sec         
                 instrument- and baseline-corrected                             
                                                                                
                                                                                
                                                                                
                                                                                
                                                                                
Record of Sun Sep  9, 2001 16:59:23 PDT    Sun Sep  9, 2001 16:59:23 PDT        
                                                                                
24051-L1871-01253.03      Northridge - Lassen & Reseda    Chan  1:   0 Deg      
                                                                                
24051-L1871-01253.03      Northridge - Lassen & Reseda    Chan  1:   0 Deg      
                                                                                
Units for spectra are inches and sec, except Sa is in fraction of g.            
                                                                                
    1  100    1    3    3  200    1    3    1   24   12 1871    024051    1    0
   23   59   23    0  252    9    9 2001   10    3    0 7600   39   28   72 -999
 7600    1   50    3 1871    1    3  380    1    0    0    0    0    0    0    0
    0    4    0    0 3800    2    0    0    0    0   72   28    0    0    0 3800
    0 3800   29   91    1    3    0    0    0    0    3    0    0    0    0    2
    2    2    4    0   32   99 -999   32   32    0    0    1    0    0    0    0
  -99   -1    0    0
      .010      .650    38.000      .002      .000   625.000     -.019     5.115
    96.800      .298      .477      .000     5.000      .000      .000      .000
     2.500    14.605      .021      .001     5.000    30.000      .000     -.007
      .008      .015     2.000    15.000    34.250  -118.536      .304      .582
     1.916     -.033      .062  -999.000      .000      .000   -13.400      .000
  1000.000    -1.010      .000      .000      .000      .000      .000      .000
     4.600     4.400      .000   980.665      .010    38.000    15.406      .000
      .000    40.000      .000    38.000      .010      .300      .000      .000
     5.110   -18.339     5.030     1.038     5.120      .061      .000      .300
    40.000      .010      .010      .000      .010      .027      .000      .000
      .053      .240      .040      .044      .005      .000      .000      .000
      .000      .000      .000      .000      .000      .000      .000      .000
      .000      .000      .000      .000
      .050
      .040      .042      .044      .046      .048      .050      .055      .060
      .065      .070      .075      .080      .085      .090      .095      .100
      .110      .120      .130      .140      .150      .160      .170      .180
      .190      .200      .220      .240      .260      .280      .300      .320
      .340      .360      .380      .400      .420      .440      .460      .480
      .500      .550      .600      .650      .700      .750      .800      .850
      .900      .950     1.000     1.100     1.200     1.300     1.400     1.500
     1.600     1.700     1.800     1.900     2.000     2.200     2.400     2.600
     2.800     3.000     3.200     3.400     3.600     3.800     4.000     4.200
     4.400     4.600     4.800     5.000     5.500     6.000     6.500     7.000
     7.500     8.000     8.500     9.000     9.500    10.000    11.000    12.000
    13.000    14.000    15.000      .000      .000      .000      .000      .000
      .000      .000      .000      .000
Fourier amplitude spectra in in/sec.
  .000E+00  .000E+00  .000E+00  .000E+00  .000E+00  .000E+00  .000E+00  .000E+00
  .000E+00  .000E+00  .000E+00  .000E+00  .000E+00  .000E+00  .000E+00  .000E+00
  .000E+00  .000E+00  .000E+00  .000E+00  .000E+00  .000E+00  .000E+00  .000E+00
  .000E+00  .000E+00  .000E+00  .000E+00  .000E+00  .000E+00  .000E+00  .000E+00
  .000E+00  .000E+00  .000E+00  .000E+00  .000E+00  .000E+00  .000E+00  .000E+00
  .000E+00  .000E+00  .000E+00  .000E+00  .000E+00  .000E+00  .000E+00  .000E+00
  .000E+00  .000E+00  .000E+00  .000E+00  .000E+00  .000E+00  .000E+00  .000E+00
  .000E+00  .000E+00  .000E+00  .000E+00  .000E+00  .000E+00  .000E+00  .000E+00
  .000E+00  .000E+00  .000E+00  .000E+00  .000E+00  .000E+00  .000E+00  .000E+00
  .000E+00  .000E+00  .000E+00  .000E+00  .000E+00  .000E+00  .000E+00  .000E+00
  .000E+00  .000E+00  .000E+00  .000E+00  .000E+00  .000E+00  .000E+00  .000E+00
  .000E+00  .000E+00  .000E+00  .000E+00  .000E+00  .000E+00  .000E+00  .000E+00
  .000E+00  .000E+00  .000E+00  .000E+00
Damping =  .05. Data of Sd,Sv,Sa,Pssv,ttSd,ttSv,ttSa :
  .306E-03  .342E-03  .378E-03  .419E-03  .461E-03  .503E-03  .641E-03  .753E-03
  .837E-03  .969E-03  .112E-02  .126E-02  .138E-02  .179E-02  .224E-02  .241E-02
  .340E-02  .395E-02  .454E-02  .567E-02  .732E-02  .879E-02  .996E-02  .111E-01
  .124E-01  .146E-01  .222E-01  .300E-01  .337E-01  .361E-01  .389E-01  .408E-01
  .423E-01  .438E-01  .458E-01  .467E-01  .479E-01  .500E-01  .516E-01  .534E-01
  .551E-01  .547E-01  .534E-01  .507E-01  .454E-01  .475E-01  .494E-01  .507E-01
  .510E-01  .506E-01  .499E-01  .483E-01  .560E-01  .453E-01  .493E-01  .411E-01
  .389E-01  .368E-01  .349E-01  .333E-01  .319E-01  .306E-01  .282E-01  .271E-01
  .263E-01  .257E-01  .252E-01  .249E-01  .246E-01  .244E-01  .242E-01  .240E-01
  .239E-01  .238E-01  .238E-01  .237E-01  .236E-01  .236E-01  .236E-01  .236E-01
  .236E-01  .236E-01  .236E-01  .236E-01  .237E-01  .237E-01  .237E-01  .237E-01
  .237E-01  .237E-01  .238E-01  .000E+00  .000E+00  .000E+00  .000E+00  .000E+00
  .000E+00  .000E+00  .000E+00  .000E+00
  .945E-02  .106E-01  .113E-01  .122E-01  .126E-01  .140E-01  .197E-01  .271E-01
  .345E-01  .392E-01  .522E-01  .621E-01  .728E-01  .980E-01  .117E+00  .108E+00
  .111E+00  .115E+00  .151E+00  .181E+00  .217E+00  .273E+00  .299E+00  .335E+00
  .355E+00  .401E+00  .587E+00  .770E+00  .818E+00  .801E+00  .808E+00  .827E+00
  .847E+00  .837E+00  .821E+00  .783E+00  .746E+00  .722E+00  .740E+00  .756E+00
  .780E+00  .789E+00  .755E+00  .704E+00  .653E+00  .617E+00  .577E+00  .533E+00
  .490E+00  .482E+00  .487E+00  .489E+00  .487E+00  .486E+00  .485E+00  .481E+00
  .477E+00  .471E+00  .466E+00  .461E+00  .456E+00  .447E+00  .440E+00  .435E+00
  .431E+00  .428E+00  .425E+00  .423E+00  .421E+00  .419E+00  .418E+00  .417E+00
  .416E+00  .415E+00  .415E+00  .414E+00  .413E+00  .412E+00  .411E+00  .411E+00
  .411E+00  .410E+00  .410E+00  .410E+00  .410E+00  .409E+00  .409E+00  .409E+00
  .409E+00  .409E+00  .409E+00  .000E+00  .000E+00  .000E+00  .000E+00  .000E+00
  .000E+00  .000E+00  .000E+00  .000E+00
  .196E-01  .198E-01  .200E-01  .203E-01  .204E-01  .206E-01  .216E-01  .214E-01
  .202E-01  .203E-01  .205E-01  .202E-01  .196E-01  .228E-01  .257E-01  .248E-01
  .291E-01  .282E-01  .273E-01  .294E-01  .334E-01  .352E-01  .351E-01  .350E-01
  .353E-01  .371E-01  .471E-01  .534E-01  .510E-01  .473E-01  .446E-01  .409E-01
  .376E-01  .348E-01  .325E-01  .301E-01  .279E-01  .266E-01  .251E-01  .238E-01
  .227E-01  .186E-01  .153E-01  .124E-01  .959E-02  .876E-02  .803E-02  .728E-02
  .656E-02  .586E-02  .521E-02  .416E-02  .400E-02  .283E-02  .259E-02  .197E-02
  .165E-02  .140E-02  .120E-02  .104E-02  .908E-03  .717E-03  .586E-03  .495E-03
  .427E-03  .375E-03  .333E-03  .300E-03  .273E-03  .250E-03  .231E-03  .214E-03
  .200E-03  .188E-03  .177E-03  .168E-03  .148E-03  .132E-03  .119E-03  .109E-03
  .101E-03  .936E-04  .873E-04  .817E-04  .769E-04  .725E-04  .652E-04  .592E-04
  .542E-04  .501E-04  .466E-04  .000E+00  .000E+00  .000E+00  .000E+00  .000E+00
  .000E+00  .000E+00  .000E+00  .000E+00
  .481E-01  .512E-01  .540E-01  .572E-01  .603E-01  .632E-01  .733E-01  .789E-01
  .809E-01  .869E-01  .941E-01  .991E-01  .102E+00  .125E+00  .148E+00  .151E+00
  .194E+00  .207E+00  .219E+00  .254E+00  .306E+00  .345E+00  .368E+00  .387E+00
  .409E+00  .457E+00  .635E+00  .785E+00  .814E+00  .809E+00  .814E+00  .801E+00
  .781E+00  .764E+00  .757E+00  .733E+00  .717E+00  .714E+00  .705E+00  .699E+00
  .692E+00  .625E+00  .559E+00  .490E+00  .407E+00  .398E+00  .388E+00  .374E+00
  .356E+00  .335E+00  .314E+00  .276E+00  .293E+00  .219E+00  .221E+00  .172E+00
  .153E+00  .136E+00  .122E+00  .110E+00  .100E+00  .875E-01  .737E-01  .654E-01
  .590E-01  .538E-01  .496E-01  .460E-01  .429E-01  .403E-01  .380E-01  .360E-01
  .342E-01  .326E-01  .311E-01  .298E-01  .270E-01  .247E-01  .228E-01  .212E-01
  .198E-01  .186E-01  .175E-01  .165E-01  .157E-01  .149E-01  .135E-01  .124E-01
  .115E-01  .107E-01  .996E-02  .000E+00  .000E+00  .000E+00  .000E+00  .000E+00
  .000E+00  .000E+00  .000E+00  .000E+00
  .511E+01  .511E+01  .511E+01  .511E+01  .512E+01  .511E+01  .512E+01  .513E+01
  .513E+01  .513E+01  .513E+01  .508E+01  .509E+01  .548E+01  .548E+01  .507E+01
  .508E+01  .509E+01  .510E+01  .510E+01  .510E+01  .511E+01  .512E+01  .523E+01
  .524E+01  .524E+01  .525E+01  .527E+01  .529E+01  .530E+01  .532E+01  .533E+01
  .534E+01  .519E+01  .520E+01  .521E+01  .521E+01  .522E+01  .522E+01  .523E+01
  .524E+01  .526E+01  .559E+01  .562E+01  .508E+01  .508E+01  .509E+01  .509E+01
  .509E+01  .510E+01  .510E+01  .201E+02  .256E+02  .193E+02  .252E+02  .511E+01
  .511E+01  .511E+01  .511E+01  .511E+01  .511E+01  .247E+02  .511E+01  .511E+01
  .511E+01  .511E+01  .511E+01  .511E+01  .511E+01  .511E+01  .511E+01  .511E+01
  .511E+01  .511E+01  .511E+01  .511E+01  .511E+01  .511E+01  .511E+01  .511E+01
  .511E+01  .511E+01  .511E+01  .511E+01  .511E+01  .511E+01  .511E+01  .511E+01
  .511E+01  .511E+01  .511E+01  .000E+00  .000E+00  .000E+00  .000E+00  .000E+00
  .000E+00  .000E+00  .000E+00  .000E+00
  .516E+01  .516E+01  .516E+01  .516E+01  .517E+01  .504E+01  .505E+01  .515E+01
  .515E+01  .516E+01  .516E+01  .517E+01  .544E+01  .545E+01  .546E+01  .552E+01
  .505E+01  .603E+01  .604E+01  .605E+01  .605E+01  .607E+01  .693E+01  .518E+01
  .519E+01  .519E+01  .531E+01  .533E+01  .561E+01  .564E+01  .525E+01  .526E+01
  .527E+01  .528E+01  .528E+01  .529E+01  .530E+01  .514E+01  .514E+01  .514E+01
  .515E+01  .515E+01  .516E+01  .516E+01  .516E+01  .517E+01  .517E+01  .517E+01
  .517E+01  .502E+01  .502E+01  .502E+01  .502E+01  .502E+01  .502E+01  .502E+01
  .502E+01  .502E+01  .502E+01  .502E+01  .502E+01  .502E+01  .502E+01  .502E+01
  .502E+01  .502E+01  .502E+01  .502E+01  .502E+01  .502E+01  .502E+01  .502E+01
  .502E+01  .502E+01  .502E+01  .502E+01  .502E+01  .502E+01  .502E+01  .502E+01
  .502E+01  .502E+01  .502E+01  .502E+01  .502E+01  .502E+01  .502E+01  .502E+01
  .502E+01  .502E+01  .502E+01  .000E+00  .000E+00  .000E+00  .000E+00  .000E+00
  .000E+00  .000E+00  .000E+00  .000E+00
  .511E+01  .511E+01  .511E+01  .511E+01  .511E+01  .511E+01  .512E+01  .513E+01
  .513E+01  .513E+01  .513E+01  .507E+01  .509E+01  .547E+01  .548E+01  .507E+01
  .508E+01  .509E+01  .510E+01  .510E+01  .510E+01  .511E+01  .511E+01  .523E+01
  .523E+01  .524E+01  .525E+01  .527E+01  .528E+01  .530E+01  .531E+01  .532E+01
  .534E+01  .519E+01  .519E+01  .520E+01  .521E+01  .521E+01  .522E+01  .522E+01
  .523E+01  .525E+01  .559E+01  .561E+01  .507E+01  .507E+01  .507E+01  .508E+01
  .508E+01  .508E+01  .508E+01  .509E+01  .255E+02  .509E+01  .251E+02  .509E+01
  .509E+01  .508E+01  .508E+01  .508E+01  .508E+01  .508E+01  .508E+01  .507E+01
  .507E+01  .507E+01  .507E+01  .506E+01  .506E+01  .506E+01  .506E+01  .506E+01
  .505E+01  .505E+01  .505E+01  .505E+01  .505E+01  .505E+01  .504E+01  .504E+01
  .504E+01  .504E+01  .504E+01  .504E+01  .504E+01  .504E+01  .504E+01  .504E+01
  .503E+01  .503E+01  .503E+01  .000E+00  .000E+00  .000E+00  .000E+00  .000E+00
  .000E+00  .000E+00  .000E+00  .000E+00
/&   ----------  End of spectral data for channel  1  ----------
Response and Fourier amplitude spectra (91 periods,  .04 - 15.0 sec)   for      
Corrected accelerogram   24051-L1871-01253.03       Chan  2:   0 Deg     from   
Uncorrected Accelerogram Data             Processed: 09/10/01, CDMG  ba003      
Record of Sun Sep  9, 2001 16:59:23 PDT               (Avol1 v4.6  7/01 CSMIP)  
CSMIP Preliminary Processing            (Origin:  To be determined)             
24051-L1871-01253.03                 Start time:  9/09/01, 23:59:23.0 UTC (GPS) 
Station No. 24051   34.250N, 118.536W      Etna  s/n 1871  (3 Channels)         
Northridge - Lassen & Reseda                                                    
Chan  2:   0 Deg                                                                
Record of Sun Sep  9, 2001 16:59:23 PDT    Sun Sep  9, 2001 16:59:23 PDT        
Hypocenter:  To be determined.               ML:  To be determined.             
Instr Period =  .0102 sec,  Damping =  .660,  Sensitivity =  .63  v/g           
                        Record length = 38.000 sec.                             
                                     Uncor Max  =  -.014 g, at   5.630 sec.     
RMS accel of (uncor) record  =        .                                         
Accelerogram bandpass filtered with 3 dB pts at   .30 and 40.00 cyc/sec         
                 instrument- and baseline-corrected                             
                                                                                
                                                                                
                                                                                
                                                                                
                                                                                
Record of Sun Sep  9, 2001 16:59:23 PDT    Sun Sep  9, 2001 16:59:23 PDT        
                                                                                
24051-L1871-01253.03      Northridge - Lassen & Reseda    Chan  2:   0 Deg      
                                                                                
24051-L1871-01253.03      Northridge - Lassen & Reseda    Chan  2:   0 Deg      
                                                                                
Units for spectra are inches and sec, except Sa is in fraction of g.            
                                                                                
    2  100    2    3    3  200    1    3    1   24   12 1871    024051    1    0
   23   59   23    0  252    9    9 2001   10    3    0 7600   39   28   72 -999
 7600    1   50    3 1871    1    3  380    1    0    0    0    0    0    0    0
    0    4    0    0 3800    2    0    0    0    0   72   28    0    0    0 3800
    0 3800   29   91    1    3    0    0    0    0    3    0    0    0    0    2
    2    2    4    0   32   99 -999   32   32    0    0    1    0    0    0    0
  -99   -1    0    0
      .010      .660    38.000      .001      .000   625.000     -.014     5.630
    98.200      .298      .477      .000     5.000      .000      .000      .000
     2.500   -15.896     -.001     -.015     5.000    30.000      .000      .001
      .005      .005     2.000    15.000    34.250  -118.536     1.110      .351
      .316     -.139      .149  -999.000      .000      .000   -13.400      .000
  1000.000     1.039      .000      .000      .000      .000      .000      .000
     4.600     4.400      .000   980.665      .010    38.000    15.629      .000
      .000    40.000      .000    38.000      .010      .300      .000      .000
     5.630   -13.351     5.910     -.385    15.020     -.023      .000      .300
    40.000      .010      .010      .000      .010      .017      .000      .000
      .054      .240      .045      .026      .003      .000      .000      .000
      .000      .000      .000      .000      .000      .000      .000      .000
      .000      .000      .000      .000
      .050
      .040      .042      .044      .046      .048      .050      .055      .060
      .065      .070      .075      .080      .085      .090      .095      .100
      .110      .120      .130      .140      .150      .160      .170      .180
      .190      .200      .220      .240      .260      .280      .300      .320
      .340      .360      .380      .400      .420      .440      .460      .480
      .500      .550      .600      .650      .700      .750      .800      .850
      .900      .950     1.000     1.100     1.200     1.300     1.400     1.500
     1.600     1.700     1.800     1.900     2.000     2.200     2.400     2.600
     2.800     3.000     3.200     3.400     3.600     3.800     4.000     4.200
     4.400     4.600     4.800     5.000     5.500     6.000     6.500     7.000
     7.500     8.000     8.500     9.000     9.500    10.000    11.000    12.000
    13.000    14.000    15.000      .000      .000      .000      .000      .000
      .000      .000      .000      .000
Fourier amplitude spectra in in/sec.
  .000E+00  .000E+00  .000E+00  .000E+00  .000E+00  .000E+00  .000E+00  .000E+00
  .000E+00  .000E+00  .000E+00  .000E+00  .000E+00  .000E+00  .000E+00  .000E+00
  .000E+00  .000E+00  .000E+00  .000E+00  .000E+00  .000E+00  .000E+00  .000E+00
  .000E+00  .000E+00  .000E+00  .000E+00  .000E+00  .000E+00  .000E+00  .000E+00
  .000E+00  .000E+00  .000E+00  .000E+00  .000E+00  .000E+00  .000E+00  .000E+00
  .000E+00  .000E+00  .000E+00  .000E+00  .000E+00  .000E+00  .000E+00  .000E+00
  .000E+00  .000E+00  .000E+00  .000E+00  .000E+00  .000E+00  .000E+00  .000E+00
  .000E+00  .000E+00  .000E+00  .000E+00  .000E+00  .000E+00  .000E+00  .000E+00
  .000E+00  .000E+00  .000E+00  .000E+00  .000E+00  .000E+00  .000E+00  .000E+00
  .000E+00  .000E+00  .000E+00  .000E+00  .000E+00  .000E+00  .000E+00  .000E+00
  .000E+00  .000E+00  .000E+00  .000E+00  .000E+00  .000E+00  .000E+00  .000E+00
  .000E+00  .000E+00  .000E+00  .000E+00  .000E+00  .000E+00  .000E+00  .000E+00
  .000E+00  .000E+00  .000E+00  .000E+00
Damping =  .05. Data of Sd,Sv,Sa,Pssv,ttSd,ttSv,ttSa :
  .238E-03  .282E-03  .315E-03  .345E-03  .364E-03  .411E-03  .558E-03  .677E-03
  .873E-03  .763E-03  .982E-03  .129E-02  .162E-02  .177E-02  .187E-02  .205E-02
  .306E-02  .369E-02  .412E-02  .511E-02  .604E-02  .878E-02  .112E-01  .124E-01
  .134E-01  .176E-01  .242E-01  .306E-01  .251E-01  .269E-01  .205E-01  .195E-01
  .166E-01  .160E-01  .204E-01  .216E-01  .212E-01  .182E-01  .160E-01  .184E-01
