Response and Fourier amplitude spectra (91 periods,  .04 - 15.0 sec)   for      
Corrected accelerogram   24088-K0185-01252.05       Chan  1: 360 Deg     from   
Uncorrected Accelerogram Data             Processed: 09/10/01, CDMG  088du005   
Record of Sun Sep  9, 2001 16:59:22 PDT               (Avol1 v4.6  7/01 CSMIP)  
CSMIP Preliminary Processing            (Origin:  To be determined)             
24088-K0185-01252.05                 Start time:  9/09/01, 23:59:22.0 UTC (GPS) 
Station No. 24088   34.296N, 118.375W        K2  s/n  185  (3 Channels)         
Pacoima - Kagel Canyon Fire Sta                                                 
Chan  1: 360 Deg                                                                
Record of Sun Sep  9, 2001 16:59:22 PDT    Sun Sep  9, 2001 16:59:22 PDT        
Hypocenter:  To be determined.               ML:  To be determined.             
Instr Period =  .0103 sec,  Damping =  .670,  Sensitivity =  .63  v/g           
                        Record length = 36.000 sec.                             
                                     Uncor Max  =   .007 g, at   5.220 sec.     
RMS accel of (uncor) record  =        .                                         
Accelerogram bandpass filtered with 3 dB pts at   .30 and 40.00 cyc/sec         
                 instrument- and baseline-corrected                             
                                                                                
                                                                                
                                                                                
                                                                                
                                                                                
Record of Sun Sep  9, 2001 16:59:22 PDT    Sun Sep  9, 2001 16:59:22 PDT        
                                                                                
24088-K0185-01252.05      Pacoima - Kagel Canyon Fire Sta   Chan  1: 360 Deg    
                                                                                
24088-K0185-01252.05      Pacoima - Kagel Canyon Fire Sta   Chan  1: 360 Deg    
                                                                                
Units for spectra are inches and sec, except Sa is in fraction of g.            
                                                                                
    1  100    1    3    3  200    1    3    1   24   11  185    024088    1    0
   23   59   22    0  252    9    9 2001   10    3  360 7200   39   31   72  360
 7200    1   50    3  185    1    5  360    1    0    0    0    0    0    0    0
    0    4    0    0 3600    2    0    0    0    0   72   31    0    0    0 3600
    0 3600   32   91    1    3    0    0    0    0    3    0    0    0    0    2
    2    2    4    0   32   99    0   32   32    0    0    1    0    0    0    0
  -99   -1    0    0
      .010      .670    36.000      .001      .000   625.000      .007     5.220
    96.800      .298      .477      .000     5.000      .000      .000      .000
     2.500     3.729      .006     -.002     5.000    30.000      .000      .006
     -.002     -.008     2.000    15.000    34.296  -118.375      .201      .230
     1.148     -.036      .020  -999.000      .000      .000   -13.300      .000
  1000.000     1.023      .000      .000      .000      .000      .000      .000
     4.600     4.400      .000   980.665      .010    36.000    15.406      .000
      .000    40.000      .000    36.000      .010      .300      .000      .000
     5.220     6.769     5.270      .370     5.190     -.024      .000      .300
    40.000      .010      .010      .000      .010      .010      .000      .000
      .024      .130      .021      .015      .002      .000      .000      .000
      .000      .000      .000      .000      .000      .000      .000      .000
      .000      .000      .000      .000
      .050
      .040      .042      .044      .046      .048      .050      .055      .060
      .065      .070      .075      .080      .085      .090      .095      .100
      .110      .120      .130      .140      .150      .160      .170      .180
      .190      .200      .220      .240      .260      .280      .300      .320
      .340      .360      .380      .400      .420      .440      .460      .480
      .500      .550      .600      .650      .700      .750      .800      .850
      .900      .950     1.000     1.100     1.200     1.300     1.400     1.500
     1.600     1.700     1.800     1.900     2.000     2.200     2.400     2.600
     2.800     3.000     3.200     3.400     3.600     3.800     4.000     4.200
     4.400     4.600     4.800     5.000     5.500     6.000     6.500     7.000
     7.500     8.000     8.500     9.000     9.500    10.000    11.000    12.000
    13.000    14.000    15.000      .000      .000      .000      .000      .000
      .000      .000      .000      .000
Fourier amplitude spectra in in/sec.
  .000E+00  .000E+00  .000E+00  .000E+00  .000E+00  .000E+00  .000E+00  .000E+00
  .000E+00  .000E+00  .000E+00  .000E+00  .000E+00  .000E+00  .000E+00  .000E+00
  .000E+00  .000E+00  .000E+00  .000E+00  .000E+00  .000E+00  .000E+00  .000E+00
  .000E+00  .000E+00  .000E+00  .000E+00  .000E+00  .000E+00  .000E+00  .000E+00
  .000E+00  .000E+00  .000E+00  .000E+00  .000E+00  .000E+00  .000E+00  .000E+00
  .000E+00  .000E+00  .000E+00  .000E+00  .000E+00  .000E+00  .000E+00  .000E+00
  .000E+00  .000E+00  .000E+00  .000E+00  .000E+00  .000E+00  .000E+00  .000E+00
  .000E+00  .000E+00  .000E+00  .000E+00  .000E+00  .000E+00  .000E+00  .000E+00
  .000E+00  .000E+00  .000E+00  .000E+00  .000E+00  .000E+00  .000E+00  .000E+00
  .000E+00  .000E+00  .000E+00  .000E+00  .000E+00  .000E+00  .000E+00  .000E+00
  .000E+00  .000E+00  .000E+00  .000E+00  .000E+00  .000E+00  .000E+00  .000E+00
  .000E+00  .000E+00  .000E+00  .000E+00  .000E+00  .000E+00  .000E+00  .000E+00
  .000E+00  .000E+00  .000E+00  .000E+00
Damping =  .05. Data of Sd,Sv,Sa,Pssv,ttSd,ttSv,ttSa :
  .114E-03  .129E-03  .149E-03  .168E-03  .173E-03  .183E-03  .259E-03  .376E-03
  .519E-03  .644E-03  .786E-03  .738E-03  .836E-03  .118E-02  .153E-02  .206E-02
  .269E-02  .285E-02  .389E-02  .349E-02  .350E-02  .440E-02  .568E-02  .635E-02
  .757E-02  .900E-02  .906E-02  .976E-02  .105E-01  .120E-01  .134E-01  .147E-01
  .165E-01  .176E-01  .183E-01  .183E-01  .179E-01  .175E-01  .202E-01  .198E-01
  .167E-01  .205E-01  .254E-01  .374E-01  .383E-01  .337E-01  .260E-01  .177E-01
  .153E-01  .154E-01  .166E-01  .184E-01  .164E-01  .141E-01  .126E-01  .132E-01
  .129E-01  .160E-01  .157E-01  .131E-01  .117E-01  .124E-01  .109E-01  .106E-01
  .102E-01  .998E-02  .978E-02  .964E-02  .954E-02  .947E-02  .942E-02  .937E-02
  .940E-02  .942E-02  .943E-02  .943E-02  .939E-02  .933E-02  .926E-02  .921E-02
  .922E-02  .923E-02  .925E-02  .926E-02  .927E-02  .928E-02  .931E-02  .934E-02
  .936E-02  .938E-02  .940E-02  .000E+00  .000E+00  .000E+00  .000E+00  .000E+00
  .000E+00  .000E+00  .000E+00  .000E+00
  .702E-02  .866E-02  .101E-01  .114E-01  .120E-01  .118E-01  .160E-01  .296E-01
  .352E-01  .402E-01  .493E-01  .450E-01  .457E-01  .687E-01  .874E-01  .111E+00
  .148E+00  .147E+00  .162E+00  .145E+00  .132E+00  .157E+00  .200E+00  .218E+00
  .254E+00  .294E+00  .264E+00  .284E+00  .254E+00  .281E+00  .303E+00  .310E+00
  .316E+00  .298E+00  .300E+00  .292E+00  .280E+00  .271E+00  .265E+00  .257E+00
  .247E+00  .246E+00  .282E+00  .357E+00  .393E+00  .326E+00  .269E+00  .196E+00
  .193E+00  .189E+00  .188E+00  .191E+00  .194E+00  .189E+00  .181E+00  .174E+00
  .169E+00  .166E+00  .165E+00  .163E+00  .161E+00  .157E+00  .154E+00  .152E+00
  .150E+00  .149E+00  .149E+00  .149E+00  .148E+00  .148E+00  .148E+00  .148E+00
  .148E+00  .147E+00  .147E+00  .147E+00  .147E+00  .147E+00  .147E+00  .147E+00
  .147E+00  .146E+00  .146E+00  .146E+00  .146E+00  .146E+00  .146E+00  .146E+00
  .146E+00  .146E+00  .146E+00  .000E+00  .000E+00  .000E+00  .000E+00  .000E+00
  .000E+00  .000E+00  .000E+00  .000E+00
  .726E-02  .751E-02  .789E-02  .812E-02  .765E-02  .750E-02  .872E-02  .106E-01
  .127E-01  .135E-01  .145E-01  .117E-01  .118E-01  .148E-01  .174E-01  .212E-01
  .229E-01  .203E-01  .239E-01  .183E-01  .160E-01  .176E-01  .203E-01  .202E-01
  .218E-01  .233E-01  .193E-01  .173E-01  .159E-01  .157E-01  .153E-01  .147E-01
  .146E-01  .140E-01  .131E-01  .118E-01  .104E-01  .928E-02  .978E-02  .886E-02
  .690E-02  .697E-02  .725E-02  .912E-02  .803E-02  .617E-02  .419E-02  .252E-02
  .195E-02  .177E-02  .172E-02  .157E-02  .118E-02  .868E-03  .664E-03  .608E-03
  .524E-03  .580E-03  .509E-03  .383E-03  .308E-03  .273E-03  .215E-03  .181E-03
  .154E-03  .133E-03  .116E-03  .103E-03  .929E-04  .841E-04  .767E-04  .704E-04
  .650E-04  .603E-04  .562E-04  .526E-04  .451E-04  .407E-04  .371E-04  .341E-04
  .315E-04  .293E-04  .274E-04  .258E-04  .244E-04  .231E-04  .209E-04  .191E-04
  .176E-04  .163E-04  .152E-04  .000E+00  .000E+00  .000E+00  .000E+00  .000E+00
  .000E+00  .000E+00  .000E+00  .000E+00
  .179E-01  .194E-01  .212E-01  .229E-01  .226E-01  .230E-01  .296E-01  .394E-01
  .502E-01  .578E-01  .659E-01  .579E-01  .618E-01  .820E-01  .101E+00  .129E+00
  .154E+00  .149E+00  .188E+00  .157E+00  .147E+00  .173E+00  .210E+00  .222E+00
  .250E+00  .283E+00  .259E+00  .256E+00  .253E+00  .270E+00  .282E+00  .289E+00
  .304E+00  .308E+00  .302E+00  .287E+00  .267E+00  .250E+00  .275E+00  .260E+00
  .210E+00  .235E+00  .266E+00  .362E+00  .343E+00  .282E+00  .204E+00  .131E+00
  .107E+00  .102E+00  .104E+00  .105E+00  .859E-01  .682E-01  .565E-01  .554E-01
  .507E-01  .592E-01  .549E-01  .433E-01  .366E-01  .354E-01  .286E-01  .256E-01
  .230E-01  .209E-01  .192E-01  .178E-01  .167E-01  .157E-01  .148E-01  .140E-01
  .134E-01  .129E-01  .123E-01  .118E-01  .107E-01  .977E-02  .895E-02  .827E-02
  .772E-02  .725E-02  .683E-02  .646E-02  .613E-02  .583E-02  .532E-02  .489E-02
  .452E-02  .421E-02  .394E-02  .000E+00  .000E+00  .000E+00  .000E+00  .000E+00
  .000E+00  .000E+00  .000E+00  .000E+00
  .523E+01  .554E+01  .554E+01  .554E+01  .554E+01  .520E+01  .554E+01  .622E+01
  .623E+01  .623E+01  .624E+01  .625E+01  .554E+01  .560E+01  .576E+01  .576E+01
  .578E+01  .579E+01  .634E+01  .643E+01  .643E+01  .644E+01  .645E+01  .646E+01
  .646E+01  .638E+01  .592E+01  .551E+01  .552E+01  .540E+01  .541E+01  .542E+01
  .543E+01  .544E+01  .545E+01  .546E+01  .547E+01  .548E+01  .689E+01  .691E+01
  .577E+01  .820E+01  .826E+01  .832E+01  .807E+01  .746E+01  .750E+01  .651E+01
  .655E+01  .785E+01  .786E+01  .752E+01  .722E+01  .724E+01  .163E+02  .144E+02
  .114E+02  .125E+02  .125E+02  .125E+02  .160E+02  .160E+02  .518E+01  .518E+01
  .518E+01  .518E+01  .518E+01  .518E+01  .518E+01  .518E+01  .518E+01  .518E+01
  .724E+01  .724E+01  .724E+01  .724E+01  .724E+01  .725E+01  .725E+01  .518E+01
  .518E+01  .518E+01  .518E+01  .518E+01  .518E+01  .518E+01  .518E+01  .518E+01
  .518E+01  .518E+01  .518E+01  .000E+00  .000E+00  .000E+00  .000E+00  .000E+00
  .000E+00  .000E+00  .000E+00  .000E+00
  .620E+01  .620E+01  .621E+01  .621E+01  .573E+01  .573E+01  .556E+01  .620E+01
  .621E+01  .621E+01  .626E+01  .627E+01  .557E+01  .557E+01  .573E+01  .574E+01
  .575E+01  .576E+01  .637E+01  .639E+01  .647E+01  .640E+01  .640E+01  .641E+01
  .642E+01  .643E+01  .555E+01  .556E+01  .557E+01  .547E+01  .549E+01  .549E+01
  .550E+01  .551E+01  .537E+01  .537E+01  .538E+01  .539E+01  .540E+01  .682E+01
  .541E+01  .836E+01  .839E+01  .815E+01  .791E+01  .731E+01  .732E+01  .525E+01
  .525E+01  .526E+01  .526E+01  .526E+01  .526E+01  .526E+01  .526E+01  .526E+01
  .526E+01  .526E+01  .526E+01  .526E+01  .526E+01  .526E+01  .526E+01  .526E+01
  .526E+01  .526E+01  .526E+01  .526E+01  .526E+01  .526E+01  .526E+01  .526E+01
  .526E+01  .526E+01  .526E+01  .526E+01  .526E+01  .526E+01  .526E+01  .526E+01
  .526E+01  .526E+01  .526E+01  .526E+01  .526E+01  .526E+01  .526E+01  .526E+01
  .526E+01  .526E+01  .526E+01  .000E+00  .000E+00  .000E+00  .000E+00  .000E+00
  .000E+00  .000E+00  .000E+00  .000E+00
  .523E+01  .554E+01  .554E+01  .554E+01  .554E+01  .520E+01  .554E+01  .622E+01
  .623E+01  .623E+01  .624E+01  .625E+01  .553E+01  .560E+01  .576E+01  .576E+01
  .577E+01  .579E+01  .633E+01  .642E+01  .643E+01  .643E+01  .644E+01  .645E+01
  .646E+01  .638E+01  .592E+01  .551E+01  .552E+01  .539E+01  .541E+01  .542E+01
  .543E+01  .544E+01  .545E+01  .546E+01  .547E+01  .547E+01  .688E+01  .691E+01
  .576E+01  .819E+01  .825E+01  .831E+01  .806E+01  .745E+01  .749E+01  .720E+01
  .654E+01  .784E+01  .784E+01  .750E+01  .720E+01  .722E+01  .163E+02  .144E+02
  .114E+02  .125E+02  .125E+02  .125E+02  .159E+02  .160E+02  .515E+01  .515E+01
  .515E+01  .515E+01  .515E+01  .515E+01  .515E+01  .515E+01  .515E+01  .515E+01
  .514E+01  .514E+01  .514E+01  .514E+01  .514E+01  .529E+01  .529E+01  .529E+01
  .529E+01  .529E+01  .528E+01  .528E+01  .528E+01  .528E+01  .528E+01  .528E+01
  .528E+01  .528E+01  .527E+01  .000E+00  .000E+00  .000E+00  .000E+00  .000E+00
  .000E+00  .000E+00  .000E+00  .000E+00
/&   ----------  End of spectral data for channel  1  ----------
Response and Fourier amplitude spectra (91 periods,  .04 - 15.0 sec)   for      
Corrected accelerogram   24088-K0185-01252.05       Chan  2:  Up         from   
Uncorrected Accelerogram Data             Processed: 09/10/01, CDMG  088du005   
Record of Sun Sep  9, 2001 16:59:22 PDT               (Avol1 v4.6  7/01 CSMIP)  
CSMIP Preliminary Processing            (Origin:  To be determined)             
24088-K0185-01252.05                 Start time:  9/09/01, 23:59:22.0 UTC (GPS) 
Station No. 24088   34.296N, 118.375W        K2  s/n  185  (3 Channels)         
Pacoima - Kagel Canyon Fire Sta                                                 
Chan  2:  Up                                                                    
Record of Sun Sep  9, 2001 16:59:22 PDT    Sun Sep  9, 2001 16:59:22 PDT        
Hypocenter:  To be determined.               ML:  To be determined.             
Instr Period =  .0109 sec,  Damping =  .680,  Sensitivity =  .63  v/g           
                        Record length = 36.000 sec.                             
                                     Uncor Max  =  -.005 g, at   5.920 sec.     
RMS accel of (uncor) record  =        .                                         
Accelerogram bandpass filtered with 3 dB pts at   .30 and 40.00 cyc/sec         
                 instrument- and baseline-corrected                             
                                                                                
                                                                                
                                                                                
                                                                                
                                                                                
Record of Sun Sep  9, 2001 16:59:22 PDT    Sun Sep  9, 2001 16:59:22 PDT        
                                                                                
24088-K0185-01252.05      Pacoima - Kagel Canyon Fire Sta   Chan  2:  Up        
                                                                                
24088-K0185-01252.05      Pacoima - Kagel Canyon Fire Sta   Chan  2:  Up        
                                                                                
Units for spectra are inches and sec, except Sa is in fraction of g.            
                                                                                
    2  100    2    3    3  200    1    3    1   24   11  185    024088    1    0
   23   59   22    0  252    9    9 2001   10    3  500 7200   39   31   72  360
 7200    1   50    3  185    1    5  360    1    0    0    0    0    0    0    0
    0    4    0    0 3600    2    0    0    0    0   72   31    0    0    0 3600
    0 3600   32   91    1    3    0    0    0    0    3    0    0    0    0    2
    2    2    4    0   32   99    0   32   32    0    0    1    0    0    0    0
  -99   -1    0    0
      .011      .680    36.000      .001      .000   625.000     -.005     5.920
    91.500      .298      .477      .000     5.000      .000      .000      .000
     2.500   -28.079     -.014     -.021     5.000    30.000      .000      .011
     -.001     -.012     2.000    15.000    34.296  -118.375      .478      .177
      .370     -.074      .051  -999.000      .000      .000   -13.300      .000
  1000.000    -1.072      .000      .000      .000      .000      .000      .000
     4.600     4.400      .000   980.665      .010    36.000    14.563      .000
      .000    40.000      .000    36.000      .010      .300      .000      .000
     5.920    -5.103     5.890      .189     5.830     -.010      .000      .300
    40.000      .010      .010      .000      .010      .006      .000      .000
      .022      .160      .013      .007      .001      .000      .000      .000
      .000      .000      .000      .000      .000      .000      .000      .000
      .000      .000      .000      .000
      .050
      .040      .042      .044      .046      .048      .050      .055      .060
      .065      .070      .075      .080      .085      .090      .095      .100
      .110      .120      .130      .140      .150      .160      .170      .180
      .190      .200      .220      .240      .260      .280      .300      .320
      .340      .360      .380      .400      .420      .440      .460      .480
      .500      .550      .600      .650      .700      .750      .800      .850
      .900      .950     1.000     1.100     1.200     1.300     1.400     1.500
     1.600     1.700     1.800     1.900     2.000     2.200     2.400     2.600
     2.800     3.000     3.200     3.400     3.600     3.800     4.000     4.200
     4.400     4.600     4.800     5.000     5.500     6.000     6.500     7.000
     7.500     8.000     8.500     9.000     9.500    10.000    11.000    12.000
    13.000    14.000    15.000      .000      .000      .000      .000      .000
      .000      .000      .000      .000
Fourier amplitude spectra in in/sec.
  .000E+00  .000E+00  .000E+00  .000E+00  .000E+00  .000E+00  .000E+00  .000E+00
  .000E+00  .000E+00  .000E+00  .000E+00  .000E+00  .000E+00  .000E+00  .000E+00
  .000E+00  .000E+00  .000E+00  .000E+00  .000E+00  .000E+00  .000E+00  .000E+00
  .000E+00  .000E+00  .000E+00  .000E+00  .000E+00  .000E+00  .000E+00  .000E+00
  .000E+00  .000E+00  .000E+00  .000E+00  .000E+00  .000E+00  .000E+00  .000E+00
  .000E+00  .000E+00  .000E+00  .000E+00  .000E+00  .000E+00  .000E+00  .000E+00
  .000E+00  .000E+00  .000E+00  .000E+00  .000E+00  .000E+00  .000E+00  .000E+00
  .000E+00  .000E+00  .000E+00  .000E+00  .000E+00  .000E+00  .000E+00  .000E+00
  .000E+00  .000E+00  .000E+00  .000E+00  .000E+00  .000E+00  .000E+00  .000E+00
  .000E+00  .000E+00  .000E+00  .000E+00  .000E+00  .000E+00  .000E+00  .000E+00
  .000E+00  .000E+00  .000E+00  .000E+00  .000E+00  .000E+00  .000E+00  .000E+00
  .000E+00  .000E+00  .000E+00  .000E+00  .000E+00  .000E+00  .000E+00  .000E+00
  .000E+00  .000E+00  .000E+00  .000E+00
Damping =  .05. Data of Sd,Sv,Sa,Pssv,ttSd,ttSv,ttSa :
  .112E-03  .121E-03  .127E-03  .151E-03  .174E-03  .198E-03  .301E-03  .390E-03
  .419E-03  .580E-03  .647E-03  .751E-03  .916E-03  .116E-02  .163E-02  .190E-02
  .162E-02  .205E-02  .285E-02  .362E-02  .473E-02  .546E-02  .601E-02  .580E-02
  .552E-02  .556E-02  .495E-02  .404E-02  .503E-02  .567E-02  .646E-02  .637E-02
  .524E-02  .555E-02  .592E-02  .592E-02  .633E-02  .819E-02  .859E-02  .916E-02
