Response and Fourier amplitude spectra (91 periods,  .04 - 15.0 sec)   for      
Corrected accelerogram   24752-K0477-01252.05       Chan  1:   0 Deg     from   
Uncorrected Accelerogram Data             Processed: 09/10/01, CDMG  752bg005   
Record of Sun Sep  9, 2001 16:59:17 PDT               (Avol1 v4.6  7/01 CSMIP)  
CSMIP Preliminary Processing            (Origin:  To be determined)             
24752-K0477-01252.05                 Start time:  9/09/01, 23:59:17.0 UTC (GPS) 
Station No. 24752   34.143N, 118.304W        K2  s/n  477  (3 Channels)         
Los Angeles - Griffith Park/Toyon(Rock)                                         
Chan  1:   0 Deg                                                                
Record of Sun Sep  9, 2001 16:59:17 PDT    Sun Sep  9, 2001 16:59:17 PDT        
Hypocenter:  To be determined.               ML:  To be determined.             
Instr Period =  .0102 sec,  Damping =  .640,  Sensitivity =  .63  v/g           
                        Record length = 38.000 sec.                             
                                     Uncor Max  =  -.044 g, at   5.930 sec.     
RMS accel of (uncor) record  =        .                                         
Accelerogram bandpass filtered with 3 dB pts at   .30 and 40.00 cyc/sec         
                 instrument- and baseline-corrected                             
                                                                                
                                                                                
                                                                                
                                                                                
                                                                                
Record of Sun Sep  9, 2001 16:59:17 PDT    Sun Sep  9, 2001 16:59:17 PDT        
                                                                                
24752-K0477-01252.05      Los Angeles - Griffith Park/Toyon(Rock)   Chan  1:   0
 Deg                                                                            
24752-K0477-01252.05      Los Angeles - Griffith Park/Toyon(Rock)   Chan  1:   0
 Deg                                                                            
Units for spectra are inches and sec, except Sa is in fraction of g.            
                                                                                
    1  100    1    3    3  200    1    3    1   24   11  477    024752    1    0
   23   59   17    0  252    9    9 2001   10    3    0 7600   39   39   72 -999
 7600    1   50    3  477    1    5  380    1    0    0    0    0    0    0    0
    0    4    0    0 3800    2    0    0    0    0   72   39    0    0    0 3800
    0 3800   40   91    1    3    0    0    0    0    3    0    0    0    0    2
    2    2    4    0   32   99    0   32   32    0    0    1    0    0    0    0
  -99   -1    0    0
      .010      .640    38.000      .003      .000   625.000     -.044     5.930
    97.600      .298      .477      .000     5.000      .000      .000      .000
     2.500   -44.059      .000     -.050     5.000    30.000      .000     -.002
      .001      .003     2.000    15.000    34.143  -118.304      .007      .130
    18.438     -.004      .009  -999.000      .000      .000   -13.200      .000
  1000.000     1.004      .000      .000      .000      .000      .000      .000
     4.600     4.400      .000   980.665      .010    38.000    15.534      .000
      .000    40.000      .000    38.000      .010      .300      .000      .000
     5.930   -40.896     5.690     -.582     5.410     -.020      .000      .300
    40.000      .010      .010      .000      .010      .006      .000      .000
      .212      .060      .019      .014      .001      .000      .000      .000
      .000      .000      .000      .000      .000      .000      .000      .000
      .000      .000      .000      .000
      .050
      .040      .042      .044      .046      .048      .050      .055      .060
      .065      .070      .075      .080      .085      .090      .095      .100
      .110      .120      .130      .140      .150      .160      .170      .180
      .190      .200      .220      .240      .260      .280      .300      .320
      .340      .360      .380      .400      .420      .440      .460      .480
      .500      .550      .600      .650      .700      .750      .800      .850
      .900      .950     1.000     1.100     1.200     1.300     1.400     1.500
     1.600     1.700     1.800     1.900     2.000     2.200     2.400     2.600
     2.800     3.000     3.200     3.400     3.600     3.800     4.000     4.200
     4.400     4.600     4.800     5.000     5.500     6.000     6.500     7.000
     7.500     8.000     8.500     9.000     9.500    10.000    11.000    12.000
    13.000    14.000    15.000      .000      .000      .000      .000      .000
      .000      .000      .000      .000
Fourier amplitude spectra in in/sec.
  .000E+00  .000E+00  .000E+00  .000E+00  .000E+00  .000E+00  .000E+00  .000E+00
  .000E+00  .000E+00  .000E+00  .000E+00  .000E+00  .000E+00  .000E+00  .000E+00
  .000E+00  .000E+00  .000E+00  .000E+00  .000E+00  .000E+00  .000E+00  .000E+00
  .000E+00  .000E+00  .000E+00  .000E+00  .000E+00  .000E+00  .000E+00  .000E+00
  .000E+00  .000E+00  .000E+00  .000E+00  .000E+00  .000E+00  .000E+00  .000E+00
  .000E+00  .000E+00  .000E+00  .000E+00  .000E+00  .000E+00  .000E+00  .000E+00
  .000E+00  .000E+00  .000E+00  .000E+00  .000E+00  .000E+00  .000E+00  .000E+00
  .000E+00  .000E+00  .000E+00  .000E+00  .000E+00  .000E+00  .000E+00  .000E+00
  .000E+00  .000E+00  .000E+00  .000E+00  .000E+00  .000E+00  .000E+00  .000E+00
  .000E+00  .000E+00  .000E+00  .000E+00  .000E+00  .000E+00  .000E+00  .000E+00
  .000E+00  .000E+00  .000E+00  .000E+00  .000E+00  .000E+00  .000E+00  .000E+00
  .000E+00  .000E+00  .000E+00  .000E+00  .000E+00  .000E+00  .000E+00  .000E+00
  .000E+00  .000E+00  .000E+00  .000E+00
Damping =  .05. Data of Sd,Sv,Sa,Pssv,ttSd,ttSv,ttSa :
  .125E-02  .141E-02  .158E-02  .183E-02  .220E-02  .253E-02  .478E-02  .732E-02
  .771E-02  .642E-02  .625E-02  .604E-02  .649E-02  .616E-02  .554E-02  .504E-02
  .592E-02  .731E-02  .972E-02  .137E-01  .142E-01  .135E-01  .115E-01  .940E-02
  .825E-02  .779E-02  .680E-02  .802E-02  .908E-02  .116E-01  .130E-01  .129E-01
  .169E-01  .191E-01  .197E-01  .194E-01  .196E-01  .174E-01  .172E-01  .167E-01
  .151E-01  .127E-01  .128E-01  .133E-01  .125E-01  .121E-01  .126E-01  .141E-01
  .148E-01  .141E-01  .127E-01  .103E-01  .102E-01  .118E-01  .132E-01  .135E-01
  .128E-01  .116E-01  .983E-02  .106E-01  .110E-01  .108E-01  .100E-01  .913E-02
  .836E-02  .784E-02  .755E-02  .744E-02  .745E-02  .754E-02  .767E-02  .782E-02
  .797E-02  .812E-02  .825E-02  .836E-02  .858E-02  .872E-02  .880E-02  .883E-02
  .884E-02  .883E-02  .881E-02  .878E-02  .876E-02  .872E-02  .867E-02  .861E-02
  .855E-02  .851E-02  .849E-02  .000E+00  .000E+00  .000E+00  .000E+00  .000E+00
  .000E+00  .000E+00  .000E+00  .000E+00
  .147E+00  .166E+00  .185E+00  .205E+00  .243E+00  .279E+00  .521E+00  .750E+00
  .763E+00  .598E+00  .535E+00  .497E+00  .501E+00  .480E+00  .416E+00  .369E+00
  .352E+00  .387E+00  .493E+00  .648E+00  .739E+00  .604E+00  .523E+00  .477E+00
  .419E+00  .356E+00  .307E+00  .294E+00  .325E+00  .375E+00  .378E+00  .337E+00
  .368E+00  .410E+00  .421E+00  .368E+00  .349E+00  .359E+00  .368E+00  .381E+00
  .384E+00  .346E+00  .330E+00  .326E+00  .314E+00  .307E+00  .304E+00  .294E+00
  .276E+00  .257E+00  .244E+00  .237E+00  .242E+00  .243E+00  .236E+00  .227E+00
  .218E+00  .212E+00  .209E+00  .208E+00  .209E+00  .214E+00  .218E+00  .220E+00
  .222E+00  .222E+00  .222E+00  .221E+00  .221E+00  .220E+00  .220E+00  .220E+00
  .220E+00  .220E+00  .220E+00  .220E+00  .220E+00  .220E+00  .220E+00  .221E+00
  .221E+00  .221E+00  .221E+00  .221E+00  .221E+00  .221E+00  .221E+00  .221E+00
  .221E+00  .221E+00  .221E+00  .000E+00  .000E+00  .000E+00  .000E+00  .000E+00
  .000E+00  .000E+00  .000E+00  .000E+00
  .804E-01  .817E-01  .829E-01  .885E-01  .986E-01  .106E+00  .161E+00  .212E+00
  .187E+00  .134E+00  .114E+00  .984E-01  .937E-01  .789E-01  .626E-01  .515E-01
  .512E-01  .510E-01  .594E-01  .707E-01  .645E-01  .535E-01  .414E-01  .299E-01
  .240E-01  .197E-01  .146E-01  .142E-01  .140E-01  .150E-01  .151E-01  .133E-01
  .151E-01  .153E-01  .140E-01  .125E-01  .114E-01  .930E-02  .841E-02  .747E-02
  .619E-02  .448E-02  .380E-02  .339E-02  .278E-02  .236E-02  .205E-02  .203E-02
  .190E-02  .165E-02  .135E-02  .914E-03  .770E-03  .753E-03  .727E-03  .656E-03
  .554E-03  .459E-03  .383E-03  .334E-03  .315E-03  .263E-03  .212E-03  .170E-03
  .140E-03  .118E-03  .109E-03  .105E-03  .995E-04  .942E-04  .888E-04  .837E-04
  .788E-04  .744E-04  .704E-04  .667E-04  .614E-04  .573E-04  .535E-04  .501E-04
  .469E-04  .442E-04  .416E-04  .394E-04  .374E-04  .355E-04  .323E-04  .296E-04
  .274E-04  .254E-04  .237E-04  .000E+00  .000E+00  .000E+00  .000E+00  .000E+00
  .000E+00  .000E+00  .000E+00  .000E+00
  .196E+00  .211E+00  .225E+00  .249E+00  .288E+00  .318E+00  .547E+00  .767E+00
  .745E+00  .576E+00  .524E+00  .475E+00  .480E+00  .430E+00  .366E+00  .317E+00
  .338E+00  .383E+00  .470E+00  .614E+00  .594E+00  .529E+00  .424E+00  .328E+00
  .273E+00  .245E+00  .194E+00  .210E+00  .219E+00  .260E+00  .273E+00  .254E+00
  .312E+00  .334E+00  .326E+00  .305E+00  .293E+00  .248E+00  .235E+00  .219E+00
  .189E+00  .146E+00  .134E+00  .129E+00  .113E+00  .101E+00  .993E-01  .104E+00
  .103E+00  .932E-01  .798E-01  .588E-01  .537E-01  .569E-01  .591E-01  .567E-01
  .504E-01  .429E-01  .343E-01  .351E-01  .345E-01  .310E-01  .263E-01  .221E-01
  .188E-01  .164E-01  .148E-01  .137E-01  .130E-01  .125E-01  .121E-01  .117E-01
  .114E-01  .111E-01  .108E-01  .105E-01  .980E-02  .913E-02  .850E-02  .793E-02
  .740E-02  .694E-02  .652E-02  .613E-02  .579E-02  .548E-02  .495E-02  .451E-02
  .413E-02  .382E-02  .356E-02  .000E+00  .000E+00  .000E+00  .000E+00  .000E+00
  .000E+00  .000E+00  .000E+00  .000E+00
  .593E+01  .593E+01  .596E+01  .596E+01  .596E+01  .595E+01  .596E+01  .596E+01
  .597E+01  .586E+01  .586E+01  .576E+01  .576E+01  .573E+01  .573E+01  .573E+01
  .585E+01  .586E+01  .586E+01  .595E+01  .596E+01  .591E+01  .592E+01  .663E+01
  .570E+01  .570E+01  .639E+01  .639E+01  .640E+01  .579E+01  .569E+01  .570E+01
  .570E+01  .664E+01  .665E+01  .632E+01  .634E+01  .635E+01  .618E+01  .621E+01
  .600E+01  .583E+01  .583E+01  .583E+01  .583E+01  .583E+01  .562E+01  .563E+01
  .563E+01  .563E+01  .564E+01  .564E+01  .563E+01  .563E+01  .564E+01  .564E+01
  .564E+01  .657E+01  .564E+01  .540E+01  .540E+01  .540E+01  .540E+01  .540E+01
  .540E+01  .540E+01  .540E+01  .540E+01  .540E+01  .540E+01  .540E+01  .540E+01
  .540E+01  .540E+01  .540E+01  .540E+01  .540E+01  .540E+01  .540E+01  .540E+01
  .540E+01  .540E+01  .540E+01  .540E+01  .540E+01  .540E+01  .540E+01  .540E+01
  .540E+01  .540E+01  .540E+01  .000E+00  .000E+00  .000E+00  .000E+00  .000E+00
  .000E+00  .000E+00  .000E+00  .000E+00
  .594E+01  .594E+01  .594E+01  .594E+01  .594E+01  .597E+01  .617E+01  .598E+01
  .596E+01  .590E+01  .584E+01  .578E+01  .575E+01  .575E+01  .575E+01  .575E+01
  .640E+01  .596E+01  .596E+01  .584E+01  .593E+01  .594E+01  .572E+01  .581E+01
  .581E+01  .581E+01  .581E+01  .581E+01  .572E+01  .572E+01  .572E+01  .572E+01
  .593E+01  .637E+01  .637E+01  .637E+01  .568E+01  .568E+01  .568E+01  .568E+01
  .568E+01  .568E+01  .568E+01  .568E+01  .568E+01  .568E+01  .568E+01  .568E+01
  .568E+01  .568E+01  .568E+01  .568E+01  .568E+01  .568E+01  .568E+01  .568E+01
  .568E+01  .568E+01  .568E+01  .568E+01  .568E+01  .568E+01  .568E+01  .568E+01
  .568E+01  .568E+01  .568E+01  .568E+01  .568E+01  .568E+01  .568E+01  .568E+01
  .568E+01  .568E+01  .568E+01  .568E+01  .568E+01  .568E+01  .568E+01  .568E+01
  .568E+01  .568E+01  .568E+01  .568E+01  .568E+01  .568E+01  .568E+01  .568E+01
  .568E+01  .568E+01  .568E+01  .000E+00  .000E+00  .000E+00  .000E+00  .000E+00
  .000E+00  .000E+00  .000E+00  .000E+00
  .593E+01  .593E+01  .596E+01  .596E+01  .596E+01  .595E+01  .596E+01  .596E+01
  .597E+01  .586E+01  .586E+01  .576E+01  .576E+01  .577E+01  .573E+01  .671E+01
  .585E+01  .586E+01  .586E+01  .594E+01  .582E+01  .591E+01  .591E+01  .569E+01
  .569E+01  .569E+01  .638E+01  .638E+01  .639E+01  .579E+01  .569E+01  .569E+01
  .569E+01  .663E+01  .665E+01  .632E+01  .633E+01  .634E+01  .617E+01  .620E+01
  .598E+01  .582E+01  .582E+01  .582E+01  .582E+01  .582E+01  .561E+01  .561E+01
  .562E+01  .562E+01  .562E+01  .562E+01  .562E+01  .562E+01  .562E+01  .562E+01
  .562E+01  .655E+01  .591E+01  .538E+01  .538E+01  .538E+01  .538E+01  .538E+01
  .538E+01  .538E+01  .590E+01  .590E+01  .590E+01  .590E+01  .590E+01  .590E+01
  .590E+01  .590E+01  .590E+01  .590E+01  .568E+01  .568E+01  .568E+01  .568E+01
  .568E+01  .568E+01  .568E+01  .568E+01  .568E+01  .568E+01  .568E+01  .568E+01
  .568E+01  .568E+01  .568E+01  .000E+00  .000E+00  .000E+00  .000E+00  .000E+00
  .000E+00  .000E+00  .000E+00  .000E+00
/&   ----------  End of spectral data for channel  1  ----------
Response and Fourier amplitude spectra (91 periods,  .04 - 15.0 sec)   for      
Corrected accelerogram   24752-K0477-01252.05       Chan  2:   0 Deg     from   
Uncorrected Accelerogram Data             Processed: 09/10/01, CDMG  752bg005   
Record of Sun Sep  9, 2001 16:59:17 PDT               (Avol1 v4.6  7/01 CSMIP)  
CSMIP Preliminary Processing            (Origin:  To be determined)             
24752-K0477-01252.05                 Start time:  9/09/01, 23:59:17.0 UTC (GPS) 
Station No. 24752   34.143N, 118.304W        K2  s/n  477  (3 Channels)         
Los Angeles - Griffith Park/Toyon(Rock)                                         
Chan  2:   0 Deg                                                                
Record of Sun Sep  9, 2001 16:59:17 PDT    Sun Sep  9, 2001 16:59:17 PDT        
Hypocenter:  To be determined.               ML:  To be determined.             
Instr Period =  .0102 sec,  Damping =  .680,  Sensitivity =  .63  v/g           
                        Record length = 38.000 sec.                             
                                     Uncor Max  =  -.026 g, at   5.710 sec.     
RMS accel of (uncor) record  =        .                                         
Accelerogram bandpass filtered with 3 dB pts at   .30 and 40.00 cyc/sec         
                 instrument- and baseline-corrected                             
                                                                                
                                                                                
                                                                                
                                                                                
                                                                                
Record of Sun Sep  9, 2001 16:59:17 PDT    Sun Sep  9, 2001 16:59:17 PDT        
                                                                                
24752-K0477-01252.05      Los Angeles - Griffith Park/Toyon(Rock)   Chan  2:   0
 Deg                                                                            
24752-K0477-01252.05      Los Angeles - Griffith Park/Toyon(Rock)   Chan  2:   0
 Deg                                                                            
Units for spectra are inches and sec, except Sa is in fraction of g.            
                                                                                
    2  100    2    3    3  200    1    3    1   24   11  477    024752    1    0
   23   59   17    0  252    9    9 2001   10    3    0 7600   39   39   72 -999
 7600    1   50    3  477    1    5  380    1    0    0    0    0    0    0    0
    0    4    0    0 3800    2    0    0    0    0   72   39    0    0    0 3800
    0 3800   40   91    1    3    0    0    0    0    3    0    0    0    0    2
    2    2    4    0   32   99    0   32   32    0    0    1    0    0    0    0
  -99   -1    0    0
      .010      .680    38.000      .002      .000   625.000     -.026     5.710
    97.600      .298      .477      .000     5.000      .000      .000      .000
     2.500   -25.939      .000     -.027     5.000    30.000      .000     -.008
      .005      .012     2.000    15.000    34.143  -118.304      .007      .084
    11.737      .008      .016  -999.000      .000      .000   -13.200      .000
  1000.000     1.010      .000      .000      .000      .000      .000      .000
     4.600     4.400      .000   980.665      .010    38.000    15.534      .000
      .000    40.000      .000    38.000      .010      .300      .000      .000
     5.710   -26.395     6.170      .310     6.190      .010      .000      .300
    40.000      .010      .010      .000      .010      .005      .000      .000
      .099      .055      .020      .009      .001      .000      .000      .000
      .000      .000      .000      .000      .000      .000      .000      .000
      .000      .000      .000      .000
      .050
      .040      .042      .044      .046      .048      .050      .055      .060
      .065      .070      .075      .080      .085      .090      .095      .100
      .110      .120      .130      .140      .150      .160      .170      .180
      .190      .200      .220      .240      .260      .280      .300      .320
      .340      .360      .380      .400      .420      .440      .460      .480
      .500      .550      .600      .650      .700      .750      .800      .850
      .900      .950     1.000     1.100     1.200     1.300     1.400     1.500
     1.600     1.700     1.800     1.900     2.000     2.200     2.400     2.600
     2.800     3.000     3.200     3.400     3.600     3.800     4.000     4.200
     4.400     4.600     4.800     5.000     5.500     6.000     6.500     7.000
     7.500     8.000     8.500     9.000     9.500    10.000    11.000    12.000
    13.000    14.000    15.000      .000      .000      .000      .000      .000
      .000      .000      .000      .000
Fourier amplitude spectra in in/sec.
  .000E+00  .000E+00  .000E+00  .000E+00  .000E+00  .000E+00  .000E+00  .000E+00
  .000E+00  .000E+00  .000E+00  .000E+00  .000E+00  .000E+00  .000E+00  .000E+00
  .000E+00  .000E+00  .000E+00  .000E+00  .000E+00  .000E+00  .000E+00  .000E+00
  .000E+00  .000E+00  .000E+00  .000E+00  .000E+00  .000E+00  .000E+00  .000E+00
  .000E+00  .000E+00  .000E+00  .000E+00  .000E+00  .000E+00  .000E+00  .000E+00
  .000E+00  .000E+00  .000E+00  .000E+00  .000E+00  .000E+00  .000E+00  .000E+00
  .000E+00  .000E+00  .000E+00  .000E+00  .000E+00  .000E+00  .000E+00  .000E+00
  .000E+00  .000E+00  .000E+00  .000E+00  .000E+00  .000E+00  .000E+00  .000E+00
  .000E+00  .000E+00  .000E+00  .000E+00  .000E+00  .000E+00  .000E+00  .000E+00
  .000E+00  .000E+00  .000E+00  .000E+00  .000E+00  .000E+00  .000E+00  .000E+00
  .000E+00  .000E+00  .000E+00  .000E+00  .000E+00  .000E+00  .000E+00  .000E+00
  .000E+00  .000E+00  .000E+00  .000E+00  .000E+00  .000E+00  .000E+00  .000E+00
  .000E+00  .000E+00  .000E+00  .000E+00
Damping =  .05. Data of Sd,Sv,Sa,Pssv,ttSd,ttSv,ttSa :
  .119E-02  .140E-02  .147E-02  .147E-02  .172E-02  .185E-02  .292E-02  .326E-02
  .274E-02  .335E-02  .366E-02  .417E-02  .410E-02  .314E-02  .314E-02  .401E-02
  .537E-02  .528E-02  .694E-02  .846E-02  .907E-02  .844E-02  .766E-02  .710E-02
  .693E-02  .829E-02  .822E-02  .784E-02  .860E-02  .787E-02  .744E-02  .813E-02
  .857E-02  .111E-01  .115E-01  .108E-01  .122E-01  .128E-01  .108E-01  .928E-02
