Response and Fourier amplitude spectra (91 periods,  .04 - 15.0 sec)   for      
Corrected accelerogram   24763-K0186-01253.01       Chan  1: 360 Deg     from   
Uncorrected Accelerogram Data             Processed: 09/10/01, CDMG  ca001      
Record of Sun Sep  9, 2001 16:59:24 PDT               (Avol1 v4.6  7/01 CSMIP)  
CSMIP Preliminary Processing            (Origin:  To be determined)             
24763-K0186-01253.01                 Start time:  9/09/01, 23:59:24.0 UTC (GPS) 
Station No. 24763   34.327N, 118.444W        K2  s/n  186  (3 Channels)         
Sylmar - County Hospital Grounds                                                
Chan  1: 360 Deg                                                                
Record of Sun Sep  9, 2001 16:59:24 PDT    Sun Sep  9, 2001 16:59:24 PDT        
Hypocenter:  To be determined.               ML:  To be determined.             
Instr Period =  .0105 sec,  Damping =  .640,  Sensitivity =  .63  v/g           
                        Record length = 36.000 sec.                             
                                     Uncor Max  =  -.012 g, at   5.155 sec.     
RMS accel of (uncor) record  =        .                                         
Accelerogram bandpass filtered with 3 dB pts at   .30 and 40.00 cyc/sec         
                 instrument- and baseline-corrected                             
                                                                                
                                                                                
                                                                                
                                                                                
                                                                                
Record of Sun Sep  9, 2001 16:59:24 PDT    Sun Sep  9, 2001 16:59:24 PDT        
                                                                                
24763-K0186-01253.01      Sylmar - County Hospital Grounds    Chan  1: 360 Deg  
                                                                                
24763-K0186-01253.01      Sylmar - County Hospital Grounds    Chan  1: 360 Deg  
                                                                                
Units for spectra are inches and sec, except Sa is in fraction of g.            
                                                                                
    1  100    1    3    3  200    1    3    1   24   11  186    024763    1    0
   23   59   24    0  252    9    9 2001   10    3  360 7200   39   32   72  360
 7200    1   50    3  186    1    1  360    1    0    0    0    0    0    0    0
    0    4    0    0 3600    2    0    0    0    0   72   32    0    0    0 3600
    0 3600   33   91    1    3    0    0    0    0    3    0    0    0    0    2
    2    2    4    0   32   99    0   32   32    0    0    1    0    0    0    0
  -99   -1    0    0
      .011      .640    36.000      .001      .000   625.000     -.012     5.155
    94.800      .298      .477      .000     5.000      .000      .000      .000
     2.500     6.890      .012      .001     5.000    30.000      .000      .003
     -.004     -.006     2.000    15.000    34.327  -118.444      .341      .279
      .819     -.052      .039  -999.000      .000      .000   -13.300      .000
  1000.000    -1.011      .000      .000      .000      .000      .000      .000
     4.600     4.400      .000   980.665      .010    36.000    15.088      .000
      .000    40.000      .000    36.000      .010      .300      .000      .000
     5.150   -11.325     5.090      .415     5.150      .025      .000      .300
    40.000      .010      .010      .000      .010      .011      .000      .000
      .025      .160      .022      .018      .002      .000      .000      .000
      .000      .000      .000      .000      .000      .000      .000      .000
      .000      .000      .000      .000
      .050
      .040      .042      .044      .046      .048      .050      .055      .060
      .065      .070      .075      .080      .085      .090      .095      .100
      .110      .120      .130      .140      .150      .160      .170      .180
      .190      .200      .220      .240      .260      .280      .300      .320
      .340      .360      .380      .400      .420      .440      .460      .480
      .500      .550      .600      .650      .700      .750      .800      .850
      .900      .950     1.000     1.100     1.200     1.300     1.400     1.500
     1.600     1.700     1.800     1.900     2.000     2.200     2.400     2.600
     2.800     3.000     3.200     3.400     3.600     3.800     4.000     4.200
     4.400     4.600     4.800     5.000     5.500     6.000     6.500     7.000
     7.500     8.000     8.500     9.000     9.500    10.000    11.000    12.000
    13.000    14.000    15.000      .000      .000      .000      .000      .000
      .000      .000      .000      .000
Fourier amplitude spectra in in/sec.
  .000E+00  .000E+00  .000E+00  .000E+00  .000E+00  .000E+00  .000E+00  .000E+00
  .000E+00  .000E+00  .000E+00  .000E+00  .000E+00  .000E+00  .000E+00  .000E+00
  .000E+00  .000E+00  .000E+00  .000E+00  .000E+00  .000E+00  .000E+00  .000E+00
  .000E+00  .000E+00  .000E+00  .000E+00  .000E+00  .000E+00  .000E+00  .000E+00
  .000E+00  .000E+00  .000E+00  .000E+00  .000E+00  .000E+00  .000E+00  .000E+00
  .000E+00  .000E+00  .000E+00  .000E+00  .000E+00  .000E+00  .000E+00  .000E+00
  .000E+00  .000E+00  .000E+00  .000E+00  .000E+00  .000E+00  .000E+00  .000E+00
  .000E+00  .000E+00  .000E+00  .000E+00  .000E+00  .000E+00  .000E+00  .000E+00
  .000E+00  .000E+00  .000E+00  .000E+00  .000E+00  .000E+00  .000E+00  .000E+00
  .000E+00  .000E+00  .000E+00  .000E+00  .000E+00  .000E+00  .000E+00  .000E+00
  .000E+00  .000E+00  .000E+00  .000E+00  .000E+00  .000E+00  .000E+00  .000E+00
  .000E+00  .000E+00  .000E+00  .000E+00  .000E+00  .000E+00  .000E+00  .000E+00
  .000E+00  .000E+00  .000E+00  .000E+00
Damping =  .05. Data of Sd,Sv,Sa,Pssv,ttSd,ttSv,ttSa :
  .192E-03  .212E-03  .229E-03  .250E-03  .276E-03  .297E-03  .361E-03  .433E-03
  .505E-03  .563E-03  .693E-03  .894E-03  .117E-02  .134E-02  .152E-02  .169E-02
  .207E-02  .247E-02  .354E-02  .442E-02  .522E-02  .621E-02  .698E-02  .722E-02
  .787E-02  .898E-02  .102E-01  .109E-01  .123E-01  .142E-01  .162E-01  .183E-01
  .210E-01  .228E-01  .251E-01  .263E-01  .258E-01  .256E-01  .251E-01  .247E-01
  .238E-01  .221E-01  .206E-01  .227E-01  .202E-01  .193E-01  .191E-01  .194E-01
  .250E-01  .231E-01  .235E-01  .229E-01  .289E-01  .245E-01  .179E-01  .152E-01
  .141E-01  .128E-01  .130E-01  .160E-01  .161E-01  .152E-01  .164E-01  .115E-01
  .113E-01  .110E-01  .108E-01  .106E-01  .104E-01  .103E-01  .103E-01  .102E-01
  .102E-01  .102E-01  .102E-01  .102E-01  .102E-01  .102E-01  .102E-01  .102E-01
  .102E-01  .102E-01  .102E-01  .102E-01  .102E-01  .102E-01  .102E-01  .101E-01
  .101E-01  .101E-01  .101E-01  .000E+00  .000E+00  .000E+00  .000E+00  .000E+00
  .000E+00  .000E+00  .000E+00  .000E+00
  .657E-02  .660E-02  .784E-02  .893E-02  .945E-02  .109E-01  .137E-01  .167E-01
  .218E-01  .250E-01  .266E-01  .348E-01  .421E-01  .547E-01  .529E-01  .635E-01
  .795E-01  .932E-01  .135E+00  .180E+00  .195E+00  .221E+00  .238E+00  .233E+00
  .233E+00  .262E+00  .281E+00  .280E+00  .304E+00  .330E+00  .350E+00  .364E+00
  .402E+00  .439E+00  .433E+00  .399E+00  .404E+00  .401E+00  .383E+00  .379E+00
  .374E+00  .356E+00  .328E+00  .299E+00  .276E+00  .255E+00  .233E+00  .215E+00
  .204E+00  .194E+00  .188E+00  .192E+00  .189E+00  .185E+00  .184E+00  .183E+00
  .181E+00  .179E+00  .176E+00  .174E+00  .172E+00  .170E+00  .169E+00  .169E+00
  .168E+00  .168E+00  .167E+00  .167E+00  .166E+00  .166E+00  .165E+00  .165E+00
  .165E+00  .165E+00  .164E+00  .164E+00  .164E+00  .164E+00  .164E+00  .164E+00
  .163E+00  .163E+00  .163E+00  .163E+00  .163E+00  .163E+00  .163E+00  .163E+00
  .163E+00  .163E+00  .163E+00  .000E+00  .000E+00  .000E+00  .000E+00  .000E+00
  .000E+00  .000E+00  .000E+00  .000E+00
  .123E-01  .123E-01  .121E-01  .121E-01  .123E-01  .122E-01  .122E-01  .123E-01
  .122E-01  .118E-01  .126E-01  .144E-01  .166E-01  .171E-01  .173E-01  .173E-01
  .176E-01  .176E-01  .215E-01  .232E-01  .240E-01  .249E-01  .247E-01  .229E-01
  .223E-01  .231E-01  .216E-01  .195E-01  .187E-01  .186E-01  .185E-01  .183E-01
  .188E-01  .181E-01  .179E-01  .169E-01  .151E-01  .136E-01  .122E-01  .110E-01
  .977E-02  .752E-02  .589E-02  .553E-02  .425E-02  .358E-02  .312E-02  .277E-02
  .317E-02  .263E-02  .242E-02  .195E-02  .207E-02  .149E-02  .946E-03  .698E-03
  .578E-03  .490E-03  .425E-03  .458E-03  .419E-03  .329E-03  .300E-03  .220E-03
  .192E-03  .169E-03  .150E-03  .135E-03  .122E-03  .112E-03  .103E-03  .963E-04
  .901E-04  .846E-04  .798E-04  .754E-04  .663E-04  .590E-04  .531E-04  .482E-04
  .442E-04  .408E-04  .380E-04  .355E-04  .333E-04  .313E-04  .280E-04  .253E-04
  .231E-04  .213E-04  .197E-04  .000E+00  .000E+00  .000E+00  .000E+00  .000E+00
  .000E+00  .000E+00  .000E+00  .000E+00
  .301E-01  .317E-01  .327E-01  .341E-01  .362E-01  .374E-01  .412E-01  .453E-01
  .488E-01  .505E-01  .580E-01  .702E-01  .864E-01  .939E-01  .100E+00  .106E+00
  .118E+00  .129E+00  .171E+00  .198E+00  .219E+00  .244E+00  .258E+00  .252E+00
  .260E+00  .282E+00  .292E+00  .287E+00  .297E+00  .318E+00  .339E+00  .360E+00
  .389E+00  .397E+00  .415E+00  .413E+00  .386E+00  .366E+00  .344E+00  .323E+00
  .299E+00  .253E+00  .216E+00  .219E+00  .181E+00  .162E+00  .150E+00  .144E+00
  .174E+00  .153E+00  .148E+00  .131E+00  .151E+00  .118E+00  .806E-01  .635E-01
  .553E-01  .472E-01  .453E-01  .530E-01  .507E-01  .434E-01  .428E-01  .278E-01
  .253E-01  .230E-01  .211E-01  .195E-01  .182E-01  .171E-01  .161E-01  .153E-01
  .146E-01  .139E-01  .133E-01  .128E-01  .116E-01  .107E-01  .987E-02  .916E-02
  .854E-02  .801E-02  .753E-02  .711E-02  .673E-02  .639E-02  .580E-02  .531E-02
  .489E-02  .454E-02  .424E-02  .000E+00  .000E+00  .000E+00  .000E+00  .000E+00
  .000E+00  .000E+00  .000E+00  .000E+00
  .515E+01  .515E+01  .515E+01  .515E+01  .515E+01  .515E+01  .515E+01  .515E+01
  .515E+01  .514E+01  .513E+01  .513E+01  .514E+01  .515E+01  .515E+01  .515E+01
  .515E+01  .515E+01  .516E+01  .517E+01  .525E+01  .526E+01  .527E+01  .528E+01
  .528E+01  .529E+01  .530E+01  .531E+01  .532E+01  .534E+01  .535E+01  .537E+01
  .573E+01  .559E+01  .561E+01  .563E+01  .565E+01  .547E+01  .548E+01  .550E+01
  .551E+01  .531E+01  .533E+01  .729E+01  .734E+01  .513E+01  .513E+01  .251E+02
  .248E+02  .204E+02  .204E+02  .245E+02  .235E+02  .231E+02  .232E+02  .232E+02
  .227E+02  .221E+02  .164E+02  .164E+02  .164E+02  .158E+02  .159E+02  .514E+01
  .514E+01  .514E+01  .514E+01  .514E+01  .514E+01  .514E+01  .514E+01  .514E+01
  .514E+01  .514E+01  .514E+01  .514E+01  .514E+01  .514E+01  .514E+01  .514E+01
  .514E+01  .514E+01  .514E+01  .514E+01  .514E+01  .514E+01  .514E+01  .514E+01
  .514E+01  .514E+01  .514E+01  .000E+00  .000E+00  .000E+00  .000E+00  .000E+00
  .000E+00  .000E+00  .000E+00  .000E+00
  .519E+01  .519E+01  .518E+01  .519E+01  .519E+01  .518E+01  .518E+01  .519E+01
  .519E+01  .519E+01  .520E+01  .652E+01  .511E+01  .613E+01  .519E+01  .519E+01
  .519E+01  .520E+01  .520E+01  .521E+01  .521E+01  .530E+01  .531E+01  .532E+01
  .532E+01  .524E+01  .525E+01  .526E+01  .526E+01  .527E+01  .527E+01  .528E+01
  .566E+01  .568E+01  .569E+01  .554E+01  .556E+01  .558E+01  .559E+01  .518E+01
  .518E+01  .519E+01  .519E+01  .520E+01  .520E+01  .520E+01  .520E+01  .520E+01
  .520E+01  .520E+01  .508E+01  .508E+01  .508E+01  .508E+01  .508E+01  .508E+01
  .508E+01  .508E+01  .508E+01  .508E+01  .508E+01  .508E+01  .508E+01  .508E+01
  .508E+01  .508E+01  .508E+01  .508E+01  .508E+01  .508E+01  .508E+01  .508E+01
  .508E+01  .508E+01  .508E+01  .508E+01  .508E+01  .508E+01  .508E+01  .508E+01
  .508E+01  .508E+01  .508E+01  .508E+01  .508E+01  .508E+01  .508E+01  .508E+01
  .508E+01  .508E+01  .508E+01  .000E+00  .000E+00  .000E+00  .000E+00  .000E+00
  .000E+00  .000E+00  .000E+00  .000E+00
  .515E+01  .515E+01  .515E+01  .515E+01  .515E+01  .515E+01  .515E+01  .515E+01
  .515E+01  .514E+01  .513E+01  .513E+01  .514E+01  .514E+01  .515E+01  .515E+01
  .515E+01  .515E+01  .515E+01  .524E+01  .525E+01  .526E+01  .527E+01  .527E+01
  .528E+01  .528E+01  .530E+01  .531E+01  .532E+01  .533E+01  .535E+01  .537E+01
  .573E+01  .559E+01  .561E+01  .563E+01  .564E+01  .546E+01  .548E+01  .549E+01
  .550E+01  .530E+01  .532E+01  .728E+01  .733E+01  .512E+01  .512E+01  .251E+02
  .248E+02  .204E+02  .204E+02  .245E+02  .235E+02  .231E+02  .231E+02  .231E+02
  .512E+01  .512E+01  .512E+01  .164E+02  .164E+02  .158E+02  .158E+02  .511E+01
  .511E+01  .511E+01  .511E+01  .511E+01  .511E+01  .510E+01  .510E+01  .510E+01
  .510E+01  .510E+01  .510E+01  .510E+01  .510E+01  .510E+01  .510E+01  .510E+01
  .509E+01  .509E+01  .509E+01  .509E+01  .509E+01  .509E+01  .509E+01  .509E+01
  .509E+01  .509E+01  .509E+01  .000E+00  .000E+00  .000E+00  .000E+00  .000E+00
  .000E+00  .000E+00  .000E+00  .000E+00
/&   ----------  End of spectral data for channel  1  ----------
Response and Fourier amplitude spectra (91 periods,  .04 - 15.0 sec)   for      
Corrected accelerogram   24763-K0186-01253.01       Chan  2:  Up         from   
Uncorrected Accelerogram Data             Processed: 09/10/01, CDMG  ca001      
Record of Sun Sep  9, 2001 16:59:24 PDT               (Avol1 v4.6  7/01 CSMIP)  
CSMIP Preliminary Processing            (Origin:  To be determined)             
24763-K0186-01253.01                 Start time:  9/09/01, 23:59:24.0 UTC (GPS) 
Station No. 24763   34.327N, 118.444W        K2  s/n  186  (3 Channels)         
Sylmar - County Hospital Grounds                                                
Chan  2:  Up                                                                    
Record of Sun Sep  9, 2001 16:59:24 PDT    Sun Sep  9, 2001 16:59:24 PDT        
Hypocenter:  To be determined.               ML:  To be determined.             
Instr Period =  .0111 sec,  Damping =  .630,  Sensitivity =  .63  v/g           
                        Record length = 36.000 sec.                             
                                     Uncor Max  =   .004 g, at   6.445 sec.     
RMS accel of (uncor) record  =        .                                         
Accelerogram bandpass filtered with 3 dB pts at   .30 and 40.00 cyc/sec         
                 instrument- and baseline-corrected                             
                                                                                
                                                                                
                                                                                
                                                                                
                                                                                
Record of Sun Sep  9, 2001 16:59:24 PDT    Sun Sep  9, 2001 16:59:24 PDT        
                                                                                
24763-K0186-01253.01      Sylmar - County Hospital Grounds    Chan  2:  Up      
                                                                                
24763-K0186-01253.01      Sylmar - County Hospital Grounds    Chan  2:  Up      
                                                                                
Units for spectra are inches and sec, except Sa is in fraction of g.            
                                                                                
    2  100    2    3    3  200    1    3    1   24   11  186    024763    1    0
   23   59   24    0  252    9    9 2001   10    3  500 7200   39   32   72  360
 7200    1   50    3  186    1    1  360    1    0    0    0    0    0    0    0
    0    4    0    0 3600    2    0    0    0    0   72   32    0    0    0 3600
    0 3600   33   91    1    3    0    0    0    0    3    0    0    0    0    2
    2    2    4    0   32   99    0   32   32    0    0    1    0    0    0    0
  -99   -1    0    0
      .011      .630    36.000      .001      .000   625.000      .004     6.445
    90.200      .298      .477      .000     5.000      .000      .000      .000
     2.500   -48.653     -.029     -.033     5.000    30.000      .000      .004
     -.004     -.008     2.000    15.000    34.327  -118.444      .757      .210
      .278     -.106      .090  -999.000      .000      .000   -13.300      .000
  1000.000    -1.154      .000      .000      .000      .000      .000      .000
     4.600     4.400      .000   980.665      .010    36.000    14.356      .000
      .000    40.000      .000    36.000      .010      .300      .000      .000
     6.440     3.885    10.440      .114    21.320      .012      .000      .300
    40.000      .010      .010      .000      .010      .008      .000      .000
      .013      .085      .007      .007      .001      .000      .000      .000
      .000      .000      .000      .000      .000      .000      .000      .000
      .000      .000      .000      .000
      .050
      .040      .042      .044      .046      .048      .050      .055      .060
      .065      .070      .075      .080      .085      .090      .095      .100
      .110      .120      .130      .140      .150      .160      .170      .180
      .190      .200      .220      .240      .260      .280      .300      .320
      .340      .360      .380      .400      .420      .440      .460      .480
      .500      .550      .600      .650      .700      .750      .800      .850
      .900      .950     1.000     1.100     1.200     1.300     1.400     1.500
     1.600     1.700     1.800     1.900     2.000     2.200     2.400     2.600
     2.800     3.000     3.200     3.400     3.600     3.800     4.000     4.200
     4.400     4.600     4.800     5.000     5.500     6.000     6.500     7.000
     7.500     8.000     8.500     9.000     9.500    10.000    11.000    12.000
    13.000    14.000    15.000      .000      .000      .000      .000      .000
      .000      .000      .000      .000
Fourier amplitude spectra in in/sec.
  .000E+00  .000E+00  .000E+00  .000E+00  .000E+00  .000E+00  .000E+00  .000E+00
  .000E+00  .000E+00  .000E+00  .000E+00  .000E+00  .000E+00  .000E+00  .000E+00
  .000E+00  .000E+00  .000E+00  .000E+00  .000E+00  .000E+00  .000E+00  .000E+00
  .000E+00  .000E+00  .000E+00  .000E+00  .000E+00  .000E+00  .000E+00  .000E+00
  .000E+00  .000E+00  .000E+00  .000E+00  .000E+00  .000E+00  .000E+00  .000E+00
  .000E+00  .000E+00  .000E+00  .000E+00  .000E+00  .000E+00  .000E+00  .000E+00
  .000E+00  .000E+00  .000E+00  .000E+00  .000E+00  .000E+00  .000E+00  .000E+00
  .000E+00  .000E+00  .000E+00  .000E+00  .000E+00  .000E+00  .000E+00  .000E+00
  .000E+00  .000E+00  .000E+00  .000E+00  .000E+00  .000E+00  .000E+00  .000E+00
  .000E+00  .000E+00  .000E+00  .000E+00  .000E+00  .000E+00  .000E+00  .000E+00
  .000E+00  .000E+00  .000E+00  .000E+00  .000E+00  .000E+00  .000E+00  .000E+00
  .000E+00  .000E+00  .000E+00  .000E+00  .000E+00  .000E+00  .000E+00  .000E+00
  .000E+00  .000E+00  .000E+00  .000E+00
Damping =  .05. Data of Sd,Sv,Sa,Pssv,ttSd,ttSv,ttSa :
  .732E-04  .825E-04  .917E-04  .103E-03  .115E-03  .134E-03  .195E-03  .237E-03
  .346E-03  .421E-03  .563E-03  .723E-03  .924E-03  .777E-03  .917E-03  .964E-03
  .119E-02  .119E-02  .151E-02  .220E-02  .226E-02  .200E-02  .236E-02  .221E-02
  .255E-02  .273E-02  .380E-02  .354E-02  .407E-02  .438E-02  .693E-02  .750E-02
  .642E-02  .630E-02  .566E-02  .704E-02  .767E-02  .835E-02  .943E-02  .103E-01
