Response and Fourier amplitude spectra (91 periods,  .04 - 15.0 sec)   for      
Corrected accelerogram   24808-L1128-01252.10       Chan  1: 360 Deg     from   
Uncorrected Accelerogram Data             Processed: 09/10/01, CDMG  808gu010   
Record of Sun Sep  9, 2001 16:59:18 PDT               (Avol1 v4.6  7/01 CSMIP)  
CSMIP Preliminary Processing            (Origin:  To be determined)             
24808-L1128-01252.10                 Start time:  9/09/01, 23:59:18.0 UTC (GPS) 
Station No. 24808   34.172N, 118.420W      Etna  s/n 1128  (3 Channels)         
Van Nuys - Burbank & Fulton                                                     
Chan  1: 360 Deg                                                                
Record of Sun Sep  9, 2001 16:59:18 PDT    Sun Sep  9, 2001 16:59:18 PDT        
Hypocenter:  To be determined.               ML:  To be determined.             
Instr Period =  .0109 sec,  Damping =  .670,  Sensitivity =  .63  v/g           
                        Record length = 41.000 sec.                             
                                     Uncor Max  =  -.031 g, at   6.015 sec.     
RMS accel of (uncor) record  =        .                                         
Accelerogram bandpass filtered with 3 dB pts at   .30 and 40.00 cyc/sec         
                 instrument- and baseline-corrected                             
                                                                                
                                                                                
                                                                                
                                                                                
                                                                                
Record of Sun Sep  9, 2001 16:59:18 PDT    Sun Sep  9, 2001 16:59:18 PDT        
                                                                                
24808-L1128-01252.10      Van Nuys - Burbank & Fulton   Chan  1: 360 Deg        
                                                                                
24808-L1128-01252.10      Van Nuys - Burbank & Fulton   Chan  1: 360 Deg        
                                                                                
Units for spectra are inches and sec, except Sa is in fraction of g.            
                                                                                
    1  100    1    3    3  200    1    3    1   24   12 1128    024808    1    0
   23   59   18    0  252    9    9 2001   10    3  360 8200   39   27   72  360
 8200    1   50    3 1128    1   10  410    1    0    0    0    0    0    0    0
    0    4    0    0 4100    2    0    0    0    0   72   27    0    0    0 4100
    0 4100   28   91    1    3    0    0    0    0    3    0    0    0    0    2
    2    2    4    0   32   99    0   32   32    0    0    1    0    0    0    0
  -99   -1    0    0
      .011      .670    41.000      .002      .000   625.000     -.031     6.015
    91.500      .298      .477      .000     5.000      .000      .000      .000
     2.500    -1.990      .018     -.017     5.000    30.000      .000      .003
     -.001     -.004     2.000    15.000    34.172  -118.420      .018      .318
    17.897     -.019      .011  -999.000      .000      .000   -13.300      .000
  1000.000     1.004      .000      .000      .000      .000      .000      .000
     4.600     4.400      .000   980.665      .010    41.000    14.563      .000
      .000    40.000      .000    41.000      .010      .300      .000      .000
     6.010   -30.439     5.980      .800    10.370      .061      .000      .300
    40.000      .010      .010      .000      .010      .028      .000      .000
      .076      .220      .068      .035      .011      .000      .000      .000
      .000      .000      .000      .000      .000      .000      .000      .000
      .000      .000      .000      .000
      .050
      .040      .042      .044      .046      .048      .050      .055      .060
      .065      .070      .075      .080      .085      .090      .095      .100
      .110      .120      .130      .140      .150      .160      .170      .180
      .190      .200      .220      .240      .260      .280      .300      .320
      .340      .360      .380      .400      .420      .440      .460      .480
      .500      .550      .600      .650      .700      .750      .800      .850
      .900      .950     1.000     1.100     1.200     1.300     1.400     1.500
     1.600     1.700     1.800     1.900     2.000     2.200     2.400     2.600
     2.800     3.000     3.200     3.400     3.600     3.800     4.000     4.200
     4.400     4.600     4.800     5.000     5.500     6.000     6.500     7.000
     7.500     8.000     8.500     9.000     9.500    10.000    11.000    12.000
    13.000    14.000    15.000      .000      .000      .000      .000      .000
      .000      .000      .000      .000
Fourier amplitude spectra in in/sec.
  .000E+00  .000E+00  .000E+00  .000E+00  .000E+00  .000E+00  .000E+00  .000E+00
  .000E+00  .000E+00  .000E+00  .000E+00  .000E+00  .000E+00  .000E+00  .000E+00
  .000E+00  .000E+00  .000E+00  .000E+00  .000E+00  .000E+00  .000E+00  .000E+00
  .000E+00  .000E+00  .000E+00  .000E+00  .000E+00  .000E+00  .000E+00  .000E+00
  .000E+00  .000E+00  .000E+00  .000E+00  .000E+00  .000E+00  .000E+00  .000E+00
  .000E+00  .000E+00  .000E+00  .000E+00  .000E+00  .000E+00  .000E+00  .000E+00
  .000E+00  .000E+00  .000E+00  .000E+00  .000E+00  .000E+00  .000E+00  .000E+00
  .000E+00  .000E+00  .000E+00  .000E+00  .000E+00  .000E+00  .000E+00  .000E+00
  .000E+00  .000E+00  .000E+00  .000E+00  .000E+00  .000E+00  .000E+00  .000E+00
  .000E+00  .000E+00  .000E+00  .000E+00  .000E+00  .000E+00  .000E+00  .000E+00
  .000E+00  .000E+00  .000E+00  .000E+00  .000E+00  .000E+00  .000E+00  .000E+00
  .000E+00  .000E+00  .000E+00  .000E+00  .000E+00  .000E+00  .000E+00  .000E+00
  .000E+00  .000E+00  .000E+00  .000E+00
Damping =  .05. Data of Sd,Sv,Sa,Pssv,ttSd,ttSv,ttSa :
  .617E-03  .679E-03  .732E-03  .837E-03  .105E-02  .122E-02  .125E-02  .171E-02
  .234E-02  .330E-02  .376E-02  .424E-02  .434E-02  .386E-02  .371E-02  .393E-02
  .513E-02  .672E-02  .899E-02  .117E-01  .123E-01  .141E-01  .153E-01  .180E-01
  .213E-01  .256E-01  .357E-01  .366E-01  .342E-01  .313E-01  .278E-01  .332E-01
  .305E-01  .312E-01  .320E-01  .367E-01  .337E-01  .357E-01  .376E-01  .386E-01
  .394E-01  .546E-01  .535E-01  .542E-01  .674E-01  .710E-01  .615E-01  .808E-01
  .845E-01  .961E-01  .112E+00  .116E+00  .980E-01  .907E-01  .657E-01  .571E-01
  .561E-01  .525E-01  .475E-01  .470E-01  .478E-01  .448E-01  .435E-01  .396E-01
  .392E-01  .398E-01  .385E-01  .362E-01  .337E-01  .315E-01  .299E-01  .288E-01
  .281E-01  .276E-01  .273E-01  .271E-01  .269E-01  .267E-01  .266E-01  .265E-01
  .264E-01  .263E-01  .263E-01  .262E-01  .262E-01  .261E-01  .261E-01  .260E-01
  .260E-01  .259E-01  .259E-01  .000E+00  .000E+00  .000E+00  .000E+00  .000E+00
  .000E+00  .000E+00  .000E+00  .000E+00
  .307E-01  .408E-01  .468E-01  .534E-01  .651E-01  .766E-01  .836E-01  .130E+00
  .185E+00  .259E+00  .290E+00  .298E+00  .273E+00  .222E+00  .203E+00  .204E+00
  .263E+00  .311E+00  .381E+00  .488E+00  .444E+00  .478E+00  .474E+00  .513E+00
  .601E+00  .792E+00  .101E+01  .997E+00  .905E+00  .817E+00  .664E+00  .648E+00
  .583E+00  .576E+00  .569E+00  .597E+00  .624E+00  .640E+00  .629E+00  .609E+00
  .583E+00  .650E+00  .714E+00  .627E+00  .584E+00  .652E+00  .597E+00  .618E+00
  .609E+00  .678E+00  .753E+00  .679E+00  .666E+00  .535E+00  .453E+00  .452E+00
  .421E+00  .381E+00  .347E+00  .344E+00  .341E+00  .336E+00  .332E+00  .328E+00
  .325E+00  .322E+00  .319E+00  .318E+00  .316E+00  .315E+00  .315E+00  .314E+00
  .314E+00  .313E+00  .313E+00  .313E+00  .313E+00  .313E+00  .312E+00  .312E+00
  .312E+00  .312E+00  .312E+00  .312E+00  .312E+00  .312E+00  .312E+00  .312E+00
  .312E+00  .312E+00  .312E+00  .000E+00  .000E+00  .000E+00  .000E+00  .000E+00
  .000E+00  .000E+00  .000E+00  .000E+00
  .397E-01  .392E-01  .385E-01  .405E-01  .468E-01  .499E-01  .421E-01  .492E-01
  .569E-01  .688E-01  .688E-01  .681E-01  .613E-01  .490E-01  .425E-01  .409E-01
  .434E-01  .471E-01  .543E-01  .619E-01  .562E-01  .560E-01  .549E-01  .569E-01
  .609E-01  .662E-01  .762E-01  .649E-01  .522E-01  .410E-01  .316E-01  .332E-01
  .271E-01  .248E-01  .228E-01  .235E-01  .196E-01  .191E-01  .184E-01  .173E-01
  .163E-01  .186E-01  .153E-01  .132E-01  .142E-01  .130E-01  .988E-02  .115E-01
  .107E-01  .110E-01  .115E-01  .986E-02  .702E-02  .554E-02  .345E-02  .263E-02
  .225E-02  .188E-02  .152E-02  .136E-02  .125E-02  .976E-03  .806E-03  .632E-03
  .521E-03  .462E-03  .394E-03  .330E-03  .276E-03  .233E-03  .207E-03  .190E-03
  .175E-03  .161E-03  .150E-03  .140E-03  .120E-03  .105E-03  .955E-04  .874E-04
  .804E-04  .745E-04  .693E-04  .648E-04  .609E-04  .573E-04  .514E-04  .468E-04
  .429E-04  .396E-04  .367E-04  .000E+00  .000E+00  .000E+00  .000E+00  .000E+00
  .000E+00  .000E+00  .000E+00  .000E+00
  .970E-01  .102E+00  .104E+00  .114E+00  .137E+00  .153E+00  .142E+00  .179E+00
  .226E+00  .296E+00  .315E+00  .333E+00  .321E+00  .270E+00  .246E+00  .247E+00
  .293E+00  .352E+00  .435E+00  .523E+00  .515E+00  .555E+00  .567E+00  .629E+00
  .704E+00  .805E+00  .102E+01  .958E+00  .826E+00  .703E+00  .582E+00  .651E+00
  .563E+00  .545E+00  .530E+00  .577E+00  .504E+00  .510E+00  .513E+00  .506E+00
  .495E+00  .624E+00  .560E+00  .524E+00  .605E+00  .595E+00  .483E+00  .597E+00
  .590E+00  .635E+00  .701E+00  .661E+00  .513E+00  .439E+00  .295E+00  .239E+00
  .220E+00  .194E+00  .166E+00  .156E+00  .150E+00  .128E+00  .114E+00  .957E-01
  .879E-01  .834E-01  .757E-01  .669E-01  .588E-01  .521E-01  .470E-01  .431E-01
  .401E-01  .377E-01  .357E-01  .341E-01  .307E-01  .279E-01  .257E-01  .237E-01
  .221E-01  .207E-01  .194E-01  .183E-01  .173E-01  .164E-01  .149E-01  .136E-01
  .125E-01  .116E-01  .109E-01  .000E+00  .000E+00  .000E+00  .000E+00  .000E+00
  .000E+00  .000E+00  .000E+00  .000E+00
  .601E+01  .601E+01  .601E+01  .601E+01  .601E+01  .601E+01  .602E+01  .612E+01
  .613E+01  .613E+01  .613E+01  .626E+01  .627E+01  .603E+01  .603E+01  .603E+01
  .725E+01  .733E+01  .603E+01  .603E+01  .604E+01  .614E+01  .614E+01  .615E+01
  .615E+01  .649E+01  .652E+01  .643E+01  .634E+01  .623E+01  .624E+01  .101E+02
  .103E+02  .950E+01  .952E+01  .936E+01  .919E+01  .611E+01  .612E+01  .612E+01
  .613E+01  .859E+01  .902E+01  .904E+01  .906E+01  .113E+02  .114E+02  .133E+02
  .134E+02  .134E+02  .130E+02  .122E+02  .112E+02  .107E+02  .103E+02  .846E+01
  .850E+01  .852E+01  .854E+01  .108E+02  .108E+02  .108E+02  .122E+02  .122E+02
  .103E+02  .103E+02  .103E+02  .103E+02  .103E+02  .104E+02  .104E+02  .104E+02
  .104E+02  .104E+02  .104E+02  .103E+02  .104E+02  .104E+02  .104E+02  .104E+02
  .104E+02  .104E+02  .104E+02  .104E+02  .104E+02  .104E+02  .104E+02  .104E+02
  .104E+02  .104E+02  .104E+02  .000E+00  .000E+00  .000E+00  .000E+00  .000E+00
  .000E+00  .000E+00  .000E+00  .000E+00
  .602E+01  .614E+01  .614E+01  .614E+01  .614E+01  .603E+01  .610E+01  .614E+01
  .614E+01  .615E+01  .615E+01  .624E+01  .624E+01  .605E+01  .631E+01  .605E+01
  .722E+01  .729E+01  .744E+01  .739E+01  .616E+01  .617E+01  .618E+01  .619E+01
  .611E+01  .643E+01  .646E+01  .638E+01  .639E+01  .629E+01  .630E+01  .102E+02
  .102E+02  .958E+01  .943E+01  .945E+01  .621E+01  .621E+01  .621E+01  .622E+01
  .622E+01  .793E+01  .913E+01  .913E+01  .609E+01  .112E+02  .112E+02  .135E+02
  .900E+01  .132E+02  .132E+02  .120E+02  .120E+02  .111E+02  .878E+01  .878E+01
  .878E+01  .878E+01  .597E+01  .597E+01  .597E+01  .597E+01  .597E+01  .597E+01
  .597E+01  .597E+01  .597E+01  .597E+01  .597E+01  .597E+01  .597E+01  .597E+01
  .597E+01  .597E+01  .597E+01  .597E+01  .597E+01  .597E+01  .597E+01  .597E+01
  .597E+01  .597E+01  .597E+01  .597E+01  .597E+01  .597E+01  .597E+01  .597E+01
  .597E+01  .597E+01  .597E+01  .000E+00  .000E+00  .000E+00  .000E+00  .000E+00
  .000E+00  .000E+00  .000E+00  .000E+00
  .601E+01  .601E+01  .601E+01  .601E+01  .601E+01  .601E+01  .601E+01  .612E+01
  .613E+01  .613E+01  .613E+01  .626E+01  .627E+01  .603E+01  .603E+01  .602E+01
  .725E+01  .733E+01  .602E+01  .603E+01  .604E+01  .614E+01  .614E+01  .614E+01
  .615E+01  .648E+01  .651E+01  .643E+01  .633E+01  .623E+01  .624E+01  .101E+02
  .103E+02  .949E+01  .951E+01  .935E+01  .918E+01  .611E+01  .611E+01  .611E+01
  .612E+01  .858E+01  .901E+01  .903E+01  .905E+01  .113E+02  .114E+02  .133E+02
  .133E+02  .134E+02  .130E+02  .121E+02  .111E+02  .107E+02  .103E+02  .843E+01
  .848E+01  .850E+01  .851E+01  .107E+02  .107E+02  .107E+02  .121E+02  .121E+02
  .103E+02  .103E+02  .103E+02  .103E+02  .103E+02  .103E+02  .796E+01  .796E+01
  .796E+01  .796E+01  .796E+01  .796E+01  .796E+01  .598E+01  .598E+01  .598E+01
  .598E+01  .598E+01  .598E+01  .598E+01  .598E+01  .598E+01  .597E+01  .597E+01
  .597E+01  .597E+01  .597E+01  .000E+00  .000E+00  .000E+00  .000E+00  .000E+00
  .000E+00  .000E+00  .000E+00  .000E+00
/&   ----------  End of spectral data for channel  1  ----------
Response and Fourier amplitude spectra (91 periods,  .04 - 15.0 sec)   for      
Corrected accelerogram   24808-L1128-01252.10       Chan  2:  Up         from   
Uncorrected Accelerogram Data             Processed: 09/10/01, CDMG  808gu010   
Record of Sun Sep  9, 2001 16:59:18 PDT               (Avol1 v4.6  7/01 CSMIP)  
CSMIP Preliminary Processing            (Origin:  To be determined)             
24808-L1128-01252.10                 Start time:  9/09/01, 23:59:18.0 UTC (GPS) 
Station No. 24808   34.172N, 118.420W      Etna  s/n 1128  (3 Channels)         
Van Nuys - Burbank & Fulton                                                     
Chan  2:  Up                                                                    
Record of Sun Sep  9, 2001 16:59:18 PDT    Sun Sep  9, 2001 16:59:18 PDT        
Hypocenter:  To be determined.               ML:  To be determined.             
Instr Period =  .0108 sec,  Damping =  .660,  Sensitivity =  .63  v/g           
                        Record length = 41.000 sec.                             
                                     Uncor Max  =   .015 g, at   5.095 sec.     
RMS accel of (uncor) record  =        .                                         
Accelerogram bandpass filtered with 3 dB pts at   .30 and 40.00 cyc/sec         
                 instrument- and baseline-corrected                             
                                                                                
                                                                                
                                                                                
                                                                                
                                                                                
Record of Sun Sep  9, 2001 16:59:18 PDT    Sun Sep  9, 2001 16:59:18 PDT        
                                                                                
24808-L1128-01252.10      Van Nuys - Burbank & Fulton   Chan  2:  Up            
                                                                                
24808-L1128-01252.10      Van Nuys - Burbank & Fulton   Chan  2:  Up            
                                                                                
Units for spectra are inches and sec, except Sa is in fraction of g.            
                                                                                
    2  100    2    3    3  200    1    3    1   24   12 1128    024808    1    0
   23   59   18    0  252    9    9 2001   10    3  500 8200   39   27   72  360
 8200    1   50    3 1128    1   10  410    1    0    0    0    0    0    0    0
    0    4    0    0 4100    2    0    0    0    0   72   27    0    0    0 4100
    0 4100   28   91    1    3    0    0    0    0    3    0    0    0    0    2
    2    2    4    0   32   99    0   32   32    0    0    1    0    0    0    0
  -99   -1    0    0
      .011      .660    41.000      .002      .000   625.000      .015     5.095
    93.000      .298      .477      .000     5.000      .000      .000      .000
     2.500   -35.648     -.015     -.032     5.000    30.000      .000      .001
      .001      .000     2.000    15.000    34.172  -118.420      .055      .195
     3.573     -.011      .012  -999.000      .000      .000   -13.300      .000
  1000.000     1.007      .000      .000      .000      .000      .000      .000
     4.600     4.400      .000   980.665      .010    41.000    14.801      .000
      .000    40.000      .000    41.000      .010      .300      .000      .000
     5.090    14.519     5.150      .357    12.590      .031      .000      .300
    40.000      .010      .010      .000      .010      .017      .000      .000
      .047      .160      .036      .018      .004      .000      .000      .000
      .000      .000      .000      .000      .000      .000      .000      .000
      .000      .000      .000      .000
      .050
      .040      .042      .044      .046      .048      .050      .055      .060
      .065      .070      .075      .080      .085      .090      .095      .100
      .110      .120      .130      .140      .150      .160      .170      .180
      .190      .200      .220      .240      .260      .280      .300      .320
      .340      .360      .380      .400      .420      .440      .460      .480
      .500      .550      .600      .650      .700      .750      .800      .850
      .900      .950     1.000     1.100     1.200     1.300     1.400     1.500
     1.600     1.700     1.800     1.900     2.000     2.200     2.400     2.600
     2.800     3.000     3.200     3.400     3.600     3.800     4.000     4.200
     4.400     4.600     4.800     5.000     5.500     6.000     6.500     7.000
     7.500     8.000     8.500     9.000     9.500    10.000    11.000    12.000
    13.000    14.000    15.000      .000      .000      .000      .000      .000
      .000      .000      .000      .000
Fourier amplitude spectra in in/sec.
  .000E+00  .000E+00  .000E+00  .000E+00  .000E+00  .000E+00  .000E+00  .000E+00
  .000E+00  .000E+00  .000E+00  .000E+00  .000E+00  .000E+00  .000E+00  .000E+00
  .000E+00  .000E+00  .000E+00  .000E+00  .000E+00  .000E+00  .000E+00  .000E+00
  .000E+00  .000E+00  .000E+00  .000E+00  .000E+00  .000E+00  .000E+00  .000E+00
  .000E+00  .000E+00  .000E+00  .000E+00  .000E+00  .000E+00  .000E+00  .000E+00
  .000E+00  .000E+00  .000E+00  .000E+00  .000E+00  .000E+00  .000E+00  .000E+00
  .000E+00  .000E+00  .000E+00  .000E+00  .000E+00  .000E+00  .000E+00  .000E+00
  .000E+00  .000E+00  .000E+00  .000E+00  .000E+00  .000E+00  .000E+00  .000E+00
  .000E+00  .000E+00  .000E+00  .000E+00  .000E+00  .000E+00  .000E+00  .000E+00
  .000E+00  .000E+00  .000E+00  .000E+00  .000E+00  .000E+00  .000E+00  .000E+00
  .000E+00  .000E+00  .000E+00  .000E+00  .000E+00  .000E+00  .000E+00  .000E+00
  .000E+00  .000E+00  .000E+00  .000E+00  .000E+00  .000E+00  .000E+00  .000E+00
  .000E+00  .000E+00  .000E+00  .000E+00
Damping =  .05. Data of Sd,Sv,Sa,Pssv,ttSd,ttSv,ttSa :
  .285E-03  .370E-03  .508E-03  .617E-03  .661E-03  .678E-03  .905E-03  .134E-02
  .167E-02  .193E-02  .182E-02  .238E-02  .278E-02  .277E-02  .365E-02  .424E-02
  .472E-02  .474E-02  .549E-02  .757E-02  .927E-02  .117E-01  .105E-01  .922E-02
  .106E-01  .122E-01  .213E-01  .237E-01  .221E-01  .169E-01  .155E-01  .148E-01
  .125E-01  .122E-01  .121E-01  .154E-01  .167E-01  .158E-01  .166E-01  .198E-01
