Response and Fourier amplitude spectra (91 periods,  .04 - 15.0 sec)   for      
Corrected accelerogram   24804-L1134-01248.03       Chan  1: 360 Deg     from   
Uncorrected Accelerogram Data             Processed: 09/10/01, CDMG  804az003   
Record of Sun Sep  9, 2001 16:59:23 PDT               (Avol1 v4.6  7/01 CSMIP)  
CSMIP Preliminary Processing            (Origin:  To be determined)             
24804-L1134-01248.03                 Start time:  9/09/01, 23:59:23.0 UTC (GPS) 
Station No. 24804   34.219N, 118.627W      Etna  s/n 1134  (3 Channels)         
West Hills - Roscoe & Fallbrook                                                 
Chan  1: 360 Deg                                                                
Record of Sun Sep  9, 2001 16:59:23 PDT    Sun Sep  9, 2001 16:59:23 PDT        
Hypocenter:  To be determined.               ML:  To be determined.             
Instr Period =  .0107 sec,  Damping =  .660,  Sensitivity =  .63  v/g           
                        Record length = 39.000 sec.                             
                                     Uncor Max  =  -.010 g, at   6.135 sec.     
RMS accel of (uncor) record  =        .                                         
Accelerogram bandpass filtered with 3 dB pts at   .30 and 40.00 cyc/sec         
                 instrument- and baseline-corrected                             
                                                                                
                                                                                
                                                                                
                                                                                
                                                                                
Record of Sun Sep  9, 2001 16:59:23 PDT    Sun Sep  9, 2001 16:59:23 PDT        
                                                                                
24804-L1134-01248.03      West Hills - Roscoe & Fallbrook   Chan  1: 360 Deg    
                                                                                
24804-L1134-01248.03      West Hills - Roscoe & Fallbrook   Chan  1: 360 Deg    
                                                                                
Units for spectra are inches and sec, except Sa is in fraction of g.            
                                                                                
    1  100    1    3    3  200    1    3    1   24   12 1134    024804    1    0
   23   59   23    0  252    9    9 2001   10    3  360 7800   39   31   72  360
 7800    1   50    3 1134    1    3  390    1    0    0    0    0    0    0    0
    0    4    0    0 3900    2    0    0    0    0   72   31    0    0    0 3900
    0 3900   32   91    1    3    0    0    0    0    3    0    0    0    0    2
    2    2    4    0   32   99    0   32   32    0    0    1    0    0    0    0
  -99   -1    0    0
      .011      .660    39.000      .001      .000   625.000     -.010     6.135
    93.700      .298      .477      .000     5.000      .000      .000      .000
     2.500     9.749      .012      .000     5.000    30.000      .000      .008
     -.002     -.011     2.000    15.000    34.219  -118.627      .619      .263
      .424     -.091      .070  -999.000      .000      .000   -13.300      .000
  1000.000    -1.033      .000      .000      .000      .000      .000      .000
     4.600     4.400      .000   980.665      .010    39.000    14.913      .000
      .000    40.000      .000    39.000      .010      .300      .000      .000
     6.130    -9.245     6.170     -.380     5.140     -.036      .000      .300
    40.000      .010      .010      .000      .010      .016      .000      .000
      .043      .170      .031      .021      .004      .000      .000      .000
      .000      .000      .000      .000      .000      .000      .000      .000
      .000      .000      .000      .000
      .050
      .040      .042      .044      .046      .048      .050      .055      .060
      .065      .070      .075      .080      .085      .090      .095      .100
      .110      .120      .130      .140      .150      .160      .170      .180
      .190      .200      .220      .240      .260      .280      .300      .320
      .340      .360      .380      .400      .420      .440      .460      .480
      .500      .550      .600      .650      .700      .750      .800      .850
      .900      .950     1.000     1.100     1.200     1.300     1.400     1.500
     1.600     1.700     1.800     1.900     2.000     2.200     2.400     2.600
     2.800     3.000     3.200     3.400     3.600     3.800     4.000     4.200
     4.400     4.600     4.800     5.000     5.500     6.000     6.500     7.000
     7.500     8.000     8.500     9.000     9.500    10.000    11.000    12.000
    13.000    14.000    15.000      .000      .000      .000      .000      .000
      .000      .000      .000      .000
Fourier amplitude spectra in in/sec.
  .000E+00  .000E+00  .000E+00  .000E+00  .000E+00  .000E+00  .000E+00  .000E+00
  .000E+00  .000E+00  .000E+00  .000E+00  .000E+00  .000E+00  .000E+00  .000E+00
  .000E+00  .000E+00  .000E+00  .000E+00  .000E+00  .000E+00  .000E+00  .000E+00
  .000E+00  .000E+00  .000E+00  .000E+00  .000E+00  .000E+00  .000E+00  .000E+00
  .000E+00  .000E+00  .000E+00  .000E+00  .000E+00  .000E+00  .000E+00  .000E+00
  .000E+00  .000E+00  .000E+00  .000E+00  .000E+00  .000E+00  .000E+00  .000E+00
  .000E+00  .000E+00  .000E+00  .000E+00  .000E+00  .000E+00  .000E+00  .000E+00
  .000E+00  .000E+00  .000E+00  .000E+00  .000E+00  .000E+00  .000E+00  .000E+00
  .000E+00  .000E+00  .000E+00  .000E+00  .000E+00  .000E+00  .000E+00  .000E+00
  .000E+00  .000E+00  .000E+00  .000E+00  .000E+00  .000E+00  .000E+00  .000E+00
  .000E+00  .000E+00  .000E+00  .000E+00  .000E+00  .000E+00  .000E+00  .000E+00
  .000E+00  .000E+00  .000E+00  .000E+00  .000E+00  .000E+00  .000E+00  .000E+00
  .000E+00  .000E+00  .000E+00  .000E+00
Damping =  .05. Data of Sd,Sv,Sa,Pssv,ttSd,ttSv,ttSa :
  .162E-03  .184E-03  .206E-03  .227E-03  .247E-03  .274E-03  .358E-03  .407E-03
  .576E-03  .699E-03  .855E-03  .107E-02  .123E-02  .192E-02  .275E-02  .331E-02
  .331E-02  .385E-02  .407E-02  .459E-02  .603E-02  .854E-02  .122E-01  .118E-01
  .104E-01  .111E-01  .166E-01  .175E-01  .165E-01  .174E-01  .182E-01  .190E-01
  .168E-01  .208E-01  .210E-01  .183E-01  .205E-01  .219E-01  .216E-01  .252E-01
  .272E-01  .240E-01  .203E-01  .283E-01  .280E-01  .310E-01  .377E-01  .356E-01
  .333E-01  .301E-01  .333E-01  .455E-01  .467E-01  .453E-01  .387E-01  .368E-01
  .357E-01  .398E-01  .347E-01  .328E-01  .308E-01  .242E-01  .195E-01  .182E-01
  .181E-01  .170E-01  .152E-01  .145E-01  .147E-01  .149E-01  .151E-01  .151E-01
  .152E-01  .152E-01  .152E-01  .151E-01  .150E-01  .149E-01  .147E-01  .146E-01
  .146E-01  .145E-01  .145E-01  .145E-01  .145E-01  .145E-01  .146E-01  .146E-01
  .147E-01  .147E-01  .148E-01  .000E+00  .000E+00  .000E+00  .000E+00  .000E+00
  .000E+00  .000E+00  .000E+00  .000E+00
  .712E-02  .797E-02  .921E-02  .101E-01  .115E-01  .129E-01  .182E-01  .246E-01
  .288E-01  .407E-01  .509E-01  .642E-01  .691E-01  .113E+00  .158E+00  .180E+00
  .165E+00  .190E+00  .180E+00  .181E+00  .194E+00  .273E+00  .398E+00  .398E+00
  .348E+00  .334E+00  .477E+00  .450E+00  .404E+00  .410E+00  .411E+00  .389E+00
  .357E+00  .392E+00  .375E+00  .331E+00  .357E+00  .339E+00  .296E+00  .357E+00
  .372E+00  .323E+00  .305E+00  .280E+00  .250E+00  .273E+00  .301E+00  .293E+00
  .280E+00  .239E+00  .249E+00  .317E+00  .282E+00  .266E+00  .256E+00  .213E+00
  .191E+00  .183E+00  .197E+00  .183E+00  .166E+00  .158E+00  .157E+00  .157E+00
  .157E+00  .157E+00  .156E+00  .154E+00  .153E+00  .152E+00  .151E+00  .151E+00
  .150E+00  .150E+00  .150E+00  .150E+00  .150E+00  .150E+00  .150E+00  .150E+00
  .149E+00  .149E+00  .149E+00  .149E+00  .149E+00  .149E+00  .149E+00  .149E+00
  .149E+00  .149E+00  .149E+00  .000E+00  .000E+00  .000E+00  .000E+00  .000E+00
  .000E+00  .000E+00  .000E+00  .000E+00
  .103E-01  .107E-01  .109E-01  .110E-01  .110E-01  .112E-01  .122E-01  .116E-01
  .140E-01  .147E-01  .155E-01  .173E-01  .174E-01  .242E-01  .311E-01  .336E-01
  .277E-01  .272E-01  .244E-01  .239E-01  .273E-01  .342E-01  .428E-01  .375E-01
  .294E-01  .283E-01  .353E-01  .313E-01  .252E-01  .228E-01  .208E-01  .191E-01
  .149E-01  .164E-01  .149E-01  .118E-01  .120E-01  .116E-01  .105E-01  .113E-01
  .112E-01  .817E-02  .579E-02  .689E-02  .588E-02  .568E-02  .607E-02  .507E-02
  .423E-02  .343E-02  .344E-02  .387E-02  .335E-02  .276E-02  .204E-02  .169E-02
  .145E-02  .142E-02  .111E-02  .949E-03  .806E-03  .525E-03  .361E-03  .290E-03
  .251E-03  .208E-03  .173E-03  .157E-03  .144E-03  .133E-03  .122E-03  .113E-03
  .105E-03  .977E-04  .910E-04  .849E-04  .723E-04  .625E-04  .559E-04  .504E-04
  .459E-04  .420E-04  .388E-04  .360E-04  .336E-04  .315E-04  .280E-04  .252E-04
  .229E-04  .209E-04  .193E-04  .000E+00  .000E+00  .000E+00  .000E+00  .000E+00
  .000E+00  .000E+00  .000E+00  .000E+00
  .254E-01  .275E-01  .294E-01  .310E-01  .323E-01  .344E-01  .409E-01  .426E-01
  .557E-01  .627E-01  .716E-01  .844E-01  .910E-01  .134E+00  .182E+00  .208E+00
  .189E+00  .202E+00  .197E+00  .206E+00  .253E+00  .335E+00  .450E+00  .411E+00
  .343E+00  .349E+00  .473E+00  .459E+00  .399E+00  .391E+00  .381E+00  .373E+00
  .311E+00  .363E+00  .347E+00  .288E+00  .307E+00  .312E+00  .295E+00  .330E+00
  .342E+00  .274E+00  .212E+00  .274E+00  .251E+00  .260E+00  .296E+00  .263E+00
  .232E+00  .199E+00  .209E+00  .260E+00  .245E+00  .219E+00  .174E+00  .154E+00
  .140E+00  .147E+00  .121E+00  .108E+00  .968E-01  .690E-01  .512E-01  .440E-01
  .406E-01  .357E-01  .299E-01  .268E-01  .257E-01  .247E-01  .236E-01  .226E-01
  .217E-01  .207E-01  .199E-01  .190E-01  .171E-01  .156E-01  .142E-01  .131E-01
  .122E-01  .114E-01  .107E-01  .101E-01  .961E-02  .913E-02  .833E-02  .766E-02
  .709E-02  .661E-02  .619E-02  .000E+00  .000E+00  .000E+00  .000E+00  .000E+00
  .000E+00  .000E+00  .000E+00  .000E+00
  .613E+01  .613E+01  .613E+01  .613E+01  .613E+01  .613E+01  .613E+01  .613E+01
  .613E+01  .613E+01  .513E+01  .667E+01  .620E+01  .668E+01  .668E+01  .669E+01
  .670E+01  .671E+01  .833E+01  .856E+01  .623E+01  .623E+01  .625E+01  .626E+01
  .637E+01  .577E+01  .627E+01  .630E+01  .644E+01  .647E+01  .599E+01  .601E+01
  .573E+01  .648E+01  .651E+01  .562E+01  .547E+01  .548E+01  .550E+01  .678E+01
  .732E+01  .637E+01  .140E+02  .141E+02  .141E+02  .115E+02  .116E+02  .147E+02
  .113E+02  .637E+01  .639E+01  .148E+02  .144E+02  .145E+02  .140E+02  .136E+02
  .136E+02  .123E+02  .123E+02  .110E+02  .110E+02  .110E+02  .110E+02  .110E+02
  .110E+02  .110E+02  .110E+02  .512E+01  .512E+01  .512E+01  .512E+01  .512E+01
  .512E+01  .512E+01  .512E+01  .512E+01  .512E+01  .512E+01  .512E+01  .512E+01
  .512E+01  .512E+01  .512E+01  .512E+01  .512E+01  .512E+01  .512E+01  .512E+01
  .513E+01  .512E+01  .512E+01  .000E+00  .000E+00  .000E+00  .000E+00  .000E+00
  .000E+00  .000E+00  .000E+00  .000E+00
  .660E+01  .664E+01  .664E+01  .664E+01  .660E+01  .659E+01  .664E+01  .664E+01
  .664E+01  .664E+01  .665E+01  .665E+01  .665E+01  .665E+01  .666E+01  .666E+01
  .673E+01  .674E+01  .836E+01  .859E+01  .675E+01  .676E+01  .629E+01  .631E+01
  .632E+01  .582E+01  .633E+01  .636E+01  .664E+01  .616E+01  .606E+01  .594E+01
  .566E+01  .658E+01  .659E+01  .554E+01  .556E+01  .557E+01  .558E+01  .740E+01
  .742E+01  .627E+01  .628E+01  .139E+02  .140E+02  .117E+02  .115E+02  .115E+02
  .115E+02  .653E+01  .765E+01  .145E+02  .628E+01  .629E+01  .138E+02  .629E+01
  .629E+01  .112E+02  .112E+02  .113E+02  .522E+01  .616E+01  .616E+01  .616E+01
  .616E+01  .616E+01  .616E+01  .616E+01  .616E+01  .616E+01  .616E+01  .616E+01
  .616E+01  .616E+01  .616E+01  .616E+01  .616E+01  .616E+01  .616E+01  .616E+01
  .616E+01  .616E+01  .616E+01  .616E+01  .616E+01  .616E+01  .616E+01  .616E+01
  .616E+01  .616E+01  .616E+01  .000E+00  .000E+00  .000E+00  .000E+00  .000E+00
  .000E+00  .000E+00  .000E+00  .000E+00
  .613E+01  .613E+01  .613E+01  .613E+01  .613E+01  .613E+01  .613E+01  .613E+01
  .613E+01  .613E+01  .513E+01  .667E+01  .620E+01  .668E+01  .668E+01  .669E+01
  .670E+01  .671E+01  .833E+01  .856E+01  .623E+01  .623E+01  .624E+01  .626E+01
  .627E+01  .576E+01  .627E+01  .642E+01  .644E+01  .647E+01  .598E+01  .601E+01
  .572E+01  .647E+01  .650E+01  .561E+01  .546E+01  .548E+01  .549E+01  .677E+01
  .731E+01  .637E+01  .140E+02  .141E+02  .141E+02  .115E+02  .116E+02  .146E+02
  .113E+02  .636E+01  .638E+01  .148E+02  .144E+02  .145E+02  .140E+02  .136E+02
  .136E+02  .123E+02  .123E+02  .109E+02  .109E+02  .110E+02  .110E+02  .109E+02
  .109E+02  .109E+02  .618E+01  .509E+01  .509E+01  .509E+01  .509E+01  .509E+01
  .509E+01  .509E+01  .509E+01  .509E+01  .509E+01  .509E+01  .617E+01  .617E+01
  .617E+01  .617E+01  .617E+01  .617E+01  .617E+01  .617E+01  .617E+01  .617E+01
  .617E+01  .617E+01  .617E+01  .000E+00  .000E+00  .000E+00  .000E+00  .000E+00
  .000E+00  .000E+00  .000E+00  .000E+00
/&   ----------  End of spectral data for channel  1  ----------
Response and Fourier amplitude spectra (91 periods,  .04 - 15.0 sec)   for      
Corrected accelerogram   24804-L1134-01248.03       Chan  2:  Up         from   
Uncorrected Accelerogram Data             Processed: 09/10/01, CDMG  804az003   
Record of Sun Sep  9, 2001 16:59:23 PDT               (Avol1 v4.6  7/01 CSMIP)  
CSMIP Preliminary Processing            (Origin:  To be determined)             
24804-L1134-01248.03                 Start time:  9/09/01, 23:59:23.0 UTC (GPS) 
Station No. 24804   34.219N, 118.627W      Etna  s/n 1134  (3 Channels)         
West Hills - Roscoe & Fallbrook                                                 
Chan  2:  Up                                                                    
Record of Sun Sep  9, 2001 16:59:23 PDT    Sun Sep  9, 2001 16:59:23 PDT        
Hypocenter:  To be determined.               ML:  To be determined.             
Instr Period =  .0107 sec,  Damping =  .680,  Sensitivity =  .63  v/g           
                        Record length = 39.000 sec.                             
                                     Uncor Max  =   .009 g, at    .680 sec.     
RMS accel of (uncor) record  =        .                                         
Accelerogram bandpass filtered with 3 dB pts at   .30 and 40.00 cyc/sec         
                 instrument- and baseline-corrected                             
                                                                                
                                                                                
                                                                                
                                                                                
                                                                                
Record of Sun Sep  9, 2001 16:59:23 PDT    Sun Sep  9, 2001 16:59:23 PDT        
                                                                                
24804-L1134-01248.03      West Hills - Roscoe & Fallbrook   Chan  2:  Up        
                                                                                
24804-L1134-01248.03      West Hills - Roscoe & Fallbrook   Chan  2:  Up        
                                                                                
Units for spectra are inches and sec, except Sa is in fraction of g.            
                                                                                
    2  100    2    3    3  200    1    3    1   24   12 1134    024804    1    0
   23   59   23    0  252    9    9 2001   10    3  500 7800   39   31   72  360
 7800    1   50    3 1134    1    3  390    1    0    0    0    0    0    0    0
    0    4    0    0 3900    2    0    0    0    0   72   31    0    0    0 3900
    0 3900   32   91    1    3    0    0    0    0    3    0    0    0    0    2
    2    2    4    0   32   99    0   32   32    0    0    1    0    0    0    0
  -99   -1    0    0
      .011      .680    39.000      .001      .000   625.000      .009      .680
    93.200      .298      .477      .000     5.000      .000      .000      .000
     2.500    -3.554      .003     -.008     5.000    30.000      .000     -.046
     -.002      .045     2.000    15.000    34.219  -118.627     2.867      .246
      .086     -.325      .414  -999.000      .000      .000   -13.300      .000
  1000.000     1.017      .000      .000      .000      .000      .000      .000
     4.600     4.400      .000   980.665      .010    39.000    14.833      .000
      .000    40.000      .000    39.000      .010      .300      .000      .000
     4.310    -6.782     5.980      .214     6.090      .017      .000      .300
    40.000      .010      .010      .000      .010      .011      .000      .000
      .035      .090      .014      .019      .002      .000      .000      .000
      .000      .000      .000      .000      .000      .000      .000      .000
      .000      .000      .000      .000
      .050
      .040      .042      .044      .046      .048      .050      .055      .060
      .065      .070      .075      .080      .085      .090      .095      .100
      .110      .120      .130      .140      .150      .160      .170      .180
      .190      .200      .220      .240      .260      .280      .300      .320
      .340      .360      .380      .400      .420      .440      .460      .480
      .500      .550      .600      .650      .700      .750      .800      .850
      .900      .950     1.000     1.100     1.200     1.300     1.400     1.500
     1.600     1.700     1.800     1.900     2.000     2.200     2.400     2.600
     2.800     3.000     3.200     3.400     3.600     3.800     4.000     4.200
     4.400     4.600     4.800     5.000     5.500     6.000     6.500     7.000
     7.500     8.000     8.500     9.000     9.500    10.000    11.000    12.000
    13.000    14.000    15.000      .000      .000      .000      .000      .000
      .000      .000      .000      .000
Fourier amplitude spectra in in/sec.
  .000E+00  .000E+00  .000E+00  .000E+00  .000E+00  .000E+00  .000E+00  .000E+00
  .000E+00  .000E+00  .000E+00  .000E+00  .000E+00  .000E+00  .000E+00  .000E+00
  .000E+00  .000E+00  .000E+00  .000E+00  .000E+00  .000E+00  .000E+00  .000E+00
  .000E+00  .000E+00  .000E+00  .000E+00  .000E+00  .000E+00  .000E+00  .000E+00
  .000E+00  .000E+00  .000E+00  .000E+00  .000E+00  .000E+00  .000E+00  .000E+00
  .000E+00  .000E+00  .000E+00  .000E+00  .000E+00  .000E+00  .000E+00  .000E+00
  .000E+00  .000E+00  .000E+00  .000E+00  .000E+00  .000E+00  .000E+00  .000E+00
  .000E+00  .000E+00  .000E+00  .000E+00  .000E+00  .000E+00  .000E+00  .000E+00
  .000E+00  .000E+00  .000E+00  .000E+00  .000E+00  .000E+00  .000E+00  .000E+00
  .000E+00  .000E+00  .000E+00  .000E+00  .000E+00  .000E+00  .000E+00  .000E+00
  .000E+00  .000E+00  .000E+00  .000E+00  .000E+00  .000E+00  .000E+00  .000E+00
  .000E+00  .000E+00  .000E+00  .000E+00  .000E+00  .000E+00  .000E+00  .000E+00
  .000E+00  .000E+00  .000E+00  .000E+00
Damping =  .05. Data of Sd,Sv,Sa,Pssv,ttSd,ttSv,ttSa :
  .189E-03  .201E-03  .237E-03  .244E-03  .257E-03  .288E-03  .416E-03  .502E-03
  .671E-03  .876E-03  .149E-02  .173E-02  .210E-02  .280E-02  .275E-02  .249E-02
  .271E-02  .278E-02  .286E-02  .258E-02  .305E-02  .314E-02  .414E-02  .449E-02
  .419E-02  .540E-02  .803E-02  .960E-02  .884E-02  .138E-01  .179E-01  .178E-01
  .185E-01  .160E-01  .163E-01  .169E-01  .178E-01  .163E-01  .153E-01  .150E-01
