Response and Fourier amplitude spectra (91 periods,  .04 - 15.0 sec)   for      
Corrected accelerogram   24809-L1868-01252.04       Chan  1: 360 Deg     from   
Uncorrected Accelerogram Data             Processed: 09/10/01, CDMG  809ax004   
Record of Sun Sep  9, 2001 16:57:53 PDT               (Avol1 v4.6  7/01 CSMIP)  
CSMIP Preliminary Processing            (Origin:  To be determined)             
24809-L1868-01252.04                 Start time:  9/09/01, 23:57:53.0 UTC (GPS) 
Station No. 24809   34.097N, 118.352W      Etna  s/n 1868  (3 Channels)         
Hollywood - Sunset & Fairfax                                                    
Chan  1: 360 Deg                                                                
Record of Sun Sep  9, 2001 16:57:53 PDT    Sun Sep  9, 2001 16:57:53 PDT        
Hypocenter:  To be determined.               ML:  To be determined.             
Instr Period =  .0107 sec,  Damping =  .680,  Sensitivity =  .63  v/g           
                        Record length = 43.000 sec.                             
                                     Uncor Max  =   .031 g, at   5.780 sec.     
RMS accel of (uncor) record  =        .                                         
Accelerogram bandpass filtered with 3 dB pts at   .30 and 40.00 cyc/sec         
                 instrument- and baseline-corrected                             
                                                                                
                                                                                
                                                                                
                                                                                
                                                                                
Record of Sun Sep  9, 2001 16:57:53 PDT    Sun Sep  9, 2001 16:57:53 PDT        
                                                                                
24809-L1868-01252.04      Hollywood - Sunset & Fairfax    Chan  1: 360 Deg      
                                                                                
24809-L1868-01252.04      Hollywood - Sunset & Fairfax    Chan  1: 360 Deg      
                                                                                
Units for spectra are inches and sec, except Sa is in fraction of g.            
                                                                                
    1  100    1    3    3  200    1    3    1   24   12 1868    024809    1    0
   23   57   53    0  252    9    9 2001   10    3  360 8600   39   28   72  360
 8600    1   50    3 1868    1    4  430    1    0    0    0    0    0    0    0
    0    4    0    0 4300    2    0    0    0    0   72   28    0    0    0 4300
    0 4300   29   91    1    3    0    0    0    0    3    0    0    0    0    2
    2    2    4    0   32   99    0   32   32    0    0    1    0    0    0    0
  -99   -1    0    0
      .011      .680    43.000      .003      .000   625.000      .031     5.780
    93.500      .298      .477      .000     5.000      .000      .000      .000
     2.500    16.788      .027     -.009     5.000    30.000      .000      .002
     -.002     -.003     2.000    15.000    34.097  -118.352      .016      .265
    16.288     -.016      .009  -999.000      .000      .000   -13.300      .000
  1000.000     1.005      .000      .000      .000      .000      .000      .000
     4.600     4.400      .000   980.665      .010    43.000    14.881      .000
      .000    40.000      .000    43.000      .010      .300      .000      .000
     5.780    30.842     5.740     -.793     6.280     -.040      .000      .300
    40.000      .010      .010      .000      .010      .030      .000      .000
      .112      .170      .061      .051      .006      .000      .000      .000
      .000      .000      .000      .000      .000      .000      .000      .000
      .000      .000      .000      .000
      .050
      .040      .042      .044      .046      .048      .050      .055      .060
      .065      .070      .075      .080      .085      .090      .095      .100
      .110      .120      .130      .140      .150      .160      .170      .180
      .190      .200      .220      .240      .260      .280      .300      .320
      .340      .360      .380      .400      .420      .440      .460      .480
      .500      .550      .600      .650      .700      .750      .800      .850
      .900      .950     1.000     1.100     1.200     1.300     1.400     1.500
     1.600     1.700     1.800     1.900     2.000     2.200     2.400     2.600
     2.800     3.000     3.200     3.400     3.600     3.800     4.000     4.200
     4.400     4.600     4.800     5.000     5.500     6.000     6.500     7.000
     7.500     8.000     8.500     9.000     9.500    10.000    11.000    12.000
    13.000    14.000    15.000      .000      .000      .000      .000      .000
      .000      .000      .000      .000
Fourier amplitude spectra in in/sec.
  .000E+00  .000E+00  .000E+00  .000E+00  .000E+00  .000E+00  .000E+00  .000E+00
  .000E+00  .000E+00  .000E+00  .000E+00  .000E+00  .000E+00  .000E+00  .000E+00
  .000E+00  .000E+00  .000E+00  .000E+00  .000E+00  .000E+00  .000E+00  .000E+00
  .000E+00  .000E+00  .000E+00  .000E+00  .000E+00  .000E+00  .000E+00  .000E+00
  .000E+00  .000E+00  .000E+00  .000E+00  .000E+00  .000E+00  .000E+00  .000E+00
  .000E+00  .000E+00  .000E+00  .000E+00  .000E+00  .000E+00  .000E+00  .000E+00
  .000E+00  .000E+00  .000E+00  .000E+00  .000E+00  .000E+00  .000E+00  .000E+00
  .000E+00  .000E+00  .000E+00  .000E+00  .000E+00  .000E+00  .000E+00  .000E+00
  .000E+00  .000E+00  .000E+00  .000E+00  .000E+00  .000E+00  .000E+00  .000E+00
  .000E+00  .000E+00  .000E+00  .000E+00  .000E+00  .000E+00  .000E+00  .000E+00
  .000E+00  .000E+00  .000E+00  .000E+00  .000E+00  .000E+00  .000E+00  .000E+00
  .000E+00  .000E+00  .000E+00  .000E+00  .000E+00  .000E+00  .000E+00  .000E+00
  .000E+00  .000E+00  .000E+00  .000E+00
Damping =  .05. Data of Sd,Sv,Sa,Pssv,ttSd,ttSv,ttSa :
  .538E-03  .591E-03  .670E-03  .804E-03  .918E-03  .101E-02  .123E-02  .140E-02
  .186E-02  .230E-02  .277E-02  .362E-02  .455E-02  .472E-02  .545E-02  .634E-02
  .982E-02  .147E-01  .166E-01  .202E-01  .238E-01  .267E-01  .317E-01  .315E-01
  .257E-01  .232E-01  .242E-01  .267E-01  .346E-01  .427E-01  .464E-01  .441E-01
  .393E-01  .375E-01  .350E-01  .354E-01  .419E-01  .552E-01  .590E-01  .603E-01
  .646E-01  .566E-01  .544E-01  .533E-01  .516E-01  .485E-01  .469E-01  .437E-01
  .532E-01  .569E-01  .537E-01  .545E-01  .562E-01  .492E-01  .500E-01  .463E-01
  .414E-01  .499E-01  .497E-01  .432E-01  .399E-01  .331E-01  .286E-01  .254E-01
  .244E-01  .248E-01  .259E-01  .263E-01  .252E-01  .253E-01  .239E-01  .223E-01
  .212E-01  .201E-01  .192E-01  .185E-01  .172E-01  .170E-01  .171E-01  .172E-01
  .173E-01  .173E-01  .173E-01  .173E-01  .173E-01  .172E-01  .172E-01  .172E-01
  .172E-01  .172E-01  .172E-01  .000E+00  .000E+00  .000E+00  .000E+00  .000E+00
  .000E+00  .000E+00  .000E+00  .000E+00
  .470E-01  .524E-01  .621E-01  .711E-01  .757E-01  .787E-01  .747E-01  .799E-01
  .104E+00  .130E+00  .172E+00  .204E+00  .243E+00  .273E+00  .284E+00  .335E+00
  .483E+00  .697E+00  .745E+00  .875E+00  .968E+00  .101E+01  .111E+01  .111E+01
  .927E+00  .800E+00  .830E+00  .819E+00  .775E+00  .945E+00  .910E+00  .876E+00
  .710E+00  .678E+00  .638E+00  .540E+00  .629E+00  .774E+00  .804E+00  .792E+00
  .854E+00  .665E+00  .638E+00  .595E+00  .530E+00  .536E+00  .440E+00  .427E+00
  .413E+00  .446E+00  .455E+00  .436E+00  .378E+00  .441E+00  .341E+00  .348E+00
  .362E+00  .370E+00  .371E+00  .370E+00  .366E+00  .356E+00  .346E+00  .336E+00
  .329E+00  .324E+00  .320E+00  .317E+00  .315E+00  .314E+00  .313E+00  .313E+00
  .313E+00  .312E+00  .312E+00  .312E+00  .312E+00  .312E+00  .312E+00  .312E+00
  .312E+00  .312E+00  .312E+00  .312E+00  .312E+00  .312E+00  .312E+00  .312E+00
  .311E+00  .311E+00  .311E+00  .000E+00  .000E+00  .000E+00  .000E+00  .000E+00
  .000E+00  .000E+00  .000E+00  .000E+00
  .344E-01  .344E-01  .354E-01  .390E-01  .406E-01  .418E-01  .420E-01  .400E-01
  .452E-01  .477E-01  .504E-01  .580E-01  .646E-01  .602E-01  .622E-01  .647E-01
  .848E-01  .105E+00  .996E-01  .105E+00  .109E+00  .107E+00  .112E+00  .100E+00
  .737E-01  .592E-01  .510E-01  .479E-01  .528E-01  .563E-01  .530E-01  .442E-01
  .349E-01  .298E-01  .249E-01  .227E-01  .245E-01  .293E-01  .286E-01  .269E-01
  .266E-01  .193E-01  .156E-01  .130E-01  .109E-01  .886E-02  .754E-02  .626E-02
  .676E-02  .649E-02  .553E-02  .466E-02  .404E-02  .301E-02  .264E-02  .213E-02
  .169E-02  .181E-02  .161E-02  .127E-02  .104E-02  .721E-03  .522E-03  .400E-03
  .335E-03  .301E-03  .277E-03  .251E-03  .225E-03  .206E-03  .179E-03  .158E-03
  .149E-03  .142E-03  .136E-03  .129E-03  .116E-03  .105E-03  .952E-04  .872E-04
  .803E-04  .745E-04  .694E-04  .650E-04  .611E-04  .576E-04  .517E-04  .469E-04
  .430E-04  .396E-04  .367E-04  .000E+00  .000E+00  .000E+00  .000E+00  .000E+00
  .000E+00  .000E+00  .000E+00  .000E+00
  .845E-01  .885E-01  .957E-01  .110E+00  .120E+00  .127E+00  .140E+00  .147E+00
  .179E+00  .206E+00  .232E+00  .284E+00  .337E+00  .329E+00  .360E+00  .398E+00
  .561E+00  .770E+00  .801E+00  .908E+00  .997E+00  .105E+01  .117E+01  .110E+01
  .850E+00  .728E+00  .692E+00  .699E+00  .836E+00  .959E+00  .972E+00  .866E+00
  .727E+00  .654E+00  .579E+00  .556E+00  .626E+00  .788E+00  .806E+00  .789E+00
  .812E+00  .647E+00  .570E+00  .516E+00  .463E+00  .406E+00  .368E+00  .323E+00
  .372E+00  .376E+00  .338E+00  .311E+00  .294E+00  .238E+00  .224E+00  .194E+00
  .162E+00  .185E+00  .173E+00  .143E+00  .125E+00  .945E-01  .750E-01  .613E-01
  .547E-01  .518E-01  .508E-01  .486E-01  .441E-01  .419E-01  .375E-01  .333E-01
  .302E-01  .275E-01  .252E-01  .232E-01  .196E-01  .178E-01  .166E-01  .155E-01
  .145E-01  .136E-01  .128E-01  .120E-01  .114E-01  .108E-01  .983E-02  .901E-02
  .830E-02  .770E-02  .720E-02  .000E+00  .000E+00  .000E+00  .000E+00  .000E+00
  .000E+00  .000E+00  .000E+00  .000E+00
  .577E+01  .577E+01  .618E+01  .618E+01  .618E+01  .618E+01  .618E+01  .578E+01
  .578E+01  .578E+01  .578E+01  .584E+01  .619E+01  .620E+01  .626E+01  .585E+01
  .626E+01  .628E+01  .593E+01  .601E+01  .602E+01  .629E+01  .631E+01  .632E+01
  .634E+01  .590E+01  .591E+01  .583E+01  .932E+01  .935E+01  .953E+01  .956E+01
  .977E+01  .107E+02  .106E+02  .100E+02  .100E+02  .163E+02  .163E+02  .166E+02
  .169E+02  .169E+02  .869E+01  .873E+01  .106E+02  .104E+02  .104E+02  .104E+02
  .148E+02  .144E+02  .165E+02  .162E+02  .122E+02  .145E+02  .160E+02  .141E+02
  .854E+01  .856E+01  .857E+01  .858E+01  .137E+02  .816E+01  .817E+01  .817E+01
  .817E+01  .817E+01  .131E+02  .131E+02  .120E+02  .120E+02  .120E+02  .818E+01
  .818E+01  .818E+01  .818E+01  .818E+01  .818E+01  .627E+01  .627E+01  .627E+01
  .627E+01  .627E+01  .627E+01  .627E+01  .627E+01  .627E+01  .627E+01  .627E+01
  .627E+01  .627E+01  .627E+01  .000E+00  .000E+00  .000E+00  .000E+00  .000E+00
  .000E+00  .000E+00  .000E+00  .000E+00
  .623E+01  .669E+01  .623E+01  .624E+01  .631E+01  .632E+01  .617E+01  .672E+01
  .670E+01  .651E+01  .581E+01  .582E+01  .617E+01  .623E+01  .623E+01  .588E+01
  .624E+01  .625E+01  .596E+01  .597E+01  .591E+01  .633E+01  .635E+01  .628E+01
  .629E+01  .586E+01  .586E+01  .587E+01  .669E+01  .929E+01  .930E+01  .949E+01
  .951E+01  .106E+02  .106E+02  .105E+02  .995E+01  .164E+02  .164E+02  .170E+02
  .170E+02  .106E+02  .881E+01  .920E+01  .105E+02  .105E+02  .987E+01  .988E+01
  .988E+01  .146E+02  .163E+02  .865E+01  .580E+01  .161E+02  .144E+02  .572E+01
  .572E+01  .572E+01  .572E+01  .572E+01  .572E+01  .572E+01  .572E+01  .572E+01
  .572E+01  .572E+01  .572E+01  .572E+01  .572E+01  .572E+01  .572E+01  .572E+01
  .572E+01  .572E+01  .572E+01  .572E+01  .572E+01  .572E+01  .572E+01  .572E+01
  .572E+01  .572E+01  .572E+01  .572E+01  .572E+01  .572E+01  .572E+01  .572E+01
  .572E+01  .572E+01  .572E+01  .000E+00  .000E+00  .000E+00  .000E+00  .000E+00
  .000E+00  .000E+00  .000E+00  .000E+00
  .577E+01  .577E+01  .618E+01  .618E+01  .618E+01  .618E+01  .618E+01  .578E+01
  .577E+01  .578E+01  .578E+01  .584E+01  .619E+01  .620E+01  .584E+01  .584E+01
  .626E+01  .628E+01  .593E+01  .601E+01  .602E+01  .629E+01  .630E+01  .632E+01
  .633E+01  .590E+01  .591E+01  .582E+01  .932E+01  .935E+01  .953E+01  .955E+01
  .977E+01  .107E+02  .106E+02  .100E+02  .100E+02  .163E+02  .163E+02  .171E+02
  .169E+02  .169E+02  .868E+01  .872E+01  .106E+02  .103E+02  .104E+02  .104E+02
  .148E+02  .144E+02  .165E+02  .162E+02  .122E+02  .145E+02  .159E+02  .140E+02
  .852E+01  .853E+01  .854E+01  .855E+01  .137E+02  .809E+01  .809E+01  .624E+01
  .809E+01  .808E+01  .130E+02  .130E+02  .120E+02  .120E+02  .120E+02  .623E+01
  .623E+01  .623E+01  .623E+01  .623E+01  .573E+01  .573E+01  .573E+01  .573E+01
  .573E+01  .573E+01  .573E+01  .573E+01  .573E+01  .573E+01  .573E+01  .573E+01
  .573E+01  .573E+01  .573E+01  .000E+00  .000E+00  .000E+00  .000E+00  .000E+00
  .000E+00  .000E+00  .000E+00  .000E+00
/&   ----------  End of spectral data for channel  1  ----------
Response and Fourier amplitude spectra (91 periods,  .04 - 15.0 sec)   for      
Corrected accelerogram   24809-L1868-01252.04       Chan  2:  Up         from   
Uncorrected Accelerogram Data             Processed: 09/10/01, CDMG  809ax004   
Record of Sun Sep  9, 2001 16:57:53 PDT               (Avol1 v4.6  7/01 CSMIP)  
CSMIP Preliminary Processing            (Origin:  To be determined)             
24809-L1868-01252.04                 Start time:  9/09/01, 23:57:53.0 UTC (GPS) 
Station No. 24809   34.097N, 118.352W      Etna  s/n 1868  (3 Channels)         
Hollywood - Sunset & Fairfax                                                    
Chan  2:  Up                                                                    
Record of Sun Sep  9, 2001 16:57:53 PDT    Sun Sep  9, 2001 16:57:53 PDT        
Hypocenter:  To be determined.               ML:  To be determined.             
Instr Period =  .0104 sec,  Damping =  .650,  Sensitivity =  .63  v/g           
                        Record length = 43.000 sec.                             
                                     Uncor Max  =  -.042 g, at   4.595 sec.     
RMS accel of (uncor) record  =        .                                         
Accelerogram bandpass filtered with 3 dB pts at   .30 and 40.00 cyc/sec         
                 instrument- and baseline-corrected                             
                                                                                
                                                                                
                                                                                
                                                                                
                                                                                
Record of Sun Sep  9, 2001 16:57:53 PDT    Sun Sep  9, 2001 16:57:53 PDT        
                                                                                
24809-L1868-01252.04      Hollywood - Sunset & Fairfax    Chan  2:  Up          
                                                                                
24809-L1868-01252.04      Hollywood - Sunset & Fairfax    Chan  2:  Up          
                                                                                
Units for spectra are inches and sec, except Sa is in fraction of g.            
                                                                                
    2  100    2    3    3  200    1    3    1   24   12 1868    024809    1    0
   23   57   53    0  252    9    9 2001   10    3  500 8600   39   28   72  360
 8600    1   50    3 1868    1    4  430    1    0    0    0    0    0    0    0
    0    4    0    0 4300    2    0    0    0    0   72   28    0    0    0 4300
    0 4300   29   91    1    3    0    0    0    0    3    0    0    0    0    2
    2    2    4    0   32   99    0   32   32    0    0    1    0    0    0    0
  -99   -1    0    0
      .010      .650    43.000      .003      .000   625.000     -.042     4.595
    96.200      .298      .477      .000     5.000      .000      .000      .000
     2.500   -42.115      .000     -.050     5.000    30.000      .000      .002
     -.003     -.004     2.000    15.000    34.097  -118.352      .045      .181
     3.994     -.015      .006  -999.000      .000      .000   -13.300      .000
  1000.000    -1.030      .000      .000      .000      .000      .000      .000
     4.600     4.400      .000   980.665      .010    43.000    15.311      .000
      .000    40.000      .000    43.000      .010      .300      .000      .000
     4.590   -36.433     5.240     -.616     5.610     -.031      .000      .300
    40.000      .010      .010      .000      .010      .019      .000      .000
      .202      .080      .039      .037      .004      .000      .000      .000
      .000      .000      .000      .000      .000      .000      .000      .000
      .000      .000      .000      .000
      .050
      .040      .042      .044      .046      .048      .050      .055      .060
      .065      .070      .075      .080      .085      .090      .095      .100
      .110      .120      .130      .140      .150      .160      .170      .180
      .190      .200      .220      .240      .260      .280      .300      .320
      .340      .360      .380      .400      .420      .440      .460      .480
      .500      .550      .600      .650      .700      .750      .800      .850
      .900      .950     1.000     1.100     1.200     1.300     1.400     1.500
     1.600     1.700     1.800     1.900     2.000     2.200     2.400     2.600
     2.800     3.000     3.200     3.400     3.600     3.800     4.000     4.200
     4.400     4.600     4.800     5.000     5.500     6.000     6.500     7.000
     7.500     8.000     8.500     9.000     9.500    10.000    11.000    12.000
    13.000    14.000    15.000      .000      .000      .000      .000      .000
      .000      .000      .000      .000
Fourier amplitude spectra in in/sec.
  .000E+00  .000E+00  .000E+00  .000E+00  .000E+00  .000E+00  .000E+00  .000E+00
  .000E+00  .000E+00  .000E+00  .000E+00  .000E+00  .000E+00  .000E+00  .000E+00
  .000E+00  .000E+00  .000E+00  .000E+00  .000E+00  .000E+00  .000E+00  .000E+00
  .000E+00  .000E+00  .000E+00  .000E+00  .000E+00  .000E+00  .000E+00  .000E+00
  .000E+00  .000E+00  .000E+00  .000E+00  .000E+00  .000E+00  .000E+00  .000E+00
  .000E+00  .000E+00  .000E+00  .000E+00  .000E+00  .000E+00  .000E+00  .000E+00
  .000E+00  .000E+00  .000E+00  .000E+00  .000E+00  .000E+00  .000E+00  .000E+00
  .000E+00  .000E+00  .000E+00  .000E+00  .000E+00  .000E+00  .000E+00  .000E+00
  .000E+00  .000E+00  .000E+00  .000E+00  .000E+00  .000E+00  .000E+00  .000E+00
  .000E+00  .000E+00  .000E+00  .000E+00  .000E+00  .000E+00  .000E+00  .000E+00
  .000E+00  .000E+00  .000E+00  .000E+00  .000E+00  .000E+00  .000E+00  .000E+00
  .000E+00  .000E+00  .000E+00  .000E+00  .000E+00  .000E+00  .000E+00  .000E+00
  .000E+00  .000E+00  .000E+00  .000E+00
Damping =  .05. Data of Sd,Sv,Sa,Pssv,ttSd,ttSv,ttSa :
  .105E-02  .114E-02  .130E-02  .151E-02  .186E-02  .226E-02  .310E-02  .466E-02
  .588E-02  .689E-02  .915E-02  .124E-01  .129E-01  .110E-01  .843E-02  .742E-02
  .891E-02  .932E-02  .815E-02  .983E-02  .920E-02  .682E-02  .822E-02  .871E-02
  .123E-01  .148E-01  .205E-01  .211E-01  .248E-01  .303E-01  .323E-01  .355E-01
  .366E-01  .309E-01  .286E-01  .283E-01  .329E-01  .325E-01  .275E-01  .254E-01
