Response and Fourier amplitude spectra (91 periods,  .04 - 15.0 sec)   for      
Corrected accelerogram   24812-L1132-01248.09       Chan  1:  25 Deg     from   
Uncorrected Accelerogram Data             Processed: 09/10/01, CDMG  812az009   
Record of Sun Sep  9, 2001 16:59:18 PDT               (Avol1 v4.6  7/01 CSMIP)  
CSMIP Preliminary Processing            (Origin:  To be determined)             
24812-L1132-01248.09                 Start time:  9/09/01, 23:59:18.0 UTC (GPS) 
Station No. 24812   34.108N, 118.263W      Etna  s/n 1132  (3 Channels)         
Los Angeles - Rowena & Glendale                                                 
Chan  1:  25 Deg                                                                
Record of Sun Sep  9, 2001 16:59:18 PDT    Sun Sep  9, 2001 16:59:18 PDT        
Hypocenter:  To be determined.               ML:  To be determined.             
Instr Period =  .0098 sec,  Damping =  .650,  Sensitivity =  .63  v/g           
                        Record length = 41.000 sec.                             
                                     Uncor Max  =  -.062 g, at   6.135 sec.     
RMS accel of (uncor) record  =        .                                         
Accelerogram bandpass filtered with 3 dB pts at   .30 and 40.00 cyc/sec         
                 instrument- and baseline-corrected                             
                                                                                
                                                                                
                                                                                
                                                                                
                                                                                
Record of Sun Sep  9, 2001 16:59:18 PDT    Sun Sep  9, 2001 16:59:18 PDT        
                                                                                
24812-L1132-01248.09      Los Angeles - Rowena & Glendale   Chan  1:  25 Deg    
                                                                                
24812-L1132-01248.09      Los Angeles - Rowena & Glendale   Chan  1:  25 Deg    
                                                                                
Units for spectra are inches and sec, except Sa is in fraction of g.            
                                                                                
    1  100    1    3    3  200    1    3    1   24   12 1132    024812    1    0
   23   59   18    0  252    9    9 2001   10    3   25 8200   39   31   72   25
 8200    1   50    3 1132    1    9  410    1    0    0    0    0    0    0    0
    0    4    0    0 4100    2    0    0    0    0   72   31    0    0    0 4100
    0 4100   32   91    1    3    0    0    0    0    3    0    0    0    0    2
    2    2    4    0   32   99    0   32   32    0    0    1    0    0    0    0
  -99   -1    0    0
      .010      .650    41.000      .005      .000   625.000     -.062     6.135
   101.900      .298      .477      .000     5.000      .000      .000      .000
     2.500   -17.120      .028     -.041     5.000    30.000      .000      .004
      .001     -.003     2.000    15.000    34.108  -118.263      .016      .157
     9.895     -.011      .004  -999.000      .000      .000   -13.300      .000
  1000.000    -1.008      .000      .000      .000      .000      .000      .000
     4.600     4.400      .000   980.665      .010    41.000    16.218      .000
      .000    40.000      .000    41.000      .010      .300      .000      .000
     6.140   -59.423     6.100     1.388     5.320     -.080      .000      .300
    40.000      .010      .010      .000      .020      .024      .000      .000
      .222      .150      .111      .062      .005      .001      .000      .000
      .000      .000      .000      .000      .000      .000      .000      .000
      .000      .000      .000      .000
      .050
      .040      .042      .044      .046      .048      .050      .055      .060
      .065      .070      .075      .080      .085      .090      .095      .100
      .110      .120      .130      .140      .150      .160      .170      .180
      .190      .200      .220      .240      .260      .280      .300      .320
      .340      .360      .380      .400      .420      .440      .460      .480
      .500      .550      .600      .650      .700      .750      .800      .850
      .900      .950     1.000     1.100     1.200     1.300     1.400     1.500
     1.600     1.700     1.800     1.900     2.000     2.200     2.400     2.600
     2.800     3.000     3.200     3.400     3.600     3.800     4.000     4.200
     4.400     4.600     4.800     5.000     5.500     6.000     6.500     7.000
     7.500     8.000     8.500     9.000     9.500    10.000    11.000    12.000
    13.000    14.000    15.000      .000      .000      .000      .000      .000
      .000      .000      .000      .000
Fourier amplitude spectra in in/sec.
  .000E+00  .000E+00  .000E+00  .000E+00  .000E+00  .000E+00  .000E+00  .000E+00
  .000E+00  .000E+00  .000E+00  .000E+00  .000E+00  .000E+00  .000E+00  .000E+00
  .000E+00  .000E+00  .000E+00  .000E+00  .000E+00  .000E+00  .000E+00  .000E+00
  .000E+00  .000E+00  .000E+00  .000E+00  .000E+00  .000E+00  .000E+00  .000E+00
  .000E+00  .000E+00  .000E+00  .000E+00  .000E+00  .000E+00  .000E+00  .000E+00
  .000E+00  .000E+00  .000E+00  .000E+00  .000E+00  .000E+00  .000E+00  .000E+00
  .000E+00  .000E+00  .000E+00  .000E+00  .000E+00  .000E+00  .000E+00  .000E+00
  .000E+00  .000E+00  .000E+00  .000E+00  .000E+00  .000E+00  .000E+00  .000E+00
  .000E+00  .000E+00  .000E+00  .000E+00  .000E+00  .000E+00  .000E+00  .000E+00
  .000E+00  .000E+00  .000E+00  .000E+00  .000E+00  .000E+00  .000E+00  .000E+00
  .000E+00  .000E+00  .000E+00  .000E+00  .000E+00  .000E+00  .000E+00  .000E+00
  .000E+00  .000E+00  .000E+00  .000E+00  .000E+00  .000E+00  .000E+00  .000E+00
  .000E+00  .000E+00  .000E+00  .000E+00
Damping =  .05. Data of Sd,Sv,Sa,Pssv,ttSd,ttSv,ttSa :
  .108E-02  .123E-02  .138E-02  .152E-02  .166E-02  .182E-02  .253E-02  .319E-02
  .405E-02  .520E-02  .663E-02  .850E-02  .130E-01  .148E-01  .130E-01  .133E-01
  .186E-01  .246E-01  .348E-01  .355E-01  .480E-01  .415E-01  .453E-01  .451E-01
  .366E-01  .423E-01  .565E-01  .491E-01  .552E-01  .478E-01  .572E-01  .574E-01
  .593E-01  .547E-01  .556E-01  .501E-01  .469E-01  .485E-01  .496E-01  .513E-01
  .517E-01  .493E-01  .537E-01  .545E-01  .529E-01  .513E-01  .461E-01  .468E-01
  .466E-01  .463E-01  .459E-01  .470E-01  .447E-01  .421E-01  .419E-01  .396E-01
  .356E-01  .340E-01  .324E-01  .313E-01  .324E-01  .344E-01  .353E-01  .355E-01
  .354E-01  .352E-01  .350E-01  .349E-01  .348E-01  .348E-01  .348E-01  .348E-01
  .348E-01  .347E-01  .347E-01  .347E-01  .346E-01  .345E-01  .343E-01  .342E-01
  .341E-01  .340E-01  .339E-01  .338E-01  .338E-01  .337E-01  .336E-01  .336E-01
  .334E-01  .334E-01  .334E-01  .000E+00  .000E+00  .000E+00  .000E+00  .000E+00
  .000E+00  .000E+00  .000E+00  .000E+00
  .564E-01  .588E-01  .628E-01  .664E-01  .774E-01  .101E+00  .129E+00  .202E+00
  .257E+00  .295E+00  .360E+00  .448E+00  .724E+00  .870E+00  .761E+00  .748E+00
  .889E+00  .118E+01  .155E+01  .150E+01  .200E+01  .160E+01  .164E+01  .162E+01
  .131E+01  .133E+01  .165E+01  .149E+01  .133E+01  .122E+01  .128E+01  .126E+01
  .128E+01  .116E+01  .112E+01  .125E+01  .120E+01  .103E+01  .879E+00  .719E+00
  .728E+00  .771E+00  .849E+00  .815E+00  .676E+00  .786E+00  .852E+00  .862E+00
  .836E+00  .793E+00  .744E+00  .647E+00  .572E+00  .536E+00  .529E+00  .545E+00
  .562E+00  .569E+00  .569E+00  .564E+00  .556E+00  .539E+00  .525E+00  .528E+00
  .533E+00  .536E+00  .538E+00  .539E+00  .540E+00  .540E+00  .541E+00  .541E+00
  .541E+00  .541E+00  .541E+00  .541E+00  .541E+00  .541E+00  .541E+00  .540E+00
  .540E+00  .540E+00  .540E+00  .540E+00  .540E+00  .540E+00  .540E+00  .540E+00
  .540E+00  .540E+00  .540E+00  .000E+00  .000E+00  .000E+00  .000E+00  .000E+00
  .000E+00  .000E+00  .000E+00  .000E+00
  .689E-01  .715E-01  .729E-01  .736E-01  .738E-01  .745E-01  .855E-01  .911E-01
  .989E-01  .109E+00  .121E+00  .136E+00  .183E+00  .188E+00  .149E+00  .136E+00
  .158E+00  .178E+00  .212E+00  .189E+00  .222E+00  .166E+00  .160E+00  .144E+00
  .104E+00  .109E+00  .119E+00  .879E-01  .837E-01  .629E-01  .651E-01  .575E-01
  .527E-01  .438E-01  .397E-01  .325E-01  .273E-01  .258E-01  .243E-01  .230E-01
  .214E-01  .168E-01  .154E-01  .134E-01  .113E-01  .969E-02  .745E-02  .672E-02
  .600E-02  .535E-02  .480E-02  .407E-02  .330E-02  .273E-02  .238E-02  .199E-02
  .161E-02  .128E-02  .111E-02  .105E-02  .100E-02  .897E-03  .792E-03  .698E-03
  .619E-03  .552E-03  .497E-03  .451E-03  .413E-03  .380E-03  .351E-03  .327E-03
  .305E-03  .285E-03  .268E-03  .253E-03  .220E-03  .194E-03  .174E-03  .157E-03
  .142E-03  .131E-03  .120E-03  .112E-03  .104E-03  .973E-04  .862E-04  .772E-04
  .699E-04  .644E-04  .599E-04  .000E+00  .000E+00  .000E+00  .000E+00  .000E+00
  .000E+00  .000E+00  .000E+00  .000E+00
  .169E+00  .184E+00  .197E+00  .208E+00  .218E+00  .228E+00  .289E+00  .334E+00
  .392E+00  .467E+00  .555E+00  .668E+00  .957E+00  .103E+01  .861E+00  .838E+00
  .106E+01  .129E+01  .168E+01  .159E+01  .201E+01  .163E+01  .167E+01  .157E+01
  .121E+01  .133E+01  .161E+01  .129E+01  .133E+01  .107E+01  .120E+01  .113E+01
  .110E+01  .954E+00  .920E+00  .787E+00  .701E+00  .693E+00  .677E+00  .672E+00
  .650E+00  .563E+00  .562E+00  .527E+00  .475E+00  .430E+00  .362E+00  .346E+00
  .326E+00  .306E+00  .288E+00  .269E+00  .234E+00  .203E+00  .188E+00  .166E+00
  .140E+00  .126E+00  .113E+00  .104E+00  .102E+00  .982E-01  .923E-01  .857E-01
  .794E-01  .737E-01  .688E-01  .645E-01  .608E-01  .576E-01  .546E-01  .520E-01
  .496E-01  .474E-01  .454E-01  .436E-01  .395E-01  .361E-01  .332E-01  .307E-01
  .286E-01  .267E-01  .251E-01  .236E-01  .224E-01  .212E-01  .192E-01  .176E-01
  .162E-01  .150E-01  .140E-01  .000E+00  .000E+00  .000E+00  .000E+00  .000E+00
  .000E+00  .000E+00  .000E+00  .000E+00
  .613E+01  .613E+01  .613E+01  .613E+01  .613E+01  .613E+01  .613E+01  .607E+01
  .613E+01  .613E+01  .613E+01  .613E+01  .614E+01  .615E+01  .615E+01  .621E+01
  .532E+01  .621E+01  .623E+01  .534E+01  .625E+01  .626E+01  .626E+01  .627E+01
  .538E+01  .589E+01  .628E+01  .630E+01  .822E+01  .824E+01  .827E+01  .814E+01
  .816E+01  .612E+01  .613E+01  .614E+01  .601E+01  .584E+01  .585E+01  .585E+01
  .586E+01  .570E+01  .571E+01  .572E+01  .573E+01  .613E+01  .549E+01  .549E+01
  .549E+01  .550E+01  .550E+01  .605E+01  .605E+01  .621E+01  .621E+01  .622E+01
  .551E+01  .562E+01  .562E+01  .517E+01  .531E+01  .531E+01  .531E+01  .531E+01
  .531E+01  .531E+01  .531E+01  .531E+01  .531E+01  .531E+01  .531E+01  .531E+01
  .531E+01  .531E+01  .531E+01  .531E+01  .531E+01  .531E+01  .531E+01  .531E+01
  .531E+01  .531E+01  .531E+01  .531E+01  .531E+01  .531E+01  .531E+01  .531E+01
  .531E+01  .531E+01  .531E+01  .000E+00  .000E+00  .000E+00  .000E+00  .000E+00
  .000E+00  .000E+00  .000E+00  .000E+00
  .611E+01  .611E+01  .611E+01  .611E+01  .584E+01  .584E+01  .605E+01  .605E+01
  .611E+01  .611E+01  .611E+01  .611E+01  .611E+01  .617E+01  .618E+01  .618E+01
  .535E+01  .618E+01  .627E+01  .538E+01  .628E+01  .629E+01  .630E+01  .623E+01
  .543E+01  .594E+01  .623E+01  .625E+01  .625E+01  .616E+01  .616E+01  .616E+01
  .617E+01  .617E+01  .609E+01  .609E+01  .609E+01  .609E+01  .610E+01  .610E+01
  .576E+01  .582E+01  .617E+01  .617E+01  .617E+01  .609E+01  .609E+01  .609E+01
  .609E+01  .609E+01  .609E+01  .609E+01  .609E+01  .537E+01  .537E+01  .617E+01
  .617E+01  .617E+01  .617E+01  .617E+01  .617E+01  .617E+01  .617E+01  .609E+01
  .609E+01  .609E+01  .609E+01  .609E+01  .609E+01  .609E+01  .609E+01  .609E+01
  .609E+01  .609E+01  .609E+01  .609E+01  .609E+01  .609E+01  .609E+01  .609E+01
  .609E+01  .609E+01  .609E+01  .609E+01  .609E+01  .609E+01  .609E+01  .609E+01
  .609E+01  .609E+01  .609E+01  .000E+00  .000E+00  .000E+00  .000E+00  .000E+00
  .000E+00  .000E+00  .000E+00  .000E+00
  .613E+01  .613E+01  .613E+01  .613E+01  .613E+01  .613E+01  .613E+01  .607E+01
  .613E+01  .613E+01  .613E+01  .613E+01  .613E+01  .614E+01  .615E+01  .620E+01
  .532E+01  .621E+01  .623E+01  .534E+01  .624E+01  .625E+01  .626E+01  .627E+01
  .538E+01  .589E+01  .627E+01  .677E+01  .822E+01  .824E+01  .827E+01  .814E+01
  .816E+01  .612E+01  .612E+01  .613E+01  .601E+01  .584E+01  .584E+01  .585E+01
  .585E+01  .569E+01  .570E+01  .571E+01  .612E+01  .612E+01  .548E+01  .548E+01
  .548E+01  .548E+01  .549E+01  .604E+01  .604E+01  .619E+01  .620E+01  .620E+01
  .620E+01  .549E+01  .515E+01  .528E+01  .528E+01  .528E+01  .528E+01  .528E+01
  .528E+01  .528E+01  .528E+01  .528E+01  .528E+01  .528E+01  .528E+01  .528E+01
  .528E+01  .528E+01  .528E+01  .528E+01  .528E+01  .528E+01  .528E+01  .528E+01
  .528E+01  .528E+01  .528E+01  .528E+01  .528E+01  .528E+01  .528E+01  .528E+01
  .528E+01  .610E+01  .610E+01  .000E+00  .000E+00  .000E+00  .000E+00  .000E+00
  .000E+00  .000E+00  .000E+00  .000E+00
/&   ----------  End of spectral data for channel  1  ----------
Response and Fourier amplitude spectra (91 periods,  .04 - 15.0 sec)   for      
Corrected accelerogram   24812-L1132-01248.09       Chan  2:  Up         from   
Uncorrected Accelerogram Data             Processed: 09/10/01, CDMG  812az009   
Record of Sun Sep  9, 2001 16:59:18 PDT               (Avol1 v4.6  7/01 CSMIP)  
CSMIP Preliminary Processing            (Origin:  To be determined)             
24812-L1132-01248.09                 Start time:  9/09/01, 23:59:18.0 UTC (GPS) 
Station No. 24812   34.108N, 118.263W      Etna  s/n 1132  (3 Channels)         
Los Angeles - Rowena & Glendale                                                 
Chan  2:  Up                                                                    
Record of Sun Sep  9, 2001 16:59:18 PDT    Sun Sep  9, 2001 16:59:18 PDT        
Hypocenter:  To be determined.               ML:  To be determined.             
Instr Period =  .0099 sec,  Damping =  .650,  Sensitivity =  .63  v/g           
                        Record length = 41.000 sec.                             
                                     Uncor Max  =   .026 g, at   6.150 sec.     
RMS accel of (uncor) record  =        .                                         
Accelerogram bandpass filtered with 3 dB pts at   .30 and 40.00 cyc/sec         
                 instrument- and baseline-corrected                             
                                                                                
                                                                                
                                                                                
                                                                                
                                                                                
Record of Sun Sep  9, 2001 16:59:18 PDT    Sun Sep  9, 2001 16:59:18 PDT        
                                                                                
24812-L1132-01248.09      Los Angeles - Rowena & Glendale   Chan  2:  Up        
                                                                                
24812-L1132-01248.09      Los Angeles - Rowena & Glendale   Chan  2:  Up        
                                                                                
Units for spectra are inches and sec, except Sa is in fraction of g.            
                                                                                
    2  100    2    3    3  200    1    3    1   24   12 1132    024812    1    0
   23   59   18    0  252    9    9 2001   10    3  500 8200   39   31   72   25
 8200    1   50    3 1132    1    9  410    1    0    0    0    0    0    0    0
    0    4    0    0 4100    2    0    0    0    0   72   31    0    0    0 4100
    0 4100   32   91    1    3    0    0    0    0    3    0    0    0    0    2
    2    2    4    0   32   99    0   32   32    0    0    1    0    0    0    0
  -99   -1    0    0
      .010      .650    41.000      .002      .000   625.000      .026     6.150
   100.600      .298      .477      .000     5.000      .000      .000      .000
     2.500   -17.860      .002     -.027     5.000    30.000      .000      .003
     -.001     -.005     2.000    15.000    34.108  -118.263      .022      .119
     5.444     -.011      .002  -999.000      .000      .000   -13.300      .000
  1000.000    -1.009      .000      .000      .000      .000      .000      .000
     4.600     4.400      .000   980.665      .010    41.000    16.011      .000
      .000    40.000      .000    41.000      .010      .300      .000      .000
     6.150    25.221     8.360      .520     6.150     -.033      .000      .300
    40.000      .010      .010      .000      .010      .014      .000      .000
      .098      .100      .057      .027      .002      .000      .000      .000
      .000      .000      .000      .000      .000      .000      .000      .000
      .000      .000      .000      .000
      .050
      .040      .042      .044      .046      .048      .050      .055      .060
      .065      .070      .075      .080      .085      .090      .095      .100
      .110      .120      .130      .140      .150      .160      .170      .180
      .190      .200      .220      .240      .260      .280      .300      .320
      .340      .360      .380      .400      .420      .440      .460      .480
      .500      .550      .600      .650      .700      .750      .800      .850
      .900      .950     1.000     1.100     1.200     1.300     1.400     1.500
     1.600     1.700     1.800     1.900     2.000     2.200     2.400     2.600
     2.800     3.000     3.200     3.400     3.600     3.800     4.000     4.200
     4.400     4.600     4.800     5.000     5.500     6.000     6.500     7.000
     7.500     8.000     8.500     9.000     9.500    10.000    11.000    12.000
    13.000    14.000    15.000      .000      .000      .000      .000      .000
      .000      .000      .000      .000
Fourier amplitude spectra in in/sec.
  .000E+00  .000E+00  .000E+00  .000E+00  .000E+00  .000E+00  .000E+00  .000E+00
  .000E+00  .000E+00  .000E+00  .000E+00  .000E+00  .000E+00  .000E+00  .000E+00
  .000E+00  .000E+00  .000E+00  .000E+00  .000E+00  .000E+00  .000E+00  .000E+00
  .000E+00  .000E+00  .000E+00  .000E+00  .000E+00  .000E+00  .000E+00  .000E+00
  .000E+00  .000E+00  .000E+00  .000E+00  .000E+00  .000E+00  .000E+00  .000E+00
  .000E+00  .000E+00  .000E+00  .000E+00  .000E+00  .000E+00  .000E+00  .000E+00
  .000E+00  .000E+00  .000E+00  .000E+00  .000E+00  .000E+00  .000E+00  .000E+00
  .000E+00  .000E+00  .000E+00  .000E+00  .000E+00  .000E+00  .000E+00  .000E+00
  .000E+00  .000E+00  .000E+00  .000E+00  .000E+00  .000E+00  .000E+00  .000E+00
  .000E+00  .000E+00  .000E+00  .000E+00  .000E+00  .000E+00  .000E+00  .000E+00
  .000E+00  .000E+00  .000E+00  .000E+00  .000E+00  .000E+00  .000E+00  .000E+00
  .000E+00  .000E+00  .000E+00  .000E+00  .000E+00  .000E+00  .000E+00  .000E+00
  .000E+00  .000E+00  .000E+00  .000E+00
Damping =  .05. Data of Sd,Sv,Sa,Pssv,ttSd,ttSv,ttSa :
  .612E-03  .733E-03  .740E-03  .704E-03  .836E-03  .100E-02  .144E-02  .233E-02
  .228E-02  .294E-02  .382E-02  .515E-02  .477E-02  .522E-02  .714E-02  .966E-02
  .112E-01  .109E-01  .122E-01  .115E-01  .125E-01  .132E-01  .153E-01  .180E-01
  .216E-01  .237E-01  .236E-01  .220E-01  .194E-01  .241E-01  .242E-01  .207E-01
  .206E-01  .292E-01  .346E-01  .379E-01  .348E-01  .263E-01  .238E-01  .258E-01
