Response and Fourier amplitude spectra (91 periods,  .04 - 15.0 sec)   for      
Corrected accelerogram   24819-L1883-01252.04       Chan  1:  57 Deg     from   
Uncorrected Accelerogram Data             Processed: 09/10/01, CDMG  819aw004   
Record of Sun Sep  9, 2001 16:59:15 PDT               (Avol1 v4.6  7/01 CSMIP)  
CSMIP Preliminary Processing            (Origin:  To be determined)             
24819-L1883-01252.04                 Start time:  9/09/01, 23:59:15.0 UTC (GPS) 
Station No. 24819   34.060N, 118.448W      Etna  s/n 1883  (3 Channels)         
Los Angeles - Veteran & Wilshire                                                
Chan  1:  57 Deg                                                                
Record of Sun Sep  9, 2001 16:59:15 PDT    Sun Sep  9, 2001 16:59:15 PDT        
Hypocenter:  To be determined.               ML:  To be determined.             
Instr Period =  .0105 sec,  Damping =  .680,  Sensitivity =  .63  v/g           
                        Record length = 44.000 sec.                             
                                     Uncor Max  =   .083 g, at   7.655 sec.     
RMS accel of (uncor) record  =        .                                         
Accelerogram bandpass filtered with 3 dB pts at   .30 and 40.00 cyc/sec         
                 instrument- and baseline-corrected                             
                                                                                
                                                                                
                                                                                
                                                                                
                                                                                
Record of Sun Sep  9, 2001 16:59:15 PDT    Sun Sep  9, 2001 16:59:15 PDT        
                                                                                
24819-L1883-01252.04      Los Angeles - Veteran & Wilshire    Chan  1:  57 Deg  
                                                                                
24819-L1883-01252.04      Los Angeles - Veteran & Wilshire    Chan  1:  57 Deg  
                                                                                
Units for spectra are inches and sec, except Sa is in fraction of g.            
                                                                                
    1  100    1    3    3  200    1    3    1   24   12 1883    024819    1    0
   23   59   15    0  252    9    9 2001   10    3   57 8800   39   32   72   57
 8800    1   50    3 1883    1    4  440    1    0    0    0    0    0    0    0
    0    4    0    0 4400    2    0    0    0    0   72   32    0    0    0 4400
    0 4400   33   91    1    3    0    0    0    0    3    0    0    0    0    2
    2    2    4    0   32   99    0   32   32    0    0    1    0    0    0    0
  -99   -1    0    0
      .011      .680    44.000      .007      .000   625.000      .083     7.655
    95.000      .298      .477      .000     5.000      .000      .000      .000
     2.500    12.926      .059     -.044     5.000    30.000      .000      .015
      .001     -.013     2.000    15.000    34.060  -118.448      .020      .325
    16.094     -.029      .002  -999.000      .000      .000   -13.400      .000
  1000.000     1.007      .000      .000      .000      .000      .000      .000
     4.600     4.400      .000   980.665      .010    44.000    15.120      .000
      .000    40.000      .000    44.000      .010      .300      .000      .000
     7.390    80.485     7.700     2.966     7.160      .158      .000      .300
    40.000      .010      .010      .000      .980      .045      .000      .000
      .373      .140      .197      .187      .011      .001      .000      .000
      .000      .000      .000      .000      .000      .000      .000      .000
      .000      .000      .000      .000
      .050
      .040      .042      .044      .046      .048      .050      .055      .060
      .065      .070      .075      .080      .085      .090      .095      .100
      .110      .120      .130      .140      .150      .160      .170      .180
      .190      .200      .220      .240      .260      .280      .300      .320
      .340      .360      .380      .400      .420      .440      .460      .480
      .500      .550      .600      .650      .700      .750      .800      .850
      .900      .950     1.000     1.100     1.200     1.300     1.400     1.500
     1.600     1.700     1.800     1.900     2.000     2.200     2.400     2.600
     2.800     3.000     3.200     3.400     3.600     3.800     4.000     4.200
     4.400     4.600     4.800     5.000     5.500     6.000     6.500     7.000
     7.500     8.000     8.500     9.000     9.500    10.000    11.000    12.000
    13.000    14.000    15.000      .000      .000      .000      .000      .000
      .000      .000      .000      .000
Fourier amplitude spectra in in/sec.
  .000E+00  .000E+00  .000E+00  .000E+00  .000E+00  .000E+00  .000E+00  .000E+00
  .000E+00  .000E+00  .000E+00  .000E+00  .000E+00  .000E+00  .000E+00  .000E+00
  .000E+00  .000E+00  .000E+00  .000E+00  .000E+00  .000E+00  .000E+00  .000E+00
  .000E+00  .000E+00  .000E+00  .000E+00  .000E+00  .000E+00  .000E+00  .000E+00
  .000E+00  .000E+00  .000E+00  .000E+00  .000E+00  .000E+00  .000E+00  .000E+00
  .000E+00  .000E+00  .000E+00  .000E+00  .000E+00  .000E+00  .000E+00  .000E+00
  .000E+00  .000E+00  .000E+00  .000E+00  .000E+00  .000E+00  .000E+00  .000E+00
  .000E+00  .000E+00  .000E+00  .000E+00  .000E+00  .000E+00  .000E+00  .000E+00
  .000E+00  .000E+00  .000E+00  .000E+00  .000E+00  .000E+00  .000E+00  .000E+00
  .000E+00  .000E+00  .000E+00  .000E+00  .000E+00  .000E+00  .000E+00  .000E+00
  .000E+00  .000E+00  .000E+00  .000E+00  .000E+00  .000E+00  .000E+00  .000E+00
  .000E+00  .000E+00  .000E+00  .000E+00  .000E+00  .000E+00  .000E+00  .000E+00
  .000E+00  .000E+00  .000E+00  .000E+00
Damping =  .05. Data of Sd,Sv,Sa,Pssv,ttSd,ttSv,ttSa :
  .163E-02  .187E-02  .207E-02  .228E-02  .256E-02  .277E-02  .387E-02  .429E-02
  .587E-02  .107E-01  .113E-01  .132E-01  .138E-01  .156E-01  .182E-01  .207E-01
  .284E-01  .325E-01  .526E-01  .708E-01  .604E-01  .519E-01  .495E-01  .648E-01
  .712E-01  .686E-01  .101E+00  .129E+00  .132E+00  .142E+00  .161E+00  .187E+00
  .206E+00  .206E+00  .188E+00  .167E+00  .159E+00  .150E+00  .141E+00  .143E+00
  .143E+00  .126E+00  .114E+00  .109E+00  .104E+00  .108E+00  .108E+00  .110E+00
  .118E+00  .110E+00  .103E+00  .125E+00  .135E+00  .137E+00  .135E+00  .129E+00
  .123E+00  .116E+00  .109E+00  .103E+00  .968E-01  .962E-01  .970E-01  .970E-01
  .962E-01  .948E-01  .930E-01  .911E-01  .891E-01  .870E-01  .850E-01  .832E-01
  .814E-01  .798E-01  .783E-01  .770E-01  .744E-01  .727E-01  .714E-01  .706E-01
  .700E-01  .696E-01  .693E-01  .690E-01  .688E-01  .686E-01  .684E-01  .681E-01
  .679E-01  .677E-01  .676E-01  .000E+00  .000E+00  .000E+00  .000E+00  .000E+00
  .000E+00  .000E+00  .000E+00  .000E+00
  .132E+00  .149E+00  .145E+00  .147E+00  .166E+00  .195E+00  .338E+00  .408E+00
  .482E+00  .710E+00  .751E+00  .760E+00  .800E+00  .832E+00  .913E+00  .974E+00
  .124E+01  .144E+01  .226E+01  .295E+01  .243E+01  .201E+01  .183E+01  .220E+01
  .222E+01  .205E+01  .270E+01  .330E+01  .329E+01  .339E+01  .368E+01  .392E+01
  .377E+01  .392E+01  .393E+01  .364E+01  .320E+01  .280E+01  .241E+01  .213E+01
  .225E+01  .237E+01  .219E+01  .191E+01  .171E+01  .161E+01  .172E+01  .182E+01
  .188E+01  .188E+01  .184E+01  .171E+01  .156E+01  .143E+01  .133E+01  .124E+01
  .119E+01  .115E+01  .112E+01  .110E+01  .108E+01  .107E+01  .106E+01  .107E+01
  .108E+01  .109E+01  .110E+01  .111E+01  .111E+01  .112E+01  .113E+01  .113E+01
  .114E+01  .114E+01  .114E+01  .115E+01  .115E+01  .115E+01  .115E+01  .115E+01
  .115E+01  .115E+01  .115E+01  .115E+01  .115E+01  .115E+01  .115E+01  .115E+01
  .115E+01  .115E+01  .115E+01  .000E+00  .000E+00  .000E+00  .000E+00  .000E+00
  .000E+00  .000E+00  .000E+00  .000E+00
  .104E+00  .108E+00  .110E+00  .110E+00  .114E+00  .113E+00  .130E+00  .124E+00
  .141E+00  .226E+00  .206E+00  .212E+00  .195E+00  .199E+00  .208E+00  .210E+00
  .242E+00  .232E+00  .324E+00  .373E+00  .275E+00  .207E+00  .174E+00  .205E+00
  .201E+00  .175E+00  .214E+00  .229E+00  .202E+00  .186E+00  .184E+00  .189E+00
  .184E+00  .163E+00  .135E+00  .108E+00  .931E-01  .800E-01  .687E-01  .642E-01
  .591E-01  .430E-01  .326E-01  .265E-01  .218E-01  .197E-01  .174E-01  .158E-01
  .150E-01  .126E-01  .109E-01  .109E-01  .994E-02  .870E-02  .742E-02  .626E-02
  .528E-02  .447E-02  .382E-02  .328E-02  .284E-02  .219E-02  .187E-02  .161E-02
  .140E-02  .122E-02  .107E-02  .968E-03  .890E-03  .819E-03  .755E-03  .697E-03
  .646E-03  .601E-03  .561E-03  .525E-03  .452E-03  .397E-03  .355E-03  .322E-03
  .294E-03  .271E-03  .252E-03  .235E-03  .220E-03  .207E-03  .185E-03  .167E-03
  .153E-03  .140E-03  .130E-03  .000E+00  .000E+00  .000E+00  .000E+00  .000E+00
  .000E+00  .000E+00  .000E+00  .000E+00
  .256E+00  .279E+00  .295E+00  .312E+00  .335E+00  .349E+00  .442E+00  .449E+00
  .567E+00  .960E+00  .943E+00  .104E+01  .102E+01  .109E+01  .120E+01  .130E+01
  .162E+01  .170E+01  .254E+01  .318E+01  .253E+01  .204E+01  .183E+01  .226E+01
  .235E+01  .216E+01  .288E+01  .338E+01  .319E+01  .319E+01  .337E+01  .368E+01
  .381E+01  .359E+01  .311E+01  .263E+01  .238E+01  .215E+01  .192E+01  .187E+01
  .180E+01  .143E+01  .119E+01  .105E+01  .931E+00  .902E+00  .846E+00  .812E+00
  .826E+00  .727E+00  .650E+00  .712E+00  .706E+00  .664E+00  .606E+00  .542E+00
  .482E+00  .428E+00  .381E+00  .340E+00  .304E+00  .275E+00  .254E+00  .234E+00
  .216E+00  .198E+00  .183E+00  .168E+00  .155E+00  .144E+00  .134E+00  .124E+00
  .116E+00  .109E+00  .103E+00  .968E-01  .851E-01  .761E-01  .690E-01  .634E-01
  .586E-01  .546E-01  .512E-01  .482E-01  .455E-01  .431E-01  .390E-01  .357E-01
  .328E-01  .304E-01  .283E-01  .000E+00  .000E+00  .000E+00  .000E+00  .000E+00
  .000E+00  .000E+00  .000E+00  .000E+00
  .773E+01  .773E+01  .773E+01  .773E+01  .739E+01  .739E+01  .793E+01  .713E+01
  .738E+01  .739E+01  .763E+01  .764E+01  .746E+01  .746E+01  .747E+01  .747E+01
  .766E+01  .774E+01  .774E+01  .776E+01  .750E+01  .751E+01  .751E+01  .751E+01
  .752E+01  .777E+01  .778E+01  .780E+01  .782E+01  .783E+01  .784E+01  .772E+01
  .773E+01  .774E+01  .775E+01  .761E+01  .762E+01  .763E+01  .746E+01  .747E+01
  .747E+01  .748E+01  .731E+01  .734E+01  .735E+01  .127E+02  .736E+01  .736E+01
  .124E+02  .121E+02  .762E+01  .763E+01  .763E+01  .764E+01  .764E+01  .764E+01
  .764E+01  .764E+01  .764E+01  .764E+01  .764E+01  .715E+01  .715E+01  .715E+01
  .715E+01  .715E+01  .715E+01  .715E+01  .715E+01  .715E+01  .715E+01  .715E+01
  .715E+01  .715E+01  .715E+01  .715E+01  .715E+01  .715E+01  .715E+01  .715E+01
  .715E+01  .715E+01  .715E+01  .715E+01  .715E+01  .715E+01  .715E+01  .715E+01
  .715E+01  .715E+01  .715E+01  .000E+00  .000E+00  .000E+00  .000E+00  .000E+00
  .000E+00  .000E+00  .000E+00  .000E+00
  .791E+01  .791E+01  .791E+01  .679E+01  .791E+01  .791E+01  .708E+01  .712E+01
  .684E+01  .713E+01  .742E+01  .763E+01  .743E+01  .744E+01  .744E+01  .744E+01
  .769E+01  .727E+01  .778E+01  .773E+01  .754E+01  .755E+01  .755E+01  .755E+01
  .756E+01  .782E+01  .783E+01  .774E+01  .775E+01  .776E+01  .777E+01  .778E+01
  .780E+01  .768E+01  .768E+01  .769E+01  .769E+01  .770E+01  .770E+01  .740E+01
  .741E+01  .741E+01  .742E+01  .742E+01  .742E+01  .769E+01  .769E+01  .769E+01
  .769E+01  .769E+01  .769E+01  .770E+01  .770E+01  .770E+01  .770E+01  .770E+01
  .770E+01  .770E+01  .769E+01  .769E+01  .769E+01  .759E+01  .769E+01  .769E+01
  .769E+01  .769E+01  .769E+01  .769E+01  .769E+01  .769E+01  .769E+01  .769E+01
  .769E+01  .769E+01  .769E+01  .769E+01  .769E+01  .769E+01  .769E+01  .769E+01
  .769E+01  .769E+01  .769E+01  .769E+01  .769E+01  .769E+01  .769E+01  .769E+01
  .769E+01  .769E+01  .769E+01  .000E+00  .000E+00  .000E+00  .000E+00  .000E+00
  .000E+00  .000E+00  .000E+00  .000E+00
  .773E+01  .773E+01  .773E+01  .773E+01  .739E+01  .739E+01  .793E+01  .713E+01
  .738E+01  .739E+01  .763E+01  .764E+01  .745E+01  .746E+01  .746E+01  .747E+01
  .766E+01  .774E+01  .774E+01  .776E+01  .750E+01  .751E+01  .751E+01  .751E+01
  .752E+01  .777E+01  .778E+01  .780E+01  .781E+01  .782E+01  .784E+01  .771E+01
  .772E+01  .773E+01  .775E+01  .761E+01  .762E+01  .762E+01  .763E+01  .746E+01
  .746E+01  .748E+01  .730E+01  .733E+01  .734E+01  .127E+02  .735E+01  .735E+01
  .124E+02  .121E+02  .761E+01  .761E+01  .762E+01  .762E+01  .762E+01  .762E+01
  .762E+01  .762E+01  .762E+01  .762E+01  .762E+01  .712E+01  .712E+01  .712E+01
  .712E+01  .712E+01  .712E+01  .743E+01  .743E+01  .743E+01  .743E+01  .743E+01
  .743E+01  .743E+01  .743E+01  .743E+01  .743E+01  .743E+01  .742E+01  .742E+01
  .742E+01  .742E+01  .742E+01  .742E+01  .742E+01  .742E+01  .742E+01  .742E+01
  .742E+01  .742E+01  .742E+01  .000E+00  .000E+00  .000E+00  .000E+00  .000E+00
  .000E+00  .000E+00  .000E+00  .000E+00
/&   ----------  End of spectral data for channel  1  ----------
Response and Fourier amplitude spectra (91 periods,  .04 - 15.0 sec)   for      
Corrected accelerogram   24819-L1883-01252.04       Chan  2:  Up         from   
Uncorrected Accelerogram Data             Processed: 09/10/01, CDMG  819aw004   
Record of Sun Sep  9, 2001 16:59:15 PDT               (Avol1 v4.6  7/01 CSMIP)  
CSMIP Preliminary Processing            (Origin:  To be determined)             
24819-L1883-01252.04                 Start time:  9/09/01, 23:59:15.0 UTC (GPS) 
Station No. 24819   34.060N, 118.448W      Etna  s/n 1883  (3 Channels)         
Los Angeles - Veteran & Wilshire                                                
Chan  2:  Up                                                                    
Record of Sun Sep  9, 2001 16:59:15 PDT    Sun Sep  9, 2001 16:59:15 PDT        
Hypocenter:  To be determined.               ML:  To be determined.             
Instr Period =  .0104 sec,  Damping =  .690,  Sensitivity =  .63  v/g           
                        Record length = 44.000 sec.                             
                                     Uncor Max  =  -.063 g, at   5.070 sec.     
RMS accel of (uncor) record  =        .                                         
Accelerogram bandpass filtered with 3 dB pts at   .30 and 40.00 cyc/sec         
                 instrument- and baseline-corrected                             
                                                                                
                                                                                
                                                                                
                                                                                
                                                                                
Record of Sun Sep  9, 2001 16:59:15 PDT    Sun Sep  9, 2001 16:59:15 PDT        
                                                                                
24819-L1883-01252.04      Los Angeles - Veteran & Wilshire    Chan  2:  Up      
                                                                                
24819-L1883-01252.04      Los Angeles - Veteran & Wilshire    Chan  2:  Up      
                                                                                
Units for spectra are inches and sec, except Sa is in fraction of g.            
                                                                                
    2  100    2    3    3  200    1    3    1   24   12 1883    024819    1    0
   23   59   15    0  252    9    9 2001   10    3  500 8800   39   32   72   57
 8800    1   50    3 1883    1    4  440    1    0    0    0    0    0    0    0
    0    4    0    0 4400    2    0    0    0    0   72   32    0    0    0 4400
    0 4400   33   91    1    3    0    0    0    0    3    0    0    0    0    2
    2    2    4    0   32   99    0   32   32    0    0    1    0    0    0    0
  -99   -1    0    0
      .010      .690    44.000      .005      .000   625.000     -.063     5.070
    95.800      .298      .477      .000     5.000      .000      .000      .000
     2.500   -21.430      .026     -.041     5.000    30.000      .000     -.002
     -.002      .000     2.000    15.000    34.060  -118.448      .062      .223
     3.599     -.013      .013  -999.000      .000      .000   -13.400      .000
  1000.000     1.010      .000      .000      .000      .000      .000      .000
     4.600     4.400      .000   980.665      .010    44.000    15.247      .000
      .000    40.000      .000    44.000      .010      .300      .000      .000
     5.070   -63.672    10.180    -1.032     5.070      .058      .000      .300
    40.000      .010      .010      .000      .010      .028      .000      .000
      .195      .060      .057      .043      .006      .000      .000      .000
      .000      .000      .000      .000      .000      .000      .000      .000
      .000      .000      .000      .000
      .050
      .040      .042      .044      .046      .048      .050      .055      .060
      .065      .070      .075      .080      .085      .090      .095      .100
      .110      .120      .130      .140      .150      .160      .170      .180
      .190      .200      .220      .240      .260      .280      .300      .320
      .340      .360      .380      .400      .420      .440      .460      .480
      .500      .550      .600      .650      .700      .750      .800      .850
      .900      .950     1.000     1.100     1.200     1.300     1.400     1.500
     1.600     1.700     1.800     1.900     2.000     2.200     2.400     2.600
     2.800     3.000     3.200     3.400     3.600     3.800     4.000     4.200
     4.400     4.600     4.800     5.000     5.500     6.000     6.500     7.000
     7.500     8.000     8.500     9.000     9.500    10.000    11.000    12.000
    13.000    14.000    15.000      .000      .000      .000      .000      .000
      .000      .000      .000      .000
Fourier amplitude spectra in in/sec.
  .000E+00  .000E+00  .000E+00  .000E+00  .000E+00  .000E+00  .000E+00  .000E+00
  .000E+00  .000E+00  .000E+00  .000E+00  .000E+00  .000E+00  .000E+00  .000E+00
  .000E+00  .000E+00  .000E+00  .000E+00  .000E+00  .000E+00  .000E+00  .000E+00
  .000E+00  .000E+00  .000E+00  .000E+00  .000E+00  .000E+00  .000E+00  .000E+00
  .000E+00  .000E+00  .000E+00  .000E+00  .000E+00  .000E+00  .000E+00  .000E+00
  .000E+00  .000E+00  .000E+00  .000E+00  .000E+00  .000E+00  .000E+00  .000E+00
  .000E+00  .000E+00  .000E+00  .000E+00  .000E+00  .000E+00  .000E+00  .000E+00
  .000E+00  .000E+00  .000E+00  .000E+00  .000E+00  .000E+00  .000E+00  .000E+00
  .000E+00  .000E+00  .000E+00  .000E+00  .000E+00  .000E+00  .000E+00  .000E+00
  .000E+00  .000E+00  .000E+00  .000E+00  .000E+00  .000E+00  .000E+00  .000E+00
  .000E+00  .000E+00  .000E+00  .000E+00  .000E+00  .000E+00  .000E+00  .000E+00
  .000E+00  .000E+00  .000E+00  .000E+00  .000E+00  .000E+00  .000E+00  .000E+00
  .000E+00  .000E+00  .000E+00  .000E+00
Damping =  .05. Data of Sd,Sv,Sa,Pssv,ttSd,ttSv,ttSa :
  .224E-02  .266E-02  .294E-02  .331E-02  .364E-02  .386E-02  .503E-02  .697E-02
  .767E-02  .809E-02  .716E-02  .654E-02  .679E-02  .855E-02  .112E-01  .111E-01
  .121E-01  .144E-01  .180E-01  .208E-01  .226E-01  .193E-01  .192E-01  .241E-01
  .220E-01  .202E-01  .270E-01  .449E-01  .576E-01  .454E-01  .322E-01  .326E-01
  .316E-01  .394E-01  .376E-01  .397E-01  .390E-01  .371E-01  .393E-01  .348E-01
