Response and Fourier amplitude spectra (91 periods,  .04 - 15.0 sec)   for      
Corrected accelerogram   24813-L1136-01253.13       Chan  1:  55 Deg     from   
Uncorrected Accelerogram Data             Processed: 09/10/01, CDMG  bk013      
Record of Sun Sep  9, 2001 16:59:18 PDT               (Avol1 v4.6  7/01 CSMIP)  
CSMIP Preliminary Processing            (Origin:  To be determined)             
24813-L1136-01253.13                 Start time:  9/09/01, 23:59:18.0 UTC (GPS) 
Station No. 24813   34.096N, 118.230W      Etna  s/n 1136  (3 Channels)         
Cypress Park - San Fernando & Division                                          
Chan  1:  55 Deg                                                                
Record of Sun Sep  9, 2001 16:59:18 PDT    Sun Sep  9, 2001 16:59:18 PDT        
Hypocenter:  To be determined.               ML:  To be determined.             
Instr Period =  .0108 sec,  Damping =  .650,  Sensitivity =  .63  v/g           
                        Record length = 39.000 sec.                             
                                     Uncor Max  =   .024 g, at   5.995 sec.     
RMS accel of (uncor) record  =        .                                         
Accelerogram bandpass filtered with 3 dB pts at   .30 and 40.00 cyc/sec         
                 instrument- and baseline-corrected                             
                                                                                
                                                                                
                                                                                
                                                                                
                                                                                
Record of Sun Sep  9, 2001 16:59:18 PDT    Sun Sep  9, 2001 16:59:18 PDT        
                                                                                
24813-L1136-01253.13      Cypress Park - San Fernando & Division    Chan  1:  55
 Deg                                                                            
24813-L1136-01253.13      Cypress Park - San Fernando & Division    Chan  1:  55
 Deg                                                                            
Units for spectra are inches and sec, except Sa is in fraction of g.            
                                                                                
    1  100    1    3    3  200    1    3    1   24   12 1136    024813    1    0
   23   59   18    0  252    9    9 2001   10    3   55 7800   39   38   72   55
 7800    1   50    3 1136    1   13  390    1    0    0    0    0    0    0    0
    0    4    0    0 3900    2    0    0    0    0   72   38    0    0    0 3900
    0 3900   39   91    1    3    0    0    0    0    3    0    0    0    0    2
    2    2    4    0   32   99    0   32   32    0    0    1    0    0    0    0
  -99   -1    0    0
      .011      .650    39.000      .002      .000   625.000      .024     5.995
    92.300      .298      .477      .000     5.000      .000      .000      .000
     2.500    -1.021      .009     -.016     5.000    30.000      .000      .001
     -.001     -.003     2.000    15.000    34.096  -118.230      .017      .164
     9.669     -.011      .005  -999.000      .000      .000   -13.200      .000
  1000.000    -1.006      .000      .000      .000      .000      .000      .000
     4.600     4.400      .000   980.665      .010    39.000    14.690      .000
      .000    40.000      .000    39.000      .010      .300      .000      .000
     5.990    23.523     5.740      .793     5.660     -.068      .000      .300
    40.000      .010      .010      .000      .010      .017      .000      .000
      .081      .150      .054      .051      .003      .000      .000      .000
      .000      .000      .000      .000      .000      .000      .000      .000
      .000      .000      .000      .000
      .050
      .040      .042      .044      .046      .048      .050      .055      .060
      .065      .070      .075      .080      .085      .090      .095      .100
      .110      .120      .130      .140      .150      .160      .170      .180
      .190      .200      .220      .240      .260      .280      .300      .320
      .340      .360      .380      .400      .420      .440      .460      .480
      .500      .550      .600      .650      .700      .750      .800      .850
      .900      .950     1.000     1.100     1.200     1.300     1.400     1.500
     1.600     1.700     1.800     1.900     2.000     2.200     2.400     2.600
     2.800     3.000     3.200     3.400     3.600     3.800     4.000     4.200
     4.400     4.600     4.800     5.000     5.500     6.000     6.500     7.000
     7.500     8.000     8.500     9.000     9.500    10.000    11.000    12.000
    13.000    14.000    15.000      .000      .000      .000      .000      .000
      .000      .000      .000      .000
Fourier amplitude spectra in in/sec.
  .000E+00  .000E+00  .000E+00  .000E+00  .000E+00  .000E+00  .000E+00  .000E+00
  .000E+00  .000E+00  .000E+00  .000E+00  .000E+00  .000E+00  .000E+00  .000E+00
  .000E+00  .000E+00  .000E+00  .000E+00  .000E+00  .000E+00  .000E+00  .000E+00
  .000E+00  .000E+00  .000E+00  .000E+00  .000E+00  .000E+00  .000E+00  .000E+00
  .000E+00  .000E+00  .000E+00  .000E+00  .000E+00  .000E+00  .000E+00  .000E+00
  .000E+00  .000E+00  .000E+00  .000E+00  .000E+00  .000E+00  .000E+00  .000E+00
  .000E+00  .000E+00  .000E+00  .000E+00  .000E+00  .000E+00  .000E+00  .000E+00
  .000E+00  .000E+00  .000E+00  .000E+00  .000E+00  .000E+00  .000E+00  .000E+00
  .000E+00  .000E+00  .000E+00  .000E+00  .000E+00  .000E+00  .000E+00  .000E+00
  .000E+00  .000E+00  .000E+00  .000E+00  .000E+00  .000E+00  .000E+00  .000E+00
  .000E+00  .000E+00  .000E+00  .000E+00  .000E+00  .000E+00  .000E+00  .000E+00
  .000E+00  .000E+00  .000E+00  .000E+00  .000E+00  .000E+00  .000E+00  .000E+00
  .000E+00  .000E+00  .000E+00  .000E+00
Damping =  .05. Data of Sd,Sv,Sa,Pssv,ttSd,ttSv,ttSa :
  .401E-03  .439E-03  .486E-03  .545E-03  .589E-03  .655E-03  .850E-03  .115E-02
  .148E-02  .156E-02  .153E-02  .210E-02  .257E-02  .247E-02  .282E-02  .360E-02
  .461E-02  .679E-02  .105E-01  .147E-01  .180E-01  .190E-01  .191E-01  .206E-01
  .216E-01  .217E-01  .208E-01  .268E-01  .331E-01  .396E-01  .452E-01  .485E-01
  .467E-01  .460E-01  .427E-01  .397E-01  .417E-01  .443E-01  .466E-01  .475E-01
  .469E-01  .438E-01  .419E-01  .419E-01  .412E-01  .422E-01  .415E-01  .393E-01
  .361E-01  .345E-01  .330E-01  .314E-01  .322E-01  .353E-01  .370E-01  .368E-01
  .361E-01  .349E-01  .335E-01  .320E-01  .325E-01  .334E-01  .342E-01  .345E-01
  .345E-01  .343E-01  .340E-01  .336E-01  .332E-01  .329E-01  .325E-01  .322E-01
  .319E-01  .316E-01  .314E-01  .312E-01  .307E-01  .304E-01  .302E-01  .299E-01
  .298E-01  .296E-01  .295E-01  .294E-01  .293E-01  .293E-01  .291E-01  .291E-01
  .290E-01  .289E-01  .289E-01  .000E+00  .000E+00  .000E+00  .000E+00  .000E+00
  .000E+00  .000E+00  .000E+00  .000E+00
  .154E-01  .174E-01  .185E-01  .200E-01  .228E-01  .270E-01  .336E-01  .489E-01
  .760E-01  .874E-01  .753E-01  .979E-01  .132E+00  .128E+00  .172E+00  .204E+00
  .213E+00  .301E+00  .460E+00  .597E+00  .672E+00  .659E+00  .645E+00  .655E+00
  .664E+00  .639E+00  .594E+00  .699E+00  .827E+00  .927E+00  .970E+00  .100E+01
  .102E+01  .919E+00  .899E+00  .855E+00  .814E+00  .772E+00  .710E+00  .630E+00
  .603E+00  .626E+00  .602E+00  .566E+00  .520E+00  .508E+00  .502E+00  .497E+00
  .488E+00  .474E+00  .461E+00  .443E+00  .435E+00  .429E+00  .420E+00  .411E+00
  .401E+00  .392E+00  .385E+00  .378E+00  .372E+00  .361E+00  .352E+00  .345E+00
  .338E+00  .333E+00  .329E+00  .326E+00  .324E+00  .322E+00  .320E+00  .319E+00
  .318E+00  .317E+00  .317E+00  .316E+00  .315E+00  .314E+00  .314E+00  .313E+00
  .313E+00  .313E+00  .312E+00  .312E+00  .312E+00  .312E+00  .312E+00  .312E+00
  .311E+00  .311E+00  .311E+00  .000E+00  .000E+00  .000E+00  .000E+00  .000E+00
  .000E+00  .000E+00  .000E+00  .000E+00
  .257E-01  .255E-01  .257E-01  .264E-01  .262E-01  .268E-01  .288E-01  .329E-01
  .357E-01  .326E-01  .279E-01  .336E-01  .363E-01  .314E-01  .321E-01  .369E-01
  .395E-01  .490E-01  .642E-01  .769E-01  .814E-01  .762E-01  .687E-01  .655E-01
  .619E-01  .562E-01  .443E-01  .481E-01  .500E-01  .519E-01  .516E-01  .489E-01
  .417E-01  .364E-01  .303E-01  .254E-01  .244E-01  .237E-01  .227E-01  .213E-01
  .193E-01  .149E-01  .120E-01  .102E-01  .870E-02  .776E-02  .669E-02  .559E-02
  .460E-02  .396E-02  .343E-02  .270E-02  .236E-02  .222E-02  .200E-02  .176E-02
  .152E-02  .131E-02  .114E-02  .986E-03  .871E-03  .747E-03  .646E-03  .561E-03
  .489E-03  .428E-03  .377E-03  .334E-03  .298E-03  .267E-03  .242E-03  .220E-03
  .201E-03  .184E-03  .170E-03  .157E-03  .132E-03  .113E-03  .983E-04  .866E-04
  .776E-04  .706E-04  .647E-04  .597E-04  .555E-04  .518E-04  .457E-04  .409E-04
  .372E-04  .344E-04  .320E-04  .000E+00  .000E+00  .000E+00  .000E+00  .000E+00
  .000E+00  .000E+00  .000E+00  .000E+00
  .630E-01  .656E-01  .695E-01  .745E-01  .771E-01  .823E-01  .971E-01  .121E+00
  .143E+00  .140E+00  .129E+00  .165E+00  .190E+00  .172E+00  .186E+00  .226E+00
  .263E+00  .356E+00  .506E+00  .662E+00  .753E+00  .745E+00  .706E+00  .718E+00
  .715E+00  .682E+00  .595E+00  .701E+00  .800E+00  .888E+00  .947E+00  .952E+00
  .864E+00  .803E+00  .706E+00  .623E+00  .625E+00  .633E+00  .637E+00  .622E+00
  .589E+00  .500E+00  .439E+00  .405E+00  .370E+00  .353E+00  .326E+00  .290E+00
  .252E+00  .228E+00  .207E+00  .179E+00  .169E+00  .171E+00  .166E+00  .154E+00
  .142E+00  .129E+00  .117E+00  .106E+00  .102E+00  .955E-01  .894E-01  .834E-01
  .775E-01  .719E-01  .668E-01  .622E-01  .580E-01  .543E-01  .510E-01  .481E-01
  .455E-01  .432E-01  .411E-01  .392E-01  .351E-01  .318E-01  .291E-01  .269E-01
  .249E-01  .233E-01  .218E-01  .205E-01  .194E-01  .184E-01  .166E-01  .152E-01
  .140E-01  .130E-01  .121E-01  .000E+00  .000E+00  .000E+00  .000E+00  .000E+00
  .000E+00  .000E+00  .000E+00  .000E+00
  .599E+01  .599E+01  .599E+01  .599E+01  .599E+01  .598E+01  .599E+01  .599E+01
  .599E+01  .600E+01  .599E+01  .599E+01  .600E+01  .620E+01  .641E+01  .599E+01
  .599E+01  .599E+01  .600E+01  .609E+01  .610E+01  .611E+01  .622E+01  .623E+01
  .624E+01  .624E+01  .637E+01  .626E+01  .628E+01  .630E+01  .618E+01  .619E+01
  .607E+01  .608E+01  .609E+01  .595E+01  .596E+01  .596E+01  .597E+01  .598E+01
  .598E+01  .105E+02  .579E+01  .580E+01  .620E+01  .621E+01  .623E+01  .625E+01
  .587E+01  .588E+01  .588E+01  .589E+01  .607E+01  .608E+01  .950E+01  .609E+01
  .609E+01  .609E+01  .609E+01  .609E+01  .564E+01  .565E+01  .565E+01  .565E+01
  .565E+01  .565E+01  .565E+01  .565E+01  .565E+01  .565E+01  .565E+01  .565E+01
  .565E+01  .565E+01  .565E+01  .565E+01  .565E+01  .565E+01  .565E+01  .565E+01
  .565E+01  .565E+01  .565E+01  .565E+01  .565E+01  .565E+01  .565E+01  .565E+01
  .565E+01  .565E+01  .565E+01  .000E+00  .000E+00  .000E+00  .000E+00  .000E+00
  .000E+00  .000E+00  .000E+00  .000E+00
  .601E+01  .602E+01  .602E+01  .602E+01  .602E+01  .596E+01  .574E+01  .596E+01
  .601E+01  .603E+01  .684E+01  .603E+01  .603E+01  .603E+01  .638E+01  .639E+01
  .603E+01  .603E+01  .604E+01  .605E+01  .606E+01  .607E+01  .617E+01  .627E+01
  .619E+01  .620E+01  .642E+01  .644E+01  .635E+01  .623E+01  .624E+01  .613E+01
  .614E+01  .601E+01  .602E+01  .602E+01  .603E+01  .603E+01  .604E+01  .604E+01
  .592E+01  .593E+01  .594E+01  .594E+01  .572E+01  .572E+01  .573E+01  .573E+01
  .573E+01  .573E+01  .573E+01  .573E+01  .573E+01  .573E+01  .573E+01  .573E+01
  .573E+01  .573E+01  .573E+01  .573E+01  .573E+01  .573E+01  .573E+01  .573E+01
  .573E+01  .573E+01  .573E+01  .573E+01  .573E+01  .573E+01  .573E+01  .573E+01
  .573E+01  .573E+01  .573E+01  .573E+01  .573E+01  .573E+01  .573E+01  .573E+01
  .573E+01  .573E+01  .573E+01  .573E+01  .573E+01  .573E+01  .573E+01  .573E+01
  .573E+01  .573E+01  .573E+01  .000E+00  .000E+00  .000E+00  .000E+00  .000E+00
  .000E+00  .000E+00  .000E+00  .000E+00
  .599E+01  .599E+01  .599E+01  .599E+01  .599E+01  .598E+01  .598E+01  .598E+01
  .599E+01  .600E+01  .599E+01  .599E+01  .600E+01  .620E+01  .640E+01  .599E+01
  .599E+01  .599E+01  .607E+01  .608E+01  .610E+01  .611E+01  .621E+01  .622E+01
  .623E+01  .624E+01  .637E+01  .638E+01  .628E+01  .629E+01  .617E+01  .619E+01
  .606E+01  .607E+01  .609E+01  .594E+01  .595E+01  .596E+01  .596E+01  .597E+01
  .598E+01  .105E+02  .578E+01  .579E+01  .619E+01  .620E+01  .621E+01  .624E+01
  .586E+01  .587E+01  .587E+01  .587E+01  .606E+01  .606E+01  .606E+01  .606E+01
  .606E+01  .606E+01  .606E+01  .606E+01  .562E+01  .562E+01  .562E+01  .562E+01
  .562E+01  .562E+01  .562E+01  .562E+01  .562E+01  .562E+01  .562E+01  .562E+01
  .562E+01  .562E+01  .562E+01  .561E+01  .561E+01  .561E+01  .561E+01  .561E+01
  .556E+01  .556E+01  .556E+01  .555E+01  .555E+01  .555E+01  .555E+01  .555E+01
  .603E+01  .603E+01  .603E+01  .000E+00  .000E+00  .000E+00  .000E+00  .000E+00
  .000E+00  .000E+00  .000E+00  .000E+00
/&   ----------  End of spectral data for channel  1  ----------
Response and Fourier amplitude spectra (91 periods,  .04 - 15.0 sec)   for      
Corrected accelerogram   24813-L1136-01253.13       Chan  2:  Up         from   
Uncorrected Accelerogram Data             Processed: 09/10/01, CDMG  bk013      
Record of Sun Sep  9, 2001 16:59:18 PDT               (Avol1 v4.6  7/01 CSMIP)  
CSMIP Preliminary Processing            (Origin:  To be determined)             
24813-L1136-01253.13                 Start time:  9/09/01, 23:59:18.0 UTC (GPS) 
Station No. 24813   34.096N, 118.230W      Etna  s/n 1136  (3 Channels)         
Cypress Park - San Fernando & Division                                          
Chan  2:  Up                                                                    
Record of Sun Sep  9, 2001 16:59:18 PDT    Sun Sep  9, 2001 16:59:18 PDT        
Hypocenter:  To be determined.               ML:  To be determined.             
Instr Period =  .0108 sec,  Damping =  .660,  Sensitivity =  .63  v/g           
                        Record length = 39.000 sec.                             
                                     Uncor Max  =   .012 g, at   5.880 sec.     
RMS accel of (uncor) record  =        .                                         
Accelerogram bandpass filtered with 3 dB pts at   .30 and 40.00 cyc/sec         
                 instrument- and baseline-corrected                             
                                                                                
                                                                                
                                                                                
                                                                                
                                                                                
Record of Sun Sep  9, 2001 16:59:18 PDT    Sun Sep  9, 2001 16:59:18 PDT        
                                                                                
24813-L1136-01253.13      Cypress Park - San Fernando & Division    Chan  2:  Up
                                                                                
24813-L1136-01253.13      Cypress Park - San Fernando & Division    Chan  2:  Up
                                                                                
Units for spectra are inches and sec, except Sa is in fraction of g.            
                                                                                
    2  100    2    3    3  200    1    3    1   24   12 1136    024813    1    0
   23   59   18    0  252    9    9 2001   10    3  500 7800   39   38   72   55
 7800    1   50    3 1136    1   13  390    1    0    0    0    0    0    0    0
    0    4    0    0 3900    2    0    0    0    0   72   38    0    0    0 3900
    0 3900   39   91    1    3    0    0    0    0    3    0    0    0    0    2
    2    2    4    0   32   99    0   32   32    0    0    1    0    0    0    0
  -99   -1    0    0
      .011      .660    39.000      .001      .000   625.000      .012     5.880
    92.700      .298      .477      .000     5.000      .000      .000      .000
     2.500   -80.632     -.044     -.058     5.000    30.000      .000     -.001
      .000      .001     2.000    15.000    34.096  -118.230      .017      .111
     6.538     -.005      .006  -999.000      .000      .000   -13.200      .000
  1000.000     1.008      .000      .000      .000      .000      .000      .000
     4.600     4.400      .000   980.665      .010    39.000    14.754      .000
      .000    40.000      .000    39.000      .010      .300      .000      .000
     5.880    11.359     5.910      .337     9.580      .016      .000      .300
    40.000      .010      .010      .000      .010      .009      .000      .000
      .048      .150      .017      .017      .001      .000      .000      .000
      .000      .000      .000      .000      .000      .000      .000      .000
      .000      .000      .000      .000
      .050
      .040      .042      .044      .046      .048      .050      .055      .060
      .065      .070      .075      .080      .085      .090      .095      .100
      .110      .120      .130      .140      .150      .160      .170      .180
      .190      .200      .220      .240      .260      .280      .300      .320
      .340      .360      .380      .400      .420      .440      .460      .480
      .500      .550      .600      .650      .700      .750      .800      .850
      .900      .950     1.000     1.100     1.200     1.300     1.400     1.500
     1.600     1.700     1.800     1.900     2.000     2.200     2.400     2.600
     2.800     3.000     3.200     3.400     3.600     3.800     4.000     4.200
     4.400     4.600     4.800     5.000     5.500     6.000     6.500     7.000
     7.500     8.000     8.500     9.000     9.500    10.000    11.000    12.000
    13.000    14.000    15.000      .000      .000      .000      .000      .000
      .000      .000      .000      .000
Fourier amplitude spectra in in/sec.
  .000E+00  .000E+00  .000E+00  .000E+00  .000E+00  .000E+00  .000E+00  .000E+00
  .000E+00  .000E+00  .000E+00  .000E+00  .000E+00  .000E+00  .000E+00  .000E+00
  .000E+00  .000E+00  .000E+00  .000E+00  .000E+00  .000E+00  .000E+00  .000E+00
  .000E+00  .000E+00  .000E+00  .000E+00  .000E+00  .000E+00  .000E+00  .000E+00
  .000E+00  .000E+00  .000E+00  .000E+00  .000E+00  .000E+00  .000E+00  .000E+00
  .000E+00  .000E+00  .000E+00  .000E+00  .000E+00  .000E+00  .000E+00  .000E+00
  .000E+00  .000E+00  .000E+00  .000E+00  .000E+00  .000E+00  .000E+00  .000E+00
  .000E+00  .000E+00  .000E+00  .000E+00  .000E+00  .000E+00  .000E+00  .000E+00
  .000E+00  .000E+00  .000E+00  .000E+00  .000E+00  .000E+00  .000E+00  .000E+00
  .000E+00  .000E+00  .000E+00  .000E+00  .000E+00  .000E+00  .000E+00  .000E+00
  .000E+00  .000E+00  .000E+00  .000E+00  .000E+00  .000E+00  .000E+00  .000E+00
  .000E+00  .000E+00  .000E+00  .000E+00  .000E+00  .000E+00  .000E+00  .000E+00
  .000E+00  .000E+00  .000E+00  .000E+00
Damping =  .05. Data of Sd,Sv,Sa,Pssv,ttSd,ttSv,ttSa :
  .200E-03  .218E-03  .229E-03  .273E-03  .318E-03  .334E-03  .468E-03  .629E-03
  .787E-03  .119E-02  .145E-02  .173E-02  .265E-02  .293E-02  .342E-02  .376E-02
  .444E-02  .455E-02  .568E-02  .807E-02  .106E-01  .113E-01  .952E-02  .719E-02
  .662E-02  .584E-02  .771E-02  .833E-02  .936E-02  .129E-01  .152E-01  .169E-01
  .183E-01  .193E-01  .190E-01  .192E-01  .174E-01  .212E-01  .202E-01  .173E-01
