Response and Fourier amplitude spectra (91 periods,  .04 - 15.0 sec)   for      
Corrected accelerogram   24838-L1198-01252.03       Chan  1:  30 Deg     from   
Uncorrected Accelerogram Data             Processed: 09/10/01, CDMG  838au003   
Record of Sun Sep  9, 2001 16:59:19 PDT               (Avol1 v4.6  7/01 CSMIP)  
CSMIP Preliminary Processing            (Origin:  To be determined)             
24838-L1198-01252.03                 Start time:  9/09/01, 23:59:19.0 UTC (GPS) 
Station No. 24838   34.037N, 118.263W      Etna  s/n 1198  (3 Channels)         
Los Angeles - Olive & Pico                                                      
Chan  1:  30 Deg                                                                
Record of Sun Sep  9, 2001 16:59:19 PDT    Sun Sep  9, 2001 16:59:19 PDT        
Hypocenter:  To be determined.               ML:  To be determined.             
Instr Period =  .0102 sec,  Damping =  .660,  Sensitivity =  .63  v/g           
                        Record length = 44.000 sec.                             
                                     Uncor Max  =   .066 g, at   4.875 sec.     
RMS accel of (uncor) record  =        .                                         
Accelerogram bandpass filtered with 3 dB pts at   .30 and 40.00 cyc/sec         
                 instrument- and baseline-corrected                             
                                                                                
                                                                                
                                                                                
                                                                                
                                                                                
Record of Sun Sep  9, 2001 16:59:19 PDT    Sun Sep  9, 2001 16:59:19 PDT        
                                                                                
24838-L1198-01252.03      Los Angeles - Olive & Pico    Chan  1:  30 Deg        
                                                                                
24838-L1198-01252.03      Los Angeles - Olive & Pico    Chan  1:  30 Deg        
                                                                                
Units for spectra are inches and sec, except Sa is in fraction of g.            
                                                                                
    1  100    1    3    3  200    1    3    1   24   12 1198    024838    1    0
   23   59   19    0  252    9    9 2001   10    3   30 8800   39   26   72   30
 8800    1   50    3 1198    1    3  440    1    0    0    0    0    0    0    0
    0    4    0    0 4400    2    0    0    0    0   72   26    0    0    0 4400
    0 4400   27   91    1    3    0    0    0    0    3    0    0    0    0    2
    2    2    4    0   32   99    0   32   32    0    0    1    0    0    0    0
  -99   -1    0    0
      .010      .660    44.000      .005      .000   625.000      .066     4.875
    98.000      .298      .477      .000     5.000      .000      .000      .000
     2.500    -7.347      .026     -.046     5.000    30.000      .000     -.015
     -.004      .011     2.000    15.000    34.037  -118.263      .124      .206
     1.660     -.008      .029  -999.000      .000      .000   -13.500      .000
  1000.000     1.007      .000      .000      .000      .000      .000      .000
     4.600     4.400      .000   980.665      .010    44.000    15.597      .000
      .000    40.000      .000    44.000      .010      .300      .000      .000
     4.870    64.107     4.810    -2.589     4.880     -.208      .000      .300
    40.000      .010      .010      .000      .050      .034      .000      .000
      .193      .220      .167      .133      .010      .002      .000      .000
      .000      .000      .000      .000      .000      .000      .000      .000
      .000      .000      .000      .000
      .050
      .040      .042      .044      .046      .048      .050      .055      .060
      .065      .070      .075      .080      .085      .090      .095      .100
      .110      .120      .130      .140      .150      .160      .170      .180
      .190      .200      .220      .240      .260      .280      .300      .320
      .340      .360      .380      .400      .420      .440      .460      .480
      .500      .550      .600      .650      .700      .750      .800      .850
      .900      .950     1.000     1.100     1.200     1.300     1.400     1.500
     1.600     1.700     1.800     1.900     2.000     2.200     2.400     2.600
     2.800     3.000     3.200     3.400     3.600     3.800     4.000     4.200
     4.400     4.600     4.800     5.000     5.500     6.000     6.500     7.000
     7.500     8.000     8.500     9.000     9.500    10.000    11.000    12.000
    13.000    14.000    15.000      .000      .000      .000      .000      .000
      .000      .000      .000      .000
Fourier amplitude spectra in in/sec.
  .000E+00  .000E+00  .000E+00  .000E+00  .000E+00  .000E+00  .000E+00  .000E+00
  .000E+00  .000E+00  .000E+00  .000E+00  .000E+00  .000E+00  .000E+00  .000E+00
  .000E+00  .000E+00  .000E+00  .000E+00  .000E+00  .000E+00  .000E+00  .000E+00
  .000E+00  .000E+00  .000E+00  .000E+00  .000E+00  .000E+00  .000E+00  .000E+00
  .000E+00  .000E+00  .000E+00  .000E+00  .000E+00  .000E+00  .000E+00  .000E+00
  .000E+00  .000E+00  .000E+00  .000E+00  .000E+00  .000E+00  .000E+00  .000E+00
  .000E+00  .000E+00  .000E+00  .000E+00  .000E+00  .000E+00  .000E+00  .000E+00
  .000E+00  .000E+00  .000E+00  .000E+00  .000E+00  .000E+00  .000E+00  .000E+00
  .000E+00  .000E+00  .000E+00  .000E+00  .000E+00  .000E+00  .000E+00  .000E+00
  .000E+00  .000E+00  .000E+00  .000E+00  .000E+00  .000E+00  .000E+00  .000E+00
  .000E+00  .000E+00  .000E+00  .000E+00  .000E+00  .000E+00  .000E+00  .000E+00
  .000E+00  .000E+00  .000E+00  .000E+00  .000E+00  .000E+00  .000E+00  .000E+00
  .000E+00  .000E+00  .000E+00  .000E+00
Damping =  .05. Data of Sd,Sv,Sa,Pssv,ttSd,ttSv,ttSa :
  .106E-02  .117E-02  .127E-02  .138E-02  .153E-02  .166E-02  .213E-02  .257E-02
  .290E-02  .362E-02  .415E-02  .466E-02  .568E-02  .681E-02  .780E-02  .877E-02
  .108E-01  .146E-01  .171E-01  .204E-01  .262E-01  .310E-01  .351E-01  .411E-01
  .505E-01  .636E-01  .908E-01  .103E+00  .102E+00  .111E+00  .115E+00  .119E+00
  .122E+00  .122E+00  .119E+00  .116E+00  .113E+00  .114E+00  .115E+00  .115E+00
  .115E+00  .115E+00  .114E+00  .109E+00  .102E+00  .953E-01  .893E-01  .853E-01
  .986E-01  .896E-01  .917E-01  .951E-01  .970E-01  .982E-01  .993E-01  .100E+00
  .102E+00  .103E+00  .104E+00  .105E+00  .106E+00  .108E+00  .109E+00  .109E+00
  .109E+00  .108E+00  .107E+00  .106E+00  .104E+00  .103E+00  .102E+00  .101E+00
  .997E-01  .987E-01  .978E-01  .970E-01  .953E-01  .940E-01  .930E-01  .922E-01
  .916E-01  .911E-01  .908E-01  .904E-01  .902E-01  .899E-01  .896E-01  .894E-01
  .892E-01  .891E-01  .890E-01  .000E+00  .000E+00  .000E+00  .000E+00  .000E+00
  .000E+00  .000E+00  .000E+00  .000E+00
  .292E-01  .322E-01  .355E-01  .409E-01  .437E-01  .470E-01  .567E-01  .700E-01
  .847E-01  .979E-01  .124E+00  .152E+00  .196E+00  .233E+00  .285E+00  .339E+00
  .499E+00  .651E+00  .737E+00  .708E+00  .923E+00  .109E+01  .120E+01  .135E+01
  .155E+01  .180E+01  .250E+01  .271E+01  .258E+01  .250E+01  .246E+01  .242E+01
  .232E+01  .222E+01  .221E+01  .217E+01  .211E+01  .203E+01  .193E+01  .180E+01
  .176E+01  .170E+01  .167E+01  .161E+01  .154E+01  .147E+01  .142E+01  .137E+01
  .133E+01  .129E+01  .125E+01  .118E+01  .112E+01  .107E+01  .104E+01  .101E+01
  .984E+00  .979E+00  .985E+00  .990E+00  .994E+00  .100E+01  .101E+01  .102E+01
  .102E+01  .103E+01  .103E+01  .103E+01  .103E+01  .103E+01  .103E+01  .103E+01
  .103E+01  .103E+01  .103E+01  .103E+01  .103E+01  .103E+01  .103E+01  .103E+01
  .103E+01  .103E+01  .102E+01  .102E+01  .102E+01  .102E+01  .102E+01  .102E+01
  .102E+01  .102E+01  .102E+01  .000E+00  .000E+00  .000E+00  .000E+00  .000E+00
  .000E+00  .000E+00  .000E+00  .000E+00
  .680E-01  .680E-01  .672E-01  .666E-01  .677E-01  .680E-01  .720E-01  .732E-01
  .701E-01  .756E-01  .755E-01  .746E-01  .806E-01  .861E-01  .883E-01  .899E-01
  .918E-01  .105E+00  .103E+00  .107E+00  .120E+00  .124E+00  .124E+00  .131E+00
  .144E+00  .163E+00  .193E+00  .185E+00  .154E+00  .146E+00  .132E+00  .120E+00
  .109E+00  .970E-01  .849E-01  .742E-01  .655E-01  .608E-01  .560E-01  .516E-01
  .474E-01  .392E-01  .326E-01  .266E-01  .216E-01  .176E-01  .145E-01  .124E-01
  .128E-01  .105E-01  .974E-02  .837E-02  .721E-02  .626E-02  .549E-02  .488E-02
  .437E-02  .395E-02  .359E-02  .328E-02  .301E-02  .256E-02  .221E-02  .192E-02
  .169E-02  .149E-02  .133E-02  .119E-02  .107E-02  .970E-03  .884E-03  .811E-03
  .747E-03  .691E-03  .644E-03  .602E-03  .518E-03  .453E-03  .402E-03  .360E-03
  .327E-03  .298E-03  .275E-03  .254E-03  .236E-03  .221E-03  .196E-03  .176E-03
  .159E-03  .146E-03  .134E-03  .000E+00  .000E+00  .000E+00  .000E+00  .000E+00
  .000E+00  .000E+00  .000E+00  .000E+00
  .167E+00  .175E+00  .182E+00  .188E+00  .200E+00  .209E+00  .243E+00  .269E+00
  .280E+00  .325E+00  .348E+00  .366E+00  .420E+00  .475E+00  .516E+00  .551E+00
  .616E+00  .763E+00  .827E+00  .916E+00  .110E+01  .122E+01  .130E+01  .144E+01
  .167E+01  .200E+01  .259E+01  .270E+01  .245E+01  .249E+01  .242E+01  .235E+01
  .226E+01  .213E+01  .197E+01  .181E+01  .168E+01  .163E+01  .157E+01  .151E+01
  .144E+01  .131E+01  .119E+01  .105E+01  .918E+00  .799E+00  .701E+00  .630E+00
  .688E+00  .593E+00  .576E+00  .543E+00  .508E+00  .475E+00  .446E+00  .421E+00
  .399E+00  .380E+00  .363E+00  .347E+00  .333E+00  .307E+00  .284E+00  .263E+00
  .244E+00  .226E+00  .210E+00  .195E+00  .182E+00  .171E+00  .160E+00  .151E+00
  .142E+00  .135E+00  .128E+00  .122E+00  .109E+00  .984E-01  .899E-01  .828E-01
  .767E-01  .716E-01  .671E-01  .631E-01  .597E-01  .565E-01  .512E-01  .468E-01
  .431E-01  .400E-01  .373E-01  .000E+00  .000E+00  .000E+00  .000E+00  .000E+00
  .000E+00  .000E+00  .000E+00  .000E+00
  .487E+01  .487E+01  .488E+01  .487E+01  .487E+01  .487E+01  .486E+01  .488E+01
  .487E+01  .487E+01  .487E+01  .487E+01  .487E+01  .487E+01  .488E+01  .487E+01
  .487E+01  .514E+01  .515E+01  .488E+01  .488E+01  .489E+01  .499E+01  .499E+01
  .843E+01  .844E+01  .857E+01  .859E+01  .862E+01  .522E+01  .524E+01  .510E+01
  .511E+01  .513E+01  .514E+01  .515E+01  .498E+01  .499E+01  .499E+01  .500E+01
  .500E+01  .502E+01  .503E+01  .503E+01  .504E+01  .505E+01  .505E+01  .485E+01
  .829E+01  .485E+01  .486E+01  .486E+01  .486E+01  .486E+01  .486E+01  .486E+01
  .486E+01  .486E+01  .486E+01  .486E+01  .486E+01  .486E+01  .487E+01  .487E+01
  .487E+01  .487E+01  .487E+01  .487E+01  .487E+01  .487E+01  .487E+01  .487E+01
  .487E+01  .487E+01  .487E+01  .487E+01  .487E+01  .487E+01  .487E+01  .487E+01
  .487E+01  .487E+01  .487E+01  .487E+01  .487E+01  .487E+01  .487E+01  .487E+01
  .487E+01  .487E+01  .487E+01  .000E+00  .000E+00  .000E+00  .000E+00  .000E+00
  .000E+00  .000E+00  .000E+00  .000E+00
  .509E+01  .510E+01  .490E+01  .491E+01  .491E+01  .836E+01  .484E+01  .557E+01
  .491E+01  .521E+01  .522E+01  .522E+01  .557E+01  .523E+01  .529E+01  .529E+01
  .515E+01  .511E+01  .512E+01  .513E+01  .493E+01  .494E+01  .494E+01  .495E+01
  .495E+01  .849E+01  .852E+01  .854E+01  .855E+01  .856E+01  .516E+01  .518E+01
  .519E+01  .505E+01  .506E+01  .507E+01  .507E+01  .508E+01  .508E+01  .508E+01
  .491E+01  .491E+01  .492E+01  .492E+01  .492E+01  .492E+01  .492E+01  .492E+01
  .492E+01  .492E+01  .492E+01  .492E+01  .492E+01  .492E+01  .492E+01  .492E+01
  .492E+01  .480E+01  .480E+01  .480E+01  .480E+01  .480E+01  .480E+01  .480E+01
  .480E+01  .480E+01  .480E+01  .480E+01  .480E+01  .480E+01  .480E+01  .480E+01
  .480E+01  .480E+01  .480E+01  .480E+01  .480E+01  .480E+01  .480E+01  .480E+01
  .480E+01  .480E+01  .480E+01  .480E+01  .480E+01  .480E+01  .480E+01  .480E+01
  .480E+01  .480E+01  .480E+01  .000E+00  .000E+00  .000E+00  .000E+00  .000E+00
  .000E+00  .000E+00  .000E+00  .000E+00
  .487E+01  .487E+01  .487E+01  .487E+01  .487E+01  .487E+01  .486E+01  .487E+01
  .487E+01  .487E+01  .487E+01  .487E+01  .486E+01  .487E+01  .487E+01  .487E+01
  .487E+01  .513E+01  .488E+01  .488E+01  .488E+01  .489E+01  .498E+01  .499E+01
  .843E+01  .844E+01  .857E+01  .859E+01  .861E+01  .521E+01  .523E+01  .510E+01
  .511E+01  .512E+01  .513E+01  .514E+01  .497E+01  .498E+01  .499E+01  .499E+01
  .500E+01  .501E+01  .502E+01  .502E+01  .503E+01  .503E+01  .504E+01  .484E+01
  .828E+01  .484E+01  .484E+01  .484E+01  .484E+01  .484E+01  .484E+01  .484E+01
  .484E+01  .484E+01  .484E+01  .484E+01  .484E+01  .484E+01  .484E+01  .483E+01
  .483E+01  .483E+01  .483E+01  .483E+01  .483E+01  .483E+01  .483E+01  .483E+01
  .483E+01  .483E+01  .482E+01  .482E+01  .482E+01  .482E+01  .482E+01  .482E+01
  .482E+01  .482E+01  .482E+01  .482E+01  .482E+01  .482E+01  .481E+01  .481E+01
  .481E+01  .481E+01  .481E+01  .000E+00  .000E+00  .000E+00  .000E+00  .000E+00
  .000E+00  .000E+00  .000E+00  .000E+00
/&   ----------  End of spectral data for channel  1  ----------
Response and Fourier amplitude spectra (91 periods,  .04 - 15.0 sec)   for      
Corrected accelerogram   24838-L1198-01252.03       Chan  2:  Up         from   
Uncorrected Accelerogram Data             Processed: 09/10/01, CDMG  838au003   
Record of Sun Sep  9, 2001 16:59:19 PDT               (Avol1 v4.6  7/01 CSMIP)  
CSMIP Preliminary Processing            (Origin:  To be determined)             
24838-L1198-01252.03                 Start time:  9/09/01, 23:59:19.0 UTC (GPS) 
Station No. 24838   34.037N, 118.263W      Etna  s/n 1198  (3 Channels)         
Los Angeles - Olive & Pico                                                      
Chan  2:  Up                                                                    
Record of Sun Sep  9, 2001 16:59:19 PDT    Sun Sep  9, 2001 16:59:19 PDT        
Hypocenter:  To be determined.               ML:  To be determined.             
Instr Period =  .0104 sec,  Damping =  .670,  Sensitivity =  .63  v/g           
                        Record length = 44.000 sec.                             
                                     Uncor Max  =  -.030 g, at   2.015 sec.     
RMS accel of (uncor) record  =        .                                         
Accelerogram bandpass filtered with 3 dB pts at   .30 and 40.00 cyc/sec         
                 instrument- and baseline-corrected                             
                                                                                
                                                                                
                                                                                
                                                                                
                                                                                
Record of Sun Sep  9, 2001 16:59:19 PDT    Sun Sep  9, 2001 16:59:19 PDT        
                                                                                
24838-L1198-01252.03      Los Angeles - Olive & Pico    Chan  2:  Up            
                                                                                
24838-L1198-01252.03      Los Angeles - Olive & Pico    Chan  2:  Up            
                                                                                
Units for spectra are inches and sec, except Sa is in fraction of g.            
                                                                                
    2  100    2    3    3  200    1    3    1   24   12 1198    024838    1    0
   23   59   19    0  252    9    9 2001   10    3  500 8800   39   26   72   30
 8800    1   50    3 1198    1    3  440    1    0    0    0    0    0    0    0
    0    4    0    0 4400    2    0    0    0    0   72   26    0    0    0 4400
    0 4400   27   91    1    3    0    0    0    0    3    0    0    0    0    2
    2    2    4    0   32   99    0   32   32    0    0    1    0    0    0    0
  -99   -1    0    0
      .010      .670    44.000      .003      .000   625.000     -.030     2.015
    96.200      .298      .477      .000     5.000      .000      .000      .000
     2.500   -51.390     -.013     -.045     5.000    30.000      .000      .142
      .000     -.142     2.000    15.000    34.037  -118.263     1.380      .174
      .126     -.320      .036  -999.000      .000      .000   -13.500      .000
  1000.000    -1.114      .000      .000      .000      .000      .000      .000
     4.600     4.400      .000   980.665      .010    44.000    15.311      .000
      .000    40.000      .000    44.000      .010      .300      .000      .000
     2.010   -29.145     8.260     -.805     8.320     -.034      .000      .300
    40.000      .010      .010      .000      .010      .022      .000      .000
      .085      .080      .064      .053      .003      .000      .000      .000
      .000      .000      .000      .000      .000      .000      .000      .000
      .000      .000      .000      .000
      .050
      .040      .042      .044      .046      .048      .050      .055      .060
      .065      .070      .075      .080      .085      .090      .095      .100
      .110      .120      .130      .140      .150      .160      .170      .180
      .190      .200      .220      .240      .260      .280      .300      .320
      .340      .360      .380      .400      .420      .440      .460      .480
      .500      .550      .600      .650      .700      .750      .800      .850
      .900      .950     1.000     1.100     1.200     1.300     1.400     1.500
     1.600     1.700     1.800     1.900     2.000     2.200     2.400     2.600
     2.800     3.000     3.200     3.400     3.600     3.800     4.000     4.200
     4.400     4.600     4.800     5.000     5.500     6.000     6.500     7.000
     7.500     8.000     8.500     9.000     9.500    10.000    11.000    12.000
    13.000    14.000    15.000      .000      .000      .000      .000      .000
      .000      .000      .000      .000
Fourier amplitude spectra in in/sec.
  .000E+00  .000E+00  .000E+00  .000E+00  .000E+00  .000E+00  .000E+00  .000E+00
  .000E+00  .000E+00  .000E+00  .000E+00  .000E+00  .000E+00  .000E+00  .000E+00
  .000E+00  .000E+00  .000E+00  .000E+00  .000E+00  .000E+00  .000E+00  .000E+00
  .000E+00  .000E+00  .000E+00  .000E+00  .000E+00  .000E+00  .000E+00  .000E+00
  .000E+00  .000E+00  .000E+00  .000E+00  .000E+00  .000E+00  .000E+00  .000E+00
  .000E+00  .000E+00  .000E+00  .000E+00  .000E+00  .000E+00  .000E+00  .000E+00
  .000E+00  .000E+00  .000E+00  .000E+00  .000E+00  .000E+00  .000E+00  .000E+00
  .000E+00  .000E+00  .000E+00  .000E+00  .000E+00  .000E+00  .000E+00  .000E+00
  .000E+00  .000E+00  .000E+00  .000E+00  .000E+00  .000E+00  .000E+00  .000E+00
  .000E+00  .000E+00  .000E+00  .000E+00  .000E+00  .000E+00  .000E+00  .000E+00
  .000E+00  .000E+00  .000E+00  .000E+00  .000E+00  .000E+00  .000E+00  .000E+00
  .000E+00  .000E+00  .000E+00  .000E+00  .000E+00  .000E+00  .000E+00  .000E+00
  .000E+00  .000E+00  .000E+00  .000E+00
Damping =  .05. Data of Sd,Sv,Sa,Pssv,ttSd,ttSv,ttSa :
  .597E-03  .688E-03  .791E-03  .897E-03  .101E-02  .113E-02  .150E-02  .210E-02
  .284E-02  .355E-02  .439E-02  .526E-02  .590E-02  .606E-02  .659E-02  .676E-02
  .753E-02  .757E-02  .853E-02  .794E-02  .970E-02  .110E-01  .165E-01  .183E-01
  .220E-01  .277E-01  .280E-01  .360E-01  .405E-01  .448E-01  .497E-01  .427E-01
  .373E-01  .390E-01  .350E-01  .302E-01  .312E-01  .276E-01  .220E-01  .242E-01
