Response and Fourier amplitude spectra (91 periods,  .04 - 15.0 sec)   for      
Corrected accelerogram   24861-L1230-01252.17       Chan  1: 360 Deg     from   
Uncorrected Accelerogram Data             Processed: 09/10/01, CDMG  861ar017   
Record of Sun Sep  9, 2001 16:59:24 PDT               (Avol1 v4.6  7/01 CSMIP)  
CSMIP Preliminary Processing            (Origin:  To be determined)             
24861-L1230-01252.17                 Start time:  9/09/01, 23:59:24.0 UTC (GPS) 
Station No. 24861   34.262N, 118.669W      Etna  s/n 1230  (3 Channels)         
Simi Valley - Katherine Rd & Sylvan                                             
Chan  1: 360 Deg                                                                
Record of Sun Sep  9, 2001 16:59:24 PDT    Sun Sep  9, 2001 16:59:24 PDT        
Hypocenter:  To be determined.               ML:  To be determined.             
Instr Period =  .0104 sec,  Damping =  .680,  Sensitivity =  .63  v/g           
                        Record length = 38.000 sec.                             
                                     Uncor Max  =   .012 g, at   5.905 sec.     
RMS accel of (uncor) record  =        .                                         
Accelerogram bandpass filtered with 3 dB pts at   .30 and 40.00 cyc/sec         
                 instrument- and baseline-corrected                             
                                                                                
                                                                                
                                                                                
                                                                                
                                                                                
Record of Sun Sep  9, 2001 16:59:24 PDT    Sun Sep  9, 2001 16:59:24 PDT        
                                                                                
24861-L1230-01252.17      Simi Valley - Katherine Rd & Sylvan   Chan  1: 360 Deg
                                                                                
24861-L1230-01252.17      Simi Valley - Katherine Rd & Sylvan   Chan  1: 360 Deg
                                                                                
Units for spectra are inches and sec, except Sa is in fraction of g.            
                                                                                
    1  100    1    3    3  200    1    3    1   24   12 1230    024861    1    0
   23   59   24    0  252    9    9 2001   10    3  360 7600   39   35   72  360
 7600    1   50    3 1230    1   17  380    1    0    0    0    0    0    0    0
    0    4    0    0 3800    2    0    0    0    0   72   35    0    0    0 3800
    0 3800   36   91    1    3    0    0    0    0    3    0    0    0    0    2
    2    2    4    0   32   99    0   32   32    0    0    1    0    0    0    0
  -99   -1    0    0
      .010      .680    38.000      .001      .000   625.000      .012     5.905
    95.900      .298      .477      .000     5.000      .000      .000      .000
     2.500      .375      .007     -.007     5.000    30.000      .000      .014
     -.001     -.015     2.000    15.000    34.262  -118.669      .717      .120
      .167     -.108      .078  -999.000      .000      .000   -14.100      .000
  1000.000     1.016      .000      .000      .000      .000      .000      .000
     4.600     4.400      .000   980.665      .010    38.000    15.263      .000
      .000    40.000      .000    38.000      .010      .300      .000      .000
     5.900    11.634     5.870     -.371     5.830      .017      .000      .300
    40.000      .010      .010      .000      .010      .006      .000      .000
      .046      .200      .039      .013      .001      .000      .000      .000
      .000      .000      .000      .000      .000      .000      .000      .000
      .000      .000      .000      .000
      .050
      .040      .042      .044      .046      .048      .050      .055      .060
      .065      .070      .075      .080      .085      .090      .095      .100
      .110      .120      .130      .140      .150      .160      .170      .180
      .190      .200      .220      .240      .260      .280      .300      .320
      .340      .360      .380      .400      .420      .440      .460      .480
      .500      .550      .600      .650      .700      .750      .800      .850
      .900      .950     1.000     1.100     1.200     1.300     1.400     1.500
     1.600     1.700     1.800     1.900     2.000     2.200     2.400     2.600
     2.800     3.000     3.200     3.400     3.600     3.800     4.000     4.200
     4.400     4.600     4.800     5.000     5.500     6.000     6.500     7.000
     7.500     8.000     8.500     9.000     9.500    10.000    11.000    12.000
    13.000    14.000    15.000      .000      .000      .000      .000      .000
      .000      .000      .000      .000
Fourier amplitude spectra in in/sec.
  .000E+00  .000E+00  .000E+00  .000E+00  .000E+00  .000E+00  .000E+00  .000E+00
  .000E+00  .000E+00  .000E+00  .000E+00  .000E+00  .000E+00  .000E+00  .000E+00
  .000E+00  .000E+00  .000E+00  .000E+00  .000E+00  .000E+00  .000E+00  .000E+00
  .000E+00  .000E+00  .000E+00  .000E+00  .000E+00  .000E+00  .000E+00  .000E+00
  .000E+00  .000E+00  .000E+00  .000E+00  .000E+00  .000E+00  .000E+00  .000E+00
  .000E+00  .000E+00  .000E+00  .000E+00  .000E+00  .000E+00  .000E+00  .000E+00
  .000E+00  .000E+00  .000E+00  .000E+00  .000E+00  .000E+00  .000E+00  .000E+00
  .000E+00  .000E+00  .000E+00  .000E+00  .000E+00  .000E+00  .000E+00  .000E+00
  .000E+00  .000E+00  .000E+00  .000E+00  .000E+00  .000E+00  .000E+00  .000E+00
  .000E+00  .000E+00  .000E+00  .000E+00  .000E+00  .000E+00  .000E+00  .000E+00
  .000E+00  .000E+00  .000E+00  .000E+00  .000E+00  .000E+00  .000E+00  .000E+00
  .000E+00  .000E+00  .000E+00  .000E+00  .000E+00  .000E+00  .000E+00  .000E+00
  .000E+00  .000E+00  .000E+00  .000E+00
Damping =  .05. Data of Sd,Sv,Sa,Pssv,ttSd,ttSv,ttSa :
  .204E-03  .235E-03  .255E-03  .276E-03  .308E-03  .346E-03  .500E-03  .636E-03
  .782E-03  .891E-03  .101E-02  .125E-02  .144E-02  .171E-02  .211E-02  .280E-02
  .467E-02  .649E-02  .742E-02  .665E-02  .845E-02  .796E-02  .765E-02  .955E-02
  .130E-01  .180E-01  .160E-01  .130E-01  .128E-01  .114E-01  .108E-01  .124E-01
  .127E-01  .136E-01  .129E-01  .147E-01  .138E-01  .137E-01  .134E-01  .132E-01
  .135E-01  .128E-01  .106E-01  .971E-02  .975E-02  .121E-01  .112E-01  .903E-02
  .847E-02  .977E-02  .111E-01  .118E-01  .121E-01  .123E-01  .119E-01  .113E-01
  .109E-01  .106E-01  .103E-01  .983E-02  .929E-02  .820E-02  .784E-02  .754E-02
  .718E-02  .726E-02  .738E-02  .747E-02  .751E-02  .751E-02  .749E-02  .745E-02
  .741E-02  .736E-02  .732E-02  .729E-02  .722E-02  .719E-02  .717E-02  .715E-02
  .714E-02  .713E-02  .712E-02  .710E-02  .709E-02  .707E-02  .704E-02  .701E-02
  .696E-02  .694E-02  .692E-02  .000E+00  .000E+00  .000E+00  .000E+00  .000E+00
  .000E+00  .000E+00  .000E+00  .000E+00
  .117E-01  .118E-01  .129E-01  .159E-01  .184E-01  .210E-01  .299E-01  .312E-01
  .398E-01  .484E-01  .523E-01  .659E-01  .746E-01  .873E-01  .104E+00  .140E+00
  .242E+00  .331E+00  .363E+00  .291E+00  .337E+00  .286E+00  .268E+00  .361E+00
  .444E+00  .567E+00  .527E+00  .360E+00  .319E+00  .299E+00  .284E+00  .288E+00
  .305E+00  .279E+00  .297E+00  .281E+00  .241E+00  .247E+00  .252E+00  .253E+00
  .261E+00  .268E+00  .238E+00  .233E+00  .227E+00  .214E+00  .201E+00  .194E+00
  .197E+00  .201E+00  .197E+00  .182E+00  .174E+00  .165E+00  .157E+00  .152E+00
  .150E+00  .147E+00  .145E+00  .143E+00  .142E+00  .141E+00  .142E+00  .143E+00
  .144E+00  .145E+00  .145E+00  .145E+00  .144E+00  .144E+00  .144E+00  .144E+00
  .144E+00  .144E+00  .144E+00  .144E+00  .144E+00  .144E+00  .144E+00  .144E+00
  .144E+00  .144E+00  .144E+00  .144E+00  .144E+00  .144E+00  .144E+00  .144E+00
  .144E+00  .144E+00  .144E+00  .000E+00  .000E+00  .000E+00  .000E+00  .000E+00
  .000E+00  .000E+00  .000E+00  .000E+00
  .131E-01  .136E-01  .135E-01  .133E-01  .137E-01  .141E-01  .168E-01  .180E-01
  .189E-01  .186E-01  .186E-01  .199E-01  .203E-01  .216E-01  .239E-01  .286E-01
  .389E-01  .458E-01  .454E-01  .344E-01  .384E-01  .322E-01  .271E-01  .304E-01
  .373E-01  .464E-01  .342E-01  .230E-01  .195E-01  .151E-01  .124E-01  .125E-01
  .113E-01  .108E-01  .927E-02  .940E-02  .806E-02  .728E-02  .657E-02  .595E-02
  .558E-02  .439E-02  .306E-02  .238E-02  .209E-02  .221E-02  .180E-02  .129E-02
  .111E-02  .114E-02  .118E-02  .103E-02  .897E-03  .788E-03  .664E-03  .555E-03
  .474E-03  .414E-03  .362E-03  .316E-03  .273E-03  .208E-03  .172E-03  .146E-03
  .125E-03  .112E-03  .102E-03  .932E-04  .854E-04  .784E-04  .722E-04  .667E-04
  .618E-04  .575E-04  .538E-04  .506E-04  .439E-04  .389E-04  .350E-04  .318E-04
  .291E-04  .269E-04  .249E-04  .232E-04  .217E-04  .204E-04  .185E-04  .172E-04
  .161E-04  .151E-04  .142E-04  .000E+00  .000E+00  .000E+00  .000E+00  .000E+00
  .000E+00  .000E+00  .000E+00  .000E+00
  .320E-01  .351E-01  .364E-01  .377E-01  .403E-01  .434E-01  .571E-01  .666E-01
  .756E-01  .800E-01  .850E-01  .983E-01  .106E+00  .120E+00  .140E+00  .176E+00
  .267E+00  .340E+00  .359E+00  .299E+00  .354E+00  .313E+00  .283E+00  .333E+00
  .431E+00  .565E+00  .458E+00  .339E+00  .310E+00  .256E+00  .226E+00  .244E+00
  .234E+00  .237E+00  .214E+00  .230E+00  .206E+00  .195E+00  .183E+00  .173E+00
  .169E+00  .146E+00  .111E+00  .939E-01  .875E-01  .101E+00  .879E-01  .668E-01
  .591E-01  .646E-01  .699E-01  .674E-01  .633E-01  .597E-01  .534E-01  .473E-01
  .427E-01  .391E-01  .359E-01  .325E-01  .292E-01  .234E-01  .205E-01  .182E-01
  .161E-01  .152E-01  .145E-01  .138E-01  .131E-01  .124E-01  .118E-01  .111E-01
  .106E-01  .101E-01  .959E-02  .916E-02  .825E-02  .753E-02  .693E-02  .642E-02
  .598E-02  .560E-02  .526E-02  .496E-02  .469E-02  .444E-02  .402E-02  .367E-02
  .337E-02  .311E-02  .290E-02  .000E+00  .000E+00  .000E+00  .000E+00  .000E+00
  .000E+00  .000E+00  .000E+00  .000E+00
  .589E+01  .590E+01  .590E+01  .590E+01  .590E+01  .589E+01  .589E+01  .590E+01
  .590E+01  .590E+01  .590E+01  .590E+01  .590E+01  .590E+01  .590E+01  .590E+01
  .591E+01  .598E+01  .599E+01  .642E+01  .704E+01  .653E+01  .663E+01  .601E+01
  .654E+01  .655E+01  .587E+01  .589E+01  .659E+01  .661E+01  .662E+01  .650E+01
  .639E+01  .640E+01  .628E+01  .629E+01  .630E+01  .590E+01  .591E+01  .591E+01
  .591E+01  .651E+01  .652E+01  .601E+01  .639E+01  .109E+02  .118E+02  .118E+02
  .580E+01  .580E+01  .581E+01  .581E+01  .581E+01  .581E+01  .581E+01  .582E+01
  .582E+01  .582E+01  .582E+01  .582E+01  .582E+01  .582E+01  .551E+01  .551E+01
  .551E+01  .582E+01  .582E+01  .582E+01  .582E+01  .582E+01  .582E+01  .582E+01
  .582E+01  .582E+01  .582E+01  .582E+01  .582E+01  .582E+01  .582E+01  .582E+01
  .582E+01  .582E+01  .582E+01  .582E+01  .582E+01  .582E+01  .582E+01  .582E+01
  .582E+01  .582E+01  .582E+01  .000E+00  .000E+00  .000E+00  .000E+00  .000E+00
  .000E+00  .000E+00  .000E+00  .000E+00
  .587E+01  .587E+01  .587E+01  .587E+01  .587E+01  .587E+01  .588E+01  .588E+01
  .592E+01  .592E+01  .593E+01  .593E+01  .593E+01  .593E+01  .593E+01  .593E+01
  .594E+01  .601E+01  .596E+01  .597E+01  .700E+01  .567E+01  .667E+01  .597E+01
  .598E+01  .660E+01  .592E+01  .585E+01  .654E+01  .655E+01  .655E+01  .644E+01
  .645E+01  .634E+01  .635E+01  .636E+01  .585E+01  .585E+01  .585E+01  .585E+01
  .586E+01  .586E+01  .586E+01  .586E+01  .586E+01  .586E+01  .586E+01  .586E+01
  .586E+01  .586E+01  .586E+01  .586E+01  .586E+01  .586E+01  .586E+01  .586E+01
  .586E+01  .586E+01  .586E+01  .586E+01  .586E+01  .586E+01  .586E+01  .586E+01
  .586E+01  .586E+01  .586E+01  .586E+01  .586E+01  .586E+01  .586E+01  .586E+01
  .586E+01  .586E+01  .586E+01  .586E+01  .586E+01  .586E+01  .586E+01  .586E+01
  .586E+01  .586E+01  .586E+01  .586E+01  .586E+01  .586E+01  .586E+01  .586E+01
  .586E+01  .586E+01  .586E+01  .000E+00  .000E+00  .000E+00  .000E+00  .000E+00
  .000E+00  .000E+00  .000E+00  .000E+00
  .589E+01  .590E+01  .590E+01  .590E+01  .589E+01  .589E+01  .589E+01  .590E+01
  .590E+01  .590E+01  .590E+01  .590E+01  .590E+01  .590E+01  .590E+01  .590E+01
  .591E+01  .598E+01  .599E+01  .642E+01  .704E+01  .652E+01  .662E+01  .601E+01
  .653E+01  .655E+01  .587E+01  .589E+01  .659E+01  .660E+01  .661E+01  .650E+01
  .638E+01  .640E+01  .627E+01  .628E+01  .630E+01  .589E+01  .590E+01  .590E+01
  .590E+01  .650E+01  .651E+01  .600E+01  .638E+01  .109E+02  .118E+02  .118E+02
  .579E+01  .579E+01  .579E+01  .580E+01  .580E+01  .580E+01  .580E+01  .580E+01
  .580E+01  .580E+01  .580E+01  .580E+01  .580E+01  .579E+01  .548E+01  .548E+01
  .548E+01  .579E+01  .579E+01  .579E+01  .579E+01  .579E+01  .579E+01  .579E+01
  .579E+01  .579E+01  .578E+01  .578E+01  .578E+01  .547E+01  .547E+01  .547E+01
  .547E+01  .547E+01  .547E+01  .547E+01  .547E+01  .547E+01  .586E+01  .586E+01
  .586E+01  .586E+01  .586E+01  .000E+00  .000E+00  .000E+00  .000E+00  .000E+00
  .000E+00  .000E+00  .000E+00  .000E+00
/&   ----------  End of spectral data for channel  1  ----------
Response and Fourier amplitude spectra (91 periods,  .04 - 15.0 sec)   for      
Corrected accelerogram   24861-L1230-01252.17       Chan  2:  Up         from   
Uncorrected Accelerogram Data             Processed: 09/10/01, CDMG  861ar017   
Record of Sun Sep  9, 2001 16:59:24 PDT               (Avol1 v4.6  7/01 CSMIP)  
CSMIP Preliminary Processing            (Origin:  To be determined)             
24861-L1230-01252.17                 Start time:  9/09/01, 23:59:24.0 UTC (GPS) 
Station No. 24861   34.262N, 118.669W      Etna  s/n 1230  (3 Channels)         
Simi Valley - Katherine Rd & Sylvan                                             
Chan  2:  Up                                                                    
Record of Sun Sep  9, 2001 16:59:24 PDT    Sun Sep  9, 2001 16:59:24 PDT        
Hypocenter:  To be determined.               ML:  To be determined.             
Instr Period =  .0110 sec,  Damping =  .650,  Sensitivity =  .63  v/g           
                        Record length = 38.000 sec.                             
                                     Uncor Max  =  -.006 g, at   6.105 sec.     
RMS accel of (uncor) record  =        .                                         
Accelerogram bandpass filtered with 3 dB pts at   .30 and 40.00 cyc/sec         
                 instrument- and baseline-corrected                             
                                                                                
                                                                                
                                                                                
                                                                                
                                                                                
Record of Sun Sep  9, 2001 16:59:24 PDT    Sun Sep  9, 2001 16:59:24 PDT        
                                                                                
24861-L1230-01252.17      Simi Valley - Katherine Rd & Sylvan   Chan  2:  Up    
                                                                                
24861-L1230-01252.17      Simi Valley - Katherine Rd & Sylvan   Chan  2:  Up    
                                                                                
Units for spectra are inches and sec, except Sa is in fraction of g.            
                                                                                
    2  100    2    3    3  200    1    3    1   24   12 1230    024861    1    0
   23   59   24    0  252    9    9 2001   10    3  500 7600   39   35   72  360
 7600    1   50    3 1230    1   17  380    1    0    0    0    0    0    0    0
    0    4    0    0 3800    2    0    0    0    0   72   35    0    0    0 3800
    0 3800   36   91    1    3    0    0    0    0    3    0    0    0    0    2
    2    2    4    0   32   99    0   32   32    0    0    1    0    0    0    0
  -99   -1    0    0
      .011      .650    38.000      .001      .000   625.000     -.006     6.105
    90.700      .298      .477      .000     5.000      .000      .000      .000
     2.500   -34.542     -.018     -.025     5.000    30.000      .000      .011
      .000     -.011     2.000    15.000    34.262  -118.669     1.230      .076
      .062     -.169      .148  -999.000      .000      .000   -14.100      .000
  1000.000     1.186      .000      .000      .000      .000      .000      .000
     4.600     4.400      .000   980.665      .010    38.000    14.435      .000
      .000    40.000      .000    38.000      .010      .300      .000      .000
     6.100    -6.175     5.950      .158     6.110      .005      .000      .300
    40.000      .010      .010      .000      .010      .004      .000      .000
      .033      .120      .010      .004      .000      .000      .000      .000
      .000      .000      .000      .000      .000      .000      .000      .000
      .000      .000      .000      .000
      .050
      .040      .042      .044      .046      .048      .050      .055      .060
      .065      .070      .075      .080      .085      .090      .095      .100
      .110      .120      .130      .140      .150      .160      .170      .180
      .190      .200      .220      .240      .260      .280      .300      .320
      .340      .360      .380      .400      .420      .440      .460      .480
      .500      .550      .600      .650      .700      .750      .800      .850
      .900      .950     1.000     1.100     1.200     1.300     1.400     1.500
     1.600     1.700     1.800     1.900     2.000     2.200     2.400     2.600
     2.800     3.000     3.200     3.400     3.600     3.800     4.000     4.200
     4.400     4.600     4.800     5.000     5.500     6.000     6.500     7.000
     7.500     8.000     8.500     9.000     9.500    10.000    11.000    12.000
    13.000    14.000    15.000      .000      .000      .000      .000      .000
      .000      .000      .000      .000
Fourier amplitude spectra in in/sec.
  .000E+00  .000E+00  .000E+00  .000E+00  .000E+00  .000E+00  .000E+00  .000E+00
  .000E+00  .000E+00  .000E+00  .000E+00  .000E+00  .000E+00  .000E+00  .000E+00
  .000E+00  .000E+00  .000E+00  .000E+00  .000E+00  .000E+00  .000E+00  .000E+00
  .000E+00  .000E+00  .000E+00  .000E+00  .000E+00  .000E+00  .000E+00  .000E+00
  .000E+00  .000E+00  .000E+00  .000E+00  .000E+00  .000E+00  .000E+00  .000E+00
  .000E+00  .000E+00  .000E+00  .000E+00  .000E+00  .000E+00  .000E+00  .000E+00
  .000E+00  .000E+00  .000E+00  .000E+00  .000E+00  .000E+00  .000E+00  .000E+00
  .000E+00  .000E+00  .000E+00  .000E+00  .000E+00  .000E+00  .000E+00  .000E+00
  .000E+00  .000E+00  .000E+00  .000E+00  .000E+00  .000E+00  .000E+00  .000E+00
  .000E+00  .000E+00  .000E+00  .000E+00  .000E+00  .000E+00  .000E+00  .000E+00
  .000E+00  .000E+00  .000E+00  .000E+00  .000E+00  .000E+00  .000E+00  .000E+00
  .000E+00  .000E+00  .000E+00  .000E+00  .000E+00  .000E+00  .000E+00  .000E+00
  .000E+00  .000E+00  .000E+00  .000E+00
Damping =  .05. Data of Sd,Sv,Sa,Pssv,ttSd,ttSv,ttSa :
  .114E-03  .132E-03  .147E-03  .156E-03  .172E-03  .189E-03  .277E-03  .339E-03
  .439E-03  .652E-03  .897E-03  .103E-02  .117E-02  .155E-02  .176E-02  .207E-02
  .382E-02  .468E-02  .509E-02  .396E-02  .351E-02  .335E-02  .359E-02  .348E-02
  .335E-02  .355E-02  .484E-02  .377E-02  .336E-02  .288E-02  .320E-02  .319E-02
  .359E-02  .351E-02  .347E-02  .334E-02  .403E-02  .432E-02  .524E-02  .669E-02
