Response and Fourier amplitude spectra (91 periods,  .04 - 15.0 sec)   for      
Corrected accelerogram   24945-L1636-01253.03       Chan  1: 360 Deg     from   
Uncorrected Accelerogram Data             Processed: 09/10/01, CDMG  945ay003   
Record of Sun Sep  9, 2001 16:59:19 PDT               (Avol1 v4.6  7/01 CSMIP)  
CSMIP Preliminary Processing            (Origin:  To be determined)             
24945-L1636-01253.03                 Start time:  9/09/01, 23:59:19.0 UTC (GPS) 
Station No. 24945   34.163N, 118.255W      Etna  s/n 1636  (3 Channels)         
Glendale - Brand Blvd & Stocker                                                 
Chan  1: 360 Deg                                                                
Record of Sun Sep  9, 2001 16:59:19 PDT    Sun Sep  9, 2001 16:59:19 PDT        
Hypocenter:  To be determined.               ML:  To be determined.             
Instr Period =  .0107 sec,  Damping =  .650,  Sensitivity =  .63  v/g           
                        Record length = 39.000 sec.                             
                                     Uncor Max  =   .040 g, at   5.040 sec.     
RMS accel of (uncor) record  =        .                                         
Accelerogram bandpass filtered with 3 dB pts at   .30 and 40.00 cyc/sec         
                 instrument- and baseline-corrected                             
                                                                                
                                                                                
                                                                                
                                                                                
                                                                                
Record of Sun Sep  9, 2001 16:59:19 PDT    Sun Sep  9, 2001 16:59:19 PDT        
                                                                                
24945-L1636-01253.03      Glendale - Brand Blvd & Stocker   Chan  1: 360 Deg    
                                                                                
24945-L1636-01253.03      Glendale - Brand Blvd & Stocker   Chan  1: 360 Deg    
                                                                                
Units for spectra are inches and sec, except Sa is in fraction of g.            
                                                                                
    1  100    1    3    3  200    1    3    1   24   12 1636    024945    1    0
   23   59   19    0  252    9    9 2001   10    3  360 7800   39   31   72  360
 7800    1   50    3 1636    1    3  390    1    0    0    0    0    0    0    0
    0    4    0    0 3900    2    0    0    0    0   72   31    0    0    0 3900
    0 3900   32   91    1    3    0    0    0    0    3    0    0    0    0    2
    2    2    4    0   32   99    0   32   32    0    0    1    0    0    0    0
  -99   -1    0    0
      .011      .650    39.000      .003      .000   625.000      .040     5.040
    93.300      .298      .477      .000     5.000      .000      .000      .000
     2.500     3.649      .026     -.023     5.000    30.000      .000      .004
     -.001     -.005     2.000    15.000    34.163  -118.255      .027      .167
     6.136     -.014      .004  -999.000      .000      .000   -13.400      .000
  1000.000     1.013      .000      .000      .000      .000      .000      .000
     4.600     4.400      .000   980.665      .010    39.000    14.849      .000
      .000    40.000      .000    39.000      .010      .300      .000      .000
     5.040    39.205     5.070      .765     5.180      .019      .000      .300
    40.000      .010      .010      .000      .010      .012      .000      .000
      .191      .090      .026      .024      .002      .000      .000      .000
      .000      .000      .000      .000      .000      .000      .000      .000
      .000      .000      .000      .000
      .050
      .040      .042      .044      .046      .048      .050      .055      .060
      .065      .070      .075      .080      .085      .090      .095      .100
      .110      .120      .130      .140      .150      .160      .170      .180
      .190      .200      .220      .240      .260      .280      .300      .320
      .340      .360      .380      .400      .420      .440      .460      .480
      .500      .550      .600      .650      .700      .750      .800      .850
      .900      .950     1.000     1.100     1.200     1.300     1.400     1.500
     1.600     1.700     1.800     1.900     2.000     2.200     2.400     2.600
     2.800     3.000     3.200     3.400     3.600     3.800     4.000     4.200
     4.400     4.600     4.800     5.000     5.500     6.000     6.500     7.000
     7.500     8.000     8.500     9.000     9.500    10.000    11.000    12.000
    13.000    14.000    15.000      .000      .000      .000      .000      .000
      .000      .000      .000      .000
Fourier amplitude spectra in in/sec.
  .000E+00  .000E+00  .000E+00  .000E+00  .000E+00  .000E+00  .000E+00  .000E+00
  .000E+00  .000E+00  .000E+00  .000E+00  .000E+00  .000E+00  .000E+00  .000E+00
  .000E+00  .000E+00  .000E+00  .000E+00  .000E+00  .000E+00  .000E+00  .000E+00
  .000E+00  .000E+00  .000E+00  .000E+00  .000E+00  .000E+00  .000E+00  .000E+00
  .000E+00  .000E+00  .000E+00  .000E+00  .000E+00  .000E+00  .000E+00  .000E+00
  .000E+00  .000E+00  .000E+00  .000E+00  .000E+00  .000E+00  .000E+00  .000E+00
  .000E+00  .000E+00  .000E+00  .000E+00  .000E+00  .000E+00  .000E+00  .000E+00
  .000E+00  .000E+00  .000E+00  .000E+00  .000E+00  .000E+00  .000E+00  .000E+00
  .000E+00  .000E+00  .000E+00  .000E+00  .000E+00  .000E+00  .000E+00  .000E+00
  .000E+00  .000E+00  .000E+00  .000E+00  .000E+00  .000E+00  .000E+00  .000E+00
  .000E+00  .000E+00  .000E+00  .000E+00  .000E+00  .000E+00  .000E+00  .000E+00
  .000E+00  .000E+00  .000E+00  .000E+00  .000E+00  .000E+00  .000E+00  .000E+00
  .000E+00  .000E+00  .000E+00  .000E+00
Damping =  .05. Data of Sd,Sv,Sa,Pssv,ttSd,ttSv,ttSa :
  .777E-03  .879E-03  .995E-03  .123E-02  .144E-02  .165E-02  .230E-02  .352E-02
  .538E-02  .588E-02  .707E-02  .855E-02  .123E-01  .149E-01  .165E-01  .159E-01
  .150E-01  .143E-01  .137E-01  .129E-01  .128E-01  .110E-01  .984E-02  .843E-02
  .928E-02  .953E-02  .127E-01  .156E-01  .185E-01  .225E-01  .210E-01  .195E-01
  .245E-01  .240E-01  .198E-01  .199E-01  .234E-01  .244E-01  .244E-01  .209E-01
  .196E-01  .153E-01  .130E-01  .127E-01  .192E-01  .241E-01  .266E-01  .268E-01
  .205E-01  .178E-01  .188E-01  .190E-01  .229E-01  .191E-01  .177E-01  .146E-01
  .137E-01  .142E-01  .138E-01  .142E-01  .142E-01  .130E-01  .112E-01  .966E-02
  .849E-02  .860E-02  .863E-02  .797E-02  .728E-02  .737E-02  .737E-02  .734E-02
  .732E-02  .729E-02  .727E-02  .725E-02  .718E-02  .710E-02  .709E-02  .707E-02
  .704E-02  .705E-02  .705E-02  .702E-02  .704E-02  .702E-02  .703E-02  .705E-02
  .702E-02  .704E-02  .709E-02  .000E+00  .000E+00  .000E+00  .000E+00  .000E+00
  .000E+00  .000E+00  .000E+00  .000E+00
  .696E-01  .728E-01  .843E-01  .106E+00  .132E+00  .145E+00  .200E+00  .308E+00
  .472E+00  .497E+00  .527E+00  .614E+00  .888E+00  .107E+01  .111E+01  .111E+01
  .961E+00  .833E+00  .697E+00  .608E+00  .609E+00  .542E+00  .471E+00  .410E+00
  .354E+00  .370E+00  .343E+00  .422E+00  .458E+00  .507E+00  .429E+00  .396E+00
  .484E+00  .469E+00  .378E+00  .377E+00  .389E+00  .376E+00  .360E+00  .342E+00
  .322E+00  .300E+00  .287E+00  .281E+00  .277E+00  .291E+00  .295E+00  .291E+00
  .298E+00  .298E+00  .296E+00  .300E+00  .307E+00  .307E+00  .302E+00  .298E+00
  .297E+00  .299E+00  .303E+00  .306E+00  .309E+00  .312E+00  .312E+00  .309E+00
  .307E+00  .304E+00  .303E+00  .301E+00  .300E+00  .299E+00  .299E+00  .298E+00
  .298E+00  .298E+00  .298E+00  .297E+00  .297E+00  .297E+00  .297E+00  .296E+00
  .296E+00  .296E+00  .296E+00  .296E+00  .296E+00  .296E+00  .296E+00  .296E+00
  .296E+00  .296E+00  .296E+00  .000E+00  .000E+00  .000E+00  .000E+00  .000E+00
  .000E+00  .000E+00  .000E+00  .000E+00
  .497E-01  .509E-01  .529E-01  .593E-01  .636E-01  .686E-01  .771E-01  .101E+00
  .132E+00  .124E+00  .129E+00  .139E+00  .174E+00  .191E+00  .187E+00  .164E+00
  .125E+00  .102E+00  .816E-01  .679E-01  .579E-01  .449E-01  .351E-01  .270E-01
  .264E-01  .247E-01  .270E-01  .278E-01  .282E-01  .294E-01  .240E-01  .197E-01
  .217E-01  .192E-01  .142E-01  .128E-01  .137E-01  .130E-01  .119E-01  .935E-02
  .813E-02  .525E-02  .373E-02  .317E-02  .405E-02  .441E-02  .428E-02  .381E-02
  .261E-02  .204E-02  .194E-02  .162E-02  .165E-02  .118E-02  .959E-03  .683E-03
  .608E-03  .566E-03  .536E-03  .496E-03  .450E-03  .359E-03  .280E-03  .225E-03
  .190E-03  .169E-03  .155E-03  .145E-03  .136E-03  .129E-03  .123E-03  .117E-03
  .112E-03  .107E-03  .103E-03  .985E-04  .894E-04  .818E-04  .753E-04  .698E-04
  .651E-04  .609E-04  .573E-04  .541E-04  .512E-04  .486E-04  .442E-04  .404E-04
  .373E-04  .346E-04  .323E-04  .000E+00  .000E+00  .000E+00  .000E+00  .000E+00
  .000E+00  .000E+00  .000E+00  .000E+00
  .122E+00  .132E+00  .142E+00  .168E+00  .188E+00  .208E+00  .263E+00  .369E+00
  .520E+00  .528E+00  .593E+00  .672E+00  .908E+00  .104E+01  .109E+01  .999E+00
  .856E+00  .747E+00  .661E+00  .577E+00  .535E+00  .430E+00  .364E+00  .294E+00
  .307E+00  .299E+00  .362E+00  .409E+00  .447E+00  .504E+00  .440E+00  .382E+00
  .453E+00  .420E+00  .327E+00  .313E+00  .350E+00  .348E+00  .333E+00  .274E+00
  .246E+00  .175E+00  .136E+00  .123E+00  .173E+00  .202E+00  .209E+00  .198E+00
  .143E+00  .118E+00  .118E+00  .109E+00  .120E+00  .926E-01  .794E-01  .610E-01
  .539E-01  .525E-01  .481E-01  .471E-01  .445E-01  .370E-01  .294E-01  .233E-01
  .190E-01  .180E-01  .169E-01  .147E-01  .127E-01  .122E-01  .116E-01  .110E-01
  .104E-01  .996E-02  .952E-02  .911E-02  .820E-02  .744E-02  .685E-02  .635E-02
  .590E-02  .553E-02  .521E-02  .490E-02  .466E-02  .441E-02  .402E-02  .369E-02
  .339E-02  .316E-02  .297E-02  .000E+00  .000E+00  .000E+00  .000E+00  .000E+00
  .000E+00  .000E+00  .000E+00  .000E+00
  .522E+01  .522E+01  .518E+01  .519E+01  .522E+01  .522E+01  .522E+01  .522E+01
  .526E+01  .504E+01  .505E+01  .509E+01  .528E+01  .529E+01  .525E+01  .521E+01
  .517E+01  .512E+01  .513E+01  .513E+01  .514E+01  .538E+01  .508E+01  .508E+01
  .864E+01  .865E+01  .878E+01  .869E+01  .870E+01  .737E+01  .786E+01  .873E+01
  .861E+01  .848E+01  .850E+01  .714E+01  .716E+01  .637E+01  .638E+01  .618E+01
  .600E+01  .601E+01  .533E+01  .533E+01  .115E+02  .112E+02  .113E+02  .114E+02
  .114E+02  .114E+02  .111E+02  .111E+02  .111E+02  .107E+02  .839E+01  .783E+01
  .582E+01  .582E+01  .517E+01  .517E+01  .517E+01  .517E+01  .518E+01  .518E+01
  .518E+01  .107E+02  .107E+02  .107E+02  .839E+01  .839E+01  .839E+01  .839E+01
  .839E+01  .839E+01  .839E+01  .839E+01  .839E+01  .517E+01  .517E+01  .517E+01
  .517E+01  .517E+01  .517E+01  .517E+01  .517E+01  .517E+01  .517E+01  .517E+01
  .517E+01  .517E+01  .517E+01  .000E+00  .000E+00  .000E+00  .000E+00  .000E+00
  .000E+00  .000E+00  .000E+00  .000E+00
  .521E+01  .521E+01  .501E+01  .520E+01  .521E+01  .520E+01  .524E+01  .524E+01
  .525E+01  .529E+01  .507E+01  .530E+01  .530E+01  .526E+01  .523E+01  .523E+01
  .519E+01  .515E+01  .516E+01  .510E+01  .511E+01  .511E+01  .505E+01  .505E+01
  .505E+01  .511E+01  .872E+01  .875E+01  .876E+01  .730E+01  .793E+01  .866E+01
  .853E+01  .855E+01  .843E+01  .722E+01  .641E+01  .710E+01  .537E+01  .537E+01
  .520E+01  .520E+01  .520E+01  .506E+01  .520E+01  .520E+01  .520E+01  .506E+01
  .506E+01  .506E+01  .506E+01  .506E+01  .506E+01  .506E+01  .506E+01  .506E+01
  .506E+01  .506E+01  .506E+01  .506E+01  .506E+01  .506E+01  .506E+01  .506E+01
  .506E+01  .506E+01  .506E+01  .506E+01  .506E+01  .506E+01  .506E+01  .506E+01
  .506E+01  .506E+01  .506E+01  .506E+01  .506E+01  .506E+01  .506E+01  .506E+01
  .506E+01  .506E+01  .506E+01  .506E+01  .506E+01  .506E+01  .506E+01  .506E+01
  .506E+01  .506E+01  .506E+01  .000E+00  .000E+00  .000E+00  .000E+00  .000E+00
  .000E+00  .000E+00  .000E+00  .000E+00
  .522E+01  .522E+01  .518E+01  .519E+01  .522E+01  .522E+01  .522E+01  .522E+01
  .526E+01  .504E+01  .505E+01  .509E+01  .528E+01  .528E+01  .525E+01  .525E+01
  .517E+01  .512E+01  .513E+01  .513E+01  .513E+01  .538E+01  .508E+01  .508E+01
  .864E+01  .865E+01  .866E+01  .880E+01  .870E+01  .736E+01  .786E+01  .873E+01
  .860E+01  .848E+01  .850E+01  .713E+01  .715E+01  .636E+01  .637E+01  .617E+01
  .599E+01  .600E+01  .533E+01  .533E+01  .115E+02  .112E+02  .113E+02  .113E+02
  .114E+02  .114E+02  .110E+02  .111E+02  .111E+02  .107E+02  .837E+01  .781E+01
  .580E+01  .507E+01  .507E+01  .507E+01  .516E+01  .516E+01  .516E+01  .507E+01
  .507E+01  .506E+01  .506E+01  .506E+01  .506E+01  .506E+01  .506E+01  .506E+01
  .506E+01  .506E+01  .506E+01  .506E+01  .506E+01  .506E+01  .506E+01  .506E+01
  .506E+01  .506E+01  .506E+01  .506E+01  .506E+01  .506E+01  .506E+01  .506E+01
  .506E+01  .506E+01  .506E+01  .000E+00  .000E+00  .000E+00  .000E+00  .000E+00
  .000E+00  .000E+00  .000E+00  .000E+00
/&   ----------  End of spectral data for channel  1  ----------
Response and Fourier amplitude spectra (91 periods,  .04 - 15.0 sec)   for      
Corrected accelerogram   24945-L1636-01253.03       Chan  2:  Up         from   
Uncorrected Accelerogram Data             Processed: 09/10/01, CDMG  945ay003   
Record of Sun Sep  9, 2001 16:59:19 PDT               (Avol1 v4.6  7/01 CSMIP)  
CSMIP Preliminary Processing            (Origin:  To be determined)             
24945-L1636-01253.03                 Start time:  9/09/01, 23:59:19.0 UTC (GPS) 
Station No. 24945   34.163N, 118.255W      Etna  s/n 1636  (3 Channels)         
Glendale - Brand Blvd & Stocker                                                 
Chan  2:  Up                                                                    
Record of Sun Sep  9, 2001 16:59:19 PDT    Sun Sep  9, 2001 16:59:19 PDT        
Hypocenter:  To be determined.               ML:  To be determined.             
Instr Period =  .0107 sec,  Damping =  .660,  Sensitivity =  .63  v/g           
                        Record length = 39.000 sec.                             
                                     Uncor Max  =  -.023 g, at   5.160 sec.     
RMS accel of (uncor) record  =        .                                         
Accelerogram bandpass filtered with 3 dB pts at   .30 and 40.00 cyc/sec         
                 instrument- and baseline-corrected                             
                                                                                
                                                                                
                                                                                
                                                                                
                                                                                
Record of Sun Sep  9, 2001 16:59:19 PDT    Sun Sep  9, 2001 16:59:19 PDT        
                                                                                
24945-L1636-01253.03      Glendale - Brand Blvd & Stocker   Chan  2:  Up        
                                                                                
24945-L1636-01253.03      Glendale - Brand Blvd & Stocker   Chan  2:  Up        
                                                                                
Units for spectra are inches and sec, except Sa is in fraction of g.            
                                                                                
    2  100    2    3    3  200    1    3    1   24   12 1636    024945    1    0
   23   59   19    0  252    9    9 2001   10    3  500 7800   39   31   72  360
 7800    1   50    3 1636    1    3  390    1    0    0    0    0    0    0    0
    0    4    0    0 3900    2    0    0    0    0   72   31    0    0    0 3900
    0 3900   32   91    1    3    0    0    0    0    3    0    0    0    0    2
    2    2    4    0   32   99    0   32   32    0    0    1    0    0    0    0
  -99   -1    0    0
      .011      .660    39.000      .002      .000   625.000     -.023     5.160
    93.800      .298      .477      .000     5.000      .000      .000      .000
     2.500   -35.942     -.008     -.036     5.000    30.000      .000      .000
      .000      .000     2.000    15.000    34.163  -118.255      .077      .153
     1.991     -.012      .012  -999.000      .000      .000   -13.400      .000
  1000.000     1.000      .000      .000      .000      .000      .000      .000
     4.600     4.400      .000   980.665      .010    39.000    14.929      .000
      .000    40.000      .000    39.000      .010      .300      .000      .000
     5.160   -22.444     2.200     -.331     2.220     -.017      .000      .300
    40.000      .010      .010      .000      .010      .008      .000      .000
      .107      .070      .023      .013      .001      .000      .000      .000
      .000      .000      .000      .000      .000      .000      .000      .000
      .000      .000      .000      .000
      .050
      .040      .042      .044      .046      .048      .050      .055      .060
      .065      .070      .075      .080      .085      .090      .095      .100
      .110      .120      .130      .140      .150      .160      .170      .180
      .190      .200      .220      .240      .260      .280      .300      .320
      .340      .360      .380      .400      .420      .440      .460      .480
      .500      .550      .600      .650      .700      .750      .800      .850
      .900      .950     1.000     1.100     1.200     1.300     1.400     1.500
     1.600     1.700     1.800     1.900     2.000     2.200     2.400     2.600
     2.800     3.000     3.200     3.400     3.600     3.800     4.000     4.200
     4.400     4.600     4.800     5.000     5.500     6.000     6.500     7.000
     7.500     8.000     8.500     9.000     9.500    10.000    11.000    12.000
    13.000    14.000    15.000      .000      .000      .000      .000      .000
      .000      .000      .000      .000
Fourier amplitude spectra in in/sec.
  .000E+00  .000E+00  .000E+00  .000E+00  .000E+00  .000E+00  .000E+00  .000E+00
  .000E+00  .000E+00  .000E+00  .000E+00  .000E+00  .000E+00  .000E+00  .000E+00
  .000E+00  .000E+00  .000E+00  .000E+00  .000E+00  .000E+00  .000E+00  .000E+00
  .000E+00  .000E+00  .000E+00  .000E+00  .000E+00  .000E+00  .000E+00  .000E+00
  .000E+00  .000E+00  .000E+00  .000E+00  .000E+00  .000E+00  .000E+00  .000E+00
  .000E+00  .000E+00  .000E+00  .000E+00  .000E+00  .000E+00  .000E+00  .000E+00
  .000E+00  .000E+00  .000E+00  .000E+00  .000E+00  .000E+00  .000E+00  .000E+00
  .000E+00  .000E+00  .000E+00  .000E+00  .000E+00  .000E+00  .000E+00  .000E+00
  .000E+00  .000E+00  .000E+00  .000E+00  .000E+00  .000E+00  .000E+00  .000E+00
  .000E+00  .000E+00  .000E+00  .000E+00  .000E+00  .000E+00  .000E+00  .000E+00
  .000E+00  .000E+00  .000E+00  .000E+00  .000E+00  .000E+00  .000E+00  .000E+00
  .000E+00  .000E+00  .000E+00  .000E+00  .000E+00  .000E+00  .000E+00  .000E+00
  .000E+00  .000E+00  .000E+00  .000E+00
Damping =  .05. Data of Sd,Sv,Sa,Pssv,ttSd,ttSv,ttSa :
  .629E-03  .741E-03  .817E-03  .988E-03  .101E-02  .119E-02  .157E-02  .227E-02
  .386E-02  .517E-02  .492E-02  .425E-02  .378E-02  .326E-02  .356E-02  .377E-02
  .433E-02  .480E-02  .483E-02  .522E-02  .649E-02  .759E-02  .719E-02  .775E-02
  .834E-02  .879E-02  .104E-01  .121E-01  .113E-01  .124E-01  .111E-01  .105E-01
  .997E-02  .940E-02  .976E-02  .106E-01  .100E-01  .946E-02  .967E-02  .933E-02
