Response and Fourier amplitude spectra (91 periods,  .04 - 15.0 sec)   for      
Corrected accelerogram   24944-L1633-01248.11       Chan  1:  37 Deg     from   
Uncorrected Accelerogram Data             Processed: 09/10/01, CDMG  944ap011   
Record of Sun Sep  9, 2001 16:59:20 PDT               (Avol1 v4.6  7/01 CSMIP)  
CSMIP Preliminary Processing            (Origin:  To be determined)             
24944-L1633-01248.11                 Start time:  9/09/01, 23:59:20.0 UTC (GPS) 
Station No. 24944   34.230N, 118.253W      Etna  s/n 1633  (3 Channels)         
Glendale - Foothill Blvd & New York Ave                                         
Chan  1:  37 Deg                                                                
Record of Sun Sep  9, 2001 16:59:20 PDT    Sun Sep  9, 2001 16:59:20 PDT        
Hypocenter:  To be determined.               ML:  To be determined.             
Instr Period =  .0107 sec,  Damping =  .660,  Sensitivity =  .63  v/g           
                        Record length = 37.000 sec.                             
                                     Uncor Max  =  -.031 g, at   5.685 sec.     
RMS accel of (uncor) record  =        .                                         
Accelerogram bandpass filtered with 3 dB pts at   .30 and 40.00 cyc/sec         
                 instrument- and baseline-corrected                             
                                                                                
                                                                                
                                                                                
                                                                                
                                                                                
Record of Sun Sep  9, 2001 16:59:20 PDT    Sun Sep  9, 2001 16:59:20 PDT        
                                                                                
24944-L1633-01248.11      Glendale - Foothill Blvd & New York Ave   Chan  1:  37
 Deg                                                                            
24944-L1633-01248.11      Glendale - Foothill Blvd & New York Ave   Chan  1:  37
 Deg                                                                            
Units for spectra are inches and sec, except Sa is in fraction of g.            
                                                                                
    1  100    1    3    3  200    1    3    1   24   12 1633    024944    1    0
   23   59   20    0  252    9    9 2001   10    3   37 7400   39   39   72   37
 7400    1   50    3 1633    1   11  370    1    0    0    0    0    0    0    0
    0    4    0    0 3700    2    0    0    0    0   72   39    0    0    0 3700
    0 3700   40   91    1    3    0    0    0    0    3    0    0    0    0    2
    2    2    4    0   32   99    0   32   32    0    0    1    0    0    0    0
  -99   -1    0    0
      .011      .660    37.000      .002      .000   625.000     -.031     5.685
    93.800      .298      .477      .000     5.000      .000      .000      .000
     2.500     3.620      .022     -.011     5.000    30.000      .000     -.003
      .000      .003     2.000    15.000    34.230  -118.253      .028      .154
     5.556     -.005      .011  -999.000      .000      .000   -13.300      .000
  1000.000    -1.004      .000      .000      .000      .000      .000      .000
     4.600     4.400      .000   980.665      .010    37.000    14.929      .000
      .000    40.000      .000    37.000      .010      .300      .000      .000
     5.680   -29.882     5.720     -.633     5.680      .026      .000      .300
    40.000      .010      .010      .000      .010      .006      .000      .000
      .110      .120      .042      .017      .001      .000      .000      .000
      .000      .000      .000      .000      .000      .000      .000      .000
      .000      .000      .000      .000
      .050
      .040      .042      .044      .046      .048      .050      .055      .060
      .065      .070      .075      .080      .085      .090      .095      .100
      .110      .120      .130      .140      .150      .160      .170      .180
      .190      .200      .220      .240      .260      .280      .300      .320
      .340      .360      .380      .400      .420      .440      .460      .480
      .500      .550      .600      .650      .700      .750      .800      .850
      .900      .950     1.000     1.100     1.200     1.300     1.400     1.500
     1.600     1.700     1.800     1.900     2.000     2.200     2.400     2.600
     2.800     3.000     3.200     3.400     3.600     3.800     4.000     4.200
     4.400     4.600     4.800     5.000     5.500     6.000     6.500     7.000
     7.500     8.000     8.500     9.000     9.500    10.000    11.000    12.000
    13.000    14.000    15.000      .000      .000      .000      .000      .000
      .000      .000      .000      .000
Fourier amplitude spectra in in/sec.
  .000E+00  .000E+00  .000E+00  .000E+00  .000E+00  .000E+00  .000E+00  .000E+00
  .000E+00  .000E+00  .000E+00  .000E+00  .000E+00  .000E+00  .000E+00  .000E+00
  .000E+00  .000E+00  .000E+00  .000E+00  .000E+00  .000E+00  .000E+00  .000E+00
  .000E+00  .000E+00  .000E+00  .000E+00  .000E+00  .000E+00  .000E+00  .000E+00
  .000E+00  .000E+00  .000E+00  .000E+00  .000E+00  .000E+00  .000E+00  .000E+00
  .000E+00  .000E+00  .000E+00  .000E+00  .000E+00  .000E+00  .000E+00  .000E+00
  .000E+00  .000E+00  .000E+00  .000E+00  .000E+00  .000E+00  .000E+00  .000E+00
  .000E+00  .000E+00  .000E+00  .000E+00  .000E+00  .000E+00  .000E+00  .000E+00
  .000E+00  .000E+00  .000E+00  .000E+00  .000E+00  .000E+00  .000E+00  .000E+00
  .000E+00  .000E+00  .000E+00  .000E+00  .000E+00  .000E+00  .000E+00  .000E+00
  .000E+00  .000E+00  .000E+00  .000E+00  .000E+00  .000E+00  .000E+00  .000E+00
  .000E+00  .000E+00  .000E+00  .000E+00  .000E+00  .000E+00  .000E+00  .000E+00
  .000E+00  .000E+00  .000E+00  .000E+00
Damping =  .05. Data of Sd,Sv,Sa,Pssv,ttSd,ttSv,ttSa :
  .543E-03  .627E-03  .711E-03  .804E-03  .876E-03  .963E-03  .126E-02  .184E-02
  .262E-02  .356E-02  .430E-02  .432E-02  .417E-02  .454E-02  .560E-02  .672E-02
  .109E-01  .153E-01  .171E-01  .183E-01  .180E-01  .167E-01  .174E-01  .175E-01
  .174E-01  .169E-01  .162E-01  .165E-01  .139E-01  .139E-01  .148E-01  .160E-01
  .157E-01  .167E-01  .154E-01  .133E-01  .113E-01  .957E-02  .118E-01  .115E-01
  .117E-01  .115E-01  .107E-01  .107E-01  .114E-01  .134E-01  .147E-01  .128E-01
  .104E-01  .102E-01  .113E-01  .119E-01  .106E-01  .109E-01  .121E-01  .128E-01
  .127E-01  .124E-01  .121E-01  .121E-01  .123E-01  .128E-01  .129E-01  .125E-01
  .120E-01  .114E-01  .110E-01  .108E-01  .107E-01  .107E-01  .107E-01  .107E-01
  .108E-01  .108E-01  .108E-01  .109E-01  .109E-01  .108E-01  .107E-01  .107E-01
  .106E-01  .105E-01  .105E-01  .104E-01  .104E-01  .104E-01  .104E-01  .104E-01
  .103E-01  .104E-01  .104E-01  .000E+00  .000E+00  .000E+00  .000E+00  .000E+00
  .000E+00  .000E+00  .000E+00  .000E+00
  .333E-01  .382E-01  .463E-01  .566E-01  .643E-01  .704E-01  .917E-01  .142E+00
  .205E+00  .259E+00  .319E+00  .316E+00  .295E+00  .275E+00  .320E+00  .385E+00
  .620E+00  .798E+00  .878E+00  .860E+00  .815E+00  .790E+00  .728E+00  .677E+00
  .597E+00  .566E+00  .574E+00  .592E+00  .472E+00  .446E+00  .432E+00  .408E+00
  .400E+00  .420E+00  .425E+00  .411E+00  .356E+00  .312E+00  .329E+00  .333E+00
  .327E+00  .348E+00  .326E+00  .338E+00  .331E+00  .328E+00  .304E+00  .277E+00
  .272E+00  .280E+00  .283E+00  .271E+00  .267E+00  .270E+00  .269E+00  .265E+00
  .260E+00  .257E+00  .256E+00  .256E+00  .255E+00  .253E+00  .250E+00  .248E+00
  .247E+00  .246E+00  .246E+00  .246E+00  .247E+00  .247E+00  .247E+00  .247E+00
  .247E+00  .247E+00  .247E+00  .247E+00  .247E+00  .246E+00  .246E+00  .246E+00
  .246E+00  .246E+00  .246E+00  .246E+00  .246E+00  .246E+00  .246E+00  .246E+00
  .246E+00  .246E+00  .246E+00  .000E+00  .000E+00  .000E+00  .000E+00  .000E+00
  .000E+00  .000E+00  .000E+00  .000E+00
  .348E-01  .365E-01  .377E-01  .388E-01  .389E-01  .397E-01  .427E-01  .528E-01
  .634E-01  .740E-01  .783E-01  .690E-01  .599E-01  .580E-01  .637E-01  .687E-01
  .935E-01  .110E+00  .106E+00  .958E-01  .810E-01  .675E-01  .616E-01  .562E-01
  .488E-01  .433E-01  .346E-01  .295E-01  .213E-01  .185E-01  .171E-01  .161E-01
  .140E-01  .134E-01  .111E-01  .856E-02  .668E-02  .521E-02  .583E-02  .523E-02
  .493E-02  .398E-02  .314E-02  .269E-02  .250E-02  .256E-02  .249E-02  .195E-02
  .145E-02  .129E-02  .128E-02  .113E-02  .873E-03  .770E-03  .737E-03  .685E-03
  .611E-03  .538E-03  .482E-03  .441E-03  .411E-03  .364E-03  .319E-03  .276E-03
  .239E-03  .210E-03  .187E-03  .169E-03  .155E-03  .143E-03  .133E-03  .125E-03
  .118E-03  .111E-03  .105E-03  .993E-04  .875E-04  .780E-04  .702E-04  .637E-04
  .583E-04  .537E-04  .498E-04  .464E-04  .434E-04  .409E-04  .367E-04  .333E-04
  .304E-04  .280E-04  .260E-04  .000E+00  .000E+00  .000E+00  .000E+00  .000E+00
  .000E+00  .000E+00  .000E+00  .000E+00
  .853E-01  .939E-01  .101E+00  .110E+00  .115E+00  .121E+00  .144E+00  .193E+00
  .254E+00  .319E+00  .360E+00  .339E+00  .308E+00  .317E+00  .371E+00  .422E+00
  .625E+00  .802E+00  .829E+00  .823E+00  .755E+00  .657E+00  .643E+00  .609E+00
  .574E+00  .530E+00  .462E+00  .432E+00  .335E+00  .312E+00  .310E+00  .313E+00
  .291E+00  .291E+00  .255E+00  .208E+00  .169E+00  .137E+00  .161E+00  .151E+00
  .147E+00  .131E+00  .112E+00  .103E+00  .102E+00  .112E+00  .116E+00  .945E-01
  .729E-01  .676E-01  .711E-01  .678E-01  .557E-01  .527E-01  .543E-01  .536E-01
  .501E-01  .458E-01  .423E-01  .401E-01  .387E-01  .366E-01  .338E-01  .303E-01
  .268E-01  .239E-01  .217E-01  .199E-01  .186E-01  .176E-01  .168E-01  .160E-01
  .154E-01  .148E-01  .142E-01  .137E-01  .124E-01  .113E-01  .104E-01  .958E-02
  .887E-02  .828E-02  .776E-02  .729E-02  .690E-02  .653E-02  .592E-02  .543E-02
  .500E-02  .465E-02  .436E-02  .000E+00  .000E+00  .000E+00  .000E+00  .000E+00
  .000E+00  .000E+00  .000E+00  .000E+00
  .568E+01  .568E+01  .568E+01  .568E+01  .568E+01  .568E+01  .582E+01  .582E+01
  .586E+01  .587E+01  .588E+01  .588E+01  .592E+01  .574E+01  .575E+01  .575E+01
  .588E+01  .589E+01  .590E+01  .585E+01  .586E+01  .580E+01  .580E+01  .580E+01
  .581E+01  .581E+01  .582E+01  .574E+01  .574E+01  .574E+01  .575E+01  .575E+01
  .575E+01  .575E+01  .576E+01  .576E+01  .567E+01  .576E+01  .576E+01  .576E+01
  .576E+01  .740E+01  .576E+01  .586E+01  .567E+01  .567E+01  .567E+01  .567E+01
  .567E+01  .567E+01  .567E+01  .567E+01  .567E+01  .567E+01  .567E+01  .567E+01
  .567E+01  .567E+01  .567E+01  .567E+01  .567E+01  .567E+01  .567E+01  .567E+01
  .567E+01  .567E+01  .567E+01  .567E+01  .567E+01  .567E+01  .567E+01  .567E+01
  .567E+01  .567E+01  .567E+01  .567E+01  .567E+01  .567E+01  .567E+01  .567E+01
  .567E+01  .567E+01  .567E+01  .567E+01  .567E+01  .567E+01  .567E+01  .567E+01
  .567E+01  .567E+01  .567E+01  .000E+00  .000E+00  .000E+00  .000E+00  .000E+00
  .000E+00  .000E+00  .000E+00  .000E+00
  .580E+01  .580E+01  .584E+01  .584E+01  .584E+01  .584E+01  .584E+01  .584E+01
  .584E+01  .585E+01  .589E+01  .590E+01  .590E+01  .572E+01  .572E+01  .590E+01
  .591E+01  .592E+01  .587E+01  .588E+01  .583E+01  .583E+01  .583E+01  .584E+01
  .584E+01  .578E+01  .578E+01  .578E+01  .579E+01  .579E+01  .579E+01  .579E+01
  .570E+01  .570E+01  .571E+01  .571E+01  .571E+01  .571E+01  .571E+01  .571E+01
  .571E+01  .571E+01  .571E+01  .571E+01  .571E+01  .571E+01  .571E+01  .571E+01
  .571E+01  .571E+01  .571E+01  .571E+01  .571E+01  .571E+01  .571E+01  .571E+01
  .571E+01  .571E+01  .571E+01  .571E+01  .571E+01  .571E+01  .571E+01  .571E+01
  .571E+01  .571E+01  .571E+01  .571E+01  .571E+01  .571E+01  .571E+01  .571E+01
  .571E+01  .571E+01  .571E+01  .571E+01  .571E+01  .571E+01  .571E+01  .571E+01
  .571E+01  .571E+01  .571E+01  .571E+01  .571E+01  .571E+01  .571E+01  .571E+01
  .571E+01  .571E+01  .571E+01  .000E+00  .000E+00  .000E+00  .000E+00  .000E+00
  .000E+00  .000E+00  .000E+00  .000E+00
  .568E+01  .568E+01  .568E+01  .568E+01  .568E+01  .568E+01  .582E+01  .582E+01
  .586E+01  .587E+01  .588E+01  .588E+01  .592E+01  .574E+01  .575E+01  .575E+01
  .588E+01  .589E+01  .590E+01  .585E+01  .586E+01  .579E+01  .580E+01  .580E+01
  .580E+01  .581E+01  .581E+01  .573E+01  .574E+01  .574E+01  .574E+01  .574E+01
  .575E+01  .575E+01  .575E+01  .576E+01  .566E+01  .575E+01  .575E+01  .575E+01
  .575E+01  .575E+01  .575E+01  .585E+01  .566E+01  .566E+01  .566E+01  .566E+01
  .566E+01  .566E+01  .566E+01  .566E+01  .566E+01  .566E+01  .566E+01  .566E+01
  .566E+01  .565E+01  .565E+01  .565E+01  .565E+01  .565E+01  .565E+01  .565E+01
  .565E+01  .565E+01  .565E+01  .565E+01  .565E+01  .565E+01  .565E+01  .565E+01
  .565E+01  .565E+01  .565E+01  .565E+01  .565E+01  .565E+01  .565E+01  .565E+01
  .565E+01  .565E+01  .565E+01  .565E+01  .565E+01  .564E+01  .564E+01  .564E+01
  .564E+01  .564E+01  .564E+01  .000E+00  .000E+00  .000E+00  .000E+00  .000E+00
  .000E+00  .000E+00  .000E+00  .000E+00
/&   ----------  End of spectral data for channel  1  ----------
Response and Fourier amplitude spectra (91 periods,  .04 - 15.0 sec)   for      
Corrected accelerogram   24944-L1633-01248.11       Chan  2:  Up         from   
Uncorrected Accelerogram Data             Processed: 09/10/01, CDMG  944ap011   
Record of Sun Sep  9, 2001 16:59:20 PDT               (Avol1 v4.6  7/01 CSMIP)  
CSMIP Preliminary Processing            (Origin:  To be determined)             
24944-L1633-01248.11                 Start time:  9/09/01, 23:59:20.0 UTC (GPS) 
Station No. 24944   34.230N, 118.253W      Etna  s/n 1633  (3 Channels)         
Glendale - Foothill Blvd & New York Ave                                         
Chan  2:  Up                                                                    
Record of Sun Sep  9, 2001 16:59:20 PDT    Sun Sep  9, 2001 16:59:20 PDT        
Hypocenter:  To be determined.               ML:  To be determined.             
Instr Period =  .0104 sec,  Damping =  .660,  Sensitivity =  .63  v/g           
                        Record length = 37.000 sec.                             
                                     Uncor Max  =  -.015 g, at   5.895 sec.     
RMS accel of (uncor) record  =        .                                         
Accelerogram bandpass filtered with 3 dB pts at   .30 and 40.00 cyc/sec         
                 instrument- and baseline-corrected                             
                                                                                
                                                                                
                                                                                
                                                                                
                                                                                
Record of Sun Sep  9, 2001 16:59:20 PDT    Sun Sep  9, 2001 16:59:20 PDT        
                                                                                
24944-L1633-01248.11      Glendale - Foothill Blvd & New York Ave   Chan  2:  Up
                                                                                
24944-L1633-01248.11      Glendale - Foothill Blvd & New York Ave   Chan  2:  Up
                                                                                
Units for spectra are inches and sec, except Sa is in fraction of g.            
                                                                                
    2  100    2    3    3  200    1    3    1   24   12 1633    024944    1    0
   23   59   20    0  252    9    9 2001   10    3  500 7400   39   39   72   37
 7400    1   50    3 1633    1   11  370    1    0    0    0    0    0    0    0
    0    4    0    0 3700    2    0    0    0    0   72   39    0    0    0 3700
    0 3700   40   91    1    3    0    0    0    0    3    0    0    0    0    2
    2    2    4    0   32   99    0   32   32    0    0    1    0    0    0    0
  -99   -1    0    0
      .010      .660    37.000      .001      .000   625.000     -.015     5.895
    96.300      .298      .477      .000     5.000      .000      .000      .000
     2.500   -44.750     -.018     -.036     5.000    30.000      .000     -.008
     -.001      .007     2.000    15.000    34.230  -118.253      .141      .156
     1.111     -.012      .027  -999.000      .000      .000   -13.300      .000
  1000.000     1.005      .000      .000      .000      .000      .000      .000
     4.600     4.400      .000   980.665      .010    37.000    15.327      .000
      .000    40.000      .000    37.000      .010      .300      .000      .000
     5.890   -14.547     5.860      .377     5.890      .013      .000      .300
    40.000      .010      .010      .000      .010      .006      .000      .000
      .057      .170      .044      .014      .001      .000      .000      .000
      .000      .000      .000      .000      .000      .000      .000      .000
      .000      .000      .000      .000
      .050
      .040      .042      .044      .046      .048      .050      .055      .060
      .065      .070      .075      .080      .085      .090      .095      .100
      .110      .120      .130      .140      .150      .160      .170      .180
      .190      .200      .220      .240      .260      .280      .300      .320
      .340      .360      .380      .400      .420      .440      .460      .480
      .500      .550      .600      .650      .700      .750      .800      .850
      .900      .950     1.000     1.100     1.200     1.300     1.400     1.500
     1.600     1.700     1.800     1.900     2.000     2.200     2.400     2.600
     2.800     3.000     3.200     3.400     3.600     3.800     4.000     4.200
     4.400     4.600     4.800     5.000     5.500     6.000     6.500     7.000
     7.500     8.000     8.500     9.000     9.500    10.000    11.000    12.000
    13.000    14.000    15.000      .000      .000      .000      .000      .000
      .000      .000      .000      .000
Fourier amplitude spectra in in/sec.
  .000E+00  .000E+00  .000E+00  .000E+00  .000E+00  .000E+00  .000E+00  .000E+00
  .000E+00  .000E+00  .000E+00  .000E+00  .000E+00  .000E+00  .000E+00  .000E+00
  .000E+00  .000E+00  .000E+00  .000E+00  .000E+00  .000E+00  .000E+00  .000E+00
  .000E+00  .000E+00  .000E+00  .000E+00  .000E+00  .000E+00  .000E+00  .000E+00
  .000E+00  .000E+00  .000E+00  .000E+00  .000E+00  .000E+00  .000E+00  .000E+00
  .000E+00  .000E+00  .000E+00  .000E+00  .000E+00  .000E+00  .000E+00  .000E+00
  .000E+00  .000E+00  .000E+00  .000E+00  .000E+00  .000E+00  .000E+00  .000E+00
  .000E+00  .000E+00  .000E+00  .000E+00  .000E+00  .000E+00  .000E+00  .000E+00
  .000E+00  .000E+00  .000E+00  .000E+00  .000E+00  .000E+00  .000E+00  .000E+00
  .000E+00  .000E+00  .000E+00  .000E+00  .000E+00  .000E+00  .000E+00  .000E+00
  .000E+00  .000E+00  .000E+00  .000E+00  .000E+00  .000E+00  .000E+00  .000E+00
  .000E+00  .000E+00  .000E+00  .000E+00  .000E+00  .000E+00  .000E+00  .000E+00
  .000E+00  .000E+00  .000E+00  .000E+00
Damping =  .05. Data of Sd,Sv,Sa,Pssv,ttSd,ttSv,ttSa :
  .354E-03  .393E-03  .440E-03  .458E-03  .478E-03  .483E-03  .667E-03  .966E-03
  .136E-02  .168E-02  .183E-02  .203E-02  .233E-02  .250E-02  .260E-02  .345E-02
  .435E-02  .477E-02  .638E-02  .850E-02  .117E-01  .131E-01  .158E-01  .171E-01
  .166E-01  .169E-01  .191E-01  .188E-01  .143E-01  .137E-01  .122E-01  .103E-01
  .872E-02  .814E-02  .925E-02  .104E-01  .108E-01  .933E-02  .761E-02  .702E-02
