Response and Fourier amplitude spectra (91 periods,  .04 - 15.0 sec)   for      
Corrected accelerogram   24970-L1773-01252.05       Chan  1:   0 Deg     from   
Uncorrected Accelerogram Data             Processed: 09/10/01, CDMG  970ap005   
Record of Sun Sep  9, 2001 16:59:17 PDT               (Avol1 v4.6  7/01 CSMIP)  
CSMIP Preliminary Processing            (Origin:  To be determined)             
24970-L1773-01252.05                 Start time:  9/09/01, 23:59:17.0 UTC (GPS) 
Station No. 24970   34.007N, 118.436W      Etna  s/n 1773  (3 Channels)         
Los Angeles - Centinela & Venice Blvd                                           
Chan  1:   0 Deg                                                                
Record of Sun Sep  9, 2001 16:59:17 PDT    Sun Sep  9, 2001 16:59:17 PDT        
Hypocenter:  To be determined.               ML:  To be determined.             
Instr Period =  .0103 sec,  Damping =  .650,  Sensitivity =  .63  v/g           
                        Record length = 47.000 sec.                             
                                     Uncor Max  =  -.031 g, at   5.480 sec.     
RMS accel of (uncor) record  =        .                                         
Accelerogram bandpass filtered with 3 dB pts at   .30 and 40.00 cyc/sec         
                 instrument- and baseline-corrected                             
                                                                                
                                                                                
                                                                                
                                                                                
                                                                                
Record of Sun Sep  9, 2001 16:59:17 PDT    Sun Sep  9, 2001 16:59:17 PDT        
                                                                                
24970-L1773-01252.05      Los Angeles - Centinela & Venice Blvd   Chan  1:   0 D
eg                                                                              
24970-L1773-01252.05      Los Angeles - Centinela & Venice Blvd   Chan  1:   0 D
eg                                                                              
Units for spectra are inches and sec, except Sa is in fraction of g.            
                                                                                
    1  100    1    3    3  200    1    3    1   24   12 1773    024970    1    0
   23   59   17    0  252    9    9 2001   10    3    0 9400   39   37   72 -999
 9400    1   50    3 1773    1    5  470    1    0    0    0    0    0    0    0
    0    4    0    0 4700    2    0    0    0    0   72   37    0    0    0 4700
    0 4700   38   91    1    3    0    0    0    0    3    0    0    0    0    2
    2    2    4    0   32   99 -999   32   32    0    0    1    0    0    0    0
  -99   -1    0    0
      .010      .650    47.000      .003      .000   625.000     -.031     5.480
    97.200      .298      .477      .000     5.000      .000      .000      .000
     2.500   -13.717      .011     -.024     5.000    30.000      .000      .009
     -.003     -.012     2.000    15.000    34.007  -118.436      .021      .273
    13.309     -.025      .001  -999.000      .000      .000   -13.400      .000
  1000.000    -1.016      .000      .000      .000      .000      .000      .000
     4.600     4.400      .000   980.665      .010    47.000    15.470      .000
      .000    40.000      .000    47.000      .010      .300      .000      .000
     5.480   -29.548     5.560      .954     5.370     -.094      .000      .300
    40.000      .010      .010      .000      .010      .035      .000      .000
      .102      .085      .069      .034      .010      .001      .000      .000
      .000      .000      .000      .000      .000      .000      .000      .000
      .000      .000      .000      .000
      .050
      .040      .042      .044      .046      .048      .050      .055      .060
      .065      .070      .075      .080      .085      .090      .095      .100
      .110      .120      .130      .140      .150      .160      .170      .180
      .190      .200      .220      .240      .260      .280      .300      .320
      .340      .360      .380      .400      .420      .440      .460      .480
      .500      .550      .600      .650      .700      .750      .800      .850
      .900      .950     1.000     1.100     1.200     1.300     1.400     1.500
     1.600     1.700     1.800     1.900     2.000     2.200     2.400     2.600
     2.800     3.000     3.200     3.400     3.600     3.800     4.000     4.200
     4.400     4.600     4.800     5.000     5.500     6.000     6.500     7.000
     7.500     8.000     8.500     9.000     9.500    10.000    11.000    12.000
    13.000    14.000    15.000      .000      .000      .000      .000      .000
      .000      .000      .000      .000
Fourier amplitude spectra in in/sec.
  .000E+00  .000E+00  .000E+00  .000E+00  .000E+00  .000E+00  .000E+00  .000E+00
  .000E+00  .000E+00  .000E+00  .000E+00  .000E+00  .000E+00  .000E+00  .000E+00
  .000E+00  .000E+00  .000E+00  .000E+00  .000E+00  .000E+00  .000E+00  .000E+00
  .000E+00  .000E+00  .000E+00  .000E+00  .000E+00  .000E+00  .000E+00  .000E+00
  .000E+00  .000E+00  .000E+00  .000E+00  .000E+00  .000E+00  .000E+00  .000E+00
  .000E+00  .000E+00  .000E+00  .000E+00  .000E+00  .000E+00  .000E+00  .000E+00
  .000E+00  .000E+00  .000E+00  .000E+00  .000E+00  .000E+00  .000E+00  .000E+00
  .000E+00  .000E+00  .000E+00  .000E+00  .000E+00  .000E+00  .000E+00  .000E+00
  .000E+00  .000E+00  .000E+00  .000E+00  .000E+00  .000E+00  .000E+00  .000E+00
  .000E+00  .000E+00  .000E+00  .000E+00  .000E+00  .000E+00  .000E+00  .000E+00
  .000E+00  .000E+00  .000E+00  .000E+00  .000E+00  .000E+00  .000E+00  .000E+00
  .000E+00  .000E+00  .000E+00  .000E+00  .000E+00  .000E+00  .000E+00  .000E+00
  .000E+00  .000E+00  .000E+00  .000E+00
Damping =  .05. Data of Sd,Sv,Sa,Pssv,ttSd,ttSv,ttSa :
  .721E-03  .848E-03  .958E-03  .107E-02  .124E-02  .138E-02  .188E-02  .229E-02
  .298E-02  .375E-02  .445E-02  .566E-02  .716E-02  .780E-02  .879E-02  .825E-02
  .101E-01  .127E-01  .109E-01  .901E-02  .105E-01  .139E-01  .187E-01  .221E-01
  .242E-01  .263E-01  .332E-01  .287E-01  .269E-01  .261E-01  .297E-01  .332E-01
  .345E-01  .393E-01  .453E-01  .498E-01  .529E-01  .581E-01  .644E-01  .697E-01
  .726E-01  .903E-01  .790E-01  .796E-01  .881E-01  .903E-01  .883E-01  .881E-01
  .891E-01  .105E+00  .103E+00  .891E-01  .655E-01  .826E-01  .107E+00  .104E+00
  .107E+00  .117E+00  .123E+00  .126E+00  .127E+00  .114E+00  .883E-01  .716E-01
  .641E-01  .692E-01  .726E-01  .677E-01  .581E-01  .485E-01  .452E-01  .438E-01
  .426E-01  .416E-01  .407E-01  .400E-01  .385E-01  .375E-01  .369E-01  .365E-01
  .362E-01  .361E-01  .360E-01  .360E-01  .360E-01  .360E-01  .360E-01  .361E-01
  .362E-01  .362E-01  .363E-01  .000E+00  .000E+00  .000E+00  .000E+00  .000E+00
  .000E+00  .000E+00  .000E+00  .000E+00
  .588E-01  .730E-01  .910E-01  .110E+00  .120E+00  .132E+00  .160E+00  .216E+00
  .241E+00  .270E+00  .319E+00  .391E+00  .454E+00  .508E+00  .571E+00  .547E+00
  .530E+00  .667E+00  .556E+00  .420E+00  .454E+00  .525E+00  .646E+00  .705E+00
  .697E+00  .816E+00  .943E+00  .785E+00  .681E+00  .673E+00  .667E+00  .681E+00
  .776E+00  .783E+00  .783E+00  .850E+00  .865E+00  .904E+00  .962E+00  .986E+00
  .951E+00  .100E+01  .101E+01  .105E+01  .102E+01  .988E+00  .931E+00  .826E+00
  .788E+00  .756E+00  .735E+00  .611E+00  .563E+00  .544E+00  .533E+00  .574E+00
  .631E+00  .643E+00  .572E+00  .505E+00  .462E+00  .533E+00  .529E+00  .499E+00
  .485E+00  .453E+00  .406E+00  .379E+00  .375E+00  .372E+00  .370E+00  .368E+00
  .367E+00  .367E+00  .366E+00  .366E+00  .366E+00  .367E+00  .367E+00  .368E+00
  .368E+00  .368E+00  .369E+00  .369E+00  .369E+00  .369E+00  .369E+00  .369E+00
  .369E+00  .369E+00  .369E+00  .000E+00  .000E+00  .000E+00  .000E+00  .000E+00
  .000E+00  .000E+00  .000E+00  .000E+00
  .465E-01  .493E-01  .505E-01  .518E-01  .553E-01  .561E-01  .644E-01  .647E-01
  .726E-01  .786E-01  .818E-01  .919E-01  .102E+00  .995E-01  .991E-01  .854E-01
  .847E-01  .896E-01  .667E-01  .467E-01  .483E-01  .556E-01  .667E-01  .709E-01
  .694E-01  .675E-01  .707E-01  .512E-01  .412E-01  .341E-01  .338E-01  .335E-01
  .306E-01  .314E-01  .325E-01  .322E-01  .308E-01  .309E-01  .314E-01  .312E-01
  .299E-01  .307E-01  .226E-01  .194E-01  .185E-01  .165E-01  .142E-01  .126E-01
  .113E-01  .119E-01  .106E-01  .760E-02  .468E-02  .507E-02  .566E-02  .477E-02
  .429E-02  .419E-02  .394E-02  .361E-02  .328E-02  .244E-02  .159E-02  .110E-02
  .873E-03  .800E-03  .745E-03  .623E-03  .483E-03  .387E-03  .343E-03  .307E-03
  .276E-03  .251E-03  .229E-03  .211E-03  .174E-03  .149E-03  .130E-03  .116E-03
  .105E-03  .956E-04  .882E-04  .819E-04  .765E-04  .717E-04  .637E-04  .572E-04
  .520E-04  .476E-04  .440E-04  .000E+00  .000E+00  .000E+00  .000E+00  .000E+00
  .000E+00  .000E+00  .000E+00  .000E+00
  .113E+00  .127E+00  .137E+00  .146E+00  .162E+00  .173E+00  .215E+00  .239E+00
  .288E+00  .337E+00  .373E+00  .445E+00  .529E+00  .544E+00  .581E+00  .518E+00
  .575E+00  .666E+00  .528E+00  .404E+00  .441E+00  .546E+00  .691E+00  .773E+00
  .800E+00  .828E+00  .947E+00  .751E+00  .651E+00  .586E+00  .621E+00  .652E+00
  .638E+00  .686E+00  .749E+00  .782E+00  .791E+00  .830E+00  .880E+00  .913E+00
  .913E+00  .103E+01  .827E+00  .769E+00  .791E+00  .757E+00  .694E+00  .651E+00
  .622E+00  .693E+00  .647E+00  .509E+00  .343E+00  .399E+00  .482E+00  .436E+00
  .419E+00  .433E+00  .431E+00  .416E+00  .398E+00  .325E+00  .231E+00  .173E+00
  .144E+00  .145E+00  .143E+00  .125E+00  .101E+00  .801E-01  .710E-01  .656E-01
  .609E-01  .568E-01  .533E-01  .502E-01  .440E-01  .393E-01  .357E-01  .328E-01
  .304E-01  .283E-01  .266E-01  .251E-01  .238E-01  .226E-01  .206E-01  .189E-01
  .175E-01  .163E-01  .152E-01  .000E+00  .000E+00  .000E+00  .000E+00  .000E+00
  .000E+00  .000E+00  .000E+00  .000E+00
  .547E+01  .548E+01  .548E+01  .548E+01  .551E+01  .551E+01  .565E+01  .611E+01
  .588E+01  .553E+01  .553E+01  .553E+01  .567E+01  .568E+01  .568E+01  .574E+01
  .625E+01  .561E+01  .562E+01  .563E+01  .563E+01  .565E+01  .576E+01  .577E+01
  .578E+01  .579E+01  .593E+01  .608E+01  .104E+02  .610E+01  .611E+01  .612E+01
  .615E+01  .586E+01  .586E+01  .588E+01  .138E+02  .572E+01  .573E+01  .574E+01
  .574E+01  .149E+02  .578E+01  .581E+01  .623E+01  .626E+01  .631E+01  .561E+01
  .563E+01  .151E+02  .147E+02  .148E+02  .130E+02  .148E+02  .148E+02  .148E+02
  .149E+02  .144E+02  .144E+02  .144E+02  .145E+02  .137E+02  .138E+02  .138E+02
  .129E+02  .120E+02  .120E+02  .120E+02  .120E+02  .120E+02  .113E+02  .536E+01
  .536E+01  .536E+01  .536E+01  .536E+01  .536E+01  .536E+01  .536E+01  .536E+01
  .536E+01  .536E+01  .536E+01  .536E+01  .536E+01  .536E+01  .536E+01  .536E+01
  .536E+01  .536E+01  .536E+01  .000E+00  .000E+00  .000E+00  .000E+00  .000E+00
  .000E+00  .000E+00  .000E+00  .000E+00
  .686E+01  .549E+01  .549E+01  .550E+01  .550E+01  .609E+01  .609E+01  .610E+01
  .586E+01  .555E+01  .687E+01  .555E+01  .569E+01  .570E+01  .571E+01  .571E+01
  .628E+01  .558E+01  .559E+01  .559E+01  .559E+01  .560E+01  .580E+01  .581E+01
  .574E+01  .595E+01  .597E+01  .613E+01  .549E+01  .549E+01  .549E+01  .607E+01
  .608E+01  .592E+01  .577E+01  .578E+01  .579E+01  .583E+01  .583E+01  .584E+01
  .584E+01  .148E+02  .568E+01  .568E+01  .569E+01  .569E+01  .569E+01  .569E+01
  .544E+01  .544E+01  .149E+02  .544E+01  .544E+01  .544E+01  .544E+01  .146E+02
  .146E+02  .147E+02  .147E+02  .147E+02  .555E+01  .135E+02  .135E+02  .135E+02
  .135E+02  .135E+02  .135E+02  .555E+01  .555E+01  .555E+01  .555E+01  .555E+01
  .555E+01  .555E+01  .555E+01  .555E+01  .555E+01  .555E+01  .555E+01  .555E+01
  .555E+01  .555E+01  .555E+01  .555E+01  .555E+01  .555E+01  .555E+01  .555E+01
  .555E+01  .555E+01  .555E+01  .000E+00  .000E+00  .000E+00  .000E+00  .000E+00
  .000E+00  .000E+00  .000E+00  .000E+00
  .547E+01  .548E+01  .548E+01  .548E+01  .551E+01  .551E+01  .565E+01  .611E+01
  .588E+01  .553E+01  .553E+01  .553E+01  .567E+01  .567E+01  .568E+01  .573E+01
  .625E+01  .561E+01  .562E+01  .563E+01  .563E+01  .565E+01  .576E+01  .577E+01
  .578E+01  .579E+01  .592E+01  .607E+01  .104E+02  .610E+01  .610E+01  .612E+01
  .614E+01  .585E+01  .586E+01  .587E+01  .138E+02  .571E+01  .572E+01  .573E+01
  .574E+01  .149E+02  .577E+01  .580E+01  .622E+01  .624E+01  .629E+01  .559E+01
  .562E+01  .151E+02  .147E+02  .148E+02  .130E+02  .148E+02  .148E+02  .148E+02
  .149E+02  .144E+02  .144E+02  .144E+02  .144E+02  .137E+02  .138E+02  .138E+02
  .129E+02  .120E+02  .120E+02  .120E+02  .120E+02  .533E+01  .533E+01  .533E+01
  .533E+01  .532E+01  .532E+01  .532E+01  .532E+01  .530E+01  .530E+01  .529E+01
  .528E+01  .527E+01  .527E+01  .527E+01  .527E+01  .527E+01  .527E+01  .527E+01
  .527E+01  .526E+01  .526E+01  .000E+00  .000E+00  .000E+00  .000E+00  .000E+00
  .000E+00  .000E+00  .000E+00  .000E+00
/&   ----------  End of spectral data for channel  1  ----------
Response and Fourier amplitude spectra (91 periods,  .04 - 15.0 sec)   for      
Corrected accelerogram   24970-L1773-01252.05       Chan  2:   0 Deg     from   
Uncorrected Accelerogram Data             Processed: 09/10/01, CDMG  970ap005   
Record of Sun Sep  9, 2001 16:59:17 PDT               (Avol1 v4.6  7/01 CSMIP)  
CSMIP Preliminary Processing            (Origin:  To be determined)             
24970-L1773-01252.05                 Start time:  9/09/01, 23:59:17.0 UTC (GPS) 
Station No. 24970   34.007N, 118.436W      Etna  s/n 1773  (3 Channels)         
Los Angeles - Centinela & Venice Blvd                                           
Chan  2:   0 Deg                                                                
Record of Sun Sep  9, 2001 16:59:17 PDT    Sun Sep  9, 2001 16:59:17 PDT        
Hypocenter:  To be determined.               ML:  To be determined.             
Instr Period =  .0105 sec,  Damping =  .660,  Sensitivity =  .63  v/g           
                        Record length = 47.000 sec.                             
                                     Uncor Max  =   .030 g, at   3.205 sec.     
RMS accel of (uncor) record  =        .                                         
Accelerogram bandpass filtered with 3 dB pts at   .30 and 40.00 cyc/sec         
                 instrument- and baseline-corrected                             
                                                                                
                                                                                
                                                                                
                                                                                
                                                                                
Record of Sun Sep  9, 2001 16:59:17 PDT    Sun Sep  9, 2001 16:59:17 PDT        
                                                                                
24970-L1773-01252.05      Los Angeles - Centinela & Venice Blvd   Chan  2:   0 D
eg                                                                              
24970-L1773-01252.05      Los Angeles - Centinela & Venice Blvd   Chan  2:   0 D
eg                                                                              
Units for spectra are inches and sec, except Sa is in fraction of g.            
                                                                                
    2  100    2    3    3  200    1    3    1   24   12 1773    024970    1    0
   23   59   17    0  252    9    9 2001   10    3    0 9400   39   37   72 -999
 9400    1   50    3 1773    1    5  470    1    0    0    0    0    0    0    0
    0    4    0    0 4700    2    0    0    0    0   72   37    0    0    0 4700
    0 4700   38   91    1    3    0    0    0    0    3    0    0    0    0    2
    2    2    4    0   32   99 -999   32   32    0    0    1    0    0    0    0
  -99   -1    0    0
      .011      .660    47.000      .002      .000   625.000      .030     3.205
    95.200      .298      .477      .000     5.000      .000      .000      .000
     2.500   -18.996      .002     -.031     5.000    30.000      .000      .006
     -.002     -.007     2.000    15.000    34.007  -118.436      .051      .148
     2.892     -.017      .002  -999.000      .000      .000   -13.400      .000
  1000.000     1.001      .000      .000      .000      .000      .000      .000
     4.600     4.400      .000   980.665      .010    47.000    15.152      .000
      .000    40.000      .000    47.000      .010      .300      .000      .000
     3.200    30.196     3.230      .782     3.190     -.065     -.001      .300
    40.000      .010      .010      .000      .010      .022      .000      .000
      .111      .085      .067      .022      .005      .000      .000      .000
      .000      .000      .000      .000      .000      .000      .000      .000
      .000      .000      .000      .000
      .050
      .040      .042      .044      .046      .048      .050      .055      .060
      .065      .070      .075      .080      .085      .090      .095      .100
      .110      .120      .130      .140      .150      .160      .170      .180
      .190      .200      .220      .240      .260      .280      .300      .320
      .340      .360      .380      .400      .420      .440      .460      .480
      .500      .550      .600      .650      .700      .750      .800      .850
      .900      .950     1.000     1.100     1.200     1.300     1.400     1.500
     1.600     1.700     1.800     1.900     2.000     2.200     2.400     2.600
     2.800     3.000     3.200     3.400     3.600     3.800     4.000     4.200
     4.400     4.600     4.800     5.000     5.500     6.000     6.500     7.000
     7.500     8.000     8.500     9.000     9.500    10.000    11.000    12.000
    13.000    14.000    15.000      .000      .000      .000      .000      .000
      .000      .000      .000      .000
Fourier amplitude spectra in in/sec.
  .000E+00  .000E+00  .000E+00  .000E+00  .000E+00  .000E+00  .000E+00  .000E+00
  .000E+00  .000E+00  .000E+00  .000E+00  .000E+00  .000E+00  .000E+00  .000E+00
  .000E+00  .000E+00  .000E+00  .000E+00  .000E+00  .000E+00  .000E+00  .000E+00
  .000E+00  .000E+00  .000E+00  .000E+00  .000E+00  .000E+00  .000E+00  .000E+00
  .000E+00  .000E+00  .000E+00  .000E+00  .000E+00  .000E+00  .000E+00  .000E+00
  .000E+00  .000E+00  .000E+00  .000E+00  .000E+00  .000E+00  .000E+00  .000E+00
  .000E+00  .000E+00  .000E+00  .000E+00  .000E+00  .000E+00  .000E+00  .000E+00
  .000E+00  .000E+00  .000E+00  .000E+00  .000E+00  .000E+00  .000E+00  .000E+00
  .000E+00  .000E+00  .000E+00  .000E+00  .000E+00  .000E+00  .000E+00  .000E+00
  .000E+00  .000E+00  .000E+00  .000E+00  .000E+00  .000E+00  .000E+00  .000E+00
  .000E+00  .000E+00  .000E+00  .000E+00  .000E+00  .000E+00  .000E+00  .000E+00
  .000E+00  .000E+00  .000E+00  .000E+00  .000E+00  .000E+00  .000E+00  .000E+00
  .000E+00  .000E+00  .000E+00  .000E+00
Damping =  .05. Data of Sd,Sv,Sa,Pssv,ttSd,ttSv,ttSa :
  .648E-03  .681E-03  .747E-03  .865E-03  .102E-02  .123E-02  .168E-02  .220E-02
  .314E-02  .424E-02  .520E-02  .639E-02  .786E-02  .869E-02  .810E-02  .657E-02
  .715E-02  .772E-02  .751E-02  .860E-02  .113E-01  .131E-01  .141E-01  .206E-01
  .250E-01  .266E-01  .275E-01  .275E-01  .239E-01  .197E-01  .187E-01  .197E-01
  .204E-01  .207E-01  .210E-01  .214E-01  .218E-01  .239E-01  .231E-01  .243E-01
