Response and Fourier amplitude spectra (91 periods,  .04 - 15.0 sec)   for      
Corrected accelerogram   24982-L1792-01248.03       Chan  1:   0 Deg     from   
Uncorrected Accelerogram Data             Processed: 09/10/01, CDMG  982ap003   
Record of Sun Sep  9, 2001 16:59:16 PDT               (Avol1 v4.6  7/01 CSMIP)  
CSMIP Preliminary Processing            (Origin:  To be determined)             
24982-L1792-01248.03                 Start time:  9/09/01, 23:59:16.0 UTC (GPS) 
Station No. 24982   34.100N, 118.288W      Etna  s/n 1792  (3 Channels)         
Los Angeles - Hollywood Blvd & Hillhurst                                        
Chan  1:   0 Deg                                                                
Record of Sun Sep  9, 2001 16:59:16 PDT    Sun Sep  9, 2001 16:59:16 PDT        
Hypocenter:  To be determined.               ML:  To be determined.             
Instr Period =  .0099 sec,  Damping =  .660,  Sensitivity =  .63  v/g           
                        Record length = 44.000 sec.                             
                                     Uncor Max  =   .064 g, at   7.110 sec.     
RMS accel of (uncor) record  =        .                                         
Accelerogram bandpass filtered with 3 dB pts at   .30 and 40.00 cyc/sec         
                 instrument- and baseline-corrected                             
                                                                                
                                                                                
                                                                                
                                                                                
                                                                                
Record of Sun Sep  9, 2001 16:59:16 PDT    Sun Sep  9, 2001 16:59:16 PDT        
                                                                                
24982-L1792-01248.03      Los Angeles - Hollywood Blvd & Hillhurst    Chan  1:  
 0 Deg                                                                          
24982-L1792-01248.03      Los Angeles - Hollywood Blvd & Hillhurst    Chan  1:  
 0 Deg                                                                          
Units for spectra are inches and sec, except Sa is in fraction of g.            
                                                                                
    1  100    1    3    3  200    1    3    1   24   12 1792    024982    1    0
   23   59   16    0  252    9    9 2001   10    3    0 8800   39   40   72 -999
 8800    1   50    3 1792    1    3  440    1    0    0    0    0    0    0    0
    0    4    0    0 4400    2    0    0    0    0   72   40    0    0    0 4400
    0 4400   41   91    1    3    0    0    0    0    3    0    0    0    0    2
    2    2    4    0   32   99 -999   32   32    0    0    1    0    0    0    0
  -99   -1    0    0
      .010      .660    44.000      .004      .000   625.000      .064     7.110
   101.200      .298      .477      .000     5.000      .000      .000      .000
     2.500   -11.108      .020     -.047     5.000    30.000      .000     -.006
      .002      .008     2.000    15.000    34.100  -118.288      .013      .283
    21.499     -.006      .021  -999.000      .000      .000   -13.500      .000
  1000.000     1.003      .000      .000      .000      .000      .000      .000
     4.600     4.400      .000   980.665      .010    44.000    16.106      .000
      .000    40.000      .000    44.000      .010      .300      .000      .000
     7.110    62.504     7.240     1.753     7.110     -.170      .000      .300
    40.000      .010      .010      .000      .030      .034      .000      .000
      .220      .130      .089      .050      .011      .001      .000      .000
      .000      .000      .000      .000      .000      .000      .000      .000
      .000      .000      .000      .000
      .050
      .040      .042      .044      .046      .048      .050      .055      .060
      .065      .070      .075      .080      .085      .090      .095      .100
      .110      .120      .130      .140      .150      .160      .170      .180
      .190      .200      .220      .240      .260      .280      .300      .320
      .340      .360      .380      .400      .420      .440      .460      .480
      .500      .550      .600      .650      .700      .750      .800      .850
      .900      .950     1.000     1.100     1.200     1.300     1.400     1.500
     1.600     1.700     1.800     1.900     2.000     2.200     2.400     2.600
     2.800     3.000     3.200     3.400     3.600     3.800     4.000     4.200
     4.400     4.600     4.800     5.000     5.500     6.000     6.500     7.000
     7.500     8.000     8.500     9.000     9.500    10.000    11.000    12.000
    13.000    14.000    15.000      .000      .000      .000      .000      .000
      .000      .000      .000      .000
Fourier amplitude spectra in in/sec.
  .000E+00  .000E+00  .000E+00  .000E+00  .000E+00  .000E+00  .000E+00  .000E+00
  .000E+00  .000E+00  .000E+00  .000E+00  .000E+00  .000E+00  .000E+00  .000E+00
  .000E+00  .000E+00  .000E+00  .000E+00  .000E+00  .000E+00  .000E+00  .000E+00
  .000E+00  .000E+00  .000E+00  .000E+00  .000E+00  .000E+00  .000E+00  .000E+00
  .000E+00  .000E+00  .000E+00  .000E+00  .000E+00  .000E+00  .000E+00  .000E+00
  .000E+00  .000E+00  .000E+00  .000E+00  .000E+00  .000E+00  .000E+00  .000E+00
  .000E+00  .000E+00  .000E+00  .000E+00  .000E+00  .000E+00  .000E+00  .000E+00
  .000E+00  .000E+00  .000E+00  .000E+00  .000E+00  .000E+00  .000E+00  .000E+00
  .000E+00  .000E+00  .000E+00  .000E+00  .000E+00  .000E+00  .000E+00  .000E+00
  .000E+00  .000E+00  .000E+00  .000E+00  .000E+00  .000E+00  .000E+00  .000E+00
  .000E+00  .000E+00  .000E+00  .000E+00  .000E+00  .000E+00  .000E+00  .000E+00
  .000E+00  .000E+00  .000E+00  .000E+00  .000E+00  .000E+00  .000E+00  .000E+00
  .000E+00  .000E+00  .000E+00  .000E+00
Damping =  .05. Data of Sd,Sv,Sa,Pssv,ttSd,ttSv,ttSa :
  .111E-02  .126E-02  .139E-02  .151E-02  .164E-02  .176E-02  .230E-02  .304E-02
  .410E-02  .495E-02  .580E-02  .631E-02  .680E-02  .921E-02  .123E-01  .147E-01
  .207E-01  .309E-01  .360E-01  .359E-01  .398E-01  .414E-01  .405E-01  .412E-01
  .380E-01  .345E-01  .329E-01  .375E-01  .377E-01  .382E-01  .417E-01  .511E-01
  .654E-01  .745E-01  .802E-01  .875E-01  .952E-01  .105E+00  .109E+00  .122E+00
  .129E+00  .116E+00  .119E+00  .122E+00  .125E+00  .123E+00  .121E+00  .115E+00
  .111E+00  .107E+00  .104E+00  .976E-01  .920E-01  .875E-01  .837E-01  .801E-01
  .765E-01  .732E-01  .706E-01  .675E-01  .675E-01  .706E-01  .727E-01  .740E-01
  .747E-01  .752E-01  .755E-01  .756E-01  .756E-01  .755E-01  .753E-01  .750E-01
  .747E-01  .744E-01  .740E-01  .737E-01  .731E-01  .726E-01  .723E-01  .720E-01
  .718E-01  .717E-01  .716E-01  .715E-01  .714E-01  .713E-01  .712E-01  .711E-01
  .709E-01  .709E-01  .708E-01  .000E+00  .000E+00  .000E+00  .000E+00  .000E+00
  .000E+00  .000E+00  .000E+00  .000E+00
  .468E-01  .499E-01  .552E-01  .631E-01  .713E-01  .855E-01  .132E+00  .191E+00
  .221E+00  .256E+00  .259E+00  .291E+00  .318E+00  .392E+00  .541E+00  .682E+00
  .106E+01  .152E+01  .168E+01  .165E+01  .172E+01  .164E+01  .152E+01  .138E+01
  .128E+01  .116E+01  .101E+01  .965E+00  .101E+01  .845E+00  .841E+00  .939E+00
  .105E+01  .110E+01  .122E+01  .137E+01  .152E+01  .161E+01  .164E+01  .174E+01
  .175E+01  .147E+01  .150E+01  .135E+01  .125E+01  .129E+01  .115E+01  .113E+01
  .110E+01  .107E+01  .104E+01  .995E+00  .957E+00  .928E+00  .906E+00  .889E+00
  .875E+00  .862E+00  .850E+00  .838E+00  .826E+00  .804E+00  .786E+00  .772E+00
  .760E+00  .750E+00  .742E+00  .735E+00  .729E+00  .724E+00  .720E+00  .716E+00
  .713E+00  .711E+00  .708E+00  .707E+00  .703E+00  .701E+00  .699E+00  .698E+00
  .697E+00  .696E+00  .695E+00  .694E+00  .694E+00  .694E+00  .693E+00  .692E+00
  .692E+00  .692E+00  .692E+00  .000E+00  .000E+00  .000E+00  .000E+00  .000E+00
  .000E+00  .000E+00  .000E+00  .000E+00
  .715E-01  .729E-01  .736E-01  .730E-01  .731E-01  .723E-01  .775E-01  .861E-01
  .100E+00  .104E+00  .105E+00  .102E+00  .961E-01  .117E+00  .139E+00  .150E+00
  .176E+00  .219E+00  .220E+00  .188E+00  .183E+00  .165E+00  .146E+00  .130E+00
  .108E+00  .888E-01  .696E-01  .666E-01  .578E-01  .500E-01  .477E-01  .514E-01
  .581E-01  .591E-01  .572E-01  .564E-01  .555E-01  .559E-01  .531E-01  .548E-01
  .531E-01  .393E-01  .339E-01  .298E-01  .262E-01  .226E-01  .195E-01  .164E-01
  .143E-01  .125E-01  .109E-01  .849E-02  .677E-02  .553E-02  .459E-02  .386E-02
  .327E-02  .279E-02  .239E-02  .206E-02  .193E-02  .169E-02  .149E-02  .131E-02
  .116E-02  .104E-02  .930E-03  .839E-03  .762E-03  .694E-03  .636E-03  .584E-03
  .539E-03  .500E-03  .465E-03  .434E-03  .370E-03  .321E-03  .283E-03  .252E-03
  .226E-03  .205E-03  .187E-03  .172E-03  .159E-03  .148E-03  .129E-03  .115E-03
  .103E-03  .933E-04  .852E-04  .000E+00  .000E+00  .000E+00  .000E+00  .000E+00
  .000E+00  .000E+00  .000E+00  .000E+00
  .175E+00  .188E+00  .199E+00  .206E+00  .215E+00  .221E+00  .262E+00  .318E+00
  .396E+00  .444E+00  .486E+00  .496E+00  .503E+00  .643E+00  .813E+00  .925E+00
  .118E+01  .162E+01  .174E+01  .161E+01  .167E+01  .162E+01  .150E+01  .144E+01
  .126E+01  .109E+01  .940E+00  .981E+00  .912E+00  .857E+00  .873E+00  .100E+01
  .121E+01  .130E+01  .133E+01  .137E+01  .142E+01  .150E+01  .149E+01  .160E+01
  .162E+01  .132E+01  .124E+01  .118E+01  .112E+01  .103E+01  .950E+00  .847E+00
  .774E+00  .710E+00  .654E+00  .558E+00  .482E+00  .423E+00  .375E+00  .335E+00
  .300E+00  .271E+00  .246E+00  .223E+00  .212E+00  .202E+00  .190E+00  .179E+00
  .168E+00  .158E+00  .148E+00  .140E+00  .132E+00  .125E+00  .118E+00  .112E+00
  .107E+00  .102E+00  .969E-01  .927E-01  .835E-01  .760E-01  .699E-01  .647E-01
  .602E-01  .563E-01  .529E-01  .499E-01  .472E-01  .448E-01  .407E-01  .372E-01
  .343E-01  .318E-01  .297E-01  .000E+00  .000E+00  .000E+00  .000E+00  .000E+00
  .000E+00  .000E+00  .000E+00  .000E+00
  .710E+01  .710E+01  .710E+01  .710E+01  .710E+01  .710E+01  .710E+01  .710E+01
  .710E+01  .711E+01  .711E+01  .711E+01  .711E+01  .711E+01  .711E+01  .711E+01
  .729E+01  .731E+01  .732E+01  .714E+01  .714E+01  .715E+01  .716E+01  .716E+01
  .717E+01  .717E+01  .732E+01  .793E+01  .796E+01  .734E+01  .734E+01  .734E+01
  .735E+01  .736E+01  .737E+01  .738E+01  .739E+01  .787E+01  .789E+01  .890E+01
  .893E+01  .776E+01  .751E+01  .755E+01  .758E+01  .760E+01  .881E+01  .852E+01
  .729E+01  .730E+01  .730E+01  .730E+01  .730E+01  .731E+01  .731E+01  .731E+01
  .731E+01  .741E+01  .741E+01  .741E+01  .709E+01  .709E+01  .709E+01  .709E+01
  .709E+01  .709E+01  .709E+01  .709E+01  .710E+01  .710E+01  .710E+01  .710E+01
  .710E+01  .710E+01  .710E+01  .710E+01  .710E+01  .710E+01  .710E+01  .710E+01
  .710E+01  .710E+01  .710E+01  .710E+01  .710E+01  .710E+01  .710E+01  .710E+01
  .710E+01  .710E+01  .710E+01  .000E+00  .000E+00  .000E+00  .000E+00  .000E+00
  .000E+00  .000E+00  .000E+00  .000E+00
  .708E+01  .708E+01  .732E+01  .732E+01  .732E+01  .732E+01  .732E+01  .733E+01
  .734E+01  .784E+01  .713E+01  .714E+01  .700E+01  .707E+01  .713E+01  .714E+01
  .726E+01  .734E+01  .735E+01  .717E+01  .718E+01  .719E+01  .719E+01  .712E+01
  .713E+01  .713E+01  .737E+01  .739E+01  .790E+01  .740E+01  .740E+01  .740E+01
  .741E+01  .730E+01  .731E+01  .731E+01  .731E+01  .731E+01  .732E+01  .782E+01
  .783E+01  .764E+01  .765E+01  .766E+01  .888E+01  .889E+01  .714E+01  .714E+01
  .714E+01  .714E+01  .714E+01  .714E+01  .714E+01  .714E+01  .714E+01  .714E+01
  .714E+01  .714E+01  .714E+01  .714E+01  .714E+01  .714E+01  .723E+01  .723E+01
  .723E+01  .723E+01  .723E+01  .723E+01  .723E+01  .723E+01  .723E+01  .723E+01
  .723E+01  .723E+01  .723E+01  .723E+01  .723E+01  .723E+01  .723E+01  .723E+01
  .723E+01  .723E+01  .723E+01  .723E+01  .723E+01  .723E+01  .723E+01  .723E+01
  .723E+01  .723E+01  .723E+01  .000E+00  .000E+00  .000E+00  .000E+00  .000E+00
  .000E+00  .000E+00  .000E+00  .000E+00
  .710E+01  .710E+01  .710E+01  .710E+01  .710E+01  .710E+01  .710E+01  .710E+01
  .710E+01  .711E+01  .711E+01  .711E+01  .711E+01  .711E+01  .711E+01  .711E+01
  .729E+01  .730E+01  .732E+01  .713E+01  .714E+01  .715E+01  .715E+01  .716E+01
  .716E+01  .717E+01  .732E+01  .793E+01  .795E+01  .734E+01  .734E+01  .734E+01
  .734E+01  .735E+01  .736E+01  .737E+01  .738E+01  .786E+01  .788E+01  .890E+01
  .892E+01  .775E+01  .750E+01  .754E+01  .757E+01  .759E+01  .880E+01  .851E+01
  .728E+01  .728E+01  .728E+01  .728E+01  .728E+01  .728E+01  .728E+01  .728E+01
  .728E+01  .728E+01  .728E+01  .707E+01  .707E+01  .707E+01  .707E+01  .707E+01
  .707E+01  .707E+01  .707E+01  .707E+01  .707E+01  .707E+01  .707E+01  .707E+01
  .707E+01  .707E+01  .707E+01  .707E+01  .707E+01  .707E+01  .707E+01  .707E+01
  .707E+01  .707E+01  .707E+01  .707E+01  .706E+01  .706E+01  .706E+01  .706E+01
  .706E+01  .706E+01  .706E+01  .000E+00  .000E+00  .000E+00  .000E+00  .000E+00
  .000E+00  .000E+00  .000E+00  .000E+00
/&   ----------  End of spectral data for channel  1  ----------
Response and Fourier amplitude spectra (91 periods,  .04 - 15.0 sec)   for      
Corrected accelerogram   24982-L1792-01248.03       Chan  2:   0 Deg     from   
Uncorrected Accelerogram Data             Processed: 09/10/01, CDMG  982ap003   
Record of Sun Sep  9, 2001 16:59:16 PDT               (Avol1 v4.6  7/01 CSMIP)  
CSMIP Preliminary Processing            (Origin:  To be determined)             
24982-L1792-01248.03                 Start time:  9/09/01, 23:59:16.0 UTC (GPS) 
Station No. 24982   34.100N, 118.288W      Etna  s/n 1792  (3 Channels)         
Los Angeles - Hollywood Blvd & Hillhurst                                        
Chan  2:   0 Deg                                                                
Record of Sun Sep  9, 2001 16:59:16 PDT    Sun Sep  9, 2001 16:59:16 PDT        
Hypocenter:  To be determined.               ML:  To be determined.             
Instr Period =  .0108 sec,  Damping =  .670,  Sensitivity =  .63  v/g           
                        Record length = 44.000 sec.                             
                                     Uncor Max  =   .026 g, at   4.545 sec.     
RMS accel of (uncor) record  =        .                                         
Accelerogram bandpass filtered with 3 dB pts at   .30 and 40.00 cyc/sec         
                 instrument- and baseline-corrected                             
                                                                                
                                                                                
                                                                                
                                                                                
                                                                                
Record of Sun Sep  9, 2001 16:59:16 PDT    Sun Sep  9, 2001 16:59:16 PDT        
                                                                                
24982-L1792-01248.03      Los Angeles - Hollywood Blvd & Hillhurst    Chan  2:  
 0 Deg                                                                          
24982-L1792-01248.03      Los Angeles - Hollywood Blvd & Hillhurst    Chan  2:  
 0 Deg                                                                          
Units for spectra are inches and sec, except Sa is in fraction of g.            
                                                                                
    2  100    2    3    3  200    1    3    1   24   12 1792    024982    1    0
   23   59   16    0  252    9    9 2001   10    3    0 8800   39   40   72 -999
 8800    1   50    3 1792    1    3  440    1    0    0    0    0    0    0    0
    0    4    0    0 4400    2    0    0    0    0   72   40    0    0    0 4400
    0 4400   41   91    1    3    0    0    0    0    3    0    0    0    0    2
    2    2    4    0   32   99 -999   32   32    0    0    1    0    0    0    0
  -99   -1    0    0
      .011      .670    44.000      .003      .000   625.000      .026     4.545
    92.200      .298      .477      .000     5.000      .000      .000      .000
     2.500   -33.870     -.006     -.037     5.000    30.000      .000     -.006
      .002      .008     2.000    15.000    34.100  -118.288      .016      .155
     9.528      .000      .015  -999.000      .000      .000   -13.500      .000
  1000.000     1.005      .000      .000      .000      .000      .000      .000
     4.600     4.400      .000   980.665      .010    44.000    14.674      .000
      .000    40.000      .000    44.000      .010      .300      .000      .000
     4.540    25.380     7.820    -1.029     7.930     -.063      .000      .300
    40.000      .010      .010      .000      .010      .024      .000      .000
      .099      .095      .030      .038      .004      .000      .000      .000
      .000      .000      .000      .000      .000      .000      .000      .000
      .000      .000      .000      .000
      .050
      .040      .042      .044      .046      .048      .050      .055      .060
      .065      .070      .075      .080      .085      .090      .095      .100
      .110      .120      .130      .140      .150      .160      .170      .180
      .190      .200      .220      .240      .260      .280      .300      .320
      .340      .360      .380      .400      .420      .440      .460      .480
      .500      .550      .600      .650      .700      .750      .800      .850
      .900      .950     1.000     1.100     1.200     1.300     1.400     1.500
     1.600     1.700     1.800     1.900     2.000     2.200     2.400     2.600
     2.800     3.000     3.200     3.400     3.600     3.800     4.000     4.200
     4.400     4.600     4.800     5.000     5.500     6.000     6.500     7.000
     7.500     8.000     8.500     9.000     9.500    10.000    11.000    12.000
    13.000    14.000    15.000      .000      .000      .000      .000      .000
      .000      .000      .000      .000
Fourier amplitude spectra in in/sec.
  .000E+00  .000E+00  .000E+00  .000E+00  .000E+00  .000E+00  .000E+00  .000E+00
  .000E+00  .000E+00  .000E+00  .000E+00  .000E+00  .000E+00  .000E+00  .000E+00
  .000E+00  .000E+00  .000E+00  .000E+00  .000E+00  .000E+00  .000E+00  .000E+00
  .000E+00  .000E+00  .000E+00  .000E+00  .000E+00  .000E+00  .000E+00  .000E+00
  .000E+00  .000E+00  .000E+00  .000E+00  .000E+00  .000E+00  .000E+00  .000E+00
  .000E+00  .000E+00  .000E+00  .000E+00  .000E+00  .000E+00  .000E+00  .000E+00
  .000E+00  .000E+00  .000E+00  .000E+00  .000E+00  .000E+00  .000E+00  .000E+00
  .000E+00  .000E+00  .000E+00  .000E+00  .000E+00  .000E+00  .000E+00  .000E+00
  .000E+00  .000E+00  .000E+00  .000E+00  .000E+00  .000E+00  .000E+00  .000E+00
  .000E+00  .000E+00  .000E+00  .000E+00  .000E+00  .000E+00  .000E+00  .000E+00
  .000E+00  .000E+00  .000E+00  .000E+00  .000E+00  .000E+00  .000E+00  .000E+00
  .000E+00  .000E+00  .000E+00  .000E+00  .000E+00  .000E+00  .000E+00  .000E+00
  .000E+00  .000E+00  .000E+00  .000E+00
Damping =  .05. Data of Sd,Sv,Sa,Pssv,ttSd,ttSv,ttSa :
  .603E-03  .682E-03  .734E-03  .777E-03  .865E-03  .957E-03  .127E-02  .189E-02
  .188E-02  .230E-02  .347E-02  .508E-02  .659E-02  .784E-02  .870E-02  .864E-02
  .876E-02  .103E-01  .116E-01  .118E-01  .115E-01  .112E-01  .107E-01  .101E-01
  .115E-01  .121E-01  .129E-01  .199E-01  .248E-01  .311E-01  .307E-01  .379E-01
  .477E-01  .442E-01  .436E-01  .546E-01  .689E-01  .748E-01  .755E-01  .766E-01
