Response and Fourier amplitude spectra (91 periods,  .04 - 15.0 sec)   for      
Corrected accelerogram   24983-L1785-01252.06       Chan  1:   0 Deg     from   
Uncorrected Accelerogram Data             Processed: 09/10/01, CDMG  983am006   
Record of Sun Sep  9, 2001 16:59:16 PDT               (Avol1 v4.6  7/01 CSMIP)  
CSMIP Preliminary Processing            (Origin:  To be determined)             
24983-L1785-01252.06                 Start time:  9/09/01, 23:59:16.0 UTC (GPS) 
Station No. 24983   34.051N, 118.384W      Etna  s/n 1785  (3 Channels)         
Los Angeles - Robertson & Pickford                                              
Chan  1:   0 Deg                                                                
Record of Sun Sep  9, 2001 16:59:16 PDT    Sun Sep  9, 2001 16:59:16 PDT        
Hypocenter:  To be determined.               ML:  To be determined.             
Instr Period =  .0110 sec,  Damping =  .650,  Sensitivity =  .63  v/g           
                        Record length = 47.000 sec.                             
                                     Uncor Max  =  -.127 g, at   5.665 sec.     
RMS accel of (uncor) record  =        .                                         
Accelerogram bandpass filtered with 3 dB pts at   .30 and 40.00 cyc/sec         
                 instrument- and baseline-corrected                             
                                                                                
                                                                                
                                                                                
                                                                                
                                                                                
Record of Sun Sep  9, 2001 16:59:16 PDT    Sun Sep  9, 2001 16:59:16 PDT        
                                                                                
24983-L1785-01252.06      Los Angeles - Robertson & Pickford    Chan  1:   0 Deg
                                                                                
24983-L1785-01252.06      Los Angeles - Robertson & Pickford    Chan  1:   0 Deg
                                                                                
Units for spectra are inches and sec, except Sa is in fraction of g.            
                                                                                
    1  100    1    3    3  200    1    3    1   24   12 1785    024983    1    0
   23   59   16    0  252    9    9 2001   10    3    0 9400   39   34   72 -999
 9400    1   50    3 1785    1    6  470    1    0    0    0    0    0    0    0
    0    4    0    0 4700    2    0    0    0    0   72   34    0    0    0 4700
    0 4700   35   91    1    3    0    0    0    0    3    0    0    0    0    2
    2    2    4    0   32   99 -999   32   32    0    0    1    0    0    0    0
  -99   -1    0    0
      .011      .650    47.000      .009      .000   625.000     -.127     5.665
    91.000      .298      .477      .000     5.000      .000      .000      .000
     2.500     1.544      .081     -.071     5.000    30.000      .000     -.010
      .003      .013     2.000    15.000    34.051  -118.384      .027      .328
    12.165     -.002      .029  -999.000      .000      .000   -13.400      .000
  1000.000     1.008      .000      .000      .000      .000      .000      .000
     4.600     4.400      .000   980.665      .010    47.000    14.483      .000
      .000    40.000      .000    47.000      .010      .300      .000      .000
     5.670  -124.747     5.630     5.700     5.560     -.354      .000      .300
    40.000      .010      .010      .000     1.550      .053      .000      .000
      .471      .200      .455      .247      .017      .002      .000      .000
      .000      .000      .000      .000      .000      .000      .000      .000
      .000      .000      .000      .000
      .050
      .040      .042      .044      .046      .048      .050      .055      .060
      .065      .070      .075      .080      .085      .090      .095      .100
      .110      .120      .130      .140      .150      .160      .170      .180
      .190      .200      .220      .240      .260      .280      .300      .320
      .340      .360      .380      .400      .420      .440      .460      .480
      .500      .550      .600      .650      .700      .750      .800      .850
      .900      .950     1.000     1.100     1.200     1.300     1.400     1.500
     1.600     1.700     1.800     1.900     2.000     2.200     2.400     2.600
     2.800     3.000     3.200     3.400     3.600     3.800     4.000     4.200
     4.400     4.600     4.800     5.000     5.500     6.000     6.500     7.000
     7.500     8.000     8.500     9.000     9.500    10.000    11.000    12.000
    13.000    14.000    15.000      .000      .000      .000      .000      .000
      .000      .000      .000      .000
Fourier amplitude spectra in in/sec.
  .000E+00  .000E+00  .000E+00  .000E+00  .000E+00  .000E+00  .000E+00  .000E+00
  .000E+00  .000E+00  .000E+00  .000E+00  .000E+00  .000E+00  .000E+00  .000E+00
  .000E+00  .000E+00  .000E+00  .000E+00  .000E+00  .000E+00  .000E+00  .000E+00
  .000E+00  .000E+00  .000E+00  .000E+00  .000E+00  .000E+00  .000E+00  .000E+00
  .000E+00  .000E+00  .000E+00  .000E+00  .000E+00  .000E+00  .000E+00  .000E+00
  .000E+00  .000E+00  .000E+00  .000E+00  .000E+00  .000E+00  .000E+00  .000E+00
  .000E+00  .000E+00  .000E+00  .000E+00  .000E+00  .000E+00  .000E+00  .000E+00
  .000E+00  .000E+00  .000E+00  .000E+00  .000E+00  .000E+00  .000E+00  .000E+00
  .000E+00  .000E+00  .000E+00  .000E+00  .000E+00  .000E+00  .000E+00  .000E+00
  .000E+00  .000E+00  .000E+00  .000E+00  .000E+00  .000E+00  .000E+00  .000E+00
  .000E+00  .000E+00  .000E+00  .000E+00  .000E+00  .000E+00  .000E+00  .000E+00
  .000E+00  .000E+00  .000E+00  .000E+00  .000E+00  .000E+00  .000E+00  .000E+00
  .000E+00  .000E+00  .000E+00  .000E+00
Damping =  .05. Data of Sd,Sv,Sa,Pssv,ttSd,ttSv,ttSa :
  .246E-02  .293E-02  .343E-02  .383E-02  .403E-02  .411E-02  .604E-02  .670E-02
  .104E-01  .164E-01  .188E-01  .198E-01  .229E-01  .274E-01  .302E-01  .303E-01
  .385E-01  .438E-01  .470E-01  .465E-01  .577E-01  .745E-01  .927E-01  .122E+00
  .155E+00  .185E+00  .215E+00  .228E+00  .228E+00  .227E+00  .214E+00  .194E+00
  .179E+00  .174E+00  .181E+00  .188E+00  .196E+00  .203E+00  .208E+00  .213E+00
  .215E+00  .221E+00  .218E+00  .209E+00  .194E+00  .175E+00  .156E+00  .158E+00
  .163E+00  .166E+00  .169E+00  .171E+00  .172E+00  .172E+00  .172E+00  .171E+00
  .170E+00  .169E+00  .168E+00  .166E+00  .165E+00  .163E+00  .160E+00  .158E+00
  .157E+00  .155E+00  .154E+00  .152E+00  .151E+00  .151E+00  .150E+00  .149E+00
  .149E+00  .148E+00  .148E+00  .147E+00  .147E+00  .146E+00  .146E+00  .145E+00
  .145E+00  .145E+00  .145E+00  .145E+00  .144E+00  .144E+00  .144E+00  .144E+00
  .143E+00  .143E+00  .143E+00  .000E+00  .000E+00  .000E+00  .000E+00  .000E+00
  .000E+00  .000E+00  .000E+00  .000E+00
  .213E+00  .279E+00  .304E+00  .295E+00  .308E+00  .330E+00  .376E+00  .429E+00
  .718E+00  .108E+01  .121E+01  .120E+01  .127E+01  .141E+01  .151E+01  .165E+01
  .166E+01  .186E+01  .192E+01  .182E+01  .201E+01  .209E+01  .290E+01  .397E+01
  .491E+01  .542E+01  .640E+01  .634E+01  .587E+01  .529E+01  .494E+01  .448E+01
  .411E+01  .390E+01  .380E+01  .369E+01  .356E+01  .342E+01  .325E+01  .323E+01
  .330E+01  .344E+01  .352E+01  .355E+01  .353E+01  .348E+01  .339E+01  .329E+01
  .320E+01  .311E+01  .302E+01  .288E+01  .277E+01  .268E+01  .260E+01  .255E+01
  .250E+01  .246E+01  .243E+01  .240E+01  .238E+01  .235E+01  .232E+01  .230E+01
  .229E+01  .228E+01  .227E+01  .227E+01  .226E+01  .226E+01  .225E+01  .225E+01
  .225E+01  .225E+01  .225E+01  .224E+01  .224E+01  .224E+01  .224E+01  .223E+01
  .223E+01  .223E+01  .223E+01  .223E+01  .223E+01  .223E+01  .223E+01  .223E+01
  .223E+01  .223E+01  .223E+01  .000E+00  .000E+00  .000E+00  .000E+00  .000E+00
  .000E+00  .000E+00  .000E+00  .000E+00
  .158E+00  .171E+00  .182E+00  .185E+00  .178E+00  .169E+00  .204E+00  .191E+00
  .253E+00  .340E+00  .345E+00  .319E+00  .325E+00  .348E+00  .344E+00  .305E+00
  .325E+00  .312E+00  .283E+00  .245E+00  .262E+00  .297E+00  .328E+00  .384E+00
  .436E+00  .471E+00  .458E+00  .407E+00  .349E+00  .298E+00  .246E+00  .197E+00
  .159E+00  .138E+00  .129E+00  .122E+00  .115E+00  .108E+00  .102E+00  .952E-01
  .895E-01  .755E-01  .628E-01  .514E-01  .410E-01  .323E-01  .253E-01  .231E-01
  .212E-01  .194E-01  .178E-01  .151E-01  .128E-01  .110E-01  .953E-02  .834E-02
  .736E-02  .654E-02  .585E-02  .527E-02  .478E-02  .398E-02  .338E-02  .291E-02
  .254E-02  .224E-02  .200E-02  .179E-02  .163E-02  .149E-02  .137E-02  .127E-02
  .118E-02  .110E-02  .103E-02  .972E-03  .843E-03  .743E-03  .662E-03  .597E-03
  .542E-03  .496E-03  .457E-03  .423E-03  .394E-03  .368E-03  .325E-03  .291E-03
  .263E-03  .241E-03  .222E-03  .000E+00  .000E+00  .000E+00  .000E+00  .000E+00
  .000E+00  .000E+00  .000E+00  .000E+00
  .387E+00  .438E+00  .490E+00  .523E+00  .527E+00  .516E+00  .691E+00  .702E+00
  .100E+01  .147E+01  .157E+01  .156E+01  .169E+01  .191E+01  .200E+01  .190E+01
  .220E+01  .230E+01  .227E+01  .209E+01  .242E+01  .293E+01  .342E+01  .427E+01
  .511E+01  .580E+01  .613E+01  .597E+01  .551E+01  .509E+01  .449E+01  .382E+01
  .331E+01  .305E+01  .299E+01  .296E+01  .293E+01  .289E+01  .284E+01  .278E+01
  .271E+01  .252E+01  .228E+01  .202E+01  .174E+01  .146E+01  .122E+01  .117E+01
  .114E+01  .110E+01  .106E+01  .978E+00  .900E+00  .830E+00  .770E+00  .716E+00
  .667E+00  .624E+00  .585E+00  .550E+00  .519E+00  .465E+00  .420E+00  .383E+00
  .351E+00  .325E+00  .302E+00  .282E+00  .264E+00  .249E+00  .235E+00  .223E+00
  .212E+00  .202E+00  .193E+00  .185E+00  .167E+00  .153E+00  .141E+00  .131E+00
  .122E+00  .114E+00  .107E+00  .101E+00  .955E-01  .906E-01  .822E-01  .753E-01
  .693E-01  .643E-01  .600E-01  .000E+00  .000E+00  .000E+00  .000E+00  .000E+00
  .000E+00  .000E+00  .000E+00  .000E+00
  .542E+01  .542E+01  .543E+01  .543E+01  .543E+01  .565E+01  .554E+01  .565E+01
  .565E+01  .566E+01  .566E+01  .567E+01  .568E+01  .557E+01  .557E+01  .544E+01
  .567E+01  .568E+01  .569E+01  .545E+01  .555E+01  .556E+01  .568E+01  .569E+01
  .590E+01  .591E+01  .593E+01  .585E+01  .575E+01  .576E+01  .577E+01  .577E+01
  .578E+01  .565E+01  .565E+01  .565E+01  .566E+01  .566E+01  .566E+01  .566E+01
  .567E+01  .567E+01  .568E+01  .568E+01  .569E+01  .569E+01  .570E+01  .553E+01
  .554E+01  .554E+01  .554E+01  .554E+01  .554E+01  .554E+01  .555E+01  .555E+01
  .555E+01  .555E+01  .555E+01  .555E+01  .555E+01  .555E+01  .555E+01  .555E+01
  .555E+01  .555E+01  .555E+01  .555E+01  .555E+01  .555E+01  .555E+01  .555E+01
  .555E+01  .555E+01  .555E+01  .555E+01  .555E+01  .555E+01  .555E+01  .555E+01
  .555E+01  .555E+01  .555E+01  .555E+01  .555E+01  .555E+01  .555E+01  .555E+01
  .555E+01  .555E+01  .555E+01  .000E+00  .000E+00  .000E+00  .000E+00  .000E+00
  .000E+00  .000E+00  .000E+00  .000E+00
  .590E+01  .591E+01  .591E+01  .591E+01  .591E+01  .594E+01  .553E+01  .563E+01
  .563E+01  .564E+01  .618E+01  .605E+01  .570E+01  .555E+01  .546E+01  .546E+01
  .570E+01  .571E+01  .572E+01  .548E+01  .549E+01  .551E+01  .573E+01  .593E+01
  .594E+01  .586E+01  .588E+01  .590E+01  .580E+01  .569E+01  .570E+01  .571E+01
  .571E+01  .572E+01  .572E+01  .572E+01  .573E+01  .573E+01  .573E+01  .561E+01
  .561E+01  .561E+01  .561E+01  .561E+01  .562E+01  .562E+01  .562E+01  .562E+01
  .562E+01  .562E+01  .562E+01  .562E+01  .562E+01  .562E+01  .562E+01  .562E+01
  .562E+01  .562E+01  .562E+01  .562E+01  .562E+01  .562E+01  .562E+01  .562E+01
  .562E+01  .562E+01  .562E+01  .562E+01  .562E+01  .562E+01  .562E+01  .562E+01
  .562E+01  .562E+01  .562E+01  .562E+01  .562E+01  .562E+01  .562E+01  .562E+01
  .562E+01  .562E+01  .562E+01  .562E+01  .562E+01  .562E+01  .562E+01  .562E+01
  .562E+01  .562E+01  .562E+01  .000E+00  .000E+00  .000E+00  .000E+00  .000E+00
  .000E+00  .000E+00  .000E+00  .000E+00
  .542E+01  .542E+01  .543E+01  .543E+01  .543E+01  .565E+01  .554E+01  .565E+01
  .565E+01  .565E+01  .566E+01  .567E+01  .567E+01  .557E+01  .557E+01  .544E+01
  .567E+01  .568E+01  .569E+01  .545E+01  .554E+01  .556E+01  .568E+01  .569E+01
  .589E+01  .591E+01  .593E+01  .584E+01  .574E+01  .575E+01  .576E+01  .577E+01
  .578E+01  .564E+01  .565E+01  .565E+01  .565E+01  .565E+01  .565E+01  .566E+01
  .566E+01  .566E+01  .567E+01  .567E+01  .568E+01  .568E+01  .568E+01  .552E+01
  .552E+01  .552E+01  .552E+01  .553E+01  .553E+01  .553E+01  .553E+01  .552E+01
  .552E+01  .552E+01  .552E+01  .552E+01  .552E+01  .552E+01  .552E+01  .552E+01
  .552E+01  .552E+01  .552E+01  .551E+01  .551E+01  .551E+01  .551E+01  .551E+01
  .551E+01  .551E+01  .551E+01  .551E+01  .551E+01  .551E+01  .551E+01  .551E+01
  .551E+01  .551E+01  .551E+01  .551E+01  .551E+01  .551E+01  .551E+01  .551E+01
  .551E+01  .550E+01  .550E+01  .000E+00  .000E+00  .000E+00  .000E+00  .000E+00
  .000E+00  .000E+00  .000E+00  .000E+00
/&   ----------  End of spectral data for channel  1  ----------
Response and Fourier amplitude spectra (91 periods,  .04 - 15.0 sec)   for      
Corrected accelerogram   24983-L1785-01252.06       Chan  2:   0 Deg     from   
Uncorrected Accelerogram Data             Processed: 09/10/01, CDMG  983am006   
Record of Sun Sep  9, 2001 16:59:16 PDT               (Avol1 v4.6  7/01 CSMIP)  
CSMIP Preliminary Processing            (Origin:  To be determined)             
24983-L1785-01252.06                 Start time:  9/09/01, 23:59:16.0 UTC (GPS) 
Station No. 24983   34.051N, 118.384W      Etna  s/n 1785  (3 Channels)         
Los Angeles - Robertson & Pickford                                              
Chan  2:   0 Deg                                                                
Record of Sun Sep  9, 2001 16:59:16 PDT    Sun Sep  9, 2001 16:59:16 PDT        
Hypocenter:  To be determined.               ML:  To be determined.             
Instr Period =  .0108 sec,  Damping =  .660,  Sensitivity =  .63  v/g           
                        Record length = 47.000 sec.                             
                                     Uncor Max  =   .040 g, at   5.870 sec.     
RMS accel of (uncor) record  =        .                                         
Accelerogram bandpass filtered with 3 dB pts at   .30 and 40.00 cyc/sec         
                 instrument- and baseline-corrected                             
                                                                                
                                                                                
                                                                                
                                                                                
                                                                                
Record of Sun Sep  9, 2001 16:59:16 PDT    Sun Sep  9, 2001 16:59:16 PDT        
                                                                                
24983-L1785-01252.06      Los Angeles - Robertson & Pickford    Chan  2:   0 Deg
                                                                                
24983-L1785-01252.06      Los Angeles - Robertson & Pickford    Chan  2:   0 Deg
                                                                                
Units for spectra are inches and sec, except Sa is in fraction of g.            
                                                                                
    2  100    2    3    3  200    1    3    1   24   12 1785    024983    1    0
   23   59   16    0  252    9    9 2001   10    3    0 9400   39   34   72 -999
 9400    1   50    3 1785    1    6  470    1    0    0    0    0    0    0    0
    0    4    0    0 4700    2    0    0    0    0   72   34    0    0    0 4700
    0 4700   35   91    1    3    0    0    0    0    3    0    0    0    0    2
    2    2    4    0   32   99 -999   32   32    0    0    1    0    0    0    0
  -99   -1    0    0
      .011      .660    47.000      .003      .000   625.000      .040     5.870
    92.300      .298      .477      .000     5.000      .000      .000      .000
     2.500   -30.028      .001     -.044     5.000    30.000      .000      .000
      .000      .000     2.000    15.000    34.051  -118.384      .042      .219
     5.242     -.012      .012  -999.000      .000      .000   -13.400      .000
  1000.000     1.009      .000      .000      .000      .000      .000      .000
     4.600     4.400      .000   980.665      .010    47.000    14.690      .000
      .000    40.000      .000    47.000      .010      .300      .000      .000
     5.870    37.873     5.840    -1.056    14.540      .051      .000      .300
    40.000      .010      .010      .000      .010      .025      .000      .000
      .154      .075      .112      .028      .004      .000      .000      .000
      .000      .000      .000      .000      .000      .000      .000      .000
      .000      .000      .000      .000
      .050
      .040      .042      .044      .046      .048      .050      .055      .060
      .065      .070      .075      .080      .085      .090      .095      .100
      .110      .120      .130      .140      .150      .160      .170      .180
      .190      .200      .220      .240      .260      .280      .300      .320
      .340      .360      .380      .400      .420      .440      .460      .480
      .500      .550      .600      .650      .700      .750      .800      .850
      .900      .950     1.000     1.100     1.200     1.300     1.400     1.500
     1.600     1.700     1.800     1.900     2.000     2.200     2.400     2.600
     2.800     3.000     3.200     3.400     3.600     3.800     4.000     4.200
     4.400     4.600     4.800     5.000     5.500     6.000     6.500     7.000
     7.500     8.000     8.500     9.000     9.500    10.000    11.000    12.000
    13.000    14.000    15.000      .000      .000      .000      .000      .000
      .000      .000      .000      .000
Fourier amplitude spectra in in/sec.
  .000E+00  .000E+00  .000E+00  .000E+00  .000E+00  .000E+00  .000E+00  .000E+00
  .000E+00  .000E+00  .000E+00  .000E+00  .000E+00  .000E+00  .000E+00  .000E+00
  .000E+00  .000E+00  .000E+00  .000E+00  .000E+00  .000E+00  .000E+00  .000E+00
  .000E+00  .000E+00  .000E+00  .000E+00  .000E+00  .000E+00  .000E+00  .000E+00
  .000E+00  .000E+00  .000E+00  .000E+00  .000E+00  .000E+00  .000E+00  .000E+00
  .000E+00  .000E+00  .000E+00  .000E+00  .000E+00  .000E+00  .000E+00  .000E+00
  .000E+00  .000E+00  .000E+00  .000E+00  .000E+00  .000E+00  .000E+00  .000E+00
  .000E+00  .000E+00  .000E+00  .000E+00  .000E+00  .000E+00  .000E+00  .000E+00
  .000E+00  .000E+00  .000E+00  .000E+00  .000E+00  .000E+00  .000E+00  .000E+00
  .000E+00  .000E+00  .000E+00  .000E+00  .000E+00  .000E+00  .000E+00  .000E+00
  .000E+00  .000E+00  .000E+00  .000E+00  .000E+00  .000E+00  .000E+00  .000E+00
  .000E+00  .000E+00  .000E+00  .000E+00  .000E+00  .000E+00  .000E+00  .000E+00
  .000E+00  .000E+00  .000E+00  .000E+00
Damping =  .05. Data of Sd,Sv,Sa,Pssv,ttSd,ttSv,ttSa :
  .901E-03  .911E-03  .115E-02  .125E-02  .137E-02  .158E-02  .269E-02  .336E-02
  .464E-02  .721E-02  .839E-02  .902E-02  .809E-02  .812E-02  .728E-02  .970E-02
  .103E-01  .111E-01  .140E-01  .187E-01  .212E-01  .243E-01  .290E-01  .367E-01
  .423E-01  .443E-01  .487E-01  .344E-01  .290E-01  .248E-01  .228E-01  .240E-01
  .228E-01  .260E-01  .262E-01  .297E-01  .323E-01  .408E-01  .487E-01  .452E-01
