Response and Fourier amplitude spectra (91 periods,  .04 - 15.0 sec)   for      
Corrected accelerogram   24984-L1784-01252.06       Chan  1:   0 Deg     from   
Uncorrected Accelerogram Data             Processed: 09/10/01, CDMG  984ao006   
Record of Sun Sep  9, 2001 16:59:15 PDT               (Avol1 v4.6  7/01 CSMIP)  
CSMIP Preliminary Processing            (Origin:  To be determined)             
24984-L1784-01252.06                 Start time:  9/09/01, 23:59:15.0 UTC (GPS) 
Station No. 24984   34.021N, 118.325W      Etna  s/n 1784  (3 Channels)         
Los Angeles - Exposition & 7th Ave                                              
Chan  1:   0 Deg                                                                
Record of Sun Sep  9, 2001 16:59:15 PDT    Sun Sep  9, 2001 16:59:15 PDT        
Hypocenter:  To be determined.               ML:  To be determined.             
Instr Period =  .0104 sec,  Damping =  .680,  Sensitivity =  .63  v/g           
                        Record length = 49.000 sec.                             
                                     Uncor Max  =   .111 g, at   8.860 sec.     
RMS accel of (uncor) record  =        .                                         
Accelerogram bandpass filtered with 3 dB pts at   .30 and 40.00 cyc/sec         
                 instrument- and baseline-corrected                             
                                                                                
                                                                                
                                                                                
                                                                                
                                                                                
Record of Sun Sep  9, 2001 16:59:15 PDT    Sun Sep  9, 2001 16:59:15 PDT        
                                                                                
24984-L1784-01252.06      Los Angeles - Exposition & 7th Ave    Chan  1:   0 Deg
                                                                                
24984-L1784-01252.06      Los Angeles - Exposition & 7th Ave    Chan  1:   0 Deg
                                                                                
Units for spectra are inches and sec, except Sa is in fraction of g.            
                                                                                
    1  100    1    3    3  200    1    3    1   24   12 1784    024984    1    0
   23   59   15    0  252    9    9 2001   10    3    0 9800   39   34   72 -999
 9800    1   50    3 1784    1    6  490    1    0    0    0    0    0    0    0
    0    4    0    0 4900    2    0    0    0    0   72   34    0    0    0 4900
    0 4900   35   91    1    3    0    0    0    0    3    0    0    0    0    2
    2    2    4    0   32   99 -999   32   32    0    0    1    0    0    0    0
  -99   -1    0    0
      .010      .680    49.000      .008      .000   625.000      .111     8.860
    95.800      .298      .477      .000     5.000      .000      .000      .000
     2.500     5.002      .061     -.067     5.000    30.000      .000      .005
      .000     -.005     2.000    15.000    34.021  -118.325      .020      .226
    11.441     -.016      .006  -999.000      .000      .000   -13.500      .000
  1000.000     1.002      .000      .000      .000      .000      .000      .000
     4.600     4.400      .000   980.665      .010    49.000    15.247      .000
      .000    40.000      .000    49.000      .010      .300      .000      .000
     8.860   108.088     7.600     3.326     8.420      .130      .000      .300
    40.000      .010      .010      .000     1.410      .049      .000      .000
      .340      .160      .241      .172      .009      .001      .000      .000
      .000      .000      .000      .000      .000      .000      .000      .000
      .000      .000      .000      .000
      .050
      .040      .042      .044      .046      .048      .050      .055      .060
      .065      .070      .075      .080      .085      .090      .095      .100
      .110      .120      .130      .140      .150      .160      .170      .180
      .190      .200      .220      .240      .260      .280      .300      .320
      .340      .360      .380      .400      .420      .440      .460      .480
      .500      .550      .600      .650      .700      .750      .800      .850
      .900      .950     1.000     1.100     1.200     1.300     1.400     1.500
     1.600     1.700     1.800     1.900     2.000     2.200     2.400     2.600
     2.800     3.000     3.200     3.400     3.600     3.800     4.000     4.200
     4.400     4.600     4.800     5.000     5.500     6.000     6.500     7.000
     7.500     8.000     8.500     9.000     9.500    10.000    11.000    12.000
    13.000    14.000    15.000      .000      .000      .000      .000      .000
      .000      .000      .000      .000
Fourier amplitude spectra in in/sec.
  .000E+00  .000E+00  .000E+00  .000E+00  .000E+00  .000E+00  .000E+00  .000E+00
  .000E+00  .000E+00  .000E+00  .000E+00  .000E+00  .000E+00  .000E+00  .000E+00
  .000E+00  .000E+00  .000E+00  .000E+00  .000E+00  .000E+00  .000E+00  .000E+00
  .000E+00  .000E+00  .000E+00  .000E+00  .000E+00  .000E+00  .000E+00  .000E+00
  .000E+00  .000E+00  .000E+00  .000E+00  .000E+00  .000E+00  .000E+00  .000E+00
  .000E+00  .000E+00  .000E+00  .000E+00  .000E+00  .000E+00  .000E+00  .000E+00
  .000E+00  .000E+00  .000E+00  .000E+00  .000E+00  .000E+00  .000E+00  .000E+00
  .000E+00  .000E+00  .000E+00  .000E+00  .000E+00  .000E+00  .000E+00  .000E+00
  .000E+00  .000E+00  .000E+00  .000E+00  .000E+00  .000E+00  .000E+00  .000E+00
  .000E+00  .000E+00  .000E+00  .000E+00  .000E+00  .000E+00  .000E+00  .000E+00
  .000E+00  .000E+00  .000E+00  .000E+00  .000E+00  .000E+00  .000E+00  .000E+00
  .000E+00  .000E+00  .000E+00  .000E+00  .000E+00  .000E+00  .000E+00  .000E+00
  .000E+00  .000E+00  .000E+00  .000E+00
Damping =  .05. Data of Sd,Sv,Sa,Pssv,ttSd,ttSv,ttSa :
  .209E-02  .254E-02  .288E-02  .341E-02  .395E-02  .445E-02  .610E-02  .875E-02
  .101E-01  .141E-01  .164E-01  .158E-01  .190E-01  .251E-01  .274E-01  .311E-01
  .300E-01  .310E-01  .380E-01  .455E-01  .567E-01  .851E-01  .845E-01  .948E-01
  .887E-01  .960E-01  .105E+00  .136E+00  .174E+00  .183E+00  .137E+00  .118E+00
  .131E+00  .118E+00  .983E-01  .973E-01  .102E+00  .121E+00  .132E+00  .134E+00
  .131E+00  .140E+00  .151E+00  .132E+00  .117E+00  .962E-01  .902E-01  .866E-01
  .841E-01  .824E-01  .806E-01  .831E-01  .876E-01  .858E-01  .826E-01  .785E-01
  .802E-01  .820E-01  .810E-01  .775E-01  .760E-01  .760E-01  .770E-01  .779E-01
  .773E-01  .759E-01  .739E-01  .717E-01  .696E-01  .676E-01  .659E-01  .643E-01
  .630E-01  .618E-01  .608E-01  .599E-01  .581E-01  .574E-01  .569E-01  .565E-01
  .562E-01  .559E-01  .556E-01  .554E-01  .552E-01  .550E-01  .548E-01  .546E-01
  .544E-01  .543E-01  .544E-01  .000E+00  .000E+00  .000E+00  .000E+00  .000E+00
  .000E+00  .000E+00  .000E+00  .000E+00
  .161E+00  .200E+00  .252E+00  .288E+00  .319E+00  .345E+00  .494E+00  .742E+00
  .765E+00  .103E+01  .113E+01  .102E+01  .125E+01  .152E+01  .161E+01  .175E+01
  .171E+01  .163E+01  .141E+01  .183E+01  .236E+01  .305E+01  .310E+01  .358E+01
  .313E+01  .316E+01  .341E+01  .347E+01  .438E+01  .444E+01  .364E+01  .318E+01
  .294E+01  .242E+01  .213E+01  .203E+01  .204E+01  .227E+01  .227E+01  .209E+01
  .200E+01  .211E+01  .168E+01  .165E+01  .154E+01  .154E+01  .155E+01  .154E+01
  .153E+01  .152E+01  .152E+01  .151E+01  .149E+01  .147E+01  .145E+01  .144E+01
  .143E+01  .142E+01  .141E+01  .141E+01  .140E+01  .139E+01  .137E+01  .136E+01
  .135E+01  .135E+01  .134E+01  .133E+01  .133E+01  .133E+01  .132E+01  .132E+01
  .132E+01  .132E+01  .131E+01  .131E+01  .131E+01  .131E+01  .131E+01  .131E+01
  .130E+01  .130E+01  .130E+01  .130E+01  .130E+01  .130E+01  .130E+01  .130E+01
  .130E+01  .130E+01  .130E+01  .000E+00  .000E+00  .000E+00  .000E+00  .000E+00
  .000E+00  .000E+00  .000E+00  .000E+00
  .133E+00  .147E+00  .153E+00  .166E+00  .175E+00  .184E+00  .207E+00  .252E+00
  .247E+00  .294E+00  .297E+00  .253E+00  .268E+00  .316E+00  .310E+00  .320E+00
  .254E+00  .221E+00  .234E+00  .236E+00  .261E+00  .340E+00  .300E+00  .300E+00
  .252E+00  .246E+00  .226E+00  .243E+00  .268E+00  .240E+00  .155E+00  .119E+00
  .117E+00  .944E-01  .703E-01  .628E-01  .593E-01  .644E-01  .642E-01  .603E-01
  .540E-01  .479E-01  .435E-01  .322E-01  .246E-01  .177E-01  .150E-01  .128E-01
  .111E-01  .984E-02  .873E-02  .724E-02  .640E-02  .533E-02  .444E-02  .372E-02
  .350E-02  .322E-02  .289E-02  .253E-02  .218E-02  .186E-02  .167E-02  .147E-02
  .129E-02  .114E-02  .100E-02  .890E-03  .795E-03  .716E-03  .650E-03  .594E-03
  .546E-03  .505E-03  .469E-03  .438E-03  .376E-03  .340E-03  .315E-03  .293E-03
  .274E-03  .257E-03  .243E-03  .229E-03  .217E-03  .207E-03  .188E-03  .172E-03
  .159E-03  .148E-03  .138E-03  .000E+00  .000E+00  .000E+00  .000E+00  .000E+00
  .000E+00  .000E+00  .000E+00  .000E+00
  .328E+00  .380E+00  .411E+00  .466E+00  .517E+00  .559E+00  .697E+00  .917E+00
  .978E+00  .127E+01  .137E+01  .124E+01  .140E+01  .175E+01  .182E+01  .196E+01
  .172E+01  .162E+01  .184E+01  .204E+01  .237E+01  .334E+01  .312E+01  .331E+01
  .293E+01  .302E+01  .301E+01  .356E+01  .422E+01  .411E+01  .286E+01  .232E+01
  .242E+01  .206E+01  .162E+01  .153E+01  .152E+01  .173E+01  .180E+01  .176E+01
  .164E+01  .160E+01  .158E+01  .128E+01  .105E+01  .806E+00  .709E+00  .640E+00
  .587E+00  .545E+00  .507E+00  .474E+00  .459E+00  .415E+00  .371E+00  .329E+00
  .315E+00  .303E+00  .283E+00  .256E+00  .239E+00  .217E+00  .202E+00  .188E+00
  .174E+00  .159E+00  .145E+00  .133E+00  .121E+00  .112E+00  .103E+00  .962E-01
  .899E-01  .844E-01  .795E-01  .752E-01  .664E-01  .601E-01  .550E-01  .507E-01
  .470E-01  .439E-01  .411E-01  .386E-01  .365E-01  .346E-01  .313E-01  .286E-01
  .263E-01  .244E-01  .228E-01  .000E+00  .000E+00  .000E+00  .000E+00  .000E+00
  .000E+00  .000E+00  .000E+00  .000E+00
  .885E+01  .885E+01  .886E+01  .773E+01  .773E+01  .773E+01  .886E+01  .840E+01
  .840E+01  .841E+01  .841E+01  .842E+01  .893E+01  .843E+01  .843E+01  .843E+01
  .830E+01  .895E+01  .765E+01  .766E+01  .775E+01  .895E+01  .896E+01  .897E+01
  .778E+01  .779E+01  .780E+01  .858E+01  .890E+01  .892E+01  .909E+01  .910E+01
  .883E+01  .884E+01  .872E+01  .841E+01  .826E+01  .827E+01  .828E+01  .829E+01
  .830E+01  .871E+01  .873E+01  .913E+01  .917E+01  .854E+01  .765E+01  .765E+01
  .765E+01  .765E+01  .765E+01  .854E+01  .855E+01  .855E+01  .862E+01  .862E+01
  .884E+01  .884E+01  .884E+01  .884E+01  .819E+01  .819E+01  .840E+01  .840E+01
  .841E+01  .841E+01  .841E+01  .841E+01  .841E+01  .841E+01  .841E+01  .841E+01
  .841E+01  .841E+01  .841E+01  .841E+01  .841E+01  .753E+01  .753E+01  .753E+01
  .753E+01  .753E+01  .753E+01  .753E+01  .753E+01  .753E+01  .753E+01  .753E+01
  .753E+01  .753E+01  .753E+01  .000E+00  .000E+00  .000E+00  .000E+00  .000E+00
  .000E+00  .000E+00  .000E+00  .000E+00
  .771E+01  .771E+01  .771E+01  .772E+01  .772E+01  .771E+01  .775E+01  .839E+01
  .866E+01  .839E+01  .839E+01  .889E+01  .899E+01  .840E+01  .840E+01  .841E+01
  .833E+01  .897E+01  .878E+01  .778E+01  .779E+01  .891E+01  .892E+01  .893E+01
  .894E+01  .774E+01  .775E+01  .852E+01  .895E+01  .887E+01  .888E+01  .888E+01
  .889E+01  .877E+01  .847E+01  .847E+01  .837E+01  .837E+01  .837E+01  .837E+01
  .770E+01  .881E+01  .770E+01  .868E+01  .868E+01  .759E+01  .759E+01  .759E+01
  .759E+01  .759E+01  .759E+01  .759E+01  .759E+01  .759E+01  .759E+01  .759E+01
  .759E+01  .759E+01  .759E+01  .759E+01  .759E+01  .759E+01  .759E+01  .759E+01
  .759E+01  .759E+01  .759E+01  .759E+01  .759E+01  .759E+01  .759E+01  .759E+01
  .759E+01  .759E+01  .759E+01  .759E+01  .759E+01  .759E+01  .759E+01  .759E+01
  .759E+01  .759E+01  .759E+01  .759E+01  .759E+01  .759E+01  .759E+01  .759E+01
  .759E+01  .759E+01  .759E+01  .000E+00  .000E+00  .000E+00  .000E+00  .000E+00
  .000E+00  .000E+00  .000E+00  .000E+00
  .885E+01  .885E+01  .885E+01  .773E+01  .773E+01  .773E+01  .773E+01  .840E+01
  .840E+01  .841E+01  .841E+01  .842E+01  .893E+01  .842E+01  .843E+01  .843E+01
  .830E+01  .894E+01  .765E+01  .766E+01  .775E+01  .895E+01  .896E+01  .897E+01
  .778E+01  .778E+01  .780E+01  .857E+01  .889E+01  .892E+01  .908E+01  .910E+01
  .883E+01  .884E+01  .871E+01  .840E+01  .841E+01  .826E+01  .827E+01  .828E+01
  .829E+01  .870E+01  .872E+01  .912E+01  .916E+01  .852E+01  .763E+01  .763E+01
  .763E+01  .763E+01  .763E+01  .851E+01  .852E+01  .852E+01  .861E+01  .861E+01
  .883E+01  .883E+01  .883E+01  .883E+01  .883E+01  .838E+01  .838E+01  .838E+01
  .838E+01  .838E+01  .838E+01  .838E+01  .838E+01  .838E+01  .838E+01  .838E+01
  .838E+01  .838E+01  .838E+01  .838E+01  .837E+01  .760E+01  .760E+01  .760E+01
  .760E+01  .760E+01  .760E+01  .760E+01  .760E+01  .760E+01  .760E+01  .760E+01
  .760E+01  .760E+01  .760E+01  .000E+00  .000E+00  .000E+00  .000E+00  .000E+00
  .000E+00  .000E+00  .000E+00  .000E+00
/&   ----------  End of spectral data for channel  1  ----------
Response and Fourier amplitude spectra (91 periods,  .04 - 15.0 sec)   for      
Corrected accelerogram   24984-L1784-01252.06       Chan  2:   0 Deg     from   
Uncorrected Accelerogram Data             Processed: 09/10/01, CDMG  984ao006   
Record of Sun Sep  9, 2001 16:59:15 PDT               (Avol1 v4.6  7/01 CSMIP)  
CSMIP Preliminary Processing            (Origin:  To be determined)             
24984-L1784-01252.06                 Start time:  9/09/01, 23:59:15.0 UTC (GPS) 
Station No. 24984   34.021N, 118.325W      Etna  s/n 1784  (3 Channels)         
Los Angeles - Exposition & 7th Ave                                              
Chan  2:   0 Deg                                                                
Record of Sun Sep  9, 2001 16:59:15 PDT    Sun Sep  9, 2001 16:59:15 PDT        
Hypocenter:  To be determined.               ML:  To be determined.             
Instr Period =  .0108 sec,  Damping =  .660,  Sensitivity =  .63  v/g           
                        Record length = 49.000 sec.                             
                                     Uncor Max  =  -.060 g, at   8.900 sec.     
RMS accel of (uncor) record  =        .                                         
Accelerogram bandpass filtered with 3 dB pts at   .30 and 40.00 cyc/sec         
                 instrument- and baseline-corrected                             
                                                                                
                                                                                
                                                                                
                                                                                
                                                                                
Record of Sun Sep  9, 2001 16:59:15 PDT    Sun Sep  9, 2001 16:59:15 PDT        
                                                                                
24984-L1784-01252.06      Los Angeles - Exposition & 7th Ave    Chan  2:   0 Deg
                                                                                
24984-L1784-01252.06      Los Angeles - Exposition & 7th Ave    Chan  2:   0 Deg
                                                                                
Units for spectra are inches and sec, except Sa is in fraction of g.            
                                                                                
    2  100    2    3    3  200    1    3    1   24   12 1784    024984    1    0
   23   59   15    0  252    9    9 2001   10    3    0 9800   39   34   72 -999
 9800    1   50    3 1784    1    6  490    1    0    0    0    0    0    0    0
    0    4    0    0 4900    2    0    0    0    0   72   34    0    0    0 4900
    0 4900   35   91    1    3    0    0    0    0    3    0    0    0    0    2
    2    2    4    0   32   99 -999   32   32    0    0    1    0    0    0    0
  -99   -1    0    0
      .011      .660    49.000      .006      .000   625.000     -.060     8.900
    92.900      .298      .477      .000     5.000      .000      .000      .000
     2.500   -23.600      .023     -.046     5.000    30.000      .000      .001
     -.004     -.005     2.000    15.000    34.021  -118.325      .029      .183
     6.243     -.014      .004  -999.000      .000      .000   -13.500      .000
  1000.000    -1.002      .000      .000      .000      .000      .000      .000
     4.600     4.400      .000   980.665      .010    49.000    14.785      .000
      .000    40.000      .000    49.000      .010      .300      .000      .000
     5.250   -57.528     5.300    -1.257     5.260      .078      .000      .300
    40.000      .010      .010      .000     3.660      .028      .000      .000
      .193      .110      .089      .051      .004      .001      .000      .000
      .000      .000      .000      .000      .000      .000      .000      .000
      .000      .000      .000      .000
      .050
      .040      .042      .044      .046      .048      .050      .055      .060
      .065      .070      .075      .080      .085      .090      .095      .100
      .110      .120      .130      .140      .150      .160      .170      .180
      .190      .200      .220      .240      .260      .280      .300      .320
      .340      .360      .380      .400      .420      .440      .460      .480
      .500      .550      .600      .650      .700      .750      .800      .850
      .900      .950     1.000     1.100     1.200     1.300     1.400     1.500
     1.600     1.700     1.800     1.900     2.000     2.200     2.400     2.600
     2.800     3.000     3.200     3.400     3.600     3.800     4.000     4.200
     4.400     4.600     4.800     5.000     5.500     6.000     6.500     7.000
     7.500     8.000     8.500     9.000     9.500    10.000    11.000    12.000
    13.000    14.000    15.000      .000      .000      .000      .000      .000
      .000      .000      .000      .000
Fourier amplitude spectra in in/sec.
  .000E+00  .000E+00  .000E+00  .000E+00  .000E+00  .000E+00  .000E+00  .000E+00
  .000E+00  .000E+00  .000E+00  .000E+00  .000E+00  .000E+00  .000E+00  .000E+00
  .000E+00  .000E+00  .000E+00  .000E+00  .000E+00  .000E+00  .000E+00  .000E+00
  .000E+00  .000E+00  .000E+00  .000E+00  .000E+00  .000E+00  .000E+00  .000E+00
  .000E+00  .000E+00  .000E+00  .000E+00  .000E+00  .000E+00  .000E+00  .000E+00
  .000E+00  .000E+00  .000E+00  .000E+00  .000E+00  .000E+00  .000E+00  .000E+00
  .000E+00  .000E+00  .000E+00  .000E+00  .000E+00  .000E+00  .000E+00  .000E+00
  .000E+00  .000E+00  .000E+00  .000E+00  .000E+00  .000E+00  .000E+00  .000E+00
  .000E+00  .000E+00  .000E+00  .000E+00  .000E+00  .000E+00  .000E+00  .000E+00
  .000E+00  .000E+00  .000E+00  .000E+00  .000E+00  .000E+00  .000E+00  .000E+00
  .000E+00  .000E+00  .000E+00  .000E+00  .000E+00  .000E+00  .000E+00  .000E+00
  .000E+00  .000E+00  .000E+00  .000E+00  .000E+00  .000E+00  .000E+00  .000E+00
  .000E+00  .000E+00  .000E+00  .000E+00
Damping =  .05. Data of Sd,Sv,Sa,Pssv,ttSd,ttSv,ttSa :
  .214E-02  .259E-02  .314E-02  .364E-02  .373E-02  .371E-02  .546E-02  .670E-02
  .498E-02  .519E-02  .781E-02  .731E-02  .869E-02  .114E-01  .141E-01  .164E-01
  .231E-01  .263E-01  .273E-01  .332E-01  .268E-01  .357E-01  .432E-01  .450E-01
  .384E-01  .301E-01  .375E-01  .421E-01  .412E-01  .430E-01  .449E-01  .449E-01
  .426E-01  .396E-01  .354E-01  .357E-01  .371E-01  .384E-01  .393E-01  .398E-01
