Response and Fourier amplitude spectra (91 periods,  .04 - 15.0 sec)   for      
Corrected accelerogram   24981-L1374-01253.06       Chan  1:   0 Deg     from   
Uncorrected Accelerogram Data             Processed: 09/10/01, CDMG  bo006      
Record of Sun Sep  9, 2001 16:59:17 PDT               (Avol1 v4.6  7/01 CSMIP)  
CSMIP Preliminary Processing            (Origin:  To be determined)             
24981-L1374-01253.06                 Start time:  9/09/01, 23:59:17.0 UTC (GPS) 
Station No. 24981   34.168N, 118.379W      Etna  s/n 1374  (3 Channels)         
(LADOT 4)                                                                       
Chan  1:   0 Deg                                                                
Record of Sun Sep  9, 2001 16:59:17 PDT    Sun Sep  9, 2001 16:59:17 PDT        
Hypocenter:  To be determined.               ML:  To be determined.             
Instr Period =  .0102 sec,  Damping =  .660,  Sensitivity =  .63  v/g           
                        Record length = 43.000 sec.                             
                                     Uncor Max  =  -.044 g, at   7.520 sec.     
RMS accel of (uncor) record  =        .                                         
Accelerogram bandpass filtered with 3 dB pts at   .30 and 40.00 cyc/sec         
                 instrument- and baseline-corrected                             
                                                                                
                                                                                
                                                                                
                                                                                
                                                                                
Record of Sun Sep  9, 2001 16:59:17 PDT    Sun Sep  9, 2001 16:59:17 PDT        
                                                                                
24981-L1374-01253.06      (LADOT 4)   Chan  1:   0 Deg                          
                                                                                
24981-L1374-01253.06      (LADOT 4)   Chan  1:   0 Deg                          
                                                                                
Units for spectra are inches and sec, except Sa is in fraction of g.            
                                                                                
    1  100    1    3    3  200    1    3    1   24   12 1374    024981    1    0
   23   59   17    0  252    9    9 2001   10    3    0 8600   39    9   72 -999
 8600    1   50    3 1374    1    6  430    1    0    0    0    0    0    0    0
    0    4    0    0 4300    2    0    0    0    0   72    9    0    0    0 4300
    0 4300   10   91    1    3    0    0    0    0    3    0    0    0    0    2
    2    2    4    0   32   99 -999   32   32    0    0    1    0    0    0    0
  -99   -1    0    0
      .010      .660    43.000      .004      .000   625.000     -.044     7.520
    97.700      .298      .477      .000     5.000      .000      .000      .000
     2.500    20.914      .041     -.010     5.000    30.000      .000     -.001
      .000      .001     2.000    15.000    34.168  -118.379      .025      .297
    11.723     -.013      .015  -999.000      .000      .000   -13.400      .000
  1000.000    -1.001      .000      .000      .000      .000      .000      .000
     4.600     4.400      .000   980.665      .010    43.000    15.549      .000
      .000    40.000      .000    43.000      .010      .300      .000      .000
     7.520   -41.637     9.070     -.918     9.230     -.059      .000      .300
    40.000      .010      .010      .000      .010      .025      .000      .000
      .152      .060      .065      .046      .006      .000      .000      .000
      .000      .000      .000      .000      .000      .000      .000      .000
      .000      .000      .000      .000
      .050
      .040      .042      .044      .046      .048      .050      .055      .060
      .065      .070      .075      .080      .085      .090      .095      .100
      .110      .120      .130      .140      .150      .160      .170      .180
      .190      .200      .220      .240      .260      .280      .300      .320
      .340      .360      .380      .400      .420      .440      .460      .480
      .500      .550      .600      .650      .700      .750      .800      .850
      .900      .950     1.000     1.100     1.200     1.300     1.400     1.500
     1.600     1.700     1.800     1.900     2.000     2.200     2.400     2.600
     2.800     3.000     3.200     3.400     3.600     3.800     4.000     4.200
     4.400     4.600     4.800     5.000     5.500     6.000     6.500     7.000
     7.500     8.000     8.500     9.000     9.500    10.000    11.000    12.000
    13.000    14.000    15.000      .000      .000      .000      .000      .000
      .000      .000      .000      .000
Fourier amplitude spectra in in/sec.
  .000E+00  .000E+00  .000E+00  .000E+00  .000E+00  .000E+00  .000E+00  .000E+00
  .000E+00  .000E+00  .000E+00  .000E+00  .000E+00  .000E+00  .000E+00  .000E+00
  .000E+00  .000E+00  .000E+00  .000E+00  .000E+00  .000E+00  .000E+00  .000E+00
  .000E+00  .000E+00  .000E+00  .000E+00  .000E+00  .000E+00  .000E+00  .000E+00
  .000E+00  .000E+00  .000E+00  .000E+00  .000E+00  .000E+00  .000E+00  .000E+00
  .000E+00  .000E+00  .000E+00  .000E+00  .000E+00  .000E+00  .000E+00  .000E+00
  .000E+00  .000E+00  .000E+00  .000E+00  .000E+00  .000E+00  .000E+00  .000E+00
  .000E+00  .000E+00  .000E+00  .000E+00  .000E+00  .000E+00  .000E+00  .000E+00
  .000E+00  .000E+00  .000E+00  .000E+00  .000E+00  .000E+00  .000E+00  .000E+00
  .000E+00  .000E+00  .000E+00  .000E+00  .000E+00  .000E+00  .000E+00  .000E+00
  .000E+00  .000E+00  .000E+00  .000E+00  .000E+00  .000E+00  .000E+00  .000E+00
  .000E+00  .000E+00  .000E+00  .000E+00  .000E+00  .000E+00  .000E+00  .000E+00
  .000E+00  .000E+00  .000E+00  .000E+00
Damping =  .05. Data of Sd,Sv,Sa,Pssv,ttSd,ttSv,ttSa :
  .891E-03  .933E-03  .120E-02  .171E-02  .219E-02  .245E-02  .345E-02  .529E-02
  .518E-02  .620E-02  .792E-02  .821E-02  .786E-02  .714E-02  .778E-02  .980E-02
  .135E-01  .135E-01  .173E-01  .245E-01  .270E-01  .286E-01  .229E-01  .255E-01
  .246E-01  .259E-01  .282E-01  .230E-01  .243E-01  .347E-01  .376E-01  .489E-01
  .528E-01  .659E-01  .649E-01  .497E-01  .417E-01  .362E-01  .319E-01  .349E-01
  .378E-01  .380E-01  .409E-01  .467E-01  .479E-01  .501E-01  .492E-01  .405E-01
  .383E-01  .511E-01  .669E-01  .700E-01  .505E-01  .463E-01  .450E-01  .511E-01
  .604E-01  .580E-01  .588E-01  .553E-01  .575E-01  .583E-01  .517E-01  .424E-01
  .345E-01  .294E-01  .269E-01  .260E-01  .259E-01  .262E-01  .265E-01  .267E-01
  .268E-01  .268E-01  .267E-01  .265E-01  .259E-01  .253E-01  .249E-01  .245E-01
  .243E-01  .241E-01  .240E-01  .239E-01  .238E-01  .238E-01  .237E-01  .237E-01
  .236E-01  .236E-01  .236E-01  .000E+00  .000E+00  .000E+00  .000E+00  .000E+00
  .000E+00  .000E+00  .000E+00  .000E+00
  .851E-01  .109E+00  .142E+00  .167E+00  .217E+00  .263E+00  .339E+00  .485E+00
  .458E+00  .504E+00  .631E+00  .659E+00  .607E+00  .544E+00  .513E+00  .618E+00
  .730E+00  .667E+00  .827E+00  .109E+01  .110E+01  .116E+01  .935E+00  .841E+00
  .755E+00  .786E+00  .776E+00  .705E+00  .658E+00  .756E+00  .792E+00  .951E+00
  .990E+00  .118E+01  .108E+01  .872E+00  .697E+00  .592E+00  .551E+00  .537E+00
  .531E+00  .578E+00  .504E+00  .557E+00  .644E+00  .639E+00  .581E+00  .455E+00
  .436E+00  .444E+00  .488E+00  .439E+00  .419E+00  .412E+00  .388E+00  .376E+00
  .387E+00  .400E+00  .388E+00  .352E+00  .377E+00  .413E+00  .427E+00  .424E+00
  .413E+00  .400E+00  .390E+00  .384E+00  .379E+00  .377E+00  .375E+00  .374E+00
  .373E+00  .373E+00  .372E+00  .372E+00  .371E+00  .369E+00  .369E+00  .368E+00
  .367E+00  .366E+00  .366E+00  .366E+00  .365E+00  .365E+00  .365E+00  .364E+00
  .364E+00  .364E+00  .364E+00  .000E+00  .000E+00  .000E+00  .000E+00  .000E+00
  .000E+00  .000E+00  .000E+00  .000E+00
  .570E-01  .541E-01  .631E-01  .838E-01  .982E-01  .102E+00  .116E+00  .152E+00
  .125E+00  .131E+00  .143E+00  .133E+00  .112E+00  .897E-01  .876E-01  .993E-01
  .113E+00  .953E-01  .104E+00  .129E+00  .124E+00  .116E+00  .815E-01  .806E-01
  .693E-01  .667E-01  .595E-01  .407E-01  .371E-01  .457E-01  .429E-01  .490E-01
  .469E-01  .521E-01  .462E-01  .319E-01  .243E-01  .192E-01  .155E-01  .156E-01
  .156E-01  .129E-01  .117E-01  .114E-01  .101E-01  .921E-02  .797E-02  .584E-02
  .487E-02  .582E-02  .689E-02  .597E-02  .361E-02  .282E-02  .237E-02  .237E-02
  .244E-02  .207E-02  .189E-02  .158E-02  .149E-02  .128E-02  .967E-03  .692E-03
  .498E-03  .378E-03  .308E-03  .268E-03  .247E-03  .227E-03  .208E-03  .192E-03
  .177E-03  .164E-03  .152E-03  .141E-03  .120E-03  .105E-03  .946E-04  .868E-04
  .804E-04  .749E-04  .702E-04  .661E-04  .624E-04  .592E-04  .537E-04  .491E-04
  .452E-04  .419E-04  .391E-04  .000E+00  .000E+00  .000E+00  .000E+00  .000E+00
  .000E+00  .000E+00  .000E+00  .000E+00
  .140E+00  .140E+00  .171E+00  .234E+00  .286E+00  .308E+00  .394E+00  .554E+00
  .500E+00  .557E+00  .664E+00  .645E+00  .581E+00  .499E+00  .515E+00  .616E+00
  .771E+00  .705E+00  .834E+00  .110E+01  .113E+01  .112E+01  .846E+00  .892E+00
  .813E+00  .812E+00  .806E+00  .601E+00  .588E+00  .779E+00  .787E+00  .959E+00
  .977E+00  .115E+01  .107E+01  .780E+00  .624E+00  .518E+00  .436E+00  .457E+00
  .475E+00  .434E+00  .428E+00  .451E+00  .430E+00  .420E+00  .386E+00  .299E+00
  .268E+00  .338E+00  .420E+00  .400E+00  .265E+00  .224E+00  .202E+00  .214E+00
  .237E+00  .214E+00  .205E+00  .183E+00  .181E+00  .167E+00  .135E+00  .102E+00
  .774E-01  .616E-01  .528E-01  .480E-01  .452E-01  .433E-01  .417E-01  .400E-01
  .383E-01  .366E-01  .349E-01  .333E-01  .296E-01  .265E-01  .240E-01  .220E-01
  .203E-01  .189E-01  .177E-01  .167E-01  .158E-01  .149E-01  .135E-01  .124E-01
  .114E-01  .106E-01  .988E-02  .000E+00  .000E+00  .000E+00  .000E+00  .000E+00
  .000E+00  .000E+00  .000E+00  .000E+00
  .752E+01  .752E+01  .712E+01  .712E+01  .712E+01  .713E+01  .722E+01  .722E+01
  .736E+01  .752E+01  .768E+01  .724E+01  .725E+01  .714E+01  .697E+01  .688E+01
  .744E+01  .714E+01  .752E+01  .753E+01  .754E+01  .755E+01  .756E+01  .901E+01
  .903E+01  .914E+01  .917E+01  .918E+01  .919E+01  .920E+01  .921E+01  .941E+01
  .943E+01  .928E+01  .931E+01  .933E+01  .975E+01  .976E+01  .977E+01  .977E+01
  .979E+01  .936E+01  .790E+01  .936E+01  .941E+01  .849E+01  .851E+01  .900E+01
  .215E+02  .124E+02  .124E+02  .131E+02  .132E+02  .184E+02  .133E+02  .121E+02
  .129E+02  .123E+02  .116E+02  .118E+02  .921E+01  .922E+01  .922E+01  .922E+01
  .922E+01  .922E+01  .922E+01  .922E+01  .922E+01  .922E+01  .922E+01  .922E+01
  .922E+01  .922E+01  .922E+01  .922E+01  .922E+01  .922E+01  .922E+01  .922E+01
  .922E+01  .922E+01  .922E+01  .922E+01  .922E+01  .922E+01  .922E+01  .922E+01
  .922E+01  .922E+01  .922E+01  .000E+00  .000E+00  .000E+00  .000E+00  .000E+00
  .000E+00  .000E+00  .000E+00  .000E+00
  .702E+01  .702E+01  .703E+01  .710E+01  .714E+01  .713E+01  .720E+01  .724E+01
  .725E+01  .754E+01  .755E+01  .726E+01  .723E+01  .716E+01  .695E+01  .695E+01
  .741E+01  .716E+01  .755E+01  .757E+01  .758E+01  .752E+01  .752E+01  .753E+01
  .738E+01  .909E+01  .911E+01  .724E+01  .753E+01  .913E+01  .914E+01  .933E+01
  .935E+01  .937E+01  .905E+01  .906E+01  .984E+01  .893E+01  .855E+01  .855E+01
  .970E+01  .926E+01  .777E+01  .926E+01  .927E+01  .906E+01  .906E+01  .844E+01
  .893E+01  .894E+01  .122E+02  .927E+01  .733E+01  .733E+01  .733E+01  .131E+02
  .927E+01  .120E+02  .120E+02  .906E+01  .906E+01  .906E+01  .906E+01  .906E+01
  .906E+01  .906E+01  .906E+01  .906E+01  .906E+01  .906E+01  .906E+01  .906E+01
  .906E+01  .906E+01  .906E+01  .906E+01  .906E+01  .906E+01  .906E+01  .906E+01
  .906E+01  .906E+01  .906E+01  .906E+01  .906E+01  .906E+01  .906E+01  .906E+01
  .906E+01  .906E+01  .906E+01  .000E+00  .000E+00  .000E+00  .000E+00  .000E+00
  .000E+00  .000E+00  .000E+00  .000E+00
  .752E+01  .752E+01  .711E+01  .712E+01  .712E+01  .712E+01  .721E+01  .722E+01
  .736E+01  .752E+01  .768E+01  .724E+01  .725E+01  .714E+01  .697E+01  .688E+01
  .743E+01  .714E+01  .752E+01  .753E+01  .754E+01  .755E+01  .756E+01  .901E+01
  .903E+01  .914E+01  .916E+01  .917E+01  .918E+01  .919E+01  .921E+01  .940E+01
  .942E+01  .928E+01  .930E+01  .932E+01  .974E+01  .976E+01  .976E+01  .976E+01
  .978E+01  .935E+01  .789E+01  .935E+01  .940E+01  .848E+01  .850E+01  .898E+01
  .215E+02  .124E+02  .124E+02  .131E+02  .132E+02  .184E+02  .133E+02  .120E+02
  .121E+02  .123E+02  .116E+02  .117E+02  .914E+01  .920E+01  .920E+01  .920E+01
  .920E+01  .920E+01  .920E+01  .678E+01  .678E+01  .678E+01  .678E+01  .678E+01
  .678E+01  .678E+01  .678E+01  .678E+01  .678E+01  .670E+01  .907E+01  .907E+01
  .907E+01  .907E+01  .907E+01  .907E+01  .907E+01  .907E+01  .907E+01  .907E+01
  .907E+01  .907E+01  .907E+01  .000E+00  .000E+00  .000E+00  .000E+00  .000E+00
  .000E+00  .000E+00  .000E+00  .000E+00
/&   ----------  End of spectral data for channel  1  ----------
Response and Fourier amplitude spectra (91 periods,  .04 - 15.0 sec)   for      
Corrected accelerogram   24981-L1374-01253.06       Chan  2:   0 Deg     from   
Uncorrected Accelerogram Data             Processed: 09/10/01, CDMG  bo006      
Record of Sun Sep  9, 2001 16:59:17 PDT               (Avol1 v4.6  7/01 CSMIP)  
CSMIP Preliminary Processing            (Origin:  To be determined)             
24981-L1374-01253.06                 Start time:  9/09/01, 23:59:17.0 UTC (GPS) 
Station No. 24981   34.168N, 118.379W      Etna  s/n 1374  (3 Channels)         
(LADOT 4)                                                                       
Chan  2:   0 Deg                                                                
Record of Sun Sep  9, 2001 16:59:17 PDT    Sun Sep  9, 2001 16:59:17 PDT        
Hypocenter:  To be determined.               ML:  To be determined.             
Instr Period =  .0103 sec,  Damping =  .660,  Sensitivity =  .63  v/g           
                        Record length = 43.000 sec.                             
                                     Uncor Max  =   .029 g, at   4.330 sec.     
RMS accel of (uncor) record  =        .                                         
Accelerogram bandpass filtered with 3 dB pts at   .30 and 40.00 cyc/sec         
                 instrument- and baseline-corrected                             
                                                                                
                                                                                
                                                                                
                                                                                
                                                                                
Record of Sun Sep  9, 2001 16:59:17 PDT    Sun Sep  9, 2001 16:59:17 PDT        
                                                                                
24981-L1374-01253.06      (LADOT 4)   Chan  2:   0 Deg                          
                                                                                
24981-L1374-01253.06      (LADOT 4)   Chan  2:   0 Deg                          
                                                                                
Units for spectra are inches and sec, except Sa is in fraction of g.            
                                                                                
    2  100    2    3    3  200    1    3    1   24   12 1374    024981    1    0
   23   59   17    0  252    9    9 2001   10    3    0 8600   39    9   72 -999
 8600    1   50    3 1374    1    6  430    1    0    0    0    0    0    0    0
    0    4    0    0 4300    2    0    0    0    0   72    9    0    0    0 4300
    0 4300   10   91    1    3    0    0    0    0    3    0    0    0    0    2
    2    2    4    0   32   99 -999   32   32    0    0    1    0    0    0    0
  -99   -1    0    0
      .010      .660    43.000      .003      .000   625.000      .029     4.330
    97.300      .298      .477      .000     5.000      .000      .000      .000
     2.500   -47.910     -.014     -.048     5.000    30.000      .000      .001
      .000     -.001     2.000    15.000    34.168  -118.379      .049      .204
     4.198     -.012      .011  -999.000      .000      .000   -13.400      .000
  1000.000     1.001      .000      .000      .000      .000      .000      .000
     4.600     4.400      .000   980.665      .010    43.000    15.486      .000
      .000    40.000      .000    43.000      .010      .300      .000      .000
     4.330    28.451     5.430      .530     9.340      .025      .000      .300
    40.000      .010      .010      .000      .010      .016      .000      .000
      .095      .040      .032      .029      .002      .000      .000      .000
      .000      .000      .000      .000      .000      .000      .000      .000
      .000      .000      .000      .000
      .050
      .040      .042      .044      .046      .048      .050      .055      .060
      .065      .070      .075      .080      .085      .090      .095      .100
      .110      .120      .130      .140      .150      .160      .170      .180
      .190      .200      .220      .240      .260      .280      .300      .320
      .340      .360      .380      .400      .420      .440      .460      .480
      .500      .550      .600      .650      .700      .750      .800      .850
      .900      .950     1.000     1.100     1.200     1.300     1.400     1.500
     1.600     1.700     1.800     1.900     2.000     2.200     2.400     2.600
     2.800     3.000     3.200     3.400     3.600     3.800     4.000     4.200
     4.400     4.600     4.800     5.000     5.500     6.000     6.500     7.000
     7.500     8.000     8.500     9.000     9.500    10.000    11.000    12.000
    13.000    14.000    15.000      .000      .000      .000      .000      .000
      .000      .000      .000      .000
Fourier amplitude spectra in in/sec.
  .000E+00  .000E+00  .000E+00  .000E+00  .000E+00  .000E+00  .000E+00  .000E+00
  .000E+00  .000E+00  .000E+00  .000E+00  .000E+00  .000E+00  .000E+00  .000E+00
  .000E+00  .000E+00  .000E+00  .000E+00  .000E+00  .000E+00  .000E+00  .000E+00
  .000E+00  .000E+00  .000E+00  .000E+00  .000E+00  .000E+00  .000E+00  .000E+00
  .000E+00  .000E+00  .000E+00  .000E+00  .000E+00  .000E+00  .000E+00  .000E+00
  .000E+00  .000E+00  .000E+00  .000E+00  .000E+00  .000E+00  .000E+00  .000E+00
  .000E+00  .000E+00  .000E+00  .000E+00  .000E+00  .000E+00  .000E+00  .000E+00
  .000E+00  .000E+00  .000E+00  .000E+00  .000E+00  .000E+00  .000E+00  .000E+00
  .000E+00  .000E+00  .000E+00  .000E+00  .000E+00  .000E+00  .000E+00  .000E+00
  .000E+00  .000E+00  .000E+00  .000E+00  .000E+00  .000E+00  .000E+00  .000E+00
  .000E+00  .000E+00  .000E+00  .000E+00  .000E+00  .000E+00  .000E+00  .000E+00
  .000E+00  .000E+00  .000E+00  .000E+00  .000E+00  .000E+00  .000E+00  .000E+00
  .000E+00  .000E+00  .000E+00  .000E+00
Damping =  .05. Data of Sd,Sv,Sa,Pssv,ttSd,ttSv,ttSa :
  .150E-02  .144E-02  .174E-02  .166E-02  .178E-02  .215E-02  .187E-02  .281E-02
  .314E-02  .275E-02  .316E-02  .397E-02  .399E-02  .487E-02  .660E-02  .879E-02
  .626E-02  .902E-02  .928E-02  .979E-02  .112E-01  .117E-01  .109E-01  .102E-01
  .115E-01  .134E-01  .130E-01  .175E-01  .228E-01  .241E-01  .258E-01  .249E-01
  .229E-01  .208E-01  .214E-01  .207E-01  .182E-01  .170E-01  .137E-01  .133E-01
