Response and Fourier amplitude spectra (91 periods,  .04 - 15.0 sec)   for      
Corrected accelerogram   24723-M0130-01253.01       Chan  1:  Up         from   
Uncorrected Accelerogram Data             Processed: 09/10/01, CDMG  td001      
Record of Sun Sep  9, 2001 16:59:20 PDT               (Avol1 v4.6  7/01 CSMIP)  
CSMIP Preliminary Processing            (Origin:  To be determined)             
24723-M0130-01253.01                 Start time:  9/09/01, 23:59:20.0 UTC (GPS) 
Station No. 24723   34.049N, 118.176W    MtWtny  s/n  130 (15 Channels)         
Los Angeles - 2-story County EOC Bldg                                           
Chan  1:  Up                        Location: Foundatn: SE Crnr (below isolator)
Record of Sun Sep  9, 2001 16:59:20 PDT    Sun Sep  9, 2001 16:59:20 PDT        
Hypocenter:  To be determined.               ML:  To be determined.
Instr Period =  .0200 sec,  Damping =  .700,  Sensitivity =  .63  v/g
                        Record length = 44.000 sec.
                                     Uncor Max  =   .009 g, at   6.180 sec.
RMS accel of (uncor) record  =        .
Accelerogram bandpass filtered with 3 dB pts at   .30 and 40.00 cyc/sec
                 instrument- and baseline-corrected





Record of Sun Sep  9, 2001 16:59:20 PDT    Sun Sep  9, 2001 16:59:20 PDT

24723-M0130-01253.01      Los Angeles - 2-story County EOC Bldg   Chan  1:  Up

24723-M0130-01253.01      Los Angeles - 2-story County EOC Bldg   Chan  1:  Up

Units for spectra are inches and sec, except Sa is in fraction of g.

    1  100    1   15   15  200    1    3    1   24   13  130    024723    2    0
   23   59   20    0  252    9    9 2001   10    3  500 8800   39   37   72   14
 8800    1   50    3  130    1    1  440    1    0    0    0    0    0    0    0
    0    4    0    0 4400    2    0    0    0    0   72   37    0    0    0 4400
    0 4400   38   91    1   15    0    0    0    0   15    0    0    0    0    2
    2    2    4    0   71   99    0   32   32    0    0    1    0    0    0    0
  -99   -1    0    0
      .020      .700    44.000      .001      .000   625.000      .009     6.180
    50.000      .298      .477      .000     5.000      .000      .000      .000
     2.500   -36.000     -.018     -.028     5.000    30.000      .000     -.006
      .002      .008     2.000    15.000    34.049  -118.176      .012      .136
    11.023      .002      .015  -999.000      .000      .000   -13.100      .000
  1000.000     1.011      .000      .000      .000      .000      .000      .000
     4.600     4.400      .000   980.665      .010    44.000     7.958      .000
      .000    40.000      .000    44.000      .010      .300      .000      .000
     6.170     8.441     6.140     -.268    10.210     -.011      .000      .300
    40.000      .010      .010      .000      .010      .009      .000      .000
      .029      .170      .026      .009      .001      .000      .000      .000
      .000      .000      .000      .000      .000      .000      .000      .000
      .000      .000      .000      .000
      .050
      .040      .042      .044      .046      .048      .050      .055      .060
      .065      .070      .075      .080      .085      .090      .095      .100
      .110      .120      .130      .140      .150      .160      .170      .180
      .190      .200      .220      .240      .260      .280      .300      .320
      .340      .360      .380      .400      .420      .440      .460      .480
      .500      .550      .600      .650      .700      .750      .800      .850
      .900      .950     1.000     1.100     1.200     1.300     1.400     1.500
     1.600     1.700     1.800     1.900     2.000     2.200     2.400     2.600
     2.800     3.000     3.200     3.400     3.600     3.800     4.000     4.200
     4.400     4.600     4.800     5.000     5.500     6.000     6.500     7.000
     7.500     8.000     8.500     9.000     9.500    10.000    11.000    12.000
    13.000    14.000    15.000      .000      .000      .000      .000      .000
      .000      .000      .000      .000
Fourier amplitude spectra in in/sec.
  .000E+00  .000E+00  .000E+00  .000E+00  .000E+00  .000E+00  .000E+00  .000E+00
  .000E+00  .000E+00  .000E+00  .000E+00  .000E+00  .000E+00  .000E+00  .000E+00
  .000E+00  .000E+00  .000E+00  .000E+00  .000E+00  .000E+00  .000E+00  .000E+00
  .000E+00  .000E+00  .000E+00  .000E+00  .000E+00  .000E+00  .000E+00  .000E+00
  .000E+00  .000E+00  .000E+00  .000E+00  .000E+00  .000E+00  .000E+00  .000E+00
  .000E+00  .000E+00  .000E+00  .000E+00  .000E+00  .000E+00  .000E+00  .000E+00
  .000E+00  .000E+00  .000E+00  .000E+00  .000E+00  .000E+00  .000E+00  .000E+00
  .000E+00  .000E+00  .000E+00  .000E+00  .000E+00  .000E+00  .000E+00  .000E+00
  .000E+00  .000E+00  .000E+00  .000E+00  .000E+00  .000E+00  .000E+00  .000E+00
  .000E+00  .000E+00  .000E+00  .000E+00  .000E+00  .000E+00  .000E+00  .000E+00
  .000E+00  .000E+00  .000E+00  .000E+00  .000E+00  .000E+00  .000E+00  .000E+00
  .000E+00  .000E+00  .000E+00  .000E+00  .000E+00  .000E+00  .000E+00  .000E+00
  .000E+00  .000E+00  .000E+00  .000E+00
Damping =  .05. Data of Sd,Sv,Sa,Pssv,ttSd,ttSv,ttSa :
  .157E-03  .188E-03  .213E-03  .247E-03  .270E-03  .293E-03  .487E-03  .563E-03
  .740E-03  .845E-03  .957E-03  .112E-02  .141E-02  .173E-02  .206E-02  .202E-02
  .178E-02  .235E-02  .315E-02  .389E-02  .512E-02  .660E-02  .816E-02  .878E-02
  .983E-02  .106E-01  .105E-01  .942E-02  .687E-02  .693E-02  .849E-02  .918E-02
  .109E-01  .103E-01  .891E-02  .933E-02  .102E-01  .126E-01  .128E-01  .113E-01
  .110E-01  .106E-01  .104E-01  .995E-02  .123E-01  .128E-01  .121E-01  .105E-01
  .111E-01  .114E-01  .109E-01  .138E-01  .149E-01  .114E-01  .104E-01  .104E-01
  .103E-01  .893E-02  .849E-02  .891E-02  .965E-02  .112E-01  .956E-02  .773E-02
  .742E-02  .755E-02  .760E-02  .830E-02  .811E-02  .780E-02  .768E-02  .738E-02
  .701E-02  .665E-02  .634E-02  .609E-02  .573E-02  .556E-02  .544E-02  .532E-02
  .519E-02  .508E-02  .498E-02  .490E-02  .485E-02  .482E-02  .479E-02  .480E-02
  .481E-02  .482E-02  .484E-02  .000E+00  .000E+00  .000E+00  .000E+00  .000E+00
  .000E+00  .000E+00  .000E+00  .000E+00
  .944E-02  .117E-01  .126E-01  .146E-01  .205E-01  .273E-01  .372E-01  .429E-01
  .601E-01  .647E-01  .576E-01  .806E-01  .955E-01  .109E+00  .129E+00  .117E+00
  .103E+00  .122E+00  .133E+00  .136E+00  .196E+00  .228E+00  .294E+00  .320E+00
  .330E+00  .326E+00  .302E+00  .283E+00  .214E+00  .199E+00  .247E+00  .242E+00
  .238E+00  .214E+00  .179E+00  .178E+00  .182E+00  .198E+00  .186E+00  .162E+00
  .151E+00  .159E+00  .148E+00  .124E+00  .132E+00  .124E+00  .122E+00  .125E+00
  .124E+00  .121E+00  .120E+00  .123E+00  .119E+00  .114E+00  .110E+00  .108E+00
  .106E+00  .104E+00  .103E+00  .102E+00  .103E+00  .104E+00  .105E+00  .106E+00
  .106E+00  .106E+00  .107E+00  .107E+00  .107E+00  .107E+00  .107E+00  .107E+00
  .107E+00  .107E+00  .107E+00  .107E+00  .106E+00  .106E+00  .106E+00  .106E+00
  .106E+00  .106E+00  .106E+00  .105E+00  .105E+00  .105E+00  .105E+00  .105E+00
  .105E+00  .105E+00  .105E+00  .000E+00  .000E+00  .000E+00  .000E+00  .000E+00
  .000E+00  .000E+00  .000E+00  .000E+00
  .100E-01  .109E-01  .113E-01  .120E-01  .120E-01  .119E-01  .165E-01  .162E-01
  .179E-01  .176E-01  .174E-01  .181E-01  .201E-01  .218E-01  .236E-01  .206E-01
  .151E-01  .170E-01  .193E-01  .202E-01  .236E-01  .265E-01  .290E-01  .279E-01
  .277E-01  .273E-01  .223E-01  .169E-01  .105E-01  .912E-02  .977E-02  .918E-02
  .966E-02  .816E-02  .636E-02  .598E-02  .593E-02  .670E-02  .623E-02  .504E-02
  .452E-02  .359E-02  .298E-02  .244E-02  .258E-02  .234E-02  .194E-02  .150E-02
  .141E-02  .130E-02  .113E-02  .118E-02  .107E-02  .690E-03  .553E-03  .486E-03
  .422E-03  .327E-03  .278E-03  .263E-03  .257E-03  .244E-03  .179E-03  .126E-03
  .105E-03  .941E-04  .846E-04  .832E-04  .739E-04  .650E-04  .593E-04  .547E-04
  .507E-04  .472E-04  .441E-04  .415E-04  .363E-04  .325E-04  .295E-04  .271E-04
  .251E-04  .233E-04  .218E-04  .205E-04  .193E-04  .183E-04  .164E-04  .149E-04
  .137E-04  .127E-04  .118E-04  .000E+00  .000E+00  .000E+00  .000E+00  .000E+00
  .000E+00  .000E+00  .000E+00  .000E+00
  .246E-01  .282E-01  .304E-01  .337E-01  .353E-01  .368E-01  .556E-01  .590E-01
  .716E-01  .759E-01  .801E-01  .882E-01  .104E+00  .121E+00  .136E+00  .127E+00
  .102E+00  .123E+00  .152E+00  .175E+00  .214E+00  .259E+00  .302E+00  .306E+00
  .325E+00  .333E+00  .300E+00  .246E+00  .166E+00  .155E+00  .178E+00  .180E+00
  .201E+00  .180E+00  .147E+00  .147E+00  .152E+00  .180E+00  .175E+00  .147E+00
  .138E+00  .121E+00  .109E+00  .962E-01  .110E+00  .107E+00  .947E-01  .776E-01
  .776E-01  .756E-01  .686E-01  .789E-01  .779E-01  .550E-01  .465E-01  .437E-01
  .403E-01  .330E-01  .296E-01  .295E-01  .303E-01  .320E-01  .250E-01  .187E-01
  .166E-01  .158E-01  .149E-01  .153E-01  .142E-01  .129E-01  .121E-01  .110E-01
  .100E-01  .908E-02  .829E-02  .766E-02  .655E-02  .582E-02  .526E-02  .477E-02
  .435E-02  .399E-02  .368E-02  .342E-02  .321E-02  .303E-02  .274E-02  .251E-02
  .232E-02  .216E-02  .203E-02  .000E+00  .000E+00  .000E+00  .000E+00  .000E+00
  .000E+00  .000E+00  .000E+00  .000E+00
  .617E+01  .617E+01  .617E+01  .617E+01  .618E+01  .634E+01  .635E+01  .636E+01
  .636E+01  .617E+01  .618E+01  .648E+01  .747E+01  .636E+01  .637E+01  .296E+01
  .748E+01  .708E+01  .749E+01  .619E+01  .637E+01  .638E+01  .639E+01  .640E+01
  .661E+01  .662E+01  .765E+01  .635E+01  .636E+01  .636E+01  .625E+01  .626E+01
  .627E+01  .628E+01  .134E+02  .187E+02  .196E+02  .112E+02  .115E+02  .115E+02
  .109E+02  .104E+02  .846E+01  .849E+01  .178E+02  .138E+02  .176E+02  .169E+02
  .162E+02  .158E+02  .136E+02  .132E+02  .128E+02  .106E+02  .102E+02  .102E+02
  .151E+02  .102E+02  .102E+02  .102E+02  .102E+02  .125E+02  .125E+02  .125E+02
  .125E+02  .125E+02  .146E+02  .133E+02  .133E+02  .102E+02  .102E+02  .102E+02
  .102E+02  .102E+02  .102E+02  .102E+02  .102E+02  .102E+02  .102E+02  .102E+02
  .102E+02  .102E+02  .102E+02  .102E+02  .102E+02  .102E+02  .102E+02  .102E+02
  .102E+02  .102E+02  .102E+02  .000E+00  .000E+00  .000E+00  .000E+00  .000E+00
  .000E+00  .000E+00  .000E+00  .000E+00
  .615E+01  .358E+01  .632E+01  .632E+01  .632E+01  .632E+01  .634E+01  .638E+01
  .644E+01  .645E+01  .661E+01  .666E+01  .667E+01  .639E+01  .639E+01  .298E+01
  .668E+01  .704E+01  .746E+01  .623E+01  .641E+01  .642E+01  .635E+01  .636E+01
  .665E+01  .658E+01  .660E+01  .631E+01  .631E+01  .631E+01  .632E+01  .632E+01
  .632E+01  .622E+01  .622E+01  .622E+01  .623E+01  .115E+02  .129E+02  .109E+02
  .105E+02  .623E+01  .101E+02  .623E+01  .613E+01  .613E+01  .613E+01  .613E+01
  .613E+01  .613E+01  .613E+01  .613E+01  .613E+01  .613E+01  .613E+01  .613E+01
  .613E+01  .613E+01  .613E+01  .613E+01  .613E+01  .613E+01  .613E+01  .613E+01
  .613E+01  .613E+01  .613E+01  .613E+01  .613E+01  .613E+01  .613E+01  .613E+01
  .613E+01  .613E+01  .613E+01  .613E+01  .613E+01  .613E+01  .613E+01  .613E+01
  .613E+01  .613E+01  .613E+01  .613E+01  .613E+01  .613E+01  .613E+01  .613E+01
  .613E+01  .613E+01  .613E+01  .000E+00  .000E+00  .000E+00  .000E+00  .000E+00
  .000E+00  .000E+00  .000E+00  .000E+00
  .617E+01  .617E+01  .617E+01  .617E+01  .618E+01  .634E+01  .635E+01  .636E+01
  .636E+01  .617E+01  .618E+01  .668E+01  .747E+01  .636E+01  .637E+01  .296E+01
  .670E+01  .707E+01  .749E+01  .619E+01  .637E+01  .638E+01  .639E+01  .640E+01
  .661E+01  .662E+01  .765E+01  .635E+01  .635E+01  .635E+01  .625E+01  .626E+01
  .626E+01  .628E+01  .134E+02  .187E+02  .196E+02  .112E+02  .115E+02  .115E+02
  .108E+02  .104E+02  .845E+01  .848E+01  .178E+02  .138E+02  .176E+02  .169E+02
  .162E+02  .158E+02  .135E+02  .132E+02  .127E+02  .106E+02  .101E+02  .102E+02
  .150E+02  .102E+02  .102E+02  .102E+02  .102E+02  .125E+02  .150E+02  .125E+02
  .125E+02  .125E+02  .615E+01  .132E+02  .132E+02  .101E+02  .614E+01  .614E+01
  .614E+01  .614E+01  .614E+01  .614E+01  .614E+01  .614E+01  .614E+01  .614E+01
  .614E+01  .614E+01  .614E+01  .614E+01  .614E+01  .614E+01  .614E+01  .614E+01
  .614E+01  .613E+01  .613E+01  .000E+00  .000E+00  .000E+00  .000E+00  .000E+00
  .000E+00  .000E+00  .000E+00  .000E+00
/&   ----------  End of spectral data for channel  1  ----------
