Response and Fourier amplitude spectra (91 periods,  .04 - 15.0 sec)   for      
Corrected accelerogram   24605-E0774-01252.02       Chan  3:  90 Deg     from   
Uncorrected Accelerogram Data             Processed: 09/10/01, CDMG  s605e02    
Earthquake of Sun Sep  9, 2001  16:59 PDT             (Avol1 v4.6  7/01 CSMIP)  
CSMIP Preliminary Processing            (Origin:  To be determined)             
24605-E0774-01252.02                 Start time:  9/09/01, 23:59 GMT (*LoQ*)    
Station No. 24605   34.062N, 118.198W     SSA-1  s/n  774  (4 Channels)         
Los Angeles - 7-story Univ. Hospital                                            
Chan  3:  90 Deg  (Sta Chn: 27)     Location: Freefield: Southeast of building  
Earthquake of Sun Sep  9, 2001  16:59 PDT    Sun Sep  9, 2001  16:59 PDT        
Hypocenter:  To be determined.               ML:  To be determined.
Instr Period =  .0222 sec,  Damping =  .700,  Sensitivity = 1.25  v/g
                        Record length = 67.840 sec.
                                     Uncor Max  =   .016 g, at   5.245 sec.
RMS accel of (uncor) record  =        .
Accelerogram bandpass filtered with 3 dB pts at   .30 and 40.00 cyc/sec
                 instrument- and baseline-corrected





Earthquake of Sun Sep  9, 2001  16:59 PDT    Sun Sep  9, 2001  16:59 PDT

24605-E0774-01252.02      Los Angeles - 7-story Univ. Hospital    Chan  3:  90 D
eg
24605-E0774-01252.02      Los Angeles - 7-story Univ. Hospital    Chan  3:  90 D
eg
Units for spectra are inches and sec, except Sa is in fraction of g.

    3  100   27    4    4  200    1    3    1   12    5  774    024605    2    0
   23   59   32  100  252    9    9 2001    0    1   9013568   41   36   72    5
13568    1   50    0 2115    1    2   53    1   23   59   32  100    9    9 2001
    0    0    0    0 6784    2    0    0    0    0   72   36    0    0    0 6784
    0 6784   37   91    1    4    0    0    0    0   27    0    0    0    0    2
    2    2    4    1   72   99    7   32   32    0    0    0    0    0    8  128
  -99   -1    0    0
      .022      .700    67.840      .002      .000  1250.000      .016     5.245
    45.000  1220.703   976.563      .000     5.000      .000      .000      .000
     2.500    -8.242      .006     -.031     5.120    30.000      .000     -.134
     -.056      .078     2.000    15.000    34.062  -118.198      .449      .477
     1.063      .016      .140  -999.000      .000      .000      .000      .000
     1.568     1.170      .000      .000      .000      .000      .000      .000
     4.600     4.400      .000   980.665      .010    67.840     7.162      .000
      .000    40.000      .000    67.840      .010      .300      .000      .000
     5.240    15.612     5.200     -.597     5.250     -.045     -.002      .300
    40.000      .010      .010     -.001      .010      .023      .000      .000
      .055      .200      .052      .026      .002      .000      .000      .000
      .000      .000      .000      .000      .000      .000      .000      .000
      .000      .000      .000      .000
      .050
      .040      .042      .044      .046      .048      .050      .055      .060
      .065      .070      .075      .080      .085      .090      .095      .100
      .110      .120      .130      .140      .150      .160      .170      .180
      .190      .200      .220      .240      .260      .280      .300      .320
      .340      .360      .380      .400      .420      .440      .460      .480
      .500      .550      .600      .650      .700      .750      .800      .850
      .900      .950     1.000     1.100     1.200     1.300     1.400     1.500
     1.600     1.700     1.800     1.900     2.000     2.200     2.400     2.600
     2.800     3.000     3.200     3.400     3.600     3.800     4.000     4.200
     4.400     4.600     4.800     5.000     5.500     6.000     6.500     7.000
     7.500     8.000     8.500     9.000     9.500    10.000    11.000    12.000
    13.000    14.000    15.000      .000      .000      .000      .000      .000
      .000      .000      .000      .000
Fourier amplitude spectra in in/sec.
  .000E+00  .000E+00  .000E+00  .000E+00  .000E+00  .000E+00  .000E+00  .000E+00
  .000E+00  .000E+00  .000E+00  .000E+00  .000E+00  .000E+00  .000E+00  .000E+00
  .000E+00  .000E+00  .000E+00  .000E+00  .000E+00  .000E+00  .000E+00  .000E+00
  .000E+00  .000E+00  .000E+00  .000E+00  .000E+00  .000E+00  .000E+00  .000E+00
  .000E+00  .000E+00  .000E+00  .000E+00  .000E+00  .000E+00  .000E+00  .000E+00
  .000E+00  .000E+00  .000E+00  .000E+00  .000E+00  .000E+00  .000E+00  .000E+00
  .000E+00  .000E+00  .000E+00  .000E+00  .000E+00  .000E+00  .000E+00  .000E+00
  .000E+00  .000E+00  .000E+00  .000E+00  .000E+00  .000E+00  .000E+00  .000E+00
  .000E+00  .000E+00  .000E+00  .000E+00  .000E+00  .000E+00  .000E+00  .000E+00
  .000E+00  .000E+00  .000E+00  .000E+00  .000E+00  .000E+00  .000E+00  .000E+00
  .000E+00  .000E+00  .000E+00  .000E+00  .000E+00  .000E+00  .000E+00  .000E+00
  .000E+00  .000E+00  .000E+00  .000E+00  .000E+00  .000E+00  .000E+00  .000E+00
  .000E+00  .000E+00  .000E+00  .000E+00
Damping =  .05. Data of Sd,Sv,Sa,Pssv,ttSd,ttSv,ttSa :
  .420E-03  .539E-03  .665E-03  .762E-03  .877E-03  .120E-02  .144E-02  .154E-02
  .167E-02  .201E-02  .221E-02  .233E-02  .241E-02  .249E-02  .316E-02  .317E-02
  .365E-02  .425E-02  .518E-02  .646E-02  .806E-02  .103E-01  .126E-01  .148E-01
  .180E-01  .214E-01  .230E-01  .230E-01  .216E-01  .221E-01  .225E-01  .236E-01
  .239E-01  .237E-01  .240E-01  .249E-01  .291E-01  .266E-01  .245E-01  .260E-01
  .292E-01  .389E-01  .337E-01  .318E-01  .308E-01  .294E-01  .289E-01  .277E-01
  .267E-01  .256E-01  .238E-01  .222E-01  .214E-01  .232E-01  .219E-01  .232E-01
  .235E-01  .223E-01  .202E-01  .178E-01  .160E-01  .178E-01  .183E-01  .219E-01
  .246E-01  .257E-01  .254E-01  .241E-01  .223E-01  .204E-01  .187E-01  .173E-01
  .162E-01  .154E-01  .149E-01  .146E-01  .146E-01  .152E-01  .160E-01  .169E-01
  .176E-01  .183E-01  .188E-01  .192E-01  .195E-01  .198E-01  .201E-01  .202E-01
  .203E-01  .203E-01  .203E-01  .000E+00  .000E+00  .000E+00  .000E+00  .000E+00
  .000E+00  .000E+00  .000E+00  .000E+00
  .516E-01  .623E-01  .710E-01  .753E-01  .861E-01  .119E+00  .148E+00  .157E+00
  .135E+00  .152E+00  .160E+00  .160E+00  .156E+00  .171E+00  .204E+00  .172E+00
  .187E+00  .197E+00  .235E+00  .256E+00  .286E+00  .368E+00  .455E+00  .516E+00
  .596E+00  .695E+00  .673E+00  .614E+00  .586E+00  .566E+00  .568E+00  .546E+00
  .503E+00  .452E+00  .438E+00  .442E+00  .479E+00  .437E+00  .427E+00  .415E+00
  .408E+00  .486E+00  .406E+00  .364E+00  .347E+00  .341E+00  .329E+00  .315E+00
  .312E+00  .312E+00  .309E+00  .292E+00  .278E+00  .273E+00  .267E+00  .258E+00
  .245E+00  .242E+00  .244E+00  .242E+00  .237E+00  .233E+00  .239E+00  .238E+00
  .232E+00  .232E+00  .238E+00  .241E+00  .243E+00  .243E+00  .242E+00  .241E+00
  .240E+00  .238E+00  .237E+00  .236E+00  .233E+00  .232E+00  .231E+00  .231E+00
  .231E+00  .231E+00  .232E+00  .232E+00  .232E+00  .232E+00  .233E+00  .233E+00
  .233E+00  .234E+00  .234E+00  .000E+00  .000E+00  .000E+00  .000E+00  .000E+00
  .000E+00  .000E+00  .000E+00  .000E+00
  .270E-01  .317E-01  .356E-01  .371E-01  .389E-01  .489E-01  .491E-01  .442E-01
  .401E-01  .419E-01  .404E-01  .370E-01  .339E-01  .316E-01  .357E-01  .318E-01
  .314E-01  .304E-01  .319E-01  .337E-01  .366E-01  .411E-01  .442E-01  .469E-01
  .515E-01  .551E-01  .488E-01  .408E-01  .330E-01  .291E-01  .257E-01  .237E-01
  .214E-01  .188E-01  .172E-01  .160E-01  .170E-01  .141E-01  .119E-01  .116E-01
  .120E-01  .132E-01  .963E-02  .775E-02  .648E-02  .541E-02  .465E-02  .397E-02
  .343E-02  .293E-02  .245E-02  .189E-02  .152E-02  .141E-02  .122E-02  .114E-02
  .102E-02  .869E-03  .715E-03  .581E-03  .482E-03  .395E-03  .390E-03  .397E-03
  .387E-03  .357E-03  .318E-03  .276E-03  .238E-03  .205E-03  .178E-03  .156E-03
  .140E-03  .127E-03  .118E-03  .110E-03  .966E-04  .877E-04  .808E-04  .750E-04
  .699E-04  .653E-04  .611E-04  .572E-04  .538E-04  .506E-04  .451E-04  .405E-04
  .368E-04  .337E-04  .311E-04  .000E+00  .000E+00  .000E+00  .000E+00  .000E+00
  .000E+00  .000E+00  .000E+00  .000E+00
  .660E-01  .807E-01  .950E-01  .104E+00  .115E+00  .151E+00  .164E+00  .162E+00
  .161E+00  .181E+00  .185E+00  .183E+00  .178E+00  .174E+00  .209E+00  .199E+00
  .208E+00  .223E+00  .251E+00  .290E+00  .337E+00  .406E+00  .465E+00  .517E+00
  .596E+00  .671E+00  .656E+00  .601E+00  .523E+00  .496E+00  .471E+00  .463E+00
  .442E+00  .413E+00  .398E+00  .391E+00  .436E+00  .380E+00  .335E+00  .340E+00
  .367E+00  .444E+00  .353E+00  .307E+00  .277E+00  .246E+00  .227E+00  .205E+00
  .186E+00  .169E+00  .149E+00  .127E+00  .112E+00  .112E+00  .982E-01  .973E-01
  .922E-01  .825E-01  .704E-01  .589E-01  .503E-01  .507E-01  .478E-01  .528E-01
  .552E-01  .539E-01  .498E-01  .445E-01  .389E-01  .338E-01  .294E-01  .259E-01
  .231E-01  .210E-01  .195E-01  .183E-01  .167E-01  .159E-01  .155E-01  .151E-01
  .148E-01  .143E-01  .139E-01  .134E-01  .129E-01  .124E-01  .115E-01  .106E-01
  .980E-02  .910E-02  .849E-02  .000E+00  .000E+00  .000E+00  .000E+00  .000E+00
  .000E+00  .000E+00  .000E+00  .000E+00
  .637E+01  .642E+01  .642E+01  .643E+01  .643E+01  .643E+01  .658E+01  .700E+01
  .553E+01  .554E+01  .555E+01  .555E+01  .555E+01  .630E+01  .632E+01  .632E+01
  .584E+01  .525E+01  .952E+01  .535E+01  .536E+01  .545E+01  .546E+01  .557E+01
  .587E+01  .589E+01  .551E+01  .553E+01  .543E+01  .544E+01  .532E+01  .533E+01
  .533E+01  .534E+01  .534E+01  .136E+02  .132E+02  .927E+01  .951E+01  .929E+01
  .930E+01  .910E+01  .104E+02  .104E+02  .865E+01  .585E+01  .587E+01  .588E+01
  .588E+01  .640E+01  .602E+01  .110E+02  .542E+02  .519E+02  .524E+01  .524E+01
  .524E+01  .524E+01  .524E+01  .524E+01  .524E+01  .372E+02  .574E+01  .524E+01
  .524E+01  .524E+01  .524E+01  .524E+01  .524E+01  .524E+01  .524E+01  .524E+01
  .524E+01  .524E+01  .524E+01  .524E+01  .524E+01  .524E+01  .524E+01  .524E+01
  .524E+01  .524E+01  .524E+01  .524E+01  .524E+01  .524E+01  .524E+01  .524E+01
  .524E+01  .524E+01  .524E+01  .000E+00  .000E+00  .000E+00  .000E+00  .000E+00
  .000E+00  .000E+00  .000E+00  .000E+00
  .636E+01  .639E+01  .641E+01  .642E+01  .642E+01  .641E+01  .659E+01  .702E+01
  .551E+01  .552E+01  .557E+01  .557E+01  .557E+01  .661E+01  .661E+01  .630E+01
  .587E+01  .760E+01  .949E+01  .792E+01  .540E+01  .541E+01  .542E+01  .543E+01
  .583E+01  .584E+01  .556E+01  .548E+01  .549E+01  .538E+01  .539E+01  .539E+01
  .540E+01  .540E+01  .528E+01  .528E+01  .133E+02  .529E+01  .529E+01  .529E+01
  .529E+01  .948E+01  .105E+02  .529E+01  .529E+01  .529E+01  .644E+01  .530E+01
  .530E+01  .530E+01  .530E+01  .530E+01  .530E+01  .530E+01  .530E+01  .530E+01
  .530E+01  .519E+01  .519E+01  .519E+01  .519E+01  .530E+01  .530E+01  .530E+01
  .530E+01  .519E+01  .519E+01  .519E+01  .519E+01  .519E+01  .519E+01  .519E+01
  .519E+01  .519E+01  .519E+01  .519E+01  .519E+01  .519E+01  .519E+01  .519E+01
  .519E+01  .519E+01  .519E+01  .519E+01  .519E+01  .519E+01  .519E+01  .519E+01
  .519E+01  .519E+01  .519E+01  .000E+00  .000E+00  .000E+00  .000E+00  .000E+00
  .000E+00  .000E+00  .000E+00  .000E+00
  .637E+01  .642E+01  .642E+01  .643E+01  .643E+01  .643E+01  .657E+01  .700E+01
  .553E+01  .554E+01  .555E+01  .555E+01  .555E+01  .630E+01  .631E+01  .632E+01
  .584E+01  .525E+01  .952E+01  .535E+01  .535E+01  .545E+01  .546E+01  .556E+01
  .587E+01  .589E+01  .551E+01  .553E+01  .542E+01  .543E+01  .532E+01  .532E+01
  .533E+01  .533E+01  .534E+01  .136E+02  .132E+02  .926E+01  .950E+01  .928E+01
  .929E+01  .909E+01  .103E+02  .104E+02  .864E+01  .583E+01  .586E+01  .587E+01
  .587E+01  .639E+01  .600E+01  .110E+02  .542E+02  .519E+02  .522E+01  .522E+01
  .522E+01  .522E+01  .522E+01  .522E+01  .522E+01  .521E+01  .521E+01  .521E+01
  .521E+01  .521E+01  .521E+01  .521E+01  .521E+01  .521E+01  .521E+01  .521E+01
  .520E+01  .520E+01  .520E+01  .520E+01  .520E+01  .520E+01  .520E+01  .520E+01
  .520E+01  .520E+01  .520E+01  .520E+01  .520E+01  .520E+01  .520E+01  .519E+01
  .519E+01  .519E+01  .519E+01  .000E+00  .000E+00  .000E+00  .000E+00  .000E+00
  .000E+00  .000E+00  .000E+00  .000E+00
/&   ----------  End of spectral data for channel  3  ----------
