Response and Fourier amplitude spectra (91 periods,  .04 - 15.0 sec)   for      
Corrected accelerogram   24723-M0130-01253.01       Chan  6: 270 Deg     from   
Uncorrected Accelerogram Data             Processed: 09/10/01, CDMG  td001      
Record of Sun Sep  9, 2001 16:59:20 PDT               (Avol1 v4.6  7/01 CSMIP)  
CSMIP Preliminary Processing            (Origin:  To be determined)             
24723-M0130-01253.01                 Start time:  9/09/01, 23:59:20.0 UTC (GPS) 
Station No. 24723   34.049N, 118.176W    MtWtny  s/n  130 (15 Channels)         
Los Angeles - 2-story County EOC Bldg                                           
Chan  6: 270 Deg                    Location: Foundation: N Wall(below isolator)
Record of Sun Sep  9, 2001 16:59:20 PDT    Sun Sep  9, 2001 16:59:20 PDT        
Hypocenter:  To be determined.               ML:  To be determined.
Instr Period =  .0200 sec,  Damping =  .700,  Sensitivity =  .63  v/g
                        Record length = 44.000 sec.
                                     Uncor Max  =  -.019 g, at   5.930 sec.
RMS accel of (uncor) record  =        .
Accelerogram bandpass filtered with 3 dB pts at   .30 and 40.00 cyc/sec
                 instrument- and baseline-corrected





Record of Sun Sep  9, 2001 16:59:20 PDT    Sun Sep  9, 2001 16:59:20 PDT

24723-M0130-01253.01      Los Angeles - 2-story County EOC Bldg   Chan  6: 270 D
eg
24723-M0130-01253.01      Los Angeles - 2-story County EOC Bldg   Chan  6: 270 D
eg
Units for spectra are inches and sec, except Sa is in fraction of g.

    6  100    6   15   15  200    1    3    1   24   13  130    024723    2    0
   23   59   20    0  252    9    9 2001   10    3  270 8800   39   37   72   14
 8800    1   50    3  130    1    1  440    1    0    0    0    0    0    0    0
    0    4    0    0 4400    2    0    0    0    0   72   37    0    0    0 4400
    0 4400   38   91    1   15    0    0    0    0   15    0    0    0    0    2
    2    2    4    0   71   99    0   32   32    0    0    1    0    0    0    0
  -99   -1    0    0
      .020      .700    44.000      .002      .000   625.000     -.019     5.930
    50.000      .298      .477      .000     5.000      .000      .000      .000
     2.500      .456      .012     -.008     5.000    30.000      .000      .000
      .002      .002     2.000    15.000    34.049  -118.176      .008      .255
    31.091     -.010      .014  -999.000      .000      .000   -13.100      .000
  1000.000     1.005      .000      .000      .000      .000      .000      .000
     4.600     4.400      .000   980.665      .010    44.000     7.958      .000
      .000    40.000      .000    44.000      .010      .300      .000      .000
     5.920   -18.884     5.870      .671     5.930      .053      .000      .300
    40.000      .010      .010      .000      .010      .020      .000      .000
      .062      .200      .059      .032      .003      .000      .000      .000
      .000      .000      .000      .000      .000      .000      .000      .000
      .000      .000      .000      .000
      .050
      .040      .042      .044      .046      .048      .050      .055      .060
      .065      .070      .075      .080      .085      .090      .095      .100
      .110      .120      .130      .140      .150      .160      .170      .180
      .190      .200      .220      .240      .260      .280      .300      .320
      .340      .360      .380      .400      .420      .440      .460      .480
      .500      .550      .600      .650      .700      .750      .800      .850
      .900      .950     1.000     1.100     1.200     1.300     1.400     1.500
     1.600     1.700     1.800     1.900     2.000     2.200     2.400     2.600
     2.800     3.000     3.200     3.400     3.600     3.800     4.000     4.200
     4.400     4.600     4.800     5.000     5.500     6.000     6.500     7.000
     7.500     8.000     8.500     9.000     9.500    10.000    11.000    12.000
    13.000    14.000    15.000      .000      .000      .000      .000      .000
      .000      .000      .000      .000
Fourier amplitude spectra in in/sec.
  .000E+00  .000E+00  .000E+00  .000E+00  .000E+00  .000E+00  .000E+00  .000E+00
  .000E+00  .000E+00  .000E+00  .000E+00  .000E+00  .000E+00  .000E+00  .000E+00
  .000E+00  .000E+00  .000E+00  .000E+00  .000E+00  .000E+00  .000E+00  .000E+00
  .000E+00  .000E+00  .000E+00  .000E+00  .000E+00  .000E+00  .000E+00  .000E+00
  .000E+00  .000E+00  .000E+00  .000E+00  .000E+00  .000E+00  .000E+00  .000E+00
  .000E+00  .000E+00  .000E+00  .000E+00  .000E+00  .000E+00  .000E+00  .000E+00
  .000E+00  .000E+00  .000E+00  .000E+00  .000E+00  .000E+00  .000E+00  .000E+00
  .000E+00  .000E+00  .000E+00  .000E+00  .000E+00  .000E+00  .000E+00  .000E+00
  .000E+00  .000E+00  .000E+00  .000E+00  .000E+00  .000E+00  .000E+00  .000E+00
  .000E+00  .000E+00  .000E+00  .000E+00  .000E+00  .000E+00  .000E+00  .000E+00
  .000E+00  .000E+00  .000E+00  .000E+00  .000E+00  .000E+00  .000E+00  .000E+00
  .000E+00  .000E+00  .000E+00  .000E+00  .000E+00  .000E+00  .000E+00  .000E+00
  .000E+00  .000E+00  .000E+00  .000E+00
Damping =  .05. Data of Sd,Sv,Sa,Pssv,ttSd,ttSv,ttSa :
  .325E-03  .370E-03  .406E-03  .442E-03  .497E-03  .556E-03  .685E-03  .839E-03
  .106E-02  .150E-02  .214E-02  .261E-02  .271E-02  .293E-02  .294E-02  .316E-02
  .443E-02  .611E-02  .642E-02  .651E-02  .779E-02  .105E-01  .141E-01  .177E-01
  .210E-01  .241E-01  .258E-01  .246E-01  .250E-01  .266E-01  .269E-01  .302E-01
  .313E-01  .295E-01  .305E-01  .350E-01  .449E-01  .488E-01  .475E-01  .390E-01
  .381E-01  .387E-01  .387E-01  .409E-01  .434E-01  .427E-01  .385E-01  .335E-01
  .314E-01  .312E-01  .303E-01  .288E-01  .290E-01  .269E-01  .255E-01  .241E-01
  .234E-01  .234E-01  .233E-01  .232E-01  .231E-01  .228E-01  .225E-01  .222E-01
  .219E-01  .217E-01  .214E-01  .212E-01  .211E-01  .209E-01  .208E-01  .207E-01
  .206E-01  .206E-01  .205E-01  .205E-01  .204E-01  .204E-01  .204E-01  .204E-01
  .204E-01  .204E-01  .204E-01  .204E-01  .204E-01  .204E-01  .204E-01  .204E-01
  .204E-01  .204E-01  .204E-01  .000E+00  .000E+00  .000E+00  .000E+00  .000E+00
  .000E+00  .000E+00  .000E+00  .000E+00
  .158E-01  .178E-01  .211E-01  .264E-01  .285E-01  .304E-01  .415E-01  .565E-01
  .824E-01  .115E+00  .148E+00  .182E+00  .180E+00  .184E+00  .180E+00  .179E+00
  .231E+00  .299E+00  .295E+00  .285E+00  .258E+00  .349E+00  .471E+00  .602E+00
  .688E+00  .792E+00  .743E+00  .712E+00  .645E+00  .665E+00  .608E+00  .575E+00
  .577E+00  .519E+00  .516E+00  .575E+00  .695E+00  .742E+00  .682E+00  .564E+00
  .540E+00  .487E+00  .493E+00  .476E+00  .431E+00  .396E+00  .392E+00  .377E+00
  .345E+00  .335E+00  .327E+00  .314E+00  .306E+00  .297E+00  .289E+00  .282E+00
  .275E+00  .270E+00  .265E+00  .264E+00  .264E+00  .265E+00  .265E+00  .265E+00
  .265E+00  .265E+00  .265E+00  .265E+00  .264E+00  .264E+00  .264E+00  .264E+00
  .264E+00  .263E+00  .263E+00  .263E+00  .263E+00  .263E+00  .263E+00  .263E+00
  .263E+00  .263E+00  .263E+00  .263E+00  .263E+00  .263E+00  .263E+00  .263E+00
  .263E+00  .263E+00  .263E+00  .000E+00  .000E+00  .000E+00  .000E+00  .000E+00
  .000E+00  .000E+00  .000E+00  .000E+00
  .208E-01  .215E-01  .215E-01  .214E-01  .221E-01  .227E-01  .231E-01  .238E-01
  .259E-01  .318E-01  .386E-01  .424E-01  .387E-01  .370E-01  .337E-01  .321E-01
  .377E-01  .435E-01  .390E-01  .338E-01  .356E-01  .424E-01  .503E-01  .564E-01
  .602E-01  .615E-01  .545E-01  .440E-01  .378E-01  .349E-01  .307E-01  .302E-01
  .279E-01  .234E-01  .219E-01  .225E-01  .262E-01  .259E-01  .231E-01  .174E-01
  .157E-01  .132E-01  .111E-01  .994E-02  .915E-02  .785E-02  .620E-02  .483E-02
  .400E-02  .359E-02  .317E-02  .249E-02  .208E-02  .169E-02  .139E-02  .115E-02
  .102E-02  .913E-03  .819E-03  .741E-03  .673E-03  .563E-03  .479E-03  .414E-03
  .362E-03  .320E-03  .285E-03  .257E-03  .233E-03  .212E-03  .196E-03  .181E-03
  .169E-03  .158E-03  .148E-03  .140E-03  .122E-03  .108E-03  .964E-04  .872E-04
  .794E-04  .729E-04  .673E-04  .625E-04  .584E-04  .549E-04  .488E-04  .440E-04
  .400E-04  .366E-04  .338E-04  .000E+00  .000E+00  .000E+00  .000E+00  .000E+00
  .000E+00  .000E+00  .000E+00  .000E+00
  .511E-01  .553E-01  .580E-01  .604E-01  .651E-01  .699E-01  .782E-01  .878E-01
  .102E+00  .135E+00  .179E+00  .205E+00  .200E+00  .205E+00  .195E+00  .198E+00
  .253E+00  .320E+00  .310E+00  .292E+00  .326E+00  .413E+00  .520E+00  .616E+00
  .693E+00  .756E+00  .736E+00  .645E+00  .603E+00  .596E+00  .563E+00  .593E+00
  .578E+00  .515E+00  .504E+00  .550E+00  .672E+00  .697E+00  .649E+00  .511E+00
  .479E+00  .443E+00  .406E+00  .396E+00  .390E+00  .358E+00  .302E+00  .248E+00
  .220E+00  .206E+00  .190E+00  .165E+00  .152E+00  .130E+00  .115E+00  .101E+00
  .917E-01  .863E-01  .813E-01  .767E-01  .724E-01  .650E-01  .588E-01  .536E-01
  .491E-01  .454E-01  .421E-01  .392E-01  .368E-01  .346E-01  .327E-01  .310E-01
  .295E-01  .281E-01  .269E-01  .258E-01  .234E-01  .214E-01  .197E-01  .183E-01
  .171E-01  .160E-01  .151E-01  .143E-01  .135E-01  .128E-01  .117E-01  .107E-01
  .984E-02  .913E-02  .853E-02  .000E+00  .000E+00  .000E+00  .000E+00  .000E+00
  .000E+00  .000E+00  .000E+00  .000E+00
  .592E+01  .592E+01  .592E+01  .592E+01  .592E+01  .592E+01  .592E+01  .592E+01
  .614E+01  .618E+01  .661E+01  .663E+01  .663E+01  .663E+01  .663E+01  .663E+01
  .663E+01  .664E+01  .710E+01  .594E+01  .594E+01  .622E+01  .623E+01  .624E+01
  .655E+01  .647E+01  .629E+01  .610E+01  .611E+01  .612E+01  .601E+01  .975E+01
  .979E+01  .602E+01  .603E+01  .128E+02  .126E+02  .126E+02  .125E+02  .125E+02
  .125E+02  .635E+01  .733E+01  .677E+01  .680E+01  .719E+01  .686E+01  .651E+01
  .659E+01  .660E+01  .660E+01  .621E+01  .119E+02  .622E+01  .622E+01  .622E+01
  .592E+01  .592E+01  .592E+01  .592E+01  .592E+01  .592E+01  .592E+01  .592E+01
  .592E+01  .592E+01  .592E+01  .592E+01  .592E+01  .592E+01  .592E+01  .592E+01
  .592E+01  .592E+01  .592E+01  .592E+01  .592E+01  .592E+01  .592E+01  .592E+01
  .592E+01  .592E+01  .592E+01  .592E+01  .592E+01  .592E+01  .592E+01  .592E+01
  .592E+01  .592E+01  .592E+01  .000E+00  .000E+00  .000E+00  .000E+00  .000E+00
  .000E+00  .000E+00  .000E+00  .000E+00
  .663E+01  .639E+01  .660E+01  .663E+01  .663E+01  .663E+01  .716E+01  .615E+01
  .616E+01  .616E+01  .659E+01  .664E+01  .665E+01  .665E+01  .665E+01  .665E+01
  .666E+01  .661E+01  .662E+01  .662E+01  .607E+01  .618E+01  .628E+01  .657E+01
  .659E+01  .652E+01  .645E+01  .615E+01  .605E+01  .606E+01  .607E+01  .770E+01
  .971E+01  .609E+01  .129E+02  .129E+02  .127E+02  .125E+02  .126E+02  .124E+02
  .124E+02  .625E+01  .626E+01  .725E+01  .627E+01  .627E+01  .711E+01  .713E+01
  .599E+01  .599E+01  .599E+01  .599E+01  .599E+01  .599E+01  .599E+01  .599E+01
  .599E+01  .599E+01  .599E+01  .586E+01  .586E+01  .586E+01  .586E+01  .586E+01
  .586E+01  .586E+01  .586E+01  .586E+01  .586E+01  .586E+01  .586E+01  .586E+01
  .586E+01  .586E+01  .586E+01  .586E+01  .586E+01  .586E+01  .586E+01  .586E+01
  .586E+01  .586E+01  .586E+01  .586E+01  .586E+01  .586E+01  .586E+01  .586E+01
  .586E+01  .586E+01  .586E+01  .000E+00  .000E+00  .000E+00  .000E+00  .000E+00
  .000E+00  .000E+00  .000E+00  .000E+00
  .592E+01  .592E+01  .592E+01  .592E+01  .592E+01  .592E+01  .592E+01  .592E+01
  .614E+01  .618E+01  .661E+01  .662E+01  .663E+01  .663E+01  .663E+01  .663E+01
  .663E+01  .664E+01  .710E+01  .594E+01  .594E+01  .622E+01  .623E+01  .624E+01
  .625E+01  .626E+01  .639E+01  .609E+01  .611E+01  .612E+01  .600E+01  .975E+01
  .979E+01  .601E+01  .602E+01  .128E+02  .126E+02  .126E+02  .125E+02  .125E+02
  .125E+02  .634E+01  .732E+01  .676E+01  .715E+01  .718E+01  .684E+01  .650E+01
  .658E+01  .659E+01  .659E+01  .620E+01  .119E+02  .620E+01  .620E+01  .620E+01
  .590E+01  .590E+01  .590E+01  .589E+01  .589E+01  .589E+01  .589E+01  .589E+01
  .589E+01  .589E+01  .589E+01  .589E+01  .589E+01  .589E+01  .588E+01  .588E+01
  .588E+01  .588E+01  .588E+01  .588E+01  .588E+01  .588E+01  .588E+01  .588E+01
  .588E+01  .588E+01  .588E+01  .587E+01  .587E+01  .587E+01  .587E+01  .587E+01
  .587E+01  .587E+01  .587E+01  .000E+00  .000E+00  .000E+00  .000E+00  .000E+00
  .000E+00  .000E+00  .000E+00  .000E+00
/&   ----------  End of spectral data for channel  6  ----------
