Response and Fourier amplitude spectra (91 periods,  .04 - 15.0 sec)   for      
Corrected accelerogram   24723-M0130-01253.01       Chan 14: 270 Deg     from   
Uncorrected Accelerogram Data             Processed: 09/10/01, CDMG  td001      
Record of Sun Sep  9, 2001 16:59:20 PDT               (Avol1 v4.6  7/01 CSMIP)  
CSMIP Preliminary Processing            (Origin:  To be determined)             
24723-M0130-01253.01                 Start time:  9/09/01, 23:59:20.0 UTC (GPS) 
Station No. 24723   34.049N, 118.176W    MtWtny  s/n  130 (15 Channels)         
Los Angeles - 2-story County EOC Bldg                                           
Chan 14: 270 Deg                    Location: Roof: S Wall                      
Record of Sun Sep  9, 2001 16:59:20 PDT    Sun Sep  9, 2001 16:59:20 PDT        
Hypocenter:  To be determined.               ML:  To be determined.
Instr Period =  .0200 sec,  Damping =  .700,  Sensitivity =  .63  v/g
                        Record length = 44.000 sec.
                                     Uncor Max  =  -.016 g, at  12.310 sec.
RMS accel of (uncor) record  =        .
Accelerogram bandpass filtered with 3 dB pts at   .30 and 40.00 cyc/sec
                 instrument- and baseline-corrected





Record of Sun Sep  9, 2001 16:59:20 PDT    Sun Sep  9, 2001 16:59:20 PDT

24723-M0130-01253.01      Los Angeles - 2-story County EOC Bldg   Chan 14: 270 D
eg
24723-M0130-01253.01      Los Angeles - 2-story County EOC Bldg   Chan 14: 270 D
eg
Units for spectra are inches and sec, except Sa is in fraction of g.

   14  100   14   15   15  200    1    3    1   24   13  130    024723    2    0
   23   59   20    0  252    9    9 2001   10    3  270 8800   39   37   72   14
 8800    0   50    3  130    1    1  440    1    0    0    0    0    0    0    0
    0    4    0    0 4400    2    0    0    0    0   72   37    0    0    0 4400
    0 4400   38   91    1   15    0    0    0    0   15    0    0    0    0    2
    2    2    4    0   71   99    0   32   32    0    0    1    0    0    0    0
  -99   -1    0    0
      .020      .700    44.000      .003      .000   625.000     -.016    12.310
    50.000      .298      .477      .000     5.000      .000      .000      .000
     2.500     5.630      .013     -.006     5.000    30.000      .000      .005
     -.002     -.007     2.000    15.000    34.049  -118.176      .049      .538
    11.065     -.033      .019  -999.000      .000      .000   -13.100      .000
  1000.000     1.069      .000      .000      .000      .000      .000      .000
     4.600     4.400      .000   980.665      .010    44.000     7.958      .000
      .000    40.000      .000    44.000      .010      .300      .000      .000
    12.310   -15.472    12.200     1.152     6.380     -.115      .000      .300
    40.000      .010      .010      .000      .010      .053      .000      .000
      .070      .500      .025      .029      .009      .001      .000      .000
      .000      .000      .000      .000      .000      .000      .000      .000
      .000      .000      .000      .000
      .050
      .040      .042      .044      .046      .048      .050      .055      .060
      .065      .070      .075      .080      .085      .090      .095      .100
      .110      .120      .130      .140      .150      .160      .170      .180
      .190      .200      .220      .240      .260      .280      .300      .320
      .340      .360      .380      .400      .420      .440      .460      .480
      .500      .550      .600      .650      .700      .750      .800      .850
      .900      .950     1.000     1.100     1.200     1.300     1.400     1.500
     1.600     1.700     1.800     1.900     2.000     2.200     2.400     2.600
     2.800     3.000     3.200     3.400     3.600     3.800     4.000     4.200
     4.400     4.600     4.800     5.000     5.500     6.000     6.500     7.000
     7.500     8.000     8.500     9.000     9.500    10.000    11.000    12.000
    13.000    14.000    15.000      .000      .000      .000      .000      .000
      .000      .000      .000      .000
Fourier amplitude spectra in in/sec.
  .000E+00  .000E+00  .000E+00  .000E+00  .000E+00  .000E+00  .000E+00  .000E+00
  .000E+00  .000E+00  .000E+00  .000E+00  .000E+00  .000E+00  .000E+00  .000E+00
  .000E+00  .000E+00  .000E+00  .000E+00  .000E+00  .000E+00  .000E+00  .000E+00
  .000E+00  .000E+00  .000E+00  .000E+00  .000E+00  .000E+00  .000E+00  .000E+00
  .000E+00  .000E+00  .000E+00  .000E+00  .000E+00  .000E+00  .000E+00  .000E+00
  .000E+00  .000E+00  .000E+00  .000E+00  .000E+00  .000E+00  .000E+00  .000E+00
  .000E+00  .000E+00  .000E+00  .000E+00  .000E+00  .000E+00  .000E+00  .000E+00
  .000E+00  .000E+00  .000E+00  .000E+00  .000E+00  .000E+00  .000E+00  .000E+00
  .000E+00  .000E+00  .000E+00  .000E+00  .000E+00  .000E+00  .000E+00  .000E+00
  .000E+00  .000E+00  .000E+00  .000E+00  .000E+00  .000E+00  .000E+00  .000E+00
  .000E+00  .000E+00  .000E+00  .000E+00  .000E+00  .000E+00  .000E+00  .000E+00
  .000E+00  .000E+00  .000E+00  .000E+00  .000E+00  .000E+00  .000E+00  .000E+00
  .000E+00  .000E+00  .000E+00  .000E+00
Damping =  .05. Data of Sd,Sv,Sa,Pssv,ttSd,ttSv,ttSa :
  .253E-03  .279E-03  .304E-03  .328E-03  .362E-03  .396E-03  .489E-03  .576E-03
  .670E-03  .811E-03  .104E-02  .128E-02  .134E-02  .152E-02  .156E-02  .155E-02
  .210E-02  .250E-02  .311E-02  .381E-02  .461E-02  .562E-02  .611E-02  .707E-02
  .825E-02  .958E-02  .122E-01  .161E-01  .190E-01  .215E-01  .251E-01  .294E-01
  .372E-01  .514E-01  .554E-01  .829E-01  .109E+00  .126E+00  .130E+00  .126E+00
  .169E+00  .200E+00  .195E+00  .181E+00  .161E+00  .145E+00  .133E+00  .120E+00
  .106E+00  .960E-01  .914E-01  .826E-01  .746E-01  .672E-01  .614E-01  .594E-01
  .578E-01  .562E-01  .547E-01  .533E-01  .521E-01  .503E-01  .493E-01  .487E-01
  .484E-01  .481E-01  .478E-01  .476E-01  .474E-01  .473E-01  .472E-01  .472E-01
  .471E-01  .471E-01  .471E-01  .471E-01  .470E-01  .469E-01  .469E-01  .468E-01
  .467E-01  .466E-01  .465E-01  .464E-01  .464E-01  .463E-01  .463E-01  .462E-01
  .461E-01  .461E-01  .461E-01  .000E+00  .000E+00  .000E+00  .000E+00  .000E+00
  .000E+00  .000E+00  .000E+00  .000E+00
  .448E-02  .478E-02  .527E-02  .603E-02  .668E-02  .760E-02  .990E-02  .130E-01
  .156E-01  .268E-01  .269E-01  .360E-01  .348E-01  .394E-01  .430E-01  .390E-01
  .504E-01  .661E-01  .692E-01  .109E+00  .101E+00  .999E-01  .126E+00  .138E+00
  .154E+00  .172E+00  .224E+00  .293E+00  .330E+00  .355E+00  .410E+00  .437E+00
  .596E+00  .731E+00  .774E+00  .115E+01  .147E+01  .167E+01  .171E+01  .161E+01
  .208E+01  .235E+01  .217E+01  .184E+01  .163E+01  .140E+01  .119E+01  .109E+01
  .100E+01  .922E+00  .848E+00  .733E+00  .684E+00  .643E+00  .608E+00  .580E+00
  .559E+00  .541E+00  .527E+00  .516E+00  .508E+00  .496E+00  .489E+00  .484E+00
  .479E+00  .476E+00  .473E+00  .470E+00  .468E+00  .466E+00  .465E+00  .464E+00
  .463E+00  .462E+00  .461E+00  .460E+00  .458E+00  .457E+00  .457E+00  .456E+00
  .456E+00  .455E+00  .455E+00  .455E+00  .455E+00  .455E+00  .454E+00  .454E+00
  .454E+00  .454E+00  .454E+00  .000E+00  .000E+00  .000E+00  .000E+00  .000E+00
  .000E+00  .000E+00  .000E+00  .000E+00
  .162E-01  .162E-01  .161E-01  .159E-01  .161E-01  .162E-01  .165E-01  .164E-01
  .162E-01  .169E-01  .188E-01  .204E-01  .190E-01  .193E-01  .176E-01  .159E-01
  .177E-01  .177E-01  .189E-01  .199E-01  .210E-01  .225E-01  .217E-01  .224E-01
  .235E-01  .244E-01  .257E-01  .287E-01  .288E-01  .281E-01  .287E-01  .294E-01
  .330E-01  .407E-01  .395E-01  .533E-01  .636E-01  .668E-01  .632E-01  .560E-01
  .696E-01  .681E-01  .558E-01  .440E-01  .339E-01  .265E-01  .214E-01  .171E-01
  .135E-01  .110E-01  .945E-02  .707E-02  .537E-02  .414E-02  .327E-02  .277E-02
  .237E-02  .205E-02  .179E-02  .157E-02  .140E-02  .113E-02  .936E-03  .797E-03
  .691E-03  .606E-03  .536E-03  .479E-03  .432E-03  .393E-03  .359E-03  .330E-03
  .305E-03  .283E-03  .264E-03  .247E-03  .212E-03  .185E-03  .163E-03  .146E-03
  .132E-03  .120E-03  .110E-03  .102E-03  .945E-04  .881E-04  .776E-04  .692E-04
  .626E-04  .572E-04  .530E-04  .000E+00  .000E+00  .000E+00  .000E+00  .000E+00
  .000E+00  .000E+00  .000E+00  .000E+00
  .398E-01  .418E-01  .434E-01  .449E-01  .474E-01  .497E-01  .559E-01  .603E-01
  .648E-01  .728E-01  .867E-01  .101E+00  .992E-01  .106E+00  .103E+00  .976E-01
  .120E+00  .131E+00  .150E+00  .171E+00  .193E+00  .221E+00  .226E+00  .247E+00
  .273E+00  .301E+00  .348E+00  .422E+00  .460E+00  .482E+00  .526E+00  .577E+00
  .687E+00  .896E+00  .917E+00  .130E+01  .163E+01  .180E+01  .178E+01  .164E+01
  .213E+01  .229E+01  .204E+01  .175E+01  .145E+01  .121E+01  .104E+01  .883E+00
  .739E+00  .635E+00  .575E+00  .472E+00  .390E+00  .325E+00  .276E+00  .249E+00
  .227E+00  .208E+00  .191E+00  .176E+00  .164E+00  .144E+00  .129E+00  .118E+00
  .109E+00  .101E+00  .939E-01  .880E-01  .828E-01  .782E-01  .742E-01  .706E-01
  .673E-01  .644E-01  .617E-01  .592E-01  .537E-01  .492E-01  .453E-01  .420E-01
  .391E-01  .366E-01  .344E-01  .324E-01  .307E-01  .291E-01  .264E-01  .242E-01
  .223E-01  .207E-01  .193E-01  .000E+00  .000E+00  .000E+00  .000E+00  .000E+00
  .000E+00  .000E+00  .000E+00  .000E+00
  .123E+02  .123E+02  .123E+02  .123E+02  .123E+02  .123E+02  .123E+02  .123E+02
  .123E+02  .695E+01  .695E+01  .696E+01  .697E+01  .697E+01  .698E+01  .123E+02
  .123E+02  .123E+02  .123E+02  .123E+02  .123E+02  .123E+02  .123E+02  .635E+01
  .637E+01  .638E+01  .641E+01  .610E+01  .612E+01  .613E+01  .614E+01  .123E+02
  .101E+02  .123E+02  .126E+02  .123E+02  .126E+02  .126E+02  .126E+02  .127E+02
  .127E+02  .127E+02  .770E+01  .747E+01  .720E+01  .692E+01  .694E+01  .695E+01
  .696E+01  .665E+01  .665E+01  .666E+01  .667E+01  .668E+01  .668E+01  .636E+01
  .636E+01  .636E+01  .636E+01  .636E+01  .636E+01  .637E+01  .637E+01  .637E+01
  .637E+01  .637E+01  .637E+01  .637E+01  .637E+01  .637E+01  .637E+01  .637E+01
  .637E+01  .637E+01  .637E+01  .637E+01  .637E+01  .637E+01  .637E+01  .637E+01
  .637E+01  .637E+01  .637E+01  .637E+01  .637E+01  .637E+01  .637E+01  .637E+01
  .637E+01  .637E+01  .637E+01  .000E+00  .000E+00  .000E+00  .000E+00  .000E+00
  .000E+00  .000E+00  .000E+00  .000E+00
  .599E+01  .702E+01  .692E+01  .692E+01  .598E+01  .598E+01  .598E+01  .703E+01
  .703E+01  .761E+01  .705E+01  .698E+01  .652E+01  .700E+01  .688E+01  .688E+01
  .792E+01  .599E+01  .600E+01  .816E+01  .841E+01  .601E+01  .705E+01  .630E+01
  .631E+01  .632E+01  .647E+01  .616E+01  .619E+01  .620E+01  .622E+01  .100E+02
  .101E+02  .124E+02  .124E+02  .125E+02  .125E+02  .127E+02  .128E+02  .128E+02
  .128E+02  .126E+02  .756E+01  .732E+01  .704E+01  .707E+01  .678E+01  .679E+01
  .681E+01  .681E+01  .682E+01  .650E+01  .650E+01  .651E+01  .651E+01  .651E+01
  .651E+01  .651E+01  .651E+01  .651E+01  .651E+01  .651E+01  .651E+01  .651E+01
  .651E+01  .651E+01  .651E+01  .651E+01  .651E+01  .651E+01  .651E+01  .651E+01
  .651E+01  .651E+01  .651E+01  .651E+01  .122E+02  .122E+02  .122E+02  .122E+02
  .122E+02  .122E+02  .122E+02  .122E+02  .122E+02  .122E+02  .122E+02  .122E+02
  .122E+02  .122E+02  .122E+02  .000E+00  .000E+00  .000E+00  .000E+00  .000E+00
  .000E+00  .000E+00  .000E+00  .000E+00
  .123E+02  .123E+02  .123E+02  .123E+02  .123E+02  .123E+02  .123E+02  .123E+02
  .123E+02  .695E+01  .695E+01  .696E+01  .697E+01  .697E+01  .698E+01  .123E+02
  .123E+02  .123E+02  .123E+02  .123E+02  .123E+02  .123E+02  .123E+02  .635E+01
  .636E+01  .638E+01  .641E+01  .610E+01  .611E+01  .612E+01  .614E+01  .123E+02
  .101E+02  .123E+02  .126E+02  .123E+02  .126E+02  .126E+02  .126E+02  .126E+02
  .127E+02  .127E+02  .769E+01  .746E+01  .719E+01  .691E+01  .692E+01  .694E+01
  .695E+01  .663E+01  .664E+01  .665E+01  .665E+01  .665E+01  .666E+01  .634E+01
  .634E+01  .634E+01  .634E+01  .634E+01  .633E+01  .633E+01  .633E+01  .633E+01
  .632E+01  .632E+01  .632E+01  .632E+01  .631E+01  .631E+01  .631E+01  .631E+01
  .631E+01  .630E+01  .630E+01  .630E+01  .630E+01  .629E+01  .629E+01  .629E+01
  .629E+01  .629E+01  .628E+01  .628E+01  .628E+01  .628E+01  .628E+01  .627E+01
  .627E+01  .122E+02  .122E+02  .000E+00  .000E+00  .000E+00  .000E+00  .000E+00
  .000E+00  .000E+00  .000E+00  .000E+00
/&   ----------  End of spectral data for channel 14  ----------
