Response and Fourier amplitude spectra (91 periods,  .04 - 15.0 sec)   for      
Corrected accelerogram   24802-L1884-01249.04       Chan  1: 360 Deg     from   
Uncorrected Accelerogram Data             Processed: 09/10/01, CDMG  802ak004   
Record of Sun Sep  9, 2001 16:59:18 PDT               (Avol1 v4.6  7/01 CSMIP)  
CSMIP Preliminary Processing            (Origin:  To be determined)             
24802-L1884-01249.04                 Start time:  9/09/01, 23:59:18.0 UTC (GPS) 
Station No. 24802   34.163N, 118.500W      Etna  s/n 1884  (3 Channels)         
Encino - Balboa & Ventura                                                       
Chan  1: 360 Deg                                                                
Record of Sun Sep  9, 2001 16:59:18 PDT    Sun Sep  9, 2001 16:59:18 PDT        
Hypocenter:  To be determined.               ML:  To be determined.             
Instr Period =  .0106 sec,  Damping =  .660,  Sensitivity =  .63  v/g           
                        Record length = 38.000 sec.                             
                                     Uncor Max  =   .032 g, at   5.550 sec.     
RMS accel of (uncor) record  =        .                                         
Accelerogram bandpass filtered with 3 dB pts at   .30 and 40.00 cyc/sec         
                 instrument- and baseline-corrected                             
                                                                                
                                                                                
                                                                                
                                                                                
                                                                                
Record of Sun Sep  9, 2001 16:59:18 PDT    Sun Sep  9, 2001 16:59:18 PDT        
                                                                                
24802-L1884-01249.04      Encino - Balboa & Ventura   Chan  1: 360 Deg          
                                                                                
24802-L1884-01249.04      Encino - Balboa & Ventura   Chan  1: 360 Deg          
                                                                                
Units for spectra are inches and sec, except Sa is in fraction of g.            
                                                                                
    1  100    1    3    3  200    1    3    1   24   12 1884    024802    1    0
   23   59   18    0  252    9    9 2001   10    3  360 7600   39   25   72  360
 7600    1   50    3 1884    1    4  380    1    0    0    0    0    0    0    0
    0    4    0    0 3800    2    0    0    0    0   72   25    0    0    0 3800
    0 3800   26   91    1    3    0    0    0    0    3    0    0    0    0    2
    2    2    4    0   32   99    0   32   32    0    0    1    0    0    0    0
  -99   -1    0    0
      .011      .660    38.000      .002      .000   625.000      .032     5.550
    94.600      .298      .477      .000     5.000      .000      .000      .000
     2.500    17.165      .028     -.009     5.000    30.000      .000     -.003
     -.001      .002     2.000    15.000    34.163  -118.500      .019      .275
    14.251     -.011      .015  -999.000      .000      .000   -13.400      .000
  1000.000    -1.008      .000      .000      .000      .000      .000      .000
     4.600     4.400      .000   980.665      .010    38.000    15.056      .000
      .000    40.000      .000    38.000      .010      .300      .000      .000
     5.550    31.475     5.610     1.228     5.550     -.100      .000      .300
    40.000      .010      .010      .000      .010      .019      .000      .000
      .102      .130      .085      .055      .005      .001      .000      .000
      .000      .000      .000      .000      .000      .000      .000      .000
      .000      .000      .000      .000
      .050
      .040      .042      .044      .046      .048      .050      .055      .060
      .065      .070      .075      .080      .085      .090      .095      .100
      .110      .120      .130      .140      .150      .160      .170      .180
      .190      .200      .220      .240      .260      .280      .300      .320
      .340      .360      .380      .400      .420      .440      .460      .480
      .500      .550      .600      .650      .700      .750      .800      .850
      .900      .950     1.000     1.100     1.200     1.300     1.400     1.500
     1.600     1.700     1.800     1.900     2.000     2.200     2.400     2.600
     2.800     3.000     3.200     3.400     3.600     3.800     4.000     4.200
     4.400     4.600     4.800     5.000     5.500     6.000     6.500     7.000
     7.500     8.000     8.500     9.000     9.500    10.000    11.000    12.000
    13.000    14.000    15.000      .000      .000      .000      .000      .000
      .000      .000      .000      .000
Fourier amplitude spectra in in/sec.
  .000E+00  .000E+00  .000E+00  .000E+00  .000E+00  .000E+00  .000E+00  .000E+00
  .000E+00  .000E+00  .000E+00  .000E+00  .000E+00  .000E+00  .000E+00  .000E+00
  .000E+00  .000E+00  .000E+00  .000E+00  .000E+00  .000E+00  .000E+00  .000E+00
  .000E+00  .000E+00  .000E+00  .000E+00  .000E+00  .000E+00  .000E+00  .000E+00
  .000E+00  .000E+00  .000E+00  .000E+00  .000E+00  .000E+00  .000E+00  .000E+00
  .000E+00  .000E+00  .000E+00  .000E+00  .000E+00  .000E+00  .000E+00  .000E+00
  .000E+00  .000E+00  .000E+00  .000E+00  .000E+00  .000E+00  .000E+00  .000E+00
  .000E+00  .000E+00  .000E+00  .000E+00  .000E+00  .000E+00  .000E+00  .000E+00
  .000E+00  .000E+00  .000E+00  .000E+00  .000E+00  .000E+00  .000E+00  .000E+00
  .000E+00  .000E+00  .000E+00  .000E+00  .000E+00  .000E+00  .000E+00  .000E+00
  .000E+00  .000E+00  .000E+00  .000E+00  .000E+00  .000E+00  .000E+00  .000E+00
  .000E+00  .000E+00  .000E+00  .000E+00  .000E+00  .000E+00  .000E+00  .000E+00
  .000E+00  .000E+00  .000E+00  .000E+00
Damping =  .05. Data of Sd,Sv,Sa,Pssv,ttSd,ttSv,ttSa :
  .526E-03  .599E-03  .666E-03  .723E-03  .765E-03  .827E-03  .103E-02  .131E-02
  .163E-02  .208E-02  .265E-02  .296E-02  .348E-02  .362E-02  .411E-02  .470E-02
  .779E-02  .130E-01  .165E-01  .162E-01  .138E-01  .167E-01  .208E-01  .248E-01
  .281E-01  .344E-01  .413E-01  .397E-01  .386E-01  .434E-01  .480E-01  .523E-01
  .559E-01  .548E-01  .568E-01  .668E-01  .783E-01  .893E-01  .942E-01  .938E-01
  .915E-01  .876E-01  .810E-01  .764E-01  .742E-01  .690E-01  .625E-01  .567E-01
  .512E-01  .513E-01  .508E-01  .492E-01  .474E-01  .463E-01  .453E-01  .438E-01
  .422E-01  .432E-01  .438E-01  .440E-01  .440E-01  .436E-01  .433E-01  .433E-01
  .435E-01  .437E-01  .439E-01  .440E-01  .440E-01  .439E-01  .437E-01  .435E-01
  .433E-01  .431E-01  .428E-01  .426E-01  .421E-01  .417E-01  .414E-01  .412E-01
  .410E-01  .409E-01  .408E-01  .408E-01  .407E-01  .407E-01  .406E-01  .406E-01
  .406E-01  .406E-01  .406E-01  .000E+00  .000E+00  .000E+00  .000E+00  .000E+00
  .000E+00  .000E+00  .000E+00  .000E+00
  .224E-01  .232E-01  .287E-01  .311E-01  .310E-01  .359E-01  .446E-01  .617E-01
  .930E-01  .934E-01  .123E+00  .161E+00  .181E+00  .179E+00  .172E+00  .204E+00
  .355E+00  .587E+00  .738E+00  .680E+00  .530E+00  .654E+00  .757E+00  .832E+00
  .875E+00  .102E+01  .119E+01  .106E+01  .106E+01  .107E+01  .105E+01  .101E+01
  .953E+00  .961E+00  .921E+00  .106E+01  .122E+01  .127E+01  .123E+01  .119E+01
  .123E+01  .119E+01  .998E+00  .932E+00  .948E+00  .936E+00  .896E+00  .855E+00
  .818E+00  .779E+00  .738E+00  .665E+00  .622E+00  .606E+00  .595E+00  .585E+00
  .574E+00  .564E+00  .554E+00  .545E+00  .537E+00  .526E+00  .519E+00  .514E+00
  .510E+00  .506E+00  .503E+00  .500E+00  .497E+00  .495E+00  .493E+00  .492E+00
  .491E+00  .490E+00  .489E+00  .488E+00  .487E+00  .486E+00  .485E+00  .485E+00
  .484E+00  .484E+00  .484E+00  .483E+00  .483E+00  .483E+00  .483E+00  .483E+00
  .482E+00  .482E+00  .482E+00  .000E+00  .000E+00  .000E+00  .000E+00  .000E+00
  .000E+00  .000E+00  .000E+00  .000E+00
  .337E-01  .348E-01  .352E-01  .349E-01  .340E-01  .339E-01  .347E-01  .373E-01
  .394E-01  .436E-01  .482E-01  .472E-01  .496E-01  .460E-01  .467E-01  .478E-01
  .666E-01  .925E-01  .102E+00  .839E-01  .624E-01  .669E-01  .748E-01  .789E-01
  .792E-01  .877E-01  .881E-01  .711E-01  .590E-01  .568E-01  .549E-01  .528E-01
  .496E-01  .435E-01  .403E-01  .427E-01  .457E-01  .474E-01  .458E-01  .418E-01
  .377E-01  .298E-01  .231E-01  .186E-01  .156E-01  .126E-01  .101E-01  .812E-02
  .653E-02  .587E-02  .524E-02  .419E-02  .341E-02  .285E-02  .242E-02  .205E-02
  .183E-02  .167E-02  .152E-02  .139E-02  .126E-02  .105E-02  .898E-03  .780E-03
  .688E-03  .613E-03  .551E-03  .499E-03  .455E-03  .416E-03  .383E-03  .353E-03
  .327E-03  .304E-03  .284E-03  .266E-03  .229E-03  .200E-03  .177E-03  .159E-03
  .144E-03  .132E-03  .121E-03  .112E-03  .105E-03  .978E-04  .866E-04  .776E-04
  .702E-04  .641E-04  .589E-04  .000E+00  .000E+00  .000E+00  .000E+00  .000E+00
  .000E+00  .000E+00  .000E+00  .000E+00
  .826E-01  .896E-01  .951E-01  .987E-01  .100E+00  .104E+00  .117E+00  .137E+00
  .157E+00  .187E+00  .222E+00  .232E+00  .257E+00  .253E+00  .272E+00  .295E+00
  .445E+00  .681E+00  .800E+00  .729E+00  .577E+00  .657E+00  .770E+00  .867E+00
  .930E+00  .108E+01  .118E+01  .104E+01  .932E+00  .973E+00  .101E+01  .103E+01
  .103E+01  .956E+00  .940E+00  .105E+01  .117E+01  .127E+01  .129E+01  .123E+01
  .115E+01  .100E+01  .848E+00  .738E+00  .666E+00  .578E+00  .491E+00  .419E+00
  .357E+00  .339E+00  .319E+00  .281E+00  .248E+00  .224E+00  .203E+00  .183E+00
  .166E+00  .160E+00  .153E+00  .146E+00  .138E+00  .125E+00  .113E+00  .105E+00
  .975E-01  .915E-01  .862E-01  .813E-01  .768E-01  .726E-01  .687E-01  .651E-01
  .619E-01  .588E-01  .561E-01  .536E-01  .481E-01  .437E-01  .401E-01  .370E-01
  .344E-01  .321E-01  .302E-01  .285E-01  .269E-01  .256E-01  .232E-01  .213E-01
  .196E-01  .182E-01  .170E-01  .000E+00  .000E+00  .000E+00  .000E+00  .000E+00
  .000E+00  .000E+00  .000E+00  .000E+00
  .554E+01  .554E+01  .554E+01  .555E+01  .555E+01  .555E+01  .554E+01  .554E+01
  .555E+01  .588E+01  .588E+01  .589E+01  .595E+01  .595E+01  .555E+01  .555E+01
  .595E+01  .596E+01  .597E+01  .599E+01  .600E+01  .566E+01  .567E+01  .567E+01
  .568E+01  .600E+01  .603E+01  .606E+01  .573E+01  .561E+01  .562E+01  .562E+01
  .563E+01  .564E+01  .607E+01  .609E+01  .611E+01  .635E+01  .637E+01  .639E+01
  .641E+01  .621E+01  .625E+01  .599E+01  .601E+01  .603E+01  .604E+01  .605E+01
  .577E+01  .578E+01  .580E+01  .583E+01  .584E+01  .584E+01  .585E+01  .585E+01
  .553E+01  .554E+01  .554E+01  .554E+01  .554E+01  .554E+01  .554E+01  .554E+01
  .554E+01  .554E+01  .554E+01  .554E+01  .554E+01  .554E+01  .554E+01  .554E+01
  .554E+01  .554E+01  .554E+01  .554E+01  .554E+01  .554E+01  .554E+01  .554E+01
  .554E+01  .554E+01  .554E+01  .554E+01  .554E+01  .554E+01  .554E+01  .554E+01
  .554E+01  .554E+01  .554E+01  .000E+00  .000E+00  .000E+00  .000E+00  .000E+00
  .000E+00  .000E+00  .000E+00  .000E+00
  .592E+01  .592E+01  .592E+01  .593E+01  .593E+01  .605E+01  .591E+01  .605E+01
  .610E+01  .586E+01  .591E+01  .591E+01  .592E+01  .598E+01  .598E+01  .592E+01
  .592E+01  .593E+01  .594E+01  .595E+01  .596E+01  .570E+01  .571E+01  .571E+01
  .572E+01  .595E+01  .597E+01  .599E+01  .566E+01  .567E+01  .568E+01  .568E+01
  .570E+01  .558E+01  .617E+01  .641E+01  .642E+01  .645E+01  .648E+01  .630E+01
  .631E+01  .634E+01  .610E+01  .590E+01  .591E+01  .591E+01  .591E+01  .591E+01
  .591E+01  .591E+01  .591E+01  .591E+01  .560E+01  .560E+01  .560E+01  .560E+01
  .560E+01  .560E+01  .560E+01  .560E+01  .560E+01  .560E+01  .560E+01  .560E+01
  .560E+01  .560E+01  .560E+01  .560E+01  .560E+01  .560E+01  .560E+01  .560E+01
  .560E+01  .560E+01  .560E+01  .560E+01  .560E+01  .560E+01  .560E+01  .560E+01
  .560E+01  .560E+01  .560E+01  .560E+01  .560E+01  .560E+01  .560E+01  .560E+01
  .560E+01  .560E+01  .560E+01  .000E+00  .000E+00  .000E+00  .000E+00  .000E+00
  .000E+00  .000E+00  .000E+00  .000E+00
  .554E+01  .554E+01  .554E+01  .555E+01  .555E+01  .554E+01  .554E+01  .554E+01
  .555E+01  .588E+01  .588E+01  .589E+01  .595E+01  .595E+01  .555E+01  .588E+01
  .595E+01  .596E+01  .597E+01  .598E+01  .600E+01  .566E+01  .566E+01  .567E+01
  .568E+01  .600E+01  .602E+01  .605E+01  .572E+01  .561E+01  .561E+01  .562E+01
  .563E+01  .563E+01  .607E+01  .609E+01  .610E+01  .635E+01  .637E+01  .638E+01
  .640E+01  .620E+01  .624E+01  .598E+01  .600E+01  .602E+01  .603E+01  .604E+01
  .576E+01  .576E+01  .577E+01  .582E+01  .583E+01  .583E+01  .583E+01  .583E+01
  .551E+01  .551E+01  .551E+01  .551E+01  .551E+01  .551E+01  .551E+01  .551E+01
  .551E+01  .551E+01  .551E+01  .550E+01  .550E+01  .550E+01  .550E+01  .550E+01
  .550E+01  .550E+01  .550E+01  .550E+01  .550E+01  .550E+01  .550E+01  .550E+01
  .549E+01  .549E+01  .549E+01  .549E+01  .549E+01  .549E+01  .549E+01  .549E+01
  .549E+01  .549E+01  .549E+01  .000E+00  .000E+00  .000E+00  .000E+00  .000E+00
  .000E+00  .000E+00  .000E+00  .000E+00
/&   ----------  End of spectral data for channel  1  ----------
Response and Fourier amplitude spectra (91 periods,  .04 - 15.0 sec)   for      
Corrected accelerogram   24802-L1884-01249.04       Chan  2:  Up         from   
Uncorrected Accelerogram Data             Processed: 09/10/01, CDMG  802ak004   
Record of Sun Sep  9, 2001 16:59:18 PDT               (Avol1 v4.6  7/01 CSMIP)  
CSMIP Preliminary Processing            (Origin:  To be determined)             
24802-L1884-01249.04                 Start time:  9/09/01, 23:59:18.0 UTC (GPS) 
Station No. 24802   34.163N, 118.500W      Etna  s/n 1884  (3 Channels)         
Encino - Balboa & Ventura                                                       
Chan  2:  Up                                                                    
Record of Sun Sep  9, 2001 16:59:18 PDT    Sun Sep  9, 2001 16:59:18 PDT        
Hypocenter:  To be determined.               ML:  To be determined.             
Instr Period =  .0104 sec,  Damping =  .670,  Sensitivity =  .63  v/g           
                        Record length = 38.000 sec.                             
                                     Uncor Max  =   .014 g, at   6.085 sec.     
RMS accel of (uncor) record  =        .                                         
Accelerogram bandpass filtered with 3 dB pts at   .30 and 40.00 cyc/sec         
                 instrument- and baseline-corrected                             
                                                                                
                                                                                
                                                                                
                                                                                
                                                                                
Record of Sun Sep  9, 2001 16:59:18 PDT    Sun Sep  9, 2001 16:59:18 PDT        
                                                                                
24802-L1884-01249.04      Encino - Balboa & Ventura   Chan  2:  Up              
                                                                                
24802-L1884-01249.04      Encino - Balboa & Ventura   Chan  2:  Up              
                                                                                
Units for spectra are inches and sec, except Sa is in fraction of g.            
                                                                                
    2  100    2    3    3  200    1    3    1   24   12 1884    024802    1    0
   23   59   18    0  252    9    9 2001   10    3  500 7600   39   25   72  360
 7600    1   50    3 1884    1    4  380    1    0    0    0    0    0    0    0
    0    4    0    0 3800    2    0    0    0    0   72   25    0    0    0 3800
    0 3800   26   91    1    3    0    0    0    0    3    0    0    0    0    2
    2    2    4    0   32   99    0   32   32    0    0    1    0    0    0    0
  -99   -1    0    0
      .010      .670    38.000      .001      .000   625.000      .014     6.085
    96.100      .298      .477      .000     5.000      .000      .000      .000
     2.500     1.479      .009     -.008     5.000    30.000      .000     -.001
      .001      .001     2.000    15.000    34.163  -118.500      .058      .143
     2.491     -.009      .011  -999.000      .000      .000   -13.400      .000
  1000.000     1.025      .000      .000      .000      .000      .000      .000
     4.600     4.400      .000   980.665      .010    38.000    15.295      .000
      .000    40.000      .000    38.000      .010      .300      .000      .000
     6.080    13.532     6.190     -.346     6.900      .014      .000      .300
    40.000      .010      .010      .000      .010      .007      .000      .000
      .056      .160      .030      .014      .001      .000      .000      .000
      .000      .000      .000      .000      .000      .000      .000      .000
      .000      .000      .000      .000
      .050
      .040      .042      .044      .046      .048      .050      .055      .060
      .065      .070      .075      .080      .085      .090      .095      .100
      .110      .120      .130      .140      .150      .160      .170      .180
      .190      .200      .220      .240      .260      .280      .300      .320
      .340      .360      .380      .400      .420      .440      .460      .480
      .500      .550      .600      .650      .700      .750      .800      .850
      .900      .950     1.000     1.100     1.200     1.300     1.400     1.500
     1.600     1.700     1.800     1.900     2.000     2.200     2.400     2.600
     2.800     3.000     3.200     3.400     3.600     3.800     4.000     4.200
     4.400     4.600     4.800     5.000     5.500     6.000     6.500     7.000
     7.500     8.000     8.500     9.000     9.500    10.000    11.000    12.000
    13.000    14.000    15.000      .000      .000      .000      .000      .000
      .000      .000      .000      .000
Fourier amplitude spectra in in/sec.
  .000E+00  .000E+00  .000E+00  .000E+00  .000E+00  .000E+00  .000E+00  .000E+00
  .000E+00  .000E+00  .000E+00  .000E+00  .000E+00  .000E+00  .000E+00  .000E+00
  .000E+00  .000E+00  .000E+00  .000E+00  .000E+00  .000E+00  .000E+00  .000E+00
  .000E+00  .000E+00  .000E+00  .000E+00  .000E+00  .000E+00  .000E+00  .000E+00
  .000E+00  .000E+00  .000E+00  .000E+00  .000E+00  .000E+00  .000E+00  .000E+00
  .000E+00  .000E+00  .000E+00  .000E+00  .000E+00  .000E+00  .000E+00  .000E+00
  .000E+00  .000E+00  .000E+00  .000E+00  .000E+00  .000E+00  .000E+00  .000E+00
  .000E+00  .000E+00  .000E+00  .000E+00  .000E+00  .000E+00  .000E+00  .000E+00
  .000E+00  .000E+00  .000E+00  .000E+00  .000E+00  .000E+00  .000E+00  .000E+00
  .000E+00  .000E+00  .000E+00  .000E+00  .000E+00  .000E+00  .000E+00  .000E+00
  .000E+00  .000E+00  .000E+00  .000E+00  .000E+00  .000E+00  .000E+00  .000E+00
  .000E+00  .000E+00  .000E+00  .000E+00  .000E+00  .000E+00  .000E+00  .000E+00
  .000E+00  .000E+00  .000E+00  .000E+00
Damping =  .05. Data of Sd,Sv,Sa,Pssv,ttSd,ttSv,ttSa :
  .277E-03  .301E-03  .369E-03  .443E-03  .469E-03  .571E-03  .761E-03  .944E-03
  .104E-02  .115E-02  .151E-02  .211E-02  .255E-02  .291E-02  .297E-02  .342E-02
  .529E-02  .599E-02  .678E-02  .689E-02  .102E-01  .138E-01  .141E-01  .116E-01
  .111E-01  .126E-01  .125E-01  .140E-01  .129E-01  .118E-01  .120E-01  .130E-01
  .200E-01  .233E-01  .237E-01  .200E-01  .150E-01  .139E-01  .145E-01  .156E-01
