Response and Fourier amplitude spectra (91 periods,  .04 - 15.0 sec)   for      
Corrected accelerogram   24943-L1843-01252.05       Chan  1: 355 Deg     from   
Uncorrected Accelerogram Data             Processed: 09/10/01, CDMG  943ao005   
Record of Sun Sep  9, 2001 16:59:19 PDT               (Avol1 v4.6  7/01 CSMIP)  
CSMIP Preliminary Processing            (Origin:  To be determined)             
24943-L1843-01252.05                 Start time:  9/09/01, 23:59:19.0 UTC (GPS) 
Station No. 24943   34.172N, 118.289W      Etna  s/n 1843  (3 Channels)         
Glendale - Glenoaks & Western                                                   
Chan  1: 355 Deg                                                                
Record of Sun Sep  9, 2001 16:59:19 PDT    Sun Sep  9, 2001 16:59:19 PDT        
Hypocenter:  To be determined.               ML:  To be determined.             
Instr Period =  .0110 sec,  Damping =  .660,  Sensitivity =  .63  v/g           
                        Record length = 38.000 sec.                             
                                     Uncor Max  =   .021 g, at   5.190 sec.     
RMS accel of (uncor) record  =        .                                         
Accelerogram bandpass filtered with 3 dB pts at   .30 and 40.00 cyc/sec         
                 instrument- and baseline-corrected                             
                                                                                
                                                                                
                                                                                
                                                                                
                                                                                
Record of Sun Sep  9, 2001 16:59:19 PDT    Sun Sep  9, 2001 16:59:19 PDT        
                                                                                
24943-L1843-01252.05      Glendale - Glenoaks & Western   Chan  1: 355 Deg      
                                                                                
24943-L1843-01252.05      Glendale - Glenoaks & Western   Chan  1: 355 Deg      
                                                                                
Units for spectra are inches and sec, except Sa is in fraction of g.            
                                                                                
    1  100    1    3    3  200    1    3    1   24   12 1843    024943    1    0
   23   59   19    0  252    9    9 2001   10    3  355 7600   39   29   72  355
 7600    1   50    3 1843    1    5  380    1    0    0    0    0    0    0    0
    0    4    0    0 3800    2    0    0    0    0   72   29    0    0    0 3800
    0 3800   30   91    1    3    0    0    0    0    3    0    0    0    0    2
    2    2    4    0   32   99    0   32   32    0    0    1    0    0    0    0
  -99   -1    0    0
      .011      .660    38.000      .002      .000   625.000      .021     5.190
    91.100      .298      .477      .000     5.000      .000      .000      .000
     2.500    -1.620      .008     -.014     5.000    30.000      .000     -.003
     -.003      .000     2.000    15.000    34.172  -118.289      .056      .233
     4.157     -.013      .013  -999.000      .000      .000   -13.400      .000
  1000.000     1.006      .000      .000      .000      .000      .000      .000
     4.600     4.400      .000   980.665      .010    38.000    14.499      .000
      .000    40.000      .000    38.000      .010      .300      .000      .000
     5.190    20.436     5.140     -.446    10.680     -.024      .000      .300
    40.000      .010      .010      .000      .010      .014      .000      .000
      .068      .140      .030      .020      .003      .000      .000      .000
      .000      .000      .000      .000      .000      .000      .000      .000
      .000      .000      .000      .000
      .050
      .040      .042      .044      .046      .048      .050      .055      .060
      .065      .070      .075      .080      .085      .090      .095      .100
      .110      .120      .130      .140      .150      .160      .170      .180
      .190      .200      .220      .240      .260      .280      .300      .320
      .340      .360      .380      .400      .420      .440      .460      .480
      .500      .550      .600      .650      .700      .750      .800      .850
      .900      .950     1.000     1.100     1.200     1.300     1.400     1.500
     1.600     1.700     1.800     1.900     2.000     2.200     2.400     2.600
     2.800     3.000     3.200     3.400     3.600     3.800     4.000     4.200
     4.400     4.600     4.800     5.000     5.500     6.000     6.500     7.000
     7.500     8.000     8.500     9.000     9.500    10.000    11.000    12.000
    13.000    14.000    15.000      .000      .000      .000      .000      .000
      .000      .000      .000      .000
Fourier amplitude spectra in in/sec.
  .000E+00  .000E+00  .000E+00  .000E+00  .000E+00  .000E+00  .000E+00  .000E+00
  .000E+00  .000E+00  .000E+00  .000E+00  .000E+00  .000E+00  .000E+00  .000E+00
  .000E+00  .000E+00  .000E+00  .000E+00  .000E+00  .000E+00  .000E+00  .000E+00
  .000E+00  .000E+00  .000E+00  .000E+00  .000E+00  .000E+00  .000E+00  .000E+00
  .000E+00  .000E+00  .000E+00  .000E+00  .000E+00  .000E+00  .000E+00  .000E+00
  .000E+00  .000E+00  .000E+00  .000E+00  .000E+00  .000E+00  .000E+00  .000E+00
  .000E+00  .000E+00  .000E+00  .000E+00  .000E+00  .000E+00  .000E+00  .000E+00
  .000E+00  .000E+00  .000E+00  .000E+00  .000E+00  .000E+00  .000E+00  .000E+00
  .000E+00  .000E+00  .000E+00  .000E+00  .000E+00  .000E+00  .000E+00  .000E+00
  .000E+00  .000E+00  .000E+00  .000E+00  .000E+00  .000E+00  .000E+00  .000E+00
  .000E+00  .000E+00  .000E+00  .000E+00  .000E+00  .000E+00  .000E+00  .000E+00
  .000E+00  .000E+00  .000E+00  .000E+00  .000E+00  .000E+00  .000E+00  .000E+00
  .000E+00  .000E+00  .000E+00  .000E+00
Damping =  .05. Data of Sd,Sv,Sa,Pssv,ttSd,ttSv,ttSa :
  .429E-03  .476E-03  .527E-03  .576E-03  .620E-03  .708E-03  .748E-03  .105E-02
  .169E-02  .221E-02  .298E-02  .369E-02  .416E-02  .408E-02  .488E-02  .549E-02
  .500E-02  .757E-02  .101E-01  .129E-01  .142E-01  .136E-01  .120E-01  .103E-01
  .101E-01  .119E-01  .139E-01  .192E-01  .208E-01  .196E-01  .165E-01  .164E-01
  .176E-01  .203E-01  .194E-01  .195E-01  .203E-01  .215E-01  .213E-01  .210E-01
  .220E-01  .192E-01  .245E-01  .253E-01  .247E-01  .216E-01  .185E-01  .194E-01
  .257E-01  .284E-01  .268E-01  .218E-01  .173E-01  .185E-01  .212E-01  .230E-01
  .242E-01  .239E-01  .235E-01  .234E-01  .219E-01  .187E-01  .171E-01  .137E-01
  .126E-01  .120E-01  .112E-01  .106E-01  .104E-01  .106E-01  .107E-01  .107E-01
  .106E-01  .103E-01  .100E-01  .972E-02  .918E-02  .898E-02  .900E-02  .910E-02
  .921E-02  .930E-02  .936E-02  .939E-02  .941E-02  .942E-02  .942E-02  .942E-02
  .940E-02  .939E-02  .938E-02  .000E+00  .000E+00  .000E+00  .000E+00  .000E+00
  .000E+00  .000E+00  .000E+00  .000E+00
  .296E-01  .370E-01  .442E-01  .520E-01  .603E-01  .617E-01  .672E-01  .873E-01
  .136E+00  .172E+00  .229E+00  .276E+00  .298E+00  .276E+00  .286E+00  .302E+00
  .311E+00  .406E+00  .499E+00  .604E+00  .604E+00  .513E+00  .473E+00  .403E+00
  .359E+00  .364E+00  .397E+00  .505E+00  .528E+00  .469E+00  .372E+00  .338E+00
  .333E+00  .380E+00  .419E+00  .384E+00  .331E+00  .357E+00  .351E+00  .376E+00
  .391E+00  .314E+00  .300E+00  .313E+00  .340E+00  .286E+00  .282E+00  .275E+00
  .261E+00  .247E+00  .239E+00  .234E+00  .234E+00  .233E+00  .230E+00  .232E+00
  .226E+00  .212E+00  .198E+00  .188E+00  .180E+00  .169E+00  .165E+00  .165E+00
  .166E+00  .168E+00  .169E+00  .170E+00  .171E+00  .172E+00  .172E+00  .172E+00
  .172E+00  .172E+00  .172E+00  .172E+00  .172E+00  .172E+00  .172E+00  .172E+00
  .172E+00  .172E+00  .172E+00  .172E+00  .172E+00  .172E+00  .173E+00  .173E+00
  .173E+00  .173E+00  .173E+00  .000E+00  .000E+00  .000E+00  .000E+00  .000E+00
  .000E+00  .000E+00  .000E+00  .000E+00
  .274E-01  .278E-01  .278E-01  .280E-01  .275E-01  .292E-01  .256E-01  .298E-01
  .407E-01  .460E-01  .547E-01  .596E-01  .585E-01  .518E-01  .550E-01  .572E-01
  .432E-01  .532E-01  .614E-01  .675E-01  .648E-01  .538E-01  .432E-01  .321E-01
  .288E-01  .308E-01  .295E-01  .344E-01  .319E-01  .256E-01  .189E-01  .166E-01
  .156E-01  .162E-01  .139E-01  .126E-01  .119E-01  .114E-01  .103E-01  .947E-02
  .911E-02  .654E-02  .701E-02  .625E-02  .526E-02  .404E-02  .308E-02  .276E-02
  .328E-02  .326E-02  .278E-02  .187E-02  .124E-02  .115E-02  .114E-02  .107E-02
  .987E-03  .873E-03  .751E-03  .678E-03  .582E-03  .404E-03  .317E-03  .221E-03
  .177E-03  .148E-03  .123E-03  .105E-03  .933E-04  .852E-04  .785E-04  .722E-04
  .680E-04  .641E-04  .605E-04  .572E-04  .507E-04  .466E-04  .431E-04  .401E-04
  .375E-04  .352E-04  .332E-04  .313E-04  .297E-04  .282E-04  .256E-04  .235E-04
  .217E-04  .201E-04  .187E-04  .000E+00  .000E+00  .000E+00  .000E+00  .000E+00
  .000E+00  .000E+00  .000E+00  .000E+00
  .674E-01  .712E-01  .753E-01  .787E-01  .811E-01  .890E-01  .855E-01  .110E+00
  .164E+00  .199E+00  .249E+00  .290E+00  .308E+00  .285E+00  .323E+00  .345E+00
  .286E+00  .396E+00  .487E+00  .577E+00  .595E+00  .535E+00  .443E+00  .358E+00
  .333E+00  .373E+00  .396E+00  .502E+00  .503E+00  .439E+00  .346E+00  .323E+00
  .326E+00  .355E+00  .321E+00  .306E+00  .304E+00  .308E+00  .291E+00  .275E+00
  .277E+00  .219E+00  .257E+00  .245E+00  .221E+00  .181E+00  .145E+00  .143E+00
  .180E+00  .188E+00  .169E+00  .124E+00  .905E-01  .895E-01  .953E-01  .965E-01
  .951E-01  .884E-01  .819E-01  .773E-01  .689E-01  .533E-01  .447E-01  .332E-01
  .283E-01  .250E-01  .219E-01  .196E-01  .182E-01  .174E-01  .168E-01  .160E-01
  .151E-01  .141E-01  .131E-01  .122E-01  .105E-01  .940E-02  .870E-02  .817E-02
  .772E-02  .730E-02  .692E-02  .656E-02  .623E-02  .592E-02  .538E-02  .493E-02
  .454E-02  .421E-02  .393E-02  .000E+00  .000E+00  .000E+00  .000E+00  .000E+00
  .000E+00  .000E+00  .000E+00  .000E+00
  .519E+01  .519E+01  .519E+01  .519E+01  .523E+01  .523E+01  .526E+01  .523E+01
  .531E+01  .532E+01  .532E+01  .532E+01  .533E+01  .534E+01  .608E+01  .608E+01
  .610E+01  .525E+01  .526E+01  .520E+01  .521E+01  .522E+01  .522E+01  .523E+01
  .621E+01  .623E+01  .764E+01  .699E+01  .642E+01  .976E+01  .965E+01  .938E+01
  .633E+01  .635E+01  .620E+01  .607E+01  .608E+01  .119E+02  .119E+02  .531E+01
  .532E+01  .877E+01  .110E+02  .517E+01  .518E+01  .518E+01  .518E+01  .112E+02
  .109E+02  .109E+02  .109E+02  .109E+02  .106E+02  .911E+01  .913E+01  .140E+02
  .658E+01  .659E+01  .597E+01  .598E+01  .598E+01  .106E+02  .107E+02  .107E+02
  .107E+02  .107E+02  .107E+02  .107E+02  .107E+02  .107E+02  .107E+02  .107E+02
  .107E+02  .107E+02  .107E+02  .107E+02  .107E+02  .107E+02  .107E+02  .107E+02
  .107E+02  .107E+02  .107E+02  .107E+02  .107E+02  .107E+02  .107E+02  .107E+02
  .107E+02  .107E+02  .107E+02  .000E+00  .000E+00  .000E+00  .000E+00  .000E+00
  .000E+00  .000E+00  .000E+00  .000E+00
  .520E+01  .520E+01  .521E+01  .521E+01  .521E+01  .521E+01  .525E+01  .525E+01
  .529E+01  .533E+01  .534E+01  .534E+01  .535E+01  .536E+01  .605E+01  .606E+01
  .532E+01  .528E+01  .523E+01  .523E+01  .524E+01  .525E+01  .519E+01  .519E+01
  .520E+01  .617E+01  .759E+01  .669E+01  .635E+01  .638E+01  .971E+01  .945E+01
  .639E+01  .611E+01  .612E+01  .613E+01  .602E+01  .603E+01  .520E+01  .520E+01
  .520E+01  .520E+01  .520E+01  .603E+01  .603E+01  .603E+01  .513E+01  .513E+01
  .513E+01  .513E+01  .513E+01  .513E+01  .513E+01  .513E+01  .603E+01  .603E+01
  .603E+01  .603E+01  .513E+01  .513E+01  .513E+01  .513E+01  .513E+01  .513E+01
  .513E+01  .513E+01  .513E+01  .513E+01  .513E+01  .513E+01  .513E+01  .513E+01
  .513E+01  .513E+01  .513E+01  .513E+01  .513E+01  .513E+01  .513E+01  .513E+01
  .513E+01  .513E+01  .513E+01  .513E+01  .513E+01  .513E+01  .513E+01  .513E+01
  .513E+01  .513E+01  .513E+01  .000E+00  .000E+00  .000E+00  .000E+00  .000E+00
  .000E+00  .000E+00  .000E+00  .000E+00
  .519E+01  .519E+01  .519E+01  .519E+01  .523E+01  .522E+01  .526E+01  .523E+01
  .531E+01  .531E+01  .532E+01  .532E+01  .532E+01  .533E+01  .608E+01  .608E+01
  .610E+01  .525E+01  .525E+01  .520E+01  .521E+01  .522E+01  .522E+01  .523E+01
  .621E+01  .622E+01  .764E+01  .699E+01  .641E+01  .975E+01  .965E+01  .938E+01
  .632E+01  .634E+01  .620E+01  .606E+01  .607E+01  .119E+02  .119E+02  .530E+01
  .531E+01  .877E+01  .110E+02  .516E+01  .516E+01  .517E+01  .517E+01  .111E+02
  .108E+02  .109E+02  .109E+02  .109E+02  .106E+02  .909E+01  .911E+01  .140E+02
  .657E+01  .657E+01  .596E+01  .596E+01  .597E+01  .106E+02  .106E+02  .106E+02
  .106E+02  .106E+02  .106E+02  .106E+02  .106E+02  .106E+02  .106E+02  .493E+01
  .493E+01  .493E+01  .493E+01  .493E+01  .514E+01  .514E+01  .514E+01  .514E+01
  .514E+01  .514E+01  .514E+01  .514E+01  .514E+01  .514E+01  .514E+01  .514E+01
  .514E+01  .514E+01  .514E+01  .000E+00  .000E+00  .000E+00  .000E+00  .000E+00
  .000E+00  .000E+00  .000E+00  .000E+00
/&   ----------  End of spectral data for channel  1  ----------
Response and Fourier amplitude spectra (91 periods,  .04 - 15.0 sec)   for      
Corrected accelerogram   24943-L1843-01252.05       Chan  2:  Up         from   
Uncorrected Accelerogram Data             Processed: 09/10/01, CDMG  943ao005   
Record of Sun Sep  9, 2001 16:59:19 PDT               (Avol1 v4.6  7/01 CSMIP)  
CSMIP Preliminary Processing            (Origin:  To be determined)             
24943-L1843-01252.05                 Start time:  9/09/01, 23:59:19.0 UTC (GPS) 
Station No. 24943   34.172N, 118.289W      Etna  s/n 1843  (3 Channels)         
Glendale - Glenoaks & Western                                                   
Chan  2:  Up                                                                    
Record of Sun Sep  9, 2001 16:59:19 PDT    Sun Sep  9, 2001 16:59:19 PDT        
Hypocenter:  To be determined.               ML:  To be determined.             
Instr Period =  .0106 sec,  Damping =  .650,  Sensitivity =  .63  v/g           
                        Record length = 38.000 sec.                             
                                     Uncor Max  =   .011 g, at   4.950 sec.     
RMS accel of (uncor) record  =        .                                         
Accelerogram bandpass filtered with 3 dB pts at   .30 and 40.00 cyc/sec         
                 instrument- and baseline-corrected                             
                                                                                
                                                                                
                                                                                
                                                                                
                                                                                
Record of Sun Sep  9, 2001 16:59:19 PDT    Sun Sep  9, 2001 16:59:19 PDT        
                                                                                
24943-L1843-01252.05      Glendale - Glenoaks & Western   Chan  2:  Up          
                                                                                
24943-L1843-01252.05      Glendale - Glenoaks & Western   Chan  2:  Up          
                                                                                
Units for spectra are inches and sec, except Sa is in fraction of g.            
                                                                                
    2  100    2    3    3  200    1    3    1   24   12 1843    024943    1    0
   23   59   19    0  252    9    9 2001   10    3  500 7600   39   29   72  355
 7600    1   50    3 1843    1    5  380    1    0    0    0    0    0    0    0
    0    4    0    0 3800    2    0    0    0    0   72   29    0    0    0 3800
    0 3800   30   91    1    3    0    0    0    0    3    0    0    0    0    2
    2    2    4    0   32   99    0   32   32    0    0    1    0    0    0    0
  -99   -1    0    0
      .011      .650    38.000      .001      .000   625.000      .011     4.950
    94.500      .298      .477      .000     5.000      .000      .000      .000
     2.500   -29.787     -.012     -.026     5.000    30.000      .000     -.044
      .000      .044     2.000    15.000    34.172  -118.289      .204      .154
      .754      .016      .071  -999.000      .000      .000   -13.400      .000
  1000.000     1.066      .000      .000      .000      .000      .000      .000
     4.600     4.400      .000   980.665      .010    38.000    15.040      .000
      .000    40.000      .000    38.000      .010      .300      .000      .000
     4.950    10.627     2.170      .235     2.110     -.016      .000      .300
    40.000      .010      .010      .000      .010      .008      .000      .000
      .038      .070      .019      .012      .001      .000      .000      .000
      .000      .000      .000      .000      .000      .000      .000      .000
      .000      .000      .000      .000
      .050
      .040      .042      .044      .046      .048      .050      .055      .060
      .065      .070      .075      .080      .085      .090      .095      .100
      .110      .120      .130      .140      .150      .160      .170      .180
      .190      .200      .220      .240      .260      .280      .300      .320
      .340      .360      .380      .400      .420      .440      .460      .480
      .500      .550      .600      .650      .700      .750      .800      .850
      .900      .950     1.000     1.100     1.200     1.300     1.400     1.500
     1.600     1.700     1.800     1.900     2.000     2.200     2.400     2.600
     2.800     3.000     3.200     3.400     3.600     3.800     4.000     4.200
     4.400     4.600     4.800     5.000     5.500     6.000     6.500     7.000
     7.500     8.000     8.500     9.000     9.500    10.000    11.000    12.000
    13.000    14.000    15.000      .000      .000      .000      .000      .000
      .000      .000      .000      .000
Fourier amplitude spectra in in/sec.
  .000E+00  .000E+00  .000E+00  .000E+00  .000E+00  .000E+00  .000E+00  .000E+00
  .000E+00  .000E+00  .000E+00  .000E+00  .000E+00  .000E+00  .000E+00  .000E+00
  .000E+00  .000E+00  .000E+00  .000E+00  .000E+00  .000E+00  .000E+00  .000E+00
  .000E+00  .000E+00  .000E+00  .000E+00  .000E+00  .000E+00  .000E+00  .000E+00
  .000E+00  .000E+00  .000E+00  .000E+00  .000E+00  .000E+00  .000E+00  .000E+00
  .000E+00  .000E+00  .000E+00  .000E+00  .000E+00  .000E+00  .000E+00  .000E+00
  .000E+00  .000E+00  .000E+00  .000E+00  .000E+00  .000E+00  .000E+00  .000E+00
  .000E+00  .000E+00  .000E+00  .000E+00  .000E+00  .000E+00  .000E+00  .000E+00
  .000E+00  .000E+00  .000E+00  .000E+00  .000E+00  .000E+00  .000E+00  .000E+00
  .000E+00  .000E+00  .000E+00  .000E+00  .000E+00  .000E+00  .000E+00  .000E+00
  .000E+00  .000E+00  .000E+00  .000E+00  .000E+00  .000E+00  .000E+00  .000E+00
  .000E+00  .000E+00  .000E+00  .000E+00  .000E+00  .000E+00  .000E+00  .000E+00
  .000E+00  .000E+00  .000E+00  .000E+00
Damping =  .05. Data of Sd,Sv,Sa,Pssv,ttSd,ttSv,ttSa :
  .323E-03  .347E-03  .349E-03  .373E-03  .415E-03  .449E-03  .624E-03  .831E-03
  .123E-02  .180E-02  .190E-02  .220E-02  .203E-02  .201E-02  .275E-02  .311E-02
  .427E-02  .497E-02  .559E-02  .545E-02  .584E-02  .557E-02  .650E-02  .875E-02
  .858E-02  .761E-02  .658E-02  .761E-02  .111E-01  .980E-02  .106E-01  .108E-01
  .113E-01  .112E-01  .105E-01  .968E-02  .982E-02  .974E-02  .102E-01  .913E-02
