Response and Fourier amplitude spectra (91 periods,  .04 - 15.0 sec)   for      
Corrected accelerogram   24104-K1325-01253.02       Chan 11:   0 Deg     from   
Uncorrected Accelerogram Data             Processed: 09/10/01, CDMG  104bb002   
Record of Sun Sep  9, 2001 16:59:27 PDT               (Avol1 v4.6  7/01 CSMIP)  
CSMIP Preliminary Processing            (Origin:  To be determined)             
24104-K1325-01253.02                 Start time:  9/09/01, 23:59:27.0 UTC (GPS) 
Station No. 24104   34.289N, 118.745W        K2  s/n 1325 (12 Channels)         
Simi Valley - 2-story Hospital                                                  
Chan 11:   0 Deg                                                                
Record of Sun Sep  9, 2001 16:59:27 PDT    Sun Sep  9, 2001 16:59:27 PDT        
Hypocenter:  To be determined.               ML:  To be determined.
Instr Period =  .0200 sec,  Damping =  .700,  Sensitivity =  .63  v/g
                        Record length = 39.000 sec.
                                     Uncor Max  =  -.025 g, at   7.280 sec.
RMS accel of (uncor) record  =        .
Accelerogram bandpass filtered with 3 dB pts at   .30 and 40.00 cyc/sec
                 instrument- and baseline-corrected





Record of Sun Sep  9, 2001 16:59:27 PDT    Sun Sep  9, 2001 16:59:27 PDT

24104-K1325-01253.02      Simi Valley - 2-story Hospital    Chan 11:   0 Deg

24104-K1325-01253.02      Simi Valley - 2-story Hospital    Chan 11:   0 Deg

Units for spectra are inches and sec, except Sa is in fraction of g.

   11  100   11   12   12  200    1    3    1   24   11 1325    024104    2    0
   23   59   27    0  252    9    9 2001   10    3    0 7800   39   30   72  360
 7800    0   50    3 1325    1    2  390    1    0    0    0    0    0    0    0
    0    4    0    0 3900    2    0    0    0    0   72   30    0    0    0 3900
    0 3900   31   91    1   12    0    0    0    0   12    0    0    0    0    2
    2    2    4    0   72  117 -999   85   32    0    0    1    0    0    0    0
  -99   -1   11    0
      .020      .700    39.000      .002      .000   625.000     -.025     7.280
    50.000      .298      .477      .000     5.000      .000      .000      .000
     2.500     6.315      .020     -.011     5.000    30.000      .000      .032
     -.004     -.035     2.000    15.000    34.289  -118.745      .493      .430
      .872     -.102      .031  -999.000      .000      .000   -13.000      .000
  1000.000    -1.005      .000      .000      .000      .000      .000      .000
     4.600     4.400      .000   980.665      .010    39.000     7.958      .000
      .000    40.000      .000    39.000      .010      .300      .000      .000
     7.270   -24.630     7.340    -1.509     7.430     -.090      .000      .300
    40.000      .010      .010      .000      .010      .024      .000      .000
      .083      .240      .057      .068      .005      .001      .000      .000
      .000      .000      .000      .000      .000      .000      .000      .000
      .000      .000      .000      .000
      .050
      .040      .042      .044      .046      .048      .050      .055      .060
      .065      .070      .075      .080      .085      .090      .095      .100
      .110      .120      .130      .140      .150      .160      .170      .180
      .190      .200      .220      .240      .260      .280      .300      .320
      .340      .360      .380      .400      .420      .440      .460      .480
      .500      .550      .600      .650      .700      .750      .800      .850
      .900      .950     1.000     1.100     1.200     1.300     1.400     1.500
     1.600     1.700     1.800     1.900     2.000     2.200     2.400     2.600
     2.800     3.000     3.200     3.400     3.600     3.800     4.000     4.200
     4.400     4.600     4.800     5.000     5.500     6.000     6.500     7.000
     7.500     8.000     8.500     9.000     9.500    10.000    11.000    12.000
    13.000    14.000    15.000      .000      .000      .000      .000      .000
      .000      .000      .000      .000
Fourier amplitude spectra in in/sec.
  .000E+00  .000E+00  .000E+00  .000E+00  .000E+00  .000E+00  .000E+00  .000E+00
  .000E+00  .000E+00  .000E+00  .000E+00  .000E+00  .000E+00  .000E+00  .000E+00
  .000E+00  .000E+00  .000E+00  .000E+00  .000E+00  .000E+00  .000E+00  .000E+00
  .000E+00  .000E+00  .000E+00  .000E+00  .000E+00  .000E+00  .000E+00  .000E+00
  .000E+00  .000E+00  .000E+00  .000E+00  .000E+00  .000E+00  .000E+00  .000E+00
  .000E+00  .000E+00  .000E+00  .000E+00  .000E+00  .000E+00  .000E+00  .000E+00
  .000E+00  .000E+00  .000E+00  .000E+00  .000E+00  .000E+00  .000E+00  .000E+00
  .000E+00  .000E+00  .000E+00  .000E+00  .000E+00  .000E+00  .000E+00  .000E+00
  .000E+00  .000E+00  .000E+00  .000E+00  .000E+00  .000E+00  .000E+00  .000E+00
  .000E+00  .000E+00  .000E+00  .000E+00  .000E+00  .000E+00  .000E+00  .000E+00
  .000E+00  .000E+00  .000E+00  .000E+00  .000E+00  .000E+00  .000E+00  .000E+00
  .000E+00  .000E+00  .000E+00  .000E+00  .000E+00  .000E+00  .000E+00  .000E+00
  .000E+00  .000E+00  .000E+00  .000E+00
Damping =  .05. Data of Sd,Sv,Sa,Pssv,ttSd,ttSv,ttSa :
  .403E-03  .441E-03  .477E-03  .513E-03  .574E-03  .650E-03  .835E-03  .103E-02
  .121E-02  .136E-02  .169E-02  .196E-02  .220E-02  .251E-02  .276E-02  .292E-02
  .356E-02  .400E-02  .532E-02  .647E-02  .812E-02  .119E-01  .144E-01  .156E-01
  .184E-01  .215E-01  .293E-01  .466E-01  .490E-01  .521E-01  .615E-01  .656E-01
  .805E-01  .872E-01  .101E+00  .118E+00  .119E+00  .983E-01  .754E-01  .702E-01
  .807E-01  .870E-01  .662E-01  .473E-01  .566E-01  .560E-01  .584E-01  .556E-01
  .500E-01  .462E-01  .448E-01  .487E-01  .552E-01  .560E-01  .525E-01  .478E-01
  .437E-01  .407E-01  .387E-01  .377E-01  .375E-01  .386E-01  .396E-01  .397E-01
  .391E-01  .385E-01  .380E-01  .377E-01  .375E-01  .374E-01  .373E-01  .371E-01
  .370E-01  .369E-01  .367E-01  .366E-01  .363E-01  .361E-01  .360E-01  .359E-01
  .358E-01  .358E-01  .357E-01  .357E-01  .357E-01  .356E-01  .356E-01  .356E-01
  .355E-01  .355E-01  .355E-01  .000E+00  .000E+00  .000E+00  .000E+00  .000E+00
  .000E+00  .000E+00  .000E+00  .000E+00
  .173E-01  .205E-01  .236E-01  .252E-01  .264E-01  .280E-01  .307E-01  .376E-01
  .470E-01  .497E-01  .615E-01  .610E-01  .576E-01  .698E-01  .788E-01  .819E-01
  .987E-01  .114E+00  .133E+00  .160E+00  .189E+00  .319E+00  .386E+00  .374E+00
  .422E+00  .483E+00  .654E+00  .105E+01  .112E+01  .108E+01  .122E+01  .126E+01
  .147E+01  .151E+01  .170E+01  .194E+01  .183E+01  .155E+01  .120E+01  .103E+01
  .111E+01  .128E+01  .986E+00  .757E+00  .748E+00  .762E+00  .729E+00  .741E+00
  .714E+00  .680E+00  .652E+00  .625E+00  .648E+00  .674E+00  .681E+00  .675E+00
  .663E+00  .650E+00  .638E+00  .628E+00  .621E+00  .613E+00  .611E+00  .610E+00
  .609E+00  .608E+00  .606E+00  .604E+00  .603E+00  .602E+00  .601E+00  .601E+00
  .600E+00  .599E+00  .599E+00  .598E+00  .598E+00  .597E+00  .596E+00  .596E+00
  .595E+00  .595E+00  .595E+00  .595E+00  .594E+00  .594E+00  .594E+00  .594E+00
  .594E+00  .594E+00  .593E+00  .000E+00  .000E+00  .000E+00  .000E+00  .000E+00
  .000E+00  .000E+00  .000E+00  .000E+00
  .258E-01  .255E-01  .252E-01  .248E-01  .255E-01  .266E-01  .282E-01  .292E-01
  .293E-01  .283E-01  .307E-01  .314E-01  .311E-01  .318E-01  .313E-01  .301E-01
  .299E-01  .284E-01  .324E-01  .339E-01  .370E-01  .479E-01  .507E-01  .493E-01
  .524E-01  .554E-01  .622E-01  .830E-01  .749E-01  .683E-01  .705E-01  .659E-01
  .714E-01  .691E-01  .722E-01  .763E-01  .696E-01  .523E-01  .367E-01  .314E-01
  .333E-01  .296E-01  .190E-01  .115E-01  .119E-01  .103E-01  .947E-02  .804E-02
  .648E-02  .539E-02  .472E-02  .424E-02  .405E-02  .352E-02  .287E-02  .230E-02
  .187E-02  .156E-02  .134E-02  .119E-02  .108E-02  .930E-03  .815E-03  .710E-03
  .620E-03  .545E-03  .485E-03  .437E-03  .399E-03  .366E-03  .338E-03  .314E-03
  .292E-03  .274E-03  .258E-03  .244E-03  .214E-03  .190E-03  .172E-03  .157E-03
  .144E-03  .134E-03  .124E-03  .116E-03  .109E-03  .103E-03  .932E-04  .848E-04
  .778E-04  .718E-04  .668E-04  .000E+00  .000E+00  .000E+00  .000E+00  .000E+00
  .000E+00  .000E+00  .000E+00  .000E+00
  .633E-01  .660E-01  .680E-01  .701E-01  .751E-01  .817E-01  .954E-01  .108E+00
  .117E+00  .122E+00  .142E+00  .154E+00  .162E+00  .176E+00  .182E+00  .183E+00
  .203E+00  .210E+00  .257E+00  .290E+00  .340E+00  .467E+00  .531E+00  .543E+00
  .609E+00  .676E+00  .838E+00  .122E+01  .118E+01  .117E+01  .129E+01  .129E+01
  .149E+01  .152E+01  .168E+01  .186E+01  .179E+01  .140E+01  .103E+01  .919E+00
  .101E+01  .994E+00  .693E+00  .458E+00  .508E+00  .469E+00  .459E+00  .411E+00
  .349E+00  .306E+00  .281E+00  .278E+00  .289E+00  .271E+00  .235E+00  .200E+00
  .172E+00  .151E+00  .135E+00  .125E+00  .118E+00  .110E+00  .104E+00  .959E-01
  .878E-01  .807E-01  .747E-01  .697E-01  .655E-01  .618E-01  .585E-01  .555E-01
  .528E-01  .504E-01  .481E-01  .460E-01  .415E-01  .378E-01  .348E-01  .322E-01
  .300E-01  .281E-01  .264E-01  .249E-01  .236E-01  .224E-01  .203E-01  .186E-01
  .172E-01  .159E-01  .149E-01  .000E+00  .000E+00  .000E+00  .000E+00  .000E+00
  .000E+00  .000E+00  .000E+00  .000E+00
  .742E+01  .743E+01  .728E+01  .725E+01  .741E+01  .741E+01  .742E+01  .743E+01
  .743E+01  .744E+01  .726E+01  .726E+01  .727E+01  .727E+01  .727E+01  .727E+01
  .728E+01  .728E+01  .739E+01  .725E+01  .726E+01  .727E+01  .740E+01  .741E+01
  .741E+01  .741E+01  .743E+01  .744E+01  .761E+01  .762E+01  .764E+01  .765E+01
  .766E+01  .768E+01  .769E+01  .753E+01  .755E+01  .757E+01  .757E+01  .757E+01
  .757E+01  .760E+01  .741E+01  .831E+01  .834E+01  .838E+01  .741E+01  .741E+01
  .741E+01  .741E+01  .741E+01  .741E+01  .741E+01  .742E+01  .742E+01  .742E+01
  .742E+01  .742E+01  .742E+01  .742E+01  .742E+01  .742E+01  .742E+01  .742E+01
  .742E+01  .742E+01  .742E+01  .742E+01  .742E+01  .742E+01  .742E+01  .742E+01
  .742E+01  .742E+01  .742E+01  .742E+01  .742E+01  .742E+01  .742E+01  .742E+01
  .742E+01  .742E+01  .742E+01  .742E+01  .742E+01  .742E+01  .742E+01  .742E+01
  .742E+01  .742E+01  .742E+01  .000E+00  .000E+00  .000E+00  .000E+00  .000E+00
  .000E+00  .000E+00  .000E+00  .000E+00
  .734E+01  .734E+01  .734E+01  .734E+01  .734E+01  .734E+01  .735E+01  .751E+01
  .752E+01  .746E+01  .746E+01  .736E+01  .730E+01  .730E+01  .731E+01  .731E+01
  .731E+01  .733E+01  .735E+01  .720E+01  .633E+01  .732E+01  .735E+01  .735E+01
  .736E+01  .736E+01  .750E+01  .751E+01  .754E+01  .754E+01  .771E+01  .773E+01
  .775E+01  .776E+01  .760E+01  .762E+01  .746E+01  .747E+01  .748E+01  .748E+01
  .747E+01  .749E+01  .732E+01  .732E+01  .749E+01  .750E+01  .732E+01  .732E+01
  .732E+01  .733E+01  .733E+01  .733E+01  .733E+01  .733E+01  .733E+01  .733E+01
  .733E+01  .733E+01  .733E+01  .733E+01  .733E+01  .733E+01  .733E+01  .733E+01
  .733E+01  .733E+01  .733E+01  .733E+01  .733E+01  .733E+01  .733E+01  .733E+01
  .733E+01  .733E+01  .733E+01  .733E+01  .733E+01  .733E+01  .733E+01  .733E+01
  .733E+01  .733E+01  .733E+01  .733E+01  .733E+01  .733E+01  .733E+01  .733E+01
  .733E+01  .733E+01  .733E+01  .000E+00  .000E+00  .000E+00  .000E+00  .000E+00
  .000E+00  .000E+00  .000E+00  .000E+00
  .742E+01  .743E+01  .728E+01  .725E+01  .741E+01  .741E+01  .742E+01  .743E+01
  .743E+01  .744E+01  .726E+01  .726E+01  .727E+01  .727E+01  .727E+01  .727E+01
  .728E+01  .738E+01  .739E+01  .725E+01  .726E+01  .727E+01  .740E+01  .740E+01
  .741E+01  .741E+01  .743E+01  .744E+01  .760E+01  .761E+01  .763E+01  .764E+01
  .766E+01  .767E+01  .769E+01  .752E+01  .754E+01  .756E+01  .757E+01  .756E+01
  .756E+01  .759E+01  .740E+01  .830E+01  .833E+01  .836E+01  .740E+01  .740E+01
  .740E+01  .740E+01  .740E+01  .740E+01  .740E+01  .740E+01  .740E+01  .740E+01
  .740E+01  .740E+01  .739E+01  .739E+01  .739E+01  .739E+01  .739E+01  .738E+01
  .738E+01  .738E+01  .738E+01  .738E+01  .737E+01  .737E+01  .737E+01  .737E+01
  .737E+01  .736E+01  .736E+01  .736E+01  .736E+01  .735E+01  .735E+01  .735E+01
  .735E+01  .735E+01  .735E+01  .735E+01  .734E+01  .734E+01  .734E+01  .734E+01
  .734E+01  .734E+01  .734E+01  .000E+00  .000E+00  .000E+00  .000E+00  .000E+00
  .000E+00  .000E+00  .000E+00  .000E+00
/&   ----------  End of spectral data for channel 11  ----------
