Response and Fourier amplitude spectra (91 periods,  .04 - 15.0 sec)   for      
Corrected accelerogram   24009-L1798-01252.08       Chan  1:   0 Deg     from   
Uncorrected Accelerogram Data             Processed: 09/10/01, CDMG  al008      
Record of Sun Sep  9, 2001 16:59:21 PDT               (Avol1 v4.6  7/01 CSMIP)  
CSMIP Preliminary Processing            (Origin:  To be determined)             
24009-L1798-01252.08                 Start time:  9/09/01, 23:59:21.0 UTC (GPS) 
Station No. 24009   34.258N, 118.301W      Etna  s/n 1798  (3 Channels)         
Tujunga - Foothill & Mt Gleason Ave                                             
Chan  1:   0 Deg                                                                
Record of Sun Sep  9, 2001 16:59:21 PDT    Sun Sep  9, 2001 16:59:21 PDT        
Hypocenter:  To be determined.               ML:  To be determined.             
Instr Period =  .0107 sec,  Damping =  .670,  Sensitivity =  .63  v/g           
                        Record length = 36.000 sec.                             
                                     Uncor Max  =  -.009 g, at   5.490 sec.     
RMS accel of (uncor) record  =        .                                         
Accelerogram bandpass filtered with 3 dB pts at   .30 and 40.00 cyc/sec         
                 instrument- and baseline-corrected                             
                                                                                
                                                                                
                                                                                
                                                                                
                                                                                
Record of Sun Sep  9, 2001 16:59:21 PDT    Sun Sep  9, 2001 16:59:21 PDT        
                                                                                
24009-L1798-01252.08      Tujunga - Foothill & Mt Gleason Ave   Chan  1:   0 Deg
                                                                                
24009-L1798-01252.08      Tujunga - Foothill & Mt Gleason Ave   Chan  1:   0 Deg
                                                                                
Units for spectra are inches and sec, except Sa is in fraction of g.            
                                                                                
    1  100    1    3    3  200    1    3    1   24   12 1798    024009    1    0
   23   59   21    0  252    9    9 2001   10    3    0 7200   39   35   72 -999
 7200    1   50    3 1798    1    8  360    1    0    0    0    0    0    0    0
    0    4    0    0 3600    2    0    0    0    0   72   35    0    0    0 3600
    0 3600   36   91    1    3    0    0    0    0    3    0    0    0    0    2
    2    2    4    0   32   99 -999   32   32    0    0    1    0    0    0    0
  -99   -1    0    0
      .011      .670    36.000      .001      .000   625.000     -.009     5.490
    93.400      .298      .477      .000     5.000      .000      .000      .000
     2.500    -5.246      .002     -.008     5.000    30.000      .000     -.005
      .001      .006     2.000    15.000    34.258  -118.301      .351      .161
      .460     -.040      .052  -999.000      .000      .000   -13.600      .000
  1000.000     1.049      .000      .000      .000      .000      .000      .000
     4.600     4.400      .000   980.665      .010    36.000    14.865      .000
      .000    40.000      .000    36.000      .010      .300      .000      .000
     5.490    -8.353     5.130      .295     4.980     -.021      .000      .300
    40.000      .010      .010      .000      .010      .008      .000      .000
      .024      .120      .014      .019      .002      .000      .000      .000
      .000      .000      .000      .000      .000      .000      .000      .000
      .000      .000      .000      .000
      .050
      .040      .042      .044      .046      .048      .050      .055      .060
      .065      .070      .075      .080      .085      .090      .095      .100
      .110      .120      .130      .140      .150      .160      .170      .180
      .190      .200      .220      .240      .260      .280      .300      .320
      .340      .360      .380      .400      .420      .440      .460      .480
      .500      .550      .600      .650      .700      .750      .800      .850
      .900      .950     1.000     1.100     1.200     1.300     1.400     1.500
     1.600     1.700     1.800     1.900     2.000     2.200     2.400     2.600
     2.800     3.000     3.200     3.400     3.600     3.800     4.000     4.200
     4.400     4.600     4.800     5.000     5.500     6.000     6.500     7.000
     7.500     8.000     8.500     9.000     9.500    10.000    11.000    12.000
    13.000    14.000    15.000      .000      .000      .000      .000      .000
      .000      .000      .000      .000
Fourier amplitude spectra in in/sec.
  .000E+00  .000E+00  .000E+00  .000E+00  .000E+00  .000E+00  .000E+00  .000E+00
  .000E+00  .000E+00  .000E+00  .000E+00  .000E+00  .000E+00  .000E+00  .000E+00
  .000E+00  .000E+00  .000E+00  .000E+00  .000E+00  .000E+00  .000E+00  .000E+00
  .000E+00  .000E+00  .000E+00  .000E+00  .000E+00  .000E+00  .000E+00  .000E+00
  .000E+00  .000E+00  .000E+00  .000E+00  .000E+00  .000E+00  .000E+00  .000E+00
  .000E+00  .000E+00  .000E+00  .000E+00  .000E+00  .000E+00  .000E+00  .000E+00
  .000E+00  .000E+00  .000E+00  .000E+00  .000E+00  .000E+00  .000E+00  .000E+00
  .000E+00  .000E+00  .000E+00  .000E+00  .000E+00  .000E+00  .000E+00  .000E+00
  .000E+00  .000E+00  .000E+00  .000E+00  .000E+00  .000E+00  .000E+00  .000E+00
  .000E+00  .000E+00  .000E+00  .000E+00  .000E+00  .000E+00  .000E+00  .000E+00
  .000E+00  .000E+00  .000E+00  .000E+00  .000E+00  .000E+00  .000E+00  .000E+00
  .000E+00  .000E+00  .000E+00  .000E+00  .000E+00  .000E+00  .000E+00  .000E+00
  .000E+00  .000E+00  .000E+00  .000E+00
Damping =  .05. Data of Sd,Sv,Sa,Pssv,ttSd,ttSv,ttSa :
  .174E-03  .198E-03  .215E-03  .251E-03  .310E-03  .385E-03  .608E-03  .587E-03
  .584E-03  .704E-03  .915E-03  .122E-02  .154E-02  .161E-02  .164E-02  .180E-02
  .260E-02  .344E-02  .397E-02  .425E-02  .452E-02  .478E-02  .481E-02  .464E-02
  .511E-02  .565E-02  .659E-02  .730E-02  .922E-02  .122E-01  .181E-01  .208E-01
  .226E-01  .231E-01  .233E-01  .209E-01  .218E-01  .245E-01  .221E-01  .191E-01
  .167E-01  .150E-01  .152E-01  .182E-01  .215E-01  .209E-01  .222E-01  .192E-01
  .196E-01  .192E-01  .180E-01  .187E-01  .163E-01  .131E-01  .116E-01  .106E-01
  .104E-01  .109E-01  .109E-01  .106E-01  .102E-01  .968E-02  .964E-02  .972E-02
  .968E-02  .949E-02  .921E-02  .890E-02  .892E-02  .894E-02  .893E-02  .888E-02
  .882E-02  .874E-02  .867E-02  .859E-02  .843E-02  .832E-02  .824E-02  .820E-02
  .818E-02  .819E-02  .820E-02  .821E-02  .824E-02  .826E-02  .832E-02  .838E-02
  .842E-02  .847E-02  .851E-02  .000E+00  .000E+00  .000E+00  .000E+00  .000E+00
  .000E+00  .000E+00  .000E+00  .000E+00
  .128E-01  .145E-01  .182E-01  .197E-01  .222E-01  .282E-01  .488E-01  .504E-01
  .402E-01  .505E-01  .624E-01  .849E-01  .972E-01  .103E+00  .925E-01  .924E-01
  .118E+00  .154E+00  .172E+00  .177E+00  .179E+00  .174E+00  .176E+00  .165E+00
  .180E+00  .189E+00  .176E+00  .179E+00  .209E+00  .258E+00  .382E+00  .400E+00
  .419E+00  .410E+00  .407E+00  .349E+00  .335E+00  .363E+00  .337E+00  .285E+00
  .250E+00  .217E+00  .197E+00  .196E+00  .205E+00  .228E+00  .198E+00  .197E+00
  .181E+00  .168E+00  .169E+00  .149E+00  .145E+00  .141E+00  .135E+00  .133E+00
  .133E+00  .133E+00  .131E+00  .129E+00  .127E+00  .124E+00  .123E+00  .122E+00
  .122E+00  .121E+00  .121E+00  .120E+00  .119E+00  .119E+00  .118E+00  .118E+00
  .117E+00  .117E+00  .117E+00  .117E+00  .116E+00  .116E+00  .116E+00  .116E+00
  .116E+00  .116E+00  .116E+00  .116E+00  .116E+00  .116E+00  .116E+00  .116E+00
  .116E+00  .116E+00  .116E+00  .000E+00  .000E+00  .000E+00  .000E+00  .000E+00
  .000E+00  .000E+00  .000E+00  .000E+00
  .111E-01  .115E-01  .114E-01  .121E-01  .137E-01  .158E-01  .209E-01  .168E-01
  .141E-01  .148E-01  .165E-01  .198E-01  .219E-01  .204E-01  .186E-01  .181E-01
  .219E-01  .242E-01  .237E-01  .219E-01  .205E-01  .191E-01  .171E-01  .147E-01
  .146E-01  .145E-01  .140E-01  .130E-01  .139E-01  .159E-01  .207E-01  .209E-01
  .201E-01  .184E-01  .166E-01  .134E-01  .127E-01  .130E-01  .108E-01  .854E-02
  .691E-02  .512E-02  .433E-02  .444E-02  .452E-02  .385E-02  .359E-02  .274E-02
  .249E-02  .220E-02  .187E-02  .161E-02  .118E-02  .820E-03  .631E-03  .509E-03
  .449E-03  .418E-03  .377E-03  .333E-03  .293E-03  .237E-03  .202E-03  .177E-03
  .155E-03  .136E-03  .119E-03  .105E-03  .930E-04  .836E-04  .770E-04  .711E-04
  .658E-04  .611E-04  .569E-04  .532E-04  .459E-04  .406E-04  .363E-04  .328E-04
  .298E-04  .272E-04  .250E-04  .233E-04  .219E-04  .207E-04  .186E-04  .169E-04
  .155E-04  .143E-04  .132E-04  .000E+00  .000E+00  .000E+00  .000E+00  .000E+00
  .000E+00  .000E+00  .000E+00  .000E+00
  .273E-01  .296E-01  .307E-01  .343E-01  .406E-01  .484E-01  .695E-01  .615E-01
  .564E-01  .632E-01  .766E-01  .961E-01  .114E+00  .113E+00  .109E+00  .113E+00
  .148E+00  .180E+00  .192E+00  .191E+00  .190E+00  .188E+00  .178E+00  .162E+00
  .169E+00  .177E+00  .188E+00  .191E+00  .223E+00  .273E+00  .379E+00  .408E+00
  .418E+00  .403E+00  .386E+00  .328E+00  .327E+00  .350E+00  .302E+00  .250E+00
  .210E+00  .172E+00  .159E+00  .176E+00  .193E+00  .175E+00  .174E+00  .142E+00
  .137E+00  .127E+00  .113E+00  .107E+00  .852E-01  .634E-01  .521E-01  .445E-01
  .408E-01  .402E-01  .379E-01  .349E-01  .319E-01  .276E-01  .252E-01  .235E-01
  .217E-01  .199E-01  .181E-01  .164E-01  .156E-01  .148E-01  .140E-01  .133E-01
  .126E-01  .119E-01  .113E-01  .108E-01  .964E-02  .871E-02  .797E-02  .736E-02
  .685E-02  .643E-02  .606E-02  .573E-02  .545E-02  .519E-02  .475E-02  .439E-02
  .407E-02  .380E-02  .357E-02  .000E+00  .000E+00  .000E+00  .000E+00  .000E+00
  .000E+00  .000E+00  .000E+00  .000E+00
  .515E+01  .515E+01  .515E+01  .548E+01  .548E+01  .548E+01  .549E+01  .536E+01
  .516E+01  .536E+01  .536E+01  .537E+01  .551E+01  .642E+01  .517E+01  .517E+01
  .517E+01  .518E+01  .519E+01  .520E+01  .521E+01  .522E+01  .532E+01  .534E+01
  .501E+01  .501E+01  .553E+01  .503E+01  .553E+01  .715E+01  .555E+01  .557E+01
  .559E+01  .579E+01  .581E+01  .606E+01  .739E+01  .743E+01  .725E+01  .638E+01
  .640E+01  .642E+01  .809E+01  .814E+01  .729E+01  .625E+01  .709E+01  .598E+01
  .601E+01  .602E+01  .604E+01  .572E+01  .573E+01  .573E+01  .573E+01  .573E+01
  .548E+01  .548E+01  .548E+01  .548E+01  .548E+01  .548E+01  .548E+01  .548E+01
  .548E+01  .548E+01  .548E+01  .548E+01  .496E+01  .496E+01  .496E+01  .496E+01
  .496E+01  .496E+01  .496E+01  .496E+01  .496E+01  .496E+01  .496E+01  .496E+01
  .496E+01  .496E+01  .496E+01  .496E+01  .496E+01  .496E+01  .496E+01  .496E+01
  .496E+01  .496E+01  .496E+01  .000E+00  .000E+00  .000E+00  .000E+00  .000E+00
  .000E+00  .000E+00  .000E+00  .000E+00
  .541E+01  .541E+01  .541E+01  .542E+01  .547E+01  .547E+01  .551E+01  .538E+01
  .538E+01  .538E+01  .538E+01  .630E+01  .536E+01  .640E+01  .528E+01  .519E+01
  .520E+01  .515E+01  .516E+01  .516E+01  .517E+01  .581E+01  .528E+01  .529E+01
  .505E+01  .506E+01  .506E+01  .507E+01  .560E+01  .561E+01  .562E+01  .564E+01
  .551E+01  .552E+01  .553E+01  .575E+01  .749E+01  .733E+01  .736E+01  .627E+01
  .628E+01  .628E+01  .628E+01  .737E+01  .715E+01  .721E+01  .722E+01  .615E+01
  .703E+01  .586E+01  .587E+01  .587E+01  .512E+01  .512E+01  .512E+01  .512E+01
  .512E+01  .512E+01  .512E+01  .512E+01  .512E+01  .512E+01  .512E+01  .512E+01
  .512E+01  .512E+01  .512E+01  .512E+01  .512E+01  .512E+01  .512E+01  .512E+01
  .512E+01  .512E+01  .512E+01  .512E+01  .512E+01  .512E+01  .512E+01  .512E+01
  .512E+01  .512E+01  .512E+01  .512E+01  .512E+01  .512E+01  .512E+01  .512E+01
  .512E+01  .512E+01  .512E+01  .000E+00  .000E+00  .000E+00  .000E+00  .000E+00
  .000E+00  .000E+00  .000E+00  .000E+00
  .515E+01  .515E+01  .515E+01  .548E+01  .548E+01  .548E+01  .549E+01  .550E+01
  .515E+01  .536E+01  .536E+01  .536E+01  .550E+01  .642E+01  .517E+01  .516E+01
  .517E+01  .518E+01  .519E+01  .519E+01  .520E+01  .522E+01  .532E+01  .534E+01
  .500E+01  .501E+01  .552E+01  .502E+01  .552E+01  .714E+01  .554E+01  .556E+01
  .558E+01  .578E+01  .581E+01  .605E+01  .739E+01  .742E+01  .725E+01  .638E+01
  .639E+01  .641E+01  .808E+01  .813E+01  .727E+01  .624E+01  .708E+01  .710E+01
  .599E+01  .601E+01  .602E+01  .570E+01  .571E+01  .571E+01  .571E+01  .571E+01
  .546E+01  .546E+01  .546E+01  .546E+01  .546E+01  .546E+01  .546E+01  .546E+01
  .546E+01  .546E+01  .546E+01  .546E+01  .546E+01  .492E+01  .492E+01  .492E+01
  .492E+01  .492E+01  .492E+01  .492E+01  .545E+01  .545E+01  .545E+01  .545E+01
  .545E+01  .545E+01  .545E+01  .512E+01  .512E+01  .512E+01  .512E+01  .512E+01
  .512E+01  .512E+01  .512E+01  .000E+00  .000E+00  .000E+00  .000E+00  .000E+00
  .000E+00  .000E+00  .000E+00  .000E+00
/&   ----------  End of spectral data for channel  1  ----------
Response and Fourier amplitude spectra (91 periods,  .04 - 15.0 sec)   for      
Corrected accelerogram   24009-L1798-01252.08       Chan  2:   0 Deg     from   
Uncorrected Accelerogram Data             Processed: 09/10/01, CDMG  al008      
Record of Sun Sep  9, 2001 16:59:21 PDT               (Avol1 v4.6  7/01 CSMIP)  
CSMIP Preliminary Processing            (Origin:  To be determined)             
24009-L1798-01252.08                 Start time:  9/09/01, 23:59:21.0 UTC (GPS) 
Station No. 24009   34.258N, 118.301W      Etna  s/n 1798  (3 Channels)         
Tujunga - Foothill & Mt Gleason Ave                                             
Chan  2:   0 Deg                                                                
Record of Sun Sep  9, 2001 16:59:21 PDT    Sun Sep  9, 2001 16:59:21 PDT        
Hypocenter:  To be determined.               ML:  To be determined.             
Instr Period =  .0108 sec,  Damping =  .650,  Sensitivity =  .63  v/g           
                        Record length = 36.000 sec.                             
                                     Uncor Max  =  -.006 g, at   5.605 sec.     
RMS accel of (uncor) record  =        .                                         
Accelerogram bandpass filtered with 3 dB pts at   .30 and 40.00 cyc/sec         
                 instrument- and baseline-corrected                             
                                                                                
                                                                                
                                                                                
                                                                                
                                                                                
Record of Sun Sep  9, 2001 16:59:21 PDT    Sun Sep  9, 2001 16:59:21 PDT        
                                                                                
24009-L1798-01252.08      Tujunga - Foothill & Mt Gleason Ave   Chan  2:   0 Deg
                                                                                
24009-L1798-01252.08      Tujunga - Foothill & Mt Gleason Ave   Chan  2:   0 Deg
                                                                                
Units for spectra are inches and sec, except Sa is in fraction of g.            
                                                                                
    2  100    2    3    3  200    1    3    1   24   12 1798    024009    1    0
   23   59   21    0  252    9    9 2001   10    3    0 7200   39   35   72 -999
 7200    1   50    3 1798    1    8  360    1    0    0    0    0    0    0    0
    0    4    0    0 3600    2    0    0    0    0   72   35    0    0    0 3600
    0 3600   36   91    1    3    0    0    0    0    3    0    0    0    0    2
    2    2    4    0   32   99 -999   32   32    0    0    1    0    0    0    0
  -99   -1    0    0
      .011      .650    36.000      .001      .000   625.000     -.006     5.605
    92.900      .298      .477      .000     5.000      .000      .000      .000
     2.500   -24.844     -.012     -.019     5.000    30.000      .000      .006
      .002     -.004     2.000    15.000    34.258  -118.301     1.101      .137
      .124     -.146      .138  -999.000      .000      .000   -13.600      .000
  1000.000    -1.042      .000      .000      .000      .000      .000      .000
     4.600     4.400      .000   980.665      .010    36.000    14.785      .000
      .000    40.000      .000    36.000      .010      .300      .000      .000
     5.600    -5.747     6.540     -.173     6.610     -.009      .000      .300
    40.000      .010      .010      .000      .010      .005      .000      .000
      .017      .085      .011      .009      .001      .000      .000      .000
      .000      .000      .000      .000      .000      .000      .000      .000
      .000      .000      .000      .000
      .050
      .040      .042      .044      .046      .048      .050      .055      .060
      .065      .070      .075      .080      .085      .090      .095      .100
      .110      .120      .130      .140      .150      .160      .170      .180
      .190      .200      .220      .240      .260      .280      .300      .320
      .340      .360      .380      .400      .420      .440      .460      .480
      .500      .550      .600      .650      .700      .750      .800      .850
      .900      .950     1.000     1.100     1.200     1.300     1.400     1.500
     1.600     1.700     1.800     1.900     2.000     2.200     2.400     2.600
     2.800     3.000     3.200     3.400     3.600     3.800     4.000     4.200
     4.400     4.600     4.800     5.000     5.500     6.000     6.500     7.000
     7.500     8.000     8.500     9.000     9.500    10.000    11.000    12.000
    13.000    14.000    15.000      .000      .000      .000      .000      .000
      .000      .000      .000      .000
Fourier amplitude spectra in in/sec.
  .000E+00  .000E+00  .000E+00  .000E+00  .000E+00  .000E+00  .000E+00  .000E+00
  .000E+00  .000E+00  .000E+00  .000E+00  .000E+00  .000E+00  .000E+00  .000E+00
  .000E+00  .000E+00  .000E+00  .000E+00  .000E+00  .000E+00  .000E+00  .000E+00
  .000E+00  .000E+00  .000E+00  .000E+00  .000E+00  .000E+00  .000E+00  .000E+00
  .000E+00  .000E+00  .000E+00  .000E+00  .000E+00  .000E+00  .000E+00  .000E+00
  .000E+00  .000E+00  .000E+00  .000E+00  .000E+00  .000E+00  .000E+00  .000E+00
  .000E+00  .000E+00  .000E+00  .000E+00  .000E+00  .000E+00  .000E+00  .000E+00
  .000E+00  .000E+00  .000E+00  .000E+00  .000E+00  .000E+00  .000E+00  .000E+00
  .000E+00  .000E+00  .000E+00  .000E+00  .000E+00  .000E+00  .000E+00  .000E+00
  .000E+00  .000E+00  .000E+00  .000E+00  .000E+00  .000E+00  .000E+00  .000E+00
  .000E+00  .000E+00  .000E+00  .000E+00  .000E+00  .000E+00  .000E+00  .000E+00
  .000E+00  .000E+00  .000E+00  .000E+00  .000E+00  .000E+00  .000E+00  .000E+00
  .000E+00  .000E+00  .000E+00  .000E+00
Damping =  .05. Data of Sd,Sv,Sa,Pssv,ttSd,ttSv,ttSa :
  .149E-03  .167E-03  .153E-03  .192E-03  .196E-03  .215E-03  .297E-03  .386E-03
  .479E-03  .599E-03  .803E-03  .101E-02  .120E-02  .119E-02  .119E-02  .127E-02
  .102E-02  .145E-02  .165E-02  .249E-02  .276E-02  .313E-02  .365E-02  .421E-02
  .411E-02  .419E-02  .473E-02  .476E-02  .710E-02  .868E-02  .696E-02  .770E-02
  .901E-02  .104E-01  .137E-01  .149E-01  .134E-01  .106E-01  .902E-02  .891E-02
