Response and Fourier amplitude spectra (91 periods,  .04 - 15.0 sec)   for      
Corrected accelerogram   14060-L1216-01252.04       Chan  1:   0 Deg     from   
Uncorrected Accelerogram Data             Processed: 09/10/01, CDMG  060bb004   
Record of Sun Sep  9, 2001 16:59:21 PDT               (Avol1 v4.6  7/01 CSMIP)  
CSMIP Preliminary Processing            (Origin:  To be determined)             
14060-L1216-01252.04                 Start time:  9/09/01, 23:59:21.0 UTC (GPS) 
Station No. 14060   33.999N, 118.178W      Etna  s/n 1216  (3 Channels)         
Vernon - I710 & Bandini                                                         
Chan  1:   0 Deg                                                                
Record of Sun Sep  9, 2001 16:59:21 PDT    Sun Sep  9, 2001 16:59:21 PDT        
Hypocenter:  To be determined.               ML:  To be determined.             
Instr Period =  .0106 sec,  Damping =  .640,  Sensitivity =  .63  v/g           
                        Record length = 45.000 sec.                             
                                     Uncor Max  =   .009 g, at   5.525 sec.     
RMS accel of (uncor) record  =        .                                         
Accelerogram bandpass filtered with 3 dB pts at   .30 and 40.00 cyc/sec         
                 instrument- and baseline-corrected                             
                                                                                
                                                                                
                                                                                
                                                                                
                                                                                
Record of Sun Sep  9, 2001 16:59:21 PDT    Sun Sep  9, 2001 16:59:21 PDT        
                                                                                
14060-L1216-01252.04      Vernon - I710 & Bandini   Chan  1:   0 Deg            
                                                                                
14060-L1216-01252.04      Vernon - I710 & Bandini   Chan  1:   0 Deg            
                                                                                
Units for spectra are inches and sec, except Sa is in fraction of g.            
                                                                                
    1  100    1    3    3  200    1    3    1   24   12 1216    014060    1    0
   23   59   21    0  252    9    9 2001   10    3    0 9000   39   23   72 -999
 9000    1   50    3 1216    1    4  450    1    0    0    0    0    0    0    0
    0    4    0    0 4500    2    0    0    0    0   72   23    0    0    0 4500
    0 4500   24   91    1    3    0    0    0    0    3    0    0    0    0    2
    2    2    4    0   32   99 -999   32   32    0    0    1    0    0    0    0
  -99   -1    0    0
      .011      .640    45.000      .002      .000   625.000      .009     5.525
    94.300      .298      .477      .000     5.000      .000      .000      .000
     2.500   -37.096     -.018     -.029     5.000    30.000      .000      .002
     -.003     -.005     2.000    15.000    33.999  -118.178      .057      .325
     5.691     -.022      .012  -999.000      .000      .000   -13.400      .000
  1000.000     1.025      .000      .000      .000      .000      .000      .000
     4.600     4.400      .000   980.665      .010    45.000    15.008      .000
      .000    40.000      .000    45.000      .010      .300      .000      .000
     5.520     8.983     9.830      .527    10.030      .044      .000      .300
    40.000      .010      .010      .000      .010      .023      .000      .000
      .034      .200      .033      .029      .004      .000      .000      .000
      .000      .000      .000      .000      .000      .000      .000      .000
      .000      .000      .000      .000
      .050
      .040      .042      .044      .046      .048      .050      .055      .060
      .065      .070      .075      .080      .085      .090      .095      .100
      .110      .120      .130      .140      .150      .160      .170      .180
      .190      .200      .220      .240      .260      .280      .300      .320
      .340      .360      .380      .400      .420      .440      .460      .480
      .500      .550      .600      .650      .700      .750      .800      .850
      .900      .950     1.000     1.100     1.200     1.300     1.400     1.500
     1.600     1.700     1.800     1.900     2.000     2.200     2.400     2.600
     2.800     3.000     3.200     3.400     3.600     3.800     4.000     4.200
     4.400     4.600     4.800     5.000     5.500     6.000     6.500     7.000
     7.500     8.000     8.500     9.000     9.500    10.000    11.000    12.000
    13.000    14.000    15.000      .000      .000      .000      .000      .000
      .000      .000      .000      .000
Fourier amplitude spectra in in/sec.
  .000E+00  .000E+00  .000E+00  .000E+00  .000E+00  .000E+00  .000E+00  .000E+00
  .000E+00  .000E+00  .000E+00  .000E+00  .000E+00  .000E+00  .000E+00  .000E+00
  .000E+00  .000E+00  .000E+00  .000E+00  .000E+00  .000E+00  .000E+00  .000E+00
  .000E+00  .000E+00  .000E+00  .000E+00  .000E+00  .000E+00  .000E+00  .000E+00
  .000E+00  .000E+00  .000E+00  .000E+00  .000E+00  .000E+00  .000E+00  .000E+00
  .000E+00  .000E+00  .000E+00  .000E+00  .000E+00  .000E+00  .000E+00  .000E+00
  .000E+00  .000E+00  .000E+00  .000E+00  .000E+00  .000E+00  .000E+00  .000E+00
  .000E+00  .000E+00  .000E+00  .000E+00  .000E+00  .000E+00  .000E+00  .000E+00
  .000E+00  .000E+00  .000E+00  .000E+00  .000E+00  .000E+00  .000E+00  .000E+00
  .000E+00  .000E+00  .000E+00  .000E+00  .000E+00  .000E+00  .000E+00  .000E+00
  .000E+00  .000E+00  .000E+00  .000E+00  .000E+00  .000E+00  .000E+00  .000E+00
  .000E+00  .000E+00  .000E+00  .000E+00  .000E+00  .000E+00  .000E+00  .000E+00
  .000E+00  .000E+00  .000E+00  .000E+00
Damping =  .05. Data of Sd,Sv,Sa,Pssv,ttSd,ttSv,ttSa :
  .182E-03  .206E-03  .235E-03  .256E-03  .287E-03  .312E-03  .450E-03  .535E-03
  .677E-03  .102E-02  .151E-02  .168E-02  .202E-02  .238E-02  .269E-02  .262E-02
  .331E-02  .418E-02  .477E-02  .429E-02  .474E-02  .664E-02  .732E-02  .999E-02
  .111E-01  .135E-01  .152E-01  .143E-01  .179E-01  .218E-01  .272E-01  .262E-01
  .218E-01  .181E-01  .226E-01  .248E-01  .291E-01  .321E-01  .398E-01  .462E-01
  .476E-01  .441E-01  .472E-01  .453E-01  .430E-01  .421E-01  .401E-01  .384E-01
  .405E-01  .434E-01  .379E-01  .280E-01  .424E-01  .355E-01  .317E-01  .270E-01
  .245E-01  .320E-01  .306E-01  .342E-01  .329E-01  .236E-01  .209E-01  .203E-01
  .249E-01  .285E-01  .297E-01  .291E-01  .272E-01  .250E-01  .229E-01  .213E-01
  .202E-01  .195E-01  .190E-01  .188E-01  .188E-01  .188E-01  .188E-01  .187E-01
  .186E-01  .185E-01  .184E-01  .183E-01  .183E-01  .182E-01  .182E-01  .182E-01
  .181E-01  .181E-01  .181E-01  .000E+00  .000E+00  .000E+00  .000E+00  .000E+00
  .000E+00  .000E+00  .000E+00  .000E+00
  .117E-01  .150E-01  .181E-01  .218E-01  .226E-01  .223E-01  .388E-01  .360E-01
  .493E-01  .752E-01  .100E+00  .101E+00  .117E+00  .144E+00  .146E+00  .156E+00
  .164E+00  .192E+00  .221E+00  .194E+00  .202E+00  .247E+00  .270E+00  .324E+00
  .357E+00  .377E+00  .420E+00  .340E+00  .415E+00  .475E+00  .576E+00  .564E+00
  .422E+00  .363E+00  .389E+00  .404E+00  .431E+00  .462E+00  .588E+00  .592E+00
  .555E+00  .549E+00  .543E+00  .486E+00  .467E+00  .443E+00  .410E+00  .355E+00
  .338E+00  .367E+00  .360E+00  .266E+00  .324E+00  .353E+00  .282E+00  .238E+00
  .250E+00  .273E+00  .273E+00  .252E+00  .248E+00  .240E+00  .218E+00  .213E+00
  .214E+00  .215E+00  .222E+00  .226E+00  .227E+00  .227E+00  .225E+00  .223E+00
  .221E+00  .219E+00  .218E+00  .216E+00  .215E+00  .214E+00  .213E+00  .213E+00
  .212E+00  .212E+00  .212E+00  .211E+00  .211E+00  .211E+00  .211E+00  .211E+00
  .211E+00  .210E+00  .210E+00  .000E+00  .000E+00  .000E+00  .000E+00  .000E+00
  .000E+00  .000E+00  .000E+00  .000E+00
  .116E-01  .119E-01  .124E-01  .123E-01  .128E-01  .127E-01  .152E-01  .153E-01
  .165E-01  .212E-01  .273E-01  .270E-01  .288E-01  .303E-01  .305E-01  .267E-01
  .279E-01  .303E-01  .293E-01  .221E-01  .216E-01  .267E-01  .263E-01  .314E-01
  .314E-01  .344E-01  .322E-01  .254E-01  .273E-01  .287E-01  .310E-01  .262E-01
  .195E-01  .143E-01  .161E-01  .159E-01  .170E-01  .170E-01  .194E-01  .207E-01
  .196E-01  .150E-01  .135E-01  .110E-01  .903E-02  .770E-02  .646E-02  .548E-02
  .516E-02  .497E-02  .393E-02  .241E-02  .306E-02  .220E-02  .167E-02  .126E-02
  .101E-02  .116E-02  .101E-02  .983E-03  .863E-03  .523E-03  .407E-03  .324E-03
  .339E-03  .339E-03  .314E-03  .275E-03  .233E-03  .195E-03  .164E-03  .140E-03
  .123E-03  .109E-03  .992E-04  .926E-04  .814E-04  .728E-04  .658E-04  .598E-04
  .547E-04  .503E-04  .467E-04  .435E-04  .407E-04  .383E-04  .343E-04  .311E-04
  .285E-04  .263E-04  .244E-04  .000E+00  .000E+00  .000E+00  .000E+00  .000E+00
  .000E+00  .000E+00  .000E+00  .000E+00
  .285E-01  .308E-01  .336E-01  .349E-01  .376E-01  .393E-01  .514E-01  .560E-01
  .655E-01  .916E-01  .126E+00  .132E+00  .150E+00  .166E+00  .178E+00  .164E+00
  .189E+00  .219E+00  .230E+00  .193E+00  .199E+00  .261E+00  .270E+00  .349E+00
  .367E+00  .424E+00  .434E+00  .373E+00  .434E+00  .489E+00  .569E+00  .514E+00
  .403E+00  .316E+00  .373E+00  .389E+00  .435E+00  .458E+00  .543E+00  .605E+00
  .598E+00  .503E+00  .495E+00  .438E+00  .386E+00  .352E+00  .315E+00  .284E+00
  .283E+00  .287E+00  .238E+00  .160E+00  .222E+00  .171E+00  .142E+00  .113E+00
  .961E-01  .118E+00  .107E+00  .113E+00  .103E+00  .675E-01  .547E-01  .491E-01
  .558E-01  .596E-01  .584E-01  .537E-01  .474E-01  .413E-01  .360E-01  .319E-01
  .288E-01  .266E-01  .249E-01  .237E-01  .215E-01  .197E-01  .182E-01  .168E-01
  .156E-01  .145E-01  .136E-01  .128E-01  .121E-01  .114E-01  .104E-01  .951E-02
  .877E-02  .814E-02  .759E-02  .000E+00  .000E+00  .000E+00  .000E+00  .000E+00
  .000E+00  .000E+00  .000E+00  .000E+00
  .661E+01  .661E+01  .661E+01  .662E+01  .552E+01  .552E+01  .636E+01  .711E+01
  .682E+01  .673E+01  .674E+01  .675E+01  .676E+01  .682E+01  .683E+01  .718E+01
  .683E+01  .684E+01  .719E+01  .728E+01  .105E+02  .108E+02  .108E+02  .686E+01
  .137E+02  .976E+01  .102E+02  .103E+02  .993E+01  .994E+01  .691E+01  .680E+01
  .682E+01  .100E+02  .142E+02  .103E+02  .103E+02  .106E+02  .141E+02  .141E+02
  .106E+02  .109E+02  .110E+02  .111E+02  .108E+02  .105E+02  .102E+02  .102E+02
  .102E+02  .102E+02  .103E+02  .102E+02  .103E+02  .989E+01  .999E+01  .673E+01
  .673E+01  .140E+02  .991E+01  .100E+02  .100E+02  .100E+02  .625E+01  .100E+02
  .100E+02  .100E+02  .100E+02  .100E+02  .100E+02  .100E+02  .100E+02  .100E+02
  .100E+02  .100E+02  .100E+02  .100E+02  .100E+02  .100E+02  .100E+02  .100E+02
  .100E+02  .100E+02  .100E+02  .100E+02  .100E+02  .100E+02  .100E+02  .100E+02
  .100E+02  .100E+02  .100E+02  .000E+00  .000E+00  .000E+00  .000E+00  .000E+00
  .000E+00  .000E+00  .000E+00  .000E+00
  .662E+01  .663E+01  .663E+01  .663E+01  .663E+01  .663E+01  .635E+01  .709E+01
  .663E+01  .664E+01  .672E+01  .673E+01  .678E+01  .679E+01  .680E+01  .720E+01
  .650E+01  .688E+01  .723E+01  .717E+01  .667E+01  .108E+02  .108E+02  .690E+01
  .692E+01  .101E+02  .102E+02  .102E+02  .104E+02  .649E+01  .684E+01  .687E+01
  .689E+01  .991E+01  .141E+02  .141E+02  .106E+02  .107E+02  .142E+02  .142E+02
  .140E+02  .105E+02  .106E+02  .116E+02  .103E+02  .103E+02  .103E+02  .103E+02
  .103E+02  .101E+02  .101E+02  .678E+01  .101E+02  .101E+02  .101E+02  .982E+01
  .101E+02  .101E+02  .101E+02  .101E+02  .982E+01  .982E+01  .982E+01  .101E+02
  .101E+02  .982E+01  .982E+01  .982E+01  .982E+01  .982E+01  .982E+01  .982E+01
  .982E+01  .982E+01  .982E+01  .982E+01  .982E+01  .982E+01  .982E+01  .982E+01
  .982E+01  .982E+01  .982E+01  .982E+01  .982E+01  .982E+01  .982E+01  .982E+01
  .982E+01  .982E+01  .982E+01  .000E+00  .000E+00  .000E+00  .000E+00  .000E+00
  .000E+00  .000E+00  .000E+00  .000E+00
  .661E+01  .661E+01  .661E+01  .662E+01  .552E+01  .552E+01  .636E+01  .711E+01
  .682E+01  .673E+01  .674E+01  .675E+01  .675E+01  .682E+01  .682E+01  .717E+01
  .683E+01  .684E+01  .719E+01  .728E+01  .105E+02  .108E+02  .108E+02  .685E+01
  .137E+02  .975E+01  .102E+02  .103E+02  .992E+01  .994E+01  .691E+01  .679E+01
  .681E+01  .100E+02  .142E+02  .103E+02  .103E+02  .106E+02  .141E+02  .141E+02
  .106E+02  .109E+02  .110E+02  .111E+02  .108E+02  .105E+02  .102E+02  .102E+02
  .102E+02  .102E+02  .102E+02  .102E+02  .102E+02  .987E+01  .998E+01  .671E+01
  .671E+01  .139E+02  .987E+01  .998E+01  .999E+01  .999E+01  .622E+01  .622E+01
  .998E+01  .999E+01  .999E+01  .999E+01  .999E+01  .999E+01  .999E+01  .999E+01
  .999E+01  .999E+01  .999E+01  .985E+01  .985E+01  .984E+01  .984E+01  .984E+01
  .984E+01  .984E+01  .984E+01  .984E+01  .984E+01  .984E+01  .983E+01  .983E+01
  .983E+01  .983E+01  .983E+01  .000E+00  .000E+00  .000E+00  .000E+00  .000E+00
  .000E+00  .000E+00  .000E+00  .000E+00
/&   ----------  End of spectral data for channel  1  ----------
Response and Fourier amplitude spectra (91 periods,  .04 - 15.0 sec)   for      
Corrected accelerogram   14060-L1216-01252.04       Chan  2:   0 Deg     from   
Uncorrected Accelerogram Data             Processed: 09/10/01, CDMG  060bb004   
Record of Sun Sep  9, 2001 16:59:21 PDT               (Avol1 v4.6  7/01 CSMIP)  
CSMIP Preliminary Processing            (Origin:  To be determined)             
14060-L1216-01252.04                 Start time:  9/09/01, 23:59:21.0 UTC (GPS) 
Station No. 14060   33.999N, 118.178W      Etna  s/n 1216  (3 Channels)         
Vernon - I710 & Bandini                                                         
Chan  2:   0 Deg                                                                
Record of Sun Sep  9, 2001 16:59:21 PDT    Sun Sep  9, 2001 16:59:21 PDT        
Hypocenter:  To be determined.               ML:  To be determined.             
Instr Period =  .0106 sec,  Damping =  .650,  Sensitivity =  .63  v/g           
                        Record length = 45.000 sec.                             
                                     Uncor Max  =   .009 g, at   5.045 sec.     
RMS accel of (uncor) record  =        .                                         
Accelerogram bandpass filtered with 3 dB pts at   .30 and 40.00 cyc/sec         
                 instrument- and baseline-corrected                             
                                                                                
                                                                                
                                                                                
                                                                                
                                                                                
Record of Sun Sep  9, 2001 16:59:21 PDT    Sun Sep  9, 2001 16:59:21 PDT        
                                                                                
14060-L1216-01252.04      Vernon - I710 & Bandini   Chan  2:   0 Deg            
                                                                                
14060-L1216-01252.04      Vernon - I710 & Bandini   Chan  2:   0 Deg            
                                                                                
Units for spectra are inches and sec, except Sa is in fraction of g.            
                                                                                
    2  100    2    3    3  200    1    3    1   24   12 1216    014060    1    0
   23   59   21    0  252    9    9 2001   10    3    0 9000   39   23   72 -999
 9000    1   50    3 1216    1    4  450    1    0    0    0    0    0    0    0
    0    4    0    0 4500    2    0    0    0    0   72   23    0    0    0 4500
    0 4500   24   91    1    3    0    0    0    0    3    0    0    0    0    2
    2    2    4    0   32   99 -999   32   32    0    0    1    0    0    0    0
  -99   -1    0    0
      .011      .650    45.000      .001      .000   625.000      .009     5.045
    94.300      .298      .477      .000     5.000      .000      .000      .000
     2.500   -30.891     -.014     -.025     5.000    30.000      .000     -.001
      .001      .002     2.000    15.000    33.999  -118.178     1.000      .198
      .198     -.128      .131  -999.000      .000      .000   -13.400      .000
  1000.000     1.051      .000      .000      .000      .000      .000      .000
     4.600     4.400      .000   980.665      .010    45.000    15.008      .000
      .000    40.000      .000    45.000      .010      .300      .000      .000
     5.040     9.331     4.120      .301     4.060     -.016      .000      .300
    40.000      .010      .010      .000      .010      .012      .000      .000
      .045      .095      .032      .017      .001      .000      .000      .000
      .000      .000      .000      .000      .000      .000      .000      .000
      .000      .000      .000      .000
      .050
      .040      .042      .044      .046      .048      .050      .055      .060
      .065      .070      .075      .080      .085      .090      .095      .100
      .110      .120      .130      .140      .150      .160      .170      .180
      .190      .200      .220      .240      .260      .280      .300      .320
      .340      .360      .380      .400      .420      .440      .460      .480
      .500      .550      .600      .650      .700      .750      .800      .850
      .900      .950     1.000     1.100     1.200     1.300     1.400     1.500
     1.600     1.700     1.800     1.900     2.000     2.200     2.400     2.600
     2.800     3.000     3.200     3.400     3.600     3.800     4.000     4.200
     4.400     4.600     4.800     5.000     5.500     6.000     6.500     7.000
     7.500     8.000     8.500     9.000     9.500    10.000    11.000    12.000
    13.000    14.000    15.000      .000      .000      .000      .000      .000
      .000      .000      .000      .000
Fourier amplitude spectra in in/sec.
  .000E+00  .000E+00  .000E+00  .000E+00  .000E+00  .000E+00  .000E+00  .000E+00
  .000E+00  .000E+00  .000E+00  .000E+00  .000E+00  .000E+00  .000E+00  .000E+00
  .000E+00  .000E+00  .000E+00  .000E+00  .000E+00  .000E+00  .000E+00  .000E+00
  .000E+00  .000E+00  .000E+00  .000E+00  .000E+00  .000E+00  .000E+00  .000E+00
  .000E+00  .000E+00  .000E+00  .000E+00  .000E+00  .000E+00  .000E+00  .000E+00
  .000E+00  .000E+00  .000E+00  .000E+00  .000E+00  .000E+00  .000E+00  .000E+00
  .000E+00  .000E+00  .000E+00  .000E+00  .000E+00  .000E+00  .000E+00  .000E+00
  .000E+00  .000E+00  .000E+00  .000E+00  .000E+00  .000E+00  .000E+00  .000E+00
  .000E+00  .000E+00  .000E+00  .000E+00  .000E+00  .000E+00  .000E+00  .000E+00
  .000E+00  .000E+00  .000E+00  .000E+00  .000E+00  .000E+00  .000E+00  .000E+00
  .000E+00  .000E+00  .000E+00  .000E+00  .000E+00  .000E+00  .000E+00  .000E+00
  .000E+00  .000E+00  .000E+00  .000E+00  .000E+00  .000E+00  .000E+00  .000E+00
  .000E+00  .000E+00  .000E+00  .000E+00
Damping =  .05. Data of Sd,Sv,Sa,Pssv,ttSd,ttSv,ttSa :
  .175E-03  .196E-03  .230E-03  .299E-03  .388E-03  .439E-03  .504E-03  .690E-03
  .852E-03  .107E-02  .136E-02  .172E-02  .217E-02  .344E-02  .393E-02  .368E-02
  .266E-02  .343E-02  .360E-02  .358E-02  .452E-02  .585E-02  .818E-02  .110E-01
  .117E-01  .139E-01  .121E-01  .129E-01  .142E-01  .148E-01  .151E-01  .156E-01
  .165E-01  .174E-01  .177E-01  .174E-01  .175E-01  .167E-01  .154E-01  .161E-01
