Response and Fourier amplitude spectra (91 periods,  .04 - 15.0 sec)   for      
Corrected accelerogram   24013-L1812-01248.08       Chan  1:   0 Deg     from   
Uncorrected Accelerogram Data             Processed: 09/10/01, CDMG  013al008   
Record of Sun Sep  9, 2001 16:59:22 PDT               (Avol1 v4.6  7/01 CSMIP)  
CSMIP Preliminary Processing            (Origin:  To be determined)             
24013-L1812-01248.08                 Start time:  9/09/01, 23:59:22.0 UTC (GPS) 
Station No. 24013   34.194N, 118.589W      Etna  s/n 1812  (3 Channels)         
Canoga Park - De Soto & Van Owen                                                
Chan  1:   0 Deg                                                                
Record of Sun Sep  9, 2001 16:59:22 PDT    Sun Sep  9, 2001 16:59:22 PDT        
Hypocenter:  To be determined.               ML:  To be determined.             
Instr Period =  .0102 sec,  Damping =  .660,  Sensitivity =  .63  v/g           
                        Record length = 36.000 sec.                             
                                     Uncor Max  =   .013 g, at   5.385 sec.     
RMS accel of (uncor) record  =        .                                         
Accelerogram bandpass filtered with 3 dB pts at   .30 and 40.00 cyc/sec         
                 instrument- and baseline-corrected                             
                                                                                
                                                                                
                                                                                
                                                                                
                                                                                
Record of Sun Sep  9, 2001 16:59:22 PDT    Sun Sep  9, 2001 16:59:22 PDT        
                                                                                
24013-L1812-01248.08      Canoga Park - De Soto & Van Owen    Chan  1:   0 Deg  
                                                                                
24013-L1812-01248.08      Canoga Park - De Soto & Van Owen    Chan  1:   0 Deg  
                                                                                
Units for spectra are inches and sec, except Sa is in fraction of g.            
                                                                                
    1  100    1    3    3  200    1    3    1   24   12 1812    024013    1    0
   23   59   22    0  252    9    9 2001   10    3    0 7200   39   32   72 -999
 7200    1   50    3 1812    1    8  360    1    0    0    0    0    0    0    0
    0    4    0    0 3600    2    0    0    0    0   72   32    0    0    0 3600
    0 3600   33   91    1    3    0    0    0    0    3    0    0    0    0    2
    2    2    4    0   32   99 -999   32   32    0    0    1    0    0    0    0
  -99   -1    0    0
      .010      .660    36.000      .001      .000   625.000      .013     5.385
    97.700      .298      .477      .000     5.000      .000      .000      .000
     2.500    14.911      .015      .001     5.000    30.000      .000      .002
     -.001     -.003     2.000    15.000    34.194  -118.589      .353      .574
     1.626     -.056      .050  -999.000      .000      .000   -13.400      .000
  1000.000     1.019      .000      .000      .000      .000      .000      .000
     4.600     4.400      .000   980.665      .010    36.000    15.549      .000
      .000    40.000      .000    36.000      .010      .300      .000      .000
     5.380    12.693     7.460      .529     7.360     -.055      .000      .300
    40.000      .010      .010      .000      .010      .021      .000      .000
      .042      .190      .036      .015      .004      .000      .000      .000
      .000      .000      .000      .000      .000      .000      .000      .000
      .000      .000      .000      .000
      .050
      .040      .042      .044      .046      .048      .050      .055      .060
      .065      .070      .075      .080      .085      .090      .095      .100
      .110      .120      .130      .140      .150      .160      .170      .180
      .190      .200      .220      .240      .260      .280      .300      .320
      .340      .360      .380      .400      .420      .440      .460      .480
      .500      .550      .600      .650      .700      .750      .800      .850
      .900      .950     1.000     1.100     1.200     1.300     1.400     1.500
     1.600     1.700     1.800     1.900     2.000     2.200     2.400     2.600
     2.800     3.000     3.200     3.400     3.600     3.800     4.000     4.200
     4.400     4.600     4.800     5.000     5.500     6.000     6.500     7.000
     7.500     8.000     8.500     9.000     9.500    10.000    11.000    12.000
    13.000    14.000    15.000      .000      .000      .000      .000      .000
      .000      .000      .000      .000
Fourier amplitude spectra in in/sec.
  .000E+00  .000E+00  .000E+00  .000E+00  .000E+00  .000E+00  .000E+00  .000E+00
  .000E+00  .000E+00  .000E+00  .000E+00  .000E+00  .000E+00  .000E+00  .000E+00
  .000E+00  .000E+00  .000E+00  .000E+00  .000E+00  .000E+00  .000E+00  .000E+00
  .000E+00  .000E+00  .000E+00  .000E+00  .000E+00  .000E+00  .000E+00  .000E+00
  .000E+00  .000E+00  .000E+00  .000E+00  .000E+00  .000E+00  .000E+00  .000E+00
  .000E+00  .000E+00  .000E+00  .000E+00  .000E+00  .000E+00  .000E+00  .000E+00
  .000E+00  .000E+00  .000E+00  .000E+00  .000E+00  .000E+00  .000E+00  .000E+00
  .000E+00  .000E+00  .000E+00  .000E+00  .000E+00  .000E+00  .000E+00  .000E+00
  .000E+00  .000E+00  .000E+00  .000E+00  .000E+00  .000E+00  .000E+00  .000E+00
  .000E+00  .000E+00  .000E+00  .000E+00  .000E+00  .000E+00  .000E+00  .000E+00
  .000E+00  .000E+00  .000E+00  .000E+00  .000E+00  .000E+00  .000E+00  .000E+00
  .000E+00  .000E+00  .000E+00  .000E+00  .000E+00  .000E+00  .000E+00  .000E+00
  .000E+00  .000E+00  .000E+00  .000E+00
Damping =  .05. Data of Sd,Sv,Sa,Pssv,ttSd,ttSv,ttSa :
  .216E-03  .245E-03  .280E-03  .309E-03  .338E-03  .365E-03  .436E-03  .563E-03
  .775E-03  .932E-03  .111E-02  .154E-02  .174E-02  .169E-02  .201E-02  .251E-02
  .390E-02  .431E-02  .463E-02  .526E-02  .685E-02  .815E-02  .102E-01  .131E-01
  .147E-01  .154E-01  .125E-01  .950E-02  .989E-02  .112E-01  .143E-01  .142E-01
  .192E-01  .269E-01  .319E-01  .373E-01  .395E-01  .463E-01  .560E-01  .609E-01
  .593E-01  .649E-01  .828E-01  .581E-01  .381E-01  .442E-01  .485E-01  .463E-01
  .396E-01  .326E-01  .332E-01  .391E-01  .412E-01  .408E-01  .404E-01  .331E-01
  .259E-01  .252E-01  .224E-01  .242E-01  .251E-01  .226E-01  .249E-01  .255E-01
  .253E-01  .249E-01  .246E-01  .242E-01  .238E-01  .234E-01  .230E-01  .227E-01
  .224E-01  .221E-01  .220E-01  .219E-01  .218E-01  .218E-01  .219E-01  .220E-01
  .221E-01  .222E-01  .222E-01  .222E-01  .222E-01  .222E-01  .222E-01  .222E-01
  .221E-01  .221E-01  .221E-01  .000E+00  .000E+00  .000E+00  .000E+00  .000E+00
  .000E+00  .000E+00  .000E+00  .000E+00
  .971E-02  .110E-01  .115E-01  .116E-01  .130E-01  .149E-01  .194E-01  .278E-01
  .372E-01  .455E-01  .504E-01  .791E-01  .102E+00  .978E-01  .108E+00  .139E+00
  .212E+00  .217E+00  .179E+00  .207E+00  .287E+00  .328E+00  .388E+00  .469E+00
  .492E+00  .474E+00  .387E+00  .296E+00  .265E+00  .292E+00  .280E+00  .322E+00
  .362E+00  .407E+00  .476E+00  .512E+00  .510E+00  .594E+00  .755E+00  .794E+00
  .788E+00  .768E+00  .902E+00  .661E+00  .495E+00  .484E+00  .461E+00  .432E+00
  .401E+00  .375E+00  .348E+00  .329E+00  .368E+00  .351E+00  .291E+00  .257E+00
  .238E+00  .221E+00  .220E+00  .231E+00  .239E+00  .244E+00  .238E+00  .231E+00
  .226E+00  .222E+00  .220E+00  .218E+00  .216E+00  .215E+00  .214E+00  .213E+00
  .213E+00  .213E+00  .213E+00  .212E+00  .212E+00  .212E+00  .212E+00  .211E+00
  .211E+00  .211E+00  .211E+00  .210E+00  .210E+00  .210E+00  .210E+00  .210E+00
  .210E+00  .209E+00  .209E+00  .000E+00  .000E+00  .000E+00  .000E+00  .000E+00
  .000E+00  .000E+00  .000E+00  .000E+00
  .138E-01  .142E-01  .148E-01  .150E-01  .150E-01  .150E-01  .148E-01  .159E-01
  .188E-01  .195E-01  .201E-01  .247E-01  .246E-01  .214E-01  .229E-01  .261E-01
  .330E-01  .313E-01  .280E-01  .273E-01  .314E-01  .326E-01  .365E-01  .411E-01
  .415E-01  .395E-01  .266E-01  .169E-01  .151E-01  .147E-01  .164E-01  .142E-01
  .171E-01  .214E-01  .227E-01  .240E-01  .229E-01  .246E-01  .272E-01  .272E-01
  .244E-01  .220E-01  .237E-01  .142E-01  .801E-02  .808E-02  .781E-02  .661E-02
  .505E-02  .375E-02  .345E-02  .334E-02  .296E-02  .252E-02  .216E-02  .155E-02
  .107E-02  .929E-03  .744E-03  .713E-03  .666E-03  .512E-03  .484E-03  .428E-03
  .371E-03  .324E-03  .285E-03  .253E-03  .226E-03  .204E-03  .184E-03  .168E-03
  .154E-03  .142E-03  .131E-03  .122E-03  .105E-03  .920E-04  .817E-04  .734E-04
  .664E-04  .606E-04  .555E-04  .512E-04  .474E-04  .441E-04  .387E-04  .345E-04
  .310E-04  .281E-04  .258E-04  .000E+00  .000E+00  .000E+00  .000E+00  .000E+00
  .000E+00  .000E+00  .000E+00  .000E+00
  .340E-01  .366E-01  .400E-01  .422E-01  .443E-01  .458E-01  .498E-01  .589E-01
  .750E-01  .836E-01  .926E-01  .121E+00  .129E+00  .118E+00  .133E+00  .158E+00
  .223E+00  .226E+00  .224E+00  .236E+00  .287E+00  .320E+00  .375E+00  .456E+00
  .487E+00  .483E+00  .357E+00  .249E+00  .239E+00  .251E+00  .300E+00  .279E+00
  .355E+00  .470E+00  .528E+00  .586E+00  .590E+00  .662E+00  .765E+00  .797E+00
  .745E+00  .741E+00  .867E+00  .562E+00  .342E+00  .370E+00  .381E+00  .342E+00
  .276E+00  .216E+00  .208E+00  .223E+00  .216E+00  .197E+00  .182E+00  .139E+00
  .102E+00  .930E-01  .781E-01  .800E-01  .788E-01  .645E-01  .651E-01  .616E-01
  .568E-01  .522E-01  .483E-01  .447E-01  .415E-01  .387E-01  .361E-01  .339E-01
  .319E-01  .302E-01  .288E-01  .275E-01  .249E-01  .228E-01  .212E-01  .198E-01
  .185E-01  .174E-01  .164E-01  .155E-01  .147E-01  .140E-01  .127E-01  .116E-01
  .107E-01  .991E-02  .924E-02  .000E+00  .000E+00  .000E+00  .000E+00  .000E+00
  .000E+00  .000E+00  .000E+00  .000E+00
  .538E+01  .538E+01  .538E+01  .538E+01  .538E+01  .538E+01  .538E+01  .538E+01
  .538E+01  .538E+01  .538E+01  .538E+01  .539E+01  .539E+01  .539E+01  .538E+01
  .551E+01  .553E+01  .527E+01  .528E+01  .554E+01  .548E+01  .548E+01  .541E+01
  .542E+01  .543E+01  .544E+01  .545E+01  .759E+01  .760E+01  .711E+01  .712E+01
  .711E+01  .713E+01  .739E+01  .763E+01  .765E+01  .766E+01  .769E+01  .844E+01
  .798E+01  .802E+01  .781E+01  .758E+01  .612E+01  .786E+01  .789E+01  .759E+01
  .761E+01  .524E+01  .525E+01  .760E+01  .763E+01  .733E+01  .734E+01  .735E+01
  .705E+01  .705E+01  .706E+01  .762E+01  .762E+01  .763E+01  .734E+01  .734E+01
  .734E+01  .734E+01  .735E+01  .735E+01  .735E+01  .735E+01  .735E+01  .735E+01
  .735E+01  .735E+01  .735E+01  .735E+01  .735E+01  .735E+01  .735E+01  .735E+01
  .735E+01  .735E+01  .735E+01  .735E+01  .735E+01  .735E+01  .735E+01  .735E+01
  .735E+01  .735E+01  .735E+01  .000E+00  .000E+00  .000E+00  .000E+00  .000E+00
  .000E+00  .000E+00  .000E+00  .000E+00
  .535E+01  .535E+01  .536E+01  .536E+01  .540E+01  .540E+01  .534E+01  .534E+01
  .535E+01  .540E+01  .540E+01  .540E+01  .541E+01  .542E+01  .542E+01  .547E+01
  .548E+01  .550E+01  .523E+01  .550E+01  .551E+01  .551E+01  .544E+01  .545E+01
  .546E+01  .547E+01  .540E+01  .540E+01  .540E+01  .540E+01  .540E+01  .540E+01
  .540E+01  .723E+01  .749E+01  .752E+01  .776E+01  .778E+01  .851E+01  .855E+01
  .836E+01  .815E+01  .794E+01  .744E+01  .533E+01  .533E+01  .773E+01  .744E+01
  .745E+01  .534E+01  .534E+01  .744E+01  .745E+01  .746E+01  .746E+01  .721E+01
  .722E+01  .506E+01  .745E+01  .745E+01  .745E+01  .745E+01  .745E+01  .745E+01
  .745E+01  .745E+01  .745E+01  .745E+01  .745E+01  .745E+01  .745E+01  .745E+01
  .745E+01  .745E+01  .745E+01  .745E+01  .745E+01  .745E+01  .745E+01  .745E+01
  .745E+01  .745E+01  .745E+01  .745E+01  .745E+01  .745E+01  .745E+01  .745E+01
  .745E+01  .745E+01  .745E+01  .000E+00  .000E+00  .000E+00  .000E+00  .000E+00
  .000E+00  .000E+00  .000E+00  .000E+00
  .538E+01  .537E+01  .538E+01  .538E+01  .538E+01  .538E+01  .538E+01  .538E+01
  .538E+01  .538E+01  .538E+01  .538E+01  .538E+01  .539E+01  .538E+01  .538E+01
  .545E+01  .552E+01  .526E+01  .528E+01  .554E+01  .547E+01  .548E+01  .541E+01
  .541E+01  .542E+01  .544E+01  .544E+01  .758E+01  .760E+01  .710E+01  .711E+01
  .711E+01  .713E+01  .738E+01  .763E+01  .765E+01  .766E+01  .768E+01  .843E+01
  .798E+01  .801E+01  .780E+01  .757E+01  .611E+01  .785E+01  .788E+01  .757E+01
  .759E+01  .523E+01  .523E+01  .758E+01  .761E+01  .731E+01  .732E+01  .733E+01
  .702E+01  .703E+01  .703E+01  .758E+01  .758E+01  .731E+01  .731E+01  .731E+01
  .731E+01  .731E+01  .730E+01  .730E+01  .730E+01  .730E+01  .730E+01  .730E+01
  .730E+01  .730E+01  .730E+01  .730E+01  .729E+01  .729E+01  .729E+01  .729E+01
  .729E+01  .729E+01  .729E+01  .729E+01  .729E+01  .729E+01  .728E+01  .728E+01
  .728E+01  .728E+01  .728E+01  .000E+00  .000E+00  .000E+00  .000E+00  .000E+00
  .000E+00  .000E+00  .000E+00  .000E+00
/&   ----------  End of spectral data for channel  1  ----------
Response and Fourier amplitude spectra (91 periods,  .04 - 15.0 sec)   for      
Corrected accelerogram   24013-L1812-01248.08       Chan  2:   0 Deg     from   
Uncorrected Accelerogram Data             Processed: 09/10/01, CDMG  013al008   
Record of Sun Sep  9, 2001 16:59:22 PDT               (Avol1 v4.6  7/01 CSMIP)  
CSMIP Preliminary Processing            (Origin:  To be determined)             
24013-L1812-01248.08                 Start time:  9/09/01, 23:59:22.0 UTC (GPS) 
Station No. 24013   34.194N, 118.589W      Etna  s/n 1812  (3 Channels)         
Canoga Park - De Soto & Van Owen                                                
Chan  2:   0 Deg                                                                
Record of Sun Sep  9, 2001 16:59:22 PDT    Sun Sep  9, 2001 16:59:22 PDT        
Hypocenter:  To be determined.               ML:  To be determined.             
Instr Period =  .0106 sec,  Damping =  .660,  Sensitivity =  .63  v/g           
                        Record length = 36.000 sec.                             
                                     Uncor Max  =  -.006 g, at    .870 sec.     
RMS accel of (uncor) record  =        .                                         
Accelerogram bandpass filtered with 3 dB pts at   .30 and 40.00 cyc/sec         
                 instrument- and baseline-corrected                             
                                                                                
                                                                                
                                                                                
                                                                                
                                                                                
Record of Sun Sep  9, 2001 16:59:22 PDT    Sun Sep  9, 2001 16:59:22 PDT        
                                                                                
24013-L1812-01248.08      Canoga Park - De Soto & Van Owen    Chan  2:   0 Deg  
                                                                                
24013-L1812-01248.08      Canoga Park - De Soto & Van Owen    Chan  2:   0 Deg  
                                                                                
Units for spectra are inches and sec, except Sa is in fraction of g.            
                                                                                
    2  100    2    3    3  200    1    3    1   24   12 1812    024013    1    0
   23   59   22    0  252    9    9 2001   10    3    0 7200   39   32   72 -999
 7200    1   50    3 1812    1    8  360    1    0    0    0    0    0    0    0
    0    4    0    0 3600    2    0    0    0    0   72   32    0    0    0 3600
    0 3600   33   91    1    3    0    0    0    0    3    0    0    0    0    2
    2    2    4    0   32   99 -999   32   32    0    0    1    0    0    0    0
  -99   -1    0    0
      .011      .660    36.000      .001      .000   625.000     -.006      .870
    93.900      .298      .477      .000     5.000      .000      .000      .000
     2.500   -20.267     -.009     -.016     5.000    30.000      .000     -.014
      .000      .013     2.000    15.000    34.194  -118.589     1.576      .219
      .139     -.190      .217  -999.000      .000      .000   -13.400      .000
  1000.000     1.677      .000      .000      .000      .000      .000      .000
     4.600     4.400      .000   980.665      .010    36.000    14.945      .000
      .000    40.000      .000    36.000      .010      .300      .000      .000
     4.720     5.239     7.620     -.228     7.470      .018      .000      .300
    40.000      .010      .010      .000      .010      .009      .000      .000
      .021      .120      .008      .008      .002      .000      .000      .000
      .000      .000      .000      .000      .000      .000      .000      .000
      .000      .000      .000      .000
      .050
      .040      .042      .044      .046      .048      .050      .055      .060
      .065      .070      .075      .080      .085      .090      .095      .100
      .110      .120      .130      .140      .150      .160      .170      .180
      .190      .200      .220      .240      .260      .280      .300      .320
      .340      .360      .380      .400      .420      .440      .460      .480
      .500      .550      .600      .650      .700      .750      .800      .850
      .900      .950     1.000     1.100     1.200     1.300     1.400     1.500
     1.600     1.700     1.800     1.900     2.000     2.200     2.400     2.600
     2.800     3.000     3.200     3.400     3.600     3.800     4.000     4.200
     4.400     4.600     4.800     5.000     5.500     6.000     6.500     7.000
     7.500     8.000     8.500     9.000     9.500    10.000    11.000    12.000
    13.000    14.000    15.000      .000      .000      .000      .000      .000
      .000      .000      .000      .000
Fourier amplitude spectra in in/sec.
  .000E+00  .000E+00  .000E+00  .000E+00  .000E+00  .000E+00  .000E+00  .000E+00
  .000E+00  .000E+00  .000E+00  .000E+00  .000E+00  .000E+00  .000E+00  .000E+00
  .000E+00  .000E+00  .000E+00  .000E+00  .000E+00  .000E+00  .000E+00  .000E+00
  .000E+00  .000E+00  .000E+00  .000E+00  .000E+00  .000E+00  .000E+00  .000E+00
  .000E+00  .000E+00  .000E+00  .000E+00  .000E+00  .000E+00  .000E+00  .000E+00
  .000E+00  .000E+00  .000E+00  .000E+00  .000E+00  .000E+00  .000E+00  .000E+00
  .000E+00  .000E+00  .000E+00  .000E+00  .000E+00  .000E+00  .000E+00  .000E+00
  .000E+00  .000E+00  .000E+00  .000E+00  .000E+00  .000E+00  .000E+00  .000E+00
  .000E+00  .000E+00  .000E+00  .000E+00  .000E+00  .000E+00  .000E+00  .000E+00
  .000E+00  .000E+00  .000E+00  .000E+00  .000E+00  .000E+00  .000E+00  .000E+00
  .000E+00  .000E+00  .000E+00  .000E+00  .000E+00  .000E+00  .000E+00  .000E+00
  .000E+00  .000E+00  .000E+00  .000E+00  .000E+00  .000E+00  .000E+00  .000E+00
  .000E+00  .000E+00  .000E+00  .000E+00
Damping =  .05. Data of Sd,Sv,Sa,Pssv,ttSd,ttSv,ttSa :
  .110E-03  .128E-03  .145E-03  .152E-03  .157E-03  .174E-03  .254E-03  .353E-03
  .530E-03  .663E-03  .867E-03  .929E-03  .125E-02  .137E-02  .134E-02  .156E-02
  .245E-02  .296E-02  .272E-02  .224E-02  .226E-02  .233E-02  .268E-02  .304E-02
  .299E-02  .296E-02  .399E-02  .544E-02  .646E-02  .612E-02  .719E-02  .775E-02
  .826E-02  .846E-02  .967E-02  .127E-01  .161E-01  .154E-01  .147E-01  .150E-01
