Response and Fourier amplitude spectra (91 periods,  .04 - 15.0 sec)   for      
Corrected accelerogram   14834-L1189-01253.06       Chan  1:   1 Deg     from   
Uncorrected Accelerogram Data             Processed: 09/10/01, CDMG  ay006      
Record of Sun Sep  9, 2001 16:59:20 PDT               (Avol1 v4.6  7/01 CSMIP)  
CSMIP Preliminary Processing            (Origin:  To be determined)             
14834-L1189-01253.06                 Start time:  9/09/01, 23:59:20.0 UTC (GPS) 
Station No. 14834   33.922N, 118.326W      Etna  s/n 1189  (3 Channels)         
Hawthorne - Crenshaw & El Segundo                                               
Chan  1:   1 Deg                                                                
Record of Sun Sep  9, 2001 16:59:20 PDT    Sun Sep  9, 2001 16:59:20 PDT        
Hypocenter:  To be determined.               ML:  To be determined.             
Instr Period =  .0103 sec,  Damping =  .670,  Sensitivity =  .63  v/g           
                        Record length = 43.000 sec.                             
                                     Uncor Max  =  -.015 g, at   4.970 sec.     
RMS accel of (uncor) record  =        .                                         
Accelerogram bandpass filtered with 3 dB pts at   .30 and 40.00 cyc/sec         
                 instrument- and baseline-corrected                             
                                                                                
                                                                                
                                                                                
                                                                                
                                                                                
Record of Sun Sep  9, 2001 16:59:20 PDT    Sun Sep  9, 2001 16:59:20 PDT        
                                                                                
14834-L1189-01253.06      Hawthorne - Crenshaw & El Segundo   Chan  1:   1 Deg  
                                                                                
14834-L1189-01253.06      Hawthorne - Crenshaw & El Segundo   Chan  1:   1 Deg  
                                                                                
Units for spectra are inches and sec, except Sa is in fraction of g.            
                                                                                
    1  100    1    3    3  200    1    3    1   24   12 1189    014834    1    0
   23   59   20    0  252    9    9 2001   10    3    1 8600   39   33   72    1
 8600    1   50    3 1189    1    6  430    1    0    0    0    0    0    0    0
    0    4    0    0 4300    2    0    0    0    0   72   33    0    0    0 4300
    0 4300   34   91    1    3    0    0    0    0    3    0    0    0    0    2
    2    2    4    0   32   99    0   32   32    0    0    1    0    0    0    0
  -99   -1    0    0
      .010      .670    43.000      .002      .000   625.000     -.015     4.970
    97.300      .298      .477      .000     5.000      .000      .000      .000
     2.500   -12.665      .002     -.015     5.000    30.000      .000     -.005
     -.001      .005     2.000    15.000    33.922  -118.326      .086      .321
     3.741     -.014      .023  -999.000      .000      .000   -13.600      .000
  1000.000    -1.002      .000      .000      .000      .000      .000      .000
     4.600     4.400      .000   980.665      .010    43.000    15.486      .000
      .000    40.000      .000    43.000      .010      .300      .000      .000
     4.970   -14.583     5.130     -.611     5.010      .054      .000      .300
    40.000      .010      .010      .000      .010      .023      .000      .000
      .039      .065      .027      .022      .005      .000      .000      .000
      .000      .000      .000      .000      .000      .000      .000      .000
      .000      .000      .000      .000
      .050
      .040      .042      .044      .046      .048      .050      .055      .060
      .065      .070      .075      .080      .085      .090      .095      .100
      .110      .120      .130      .140      .150      .160      .170      .180
      .190      .200      .220      .240      .260      .280      .300      .320
      .340      .360      .380      .400      .420      .440      .460      .480
      .500      .550      .600      .650      .700      .750      .800      .850
      .900      .950     1.000     1.100     1.200     1.300     1.400     1.500
     1.600     1.700     1.800     1.900     2.000     2.200     2.400     2.600
     2.800     3.000     3.200     3.400     3.600     3.800     4.000     4.200
     4.400     4.600     4.800     5.000     5.500     6.000     6.500     7.000
     7.500     8.000     8.500     9.000     9.500    10.000    11.000    12.000
    13.000    14.000    15.000      .000      .000      .000      .000      .000
      .000      .000      .000      .000
Fourier amplitude spectra in in/sec.
  .000E+00  .000E+00  .000E+00  .000E+00  .000E+00  .000E+00  .000E+00  .000E+00
  .000E+00  .000E+00  .000E+00  .000E+00  .000E+00  .000E+00  .000E+00  .000E+00
  .000E+00  .000E+00  .000E+00  .000E+00  .000E+00  .000E+00  .000E+00  .000E+00
  .000E+00  .000E+00  .000E+00  .000E+00  .000E+00  .000E+00  .000E+00  .000E+00
  .000E+00  .000E+00  .000E+00  .000E+00  .000E+00  .000E+00  .000E+00  .000E+00
  .000E+00  .000E+00  .000E+00  .000E+00  .000E+00  .000E+00  .000E+00  .000E+00
  .000E+00  .000E+00  .000E+00  .000E+00  .000E+00  .000E+00  .000E+00  .000E+00
  .000E+00  .000E+00  .000E+00  .000E+00  .000E+00  .000E+00  .000E+00  .000E+00
  .000E+00  .000E+00  .000E+00  .000E+00  .000E+00  .000E+00  .000E+00  .000E+00
  .000E+00  .000E+00  .000E+00  .000E+00  .000E+00  .000E+00  .000E+00  .000E+00
  .000E+00  .000E+00  .000E+00  .000E+00  .000E+00  .000E+00  .000E+00  .000E+00
  .000E+00  .000E+00  .000E+00  .000E+00  .000E+00  .000E+00  .000E+00  .000E+00
  .000E+00  .000E+00  .000E+00  .000E+00
Damping =  .05. Data of Sd,Sv,Sa,Pssv,ttSd,ttSv,ttSa :
  .303E-03  .368E-03  .444E-03  .511E-03  .588E-03  .658E-03  .882E-03  .134E-02
  .163E-02  .167E-02  .195E-02  .218E-02  .214E-02  .216E-02  .223E-02  .244E-02
  .361E-02  .436E-02  .510E-02  .608E-02  .726E-02  .778E-02  .781E-02  .749E-02
  .900E-02  .105E-01  .131E-01  .163E-01  .167E-01  .162E-01  .199E-01  .231E-01
  .259E-01  .361E-01  .384E-01  .376E-01  .411E-01  .440E-01  .442E-01  .472E-01
  .425E-01  .490E-01  .530E-01  .559E-01  .613E-01  .533E-01  .473E-01  .377E-01
  .374E-01  .462E-01  .459E-01  .407E-01  .495E-01  .328E-01  .317E-01  .409E-01
  .356E-01  .258E-01  .290E-01  .340E-01  .315E-01  .353E-01  .276E-01  .233E-01
  .236E-01  .239E-01  .241E-01  .242E-01  .243E-01  .244E-01  .244E-01  .243E-01
  .243E-01  .242E-01  .241E-01  .240E-01  .238E-01  .236E-01  .234E-01  .232E-01
  .231E-01  .230E-01  .229E-01  .228E-01  .228E-01  .227E-01  .227E-01  .226E-01
  .226E-01  .226E-01  .225E-01  .000E+00  .000E+00  .000E+00  .000E+00  .000E+00
  .000E+00  .000E+00  .000E+00  .000E+00
  .228E-01  .279E-01  .330E-01  .364E-01  .409E-01  .477E-01  .741E-01  .107E+00
  .130E+00  .136E+00  .138E+00  .153E+00  .136E+00  .135E+00  .130E+00  .144E+00
  .192E+00  .199E+00  .202E+00  .251E+00  .294E+00  .315E+00  .293E+00  .263E+00
  .266E+00  .294E+00  .355E+00  .379E+00  .377E+00  .342E+00  .351E+00  .401E+00
  .461E+00  .614E+00  .684E+00  .563E+00  .635E+00  .614E+00  .662E+00  .643E+00
  .595E+00  .533E+00  .657E+00  .612E+00  .587E+00  .527E+00  .493E+00  .409E+00
  .377E+00  .443E+00  .394E+00  .343E+00  .417E+00  .340E+00  .351E+00  .327E+00
  .303E+00  .296E+00  .290E+00  .286E+00  .282E+00  .276E+00  .272E+00  .268E+00
  .265E+00  .262E+00  .260E+00  .257E+00  .255E+00  .254E+00  .252E+00  .251E+00
  .250E+00  .249E+00  .248E+00  .247E+00  .246E+00  .245E+00  .244E+00  .244E+00
  .243E+00  .243E+00  .243E+00  .243E+00  .243E+00  .242E+00  .242E+00  .242E+00
  .242E+00  .242E+00  .242E+00  .000E+00  .000E+00  .000E+00  .000E+00  .000E+00
  .000E+00  .000E+00  .000E+00  .000E+00
  .193E-01  .213E-01  .235E-01  .246E-01  .261E-01  .272E-01  .295E-01  .383E-01
  .391E-01  .351E-01  .360E-01  .352E-01  .305E-01  .272E-01  .254E-01  .248E-01
  .307E-01  .315E-01  .314E-01  .321E-01  .336E-01  .309E-01  .277E-01  .239E-01
  .254E-01  .268E-01  .280E-01  .290E-01  .256E-01  .212E-01  .226E-01  .232E-01
  .231E-01  .286E-01  .273E-01  .241E-01  .240E-01  .234E-01  .215E-01  .210E-01
  .175E-01  .167E-01  .151E-01  .136E-01  .129E-01  .975E-02  .763E-02  .537E-02
  .475E-02  .527E-02  .477E-02  .347E-02  .358E-02  .203E-02  .168E-02  .190E-02
  .148E-02  .938E-03  .962E-03  .101E-02  .856E-03  .797E-03  .539E-03  .414E-03
  .368E-03  .330E-03  .298E-03  .271E-03  .247E-03  .227E-03  .209E-03  .193E-03
  .179E-03  .166E-03  .155E-03  .145E-03  .125E-03  .109E-03  .963E-04  .861E-04
  .778E-04  .708E-04  .649E-04  .599E-04  .555E-04  .517E-04  .455E-04  .405E-04
  .365E-04  .331E-04  .303E-04  .000E+00  .000E+00  .000E+00  .000E+00  .000E+00
  .000E+00  .000E+00  .000E+00  .000E+00
  .476E-01  .550E-01  .634E-01  .698E-01  .769E-01  .827E-01  .101E+00  .140E+00
  .158E+00  .150E+00  .164E+00  .171E+00  .158E+00  .151E+00  .147E+00  .153E+00
  .206E+00  .228E+00  .247E+00  .273E+00  .304E+00  .305E+00  .289E+00  .262E+00
  .298E+00  .329E+00  .375E+00  .427E+00  .404E+00  .363E+00  .417E+00  .453E+00
  .479E+00  .629E+00  .635E+00  .591E+00  .615E+00  .628E+00  .604E+00  .617E+00
  .535E+00  .560E+00  .555E+00  .540E+00  .551E+00  .446E+00  .372E+00  .279E+00
  .261E+00  .306E+00  .289E+00  .232E+00  .259E+00  .158E+00  .142E+00  .171E+00
  .140E+00  .954E-01  .101E+00  .112E+00  .991E-01  .101E+00  .722E-01  .563E-01
  .530E-01  .500E-01  .473E-01  .448E-01  .425E-01  .403E-01  .383E-01  .364E-01
  .347E-01  .330E-01  .316E-01  .302E-01  .272E-01  .247E-01  .226E-01  .209E-01
  .194E-01  .181E-01  .169E-01  .159E-01  .151E-01  .143E-01  .129E-01  .118E-01
  .109E-01  .101E-01  .944E-02  .000E+00  .000E+00  .000E+00  .000E+00  .000E+00
  .000E+00  .000E+00  .000E+00  .000E+00
  .496E+01  .496E+01  .496E+01  .497E+01  .497E+01  .496E+01  .509E+01  .509E+01
  .511E+01  .511E+01  .542E+01  .543E+01  .498E+01  .499E+01  .499E+01  .516E+01
  .517E+01  .519E+01  .519E+01  .521E+01  .544E+01  .523E+01  .524E+01  .524E+01
  .117E+02  .121E+02  .122E+02  .123E+02  .159E+02  .161E+02  .525E+01  .526E+01
  .527E+01  .124E+02  .124E+02  .571E+01  .617E+01  .620E+01  .125E+02  .125E+02
  .123E+02  .116E+02  .117E+02  .115E+02  .123E+02  .123E+02  .113E+02  .109E+02
  .109E+02  .110E+02  .106E+02  .128E+02  .107E+02  .590E+01  .124E+02  .121E+02
  .107E+02  .104E+02  .121E+02  .121E+02  .107E+02  .107E+02  .107E+02  .499E+01
  .499E+01  .499E+01  .499E+01  .499E+01  .499E+01  .499E+01  .499E+01  .499E+01
  .499E+01  .499E+01  .500E+01  .500E+01  .500E+01  .500E+01  .500E+01  .500E+01
  .500E+01  .500E+01  .500E+01  .500E+01  .500E+01  .500E+01  .500E+01  .500E+01
  .500E+01  .500E+01  .500E+01  .000E+00  .000E+00  .000E+00  .000E+00  .000E+00
  .000E+00  .000E+00  .000E+00  .000E+00
  .495E+01  .495E+01  .495E+01  .495E+01  .498E+01  .498E+01  .507E+01  .508E+01
  .512E+01  .513E+01  .544E+01  .545E+01  .546E+01  .535E+01  .531E+01  .513E+01
  .514E+01  .515E+01  .516E+01  .531E+01  .526E+01  .527E+01  .528E+01  .528E+01
  .117E+02  .117E+02  .127E+02  .124E+02  .158E+02  .160E+02  .114E+02  .534E+01
  .555E+01  .126E+02  .127E+02  .624E+01  .648E+01  .631E+01  .126E+02  .126E+02
  .122E+02  .118E+02  .116E+02  .116E+02  .124E+02  .122E+02  .122E+02  .108E+02
  .108E+02  .108E+02  .108E+02  .512E+01  .122E+02  .122E+02  .122E+02  .122E+02
  .512E+01  .512E+01  .512E+01  .512E+01  .512E+01  .512E+01  .512E+01  .512E+01
  .512E+01  .512E+01  .512E+01  .512E+01  .512E+01  .512E+01  .512E+01  .512E+01
  .512E+01  .512E+01  .512E+01  .512E+01  .512E+01  .512E+01  .512E+01  .512E+01
  .512E+01  .512E+01  .512E+01  .512E+01  .512E+01  .512E+01  .512E+01  .512E+01
  .512E+01  .512E+01  .512E+01  .000E+00  .000E+00  .000E+00  .000E+00  .000E+00
  .000E+00  .000E+00  .000E+00  .000E+00
  .496E+01  .496E+01  .496E+01  .496E+01  .497E+01  .496E+01  .509E+01  .509E+01
  .511E+01  .511E+01  .542E+01  .543E+01  .498E+01  .498E+01  .499E+01  .516E+01
  .517E+01  .518E+01  .519E+01  .520E+01  .544E+01  .523E+01  .523E+01  .524E+01
  .117E+02  .121E+02  .122E+02  .123E+02  .159E+02  .161E+02  .524E+01  .525E+01
  .526E+01  .124E+02  .124E+02  .571E+01  .617E+01  .620E+01  .125E+02  .125E+02
  .123E+02  .116E+02  .117E+02  .115E+02  .123E+02  .123E+02  .113E+02  .109E+02
  .109E+02  .110E+02  .106E+02  .123E+02  .106E+02  .588E+01  .124E+02  .121E+02
  .107E+02  .104E+02  .121E+02  .121E+02  .106E+02  .106E+02  .106E+02  .495E+01
  .495E+01  .494E+01  .494E+01  .494E+01  .494E+01  .494E+01  .494E+01  .494E+01
  .494E+01  .494E+01  .494E+01  .494E+01  .494E+01  .494E+01  .494E+01  .494E+01
  .494E+01  .494E+01  .494E+01  .494E+01  .494E+01  .494E+01  .494E+01  .494E+01
  .494E+01  .494E+01  .494E+01  .000E+00  .000E+00  .000E+00  .000E+00  .000E+00
  .000E+00  .000E+00  .000E+00  .000E+00
/&   ----------  End of spectral data for channel  1  ----------
Response and Fourier amplitude spectra (91 periods,  .04 - 15.0 sec)   for      
Corrected accelerogram   14834-L1189-01253.06       Chan  2:  Up         from   
Uncorrected Accelerogram Data             Processed: 09/10/01, CDMG  ay006      
Record of Sun Sep  9, 2001 16:59:20 PDT               (Avol1 v4.6  7/01 CSMIP)  
CSMIP Preliminary Processing            (Origin:  To be determined)             
14834-L1189-01253.06                 Start time:  9/09/01, 23:59:20.0 UTC (GPS) 
Station No. 14834   33.922N, 118.326W      Etna  s/n 1189  (3 Channels)         
Hawthorne - Crenshaw & El Segundo                                               
Chan  2:  Up                                                                    
Record of Sun Sep  9, 2001 16:59:20 PDT    Sun Sep  9, 2001 16:59:20 PDT        
Hypocenter:  To be determined.               ML:  To be determined.             
Instr Period =  .0105 sec,  Damping =  .680,  Sensitivity =  .63  v/g           
                        Record length = 43.000 sec.                             
                                     Uncor Max  =   .008 g, at   5.500 sec.     
RMS accel of (uncor) record  =        .                                         
Accelerogram bandpass filtered with 3 dB pts at   .30 and 40.00 cyc/sec         
                 instrument- and baseline-corrected                             
                                                                                
                                                                                
                                                                                
                                                                                
                                                                                
Record of Sun Sep  9, 2001 16:59:20 PDT    Sun Sep  9, 2001 16:59:20 PDT        
                                                                                
14834-L1189-01253.06      Hawthorne - Crenshaw & El Segundo   Chan  2:  Up      
                                                                                
14834-L1189-01253.06      Hawthorne - Crenshaw & El Segundo   Chan  2:  Up      
                                                                                
Units for spectra are inches and sec, except Sa is in fraction of g.            
                                                                                
    2  100    2    3    3  200    1    3    1   24   12 1189    014834    1    0
   23   59   20    0  252    9    9 2001   10    3  500 8600   39   33   72    1
 8600    1   50    3 1189    1    6  430    1    0    0    0    0    0    0    0
    0    4    0    0 4300    2    0    0    0    0   72   33    0    0    0 4300
    0 4300   34   91    1    3    0    0    0    0    3    0    0    0    0    2
    2    2    4    0   32   99    0   32   32    0    0    1    0    0    0    0
  -99   -1    0    0
      .010      .680    43.000      .001      .000   625.000      .008     5.500
    95.300      .298      .477      .000     5.000      .000      .000      .000
     2.500   -22.141     -.010     -.019     5.000    30.000      .000      .015
     -.002     -.016     2.000    15.000    33.922  -118.326      .948      .242
      .256     -.139      .106  -999.000      .000      .000   -13.600      .000
  1000.000     1.020      .000      .000      .000      .000      .000      .000
     4.600     4.400      .000   980.665      .010    43.000    15.167      .000
      .000    40.000      .000    43.000      .010      .300      .000      .000
     5.500     7.999     8.270     -.178     8.520     -.013      .000      .300
    40.000      .010      .010      .000      .010      .011      .000      .000
      .030      .120      .017      .008      .001      .000      .000      .000
      .000      .000      .000      .000      .000      .000      .000      .000
      .000      .000      .000      .000
      .050
      .040      .042      .044      .046      .048      .050      .055      .060
      .065      .070      .075      .080      .085      .090      .095      .100
      .110      .120      .130      .140      .150      .160      .170      .180
      .190      .200      .220      .240      .260      .280      .300      .320
      .340      .360      .380      .400      .420      .440      .460      .480
      .500      .550      .600      .650      .700      .750      .800      .850
      .900      .950     1.000     1.100     1.200     1.300     1.400     1.500
     1.600     1.700     1.800     1.900     2.000     2.200     2.400     2.600
     2.800     3.000     3.200     3.400     3.600     3.800     4.000     4.200
     4.400     4.600     4.800     5.000     5.500     6.000     6.500     7.000
     7.500     8.000     8.500     9.000     9.500    10.000    11.000    12.000
    13.000    14.000    15.000      .000      .000      .000      .000      .000
      .000      .000      .000      .000
Fourier amplitude spectra in in/sec.
  .000E+00  .000E+00  .000E+00  .000E+00  .000E+00  .000E+00  .000E+00  .000E+00
  .000E+00  .000E+00  .000E+00  .000E+00  .000E+00  .000E+00  .000E+00  .000E+00
  .000E+00  .000E+00  .000E+00  .000E+00  .000E+00  .000E+00  .000E+00  .000E+00
  .000E+00  .000E+00  .000E+00  .000E+00  .000E+00  .000E+00  .000E+00  .000E+00
  .000E+00  .000E+00  .000E+00  .000E+00  .000E+00  .000E+00  .000E+00  .000E+00
  .000E+00  .000E+00  .000E+00  .000E+00  .000E+00  .000E+00  .000E+00  .000E+00
  .000E+00  .000E+00  .000E+00  .000E+00  .000E+00  .000E+00  .000E+00  .000E+00
  .000E+00  .000E+00  .000E+00  .000E+00  .000E+00  .000E+00  .000E+00  .000E+00
  .000E+00  .000E+00  .000E+00  .000E+00  .000E+00  .000E+00  .000E+00  .000E+00
  .000E+00  .000E+00  .000E+00  .000E+00  .000E+00  .000E+00  .000E+00  .000E+00
  .000E+00  .000E+00  .000E+00  .000E+00  .000E+00  .000E+00  .000E+00  .000E+00
  .000E+00  .000E+00  .000E+00  .000E+00  .000E+00  .000E+00  .000E+00  .000E+00
  .000E+00  .000E+00  .000E+00  .000E+00
Damping =  .05. Data of Sd,Sv,Sa,Pssv,ttSd,ttSv,ttSa :
  .178E-03  .196E-03  .194E-03  .205E-03  .241E-03  .283E-03  .371E-03  .496E-03
  .573E-03  .652E-03  .776E-03  .993E-03  .130E-02  .179E-02  .204E-02  .233E-02
  .249E-02  .420E-02  .397E-02  .412E-02  .516E-02  .505E-02  .542E-02  .594E-02
  .712E-02  .675E-02  .601E-02  .512E-02  .621E-02  .701E-02  .706E-02  .787E-02
  .832E-02  .849E-02  .920E-02  .103E-01  .955E-02  .854E-02  .930E-02  .923E-02
