Response and Fourier amplitude spectra (91 periods,  .04 - 15.0 sec)   for      
Corrected accelerogram   24764-K0987-01253.97       Chan  1:  90 Deg     from   
Uncorrected Accelerogram Data             Processed: 09/10/01, CDMG  bm097      
Record of Sun Sep  9, 2001 16:59:19 PDT               (Avol1 v4.6  7/01 CSMIP)  
CSMIP Preliminary Processing            (Origin:  To be determined)             
24764-K0987-01253.97                 Start time:  9/09/01, 23:59:19.0 UTC (GPS) 
Station No. 24764   34.160N, 118.534W        K2  s/n  987  (6 Channels)         
Tarzana - Cedar Hill B                                                          
Chan  1:  90 Deg                    Location: Surface                           
Record of Sun Sep  9, 2001 16:59:19 PDT    Sun Sep  9, 2001 16:59:19 PDT        
Hypocenter:  To be determined.               ML:  To be determined.
Instr Period =  .0107 sec,  Damping =  .650,  Sensitivity =  .63  v/g
                        Record length = 39.000 sec.
                                     Uncor Max  =   .021 g, at   5.630 sec.
RMS accel of (uncor) record  =        .
Accelerogram bandpass filtered with 3 dB pts at   .30 and 40.00 cyc/sec
                 instrument- and baseline-corrected





Record of Sun Sep  9, 2001 16:59:19 PDT    Sun Sep  9, 2001 16:59:19 PDT

24764-K0987-01253.97      Tarzana - Cedar Hill B    Chan  1:  90 Deg

24764-K0987-01253.97      Tarzana - Cedar Hill B    Chan  1:  90 Deg

Units for spectra are inches and sec, except Sa is in fraction of g.

    1  100    1    6    6  200    1    3    1   24   11  987    024764    4    0
   23   59   19    0  252    9    9 2001   10    3   90 7800   39   22   72  359
 7800    1   50    3  987    1   97  390    1    0    0    0    0    0    0    0
    0    4    0    0 3900    2    0    0    0    0   72   22    0    0    0 3900
    0 3900   23   91    1    6    0    0    0    0    6    0    0    0    0    2
    2    2    4    1   65   99    0   32   32    0    0    1    0    0    0    0
  -99   -1    0    0
      .011      .650    39.000      .002      .000   625.000      .021     5.630
    93.400      .298      .477      .000     5.000      .000      .000      .000
     2.500     6.155      .017     -.009     5.000    30.000      .000     -.004
      .000      .004     2.000    15.000    34.160  -118.534      .009      .388
    44.021     -.014      .023  -999.000      .000      .000    12.600      .000
  1000.000     1.004      .000      .000      .000      .000      .000      .000
     4.600     4.400      .000   980.665      .010    39.000    14.865      .000
      .000    40.000      .000    39.000      .010      .300      .000      .000
     5.630    20.057     5.580     -.921     5.480      .055      .000      .300
    40.000      .010      .010      .000      .010      .021      .000      .000
      .103      .190      .086      .025      .005      .000      .000      .000
      .000      .000      .000      .000      .000      .000      .000      .000
      .000      .000      .000      .000
      .050
      .040      .042      .044      .046      .048      .050      .055      .060
      .065      .070      .075      .080      .085      .090      .095      .100
      .110      .120      .130      .140      .150      .160      .170      .180
      .190      .200      .220      .240      .260      .280      .300      .320
      .340      .360      .380      .400      .420      .440      .460      .480
      .500      .550      .600      .650      .700      .750      .800      .850
      .900      .950     1.000     1.100     1.200     1.300     1.400     1.500
     1.600     1.700     1.800     1.900     2.000     2.200     2.400     2.600
     2.800     3.000     3.200     3.400     3.600     3.800     4.000     4.200
     4.400     4.600     4.800     5.000     5.500     6.000     6.500     7.000
     7.500     8.000     8.500     9.000     9.500    10.000    11.000    12.000
    13.000    14.000    15.000      .000      .000      .000      .000      .000
      .000      .000      .000      .000
Fourier amplitude spectra in in/sec.
  .000E+00  .000E+00  .000E+00  .000E+00  .000E+00  .000E+00  .000E+00  .000E+00
  .000E+00  .000E+00  .000E+00  .000E+00  .000E+00  .000E+00  .000E+00  .000E+00
  .000E+00  .000E+00  .000E+00  .000E+00  .000E+00  .000E+00  .000E+00  .000E+00
  .000E+00  .000E+00  .000E+00  .000E+00  .000E+00  .000E+00  .000E+00  .000E+00
  .000E+00  .000E+00  .000E+00  .000E+00  .000E+00  .000E+00  .000E+00  .000E+00
  .000E+00  .000E+00  .000E+00  .000E+00  .000E+00  .000E+00  .000E+00  .000E+00
  .000E+00  .000E+00  .000E+00  .000E+00  .000E+00  .000E+00  .000E+00  .000E+00
  .000E+00  .000E+00  .000E+00  .000E+00  .000E+00  .000E+00  .000E+00  .000E+00
  .000E+00  .000E+00  .000E+00  .000E+00  .000E+00  .000E+00  .000E+00  .000E+00
  .000E+00  .000E+00  .000E+00  .000E+00  .000E+00  .000E+00  .000E+00  .000E+00
  .000E+00  .000E+00  .000E+00  .000E+00  .000E+00  .000E+00  .000E+00  .000E+00
  .000E+00  .000E+00  .000E+00  .000E+00  .000E+00  .000E+00  .000E+00  .000E+00
  .000E+00  .000E+00  .000E+00  .000E+00
Damping =  .05. Data of Sd,Sv,Sa,Pssv,ttSd,ttSv,ttSa :
  .410E-03  .466E-03  .614E-03  .696E-03  .696E-03  .718E-03  .111E-02  .154E-02
  .144E-02  .144E-02  .206E-02  .255E-02  .300E-02  .396E-02  .459E-02  .620E-02
  .840E-02  .804E-02  .845E-02  .131E-01  .151E-01  .165E-01  .207E-01  .296E-01
  .361E-01  .368E-01  .277E-01  .221E-01  .202E-01  .213E-01  .215E-01  .214E-01
  .247E-01  .286E-01  .309E-01  .348E-01  .375E-01  .417E-01  .463E-01  .467E-01
  .519E-01  .588E-01  .667E-01  .801E-01  .919E-01  .790E-01  .692E-01  .615E-01
  .530E-01  .474E-01  .479E-01  .440E-01  .379E-01  .341E-01  .328E-01  .320E-01
  .317E-01  .307E-01  .308E-01  .313E-01  .312E-01  .299E-01  .279E-01  .262E-01
  .249E-01  .241E-01  .236E-01  .234E-01  .233E-01  .233E-01  .232E-01  .231E-01
  .230E-01  .229E-01  .228E-01  .227E-01  .224E-01  .221E-01  .219E-01  .217E-01
  .216E-01  .215E-01  .214E-01  .214E-01  .214E-01  .214E-01  .214E-01  .214E-01
  .214E-01  .215E-01  .215E-01  .000E+00  .000E+00  .000E+00  .000E+00  .000E+00
  .000E+00  .000E+00  .000E+00  .000E+00
  .324E-01  .385E-01  .467E-01  .500E-01  .503E-01  .499E-01  .697E-01  .938E-01
  .844E-01  .891E-01  .907E-01  .122E+00  .156E+00  .199E+00  .258E+00  .311E+00
  .413E+00  .381E+00  .344E+00  .547E+00  .640E+00  .615E+00  .797E+00  .106E+01
  .122E+01  .120E+01  .894E+00  .618E+00  .471E+00  .514E+00  .534E+00  .549E+00
  .525E+00  .480E+00  .514E+00  .580E+00  .634E+00  .671E+00  .730E+00  .797E+00
  .799E+00  .638E+00  .710E+00  .756E+00  .863E+00  .753E+00  .738E+00  .704E+00
  .667E+00  .631E+00  .592E+00  .529E+00  .500E+00  .469E+00  .449E+00  .439E+00
  .432E+00  .425E+00  .417E+00  .408E+00  .399E+00  .384E+00  .375E+00  .370E+00
  .368E+00  .367E+00  .366E+00  .366E+00  .365E+00  .365E+00  .364E+00  .363E+00
  .363E+00  .362E+00  .362E+00  .362E+00  .361E+00  .361E+00  .360E+00  .360E+00
  .360E+00  .360E+00  .360E+00  .360E+00  .360E+00  .360E+00  .360E+00  .360E+00
  .360E+00  .360E+00  .360E+00  .000E+00  .000E+00  .000E+00  .000E+00  .000E+00
  .000E+00  .000E+00  .000E+00  .000E+00
  .262E-01  .271E-01  .323E-01  .335E-01  .311E-01  .295E-01  .375E-01  .436E-01
  .352E-01  .299E-01  .377E-01  .407E-01  .427E-01  .504E-01  .521E-01  .639E-01
  .708E-01  .577E-01  .516E-01  .679E-01  .695E-01  .670E-01  .742E-01  .936E-01
  .103E+00  .951E-01  .590E-01  .397E-01  .309E-01  .281E-01  .244E-01  .215E-01
  .221E-01  .228E-01  .219E-01  .224E-01  .219E-01  .221E-01  .225E-01  .208E-01
  .213E-01  .200E-01  .191E-01  .195E-01  .193E-01  .145E-01  .111E-01  .879E-02
  .672E-02  .542E-02  .496E-02  .377E-02  .276E-02  .213E-02  .178E-02  .151E-02
  .133E-02  .115E-02  .103E-02  .945E-03  .859E-03  .692E-03  .555E-03  .452E-03
  .378E-03  .325E-03  .285E-03  .255E-03  .229E-03  .208E-03  .190E-03  .175E-03
  .162E-03  .152E-03  .144E-03  .136E-03  .119E-03  .106E-03  .961E-04  .875E-04
  .804E-04  .751E-04  .706E-04  .666E-04  .631E-04  .598E-04  .543E-04  .496E-04
  .457E-04  .424E-04  .395E-04  .000E+00  .000E+00  .000E+00  .000E+00  .000E+00
  .000E+00  .000E+00  .000E+00  .000E+00
  .644E-01  .697E-01  .877E-01  .951E-01  .911E-01  .902E-01  .127E+00  .161E+00
  .139E+00  .129E+00  .173E+00  .200E+00  .222E+00  .276E+00  .304E+00  .390E+00
  .480E+00  .421E+00  .409E+00  .586E+00  .633E+00  .649E+00  .764E+00  .103E+01
  .119E+01  .116E+01  .790E+00  .579E+00  .487E+00  .479E+00  .450E+00  .419E+00
  .456E+00  .499E+00  .510E+00  .547E+00  .561E+00  .596E+00  .633E+00  .611E+00
  .653E+00  .671E+00  .699E+00  .775E+00  .825E+00  .662E+00  .544E+00  .455E+00
  .370E+00  .314E+00  .301E+00  .251E+00  .198E+00  .165E+00  .147E+00  .134E+00
  .124E+00  .113E+00  .107E+00  .103E+00  .981E-01  .854E-01  .731E-01  .632E-01
  .558E-01  .504E-01  .464E-01  .433E-01  .407E-01  .384E-01  .364E-01  .346E-01
  .329E-01  .313E-01  .299E-01  .285E-01  .256E-01  .232E-01  .212E-01  .195E-01
  .181E-01  .169E-01  .158E-01  .149E-01  .141E-01  .134E-01  .122E-01  .112E-01
  .104E-01  .964E-02  .902E-02  .000E+00  .000E+00  .000E+00  .000E+00  .000E+00
  .000E+00  .000E+00  .000E+00  .000E+00
  .589E+01  .589E+01  .589E+01  .589E+01  .589E+01  .589E+01  .589E+01  .590E+01
  .590E+01  .563E+01  .590E+01  .590E+01  .534E+01  .534E+01  .535E+01  .562E+01
  .564E+01  .605E+01  .549E+01  .606E+01  .607E+01  .552E+01  .609E+01  .593E+01
  .594E+01  .596E+01  .588E+01  .570E+01  .539E+01  .540E+01  .541E+01  .542E+01
  .569E+01  .570E+01  .571E+01  .572E+01  .573E+01  .795E+01  .848E+01  .606E+01
  .609E+01  .588E+01  .715E+01  .691E+01  .837E+01  .669E+01  .638E+01  .640E+01
  .644E+01  .606E+01  .816E+01  .784E+01  .579E+01  .785E+01  .785E+01  .786E+01
  .786E+01  .786E+01  .546E+01  .546E+01  .546E+01  .546E+01  .547E+01  .547E+01
  .547E+01  .547E+01  .547E+01  .547E+01  .547E+01  .547E+01  .547E+01  .547E+01
  .547E+01  .547E+01  .547E+01  .547E+01  .547E+01  .547E+01  .547E+01  .547E+01
  .547E+01  .547E+01  .547E+01  .547E+01  .547E+01  .547E+01  .547E+01  .547E+01
  .547E+01  .547E+01  .547E+01  .000E+00  .000E+00  .000E+00  .000E+00  .000E+00
  .000E+00  .000E+00  .000E+00  .000E+00
  .529E+01  .270E+01  .587E+01  .530E+01  .300E+01  .559E+01  .588E+01  .588E+01
  .574E+01  .575E+01  .592E+01  .593E+01  .594E+01  .537E+01  .538E+01  .565E+01
  .567E+01  .608E+01  .546E+01  .603E+01  .604E+01  .547E+01  .604E+01  .597E+01
  .599E+01  .591E+01  .593E+01  .585E+01  .544E+01  .535E+01  .536E+01  .536E+01
  .536E+01  .564E+01  .564E+01  .564E+01  .565E+01  .565E+01  .593E+01  .593E+01
  .594E+01  .595E+01  .698E+01  .708E+01  .821E+01  .687E+01  .585E+01  .586E+01
  .586E+01  .586E+01  .586E+01  .557E+01  .557E+01  .557E+01  .557E+01  .557E+01
  .557E+01  .557E+01  .557E+01  .557E+01  .557E+01  .557E+01  .557E+01  .557E+01
  .557E+01  .557E+01  .557E+01  .557E+01  .557E+01  .557E+01  .557E+01  .557E+01
  .557E+01  .557E+01  .557E+01  .557E+01  .557E+01  .557E+01  .557E+01  .557E+01
  .557E+01  .557E+01  .557E+01  .557E+01  .557E+01  .557E+01  .557E+01  .557E+01
  .557E+01  .557E+01  .557E+01  .000E+00  .000E+00  .000E+00  .000E+00  .000E+00
  .000E+00  .000E+00  .000E+00  .000E+00
  .589E+01  .589E+01  .589E+01  .589E+01  .589E+01  .589E+01  .589E+01  .590E+01
  .590E+01  .563E+01  .590E+01  .590E+01  .534E+01  .534E+01  .535E+01  .562E+01
  .564E+01  .605E+01  .549E+01  .606E+01  .607E+01  .551E+01  .600E+01  .601E+01
  .594E+01  .595E+01  .588E+01  .569E+01  .539E+01  .540E+01  .540E+01  .541E+01
  .569E+01  .570E+01  .570E+01  .571E+01  .572E+01  .794E+01  .847E+01  .606E+01
  .608E+01  .587E+01  .714E+01  .690E+01  .836E+01  .811E+01  .637E+01  .639E+01
  .643E+01  .604E+01  .814E+01  .783E+01  .577E+01  .783E+01  .784E+01  .784E+01
  .784E+01  .784E+01  .544E+01  .544E+01  .544E+01  .544E+01  .544E+01  .544E+01
  .544E+01  .544E+01  .544E+01  .544E+01  .544E+01  .544E+01  .544E+01  .544E+01
  .530E+01  .530E+01  .530E+01  .530E+01  .530E+01  .530E+01  .530E+01  .530E+01
  .530E+01  .558E+01  .558E+01  .558E+01  .558E+01  .558E+01  .558E+01  .558E+01
  .558E+01  .558E+01  .558E+01  .000E+00  .000E+00  .000E+00  .000E+00  .000E+00
  .000E+00  .000E+00  .000E+00  .000E+00
/&   ----------  End of spectral data for channel  1  ----------
