Response and Fourier amplitude spectra (91 periods,  .04 - 15.0 sec)   for      
Corrected accelerogram   24400-L1855-01252.01       Chan  1: 360 Deg     from   
Uncorrected Accelerogram Data             Processed: 09/10/01, CDMG  400as001   
Record of Sun Sep  9, 2001 16:59:22 PDT               (Avol1 v4.6  7/01 CSMIP)  
CSMIP Preliminary Processing            (Origin:  To be determined)             
24400-L1855-01252.01                 Start time:  9/09/01, 23:59:22.0 UTC (GPS) 
Station No. 24400   34.037N, 118.178W      Etna  s/n 1855  (3 Channels)         
(real time, in parallel)                                                        
Chan  1: 360 Deg                                                                
Record of Sun Sep  9, 2001 16:59:22 PDT    Sun Sep  9, 2001 16:59:22 PDT        
Hypocenter:  To be determined.               ML:  To be determined.
Instr Period =  .0107 sec,  Damping =  .660,  Sensitivity =  .63  v/g
                        Record length = 38.000 sec.
                                     Uncor Max  =  -.023 g, at   4.490 sec.
RMS accel of (uncor) record  =        .
Accelerogram bandpass filtered with 3 dB pts at   .30 and 23.00 cyc/sec
                 instrument- and baseline-corrected





Record of Sun Sep  9, 2001 16:59:22 PDT    Sun Sep  9, 2001 16:59:22 PDT

24400-L1855-01252.01      (real time, in parallel)    Chan  1: 360 Deg

24400-L1855-01252.01      (real time, in parallel)    Chan  1: 360 Deg

Units for spectra are inches and sec, except Sa is in fraction of g.

    1  100    1    3    3  100    1    3    1   24   12 1855    024400    1    0
   23   59   22    0  252    9    9 2001   10    3  360 3800   39   24   72  360
 3800    1   50    3 1855    1    1  380    1    0    0    0    0    0    0    0
    0    4    0    0 1900    2    0    0    0    0   72   24    0    0    0 1900
    0 1900   25   91    1    3    0    0    0    0    3    0    0    0    0    2
    2    2    4    0   32   82    0   32   32    0    0    1    0    0    0    0
  -99   -1    0    0
      .011      .660    38.000      .002      .000   625.000     -.023     4.490
    93.700      .298      .477      .000    10.000      .000      .000      .000
     2.500    13.829      .023     -.005     5.000    30.000      .000     -.011
     -.002      .009     2.000    15.000    34.037  -118.178      .355      .389
     1.094     -.061      .079  -999.000      .000      .000   -13.400      .000
  1000.000     1.023      .000      .000      .000      .000      .000      .000
     4.600     4.400      .000   980.665      .020    38.000    14.913      .000
      .000    23.000      .000    38.000      .020      .300      .000      .000
     4.480   -21.940     4.460      .762     4.240     -.049      .000      .300
    23.000      .020      .020      .000      .020      .019      .000      .000
      .077      .160      .050      .021      .004      .000      .000      .000
      .000      .000      .000      .000      .000      .000      .000      .000
      .000      .000      .000      .000
      .050
      .040      .042      .044      .046      .048      .050      .055      .060
      .065      .070      .075      .080      .085      .090      .095      .100
      .110      .120      .130      .140      .150      .160      .170      .180
      .190      .200      .220      .240      .260      .280      .300      .320
      .340      .360      .380      .400      .420      .440      .460      .480
      .500      .550      .600      .650      .700      .750      .800      .850
      .900      .950     1.000     1.100     1.200     1.300     1.400     1.500
     1.600     1.700     1.800     1.900     2.000     2.200     2.400     2.600
     2.800     3.000     3.200     3.400     3.600     3.800     4.000     4.200
     4.400     4.600     4.800     5.000     5.500     6.000     6.500     7.000
     7.500     8.000     8.500     9.000     9.500    10.000    11.000    12.000
    13.000    14.000    15.000      .000      .000      .000      .000      .000
      .000      .000      .000      .000
Fourier amplitude spectra in in/sec.
  .000E+00  .000E+00  .000E+00  .000E+00  .000E+00  .000E+00  .000E+00  .000E+00
  .000E+00  .000E+00  .000E+00  .000E+00  .000E+00  .000E+00  .000E+00  .000E+00
  .000E+00  .000E+00  .000E+00  .000E+00  .000E+00  .000E+00  .000E+00  .000E+00
  .000E+00  .000E+00  .000E+00  .000E+00  .000E+00  .000E+00  .000E+00  .000E+00
  .000E+00  .000E+00  .000E+00  .000E+00  .000E+00  .000E+00  .000E+00  .000E+00
  .000E+00  .000E+00  .000E+00  .000E+00  .000E+00  .000E+00  .000E+00  .000E+00
  .000E+00  .000E+00  .000E+00  .000E+00  .000E+00  .000E+00  .000E+00  .000E+00
  .000E+00  .000E+00  .000E+00  .000E+00  .000E+00  .000E+00  .000E+00  .000E+00
  .000E+00  .000E+00  .000E+00  .000E+00  .000E+00  .000E+00  .000E+00  .000E+00
  .000E+00  .000E+00  .000E+00  .000E+00  .000E+00  .000E+00  .000E+00  .000E+00
  .000E+00  .000E+00  .000E+00  .000E+00  .000E+00  .000E+00  .000E+00  .000E+00
  .000E+00  .000E+00  .000E+00  .000E+00  .000E+00  .000E+00  .000E+00  .000E+00
  .000E+00  .000E+00  .000E+00  .000E+00
Damping =  .05. Data of Sd,Sv,Sa,Pssv,ttSd,ttSv,ttSa :
  .368E-03  .413E-03  .461E-03  .516E-03  .583E-03  .653E-03  .980E-03  .112E-02
  .153E-02  .191E-02  .216E-02  .301E-02  .462E-02  .585E-02  .630E-02  .616E-02
  .512E-02  .650E-02  .944E-02  .132E-01  .154E-01  .192E-01  .208E-01  .216E-01
  .214E-01  .206E-01  .158E-01  .165E-01  .170E-01  .159E-01  .170E-01  .231E-01
  .241E-01  .251E-01  .324E-01  .350E-01  .366E-01  .300E-01  .348E-01  .467E-01
  .502E-01  .401E-01  .303E-01  .287E-01  .279E-01  .297E-01  .271E-01  .303E-01
  .330E-01  .350E-01  .364E-01  .385E-01  .387E-01  .377E-01  .361E-01  .343E-01
  .366E-01  .320E-01  .324E-01  .309E-01  .285E-01  .346E-01  .285E-01  .304E-01
  .256E-01  .261E-01  .264E-01  .265E-01  .266E-01  .265E-01  .264E-01  .262E-01
  .261E-01  .259E-01  .257E-01  .255E-01  .250E-01  .246E-01  .242E-01  .239E-01
  .236E-01  .234E-01  .232E-01  .231E-01  .229E-01  .228E-01  .226E-01  .225E-01
  .224E-01  .223E-01  .222E-01  .000E+00  .000E+00  .000E+00  .000E+00  .000E+00
  .000E+00  .000E+00  .000E+00  .000E+00
  .183E-01  .200E-01  .226E-01  .261E-01  .305E-01  .353E-01  .661E-01  .857E-01
  .846E-01  .101E+00  .133E+00  .209E+00  .313E+00  .385E+00  .395E+00  .394E+00
  .287E+00  .306E+00  .434E+00  .570E+00  .620E+00  .708E+00  .734E+00  .757E+00
  .757E+00  .698E+00  .553E+00  .497E+00  .420E+00  .406E+00  .460E+00  .459E+00
  .558E+00  .530E+00  .518E+00  .551E+00  .567E+00  .468E+00  .513E+00  .634E+00
  .715E+00  .502E+00  .330E+00  .318E+00  .329E+00  .335E+00  .346E+00  .350E+00
  .329E+00  .300E+00  .280E+00  .293E+00  .316E+00  .330E+00  .338E+00  .344E+00
  .349E+00  .351E+00  .351E+00  .351E+00  .349E+00  .344E+00  .339E+00  .333E+00
  .328E+00  .323E+00  .318E+00  .314E+00  .311E+00  .308E+00  .306E+00  .304E+00
  .302E+00  .300E+00  .299E+00  .298E+00  .296E+00  .294E+00  .293E+00  .293E+00
  .292E+00  .292E+00  .291E+00  .291E+00  .291E+00  .290E+00  .290E+00  .290E+00
  .290E+00  .290E+00  .290E+00  .000E+00  .000E+00  .000E+00  .000E+00  .000E+00
  .000E+00  .000E+00  .000E+00  .000E+00
  .236E-01  .240E-01  .243E-01  .249E-01  .257E-01  .268E-01  .330E-01  .316E-01
  .371E-01  .404E-01  .393E-01  .482E-01  .647E-01  .749E-01  .719E-01  .643E-01
  .435E-01  .465E-01  .567E-01  .684E-01  .697E-01  .769E-01  .747E-01  .694E-01
  .615E-01  .538E-01  .340E-01  .289E-01  .261E-01  .208E-01  .193E-01  .228E-01
  .212E-01  .202E-01  .229E-01  .226E-01  .214E-01  .158E-01  .170E-01  .209E-01
  .206E-01  .137E-01  .865E-02  .700E-02  .588E-02  .546E-02  .437E-02  .433E-02
  .425E-02  .409E-02  .388E-02  .338E-02  .287E-02  .240E-02  .200E-02  .168E-02
  .150E-02  .118E-02  .108E-02  .929E-03  .771E-03  .768E-03  .525E-03  .488E-03
  .365E-03  .328E-03  .295E-03  .266E-03  .240E-03  .218E-03  .198E-03  .181E-03
  .166E-03  .153E-03  .141E-03  .131E-03  .110E-03  .946E-04  .823E-04  .725E-04
  .646E-04  .581E-04  .532E-04  .505E-04  .480E-04  .458E-04  .418E-04  .384E-04
  .356E-04  .331E-04  .310E-04  .000E+00  .000E+00  .000E+00  .000E+00  .000E+00
  .000E+00  .000E+00  .000E+00  .000E+00
  .578E-01  .618E-01  .659E-01  .704E-01  .763E-01  .821E-01  .112E+00  .117E+00
  .148E+00  .172E+00  .181E+00  .236E+00  .341E+00  .408E+00  .417E+00  .387E+00
  .292E+00  .340E+00  .456E+00  .591E+00  .646E+00  .755E+00  .770E+00  .756E+00
  .708E+00  .646E+00  .453E+00  .432E+00  .412E+00  .356E+00  .356E+00  .455E+00
  .445E+00  .438E+00  .535E+00  .549E+00  .548E+00  .428E+00  .476E+00  .611E+00
  .631E+00  .458E+00  .317E+00  .278E+00  .250E+00  .249E+00  .213E+00  .224E+00
  .230E+00  .231E+00  .229E+00  .220E+00  .203E+00  .182E+00  .162E+00  .144E+00
  .144E+00  .118E+00  .113E+00  .102E+00  .894E-01  .989E-01  .745E-01  .735E-01
  .574E-01  .546E-01  .518E-01  .490E-01  .464E-01  .438E-01  .415E-01  .393E-01
  .372E-01  .353E-01  .336E-01  .320E-01  .286E-01  .257E-01  .234E-01  .215E-01
  .198E-01  .184E-01  .172E-01  .161E-01  .152E-01  .143E-01  .129E-01  .118E-01
  .108E-01  .100E-01  .930E-02  .000E+00  .000E+00  .000E+00  .000E+00  .000E+00
  .000E+00  .000E+00  .000E+00  .000E+00
  .448E+01  .499E+01  .499E+01  .499E+01  .499E+01  .498E+01  .499E+01  .448E+01
  .448E+01  .449E+01  .449E+01  .471E+01  .477E+01  .505E+01  .506E+01  .483E+01
  .449E+01  .449E+01  .450E+01  .515E+01  .451E+01  .452E+01  .453E+01  .453E+01
  .454E+01  .464E+01  .916E+01  .430E+01  .430E+01  .432E+01  .502E+01  .504E+01
  .104E+02  .109E+02  .109E+02  .107E+02  .107E+02  .107E+02  .107E+02  .108E+02
  .108E+02  .106E+02  .106E+02  .106E+02  .468E+01  .104E+02  .446E+01  .446E+01
  .446E+01  .446E+01  .448E+01  .448E+01  .448E+01  .448E+01  .448E+01  .448E+01
  .102E+02  .554E+01  .554E+01  .556E+01  .476E+01  .102E+02  .706E+01  .866E+01
  .422E+01  .422E+01  .422E+01  .422E+01  .422E+01  .422E+01  .422E+01  .422E+01
  .422E+01  .422E+01  .422E+01  .422E+01  .422E+01  .422E+01  .422E+01  .422E+01
  .422E+01  .422E+01  .422E+01  .422E+01  .422E+01  .422E+01  .422E+01  .422E+01
  .422E+01  .422E+01  .422E+01  .000E+00  .000E+00  .000E+00  .000E+00  .000E+00
  .000E+00  .000E+00  .000E+00  .000E+00
  .446E+01  .446E+01  .445E+01  .445E+01  .469E+01  .469E+01  .501E+01  .501E+01
  .446E+01  .451E+01  .473E+01  .473E+01  .474E+01  .503E+01  .481E+01  .481E+01
  .468E+01  .458E+01  .453E+01  .511E+01  .513E+01  .455E+01  .449E+01  .449E+01
  .450E+01  .450E+01  .442E+01  .434E+01  .436E+01  .426E+01  .508E+01  .498E+01
  .500E+01  .500E+01  .108E+02  .108E+02  .108E+02  .884E+01  .108E+02  .107E+02
  .107E+02  .107E+02  .105E+02  .450E+01  .450E+01  .456E+01  .500E+01  .500E+01
  .500E+01  .458E+01  .458E+01  .442E+01  .442E+01  .442E+01  .442E+01  .444E+01
  .444E+01  .444E+01  .444E+01  .444E+01  .444E+01  .444E+01  .444E+01  .444E+01
  .444E+01  .444E+01  .444E+01  .444E+01  .444E+01  .444E+01  .444E+01  .444E+01
  .444E+01  .444E+01  .444E+01  .444E+01  .444E+01  .444E+01  .444E+01  .444E+01
  .444E+01  .444E+01  .444E+01  .444E+01  .444E+01  .444E+01  .444E+01  .444E+01
  .444E+01  .444E+01  .444E+01  .000E+00  .000E+00  .000E+00  .000E+00  .000E+00
  .000E+00  .000E+00  .000E+00  .000E+00
  .498E+01  .498E+01  .498E+01  .498E+01  .499E+01  .498E+01  .499E+01  .447E+01
  .448E+01  .448E+01  .449E+01  .471E+01  .477E+01  .505E+01  .506E+01  .483E+01
  .449E+01  .449E+01  .449E+01  .515E+01  .451E+01  .451E+01  .452E+01  .453E+01
  .454E+01  .464E+01  .916E+01  .430E+01  .430E+01  .430E+01  .502E+01  .504E+01
  .104E+02  .108E+02  .109E+02  .107E+02  .107E+02  .107E+02  .107E+02  .107E+02
  .108E+02  .106E+02  .106E+02  .106E+02  .468E+01  .104E+02  .444E+01  .446E+01
  .446E+01  .446E+01  .446E+01  .446E+01  .446E+01  .446E+01  .446E+01  .446E+01
  .101E+02  .446E+01  .552E+01  .552E+01  .472E+01  .101E+02  .704E+01  .862E+01
  .420E+01  .420E+01  .420E+01  .420E+01  .420E+01  .420E+01  .420E+01  .418E+01
  .418E+01  .418E+01  .418E+01  .418E+01  .418E+01  .418E+01  .418E+01  .418E+01
  .418E+01  .418E+01  .444E+01  .444E+01  .444E+01  .444E+01  .444E+01  .444E+01
  .444E+01  .444E+01  .444E+01  .000E+00  .000E+00  .000E+00  .000E+00  .000E+00
  .000E+00  .000E+00  .000E+00  .000E+00
/&   ----------  End of spectral data for channel  1  ----------
