Response and Fourier amplitude spectra (91 periods,  .04 - 15.0 sec)   for      
Corrected accelerogram   14654-F0274-01252.02       Chan  1:  Up         from   
Uncorrected Accelerogram Data             Processed: 09/10/01, CDMG  s654e02    
Earthquake of Sun Sep  9, 2001  16:59 PDT             (Avol1 v4.6  7/01 CSMIP)  
CSMIP Preliminary Processing            (Origin:  To be determined)             
14654-F0274-01252.02                 Start time:  9/09/01, 23:59 GMT (*LoQ*)    
Station No. 14654   33.920N, 118.390W     SSA-2  s/n  274  (3 Channels)         
El Segundo - 14-story Office Bldg                                               
Chan  1:  Up                        Location: 1st Floor: East Wall              
Earthquake of Sun Sep  9, 2001  16:59 PDT    Sun Sep  9, 2001  16:59 PDT        
Hypocenter:  To be determined.               ML:  To be determined.
Instr Period =  .0222 sec,  Damping =  .700,  Sensitivity = 1.25  v/g
                        Record length = 67.840 sec.
                                     Uncor Max  =   .004 g, at   2.745 sec.
RMS accel of (uncor) record  =        .
Accelerogram bandpass filtered with 3 dB pts at   .30 and 40.00 cyc/sec
                 instrument- and baseline-corrected





Earthquake of Sun Sep  9, 2001  16:59 PDT    Sun Sep  9, 2001  16:59 PDT

14654-F0274-01252.02      El Segundo - 14-story Office Bldg   Chan  1:  Up

14654-F0274-01252.02      El Segundo - 14-story Office Bldg   Chan  1:  Up

Units for spectra are inches and sec, except Sa is in fraction of g.

    1  100    1    3   16  200    1    3    1   12    6  274    014654    2    0
   23   59   37  700  252    9    9 2001    0    1  50013568   41   33   72  315
13568    1   50    0 3107    1    2   53    0   23   59   37  700    9    9 2001
    0    0    0    0 6784    2    0    0    0    0   72   33    0    0    0 6784
    0 6784   34   91    1    3    0    0    0    0   16    0    0    0    0    2
    2    2    4    0   79   99    1   32   32    0    0    0    0    0    9  132
  -99   -1    0    0
      .022      .700    67.840      .001      .000  1250.000      .004     2.745
    45.000  1220.703   976.563      .000     5.000      .000      .000      .000
     2.500   -25.003     -.027     -.037     5.120    30.000      .000     -.072
      .085      .157     2.000    15.000    33.920  -118.390     1.259      .451
      .358     -.007      .321  -999.000      .000      .000      .000      .000
      .689     1.027      .000      .000      .000      .000      .000      .000
     4.600     4.400      .000   980.665      .010    67.840     7.162      .000
      .000    40.000      .000    67.840      .010      .300      .000      .000
     2.750     4.359     5.900      .187    48.410      .021     -.001      .300
    40.000      .010      .010      .000      .010      .023      .000      .000
      .015      .220      .013      .008      .003      .000      .000      .000
      .000      .000      .000      .000      .000      .000      .000      .000
      .000      .000      .000      .000
      .050
      .040      .042      .044      .046      .048      .050      .055      .060
      .065      .070      .075      .080      .085      .090      .095      .100
      .110      .120      .130      .140      .150      .160      .170      .180
      .190      .200      .220      .240      .260      .280      .300      .320
      .340      .360      .380      .400      .420      .440      .460      .480
      .500      .550      .600      .650      .700      .750      .800      .850
      .900      .950     1.000     1.100     1.200     1.300     1.400     1.500
     1.600     1.700     1.800     1.900     2.000     2.200     2.400     2.600
     2.800     3.000     3.200     3.400     3.600     3.800     4.000     4.200
     4.400     4.600     4.800     5.000     5.500     6.000     6.500     7.000
     7.500     8.000     8.500     9.000     9.500    10.000    11.000    12.000
    13.000    14.000    15.000      .000      .000      .000      .000      .000
      .000      .000      .000      .000
Fourier amplitude spectra in in/sec.
  .000E+00  .000E+00  .000E+00  .000E+00  .000E+00  .000E+00  .000E+00  .000E+00
  .000E+00  .000E+00  .000E+00  .000E+00  .000E+00  .000E+00  .000E+00  .000E+00
  .000E+00  .000E+00  .000E+00  .000E+00  .000E+00  .000E+00  .000E+00  .000E+00
  .000E+00  .000E+00  .000E+00  .000E+00  .000E+00  .000E+00  .000E+00  .000E+00
  .000E+00  .000E+00  .000E+00  .000E+00  .000E+00  .000E+00  .000E+00  .000E+00
  .000E+00  .000E+00  .000E+00  .000E+00  .000E+00  .000E+00  .000E+00  .000E+00
  .000E+00  .000E+00  .000E+00  .000E+00  .000E+00  .000E+00  .000E+00  .000E+00
  .000E+00  .000E+00  .000E+00  .000E+00  .000E+00  .000E+00  .000E+00  .000E+00
  .000E+00  .000E+00  .000E+00  .000E+00  .000E+00  .000E+00  .000E+00  .000E+00
  .000E+00  .000E+00  .000E+00  .000E+00  .000E+00  .000E+00  .000E+00  .000E+00
  .000E+00  .000E+00  .000E+00  .000E+00  .000E+00  .000E+00  .000E+00  .000E+00
  .000E+00  .000E+00  .000E+00  .000E+00  .000E+00  .000E+00  .000E+00  .000E+00
  .000E+00  .000E+00  .000E+00  .000E+00
Damping =  .05. Data of Sd,Sv,Sa,Pssv,ttSd,ttSv,ttSa :
  .745E-04  .903E-04  .102E-03  .107E-03  .121E-03  .142E-03  .195E-03  .223E-03
  .259E-03  .281E-03  .284E-03  .368E-03  .475E-03  .522E-03  .607E-03  .687E-03
  .833E-03  .987E-03  .135E-02  .193E-02  .219E-02  .260E-02  .335E-02  .406E-02
  .387E-02  .490E-02  .719E-02  .750E-02  .764E-02  .669E-02  .666E-02  .854E-02
  .115E-01  .131E-01  .130E-01  .117E-01  .137E-01  .152E-01  .152E-01  .147E-01
  .150E-01  .165E-01  .143E-01  .162E-01  .150E-01  .159E-01  .191E-01  .200E-01
  .204E-01  .245E-01  .274E-01  .256E-01  .283E-01  .358E-01  .328E-01  .320E-01
  .354E-01  .322E-01  .374E-01  .379E-01  .429E-01  .356E-01  .233E-01  .240E-01
  .242E-01  .266E-01  .220E-01  .243E-01  .278E-01  .282E-01  .256E-01  .246E-01
  .194E-01  .158E-01  .144E-01  .164E-01  .157E-01  .170E-01  .135E-01  .134E-01
  .137E-01  .128E-01  .121E-01  .119E-01  .120E-01  .117E-01  .109E-01  .117E-01
  .124E-01  .119E-01  .109E-01  .000E+00  .000E+00  .000E+00  .000E+00  .000E+00
  .000E+00  .000E+00  .000E+00  .000E+00
  .598E-02  .718E-02  .815E-02  .897E-02  .949E-02  .914E-02  .104E-01  .121E-01
  .135E-01  .149E-01  .191E-01  .234E-01  .242E-01  .240E-01  .269E-01  .312E-01
  .352E-01  .406E-01  .612E-01  .788E-01  .868E-01  .901E-01  .110E+00  .131E+00
  .122E+00  .141E+00  .196E+00  .198E+00  .177E+00  .142E+00  .136E+00  .161E+00
  .221E+00  .234E+00  .213E+00  .205E+00  .202E+00  .230E+00  .220E+00  .205E+00
  .205E+00  .198E+00  .180E+00  .181E+00  .154E+00  .138E+00  .143E+00  .177E+00
  .147E+00  .161E+00  .171E+00  .161E+00  .165E+00  .190E+00  .169E+00  .161E+00
  .128E+00  .127E+00  .142E+00  .131E+00  .144E+00  .120E+00  .821E-01  .795E-01
  .762E-01  .777E-01  .728E-01  .787E-01  .788E-01  .693E-01  .659E-01  .681E-01
  .702E-01  .722E-01  .738E-01  .751E-01  .774E-01  .783E-01  .785E-01  .782E-01
  .778E-01  .772E-01  .767E-01  .763E-01  .759E-01  .756E-01  .751E-01  .748E-01
  .746E-01  .745E-01  .744E-01  .000E+00  .000E+00  .000E+00  .000E+00  .000E+00
  .000E+00  .000E+00  .000E+00  .000E+00
  .475E-02  .525E-02  .541E-02  .520E-02  .539E-02  .580E-02  .657E-02  .630E-02
  .626E-02  .587E-02  .517E-02  .591E-02  .677E-02  .663E-02  .686E-02  .698E-02
  .698E-02  .698E-02  .831E-02  .101E-01  .100E-01  .105E-01  .120E-01  .129E-01
  .110E-01  .126E-01  .152E-01  .134E-01  .117E-01  .879E-02  .758E-02  .862E-02
  .102E-01  .103E-01  .925E-02  .755E-02  .796E-02  .808E-02  .740E-02  .656E-02
  .619E-02  .564E-02  .410E-02  .393E-02  .316E-02  .290E-02  .306E-02  .285E-02
  .260E-02  .279E-02  .281E-02  .218E-02  .202E-02  .218E-02  .172E-02  .146E-02
  .142E-02  .114E-02  .119E-02  .108E-02  .110E-02  .757E-03  .419E-03  .368E-03
  .320E-03  .307E-03  .223E-03  .218E-03  .224E-03  .203E-03  .167E-03  .146E-03
  .105E-03  .792E-04  .701E-04  .702E-04  .561E-04  .511E-04  .355E-04  .310E-04
  .279E-04  .225E-04  .190E-04  .165E-04  .150E-04  .139E-04  .124E-04  .113E-04
  .105E-04  .981E-05  .922E-05  .000E+00  .000E+00  .000E+00  .000E+00  .000E+00
  .000E+00  .000E+00  .000E+00  .000E+00
  .117E-01  .135E-01  .146E-01  .147E-01  .159E-01  .179E-01  .223E-01  .233E-01
  .250E-01  .253E-01  .238E-01  .289E-01  .351E-01  .364E-01  .401E-01  .432E-01
  .476E-01  .517E-01  .652E-01  .865E-01  .916E-01  .102E+00  .124E+00  .142E+00
  .128E+00  .154E+00  .205E+00  .196E+00  .185E+00  .150E+00  .139E+00  .168E+00
  .212E+00  .228E+00  .214E+00  .184E+00  .204E+00  .218E+00  .208E+00  .192E+00
  .189E+00  .189E+00  .150E+00  .156E+00  .135E+00  .133E+00  .150E+00  .148E+00
  .142E+00  .162E+00  .172E+00  .146E+00  .148E+00  .173E+00  .147E+00  .134E+00
  .139E+00  .119E+00  .131E+00  .125E+00  .135E+00  .102E+00  .611E-01  .580E-01
  .543E-01  .557E-01  .432E-01  .449E-01  .486E-01  .465E-01  .402E-01  .368E-01
  .277E-01  .216E-01  .188E-01  .206E-01  .179E-01  .178E-01  .130E-01  .121E-01
  .115E-01  .101E-01  .896E-02  .833E-02  .792E-02  .733E-02  .621E-02  .610E-02
  .602E-02  .536E-02  .455E-02  .000E+00  .000E+00  .000E+00  .000E+00  .000E+00
  .000E+00  .000E+00  .000E+00  .000E+00
  .274E+01  .274E+01  .274E+01  .275E+01  .274E+01  .274E+01  .275E+01  .275E+01
  .275E+01  .276E+01  .558E+01  .583E+01  .275E+01  .276E+01  .390E+01  .377E+01
  .276E+01  .276E+01  .305E+01  .306E+01  .239E+01  .241E+01  .287E+01  .288E+01
  .290E+01  .585E+01  .600E+01  .602E+01  .604E+01  .351E+01  .220E+01  .312E+01
  .314E+01  .300E+01  .302E+01  .305E+01  .420E+01  .402E+01  .404E+01  .406E+01
  .407E+01  .388E+01  .133E+02  .144E+02  .251E+02  .411E+02  .445E+02  .252E+02
  .249E+02  .491E+02  .491E+02  .406E+02  .401E+02  .385E+02  .380E+02  .375E+02
  .557E+02  .558E+02  .496E+02  .657E+02  .621E+02  .544E+02  .545E+02  .484E+02
  .464E+02  .381E+02  .381E+02  .355E+02  .355E+02  .356E+02  .356E+02  .356E+02
  .356E+02  .144E+02  .356E+02  .356E+02  .356E+02  .356E+02  .356E+02  .356E+02
  .444E+02  .348E+02  .348E+02  .348E+02  .348E+02  .348E+02  .348E+02  .348E+02
  .348E+02  .348E+02  .348E+02  .000E+00  .000E+00  .000E+00  .000E+00  .000E+00
  .000E+00  .000E+00  .000E+00  .000E+00
  .545E+01  .550E+01  .550E+01  .551E+01  .553E+01  .553E+01  .276E+01  .277E+01
  .176E+01  .555E+01  .556E+01  .210E+01  .199E+01  .300E+01  .379E+01  .379E+01
  .279E+01  .611E+01  .301E+01  .303E+01  .227E+01  .236E+01  .291E+01  .284E+01
  .285E+01  .591E+01  .606E+01  .608E+01  .610E+01  .344E+01  .213E+01  .304E+01
  .306E+01  .308E+01  .311E+01  .278E+01  .410E+01  .413E+01  .415E+01  .394E+01
  .395E+01  .400E+01  .381E+01  .105E+02  .105E+02  .410E+02  .447E+02  .250E+02
  .251E+02  .488E+02  .489E+02  .403E+02  .404E+02  .394E+02  .383E+02  .378E+02
  .365E+02  .290E+02  .501E+02  .652E+02  .645E+02  .486E+02  .383E+02  .383E+02
  .383E+02  .360E+02  .104E+02  .378E+02  .378E+02  .378E+02  .589E+01  .589E+01
  .589E+01  .589E+01  .589E+01  .589E+01  .589E+01  .589E+01  .589E+01  .589E+01
  .589E+01  .589E+01  .589E+01  .589E+01  .589E+01  .589E+01  .589E+01  .589E+01
  .589E+01  .589E+01  .589E+01  .000E+00  .000E+00  .000E+00  .000E+00  .000E+00
  .000E+00  .000E+00  .000E+00  .000E+00
  .274E+01  .274E+01  .274E+01  .275E+01  .274E+01  .274E+01  .274E+01  .275E+01
  .275E+01  .276E+01  .558E+01  .583E+01  .275E+01  .275E+01  .390E+01  .377E+01
  .275E+01  .276E+01  .304E+01  .306E+01  .230E+01  .240E+01  .286E+01  .288E+01
  .289E+01  .585E+01  .600E+01  .602E+01  .604E+01  .351E+01  .220E+01  .311E+01
  .415E+01  .300E+01  .302E+01  .304E+01  .419E+01  .401E+01  .404E+01  .405E+01
  .406E+01  .387E+01  .133E+02  .144E+02  .251E+02  .411E+02  .445E+02  .252E+02
  .249E+02  .490E+02  .491E+02  .405E+02  .401E+02  .385E+02  .380E+02  .375E+02
  .557E+02  .558E+02  .496E+02  .656E+02  .621E+02  .544E+02  .545E+02  .483E+02
  .463E+02  .380E+02  .381E+02  .355E+02  .355E+02  .355E+02  .355E+02  .355E+02
  .356E+02  .143E+02  .593E+01  .355E+02  .355E+02  .355E+02  .355E+02  .355E+02
  .443E+02  .443E+02  .443E+02  .347E+02  .347E+02  .592E+01  .592E+01  .592E+01
  .591E+01  .591E+01  .591E+01  .000E+00  .000E+00  .000E+00  .000E+00  .000E+00
  .000E+00  .000E+00  .000E+00  .000E+00
/&   ----------  End of spectral data for channel  1  ----------
