Response and Fourier amplitude spectra (76 periods,  .04 -  5.0 sec)   for      
Corrected accelerogram   24703-H0114-01253.09       Chan  3: 180 Deg     from   
Uncorrected Accelerogram Data             Processed: 09/14/01, CDMG  output     
Earthquake of Sun Sep  9, 2001  16:59 PDT             (Avol1 v3.3  12/99 CSMIP) 
CSMIP Preliminary Processing            (Origin:  To be determined)             
24703-H0114-01253.09                 Start time:  9/09/01, 23:59:14.2 GMT       
Station No. 24703   34.036N, 118.378W    SSA-16  s/n  114  (3 Channels)         
Los Angeles - La Cienega Geotech Array                                          
Chan  3: 180 Deg  (Sta Chn:  9)     Location: 330-foot Depth                    
Earthquake of Sun Sep  9, 2001  16:59 PDT    Sun Sep  9, 2001  16:59 PDT        
Hypocenter:  To be determined.               ML:  To be determined.
Instr Period =  .0200 sec,  Damping =  .700,  Sensitivity = 1.25  v/g
                        Record length = 40.000 sec.
                                     Uncor Max  =   .252 g, at   7.190 sec.
RMS accel of (uncor) record  =        .
Accelerogram bandpass filtered with 3 dB pts at   .30 and 40.00 cyc/sec
                 instrument- and baseline-corrected





Earthquake of Sun Sep  9, 2001  16:59 PDT    Sun Sep  9, 2001  16:59 PDT

24703-H0114-01253.09      Los Angeles - La Cienega Geotech Array    Chan  3: 180
 Deg
24703-H0114-01253.09      Los Angeles - La Cienega Geotech Array    Chan  3: 180
 Deg
Units for spectra are inches and sec, except Sa is in fraction of g.

    3  100    9    3    3  200    1    3    1   16    8  114    024703    4    0
   23   59   14  175  252    9    9 2001   10    2  18010496   41   38   72  360
 8000    0   50    0 5101    1    9   41    1    0   58   17  710    9   10 2001
    0    0    0    0 4000    2    0    0    0    0   72   38    0    0    0 4000
    0 4000   39   76    5    3    0    0    0    0    0    0    0    0    0    2
    2    2    4    1   65   99    1   32   32    0    0    0    0    0    0  128
   -1   -1    0    0
      .020      .700    40.000      .010      .000  1250.000      .252     7.190
    50.000    76.294    61.035      .000     5.000      .000      .000      .000
     2.500   -27.115      .237     -.281     5.120    30.000      .000      .005
      .020      .014     2.000      .000    34.036   118.378      .000      .000
      .000      .000      .000      .000      .000      .000      .000      .000
   167.129    -1.004      .000      .000      .000      .000      .000      .000
     3.300     4.100      .000   980.665      .010    40.000     7.958      .000
      .000    40.000      .000    40.000      .010      .300      .000      .000
     7.180   222.559     7.220     5.312     7.180     -.151      .000      .300
    40.000      .010      .010      .000      .880      .030      .000      .000
      .560      .110      .346      .115      .007      .001      .000      .000
      .000      .000      .000      .000      .000      .000      .000      .000
      .000      .000      .000      .000
      .000      .020      .050      .100      .200
      .040      .042      .044      .046      .048      .050      .055      .060
      .065      .070      .075      .080      .085      .090      .095      .100
      .110      .120      .130      .140      .150      .160      .170      .180
      .190      .200      .220      .240      .260      .280      .300      .320
      .340      .360      .380      .400      .420      .440      .460      .480
      .500      .550      .600      .650      .700      .750      .800      .850
      .900      .950     1.000     1.100     1.200     1.300     1.400     1.500
     1.600     1.700     1.800     1.900     2.000     2.200     2.400     2.600
     2.800     3.000     3.200     3.400     3.600     3.800     4.000     4.200
     4.400     4.600     4.800     5.000      .000      .000      .000      .000
      .000      .000      .000      .000      .000      .000      .000      .000
      .000      .000      .000      .000      .000      .000      .000      .000
      .000      .000      .000      .000
Fourier amplitude spectra in in/sec.
  .155E+00  .712E+00  .981E+00  .784E+00  .568E+00  .428E+00  .738E+00  .137E+01
  .123E+01  .134E+01  .229E+01  .639E+00  .749E+00  .242E+01  .263E+01  .260E+01
  .348E+01  .497E+01  .396E+01  .935E+01  .122E+02  .927E+01  .372E+01  .318E+01
  .671E+01  .782E+01  .488E+01  .150E+01  .247E+01  .357E+01  .358E+01  .285E+01
  .158E+01  .738E+00  .753E+00  .103E+01  .169E+01  .178E+01  .192E+01  .341E+01
  .254E+01  .123E+01  .815E+00  .156E+01  .123E+01  .633E+00  .177E+00  .276E+00
  .589E+00  .168E+00  .223E+00  .290E+00  .284E+00  .121E+00  .296E+00  .141E+00
  .231E+00  .363E-01  .188E+00  .193E+00  .215E+00  .161E+00  .131E+00  .265E-01
  .611E-01  .606E-01  .473E-01  .301E-01  .876E-02  .196E-01  .207E-01  .186E-01
  .155E-01  .117E-01  .798E-02  .551E-02  .000E+00  .000E+00  .000E+00  .000E+00
  .000E+00  .000E+00  .000E+00  .000E+00  .000E+00  .000E+00  .000E+00  .000E+00
  .000E+00  .000E+00  .000E+00  .000E+00  .000E+00  .000E+00  .000E+00  .000E+00
  .000E+00  .000E+00  .000E+00  .000E+00
Damping =  .00. Data of Sd,Sv,Sa,Pssv,ttSd,ttSv,ttSa :
  .374E-02  .550E-02  .904E-02  .841E-02  .942E-02  .103E-01  .923E-02  .159E-01
  .186E-01  .242E-01  .305E-01  .233E-01  .314E-01  .419E-01  .597E-01  .696E-01
  .849E-01  .985E-01  .153E+00  .218E+00  .297E+00  .246E+00  .197E+00  .191E+00
  .220E+00  .275E+00  .189E+00  .134E+00  .128E+00  .164E+00  .202E+00  .150E+00
  .108E+00  .101E+00  .970E-01  .105E+00  .123E+00  .154E+00  .207E+00  .273E+00
  .226E+00  .209E+00  .169E+00  .169E+00  .152E+00  .942E-01  .799E-01  .739E-01
  .888E-01  .673E-01  .653E-01  .804E-01  .640E-01  .647E-01  .825E-01  .677E-01
  .692E-01  .705E-01  .717E-01  .775E-01  .732E-01  .737E-01  .732E-01  .720E-01
  .703E-01  .684E-01  .663E-01  .644E-01  .626E-01  .611E-01  .598E-01  .589E-01
  .581E-01  .576E-01  .572E-01  .569E-01  .000E+00  .000E+00  .000E+00  .000E+00
  .000E+00  .000E+00  .000E+00  .000E+00  .000E+00  .000E+00  .000E+00  .000E+00
  .000E+00  .000E+00  .000E+00  .000E+00  .000E+00  .000E+00  .000E+00  .000E+00
  .000E+00  .000E+00  .000E+00  .000E+00
  .397E+00  .812E+00  .113E+01  .983E+00  .868E+00  .100E+01  .979E+00  .152E+01
  .152E+01  .210E+01  .237E+01  .155E+01  .175E+01  .246E+01  .339E+01  .378E+01
  .446E+01  .512E+01  .710E+01  .964E+01  .124E+02  .962E+01  .742E+01  .708E+01
  .730E+01  .863E+01  .564E+01  .408E+01  .378E+01  .367E+01  .428E+01  .324E+01
  .288E+01  .258E+01  .253E+01  .253E+01  .246E+01  .236E+01  .285E+01  .357E+01
  .285E+01  .244E+01  .231E+01  .229E+01  .230E+01  .230E+01  .230E+01  .230E+01
  .229E+01  .228E+01  .227E+01  .224E+01  .222E+01  .219E+01  .218E+01  .216E+01
  .215E+01  .214E+01  .212E+01  .211E+01  .210E+01  .209E+01  .207E+01  .206E+01
  .206E+01  .205E+01  .205E+01  .205E+01  .205E+01  .205E+01  .205E+01  .205E+01
  .205E+01  .205E+01  .205E+01  .205E+01  .000E+00  .000E+00  .000E+00  .000E+00
  .000E+00  .000E+00  .000E+00  .000E+00  .000E+00  .000E+00  .000E+00  .000E+00
  .000E+00  .000E+00  .000E+00  .000E+00  .000E+00  .000E+00  .000E+00  .000E+00
  .000E+00  .000E+00  .000E+00  .000E+00
  .239E+00  .319E+00  .478E+00  .406E+00  .418E+00  .421E+00  .312E+00  .451E+00
  .451E+00  .506E+00  .554E+00  .373E+00  .445E+00  .529E+00  .676E+00  .712E+00
  .717E+00  .699E+00  .926E+00  .114E+01  .135E+01  .981E+00  .696E+00  .603E+00
  .624E+00  .703E+00  .399E+00  .237E+00  .194E+00  .214E+00  .230E+00  .149E+00
  .957E-01  .795E-01  .687E-01  .673E-01  .716E-01  .813E-01  .100E+00  .121E+00
  .923E-01  .708E-01  .481E-01  .408E-01  .317E-01  .171E-01  .128E-01  .105E-01
  .112E-01  .763E-02  .668E-02  .680E-02  .455E-02  .391E-02  .431E-02  .308E-02
  .276E-02  .250E-02  .226E-02  .220E-02  .187E-02  .156E-02  .130E-02  .109E-02
  .918E-03  .777E-03  .663E-03  .569E-03  .494E-03  .432E-03  .382E-03  .341E-03
  .307E-03  .278E-03  .254E-03  .233E-03  .000E+00  .000E+00  .000E+00  .000E+00
  .000E+00  .000E+00  .000E+00  .000E+00  .000E+00  .000E+00  .000E+00  .000E+00
  .000E+00  .000E+00  .000E+00  .000E+00  .000E+00  .000E+00  .000E+00  .000E+00
  .000E+00  .000E+00  .000E+00  .000E+00
  .587E+00  .823E+00  .129E+01  .115E+01  .123E+01  .129E+01  .105E+01  .166E+01
  .180E+01  .218E+01  .255E+01  .183E+01  .232E+01  .293E+01  .395E+01  .438E+01
  .485E+01  .516E+01  .740E+01  .978E+01  .124E+02  .964E+01  .727E+01  .667E+01
  .729E+01  .863E+01  .539E+01  .350E+01  .309E+01  .368E+01  .423E+01  .294E+01
  .200E+01  .176E+01  .160E+01  .165E+01  .185E+01  .220E+01  .283E+01  .357E+01
  .283E+01  .239E+01  .177E+01  .163E+01  .136E+01  .789E+00  .628E+00  .546E+00
  .620E+00  .445E+00  .410E+00  .459E+00  .335E+00  .313E+00  .370E+00  .283E+00
  .272E+00  .261E+00  .250E+00  .256E+00  .230E+00  .211E+00  .192E+00  .174E+00
  .158E+00  .143E+00  .130E+00  .119E+00  .109E+00  .101E+00  .940E-01  .881E-01
  .830E-01  .787E-01  .749E-01  .715E-01  .000E+00  .000E+00  .000E+00  .000E+00
  .000E+00  .000E+00  .000E+00  .000E+00  .000E+00  .000E+00  .000E+00  .000E+00
  .000E+00  .000E+00  .000E+00  .000E+00  .000E+00  .000E+00  .000E+00  .000E+00
  .000E+00  .000E+00  .000E+00  .000E+00
  .717E+01  .999E+01  .769E+01  .719E+01  .719E+01  .719E+01  .767E+01  .719E+01
  .723E+01  .752E+01  .785E+01  .716E+01  .718E+01  .724E+01  .725E+01  .725E+01
  .776E+01  .787E+01  .760E+01  .777E+01  .840E+01  .106E+02  .738E+01  .739E+01
  .799E+01  .852E+01  .808E+01  .734E+01  .724E+01  .200E+02  .994E+01  .162E+02
  .777E+01  .777E+01  .778E+01  .767E+01  .836E+01  .838E+01  .149E+02  .295E+02
  .102E+02  .118E+02  .864E+01  .175E+02  .186E+02  .786E+01  .786E+01  .726E+01
  .332E+02  .726E+01  .196E+02  .171E+02  .354E+02  .717E+01  .353E+02  .717E+01
  .717E+01  .717E+01  .717E+01  .311E+02  .717E+01  .717E+01  .717E+01  .717E+01
  .717E+01  .717E+01  .717E+01  .717E+01  .717E+01  .717E+01  .717E+01  .717E+01
  .717E+01  .717E+01  .717E+01  .717E+01  .000E+00  .000E+00  .000E+00  .000E+00
  .000E+00  .000E+00  .000E+00  .000E+00  .000E+00  .000E+00  .000E+00  .000E+00
  .000E+00  .000E+00  .000E+00  .000E+00  .000E+00  .000E+00  .000E+00  .000E+00
  .000E+00  .000E+00  .000E+00  .000E+00
  .736E+01  .100E+02  .841E+01  .745E+01  .720E+01  .720E+01  .810E+01  .966E+01
  .721E+01  .751E+01  .181E+02  .714E+01  .715E+01  .721E+01  .727E+01  .728E+01
  .729E+01  .802E+01  .757E+01  .858E+01  .814E+01  .105E+02  .742E+01  .735E+01
  .794E+01  .857E+01  .781E+01  .729E+01  .729E+01  .201E+02  .972E+01  .721E+01
  .721E+01  .721E+01  .721E+01  .721E+01  .721E+01  .721E+01  .148E+02  .297E+02
  .959E+01  .117E+02  .721E+01  .721E+01  .721E+01  .721E+01  .721E+01  .721E+01
  .721E+01  .721E+01  .721E+01  .721E+01  .721E+01  .721E+01  .721E+01  .721E+01
  .721E+01  .721E+01  .721E+01  .721E+01  .721E+01  .721E+01  .721E+01  .721E+01
  .721E+01  .721E+01  .721E+01  .721E+01  .721E+01  .721E+01  .721E+01  .721E+01
  .721E+01  .721E+01  .721E+01  .721E+01  .000E+00  .000E+00  .000E+00  .000E+00
  .000E+00  .000E+00  .000E+00  .000E+00  .000E+00  .000E+00  .000E+00  .000E+00
  .000E+00  .000E+00  .000E+00  .000E+00  .000E+00  .000E+00  .000E+00  .000E+00
  .000E+00  .000E+00  .000E+00  .000E+00
  .717E+01  .999E+01  .769E+01  .719E+01  .719E+01  .719E+01  .767E+01  .719E+01
  .723E+01  .752E+01  .785E+01  .716E+01  .718E+01  .724E+01  .725E+01  .725E+01
  .776E+01  .787E+01  .760E+01  .777E+01  .840E+01  .106E+02  .738E+01  .739E+01
  .799E+01  .852E+01  .808E+01  .734E+01  .724E+01  .200E+02  .994E+01  .162E+02
  .777E+01  .777E+01  .778E+01  .767E+01  .836E+01  .838E+01  .149E+02  .295E+02
  .102E+02  .118E+02  .864E+01  .175E+02  .186E+02  .786E+01  .786E+01  .726E+01
  .332E+02  .726E+01  .196E+02  .171E+02  .354E+02  .717E+01  .353E+02  .717E+01
  .717E+01  .717E+01  .717E+01  .311E+02  .717E+01  .717E+01  .717E+01  .717E+01
  .717E+01  .717E+01  .717E+01  .717E+01  .717E+01  .717E+01  .717E+01  .717E+01
  .717E+01  .717E+01  .717E+01  .717E+01  .000E+00  .000E+00  .000E+00  .000E+00
  .000E+00  .000E+00  .000E+00  .000E+00  .000E+00  .000E+00  .000E+00  .000E+00
  .000E+00  .000E+00  .000E+00  .000E+00  .000E+00  .000E+00  .000E+00  .000E+00
  .000E+00  .000E+00  .000E+00  .000E+00
Damping =  .02. Data of Sd,Sv,Sa,Pssv,ttSd,ttSv,ttSa :
  .369E-02  .461E-02  .589E-02  .734E-02  .852E-02  .888E-02  .722E-02  .126E-01
  .160E-01  .207E-01  .202E-01  .208E-01  .287E-01  .372E-01  .521E-01  .626E-01
  .750E-01  .834E-01  .111E+00  .153E+00  .199E+00  .168E+00  .170E+00  .165E+00
  .162E+00  .195E+00  .146E+00  .126E+00  .121E+00  .117E+00  .122E+00  .106E+00
  .965E-01  .916E-01  .853E-01  .958E-01  .105E+00  .130E+00  .150E+00  .162E+00
  .169E+00  .170E+00  .142E+00  .121E+00  .995E-01  .898E-01  .779E-01  .729E-01
  .702E-01  .670E-01  .640E-01  .592E-01  .618E-01  .638E-01  .655E-01  .669E-01
  .684E-01  .697E-01  .708E-01  .717E-01  .723E-01  .728E-01  .724E-01  .714E-01
  .699E-01  .681E-01  .662E-01  .644E-01  .627E-01  .613E-01  .601E-01  .592E-01
  .585E-01  .579E-01  .575E-01  .572E-01  .000E+00  .000E+00  .000E+00  .000E+00
  .000E+00  .000E+00  .000E+00  .000E+00  .000E+00  .000E+00  .000E+00  .000E+00
  .000E+00  .000E+00  .000E+00  .000E+00  .000E+00  .000E+00  .000E+00  .000E+00
  .000E+00  .000E+00  .000E+00  .000E+00
  .350E+00  .439E+00  .542E+00  .586E+00  .733E+00  .800E+00  .554E+00  .909E+00
  .127E+01  .131E+01  .125E+01  .139E+01  .159E+01  .213E+01  .282E+01  .327E+01
  .388E+01  .417E+01  .528E+01  .661E+01  .819E+01  .663E+01  .651E+01  .623E+01
  .559E+01  .601E+01  .451E+01  .391E+01  .356E+01  .333E+01  .316E+01  .311E+01
  .285E+01  .261E+01  .253E+01  .250E+01  .244E+01  .236E+01  .231E+01  .229E+01
  .229E+01  .230E+01  .229E+01  .229E+01  .229E+01  .229E+01  .229E+01  .229E+01
  .228E+01  .227E+01  .226E+01  .223E+01  .221E+01  .219E+01  .217E+01  .216E+01
  .215E+01  .214E+01  .212E+01  .211E+01  .211E+01  .209E+01  .208E+01  .207E+01
  .206E+01  .205E+01  .205E+01  .205E+01  .205E+01  .205E+01  .205E+01  .205E+01
  .205E+01  .205E+01  .205E+01  .205E+01  .000E+00  .000E+00  .000E+00  .000E+00
  .000E+00  .000E+00  .000E+00  .000E+00  .000E+00  .000E+00  .000E+00  .000E+00
  .000E+00  .000E+00  .000E+00  .000E+00  .000E+00  .000E+00  .000E+00  .000E+00
  .000E+00  .000E+00  .000E+00  .000E+00
  .236E+00  .268E+00  .312E+00  .356E+00  .379E+00  .365E+00  .244E+00  .358E+00
  .388E+00  .431E+00  .368E+00  .332E+00  .406E+00  .472E+00  .589E+00  .641E+00
  .634E+00  .595E+00  .676E+00  .803E+00  .898E+00  .668E+00  .601E+00  .524E+00
  .460E+00  .498E+00  .308E+00  .223E+00  .183E+00  .153E+00  .139E+00  .106E+00
  .858E-01  .727E-01  .606E-01  .615E-01  .606E-01  .688E-01  .723E-01  .721E-01
  .692E-01  .574E-01  .404E-01  .292E-01  .208E-01  .164E-01  .125E-01  .105E-01
  .900E-02  .772E-02  .667E-02  .512E-02  .451E-02  .399E-02  .354E-02  .317E-02
  .286E-02  .260E-02  .237E-02  .216E-02  .198E-02  .166E-02  .141E-02  .120E-02
  .103E-02  .885E-03  .769E-03  .673E-03  .595E-03  .530E-03  .477E-03  .435E-03
  .400E-03  .370E-03  .344E-03  .322E-03  .000E+00  .000E+00  .000E+00  .000E+00
  .000E+00  .000E+00  .000E+00  .000E+00  .000E+00  .000E+00  .000E+00  .000E+00
  .000E+00  .000E+00  .000E+00  .000E+00  .000E+00  .000E+00  .000E+00  .000E+00
  .000E+00  .000E+00  .000E+00  .000E+00
  .580E+00  .689E+00  .841E+00  .100E+01  .112E+01  .112E+01  .825E+00  .132E+01
  .154E+01  .185E+01  .169E+01  .164E+01  .212E+01  .260E+01  .344E+01  .394E+01
  .429E+01  .437E+01  .539E+01  .687E+01  .832E+01  .659E+01  .630E+01  .575E+01
  .536E+01  .612E+01  .416E+01  .330E+01  .291E+01  .263E+01  .256E+01  .209E+01
  .178E+01  .160E+01  .141E+01  .151E+01  .156E+01  .186E+01  .204E+01  .212E+01
  .212E+01  .194E+01  .149E+01  .117E+01  .893E+00  .752E+00  .612E+00  .539E+00
  .490E+00  .443E+00  .402E+00  .338E+00  .324E+00  .309E+00  .294E+00  .280E+00
  .268E+00  .258E+00  .247E+00  .237E+00  .227E+00  .208E+00  .190E+00  .173E+00
  .157E+00  .143E+00  .130E+00  .119E+00  .109E+00  .101E+00  .945E-01  .886E-01
  .835E-01  .791E-01  .753E-01  .719E-01  .000E+00  .000E+00  .000E+00  .000E+00
  .000E+00  .000E+00  .000E+00  .000E+00  .000E+00  .000E+00  .000E+00  .000E+00
  .000E+00  .000E+00  .000E+00  .000E+00  .000E+00  .000E+00  .000E+00  .000E+00
  .000E+00  .000E+00  .000E+00  .000E+00
  .725E+01  .718E+01  .718E+01  .719E+01  .719E+01  .719E+01  .719E+01  .719E+01
  .723E+01  .724E+01  .725E+01  .717E+01  .718E+01  .718E+01  .725E+01  .725E+01
  .726E+01  .739E+01  .747E+01  .777E+01  .788E+01  .737E+01  .738E+01  .730E+01
  .790E+01  .792E+01  .776E+01  .734E+01  .724E+01  .810E+01  .814E+01  .850E+01
  .777E+01  .777E+01  .778E+01  .767E+01  .836E+01  .838E+01  .841E+01  .843E+01
  .823E+01  .828E+01  .832E+01  .808E+01  .785E+01  .786E+01  .786E+01  .726E+01
  .726E+01  .726E+01  .726E+01  .726E+01  .717E+01  .717E+01  .717E+01  .717E+01
  .717E+01  .717E+01  .717E+01  .717E+01  .717E+01  .717E+01  .717E+01  .717E+01
  .717E+01  .717E+01  .717E+01  .717E+01  .717E+01  .717E+01  .717E+01  .717E+01
  .717E+01  .717E+01  .717E+01  .717E+01  .000E+00  .000E+00  .000E+00  .000E+00
  .000E+00  .000E+00  .000E+00  .000E+00  .000E+00  .000E+00  .000E+00  .000E+00
  .000E+00  .000E+00  .000E+00  .000E+00  .000E+00  .000E+00  .000E+00  .000E+00
  .000E+00  .000E+00  .000E+00  .000E+00
  .736E+01  .737E+01  .757E+01  .720E+01  .720E+01  .720E+01  .721E+01  .721E+01
  .721E+01  .740E+01  .742E+01  .714E+01  .715E+01  .721E+01  .727E+01  .728E+01
  .729E+01  .742E+01  .757E+01  .774E+01  .784E+01  .741E+01  .734E+01  .735E+01
  .735E+01  .787E+01  .781E+01  .729E+01  .729E+01  .720E+01  .721E+01  .721E+01
  .721E+01  .721E+01  .721E+01  .721E+01  .721E+01  .721E+01  .721E+01  .721E+01
  .721E+01  .721E+01  .721E+01  .721E+01  .721E+01  .721E+01  .721E+01  .721E+01
  .721E+01  .721E+01  .721E+01  .721E+01  .721E+01  .721E+01  .721E+01  .721E+01
  .721E+01  .721E+01  .721E+01  .721E+01  .721E+01  .721E+01  .721E+01  .721E+01
  .721E+01  .721E+01  .721E+01  .721E+01  .721E+01  .721E+01  .721E+01  .721E+01
  .721E+01  .721E+01  .721E+01  .721E+01  .000E+00  .000E+00  .000E+00  .000E+00
  .000E+00  .000E+00  .000E+00  .000E+00  .000E+00  .000E+00  .000E+00  .000E+00
  .000E+00  .000E+00  .000E+00  .000E+00  .000E+00  .000E+00  .000E+00  .000E+00
  .000E+00  .000E+00  .000E+00  .000E+00
  .725E+01  .718E+01  .718E+01  .719E+01  .719E+01  .719E+01  .719E+01  .719E+01
  .723E+01  .724E+01  .725E+01  .716E+01  .718E+01  .718E+01  .725E+01  .725E+01
  .726E+01  .739E+01  .760E+01  .777E+01  .788E+01  .737E+01  .738E+01  .730E+01
  .731E+01  .792E+01  .776E+01  .734E+01  .724E+01  .809E+01  .813E+01  .850E+01
  .776E+01  .777E+01  .778E+01  .766E+01  .836E+01  .838E+01  .841E+01  .843E+01
  .822E+01  .827E+01  .831E+01  .807E+01  .785E+01  .785E+01  .786E+01  .725E+01
  .725E+01  .725E+01  .725E+01  .725E+01  .716E+01  .716E+01  .716E+01  .716E+01
  .716E+01  .716E+01  .716E+01  .716E+01  .716E+01  .716E+01  .716E+01  .716E+01
  .716E+01  .716E+01  .716E+01  .716E+01  .716E+01  .716E+01  .716E+01  .715E+01
  .715E+01  .715E+01  .715E+01  .715E+01  .000E+00  .000E+00  .000E+00  .000E+00
  .000E+00  .000E+00  .000E+00  .000E+00  .000E+00  .000E+00  .000E+00  .000E+00
  .000E+00  .000E+00  .000E+00  .000E+00  .000E+00  .000E+00  .000E+00  .000E+00
  .000E+00  .000E+00  .000E+00  .000E+00
Damping =  .05. Data of Sd,Sv,Sa,Pssv,ttSd,ttSv,ttSa :
  .403E-02  .470E-02  .567E-02  .671E-02  .760E-02  .803E-02  .796E-02  .112E-01
  .136E-01  .174E-01  .182E-01  .176E-01  .248E-01  .330E-01  .445E-01  .539E-01
