Response and Fourier amplitude spectra (76 periods,  .04 -  5.0 sec)   for      
Corrected accelerogram   24703-H0112-01253.07       Chan  3: 180 Deg     from   
Uncorrected Accelerogram Data             Processed: 09/14/01, CDMG  output     
Earthquake of Sun Sep  9, 2001  16:59 PDT             (Avol1 v3.3  12/99 CSMIP) 
CSMIP Preliminary Processing            (Origin:  To be determined)             
24703-H0112-01253.07                 Start time:  9/09/01, 23:59:14.2 GMT       
Station No. 24703   34.036N, 118.378W    SSA-16  s/n  112  (3 Channels)         
Los Angeles - La Cienega Geotech Array                                          
Chan  3: 180 Deg                    Location: Surface                           
Earthquake of Sun Sep  9, 2001  16:59 PDT    Sun Sep  9, 2001  16:59 PDT        
Hypocenter:  To be determined.               ML:  To be determined.
Instr Period =  .0200 sec,  Damping =  .700,  Sensitivity = 1.25  v/g
                        Record length = 40.000 sec.
                                     Uncor Max  =   .495 g, at   7.480 sec.
RMS accel of (uncor) record  =        .
Accelerogram bandpass filtered with 3 dB pts at   .30 and 40.00 cyc/sec
                 instrument- and baseline-corrected





Earthquake of Sun Sep  9, 2001  16:59 PDT    Sun Sep  9, 2001  16:59 PDT

24703-H0112-01253.07      Los Angeles - La Cienega Geotech Array    Chan  3: 180
 Deg
24703-H0112-01253.07      Los Angeles - La Cienega Geotech Array    Chan  3: 180
 Deg
Units for spectra are inches and sec, except Sa is in fraction of g.

    3  100    3    3    3  200    1    3    1   16    8  112    024703    4    0
   23   59   14  175  252    9    9 2001   10    2  18010496   41   38   72  360
 8000    1   50    0 5101    1    7   41    0    0   58   49  730    9    9 2001
    0    0    0    0 4000    2    0    0    0    0   72   38    0    0    0 4000
    0 4000   39   76    5    3    0    0    0    0    0    0    0    0    0    2
    2    2    4    1   65   99    1   32   32    1    0   81    0    0    0  128
   -1   -1    0    0
      .020      .700    40.000      .027      .000  1250.000      .495     7.480
    50.000    76.294    61.035      .000     5.000      .000      .000      .000
     2.500    -4.619      .552     -.613     5.120    30.000      .000     -.005
      .018      .024     2.000      .000    34.036   118.378      .000      .000
      .000      .000      .000      .000      .000      .000      .000      .000
   440.295    -1.005      .000      .000      .000      .000      .000      .000
     3.300     4.100      .000   980.665      .010    40.000     7.958      .000
      .000    40.000      .000    40.000      .010      .300      .000      .000
     7.470   481.104     7.520    17.541     7.580      .578      .000      .300
    40.000      .010      .010      .000     1.450      .083      .000      .000
     1.606      .170     1.347      .536      .033      .005      .000      .000
      .000      .000      .000      .000      .000      .000      .000      .000
      .000      .000      .000      .000
      .000      .020      .050      .100      .200
      .040      .042      .044      .046      .048      .050      .055      .060
      .065      .070      .075      .080      .085      .090      .095      .100
      .110      .120      .130      .140      .150      .160      .170      .180
      .190      .200      .220      .240      .260      .280      .300      .320
      .340      .360      .380      .400      .420      .440      .460      .480
      .500      .550      .600      .650      .700      .750      .800      .850
      .900      .950     1.000     1.100     1.200     1.300     1.400     1.500
     1.600     1.700     1.800     1.900     2.000     2.200     2.400     2.600
     2.800     3.000     3.200     3.400     3.600     3.800     4.000     4.200
     4.400     4.600     4.800     5.000      .000      .000      .000      .000
      .000      .000      .000      .000      .000      .000      .000      .000
      .000      .000      .000      .000      .000      .000      .000      .000
      .000      .000      .000      .000
Fourier amplitude spectra in in/sec.
  .374E+00  .182E+00  .119E+01  .132E+01  .857E+00  .217E+01  .172E+01  .270E+01
  .327E+01  .193E+01  .382E+01  .286E+01  .456E+01  .362E+01  .350E+01  .223E+01
  .131E+02  .151E+02  .469E+01  .180E+02  .221E+02  .232E+02  .156E+02  .230E+02
  .219E+02  .190E+02  .266E+02  .254E+02  .142E+02  .145E+02  .132E+02  .792E+01
  .736E+01  .102E+02  .868E+01  .565E+01  .836E+01  .751E+01  .523E+01  .796E+01
  .349E+01  .280E+01  .332E+01  .302E+01  .191E+01  .146E+01  .201E+01  .255E+01
  .142E+01  .111E+01  .756E+00  .723E+00  .255E+00  .376E+00  .477E+00  .253E+00
  .382E+00  .960E-01  .294E+00  .220E+00  .263E+00  .207E+00  .102E+00  .434E-01
  .843E-01  .527E-01  .492E-01  .248E-01  .322E-01  .435E-01  .365E-01  .289E-01
  .258E-01  .217E-01  .172E-01  .148E-01  .000E+00  .000E+00  .000E+00  .000E+00
  .000E+00  .000E+00  .000E+00  .000E+00  .000E+00  .000E+00  .000E+00  .000E+00
  .000E+00  .000E+00  .000E+00  .000E+00  .000E+00  .000E+00  .000E+00  .000E+00
  .000E+00  .000E+00  .000E+00  .000E+00
Damping =  .00. Data of Sd,Sv,Sa,Pssv,ttSd,ttSv,ttSa :
  .102E-01  .121E-01  .126E-01  .131E-01  .159E-01  .205E-01  .240E-01  .509E-01
  .538E-01  .616E-01  .578E-01  .688E-01  .694E-01  .689E-01  .947E-01  .122E+00
  .238E+00  .292E+00  .231E+00  .432E+00  .568E+00  .606E+00  .604E+00  .694E+00
  .757E+00  .696E+00  .952E+00  .987E+00  .709E+00  .674E+00  .751E+00  .565E+00
  .498E+00  .587E+00  .569E+00  .463E+00  .582E+00  .535E+00  .487E+00  .651E+00
  .447E+00  .428E+00  .398E+00  .340E+00  .340E+00  .328E+00  .329E+00  .404E+00
  .328E+00  .326E+00  .322E+00  .310E+00  .296E+00  .285E+00  .275E+00  .266E+00
  .259E+00  .252E+00  .246E+00  .240E+00  .235E+00  .228E+00  .224E+00  .225E+00
  .225E+00  .223E+00  .221E+00  .220E+00  .222E+00  .224E+00  .226E+00  .227E+00
  .228E+00  .229E+00  .230E+00  .231E+00  .000E+00  .000E+00  .000E+00  .000E+00
  .000E+00  .000E+00  .000E+00  .000E+00  .000E+00  .000E+00  .000E+00  .000E+00
  .000E+00  .000E+00  .000E+00  .000E+00  .000E+00  .000E+00  .000E+00  .000E+00
  .000E+00  .000E+00  .000E+00  .000E+00
  .564E+00  .103E+01  .124E+01  .146E+01  .103E+01  .217E+01  .188E+01  .384E+01
  .408E+01  .404E+01  .410E+01  .361E+01  .459E+01  .451E+01  .459E+01  .570E+01
  .136E+02  .153E+02  .112E+02  .198E+02  .236E+02  .237E+02  .231E+02  .241E+02
  .249E+02  .218E+02  .272E+02  .259E+02  .175E+02  .153E+02  .156E+02  .116E+02
  .109E+02  .103E+02  .970E+01  .914E+01  .871E+01  .837E+01  .809E+01  .855E+01
  .771E+01  .751E+01  .742E+01  .741E+01  .742E+01  .743E+01  .743E+01  .743E+01
  .743E+01  .743E+01  .742E+01  .739E+01  .734E+01  .729E+01  .724E+01  .720E+01
  .716E+01  .713E+01  .710E+01  .707E+01  .704E+01  .700E+01  .697E+01  .694E+01
  .692E+01  .690E+01  .689E+01  .688E+01  .687E+01  .687E+01  .686E+01  .686E+01
  .686E+01  .686E+01  .686E+01  .685E+01  .000E+00  .000E+00  .000E+00  .000E+00
  .000E+00  .000E+00  .000E+00  .000E+00  .000E+00  .000E+00  .000E+00  .000E+00
  .000E+00  .000E+00  .000E+00  .000E+00  .000E+00  .000E+00  .000E+00  .000E+00
  .000E+00  .000E+00  .000E+00  .000E+00
  .651E+00  .701E+00  .667E+00  .634E+00  .707E+00  .840E+00  .812E+00  .145E+01
  .130E+01  .129E+01  .105E+01  .110E+01  .983E+00  .870E+00  .107E+01  .125E+01
  .201E+01  .207E+01  .140E+01  .226E+01  .258E+01  .242E+01  .214E+01  .219E+01
  .214E+01  .178E+01  .201E+01  .175E+01  .107E+01  .880E+00  .854E+00  .564E+00
  .441E+00  .463E+00  .403E+00  .296E+00  .337E+00  .282E+00  .235E+00  .289E+00
  .183E+00  .145E+00  .113E+00  .823E-01  .710E-01  .597E-01  .526E-01  .571E-01
  .415E-01  .369E-01  .329E-01  .262E-01  .210E-01  .172E-01  .143E-01  .121E-01
  .104E-01  .893E-02  .776E-02  .680E-02  .601E-02  .482E-02  .398E-02  .341E-02
  .293E-02  .253E-02  .220E-02  .195E-02  .175E-02  .159E-02  .144E-02  .132E-02
  .121E-02  .111E-02  .102E-02  .944E-03  .000E+00  .000E+00  .000E+00  .000E+00
  .000E+00  .000E+00  .000E+00  .000E+00  .000E+00  .000E+00  .000E+00  .000E+00
  .000E+00  .000E+00  .000E+00  .000E+00  .000E+00  .000E+00  .000E+00  .000E+00
  .000E+00  .000E+00  .000E+00  .000E+00
  .160E+01  .181E+01  .180E+01  .179E+01  .208E+01  .258E+01  .274E+01  .533E+01
  .520E+01  .553E+01  .485E+01  .541E+01  .513E+01  .481E+01  .626E+01  .767E+01
  .136E+02  .153E+02  .112E+02  .194E+02  .238E+02  .238E+02  .223E+02  .242E+02
  .250E+02  .219E+02  .272E+02  .258E+02  .171E+02  .151E+02  .157E+02  .111E+02
  .921E+01  .102E+02  .940E+01  .727E+01  .871E+01  .763E+01  .665E+01  .852E+01
  .561E+01  .489E+01  .417E+01  .329E+01  .305E+01  .275E+01  .258E+01  .298E+01
  .229E+01  .215E+01  .202E+01  .177E+01  .155E+01  .138E+01  .123E+01  .112E+01
  .102E+01  .933E+00  .858E+00  .794E+00  .739E+00  .652E+00  .587E+00  .544E+00
  .504E+00  .467E+00  .433E+00  .407E+00  .388E+00  .370E+00  .354E+00  .340E+00
  .326E+00  .313E+00  .301E+00  .290E+00  .000E+00  .000E+00  .000E+00  .000E+00
  .000E+00  .000E+00  .000E+00  .000E+00  .000E+00  .000E+00  .000E+00  .000E+00
  .000E+00  .000E+00  .000E+00  .000E+00  .000E+00  .000E+00  .000E+00  .000E+00
  .000E+00  .000E+00  .000E+00  .000E+00
  .747E+01  .755E+01  .755E+01  .755E+01  .746E+01  .754E+01  .755E+01  .755E+01
  .747E+01  .748E+01  .749E+01  .755E+01  .757E+01  .746E+01  .747E+01  .747E+01
  .933E+01  .178E+02  .777E+01  .947E+01  .840E+01  .123E+02  .793E+01  .126E+02
  .884E+01  .104E+02  .188E+02  .144E+02  .817E+01  .182E+02  .135E+02  .786E+01
  .787E+01  .385E+02  .146E+02  .874E+01  .128E+02  .330E+02  .105E+02  .296E+02
  .849E+01  .130E+02  .108E+02  .810E+01  .145E+02  .756E+01  .757E+01  .244E+02
  .757E+01  .757E+01  .757E+01  .757E+01  .757E+01  .757E+01  .757E+01  .757E+01
  .757E+01  .757E+01  .757E+01  .757E+01  .757E+01  .757E+01  .746E+01  .746E+01
  .746E+01  .746E+01  .746E+01  .757E+01  .757E+01  .757E+01  .757E+01  .757E+01
  .757E+01  .757E+01  .757E+01  .757E+01  .000E+00  .000E+00  .000E+00  .000E+00
  .000E+00  .000E+00  .000E+00  .000E+00  .000E+00  .000E+00  .000E+00  .000E+00
  .000E+00  .000E+00  .000E+00  .000E+00  .000E+00  .000E+00  .000E+00  .000E+00
  .000E+00  .000E+00  .000E+00  .000E+00
  .752E+01  .760E+01  .111E+02  .883E+01  .745E+01  .112E+02  .872E+01  .757E+01
  .794E+01  .750E+01  .181E+02  .753E+01  .182E+02  .784E+01  .795E+01  .750E+01
  .930E+01  .178E+02  .774E+01  .951E+01  .844E+01  .123E+02  .789E+01  .127E+02
  .889E+01  .105E+02  .202E+02  .144E+02  .823E+01  .788E+01  .135E+02  .751E+01
  .751E+01  .751E+01  .751E+01  .751E+01  .751E+01  .751E+01  .751E+01  .251E+02
  .751E+01  .751E+01  .751E+01  .751E+01  .751E+01  .751E+01  .751E+01  .751E+01
  .751E+01  .751E+01  .751E+01  .751E+01  .751E+01  .751E+01  .751E+01  .751E+01
  .751E+01  .751E+01  .751E+01  .751E+01  .751E+01  .751E+01  .751E+01  .751E+01
  .751E+01  .751E+01  .751E+01  .751E+01  .751E+01  .751E+01  .751E+01  .751E+01
  .751E+01  .751E+01  .751E+01  .751E+01  .000E+00  .000E+00  .000E+00  .000E+00
  .000E+00  .000E+00  .000E+00  .000E+00  .000E+00  .000E+00  .000E+00  .000E+00
  .000E+00  .000E+00  .000E+00  .000E+00  .000E+00  .000E+00  .000E+00  .000E+00
  .000E+00  .000E+00  .000E+00  .000E+00
  .747E+01  .755E+01  .755E+01  .755E+01  .746E+01  .754E+01  .755E+01  .755E+01
  .747E+01  .748E+01  .749E+01  .755E+01  .757E+01  .746E+01  .747E+01  .747E+01
  .933E+01  .178E+02  .777E+01  .947E+01  .840E+01  .123E+02  .793E+01  .126E+02
  .884E+01  .104E+02  .188E+02  .144E+02  .817E+01  .182E+02  .135E+02  .786E+01
  .787E+01  .385E+02  .146E+02  .874E+01  .128E+02  .330E+02  .105E+02  .296E+02
  .849E+01  .130E+02  .108E+02  .810E+01  .145E+02  .756E+01  .757E+01  .244E+02
  .757E+01  .757E+01  .757E+01  .757E+01  .757E+01  .757E+01  .757E+01  .757E+01
  .757E+01  .757E+01  .757E+01  .757E+01  .757E+01  .757E+01  .746E+01  .746E+01
  .746E+01  .746E+01  .746E+01  .757E+01  .757E+01  .757E+01  .757E+01  .757E+01
  .757E+01  .757E+01  .757E+01  .757E+01  .000E+00  .000E+00  .000E+00  .000E+00
  .000E+00  .000E+00  .000E+00  .000E+00  .000E+00  .000E+00  .000E+00  .000E+00
  .000E+00  .000E+00  .000E+00  .000E+00  .000E+00  .000E+00  .000E+00  .000E+00
  .000E+00  .000E+00  .000E+00  .000E+00
Damping =  .02. Data of Sd,Sv,Sa,Pssv,ttSd,ttSv,ttSa :
  .997E-02  .106E-01  .114E-01  .125E-01  .157E-01  .183E-01  .250E-01  .368E-01
  .474E-01  .534E-01  .509E-01  .581E-01  .615E-01  .601E-01  .852E-01  .106E+00
  .156E+00  .191E+00  .217E+00  .276E+00  .362E+00  .440E+00  .513E+00  .568E+00
  .603E+00  .613E+00  .615E+00  .608E+00  .586E+00  .556E+00  .543E+00  .500E+00
  .447E+00  .394E+00  .375E+00  .355E+00  .374E+00  .386E+00  .379E+00  .363E+00
  .374E+00  .338E+00  .320E+00  .316E+00  .321E+00  .324E+00  .324E+00  .324E+00
  .324E+00  .322E+00  .318E+00  .307E+00  .295E+00  .284E+00  .275E+00  .267E+00
  .260E+00  .253E+00  .247E+00  .241E+00  .237E+00  .230E+00  .225E+00  .223E+00
  .223E+00  .221E+00  .220E+00  .221E+00  .223E+00  .224E+00  .226E+00  .227E+00
  .228E+00  .229E+00  .230E+00  .231E+00  .000E+00  .000E+00  .000E+00  .000E+00
  .000E+00  .000E+00  .000E+00  .000E+00  .000E+00  .000E+00  .000E+00  .000E+00
  .000E+00  .000E+00  .000E+00  .000E+00  .000E+00  .000E+00  .000E+00  .000E+00
  .000E+00  .000E+00  .000E+00  .000E+00
  .540E+00  .582E+00  .716E+00  .734E+00  .936E+00  .122E+01  .152E+01  .238E+01
  .272E+01  .317E+01  .296E+01  .284E+01  .290E+01  .305E+01  .339E+01  .465E+01
  .822E+01  .882E+01  .972E+01  .121E+02  .153E+02  .174E+02  .191E+02  .197E+02
  .198E+02  .191E+02  .173E+02  .165E+02  .154E+02  .140E+02  .125E+02  .111E+02
  .106E+02  .101E+02  .954E+01  .906E+01  .866E+01  .835E+01  .808E+01  .788E+01
  .772E+01  .751E+01  .741E+01  .739E+01  .739E+01  .740E+01  .740E+01  .740E+01
  .740E+01  .740E+01  .739E+01  .736E+01  .732E+01  .727E+01  .723E+01  .719E+01
  .715E+01  .712E+01  .709E+01  .707E+01  .704E+01  .700E+01  .697E+01  .694E+01
  .692E+01  .690E+01  .689E+01  .688E+01  .687E+01  .687E+01  .686E+01  .686E+01
  .686E+01  .686E+01  .686E+01  .686E+01  .000E+00  .000E+00  .000E+00  .000E+00
  .000E+00  .000E+00  .000E+00  .000E+00  .000E+00  .000E+00  .000E+00  .000E+00
  .000E+00  .000E+00  .000E+00  .000E+00  .000E+00  .000E+00  .000E+00  .000E+00
  .000E+00  .000E+00  .000E+00  .000E+00
  .639E+00  .613E+00  .602E+00  .601E+00  .697E+00  .749E+00  .846E+00  .105E+01
  .115E+01  .111E+01  .926E+00  .928E+00  .868E+00  .758E+00  .964E+00  .109E+01
  .132E+01  .136E+01  .131E+01  .144E+01  .165E+01  .175E+01  .182E+01  .180E+01
  .170E+01  .157E+01  .130E+01  .108E+01  .890E+00  .724E+00  .618E+00  .500E+00
  .394E+00  .312E+00  .266E+00  .227E+00  .217E+00  .204E+00  .183E+00  .162E+00
  .153E+00  .115E+00  .908E-01  .768E-01  .676E-01  .595E-01  .525E-01  .465E-01
  .414E-01  .369E-01  .329E-01  .263E-01  .213E-01  .176E-01  .147E-01  .125E-01
  .107E-01  .927E-02  .810E-02  .713E-02  .636E-02  .518E-02  .433E-02  .370E-02
  .322E-02  .283E-02  .252E-02  .228E-02  .209E-02  .193E-02  .178E-02  .166E-02
  .154E-02  .144E-02  .135E-02  .127E-02  .000E+00  .000E+00  .000E+00  .000E+00
  .000E+00  .000E+00  .000E+00  .000E+00  .000E+00  .000E+00  .000E+00  .000E+00
  .000E+00  .000E+00  .000E+00  .000E+00  .000E+00  .000E+00  .000E+00  .000E+00
  .000E+00  .000E+00  .000E+00  .000E+00
  .157E+01  .158E+01  .163E+01  .170E+01  .205E+01  .230E+01  .285E+01  .385E+01
  .458E+01  .479E+01  .426E+01  .456E+01  .454E+01  .419E+01  .564E+01  .669E+01
  .888E+01  .100E+02  .105E+02  .124E+02  .152E+02  .173E+02  .189E+02  .198E+02
  .199E+02  .193E+02  .176E+02  .159E+02  .142E+02  .125E+02  .114E+02  .982E+01
  .825E+01  .689E+01  .620E+01  .558E+01  .559E+01  .551E+01  .517E+01  .475E+01
  .470E+01  .386E+01  .335E+01  .305E+01  .288E+01  .272E+01  .255E+01  .240E+01
  .226E+01  .213E+01  .200E+01  .175E+01  .154E+01  .137E+01  .123E+01  .112E+01
  .102E+01  .936E+00  .862E+00  .798E+00  .744E+00  .656E+00  .589E+00  .539E+00
  .500E+00  .464E+00  .432E+00  .409E+00  .389E+00  .371E+00  .355E+00  .340E+00
  .326E+00  .313E+00  .301E+00  .290E+00  .000E+00  .000E+00  .000E+00  .000E+00
  .000E+00  .000E+00  .000E+00  .000E+00  .000E+00  .000E+00  .000E+00  .000E+00
  .000E+00  .000E+00  .000E+00  .000E+00  .000E+00  .000E+00  .000E+00  .000E+00
  .000E+00  .000E+00  .000E+00  .000E+00
  .746E+01  .747E+01  .755E+01  .746E+01  .746E+01  .746E+01  .755E+01  .755E+01
  .747E+01  .748E+01  .749E+01  .755E+01  .757E+01  .746E+01  .747E+01  .748E+01
  .755E+01  .757E+01  .757E+01  .757E+01  .803E+01  .767E+01  .759E+01  .760E+01
  .761E+01  .762E+01  .763E+01  .764E+01  .765E+01  .781E+01  .783E+01  .785E+01
  .787E+01  .788E+01  .829E+01  .814E+01  .816E+01  .862E+01  .819E+01  .820E+01
  .849E+01  .802E+01  .808E+01  .756E+01  .756E+01  .756E+01  .756E+01  .757E+01
  .757E+01  .757E+01  .757E+01  .757E+01  .757E+01  .757E+01  .757E+01  .757E+01
  .757E+01  .757E+01  .757E+01  .757E+01  .757E+01  .757E+01  .757E+01  .746E+01
  .746E+01  .746E+01  .757E+01  .757E+01  .757E+01  .757E+01  .757E+01  .757E+01
  .757E+01  .757E+01  .757E+01  .757E+01  .000E+00  .000E+00  .000E+00  .000E+00
  .000E+00  .000E+00  .000E+00  .000E+00  .000E+00  .000E+00  .000E+00  .000E+00
  .000E+00  .000E+00  .000E+00  .000E+00  .000E+00  .000E+00  .000E+00  .000E+00
  .000E+00  .000E+00  .000E+00  .000E+00
  .745E+01  .760E+01  .760E+01  .744E+01  .745E+01  .753E+01  .753E+01  .754E+01
  .746E+01  .750E+01  .751E+01  .753E+01  .742E+01  .743E+01  .744E+01  .750E+01
  .809E+01  .760E+01  .767E+01  .768E+01  .807E+01  .763E+01  .764E+01  .764E+01
  .765E+01  .766E+01  .758E+01  .759E+01  .759E+01  .760E+01  .760E+01  .751E+01
  .751E+01  .751E+01  .751E+01  .751E+01  .751E+01  .751E+01  .751E+01  .751E+01
  .751E+01  .751E+01  .751E+01  .751E+01  .751E+01  .751E+01  .751E+01  .751E+01
  .751E+01  .751E+01  .751E+01  .751E+01  .751E+01  .751E+01  .751E+01  .751E+01
  .751E+01  .751E+01  .751E+01  .751E+01  .751E+01  .751E+01  .751E+01  .751E+01
  .751E+01  .751E+01  .751E+01  .751E+01  .751E+01  .751E+01  .751E+01  .751E+01
  .751E+01  .751E+01  .751E+01  .751E+01  .000E+00  .000E+00  .000E+00  .000E+00
  .000E+00  .000E+00  .000E+00  .000E+00  .000E+00  .000E+00  .000E+00  .000E+00
  .000E+00  .000E+00  .000E+00  .000E+00  .000E+00  .000E+00  .000E+00  .000E+00
  .000E+00  .000E+00  .000E+00  .000E+00
  .746E+01  .747E+01  .755E+01  .746E+01  .746E+01  .746E+01  .755E+01  .755E+01
  .747E+01  .748E+01  .749E+01  .755E+01  .756E+01  .746E+01  .747E+01  .747E+01
  .755E+01  .756E+01  .757E+01  .757E+01  .803E+01  .767E+01  .759E+01  .760E+01
  .761E+01  .761E+01  .763E+01  .764E+01  .765E+01  .781E+01  .783E+01  .785E+01
  .787E+01  .788E+01  .829E+01  .814E+01  .816E+01  .861E+01  .819E+01  .820E+01
  .849E+01  .801E+01  .807E+01  .756E+01  .756E+01  .756E+01  .756E+01  .756E+01
  .756E+01  .756E+01  .756E+01  .756E+01  .756E+01  .756E+01  .756E+01  .756E+01
  .756E+01  .756E+01  .756E+01  .756E+01  .755E+01  .755E+01  .755E+01  .745E+01
  .745E+01  .755E+01  .755E+01  .754E+01  .754E+01  .754E+01  .754E+01  .754E+01
  .754E+01  .754E+01  .754E+01  .754E+01  .000E+00  .000E+00  .000E+00  .000E+00
  .000E+00  .000E+00  .000E+00  .000E+00  .000E+00  .000E+00  .000E+00  .000E+00
  .000E+00  .000E+00  .000E+00  .000E+00  .000E+00  .000E+00  .000E+00  .000E+00
  .000E+00  .000E+00  .000E+00  .000E+00
Damping =  .05. Data of Sd,Sv,Sa,Pssv,ttSd,ttSv,ttSa :
  .946E-02  .103E-01  .109E-01  .126E-01  .148E-01  .171E-01  .231E-01  .308E-01
  .407E-01  .453E-01  .450E-01  .489E-01  .550E-01  .552E-01  .761E-01  .944E-01
