Response and Fourier amplitude spectra (76 periods,  .04 -  5.0 sec)   for      
Corrected accelerogram   24703-H0114-01253.09       Chan  2:  Up         from   
Uncorrected Accelerogram Data             Processed: 09/14/01, CDMG  output     
Earthquake of Sun Sep  9, 2001  16:59 PDT             (Avol1 v3.3  12/99 CSMIP) 
CSMIP Preliminary Processing            (Origin:  To be determined)             
24703-H0114-01253.09                 Start time:  9/09/01, 23:59:14.2 GMT       
Station No. 24703   34.036N, 118.378W    SSA-16  s/n  114  (3 Channels)         
Los Angeles - La Cienega Geotech Array                                          
Chan  2:  Up      (Sta Chn:  8)     Location: 330-foot Depth                    
Earthquake of Sun Sep  9, 2001  16:59 PDT    Sun Sep  9, 2001  16:59 PDT        
Hypocenter:  To be determined.               ML:  To be determined.
Instr Period =  .0200 sec,  Damping =  .700,  Sensitivity = 1.25  v/g
                        Record length = 40.000 sec.
                                     Uncor Max  =  -.027 g, at   7.735 sec.
RMS accel of (uncor) record  =        .
Accelerogram bandpass filtered with 3 dB pts at   .30 and 40.00 cyc/sec
                 instrument- and baseline-corrected





Earthquake of Sun Sep  9, 2001  16:59 PDT    Sun Sep  9, 2001  16:59 PDT

24703-H0114-01253.09      Los Angeles - La Cienega Geotech Array    Chan  2:  Up

24703-H0114-01253.09      Los Angeles - La Cienega Geotech Array    Chan  2:  Up

Units for spectra are inches and sec, except Sa is in fraction of g.

    2  100    8    3    3  200    1    3    1   16    8  114    024703    4    0
   23   59   14  175  252    9    9 2001   10    2  50010496   41   38   72  360
 8000    0   50    0 5101    1    9   41    1    0   58   17  710    9   10 2001
    0    0    0    0 4000    2    0    0    0    0   72   38    0    0    0 4000
    0 4000   39   76    5    3    0    0    0    0    0    0    0    0    0    2
    2    2    4    1   65   99    1   32   32    0    0    0    0    0    0  128
   -1   -1    0    0
      .020      .700    40.000      .002      .000  1250.000     -.027     7.735
    50.000    76.294    61.035      .000     5.000      .000      .000      .000
     2.500    31.616     -.006     -.069     5.120    30.000      .000      .006
      .004     -.002     2.000      .000    34.036   118.378      .000      .000
      .000      .000      .000      .000      .000      .000      .000      .000
    34.846    -1.009      .000      .000      .000      .000      .000      .000
     3.300     4.100      .000   980.665      .010    40.000     7.958      .000
      .000    40.000      .000    40.000      .010      .300      .000      .000
     7.730   -26.554     7.880      .777     7.930      .030      .000      .300
    40.000      .010      .010      .000      .010      .015      .000      .000
      .086      .180      .074      .021      .003      .000      .000      .000
      .000      .000      .000      .000      .000      .000      .000      .000
      .000      .000      .000      .000
      .000      .020      .050      .100      .200
      .040      .042      .044      .046      .048      .050      .055      .060
      .065      .070      .075      .080      .085      .090      .095      .100
      .110      .120      .130      .140      .150      .160      .170      .180
      .190      .200      .220      .240      .260      .280      .300      .320
      .340      .360      .380      .400      .420      .440      .460      .480
      .500      .550      .600      .650      .700      .750      .800      .850
      .900      .950     1.000     1.100     1.200     1.300     1.400     1.500
     1.600     1.700     1.800     1.900     2.000     2.200     2.400     2.600
     2.800     3.000     3.200     3.400     3.600     3.800     4.000     4.200
     4.400     4.600     4.800     5.000      .000      .000      .000      .000
      .000      .000      .000      .000      .000      .000      .000      .000
      .000      .000      .000      .000      .000      .000      .000      .000
      .000      .000      .000      .000
Fourier amplitude spectra in in/sec.
  .106E+00  .300E+00  .431E+00  .401E+00  .554E+00  .371E+00  .630E+00  .321E+00
  .333E+00  .188E+00  .430E+00  .484E+00  .296E+00  .103E+01  .883E-01  .113E+01
  .254E+00  .367E+00  .687E+00  .134E+01  .734E+00  .130E+01  .573E+00  .150E+01
  .200E+01  .163E+01  .110E+01  .156E+01  .851E+00  .112E+01  .519E+00  .781E+00
  .329E+00  .583E+00  .439E+00  .611E+00  .390E+00  .615E+00  .516E+00  .626E+00
  .919E+00  .421E+00  .388E+00  .826E+00  .314E+00  .400E+00  .247E+00  .166E+00
  .541E+00  .295E+00  .336E+00  .403E+00  .474E+00  .180E+00  .231E+00  .207E+00
  .118E+00  .348E-01  .109E+00  .115E+00  .395E-01  .219E-01  .921E-01  .919E-02
  .455E-01  .349E-01  .193E-01  .325E-01  .332E-01  .207E-01  .116E-01  .128E-01
  .923E-02  .795E-02  .901E-02  .820E-02  .000E+00  .000E+00  .000E+00  .000E+00
  .000E+00  .000E+00  .000E+00  .000E+00  .000E+00  .000E+00  .000E+00  .000E+00
  .000E+00  .000E+00  .000E+00  .000E+00  .000E+00  .000E+00  .000E+00  .000E+00
  .000E+00  .000E+00  .000E+00  .000E+00
Damping =  .00. Data of Sd,Sv,Sa,Pssv,ttSd,ttSv,ttSa :
  .130E-02  .274E-02  .368E-02  .484E-02  .493E-02  .349E-02  .632E-02  .503E-02
  .384E-02  .539E-02  .638E-02  .100E-01  .613E-02  .159E-01  .921E-02  .197E-01
  .719E-02  .107E-01  .189E-01  .342E-01  .179E-01  .332E-01  .303E-01  .485E-01
  .645E-01  .537E-01  .389E-01  .647E-01  .400E-01  .525E-01  .322E-01  .404E-01
  .273E-01  .558E-01  .392E-01  .412E-01  .379E-01  .503E-01  .439E-01  .588E-01
  .811E-01  .468E-01  .644E-01  .864E-01  .402E-01  .505E-01  .416E-01  .495E-01
  .841E-01  .647E-01  .550E-01  .734E-01  .923E-01  .583E-01  .524E-01  .525E-01
  .462E-01  .336E-01  .400E-01  .373E-01  .270E-01  .218E-01  .385E-01  .250E-01
  .258E-01  .213E-01  .215E-01  .207E-01  .236E-01  .201E-01  .169E-01  .156E-01
  .162E-01  .164E-01  .165E-01  .164E-01  .000E+00  .000E+00  .000E+00  .000E+00
  .000E+00  .000E+00  .000E+00  .000E+00  .000E+00  .000E+00  .000E+00  .000E+00
  .000E+00  .000E+00  .000E+00  .000E+00  .000E+00  .000E+00  .000E+00  .000E+00
  .000E+00  .000E+00  .000E+00  .000E+00
  .175E+00  .394E+00  .501E+00  .636E+00  .640E+00  .438E+00  .707E+00  .492E+00
  .352E+00  .450E+00  .519E+00  .770E+00  .453E+00  .111E+01  .566E+00  .123E+01
  .410E+00  .498E+00  .904E+00  .156E+01  .742E+00  .130E+01  .111E+01  .171E+01
  .214E+01  .168E+01  .111E+01  .169E+01  .103E+01  .118E+01  .671E+00  .791E+00
  .496E+00  .965E+00  .659E+00  .642E+00  .579E+00  .715E+00  .596E+00  .774E+00
  .100E+01  .545E+00  .665E+00  .838E+00  .474E+00  .428E+00  .387E+00  .386E+00
  .594E+00  .477E+00  .349E+00  .430E+00  .484E+00  .317E+00  .344E+00  .330E+00
  .303E+00  .278E+00  .262E+00  .256E+00  .257E+00  .275E+00  .296E+00  .312E+00
  .322E+00  .325E+00  .324E+00  .321E+00  .317E+00  .313E+00  .310E+00  .307E+00
  .305E+00  .304E+00  .303E+00  .302E+00  .000E+00  .000E+00  .000E+00  .000E+00
  .000E+00  .000E+00  .000E+00  .000E+00  .000E+00  .000E+00  .000E+00  .000E+00
  .000E+00  .000E+00  .000E+00  .000E+00  .000E+00  .000E+00  .000E+00  .000E+00
  .000E+00  .000E+00  .000E+00  .000E+00
  .829E-01  .159E+00  .194E+00  .234E+00  .219E+00  .143E+00  .214E+00  .143E+00
  .929E-01  .113E+00  .116E+00  .160E+00  .867E-01  .200E+00  .104E+00  .201E+00
  .608E-01  .758E-01  .114E+00  .179E+00  .813E-01  .132E+00  .107E+00  .153E+00
  .183E+00  .137E+00  .823E-01  .115E+00  .605E-01  .685E-01  .366E-01  .404E-01
  .241E-01  .441E-01  .278E-01  .263E-01  .220E-01  .265E-01  .212E-01  .261E-01
  .332E-01  .158E-01  .183E-01  .209E-01  .838E-02  .918E-02  .665E-02  .700E-02
  .106E-01  .733E-02  .563E-02  .620E-02  .656E-02  .353E-02  .274E-02  .239E-02
  .184E-02  .119E-02  .126E-02  .106E-02  .691E-03  .461E-03  .684E-03  .378E-03
  .337E-03  .243E-03  .215E-03  .183E-03  .186E-03  .143E-03  .108E-03  .904E-04
  .854E-04  .793E-04  .730E-04  .670E-04  .000E+00  .000E+00  .000E+00  .000E+00
  .000E+00  .000E+00  .000E+00  .000E+00  .000E+00  .000E+00  .000E+00  .000E+00
  .000E+00  .000E+00  .000E+00  .000E+00  .000E+00  .000E+00  .000E+00  .000E+00
  .000E+00  .000E+00  .000E+00  .000E+00
  .204E+00  .410E+00  .525E+00  .661E+00  .645E+00  .438E+00  .722E+00  .527E+00
  .371E+00  .484E+00  .534E+00  .787E+00  .453E+00  .111E+01  .609E+00  .124E+01
  .411E+00  .559E+00  .912E+00  .154E+01  .749E+00  .130E+01  .112E+01  .169E+01
  .213E+01  .169E+01  .111E+01  .170E+01  .966E+00  .118E+01  .675E+00  .794E+00
  .504E+00  .975E+00  .649E+00  .647E+00  .567E+00  .718E+00  .600E+00  .769E+00
  .102E+01  .535E+00  .674E+00  .835E+00  .360E+00  .423E+00  .327E+00  .366E+00
  .587E+00  .428E+00  .346E+00  .419E+00  .483E+00  .282E+00  .235E+00  .220E+00
  .181E+00  .124E+00  .139E+00  .123E+00  .849E-01  .623E-01  .101E+00  .603E-01
  .579E-01  .447E-01  .423E-01  .383E-01  .411E-01  .333E-01  .266E-01  .233E-01
  .231E-01  .224E-01  .215E-01  .206E-01  .000E+00  .000E+00  .000E+00  .000E+00
  .000E+00  .000E+00  .000E+00  .000E+00  .000E+00  .000E+00  .000E+00  .000E+00
  .000E+00  .000E+00  .000E+00  .000E+00  .000E+00  .000E+00  .000E+00  .000E+00
  .000E+00  .000E+00  .000E+00  .000E+00
  .562E+01  .754E+01  .822E+01  .773E+01  .882E+01  .693E+01  .882E+01  .783E+01
  .784E+01  .761E+01  .889E+01  .887E+01  .611E+01  .126E+02  .782E+01  .119E+02
  .103E+02  .791E+01  .111E+02  .936E+01  .256E+02  .229E+02  .819E+01  .107E+02
  .160E+02  .184E+02  .286E+02  .117E+02  .802E+01  .127E+02  .968E+01  .353E+02
  .887E+01  .121E+02  .154E+02  .160E+02  .852E+01  .176E+02  .299E+02  .164E+02
  .128E+02  .178E+02  .180E+02  .370E+02  .361E+02  .263E+02  .185E+02  .222E+02
  .223E+02  .168E+02  .241E+02  .319E+02  .380E+02  .229E+02  .363E+02  .358E+02
  .303E+02  .174E+02  .235E+02  .346E+02  .180E+02  .772E+01  .332E+02  .792E+01
  .281E+02  .217E+02  .183E+02  .225E+02  .217E+02  .203E+02  .174E+02  .821E+01
  .821E+01  .821E+01  .821E+01  .821E+01  .000E+00  .000E+00  .000E+00  .000E+00
  .000E+00  .000E+00  .000E+00  .000E+00  .000E+00  .000E+00  .000E+00  .000E+00
  .000E+00  .000E+00  .000E+00  .000E+00  .000E+00  .000E+00  .000E+00  .000E+00
  .000E+00  .000E+00  .000E+00  .000E+00
  .561E+01  .753E+01  .821E+01  .661E+01  .884E+01  .694E+01  .848E+01  .775E+01
  .914E+01  .759E+01  .890E+01  .885E+01  .613E+01  .160E+02  .779E+01  .132E+02
  .101E+02  .117E+02  .111E+02  .932E+01  .257E+02  .215E+02  .815E+01  .104E+02
  .162E+02  .184E+02  .285E+02  .118E+02  .796E+01  .126E+02  .931E+01  .360E+02
  .894E+01  .122E+02  .144E+02  .159E+02  .840E+01  .177E+02  .300E+02  .163E+02
  .130E+02  .787E+01  .196E+02  .368E+02  .787E+01  .186E+02  .787E+01  .224E+02
  .221E+02  .170E+02  .243E+02  .317E+02  .365E+02  .787E+01  .787E+01  .787E+01
  .787E+01  .787E+01  .787E+01  .775E+01  .787E+01  .787E+01  .787E+01  .787E+01
  .787E+01  .787E+01  .787E+01  .787E+01  .787E+01  .787E+01  .787E+01  .787E+01
  .787E+01  .787E+01  .787E+01  .787E+01  .000E+00  .000E+00  .000E+00  .000E+00
  .000E+00  .000E+00  .000E+00  .000E+00  .000E+00  .000E+00  .000E+00  .000E+00
  .000E+00  .000E+00  .000E+00  .000E+00  .000E+00  .000E+00  .000E+00  .000E+00
  .000E+00  .000E+00  .000E+00  .000E+00
  .562E+01  .754E+01  .822E+01  .773E+01  .882E+01  .693E+01  .882E+01  .783E+01
  .784E+01  .761E+01  .889E+01  .887E+01  .611E+01  .126E+02  .782E+01  .119E+02
  .103E+02  .791E+01  .111E+02  .936E+01  .256E+02  .229E+02  .819E+01  .107E+02
  .160E+02  .184E+02  .286E+02  .117E+02  .802E+01  .127E+02  .968E+01  .353E+02
  .887E+01  .121E+02  .154E+02  .160E+02  .852E+01  .176E+02  .299E+02  .164E+02
  .128E+02  .178E+02  .180E+02  .370E+02  .361E+02  .263E+02  .185E+02  .222E+02
  .223E+02  .168E+02  .241E+02  .319E+02  .380E+02  .229E+02  .363E+02  .358E+02
  .303E+02  .174E+02  .235E+02  .346E+02  .180E+02  .772E+01  .332E+02  .792E+01
  .281E+02  .217E+02  .183E+02  .225E+02  .217E+02  .203E+02  .174E+02  .821E+01
  .821E+01  .821E+01  .821E+01  .821E+01  .000E+00  .000E+00  .000E+00  .000E+00
  .000E+00  .000E+00  .000E+00  .000E+00  .000E+00  .000E+00  .000E+00  .000E+00
  .000E+00  .000E+00  .000E+00  .000E+00  .000E+00  .000E+00  .000E+00  .000E+00
  .000E+00  .000E+00  .000E+00  .000E+00
Damping =  .02. Data of Sd,Sv,Sa,Pssv,ttSd,ttSv,ttSa :
  .878E-03  .145E-02  .207E-02  .220E-02  .214E-02  .217E-02  .291E-02  .218E-02
  .325E-02  .257E-02  .500E-02  .589E-02  .501E-02  .691E-02  .613E-02  .563E-02
  .498E-02  .746E-02  .107E-01  .158E-01  .153E-01  .192E-01  .258E-01  .343E-01
  .371E-01  .336E-01  .331E-01  .367E-01  .345E-01  .236E-01  .190E-01  .208E-01
  .169E-01  .245E-01  .217E-01  .216E-01  .270E-01  .191E-01  .216E-01  .336E-01
  .412E-01  .331E-01  .344E-01  .370E-01  .253E-01  .283E-01  .289E-01  .318E-01
  .366E-01  .365E-01  .382E-01  .409E-01  .527E-01  .386E-01  .278E-01  .295E-01
  .247E-01  .249E-01  .268E-01  .249E-01  .227E-01  .201E-01  .233E-01  .235E-01
  .216E-01  .184E-01  .161E-01  .171E-01  .177E-01  .163E-01  .148E-01  .150E-01
  .156E-01  .159E-01  .160E-01  .160E-01  .000E+00  .000E+00  .000E+00  .000E+00
  .000E+00  .000E+00  .000E+00  .000E+00  .000E+00  .000E+00  .000E+00  .000E+00
  .000E+00  .000E+00  .000E+00  .000E+00  .000E+00  .000E+00  .000E+00  .000E+00
  .000E+00  .000E+00  .000E+00  .000E+00
  .113E+00  .180E+00  .283E+00  .284E+00  .256E+00  .264E+00  .346E+00  .226E+00
  .264E+00  .222E+00  .349E+00  .387E+00  .314E+00  .414E+00  .369E+00  .346E+00
  .272E+00  .318E+00  .482E+00  .708E+00  .540E+00  .697E+00  .931E+00  .119E+01
  .124E+01  .107E+01  .967E+00  .952E+00  .914E+00  .730E+00  .549E+00  .544E+00
  .362E+00  .506E+00  .425E+00  .371E+00  .435E+00  .400E+00  .364E+00  .456E+00
  .502E+00  .474E+00  .367E+00  .384E+00  .441E+00  .417E+00  .386E+00  .373E+00
  .353E+00  .309E+00  .325E+00  .300E+00  .300E+00  .308E+00  .332E+00  .324E+00
  .302E+00  .282E+00  .267E+00  .261E+00  .262E+00  .276E+00  .295E+00  .309E+00
  .319E+00  .322E+00  .322E+00  .319E+00  .316E+00  .313E+00  .310E+00  .307E+00
  .305E+00  .304E+00  .303E+00  .302E+00  .000E+00  .000E+00  .000E+00  .000E+00
  .000E+00  .000E+00  .000E+00  .000E+00  .000E+00  .000E+00  .000E+00  .000E+00
  .000E+00  .000E+00  .000E+00  .000E+00  .000E+00  .000E+00  .000E+00  .000E+00
  .000E+00  .000E+00  .000E+00  .000E+00
  .564E-01  .838E-01  .110E+00  .106E+00  .950E-01  .879E-01  .985E-01  .623E-01
  .791E-01  .536E-01  .910E-01  .943E-01  .712E-01  .877E-01  .695E-01  .578E-01
  .424E-01  .528E-01  .645E-01  .824E-01  .695E-01  .767E-01  .911E-01  .108E+00
  .105E+00  .863E-01  .703E-01  .651E-01  .523E-01  .308E-01  .216E-01  .207E-01
  .150E-01  .193E-01  .154E-01  .138E-01  .156E-01  .101E-01  .105E-01  .149E-01
  .169E-01  .112E-01  .977E-02  .896E-02  .530E-02  .516E-02  .462E-02  .451E-02
  .463E-02  .414E-02  .392E-02  .346E-02  .374E-02  .234E-02  .145E-02  .134E-02
  .988E-03  .884E-03  .848E-03  .713E-03  .589E-03  .439E-03  .430E-03  .369E-03
  .289E-03  .213E-03  .162E-03  .154E-03  .140E-03  .116E-03  .964E-04  .912E-04
  .868E-04  .813E-04  .755E-04  .699E-04  .000E+00  .000E+00  .000E+00  .000E+00
  .000E+00  .000E+00  .000E+00  .000E+00  .000E+00  .000E+00  .000E+00  .000E+00
  .000E+00  .000E+00  .000E+00  .000E+00  .000E+00  .000E+00  .000E+00  .000E+00
  .000E+00  .000E+00  .000E+00  .000E+00
  .138E+00  .216E+00  .295E+00  .301E+00  .280E+00  .273E+00  .333E+00  .228E+00
  .314E+00  .231E+00  .418E+00  .463E+00  .371E+00  .482E+00  .405E+00  .353E+00
  .285E+00  .391E+00  .516E+00  .708E+00  .640E+00  .753E+00  .954E+00  .120E+01
  .123E+01  .106E+01  .945E+00  .962E+00  .834E+00  .529E+00  .399E+00  .408E+00
  .313E+00  .427E+00  .360E+00  .339E+00  .404E+00  .272E+00  .295E+00  .440E+00
  .517E+00  .378E+00  .360E+00  .358E+00  .228E+00  .237E+00  .227E+00  .235E+00
  .256E+00  .242E+00  .240E+00  .234E+00  .276E+00  .186E+00  .125E+00  .124E+00
  .970E-01  .920E-01  .936E-01  .824E-01  .714E-01  .575E-01  .611E-01  .567E-01
  .484E-01  .386E-01  .315E-01  .316E-01  .309E-01  .269E-01  .232E-01  .224E-01
  .222E-01  .217E-01  .209E-01  .201E-01  .000E+00  .000E+00  .000E+00  .000E+00
  .000E+00  .000E+00  .000E+00  .000E+00  .000E+00  .000E+00  .000E+00  .000E+00
  .000E+00  .000E+00  .000E+00  .000E+00  .000E+00  .000E+00  .000E+00  .000E+00
  .000E+00  .000E+00  .000E+00  .000E+00
  .562E+01  .582E+01  .589E+01  .590E+01  .598E+01  .605E+01  .594E+01  .774E+01
  .784E+01  .716E+01  .790E+01  .791E+01  .792E+01  .792E+01  .781E+01  .764E+01
  .877E+01  .792E+01  .584E+01  .614E+01  .792E+01  .793E+01  .794E+01  .804E+01
  .796E+01  .797E+01  .798E+01  .800E+01  .802E+01  .781E+01  .804E+01  .771E+01
  .802E+01  .108E+02  .103E+02  .846E+01  .851E+01  .854E+01  .186E+02  .854E+01
  .885E+01  .924E+01  .927E+01  .101E+02  .101E+02  .185E+02  .185E+02  .208E+02
  .223E+02  .168E+02  .241E+02  .131E+02  .193E+02  .183E+02  .356E+02  .358E+02
  .208E+02  .124E+02  .117E+02  .822E+01  .822E+01  .772E+01  .792E+01  .792E+01
  .111E+02  .113E+02  .183E+02  .107E+02  .217E+02  .202E+02  .132E+02  .821E+01
  .821E+01  .821E+01  .821E+01  .821E+01  .000E+00  .000E+00  .000E+00  .000E+00
  .000E+00  .000E+00  .000E+00  .000E+00  .000E+00  .000E+00  .000E+00  .000E+00
  .000E+00  .000E+00  .000E+00  .000E+00  .000E+00  .000E+00  .000E+00  .000E+00
  .000E+00  .000E+00  .000E+00  .000E+00
  .561E+01  .581E+01  .588E+01  .596E+01  .599E+01  .607E+01  .592E+01  .593E+01
  .776E+01  .736E+01  .788E+01  .789E+01  .720E+01  .794E+01  .778E+01  .767E+01
  .880E+01  .733E+01  .768E+01  .611E+01  .606E+01  .806E+01  .807E+01  .800E+01
  .801E+01  .802E+01  .804E+01  .795E+01  .796E+01  .787E+01  .786E+01  .776E+01
  .796E+01  .786E+01  .776E+01  .837E+01  .840E+01  .787E+01  .776E+01  .840E+01
  .847E+01  .786E+01  .914E+01  .111E+02  .787E+01  .787E+01  .787E+01  .787E+01
  .787E+01  .787E+01  .775E+01  .775E+01  .184E+02  .787E+01  .787E+01  .787E+01
  .787E+01  .787E+01  .787E+01  .787E+01  .787E+01  .787E+01  .787E+01  .787E+01
  .787E+01  .787E+01  .787E+01  .787E+01  .787E+01  .787E+01  .787E+01  .787E+01
  .787E+01  .787E+01  .787E+01  .787E+01  .000E+00  .000E+00  .000E+00  .000E+00
  .000E+00  .000E+00  .000E+00  .000E+00  .000E+00  .000E+00  .000E+00  .000E+00
  .000E+00  .000E+00  .000E+00  .000E+00  .000E+00  .000E+00  .000E+00  .000E+00
  .000E+00  .000E+00  .000E+00  .000E+00
  .562E+01  .582E+01  .589E+01  .590E+01  .598E+01  .605E+01  .591E+01  .773E+01
  .784E+01  .716E+01  .790E+01  .791E+01  .792E+01  .792E+01  .781E+01  .764E+01
  .877E+01  .792E+01  .584E+01  .614E+01  .792E+01  .793E+01  .793E+01  .804E+01
  .796E+01  .797E+01  .798E+01  .800E+01  .802E+01  .781E+01  .804E+01  .771E+01
  .802E+01  .108E+02  .103E+02  .846E+01  .851E+01  .854E+01  .186E+02  .854E+01
  .885E+01  .924E+01  .927E+01  .100E+02  .101E+02  .185E+02  .185E+02  .208E+02
  .223E+02  .168E+02  .240E+02  .131E+02  .193E+02  .183E+02  .356E+02  .358E+02
  .207E+02  .124E+02  .117E+02  .820E+01  .821E+01  .771E+01  .790E+01  .790E+01
  .790E+01  .790E+01  .709E+01  .106E+02  .217E+02  .202E+02  .132E+02  .820E+01
  .820E+01  .820E+01  .820E+01  .820E+01  .000E+00  .000E+00  .000E+00  .000E+00
  .000E+00  .000E+00  .000E+00  .000E+00  .000E+00  .000E+00  .000E+00  .000E+00
  .000E+00  .000E+00  .000E+00  .000E+00  .000E+00  .000E+00  .000E+00  .000E+00
  .000E+00  .000E+00  .000E+00  .000E+00
Damping =  .05. Data of Sd,Sv,Sa,Pssv,ttSd,ttSv,ttSa :
  .690E-03  .998E-03  .135E-02  .154E-02  .156E-02  .171E-02  .195E-02  .191E-02
  .227E-02  .267E-02  .384E-02  .455E-02  .457E-02  .487E-02  .405E-02  .401E-02
