Response and Fourier amplitude spectra (76 periods,  .04 -  5.0 sec)   for      
Corrected accelerogram   24703-H0112-01253.07       Chan  1:  90 Deg     from   
Uncorrected Accelerogram Data             Processed: 09/14/01, CDMG  output     
Earthquake of Sun Sep  9, 2001  16:59 PDT             (Avol1 v3.3  12/99 CSMIP) 
CSMIP Preliminary Processing            (Origin:  To be determined)             
24703-H0112-01253.07                 Start time:  9/09/01, 23:59:14.2 GMT       
Station No. 24703   34.036N, 118.378W    SSA-16  s/n  112  (3 Channels)         
Los Angeles - La Cienega Geotech Array                                          
Chan  1:  90 Deg                    Location: Surface                           
Earthquake of Sun Sep  9, 2001  16:59 PDT    Sun Sep  9, 2001  16:59 PDT        
Hypocenter:  To be determined.               ML:  To be determined.
Instr Period =  .0200 sec,  Damping =  .700,  Sensitivity = 1.25  v/g
                        Record length = 40.000 sec.
                                     Uncor Max  =   .220 g, at   7.635 sec.
RMS accel of (uncor) record  =        .
Accelerogram bandpass filtered with 3 dB pts at   .30 and 40.00 cyc/sec
                 instrument- and baseline-corrected





Earthquake of Sun Sep  9, 2001  16:59 PDT    Sun Sep  9, 2001  16:59 PDT

24703-H0112-01253.07      Los Angeles - La Cienega Geotech Array    Chan  1:  90
 Deg
24703-H0112-01253.07      Los Angeles - La Cienega Geotech Array    Chan  1:  90
 Deg
Units for spectra are inches and sec, except Sa is in fraction of g.

    1  100    1    3    3  200    1    3    1   16    8  112    024703    4    0
   23   59   14  175  252    9    9 2001   10    2   9010496   41   38   72  360
 8000    1   50    0 5101    1    7   41    0    0   58   49  730    9    9 2001
    0    0    0    0 4000    2    0    0    0    0   72   38    0    0    0 4000
    0 4000   39   76    5    3    0    0    0    0    0    0    0    0    0    2
    2    2    4    1   65   99    1   32   32    1    0   81    0    0    0  128
   -1   -1    0    0
      .020      .700    40.000      .015      .000  1250.000      .220     7.635
    50.000    76.294    61.035      .000     5.000      .000      .000      .000
     2.500     3.510      .266     -.279     5.120    30.000      .000     -.007
      .031      .038     2.000      .000    34.036   118.378      .000      .000
      .000      .000      .000      .000      .000      .000      .000      .000
   245.615     1.006      .000      .000      .000      .000      .000      .000
     3.300     4.100      .000   980.665      .010    40.000     7.958      .000
      .000    40.000      .000    40.000      .010      .300      .000      .000
     7.630   214.900     7.570   -10.777     7.410      .616      .000      .300
    40.000      .010      .010      .000     1.440      .079      .000      .000
      .694      .100      .488      .261      .053      .004      .000      .000
      .000      .000      .000      .000      .000      .000      .000      .000
      .000      .000      .000      .000
      .000      .020      .050      .100      .200
      .040      .042      .044      .046      .048      .050      .055      .060
      .065      .070      .075      .080      .085      .090      .095      .100
      .110      .120      .130      .140      .150      .160      .170      .180
      .190      .200      .220      .240      .260      .280      .300      .320
      .340      .360      .380      .400      .420      .440      .460      .480
      .500      .550      .600      .650      .700      .750      .800      .850
      .900      .950     1.000     1.100     1.200     1.300     1.400     1.500
     1.600     1.700     1.800     1.900     2.000     2.200     2.400     2.600
     2.800     3.000     3.200     3.400     3.600     3.800     4.000     4.200
     4.400     4.600     4.800     5.000      .000      .000      .000      .000
      .000      .000      .000      .000      .000      .000      .000      .000
      .000      .000      .000      .000      .000      .000      .000      .000
      .000      .000      .000      .000
Fourier amplitude spectra in in/sec.
  .381E+00  .550E+00  .553E+00  .355E+00  .116E+01  .112E+01  .360E+00  .217E+01
  .714E+00  .149E+01  .494E+01  .400E+01  .400E+01  .510E+01  .211E+01  .555E+01
  .973E+01  .260E+01  .160E+01  .758E+01  .886E+01  .585E+01  .325E+01  .941E+01
  .631E+01  .110E+02  .128E+02  .979E+01  .196E+01  .144E+01  .344E+01  .103E+02
  .871E+01  .718E+01  .878E+01  .836E+01  .715E+01  .743E+01  .752E+01  .936E+01
  .504E+01  .568E+01  .676E+01  .496E+01  .562E+01  .401E+01  .236E+01  .296E+01
  .511E+01  .366E+01  .390E+01  .203E+01  .205E+01  .744E+00  .186E+01  .202E+01
  .885E+00  .104E+01  .869E+00  .614E+00  .115E+01  .218E+00  .485E+00  .358E+00
  .435E-01  .143E+00  .158E+00  .100E+00  .632E-01  .157E-01  .250E-01  .358E-01
  .362E-01  .326E-01  .261E-01  .197E-01  .000E+00  .000E+00  .000E+00  .000E+00
  .000E+00  .000E+00  .000E+00  .000E+00  .000E+00  .000E+00  .000E+00  .000E+00
  .000E+00  .000E+00  .000E+00  .000E+00  .000E+00  .000E+00  .000E+00  .000E+00
  .000E+00  .000E+00  .000E+00  .000E+00
Damping =  .00. Data of Sd,Sv,Sa,Pssv,ttSd,ttSv,ttSa :
  .672E-02  .879E-02  .774E-02  .961E-02  .108E-01  .119E-01  .122E-01  .238E-01
  .150E-01  .348E-01  .747E-01  .570E-01  .661E-01  .817E-01  .917E-01  .105E+00
  .203E+00  .973E-01  .942E-01  .184E+00  .291E+00  .271E+00  .240E+00  .291E+00
  .353E+00  .429E+00  .471E+00  .445E+00  .279E+00  .268E+00  .256E+00  .534E+00
  .492E+00  .482E+00  .532E+00  .596E+00  .592E+00  .590E+00  .591E+00  .756E+00
  .622E+00  .631E+00  .712E+00  .639E+00  .739E+00  .638E+00  .585E+00  .571E+00
  .770E+00  .623E+00  .694E+00  .526E+00  .492E+00  .457E+00  .465E+00  .484E+00
  .370E+00  .347E+00  .328E+00  .310E+00  .368E+00  .279E+00  .284E+00  .288E+00
  .290E+00  .291E+00  .291E+00  .289E+00  .288E+00  .286E+00  .284E+00  .282E+00
  .280E+00  .279E+00  .277E+00  .276E+00  .000E+00  .000E+00  .000E+00  .000E+00
  .000E+00  .000E+00  .000E+00  .000E+00  .000E+00  .000E+00  .000E+00  .000E+00
  .000E+00  .000E+00  .000E+00  .000E+00  .000E+00  .000E+00  .000E+00  .000E+00
  .000E+00  .000E+00  .000E+00  .000E+00
  .655E+00  .841E+00  .700E+00  .773E+00  .125E+01  .127E+01  .953E+00  .235E+01
  .138E+01  .281E+01  .621E+01  .433E+01  .482E+01  .560E+01  .551E+01  .581E+01
  .114E+02  .505E+01  .361E+01  .825E+01  .120E+02  .107E+02  .898E+01  .102E+02
  .117E+02  .135E+02  .135E+02  .118E+02  .765E+01  .644E+01  .594E+01  .105E+02
  .907E+01  .874E+01  .897E+01  .939E+01  .897E+01  .882E+01  .926E+01  .987E+01
  .840E+01  .802E+01  .750E+01  .682E+01  .669E+01  .567E+01  .504E+01  .515E+01
  .538E+01  .534E+01  .539E+01  .542E+01  .541E+01  .535E+01  .526E+01  .518E+01
  .510E+01  .503E+01  .496E+01  .490E+01  .485E+01  .476E+01  .468E+01  .461E+01
  .455E+01  .451E+01  .446E+01  .443E+01  .440E+01  .438E+01  .436E+01  .435E+01
  .433E+01  .432E+01  .431E+01  .431E+01  .000E+00  .000E+00  .000E+00  .000E+00
  .000E+00  .000E+00  .000E+00  .000E+00  .000E+00  .000E+00  .000E+00  .000E+00
  .000E+00  .000E+00  .000E+00  .000E+00  .000E+00  .000E+00  .000E+00  .000E+00
  .000E+00  .000E+00  .000E+00  .000E+00
  .430E+00  .510E+00  .409E+00  .464E+00  .482E+00  .486E+00  .413E+00  .677E+00
  .364E+00  .727E+00  .136E+01  .912E+00  .935E+00  .103E+01  .104E+01  .107E+01
  .172E+01  .691E+00  .570E+00  .960E+00  .132E+01  .108E+01  .851E+00  .919E+00
  .999E+00  .110E+01  .995E+00  .791E+00  .422E+00  .350E+00  .291E+00  .533E+00
  .436E+00  .380E+00  .377E+00  .381E+00  .343E+00  .311E+00  .286E+00  .335E+00
  .254E+00  .213E+00  .202E+00  .155E+00  .154E+00  .116E+00  .934E-01  .809E-01
  .973E-01  .706E-01  .710E-01  .444E-01  .350E-01  .276E-01  .243E-01  .220E-01
  .148E-01  .123E-01  .103E-01  .879E-02  .941E-02  .590E-02  .505E-02  .436E-02
  .379E-02  .331E-02  .290E-02  .256E-02  .227E-02  .203E-02  .182E-02  .164E-02
  .148E-02  .135E-02  .123E-02  .113E-02  .000E+00  .000E+00  .000E+00  .000E+00
  .000E+00  .000E+00  .000E+00  .000E+00  .000E+00  .000E+00  .000E+00  .000E+00
  .000E+00  .000E+00  .000E+00  .000E+00  .000E+00  .000E+00  .000E+00  .000E+00
  .000E+00  .000E+00  .000E+00  .000E+00
  .106E+01  .132E+01  .111E+01  .131E+01  .142E+01  .149E+01  .140E+01  .250E+01
  .145E+01  .313E+01  .625E+01  .448E+01  .488E+01  .570E+01  .606E+01  .660E+01
  .116E+02  .510E+01  .455E+01  .826E+01  .122E+02  .107E+02  .889E+01  .102E+02
  .117E+02  .135E+02  .134E+02  .117E+02  .674E+01  .602E+01  .536E+01  .105E+02
  .910E+01  .840E+01  .880E+01  .936E+01  .885E+01  .842E+01  .808E+01  .989E+01
  .782E+01  .721E+01  .746E+01  .617E+01  .663E+01  .534E+01  .459E+01  .422E+01
  .538E+01  .412E+01  .436E+01  .300E+01  .258E+01  .221E+01  .209E+01  .203E+01
  .145E+01  .128E+01  .114E+01  .103E+01  .116E+01  .797E+00  .745E+00  .696E+00
  .651E+00  .609E+00  .571E+00  .535E+00  .502E+00  .473E+00  .446E+00  .422E+00
  .400E+00  .381E+00  .363E+00  .346E+00  .000E+00  .000E+00  .000E+00  .000E+00
  .000E+00  .000E+00  .000E+00  .000E+00  .000E+00  .000E+00  .000E+00  .000E+00
  .000E+00  .000E+00  .000E+00  .000E+00  .000E+00  .000E+00  .000E+00  .000E+00
  .000E+00  .000E+00  .000E+00  .000E+00
  .762E+01  .753E+01  .754E+01  .762E+01  .763E+01  .803E+01  .753E+01  .814E+01
  .961E+01  .798E+01  .890E+01  .836E+01  .786E+01  .110E+02  .759E+01  .760E+01
  .116E+02  .815E+01  .762E+01  .172E+02  .953E+01  .884E+01  .792E+01  .100E+02
  .920E+01  .111E+02  .978E+01  .898E+01  .782E+01  .797E+01  .784E+01  .309E+02
  .147E+02  .843E+01  .383E+02  .147E+02  .121E+02  .817E+01  .819E+01  .176E+02
  .802E+01  .806E+01  .189E+02  .983E+01  .142E+02  .150E+02  .836E+01  .762E+01
  .301E+02  .114E+02  .191E+02  .763E+01  .764E+01  .764E+01  .183E+02  .384E+02
  .764E+01  .764E+01  .764E+01  .764E+01  .318E+02  .739E+01  .739E+01  .739E+01
  .740E+01  .740E+01  .740E+01  .740E+01  .740E+01  .740E+01  .740E+01  .740E+01
  .740E+01  .740E+01  .740E+01  .740E+01  .000E+00  .000E+00  .000E+00  .000E+00
  .000E+00  .000E+00  .000E+00  .000E+00  .000E+00  .000E+00  .000E+00  .000E+00
  .000E+00  .000E+00  .000E+00  .000E+00  .000E+00  .000E+00  .000E+00  .000E+00
  .000E+00  .000E+00  .000E+00  .000E+00
  .767E+01  .752E+01  .797E+01  .773E+01  .101E+02  .801E+01  .743E+01  .816E+01
  .102E+02  .796E+01  .889E+01  .130E+02  .788E+01  .110E+02  .757E+01  .162E+02
  .116E+02  .818E+01  .766E+01  .171E+02  .957E+01  .880E+01  .796E+01  .101E+02
  .925E+01  .110E+02  .983E+01  .904E+01  .801E+01  .777E+01  .777E+01  .308E+02
  .146E+02  .851E+01  .838E+01  .840E+01  .824E+01  .808E+01  .809E+01  .177E+02
  .811E+01  .767E+01  .188E+02  .801E+01  .140E+02  .772E+01  .772E+01  .755E+01
  .299E+02  .755E+01  .755E+01  .756E+01  .756E+01  .756E+01  .756E+01  .756E+01
  .756E+01  .756E+01  .756E+01  .756E+01  .756E+01  .756E+01  .756E+01  .756E+01
  .756E+01  .756E+01  .756E+01  .756E+01  .756E+01  .756E+01  .756E+01  .756E+01
  .756E+01  .756E+01  .756E+01  .756E+01  .000E+00  .000E+00  .000E+00  .000E+00
  .000E+00  .000E+00  .000E+00  .000E+00  .000E+00  .000E+00  .000E+00  .000E+00
  .000E+00  .000E+00  .000E+00  .000E+00  .000E+00  .000E+00  .000E+00  .000E+00
  .000E+00  .000E+00  .000E+00  .000E+00
  .762E+01  .753E+01  .754E+01  .762E+01  .763E+01  .803E+01  .753E+01  .814E+01
  .961E+01  .798E+01  .890E+01  .836E+01  .786E+01  .110E+02  .759E+01  .760E+01
  .116E+02  .815E+01  .762E+01  .172E+02  .953E+01  .884E+01  .792E+01  .100E+02
  .920E+01  .111E+02  .978E+01  .898E+01  .782E+01  .797E+01  .784E+01  .309E+02
  .147E+02  .843E+01  .383E+02  .147E+02  .121E+02  .817E+01  .819E+01  .176E+02
  .802E+01  .806E+01  .189E+02  .983E+01  .142E+02  .150E+02  .836E+01  .762E+01
  .301E+02  .114E+02  .191E+02  .763E+01  .764E+01  .764E+01  .183E+02  .384E+02
  .764E+01  .764E+01  .764E+01  .764E+01  .318E+02  .739E+01  .739E+01  .739E+01
  .740E+01  .740E+01  .740E+01  .740E+01  .740E+01  .740E+01  .740E+01  .740E+01
  .740E+01  .740E+01  .740E+01  .740E+01  .000E+00  .000E+00  .000E+00  .000E+00
  .000E+00  .000E+00  .000E+00  .000E+00  .000E+00  .000E+00  .000E+00  .000E+00
  .000E+00  .000E+00  .000E+00  .000E+00  .000E+00  .000E+00  .000E+00  .000E+00
  .000E+00  .000E+00  .000E+00  .000E+00
Damping =  .02. Data of Sd,Sv,Sa,Pssv,ttSd,ttSv,ttSa :
  .470E-02  .569E-02  .679E-02  .754E-02  .949E-02  .102E-01  .999E-02  .161E-01
  .152E-01  .244E-01  .352E-01  .401E-01  .469E-01  .610E-01  .738E-01  .868E-01
  .104E+00  .814E-01  .944E-01  .138E+00  .182E+00  .188E+00  .194E+00  .211E+00
  .222E+00  .269E+00  .280E+00  .292E+00  .255E+00  .245E+00  .243E+00  .265E+00
  .332E+00  .389E+00  .416E+00  .447E+00  .484E+00  .496E+00  .523E+00  .543E+00
  .555E+00  .554E+00  .554E+00  .548E+00  .536E+00  .542E+00  .550E+00  .553E+00
  .551E+00  .546E+00  .538E+00  .514E+00  .483E+00  .451E+00  .421E+00  .394E+00
  .370E+00  .349E+00  .330E+00  .312E+00  .297E+00  .275E+00  .280E+00  .284E+00
  .286E+00  .287E+00  .287E+00  .286E+00  .285E+00  .283E+00  .282E+00  .280E+00
  .279E+00  .277E+00  .276E+00  .274E+00  .000E+00  .000E+00  .000E+00  .000E+00
  .000E+00  .000E+00  .000E+00  .000E+00  .000E+00  .000E+00  .000E+00  .000E+00
  .000E+00  .000E+00  .000E+00  .000E+00  .000E+00  .000E+00  .000E+00  .000E+00
  .000E+00  .000E+00  .000E+00  .000E+00
  .392E+00  .450E+00  .514E+00  .629E+00  .683E+00  .667E+00  .590E+00  .113E+01
  .112E+01  .188E+01  .284E+01  .268E+01  .325E+01  .353E+01  .446E+01  .474E+01
  .533E+01  .397E+01  .357E+01  .547E+01  .736E+01  .726E+01  .706E+01  .742E+01
  .763E+01  .836E+01  .804E+01  .799E+01  .655E+01  .612E+01  .583E+01  .598E+01
  .638E+01  .693E+01  .732E+01  .759E+01  .749E+01  .766E+01  .809E+01  .802E+01
  .774E+01  .767E+01  .719E+01  .660E+01  .604E+01  .549E+01  .493E+01  .500E+01
  .512E+01  .521E+01  .527E+01  .531E+01  .531E+01  .526E+01  .520E+01  .512E+01
  .506E+01  .499E+01  .493E+01  .488E+01  .483E+01  .474E+01  .467E+01  .460E+01
  .455E+01  .450E+01  .446E+01  .443E+01  .440E+01  .438E+01  .436E+01  .435E+01
  .434E+01  .432E+01  .432E+01  .431E+01  .000E+00  .000E+00  .000E+00  .000E+00
  .000E+00  .000E+00  .000E+00  .000E+00  .000E+00  .000E+00  .000E+00  .000E+00
  .000E+00  .000E+00  .000E+00  .000E+00  .000E+00  .000E+00  .000E+00  .000E+00
  .000E+00  .000E+00  .000E+00  .000E+00
  .300E+00  .330E+00  .359E+00  .365E+00  .422E+00  .419E+00  .337E+00  .459E+00
  .367E+00  .510E+00  .640E+00  .641E+00  .664E+00  .772E+00  .838E+00  .888E+00
  .878E+00  .576E+00  .568E+00  .723E+00  .830E+00  .753E+00  .683E+00  .664E+00
  .629E+00  .692E+00  .594E+00  .519E+00  .386E+00  .320E+00  .276E+00  .265E+00
  .294E+00  .307E+00  .294E+00  .286E+00  .280E+00  .262E+00  .254E+00  .242E+00
  .227E+00  .187E+00  .157E+00  .133E+00  .112E+00  .987E-01  .883E-01  .784E-01
  .698E-01  .622E-01  .553E-01  .436E-01  .346E-01  .275E-01  .221E-01  .181E-01
  .149E-01  .125E-01  .106E-01  .900E-02  .775E-02  .589E-02  .501E-02  .433E-02
  .377E-02  .330E-02  .291E-02  .257E-02  .229E-02  .205E-02  .184E-02  .166E-02
  .151E-02  .138E-02  .126E-02  .116E-02  .000E+00  .000E+00  .000E+00  .000E+00
  .000E+00  .000E+00  .000E+00  .000E+00  .000E+00  .000E+00  .000E+00  .000E+00
  .000E+00  .000E+00  .000E+00  .000E+00  .000E+00  .000E+00  .000E+00  .000E+00
  .000E+00  .000E+00  .000E+00  .000E+00
  .738E+00  .852E+00  .969E+00  .103E+01  .124E+01  .129E+01  .114E+01  .169E+01
  .147E+01  .219E+01  .295E+01  .315E+01  .347E+01  .426E+01  .488E+01  .545E+01
  .593E+01  .426E+01  .456E+01  .620E+01  .762E+01  .738E+01  .715E+01  .736E+01
  .733E+01  .845E+01  .799E+01  .765E+01  .617E+01  .550E+01  .509E+01  .520E+01
  .614E+01  .679E+01  .688E+01  .702E+01  .724E+01  .708E+01  .714E+01  .711E+01
  .697E+01  .633E+01  .580E+01  .530E+01  .481E+01  .454E+01  .432E+01  .409E+01
  .385E+01  .361E+01  .338E+01  .294E+01  .253E+01  .218E+01  .189E+01  .165E+01
  .145E+01  .129E+01  .115E+01  .103E+01  .933E+00  .785E+00  .733E+00  .686E+00
  .642E+00  .601E+00  .564E+00  .529E+00  .497E+00  .469E+00  .443E+00  .419E+00
  .398E+00  .379E+00  .361E+00  .345E+00  .000E+00  .000E+00  .000E+00  .000E+00
  .000E+00  .000E+00  .000E+00  .000E+00  .000E+00  .000E+00  .000E+00  .000E+00
  .000E+00  .000E+00  .000E+00  .000E+00  .000E+00  .000E+00  .000E+00  .000E+00
  .000E+00  .000E+00  .000E+00  .000E+00
  .762E+01  .753E+01  .754E+01  .762E+01  .763E+01  .763E+01  .763E+01  .764E+01
  .765E+01  .798E+01  .804E+01  .805E+01  .752E+01  .753E+01  .759E+01  .760E+01
  .806E+01  .763E+01  .763E+01  .763E+01  .817E+01  .765E+01  .775E+01  .785E+01
  .777E+01  .819E+01  .822E+01  .874E+01  .782E+01  .783E+01  .784E+01  .785E+01
  .856E+01  .843E+01  .846E+01  .831E+01  .814E+01  .774E+01  .775E+01  .775E+01
  .776E+01  .779E+01  .783E+01  .786E+01  .789E+01  .761E+01  .762E+01  .762E+01
  .762E+01  .763E+01  .763E+01  .763E+01  .764E+01  .764E+01  .764E+01  .764E+01
  .764E+01  .764E+01  .764E+01  .764E+01  .764E+01  .739E+01  .739E+01  .739E+01
  .740E+01  .740E+01  .740E+01  .740E+01  .740E+01  .740E+01  .740E+01  .740E+01
  .740E+01  .740E+01  .740E+01  .740E+01  .000E+00  .000E+00  .000E+00  .000E+00
  .000E+00  .000E+00  .000E+00  .000E+00  .000E+00  .000E+00  .000E+00  .000E+00
  .000E+00  .000E+00  .000E+00  .000E+00  .000E+00  .000E+00  .000E+00  .000E+00
  .000E+00  .000E+00  .000E+00  .000E+00
  .739E+01  .739E+01  .755E+01  .756E+01  .756E+01  .801E+01  .743E+01  .765E+01
  .767E+01  .796E+01  .824E+01  .807E+01  .784E+01  .756E+01  .757E+01  .757E+01
  .809E+01  .818E+01  .767E+01  .767E+01  .814E+01  .769E+01  .770E+01  .781E+01
  .782E+01  .814E+01  .828E+01  .868E+01  .801E+01  .777E+01  .777E+01  .777E+01
  .848E+01  .851E+01  .838E+01  .840E+01  .823E+01  .808E+01  .809E+01  .810E+01
  .766E+01  .767E+01  .767E+01  .768E+01  .771E+01  .772E+01  .772E+01  .755E+01
  .755E+01  .755E+01  .755E+01  .755E+01  .756E+01  .756E+01  .756E+01  .756E+01
  .756E+01  .756E+01  .756E+01  .756E+01  .756E+01  .756E+01  .756E+01  .756E+01
  .756E+01  .756E+01  .756E+01  .756E+01  .756E+01  .756E+01  .756E+01  .756E+01
  .756E+01  .756E+01  .756E+01  .756E+01  .000E+00  .000E+00  .000E+00  .000E+00
  .000E+00  .000E+00  .000E+00  .000E+00  .000E+00  .000E+00  .000E+00  .000E+00
  .000E+00  .000E+00  .000E+00  .000E+00  .000E+00  .000E+00  .000E+00  .000E+00
  .000E+00  .000E+00  .000E+00  .000E+00
  .762E+01  .753E+01  .754E+01  .762E+01  .763E+01  .763E+01  .763E+01  .764E+01
  .765E+01  .798E+01  .804E+01  .805E+01  .752E+01  .753E+01  .759E+01  .760E+01
  .806E+01  .763E+01  .763E+01  .763E+01  .817E+01  .765E+01  .783E+01  .785E+01
  .786E+01  .818E+01  .822E+01  .874E+01  .781E+01  .783E+01  .784E+01  .785E+01
  .856E+01  .843E+01  .846E+01  .831E+01  .814E+01  .816E+01  .774E+01  .775E+01
  .776E+01  .779E+01  .783E+01  .786E+01  .788E+01  .761E+01  .761E+01  .761E+01
  .762E+01  .762E+01  .762E+01  .763E+01  .763E+01  .763E+01  .763E+01  .763E+01
  .763E+01  .763E+01  .763E+01  .763E+01  .762E+01  .762E+01  .738E+01  .738E+01
  .738E+01  .738E+01  .738E+01  .738E+01  .738E+01  .738E+01  .738E+01  .738E+01
  .738E+01  .738E+01  .738E+01  .738E+01  .000E+00  .000E+00  .000E+00  .000E+00
  .000E+00  .000E+00  .000E+00  .000E+00  .000E+00  .000E+00  .000E+00  .000E+00
  .000E+00  .000E+00  .000E+00  .000E+00  .000E+00  .000E+00  .000E+00  .000E+00
  .000E+00  .000E+00  .000E+00  .000E+00
Damping =  .05. Data of Sd,Sv,Sa,Pssv,ttSd,ttSv,ttSa :
  .420E-02  .491E-02  .579E-02  .656E-02  .787E-02  .877E-02  .100E-01  .130E-01
  .136E-01  .171E-01  .247E-01  .290E-01  .367E-01  .481E-01  .567E-01  .677E-01
