Response and Fourier amplitude spectra (91 periods,  .04 - 15.0 sec)   for      
Corrected accelerogram   24818-L1180-01252.11       Chan  1:  16 Deg     from   
Uncorrected Accelerogram Data             Processed: 09/10/01, CDMG  818at011   
Record of Sun Sep  9, 2001 16:59:16 PDT               (Avol1 v4.6  7/01 CSMIP)  
CSMIP Preliminary Processing            (Origin:  To be determined)             
24818-L1180-01252.11                 Start time:  9/09/01, 23:59:16.0 UTC (GPS) 
Station No. 24818   34.041N, 118.348W      Etna  s/n 1180  (3 Channels)         
Los Angeles - Washington & La Brea                                              
Chan  1:  16 Deg                                                                
Record of Sun Sep  9, 2001 16:59:16 PDT    Sun Sep  9, 2001 16:59:16 PDT        
Hypocenter:  To be determined.               ML:  To be determined.             
Instr Period =  .0102 sec,  Damping =  .660,  Sensitivity =  .63  v/g           
                        Record length = 42.000 sec.                             
                                     Uncor Max  =   .172 g, at   5.775 sec.     
RMS accel of (uncor) record  =        .                                         
Accelerogram bandpass filtered with 3 dB pts at   .30 and 40.00 cyc/sec         
                 instrument- and baseline-corrected                             
                                                                                
                                                                                
                                                                                
                                                                                
                                                                                
Record of Sun Sep  9, 2001 16:59:16 PDT    Sun Sep  9, 2001 16:59:16 PDT        
                                                                                
24818-L1180-01252.11      Los Angeles - Washington & La Brea    Chan  1:  16 Deg
                                                                                
24818-L1180-01252.11      Los Angeles - Washington & La Brea    Chan  1:  16 Deg
                                                                                
Units for spectra are inches and sec, except Sa is in fraction of g.            
                                                                                
    1  100    1    3    3  200    1    3    1   24   12 1180    024818    1    0
   23   59   16    0  252    9    9 2001   10    3   16 8400   39   34   72   16
 8400    1   50    3 1180    1   11  420    1    0    0    0    0    0    0    0
    0    4    0    0 4200    2    0    0    0    0   72   34    0    0    0 4200
    0 4200   35   91    1    3    0    0    0    0    3    0    0    0    0    2
    2    2    4    0   32   99    0   32   32    0    0    1    0    0    0    0
  -99   -1    0    0
      .010      .660    42.000      .008      .000   625.000      .172     5.775
    98.100      .298      .477      .000     5.000      .000      .000      .000
     2.500   -10.192      .077     -.114     5.000    30.000      .000      .002
      .002      .000     2.000    15.000    34.041  -118.348      .015      .326
    21.127     -.016      .015  -999.000      .000      .000   -14.100      .000
  1000.000    -1.001      .000      .000      .000      .000      .000      .000
     4.600     4.400      .000   980.665      .010    42.000    15.613      .000
      .000    40.000      .000    42.000      .010      .300      .000      .000
     5.770   163.004     5.750    -5.402     5.800     -.317      .000      .300
    40.000      .010      .010      .000     1.370      .042      .000      .000
      .420      .130      .276      .161      .018      .003      .000      .000
      .000      .000      .000      .000      .000      .000      .000      .000
      .000      .000      .000      .000
      .050
      .040      .042      .044      .046      .048      .050      .055      .060
      .065      .070      .075      .080      .085      .090      .095      .100
      .110      .120      .130      .140      .150      .160      .170      .180
      .190      .200      .220      .240      .260      .280      .300      .320
      .340      .360      .380      .400      .420      .440      .460      .480
      .500      .550      .600      .650      .700      .750      .800      .850
      .900      .950     1.000     1.100     1.200     1.300     1.400     1.500
     1.600     1.700     1.800     1.900     2.000     2.200     2.400     2.600
     2.800     3.000     3.200     3.400     3.600     3.800     4.000     4.200
     4.400     4.600     4.800     5.000     5.500     6.000     6.500     7.000
     7.500     8.000     8.500     9.000     9.500    10.000    11.000    12.000
    13.000    14.000    15.000      .000      .000      .000      .000      .000
      .000      .000      .000      .000
Fourier amplitude spectra in in/sec.
  .000E+00  .000E+00  .000E+00  .000E+00  .000E+00  .000E+00  .000E+00  .000E+00
  .000E+00  .000E+00  .000E+00  .000E+00  .000E+00  .000E+00  .000E+00  .000E+00
  .000E+00  .000E+00  .000E+00  .000E+00  .000E+00  .000E+00  .000E+00  .000E+00
  .000E+00  .000E+00  .000E+00  .000E+00  .000E+00  .000E+00  .000E+00  .000E+00
  .000E+00  .000E+00  .000E+00  .000E+00  .000E+00  .000E+00  .000E+00  .000E+00
  .000E+00  .000E+00  .000E+00  .000E+00  .000E+00  .000E+00  .000E+00  .000E+00
  .000E+00  .000E+00  .000E+00  .000E+00  .000E+00  .000E+00  .000E+00  .000E+00
  .000E+00  .000E+00  .000E+00  .000E+00  .000E+00  .000E+00  .000E+00  .000E+00
  .000E+00  .000E+00  .000E+00  .000E+00  .000E+00  .000E+00  .000E+00  .000E+00
  .000E+00  .000E+00  .000E+00  .000E+00  .000E+00  .000E+00  .000E+00  .000E+00
  .000E+00  .000E+00  .000E+00  .000E+00  .000E+00  .000E+00  .000E+00  .000E+00
  .000E+00  .000E+00  .000E+00  .000E+00  .000E+00  .000E+00  .000E+00  .000E+00
  .000E+00  .000E+00  .000E+00  .000E+00
Damping =  .05. Data of Sd,Sv,Sa,Pssv,ttSd,ttSv,ttSa :
  .433E-02  .491E-02  .558E-02  .596E-02  .628E-02  .659E-02  .828E-02  .107E-01
  .127E-01  .130E-01  .147E-01  .167E-01  .213E-01  .217E-01  .243E-01  .268E-01
  .405E-01  .545E-01  .690E-01  .795E-01  .881E-01  .984E-01  .102E+00  .107E+00
  .110E+00  .110E+00  .110E+00  .118E+00  .129E+00  .136E+00  .139E+00  .145E+00
  .150E+00  .155E+00  .159E+00  .162E+00  .162E+00  .161E+00  .161E+00  .163E+00
  .165E+00  .168E+00  .163E+00  .151E+00  .152E+00  .157E+00  .166E+00  .172E+00
  .178E+00  .186E+00  .188E+00  .173E+00  .158E+00  .166E+00  .167E+00  .165E+00
  .162E+00  .163E+00  .165E+00  .167E+00  .168E+00  .169E+00  .170E+00  .170E+00
  .169E+00  .167E+00  .165E+00  .163E+00  .161E+00  .159E+00  .157E+00  .155E+00
  .153E+00  .151E+00  .150E+00  .149E+00  .146E+00  .144E+00  .143E+00  .142E+00
  .141E+00  .140E+00  .139E+00  .139E+00  .139E+00  .138E+00  .138E+00  .137E+00
  .137E+00  .137E+00  .137E+00  .000E+00  .000E+00  .000E+00  .000E+00  .000E+00
  .000E+00  .000E+00  .000E+00  .000E+00
  .312E+00  .380E+00  .433E+00  .464E+00  .474E+00  .469E+00  .582E+00  .776E+00
  .922E+00  .919E+00  .102E+01  .106E+01  .142E+01  .138E+01  .145E+01  .148E+01
  .183E+01  .246E+01  .293E+01  .325E+01  .345E+01  .358E+01  .347E+01  .337E+01
  .332E+01  .328E+01  .301E+01  .302E+01  .298E+01  .312E+01  .315E+01  .307E+01
  .307E+01  .304E+01  .287E+01  .262E+01  .240E+01  .228E+01  .218E+01  .208E+01
  .205E+01  .204E+01  .207E+01  .203E+01  .194E+01  .187E+01  .187E+01  .186E+01
  .186E+01  .186E+01  .187E+01  .190E+01  .194E+01  .196E+01  .198E+01  .200E+01
  .201E+01  .203E+01  .204E+01  .205E+01  .206E+01  .208E+01  .209E+01  .210E+01
  .211E+01  .212E+01  .212E+01  .212E+01  .213E+01  .213E+01  .213E+01  .213E+01
  .213E+01  .213E+01  .213E+01  .212E+01  .212E+01  .212E+01  .212E+01  .212E+01
  .212E+01  .212E+01  .212E+01  .211E+01  .211E+01  .211E+01  .211E+01  .211E+01
  .211E+01  .211E+01  .211E+01  .000E+00  .000E+00  .000E+00  .000E+00  .000E+00
  .000E+00  .000E+00  .000E+00  .000E+00
  .277E+00  .288E+00  .295E+00  .290E+00  .278E+00  .268E+00  .280E+00  .306E+00
  .311E+00  .274E+00  .270E+00  .268E+00  .307E+00  .274E+00  .278E+00  .279E+00
  .338E+00  .394E+00  .420E+00  .412E+00  .407E+00  .393E+00  .363E+00  .339E+00
  .312E+00  .284E+00  .232E+00  .209E+00  .198E+00  .177E+00  .160E+00  .145E+00
  .134E+00  .123E+00  .114E+00  .104E+00  .945E-01  .855E-01  .788E-01  .730E-01
  .681E-01  .574E-01  .466E-01  .368E-01  .319E-01  .287E-01  .267E-01  .245E-01
  .225E-01  .212E-01  .194E-01  .148E-01  .116E-01  .102E-01  .903E-02  .805E-02
  .723E-02  .654E-02  .596E-02  .546E-02  .503E-02  .431E-02  .374E-02  .327E-02
  .289E-02  .256E-02  .229E-02  .207E-02  .187E-02  .171E-02  .157E-02  .145E-02
  .134E-02  .125E-02  .117E-02  .110E-02  .948E-03  .834E-03  .747E-03  .676E-03
  .618E-03  .569E-03  .527E-03  .490E-03  .459E-03  .431E-03  .384E-03  .346E-03
  .315E-03  .289E-03  .267E-03  .000E+00  .000E+00  .000E+00  .000E+00  .000E+00
  .000E+00  .000E+00  .000E+00  .000E+00
  .680E+00  .734E+00  .797E+00  .815E+00  .822E+00  .828E+00  .946E+00  .112E+01
  .123E+01  .117E+01  .123E+01  .131E+01  .158E+01  .151E+01  .161E+01  .168E+01
  .231E+01  .285E+01  .333E+01  .357E+01  .369E+01  .386E+01  .376E+01  .373E+01
  .363E+01  .346E+01  .313E+01  .309E+01  .312E+01  .305E+01  .292E+01  .285E+01
  .278E+01  .271E+01  .263E+01  .255E+01  .242E+01  .230E+01  .220E+01  .214E+01
  .207E+01  .192E+01  .170E+01  .146E+01  .136E+01  .131E+01  .130E+01  .127E+01
  .124E+01  .123E+01  .118E+01  .987E+00  .828E+00  .800E+00  .749E+00  .691E+00
  .635E+00  .604E+00  .577E+00  .551E+00  .527E+00  .484E+00  .445E+00  .410E+00
  .379E+00  .350E+00  .324E+00  .301E+00  .281E+00  .262E+00  .246E+00  .231E+00
  .218E+00  .207E+00  .196E+00  .187E+00  .167E+00  .151E+00  .138E+00  .127E+00
  .118E+00  .110E+00  .103E+00  .970E-01  .917E-01  .868E-01  .786E-01  .719E-01
  .662E-01  .613E-01  .572E-01  .000E+00  .000E+00  .000E+00  .000E+00  .000E+00
  .000E+00  .000E+00  .000E+00  .000E+00
  .577E+01  .578E+01  .578E+01  .578E+01  .578E+01  .578E+01  .578E+01  .578E+01
  .578E+01  .579E+01  .569E+01  .570E+01  .699E+01  .570E+01  .570E+01  .570E+01
  .578E+01  .578E+01  .579E+01  .580E+01  .580E+01  .581E+01  .582E+01  .582E+01
  .583E+01  .583E+01  .584E+01  .585E+01  .600E+01  .601E+01  .603E+01  .604E+01
  .606E+01  .607E+01  .591E+01  .592E+01  .593E+01  .593E+01  .594E+01  .594E+01
  .594E+01  .596E+01  .597E+01  .598E+01  .675E+01  .646E+01  .649E+01  .651E+01
  .657E+01  .660E+01  .661E+01  .664E+01  .628E+01  .629E+01  .629E+01  .630E+01
  .578E+01  .578E+01  .578E+01  .578E+01  .578E+01  .578E+01  .578E+01  .579E+01
  .579E+01  .579E+01  .579E+01  .579E+01  .579E+01  .579E+01  .579E+01  .579E+01
  .579E+01  .579E+01  .579E+01  .579E+01  .579E+01  .579E+01  .579E+01  .579E+01
  .579E+01  .579E+01  .579E+01  .579E+01  .579E+01  .579E+01  .579E+01  .579E+01
  .579E+01  .579E+01  .579E+01  .000E+00  .000E+00  .000E+00  .000E+00  .000E+00
  .000E+00  .000E+00  .000E+00  .000E+00
  .576E+01  .579E+01  .579E+01  .579E+01  .579E+01  .580E+01  .580E+01  .580E+01
  .580E+01  .581E+01  .696E+01  .701E+01  .702E+01  .702E+01  .703E+01  .703E+01
  .581E+01  .582E+01  .582E+01  .583E+01  .584E+01  .585E+01  .586E+01  .586E+01
  .579E+01  .579E+01  .579E+01  .580E+01  .580E+01  .609E+01  .610E+01  .597E+01
  .597E+01  .598E+01  .598E+01  .599E+01  .602E+01  .603E+01  .604E+01  .583E+01
  .583E+01  .588E+01  .589E+01  .589E+01  .589E+01  .573E+01  .573E+01  .573E+01
  .573E+01  .573E+01  .573E+01  .573E+01  .573E+01  .574E+01  .574E+01  .574E+01
  .574E+01  .574E+01  .574E+01  .574E+01  .574E+01  .574E+01  .574E+01  .574E+01
  .574E+01  .574E+01  .574E+01  .574E+01  .574E+01  .574E+01  .574E+01  .574E+01
  .574E+01  .574E+01  .574E+01  .574E+01  .574E+01  .574E+01  .574E+01  .574E+01
  .574E+01  .574E+01  .574E+01  .574E+01  .574E+01  .574E+01  .574E+01  .574E+01
  .574E+01  .574E+01  .574E+01  .000E+00  .000E+00  .000E+00  .000E+00  .000E+00
  .000E+00  .000E+00  .000E+00  .000E+00
  .577E+01  .577E+01  .578E+01  .578E+01  .578E+01  .578E+01  .578E+01  .578E+01
  .578E+01  .579E+01  .569E+01  .570E+01  .699E+01  .570E+01  .570E+01  .570E+01
  .578E+01  .578E+01  .579E+01  .580E+01  .580E+01  .581E+01  .581E+01  .582E+01
  .582E+01  .583E+01  .584E+01  .584E+01  .599E+01  .601E+01  .602E+01  .604E+01
  .605E+01  .606E+01  .591E+01  .591E+01  .592E+01  .593E+01  .593E+01  .593E+01
  .594E+01  .595E+01  .596E+01  .597E+01  .674E+01  .645E+01  .647E+01  .650E+01
  .655E+01  .658E+01  .660E+01  .662E+01  .576E+01  .576E+01  .576E+01  .576E+01
  .576E+01  .576E+01  .576E+01  .575E+01  .575E+01  .575E+01  .575E+01  .575E+01
  .575E+01  .575E+01  .575E+01  .575E+01  .575E+01  .575E+01  .575E+01  .575E+01
  .575E+01  .575E+01  .575E+01  .575E+01  .575E+01  .575E+01  .574E+01  .574E+01
  .574E+01  .574E+01  .574E+01  .574E+01  .574E+01  .574E+01  .574E+01  .574E+01
  .574E+01  .574E+01  .574E+01  .000E+00  .000E+00  .000E+00  .000E+00  .000E+00
  .000E+00  .000E+00  .000E+00  .000E+00
/&   ----------  End of spectral data for channel  1  ----------
Response and Fourier amplitude spectra (91 periods,  .04 - 15.0 sec)   for      
Corrected accelerogram   24818-L1180-01252.11       Chan  2:  Up         from   
Uncorrected Accelerogram Data             Processed: 09/10/01, CDMG  818at011   
Record of Sun Sep  9, 2001 16:59:16 PDT               (Avol1 v4.6  7/01 CSMIP)  
CSMIP Preliminary Processing            (Origin:  To be determined)             
24818-L1180-01252.11                 Start time:  9/09/01, 23:59:16.0 UTC (GPS) 
Station No. 24818   34.041N, 118.348W      Etna  s/n 1180  (3 Channels)         
Los Angeles - Washington & La Brea                                              
Chan  2:  Up                                                                    
Record of Sun Sep  9, 2001 16:59:16 PDT    Sun Sep  9, 2001 16:59:16 PDT        
Hypocenter:  To be determined.               ML:  To be determined.             
Instr Period =  .0107 sec,  Damping =  .670,  Sensitivity =  .63  v/g           
                        Record length = 42.000 sec.                             
                                     Uncor Max  =  -.030 g, at   4.910 sec.     
RMS accel of (uncor) record  =        .                                         
Accelerogram bandpass filtered with 3 dB pts at   .30 and 40.00 cyc/sec         
                 instrument- and baseline-corrected                             
                                                                                
                                                                                
                                                                                
                                                                                
                                                                                
Record of Sun Sep  9, 2001 16:59:16 PDT    Sun Sep  9, 2001 16:59:16 PDT        
                                                                                
24818-L1180-01252.11      Los Angeles - Washington & La Brea    Chan  2:  Up    
                                                                                
24818-L1180-01252.11      Los Angeles - Washington & La Brea    Chan  2:  Up    
                                                                                
Units for spectra are inches and sec, except Sa is in fraction of g.            
                                                                                
    2  100    2    3    3  200    1    3    1   24   12 1180    024818    1    0
   23   59   16    0  252    9    9 2001   10    3  500 8400   39   34   72   16
 8400    1   50    3 1180    1   11  420    1    0    0    0    0    0    0    0
    0    4    0    0 4200    2    0    0    0    0   72   34    0    0    0 4200
    0 4200   35   91    1    3    0    0    0    0    3    0    0    0    0    2
    2    2    4    0   32   99    0   32   32    0    0    1    0    0    0    0
  -99   -1    0    0
      .011      .670    42.000      .003      .000   625.000     -.030     4.910
    93.400      .298      .477      .000     5.000      .000      .000      .000
     2.500   -57.618     -.017     -.054     5.000    30.000      .000     -.001
     -.003     -.002     2.000    15.000    34.041  -118.348      .025      .230
     9.278     -.013      .009  -999.000      .000      .000   -14.100      .000
  1000.000    -1.005      .000      .000      .000      .000      .000      .000
     4.600     4.400      .000   980.665      .010    42.000    14.865      .000
      .000    40.000      .000    42.000      .010      .300      .000      .000
     4.770    28.388     3.890     -.995     3.750      .052      .000      .300
    40.000      .010      .010      .000      .010      .022      .000      .000
      .124      .055      .041      .036      .004      .000      .000      .000
      .000      .000      .000      .000      .000      .000      .000      .000
      .000      .000      .000      .000
      .050
      .040      .042      .044      .046      .048      .050      .055      .060
      .065      .070      .075      .080      .085      .090      .095      .100
      .110      .120      .130      .140      .150      .160      .170      .180
      .190      .200      .220      .240      .260      .280      .300      .320
      .340      .360      .380      .400      .420      .440      .460      .480
      .500      .550      .600      .650      .700      .750      .800      .850
      .900      .950     1.000     1.100     1.200     1.300     1.400     1.500
     1.600     1.700     1.800     1.900     2.000     2.200     2.400     2.600
     2.800     3.000     3.200     3.400     3.600     3.800     4.000     4.200
     4.400     4.600     4.800     5.000     5.500     6.000     6.500     7.000
     7.500     8.000     8.500     9.000     9.500    10.000    11.000    12.000
    13.000    14.000    15.000      .000      .000      .000      .000      .000
      .000      .000      .000      .000
Fourier amplitude spectra in in/sec.
  .000E+00  .000E+00  .000E+00  .000E+00  .000E+00  .000E+00  .000E+00  .000E+00
  .000E+00  .000E+00  .000E+00  .000E+00  .000E+00  .000E+00  .000E+00  .000E+00
  .000E+00  .000E+00  .000E+00  .000E+00  .000E+00  .000E+00  .000E+00  .000E+00
  .000E+00  .000E+00  .000E+00  .000E+00  .000E+00  .000E+00  .000E+00  .000E+00
  .000E+00  .000E+00  .000E+00  .000E+00  .000E+00  .000E+00  .000E+00  .000E+00
  .000E+00  .000E+00  .000E+00  .000E+00  .000E+00  .000E+00  .000E+00  .000E+00
  .000E+00  .000E+00  .000E+00  .000E+00  .000E+00  .000E+00  .000E+00  .000E+00
  .000E+00  .000E+00  .000E+00  .000E+00  .000E+00  .000E+00  .000E+00  .000E+00
  .000E+00  .000E+00  .000E+00  .000E+00  .000E+00  .000E+00  .000E+00  .000E+00
  .000E+00  .000E+00  .000E+00  .000E+00  .000E+00  .000E+00  .000E+00  .000E+00
  .000E+00  .000E+00  .000E+00  .000E+00  .000E+00  .000E+00  .000E+00  .000E+00
  .000E+00  .000E+00  .000E+00  .000E+00  .000E+00  .000E+00  .000E+00  .000E+00
  .000E+00  .000E+00  .000E+00  .000E+00
Damping =  .05. Data of Sd,Sv,Sa,Pssv,ttSd,ttSv,ttSa :
  .120E-02  .143E-02  .151E-02  .149E-02  .180E-02  .237E-02  .361E-02  .430E-02
  .469E-02  .419E-02  .446E-02  .494E-02  .451E-02  .539E-02  .678E-02  .819E-02
  .864E-02  .113E-01  .123E-01  .167E-01  .177E-01  .172E-01  .165E-01  .130E-01
  .135E-01  .162E-01  .201E-01  .158E-01  .213E-01  .273E-01  .311E-01  .355E-01
  .383E-01  .415E-01  .436E-01  .445E-01  .446E-01  .438E-01  .428E-01  .422E-01
