Response and Fourier amplitude spectra (91 periods,  .04 - 15.0 sec)   for      
Corrected accelerogram   14820-L1173-01252.05       Chan  1:   1 Deg     from   
Uncorrected Accelerogram Data             Processed: 09/10/01, CDMG  820ay005   
Record of Sun Sep  9, 2001 16:59:17 PDT               (Avol1 v4.6  7/01 CSMIP)  
CSMIP Preliminary Processing            (Origin:  To be determined)             
14820-L1173-01252.05                 Start time:  9/09/01, 23:59:17.0 UTC (GPS) 
Station No. 14820   33.993N, 118.342W      Etna  s/n 1173  (3 Channels)         
Los Angeles - 54th & Crenshaw                                                   
Chan  1:   1 Deg                                                                
Record of Sun Sep  9, 2001 16:59:17 PDT    Sun Sep  9, 2001 16:59:17 PDT        
Hypocenter:  To be determined.               ML:  To be determined.             
Instr Period =  .0103 sec,  Damping =  .640,  Sensitivity =  .63  v/g           
                        Record length = 46.000 sec.                             
                                     Uncor Max  =  -.046 g, at   5.835 sec.     
RMS accel of (uncor) record  =        .                                         
Accelerogram bandpass filtered with 3 dB pts at   .30 and 40.00 cyc/sec         
                 instrument- and baseline-corrected                             
                                                                                
                                                                                
                                                                                
                                                                                
                                                                                
Record of Sun Sep  9, 2001 16:59:17 PDT    Sun Sep  9, 2001 16:59:17 PDT        
                                                                                
14820-L1173-01252.05      Los Angeles - 54th & Crenshaw   Chan  1:   1 Deg      
                                                                                
14820-L1173-01252.05      Los Angeles - 54th & Crenshaw   Chan  1:   1 Deg      
                                                                                
Units for spectra are inches and sec, except Sa is in fraction of g.            
                                                                                
    1  100    1    3    3  200    1    3    1   24   12 1173    014820    1    0
   23   59   17    0  252    9    9 2001   10    3    1 9200   39   29   72    1
 9200    1   50    3 1173    1    5  460    1    0    0    0    0    0    0    0
    0    4    0    0 4600    2    0    0    0    0   72   29    0    0    0 4600
    0 4600   30   91    1    3    0    0    0    0    3    0    0    0    0    2
    2    2    4    0   32   99    0   32   32    0    0    1    0    0    0    0
  -99   -1    0    0
      .010      .640    46.000      .004      .000   625.000     -.046     5.835
    97.300      .298      .477      .000     5.000      .000      .000      .000
     2.500     7.177      .033     -.021     5.000    30.000      .000     -.004
      .009      .014     2.000    15.000    33.993  -118.342      .013      .342
    26.290     -.002      .030  -999.000      .000      .000   -13.400      .000
  1000.000    -1.010      .000      .000      .000      .000      .000      .000
     4.600     4.400      .000   980.665      .010    46.000    15.486      .000
      .000    40.000      .000    46.000      .010      .300      .000      .000
     5.830   -44.371     5.810     1.413     5.900      .125      .000      .300
    40.000      .010      .010      .000      .010      .039      .000      .000
      .205      .075      .056      .033      .009      .001      .000      .000
      .000      .000      .000      .000      .000      .000      .000      .000
      .000      .000      .000      .000
      .050
      .040      .042      .044      .046      .048      .050      .055      .060
      .065      .070      .075      .080      .085      .090      .095      .100
      .110      .120      .130      .140      .150      .160      .170      .180
      .190      .200      .220      .240      .260      .280      .300      .320
      .340      .360      .380      .400      .420      .440      .460      .480
      .500      .550      .600      .650      .700      .750      .800      .850
      .900      .950     1.000     1.100     1.200     1.300     1.400     1.500
     1.600     1.700     1.800     1.900     2.000     2.200     2.400     2.600
     2.800     3.000     3.200     3.400     3.600     3.800     4.000     4.200
     4.400     4.600     4.800     5.000     5.500     6.000     6.500     7.000
     7.500     8.000     8.500     9.000     9.500    10.000    11.000    12.000
    13.000    14.000    15.000      .000      .000      .000      .000      .000
      .000      .000      .000      .000
Fourier amplitude spectra in in/sec.
  .000E+00  .000E+00  .000E+00  .000E+00  .000E+00  .000E+00  .000E+00  .000E+00
  .000E+00  .000E+00  .000E+00  .000E+00  .000E+00  .000E+00  .000E+00  .000E+00
  .000E+00  .000E+00  .000E+00  .000E+00  .000E+00  .000E+00  .000E+00  .000E+00
  .000E+00  .000E+00  .000E+00  .000E+00  .000E+00  .000E+00  .000E+00  .000E+00
  .000E+00  .000E+00  .000E+00  .000E+00  .000E+00  .000E+00  .000E+00  .000E+00
  .000E+00  .000E+00  .000E+00  .000E+00  .000E+00  .000E+00  .000E+00  .000E+00
  .000E+00  .000E+00  .000E+00  .000E+00  .000E+00  .000E+00  .000E+00  .000E+00
  .000E+00  .000E+00  .000E+00  .000E+00  .000E+00  .000E+00  .000E+00  .000E+00
  .000E+00  .000E+00  .000E+00  .000E+00  .000E+00  .000E+00  .000E+00  .000E+00
  .000E+00  .000E+00  .000E+00  .000E+00  .000E+00  .000E+00  .000E+00  .000E+00
  .000E+00  .000E+00  .000E+00  .000E+00  .000E+00  .000E+00  .000E+00  .000E+00
  .000E+00  .000E+00  .000E+00  .000E+00  .000E+00  .000E+00  .000E+00  .000E+00
  .000E+00  .000E+00  .000E+00  .000E+00
Damping =  .05. Data of Sd,Sv,Sa,Pssv,ttSd,ttSv,ttSa :
  .933E-03  .100E-02  .114E-02  .130E-02  .150E-02  .175E-02  .278E-02  .439E-02
  .664E-02  .911E-02  .111E-01  .126E-01  .139E-01  .144E-01  .131E-01  .116E-01
  .805E-02  .110E-01  .115E-01  .122E-01  .121E-01  .135E-01  .146E-01  .158E-01
  .189E-01  .224E-01  .262E-01  .227E-01  .209E-01  .238E-01  .319E-01  .299E-01
  .356E-01  .467E-01  .560E-01  .605E-01  .639E-01  .678E-01  .726E-01  .772E-01
  .813E-01  .922E-01  .947E-01  .938E-01  .927E-01  .905E-01  .887E-01  .874E-01
  .887E-01  .893E-01  .881E-01  .818E-01  .765E-01  .778E-01  .832E-01  .853E-01
  .817E-01  .824E-01  .826E-01  .824E-01  .819E-01  .806E-01  .791E-01  .773E-01
  .753E-01  .731E-01  .709E-01  .688E-01  .668E-01  .649E-01  .633E-01  .618E-01
  .605E-01  .594E-01  .584E-01  .576E-01  .560E-01  .549E-01  .541E-01  .536E-01
  .532E-01  .529E-01  .527E-01  .525E-01  .524E-01  .523E-01  .521E-01  .520E-01
  .519E-01  .518E-01  .518E-01  .000E+00  .000E+00  .000E+00  .000E+00  .000E+00
  .000E+00  .000E+00  .000E+00  .000E+00
  .845E-01  .949E-01  .106E+00  .117E+00  .134E+00  .152E+00  .248E+00  .371E+00
  .531E+00  .702E+00  .848E+00  .897E+00  .100E+01  .990E+00  .883E+00  .710E+00
  .486E+00  .572E+00  .579E+00  .585E+00  .480E+00  .547E+00  .566E+00  .546E+00
  .651E+00  .698E+00  .794E+00  .605E+00  .519E+00  .581E+00  .677E+00  .605E+00
  .677E+00  .725E+00  .909E+00  .102E+01  .107E+01  .110E+01  .109E+01  .110E+01
  .110E+01  .111E+01  .105E+01  .107E+01  .108E+01  .107E+01  .106E+01  .104E+01
  .103E+01  .101E+01  .985E+00  .920E+00  .856E+00  .806E+00  .765E+00  .729E+00
  .697E+00  .668E+00  .642E+00  .620E+00  .600E+00  .572E+00  .572E+00  .571E+00
  .574E+00  .575E+00  .576E+00  .575E+00  .574E+00  .573E+00  .572E+00  .570E+00
  .569E+00  .567E+00  .566E+00  .565E+00  .562E+00  .560E+00  .559E+00  .558E+00
  .557E+00  .556E+00  .555E+00  .555E+00  .554E+00  .554E+00  .554E+00  .553E+00
  .553E+00  .553E+00  .553E+00  .000E+00  .000E+00  .000E+00  .000E+00  .000E+00
  .000E+00  .000E+00  .000E+00  .000E+00
  .598E-01  .585E-01  .599E-01  .629E-01  .665E-01  .715E-01  .947E-01  .124E+00
  .162E+00  .192E+00  .205E+00  .200E+00  .199E+00  .180E+00  .150E+00  .119E+00
  .688E-01  .784E-01  .702E-01  .643E-01  .546E-01  .549E-01  .519E-01  .503E-01
  .538E-01  .573E-01  .556E-01  .408E-01  .316E-01  .313E-01  .368E-01  .300E-01
  .315E-01  .370E-01  .398E-01  .390E-01  .372E-01  .360E-01  .355E-01  .345E-01
  .335E-01  .314E-01  .272E-01  .229E-01  .195E-01  .165E-01  .143E-01  .125E-01
  .113E-01  .102E-01  .910E-02  .699E-02  .566E-02  .492E-02  .437E-02  .390E-02
  .348E-02  .313E-02  .282E-02  .254E-02  .230E-02  .190E-02  .158E-02  .134E-02
  .114E-02  .987E-03  .860E-03  .757E-03  .671E-03  .601E-03  .541E-03  .492E-03
  .450E-03  .414E-03  .383E-03  .356E-03  .302E-03  .262E-03  .232E-03  .208E-03
  .189E-03  .172E-03  .159E-03  .147E-03  .137E-03  .128E-03  .113E-03  .101E-03
  .912E-04  .832E-04  .765E-04  .000E+00  .000E+00  .000E+00  .000E+00  .000E+00
  .000E+00  .000E+00  .000E+00  .000E+00
  .147E+00  .150E+00  .163E+00  .178E+00  .196E+00  .220E+00  .318E+00  .460E+00
  .642E+00  .818E+00  .929E+00  .991E+00  .103E+01  .100E+01  .868E+00  .730E+00
  .460E+00  .578E+00  .558E+00  .550E+00  .507E+00  .530E+00  .540E+00  .552E+00
  .624E+00  .704E+00  .749E+00  .593E+00  .505E+00  .534E+00  .669E+00  .587E+00
  .658E+00  .816E+00  .925E+00  .950E+00  .955E+00  .969E+00  .992E+00  .101E+01
  .102E+01  .105E+01  .992E+00  .907E+00  .832E+00  .758E+00  .697E+00  .646E+00
  .619E+00  .590E+00  .553E+00  .467E+00  .401E+00  .376E+00  .373E+00  .357E+00
  .321E+00  .304E+00  .288E+00  .273E+00  .257E+00  .230E+00  .207E+00  .187E+00
  .169E+00  .153E+00  .139E+00  .127E+00  .117E+00  .107E+00  .994E-01  .924E-01
  .864E-01  .811E-01  .765E-01  .724E-01  .639E-01  .575E-01  .523E-01  .481E-01
  .445E-01  .415E-01  .389E-01  .366E-01  .346E-01  .328E-01  .298E-01  .272E-01
  .251E-01  .233E-01  .217E-01  .000E+00  .000E+00  .000E+00  .000E+00  .000E+00
  .000E+00  .000E+00  .000E+00  .000E+00
  .583E+01  .583E+01  .579E+01  .579E+01  .579E+01  .578E+01  .578E+01  .579E+01
  .583E+01  .584E+01  .584E+01  .593E+01  .598E+01  .599E+01  .599E+01  .586E+01
  .587E+01  .678E+01  .674E+01  .731E+01  .587E+01  .587E+01  .128E+02  .601E+01
  .603E+01  .604E+01  .606E+01  .104E+02  .902E+01  .903E+01  .892E+01  .104E+02
  .609E+01  .610E+01  .611E+01  .613E+01  .614E+01  .617E+01  .596E+01  .597E+01
  .598E+01  .132E+02  .631E+01  .603E+01  .604E+01  .606E+01  .608E+01  .609E+01
  .614E+01  .615E+01  .616E+01  .619E+01  .583E+01  .583E+01  .213E+02  .214E+02
  .584E+01  .584E+01  .584E+01  .584E+01  .584E+01  .588E+01  .589E+01  .589E+01
  .589E+01  .589E+01  .589E+01  .589E+01  .589E+01  .589E+01  .589E+01  .589E+01
  .589E+01  .589E+01  .589E+01  .589E+01  .589E+01  .589E+01  .589E+01  .589E+01
  .589E+01  .589E+01  .589E+01  .589E+01  .589E+01  .589E+01  .589E+01  .589E+01
  .589E+01  .589E+01  .589E+01  .000E+00  .000E+00  .000E+00  .000E+00  .000E+00
  .000E+00  .000E+00  .000E+00  .000E+00
  .577E+01  .577E+01  .577E+01  .577E+01  .577E+01  .576E+01  .577E+01  .580E+01
  .582E+01  .586E+01  .586E+01  .595E+01  .596E+01  .596E+01  .597E+01  .584E+01
  .695E+01  .675E+01  .677E+01  .741E+01  .584E+01  .584E+01  .585E+01  .597E+01
  .656E+01  .619E+01  .633E+01  .613E+01  .896E+01  .897E+01  .899E+01  .103E+02
  .576E+01  .576E+01  .604E+01  .604E+01  .605E+01  .605E+01  .606E+01  .608E+01
  .609E+01  .131E+02  .593E+01  .593E+01  .594E+01  .594E+01  .594E+01  .594E+01
  .594E+01  .594E+01  .594E+01  .594E+01  .594E+01  .594E+01  .594E+01  .594E+01
  .594E+01  .594E+01  .594E+01  .594E+01  .594E+01  .572E+01  .572E+01  .580E+01
  .580E+01  .580E+01  .580E+01  .580E+01  .580E+01  .580E+01  .580E+01  .580E+01
  .580E+01  .580E+01  .580E+01  .580E+01  .580E+01  .580E+01  .580E+01  .580E+01
  .580E+01  .580E+01  .580E+01  .580E+01  .580E+01  .580E+01  .580E+01  .580E+01
  .580E+01  .580E+01  .580E+01  .000E+00  .000E+00  .000E+00  .000E+00  .000E+00
  .000E+00  .000E+00  .000E+00  .000E+00
  .583E+01  .583E+01  .579E+01  .579E+01  .579E+01  .578E+01  .578E+01  .579E+01
  .583E+01  .584E+01  .584E+01  .593E+01  .593E+01  .599E+01  .599E+01  .586E+01
  .586E+01  .678E+01  .667E+01  .731E+01  .587E+01  .587E+01  .128E+02  .601E+01
  .602E+01  .634E+01  .606E+01  .104E+02  .901E+01  .903E+01  .892E+01  .104E+02
  .609E+01  .609E+01  .610E+01  .612E+01  .614E+01  .616E+01  .596E+01  .596E+01
  .597E+01  .132E+02  .630E+01  .602E+01  .603E+01  .605E+01  .607E+01  .608E+01
  .613E+01  .614E+01  .615E+01  .617E+01  .581E+01  .581E+01  .213E+02  .213E+02
  .581E+01  .581E+01  .581E+01  .581E+01  .581E+01  .581E+01  .581E+01  .581E+01
  .581E+01  .581E+01  .581E+01  .581E+01  .581E+01  .581E+01  .581E+01  .581E+01
  .581E+01  .581E+01  .581E+01  .581E+01  .581E+01  .580E+01  .580E+01  .580E+01
  .580E+01  .580E+01  .580E+01  .580E+01  .580E+01  .580E+01  .580E+01  .580E+01
  .580E+01  .580E+01  .580E+01  .000E+00  .000E+00  .000E+00  .000E+00  .000E+00
  .000E+00  .000E+00  .000E+00  .000E+00
/&   ----------  End of spectral data for channel  1  ----------
Response and Fourier amplitude spectra (91 periods,  .04 - 15.0 sec)   for      
Corrected accelerogram   14820-L1173-01252.05       Chan  2:  Up         from   
Uncorrected Accelerogram Data             Processed: 09/10/01, CDMG  820ay005   
Record of Sun Sep  9, 2001 16:59:17 PDT               (Avol1 v4.6  7/01 CSMIP)  
CSMIP Preliminary Processing            (Origin:  To be determined)             
14820-L1173-01252.05                 Start time:  9/09/01, 23:59:17.0 UTC (GPS) 
Station No. 14820   33.993N, 118.342W      Etna  s/n 1173  (3 Channels)         
Los Angeles - 54th & Crenshaw                                                   
Chan  2:  Up                                                                    
Record of Sun Sep  9, 2001 16:59:17 PDT    Sun Sep  9, 2001 16:59:17 PDT        
Hypocenter:  To be determined.               ML:  To be determined.             
Instr Period =  .0100 sec,  Damping =  .650,  Sensitivity =  .63  v/g           
                        Record length = 46.000 sec.                             
                                     Uncor Max  =  -.024 g, at   5.905 sec.     
RMS accel of (uncor) record  =        .                                         
Accelerogram bandpass filtered with 3 dB pts at   .30 and 40.00 cyc/sec         
                 instrument- and baseline-corrected                             
                                                                                
                                                                                
                                                                                
                                                                                
                                                                                
Record of Sun Sep  9, 2001 16:59:17 PDT    Sun Sep  9, 2001 16:59:17 PDT        
                                                                                
14820-L1173-01252.05      Los Angeles - 54th & Crenshaw   Chan  2:  Up          
                                                                                
14820-L1173-01252.05      Los Angeles - 54th & Crenshaw   Chan  2:  Up          
                                                                                
Units for spectra are inches and sec, except Sa is in fraction of g.            
                                                                                
    2  100    2    3    3  200    1    3    1   24   12 1173    014820    1    0
   23   59   17    0  252    9    9 2001   10    3  500 9200   39   29   72    1
 9200    1   50    3 1173    1    5  460    1    0    0    0    0    0    0    0
    0    4    0    0 4600    2    0    0    0    0   72   29    0    0    0 4600
    0 4600   30   91    1    3    0    0    0    0    3    0    0    0    0    2
    2    2    4    0   32   99    0   32   32    0    0    1    0    0    0    0
  -99   -1    0    0
      .010      .650    46.000      .002      .000   625.000     -.024     5.905
   100.000      .298      .477      .000     5.000      .000      .000      .000
     2.500   -13.199      .006     -.019     5.000    30.000      .000     -.001
      .002      .003     2.000    15.000    33.993  -118.342      .021      .199
     9.648     -.007      .012  -999.000      .000      .000   -13.400      .000
  1000.000    -1.002      .000      .000      .000      .000      .000      .000
     4.600     4.400      .000   980.665      .010    46.000    15.915      .000
      .000    40.000      .000    46.000      .010      .300      .000      .000
     5.900   -22.026     8.620     -.565     7.780     -.039      .000      .300
    40.000      .010      .010      .000      .010      .025      .000      .000
      .070      .080      .035      .042      .003      .000      .000      .000
      .000      .000      .000      .000      .000      .000      .000      .000
      .000      .000      .000      .000
      .050
      .040      .042      .044      .046      .048      .050      .055      .060
      .065      .070      .075      .080      .085      .090      .095      .100
      .110      .120      .130      .140      .150      .160      .170      .180
      .190      .200      .220      .240      .260      .280      .300      .320
      .340      .360      .380      .400      .420      .440      .460      .480
      .500      .550      .600      .650      .700      .750      .800      .850
      .900      .950     1.000     1.100     1.200     1.300     1.400     1.500
     1.600     1.700     1.800     1.900     2.000     2.200     2.400     2.600
     2.800     3.000     3.200     3.400     3.600     3.800     4.000     4.200
     4.400     4.600     4.800     5.000     5.500     6.000     6.500     7.000
     7.500     8.000     8.500     9.000     9.500    10.000    11.000    12.000
    13.000    14.000    15.000      .000      .000      .000      .000      .000
      .000      .000      .000      .000
Fourier amplitude spectra in in/sec.
  .000E+00  .000E+00  .000E+00  .000E+00  .000E+00  .000E+00  .000E+00  .000E+00
  .000E+00  .000E+00  .000E+00  .000E+00  .000E+00  .000E+00  .000E+00  .000E+00
  .000E+00  .000E+00  .000E+00  .000E+00  .000E+00  .000E+00  .000E+00  .000E+00
  .000E+00  .000E+00  .000E+00  .000E+00  .000E+00  .000E+00  .000E+00  .000E+00
  .000E+00  .000E+00  .000E+00  .000E+00  .000E+00  .000E+00  .000E+00  .000E+00
  .000E+00  .000E+00  .000E+00  .000E+00  .000E+00  .000E+00  .000E+00  .000E+00
  .000E+00  .000E+00  .000E+00  .000E+00  .000E+00  .000E+00  .000E+00  .000E+00
  .000E+00  .000E+00  .000E+00  .000E+00  .000E+00  .000E+00  .000E+00  .000E+00
  .000E+00  .000E+00  .000E+00  .000E+00  .000E+00  .000E+00  .000E+00  .000E+00
  .000E+00  .000E+00  .000E+00  .000E+00  .000E+00  .000E+00  .000E+00  .000E+00
  .000E+00  .000E+00  .000E+00  .000E+00  .000E+00  .000E+00  .000E+00  .000E+00
  .000E+00  .000E+00  .000E+00  .000E+00  .000E+00  .000E+00  .000E+00  .000E+00
  .000E+00  .000E+00  .000E+00  .000E+00
Damping =  .05. Data of Sd,Sv,Sa,Pssv,ttSd,ttSv,ttSa :
  .461E-03  .608E-03  .661E-03  .843E-03  .107E-02  .121E-02  .122E-02  .202E-02
  .273E-02  .231E-02  .319E-02  .435E-02  .460E-02  .536E-02  .523E-02  .564E-02
  .588E-02  .657E-02  .779E-02  .863E-02  .758E-02  .855E-02  .989E-02  .104E-01
  .111E-01  .122E-01  .199E-01  .256E-01  .314E-01  .348E-01  .369E-01  .380E-01
  .303E-01  .307E-01  .395E-01  .424E-01  .450E-01  .465E-01  .440E-01  .434E-01
