Response and Fourier amplitude spectra (91 periods,  .04 - 15.0 sec)   for      
Corrected accelerogram   24048-L1870-01252.07       Chan  1:   0 Deg     from   
Uncorrected Accelerogram Data             Processed: 09/10/01, CDMG  048az007   
Record of Sun Sep  9, 2001 16:59:17 PDT               (Avol1 v4.6  7/01 CSMIP)  
CSMIP Preliminary Processing            (Origin:  To be determined)             
24048-L1870-01252.07                 Start time:  9/09/01, 23:59:17.0 UTC (GPS) 
Station No. 24048   34.029N, 118.483W      Etna  s/n 1870  (3 Channels)         
Santa Monica - 19th & Wilshire                                                  
Chan  1:   0 Deg                                                                
Record of Sun Sep  9, 2001 16:59:17 PDT    Sun Sep  9, 2001 16:59:17 PDT        
Hypocenter:  To be determined.               ML:  To be determined.             
Instr Period =  .0106 sec,  Damping =  .680,  Sensitivity =  .63  v/g           
                        Record length = 46.000 sec.                             
                                     Uncor Max  =   .080 g, at   6.530 sec.     
RMS accel of (uncor) record  =        .                                         
Accelerogram bandpass filtered with 3 dB pts at   .30 and 40.00 cyc/sec         
                 instrument- and baseline-corrected                             
                                                                                
                                                                                
                                                                                
                                                                                
                                                                                
Record of Sun Sep  9, 2001 16:59:17 PDT    Sun Sep  9, 2001 16:59:17 PDT        
                                                                                
24048-L1870-01252.07      Santa Monica - 19th & Wilshire    Chan  1:   0 Deg    
                                                                                
24048-L1870-01252.07      Santa Monica - 19th & Wilshire    Chan  1:   0 Deg    
                                                                                
Units for spectra are inches and sec, except Sa is in fraction of g.            
                                                                                
    1  100    1    3    3  200    1    3    1   24   12 1870    024048    1    0
   23   59   17    0  252    9    9 2001   10    3    0 9200   39   30   72 -999
 9200    1   50    3 1870    1    7  460    1    0    0    0    0    0    0    0
    0    4    0    0 4600    2    0    0    0    0   72   30    0    0    0 4600
    0 4600   31   91    1    3    0    0    0    0    3    0    0    0    0    2
    2    2    4    0   32   99 -999   32   32    0    0    1    0    0    0    0
  -99   -1    0    0
      .011      .680    46.000      .005      .000   625.000      .080     6.530
    94.100      .298      .477      .000     5.000      .000      .000      .000
     2.500    13.963      .049     -.041     5.000    30.000      .000     -.004
      .004      .008     2.000    15.000    34.029  -118.483      .014      .225
    16.564     -.003      .019  -999.000      .000      .000   -13.400      .000
  1000.000     1.007      .000      .000      .000      .000      .000      .000
     4.600     4.400      .000   980.665      .010    46.000    14.976      .000
      .000    40.000      .000    46.000      .010      .300      .000      .000
     6.530    76.707     6.450    -4.149     6.360      .405      .000      .300
    40.000      .010      .010      .000      .230      .041      .000      .000
      .191      .110      .156      .174      .022      .002      .000      .000
      .000      .000      .000      .000      .000      .000      .000      .000
      .000      .000      .000      .000
      .050
      .040      .042      .044      .046      .048      .050      .055      .060
      .065      .070      .075      .080      .085      .090      .095      .100
      .110      .120      .130      .140      .150      .160      .170      .180
      .190      .200      .220      .240      .260      .280      .300      .320
      .340      .360      .380      .400      .420      .440      .460      .480
      .500      .550      .600      .650      .700      .750      .800      .850
      .900      .950     1.000     1.100     1.200     1.300     1.400     1.500
     1.600     1.700     1.800     1.900     2.000     2.200     2.400     2.600
     2.800     3.000     3.200     3.400     3.600     3.800     4.000     4.200
     4.400     4.600     4.800     5.000     5.500     6.000     6.500     7.000
     7.500     8.000     8.500     9.000     9.500    10.000    11.000    12.000
    13.000    14.000    15.000      .000      .000      .000      .000      .000
      .000      .000      .000      .000
Fourier amplitude spectra in in/sec.
  .000E+00  .000E+00  .000E+00  .000E+00  .000E+00  .000E+00  .000E+00  .000E+00
  .000E+00  .000E+00  .000E+00  .000E+00  .000E+00  .000E+00  .000E+00  .000E+00
  .000E+00  .000E+00  .000E+00  .000E+00  .000E+00  .000E+00  .000E+00  .000E+00
  .000E+00  .000E+00  .000E+00  .000E+00  .000E+00  .000E+00  .000E+00  .000E+00
  .000E+00  .000E+00  .000E+00  .000E+00  .000E+00  .000E+00  .000E+00  .000E+00
  .000E+00  .000E+00  .000E+00  .000E+00  .000E+00  .000E+00  .000E+00  .000E+00
  .000E+00  .000E+00  .000E+00  .000E+00  .000E+00  .000E+00  .000E+00  .000E+00
  .000E+00  .000E+00  .000E+00  .000E+00  .000E+00  .000E+00  .000E+00  .000E+00
  .000E+00  .000E+00  .000E+00  .000E+00  .000E+00  .000E+00  .000E+00  .000E+00
  .000E+00  .000E+00  .000E+00  .000E+00  .000E+00  .000E+00  .000E+00  .000E+00
  .000E+00  .000E+00  .000E+00  .000E+00  .000E+00  .000E+00  .000E+00  .000E+00
  .000E+00  .000E+00  .000E+00  .000E+00  .000E+00  .000E+00  .000E+00  .000E+00
  .000E+00  .000E+00  .000E+00  .000E+00
Damping =  .05. Data of Sd,Sv,Sa,Pssv,ttSd,ttSv,ttSa :
  .164E-02  .195E-02  .226E-02  .256E-02  .275E-02  .308E-02  .423E-02  .603E-02
  .608E-02  .736E-02  .807E-02  .931E-02  .110E-01  .118E-01  .132E-01  .165E-01
  .225E-01  .248E-01  .279E-01  .308E-01  .319E-01  .377E-01  .431E-01  .467E-01
  .519E-01  .577E-01  .807E-01  .103E+00  .121E+00  .137E+00  .153E+00  .168E+00
  .184E+00  .199E+00  .210E+00  .216E+00  .219E+00  .222E+00  .225E+00  .226E+00
  .226E+00  .221E+00  .223E+00  .226E+00  .226E+00  .225E+00  .224E+00  .224E+00
  .225E+00  .224E+00  .222E+00  .211E+00  .199E+00  .197E+00  .196E+00  .183E+00
  .171E+00  .157E+00  .163E+00  .167E+00  .171E+00  .177E+00  .181E+00  .185E+00
  .188E+00  .190E+00  .191E+00  .192E+00  .192E+00  .191E+00  .190E+00  .189E+00
  .188E+00  .187E+00  .186E+00  .185E+00  .183E+00  .181E+00  .180E+00  .178E+00
  .177E+00  .177E+00  .176E+00  .175E+00  .175E+00  .175E+00  .174E+00  .174E+00
  .173E+00  .173E+00  .173E+00  .000E+00  .000E+00  .000E+00  .000E+00  .000E+00
  .000E+00  .000E+00  .000E+00  .000E+00
  .965E-01  .122E+00  .168E+00  .208E+00  .243E+00  .288E+00  .410E+00  .477E+00
  .367E+00  .468E+00  .544E+00  .551E+00  .624E+00  .651E+00  .797E+00  .101E+01
  .103E+01  .992E+00  .133E+01  .143E+01  .124E+01  .101E+01  .107E+01  .106E+01
  .132E+01  .166E+01  .239E+01  .285E+01  .296E+01  .295E+01  .289E+01  .285E+01
  .314E+01  .342E+01  .364E+01  .379E+01  .380E+01  .374E+01  .360E+01  .344E+01
  .327E+01  .285E+01  .243E+01  .245E+01  .244E+01  .241E+01  .239E+01  .238E+01
  .239E+01  .239E+01  .239E+01  .237E+01  .233E+01  .228E+01  .224E+01  .220E+01
  .216E+01  .212E+01  .209E+01  .205E+01  .202E+01  .196E+01  .191E+01  .187E+01
  .184E+01  .181E+01  .179E+01  .177E+01  .175E+01  .173E+01  .172E+01  .171E+01
  .170E+01  .170E+01  .169E+01  .169E+01  .168E+01  .167E+01  .166E+01  .166E+01
  .166E+01  .165E+01  .165E+01  .165E+01  .165E+01  .165E+01  .165E+01  .165E+01
  .164E+01  .164E+01  .164E+01  .000E+00  .000E+00  .000E+00  .000E+00  .000E+00
  .000E+00  .000E+00  .000E+00  .000E+00
  .104E+00  .113E+00  .121E+00  .124E+00  .123E+00  .127E+00  .143E+00  .170E+00
  .149E+00  .155E+00  .148E+00  .149E+00  .155E+00  .149E+00  .149E+00  .167E+00
  .191E+00  .178E+00  .171E+00  .159E+00  .146E+00  .150E+00  .152E+00  .149E+00
  .147E+00  .149E+00  .172E+00  .182E+00  .184E+00  .180E+00  .173E+00  .169E+00
  .165E+00  .158E+00  .149E+00  .139E+00  .128E+00  .118E+00  .109E+00  .101E+00
  .930E-01  .750E-01  .639E-01  .554E-01  .477E-01  .415E-01  .363E-01  .322E-01
  .288E-01  .258E-01  .230E-01  .182E-01  .144E-01  .121E-01  .104E-01  .843E-02
  .691E-02  .586E-02  .542E-02  .502E-02  .465E-02  .402E-02  .350E-02  .308E-02
  .273E-02  .243E-02  .218E-02  .196E-02  .177E-02  .161E-02  .147E-02  .135E-02
  .124E-02  .115E-02  .107E-02  .994E-03  .844E-03  .729E-03  .641E-03  .571E-03
  .513E-03  .466E-03  .426E-03  .391E-03  .362E-03  .336E-03  .294E-03  .261E-03
  .234E-03  .212E-03  .194E-03  .000E+00  .000E+00  .000E+00  .000E+00  .000E+00
  .000E+00  .000E+00  .000E+00  .000E+00
  .257E+00  .292E+00  .323E+00  .349E+00  .360E+00  .387E+00  .483E+00  .631E+00
  .588E+00  .660E+00  .676E+00  .731E+00  .812E+00  .825E+00  .871E+00  .104E+01
  .129E+01  .130E+01  .135E+01  .138E+01  .133E+01  .148E+01  .159E+01  .163E+01
  .172E+01  .181E+01  .231E+01  .269E+01  .292E+01  .308E+01  .320E+01  .329E+01
  .340E+01  .347E+01  .347E+01  .339E+01  .328E+01  .317E+01  .307E+01  .296E+01
  .284E+01  .252E+01  .233E+01  .219E+01  .203E+01  .189E+01  .176E+01  .166E+01
  .157E+01  .148E+01  .139E+01  .121E+01  .104E+01  .954E+00  .880E+00  .766E+00
  .670E+00  .581E+00  .568E+00  .553E+00  .536E+00  .504E+00  .475E+00  .448E+00
  .422E+00  .398E+00  .376E+00  .354E+00  .335E+00  .316E+00  .299E+00  .283E+00
  .269E+00  .256E+00  .244E+00  .233E+00  .209E+00  .190E+00  .174E+00  .160E+00
  .149E+00  .139E+00  .130E+00  .122E+00  .116E+00  .110E+00  .995E-01  .910E-01
  .838E-01  .777E-01  .725E-01  .000E+00  .000E+00  .000E+00  .000E+00  .000E+00
  .000E+00  .000E+00  .000E+00  .000E+00
  .652E+01  .652E+01  .652E+01  .653E+01  .653E+01  .661E+01  .661E+01  .653E+01
  .653E+01  .654E+01  .655E+01  .655E+01  .625E+01  .625E+01  .626E+01  .667E+01
  .633E+01  .634E+01  .675E+01  .677E+01  .636E+01  .637E+01  .638E+01  .638E+01
  .639E+01  .640E+01  .654E+01  .656E+01  .657E+01  .658E+01  .659E+01  .660E+01
  .661E+01  .662E+01  .663E+01  .665E+01  .666E+01  .668E+01  .670E+01  .671E+01
  .672E+01  .674E+01  .651E+01  .652E+01  .653E+01  .653E+01  .653E+01  .654E+01
  .654E+01  .655E+01  .655E+01  .656E+01  .656E+01  .731E+01  .734E+01  .736E+01
  .828E+01  .634E+01  .634E+01  .634E+01  .634E+01  .634E+01  .635E+01  .635E+01
  .635E+01  .635E+01  .635E+01  .635E+01  .635E+01  .635E+01  .635E+01  .635E+01
  .635E+01  .635E+01  .635E+01  .635E+01  .635E+01  .635E+01  .635E+01  .635E+01
  .635E+01  .635E+01  .635E+01  .635E+01  .635E+01  .635E+01  .635E+01  .635E+01
  .635E+01  .635E+01  .635E+01  .000E+00  .000E+00  .000E+00  .000E+00  .000E+00
  .000E+00  .000E+00  .000E+00  .000E+00
  .651E+01  .651E+01  .659E+01  .659E+01  .662E+01  .662E+01  .663E+01  .663E+01
  .655E+01  .611E+01  .613E+01  .622E+01  .622E+01  .628E+01  .664E+01  .664E+01
  .630E+01  .631E+01  .672E+01  .673E+01  .674E+01  .668E+01  .633E+01  .645E+01
  .668E+01  .669E+01  .661E+01  .662E+01  .663E+01  .664E+01  .665E+01  .653E+01
  .654E+01  .654E+01  .655E+01  .656E+01  .657E+01  .657E+01  .657E+01  .658E+01
  .658E+01  .658E+01  .658E+01  .643E+01  .643E+01  .643E+01  .644E+01  .644E+01
  .644E+01  .644E+01  .644E+01  .644E+01  .644E+01  .644E+01  .644E+01  .644E+01
  .644E+01  .644E+01  .644E+01  .644E+01  .644E+01  .644E+01  .644E+01  .644E+01
  .644E+01  .644E+01  .644E+01  .644E+01  .644E+01  .644E+01  .644E+01  .644E+01
  .644E+01  .644E+01  .644E+01  .644E+01  .644E+01  .644E+01  .644E+01  .644E+01
  .644E+01  .644E+01  .644E+01  .644E+01  .644E+01  .644E+01  .644E+01  .644E+01
  .644E+01  .644E+01  .644E+01  .000E+00  .000E+00  .000E+00  .000E+00  .000E+00
  .000E+00  .000E+00  .000E+00  .000E+00
  .652E+01  .652E+01  .652E+01  .653E+01  .653E+01  .661E+01  .661E+01  .653E+01
  .653E+01  .654E+01  .654E+01  .655E+01  .625E+01  .625E+01  .625E+01  .667E+01
  .633E+01  .634E+01  .675E+01  .677E+01  .636E+01  .637E+01  .637E+01  .638E+01
  .639E+01  .639E+01  .654E+01  .656E+01  .657E+01  .658E+01  .659E+01  .659E+01
  .660E+01  .661E+01  .662E+01  .664E+01  .666E+01  .667E+01  .669E+01  .670E+01
  .671E+01  .673E+01  .651E+01  .651E+01  .651E+01  .652E+01  .652E+01  .652E+01
  .653E+01  .653E+01  .653E+01  .654E+01  .654E+01  .730E+01  .731E+01  .733E+01
  .825E+01  .631E+01  .631E+01  .631E+01  .631E+01  .631E+01  .631E+01  .631E+01
  .631E+01  .631E+01  .630E+01  .630E+01  .630E+01  .630E+01  .630E+01  .630E+01
  .630E+01  .630E+01  .630E+01  .630E+01  .630E+01  .630E+01  .629E+01  .629E+01
  .629E+01  .629E+01  .629E+01  .629E+01  .629E+01  .629E+01  .629E+01  .629E+01
  .629E+01  .629E+01  .629E+01  .000E+00  .000E+00  .000E+00  .000E+00  .000E+00
  .000E+00  .000E+00  .000E+00  .000E+00
/&   ----------  End of spectral data for channel  1  ----------
Response and Fourier amplitude spectra (91 periods,  .04 - 15.0 sec)   for      
Corrected accelerogram   24048-L1870-01252.07       Chan  2:   0 Deg     from   
Uncorrected Accelerogram Data             Processed: 09/10/01, CDMG  048az007   
Record of Sun Sep  9, 2001 16:59:17 PDT               (Avol1 v4.6  7/01 CSMIP)  
CSMIP Preliminary Processing            (Origin:  To be determined)             
24048-L1870-01252.07                 Start time:  9/09/01, 23:59:17.0 UTC (GPS) 
Station No. 24048   34.029N, 118.483W      Etna  s/n 1870  (3 Channels)         
Santa Monica - 19th & Wilshire                                                  
Chan  2:   0 Deg                                                                
Record of Sun Sep  9, 2001 16:59:17 PDT    Sun Sep  9, 2001 16:59:17 PDT        
Hypocenter:  To be determined.               ML:  To be determined.             
Instr Period =  .0108 sec,  Damping =  .680,  Sensitivity =  .63  v/g           
                        Record length = 46.000 sec.                             
                                     Uncor Max  =   .022 g, at   7.440 sec.     
RMS accel of (uncor) record  =        .                                         
Accelerogram bandpass filtered with 3 dB pts at   .30 and 40.00 cyc/sec         
                 instrument- and baseline-corrected                             
                                                                                
                                                                                
                                                                                
                                                                                
                                                                                
Record of Sun Sep  9, 2001 16:59:17 PDT    Sun Sep  9, 2001 16:59:17 PDT        
                                                                                
24048-L1870-01252.07      Santa Monica - 19th & Wilshire    Chan  2:   0 Deg    
                                                                                
24048-L1870-01252.07      Santa Monica - 19th & Wilshire    Chan  2:   0 Deg    
                                                                                
Units for spectra are inches and sec, except Sa is in fraction of g.            
                                                                                
    2  100    2    3    3  200    1    3    1   24   12 1870    024048    1    0
   23   59   17    0  252    9    9 2001   10    3    0 9200   39   30   72 -999
 9200    1   50    3 1870    1    7  460    1    0    0    0    0    0    0    0
    0    4    0    0 4600    2    0    0    0    0   72   30    0    0    0 4600
    0 4600   31   91    1    3    0    0    0    0    3    0    0    0    0    2
    2    2    4    0   32   99 -999   32   32    0    0    1    0    0    0    0
  -99   -1    0    0
      .011      .680    46.000      .002      .000   625.000      .022     7.440
    92.900      .298      .477      .000     5.000      .000      .000      .000
     2.500   -67.081     -.029     -.055     5.000    30.000      .000     -.001
     -.001      .000     2.000    15.000    34.029  -118.483      .017      .151
     9.076     -.008      .007  -999.000      .000      .000   -13.400      .000
  1000.000    -1.017      .000      .000      .000      .000      .000      .000
     4.600     4.400      .000   980.665      .010    46.000    14.785      .000
      .000    40.000      .000    46.000      .010      .300      .000      .000
     7.440    21.354     7.390     -.726     9.700      .080      .000      .300
    40.000      .010      .010      .000      .010      .025      .000      .000
      .069      .150      .056      .042      .008      .001      .000      .000
      .000      .000      .000      .000      .000      .000      .000      .000
      .000      .000      .000      .000
      .050
      .040      .042      .044      .046      .048      .050      .055      .060
      .065      .070      .075      .080      .085      .090      .095      .100
      .110      .120      .130      .140      .150      .160      .170      .180
      .190      .200      .220      .240      .260      .280      .300      .320
      .340      .360      .380      .400      .420      .440      .460      .480
      .500      .550      .600      .650      .700      .750      .800      .850
      .900      .950     1.000     1.100     1.200     1.300     1.400     1.500
     1.600     1.700     1.800     1.900     2.000     2.200     2.400     2.600
     2.800     3.000     3.200     3.400     3.600     3.800     4.000     4.200
     4.400     4.600     4.800     5.000     5.500     6.000     6.500     7.000
     7.500     8.000     8.500     9.000     9.500    10.000    11.000    12.000
    13.000    14.000    15.000      .000      .000      .000      .000      .000
      .000      .000      .000      .000
Fourier amplitude spectra in in/sec.
  .000E+00  .000E+00  .000E+00  .000E+00  .000E+00  .000E+00  .000E+00  .000E+00
  .000E+00  .000E+00  .000E+00  .000E+00  .000E+00  .000E+00  .000E+00  .000E+00
  .000E+00  .000E+00  .000E+00  .000E+00  .000E+00  .000E+00  .000E+00  .000E+00
  .000E+00  .000E+00  .000E+00  .000E+00  .000E+00  .000E+00  .000E+00  .000E+00
  .000E+00  .000E+00  .000E+00  .000E+00  .000E+00  .000E+00  .000E+00  .000E+00
  .000E+00  .000E+00  .000E+00  .000E+00  .000E+00  .000E+00  .000E+00  .000E+00
  .000E+00  .000E+00  .000E+00  .000E+00  .000E+00  .000E+00  .000E+00  .000E+00
  .000E+00  .000E+00  .000E+00  .000E+00  .000E+00  .000E+00  .000E+00  .000E+00
  .000E+00  .000E+00  .000E+00  .000E+00  .000E+00  .000E+00  .000E+00  .000E+00
  .000E+00  .000E+00  .000E+00  .000E+00  .000E+00  .000E+00  .000E+00  .000E+00
  .000E+00  .000E+00  .000E+00  .000E+00  .000E+00  .000E+00  .000E+00  .000E+00
  .000E+00  .000E+00  .000E+00  .000E+00  .000E+00  .000E+00  .000E+00  .000E+00
  .000E+00  .000E+00  .000E+00  .000E+00
Damping =  .05. Data of Sd,Sv,Sa,Pssv,ttSd,ttSv,ttSa :
  .415E-03  .479E-03  .544E-03  .581E-03  .653E-03  .806E-03  .982E-03  .111E-02
  .175E-02  .218E-02  .243E-02  .315E-02  .373E-02  .372E-02  .371E-02  .403E-02
  .500E-02  .715E-02  .864E-02  .126E-01  .153E-01  .132E-01  .140E-01  .173E-01
  .221E-01  .219E-01  .223E-01  .271E-01  .342E-01  .353E-01  .364E-01  .364E-01
  .353E-01  .363E-01  .391E-01  .459E-01  .502E-01  .540E-01  .579E-01  .550E-01
