Response and Fourier amplitude spectra (82 periods,  .04 -  8.0 sec)   for      
Corrected accelerogram   13096-L2198-14087.34       Chan  1: 360 Deg     from   
Uncorrected Accelerogram Data             Processed: 03/28/14, CGS  096as034    
Rcrd of Fri Mar 28, 2014 21:09:39.0 PDT               (Avol1 v0.5, 2/14 CSMIP)  
CSMIP Preliminary Processing            (Origin:  To be determined)             
13096-L2198-14087.34                 Start time:  3/29/14, 04:09:39.0 UTC (GPS) 
Station No. 13096   33.699N, 117.266W    Etna    s/n 2198  (3 Chns of  3 at Sta)
Canyon Lake - Vacation Dr & San Joaquin   CGS   Data: Acceleration              
Chan  1: 360 Deg                                                                
Rcrd of Fri Mar 28, 2014 21:09:39.0 PDT    Fri Mar 28, 2014 21:09:39.0 PDT      
Hypocenter:  To be determined.               ML:  To be determined.             
Instr Period =  .0107 sec,  Damping =  .660,  Sensitivity =  .63 v/g            
                        Record length = 57.000 sec.                             
                                     Uncor Max  =  -.012 g , at  24.730 sec.    
RMS accel of (uncor) record  =        .   Chn. metadata effective date: 10/24/02
Accelerogram bandpass filtered with 3 dB pts at   .13 and 40.00 cyc/sec         
                 instrument- and baseline-corrected                             
                                                                                
                                                                                
                                                                                
                                                                                
                                                                                
Rcrd of Fri Mar 28, 2014 21:09:39.0 PDT    Fri Mar 28, 2014 21:09:39.0 PDT      
                                                                                
13096-L2198-14087.34      Canyon Lake - Vacation Dr & San Joaquin   Chan  1: 360
 Deg                                                                            
13096-L2198-14087.34      Canyon Lake - Vacation Dr & San Joaquin   Chan  1: 360
 Deg                                                                            
Units for spectra are inches and sec, except Sa is in fraction of g.            
                                                                                
    1  100    1    3    3  200    1    3    1   24   12 2198    013096    1    0
    4    9   39    0   88    3   29 2014   10    3  36011400   39   39   74  360
11400    1  100    3 2198    1   34  570    2    0    0    0    0    0    0    0
    0    0    3    011400    1  303    0   18    4    0    0    3    1    011400
    311400    4   82    5    3    5    0    0    0    0    0    1    3    1    2
    2    2    4    0   32   99    0    5    0    0    0    1    0    0    0  222
    1    0    0    0
      .011      .660    57.000      .001      .000   625.000     -.012    24.730
    93.600      .298      .477      .000     5.000  -999.000     4.000      .000
     2.500   -34.971     2.500   425.000    25.000    30.000  -999.000     -.005
      .004      .009     2.000    15.000    33.699  -117.266      .012      .434
    37.493     -.012      .029   426.000    25.500    25.900    13.400    70.160
     1.000    -1.213      .000  -999.000  -999.000  -999.000  -999.000      .000
      .100      .500     6.300   980.665      .005    57.000    14.897      .000
      .000    40.000      .000    57.000      .005      .125      .000      .000
    24.725   -11.284    26.990     -.286    24.735      .023      .000      .125
    40.000      .005      .005     -.001      .005      .010      .000      .000
      .045      .160      .024      .010      .002      .000      .000      .000
      .000      .000      .000      .000      .000      .000      .000      .000
      .000      .000      .000      .000
      .000      .020      .050      .100      .200
      .040      .042      .044      .046      .048      .050      .055      .060
      .065      .070      .075      .080      .085      .090      .095      .100
      .110      .120      .130      .140      .150      .160      .170      .180
      .190      .200      .220      .240      .260      .280      .300      .320
      .340      .360      .380      .400      .420      .440      .460      .480
      .500      .550      .600      .650      .700      .750      .800      .850
      .900      .950     1.000     1.100     1.200     1.300     1.400     1.500
     1.600     1.700     1.800     1.900     2.000     2.200     2.400     2.600
     2.800     3.000     3.200     3.400     3.600     3.800     4.000     4.200
     4.400     4.600     4.800     5.000     5.500     6.000     6.500     7.000
     7.500     8.000      .000      .000      .000      .000      .000      .000
      .000      .000      .000      .000      .000      .000      .000      .000
      .000      .000      .000      .000
Fourier amplitude spectra in in/sec.
  .265E-01  .101E+00  .187E-01  .533E-01  .604E-01  .207E+00  .748E-01  .380E+00
  .552E+00  .114E+00  .291E+00  .668E+00  .577E+00  .605E-01  .278E+00  .500E+00
  .519E+00  .726E+00  .492E+00  .127E+01  .113E+01  .660E+00  .121E+01  .827E+00
  .102E+01  .638E+00  .424E+00  .419E+00  .202E-01  .863E-01  .224E+00  .502E+00
  .240E+00  .668E+00  .224E+00  .242E+00  .226E+00  .654E-01  .194E+00  .217E+00
  .205E+00  .109E+00  .244E+00  .471E-01  .314E+00  .248E-01  .170E+00  .628E-01
  .225E+00  .260E+00  .307E+00  .729E-01  .189E+00  .391E-01  .372E-01  .162E+00
  .179E+00  .128E+00  .559E-01  .159E+00  .189E+00  .455E-01  .427E-01  .478E-01
  .570E-01  .453E-01  .283E-01  .397E-01  .425E-01  .402E-01  .296E-01  .274E-01
  .302E-01  .335E-01  .410E-01  .447E-01  .454E-01  .274E-01  .548E-02  .127E-01
  .994E-02  .545E-02  .000E+00  .000E+00  .000E+00  .000E+00  .000E+00  .000E+00
  .000E+00  .000E+00  .000E+00  .000E+00  .000E+00  .000E+00  .000E+00  .000E+00
  .000E+00  .000E+00  .000E+00  .000E+00
Damping =  .00. Data of Sd,Sv,Sa,Pssv,ttSd,ttSv,ttSa :
  .410E-03  .955E-03  .485E-03  .578E-03  .743E-03  .183E-02  .186E-02  .373E-02
  .610E-02  .377E-02  .367E-02  .956E-02  .974E-02  .319E-02  .602E-02  .845E-02
  .951E-02  .180E-01  .126E-01  .300E-01  .309E-01  .261E-01  .333E-01  .269E-01
  .331E-01  .343E-01  .191E-01  .201E-01  .163E-01  .829E-02  .162E-01  .290E-01
  .147E-01  .394E-01  .176E-01  .158E-01  .185E-01  .148E-01  .194E-01  .170E-01
  .202E-01  .110E-01  .265E-01  .227E-01  .403E-01  .105E-01  .254E-01  .181E-01
  .344E-01  .501E-01  .536E-01  .247E-01  .379E-01  .269E-01  .214E-01  .388E-01
  .460E-01  .355E-01  .202E-01  .521E-01  .605E-01  .243E-01  .221E-01  .214E-01
  .271E-01  .291E-01  .235E-01  .254E-01  .268E-01  .296E-01  .201E-01  .187E-01
  .212E-01  .257E-01  .349E-01  .398E-01  .399E-01  .337E-01  .251E-01  .188E-01
  .156E-01  .129E-01  .000E+00  .000E+00  .000E+00  .000E+00  .000E+00  .000E+00
  .000E+00  .000E+00  .000E+00  .000E+00  .000E+00  .000E+00  .000E+00  .000E+00
  .000E+00  .000E+00  .000E+00  .000E+00
  .583E-01  .132E+00  .664E-01  .770E-01  .895E-01  .223E+00  .207E+00  .389E+00
  .588E+00  .324E+00  .308E+00  .746E+00  .717E+00  .211E+00  .393E+00  .525E+00
  .545E+00  .932E+00  .591E+00  .135E+01  .128E+01  .104E+01  .123E+01  .936E+00
  .110E+01  .109E+01  .575E+00  .537E+00  .384E+00  .212E+00  .347E+00  .577E+00
  .274E+00  .694E+00  .361E+00  .252E+00  .282E+00  .222E+00  .283E+00  .225E+00
  .256E+00  .193E+00  .290E+00  .244E+00  .365E+00  .163E+00  .200E+00  .151E+00
  .244E+00  .339E+00  .343E+00  .172E+00  .208E+00  .156E+00  .136E+00  .165E+00
  .199E+00  .136E+00  .122E+00  .181E+00  .198E+00  .113E+00  .112E+00  .121E+00
  .115E+00  .118E+00  .114E+00  .104E+00  .103E+00  .105E+00  .103E+00  .105E+00
  .103E+00  .102E+00  .104E+00  .105E+00  .105E+00  .110E+00  .117E+00  .119E+00
  .118E+00  .116E+00  .000E+00  .000E+00  .000E+00  .000E+00  .000E+00  .000E+00
  .000E+00  .000E+00  .000E+00  .000E+00  .000E+00  .000E+00  .000E+00  .000E+00
  .000E+00  .000E+00  .000E+00  .000E+00
  .262E-01  .554E-01  .256E-01  .279E-01  .330E-01  .748E-01  .628E-01  .106E+00
  .148E+00  .786E-01  .667E-01  .153E+00  .138E+00  .402E-01  .682E-01  .864E-01
  .804E-01  .128E+00  .763E-01  .157E+00  .140E+00  .104E+00  .118E+00  .848E-01
  .936E-01  .878E-01  .405E-01  .358E-01  .246E-01  .108E-01  .184E-01  .290E-01
  .130E-01  .311E-01  .125E-01  .101E-01  .107E-01  .781E-02  .939E-02  .755E-02
  .826E-02  .371E-02  .752E-02  .549E-02  .841E-02  .191E-02  .406E-02  .257E-02
  .435E-02  .567E-02  .548E-02  .209E-02  .269E-02  .163E-02  .111E-02  .176E-02
  .184E-02  .126E-02  .639E-03  .148E-02  .155E-02  .514E-03  .392E-03  .323E-03
  .353E-03  .330E-03  .234E-03  .225E-03  .212E-03  .210E-03  .129E-03  .108E-03
  .112E-03  .124E-03  .155E-03  .163E-03  .135E-03  .958E-04  .606E-04  .392E-04
  .283E-04  .206E-04  .000E+00  .000E+00  .000E+00  .000E+00  .000E+00  .000E+00
  .000E+00  .000E+00  .000E+00  .000E+00  .000E+00  .000E+00  .000E+00  .000E+00
  .000E+00  .000E+00  .000E+00  .000E+00
  .645E-01  .143E+00  .693E-01  .789E-01  .972E-01  .230E+00  .212E+00  .391E+00
  .590E+00  .338E+00  .307E+00  .751E+00  .720E+00  .222E+00  .398E+00  .531E+00
  .543E+00  .943E+00  .609E+00  .135E+01  .129E+01  .103E+01  .123E+01  .938E+00
  .109E+01  .108E+01  .547E+00  .527E+00  .393E+00  .186E+00  .339E+00  .570E+00
  .273E+00  .688E+00  .291E+00  .248E+00  .276E+00  .211E+00  .265E+00  .223E+00
  .254E+00  .125E+00  .277E+00  .219E+00  .362E+00  .881E-01  .200E+00  .134E+00
  .240E+00  .331E+00  .337E+00  .141E+00  .198E+00  .130E+00  .959E-01  .162E+00
  .181E+00  .131E+00  .706E-01  .172E+00  .190E+00  .694E-01  .579E-01  .516E-01
  .607E-01  .609E-01  .461E-01  .470E-01  .468E-01  .490E-01  .316E-01  .279E-01
  .302E-01  .351E-01  .457E-01  .500E-01  .456E-01  .353E-01  .242E-01  .168E-01
  .130E-01  .101E-01  .000E+00  .000E+00  .000E+00  .000E+00  .000E+00  .000E+00
  .000E+00  .000E+00  .000E+00  .000E+00  .000E+00  .000E+00  .000E+00  .000E+00
  .000E+00  .000E+00  .000E+00  .000E+00
  .189E+02  .265E+02  .213E+02  .383E+02  .243E+02  .420E+02  .272E+02  .534E+02
  .403E+02  .253E+02  .404E+02  .323E+02  .282E+02  .261E+02  .255E+02  .319E+02
  .518E+02  .293E+02  .295E+02  .491E+02  .371E+02  .276E+02  .523E+02  .478E+02
  .460E+02  .357E+02  .252E+02  .323E+02  .271E+02  .254E+02  .383E+02  .458E+02
  .465E+02  .466E+02  .278E+02  .535E+02  .384E+02  .324E+02  .351E+02  .552E+02
  .377E+02  .484E+02  .468E+02  .273E+02  .463E+02  .241E+02  .454E+02  .287E+02
  .540E+02  .332E+02  .439E+02  .315E+02  .463E+02  .292E+02  .316E+02  .559E+02
  .521E+02  .480E+02  .364E+02  .481E+02  .560E+02  .353E+02  .434E+02  .504E+02
  .487E+02  .381E+02  .383E+02  .386E+02  .387E+02  .449E+02  .324E+02  .539E+02
  .590E+02  .438E+02  .440E+02  .470E+02  .539E+02  .358E+02  .334E+02  .305E+02
  .281E+02  .281E+02  .000E+00  .000E+00  .000E+00  .000E+00  .000E+00  .000E+00
  .000E+00  .000E+00  .000E+00  .000E+00  .000E+00  .000E+00  .000E+00  .000E+00
  .000E+00  .000E+00  .000E+00  .000E+00
  .189E+02  .265E+02  .216E+02  .383E+02  .245E+02  .420E+02  .273E+02  .534E+02
  .381E+02  .254E+02  .404E+02  .323E+02  .282E+02  .261E+02  .255E+02  .314E+02
  .518E+02  .293E+02  .295E+02  .491E+02  .371E+02  .277E+02  .523E+02  .477E+02
  .460E+02  .349E+02  .252E+02  .322E+02  .271E+02  .254E+02  .341E+02  .458E+02
  .466E+02  .465E+02  .270E+02  .496E+02  .387E+02  .305E+02  .350E+02  .505E+02
  .363E+02  .270E+02  .302E+02  .271E+02  .465E+02  .247E+02  .484E+02  .285E+02
  .372E+02  .344E+02  .442E+02  .256E+02  .424E+02  .295E+02  .247E+02  .532E+02
  .453E+02  .450E+02  .247E+02  .477E+02  .435E+02  .247E+02  .247E+02  .270E+02
  .270E+02  .270E+02  .270E+02  .270E+02  .252E+02  .252E+02  .252E+02  .270E+02
  .270E+02  .252E+02  .252E+02  .252E+02  .252E+02  .270E+02  .270E+02  .270E+02
  .270E+02  .270E+02  .000E+00  .000E+00  .000E+00  .000E+00  .000E+00  .000E+00
  .000E+00  .000E+00  .000E+00  .000E+00  .000E+00  .000E+00  .000E+00  .000E+00
  .000E+00  .000E+00  .000E+00  .000E+00
  .189E+02  .265E+02  .213E+02  .383E+02  .243E+02  .420E+02  .272E+02  .534E+02
  .403E+02  .253E+02  .404E+02  .323E+02  .282E+02  .261E+02  .255E+02  .319E+02
  .518E+02  .293E+02  .295E+02  .491E+02  .371E+02  .276E+02  .523E+02  .478E+02
  .460E+02  .357E+02  .252E+02  .323E+02  .271E+02  .254E+02  .383E+02  .458E+02
  .465E+02  .466E+02  .278E+02  .535E+02  .384E+02  .324E+02  .351E+02  .552E+02
  .377E+02  .484E+02  .468E+02  .273E+02  .463E+02  .241E+02  .454E+02  .287E+02
  .540E+02  .332E+02  .439E+02  .315E+02  .463E+02  .292E+02  .316E+02  .559E+02
  .521E+02  .480E+02  .364E+02  .481E+02  .560E+02  .353E+02  .434E+02  .504E+02
  .487E+02  .381E+02  .383E+02  .386E+02  .387E+02  .449E+02  .324E+02  .539E+02
  .590E+02  .438E+02  .440E+02  .470E+02  .539E+02  .358E+02  .334E+02  .305E+02
  .281E+02  .281E+02  .000E+00  .000E+00  .000E+00  .000E+00  .000E+00  .000E+00
  .000E+00  .000E+00  .000E+00  .000E+00  .000E+00  .000E+00  .000E+00  .000E+00
  .000E+00  .000E+00  .000E+00  .000E+00
Damping =  .02. Data of Sd,Sv,Sa,Pssv,ttSd,ttSv,ttSa :
  .269E-03  .297E-03  .329E-03  .371E-03  .429E-03  .543E-03  .842E-03  .106E-02
  .215E-02  .160E-02  .212E-02  .270E-02  .312E-02  .200E-02  .220E-02  .251E-02
  .458E-02  .708E-02  .720E-02  .129E-01  .150E-01  .160E-01  .190E-01  .158E-01
  .123E-01  .160E-01  .120E-01  .980E-02  .105E-01  .976E-02  .921E-02  .127E-01
  .925E-02  .125E-01  .117E-01  .849E-02  .846E-02  .939E-02  .884E-02  .853E-02
  .979E-02  .799E-02  .126E-01  .133E-01  .129E-01  .107E-01  .128E-01  .162E-01
  .204E-01  .292E-01  .245E-01  .174E-01  .207E-01  .211E-01  .169E-01  .251E-01
  .274E-01  .256E-01  .216E-01  .294E-01  .323E-01  .220E-01  .160E-01  .160E-01
  .190E-01  .234E-01  .219E-01  .222E-01  .229E-01  .216E-01  .178E-01  .163E-01
  .193E-01  .233E-01  .284E-01  .302E-01  .326E-01  .286E-01  .219E-01  .178E-01
  .149E-01  .129E-01  .000E+00  .000E+00  .000E+00  .000E+00  .000E+00  .000E+00
  .000E+00  .000E+00  .000E+00  .000E+00  .000E+00  .000E+00  .000E+00  .000E+00
  .000E+00  .000E+00  .000E+00  .000E+00
  .263E-01  .284E-01  .296E-01  .402E-01  .331E-01  .518E-01  .774E-01  .856E-01
  .182E+00  .132E+00  .153E+00  .192E+00  .215E+00  .117E+00  .145E+00  .153E+00
  .230E+00  .355E+00  .309E+00  .554E+00  .610E+00  .635E+00  .716E+00  .568E+00
  .448E+00  .566E+00  .386E+00  .292E+00  .246E+00  .260E+00  .222E+00  .272E+00
  .189E+00  .235E+00  .263E+00  .198E+00  .179E+00  .162E+00  .189E+00  .164E+00
  .137E+00  .157E+00  .175E+00  .157E+00  .142E+00  .158E+00  .138E+00  .137E+00
  .153E+00  .201E+00  .166E+00  .156E+00  .120E+00  .130E+00  .126E+00  .117E+00
  .132E+00  .120E+00  .115E+00  .118E+00  .120E+00  .109E+00  .109E+00  .117E+00
  .115E+00  .116E+00  .112E+00  .106E+00  .103E+00  .104E+00  .103E+00  .104E+00
  .103E+00  .102E+00  .103E+00  .104E+00  .105E+00  .110E+00  .116E+00  .118E+00
  .117E+00  .116E+00  .000E+00  .000E+00  .000E+00  .000E+00  .000E+00  .000E+00
  .000E+00  .000E+00  .000E+00  .000E+00  .000E+00  .000E+00  .000E+00  .000E+00
  .000E+00  .000E+00  .000E+00  .000E+00
  .172E-01  .172E-01  .173E-01  .180E-01  .190E-01  .223E-01  .285E-01  .300E-01
  .521E-01  .336E-01  .387E-01  .430E-01  .443E-01  .253E-01  .249E-01  .256E-01
  .389E-01  .501E-01  .436E-01  .674E-01  .686E-01  .638E-01  .674E-01  .498E-01
  .349E-01  .408E-01  .254E-01  .174E-01  .159E-01  .127E-01  .105E-01  .127E-01
  .820E-02  .987E-02  .828E-02  .544E-02  .492E-02  .497E-02  .428E-02  .379E-02
  .401E-02  .270E-02  .360E-02  .322E-02  .269E-02  .195E-02  .205E-02  .230E-02
  .258E-02  .331E-02  .251E-02  .148E-02  .147E-02  .128E-02  .885E-03  .114E-02
  .110E-02  .908E-03  .683E-03  .834E-03  .829E-03  .468E-03  .285E-03  .242E-03
  .249E-03  .266E-03  .219E-03  .197E-03  .182E-03  .154E-03  .114E-03  .951E-04
  .102E-03  .113E-03  .127E-03  .124E-03  .111E-03  .819E-04  .538E-04  .392E-04
  .303E-04  .241E-04  .000E+00  .000E+00  .000E+00  .000E+00  .000E+00  .000E+00
  .000E+00  .000E+00  .000E+00  .000E+00  .000E+00  .000E+00  .000E+00  .000E+00
  .000E+00  .000E+00  .000E+00  .000E+00
  .422E-01  .444E-01  .470E-01  .507E-01  .562E-01  .682E-01  .962E-01  .111E+00
  .207E+00  .144E+00  .177E+00  .212E+00  .231E+00  .139E+00  .145E+00  .158E+00
  .262E+00  .370E+00  .348E+00  .579E+00  .630E+00  .628E+00  .702E+00  .550E+00
  .407E+00  .501E+00  .342E+00  .257E+00  .254E+00  .219E+00  .193E+00  .250E+00
  .171E+00  .218E+00  .193E+00  .133E+00  .127E+00  .134E+00  .121E+00  .112E+00
  .123E+00  .913E-01  .132E+00  .128E+00  .115E+00  .898E-01  .101E+00  .120E+00
  .143E+00  .193E+00  .154E+00  .994E-01  .108E+00  .102E+00  .759E-01  .105E+00
  .108E+00  .947E-01  .753E-01  .973E-01  .102E+00  .629E-01  .420E-01  .386E-01
  .426E-01  .490E-01  .430E-01  .410E-01  .400E-01  .357E-01  .280E-01  .244E-01
  .275E-01  .319E-01  .372E-01  .380E-01  .372E-01  .299E-01  .212E-01  .160E-01
  .125E-01  .101E-01  .000E+00  .000E+00  .000E+00  .000E+00  .000E+00  .000E+00
  .000E+00  .000E+00  .000E+00  .000E+00  .000E+00  .000E+00  .000E+00  .000E+00
  .000E+00  .000E+00  .000E+00  .000E+00
  .252E+02  .247E+02  .256E+02  .252E+02  .256E+02  .247E+02  .252E+02  .247E+02
  .253E+02  .253E+02  .243E+02  .247E+02  .257E+02  .252E+02  .265E+02  .284E+02
  .252E+02  .262E+02  .270E+02  .253E+02  .258E+02  .262E+02  .261E+02  .272E+02
  .260E+02  .256E+02  .248E+02  .293E+02  .271E+02  .271E+02  .271E+02  .281E+02
  .253E+02  .284E+02  .270E+02  .252E+02  .252E+02  .306E+02  .248E+02  .249E+02
  .289E+02  .249E+02  .285E+02  .273E+02  .306E+02  .283E+02  .287E+02  .283E+02
  .325E+02  .327E+02  .315E+02  .269E+02  .361E+02  .292E+02  .281E+02  .342E+02
  .361E+02  .362E+02  .338E+02  .339E+02  .330E+02  .332E+02  .324E+02  .425E+02
  .361E+02  .381E+02  .382E+02  .386E+02  .386E+02  .449E+02  .324E+02  .436E+02
  .438E+02  .438E+02  .440E+02  .443E+02  .403E+02  .358E+02  .334E+02  .305E+02
  .281E+02  .281E+02  .000E+00  .000E+00  .000E+00  .000E+00  .000E+00  .000E+00
  .000E+00  .000E+00  .000E+00  .000E+00  .000E+00  .000E+00  .000E+00  .000E+00
  .000E+00  .000E+00  .000E+00  .000E+00
  .252E+02  .252E+02  .252E+02  .252E+02  .249E+02  .252E+02  .252E+02  .247E+02
  .253E+02  .245E+02  .242E+02  .248E+02  .257E+02  .248E+02  .265E+02  .284E+02
  .252E+02  .261E+02  .271E+02  .254E+02  .258E+02  .261E+02  .261E+02  .272E+02
  .257E+02  .256E+02  .252E+02  .244E+02  .272E+02  .271E+02  .271E+02  .270E+02
  .254E+02  .292E+02  .270E+02  .253E+02  .253E+02  .305E+02  .252E+02  .252E+02
  .252E+02  .256E+02  .269E+02  .271E+02  .270E+02  .253E+02  .253E+02  .285E+02
  .328E+02  .329E+02  .270E+02  .270E+02  .256E+02  .256E+02  .247E+02  .247E+02
  .340E+02  .247E+02  .247E+02  .361E+02  .256E+02  .270E+02  .247E+02  .270E+02
  .270E+02  .270E+02  .270E+02  .270E+02  .270E+02  .252E+02  .270E+02  .270E+02
  .270E+02  .252E+02  .252E+02  .252E+02  .270E+02  .270E+02  .270E+02  .270E+02
  .270E+02  .270E+02  .000E+00  .000E+00  .000E+00  .000E+00  .000E+00  .000E+00
  .000E+00  .000E+00  .000E+00  .000E+00  .000E+00  .000E+00  .000E+00  .000E+00
  .000E+00  .000E+00  .000E+00  .000E+00
  .252E+02  .247E+02  .256E+02  .252E+02  .256E+02  .247E+02  .252E+02  .247E+02
  .253E+02  .253E+02  .243E+02  .247E+02  .257E+02  .252E+02  .269E+02  .284E+02
  .252E+02  .262E+02  .270E+02  .253E+02  .258E+02  .262E+02  .261E+02  .272E+02
  .260E+02  .256E+02  .248E+02  .293E+02  .271E+02  .271E+02  .271E+02  .281E+02
