Response and Fourier amplitude spectra (86 periods,  .04 - 10.0 sec)   for      
Corrected accelerogram   13220-L3957-14087.         Chan  1:  90 Deg     from   
Uncorrected Accelerogram Data             Processed: 03/28/14, CGS  220at206    
Rcrd of Fri Mar 28, 2014 21:09:28.0 PDT               (Avol1 v0.5, 2/14 CSMIP)  
CSMIP Preliminary Processing            (Origin:  To be determined)             
13220-L3957-14087.                   Start time:  3/29/14, 04:09:28.0 UTC (GPS) 
Station No. 13220   33.678N, 117.753W    Etna    s/n 3957  (3 Chns of  3 at Sta)
Irvine - I5 & Hwy 133                     CGS   Data: Acceleration              
Chan  1:  90 Deg                                                                
Rcrd of Fri Mar 28, 2014 21:09:28.0 PDT    Fri Mar 28, 2014 21:09:28.0 PDT      
Hypocenter:  To be determined.               ML:  To be determined.             
Instr Period =  .0049 sec,  Damping =  .700,  Sensitivity =  .63 v/g            
                        Record length = 67.000 sec.                             
                                     Uncor Max  =   .017 g , at  31.385 sec.    
RMS accel of (uncor) record  =        .   Chn. metadata effective date: 03/23/04
Accelerogram bandpass filtered with 3 dB pts at   .10 and 40.00 cyc/sec         
                 instrument- and baseline-corrected                             
                                                                                
                                                                                
                                                                                
                                                                                
                                                                                
Rcrd of Fri Mar 28, 2014 21:09:28.0 PDT    Fri Mar 28, 2014 21:09:28.0 PDT      
                                                                                
13220-L3957-14087.        Irvine - I5 & Hwy 133   Chan  1:  90 Deg              
                                                                                
13220-L3957-14087.        Irvine - I5 & Hwy 133   Chan  1:  90 Deg              
                                                                                
Units for spectra are inches and sec, except Sa is in fraction of g.            
                                                                                
    1  100    1    3    3  200    1    3    1   24   12 3957    013220   21    0
    4    9   28    0   88    3   29 2014   10    3   9013400   39   21   74  360
13400    1  100    3 3957    1  206  670    2    0    0    0    0    0    0    0
    0    0    3    0 6700    2  303    0   18   20    0    0    3    1    0 6700
    3 6700    4   86    5    3    5    0    0    0    0    0    1    3    1    2
    2    2    4    0   32   99    0    1    0    0    0    1    0    0    0  222
    1    0    0    0
      .005      .700    67.000      .002      .000   627.000      .017    31.385
   206.000      .298      .475      .000     5.000  -999.000     4.000      .000
     2.500     6.234     2.500  -999.000    25.000    30.000  -999.000     -.006
      .014      .020     2.000    15.000    33.678  -117.753      .031      .816
    26.449     -.019      .059    68.000    25.700    36.600    13.500    79.160
     1.000    -1.087      .000  -999.000  -999.000  -999.000  -999.000      .000
      .100      .500     6.300   980.665      .010    67.000    32.786      .000
      .000    40.000      .000    67.000      .010      .100      .000      .000
    31.380    16.273    31.080    -2.164    31.400     -.486      .000      .100
    40.000      .010      .010     -.002      .010      .090      .000      .000
      .053      .280      .039      .045      .031      .003      .000      .000
      .000      .000      .000      .000      .000      .000      .000      .000
      .000      .000      .000      .000
      .000      .020      .050      .100      .200
      .040      .042      .044      .046      .048      .050      .055      .060
      .065      .070      .075      .080      .085      .090      .095      .100
      .110      .120      .130      .140      .150      .160      .170      .180
      .190      .200      .220      .240      .260      .280      .300      .320
      .340      .360      .380      .400      .420      .440      .460      .480
      .500      .550      .600      .650      .700      .750      .800      .850
      .900      .950     1.000     1.100     1.200     1.300     1.400     1.500
     1.600     1.700     1.800     1.900     2.000     2.200     2.400     2.600
     2.800     3.000     3.200     3.400     3.600     3.800     4.000     4.200
     4.400     4.600     4.800     5.000     5.500     6.000     6.500     7.000
     7.500     8.000     8.500     9.000     9.500    10.000      .000      .000
      .000      .000      .000      .000      .000      .000      .000      .000
      .000      .000      .000      .000
Fourier amplitude spectra in in/sec.
  .102E-01  .351E-01  .167E-01  .901E-02  .573E-01  .466E-01  .427E-01  .296E-01
  .177E+00  .202E+00  .300E+00  .352E+00  .797E-01  .367E+00  .220E+00  .305E+00
  .132E+00  .345E+00  .312E+00  .422E+00  .204E+00  .522E+00  .367E+00  .128E+00
  .826E+00  .721E+00  .834E+00  .149E+01  .142E+01  .267E+01  .945E+00  .110E+01
  .935E+00  .634E+00  .180E+01  .328E+01  .170E+01  .319E+01  .308E+01  .523E+00
  .213E+01  .164E+01  .203E+01  .266E+01  .563E+01  .562E+01  .350E+01  .254E+01
  .434E+01  .266E+01  .182E+01  .111E+01  .385E+01  .146E+01  .309E+01  .220E+01
  .879E+00  .719E+00  .108E+01  .272E+01  .359E+01  .173E+01  .592E+00  .932E+00
  .424E+00  .502E+00  .564E+00  .309E+00  .395E+00  .551E+00  .594E+00  .446E+00
  .228E+00  .201E+00  .264E+00  .268E+00  .196E+00  .200E+00  .189E+00  .158E+00
  .137E+00  .108E+00  .759E-01  .538E-01  .418E-01  .328E-01  .000E+00  .000E+00
  .000E+00  .000E+00  .000E+00  .000E+00  .000E+00  .000E+00  .000E+00  .000E+00
  .000E+00  .000E+00  .000E+00  .000E+00
Damping =  .00. Data of Sd,Sv,Sa,Pssv,ttSd,ttSv,ttSa :
  .274E-03  .458E-03  .422E-03  .401E-03  .701E-03  .722E-03  .943E-03  .203E-02
  .199E-02  .264E-02  .502E-02  .506E-02  .291E-02  .563E-02  .923E-02  .662E-02
  .591E-02  .102E-01  .119E-01  .183E-01  .159E-01  .222E-01  .122E-01  .221E-01
  .381E-01  .376E-01  .397E-01  .727E-01  .606E-01  .134E+00  .686E-01  .107E+00
  .763E-01  .693E-01  .130E+00  .228E+00  .150E+00  .231E+00  .228E+00  .921E-01
  .213E+00  .204E+00  .214E+00  .357E+00  .706E+00  .729E+00  .500E+00  .352E+00
  .621E+00  .685E+00  .433E+00  .491E+00  .798E+00  .375E+00  .720E+00  .570E+00
  .439E+00  .339E+00  .412E+00  .950E+00  .116E+01  .778E+00  .522E+00  .435E+00
  .324E+00  .336E+00  .297E+00  .268E+00  .273E+00  .350E+00  .402E+00  .318E+00
  .323E+00  .331E+00  .314E+00  .287E+00  .231E+00  .234E+00  .251E+00  .264E+00
  .254E+00  .235E+00  .241E+00  .241E+00  .238E+00  .234E+00  .000E+00  .000E+00
  .000E+00  .000E+00  .000E+00  .000E+00  .000E+00  .000E+00  .000E+00  .000E+00
  .000E+00  .000E+00  .000E+00  .000E+00
  .141E-01  .398E-01  .328E-01  .265E-01  .603E-01  .603E-01  .868E-01  .179E+00
  .186E+00  .210E+00  .377E+00  .383E+00  .200E+00  .373E+00  .536E+00  .407E+00
  .309E+00  .503E+00  .522E+00  .805E+00  .605E+00  .823E+00  .412E+00  .646E+00
  .123E+01  .108E+01  .112E+01  .184E+01  .147E+01  .301E+01  .143E+01  .189E+01
  .143E+01  .127E+01  .213E+01  .350E+01  .217E+01  .328E+01  .312E+01  .126E+01
  .266E+01  .226E+01  .221E+01  .334E+01  .633E+01  .611E+01  .393E+01  .261E+01
  .434E+01  .449E+01  .275E+01  .288E+01  .425E+01  .180E+01  .322E+01  .240E+01
  .182E+01  .138E+01  .157E+01  .317E+01  .371E+01  .235E+01  .155E+01  .143E+01
  .118E+01  .103E+01  .986E+00  .979E+00  .985E+00  .981E+00  .991E+00  .998E+00
  .992E+00  .983E+00  .971E+00  .955E+00  .916E+00  .877E+00  .861E+00  .858E+00
  .859E+00  .863E+00  .870E+00  .875E+00  .877E+00  .877E+00  .000E+00  .000E+00
  .000E+00  .000E+00  .000E+00  .000E+00  .000E+00  .000E+00  .000E+00  .000E+00
  .000E+00  .000E+00  .000E+00  .000E+00
  .175E-01  .265E-01  .223E-01  .194E-01  .311E-01  .296E-01  .319E-01  .577E-01
  .482E-01  .552E-01  .913E-01  .808E-01  .411E-01  .710E-01  .105E+00  .677E-01
  .499E-01  .722E-01  .721E-01  .957E-01  .724E-01  .887E-01  .433E-01  .697E-01
  .108E+00  .962E-01  .840E-01  .129E+00  .916E-01  .174E+00  .780E-01  .106E+00
  .675E-01  .547E-01  .922E-01  .146E+00  .867E-01  .122E+00  .110E+00  .409E-01
  .873E-01  .691E-01  .609E-01  .864E-01  .147E+00  .132E+00  .799E-01  .498E-01
  .784E-01  .776E-01  .443E-01  .415E-01  .567E-01  .227E-01  .376E-01  .259E-01
  .175E-01  .120E-01  .130E-01  .269E-01  .296E-01  .164E-01  .928E-02  .657E-02
  .423E-02  .382E-02  .297E-02  .237E-02  .215E-02  .248E-02  .257E-02  .184E-02
  .170E-02  .160E-02  .140E-02  .117E-02  .782E-03  .665E-03  .608E-03  .550E-03
  .462E-03  .375E-03  .341E-03  .304E-03  .269E-03  .240E-03  .000E+00  .000E+00
  .000E+00  .000E+00  .000E+00  .000E+00  .000E+00  .000E+00  .000E+00  .000E+00
  .000E+00  .000E+00  .000E+00  .000E+00
  .431E-01  .684E-01  .602E-01  .547E-01  .918E-01  .908E-01  .108E+00  .213E+00
  .193E+00  .237E+00  .421E+00  .397E+00  .215E+00  .393E+00  .610E+00  .416E+00
  .337E+00  .533E+00  .575E+00  .823E+00  .667E+00  .872E+00  .452E+00  .771E+00
  .126E+01  .118E+01  .114E+01  .190E+01  .146E+01  .300E+01  .144E+01  .209E+01
  .141E+01  .121E+01  .215E+01  .358E+01  .224E+01  .330E+01  .311E+01  .121E+01
  .268E+01  .233E+01  .224E+01  .345E+01  .633E+01  .610E+01  .393E+01  .260E+01
  .434E+01  .453E+01  .272E+01  .281E+01  .418E+01  .181E+01  .323E+01  .239E+01
  .172E+01  .125E+01  .144E+01  .314E+01  .363E+01  .222E+01  .137E+01  .105E+01
  .727E+00  .705E+00  .583E+00  .495E+00  .476E+00  .579E+00  .632E+00  .476E+00
  .461E+00  .452E+00  .411E+00  .361E+00  .264E+00  .245E+00  .243E+00  .237E+00
  .213E+00  .184E+00  .178E+00  .168E+00  .157E+00  .147E+00  .000E+00  .000E+00
  .000E+00  .000E+00  .000E+00  .000E+00  .000E+00  .000E+00  .000E+00  .000E+00
  .000E+00  .000E+00  .000E+00  .000E+00
  .314E+02  .314E+02  .287E+02  .287E+02  .309E+02  .309E+02  .258E+02  .274E+02
  .497E+02  .287E+02  .314E+02  .409E+02  .258E+02  .350E+02  .314E+02  .322E+02
  .284E+02  .395E+02  .334E+02  .286E+02  .310E+02  .313E+02  .268E+02  .310E+02
  .334E+02  .298E+02  .290E+02  .365E+02  .612E+02  .362E+02  .285E+02  .314E+02
  .293E+02  .270E+02  .362E+02  .395E+02  .367E+02  .616E+02  .643E+02  .273E+02
  .337E+02  .367E+02  .493E+02  .309E+02  .465E+02  .475E+02  .320E+02  .625E+02
  .668E+02  .388E+02  .337E+02  .389E+02  .581E+02  .350E+02  .506E+02  .583E+02
  .422E+02  .326E+02  .337E+02  .540E+02  .450E+02  .365E+02  .314E+02  .572E+02
  .395E+02  .396E+02  .605E+02  .314E+02  .314E+02  .605E+02  .595E+02  .397E+02
  .385E+02  .385E+02  .386E+02  .386E+02  .528E+02  .483E+02  .372E+02  .373E+02
  .373E+02  .314E+02  .314E+02  .314E+02  .314E+02  .314E+02  .000E+00  .000E+00
  .000E+00  .000E+00  .000E+00  .000E+00  .000E+00  .000E+00  .000E+00  .000E+00
  .000E+00  .000E+00  .000E+00  .000E+00
  .274E+02  .342E+02  .272E+02  .292E+02  .425E+02  .338E+02  .280E+02  .273E+02
  .522E+02  .574E+02  .349E+02  .406E+02  .353E+02  .556E+02  .312E+02  .322E+02
  .284E+02  .395E+02  .333E+02  .286E+02  .310E+02  .306E+02  .268E+02  .310E+02
  .327E+02  .299E+02  .288E+02  .365E+02  .612E+02  .361E+02  .284E+02  .315E+02
  .292E+02  .271E+02  .361E+02  .396E+02  .368E+02  .615E+02  .642E+02  .274E+02
  .338E+02  .368E+02  .492E+02  .425E+02  .463E+02  .447E+02  .318E+02  .614E+02
  .612E+02  .385E+02  .339E+02  .336E+02  .578E+02  .352E+02  .509E+02  .587E+02
  .426E+02  .315E+02  .315E+02  .544E+02  .455E+02  .370E+02  .310E+02  .311E+02
  .311E+02  .311E+02  .311E+02  .311E+02  .311E+02  .311E+02  .311E+02  .311E+02
  .311E+02  .311E+02  .311E+02  .311E+02  .311E+02  .311E+02  .311E+02  .311E+02
  .311E+02  .311E+02  .311E+02  .311E+02  .311E+02  .311E+02  .000E+00  .000E+00
  .000E+00  .000E+00  .000E+00  .000E+00  .000E+00  .000E+00  .000E+00  .000E+00
  .000E+00  .000E+00  .000E+00  .000E+00
  .314E+02  .314E+02  .287E+02  .287E+02  .309E+02  .309E+02  .258E+02  .274E+02
  .497E+02  .287E+02  .314E+02  .409E+02  .258E+02  .350E+02  .314E+02  .322E+02
  .284E+02  .395E+02  .334E+02  .286E+02  .310E+02  .313E+02  .268E+02  .310E+02
  .334E+02  .298E+02  .290E+02  .365E+02  .612E+02  .362E+02  .285E+02  .314E+02
  .293E+02  .270E+02  .362E+02  .395E+02  .367E+02  .616E+02  .643E+02  .273E+02
  .337E+02  .367E+02  .493E+02  .309E+02  .465E+02  .475E+02  .320E+02  .625E+02
  .668E+02  .388E+02  .337E+02  .389E+02  .581E+02  .350E+02  .506E+02  .583E+02
  .422E+02  .326E+02  .337E+02  .540E+02  .450E+02  .365E+02  .314E+02  .572E+02
  .395E+02  .396E+02  .605E+02  .314E+02  .314E+02  .605E+02  .595E+02  .397E+02
  .385E+02  .385E+02  .386E+02  .386E+02  .528E+02  .483E+02  .372E+02  .373E+02
  .373E+02  .314E+02  .314E+02  .314E+02  .314E+02  .314E+02  .000E+00  .000E+00
  .000E+00  .000E+00  .000E+00  .000E+00  .000E+00  .000E+00  .000E+00  .000E+00
  .000E+00  .000E+00  .000E+00  .000E+00
Damping =  .02. Data of Sd,Sv,Sa,Pssv,ttSd,ttSv,ttSa :
  .265E-03  .292E-03  .320E-03  .363E-03  .397E-03  .441E-03  .644E-03  .982E-03
  .111E-02  .162E-02  .188E-02  .163E-02  .204E-02  .271E-02  .298E-02  .301E-02
  .328E-02  .634E-02  .825E-02  .747E-02  .739E-02  .846E-02  .986E-02  .122E-01
  .170E-01  .224E-01  .268E-01  .306E-01  .381E-01  .592E-01  .505E-01  .590E-01
  .476E-01  .545E-01  .740E-01  .750E-01  .863E-01  .104E+00  .967E-01  .760E-01
  .112E+00  .132E+00  .121E+00  .250E+00  .300E+00  .340E+00  .380E+00  .286E+00
  .374E+00  .386E+00  .350E+00  .366E+00  .380E+00  .292E+00  .343E+00  .318E+00
  .302E+00  .319E+00  .366E+00  .568E+00  .774E+00  .576E+00  .474E+00  .374E+00
  .301E+00  .304E+00  .262E+00  .265E+00  .269E+00  .271E+00  .297E+00  .281E+00
  .291E+00  .301E+00  .291E+00  .270E+00  .221E+00  .211E+00  .238E+00  .249E+00
  .241E+00  .232E+00  .237E+00  .238E+00  .236E+00  .233E+00  .000E+00  .000E+00
  .000E+00  .000E+00  .000E+00  .000E+00  .000E+00  .000E+00  .000E+00  .000E+00
  .000E+00  .000E+00  .000E+00  .000E+00
  .129E-01  .151E-01  .195E-01  .224E-01  .260E-01  .346E-01  .553E-01  .825E-01
  .752E-01  .111E+00  .147E+00  .106E+00  .119E+00  .160E+00  .126E+00  .123E+00
  .150E+00  .297E+00  .390E+00  .319E+00  .317E+00  .319E+00  .281E+00  .338E+00
  .465E+00  .648E+00  .790E+00  .733E+00  .947E+00  .135E+01  .111E+01  .966E+00
  .926E+00  .955E+00  .119E+01  .126E+01  .130E+01  .142E+01  .120E+01  .973E+00
  .138E+01  .141E+01  .113E+01  .227E+01  .268E+01  .281E+01  .309E+01  .218E+01
  .266E+01  .251E+01  .219E+01  .223E+01  .204E+01  .153E+01  .160E+01  .158E+01
  .145E+01  .142E+01  .156E+01  .207E+01  .240E+01  .193E+01  .142E+01  .136E+01
  .117E+01  .104E+01  .993E+00  .980E+00  .980E+00  .979E+00  .984E+00  .987E+00
  .983E+00  .975E+00  .964E+00  .950E+00  .914E+00  .881E+00  .865E+00  .861E+00
  .861E+00  .864E+00  .869E+00  .873E+00  .875E+00  .875E+00  .000E+00  .000E+00
  .000E+00  .000E+00  .000E+00  .000E+00  .000E+00  .000E+00  .000E+00  .000E+00
  .000E+00  .000E+00  .000E+00  .000E+00
  .169E-01  .169E-01  .169E-01  .175E-01  .176E-01  .180E-01  .218E-01  .279E-01
  .268E-01  .337E-01  .342E-01  .261E-01  .289E-01  .343E-01  .338E-01  .308E-01
  .277E-01  .450E-01  .503E-01  .391E-01  .337E-01  .340E-01  .348E-01  .385E-01
  .482E-01  .573E-01  .569E-01  .545E-01  .578E-01  .776E-01  .572E-01  .591E-01
  .421E-01  .431E-01  .524E-01  .481E-01  .501E-01  .553E-01  .468E-01  .337E-01
  .457E-01  .445E-01  .344E-01  .606E-01  .627E-01  .619E-01  .609E-01  .406E-01
  .473E-01  .437E-01  .358E-01  .309E-01  .270E-01  .177E-01  .179E-01  .145E-01
  .121E-01  .113E-01  .116E-01  .161E-01  .198E-01  .122E-01  .843E-02  .568E-02
  .393E-02  .346E-02  .262E-02  .236E-02  .214E-02  .193E-02  .190E-02  .163E-02
  .154E-02  .146E-02  .129E-02  .111E-02  .746E-03  .604E-03  .579E-03  .521E-03
  .440E-03  .383E-03  .348E-03  .313E-03  .280E-03  .251E-03  .000E+00  .000E+00
  .000E+00  .000E+00  .000E+00  .000E+00  .000E+00  .000E+00  .000E+00  .000E+00
  .000E+00  .000E+00  .000E+00  .000E+00
  .416E-01  .437E-01  .458E-01  .496E-01  .520E-01  .554E-01  .736E-01  .103E+00
  .107E+00  .145E+00  .157E+00  .128E+00  .151E+00  .189E+00  .197E+00  .189E+00
  .187E+00  .332E+00  .399E+00  .335E+00  .310E+00  .332E+00  .364E+00  .426E+00
  .561E+00  .704E+00  .767E+00  .801E+00  .921E+00  .133E+01  .106E+01  .116E+01
  .880E+00  .952E+00  .122E+01  .118E+01  .129E+01  .149E+01  .132E+01  .995E+00
  .140E+01  .150E+01  .127E+01  .242E+01  .269E+01  .285E+01  .299E+01  .212E+01
  .261E+01  .255E+01  .220E+01  .209E+01  .199E+01  .141E+01  .154E+01  .133E+01
  .119E+01  .118E+01  .128E+01  .188E+01  .243E+01  .164E+01  .124E+01  .905E+00
  .675E+00  .637E+00  .513E+00  .489E+00  .469E+00  .447E+00  .466E+00  .420E+00
  .416E+00  .411E+00  .380E+00  .339E+00  .252E+00  .221E+00  .230E+00  .223E+00
  .202E+00  .182E+00  .175E+00  .166E+00  .156E+00  .146E+00  .000E+00  .000E+00
  .000E+00  .000E+00  .000E+00  .000E+00  .000E+00  .000E+00  .000E+00  .000E+00
  .000E+00  .000E+00  .000E+00  .000E+00
  .309E+02  .314E+02  .314E+02  .314E+02  .314E+02  .314E+02  .309E+02  .268E+02
  .277E+02  .275E+02  .268E+02  .287E+02  .272E+02  .284E+02  .309E+02  .309E+02
  .314E+02  .287E+02  .292E+02  .277E+02  .288E+02  .279E+02  .310E+02  .310E+02
  .310E+02  .295E+02  .314E+02  .295E+02  .280E+02  .278E+02  .277E+02  .314E+02
  .276E+02  .269E+02  .269E+02  .269E+02  .276E+02  .301E+02  .313E+02  .314E+02
  .317E+02  .318E+02  .309E+02  .309E+02  .318E+02  .319E+02  .320E+02  .320E+02
  .320E+02  .321E+02  .337E+02  .333E+02  .436E+02  .350E+02  .421E+02  .325E+02
  .326E+02  .326E+02  .327E+02  .417E+02  .410E+02  .365E+02  .314E+02  .314E+02
  .395E+02  .395E+02  .396E+02  .314E+02  .314E+02  .314E+02  .397E+02  .397E+02
  .385E+02  .385E+02  .385E+02  .386E+02  .388E+02  .372E+02  .372E+02  .372E+02
  .373E+02  .314E+02  .314E+02  .314E+02  .314E+02  .314E+02  .000E+00  .000E+00
  .000E+00  .000E+00  .000E+00  .000E+00  .000E+00  .000E+00  .000E+00  .000E+00
  .000E+00  .000E+00  .000E+00  .000E+00
  .274E+02  .277E+02  .277E+02  .277E+02  .274E+02  .274E+02  .265E+02  .265E+02
  .277E+02  .275E+02  .269E+02  .288E+02  .286E+02  .284E+02  .271E+02  .273E+02
  .284E+02  .288E+02  .292E+02  .274E+02  .289E+02  .278E+02  .268E+02  .283E+02
  .310E+02  .295E+02  .288E+02  .295E+02  .281E+02  .279E+02  .278E+02  .315E+02
  .277E+02  .269E+02  .268E+02  .268E+02  .275E+02  .300E+02  .274E+02  .274E+02
  .318E+02  .317E+02  .307E+02  .311E+02  .344E+02  .317E+02  .318E+02  .318E+02
  .318E+02  .323E+02  .335E+02  .336E+02  .433E+02  .333E+02  .315E+02  .315E+02
  .315E+02  .315E+02  .315E+02  .412E+02  .405E+02  .316E+02  .310E+02  .311E+02
  .311E+02  .311E+02  .311E+02  .311E+02  .311E+02  .311E+02  .311E+02  .311E+02
  .311E+02  .311E+02  .311E+02  .311E+02  .311E+02  .311E+02  .311E+02  .311E+02
  .311E+02  .311E+02  .311E+02  .311E+02  .311E+02  .311E+02  .000E+00  .000E+00
  .000E+00  .000E+00  .000E+00  .000E+00  .000E+00  .000E+00  .000E+00  .000E+00
  .000E+00  .000E+00  .000E+00  .000E+00
  .309E+02  .314E+02  .314E+02  .314E+02  .314E+02  .314E+02  .309E+02  .268E+02
  .277E+02  .275E+02  .268E+02  .287E+02  .271E+02  .284E+02  .309E+02  .309E+02
  .314E+02  .287E+02  .292E+02  .277E+02  .288E+02  .279E+02  .310E+02  .310E+02
  .310E+02  .295E+02  .314E+02  .295E+02  .280E+02  .278E+02  .277E+02  .314E+02
