Response and Fourier amplitude spectra (82 periods,  .04 -  8.0 sec)   for      
Corrected accelerogram   13916-L1379-14087.03       Chan  1: 360 Deg     from   
Uncorrected Accelerogram Data             Processed: 03/28/14, CGS  916au003    
Rcrd of Fri Mar 28, 2014 21:09:35.0 PDT               (Avol1 v0.5, 2/14 CSMIP)  
CSMIP Preliminary Processing            (Origin:  To be determined)             
13916-L1379-14087.03                 Start time:  3/29/14, 04:09:35.0 UTC (GPS) 
Station No. 13916   33.895N, 117.322W    Etna    s/n 1379  (3 Chns of  3 at Sta)
Riverside - Van Buren & Trautwein         CGS   Data: Acceleration              
Chan  1: 360 Deg                                                                
Rcrd of Fri Mar 28, 2014 21:09:35.0 PDT    Fri Mar 28, 2014 21:09:35.0 PDT      
Hypocenter:  To be determined.               ML:  To be determined.             
Instr Period =  .0109 sec,  Damping =  .650,  Sensitivity =  .63 v/g            
                        Record length = 57.000 sec.                             
                                     Uncor Max  =   .009 g , at  25.380 sec.    
RMS accel of (uncor) record  =        .   Chn. metadata effective date: 12/04/02
Accelerogram bandpass filtered with 3 dB pts at   .13 and 40.00 cyc/sec         
                 instrument- and baseline-corrected                             
                                                                                
                                                                                
                                                                                
                                                                                
                                                                                
Rcrd of Fri Mar 28, 2014 21:09:35.0 PDT    Fri Mar 28, 2014 21:09:35.0 PDT      
                                                                                
13916-L1379-14087.03      Riverside - Van Buren & Trautwein   Chan  1: 360 Deg  
                                                                                
13916-L1379-14087.03      Riverside - Van Buren & Trautwein   Chan  1: 360 Deg  
                                                                                
Units for spectra are inches and sec, except Sa is in fraction of g.            
                                                                                
    1  100    1    3    3  200    1    3    1   24   12 1379    013916    1    0
    4    9   35    0   88    3   29 2014   10    3  36011400   39   33   74  360
11400    1  100    3 1379    1    3  570    2    0    0    0    0    0    0    0
    0    0    3    011400    1  303    0   18    4    0    0    3    1    011400
    311400    4   82    5    3    5    0    0    0    0    0    1    3    1    2
    2    2    4    0   32   99    0    5    0    0    0    1    0    0   64  222
    1    0    2    0
      .011      .650    57.000      .001      .000   625.000      .009    25.380
    91.700      .298      .477      .000     5.000  -999.000     4.000      .000
     2.500   -12.484     2.500   685.000    25.000    30.000  -999.000      .004
     -.001     -.005     2.000    15.000    33.895  -117.322      .018      .470
    25.571     -.027      .018   538.000    25.700    26.700    13.400    75.560
     1.000    -1.520      .000  -999.000  -999.000  -999.000  -999.000      .000
      .100      .500     6.300   980.665      .005    57.000    14.595      .000
      .000    40.000      .000    57.000      .005      .125      .000      .000
    25.380     9.270    25.340     -.276    25.385     -.042      .000      .125
    40.000      .005      .005      .001      .005      .012      .000      .000
      .039      .120      .017      .010      .003      .000      .000      .000
      .000      .000      .000      .000      .000      .000      .000      .000
      .000      .000      .000      .000
      .000      .020      .050      .100      .200
      .040      .042      .044      .046      .048      .050      .055      .060
      .065      .070      .075      .080      .085      .090      .095      .100
      .110      .120      .130      .140      .150      .160      .170      .180
      .190      .200      .220      .240      .260      .280      .300      .320
      .340      .360      .380      .400      .420      .440      .460      .480
      .500      .550      .600      .650      .700      .750      .800      .850
      .900      .950     1.000     1.100     1.200     1.300     1.400     1.500
     1.600     1.700     1.800     1.900     2.000     2.200     2.400     2.600
     2.800     3.000     3.200     3.400     3.600     3.800     4.000     4.200
     4.400     4.600     4.800     5.000     5.500     6.000     6.500     7.000
     7.500     8.000      .000      .000      .000      .000      .000      .000
      .000      .000      .000      .000      .000      .000      .000      .000
      .000      .000      .000      .000
Fourier amplitude spectra in in/sec.
  .272E-01  .746E-02  .123E-01  .889E-01  .559E-01  .239E-01  .956E-01  .257E+00
  .785E-01  .178E+00  .159E+00  .577E+00  .188E+00  .123E+00  .157E+00  .107E+00
  .269E+00  .144E+01  .455E+00  .352E+00  .463E+00  .710E+00  .790E+00  .249E+00
  .691E+00  .186E+00  .935E+00  .117E+01  .372E+00  .169E+00  .378E+00  .975E-01
  .201E+00  .444E+00  .365E+00  .569E+00  .368E+00  .559E+00  .790E-01  .465E+00
  .162E+00  .289E+00  .259E+00  .146E+00  .342E+00  .316E+00  .280E+00  .389E+00
  .216E+00  .203E+00  .163E+00  .297E+00  .320E+00  .152E+00  .145E+00  .283E+00
  .168E+00  .107E+00  .124E-01  .415E-01  .716E-01  .590E-01  .875E-01  .211E+00
  .938E-01  .186E+00  .977E-01  .622E-01  .456E-01  .486E-01  .610E-01  .554E-01
  .395E-01  .339E-01  .417E-01  .498E-01  .450E-01  .379E-01  .273E-01  .209E-01
  .161E-01  .107E-01  .000E+00  .000E+00  .000E+00  .000E+00  .000E+00  .000E+00
  .000E+00  .000E+00  .000E+00  .000E+00  .000E+00  .000E+00  .000E+00  .000E+00
  .000E+00  .000E+00  .000E+00  .000E+00
Damping =  .00. Data of Sd,Sv,Sa,Pssv,ttSd,ttSv,ttSa :
  .379E-03  .446E-03  .501E-03  .793E-03  .697E-03  .627E-03  .888E-03  .266E-02
  .137E-02  .294E-02  .305E-02  .772E-02  .349E-02  .418E-02  .447E-02  .394E-02
  .625E-02  .284E-01  .199E-01  .938E-02  .143E-01  .194E-01  .235E-01  .161E-01
  .227E-01  .143E-01  .335E-01  .547E-01  .172E-01  .154E-01  .224E-01  .160E-01
  .149E-01  .294E-01  .233E-01  .410E-01  .297E-01  .397E-01  .244E-01  .382E-01
  .270E-01  .287E-01  .334E-01  .360E-01  .493E-01  .405E-01  .558E-01  .675E-01
  .545E-01  .404E-01  .492E-01  .578E-01  .673E-01  .340E-01  .331E-01  .676E-01
  .428E-01  .341E-01  .228E-01  .192E-01  .290E-01  .356E-01  .485E-01  .872E-01
  .703E-01  .923E-01  .632E-01  .397E-01  .315E-01  .334E-01  .428E-01  .408E-01
  .389E-01  .365E-01  .394E-01  .412E-01  .422E-01  .426E-01  .359E-01  .317E-01
  .346E-01  .321E-01  .000E+00  .000E+00  .000E+00  .000E+00  .000E+00  .000E+00
  .000E+00  .000E+00  .000E+00  .000E+00  .000E+00  .000E+00  .000E+00  .000E+00
  .000E+00  .000E+00  .000E+00  .000E+00
  .442E-01  .536E-01  .666E-01  .105E+00  .710E-01  .665E-01  .995E-01  .273E+00
  .128E+00  .242E+00  .247E+00  .602E+00  .254E+00  .276E+00  .285E+00  .230E+00
  .343E+00  .148E+01  .950E+00  .418E+00  .589E+00  .765E+00  .874E+00  .567E+00
  .744E+00  .435E+00  .957E+00  .145E+01  .446E+00  .371E+00  .484E+00  .335E+00
  .283E+00  .510E+00  .388E+00  .651E+00  .429E+00  .568E+00  .309E+00  .506E+00
  .379E+00  .342E+00  .342E+00  .330E+00  .447E+00  .344E+00  .451E+00  .496E+00
  .391E+00  .295E+00  .326E+00  .331E+00  .352E+00  .169E+00  .153E+00  .283E+00
  .192E+00  .163E+00  .125E+00  .121E+00  .115E+00  .150E+00  .162E+00  .213E+00
  .183E+00  .198E+00  .153E+00  .115E+00  .107E+00  .106E+00  .105E+00  .104E+00
  .104E+00  .104E+00  .106E+00  .107E+00  .104E+00  .105E+00  .106E+00  .105E+00
  .104E+00  .105E+00  .000E+00  .000E+00  .000E+00  .000E+00  .000E+00  .000E+00
  .000E+00  .000E+00  .000E+00  .000E+00  .000E+00  .000E+00  .000E+00  .000E+00
  .000E+00  .000E+00  .000E+00  .000E+00
  .242E-01  .259E-01  .265E-01  .383E-01  .309E-01  .257E-01  .300E-01  .755E-01
  .331E-01  .613E-01  .555E-01  .123E+00  .495E-01  .528E-01  .506E-01  .403E-01
  .528E-01  .202E+00  .120E+00  .490E-01  .649E-01  .775E-01  .833E-01  .509E-01
  .644E-01  .365E-01  .709E-01  .971E-01  .260E-01  .201E-01  .254E-01  .160E-01
  .132E-01  .232E-01  .165E-01  .262E-01  .172E-01  .210E-01  .118E-01  .169E-01
  .110E-01  .969E-02  .948E-02  .871E-02  .103E-01  .737E-02  .891E-02  .955E-02
  .688E-02  .458E-02  .503E-02  .489E-02  .478E-02  .206E-02  .173E-02  .307E-02
  .171E-02  .121E-02  .719E-03  .544E-03  .740E-03  .752E-03  .861E-03  .132E-02
  .917E-03  .105E-02  .631E-03  .351E-03  .249E-03  .237E-03  .274E-03  .237E-03
  .205E-03  .177E-03  .175E-03  .169E-03  .143E-03  .121E-03  .870E-04  .662E-04
  .629E-04  .512E-04  .000E+00  .000E+00  .000E+00  .000E+00  .000E+00  .000E+00
  .000E+00  .000E+00  .000E+00  .000E+00  .000E+00  .000E+00  .000E+00  .000E+00
  .000E+00  .000E+00  .000E+00  .000E+00
  .596E-01  .668E-01  .716E-01  .108E+00  .912E-01  .788E-01  .101E+00  .278E+00
  .132E+00  .264E+00  .256E+00  .606E+00  .258E+00  .292E+00  .295E+00  .248E+00
  .357E+00  .149E+01  .961E+00  .421E+00  .598E+00  .762E+00  .870E+00  .563E+00
  .752E+00  .448E+00  .958E+00  .143E+01  .416E+00  .345E+00  .469E+00  .314E+00
  .276E+00  .513E+00  .386E+00  .644E+00  .444E+00  .567E+00  .334E+00  .499E+00
  .339E+00  .327E+00  .349E+00  .348E+00  .443E+00  .340E+00  .438E+00  .499E+00
  .380E+00  .267E+00  .309E+00  .330E+00  .352E+00  .164E+00  .149E+00  .283E+00
  .168E+00  .126E+00  .795E-01  .636E-01  .910E-01  .102E+00  .127E+00  .211E+00
  .158E+00  .193E+00  .124E+00  .733E-01  .551E-01  .553E-01  .672E-01  .611E-01
  .555E-01  .499E-01  .516E-01  .518E-01  .482E-01  .446E-01  .347E-01  .285E-01
  .290E-01  .252E-01  .000E+00  .000E+00  .000E+00  .000E+00  .000E+00  .000E+00
  .000E+00  .000E+00  .000E+00  .000E+00  .000E+00  .000E+00  .000E+00  .000E+00
  .000E+00  .000E+00  .000E+00  .000E+00
  .254E+02  .258E+02  .294E+02  .361E+02  .254E+02  .258E+02  .540E+02  .349E+02
  .221E+02  .254E+02  .268E+02  .441E+02  .323E+02  .260E+02  .310E+02  .260E+02
  .334E+02  .274E+02  .309E+02  .464E+02  .440E+02  .377E+02  .533E+02  .298E+02
  .455E+02  .278E+02  .453E+02  .341E+02  .261E+02  .304E+02  .280E+02  .296E+02
  .456E+02  .419E+02  .493E+02  .459E+02  .299E+02  .527E+02  .266E+02  .466E+02
  .260E+02  .297E+02  .304E+02  .266E+02  .343E+02  .275E+02  .304E+02  .354E+02
  .403E+02  .288E+02  .321E+02  .379E+02  .503E+02  .333E+02  .551E+02  .561E+02
  .571E+02  .442E+02  .309E+02  .271E+02  .488E+02  .309E+02  .311E+02  .561E+02
  .373E+02  .542E+02  .414E+02  .453E+02  .514E+02  .517E+02  .504E+02  .490E+02
  .475E+02  .393E+02  .393E+02  .394E+02  .538E+02  .493E+02  .475E+02  .356E+02
  .356E+02  .356E+02  .000E+00  .000E+00  .000E+00  .000E+00  .000E+00  .000E+00
  .000E+00  .000E+00  .000E+00  .000E+00  .000E+00  .000E+00  .000E+00  .000E+00
  .000E+00  .000E+00  .000E+00  .000E+00
  .251E+02  .258E+02  .296E+02  .359E+02  .237E+02  .274E+02  .539E+02  .349E+02
  .221E+02  .254E+02  .268E+02  .451E+02  .323E+02  .261E+02  .310E+02  .260E+02
  .334E+02  .274E+02  .309E+02  .463E+02  .441E+02  .376E+02  .533E+02  .297E+02
  .461E+02  .276E+02  .453E+02  .342E+02  .262E+02  .309E+02  .281E+02  .295E+02
  .458E+02  .420E+02  .492E+02  .448E+02  .300E+02  .521E+02  .265E+02  .455E+02
  .259E+02  .293E+02  .266E+02  .267E+02  .342E+02  .273E+02  .310E+02  .352E+02
  .401E+02  .272E+02  .334E+02  .393E+02  .500E+02  .329E+02  .401E+02  .565E+02
  .358E+02  .313E+02  .307E+02  .256E+02  .256E+02  .313E+02  .307E+02  .555E+02
  .379E+02  .534E+02  .438E+02  .301E+02  .256E+02  .256E+02  .256E+02  .256E+02
  .256E+02  .253E+02  .253E+02  .253E+02  .253E+02  .253E+02  .253E+02  .253E+02
  .253E+02  .253E+02  .000E+00  .000E+00  .000E+00  .000E+00  .000E+00  .000E+00
  .000E+00  .000E+00  .000E+00  .000E+00  .000E+00  .000E+00  .000E+00  .000E+00
  .000E+00  .000E+00  .000E+00  .000E+00
  .254E+02  .258E+02  .294E+02  .361E+02  .254E+02  .258E+02  .540E+02  .349E+02
  .221E+02  .254E+02  .268E+02  .441E+02  .323E+02  .260E+02  .310E+02  .260E+02
  .334E+02  .274E+02  .309E+02  .464E+02  .440E+02  .377E+02  .533E+02  .298E+02
  .455E+02  .278E+02  .453E+02  .341E+02  .261E+02  .304E+02  .280E+02  .296E+02
  .456E+02  .419E+02  .493E+02  .459E+02  .299E+02  .527E+02  .266E+02  .466E+02
  .260E+02  .297E+02  .304E+02  .266E+02  .343E+02  .275E+02  .304E+02  .354E+02
  .403E+02  .288E+02  .321E+02  .379E+02  .503E+02  .333E+02  .551E+02  .561E+02
  .571E+02  .442E+02  .309E+02  .271E+02  .488E+02  .309E+02  .311E+02  .561E+02
  .373E+02  .542E+02  .414E+02  .453E+02  .514E+02  .517E+02  .504E+02  .490E+02
  .475E+02  .393E+02  .393E+02  .394E+02  .538E+02  .493E+02  .475E+02  .356E+02
  .356E+02  .356E+02  .000E+00  .000E+00  .000E+00  .000E+00  .000E+00  .000E+00
  .000E+00  .000E+00  .000E+00  .000E+00  .000E+00  .000E+00  .000E+00  .000E+00
  .000E+00  .000E+00  .000E+00  .000E+00
Damping =  .02. Data of Sd,Sv,Sa,Pssv,ttSd,ttSv,ttSa :
  .181E-03  .222E-03  .307E-03  .320E-03  .312E-03  .338E-03  .437E-03  .552E-03
  .615E-03  .121E-02  .122E-02  .166E-02  .173E-02  .221E-02  .291E-02  .304E-02
  .467E-02  .952E-02  .702E-02  .566E-02  .734E-02  .883E-02  .880E-02  .914E-02
  .993E-02  .709E-02  .931E-02  .195E-01  .967E-02  .886E-02  .139E-01  .100E-01
  .765E-02  .985E-02  .120E-01  .175E-01  .176E-01  .188E-01  .197E-01  .238E-01
  .237E-01  .227E-01  .250E-01  .301E-01  .312E-01  .319E-01  .372E-01  .361E-01
  .324E-01  .313E-01  .300E-01  .373E-01  .344E-01  .297E-01  .277E-01  .336E-01
  .320E-01  .285E-01  .220E-01  .177E-01  .210E-01  .329E-01  .426E-01  .446E-01
  .529E-01  .583E-01  .449E-01  .357E-01  .286E-01  .263E-01  .317E-01  .308E-01
  .323E-01  .325E-01  .349E-01  .360E-01  .316E-01  .331E-01  .294E-01  .304E-01
  .322E-01  .302E-01  .000E+00  .000E+00  .000E+00  .000E+00  .000E+00  .000E+00
  .000E+00  .000E+00  .000E+00  .000E+00  .000E+00  .000E+00  .000E+00  .000E+00
  .000E+00  .000E+00  .000E+00  .000E+00
  .222E-01  .171E-01  .216E-01  .231E-01  .343E-01  .242E-01  .423E-01  .429E-01
  .528E-01  .957E-01  .926E-01  .114E+00  .114E+00  .150E+00  .181E+00  .172E+00
  .251E+00  .484E+00  .336E+00  .260E+00  .315E+00  .361E+00  .338E+00  .325E+00
  .330E+00  .225E+00  .257E+00  .516E+00  .261E+00  .226E+00  .300E+00  .231E+00
  .148E+00  .169E+00  .203E+00  .303E+00  .288E+00  .284E+00  .271E+00  .324E+00
  .328E+00  .276E+00  .282E+00  .267E+00  .272E+00  .308E+00  .317E+00  .307E+00
  .255E+00  .257E+00  .240E+00  .227E+00  .194E+00  .153E+00  .137E+00  .158E+00
  .157E+00  .146E+00  .122E+00  .119E+00  .115E+00  .138E+00  .151E+00  .167E+00
  .153E+00  .128E+00  .126E+00  .109E+00  .107E+00  .106E+00  .105E+00  .104E+00
  .103E+00  .104E+00  .105E+00  .105E+00  .104E+00  .104E+00  .105E+00  .105E+00
  .104E+00  .105E+00  .000E+00  .000E+00  .000E+00  .000E+00  .000E+00  .000E+00
  .000E+00  .000E+00  .000E+00  .000E+00  .000E+00  .000E+00  .000E+00  .000E+00
  .000E+00  .000E+00  .000E+00  .000E+00
  .116E-01  .129E-01  .163E-01  .155E-01  .138E-01  .138E-01  .147E-01  .157E-01
  .149E-01  .251E-01  .222E-01  .266E-01  .246E-01  .280E-01  .330E-01  .311E-01
  .395E-01  .675E-01  .425E-01  .295E-01  .333E-01  .353E-01  .312E-01  .289E-01
  .281E-01  .181E-01  .197E-01  .347E-01  .147E-01  .116E-01  .158E-01  .100E-01
  .677E-02  .778E-02  .849E-02  .112E-01  .102E-01  .991E-02  .951E-02  .106E-01
  .970E-02  .769E-02  .711E-02  .728E-02  .651E-02  .580E-02  .595E-02  .512E-02
  .410E-02  .356E-02  .307E-02  .315E-02  .245E-02  .180E-02  .145E-02  .153E-02
  .128E-02  .101E-02  .697E-03  .501E-03  .539E-03  .697E-03  .759E-03  .676E-03
  .692E-03  .665E-03  .451E-03  .319E-03  .227E-03  .186E-03  .203E-03  .179E-03
  .171E-03  .158E-03  .156E-03  .148E-03  .107E-03  .946E-04  .714E-04  .649E-04
  .592E-04  .489E-04  .000E+00  .000E+00  .000E+00  .000E+00  .000E+00  .000E+00
  .000E+00  .000E+00  .000E+00  .000E+00  .000E+00  .000E+00  .000E+00  .000E+00
  .000E+00  .000E+00  .000E+00  .000E+00
  .284E-01  .332E-01  .439E-01  .437E-01  .408E-01  .424E-01  .499E-01  .578E-01
  .595E-01  .109E+00  .102E+00  .131E+00  .128E+00  .154E+00  .192E+00  .191E+00
  .267E+00  .499E+00  .339E+00  .254E+00  .307E+00  .347E+00  .325E+00  .319E+00
  .328E+00  .223E+00  .266E+00  .511E+00  .234E+00  .199E+00  .290E+00  .197E+00
  .141E+00  .172E+00  .198E+00  .275E+00  .263E+00  .268E+00  .269E+00  .311E+00
  .298E+00  .260E+00  .262E+00  .291E+00  .280E+00  .267E+00  .292E+00  .267E+00
  .226E+00  .207E+00  .188E+00  .213E+00  .180E+00  .143E+00  .124E+00  .141E+00
  .126E+00  .105E+00  .769E-01  .584E-01  .661E-01  .940E-01  .111E+00  .108E+00
  .119E+00  .122E+00  .882E-01  .660E-01  .499E-01  .434E-01  .497E-01  .461E-01
  .461E-01  .444E-01  .457E-01  .453E-01  .361E-01  .347E-01  .284E-01  .273E-01
  .270E-01  .237E-01  .000E+00  .000E+00  .000E+00  .000E+00  .000E+00  .000E+00
  .000E+00  .000E+00  .000E+00  .000E+00  .000E+00  .000E+00  .000E+00  .000E+00
  .000E+00  .000E+00  .000E+00  .000E+00
  .254E+02  .254E+02  .254E+02  .254E+02  .254E+02  .254E+02  .296E+02  .254E+02
  .279E+02  .268E+02  .256E+02  .186E+02  .263E+02  .261E+02  .258E+02  .260E+02
  .264E+02  .266E+02  .187E+02  .187E+02  .262E+02  .260E+02  .259E+02  .297E+02
  .313E+02  .189E+02  .298E+02  .281E+02  .259E+02  .299E+02  .280E+02  .268E+02
  .256E+02  .256E+02  .257E+02  .279E+02  .278E+02  .266E+02  .257E+02  .257E+02
  .258E+02  .258E+02  .259E+02  .266E+02  .266E+02  .275E+02  .272E+02  .311E+02
  .278E+02  .274E+02  .270E+02  .374E+02  .325E+02  .320E+02  .320E+02  .366E+02
  .315E+02  .316E+02  .309E+02  .271E+02  .316E+02  .309E+02  .311E+02  .341E+02
  .359E+02  .361E+02  .413E+02  .304E+02  .306E+02  .517E+02  .504E+02  .408E+02
  .409E+02  .393E+02  .393E+02  .394E+02  .507E+02  .493E+02  .474E+02  .355E+02
  .356E+02  .356E+02  .000E+00  .000E+00  .000E+00  .000E+00  .000E+00  .000E+00
  .000E+00  .000E+00  .000E+00  .000E+00  .000E+00  .000E+00  .000E+00  .000E+00
  .000E+00  .000E+00  .000E+00  .000E+00
  .287E+02  .287E+02  .254E+02  .278E+02  .278E+02  .255E+02  .296E+02  .286E+02
  .279E+02  .268E+02  .258E+02  .186E+02  .263E+02  .257E+02  .258E+02  .260E+02
  .263E+02  .266E+02  .188E+02  .188E+02  .262E+02  .260E+02  .260E+02  .297E+02
  .314E+02  .297E+02  .299E+02  .280E+02  .259E+02  .273E+02  .279E+02  .268E+02
  .268E+02  .255E+02  .258E+02  .268E+02  .273E+02  .267E+02  .256E+02  .256E+02
  .259E+02  .259E+02  .260E+02  .267E+02  .265E+02  .265E+02  .266E+02  .275E+02
  .272E+02  .272E+02  .268E+02  .365E+02  .334E+02  .323E+02  .256E+02  .363E+02
  .319E+02  .313E+02  .313E+02  .256E+02  .256E+02  .313E+02  .307E+02  .307E+02
  .307E+02  .370E+02  .358E+02  .300E+02  .256E+02  .256E+02  .256E+02  .256E+02
  .256E+02  .253E+02  .253E+02  .253E+02  .253E+02  .253E+02  .253E+02  .253E+02
  .253E+02  .253E+02  .000E+00  .000E+00  .000E+00  .000E+00  .000E+00  .000E+00
  .000E+00  .000E+00  .000E+00  .000E+00  .000E+00  .000E+00  .000E+00  .000E+00
  .000E+00  .000E+00  .000E+00  .000E+00
  .254E+02  .254E+02  .254E+02  .254E+02  .254E+02  .254E+02  .296E+02  .254E+02
  .280E+02  .268E+02  .256E+02  .186E+02  .263E+02  .261E+02  .258E+02  .260E+02
  .263E+02  .266E+02  .187E+02  .187E+02  .262E+02  .260E+02  .259E+02  .297E+02
  .313E+02  .189E+02  .298E+02  .281E+02  .259E+02  .299E+02  .280E+02  .268E+02
