Response and Fourier amplitude spectra (78 periods,  .04 -  6.0 sec)   for      
Corrected accelerogram   14834-L1648-14087.02       Chan  1: 360 Deg     from   
Uncorrected Accelerogram Data             Processed: 03/28/14, CGS  834pr002    
Rcrd of Fri Mar 28, 2014 21:09:33.0 PDT               (Avol1 v0.5, 2/14 CSMIP)  
CSMIP Preliminary Processing            (Origin:  To be determined)             
14834-L1648-14087.02                 Start time:  3/29/14, 04:09:33.0 UTC (GPS) 
Station No. 14834   33.922N, 118.327W    Etna    s/n 1648  (3 Chns of  3 at Sta)
Hawthorne - Crenshaw & El Segundo         CGS   Data: Acceleration              
Chan  1: 360 Deg                                                                
Rcrd of Fri Mar 28, 2014 21:09:33.0 PDT    Fri Mar 28, 2014 21:09:33.0 PDT      
Hypocenter:  To be determined.               ML:  To be determined.             
Instr Period =  .0106 sec,  Damping =  .660,  Sensitivity =  .63 v/g            
                        Record length = 60.000 sec.                             
                                     Uncor Max  =   .013 g , at  30.870 sec.    
RMS accel of (uncor) record  =        .   Chn. metadata effective date: 11/21/13
Accelerogram bandpass filtered with 3 dB pts at   .30 and 40.00 cyc/sec         
                 instrument- and baseline-corrected                             
                                                                                
                                                                                
                                                                                
                                                                                
                                                                                
Rcrd of Fri Mar 28, 2014 21:09:33.0 PDT    Fri Mar 28, 2014 21:09:33.0 PDT      
                                                                                
14834-L1648-14087.02      Hawthorne - Crenshaw & El Segundo   Chan  1: 360 Deg  
                                                                                
14834-L1648-14087.02      Hawthorne - Crenshaw & El Segundo   Chan  1: 360 Deg  
                                                                                
Units for spectra are inches and sec, except Sa is in fraction of g.            
                                                                                
    1  100    1    3    3  200    1    3    1   24   12 1648    014834    1    0
    4    9   33    0   88    3   29 2014   10    3  36014600   39   33   74  360
14600    1  100    3 1648    1    2  730    2    0    0    0    0    0    0    0
    0    0    3    012000    1  303    0   18    4    0    0    3    1    012000
    312000    4   78    1    3    5    0    0    0    0    0    1    3    1    2
    2    2    4    0   32   99    0    5    0    0    0    1    0    0   64  222
    1    0    2    0
      .011      .660    73.000      .002      .000   626.000      .013    30.870
    94.700      .298      .476      .000     5.000  -999.000     4.000      .000
     2.500    -1.990     2.500  -999.000    25.000    30.000  -999.000     -.004
      .003      .007     2.000    15.000    33.922  -118.327      .033      .677
    20.736     -.025      .039    17.000    25.200    42.600    13.600    79.160
     1.000     1.639      .000  -999.000  -999.000  -999.000  -999.000      .000
      .100      .500     6.300   980.665      .005    60.000    15.072     -.004
      .000    40.000      .000    60.000      .005      .300      .000      .000
    30.865    12.866    30.520     1.055    31.100      .195      .000      .300
    40.000      .005      .005      .000      .005      .075      .000      .000
      .042      .180      .038      .030      .017      .002      .000      .000
      .000      .000      .000      .000      .000      .000      .000      .000
      .000      .000      .000      .000
      .050
      .040      .042      .044      .046      .048      .050      .055      .060
      .065      .070      .075      .080      .085      .090      .095      .100
      .110      .120      .130      .140      .150      .160      .170      .180
      .190      .200      .220      .240      .260      .280      .300      .320
      .340      .360      .380      .400      .420      .440      .460      .480
      .500      .550      .600      .650      .700      .750      .800      .850
      .900      .950     1.000     1.100     1.200     1.300     1.400     1.500
     1.600     1.700     1.800     1.900     2.000     2.200     2.400     2.600
     2.800     3.000     3.200     3.400     3.600     3.800     4.000     4.200
     4.400     4.600     4.800     5.000     5.500     6.000      .000      .000
      .000      .000      .000      .000      .000      .000      .000      .000
      .000      .000      .000      .000      .000      .000      .000      .000
      .000      .000      .000      .000
Fourier amplitude spectra in in/sec.
  .000E+00  .000E+00  .000E+00  .000E+00  .000E+00  .000E+00  .000E+00  .000E+00
  .000E+00  .000E+00  .000E+00  .000E+00  .000E+00  .000E+00  .000E+00  .000E+00
  .000E+00  .000E+00  .000E+00  .000E+00  .000E+00  .000E+00  .000E+00  .000E+00
  .000E+00  .000E+00  .000E+00  .000E+00  .000E+00  .000E+00  .000E+00  .000E+00
  .000E+00  .000E+00  .000E+00  .000E+00  .000E+00  .000E+00  .000E+00  .000E+00
  .000E+00  .000E+00  .000E+00  .000E+00  .000E+00  .000E+00  .000E+00  .000E+00
  .000E+00  .000E+00  .000E+00  .000E+00  .000E+00  .000E+00  .000E+00  .000E+00
  .000E+00  .000E+00  .000E+00  .000E+00  .000E+00  .000E+00  .000E+00  .000E+00
  .000E+00  .000E+00  .000E+00  .000E+00  .000E+00  .000E+00  .000E+00  .000E+00
  .000E+00  .000E+00  .000E+00  .000E+00  .000E+00  .000E+00  .000E+00  .000E+00
  .000E+00  .000E+00  .000E+00  .000E+00  .000E+00  .000E+00  .000E+00  .000E+00
  .000E+00  .000E+00  .000E+00  .000E+00  .000E+00  .000E+00  .000E+00  .000E+00
  .000E+00  .000E+00  .000E+00  .000E+00
Damping =  .05. Data of Sd,Sv,Sa,Pssv,ttSd,ttSv,ttSa :
  .213E-03  .238E-03  .262E-03  .289E-03  .320E-03  .346E-03  .430E-03  .535E-03
  .587E-03  .703E-03  .809E-03  .839E-03  .108E-02  .132E-02  .139E-02  .167E-02
  .202E-02  .250E-02  .307E-02  .406E-02  .531E-02  .697E-02  .102E-01  .134E-01
  .138E-01  .152E-01  .172E-01  .159E-01  .223E-01  .272E-01  .249E-01  .249E-01
  .335E-01  .401E-01  .425E-01  .466E-01  .575E-01  .722E-01  .789E-01  .713E-01
  .625E-01  .643E-01  .657E-01  .760E-01  .987E-01  .128E+00  .128E+00  .119E+00
  .119E+00  .130E+00  .150E+00  .247E+00  .267E+00  .216E+00  .250E+00  .265E+00
  .292E+00  .236E+00  .219E+00  .251E+00  .223E+00  .189E+00  .188E+00  .176E+00
  .155E+00  .134E+00  .141E+00  .139E+00  .147E+00  .126E+00  .100E+00  .955E-01
  .906E-01  .887E-01  .891E-01  .892E-01  .881E-01  .865E-01  .000E+00  .000E+00
  .000E+00  .000E+00  .000E+00  .000E+00  .000E+00  .000E+00  .000E+00  .000E+00
  .000E+00  .000E+00  .000E+00  .000E+00  .000E+00  .000E+00  .000E+00  .000E+00
  .000E+00  .000E+00  .000E+00  .000E+00
  .633E-02  .672E-02  .724E-02  .774E-02  .879E-02  .951E-02  .125E-01  .169E-01
  .255E-01  .291E-01  .386E-01  .415E-01  .522E-01  .673E-01  .608E-01  .641E-01
  .724E-01  .886E-01  .120E+00  .172E+00  .173E+00  .218E+00  .301E+00  .423E+00
  .426E+00  .445E+00  .468E+00  .403E+00  .500E+00  .557E+00  .497E+00  .480E+00
  .634E+00  .708E+00  .663E+00  .661E+00  .770E+00  .973E+00  .111E+01  .100E+01
  .832E+00  .763E+00  .639E+00  .704E+00  .950E+00  .114E+01  .111E+01  .927E+00
  .791E+00  .765E+00  .837E+00  .137E+01  .142E+01  .109E+01  .111E+01  .125E+01
  .121E+01  .102E+01  .914E+00  .102E+01  .857E+00  .713E+00  .597E+00  .595E+00
  .574E+00  .547E+00  .517E+00  .495E+00  .482E+00  .475E+00  .470E+00  .465E+00
  .459E+00  .453E+00  .447E+00  .444E+00  .441E+00  .438E+00  .000E+00  .000E+00
  .000E+00  .000E+00  .000E+00  .000E+00  .000E+00  .000E+00  .000E+00  .000E+00
  .000E+00  .000E+00  .000E+00  .000E+00  .000E+00  .000E+00  .000E+00  .000E+00
  .000E+00  .000E+00  .000E+00  .000E+00
  .136E-01  .138E-01  .139E-01  .140E-01  .142E-01  .142E-01  .145E-01  .152E-01
  .142E-01  .147E-01  .147E-01  .134E-01  .153E-01  .166E-01  .158E-01  .171E-01
  .171E-01  .178E-01  .187E-01  .214E-01  .242E-01  .279E-01  .364E-01  .425E-01
  .394E-01  .391E-01  .364E-01  .284E-01  .339E-01  .357E-01  .284E-01  .249E-01
  .297E-01  .318E-01  .302E-01  .299E-01  .335E-01  .384E-01  .383E-01  .318E-01
  .258E-01  .219E-01  .188E-01  .185E-01  .207E-01  .235E-01  .205E-01  .170E-01
  .151E-01  .149E-01  .155E-01  .209E-01  .191E-01  .131E-01  .131E-01  .121E-01
  .117E-01  .840E-02  .697E-02  .717E-02  .576E-02  .406E-02  .341E-02  .272E-02
  .207E-02  .156E-02  .144E-02  .127E-02  .120E-02  .933E-03  .687E-03  .599E-03
  .524E-03  .462E-03  .422E-03  .390E-03  .321E-03  .268E-03  .000E+00  .000E+00
  .000E+00  .000E+00  .000E+00  .000E+00  .000E+00  .000E+00  .000E+00  .000E+00
  .000E+00  .000E+00  .000E+00  .000E+00  .000E+00  .000E+00  .000E+00  .000E+00
  .000E+00  .000E+00  .000E+00  .000E+00
  .335E-01  .356E-01  .374E-01  .395E-01  .419E-01  .435E-01  .491E-01  .561E-01
  .567E-01  .631E-01  .678E-01  .659E-01  .801E-01  .919E-01  .917E-01  .105E+00
  .115E+00  .131E+00  .149E+00  .182E+00  .222E+00  .274E+00  .379E+00  .468E+00
  .457E+00  .478E+00  .490E+00  .417E+00  .540E+00  .611E+00  .521E+00  .488E+00
  .618E+00  .700E+00  .702E+00  .732E+00  .860E+00  .103E+01  .108E+01  .934E+00
  .785E+00  .735E+00  .688E+00  .735E+00  .886E+00  .108E+01  .100E+01  .883E+00
  .828E+00  .863E+00  .945E+00  .141E+01  .140E+01  .104E+01  .112E+01  .111E+01
  .114E+01  .870E+00  .766E+00  .831E+00  .702E+00  .540E+00  .493E+00  .426E+00
  .349E+00  .280E+00  .278E+00  .258E+00  .256E+00  .208E+00  .158E+00  .143E+00
  .129E+00  .121E+00  .117E+00  .112E+00  .101E+00  .906E-01  .000E+00  .000E+00
  .000E+00  .000E+00  .000E+00  .000E+00  .000E+00  .000E+00  .000E+00  .000E+00
  .000E+00  .000E+00  .000E+00  .000E+00  .000E+00  .000E+00  .000E+00  .000E+00
  .000E+00  .000E+00  .000E+00  .000E+00
  .309E+02  .309E+02  .309E+02  .309E+02  .309E+02  .309E+02  .309E+02  .309E+02
  .309E+02  .309E+02  .309E+02  .297E+02  .309E+02  .309E+02  .309E+02  .309E+02
  .309E+02  .309E+02  .309E+02  .262E+02  .307E+02  .309E+02  .309E+02  .309E+02
  .310E+02  .310E+02  .310E+02  .310E+02  .298E+02  .306E+02  .307E+02  .311E+02
  .311E+02  .311E+02  .311E+02  .312E+02  .312E+02  .312E+02  .312E+02  .313E+02
  .308E+02  .342E+02  .323E+02  .324E+02  .324E+02  .321E+02  .318E+02  .319E+02
  .308E+02  .308E+02  .309E+02  .431E+02  .432E+02  .319E+02  .320E+02  .428E+02
  .416E+02  .332E+02  .332E+02  .411E+02  .412E+02  .316E+02  .316E+02  .316E+02
  .316E+02  .317E+02  .430E+02  .404E+02  .423E+02  .423E+02  .317E+02  .317E+02
  .317E+02  .311E+02  .311E+02  .311E+02  .311E+02  .311E+02  .000E+00  .000E+00
  .000E+00  .000E+00  .000E+00  .000E+00  .000E+00  .000E+00  .000E+00  .000E+00
  .000E+00  .000E+00  .000E+00  .000E+00  .000E+00  .000E+00  .000E+00  .000E+00
  .000E+00  .000E+00  .000E+00  .000E+00
  .309E+02  .309E+02  .309E+02  .309E+02  .258E+02  .258E+02  .251E+02  .251E+02
  .271E+02  .258E+02  .251E+02  .251E+02  .259E+02  .259E+02  .259E+02  .243E+02
  .309E+02  .309E+02  .257E+02  .262E+02  .262E+02  .308E+02  .309E+02  .309E+02
  .309E+02  .310E+02  .310E+02  .310E+02  .310E+02  .306E+02  .306E+02  .310E+02
  .310E+02  .310E+02  .310E+02  .310E+02  .311E+02  .309E+02  .309E+02  .309E+02
  .309E+02  .343E+02  .404E+02  .405E+02  .323E+02  .323E+02  .320E+02  .321E+02
  .310E+02  .488E+02  .427E+02  .428E+02  .435E+02  .437E+02  .316E+02  .425E+02
  .420E+02  .318E+02  .414E+02  .415E+02  .408E+02  .331E+02  .331E+02  .313E+02
  .314E+02  .314E+02  .314E+02  .314E+02  .314E+02  .314E+02  .315E+02  .315E+02
  .315E+02  .315E+02  .315E+02  .305E+02  .305E+02  .305E+02  .000E+00  .000E+00
  .000E+00  .000E+00  .000E+00  .000E+00  .000E+00  .000E+00  .000E+00  .000E+00
  .000E+00  .000E+00  .000E+00  .000E+00  .000E+00  .000E+00  .000E+00  .000E+00
  .000E+00  .000E+00  .000E+00  .000E+00
  .309E+02  .309E+02  .309E+02  .309E+02  .309E+02  .309E+02  .309E+02  .309E+02
  .309E+02  .309E+02  .309E+02  .297E+02  .309E+02  .309E+02  .309E+02  .309E+02
  .309E+02  .309E+02  .309E+02  .262E+02  .307E+02  .309E+02  .309E+02  .309E+02
  .310E+02  .310E+02  .310E+02  .310E+02  .297E+02  .306E+02  .307E+02  .311E+02
  .311E+02  .311E+02  .311E+02  .312E+02  .312E+02  .312E+02  .312E+02  .313E+02
  .308E+02  .342E+02  .323E+02  .324E+02  .324E+02  .321E+02  .318E+02  .319E+02
  .308E+02  .308E+02  .309E+02  .431E+02  .432E+02  .319E+02  .319E+02  .428E+02
  .416E+02  .331E+02  .332E+02  .410E+02  .403E+02  .315E+02  .316E+02  .316E+02
  .316E+02  .316E+02  .429E+02  .404E+02  .422E+02  .422E+02  .316E+02  .316E+02
  .316E+02  .316E+02  .309E+02  .309E+02  .309E+02  .309E+02  .000E+00  .000E+00
  .000E+00  .000E+00  .000E+00  .000E+00  .000E+00  .000E+00  .000E+00  .000E+00
  .000E+00  .000E+00  .000E+00  .000E+00  .000E+00  .000E+00  .000E+00  .000E+00
  .000E+00  .000E+00  .000E+00  .000E+00
/&   ----------  End of spectral data for channel  1  ----------
Response and Fourier amplitude spectra (78 periods,  .04 -  6.0 sec)   for      
Corrected accelerogram   14834-L1648-14087.02       Chan  2:  Up         from   
Uncorrected Accelerogram Data             Processed: 03/28/14, CGS  834pr002    
Rcrd of Fri Mar 28, 2014 21:09:33.0 PDT               (Avol1 v0.5, 2/14 CSMIP)  
CSMIP Preliminary Processing            (Origin:  To be determined)             
14834-L1648-14087.02                 Start time:  3/29/14, 04:09:33.0 UTC (GPS) 
Station No. 14834   33.922N, 118.327W    Etna    s/n 1648  (3 Chns of  3 at Sta)
Hawthorne - Crenshaw & El Segundo         CGS   Data: Acceleration              
Chan  2:  Up                                                                    
Rcrd of Fri Mar 28, 2014 21:09:33.0 PDT    Fri Mar 28, 2014 21:09:33.0 PDT      
Hypocenter:  To be determined.               ML:  To be determined.             
Instr Period =  .0106 sec,  Damping =  .660,  Sensitivity =  .63 v/g            
                        Record length = 60.000 sec.                             
                                     Uncor Max  =   .015 g , at  58.770 sec.    
RMS accel of (uncor) record  =        .   Chn. metadata effective date: 11/21/13
Accelerogram bandpass filtered with 3 dB pts at   .30 and 40.00 cyc/sec         
                 instrument- and baseline-corrected                             
                                                                                
                                                                                
                                                                                
                                                                                
                                                                                
Rcrd of Fri Mar 28, 2014 21:09:33.0 PDT    Fri Mar 28, 2014 21:09:33.0 PDT      
                                                                                
14834-L1648-14087.02      Hawthorne - Crenshaw & El Segundo   Chan  2:  Up      
                                                                                
14834-L1648-14087.02      Hawthorne - Crenshaw & El Segundo   Chan  2:  Up      
                                                                                
Units for spectra are inches and sec, except Sa is in fraction of g.            
                                                                                
    2  100    2    3    3  200    1    3    1   24   12 1648    014834    1    0
    4    9   33    0   88    3   29 2014   10    3  50014600   39   33   74  360
14600    1  100    3 1648    1    2  730    2    0    0    0    0    0    0    0
    0    0    3    012000    1  303    0   18    4    0    0    3    1    012000
    312000    4   78    1    3    5    0    0    0    0    0    1    3    1    2
    2    2    4    0   32   99    0    5    0    0    0    1    0    0   64  222
    1    0    2    0
      .011      .660    73.000      .001      .000   626.000      .015    58.770
    94.400      .298      .476      .000     5.000  -999.000     4.000      .000
     2.500    17.035     2.500  -999.000    25.000    30.000  -999.000     -.005
     -.005      .000     2.000    15.000    33.922  -118.327      .054      .680
    12.672     -.033      .032    17.000    25.200    42.600    13.600    79.160
     1.000     1.120      .000  -999.000  -999.000  -999.000  -999.000      .000
      .100      .500     6.300   980.665      .005    60.000    15.024     -.001
      .000    40.000      .000    60.000      .005      .300      .000      .000
    20.705     7.188    49.920      .331    38.795     -.073      .000      .300
    40.000      .005      .005      .000      .005      .032      .000      .000
      .026      .200      .023      .013      .005      .001      .000      .000
      .000      .000      .000      .000      .000      .000      .000      .000
      .000      .000      .000      .000
      .050
      .040      .042      .044      .046      .048      .050      .055      .060
      .065      .070      .075      .080      .085      .090      .095      .100
      .110      .120      .130      .140      .150      .160      .170      .180
      .190      .200      .220      .240      .260      .280      .300      .320
      .340      .360      .380      .400      .420      .440      .460      .480
      .500      .550      .600      .650      .700      .750      .800      .850
      .900      .950     1.000     1.100     1.200     1.300     1.400     1.500
     1.600     1.700     1.800     1.900     2.000     2.200     2.400     2.600
     2.800     3.000     3.200     3.400     3.600     3.800     4.000     4.200
     4.400     4.600     4.800     5.000     5.500     6.000      .000      .000
      .000      .000      .000      .000      .000      .000      .000      .000
      .000      .000      .000      .000      .000      .000      .000      .000
      .000      .000      .000      .000
Fourier amplitude spectra in in/sec.
  .000E+00  .000E+00  .000E+00  .000E+00  .000E+00  .000E+00  .000E+00  .000E+00
  .000E+00  .000E+00  .000E+00  .000E+00  .000E+00  .000E+00  .000E+00  .000E+00
  .000E+00  .000E+00  .000E+00  .000E+00  .000E+00  .000E+00  .000E+00  .000E+00
  .000E+00  .000E+00  .000E+00  .000E+00  .000E+00  .000E+00  .000E+00  .000E+00
  .000E+00  .000E+00  .000E+00  .000E+00  .000E+00  .000E+00  .000E+00  .000E+00
  .000E+00  .000E+00  .000E+00  .000E+00  .000E+00  .000E+00  .000E+00  .000E+00
  .000E+00  .000E+00  .000E+00  .000E+00  .000E+00  .000E+00  .000E+00  .000E+00
  .000E+00  .000E+00  .000E+00  .000E+00  .000E+00  .000E+00  .000E+00  .000E+00
  .000E+00  .000E+00  .000E+00  .000E+00  .000E+00  .000E+00  .000E+00  .000E+00
  .000E+00  .000E+00  .000E+00  .000E+00  .000E+00  .000E+00  .000E+00  .000E+00
  .000E+00  .000E+00  .000E+00  .000E+00  .000E+00  .000E+00  .000E+00  .000E+00
  .000E+00  .000E+00  .000E+00  .000E+00  .000E+00  .000E+00  .000E+00  .000E+00
  .000E+00  .000E+00  .000E+00  .000E+00
Damping =  .05. Data of Sd,Sv,Sa,Pssv,ttSd,ttSv,ttSa :
  .118E-03  .129E-03  .139E-03  .154E-03  .177E-03  .195E-03  .239E-03  .313E-03
  .390E-03  .526E-03  .650E-03  .103E-02  .148E-02  .185E-02  .183E-02  .228E-02
  .248E-02  .236E-02  .289E-02  .356E-02  .430E-02  .506E-02  .623E-02  .753E-02
  .910E-02  .101E-01  .753E-02  .827E-02  .101E-01  .105E-01  .111E-01  .138E-01
  .163E-01  .166E-01  .167E-01  .168E-01  .250E-01  .276E-01  .274E-01  .311E-01
