Response and Fourier amplitude spectra (86 periods,  .04 - 10.0 sec)   for      
Corrected accelerogram   14828-L1191-14087.16       Chan  1: 360 Deg     from   
Uncorrected Accelerogram Data             Processed: 03/28/14, CGS  828sr016    
Rcrd of Fri Mar 28, 2014 21:09:21.0 PDT               (Avol1 v0.5, 2/14 CSMIP)  
CSMIP Preliminary Processing            (Origin:  To be determined)             
14828-L1191-14087.16                 Start time:  3/29/14, 04:09:21.0 UTC (GPS) 
Station No. 14828   33.939N, 118.099W    Etna    s/n 1191  (3 Chns of  3 at Sta)
Downey - Florence & I605                  CGS   Data: Acceleration              
Chan  1: 360 Deg                                                                
Rcrd of Fri Mar 28, 2014 21:09:21.0 PDT    Fri Mar 28, 2014 21:09:21.0 PDT      
Hypocenter:  To be determined.               ML:  To be determined.             
Instr Period =  .0107 sec,  Damping =  .660,  Sensitivity =  .63 v/g            
                        Record length = 81.000 sec.                             
                                     Uncor Max  =   .117 g , at  28.420 sec.    
RMS accel of (uncor) record  =        .   Chn. metadata effective date: 01/16/02
Accelerogram bandpass filtered with 3 dB pts at   .10 and 40.00 cyc/sec         
                 instrument- and baseline-corrected                             
                                                                                
                                                                                
                                                                                
                                                                                
                                                                                
Rcrd of Fri Mar 28, 2014 21:09:21.0 PDT    Fri Mar 28, 2014 21:09:21.0 PDT      
                                                                                
14828-L1191-14087.16      Downey - Florence & I605    Chan  1: 360 Deg          
                                                                                
14828-L1191-14087.16      Downey - Florence & I605    Chan  1: 360 Deg          
                                                                                
Units for spectra are inches and sec, except Sa is in fraction of g.            
                                                                                
    1  100    1    3    3  200    1    3    1   24   12 1191    014828    1    0
    4    9   21    0   88    3   29 2014   10    3  36016200   39   24   74  360
16200    1  100    3 1191    1   16  810    2    0    0    0    0    0    0    0
    0    0    3    0 8100    2  303    0   18    4    0    0    3    1    0 8100
    3 8100    4   86    5    3    5    0    0    0    0    0    1    3    1    2
    2    2    4    0   32   99    0    5    0    0    0    1    0    0    0  222
    1    0    0    0
      .011      .660    81.000      .008      .000   627.000      .117    28.420
    93.700      .298      .475      .000     5.000  -999.000     4.000      .000
     2.500    10.702     2.500  -999.000    25.000    30.000  -999.000     -.001
      .000      .001     2.000    15.000    33.939  -118.099      .173      .702
     4.049     -.039      .041    37.000    25.500    49.900    14.100    76.460
     1.000    -1.049      .000  -999.000  -999.000  -999.000  -999.000      .000
      .100      .500     6.300   980.665      .010    81.000    14.913      .000
      .000    40.000      .000    81.000      .010      .100      .000      .000
    28.420   113.336    29.780    -3.275    29.990     -.336      .000      .100
    40.000      .010      .010     -.001     2.780      .154      .000      .000
      .417      .180      .357      .182      .021      .002      .000      .000
      .000      .000      .000      .000      .000      .000      .000      .000
      .000      .000      .000      .000
      .000      .020      .050      .100      .200
      .040      .042      .044      .046      .048      .050      .055      .060
      .065      .070      .075      .080      .085      .090      .095      .100
      .110      .120      .130      .140      .150      .160      .170      .180
      .190      .200      .220      .240      .260      .280      .300      .320
      .340      .360      .380      .400      .420      .440      .460      .480
      .500      .550      .600      .650      .700      .750      .800      .850
      .900      .950     1.000     1.100     1.200     1.300     1.400     1.500
     1.600     1.700     1.800     1.900     2.000     2.200     2.400     2.600
     2.800     3.000     3.200     3.400     3.600     3.800     4.000     4.200
     4.400     4.600     4.800     5.000     5.500     6.000     6.500     7.000
     7.500     8.000     8.500     9.000     9.500    10.000      .000      .000
      .000      .000      .000      .000      .000      .000      .000      .000
      .000      .000      .000      .000
Fourier amplitude spectra in in/sec.
  .123E+00  .121E+00  .921E-01  .153E+00  .811E-01  .227E+00  .299E+00  .353E-01
  .347E+00  .192E+00  .905E-01  .285E+00  .281E+01  .151E+01  .217E+01  .346E+01
  .250E+01  .815E+01  .312E+01  .703E+01  .409E+01  .232E+01  .846E+01  .750E+01
  .765E+01  .174E+02  .556E+01  .374E+01  .264E+02  .827E+01  .470E+01  .473E+01
  .244E+01  .156E+01  .341E+01  .467E+01  .108E+02  .498E+01  .512E+01  .406E+01
  .591E+01  .269E+01  .658E+01  .555E+01  .227E+01  .572E+01  .622E+00  .118E+01
  .394E+01  .301E+01  .404E+01  .258E+01  .310E+01  .131E+01  .201E+01  .139E+01
  .666E+00  .172E+01  .218E+01  .246E+01  .326E+01  .727E+00  .577E+00  .863E+00
  .589E+00  .368E+00  .173E+00  .794E+00  .556E+00  .297E+00  .294E+00  .308E+00
  .173E+00  .169E+00  .185E+00  .275E+00  .311E+00  .374E+00  .331E+00  .217E+00
  .194E+00  .906E-01  .268E-01  .420E-01  .403E-01  .277E-01  .000E+00  .000E+00
  .000E+00  .000E+00  .000E+00  .000E+00  .000E+00  .000E+00  .000E+00  .000E+00
  .000E+00  .000E+00  .000E+00  .000E+00
Damping =  .00. Data of Sd,Sv,Sa,Pssv,ttSd,ttSv,ttSa :
  .197E-02  .236E-02  .267E-02  .287E-02  .285E-02  .370E-02  .515E-02  .598E-02
  .838E-02  .819E-02  .152E-01  .221E-01  .443E-01  .341E-01  .506E-01  .601E-01
  .447E-01  .157E+00  .964E-01  .210E+00  .132E+00  .139E+00  .233E+00  .246E+00
  .251E+00  .601E+00  .231E+00  .219E+00  .110E+01  .424E+00  .319E+00  .278E+00
  .156E+00  .159E+00  .278E+00  .407E+00  .764E+00  .429E+00  .430E+00  .312E+00
  .519E+00  .279E+00  .668E+00  .588E+00  .489E+00  .715E+00  .287E+00  .368E+00
  .651E+00  .462E+00  .645E+00  .470E+00  .629E+00  .461E+00  .579E+00  .350E+00
  .400E+00  .467E+00  .879E+00  .779E+00  .106E+01  .383E+00  .343E+00  .357E+00
  .379E+00  .269E+00  .312E+00  .466E+00  .440E+00  .231E+00  .228E+00  .276E+00
  .277E+00  .207E+00  .211E+00  .271E+00  .364E+00  .365E+00  .402E+00  .325E+00
  .265E+00  .239E+00  .202E+00  .169E+00  .164E+00  .162E+00  .000E+00  .000E+00
  .000E+00  .000E+00  .000E+00  .000E+00  .000E+00  .000E+00  .000E+00  .000E+00
  .000E+00  .000E+00  .000E+00  .000E+00
  .145E+00  .163E+00  .181E+00  .166E+00  .214E+00  .240E+00  .399E+00  .300E+00
  .546E+00  .489E+00  .105E+01  .132E+01  .320E+01  .218E+01  .312E+01  .373E+01
  .252E+01  .823E+01  .443E+01  .943E+01  .556E+01  .509E+01  .856E+01  .862E+01
  .810E+01  .189E+02  .651E+01  .570E+01  .267E+02  .103E+02  .655E+01  .545E+01
  .384E+01  .338E+01  .455E+01  .637E+01  .113E+02  .605E+01  .582E+01  .423E+01
  .652E+01  .415E+01  .697E+01  .568E+01  .437E+01  .600E+01  .227E+01  .279E+01
  .482E+01  .310E+01  .405E+01  .269E+01  .329E+01  .229E+01  .260E+01  .153E+01
  .159E+01  .172E+01  .309E+01  .256E+01  .337E+01  .139E+01  .133E+01  .132E+01
  .133E+01  .134E+01  .134E+01  .134E+01  .133E+01  .133E+01  .132E+01  .131E+01
  .130E+01  .129E+01  .128E+01  .127E+01  .126E+01  .126E+01  .127E+01  .127E+01
  .128E+01  .129E+01  .129E+01  .129E+01  .129E+01  .129E+01  .000E+00  .000E+00
  .000E+00  .000E+00  .000E+00  .000E+00  .000E+00  .000E+00  .000E+00  .000E+00
  .000E+00  .000E+00  .000E+00  .000E+00
  .126E+00  .137E+00  .141E+00  .139E+00  .127E+00  .151E+00  .174E+00  .170E+00
  .203E+00  .171E+00  .276E+00  .353E+00  .627E+00  .431E+00  .574E+00  .615E+00
  .378E+00  .112E+01  .584E+00  .110E+01  .601E+00  .557E+00  .824E+00  .777E+00
  .710E+00  .154E+01  .487E+00  .389E+00  .166E+01  .553E+00  .362E+00  .277E+00
  .138E+00  .126E+00  .197E+00  .260E+00  .443E+00  .226E+00  .208E+00  .138E+00
  .212E+00  .944E-01  .190E+00  .142E+00  .102E+00  .130E+00  .458E-01  .521E-01
  .822E-01  .523E-01  .659E-01  .397E-01  .447E-01  .279E-01  .302E-01  .159E-01
  .160E-01  .165E-01  .278E-01  .221E-01  .270E-01  .809E-02  .610E-02  .540E-02
  .494E-02  .305E-02  .312E-02  .412E-02  .348E-02  .164E-02  .146E-02  .160E-02
  .146E-02  .100E-02  .935E-03  .111E-02  .123E-02  .104E-02  .974E-03  .679E-03
  .482E-03  .382E-03  .285E-03  .214E-03  .186E-03  .166E-03  .000E+00  .000E+00
  .000E+00  .000E+00  .000E+00  .000E+00  .000E+00  .000E+00  .000E+00  .000E+00
  .000E+00  .000E+00  .000E+00  .000E+00
  .310E+00  .353E+00  .381E+00  .392E+00  .373E+00  .465E+00  .589E+00  .626E+00
  .810E+00  .735E+00  .127E+01  .173E+01  .328E+01  .238E+01  .335E+01  .378E+01
  .255E+01  .824E+01  .466E+01  .943E+01  .554E+01  .548E+01  .860E+01  .859E+01
  .829E+01  .189E+02  .659E+01  .574E+01  .265E+02  .950E+01  .668E+01  .545E+01
  .289E+01  .278E+01  .460E+01  .639E+01  .114E+02  .612E+01  .587E+01  .408E+01
  .653E+01  .319E+01  .699E+01  .568E+01  .439E+01  .599E+01  .225E+01  .272E+01
  .455E+01  .305E+01  .405E+01  .268E+01  .329E+01  .223E+01  .260E+01  .147E+01
  .157E+01  .172E+01  .307E+01  .258E+01  .331E+01  .109E+01  .899E+00  .863E+00
  .850E+00  .563E+00  .613E+00  .861E+00  .769E+00  .382E+00  .358E+00  .413E+00
  .395E+00  .283E+00  .276E+00  .341E+00  .416E+00  .383E+00  .389E+00  .292E+00
  .222E+00  .188E+00  .149E+00  .118E+00  .108E+00  .102E+00  .000E+00  .000E+00
  .000E+00  .000E+00  .000E+00  .000E+00  .000E+00  .000E+00  .000E+00  .000E+00
  .000E+00  .000E+00  .000E+00  .000E+00
  .300E+02  .284E+02  .298E+02  .284E+02  .299E+02  .284E+02  .284E+02  .284E+02
  .283E+02  .283E+02  .284E+02  .284E+02  .319E+02  .296E+02  .293E+02  .338E+02
  .299E+02  .593E+02  .303E+02  .303E+02  .354E+02  .301E+02  .379E+02  .365E+02
  .310E+02  .356E+02  .375E+02  .296E+02  .385E+02  .300E+02  .396E+02  .448E+02
  .299E+02  .431E+02  .399E+02  .341E+02  .526E+02  .419E+02  .357E+02  .302E+02
  .478E+02  .301E+02  .674E+02  .758E+02  .448E+02  .687E+02  .567E+02  .348E+02
  .436E+02  .637E+02  .797E+02  .780E+02  .748E+02  .573E+02  .681E+02  .710E+02
  .522E+02  .810E+02  .660E+02  .765E+02  .772E+02  .630E+02  .505E+02  .807E+02
  .486E+02  .739E+02  .486E+02  .683E+02  .645E+02  .403E+02  .404E+02  .685E+02
  .505E+02  .505E+02  .684E+02  .738E+02  .495E+02  .777E+02  .453E+02  .597E+02
  .504E+02  .400E+02  .400E+02  .401E+02  .300E+02  .300E+02  .000E+00  .000E+00
  .000E+00  .000E+00  .000E+00  .000E+00  .000E+00  .000E+00  .000E+00  .000E+00
  .000E+00  .000E+00  .000E+00  .000E+00
  .299E+02  .298E+02  .299E+02  .763E+02  .284E+02  .521E+02  .298E+02  .299E+02
  .283E+02  .284E+02  .284E+02  .284E+02  .320E+02  .299E+02  .293E+02  .338E+02
  .593E+02  .598E+02  .303E+02  .303E+02  .353E+02  .301E+02  .380E+02  .365E+02
  .311E+02  .356E+02  .375E+02  .298E+02  .382E+02  .299E+02  .397E+02  .445E+02
  .299E+02  .299E+02  .400E+02  .343E+02  .546E+02  .420E+02  .356E+02  .302E+02
  .476E+02  .302E+02  .717E+02  .760E+02  .446E+02  .689E+02  .420E+02  .347E+02
  .402E+02  .635E+02  .794E+02  .783E+02  .763E+02  .570E+02  .678E+02  .301E+02
  .525E+02  .806E+02  .656E+02  .761E+02  .767E+02  .298E+02  .298E+02  .295E+02
  .295E+02  .295E+02  .295E+02  .295E+02  .295E+02  .295E+02  .295E+02  .295E+02
  .295E+02  .295E+02  .295E+02  .295E+02  .295E+02  .298E+02  .298E+02  .298E+02
  .298E+02  .298E+02  .298E+02  .298E+02  .298E+02  .298E+02  .000E+00  .000E+00
  .000E+00  .000E+00  .000E+00  .000E+00  .000E+00  .000E+00  .000E+00  .000E+00
  .000E+00  .000E+00  .000E+00  .000E+00
  .300E+02  .284E+02  .298E+02  .284E+02  .299E+02  .284E+02  .284E+02  .284E+02
  .283E+02  .283E+02  .284E+02  .284E+02  .319E+02  .296E+02  .293E+02  .338E+02
  .299E+02  .593E+02  .303E+02  .303E+02  .354E+02  .301E+02  .379E+02  .365E+02
  .310E+02  .356E+02  .375E+02  .296E+02  .385E+02  .300E+02  .396E+02  .448E+02
  .299E+02  .431E+02  .399E+02  .341E+02  .526E+02  .419E+02  .357E+02  .302E+02
  .478E+02  .301E+02  .674E+02  .758E+02  .448E+02  .687E+02  .567E+02  .348E+02
  .436E+02  .637E+02  .797E+02  .780E+02  .748E+02  .573E+02  .681E+02  .710E+02
  .522E+02  .810E+02  .660E+02  .765E+02  .772E+02  .630E+02  .505E+02  .807E+02
  .486E+02  .739E+02  .486E+02  .683E+02  .645E+02  .403E+02  .404E+02  .685E+02
  .505E+02  .505E+02  .684E+02  .738E+02  .495E+02  .777E+02  .453E+02  .597E+02
  .504E+02  .400E+02  .400E+02  .401E+02  .300E+02  .300E+02  .000E+00  .000E+00
  .000E+00  .000E+00  .000E+00  .000E+00  .000E+00  .000E+00  .000E+00  .000E+00
  .000E+00  .000E+00  .000E+00  .000E+00
Damping =  .02. Data of Sd,Sv,Sa,Pssv,ttSd,ttSv,ttSa :
  .189E-02  .218E-02  .253E-02  .289E-02  .318E-02  .353E-02  .435E-02  .570E-02
  .646E-02  .817E-02  .124E-01  .190E-01  .242E-01  .240E-01  .255E-01  .339E-01
  .351E-01  .644E-01  .637E-01  .983E-01  .884E-01  .101E+00  .151E+00  .179E+00
  .191E+00  .228E+00  .139E+00  .171E+00  .373E+00  .286E+00  .197E+00  .147E+00
  .137E+00  .156E+00  .208E+00  .267E+00  .298E+00  .281E+00  .287E+00  .278E+00
  .267E+00  .243E+00  .270E+00  .229E+00  .298E+00  .275E+00  .223E+00  .247E+00
  .358E+00  .295E+00  .296E+00  .297E+00  .334E+00  .309E+00  .323E+00  .200E+00
  .287E+00  .276E+00  .515E+00  .569E+00  .641E+00  .276E+00  .284E+00  .229E+00
  .291E+00  .231E+00  .243E+00  .308E+00  .259E+00  .200E+00  .196E+00  .203E+00
  .231E+00  .196E+00  .170E+00  .199E+00  .304E+00  .282E+00  .349E+00  .279E+00
  .242E+00  .224E+00  .195E+00  .168E+00  .163E+00  .161E+00  .000E+00  .000E+00
  .000E+00  .000E+00  .000E+00  .000E+00  .000E+00  .000E+00  .000E+00  .000E+00
  .000E+00  .000E+00  .000E+00  .000E+00
  .110E+00  .117E+00  .141E+00  .141E+00  .149E+00  .145E+00  .184E+00  .270E+00
  .418E+00  .460E+00  .807E+00  .108E+01  .144E+01  .144E+01  .156E+01  .167E+01
  .162E+01  .302E+01  .292E+01  .398E+01  .350E+01  .381E+01  .531E+01  .594E+01
  .588E+01  .701E+01  .399E+01  .427E+01  .923E+01  .718E+01  .458E+01  .315E+01
  .338E+01  .336E+01  .382E+01  .415E+01  .460E+01  .469E+01  .424E+01  .381E+01
  .394E+01  .374E+01  .294E+01  .250E+01  .262E+01  .232E+01  .188E+01  .212E+01
  .280E+01  .187E+01  .190E+01  .208E+01  .233E+01  .185E+01  .161E+01  .151E+01
  .143E+01  .145E+01  .186E+01  .193E+01  .205E+01  .137E+01  .132E+01  .131E+01
  .132E+01  .133E+01  .133E+01  .133E+01  .133E+01  .132E+01  .131E+01  .131E+01
  .130E+01  .129E+01  .128E+01  .127E+01  .126E+01  .125E+01  .126E+01  .127E+01
  .128E+01  .128E+01  .129E+01  .129E+01  .129E+01  .129E+01  .000E+00  .000E+00
  .000E+00  .000E+00  .000E+00  .000E+00  .000E+00  .000E+00  .000E+00  .000E+00
  .000E+00  .000E+00  .000E+00  .000E+00
  .121E+00  .127E+00  .134E+00  .140E+00  .141E+00  .144E+00  .147E+00  .162E+00
  .156E+00  .171E+00  .226E+00  .302E+00  .344E+00  .304E+00  .289E+00  .347E+00
  .295E+00  .454E+00  .387E+00  .515E+00  .401E+00  .406E+00  .535E+00  .568E+00
  .542E+00  .585E+00  .292E+00  .302E+00  .564E+00  .375E+00  .223E+00  .147E+00
  .122E+00  .123E+00  .147E+00  .171E+00  .173E+00  .149E+00  .139E+00  .123E+00
  .109E+00  .823E-01  .767E-01  .555E-01  .623E-01  .502E-01  .357E-01  .350E-01
  .452E-01  .334E-01  .303E-01  .251E-01  .237E-01  .187E-01  .168E-01  .910E-02
  .115E-01  .979E-02  .163E-01  .161E-01  .164E-01  .584E-02  .505E-02  .346E-02
  .380E-02  .262E-02  .244E-02  .273E-02  .205E-02  .143E-02  .126E-02  .118E-02
  .122E-02  .952E-03  .755E-03  .815E-03  .103E-02  .805E-03  .848E-03  .588E-03
  .443E-03  .360E-03  .283E-03  .252E-03  .227E-03  .206E-03  .000E+00  .000E+00
  .000E+00  .000E+00  .000E+00  .000E+00  .000E+00  .000E+00  .000E+00  .000E+00
  .000E+00  .000E+00  .000E+00  .000E+00
  .297E+00  .326E+00  .362E+00  .395E+00  .416E+00  .443E+00  .497E+00  .597E+00
  .625E+00  .733E+00  .104E+01  .149E+01  .179E+01  .167E+01  .169E+01  .213E+01
  .201E+01  .337E+01  .308E+01  .441E+01  .370E+01  .398E+01  .558E+01  .624E+01
  .633E+01  .716E+01  .396E+01  .447E+01  .900E+01  .642E+01  .412E+01  .289E+01
  .254E+01  .273E+01  .344E+01  .419E+01  .446E+01  .401E+01  .391E+01  .363E+01
  .336E+01  .278E+01  .282E+01  .222E+01  .268E+01  .231E+01  .175E+01  .182E+01
  .250E+01  .195E+01  .186E+01  .170E+01  .175E+01  .150E+01  .145E+01  .838E+00
  .113E+01  .102E+01  .180E+01  .188E+01  .201E+01  .788E+00  .744E+00  .552E+00
  .652E+00  .483E+00  .478E+00  .570E+00  .452E+00  .330E+00  .308E+00  .304E+00
  .330E+00  .268E+00  .222E+00  .250E+00  .347E+00  .296E+00  .337E+00  .250E+00
  .203E+00  .176E+00  .144E+00  .117E+00  .108E+00  .101E+00  .000E+00  .000E+00
  .000E+00  .000E+00  .000E+00  .000E+00  .000E+00  .000E+00  .000E+00  .000E+00
  .000E+00  .000E+00  .000E+00  .000E+00
  .284E+02  .284E+02  .284E+02  .284E+02  .284E+02  .284E+02  .284E+02  .284E+02
  .284E+02  .283E+02  .284E+02  .284E+02  .284E+02  .284E+02  .290E+02  .298E+02
  .299E+02  .300E+02  .285E+02  .300E+02  .285E+02  .300E+02  .300E+02  .301E+02
  .303E+02  .304E+02  .304E+02  .296E+02  .303E+02  .300E+02  .292E+02  .292E+02
  .299E+02  .299E+02  .299E+02  .299E+02  .310E+02  .304E+02  .302E+02  .302E+02
  .303E+02  .301E+02  .325E+02  .405E+02  .405E+02  .418E+02  .418E+02  .349E+02
  .364E+02  .370E+02  .416E+02  .338E+02  .334E+02  .335E+02  .561E+02  .600E+02
  .522E+02  .404E+02  .516E+02  .557E+02  .550E+02  .544E+02  .504E+02  .495E+02
  .486E+02  .739E+02  .486E+02  .477E+02  .502E+02  .324E+02  .404E+02  .503E+02
  .504E+02  .505E+02  .684E+02  .686E+02  .496E+02  .452E+02  .453E+02  .453E+02
  .400E+02  .400E+02  .400E+02  .400E+02  .300E+02  .300E+02  .000E+00  .000E+00
  .000E+00  .000E+00  .000E+00  .000E+00  .000E+00  .000E+00  .000E+00  .000E+00
  .000E+00  .000E+00  .000E+00  .000E+00
  .284E+02  .284E+02  .284E+02  .284E+02  .284E+02  .284E+02  .284E+02  .299E+02
  .299E+02  .284E+02  .284E+02  .284E+02  .284E+02  .284E+02  .290E+02  .298E+02
  .299E+02  .300E+02  .285E+02  .300E+02  .285E+02  .301E+02  .301E+02  .301E+02
  .302E+02  .304E+02  .304E+02  .289E+02  .304E+02  .299E+02  .293E+02  .293E+02
  .299E+02  .299E+02  .299E+02  .306E+02  .311E+02  .303E+02  .303E+02  .302E+02
  .302E+02  .302E+02  .338E+02  .295E+02  .407E+02  .423E+02  .302E+02  .338E+02
  .370E+02  .300E+02  .300E+02  .345E+02  .337E+02  .337E+02  .300E+02  .300E+02
  .298E+02  .298E+02  .521E+02  .553E+02  .555E+02  .298E+02  .298E+02  .295E+02
  .295E+02  .295E+02  .295E+02  .295E+02  .295E+02  .295E+02  .295E+02  .295E+02
  .295E+02  .295E+02  .295E+02  .295E+02  .295E+02  .298E+02  .298E+02  .298E+02
  .298E+02  .298E+02  .298E+02  .298E+02  .298E+02  .298E+02  .000E+00  .000E+00
  .000E+00  .000E+00  .000E+00  .000E+00  .000E+00  .000E+00  .000E+00  .000E+00
  .000E+00  .000E+00  .000E+00  .000E+00
  .284E+02  .284E+02  .284E+02  .284E+02  .284E+02  .284E+02  .284E+02  .284E+02
  .284E+02  .283E+02  .284E+02  .284E+02  .284E+02  .284E+02  .290E+02  .298E+02
  .299E+02  .300E+02  .285E+02  .300E+02  .285E+02  .300E+02  .300E+02  .301E+02
  .303E+02  .303E+02  .304E+02  .296E+02  .303E+02  .300E+02  .292E+02  .292E+02
