Response and Fourier amplitude spectra (86 periods,  .04 - 10.0 sec)   for      
Corrected accelerogram   24611-L1118-14087.32       Chan  1: 360 Deg     from   
Uncorrected Accelerogram Data             Processed: 03/28/14, CGS  611ax032    
Rcrd of Fri Mar 28, 2014 21:09:30.0 PDT               (Avol1 v0.5, 2/14 CSMIP)  
CSMIP Preliminary Processing            (Origin:  To be determined)             
24611-L1118-14087.32                 Start time:  3/29/14, 04:09:30.0 UTC (GPS) 
Station No. 24611   34.059N, 118.247W    Etna    s/n 1118  (3 Chns of  3 at Sta)
Los Angeles - Temple & Hope               CGS   Data: Acceleration              
Chan  1: 360 Deg                                                                
Rcrd of Fri Mar 28, 2014 21:09:30.0 PDT    Fri Mar 28, 2014 21:09:30.0 PDT      
Hypocenter:  To be determined.               ML:  To be determined.             
Instr Period =  .0108 sec,  Damping =  .650,  Sensitivity =  .63 v/g            
                        Record length = 67.000 sec.                             
                                     Uncor Max  =  -.018 g , at  25.375 sec.    
RMS accel of (uncor) record  =        .   Chn. metadata effective date: 04/02/98
Accelerogram bandpass filtered with 3 dB pts at   .10 and 40.00 cyc/sec         
                 instrument- and baseline-corrected                             
                                                                                
                                                                                
                                                                                
                                                                                
                                                                                
Rcrd of Fri Mar 28, 2014 21:09:30.0 PDT    Fri Mar 28, 2014 21:09:30.0 PDT      
                                                                                
24611-L1118-14087.32      Los Angeles - Temple & Hope   Chan  1: 360 Deg        
                                                                                
24611-L1118-14087.32      Los Angeles - Temple & Hope   Chan  1: 360 Deg        
                                                                                
Units for spectra are inches and sec, except Sa is in fraction of g.            
                                                                                
    1  100    1    3    3  200    1    3    1   24   12 1118    024611   21    0
    4    9   30    0   88    3   29 2014   10    3  36013400   39   27   74  360
13400    1  100    3 1118    1   32  670    2    0    0    0    0    0    0    0
    0    0    3    0 6700    2  303    0   18    4    0    0    3    1    0 6700
    3 6700    4   86    5    3    5    0    0    0    0    0    1    3    1    2
    2    2    4    0   32   99    0    5    0    0    0    1    0    0    0  222
    1    0    2    0
      .011      .650    67.000      .002      .000   626.000     -.018    25.375
    92.300      .298      .476      .000     5.000  -999.000     4.000      .000
     2.500     8.473     2.500   376.000    25.000    30.000  -999.000     -.003
      .015      .019     2.000    15.000    34.059  -118.247      .196      .711
     3.627     -.023      .061   117.000    25.400    36.300    12.800    72.860
     1.000    -1.139      .000  -999.000  -999.000  -999.000  -999.000      .000
      .100      .500     6.300   980.665      .010    67.000    14.690      .000
      .000    40.000      .000    67.000      .010      .100      .000      .000
    25.370   -17.336    31.130    -2.141    30.910      .493      .000      .100
    40.000      .010      .010     -.001      .010      .085      .000      .000
      .067      .180      .056      .034      .032      .003      .000      .000
      .000      .000      .000      .000      .000      .000      .000      .000
      .000      .000      .000      .000
      .000      .020      .050      .100      .200
      .040      .042      .044      .046      .048      .050      .055      .060
      .065      .070      .075      .080      .085      .090      .095      .100
      .110      .120      .130      .140      .150      .160      .170      .180
      .190      .200      .220      .240      .260      .280      .300      .320
      .340      .360      .380      .400      .420      .440      .460      .480
      .500      .550      .600      .650      .700      .750      .800      .850
      .900      .950     1.000     1.100     1.200     1.300     1.400     1.500
     1.600     1.700     1.800     1.900     2.000     2.200     2.400     2.600
     2.800     3.000     3.200     3.400     3.600     3.800     4.000     4.200
     4.400     4.600     4.800     5.000     5.500     6.000     6.500     7.000
     7.500     8.000     8.500     9.000     9.500    10.000      .000      .000
      .000      .000      .000      .000      .000      .000      .000      .000
      .000      .000      .000      .000
Fourier amplitude spectra in in/sec.
  .403E-01  .374E-01  .126E+00  .102E+00  .116E+00  .162E+00  .196E+00  .275E+00
  .520E-01  .105E+00  .224E+00  .375E+00  .880E-01  .148E+00  .791E+00  .110E+00
  .784E+00  .115E+01  .583E+00  .746E+00  .108E+01  .723E+00  .745E+00  .513E+00
  .276E+01  .193E+01  .185E+01  .355E+01  .111E+01  .127E+01  .140E+01  .240E+01
  .433E+00  .123E+01  .275E+01  .617E+00  .106E+01  .717E+00  .295E+01  .299E+01
  .320E+01  .175E+01  .442E+00  .186E+01  .393E+01  .338E+01  .390E+01  .552E+01
  .680E+01  .309E+01  .214E+01  .157E+01  .307E+01  .268E+01  .211E+01  .149E+01
  .317E+01  .766E+00  .145E+01  .111E+01  .161E+01  .602E+00  .553E+00  .103E+01
  .720E+00  .723E+00  .101E+01  .249E+00  .654E+00  .599E+00  .386E+00  .222E+00
  .204E+00  .365E+00  .379E+00  .213E+00  .397E+00  .539E+00  .388E+00  .267E+00
  .221E+00  .173E+00  .120E+00  .762E-01  .482E-01  .338E-01  .000E+00  .000E+00
  .000E+00  .000E+00  .000E+00  .000E+00  .000E+00  .000E+00  .000E+00  .000E+00
  .000E+00  .000E+00  .000E+00  .000E+00
Damping =  .00. Data of Sd,Sv,Sa,Pssv,ttSd,ttSv,ttSa :
  .567E-03  .637E-03  .997E-03  .104E-02  .970E-03  .144E-02  .181E-02  .294E-02
  .228E-02  .296E-02  .306E-02  .611E-02  .485E-02  .415E-02  .120E-01  .500E-02
  .142E-01  .230E-01  .149E-01  .173E-01  .339E-01  .229E-01  .300E-01  .495E-01
  .900E-01  .630E-01  .791E-01  .143E+00  .678E-01  .728E-01  .105E+00  .123E+00
  .784E-01  .115E+00  .169E+00  .763E-01  .116E+00  .938E-01  .232E+00  .235E+00
  .277E+00  .238E+00  .158E+00  .323E+00  .481E+00  .485E+00  .607E+00  .750E+00
  .101E+01  .553E+00  .371E+00  .434E+00  .745E+00  .578E+00  .527E+00  .499E+00
  .808E+00  .291E+00  .419E+00  .415E+00  .515E+00  .427E+00  .351E+00  .433E+00
  .393E+00  .440E+00  .512E+00  .330E+00  .388E+00  .448E+00  .330E+00  .291E+00
  .295E+00  .293E+00  .307E+00  .282E+00  .360E+00  .531E+00  .468E+00  .422E+00
  .366E+00  .277E+00  .260E+00  .255E+00  .251E+00  .246E+00  .000E+00  .000E+00
  .000E+00  .000E+00  .000E+00  .000E+00  .000E+00  .000E+00  .000E+00  .000E+00
  .000E+00  .000E+00  .000E+00  .000E+00
  .606E-01  .744E-01  .137E+00  .119E+00  .121E+00  .170E+00  .205E+00  .287E+00
  .192E+00  .238E+00  .240E+00  .458E+00  .301E+00  .235E+00  .791E+00  .288E+00
  .807E+00  .119E+01  .704E+00  .750E+00  .138E+01  .839E+00  .106E+01  .171E+01
  .289E+01  .197E+01  .226E+01  .370E+01  .163E+01  .161E+01  .202E+01  .241E+01
  .152E+01  .199E+01  .277E+01  .117E+01  .154E+01  .129E+01  .316E+01  .306E+01
  .346E+01  .257E+01  .157E+01  .297E+01  .431E+01  .404E+01  .489E+01  .554E+01
  .701E+01  .374E+01  .232E+01  .256E+01  .393E+01  .279E+01  .240E+01  .217E+01
  .317E+01  .137E+01  .147E+01  .164E+01  .167E+01  .159E+01  .149E+01  .116E+01
  .103E+01  .109E+01  .120E+01  .127E+01  .130E+01  .128E+01  .123E+01  .118E+01
  .112E+01  .108E+01  .104E+01  .100E+01  .958E+00  .938E+00  .927E+00  .919E+00
  .905E+00  .889E+00  .877E+00  .867E+00  .861E+00  .855E+00  .000E+00  .000E+00
  .000E+00  .000E+00  .000E+00  .000E+00  .000E+00  .000E+00  .000E+00  .000E+00
  .000E+00  .000E+00  .000E+00  .000E+00
  .362E-01  .369E-01  .527E-01  .503E-01  .430E-01  .587E-01  .613E-01  .835E-01
  .552E-01  .618E-01  .556E-01  .977E-01  .687E-01  .524E-01  .136E+00  .511E-01
  .120E+00  .163E+00  .900E-01  .901E-01  .154E+00  .916E-01  .106E+00  .156E+00
  .255E+00  .161E+00  .167E+00  .254E+00  .103E+00  .949E-01  .119E+00  .123E+00
  .694E-01  .905E-01  .120E+00  .488E-01  .673E-01  .496E-01  .112E+00  .104E+00
  .113E+00  .805E-01  .449E-01  .781E-01  .100E+00  .882E-01  .970E-01  .106E+00
  .127E+00  .627E-01  .380E-01  .367E-01  .529E-01  .350E-01  .275E-01  .227E-01
  .323E-01  .103E-01  .132E-01  .118E-01  .132E-01  .903E-02  .624E-02  .655E-02
  .513E-02  .500E-02  .512E-02  .292E-02  .306E-02  .317E-02  .211E-02  .169E-02
  .156E-02  .142E-02  .136E-02  .115E-02  .122E-02  .151E-02  .113E-02  .880E-03
  .665E-03  .443E-03  .368E-03  .322E-03  .284E-03  .252E-03  .000E+00  .000E+00
  .000E+00  .000E+00  .000E+00  .000E+00  .000E+00  .000E+00  .000E+00  .000E+00
  .000E+00  .000E+00  .000E+00  .000E+00
  .890E-01  .953E-01  .142E+00  .142E+00  .127E+00  .180E+00  .207E+00  .308E+00
  .220E+00  .266E+00  .256E+00  .480E+00  .359E+00  .290E+00  .796E+00  .314E+00
  .811E+00  .120E+01  .719E+00  .775E+00  .142E+01  .900E+00  .111E+01  .173E+01
  .297E+01  .198E+01  .226E+01  .374E+01  .164E+01  .163E+01  .220E+01  .242E+01
  .145E+01  .200E+01  .280E+01  .120E+01  .174E+01  .134E+01  .317E+01  .307E+01
  .349E+01  .272E+01  .166E+01  .312E+01  .432E+01  .406E+01  .477E+01  .555E+01
  .705E+01  .366E+01  .233E+01  .248E+01  .390E+01  .279E+01  .236E+01  .209E+01
  .317E+01  .107E+01  .146E+01  .137E+01  .162E+01  .122E+01  .920E+00  .105E+01
  .882E+00  .922E+00  .101E+01  .611E+00  .677E+00  .741E+00  .518E+00  .435E+00
  .421E+00  .401E+00  .401E+00  .355E+00  .411E+00  .556E+00  .452E+00  .379E+00
  .306E+00  .218E+00  .192E+00  .178E+00  .166E+00  .155E+00  .000E+00  .000E+00
  .000E+00  .000E+00  .000E+00  .000E+00  .000E+00  .000E+00  .000E+00  .000E+00
  .000E+00  .000E+00  .000E+00  .000E+00
  .312E+02  .277E+02  .545E+02  .297E+02  .308E+02  .297E+02  .622E+02  .340E+02
  .278E+02  .265E+02  .281E+02  .322E+02  .254E+02  .257E+02  .647E+02  .249E+02
  .401E+02  .423E+02  .288E+02  .544E+02  .302E+02  .318E+02  .280E+02  .270E+02
  .348E+02  .576E+02  .352E+02  .436E+02  .401E+02  .458E+02  .313E+02  .637E+02
  .272E+02  .340E+02  .622E+02  .349E+02  .309E+02  .349E+02  .589E+02  .644E+02
  .479E+02  .344E+02  .345E+02  .305E+02  .538E+02  .370E+02  .331E+02  .507E+02
  .513E+02  .353E+02  .322E+02  .323E+02  .427E+02  .583E+02  .340E+02  .336E+02
  .658E+02  .365E+02  .654E+02  .443E+02  .652E+02  .346E+02  .365E+02  .499E+02
  .579E+02  .462E+02  .680E+02  .349E+02  .628E+02  .528E+02  .514E+02  .309E+02
  .309E+02  .309E+02  .620E+02  .309E+02  .622E+02  .639E+02  .564E+02  .478E+02
  .481E+02  .453E+02  .309E+02  .309E+02  .309E+02  .309E+02  .000E+00  .000E+00
  .000E+00  .000E+00  .000E+00  .000E+00  .000E+00  .000E+00  .000E+00  .000E+00
  .000E+00  .000E+00  .000E+00  .000E+00
  .312E+02  .271E+02  .540E+02  .383E+02  .644E+02  .639E+02  .623E+02  .488E+02
  .277E+02  .265E+02  .281E+02  .286E+02  .249E+02  .257E+02  .658E+02  .250E+02
  .572E+02  .423E+02  .289E+02  .556E+02  .381E+02  .318E+02  .285E+02  .270E+02
  .349E+02  .578E+02  .353E+02  .437E+02  .383E+02  .454E+02  .313E+02  .651E+02
  .271E+02  .319E+02  .615E+02  .350E+02  .299E+02  .350E+02  .588E+02  .645E+02
  .473E+02  .343E+02  .346E+02  .307E+02  .536E+02  .368E+02  .329E+02  .509E+02
  .551E+02  .351E+02  .319E+02  .320E+02  .424E+02  .593E+02  .337E+02  .339E+02
  .662E+02  .307E+02  .641E+02  .362E+02  .597E+02  .311E+02  .311E+02  .311E+02
  .311E+02  .311E+02  .311E+02  .311E+02  .311E+02  .311E+02  .311E+02  .311E+02
  .311E+02  .311E+02  .311E+02  .311E+02  .311E+02  .311E+02  .311E+02  .311E+02
  .311E+02  .311E+02  .311E+02  .311E+02  .311E+02  .311E+02  .000E+00  .000E+00
  .000E+00  .000E+00  .000E+00  .000E+00  .000E+00  .000E+00  .000E+00  .000E+00
  .000E+00  .000E+00  .000E+00  .000E+00
  .312E+02  .277E+02  .545E+02  .297E+02  .308E+02  .297E+02  .622E+02  .340E+02
  .278E+02  .265E+02  .281E+02  .322E+02  .254E+02  .257E+02  .647E+02  .249E+02
  .401E+02  .423E+02  .288E+02  .544E+02  .302E+02  .318E+02  .280E+02  .270E+02
  .348E+02  .576E+02  .352E+02  .436E+02  .401E+02  .458E+02  .313E+02  .637E+02
  .272E+02  .340E+02  .622E+02  .349E+02  .309E+02  .349E+02  .589E+02  .644E+02
  .479E+02  .344E+02  .345E+02  .305E+02  .538E+02  .370E+02  .331E+02  .507E+02
  .513E+02  .353E+02  .322E+02  .323E+02  .427E+02  .583E+02  .340E+02  .336E+02
  .658E+02  .365E+02  .654E+02  .443E+02  .652E+02  .346E+02  .365E+02  .499E+02
  .579E+02  .462E+02  .680E+02  .349E+02  .628E+02  .528E+02  .514E+02  .309E+02
  .309E+02  .309E+02  .620E+02  .309E+02  .622E+02  .639E+02  .564E+02  .478E+02
  .481E+02  .453E+02  .309E+02  .309E+02  .309E+02  .309E+02  .000E+00  .000E+00
  .000E+00  .000E+00  .000E+00  .000E+00  .000E+00  .000E+00  .000E+00  .000E+00
  .000E+00  .000E+00  .000E+00  .000E+00
Damping =  .02. Data of Sd,Sv,Sa,Pssv,ttSd,ttSv,ttSa :
  .324E-03  .372E-03  .395E-03  .432E-03  .516E-03  .612E-03  .795E-03  .908E-03
  .121E-02  .129E-02  .210E-02  .217E-02  .249E-02  .350E-02  .473E-02  .465E-02
  .716E-02  .994E-02  .737E-02  .764E-02  .139E-01  .162E-01  .210E-01  .328E-01
  .342E-01  .345E-01  .279E-01  .381E-01  .319E-01  .336E-01  .493E-01  .453E-01
  .535E-01  .620E-01  .612E-01  .486E-01  .626E-01  .653E-01  .944E-01  .127E+00
  .137E+00  .137E+00  .107E+00  .218E+00  .281E+00  .359E+00  .402E+00  .376E+00
  .539E+00  .407E+00  .345E+00  .375E+00  .421E+00  .358E+00  .391E+00  .379E+00
  .342E+00  .272E+00  .268E+00  .303E+00  .325E+00  .355E+00  .299E+00  .267E+00
  .288E+00  .328E+00  .343E+00  .280E+00  .262E+00  .300E+00  .259E+00  .276E+00
  .282E+00  .283E+00  .280E+00  .275E+00  .264E+00  .372E+00  .360E+00  .354E+00
  .315E+00  .259E+00  .257E+00  .253E+00  .249E+00  .245E+00  .000E+00  .000E+00
  .000E+00  .000E+00  .000E+00  .000E+00  .000E+00  .000E+00  .000E+00  .000E+00
  .000E+00  .000E+00  .000E+00  .000E+00
  .165E-01  .239E-01  .274E-01  .336E-01  .375E-01  .507E-01  .747E-01  .697E-01
  .786E-01  .782E-01  .121E+00  .125E+00  .145E+00  .200E+00  .257E+00  .248E+00
  .372E+00  .468E+00  .319E+00  .315E+00  .557E+00  .595E+00  .725E+00  .112E+01
  .109E+01  .108E+01  .791E+00  .980E+00  .786E+00  .754E+00  .974E+00  .894E+00
  .103E+01  .107E+01  .104E+01  .761E+00  .900E+00  .762E+00  .119E+01  .163E+01
  .171E+01  .156E+01  .103E+01  .200E+01  .249E+01  .296E+01  .315E+01  .274E+01
  .379E+01  .285E+01  .228E+01  .226E+01  .215E+01  .183E+01  .187E+01  .192E+01
  .173E+01  .120E+01  .109E+01  .128E+01  .131E+01  .147E+01  .142E+01  .118E+01
  .107E+01  .110E+01  .119E+01  .124E+01  .126E+01  .125E+01  .121E+01  .117E+01
  .112E+01  .108E+01  .104E+01  .101E+01  .966E+00  .944E+00  .931E+00  .921E+00
  .908E+00  .893E+00  .881E+00  .872E+00  .865E+00  .860E+00  .000E+00  .000E+00
  .000E+00  .000E+00  .000E+00  .000E+00  .000E+00  .000E+00  .000E+00  .000E+00
  .000E+00  .000E+00  .000E+00  .000E+00
  .207E-01  .215E-01  .209E-01  .209E-01  .229E-01  .250E-01  .269E-01  .259E-01
  .293E-01  .270E-01  .382E-01  .347E-01  .353E-01  .443E-01  .535E-01  .479E-01
  .604E-01  .703E-01  .448E-01  .401E-01  .632E-01  .645E-01  .745E-01  .103E+00
  .970E-01  .881E-01  .591E-01  .680E-01  .484E-01  .440E-01  .560E-01  .453E-01
  .474E-01  .489E-01  .433E-01  .311E-01  .364E-01  .346E-01  .456E-01  .565E-01
  .562E-01  .464E-01  .305E-01  .528E-01  .586E-01  .653E-01  .643E-01  .533E-01
  .680E-01  .462E-01  .354E-01  .317E-01  .299E-01  .217E-01  .204E-01  .172E-01
  .137E-01  .966E-02  .847E-02  .858E-02  .833E-02  .751E-02  .532E-02  .405E-02
  .376E-02  .373E-02  .344E-02  .249E-02  .207E-02  .213E-02  .167E-02  .161E-02
  .150E-02  .138E-02  .126E-02  .113E-02  .893E-03  .106E-02  .873E-03  .740E-03
  .573E-03  .425E-03  .374E-03  .330E-03  .293E-03  .261E-03  .000E+00  .000E+00
  .000E+00  .000E+00  .000E+00  .000E+00  .000E+00  .000E+00  .000E+00  .000E+00
  .000E+00  .000E+00  .000E+00  .000E+00
  .509E-01  .557E-01  .565E-01  .591E-01  .676E-01  .770E-01  .908E-01  .950E-01
  .117E+00  .116E+00  .176E+00  .170E+00  .184E+00  .245E+00  .313E+00  .292E+00
  .409E+00  .520E+00  .356E+00  .343E+00  .580E+00  .636E+00  .777E+00  .115E+01
  .113E+01  .108E+01  .796E+00  .997E+00  .771E+00  .754E+00  .103E+01  .889E+00
  .989E+00  .108E+01  .101E+01  .764E+00  .936E+00  .933E+00  .129E+01  .166E+01
  .173E+01  .157E+01  .112E+01  .211E+01  .252E+01  .301E+01  .316E+01  .278E+01
  .376E+01  .269E+01  .217E+01  .214E+01  .220E+01  .173E+01  .175E+01  .159E+01
  .134E+01  .101E+01  .936E+00  .100E+01  .102E+01  .101E+01  .782E+00  .646E+00
  .645E+00  .686E+00  .674E+00  .518E+00  .457E+00  .496E+00  .407E+00  .412E+00
  .403E+00  .386E+00  .367E+00  .345E+00  .301E+00  .389E+00  .348E+00  .318E+00
  .264E+00  .203E+00  .190E+00  .176E+00  .164E+00  .154E+00  .000E+00  .000E+00
  .000E+00  .000E+00  .000E+00  .000E+00  .000E+00  .000E+00  .000E+00  .000E+00
  .000E+00  .000E+00  .000E+00  .000E+00
  .254E+02  .254E+02  .254E+02  .273E+02  .274E+02  .274E+02  .268E+02  .273E+02
  .274E+02  .265E+02  .254E+02  .268E+02  .271E+02  .274E+02  .274E+02  .259E+02
  .254E+02  .265E+02  .258E+02  .297E+02  .274E+02  .276E+02  .269E+02  .270E+02
  .276E+02  .278E+02  .335E+02  .332E+02  .262E+02  .324E+02  .303E+02  .300E+02
  .262E+02  .266E+02  .319E+02  .349E+02  .300E+02  .309E+02  .310E+02  .325E+02
  .336E+02  .314E+02  .344E+02  .305E+02  .314E+02  .314E+02  .315E+02  .350E+02
  .351E+02  .321E+02  .322E+02  .317E+02  .373E+02  .369E+02  .340E+02  .313E+02
  .371E+02  .365E+02  .365E+02  .358E+02  .331E+02  .325E+02  .339E+02  .407E+02
  .426E+02  .359E+02  .361E+02  .349E+02  .317E+02  .509E+02  .308E+02  .309E+02
  .309E+02  .309E+02  .309E+02  .309E+02  .598E+02  .580E+02  .497E+02  .478E+02
  .480E+02  .309E+02  .309E+02  .309E+02  .309E+02  .309E+02  .000E+00  .000E+00
  .000E+00  .000E+00  .000E+00  .000E+00  .000E+00  .000E+00  .000E+00  .000E+00
  .000E+00  .000E+00  .000E+00  .000E+00
  .271E+02  .271E+02  .266E+02  .273E+02  .273E+02  .272E+02  .266E+02  .273E+02
  .274E+02  .265E+02  .280E+02  .279E+02  .271E+02  .273E+02  .279E+02  .259E+02
  .254E+02  .265E+02  .258E+02  .272E+02  .292E+02  .275E+02  .270E+02  .270E+02
  .275E+02  .279E+02  .279E+02  .331E+02  .262E+02  .323E+02  .303E+02  .293E+02
  .271E+02  .270E+02  .269E+02  .265E+02  .268E+02  .258E+02  .319E+02  .326E+02
  .335E+02  .315E+02  .303E+02  .303E+02  .315E+02  .316E+02  .329E+02  .365E+02
  .349E+02  .314E+02  .314E+02  .314E+02  .376E+02  .372E+02  .337E+02  .311E+02
  .311E+02  .311E+02  .362E+02  .362E+02  .347E+02  .311E+02  .311E+02  .311E+02
  .311E+02  .311E+02  .311E+02  .311E+02  .311E+02  .311E+02  .311E+02  .311E+02
  .311E+02  .311E+02  .311E+02  .311E+02  .311E+02  .311E+02  .311E+02  .311E+02
  .311E+02  .311E+02  .311E+02  .311E+02  .311E+02  .311E+02  .000E+00  .000E+00
  .000E+00  .000E+00  .000E+00  .000E+00  .000E+00  .000E+00  .000E+00  .000E+00
  .000E+00  .000E+00  .000E+00  .000E+00
  .254E+02  .254E+02  .254E+02  .273E+02  .274E+02  .274E+02  .268E+02  .273E+02
  .274E+02  .265E+02  .254E+02  .268E+02  .271E+02  .274E+02  .274E+02  .259E+02
  .254E+02  .265E+02  .258E+02  .297E+02  .274E+02  .276E+02  .269E+02  .270E+02
  .276E+02  .278E+02  .335E+02  .332E+02  .261E+02  .324E+02  .303E+02  .300E+02
