Response and Fourier amplitude spectra (91 periods,  .04 - 15.0 sec)   for      
Corrected accelerogram   14578-E0772-14093.02       Chan  3:  Up         from   
Uncorrected Accelerogram Data             Processed: 10/12/15, CGS  e772e002    
Rcrd of Sun Mar 30, 2014 21:09:46.5 PDT*              (Avol1 v0.9, 9/14 CSMIP)  
CSMIP Preliminary Processing            (Origin:  To be determined)             
14578-E0772-14093.02                 Start time:  3/31/14, 04:09:46.5 UTC (Unk) 
Station No. 14578   33.757N, 118.085W    SSA-1   s/n  772  (4 Chns of 31 at Sta)
Seal Beach - 8-story Office Bldg          CGS   Data: Acceleration              
Chan  3:  Up      (Sta Chn: 27)     Location: Grounds: N. of building, surface  
Rcrd of Sun Mar 30, 2014 21:09:46.5 PDT*   Sun Mar 30, 2014 21:09:46.5 PDT*     
Hypocenter:  To be determined.               ML:  To be determined.
Instr Period =  .0191 sec,  Damping =  .680,  Sensitivity = 1.25 v/g
                        Record length = 87.495 sec.
                                     Uncor Max  =  -.023 g , at  20.540 sec.
RMS accel of (uncor) record  =        .   Chn. metadata effective date: 04/08/92
Accelerogram bandpass filtered with 3 dB pts at   .17 and 40.00 cyc/sec
                 instrument- and baseline-corrected





Rcrd of Sun Mar 30, 2014 21:09:46.5 PDT*   Sun Mar 30, 2014 21:09:46.5 PDT*

14578-E0772-14093.02      Seal Beach - 8-story Office Bldg    Chan  3:  Up

14578-E0772-14093.02      Seal Beach - 8-story Office Bldg    Chan  3:  Up

Units for spectra are inches and sec, except Sa is in fraction of g.

    3  100   27    4   31  200    1    3    1   12    5  772    014578    2    0
    4    9   46  500   90    3   31 2014   10    4  50017500   39   32   74   -1
17499    1  100    3   -1    7    2   71    2    4    9   51  990    3   29 2014
    0    0    3    0 8750    2  220    1   12    4    0    0    3    1    0 8750
    3 8750    4   91    5    4    5    0    1    0    0    0    1    3    7    2
    2    2    4    1   79   67    1    1    0    0    4    1    0    0    0  222
    1    0    3    0
      .019      .680    87.495      .002      .000  1249.000     -.023    20.540
    52.400  1220.703   977.344      .000     5.000  -999.000     2.000      .000
     2.500    -1.445     2.500   371.000    15.360    30.000  -999.000     -.013
     -.019     -.005     2.000    15.000    33.757  -118.085      .494      .504
     1.020     -.076      .065     5.000      .000      .000      .000      .000
     1.000     2.854      .000  -999.000  -999.000  -999.000  -999.000      .000
     9.200      .900     6.300   980.665      .010    87.495     8.340      .000
      .000    40.000      .000    87.495      .010      .167      .000      .000
    20.540   -22.685    21.530      .607    53.950     -.142      .001      .167
    40.000      .010      .010     -.001      .010      .078      .000      .000
      .088      .095      .054      .039      .005      .002      .000      .000
      .000      .000      .000      .000      .000      .000      .000      .000
      .000      .000      .000      .000
      .000      .020      .050      .100      .200
      .040      .042      .044      .046      .048      .050      .055      .060
      .065      .070      .075      .080      .085      .090      .095      .100
      .110      .120      .130      .140      .150      .160      .170      .180
      .190      .200      .220      .240      .260      .280      .300      .320
      .340      .360      .380      .400      .420      .440      .460      .480
      .500      .550      .600      .650      .700      .750      .800      .850
      .900      .950     1.000     1.100     1.200     1.300     1.400     1.500
     1.600     1.700     1.800     1.900     2.000     2.200     2.400     2.600
     2.800     3.000     3.200     3.400     3.600     3.800     4.000     4.200
     4.400     4.600     4.800     5.000     5.500     6.000     6.500     7.000
     7.500     8.000     8.500     9.000     9.500    10.000    11.000    12.000
    13.000    14.000    15.000      .000      .000      .000      .000      .000
      .000      .000      .000      .000
Fourier amplitude spectra in in/sec.
  .148E+00  .123E+00  .735E-01  .130E+00  .218E+00  .246E+00  .295E+00  .375E+00
  .383E+00  .653E+00  .416E+00  .121E+01  .127E+01  .243E+01  .228E+01  .559E+00
  .257E+01  .671E+00  .185E+01  .722E+00  .130E+01  .420E+00  .729E+00  .304E+01
  .128E+01  .750E+00  .927E+00  .540E+00  .216E+01  .219E+01  .187E+01  .636E+00
  .123E+01  .110E+01  .166E+01  .120E+01  .946E+00  .523E+00  .150E+01  .145E+01
  .194E+01  .300E+01  .988E+00  .734E+00  .592E+00  .164E+01  .428E+00  .287E+00
  .410E+00  .134E+01  .663E+00  .981E+00  .428E+00  .120E+01  .123E+01  .604E+00
  .544E+00  .155E+01  .704E+00  .899E+00  .573E+00  .186E+01  .981E+00  .395E+00
  .531E+00  .448E+00  .202E+00  .226E+00  .635E+00  .213E+00  .256E+00  .482E+00
  .267E+00  .220E+00  .112E+00  .260E+00  .869E-01  .177E+00  .452E-01  .119E+00
  .633E-01  .592E-01  .365E-01  .162E-01  .214E-01  .225E-01  .476E-03  .120E-01
  .654E-02  .116E-02  .374E-02  .000E+00  .000E+00  .000E+00  .000E+00  .000E+00
  .000E+00  .000E+00  .000E+00  .000E+00
Damping =  .00. Data of Sd,Sv,Sa,Pssv,ttSd,ttSv,ttSa :
  .118E-02  .142E-02  .110E-02  .106E-02  .179E-02  .245E-02  .350E-02  .543E-02
  .661E-02  .119E-01  .742E-02  .159E-01  .173E-01  .355E-01  .349E-01  .191E-01
  .472E-01  .233E-01  .412E-01  .249E-01  .333E-01  .301E-01  .299E-01  .937E-01
  .415E-01  .494E-01  .409E-01  .590E-01  .100E+00  .106E+00  .989E-01  .826E-01
  .820E-01  .705E-01  .121E+00  .928E-01  .809E-01  .639E-01  .142E+00  .126E+00
  .163E+00  .269E+00  .975E-01  .116E+00  .105E+00  .213E+00  .107E+00  .154E+00
  .890E-01  .203E+00  .106E+00  .177E+00  .164E+00  .320E+00  .285E+00  .365E+00
  .193E+00  .452E+00  .231E+00  .328E+00  .199E+00  .685E+00  .448E+00  .380E+00
  .263E+00  .214E+00  .159E+00  .237E+00  .364E+00  .193E+00  .253E+00  .349E+00
  .282E+00  .185E+00  .128E+00  .207E+00  .112E+00  .173E+00  .178E+00  .136E+00
  .912E-01  .902E-01  .975E-01  .931E-01  .861E-01  .684E-01  .533E-01  .699E-01
  .678E-01  .552E-01  .542E-01  .000E+00  .000E+00  .000E+00  .000E+00  .000E+00
  .000E+00  .000E+00  .000E+00  .000E+00
  .157E+00  .184E+00  .123E+00  .139E+00  .231E+00  .282E+00  .385E+00  .553E+00
  .613E+00  .102E+01  .586E+00  .124E+01  .128E+01  .250E+01  .230E+01  .109E+01
  .268E+01  .119E+01  .199E+01  .107E+01  .138E+01  .121E+01  .113E+01  .325E+01
  .134E+01  .154E+01  .115E+01  .166E+01  .242E+01  .238E+01  .205E+01  .163E+01
  .159E+01  .122E+01  .199E+01  .147E+01  .119E+01  .884E+00  .192E+01  .162E+01
  .204E+01  .306E+01  .101E+01  .110E+01  .924E+00  .176E+01  .816E+00  .114E+01
  .644E+00  .134E+01  .681E+00  .101E+01  .874E+00  .151E+01  .131E+01  .150E+01
  .784E+00  .172E+01  .815E+00  .114E+01  .664E+00  .199E+01  .118E+01  .104E+01
  .631E+00  .465E+00  .340E+00  .502E+00  .704E+00  .445E+00  .480E+00  .590E+00
  .478E+00  .304E+00  .266E+00  .267E+00  .252E+00  .263E+00  .259E+00  .236E+00
  .235E+00  .235E+00  .234E+00  .233E+00  .234E+00  .235E+00  .238E+00  .240E+00
  .241E+00  .241E+00  .240E+00  .000E+00  .000E+00  .000E+00  .000E+00  .000E+00
  .000E+00  .000E+00  .000E+00  .000E+00
  .756E-01  .826E-01  .579E-01  .514E-01  .793E-01  .100E+00  .118E+00  .154E+00
  .160E+00  .249E+00  .135E+00  .254E+00  .245E+00  .448E+00  .396E+00  .196E+00
  .399E+00  .165E+00  .250E+00  .130E+00  .151E+00  .120E+00  .106E+00  .296E+00
  .117E+00  .126E+00  .863E-01  .105E+00  .152E+00  .139E+00  .112E+00  .825E-01
  .725E-01  .557E-01  .857E-01  .593E-01  .469E-01  .338E-01  .684E-01  .561E-01
  .668E-01  .909E-01  .277E-01  .281E-01  .220E-01  .386E-01  .170E-01  .217E-01
  .112E-01  .230E-01  .108E-01  .150E-01  .117E-01  .194E-01  .149E-01  .166E-01
  .771E-02  .160E-01  .729E-02  .929E-02  .510E-02  .145E-01  .796E-02  .575E-02
  .343E-02  .243E-02  .159E-02  .210E-02  .287E-02  .137E-02  .162E-02  .202E-02
  .149E-02  .896E-03  .569E-03  .846E-03  .377E-03  .492E-03  .430E-03  .285E-03
  .166E-03  .144E-03  .138E-03  .118E-03  .976E-04  .699E-04  .451E-04  .497E-04
  .410E-04  .288E-04  .246E-04  .000E+00  .000E+00  .000E+00  .000E+00  .000E+00
  .000E+00  .000E+00  .000E+00  .000E+00
  .186E+00  .213E+00  .157E+00  .145E+00  .234E+00  .307E+00  .400E+00  .569E+00
  .639E+00  .107E+01  .621E+00  .125E+01  .128E+01  .248E+01  .231E+01  .120E+01
  .270E+01  .122E+01  .199E+01  .112E+01  .139E+01  .118E+01  .111E+01  .327E+01
  .137E+01  .155E+01  .117E+01  .154E+01  .242E+01  .239E+01  .207E+01  .162E+01
  .152E+01  .123E+01  .200E+01  .146E+01  .121E+01  .913E+00  .193E+01  .166E+01
  .205E+01  .307E+01  .102E+01  .112E+01  .947E+00  .178E+01  .837E+00  .113E+01
  .621E+00  .134E+01  .667E+00  .101E+01  .861E+00  .155E+01  .128E+01  .153E+01
  .758E+00  .167E+01  .806E+00  .108E+01  .626E+00  .196E+01  .117E+01  .918E+00
  .589E+00  .449E+00  .312E+00  .439E+00  .635E+00  .319E+00  .398E+00  .522E+00
  .403E+00  .253E+00  .168E+00  .260E+00  .127E+00  .181E+00  .172E+00  .122E+00
  .764E-01  .709E-01  .721E-01  .650E-01  .570E-01  .429E-01  .305E-01  .366E-01
  .328E-01  .248E-01  .227E-01  .000E+00  .000E+00  .000E+00  .000E+00  .000E+00
  .000E+00  .000E+00  .000E+00  .000E+00
  .205E+02  .176E+02  .173E+02  .343E+02  .429E+02  .173E+02  .173E+02  .213E+02
  .196E+02  .222E+02  .222E+02  .400E+02  .803E+02  .280E+02  .695E+02  .171E+02
  .242E+02  .210E+02  .253E+02  .180E+02  .269E+02  .209E+02  .184E+02  .233E+02
  .301E+02  .195E+02  .289E+02  .173E+02  .229E+02  .217E+02  .446E+02  .208E+02
  .255E+02  .362E+02  .364E+02  .296E+02  .364E+02  .446E+02  .309E+02  .397E+02
  .685E+02  .521E+02  .841E+02  .641E+02  .392E+02  .575E+02  .375E+02  .478E+02
  .306E+02  .862E+02  .865E+02  .717E+02  .562E+02  .786E+02  .847E+02  .717E+02
  .794E+02  .759E+02  .517E+02  .758E+02  .802E+02  .659E+02  .771E+02  .611E+02
  .589E+02  .867E+02  .815E+02  .620E+02  .932E+02  .728E+02  .512E+02  .611E+02
  .640E+02  .814E+02  .407E+02  .872E+02  .712E+02  .855E+02  .539E+02  .833E+02
  .842E+02  .819E+02  .787E+02  .539E+02  .540E+02  .540E+02  .446E+02  .539E+02
  .539E+02  .539E+02  .539E+02  .000E+00  .000E+00  .000E+00  .000E+00  .000E+00
  .000E+00  .000E+00  .000E+00  .000E+00
  .252E+02  .177E+02  .170E+02  .343E+02  .430E+02  .173E+02  .182E+02  .213E+02
  .195E+02  .222E+02  .222E+02  .401E+02  .754E+02  .280E+02  .692E+02  .171E+02
  .241E+02  .210E+02  .253E+02  .180E+02  .269E+02  .208E+02  .185E+02  .232E+02
  .300E+02  .194E+02  .289E+02  .173E+02  .229E+02  .218E+02  .447E+02  .210E+02
  .208E+02  .363E+02  .363E+02  .295E+02  .363E+02  .445E+02  .313E+02  .383E+02
  .686E+02  .523E+02  .842E+02  .643E+02  .394E+02  .573E+02  .373E+02  .476E+02
  .304E+02  .859E+02  .848E+02  .714E+02  .559E+02  .790E+02  .844E+02  .720E+02
  .775E+02  .763E+02  .513E+02  .763E+02  .747E+02  .642E+02  .777E+02  .617E+02
  .583E+02  .829E+02  .792E+02  .628E+02  .762E+02  .535E+02  .443E+02  .618E+02
  .608E+02  .594E+02  .535E+02  .811E+02  .215E+02  .594E+02  .546E+02  .215E+02
  .215E+02  .215E+02  .215E+02  .215E+02  .215E+02  .215E+02  .215E+02  .215E+02
  .215E+02  .215E+02  .215E+02  .000E+00  .000E+00  .000E+00  .000E+00  .000E+00
  .000E+00  .000E+00  .000E+00  .000E+00
  .205E+02  .176E+02  .173E+02  .343E+02  .429E+02  .173E+02  .173E+02  .213E+02
  .196E+02  .222E+02  .222E+02  .400E+02  .803E+02  .280E+02  .695E+02  .171E+02
  .242E+02  .210E+02  .253E+02  .180E+02  .269E+02  .209E+02  .184E+02  .233E+02
  .301E+02  .195E+02  .289E+02  .173E+02  .229E+02  .217E+02  .446E+02  .208E+02
  .255E+02  .362E+02  .364E+02  .296E+02  .364E+02  .446E+02  .309E+02  .397E+02
  .685E+02  .521E+02  .841E+02  .641E+02  .392E+02  .575E+02  .375E+02  .478E+02
  .306E+02  .862E+02  .865E+02  .717E+02  .562E+02  .786E+02  .847E+02  .717E+02
  .794E+02  .759E+02  .517E+02  .758E+02  .802E+02  .659E+02  .771E+02  .611E+02
  .589E+02  .867E+02  .815E+02  .620E+02  .932E+02  .728E+02  .512E+02  .611E+02
  .640E+02  .814E+02  .407E+02  .872E+02  .712E+02  .855E+02  .539E+02  .833E+02
  .842E+02  .819E+02  .787E+02  .539E+02  .540E+02  .540E+02  .446E+02  .539E+02
  .539E+02  .539E+02  .539E+02  .000E+00  .000E+00  .000E+00  .000E+00  .000E+00
  .000E+00  .000E+00  .000E+00  .000E+00
Damping =  .02. Data of Sd,Sv,Sa,Pssv,ttSd,ttSv,ttSa :
  .460E-03  .559E-03  .585E-03  .654E-03  .685E-03  .964E-03  .141E-02  .186E-02
  .211E-02  .335E-02  .356E-02  .508E-02  .585E-02  .922E-02  .124E-01  .893E-02
  .164E-01  .145E-01  .150E-01  .172E-01  .159E-01  .150E-01  .199E-01  .316E-01
  .268E-01  .321E-01  .237E-01  .369E-01  .427E-01  .504E-01  .566E-01  .461E-01
  .481E-01  .536E-01  .559E-01  .482E-01  .466E-01  .409E-01  .609E-01  .489E-01
  .736E-01  .823E-01  .510E-01  .473E-01  .572E-01  .673E-01  .596E-01  .653E-01
  .704E-01  .649E-01  .558E-01  .941E-01  .829E-01  .154E+00  .164E+00  .164E+00
  .141E+00  .205E+00  .202E+00  .210E+00  .162E+00  .367E+00  .259E+00  .287E+00
  .217E+00  .166E+00  .140E+00  .178E+00  .189E+00  .146E+00  .184E+00  .213E+00
  .187E+00  .136E+00  .109E+00  .126E+00  .977E-01  .129E+00  .144E+00  .108E+00
  .858E-01  .824E-01  .902E-01  .893E-01  .826E-01  .693E-01  .545E-01  .671E-01
  .662E-01  .575E-01  .558E-01  .000E+00  .000E+00  .000E+00  .000E+00  .000E+00
  .000E+00  .000E+00  .000E+00  .000E+00
  .431E-01  .521E-01  .498E-01  .573E-01  .706E-01  .969E-01  .135E+00  .180E+00
  .189E+00  .253E+00  .260E+00  .378E+00  .390E+00  .623E+00  .771E+00  .510E+00
  .921E+00  .756E+00  .675E+00  .718E+00  .670E+00  .549E+00  .725E+00  .115E+01
  .891E+00  .101E+01  .732E+00  .106E+01  .108E+01  .119E+01  .117E+01  .983E+00
  .997E+00  .927E+00  .983E+00  .794E+00  .709E+00  .617E+00  .814E+00  .671E+00
  .101E+01  .943E+00  .597E+00  .490E+00  .652E+00  .662E+00  .505E+00  .481E+00
  .495E+00  .504E+00  .513E+00  .529E+00  .522E+00  .717E+00  .727E+00  .669E+00
  .553E+00  .707E+00  .717E+00  .693E+00  .522E+00  .112E+01  .740E+00  .802E+00
  .530E+00  .399E+00  .327E+00  .375E+00  .467E+00  .356E+00  .375E+00  .385E+00
  .357E+00  .270E+00  .257E+00  .251E+00  .250E+00  .248E+00  .241E+00  .237E+00
  .236E+00  .235E+00  .234E+00  .234E+00  .234E+00  .235E+00  .238E+00  .240E+00
  .241E+00  .240E+00  .240E+00  .000E+00  .000E+00  .000E+00  .000E+00  .000E+00
  .000E+00  .000E+00  .000E+00  .000E+00
  .294E-01  .324E-01  .310E-01  .316E-01  .304E-01  .398E-01  .477E-01  .530E-01
  .511E-01  .697E-01  .643E-01  .814E-01  .828E-01  .117E+00  .141E+00  .909E-01
  .140E+00  .103E+00  .911E-01  .893E-01  .723E-01  .602E-01  .706E-01  .100E+00
  .758E-01  .824E-01  .504E-01  .653E-01  .645E-01  .657E-01  .644E-01  .459E-01
  .425E-01  .424E-01  .397E-01  .309E-01  .270E-01  .216E-01  .295E-01  .217E-01
  .301E-01  .278E-01  .145E-01  .114E-01  .119E-01  .122E-01  .953E-02  .925E-02
  .890E-02  .737E-02  .571E-02  .797E-02  .589E-02  .935E-02  .854E-02  .744E-02
  .565E-02  .727E-02  .637E-02  .595E-02  .415E-02  .777E-02  .461E-02  .434E-02
  .283E-02  .189E-02  .140E-02  .158E-02  .149E-02  .104E-02  .118E-02  .123E-02
  .988E-03  .661E-03  .484E-03  .515E-03  .332E-03  .368E-03  .351E-03  .226E-03
  .156E-03  .133E-03  .129E-03  .114E-03  .949E-04  .721E-04  .472E-04  .489E-04
  .413E-04  .311E-04  .265E-04  .000E+00  .000E+00  .000E+00  .000E+00  .000E+00
  .000E+00  .000E+00  .000E+00  .000E+00
  .723E-01  .837E-01  .835E-01  .894E-01  .897E-01  .121E+00  .161E+00  .195E+00
  .204E+00  .301E+00  .298E+00  .399E+00  .433E+00  .644E+00  .823E+00  .561E+00
  .937E+00  .762E+00  .726E+00  .773E+00  .666E+00  .591E+00  .736E+00  .110E+01
  .885E+00  .101E+01  .678E+00  .965E+00  .103E+01  .113E+01  .119E+01  .904E+00
  .888E+00  .935E+00  .924E+00  .757E+00  .696E+00  .585E+00  .832E+00  .640E+00
  .925E+00  .940E+00  .534E+00  .457E+00  .513E+00  .564E+00  .468E+00  .483E+00
  .492E+00  .429E+00  .351E+00  .538E+00  .434E+00  .746E+00  .734E+00  .685E+00
  .555E+00  .758E+00  .704E+00  .694E+00  .509E+00  .105E+01  .678E+00  .692E+00
  .486E+00  .348E+00  .275E+00  .329E+00  .330E+00  .242E+00  .288E+00  .318E+00
  .266E+00  .186E+00  .142E+00  .158E+00  .112E+00  .135E+00  .140E+00  .967E-01
  .719E-01  .648E-01  .666E-01  .624E-01  .547E-01  .436E-01  .311E-01  .352E-01
  .320E-01  .258E-01  .234E-01  .000E+00  .000E+00  .000E+00  .000E+00  .000E+00
  .000E+00  .000E+00  .000E+00  .000E+00
  .205E+02  .171E+02  .176E+02  .173E+02  .166E+02  .166E+02  .173E+02  .178E+02
  .183E+02  .173E+02  .170E+02  .198E+02  .184E+02  .175E+02  .205E+02  .186E+02
  .180E+02  .211E+02  .213E+02  .172E+02  .219E+02  .190E+02  .216E+02  .190E+02
  .177E+02  .178E+02  .180E+02  .173E+02  .228E+02  .217E+02  .238E+02  .208E+02
  .208E+02  .208E+02  .225E+02  .231E+02  .295E+02  .289E+02  .231E+02  .202E+02
  .231E+02  .249E+02  .249E+02  .236E+02  .236E+02  .234E+02  .247E+02  .367E+02
  .400E+02  .228E+02  .588E+02  .647E+02  .532E+02  .623E+02  .818E+02  .543E+02
  .601E+02  .623E+02  .644E+02  .655E+02  .575E+02  .638E+02  .640E+02  .610E+02
  .588E+02  .564E+02  .564E+02  .551E+02  .553E+02  .448E+02  .435E+02  .611E+02
  .640E+02  .539E+02  .407E+02  .873E+02  .631E+02  .553E+02  .539E+02  .540E+02
  .842E+02  .539E+02  .539E+02  .539E+02  .540E+02  .540E+02  .539E+02  .539E+02
  .539E+02  .539E+02  .539E+02  .000E+00  .000E+00  .000E+00  .000E+00  .000E+00
  .000E+00  .000E+00  .000E+00  .000E+00
  .173E+02  .170E+02  .173E+02  .158E+02  .166E+02  .166E+02  .169E+02  .178E+02
  .183E+02  .170E+02  .170E+02  .198E+02  .184E+02  .175E+02  .209E+02  .186E+02
  .180E+02  .209E+02  .213E+02  .172E+02  .174E+02  .190E+02  .174E+02  .192E+02
  .178E+02  .178E+02  .173E+02  .173E+02  .218E+02  .215E+02  .239E+02  .208E+02
  .208E+02  .207E+02  .208E+02  .232E+02  .291E+02  .290E+02  .230E+02  .230E+02
  .230E+02  .248E+02  .219E+02  .220E+02  .235E+02  .229E+02  .245E+02  .365E+02
  .402E+02  .206E+02  .227E+02  .650E+02  .219E+02  .620E+02  .815E+02  .539E+02
  .598E+02  .626E+02  .657E+02  .641E+02  .571E+02  .642E+02  .635E+02  .616E+02
  .594E+02  .556E+02  .556E+02  .628E+02  .617E+02  .535E+02  .443E+02  .617E+02
  .607E+02  .546E+02  .215E+02  .215E+02  .215E+02  .215E+02  .215E+02  .215E+02
  .215E+02  .215E+02  .215E+02  .215E+02  .215E+02  .215E+02  .215E+02  .215E+02
  .215E+02  .215E+02  .215E+02  .000E+00  .000E+00  .000E+00  .000E+00  .000E+00
  .000E+00  .000E+00  .000E+00  .000E+00
  .205E+02  .171E+02  .176E+02  .173E+02  .166E+02  .166E+02  .173E+02  .178E+02
  .183E+02  .173E+02  .170E+02  .198E+02  .184E+02  .175E+02  .205E+02  .186E+02
  .180E+02  .211E+02  .213E+02  .172E+02  .219E+02  .190E+02  .216E+02  .190E+02
  .177E+02  .178E+02  .180E+02  .173E+02  .228E+02  .216E+02  .238E+02  .208E+02
  .208E+02  .208E+02  .225E+02  .231E+02  .294E+02  .289E+02  .231E+02  .202E+02
  .231E+02  .249E+02  .249E+02  .236E+02  .236E+02  .234E+02  .247E+02  .367E+02
  .400E+02  .228E+02  .588E+02  .647E+02  .532E+02  .623E+02  .818E+02  .543E+02
  .601E+02  .622E+02  .644E+02  .655E+02  .575E+02  .637E+02  .640E+02  .610E+02
  .588E+02  .564E+02  .564E+02  .550E+02  .552E+02  .448E+02  .435E+02  .611E+02
  .639E+02  .539E+02  .406E+02  .873E+02  .631E+02  .552E+02  .538E+02  .539E+02
  .841E+02  .539E+02  .539E+02  .539E+02  .539E+02  .539E+02  .539E+02  .539E+02
  .539E+02  .538E+02  .538E+02  .000E+00  .000E+00  .000E+00  .000E+00  .000E+00
  .000E+00  .000E+00  .000E+00  .000E+00
Damping =  .05. Data of Sd,Sv,Sa,Pssv,ttSd,ttSv,ttSa :
  .427E-03  .465E-03  .541E-03  .624E-03  .698E-03  .835E-03  .114E-02  .138E-02
  .165E-02  .205E-02  .258E-02  .353E-02  .446E-02  .566E-02  .775E-02  .834E-02
