Response and Fourier amplitude spectra (76 periods,  .04 -  5.0 sec)   for      
Corrected accelerogram   24468-M0270-14087.35       Chan  5:  Up         from   
Uncorrected Accelerogram Data             Processed: 03/28/14, CGS  468as035    
Rcrd of Fri Mar 28, 2014 21:09:29.0 PDT               (Avol1 v0.5, 2/14 CSMIP)  
CSMIP Preliminary Processing            (Origin:  To be determined)             
24468-M0270-14087.35                 Start time:  3/29/14, 04:09:29.0 UTC (GPS) 
Station No. 24468   34.066N, 118.169W    MtWtny  s/n  270 (16 Chns of 16 at Sta)
Los Angeles - 8-story CSULA Admin. Bldg.  CGS   Data: Acceleration              
Chan  5:  Up                        Location: 2nd Floor: Center of West Wall    
Rcrd of Fri Mar 28, 2014 21:09:29.0 PDT    Fri Mar 28, 2014 21:09:29.0 PDT      
Hypocenter:  To be determined.               ML:  To be determined.
Instr Period =  .0192 sec,  Damping =  .700,  Sensitivity = 2.50 v/g
                        Record length = 72.000 sec.
                                     Uncor Max  =  -.064 g , at  25.610 sec.
RMS accel of (uncor) record  =        .   Chn. metadata effective date: 03/27/08
Accelerogram bandpass filtered with 3 dB pts at   .20 and 40.00 cyc/sec
                 instrument- and baseline-corrected





Rcrd of Fri Mar 28, 2014 21:09:29.0 PDT    Fri Mar 28, 2014 21:09:29.0 PDT

24468-M0270-14087.35      Los Angeles - 8-story CSULA Admin. Bldg.  CGChan  5:
Up
24468-M0270-14087.35      Los Angeles - 8-story CSULA Admin. Bldg.  CGChan  5:
Up
Units for spectra are inches and sec, except Sa is in fraction of g.

    5  100    5   18   16  200    1    3    1   24   13  270    024468    2    0
    4    9   29    0   88    3   29 2014   10    3  50014400   39   40   74   -1
14400    0  100    3  270    1   35  720    2    0    0    0    0    0    0    0
    0    0    3    0 7200    2  333    1   18    2    0    0    3    1    0 7200
    3 7200    4   76    5   16    5    0    0    0    0    0    1    3    1    2
    2    2    4    0   79   99    0    1    0    0   96    1    0    0    0  222
    1    0    6    0
      .019      .700    72.000      .005      .000  2496.000     -.064    25.610
    52.100      .298      .119      .000     5.000  -999.000     1.000      .000
     2.500    25.042     2.500  -999.000    23.000    30.000  -999.000     -.002
      .000      .002     2.000    15.000    34.066  -118.169      .055      .580
    10.524     -.026      .030   150.000    23.500    41.700    13.000    97.160
     1.000     1.217      .000  -999.000  -999.000  -999.000  -999.000      .000
      .100      .500     6.300   980.665      .010    72.000     8.292      .000
      .000    40.000      .000    72.000      .010      .200      .000      .000
    25.600   -62.110    25.650    -2.197    30.990     -.132      .000      .200
    40.000      .010      .010      .000      .130      .076      .000      .000
      .302      .200      .260      .070      .014      .001      .000      .000
      .000      .000      .000      .000      .000      .000      .000      .000
      .000      .000      .000      .000
      .000      .020      .050      .100      .200
      .040      .042      .044      .046      .048      .050      .055      .060
      .065      .070      .075      .080      .085      .090      .095      .100
      .110      .120      .130      .140      .150      .160      .170      .180
      .190      .200      .220      .240      .260      .280      .300      .320
      .340      .360      .380      .400      .420      .440      .460      .480
      .500      .550      .600      .650      .700      .750      .800      .850
      .900      .950     1.000     1.100     1.200     1.300     1.400     1.500
     1.600     1.700     1.800     1.900     2.000     2.200     2.400     2.600
     2.800     3.000     3.200     3.400     3.600     3.800     4.000     4.200
     4.400     4.600     4.800     5.000      .000      .000      .000      .000
      .000      .000      .000      .000      .000      .000      .000      .000
      .000      .000      .000      .000      .000      .000      .000      .000
      .000      .000      .000      .000
Fourier amplitude spectra in in/sec.
  .502E-01  .466E-01  .280E-01  .177E-01  .166E-01  .234E-01  .125E-01  .644E-01
  .252E-01  .474E-01  .125E+00  .782E-01  .951E-01  .541E-01  .417E-01  .155E+00
  .496E+00  .714E+00  .326E+00  .178E+00  .393E+01  .116E+01  .408E+01  .137E+02
  .109E+02  .504E+01  .599E+01  .495E+01  .240E+01  .185E+01  .648E+00  .140E+01
  .290E+00  .174E+01  .294E+01  .127E+01  .293E+01  .166E+01  .212E+01  .170E+01
  .189E+01  .181E+01  .962E+00  .174E+01  .372E+01  .181E+01  .772E+00  .123E+01
  .253E+00  .117E+01  .248E+01  .109E+01  .351E+00  .156E+01  .335E+01  .405E+00
  .241E+00  .808E+00  .540E+00  .127E+00  .630E+00  .377E+00  .215E+00  .151E+00
  .132E+00  .786E-01  .385E+00  .196E+00  .148E+00  .482E-01  .128E+00  .154E+00
  .149E+00  .206E+00  .192E+00  .145E+00  .000E+00  .000E+00  .000E+00  .000E+00
  .000E+00  .000E+00  .000E+00  .000E+00  .000E+00  .000E+00  .000E+00  .000E+00
  .000E+00  .000E+00  .000E+00  .000E+00  .000E+00  .000E+00  .000E+00  .000E+00
  .000E+00  .000E+00  .000E+00  .000E+00
Damping =  .00. Data of Sd,Sv,Sa,Pssv,ttSd,ttSv,ttSa :
  .120E-02  .144E-02  .135E-02  .143E-02  .164E-02  .167E-02  .221E-02  .258E-02
  .305E-02  .352E-02  .591E-02  .506E-02  .616E-02  .768E-02  .897E-02  .973E-02
  .174E-01  .247E-01  .242E-01  .292E-01  .957E-01  .738E-01  .133E+00  .422E+00
  .392E+00  .250E+00  .216E+00  .192E+00  .139E+00  .123E+00  .803E-01  .102E+00
  .752E-01  .115E+00  .231E+00  .101E+00  .249E+00  .117E+00  .172E+00  .172E+00
  .168E+00  .218E+00  .184E+00  .229E+00  .519E+00  .260E+00  .239E+00  .182E+00
  .152E+00  .253E+00  .402E+00  .283E+00  .248E+00  .417E+00  .747E+00  .306E+00
  .168E+00  .242E+00  .174E+00  .163E+00  .217E+00  .261E+00  .126E+00  .101E+00
  .126E+00  .107E+00  .199E+00  .153E+00  .949E-01  .813E-01  .943E-01  .124E+00
  .153E+00  .157E+00  .161E+00  .133E+00  .000E+00  .000E+00  .000E+00  .000E+00
  .000E+00  .000E+00  .000E+00  .000E+00  .000E+00  .000E+00  .000E+00  .000E+00
  .000E+00  .000E+00  .000E+00  .000E+00  .000E+00  .000E+00  .000E+00  .000E+00
  .000E+00  .000E+00  .000E+00  .000E+00
  .607E-01  .835E-01  .590E-01  .536E-01  .632E-01  .703E-01  .890E-01  .992E-01
  .149E+00  .129E+00  .277E+00  .204E+00  .221E+00  .319E+00  .316E+00  .356E+00
  .768E+00  .110E+01  .872E+00  .103E+01  .401E+01  .266E+01  .490E+01  .146E+02
  .130E+02  .798E+01  .626E+01  .501E+01  .356E+01  .282E+01  .188E+01  .197E+01
  .160E+01  .203E+01  .369E+01  .153E+01  .369E+01  .170E+01  .235E+01  .234E+01
  .208E+01  .236E+01  .185E+01  .222E+01  .473E+01  .215E+01  .186E+01  .148E+01
  .134E+01  .171E+01  .254E+01  .167E+01  .132E+01  .207E+01  .335E+01  .144E+01
  .954E+00  .920E+00  .846E+00  .866E+00  .918E+00  .990E+00  .966E+00  .900E+00
  .850E+00  .829E+00  .824E+00  .825E+00  .829E+00  .830E+00  .828E+00  .825E+00
  .823E+00  .822E+00  .822E+00  .823E+00  .000E+00  .000E+00  .000E+00  .000E+00
  .000E+00  .000E+00  .000E+00  .000E+00  .000E+00  .000E+00  .000E+00  .000E+00
  .000E+00  .000E+00  .000E+00  .000E+00  .000E+00  .000E+00  .000E+00  .000E+00
  .000E+00  .000E+00  .000E+00  .000E+00
  .764E-01  .833E-01  .715E-01  .692E-01  .728E-01  .685E-01  .748E-01  .734E-01
  .738E-01  .735E-01  .107E+00  .809E-01  .872E-01  .970E-01  .102E+00  .995E-01
  .147E+00  .175E+00  .146E+00  .152E+00  .435E+00  .295E+00  .471E+00  .133E+01
  .111E+01  .640E+00  .457E+00  .340E+00  .211E+00  .161E+00  .912E-01  .102E+00
  .665E-01  .909E-01  .164E+00  .646E-01  .144E+00  .618E-01  .829E-01  .765E-01
  .688E-01  .738E-01  .523E-01  .555E-01  .108E+00  .472E-01  .381E-01  .258E-01
  .192E-01  .287E-01  .411E-01  .239E-01  .176E-01  .253E-01  .390E-01  .139E-01
  .671E-02  .857E-02  .548E-02  .463E-02  .554E-02  .552E-02  .224E-02  .153E-02
  .164E-02  .121E-02  .199E-02  .136E-02  .749E-03  .576E-03  .603E-03  .722E-03
  .809E-03  .757E-03  .716E-03  .546E-03  .000E+00  .000E+00  .000E+00  .000E+00
  .000E+00  .000E+00  .000E+00  .000E+00  .000E+00  .000E+00  .000E+00  .000E+00
  .000E+00  .000E+00  .000E+00  .000E+00  .000E+00  .000E+00  .000E+00  .000E+00
  .000E+00  .000E+00  .000E+00  .000E+00
  .188E+00  .215E+00  .193E+00  .195E+00  .215E+00  .210E+00  .253E+00  .271E+00
  .295E+00  .316E+00  .495E+00  .398E+00  .455E+00  .536E+00  .593E+00  .611E+00
  .992E+00  .129E+01  .117E+01  .131E+01  .401E+01  .290E+01  .492E+01  .147E+02
  .130E+02  .786E+01  .618E+01  .502E+01  .337E+01  .277E+01  .168E+01  .201E+01
  .139E+01  .201E+01  .382E+01  .159E+01  .372E+01  .167E+01  .234E+01  .226E+01
  .211E+01  .249E+01  .193E+01  .222E+01  .466E+01  .217E+01  .187E+01  .135E+01
  .106E+01  .167E+01  .252E+01  .162E+01  .130E+01  .202E+01  .335E+01  .128E+01
  .660E+00  .895E+00  .606E+00  .541E+00  .681E+00  .746E+00  .330E+00  .245E+00
  .282E+00  .224E+00  .391E+00  .283E+00  .166E+00  .134E+00  .148E+00  .186E+00
  .219E+00  .214E+00  .211E+00  .168E+00  .000E+00  .000E+00  .000E+00  .000E+00
  .000E+00  .000E+00  .000E+00  .000E+00  .000E+00  .000E+00  .000E+00  .000E+00
  .000E+00  .000E+00  .000E+00  .000E+00  .000E+00  .000E+00  .000E+00  .000E+00
  .000E+00  .000E+00  .000E+00  .000E+00
  .256E+02  .257E+02  .257E+02  .256E+02  .256E+02  .256E+02  .257E+02  .256E+02
  .257E+02  .256E+02  .257E+02  .257E+02  .257E+02  .257E+02  .256E+02  .256E+02
  .256E+02  .257E+02  .257E+02  .256E+02  .536E+02  .258E+02  .299E+02  .331E+02
  .313E+02  .262E+02  .269E+02  .353E+02  .265E+02  .288E+02  .273E+02  .353E+02
  .258E+02  .397E+02  .323E+02  .352E+02  .463E+02  .702E+02  .580E+02  .302E+02
  .543E+02  .309E+02  .309E+02  .548E+02  .338E+02  .438E+02  .384E+02  .638E+02
  .278E+02  .315E+02  .637E+02  .330E+02  .370E+02  .580E+02  .711E+02  .357E+02
  .443E+02  .651E+02  .650E+02  .323E+02  .685E+02  .383E+02  .484E+02  .377E+02
  .344E+02  .337E+02  .630E+02  .594E+02  .448E+02  .304E+02  .304E+02  .396E+02
  .377E+02  .702E+02  .670E+02  .631E+02  .000E+00  .000E+00  .000E+00  .000E+00
  .000E+00  .000E+00  .000E+00  .000E+00  .000E+00  .000E+00  .000E+00  .000E+00
  .000E+00  .000E+00  .000E+00  .000E+00  .000E+00  .000E+00  .000E+00  .000E+00
  .000E+00  .000E+00  .000E+00  .000E+00
  .340E+02  .256E+02  .256E+02  .256E+02  .255E+02  .256E+02  .256E+02  .256E+02
  .256E+02  .256E+02  .256E+02  .256E+02  .256E+02  .255E+02  .256E+02  .256E+02
  .255E+02  .256E+02  .257E+02  .255E+02  .536E+02  .258E+02  .298E+02  .331E+02
  .276E+02  .262E+02  .269E+02  .354E+02  .265E+02  .279E+02  .257E+02  .352E+02
  .257E+02  .398E+02  .324E+02  .371E+02  .462E+02  .257E+02  .581E+02  .300E+02
  .547E+02  .307E+02  .310E+02  .549E+02  .343E+02  .439E+02  .366E+02  .321E+02
  .264E+02  .317E+02  .639E+02  .332E+02  .367E+02  .577E+02  .707E+02  .354E+02
  .256E+02  .647E+02  .256E+02  .256E+02  .256E+02  .256E+02  .256E+02  .256E+02
  .256E+02  .256E+02  .256E+02  .256E+02  .256E+02  .256E+02  .256E+02  .256E+02
  .256E+02  .256E+02  .256E+02  .256E+02  .000E+00  .000E+00  .000E+00  .000E+00
  .000E+00  .000E+00  .000E+00  .000E+00  .000E+00  .000E+00  .000E+00  .000E+00
  .000E+00  .000E+00  .000E+00  .000E+00  .000E+00  .000E+00  .000E+00  .000E+00
  .000E+00  .000E+00  .000E+00  .000E+00
  .256E+02  .257E+02  .257E+02  .256E+02  .256E+02  .256E+02  .257E+02  .256E+02
  .257E+02  .256E+02  .257E+02  .257E+02  .257E+02  .257E+02  .256E+02  .256E+02
  .256E+02  .257E+02  .257E+02  .256E+02  .536E+02  .258E+02  .299E+02  .331E+02
  .313E+02  .262E+02  .269E+02  .353E+02  .265E+02  .288E+02  .273E+02  .353E+02
  .258E+02  .397E+02  .323E+02  .352E+02  .463E+02  .702E+02  .580E+02  .302E+02
  .543E+02  .309E+02  .309E+02  .548E+02  .338E+02  .438E+02  .384E+02  .638E+02
  .278E+02  .315E+02  .637E+02  .330E+02  .370E+02  .580E+02  .711E+02  .357E+02
  .443E+02  .651E+02  .650E+02  .323E+02  .685E+02  .383E+02  .484E+02  .377E+02
  .344E+02  .337E+02  .630E+02  .594E+02  .448E+02  .304E+02  .304E+02  .396E+02
  .377E+02  .702E+02  .670E+02  .631E+02  .000E+00  .000E+00  .000E+00  .000E+00
  .000E+00  .000E+00  .000E+00  .000E+00  .000E+00  .000E+00  .000E+00  .000E+00
  .000E+00  .000E+00  .000E+00  .000E+00  .000E+00  .000E+00  .000E+00  .000E+00
  .000E+00  .000E+00  .000E+00  .000E+00
Damping =  .02. Data of Sd,Sv,Sa,Pssv,ttSd,ttSv,ttSa :
  .106E-02  .119E-02  .127E-02  .142E-02  .155E-02  .167E-02  .204E-02  .243E-02
  .290E-02  .341E-02  .451E-02  .497E-02  .575E-02  .667E-02  .825E-02  .918E-02
  .145E-01  .208E-01  .279E-01  .345E-01  .516E-01  .772E-01  .961E-01  .150E+00
  .157E+00  .167E+00  .117E+00  .904E-01  .103E+00  .820E-01  .731E-01  .541E-01
  .592E-01  .523E-01  .944E-01  .668E-01  .841E-01  .863E-01  .931E-01  .975E-01
  .848E-01  .122E+00  .135E+00  .152E+00  .263E+00  .164E+00  .129E+00  .121E+00
  .101E+00  .169E+00  .183E+00  .200E+00  .167E+00  .283E+00  .321E+00  .228E+00
  .142E+00  .130E+00  .146E+00  .152E+00  .152E+00  .188E+00  .111E+00  .884E-01
  .106E+00  .933E-01  .101E+00  .105E+00  .893E-01  .764E-01  .872E-01  .114E+00
  .135E+00  .137E+00  .119E+00  .107E+00  .000E+00  .000E+00  .000E+00  .000E+00
  .000E+00  .000E+00  .000E+00  .000E+00  .000E+00  .000E+00  .000E+00  .000E+00
  .000E+00  .000E+00  .000E+00  .000E+00  .000E+00  .000E+00  .000E+00  .000E+00
  .000E+00  .000E+00  .000E+00  .000E+00
  .397E-01  .472E-01  .452E-01  .516E-01  .613E-01  .653E-01  .872E-01  .102E+00
  .137E+00  .146E+00  .168E+00  .166E+00  .194E+00  .243E+00  .286E+00  .311E+00
  .538E+00  .857E+00  .102E+01  .121E+01  .191E+01  .279E+01  .341E+01  .517E+01
  .521E+01  .521E+01  .343E+01  .257E+01  .270E+01  .213E+01  .180E+01  .138E+01
  .138E+01  .112E+01  .161E+01  .110E+01  .132E+01  .158E+01  .179E+01  .182E+01
  .154E+01  .154E+01  .134E+01  .147E+01  .233E+01  .135E+01  .113E+01  .104E+01
  .111E+01  .141E+01  .133E+01  .123E+01  .120E+01  .138E+01  .151E+01  .112E+01
  .956E+00  .901E+00  .871E+00  .883E+00  .920E+00  .974E+00  .957E+00  .904E+00
  .860E+00  .839E+00  .831E+00  .831E+00  .832E+00  .832E+00  .830E+00  .828E+00
  .826E+00  .826E+00  .826E+00  .826E+00  .000E+00  .000E+00  .000E+00  .000E+00
  .000E+00  .000E+00  .000E+00  .000E+00  .000E+00  .000E+00  .000E+00  .000E+00
  .000E+00  .000E+00  .000E+00  .000E+00  .000E+00  .000E+00  .000E+00  .000E+00
  .000E+00  .000E+00  .000E+00  .000E+00
  .681E-01  .689E-01  .672E-01  .685E-01  .688E-01  .682E-01  .690E-01  .691E-01
  .703E-01  .712E-01  .819E-01  .794E-01  .815E-01  .842E-01  .937E-01  .942E-01
  .123E+00  .148E+00  .169E+00  .180E+00  .234E+00  .309E+00  .339E+00  .476E+00
  .446E+00  .428E+00  .246E+00  .161E+00  .155E+00  .107E+00  .834E-01  .539E-01
  .521E-01  .412E-01  .669E-01  .428E-01  .489E-01  .457E-01  .451E-01  .433E-01
  .346E-01  .413E-01  .383E-01  .369E-01  .549E-01  .298E-01  .207E-01  .171E-01
  .128E-01  .192E-01  .187E-01  .169E-01  .119E-01  .172E-01  .167E-01  .104E-01
  .567E-02  .459E-02  .463E-02  .432E-02  .389E-02  .397E-02  .197E-02  .138E-02
  .139E-02  .107E-02  .102E-02  .929E-03  .707E-03  .548E-03  .568E-03  .660E-03
  .716E-03  .665E-03  .532E-03  .441E-03  .000E+00  .000E+00  .000E+00  .000E+00
  .000E+00  .000E+00  .000E+00  .000E+00  .000E+00  .000E+00  .000E+00  .000E+00
  .000E+00  .000E+00  .000E+00  .000E+00  .000E+00  .000E+00  .000E+00  .000E+00
  .000E+00  .000E+00  .000E+00  .000E+00
  .167E+00  .178E+00  .182E+00  .193E+00  .203E+00  .209E+00  .233E+00  .255E+00
  .281E+00  .306E+00  .378E+00  .390E+00  .425E+00  .466E+00  .546E+00  .577E+00
  .827E+00  .109E+01  .135E+01  .155E+01  .216E+01  .303E+01  .355E+01  .525E+01
  .520E+01  .524E+01  .334E+01  .237E+01  .248E+01  .184E+01  .153E+01  .106E+01
  .109E+01  .913E+00  .156E+01  .105E+01  .126E+01  .123E+01  .127E+01  .128E+01
  .107E+01  .140E+01  .141E+01  .147E+01  .236E+01  .137E+01  .102E+01  .892E+00
  .705E+00  .112E+01  .115E+01  .114E+01  .877E+00  .137E+01  .144E+01  .954E+00
  .556E+00  .479E+00  .511E+00  .503E+00  .478E+00  .537E+00  .290E+00  .214E+00
  .237E+00  .195E+00  .199E+00  .193E+00  .156E+00  .126E+00  .137E+00  .170E+00
  .193E+00  .187E+00  .156E+00  .135E+00  .000E+00  .000E+00  .000E+00  .000E+00
  .000E+00  .000E+00  .000E+00  .000E+00  .000E+00  .000E+00  .000E+00  .000E+00
  .000E+00  .000E+00  .000E+00  .000E+00  .000E+00  .000E+00  .000E+00  .000E+00
  .000E+00  .000E+00  .000E+00  .000E+00
  .256E+02  .257E+02  .257E+02  .257E+02  .257E+02  .257E+02  .257E+02  .256E+02
  .257E+02  .257E+02  .257E+02  .257E+02  .256E+02  .257E+02  .256E+02  .256E+02
  .256E+02  .256E+02  .257E+02  .257E+02  .257E+02  .258E+02  .259E+02  .267E+02
  .269E+02  .259E+02  .269E+02  .266E+02  .265E+02  .264E+02  .258E+02  .312E+02
  .258E+02  .320E+02  .311E+02  .281E+02  .308E+02  .258E+02  .258E+02  .301E+02
  .257E+02  .309E+02  .309E+02  .327E+02  .328E+02  .363E+02  .345E+02  .319E+02
  .274E+02  .315E+02  .316E+02  .330E+02  .370E+02  .392E+02  .388E+02  .357E+02
  .322E+02  .438E+02  .322E+02  .323E+02  .323E+02  .383E+02  .377E+02  .377E+02
  .344E+02  .319E+02  .630E+02  .477E+02  .377E+02  .377E+02  .304E+02  .377E+02
  .377E+02  .378E+02  .378E+02  .389E+02  .000E+00  .000E+00  .000E+00  .000E+00
  .000E+00  .000E+00  .000E+00  .000E+00  .000E+00  .000E+00  .000E+00  .000E+00
  .000E+00  .000E+00  .000E+00  .000E+00  .000E+00  .000E+00  .000E+00  .000E+00
  .000E+00  .000E+00  .000E+00  .000E+00
  .256E+02  .256E+02  .256E+02  .256E+02  .256E+02  .256E+02  .256E+02  .256E+02
  .256E+02  .256E+02  .256E+02  .256E+02  .256E+02  .256E+02  .256E+02  .256E+02
  .256E+02  .256E+02  .257E+02  .257E+02  .257E+02  .258E+02  .258E+02  .267E+02
  .267E+02  .260E+02  .256E+02  .266E+02  .265E+02  .264E+02  .257E+02  .257E+02
  .257E+02  .256E+02  .310E+02  .278E+02  .265E+02  .257E+02  .257E+02  .257E+02
  .257E+02  .257E+02  .307E+02  .325E+02  .333E+02  .256E+02  .335E+02  .321E+02
  .264E+02  .256E+02  .314E+02  .332E+02  .256E+02  .395E+02  .392E+02  .353E+02
  .256E+02  .256E+02  .256E+02  .256E+02  .256E+02  .256E+02  .256E+02  .256E+02
  .256E+02  .256E+02  .256E+02  .256E+02  .256E+02  .256E+02  .256E+02  .256E+02
  .256E+02  .256E+02  .256E+02  .256E+02  .000E+00  .000E+00  .000E+00  .000E+00
  .000E+00  .000E+00  .000E+00  .000E+00  .000E+00  .000E+00  .000E+00  .000E+00
  .000E+00  .000E+00  .000E+00  .000E+00  .000E+00  .000E+00  .000E+00  .000E+00
  .000E+00  .000E+00  .000E+00  .000E+00
  .256E+02  .257E+02  .257E+02  .257E+02  .257E+02  .257E+02  .257E+02  .256E+02
  .257E+02  .257E+02  .257E+02  .257E+02  .256E+02  .257E+02  .256E+02  .256E+02
  .256E+02  .256E+02  .257E+02  .257E+02  .257E+02  .258E+02  .258E+02  .267E+02
  .269E+02  .259E+02  .269E+02  .267E+02  .265E+02  .264E+02  .258E+02  .312E+02
  .258E+02  .320E+02  .311E+02  .281E+02  .308E+02  .258E+02  .258E+02  .301E+02
  .257E+02  .309E+02  .309E+02  .327E+02  .328E+02  .362E+02  .341E+02  .319E+02
  .274E+02  .315E+02  .316E+02  .330E+02  .370E+02  .392E+02  .388E+02  .357E+02
  .322E+02  .438E+02  .322E+02  .322E+02  .323E+02  .383E+02  .376E+02  .256E+02
  .344E+02  .319E+02  .308E+02  .477E+02  .377E+02  .304E+02  .304E+02  .377E+02
  .377E+02  .377E+02  .377E+02  .389E+02  .000E+00  .000E+00  .000E+00  .000E+00
  .000E+00  .000E+00  .000E+00  .000E+00  .000E+00  .000E+00  .000E+00  .000E+00
  .000E+00  .000E+00  .000E+00  .000E+00  .000E+00  .000E+00  .000E+00  .000E+00
  .000E+00  .000E+00  .000E+00  .000E+00
Damping =  .05. Data of Sd,Sv,Sa,Pssv,ttSd,ttSv,ttSa :
  .103E-02  .116E-02  .127E-02  .140E-02  .153E-02  .166E-02  .199E-02  .237E-02
