Response and Fourier amplitude spectra (76 periods,  .04 -  5.0 sec)   for      
Corrected accelerogram   24605-E0823-14091.06       Chan  2:  90 Deg     from   
Uncorrected Accelerogram Data             Processed: 04/01/14, CGS  e0823e06    
Rcrd of Thu Mar 27, 2014 23:11:30.4 PDT*              (Avol1 v0.5, 2/14 CSMIP)  
CSMIP Preliminary Processing            (Origin:  To be determined)             
24605-E0823-14091.06                 Start time:  3/28/14, 06:11:30.4(*LoQ*)    
Station No. 24605   34.062N, 118.201W    SSA-1   s/n  823  (4 Chns of 27 at Sta)
Los Angeles - 7-story Univ. Hospital      CGS   Data: Acceleration              
Chan  2:  90 DegR (Sta Chn: 22)     Location: Roof: North wall                  
Rcrd of Thu Mar 27, 2014 23:11:30.4 PDT*   Thu Mar 27, 2014 23:11:30.4 PDT*     
Hypocenter:  To be determined.               ML:  To be determined.
Instr Period =  .0188 sec,  Damping =  .630,  Sensitivity = 1.24 v/g
                        Record length = 78.080 sec.
                                     Uncor Max  =  -.030 g , at  28.860 sec.
RMS accel of (uncor) record  =        .   Chn. metadata effective date: 05/02/91
Accelerogram bandpass filtered with 3 dB pts at   .20 and 40.00 cyc/sec
                 instrument- and baseline-corrected





Rcrd of Thu Mar 27, 2014 23:11:30.4 PDT*   Thu Mar 27, 2014 23:11:30.4 PDT*

24605-E0823-14091.06      Los Angeles - 7-story Univ. Hospital    Chan  2:  90 D
eg
24605-E0823-14091.06      Los Angeles - 7-story Univ. Hospital    Chan  2:  90 D
eg
Units for spectra are inches and sec, except Sa is in fraction of g.

    2  100   22    4   27  200    1    3    1   12    5  823    024605    2    0
    6   11   30  410   87    3   28 2014    0    6   9015616   39   36   74   -1
15616    0  100    3 2115    7    6   61    2    6   11   30  410    3   28 2014
    0    0    3    0 7808    2  220    1   12    4    0    0    3    1    0 7808
    3 7808    4   76    5    4    5    0    1    0    0    0    1    3    6    2
    2    2    4    0   72   99    2    3    0    0  772    1    0    0    0  222
    1    0    2    0
      .019      .630    78.080      .006      .000  1239.000     -.030    28.860
    53.100  1220.703   985.232      .000     5.000  -999.000     2.000      .000
     2.500     6.046     2.500   376.000    15.360    30.000  -999.000     -.083
      .005      .089     2.000    15.000    34.062  -118.201      .220     1.116
     5.074      .029      .149   115.000      .000      .000      .000      .000
     1.000     6.483      .000  -999.000  -999.000  -999.000  -999.000      .000
     9.200      .500     6.300   980.665      .010    78.080     8.451      .000
      .000    40.000      .000    78.080      .010      .200      .000      .000
    28.870   -29.105    28.680     3.892    24.610      .628     -.002      .200
    40.000      .010      .010     -.004      .010      .336      .000      .000
      .153      .950      .051      .082      .131      .004      .000      .000
      .000      .000      .000      .000      .000      .000      .000      .000
      .000      .000      .000      .000
      .000      .020      .050      .100      .200
      .040      .042      .044      .046      .048      .050      .055      .060
      .065      .070      .075      .080      .085      .090      .095      .100
      .110      .120      .130      .140      .150      .160      .170      .180
      .190      .200      .220      .240      .260      .280      .300      .320
      .340      .360      .380      .400      .420      .440      .460      .480
      .500      .550      .600      .650      .700      .750      .800      .850
      .900      .950     1.000     1.100     1.200     1.300     1.400     1.500
     1.600     1.700     1.800     1.900     2.000     2.200     2.400     2.600
     2.800     3.000     3.200     3.400     3.600     3.800     4.000     4.200
     4.400     4.600     4.800     5.000      .000      .000      .000      .000
      .000      .000      .000      .000      .000      .000      .000      .000
      .000      .000      .000      .000      .000      .000      .000      .000
      .000      .000      .000      .000
Fourier amplitude spectra in in/sec.
  .392E-01  .453E-01  .394E-01  .727E-01  .117E-01  .728E-01  .135E+00  .937E-01
  .121E+00  .113E+00  .482E-01  .128E+00  .987E-01  .267E+00  .107E+00  .269E+00
  .324E-01  .485E+00  .178E+00  .325E+00  .805E+00  .747E+00  .637E+00  .320E+00
  .181E+01  .293E+01  .232E+01  .152E+01  .618E+01  .509E+01  .442E+01  .515E+01
  .148E+01  .306E+00  .616E+00  .107E+01  .111E+01  .219E+01  .411E+01  .452E+01
  .593E+01  .322E+01  .387E+01  .458E+00  .562E+01  .192E+02  .180E+01  .167E+02
  .170E+02  .174E+02  .278E+02  .105E+02  .561E+01  .464E+01  .944E+00  .550E+01
  .270E+01  .100E+01  .363E-01  .152E+01  .110E+01  .623E+00  .310E+00  .320E+00
  .617E+00  .566E+00  .122E+01  .301E+00  .374E+00  .600E+00  .645E+00  .494E+00
  .301E+00  .524E+00  .489E+00  .404E+00  .000E+00  .000E+00  .000E+00  .000E+00
  .000E+00  .000E+00  .000E+00  .000E+00  .000E+00  .000E+00  .000E+00  .000E+00
  .000E+00  .000E+00  .000E+00  .000E+00  .000E+00  .000E+00  .000E+00  .000E+00
  .000E+00  .000E+00  .000E+00  .000E+00
Damping =  .00. Data of Sd,Sv,Sa,Pssv,ttSd,ttSv,ttSa :
  .597E-03  .669E-03  .794E-03  .108E-02  .117E-02  .942E-03  .161E-02  .182E-02
  .238E-02  .194E-02  .259E-02  .212E-02  .266E-02  .484E-02  .390E-02  .557E-02
  .616E-02  .118E-01  .110E-01  .210E-01  .271E-01  .297E-01  .388E-01  .255E-01
  .607E-01  .101E+00  .982E-01  .675E-01  .262E+00  .260E+00  .254E+00  .280E+00
  .208E+00  .977E-01  .149E+00  .172E+00  .179E+00  .225E+00  .418E+00  .519E+00
  .564E+00  .444E+00  .771E+00  .432E+00  .865E+00  .257E+01  .111E+01  .234E+01
  .281E+01  .365E+01  .462E+01  .197E+01  .131E+01  .110E+01  .877E+00  .133E+01
  .104E+01  .665E+00  .544E+00  .461E+00  .377E+00  .373E+00  .319E+00  .334E+00
  .359E+00  .454E+00  .621E+00  .486E+00  .410E+00  .424E+00  .479E+00  .444E+00
  .374E+00  .385E+00  .471E+00  .363E+00  .000E+00  .000E+00  .000E+00  .000E+00
  .000E+00  .000E+00  .000E+00  .000E+00  .000E+00  .000E+00  .000E+00  .000E+00
  .000E+00  .000E+00  .000E+00  .000E+00  .000E+00  .000E+00  .000E+00  .000E+00
  .000E+00  .000E+00  .000E+00  .000E+00
  .634E-01  .484E-01  .541E-01  .956E-01  .784E-01  .917E-01  .139E+00  .122E+00
  .207E+00  .125E+00  .941E-01  .129E+00  .112E+00  .271E+00  .122E+00  .286E+00
  .258E+00  .520E+00  .406E+00  .794E+00  .100E+01  .976E+00  .117E+01  .661E+00
  .187E+01  .309E+01  .271E+01  .172E+01  .622E+01  .574E+01  .503E+01  .540E+01
  .362E+01  .153E+01  .226E+01  .247E+01  .231E+01  .298E+01  .555E+01  .673E+01
  .697E+01  .479E+01  .759E+01  .401E+01  .768E+01  .216E+02  .883E+01  .173E+02
  .197E+02  .242E+02  .291E+02  .114E+02  .685E+01  .580E+01  .466E+01  .564E+01
  .481E+01  .347E+01  .268E+01  .235E+01  .199E+01  .197E+01  .173E+01  .187E+01
  .176E+01  .183E+01  .205E+01  .175E+01  .172E+01  .172E+01  .166E+01  .157E+01
  .153E+01  .158E+01  .158E+01  .159E+01  .000E+00  .000E+00  .000E+00  .000E+00
  .000E+00  .000E+00  .000E+00  .000E+00  .000E+00  .000E+00  .000E+00  .000E+00
  .000E+00  .000E+00  .000E+00  .000E+00  .000E+00  .000E+00  .000E+00  .000E+00
  .000E+00  .000E+00  .000E+00  .000E+00
  .381E-01  .388E-01  .419E-01  .522E-01  .518E-01  .385E-01  .544E-01  .516E-01
  .576E-01  .405E-01  .472E-01  .339E-01  .377E-01  .612E-01  .442E-01  .570E-01
  .521E-01  .839E-01  .667E-01  .110E+00  .123E+00  .119E+00  .137E+00  .805E-01
  .172E+00  .259E+00  .208E+00  .120E+00  .396E+00  .339E+00  .288E+00  .279E+00
  .184E+00  .771E-01  .106E+00  .110E+00  .104E+00  .119E+00  .202E+00  .230E+00
  .231E+00  .150E+00  .219E+00  .105E+00  .181E+00  .468E+00  .177E+00  .331E+00
  .355E+00  .414E+00  .472E+00  .167E+00  .927E-01  .667E-01  .458E-01  .605E-01
  .414E-01  .235E-01  .172E-01  .131E-01  .963E-02  .788E-02  .567E-02  .506E-02
  .468E-02  .516E-02  .620E-02  .430E-02  .323E-02  .300E-02  .306E-02  .257E-02
  .198E-02  .186E-02  .209E-02  .148E-02  .000E+00  .000E+00  .000E+00  .000E+00
  .000E+00  .000E+00  .000E+00  .000E+00  .000E+00  .000E+00  .000E+00  .000E+00
  .000E+00  .000E+00  .000E+00  .000E+00  .000E+00  .000E+00  .000E+00  .000E+00
  .000E+00  .000E+00  .000E+00  .000E+00
  .937E-01  .100E+00  .113E+00  .147E+00  .153E+00  .118E+00  .184E+00  .190E+00
  .230E+00  .174E+00  .217E+00  .167E+00  .197E+00  .338E+00  .258E+00  .350E+00
  .352E+00  .619E+00  .532E+00  .944E+00  .114E+01  .117E+01  .143E+01  .890E+00
  .201E+01  .318E+01  .281E+01  .177E+01  .633E+01  .584E+01  .531E+01  .549E+01
  .385E+01  .171E+01  .247E+01  .271E+01  .268E+01  .321E+01  .571E+01  .679E+01
  .709E+01  .507E+01  .808E+01  .418E+01  .776E+01  .216E+02  .869E+01  .173E+02
  .196E+02  .242E+02  .290E+02  .113E+02  .684E+01  .532E+01  .394E+01  .558E+01
  .407E+01  .246E+01  .190E+01  .152E+01  .118E+01  .106E+01  .835E+00  .808E+00
  .804E+00  .951E+00  .122E+01  .899E+00  .715E+00  .701E+00  .753E+00  .664E+00
  .534E+00  .526E+00  .617E+00  .456E+00  .000E+00  .000E+00  .000E+00  .000E+00
  .000E+00  .000E+00  .000E+00  .000E+00  .000E+00  .000E+00  .000E+00  .000E+00
  .000E+00  .000E+00  .000E+00  .000E+00  .000E+00  .000E+00  .000E+00  .000E+00
  .000E+00  .000E+00  .000E+00  .000E+00
  .289E+02  .193E+02  .230E+02  .285E+02  .285E+02  .285E+02  .289E+02  .285E+02
  .449E+02  .230E+02  .289E+02  .230E+02  .197E+02  .288E+02  .289E+02  .289E+02
  .165E+02  .230E+02  .201E+02  .197E+02  .288E+02  .197E+02  .230E+02  .230E+02
  .289E+02  .314E+02  .289E+02  .366E+02  .619E+02  .381E+02  .285E+02  .616E+02
  .241E+02  .227E+02  .206E+02  .339E+02  .285E+02  .288E+02  .376E+02  .330E+02
  .354E+02  .292E+02  .246E+02  .184E+02  .346E+02  .394E+02  .317E+02  .627E+02
  .336E+02  .271E+02  .584E+02  .376E+02  .527E+02  .279E+02  .256E+02  .738E+02
  .284E+02  .246E+02  .216E+02  .777E+02  .246E+02  .285E+02  .216E+02  .216E+02
  .598E+02  .409E+02  .771E+02  .285E+02  .251E+02  .620E+02  .342E+02  .325E+02
  .325E+02  .748E+02  .619E+02  .607E+02  .000E+00  .000E+00  .000E+00  .000E+00
  .000E+00  .000E+00  .000E+00  .000E+00  .000E+00  .000E+00  .000E+00  .000E+00
  .000E+00  .000E+00  .000E+00  .000E+00  .000E+00  .000E+00  .000E+00  .000E+00
  .000E+00  .000E+00  .000E+00  .000E+00
  .528E+02  .753E+02  .710E+02  .614E+02  .299E+02  .549E+02  .711E+02  .541E+02
  .448E+02  .735E+02  .290E+02  .765E+02  .739E+02  .737E+02  .729E+02  .687E+02
  .165E+02  .591E+02  .160E+02  .194E+02  .174E+02  .196E+02  .230E+02  .169E+02
  .585E+02  .314E+02  .349E+02  .365E+02  .620E+02  .382E+02  .290E+02  .653E+02
  .242E+02  .228E+02  .207E+02  .338E+02  .277E+02  .445E+02  .387E+02  .331E+02
  .353E+02  .293E+02  .248E+02  .316E+02  .345E+02  .392E+02  .319E+02  .625E+02
  .334E+02  .274E+02  .581E+02  .379E+02  .524E+02  .282E+02  .253E+02  .622E+02
  .287E+02  .244E+02  .214E+02  .214E+02  .244E+02  .287E+02  .287E+02  .287E+02
  .214E+02  .287E+02  .287E+02  .287E+02  .248E+02  .249E+02  .249E+02  .249E+02
  .287E+02  .287E+02  .287E+02  .287E+02  .000E+00  .000E+00  .000E+00  .000E+00
  .000E+00  .000E+00  .000E+00  .000E+00  .000E+00  .000E+00  .000E+00  .000E+00
  .000E+00  .000E+00  .000E+00  .000E+00  .000E+00  .000E+00  .000E+00  .000E+00
  .000E+00  .000E+00  .000E+00  .000E+00
  .289E+02  .193E+02  .230E+02  .285E+02  .285E+02  .285E+02  .289E+02  .285E+02
  .449E+02  .230E+02  .289E+02  .230E+02  .197E+02  .288E+02  .289E+02  .289E+02
  .165E+02  .230E+02  .201E+02  .197E+02  .288E+02  .197E+02  .230E+02  .230E+02
  .289E+02  .314E+02  .289E+02  .366E+02  .619E+02  .381E+02  .285E+02  .616E+02
  .241E+02  .227E+02  .206E+02  .339E+02  .285E+02  .288E+02  .376E+02  .330E+02
  .354E+02  .292E+02  .246E+02  .184E+02  .346E+02  .394E+02  .317E+02  .627E+02
  .336E+02  .271E+02  .584E+02  .376E+02  .527E+02  .279E+02  .256E+02  .738E+02
  .284E+02  .246E+02  .216E+02  .777E+02  .246E+02  .285E+02  .216E+02  .216E+02
  .598E+02  .409E+02  .771E+02  .285E+02  .251E+02  .620E+02  .342E+02  .325E+02
  .325E+02  .748E+02  .619E+02  .607E+02  .000E+00  .000E+00  .000E+00  .000E+00
  .000E+00  .000E+00  .000E+00  .000E+00  .000E+00  .000E+00  .000E+00  .000E+00
  .000E+00  .000E+00  .000E+00  .000E+00  .000E+00  .000E+00  .000E+00  .000E+00
  .000E+00  .000E+00  .000E+00  .000E+00
Damping =  .02. Data of Sd,Sv,Sa,Pssv,ttSd,ttSv,ttSa :
  .482E-03  .522E-03  .572E-03  .628E-03  .694E-03  .764E-03  .890E-03  .112E-02
  .131E-02  .148E-02  .172E-02  .192E-02  .217E-02  .241E-02  .269E-02  .303E-02
  .440E-02  .606E-02  .639E-02  .850E-02  .140E-01  .127E-01  .142E-01  .144E-01
  .199E-01  .272E-01  .368E-01  .493E-01  .922E-01  .104E+00  .104E+00  .949E-01
  .110E+00  .961E-01  .817E-01  .106E+00  .116E+00  .128E+00  .172E+00  .235E+00
  .249E+00  .257E+00  .402E+00  .325E+00  .584E+00  .821E+00  .979E+00  .135E+01
  .149E+01  .219E+01  .233E+01  .132E+01  .102E+01  .899E+00  .764E+00  .831E+00
  .754E+00  .584E+00  .499E+00  .400E+00  .349E+00  .329E+00  .309E+00  .315E+00
  .325E+00  .348E+00  .348E+00  .418E+00  .379E+00  .368E+00  .388E+00  .378E+00
  .338E+00  .315E+00  .310E+00  .313E+00  .000E+00  .000E+00  .000E+00  .000E+00
  .000E+00  .000E+00  .000E+00  .000E+00  .000E+00  .000E+00  .000E+00  .000E+00
  .000E+00  .000E+00  .000E+00  .000E+00  .000E+00  .000E+00  .000E+00  .000E+00
  .000E+00  .000E+00  .000E+00  .000E+00
  .125E-01  .163E-01  .164E-01  .143E-01  .161E-01  .182E-01  .186E-01  .209E-01
  .287E-01  .323E-01  .330E-01  .488E-01  .671E-01  .733E-01  .624E-01  .708E-01
  .118E+00  .153E+00  .245E+00  .309E+00  .467E+00  .388E+00  .407E+00  .412E+00
  .465E+00  .657E+00  .744E+00  .108E+01  .200E+01  .233E+01  .186E+01  .166E+01
  .183E+01  .146E+01  .117E+01  .147E+01  .152E+01  .168E+01  .218E+01  .306E+01
  .292E+01  .266E+01  .384E+01  .311E+01  .515E+01  .683E+01  .788E+01  .103E+02
  .107E+02  .146E+02  .147E+02  .824E+01  .607E+01  .478E+01  .418E+01  .390E+01
  .392E+01  .302E+01  .250E+01  .226E+01  .196E+01  .195E+01  .176E+01  .182E+01
  .171E+01  .180E+01  .193E+01  .172E+01  .166E+01  .167E+01  .163E+01  .156E+01
  .151E+01  .156E+01  .158E+01  .159E+01  .000E+00  .000E+00  .000E+00  .000E+00
  .000E+00  .000E+00  .000E+00  .000E+00  .000E+00  .000E+00  .000E+00  .000E+00
  .000E+00  .000E+00  .000E+00  .000E+00  .000E+00  .000E+00  .000E+00  .000E+00
  .000E+00  .000E+00  .000E+00  .000E+00
  .308E-01  .303E-01  .302E-01  .304E-01  .308E-01  .312E-01  .301E-01  .317E-01
  .316E-01  .309E-01  .312E-01  .306E-01  .308E-01  .304E-01  .305E-01  .309E-01
  .373E-01  .431E-01  .386E-01  .443E-01  .634E-01  .509E-01  .502E-01  .454E-01
  .567E-01  .694E-01  .780E-01  .875E-01  .139E+00  .136E+00  .119E+00  .946E-01
  .974E-01  .758E-01  .580E-01  .678E-01  .676E-01  .675E-01  .834E-01  .104E+00
  .102E+00  .870E-01  .114E+00  .787E-01  .122E+00  .150E+00  .157E+00  .192E+00
  .188E+00  .249E+00  .238E+00  .111E+00  .729E-01  .545E-01  .399E-01  .378E-01
  .302E-01  .207E-01  .158E-01  .114E-01  .894E-02  .698E-02  .552E-02  .479E-02
  .425E-02  .397E-02  .349E-02  .372E-02  .301E-02  .263E-02  .249E-02  .220E-02
  .180E-02  .155E-02  .140E-02  .130E-02  .000E+00  .000E+00  .000E+00  .000E+00
  .000E+00  .000E+00  .000E+00  .000E+00  .000E+00  .000E+00  .000E+00  .000E+00
  .000E+00  .000E+00  .000E+00  .000E+00  .000E+00  .000E+00  .000E+00  .000E+00
  .000E+00  .000E+00  .000E+00  .000E+00
  .757E-01  .781E-01  .817E-01  .858E-01  .908E-01  .959E-01  .102E+00  .117E+00
  .126E+00  .133E+00  .144E+00  .151E+00  .161E+00  .168E+00  .178E+00  .190E+00
  .252E+00  .317E+00  .309E+00  .382E+00  .585E+00  .500E+00  .524E+00  .504E+00
  .659E+00  .853E+00  .105E+01  .129E+01  .223E+01  .234E+01  .218E+01  .186E+01
  .203E+01  .168E+01  .135E+01  .167E+01  .174E+01  .182E+01  .235E+01  .307E+01
  .312E+01  .294E+01  .420E+01  .314E+01  .524E+01  .688E+01  .769E+01  .999E+01
  .104E+02  .145E+02  .146E+02  .753E+01  .537E+01  .435E+01  .343E+01  .348E+01
  .296E+01  .216E+01  .174E+01  .132E+01  .110E+01  .940E+00  .810E+00  .761E+00
  .729E+00  .729E+00  .683E+00  .772E+00  .662E+00  .609E+00  .609E+00  .566E+00
  .483E+00  .430E+00  .406E+00  .393E+00  .000E+00  .000E+00  .000E+00  .000E+00
  .000E+00  .000E+00  .000E+00  .000E+00  .000E+00  .000E+00  .000E+00  .000E+00
  .000E+00  .000E+00  .000E+00  .000E+00  .000E+00  .000E+00  .000E+00  .000E+00
  .000E+00  .000E+00  .000E+00  .000E+00
  .285E+02  .288E+02  .289E+02  .289E+02  .289E+02  .289E+02  .289E+02  .285E+02
  .289E+02  .288E+02  .289E+02  .289E+02  .285E+02  .221E+02  .230E+02  .221E+02
  .221E+02  .193E+02  .230E+02  .166E+02  .166E+02  .175E+02  .216E+02  .169E+02
  .165E+02  .189E+02  .231E+02  .170E+02  .198E+02  .176E+02  .231E+02  .232E+02
  .232E+02  .227E+02  .206E+02  .227E+02  .222E+02  .288E+02  .289E+02  .304E+02
  .292E+02  .193E+02  .201E+02  .184E+02  .343E+02  .236E+02  .302E+02  .299E+02
  .296E+02  .262E+02  .259E+02  .288E+02  .226E+02  .226E+02  .250E+02  .289E+02
  .284E+02  .246E+02  .216E+02  .211E+02  .211E+02  .284E+02  .216E+02  .216E+02
  .211E+02  .211E+02  .251E+02  .285E+02  .251E+02  .279E+02  .342E+02  .325E+02
  .325E+02  .289E+02  .289E+02  .289E+02  .000E+00  .000E+00  .000E+00  .000E+00
  .000E+00  .000E+00  .000E+00  .000E+00  .000E+00  .000E+00  .000E+00  .000E+00
  .000E+00  .000E+00  .000E+00  .000E+00  .000E+00  .000E+00  .000E+00  .000E+00
  .000E+00  .000E+00  .000E+00  .000E+00
  .165E+02  .165E+02  .165E+02  .165E+02  .165E+02  .166E+02  .194E+02  .165E+02
  .230E+02  .179E+02  .163E+02  .186E+02  .166E+02  .166E+02  .186E+02  .164E+02
  .164E+02  .194E+02  .119E+02  .120E+02  .167E+02  .176E+02  .169E+02  .169E+02
  .176E+02  .189E+02  .237E+02  .169E+02  .198E+02  .176E+02  .232E+02  .232E+02
  .233E+02  .228E+02  .173E+02  .228E+02  .223E+02  .203E+02  .304E+02  .305E+02
  .305E+02  .195E+02  .203E+02  .176E+02  .342E+02  .329E+02  .304E+02  .301E+02
  .298E+02  .264E+02  .261E+02  .290E+02  .229E+02  .224E+02  .253E+02  .286E+02
  .287E+02  .244E+02  .214E+02  .214E+02  .244E+02  .287E+02  .287E+02  .287E+02
  .214E+02  .287E+02  .287E+02  .287E+02  .248E+02  .248E+02  .249E+02  .249E+02
  .287E+02  .287E+02  .287E+02  .287E+02  .000E+00  .000E+00  .000E+00  .000E+00
  .000E+00  .000E+00  .000E+00  .000E+00  .000E+00  .000E+00  .000E+00  .000E+00
  .000E+00  .000E+00  .000E+00  .000E+00  .000E+00  .000E+00  .000E+00  .000E+00
  .000E+00  .000E+00  .000E+00  .000E+00
  .285E+02  .288E+02  .289E+02  .289E+02  .289E+02  .289E+02  .289E+02  .285E+02
  .289E+02  .288E+02  .289E+02  .289E+02  .285E+02  .221E+02  .230E+02  .221E+02
  .221E+02  .193E+02  .230E+02  .166E+02  .166E+02  .175E+02  .216E+02  .169E+02
  .164E+02  .189E+02  .231E+02  .170E+02  .198E+02  .176E+02  .231E+02  .232E+02
  .232E+02  .227E+02  .206E+02  .227E+02  .222E+02  .288E+02  .289E+02  .303E+02
  .292E+02  .193E+02  .201E+02  .184E+02  .343E+02  .236E+02  .302E+02  .299E+02
  .291E+02  .262E+02  .259E+02  .288E+02  .226E+02  .226E+02  .250E+02  .288E+02
  .284E+02  .246E+02  .216E+02  .210E+02  .211E+02  .284E+02  .216E+02  .216E+02
  .211E+02  .211E+02  .250E+02  .284E+02  .251E+02  .279E+02  .341E+02  .325E+02
  .325E+02  .288E+02  .288E+02  .288E+02  .000E+00  .000E+00  .000E+00  .000E+00
  .000E+00  .000E+00  .000E+00  .000E+00  .000E+00  .000E+00  .000E+00  .000E+00
  .000E+00  .000E+00  .000E+00  .000E+00  .000E+00  .000E+00  .000E+00  .000E+00
  .000E+00  .000E+00  .000E+00  .000E+00
Damping =  .05. Data of Sd,Sv,Sa,Pssv,ttSd,ttSv,ttSa :
  .469E-03  .512E-03  .565E-03  .622E-03  .683E-03  .743E-03  .887E-03  .107E-02
