Response and Fourier amplitude spectra (76 periods,  .04 -  5.0 sec)   for      
Corrected accelerogram   24468-M0270-14087.35       Chan  2: 180 Deg     from   
Uncorrected Accelerogram Data             Processed: 03/28/14, CGS  468as035    
Rcrd of Fri Mar 28, 2014 21:09:29.0 PDT               (Avol1 v0.5, 2/14 CSMIP)  
CSMIP Preliminary Processing            (Origin:  To be determined)             
24468-M0270-14087.35                 Start time:  3/29/14, 04:09:29.0 UTC (GPS) 
Station No. 24468   34.066N, 118.169W    MtWtny  s/n  270 (16 Chns of 16 at Sta)
Los Angeles - 8-story CSULA Admin. Bldg.  CGS   Data: Acceleration              
Chan  2: 180 DegR                   Location: Roof: West Wall                   
Rcrd of Fri Mar 28, 2014 21:09:29.0 PDT    Fri Mar 28, 2014 21:09:29.0 PDT      
Hypocenter:  To be determined.               ML:  To be determined.
Instr Period =  .0193 sec,  Damping =  .680,  Sensitivity = 2.50 v/g
                        Record length = 72.000 sec.
                                     Uncor Max  =  -.045 g , at  30.695 sec.
RMS accel of (uncor) record  =        .   Chn. metadata effective date: 03/27/08
Accelerogram bandpass filtered with 3 dB pts at   .20 and 40.00 cyc/sec
                 instrument- and baseline-corrected





Rcrd of Fri Mar 28, 2014 21:09:29.0 PDT    Fri Mar 28, 2014 21:09:29.0 PDT

24468-M0270-14087.35      Los Angeles - 8-story CSULA Admin. Bldg.  CGChan  2: 1
80 Deg
24468-M0270-14087.35      Los Angeles - 8-story CSULA Admin. Bldg.  CGChan  2: 1
80 Deg
Units for spectra are inches and sec, except Sa is in fraction of g.

    2  100    2   18   16  200    1    3    1   24   13  270    024468    2    0
    4    9   29    0   88    3   29 2014   10    3  18014400   39   40   74   -1
14400    0  100    3  270    1   35  720    2    0    0    0    0    0    0    0
    0    0    3    0 7200    2  333    1   18    2    0    0    3    1    0 7200
    3 7200    4   76    5   16    5    0    0    0    0    0    1    3    1    2
    2    2    4    0   79   99    0    1    0    0   96    1    0    0    0  222
    1    0    6    0
      .019      .680    72.000      .007      .000  2499.000     -.045    30.695
    51.700      .298      .119      .000     5.000  -999.000     1.000      .000
     2.500    -7.740     2.500  -999.000    23.000    30.000  -999.000     -.014
      .080      .094     2.000    15.000    34.066  -118.169      .049     4.511
    92.807     -.118      .306   150.000    23.500    41.700    13.000    97.160
     1.000     1.044      .000  -999.000  -999.000  -999.000  -999.000      .000
      .100      .500     6.300   980.665      .010    72.000     8.228      .000
      .000    40.000      .000    72.000      .010      .200      .000      .000
    30.690   -44.394    30.560     4.756    30.730      .906      .000      .200
    40.000      .010      .010     -.001      .010      .515      .000      .000
      .154      .420      .076      .091      .096      .008      .000      .000
      .000      .000      .000      .000      .000      .000      .000      .000
      .000      .000      .000      .000
      .000      .020      .050      .100      .200
      .040      .042      .044      .046      .048      .050      .055      .060
      .065      .070      .075      .080      .085      .090      .095      .100
      .110      .120      .130      .140      .150      .160      .170      .180
      .190      .200      .220      .240      .260      .280      .300      .320
      .340      .360      .380      .400      .420      .440      .460      .480
      .500      .550      .600      .650      .700      .750      .800      .850
      .900      .950     1.000     1.100     1.200     1.300     1.400     1.500
     1.600     1.700     1.800     1.900     2.000     2.200     2.400     2.600
     2.800     3.000     3.200     3.400     3.600     3.800     4.000     4.200
     4.400     4.600     4.800     5.000      .000      .000      .000      .000
      .000      .000      .000      .000      .000      .000      .000      .000
      .000      .000      .000      .000      .000      .000      .000      .000
      .000      .000      .000      .000
Fourier amplitude spectra in in/sec.
  .158E-01  .123E-01  .197E-01  .255E-01  .253E-01  .270E-01  .107E+00  .436E-01
  .674E-01  .767E-01  .779E-01  .160E+00  .194E-01  .175E+00  .235E+00  .259E+00
  .275E+00  .315E+00  .250E+00  .207E+00  .700E+00  .166E-01  .553E+00  .694E+00
  .136E+01  .627E+00  .865E+00  .142E+01  .182E+01  .191E+01  .340E+01  .157E+01
  .456E+01  .497E+01  .473E+01  .372E+01  .195E+02  .246E+01  .398E+01  .824E+01
  .159E+01  .417E+01  .283E+01  .540E+01  .673E+00  .394E+01  .496E+01  .105E+02
  .821E+01  .935E+01  .394E+01  .186E+02  .876E+01  .134E+02  .372E+02  .533E+01
  .225E+01  .263E+01  .283E+01  .169E+01  .381E+01  .101E+01  .113E+01  .484E+00
  .806E+00  .687E+00  .985E+00  .116E+00  .453E+00  .732E+00  .644E+00  .519E+00
  .167E+00  .272E+00  .339E+00  .196E+00  .000E+00  .000E+00  .000E+00  .000E+00
  .000E+00  .000E+00  .000E+00  .000E+00  .000E+00  .000E+00  .000E+00  .000E+00
  .000E+00  .000E+00  .000E+00  .000E+00  .000E+00  .000E+00  .000E+00  .000E+00
  .000E+00  .000E+00  .000E+00  .000E+00
Damping =  .00. Data of Sd,Sv,Sa,Pssv,ttSd,ttSv,ttSa :
  .811E-03  .810E-03  .942E-03  .105E-02  .120E-02  .127E-02  .191E-02  .207E-02
  .235E-02  .316E-02  .279E-02  .381E-02  .392E-02  .518E-02  .106E-01  .797E-02
  .123E-01  .946E-02  .141E-01  .144E-01  .259E-01  .177E-01  .225E-01  .402E-01
  .523E-01  .423E-01  .433E-01  .908E-01  .107E+00  .127E+00  .174E+00  .125E+00
  .337E+00  .387E+00  .320E+00  .447E+00  .146E+01  .504E+00  .554E+00  .659E+00
  .344E+00  .506E+00  .550E+00  .684E+00  .365E+00  .656E+00  .754E+00  .163E+01
  .151E+01  .167E+01  .173E+01  .328E+01  .211E+01  .334E+01  .890E+01  .343E+01
  .172E+01  .111E+01  .113E+01  .118E+01  .145E+01  .831E+00  .576E+00  .570E+00
  .759E+00  .791E+00  .770E+00  .755E+00  .691E+00  .641E+00  .585E+00  .534E+00
  .543E+00  .486E+00  .447E+00  .436E+00  .000E+00  .000E+00  .000E+00  .000E+00
  .000E+00  .000E+00  .000E+00  .000E+00  .000E+00  .000E+00  .000E+00  .000E+00
  .000E+00  .000E+00  .000E+00  .000E+00  .000E+00  .000E+00  .000E+00  .000E+00
  .000E+00  .000E+00  .000E+00  .000E+00
  .264E-01  .181E-01  .281E-01  .314E-01  .420E-01  .385E-01  .110E+00  .848E-01
  .848E-01  .123E+00  .101E+00  .181E+00  .138E+00  .191E+00  .514E+00  .367E+00
  .502E+00  .338E+00  .563E+00  .370E+00  .794E+00  .417E+00  .674E+00  .996E+00
  .145E+01  .122E+01  .104E+01  .217E+01  .242E+01  .246E+01  .350E+01  .231E+01
  .579E+01  .622E+01  .528E+01  .687E+01  .218E+02  .715E+01  .743E+01  .850E+01
  .394E+01  .574E+01  .557E+01  .656E+01  .304E+01  .493E+01  .560E+01  .116E+02
  .997E+01  .108E+02  .107E+02  .186E+02  .109E+02  .160E+02  .399E+02  .149E+02
  .730E+01  .496E+01  .450E+01  .484E+01  .478E+01  .344E+01  .257E+01  .251E+01
  .276E+01  .276E+01  .260E+01  .241E+01  .248E+01  .246E+01  .240E+01  .232E+01
  .224E+01  .218E+01  .213E+01  .210E+01  .000E+00  .000E+00  .000E+00  .000E+00
  .000E+00  .000E+00  .000E+00  .000E+00  .000E+00  .000E+00  .000E+00  .000E+00
  .000E+00  .000E+00  .000E+00  .000E+00  .000E+00  .000E+00  .000E+00  .000E+00
  .000E+00  .000E+00  .000E+00  .000E+00
  .519E-01  .470E-01  .498E-01  .506E-01  .532E-01  .518E-01  .644E-01  .589E-01
  .568E-01  .660E-01  .506E-01  .609E-01  .554E-01  .654E-01  .120E+00  .815E-01
  .104E+00  .672E-01  .854E-01  .750E-01  .118E+00  .708E-01  .797E-01  .127E+00
  .148E+00  .108E+00  .915E-01  .161E+00  .162E+00  .165E+00  .197E+00  .125E+00
  .298E+00  .305E+00  .227E+00  .286E+00  .848E+00  .266E+00  .268E+00  .292E+00
  .141E+00  .171E+00  .156E+00  .166E+00  .763E-01  .119E+00  .120E+00  .231E+00
  .191E+00  .189E+00  .177E+00  .278E+00  .150E+00  .202E+00  .465E+00  .156E+00
  .685E-01  .393E-01  .358E-01  .336E-01  .372E-01  .176E-01  .102E-01  .862E-02
  .991E-02  .899E-02  .769E-02  .668E-02  .545E-02  .454E-02  .374E-02  .309E-02
  .287E-02  .235E-02  .199E-02  .178E-02  .000E+00  .000E+00  .000E+00  .000E+00
  .000E+00  .000E+00  .000E+00  .000E+00  .000E+00  .000E+00  .000E+00  .000E+00
  .000E+00  .000E+00  .000E+00  .000E+00  .000E+00  .000E+00  .000E+00  .000E+00
  .000E+00  .000E+00  .000E+00  .000E+00
  .127E+00  .121E+00  .135E+00  .143E+00  .157E+00  .159E+00  .218E+00  .217E+00
  .227E+00  .284E+00  .233E+00  .299E+00  .289E+00  .362E+00  .700E+00  .501E+00
  .702E+00  .495E+00  .682E+00  .645E+00  .108E+01  .696E+00  .832E+00  .140E+01
  .173E+01  .133E+01  .124E+01  .238E+01  .259E+01  .284E+01  .364E+01  .246E+01
  .623E+01  .675E+01  .529E+01  .702E+01  .219E+02  .720E+01  .756E+01  .862E+01
  .433E+01  .578E+01  .576E+01  .661E+01  .328E+01  .550E+01  .592E+01  .120E+02
  .106E+02  .110E+02  .109E+02  .188E+02  .111E+02  .162E+02  .400E+02  .144E+02
  .674E+01  .410E+01  .396E+01  .392E+01  .457E+01  .237E+01  .151E+01  .138E+01
  .170E+01  .166E+01  .151E+01  .139E+01  .121E+01  .106E+01  .919E+00  .799E+00
  .776E+00  .664E+00  .585E+00  .548E+00  .000E+00  .000E+00  .000E+00  .000E+00
  .000E+00  .000E+00  .000E+00  .000E+00  .000E+00  .000E+00  .000E+00  .000E+00
  .000E+00  .000E+00  .000E+00  .000E+00  .000E+00  .000E+00  .000E+00  .000E+00
  .000E+00  .000E+00  .000E+00  .000E+00
  .307E+02  .252E+02  .307E+02  .307E+02  .307E+02  .307E+02  .307E+02  .307E+02
  .307E+02  .307E+02  .307E+02  .307E+02  .252E+02  .252E+02  .307E+02  .274E+02
  .306E+02  .306E+02  .275E+02  .307E+02  .307E+02  .307E+02  .277E+02  .307E+02
  .308E+02  .266E+02  .327E+02  .308E+02  .307E+02  .313E+02  .420E+02  .307E+02
  .313E+02  .307E+02  .450E+02  .289E+02  .430E+02  .303E+02  .309E+02  .678E+02
  .278E+02  .308E+02  .308E+02  .552E+02  .328E+02  .328E+02  .425E+02  .376E+02
  .358E+02  .504E+02  .315E+02  .638E+02  .670E+02  .342E+02  .458E+02  .371E+02
  .419E+02  .278E+02  .496E+02  .378E+02  .684E+02  .307E+02  .307E+02  .398E+02
  .399E+02  .391E+02  .307E+02  .307E+02  .307E+02  .391E+02  .392E+02  .384E+02
  .384E+02  .384E+02  .301E+02  .301E+02  .000E+00  .000E+00  .000E+00  .000E+00
  .000E+00  .000E+00  .000E+00  .000E+00  .000E+00  .000E+00  .000E+00  .000E+00
  .000E+00  .000E+00  .000E+00  .000E+00  .000E+00  .000E+00  .000E+00  .000E+00
  .000E+00  .000E+00  .000E+00  .000E+00
  .308E+02  .251E+02  .354E+02  .312E+02  .251E+02  .281E+02  .681E+02  .308E+02
  .276E+02  .308E+02  .366E+02  .427E+02  .282E+02  .338E+02  .308E+02  .289E+02
  .306E+02  .438E+02  .276E+02  .276E+02  .312E+02  .251E+02  .269E+02  .332E+02
  .316E+02  .267E+02  .314E+02  .315E+02  .355E+02  .302E+02  .436E+02  .255E+02
  .312E+02  .306E+02  .449E+02  .288E+02  .428E+02  .304E+02  .310E+02  .679E+02
  .280E+02  .309E+02  .310E+02  .554E+02  .304E+02  .330E+02  .532E+02  .374E+02
  .356E+02  .501E+02  .318E+02  .712E+02  .667E+02  .339E+02  .461E+02  .367E+02
  .325E+02  .282E+02  .276E+02  .325E+02  .680E+02  .311E+02  .311E+02  .311E+02
  .395E+02  .311E+02  .311E+02  .305E+02  .305E+02  .305E+02  .305E+02  .305E+02
  .305E+02  .305E+02  .305E+02  .305E+02  .000E+00  .000E+00  .000E+00  .000E+00
  .000E+00  .000E+00  .000E+00  .000E+00  .000E+00  .000E+00  .000E+00  .000E+00
  .000E+00  .000E+00  .000E+00  .000E+00  .000E+00  .000E+00  .000E+00  .000E+00
  .000E+00  .000E+00  .000E+00  .000E+00
  .307E+02  .252E+02  .307E+02  .307E+02  .307E+02  .307E+02  .307E+02  .307E+02
  .307E+02  .307E+02  .307E+02  .307E+02  .252E+02  .252E+02  .307E+02  .274E+02
  .306E+02  .306E+02  .275E+02  .307E+02  .307E+02  .307E+02  .277E+02  .307E+02
  .308E+02  .266E+02  .327E+02  .308E+02  .307E+02  .313E+02  .420E+02  .307E+02
  .313E+02  .307E+02  .450E+02  .289E+02  .430E+02  .303E+02  .309E+02  .678E+02
  .278E+02  .308E+02  .308E+02  .552E+02  .328E+02  .328E+02  .425E+02  .376E+02
  .358E+02  .504E+02  .315E+02  .638E+02  .670E+02  .342E+02  .458E+02  .371E+02
  .419E+02  .278E+02  .496E+02  .378E+02  .684E+02  .307E+02  .307E+02  .398E+02
  .399E+02  .391E+02  .307E+02  .307E+02  .307E+02  .391E+02  .392E+02  .384E+02
  .384E+02  .384E+02  .301E+02  .301E+02  .000E+00  .000E+00  .000E+00  .000E+00
  .000E+00  .000E+00  .000E+00  .000E+00  .000E+00  .000E+00  .000E+00  .000E+00
  .000E+00  .000E+00  .000E+00  .000E+00  .000E+00  .000E+00  .000E+00  .000E+00
  .000E+00  .000E+00  .000E+00  .000E+00
Damping =  .02. Data of Sd,Sv,Sa,Pssv,ttSd,ttSv,ttSa :
  .716E-03  .784E-03  .867E-03  .951E-03  .104E-02  .112E-02  .140E-02  .166E-02
  .195E-02  .235E-02  .266E-02  .305E-02  .383E-02  .449E-02  .504E-02  .584E-02
  .598E-02  .808E-02  .102E-01  .101E-01  .140E-01  .162E-01  .192E-01  .243E-01
  .256E-01  .326E-01  .359E-01  .482E-01  .560E-01  .678E-01  .860E-01  .109E+00
  .169E+00  .189E+00  .279E+00  .264E+00  .459E+00  .330E+00  .309E+00  .281E+00
  .247E+00  .274E+00  .324E+00  .435E+00  .348E+00  .509E+00  .618E+00  .102E+01
  .950E+00  .111E+01  .134E+01  .157E+01  .160E+01  .232E+01  .440E+01  .245E+01
  .140E+01  .103E+01  .927E+00  .931E+00  .907E+00  .773E+00  .592E+00  .569E+00
  .635E+00  .687E+00  .732E+00  .721E+00  .669E+00  .598E+00  .530E+00  .478E+00
  .495E+00  .460E+00  .439E+00  .430E+00  .000E+00  .000E+00  .000E+00  .000E+00
  .000E+00  .000E+00  .000E+00  .000E+00  .000E+00  .000E+00  .000E+00  .000E+00
  .000E+00  .000E+00  .000E+00  .000E+00  .000E+00  .000E+00  .000E+00  .000E+00
  .000E+00  .000E+00  .000E+00  .000E+00
  .119E-01  .133E-01  .155E-01  .155E-01  .168E-01  .197E-01  .316E-01  .406E-01
  .488E-01  .523E-01  .709E-01  .769E-01  .101E+00  .152E+00  .255E+00  .214E+00
  .165E+00  .177E+00  .311E+00  .236E+00  .341E+00  .394E+00  .437E+00  .467E+00
  .584E+00  .694E+00  .764E+00  .100E+01  .118E+01  .142E+01  .163E+01  .202E+01
  .266E+01  .282E+01  .430E+01  .409E+01  .679E+01  .448E+01  .411E+01  .353E+01
  .311E+01  .319E+01  .324E+01  .351E+01  .260E+01  .368E+01  .441E+01  .699E+01
  .643E+01  .683E+01  .797E+01  .874E+01  .843E+01  .112E+02  .198E+02  .110E+02
  .668E+01  .466E+01  .425E+01  .434E+01  .362E+01  .328E+01  .262E+01  .252E+01
  .265E+01  .267E+01  .253E+01  .233E+01  .240E+01  .239E+01  .235E+01  .228E+01
  .222E+01  .217E+01  .212E+01  .209E+01  .000E+00  .000E+00  .000E+00  .000E+00
  .000E+00  .000E+00  .000E+00  .000E+00  .000E+00  .000E+00  .000E+00  .000E+00
  .000E+00  .000E+00  .000E+00  .000E+00  .000E+00  .000E+00  .000E+00  .000E+00
  .000E+00  .000E+00  .000E+00  .000E+00
  .457E-01  .455E-01  .458E-01  .460E-01  .462E-01  .458E-01  .474E-01  .471E-01
  .473E-01  .492E-01  .484E-01  .487E-01  .542E-01  .567E-01  .572E-01  .599E-01
  .507E-01  .574E-01  .618E-01  .525E-01  .636E-01  .649E-01  .682E-01  .766E-01
  .727E-01  .836E-01  .757E-01  .858E-01  .846E-01  .887E-01  .979E-01  .109E+00
  .150E+00  .150E+00  .198E+00  .169E+00  .266E+00  .174E+00  .149E+00  .125E+00
  .101E+00  .928E-01  .923E-01  .105E+00  .726E-01  .927E-01  .989E-01  .145E+00
  .120E+00  .126E+00  .137E+00  .133E+00  .113E+00  .141E+00  .230E+00  .112E+00
  .560E-01  .364E-01  .293E-01  .264E-01  .232E-01  .164E-01  .105E-01  .863E-02
  .830E-02  .784E-02  .735E-02  .641E-02  .531E-02  .427E-02  .342E-02  .279E-02
  .263E-02  .224E-02  .198E-02  .178E-02  .000E+00  .000E+00  .000E+00  .000E+00
  .000E+00  .000E+00  .000E+00  .000E+00  .000E+00  .000E+00  .000E+00  .000E+00
  .000E+00  .000E+00  .000E+00  .000E+00  .000E+00  .000E+00  .000E+00  .000E+00
  .000E+00  .000E+00  .000E+00  .000E+00
  .112E+00  .117E+00  .124E+00  .130E+00  .136E+00  .141E+00  .160E+00  .174E+00
  .189E+00  .211E+00  .223E+00  .239E+00  .283E+00  .313E+00  .334E+00  .367E+00
  .341E+00  .423E+00  .491E+00  .452E+00  .585E+00  .638E+00  .711E+00  .848E+00
  .847E+00  .102E+01  .103E+01  .126E+01  .135E+01  .152E+01  .180E+01  .214E+01
  .313E+01  .331E+01  .461E+01  .415E+01  .686E+01  .472E+01  .422E+01  .367E+01
  .311E+01  .313E+01  .340E+01  .420E+01  .312E+01  .427E+01  .486E+01  .755E+01
  .663E+01  .733E+01  .843E+01  .899E+01  .836E+01  .112E+02  .197E+02  .103E+02
  .549E+01  .379E+01  .324E+01  .308E+01  .285E+01  .221E+01  .155E+01  .138E+01
  .143E+01  .144E+01  .144E+01  .133E+01  .117E+01  .989E+00  .833E+00  .716E+00
  .707E+00  .628E+00  .575E+00  .540E+00  .000E+00  .000E+00  .000E+00  .000E+00
  .000E+00  .000E+00  .000E+00  .000E+00  .000E+00  .000E+00  .000E+00  .000E+00
  .000E+00  .000E+00  .000E+00  .000E+00  .000E+00  .000E+00  .000E+00  .000E+00
  .000E+00  .000E+00  .000E+00  .000E+00
  .307E+02  .307E+02  .307E+02  .307E+02  .307E+02  .307E+02  .252E+02  .307E+02
  .307E+02  .307E+02  .252E+02  .307E+02  .307E+02  .307E+02  .252E+02  .307E+02
  .274E+02  .307E+02  .274E+02  .307E+02  .307E+02  .252E+02  .252E+02  .307E+02
  .307E+02  .252E+02  .252E+02  .252E+02  .252E+02  .271E+02  .275E+02  .254E+02
  .313E+02  .313E+02  .313E+02  .314E+02  .314E+02  .309E+02  .260E+02  .303E+02
  .261E+02  .254E+02  .309E+02  .328E+02  .328E+02  .328E+02  .333E+02  .334E+02
  .314E+02  .314E+02  .315E+02  .379E+02  .293E+02  .336E+02  .409E+02  .327E+02
  .307E+02  .278E+02  .328E+02  .321E+02  .313E+02  .307E+02  .307E+02  .398E+02
  .399E+02  .307E+02  .307E+02  .307E+02  .307E+02  .307E+02  .307E+02  .384E+02
  .384E+02  .364E+02  .301E+02  .301E+02  .000E+00  .000E+00  .000E+00  .000E+00
  .000E+00  .000E+00  .000E+00  .000E+00  .000E+00  .000E+00  .000E+00  .000E+00
  .000E+00  .000E+00  .000E+00  .000E+00  .000E+00  .000E+00  .000E+00  .000E+00
  .000E+00  .000E+00  .000E+00  .000E+00
  .259E+02  .308E+02  .251E+02  .251E+02  .253E+02  .251E+02  .253E+02  .253E+02
  .253E+02  .253E+02  .253E+02  .259E+02  .255E+02  .255E+02  .259E+02  .259E+02
  .306E+02  .306E+02  .276E+02  .251E+02  .251E+02  .251E+02  .269E+02  .273E+02
  .263E+02  .267E+02  .253E+02  .270E+02  .253E+02  .270E+02  .255E+02  .255E+02
  .312E+02  .255E+02  .314E+02  .315E+02  .315E+02  .310E+02  .259E+02  .259E+02
  .259E+02  .255E+02  .253E+02  .326E+02  .304E+02  .330E+02  .335E+02  .336E+02
  .333E+02  .317E+02  .318E+02  .381E+02  .291E+02  .339E+02  .405E+02  .330E+02
  .325E+02  .282E+02  .325E+02  .325E+02  .325E+02  .311E+02  .311E+02  .311E+02
  .311E+02  .311E+02  .311E+02  .305E+02  .305E+02  .305E+02  .305E+02  .305E+02
  .305E+02  .305E+02  .305E+02  .305E+02  .000E+00  .000E+00  .000E+00  .000E+00
  .000E+00  .000E+00  .000E+00  .000E+00  .000E+00  .000E+00  .000E+00  .000E+00
  .000E+00  .000E+00  .000E+00  .000E+00  .000E+00  .000E+00  .000E+00  .000E+00
  .000E+00  .000E+00  .000E+00  .000E+00
  .307E+02  .307E+02  .307E+02  .307E+02  .307E+02  .307E+02  .252E+02  .307E+02
  .307E+02  .307E+02  .252E+02  .307E+02  .307E+02  .307E+02  .252E+02  .307E+02
  .274E+02  .307E+02  .274E+02  .307E+02  .307E+02  .252E+02  .252E+02  .307E+02
  .307E+02  .252E+02  .252E+02  .252E+02  .252E+02  .271E+02  .275E+02  .254E+02
  .313E+02  .313E+02  .313E+02  .314E+02  .314E+02  .309E+02  .260E+02  .303E+02
  .261E+02  .254E+02  .309E+02  .328E+02  .328E+02  .328E+02  .333E+02  .334E+02
  .314E+02  .314E+02  .315E+02  .378E+02  .293E+02  .336E+02  .409E+02  .327E+02
  .307E+02  .278E+02  .328E+02  .321E+02  .313E+02  .307E+02  .307E+02  .398E+02
  .399E+02  .307E+02  .307E+02  .307E+02  .307E+02  .307E+02  .307E+02  .384E+02
  .384E+02  .363E+02  .301E+02  .301E+02  .000E+00  .000E+00  .000E+00  .000E+00
  .000E+00  .000E+00  .000E+00  .000E+00  .000E+00  .000E+00  .000E+00  .000E+00
  .000E+00  .000E+00  .000E+00  .000E+00  .000E+00  .000E+00  .000E+00  .000E+00
  .000E+00  .000E+00  .000E+00  .000E+00
Damping =  .05. Data of Sd,Sv,Sa,Pssv,ttSd,ttSv,ttSa :
  .713E-03  .782E-03  .864E-03  .948E-03  .103E-02  .112E-02  .138E-02  .164E-02
