Response and Fourier amplitude spectra (82 periods,  .04 -  8.0 sec)   for      
Corrected accelerogram   14406-K1062-14088.27       Chan  8:  Up         from   
Uncorrected Accelerogram Data             Processed: 04/01/14, CGS  az027       
Rcrd of Fri Mar 28, 2014 21:09:44.0 PDT*              (Avol1 v0.5, 2/14 CSMIP)  
CSMIP Preliminary Processing            (Origin:  To be determined)             
14406-K1062-14088.27                 Start time:  3/29/14, 04:09:44.0 UTC (GPS) 
Station No. 14406   33.749N, 118.271W    K2      s/n 1062  (8 Chns of 26 at Sta)
Los Angeles - Vincent Thomas Bridge       CGS   Data: Acceleration              
Chan  8:  Up      (Sta Chn: 26)     Location: East Anchor: Base                 
Rcrd of Fri Mar 28, 2014 21:09:44.0 PDT*   Fri Mar 28, 2014 21:09:44.0 PDT*     
Hypocenter:  To be determined.               ML:  To be determined.
Instr Period =  .0194 sec,  Damping =  .640,  Sensitivity = 2.51 v/g
                        Record length = 75.000 sec.
                                     Uncor Max  =  -.004 g , at  12.050 sec.
RMS accel of (uncor) record  =        .   Chn. metadata effective date: 02/27/07
Accelerogram bandpass filtered with 3 dB pts at   .13 and 40.00 cyc/sec
                 instrument- and baseline-corrected





Rcrd of Fri Mar 28, 2014 21:09:44.0 PDT*   Fri Mar 28, 2014 21:09:44.0 PDT*

14406-K1062-14088.27      Los Angeles - Vincent Thomas Bridge   Chan  8:  Up

14406-K1062-14088.27      Los Angeles - Vincent Thomas Bridge   Chan  8:  Up

Units for spectra are inches and sec, except Sa is in fraction of g.

    8  100   26   12   26  200    1    3    1   24   11 1062    014406    3    0
    4    9   44    0   88    3   29 2014   10    3  50015000   39   35   74   -1
15000    1  100    3 1062    2   27  750    2    0    0    0    0    0    0    0
    0    0    3    0 7500    2  222    1   18    2    0    0    3    1    0 7500
    3 7500    4   82    5    8    5    0    0    0    0    0    1    3    2    2
    2    2    4    0   66  110    0    2    0    0    0    1    0    0    0  222
    1    0    0    0
      .019      .640    75.000      .001      .000  2505.000     -.004    12.050
    51.500      .298      .119      .000     5.000  -999.000     1.000      .000
     2.500    18.737     2.500  -999.000    23.000    30.000  -999.000     -.002
      .003      .005     2.000    15.000    33.749  -118.271      .053      .457
     8.584     -.017      .028      .000    23.100    44.800    13.000    97.160
     1.000    -1.026      .000  -999.000  -999.000  -999.000  -999.000      .000
      .200      .500     6.300   980.665      .010    75.000     8.196      .000
      .000    40.000      .000    75.000      .010      .125      .000      .000
    14.270    -3.887    34.960      .324    61.700     -.083      .000      .125
    40.000      .010      .010      .000      .010      .049      .000      .000
      .020      .190      .017      .010      .005      .001      .000      .000
      .000      .000      .000      .000      .000      .000      .000      .000
      .000      .000      .000      .000
      .000      .020      .050      .100      .200
      .040      .042      .044      .046      .048      .050      .055      .060
      .065      .070      .075      .080      .085      .090      .095      .100
      .110      .120      .130      .140      .150      .160      .170      .180
      .190      .200      .220      .240      .260      .280      .300      .320
      .340      .360      .380      .400      .420      .440      .460      .480
      .500      .550      .600      .650      .700      .750      .800      .850
      .900      .950     1.000     1.100     1.200     1.300     1.400     1.500
     1.600     1.700     1.800     1.900     2.000     2.200     2.400     2.600
     2.800     3.000     3.200     3.400     3.600     3.800     4.000     4.200
     4.400     4.600     4.800     5.000     5.500     6.000     6.500     7.000
     7.500     8.000      .000      .000      .000      .000      .000      .000
      .000      .000      .000      .000      .000      .000      .000      .000
      .000      .000      .000      .000
Fourier amplitude spectra in in/sec.
  .145E-01  .362E-02  .602E-02  .422E-01  .942E-02  .325E-01  .190E-01  .270E-01
  .574E-01  .255E-01  .217E+00  .182E+00  .845E-01  .317E+00  .101E+00  .173E+00
  .107E+00  .285E+00  .301E+00  .132E+00  .475E+00  .176E+00  .196E+00  .190E+00
  .137E+00  .126E+01  .269E+00  .745E+00  .557E+00  .349E+00  .560E+00  .687E+00
  .697E+00  .195E+00  .129E+01  .553E+00  .439E+00  .631E+00  .764E+00  .301E+00
  .991E+00  .494E+00  .404E+00  .117E+01  .215E+01  .186E+01  .205E+01  .506E+00
  .549E+00  .787E+00  .839E+00  .576E+00  .140E+01  .340E+00  .406E+00  .121E+01
  .886E+00  .588E+00  .680E+00  .808E+00  .639E+00  .465E+00  .334E+00  .392E+00
  .546E+00  .273E+00  .215E+00  .330E+00  .181E+00  .270E+00  .257E+00  .324E+00
  .985E-01  .802E-01  .151E+00  .111E+00  .897E-01  .105E+00  .188E-01  .190E-01
  .465E-01  .224E-01  .000E+00  .000E+00  .000E+00  .000E+00  .000E+00  .000E+00
  .000E+00  .000E+00  .000E+00  .000E+00  .000E+00  .000E+00  .000E+00  .000E+00
  .000E+00  .000E+00  .000E+00  .000E+00
Damping =  .00. Data of Sd,Sv,Sa,Pssv,ttSd,ttSv,ttSa :
  .151E-03  .114E-03  .140E-03  .412E-03  .222E-03  .416E-03  .269E-03  .352E-03
  .919E-03  .102E-02  .306E-02  .278E-02  .194E-02  .470E-02  .209E-02  .297E-02
  .464E-02  .567E-02  .864E-02  .608E-02  .114E-01  .686E-02  .897E-02  .919E-02
  .149E-01  .413E-01  .161E-01  .313E-01  .254E-01  .322E-01  .369E-01  .469E-01
  .491E-01  .192E-01  .795E-01  .424E-01  .565E-01  .524E-01  .571E-01  .873E-01
  .997E-01  .762E-01  .792E-01  .154E+00  .256E+00  .245E+00  .278E+00  .118E+00
  .117E+00  .170E+00  .159E+00  .157E+00  .282E+00  .749E-01  .147E+00  .288E+00
  .285E+00  .181E+00  .195E+00  .244E+00  .203E+00  .168E+00  .162E+00  .213E+00
  .275E+00  .173E+00  .146E+00  .188E+00  .109E+00  .185E+00  .179E+00  .250E+00
  .125E+00  .113E+00  .153E+00  .134E+00  .101E+00  .108E+00  .732E-01  .657E-01
  .650E-01  .548E-01  .000E+00  .000E+00  .000E+00  .000E+00  .000E+00  .000E+00
  .000E+00  .000E+00  .000E+00  .000E+00  .000E+00  .000E+00  .000E+00  .000E+00
  .000E+00  .000E+00  .000E+00  .000E+00
  .197E-01  .135E-01  .148E-01  .525E-01  .193E-01  .448E-01  .252E-01  .282E-01
  .760E-01  .812E-01  .247E+00  .211E+00  .126E+00  .330E+00  .131E+00  .184E+00
  .265E+00  .290E+00  .398E+00  .262E+00  .476E+00  .266E+00  .324E+00  .307E+00
  .481E+00  .129E+01  .454E+00  .811E+00  .610E+00  .722E+00  .755E+00  .906E+00
  .894E+00  .339E+00  .131E+01  .656E+00  .819E+00  .711E+00  .773E+00  .111E+01
  .124E+01  .886E+00  .785E+00  .151E+01  .227E+01  .207E+01  .218E+01  .873E+00
  .813E+00  .109E+01  .988E+00  .893E+00  .146E+01  .363E+00  .682E+00  .121E+01
  .114E+01  .655E+00  .683E+00  .814E+00  .645E+00  .504E+00  .461E+00  .566E+00
  .578E+00  .408E+00  .335E+00  .359E+00  .246E+00  .318E+00  .348E+00  .440E+00
  .248E+00  .207E+00  .249E+00  .194E+00  .177E+00  .166E+00  .157E+00  .147E+00
  .141E+00  .149E+00  .000E+00  .000E+00  .000E+00  .000E+00  .000E+00  .000E+00
  .000E+00  .000E+00  .000E+00  .000E+00  .000E+00  .000E+00  .000E+00  .000E+00
  .000E+00  .000E+00  .000E+00  .000E+00
  .965E-02  .664E-02  .742E-02  .199E-01  .984E-02  .170E-01  .910E-02  .100E-01
  .222E-01  .212E-01  .556E-01  .444E-01  .274E-01  .594E-01  .236E-01  .303E-01
  .392E-01  .403E-01  .523E-01  .317E-01  .518E-01  .274E-01  .317E-01  .290E-01
  .421E-01  .106E+00  .341E-01  .556E-01  .385E-01  .420E-01  .419E-01  .468E-01
  .435E-01  .152E-01  .563E-01  .271E-01  .328E-01  .277E-01  .276E-01  .388E-01
  .408E-01  .258E-01  .225E-01  .372E-01  .534E-01  .446E-01  .445E-01  .167E-01
  .148E-01  .193E-01  .163E-01  .133E-01  .200E-01  .453E-02  .767E-02  .131E-01
  .114E-01  .639E-02  .615E-02  .692E-02  .520E-02  .355E-02  .288E-02  .322E-02
  .359E-02  .196E-02  .146E-02  .167E-02  .857E-03  .131E-02  .114E-02  .145E-02
  .662E-03  .544E-03  .678E-03  .550E-03  .340E-03  .307E-03  .177E-03  .137E-03
  .118E-03  .876E-04  .000E+00  .000E+00  .000E+00  .000E+00  .000E+00  .000E+00
  .000E+00  .000E+00  .000E+00  .000E+00  .000E+00  .000E+00  .000E+00  .000E+00
  .000E+00  .000E+00  .000E+00  .000E+00
  .237E-01  .171E-01  .201E-01  .563E-01  .290E-01  .522E-01  .308E-01  .369E-01
  .888E-01  .912E-01  .256E+00  .218E+00  .143E+00  .328E+00  .138E+00  .186E+00
  .265E+00  .297E+00  .418E+00  .273E+00  .477E+00  .269E+00  .332E+00  .321E+00
  .492E+00  .130E+01  .461E+00  .819E+00  .614E+00  .723E+00  .772E+00  .920E+00
  .908E+00  .336E+00  .132E+01  .667E+00  .846E+00  .748E+00  .780E+00  .114E+01
  .125E+01  .871E+00  .829E+00  .149E+01  .230E+01  .206E+01  .219E+01  .872E+00
  .816E+00  .113E+01  .100E+01  .898E+00  .148E+01  .362E+00  .660E+00  .121E+01
  .112E+01  .667E+00  .680E+00  .808E+00  .639E+00  .479E+00  .424E+00  .514E+00
  .618E+00  .361E+00  .288E+00  .348E+00  .189E+00  .306E+00  .281E+00  .374E+00
  .179E+00  .154E+00  .200E+00  .169E+00  .115E+00  .113E+00  .707E-01  .590E-01
  .544E-01  .431E-01  .000E+00  .000E+00  .000E+00  .000E+00  .000E+00  .000E+00
  .000E+00  .000E+00  .000E+00  .000E+00  .000E+00  .000E+00  .000E+00  .000E+00
  .000E+00  .000E+00  .000E+00  .000E+00
  .281E+02  .132E+02  .143E+02  .546E+02  .125E+02  .143E+02  .456E+02  .229E+02
  .120E+02  .125E+02  .229E+02  .229E+02  .143E+02  .640E+02  .147E+02  .244E+02
  .145E+02  .133E+02  .187E+02  .230E+02  .724E+02  .196E+02  .500E+02  .125E+02
  .158E+02  .445E+02  .160E+02  .325E+02  .423E+02  .212E+02  .246E+02  .378E+02
  .456E+02  .153E+02  .670E+02  .589E+02  .288E+02  .453E+02  .691E+02  .288E+02
  .564E+02  .464E+02  .430E+02  .464E+02  .702E+02  .451E+02  .637E+02  .370E+02
  .414E+02  .616E+02  .675E+02  .596E+02  .674E+02  .730E+02  .633E+02  .749E+02
  .692E+02  .694E+02  .743E+02  .755E+02  .755E+02  .731E+02  .538E+02  .692E+02
  .637E+02  .691E+02  .690E+02  .682E+02  .682E+02  .672E+02  .477E+02  .616E+02
  .604E+02  .618E+02  .606E+02  .588E+02  .674E+02  .724E+02  .617E+02  .618E+02
  .607E+02  .467E+02  .000E+00  .000E+00  .000E+00  .000E+00  .000E+00  .000E+00
  .000E+00  .000E+00  .000E+00  .000E+00  .000E+00  .000E+00  .000E+00  .000E+00
  .000E+00  .000E+00  .000E+00  .000E+00
  .623E+02  .131E+02  .119E+02  .545E+02  .129E+02  .163E+02  .457E+02  .111E+02
  .120E+02  .128E+02  .231E+02  .289E+02  .143E+02  .643E+02  .130E+02  .315E+02
  .145E+02  .133E+02  .187E+02  .230E+02  .727E+02  .196E+02  .498E+02  .126E+02
  .158E+02  .444E+02  .161E+02  .325E+02  .424E+02  .213E+02  .247E+02  .393E+02
  .455E+02  .152E+02  .726E+02  .518E+02  .287E+02  .452E+02  .729E+02  .287E+02
  .563E+02  .463E+02  .428E+02  .463E+02  .703E+02  .344E+02  .643E+02  .368E+02
  .421E+02  .614E+02  .672E+02  .599E+02  .677E+02  .569E+02  .629E+02  .745E+02
  .696E+02  .707E+02  .739E+02  .740E+02  .740E+02  .726E+02  .580E+02  .699E+02
  .644E+02  .699E+02  .699E+02  .725E+02  .428E+02  .679E+02  .468E+02  .667E+02
  .613E+02  .611E+02  .592E+02  .678E+02  .668E+02  .620E+02  .455E+02  .350E+02
  .455E+02  .455E+02  .000E+00  .000E+00  .000E+00  .000E+00  .000E+00  .000E+00
  .000E+00  .000E+00  .000E+00  .000E+00  .000E+00  .000E+00  .000E+00  .000E+00
  .000E+00  .000E+00  .000E+00  .000E+00
  .281E+02  .132E+02  .143E+02  .546E+02  .125E+02  .143E+02  .456E+02  .229E+02
  .120E+02  .125E+02  .229E+02  .229E+02  .143E+02  .640E+02  .147E+02  .244E+02
  .145E+02  .133E+02  .187E+02  .230E+02  .724E+02  .196E+02  .500E+02  .125E+02
  .158E+02  .445E+02  .160E+02  .325E+02  .423E+02  .212E+02  .246E+02  .378E+02
  .456E+02  .153E+02  .670E+02  .589E+02  .288E+02  .453E+02  .691E+02  .288E+02
  .564E+02  .464E+02  .430E+02  .464E+02  .702E+02  .451E+02  .637E+02  .370E+02
  .414E+02  .616E+02  .675E+02  .596E+02  .674E+02  .730E+02  .633E+02  .749E+02
  .692E+02  .694E+02  .743E+02  .755E+02  .755E+02  .731E+02  .538E+02  .692E+02
  .637E+02  .691E+02  .690E+02  .682E+02  .682E+02  .672E+02  .477E+02  .616E+02
  .604E+02  .618E+02  .606E+02  .588E+02  .674E+02  .724E+02  .617E+02  .618E+02
  .607E+02  .467E+02  .000E+00  .000E+00  .000E+00  .000E+00  .000E+00  .000E+00
  .000E+00  .000E+00  .000E+00  .000E+00  .000E+00  .000E+00  .000E+00  .000E+00
  .000E+00  .000E+00  .000E+00  .000E+00
Damping =  .02. Data of Sd,Sv,Sa,Pssv,ttSd,ttSv,ttSa :
  .803E-04  .101E-03  .107E-03  .131E-03  .146E-03  .136E-03  .162E-03  .301E-03
  .435E-03  .561E-03  .704E-03  .669E-03  .903E-03  .117E-02  .149E-02  .151E-02
  .205E-02  .270E-02  .250E-02  .297E-02  .335E-02  .304E-02  .410E-02  .822E-02
  .115E-01  .122E-01  .867E-02  .788E-02  .906E-02  .125E-01  .133E-01  .120E-01
  .124E-01  .149E-01  .191E-01  .200E-01  .246E-01  .191E-01  .268E-01  .301E-01
  .361E-01  .368E-01  .414E-01  .564E-01  .594E-01  .106E+00  .742E-01  .745E-01
  .839E-01  .851E-01  .752E-01  .862E-01  .100E+00  .770E-01  .883E-01  .934E-01
  .104E+00  .941E-01  .112E+00  .112E+00  .113E+00  .148E+00  .103E+00  .994E-01
  .178E+00  .117E+00  .112E+00  .138E+00  .114E+00  .113E+00  .110E+00  .149E+00
  .106E+00  .882E-01  .106E+00  .109E+00  .806E-01  .822E-01  .700E-01  .567E-01
  .536E-01  .504E-01  .000E+00  .000E+00  .000E+00  .000E+00  .000E+00  .000E+00
  .000E+00  .000E+00  .000E+00  .000E+00  .000E+00  .000E+00  .000E+00  .000E+00
  .000E+00  .000E+00  .000E+00  .000E+00
  .635E-02  .672E-02  .820E-02  .949E-02  .111E-01  .112E-01  .122E-01  .214E-01
  .298E-01  .391E-01  .505E-01  .467E-01  .548E-01  .706E-01  .857E-01  .832E-01
  .113E+00  .136E+00  .111E+00  .117E+00  .130E+00  .104E+00  .137E+00  .278E+00
  .378E+00  .381E+00  .254E+00  .195E+00  .213E+00  .280E+00  .267E+00  .236E+00
  .227E+00  .268E+00  .327E+00  .309E+00  .364E+00  .285E+00  .345E+00  .395E+00
  .431E+00  .408E+00  .432E+00  .541E+00  .532E+00  .873E+00  .585E+00  .570E+00
  .583E+00  .576E+00  .489E+00  .501E+00  .555E+00  .414E+00  .408E+00  .410E+00
  .403E+00  .356E+00  .402E+00  .396E+00  .366E+00  .458E+00  .330E+00  .295E+00
  .386E+00  .275E+00  .262E+00  .269E+00  .218E+00  .227E+00  .245E+00  .255E+00
  .216E+00  .191E+00  .197E+00  .162E+00  .154E+00  .145E+00  .150E+00  .141E+00
  .140E+00  .145E+00  .000E+00  .000E+00  .000E+00  .000E+00  .000E+00  .000E+00
  .000E+00  .000E+00  .000E+00  .000E+00  .000E+00  .000E+00  .000E+00  .000E+00
  .000E+00  .000E+00  .000E+00  .000E+00
  .513E-02  .588E-02  .566E-02  .636E-02  .650E-02  .555E-02  .547E-02  .855E-02
  .105E-01  .117E-01  .129E-01  .107E-01  .128E-01  .148E-01  .169E-01  .156E-01
  .173E-01  .192E-01  .150E-01  .156E-01  .152E-01  .122E-01  .145E-01  .260E-01
  .327E-01  .313E-01  .183E-01  .140E-01  .137E-01  .164E-01  .151E-01  .120E-01
  .109E-01  .118E-01  .136E-01  .128E-01  .143E-01  .101E-01  .129E-01  .134E-01
  .148E-01  .124E-01  .118E-01  .137E-01  .124E-01  .194E-01  .119E-01  .106E-01
  .106E-01  .966E-02  .770E-02  .730E-02  .712E-02  .466E-02  .461E-02  .425E-02
  .416E-02  .333E-02  .354E-02  .319E-02  .289E-02  .313E-02  .182E-02  .151E-02
  .232E-02  .133E-02  .112E-02  .122E-02  .902E-03  .804E-03  .701E-03  .863E-03
  .562E-03  .428E-03  .472E-03  .445E-03  .274E-03  .234E-03  .170E-03  .119E-03
  .979E-04  .823E-04  .000E+00  .000E+00  .000E+00  .000E+00  .000E+00  .000E+00
  .000E+00  .000E+00  .000E+00  .000E+00  .000E+00  .000E+00  .000E+00  .000E+00
  .000E+00  .000E+00  .000E+00  .000E+00
  .126E-01  .151E-01  .152E-01  .179E-01  .191E-01  .170E-01  .185E-01  .315E-01
  .421E-01  .503E-01  .590E-01  .526E-01  .667E-01  .819E-01  .984E-01  .951E-01
  .117E+00  .141E+00  .121E+00  .133E+00  .140E+00  .119E+00  .151E+00  .287E+00
  .380E+00  .384E+00  .248E+00  .206E+00  .219E+00  .281E+00  .278E+00  .236E+00
  .228E+00  .260E+00  .316E+00  .315E+00  .368E+00  .273E+00  .366E+00  .394E+00
  .454E+00  .420E+00  .434E+00  .545E+00  .534E+00  .892E+00  .583E+00  .551E+00
  .585E+00  .563E+00  .472E+00  .493E+00  .525E+00  .372E+00  .396E+00  .391E+00
  .408E+00  .348E+00  .391E+00  .372E+00  .355E+00  .423E+00  .269E+00  .240E+00
  .399E+00  .246E+00  .220E+00  .255E+00  .199E+00  .187E+00  .172E+00  .222E+00
  .152E+00  .121E+00  .139E+00  .137E+00  .921E-01  .861E-01  .676E-01  .509E-01
  .449E-01  .396E-01  .000E+00  .000E+00  .000E+00  .000E+00  .000E+00  .000E+00
  .000E+00  .000E+00  .000E+00  .000E+00  .000E+00  .000E+00  .000E+00  .000E+00
  .000E+00  .000E+00  .000E+00  .000E+00
  .120E+02  .125E+02  .120E+02  .120E+02  .120E+02  .125E+02  .143E+02  .120E+02
  .120E+02  .121E+02  .121E+02  .119E+02  .143E+02  .143E+02  .147E+02  .147E+02
  .121E+02  .130E+02  .148E+02  .148E+02  .182E+02  .149E+02  .152E+02  .153E+02
  .155E+02  .150E+02  .139E+02  .243E+02  .168E+02  .156E+02  .245E+02  .194E+02
  .183E+02  .254E+02  .254E+02  .215E+02  .231E+02  .348E+02  .351E+02  .249E+02
  .493E+02  .311E+02  .353E+02  .357E+02  .498E+02  .335E+02  .433E+02  .358E+02
  .355E+02  .469E+02  .674E+02  .596E+02  .554E+02  .456E+02  .627E+02  .629E+02
  .693E+02  .704E+02  .382E+02  .735E+02  .737E+02  .731E+02  .370E+02  .547E+02
  .637E+02  .690E+02  .691E+02  .681E+02  .683E+02  .671E+02  .476E+02  .616E+02
  .618E+02  .618E+02  .606E+02  .588E+02  .589E+02  .520E+02  .617E+02  .617E+02
  .498E+02  .467E+02  .000E+00  .000E+00  .000E+00  .000E+00  .000E+00  .000E+00
  .000E+00  .000E+00  .000E+00  .000E+00  .000E+00  .000E+00  .000E+00  .000E+00
  .000E+00  .000E+00  .000E+00  .000E+00
  .131E+02  .125E+02  .136E+02  .121E+02  .121E+02  .120E+02  .120E+02  .120E+02
  .121E+02  .121E+02  .121E+02  .144E+02  .142E+02  .141E+02  .147E+02  .148E+02
  .121E+02  .131E+02  .148E+02  .148E+02  .182E+02  .150E+02  .153E+02  .154E+02
  .155E+02  .149E+02  .139E+02  .233E+02  .168E+02  .157E+02  .127E+02  .153E+02
  .182E+02  .255E+02  .253E+02  .216E+02  .230E+02  .197E+02  .230E+02  .250E+02
  .492E+02  .309E+02  .358E+02  .355E+02  .440E+02  .337E+02  .289E+02  .356E+02
  .357E+02  .457E+02  .393E+02  .594E+02  .552E+02  .458E+02  .630E+02  .625E+02
  .455E+02  .691E+02  .379E+02  .380E+02  .380E+02  .725E+02  .375E+02  .349E+02
  .618E+02  .699E+02  .699E+02  .688E+02  .676E+02  .678E+02  .468E+02  .667E+02
  .611E+02  .611E+02  .591E+02  .548E+02  .668E+02  .455E+02  .455E+02  .350E+02
  .455E+02  .455E+02  .000E+00  .000E+00  .000E+00  .000E+00  .000E+00  .000E+00
  .000E+00  .000E+00  .000E+00  .000E+00  .000E+00  .000E+00  .000E+00  .000E+00
  .000E+00  .000E+00  .000E+00  .000E+00
  .120E+02  .125E+02  .120E+02  .120E+02  .120E+02  .125E+02  .143E+02  .120E+02
  .120E+02  .121E+02  .121E+02  .119E+02  .143E+02  .143E+02  .147E+02  .147E+02
  .121E+02  .130E+02  .148E+02  .148E+02  .182E+02  .149E+02  .152E+02  .153E+02
  .155E+02  .150E+02  .139E+02  .243E+02  .168E+02  .156E+02  .245E+02  .194E+02
  .183E+02  .254E+02  .254E+02  .215E+02  .231E+02  .348E+02  .351E+02  .249E+02
  .493E+02  .311E+02  .353E+02  .357E+02  .498E+02  .335E+02  .433E+02  .358E+02
  .355E+02  .469E+02  .674E+02  .596E+02  .554E+02  .455E+02  .627E+02  .629E+02
  .693E+02  .704E+02  .382E+02  .735E+02  .736E+02  .730E+02  .370E+02  .547E+02
  .637E+02  .690E+02  .691E+02  .681E+02  .682E+02  .670E+02  .476E+02  .616E+02
  .618E+02  .618E+02  .606E+02  .588E+02  .589E+02  .519E+02  .617E+02  .617E+02
  .498E+02  .466E+02  .000E+00  .000E+00  .000E+00  .000E+00  .000E+00  .000E+00
  .000E+00  .000E+00  .000E+00  .000E+00  .000E+00  .000E+00  .000E+00  .000E+00
  .000E+00  .000E+00  .000E+00  .000E+00
Damping =  .05. Data of Sd,Sv,Sa,Pssv,ttSd,ttSv,ttSa :
  .820E-04  .944E-04  .106E-03  .119E-03  .126E-03  .128E-03  .149E-03  .254E-03
  .356E-03  .460E-03  .533E-03  .488E-03  .629E-03  .808E-03  .107E-02  .116E-02
