Response and Fourier amplitude spectra (82 periods,  .04 -  8.0 sec)   for      
Corrected accelerogram   14406-K1062-14088.27       Chan  7:  Long       from   
Uncorrected Accelerogram Data             Processed: 04/01/14, CGS  az027       
Rcrd of Fri Mar 28, 2014 21:09:44.0 PDT*              (Avol1 v0.5, 2/14 CSMIP)  
CSMIP Preliminary Processing            (Origin:  To be determined)             
14406-K1062-14088.27                 Start time:  3/29/14, 04:09:44.0 UTC (GPS) 
Station No. 14406   33.749N, 118.271W    K2      s/n 1062  (8 Chns of 26 at Sta)
Los Angeles - Vincent Thomas Bridge       CGS   Data: Acceleration              
Chan  7:  Long    (Sta Chn: 25)     Location: East Anchor: Base                 
Rcrd of Fri Mar 28, 2014 21:09:44.0 PDT*   Fri Mar 28, 2014 21:09:44.0 PDT*     
Hypocenter:  To be determined.               ML:  To be determined.
Instr Period =  .0192 sec,  Damping =  .650,  Sensitivity = 2.51 v/g
                        Record length = 75.000 sec.
                                     Uncor Max  =   .013 g , at  18.170 sec.
RMS accel of (uncor) record  =        .   Chn. metadata effective date: 10/25/10
Accelerogram bandpass filtered with 3 dB pts at   .13 and 40.00 cyc/sec
                 instrument- and baseline-corrected





Rcrd of Fri Mar 28, 2014 21:09:44.0 PDT*   Fri Mar 28, 2014 21:09:44.0 PDT*

14406-K1062-14088.27      Los Angeles - Vincent Thomas Bridge   Chan  7:  Long

14406-K1062-14088.27      Los Angeles - Vincent Thomas Bridge   Chan  7:  Long

Units for spectra are inches and sec, except Sa is in fraction of g.

    7  100   25   12   26  200    1    3    1   24   11 1062    014406    3    0
    4    9   44    0   88    3   29 2014   10    3  80015000   39   35   74   -1
15000    1  100    3 1062    2   27  750    2    0    0    0    0    0    0    0
    0    0    3    0 7500    2  222    1   18    2    0    0    3    1    0 7500
    3 7500    4   82    5    8    5    0    0    0    0    0    1    3    2    2
    2    2    4    0   66  110    0    2    0    0    0    1    0    0    0  222
    1    0    0    0
      .019      .650    75.000      .002      .000  2506.000      .013    18.170
    52.100      .298      .119      .000     5.000  -999.000     1.000      .000
     2.500   -23.233     2.500  -999.000    23.000    30.000  -999.000      .003
     -.015     -.018     2.000    15.000    33.749  -118.271      .048      .719
    15.038     -.053      .016      .000    23.100    44.800    13.000    97.160
     1.000    -1.099      .000  -999.000  -999.000  -999.000  -999.000      .000
      .200      .500     6.300   980.665      .010    75.000     8.292      .000
      .000    40.000      .000    75.000      .010      .125      .000      .000
    18.170    13.198    31.340     1.213    67.650      .250      .000      .125
    40.000      .010      .010      .001      .010      .121      .000      .000
      .053      .460      .019      .038      .017      .002      .000      .000
      .000      .000      .000      .000      .000      .000      .000      .000
      .000      .000      .000      .000
      .000      .020      .050      .100      .200
      .040      .042      .044      .046      .048      .050      .055      .060
      .065      .070      .075      .080      .085      .090      .095      .100
      .110      .120      .130      .140      .150      .160      .170      .180
      .190      .200      .220      .240      .260      .280      .300      .320
      .340      .360      .380      .400      .420      .440      .460      .480
      .500      .550      .600      .650      .700      .750      .800      .850
      .900      .950     1.000     1.100     1.200     1.300     1.400     1.500
     1.600     1.700     1.800     1.900     2.000     2.200     2.400     2.600
     2.800     3.000     3.200     3.400     3.600     3.800     4.000     4.200
     4.400     4.600     4.800     5.000     5.500     6.000     6.500     7.000
     7.500     8.000      .000      .000      .000      .000      .000      .000
      .000      .000      .000      .000      .000      .000      .000      .000
      .000      .000      .000      .000
Fourier amplitude spectra in in/sec.
  .263E-02  .152E-02  .156E-01  .136E-01  .934E-02  .217E-01  .189E-01  .256E-01
  .363E-01  .182E-01  .129E+00  .747E-01  .505E-01  .109E+00  .758E-01  .847E-01
  .125E-01  .220E+00  .301E-01  .102E+00  .293E+00  .140E+00  .179E+00  .383E+00
  .323E+00  .145E+01  .285E+00  .408E+00  .143E+01  .111E+01  .950E+00  .193E+01
  .208E+01  .169E+01  .302E+01  .149E+01  .225E+01  .279E+01  .311E+01  .380E+01
  .365E+01  .476E+01  .267E+01  .852E+00  .170E+01  .310E+01  .571E+01  .130E+01
  .160E+01  .225E+01  .120E+01  .111E+01  .373E+01  .206E+01  .685E+00  .197E+01
  .178E+01  .708E-01  .606E+00  .327E+01  .241E+01  .737E+00  .282E+01  .603E+00
  .427E+00  .321E+00  .690E+00  .951E+00  .517E+00  .848E+00  .115E+01  .777E+00
  .251E+00  .160E+00  .144E+00  .421E+00  .708E+00  .726E+00  .405E+00  .276E+00
  .255E+00  .155E+00  .000E+00  .000E+00  .000E+00  .000E+00  .000E+00  .000E+00
  .000E+00  .000E+00  .000E+00  .000E+00  .000E+00  .000E+00  .000E+00  .000E+00
  .000E+00  .000E+00  .000E+00  .000E+00
Damping =  .00. Data of Sd,Sv,Sa,Pssv,ttSd,ttSv,ttSa :
  .230E-03  .234E-03  .360E-03  .376E-03  .354E-03  .504E-03  .552E-03  .571E-03
  .101E-02  .845E-03  .216E-02  .171E-02  .134E-02  .243E-02  .204E-02  .259E-02
  .205E-02  .509E-02  .379E-02  .531E-02  .894E-02  .577E-02  .743E-02  .132E-01
  .111E-01  .473E-01  .173E-01  .252E-01  .693E-01  .596E-01  .635E-01  .104E+00
  .140E+00  .986E-01  .187E+00  .142E+00  .228E+00  .204E+00  .373E+00  .341E+00
  .347E+00  .433E+00  .326E+00  .225E+00  .190E+00  .407E+00  .727E+00  .292E+00
  .255E+00  .395E+00  .272E+00  .343E+00  .717E+00  .451E+00  .284E+00  .540E+00
  .614E+00  .494E+00  .626E+00  .101E+01  .777E+00  .444E+00  .108E+01  .367E+00
  .362E+00  .316E+00  .382E+00  .569E+00  .363E+00  .513E+00  .729E+00  .598E+00
  .235E+00  .295E+00  .335E+00  .534E+00  .622E+00  .717E+00  .608E+00  .489E+00
  .369E+00  .326E+00  .000E+00  .000E+00  .000E+00  .000E+00  .000E+00  .000E+00
  .000E+00  .000E+00  .000E+00  .000E+00  .000E+00  .000E+00  .000E+00  .000E+00
  .000E+00  .000E+00  .000E+00  .000E+00
  .821E-02  .836E-02  .200E-01  .192E-01  .115E-01  .265E-01  .254E-01  .321E-01
  .533E-01  .475E-01  .137E+00  .883E-01  .546E-01  .122E+00  .872E-01  .112E+00
  .652E-01  .224E+00  .138E+00  .203E+00  .313E+00  .203E+00  .233E+00  .399E+00
  .336E+00  .146E+01  .434E+00  .617E+00  .162E+01  .133E+01  .125E+01  .203E+01
  .247E+01  .170E+01  .307E+01  .221E+01  .337E+01  .289E+01  .494E+01  .434E+01
  .427E+01  .495E+01  .353E+01  .229E+01  .170E+01  .334E+01  .571E+01  .220E+01
  .175E+01  .254E+01  .172E+01  .196E+01  .376E+01  .218E+01  .136E+01  .228E+01
  .242E+01  .192E+01  .246E+01  .335E+01  .245E+01  .132E+01  .282E+01  .100E+01
  .854E+00  .886E+00  .854E+00  .105E+01  .766E+00  .906E+00  .115E+01  .967E+00
  .506E+00  .589E+00  .610E+00  .731E+00  .708E+00  .804E+00  .681E+00  .548E+00
  .458E+00  .456E+00  .000E+00  .000E+00  .000E+00  .000E+00  .000E+00  .000E+00
  .000E+00  .000E+00  .000E+00  .000E+00  .000E+00  .000E+00  .000E+00  .000E+00
  .000E+00  .000E+00  .000E+00  .000E+00
  .147E-01  .136E-01  .190E-01  .182E-01  .157E-01  .206E-01  .187E-01  .162E-01
  .246E-01  .176E-01  .393E-01  .273E-01  .189E-01  .307E-01  .231E-01  .265E-01
  .173E-01  .362E-01  .229E-01  .277E-01  .406E-01  .231E-01  .263E-01  .416E-01
  .313E-01  .121E+00  .366E-01  .448E-01  .105E+00  .778E-01  .722E-01  .104E+00
  .124E+00  .778E-01  .133E+00  .910E-01  .132E+00  .108E+00  .180E+00  .151E+00
  .142E+00  .146E+00  .927E-01  .546E-01  .397E-01  .739E-01  .116E+00  .414E-01
  .321E-01  .447E-01  .278E-01  .290E-01  .509E-01  .273E-01  .148E-01  .245E-01
  .245E-01  .175E-01  .198E-01  .287E-01  .199E-01  .938E-02  .192E-01  .556E-02
  .472E-02  .359E-02  .382E-02  .503E-02  .287E-02  .363E-02  .466E-02  .347E-02
  .124E-02  .143E-02  .149E-02  .219E-02  .210E-02  .204E-02  .147E-02  .102E-02
  .672E-03  .521E-03  .000E+00  .000E+00  .000E+00  .000E+00  .000E+00  .000E+00
  .000E+00  .000E+00  .000E+00  .000E+00  .000E+00  .000E+00  .000E+00  .000E+00
  .000E+00  .000E+00  .000E+00  .000E+00
  .362E-01  .351E-01  .514E-01  .514E-01  .463E-01  .633E-01  .631E-01  .598E-01
  .981E-01  .758E-01  .181E+00  .134E+00  .988E-01  .170E+00  .135E+00  .163E+00
  .117E+00  .267E+00  .183E+00  .238E+00  .374E+00  .227E+00  .274E+00  .460E+00
  .366E+00  .149E+01  .495E+00  .661E+00  .167E+01  .134E+01  .133E+01  .204E+01
  .258E+01  .172E+01  .309E+01  .224E+01  .342E+01  .291E+01  .510E+01  .446E+01
  .436E+01  .495E+01  .342E+01  .218E+01  .171E+01  .341E+01  .571E+01  .216E+01
  .178E+01  .261E+01  .171E+01  .196E+01  .375E+01  .218E+01  .127E+01  .226E+01
  .241E+01  .183E+01  .219E+01  .336E+01  .244E+01  .127E+01  .282E+01  .888E+00
  .812E+00  .662E+00  .750E+00  .105E+01  .634E+00  .848E+00  .115E+01  .895E+00
  .335E+00  .403E+00  .439E+00  .671E+00  .710E+00  .751E+00  .587E+00  .439E+00
  .309E+00  .256E+00  .000E+00  .000E+00  .000E+00  .000E+00  .000E+00  .000E+00
  .000E+00  .000E+00  .000E+00  .000E+00  .000E+00  .000E+00  .000E+00  .000E+00
  .000E+00  .000E+00  .000E+00  .000E+00
  .182E+02  .182E+02  .181E+02  .182E+02  .182E+02  .182E+02  .182E+02  .312E+02
  .182E+02  .182E+02  .182E+02  .312E+02  .181E+02  .312E+02  .181E+02  .312E+02
  .181E+02  .312E+02  .182E+02  .226E+02  .315E+02  .206E+02  .180E+02  .311E+02
  .311E+02  .587E+02  .315E+02  .339E+02  .385E+02  .249E+02  .184E+02  .468E+02
  .331E+02  .662E+02  .662E+02  .305E+02  .411E+02  .427E+02  .315E+02  .315E+02
  .331E+02  .496E+02  .320E+02  .320E+02  .739E+02  .367E+02  .745E+02  .347E+02
  .403E+02  .678E+02  .328E+02  .370E+02  .728E+02  .688E+02  .240E+02  .477E+02
  .430E+02  .425E+02  .336E+02  .721E+02  .723E+02  .602E+02  .739E+02  .315E+02
  .626E+02  .627E+02  .564E+02  .699E+02  .331E+02  .749E+02  .748E+02  .678E+02
  .678E+02  .661E+02  .661E+02  .641E+02  .736E+02  .721E+02  .677E+02  .559E+02
  .537E+02  .675E+02  .000E+00  .000E+00  .000E+00  .000E+00  .000E+00  .000E+00
  .000E+00  .000E+00  .000E+00  .000E+00  .000E+00  .000E+00  .000E+00  .000E+00
  .000E+00  .000E+00  .000E+00  .000E+00
  .120E+02  .118E+02  .181E+02  .491E+02  .112E+02  .181E+02  .439E+02  .496E+02
  .181E+02  .122E+02  .225E+02  .311E+02  .181E+02  .311E+02  .181E+02  .311E+02
  .145E+02  .487E+02  .188E+02  .252E+02  .386E+02  .206E+02  .235E+02  .672E+02
  .686E+02  .587E+02  .403E+02  .339E+02  .385E+02  .248E+02  .183E+02  .467E+02
  .332E+02  .688E+02  .663E+02  .306E+02  .413E+02  .428E+02  .313E+02  .326E+02
  .333E+02  .494E+02  .321E+02  .321E+02  .740E+02  .697E+02  .743E+02  .349E+02
  .401E+02  .680E+02  .326E+02  .373E+02  .724E+02  .691E+02  .314E+02  .451E+02
  .427E+02  .429E+02  .332E+02  .716E+02  .708E+02  .294E+02  .745E+02  .318E+02
  .313E+02  .313E+02  .571E+02  .691E+02  .359E+02  .329E+02  .738E+02  .672E+02
  .317E+02  .313E+02  .672E+02  .673E+02  .777E+02  .707E+02  .596E+02  .577E+02
  .313E+02  .313E+02  .000E+00  .000E+00  .000E+00  .000E+00  .000E+00  .000E+00
  .000E+00  .000E+00  .000E+00  .000E+00  .000E+00  .000E+00  .000E+00  .000E+00
  .000E+00  .000E+00  .000E+00  .000E+00
  .182E+02  .182E+02  .181E+02  .182E+02  .182E+02  .182E+02  .182E+02  .312E+02
  .182E+02  .182E+02  .182E+02  .312E+02  .181E+02  .312E+02  .181E+02  .312E+02
  .181E+02  .312E+02  .182E+02  .226E+02  .315E+02  .206E+02  .180E+02  .311E+02
  .311E+02  .587E+02  .315E+02  .339E+02  .385E+02  .249E+02  .184E+02  .468E+02
  .331E+02  .662E+02  .662E+02  .305E+02  .411E+02  .427E+02  .315E+02  .315E+02
  .331E+02  .496E+02  .320E+02  .320E+02  .739E+02  .367E+02  .745E+02  .347E+02
  .403E+02  .678E+02  .328E+02  .370E+02  .728E+02  .688E+02  .240E+02  .477E+02
  .430E+02  .425E+02  .336E+02  .721E+02  .723E+02  .602E+02  .739E+02  .315E+02
  .626E+02  .627E+02  .564E+02  .699E+02  .331E+02  .749E+02  .748E+02  .678E+02
  .678E+02  .661E+02  .661E+02  .641E+02  .736E+02  .721E+02  .677E+02  .559E+02
  .537E+02  .675E+02  .000E+00  .000E+00  .000E+00  .000E+00  .000E+00  .000E+00
  .000E+00  .000E+00  .000E+00  .000E+00  .000E+00  .000E+00  .000E+00  .000E+00
  .000E+00  .000E+00  .000E+00  .000E+00
Damping =  .02. Data of Sd,Sv,Sa,Pssv,ttSd,ttSv,ttSa :
  .213E-03  .237E-03  .262E-03  .282E-03  .309E-03  .336E-03  .418E-03  .486E-03
  .617E-03  .662E-03  .832E-03  .905E-03  .946E-03  .117E-02  .125E-02  .145E-02
  .185E-02  .246E-02  .320E-02  .422E-02  .467E-02  .426E-02  .566E-02  .673E-02
  .685E-02  .921E-02  .126E-01  .185E-01  .222E-01  .254E-01  .428E-01  .481E-01
  .615E-01  .533E-01  .591E-01  .641E-01  .950E-01  .126E+00  .159E+00  .143E+00
  .183E+00  .180E+00  .160E+00  .132E+00  .144E+00  .248E+00  .245E+00  .186E+00
  .188E+00  .200E+00  .206E+00  .253E+00  .284E+00  .210E+00  .229E+00  .293E+00
  .357E+00  .291E+00  .413E+00  .451E+00  .440E+00  .349E+00  .459E+00  .285E+00
  .229E+00  .222E+00  .252E+00  .336E+00  .327E+00  .353E+00  .419E+00  .411E+00
  .255E+00  .264E+00  .304E+00  .412E+00  .458E+00  .499E+00  .475E+00  .398E+00
  .309E+00  .280E+00  .000E+00  .000E+00  .000E+00  .000E+00  .000E+00  .000E+00
  .000E+00  .000E+00  .000E+00  .000E+00  .000E+00  .000E+00  .000E+00  .000E+00
  .000E+00  .000E+00  .000E+00  .000E+00
  .369E-02  .425E-02  .506E-02  .535E-02  .637E-02  .734E-02  .936E-02  .893E-02
  .138E-01  .210E-01  .238E-01  .240E-01  .230E-01  .239E-01  .321E-01  .334E-01
  .394E-01  .615E-01  .623E-01  .100E+00  .118E+00  .996E-01  .126E+00  .160E+00
  .157E+00  .244E+00  .245E+00  .359E+00  .435E+00  .538E+00  .826E+00  .857E+00
  .102E+01  .809E+00  .887E+00  .920E+00  .134E+01  .178E+01  .218E+01  .174E+01
  .214E+01  .195E+01  .169E+01  .134E+01  .127E+01  .202E+01  .204E+01  .142E+01
  .136E+01  .133E+01  .139E+01  .141E+01  .148E+01  .992E+00  .995E+00  .129E+01
  .141E+01  .122E+01  .179E+01  .158E+01  .139E+01  .105E+01  .126E+01  .899E+00
  .788E+00  .827E+00  .805E+00  .763E+00  .612E+00  .769E+00  .762E+00  .675E+00
  .513E+00  .549E+00  .561E+00  .553E+00  .581E+00  .631E+00  .558E+00  .461E+00
  .459E+00  .456E+00  .000E+00  .000E+00  .000E+00  .000E+00  .000E+00  .000E+00
  .000E+00  .000E+00  .000E+00  .000E+00  .000E+00  .000E+00  .000E+00  .000E+00
  .000E+00  .000E+00  .000E+00  .000E+00
  .136E-01  .137E-01  .138E-01  .137E-01  .137E-01  .137E-01  .141E-01  .138E-01
  .149E-01  .138E-01  .151E-01  .145E-01  .134E-01  .148E-01  .141E-01  .149E-01
  .157E-01  .174E-01  .194E-01  .220E-01  .212E-01  .171E-01  .200E-01  .213E-01
  .194E-01  .236E-01  .265E-01  .329E-01  .336E-01  .332E-01  .487E-01  .481E-01
  .543E-01  .422E-01  .419E-01  .411E-01  .551E-01  .665E-01  .769E-01  .638E-01
  .747E-01  .609E-01  .453E-01  .320E-01  .302E-01  .451E-01  .392E-01  .264E-01
  .237E-01  .226E-01  .211E-01  .214E-01  .202E-01  .127E-01  .120E-01  .133E-01
  .143E-01  .103E-01  .130E-01  .128E-01  .112E-01  .739E-02  .816E-02  .432E-02
  .299E-02  .252E-02  .252E-02  .298E-02  .259E-02  .250E-02  .268E-02  .238E-02
  .135E-02  .128E-02  .135E-02  .169E-02  .155E-02  .142E-02  .115E-02  .832E-03
  .564E-03  .449E-03  .000E+00  .000E+00  .000E+00  .000E+00  .000E+00  .000E+00
  .000E+00  .000E+00  .000E+00  .000E+00  .000E+00  .000E+00  .000E+00  .000E+00
  .000E+00  .000E+00  .000E+00  .000E+00
  .334E-01  .355E-01  .374E-01  .386E-01  .405E-01  .422E-01  .477E-01  .509E-01
  .596E-01  .594E-01  .697E-01  .711E-01  .699E-01  .816E-01  .825E-01  .913E-01
  .106E+00  .129E+00  .154E+00  .189E+00  .195E+00  .167E+00  .209E+00  .235E+00
  .226E+00  .289E+00  .359E+00  .485E+00  .537E+00  .571E+00  .896E+00  .945E+00
  .114E+01  .931E+00  .976E+00  .101E+01  .142E+01  .180E+01  .217E+01  .188E+01
  .230E+01  .205E+01  .167E+01  .128E+01  .130E+01  .208E+01  .193E+01  .138E+01
  .131E+01  .132E+01  .130E+01  .145E+01  .149E+01  .102E+01  .103E+01  .123E+01
  .140E+01  .107E+01  .144E+01  .149E+01  .138E+01  .998E+00  .120E+01  .688E+00
  .513E+00  .465E+00  .495E+00  .621E+00  .571E+00  .583E+00  .659E+00  .614E+00
  .365E+00  .361E+00  .398E+00  .517E+00  .523E+00  .522E+00  .460E+00  .357E+00
  .259E+00  .220E+00  .000E+00  .000E+00  .000E+00  .000E+00  .000E+00  .000E+00
  .000E+00  .000E+00  .000E+00  .000E+00  .000E+00  .000E+00  .000E+00  .000E+00
  .000E+00  .000E+00  .000E+00  .000E+00
  .182E+02  .182E+02  .182E+02  .182E+02  .182E+02  .182E+02  .182E+02  .182E+02
  .182E+02  .182E+02  .182E+02  .182E+02  .181E+02  .182E+02  .181E+02  .181E+02
  .182E+02  .181E+02  .182E+02  .182E+02  .182E+02  .180E+02  .180E+02  .182E+02
  .180E+02  .180E+02  .180E+02  .182E+02  .182E+02  .226E+02  .182E+02  .184E+02
  .184E+02  .184E+02  .184E+02  .187E+02  .187E+02  .187E+02  .188E+02  .316E+02
  .331E+02  .335E+02  .340E+02  .320E+02  .320E+02  .363E+02  .337E+02  .338E+02
  .390E+02  .387E+02  .324E+02  .370E+02  .451E+02  .357E+02  .240E+02  .371E+02
  .430E+02  .417E+02  .336E+02  .331E+02  .384E+02  .279E+02  .378E+02  .315E+02
  .315E+02  .628E+02  .700E+02  .700E+02  .686E+02  .746E+02  .730E+02  .677E+02
  .678E+02  .661E+02  .662E+02  .642E+02  .736E+02  .720E+02  .582E+02  .558E+02
  .501E+02  .435E+02  .000E+00  .000E+00  .000E+00  .000E+00  .000E+00  .000E+00
  .000E+00  .000E+00  .000E+00  .000E+00  .000E+00  .000E+00  .000E+00  .000E+00
  .000E+00  .000E+00  .000E+00  .000E+00
  .181E+02  .181E+02  .127E+02  .127E+02  .120E+02  .120E+02  .129E+02  .125E+02
  .181E+02  .122E+02  .123E+02  .146E+02  .181E+02  .146E+02  .169E+02  .181E+02
  .179E+02  .181E+02  .182E+02  .188E+02  .182E+02  .241E+02  .180E+02  .169E+02
  .127E+02  .170E+02  .137E+02  .181E+02  .183E+02  .227E+02  .183E+02  .183E+02
  .183E+02  .256E+02  .186E+02  .186E+02  .186E+02  .188E+02  .189E+02  .324E+02
  .333E+02  .337E+02  .341E+02  .321E+02  .322E+02  .365E+02  .339E+02  .336E+02
  .393E+02  .390E+02  .326E+02  .373E+02  .454E+02  .241E+02  .237E+02  .337E+02
  .426E+02  .413E+02  .333E+02  .317E+02  .408E+02  .274E+02  .383E+02  .317E+02
  .313E+02  .313E+02  .313E+02  .313E+02  .301E+02  .329E+02  .682E+02  .684E+02
  .672E+02  .313E+02  .313E+02  .654E+02  .613E+02  .682E+02  .596E+02  .313E+02
  .313E+02  .313E+02  .000E+00  .000E+00  .000E+00  .000E+00  .000E+00  .000E+00
  .000E+00  .000E+00  .000E+00  .000E+00  .000E+00  .000E+00  .000E+00  .000E+00
  .000E+00  .000E+00  .000E+00  .000E+00
  .182E+02  .182E+02  .182E+02  .182E+02  .182E+02  .182E+02  .182E+02  .182E+02
  .182E+02  .182E+02  .182E+02  .182E+02  .181E+02  .182E+02  .181E+02  .181E+02
  .182E+02  .181E+02  .182E+02  .182E+02  .182E+02  .180E+02  .180E+02  .182E+02
  .180E+02  .180E+02  .180E+02  .182E+02  .182E+02  .226E+02  .182E+02  .184E+02
  .184E+02  .184E+02  .184E+02  .187E+02  .187E+02  .187E+02  .188E+02  .316E+02
  .331E+02  .335E+02  .340E+02  .320E+02  .320E+02  .363E+02  .337E+02  .338E+02
  .390E+02  .387E+02  .324E+02  .370E+02  .451E+02  .357E+02  .240E+02  .371E+02
  .430E+02  .416E+02  .336E+02  .330E+02  .384E+02  .279E+02  .378E+02  .314E+02
  .315E+02  .628E+02  .699E+02  .700E+02  .686E+02  .746E+02  .729E+02  .676E+02
  .677E+02  .661E+02  .662E+02  .642E+02  .735E+02  .720E+02  .582E+02  .558E+02
  .500E+02  .435E+02  .000E+00  .000E+00  .000E+00  .000E+00  .000E+00  .000E+00
  .000E+00  .000E+00  .000E+00  .000E+00  .000E+00  .000E+00  .000E+00  .000E+00
  .000E+00  .000E+00  .000E+00  .000E+00
Damping =  .05. Data of Sd,Sv,Sa,Pssv,ttSd,ttSv,ttSa :
  .213E-03  .236E-03  .260E-03  .283E-03  .309E-03  .336E-03  .413E-03  .489E-03
