Response and Fourier amplitude spectra (76 periods,  .04 -  5.0 sec)   for      
Corrected accelerogram   24605-E0822-14091.06       Chan  4:  90 Deg     from   
Uncorrected Accelerogram Data             Processed: 04/01/14, CGS  e0822e06    
Rcrd of Fri Mar 28, 2014 21:10:13.4 PDT*              (Avol1 v0.5, 2/14 CSMIP)  
CSMIP Preliminary Processing            (Origin:  To be determined)             
24605-E0822-14091.06                 Start time:  3/29/14, 04:10:13.4(*LoQ*)    
Station No. 24605   34.062N, 118.201W    SSA-1   s/n  822  (4 Chns of 27 at Sta)
Los Angeles - 7-story Univ. Hospital      CGS   Data: Acceleration              
Chan  4:  90 DegR (Sta Chn: 20)     Location: 6th Floor: South wall             
Rcrd of Fri Mar 28, 2014 21:10:13.4 PDT*   Fri Mar 28, 2014 21:10:13.4 PDT*     
Hypocenter:  To be determined.               ML:  To be determined.
Instr Period =  .0189 sec,  Damping =  .650,  Sensitivity = 1.25 v/g
                        Record length = 78.080 sec.
                                     Uncor Max  =  -.027 g , at  20.530 sec.
RMS accel of (uncor) record  =        .   Chn. metadata effective date: 05/02/91
Accelerogram bandpass filtered with 3 dB pts at   .20 and 40.00 cyc/sec
                 instrument- and baseline-corrected





Rcrd of Fri Mar 28, 2014 21:10:13.4 PDT*   Fri Mar 28, 2014 21:10:13.4 PDT*

24605-E0822-14091.06      Los Angeles - 7-story Univ. Hospital    Chan  4:  90 D
eg
24605-E0822-14091.06      Los Angeles - 7-story Univ. Hospital    Chan  4:  90 D
eg
Units for spectra are inches and sec, except Sa is in fraction of g.

    4  100   20    4   27  200    1    3    1   12    5  822    024605    2    0
    4   10   13  410   88    3   29 2014    0    6   9015616   39   36   74   -1
15616    0  100    3 2115    7    6   61    2    4   10   13  410    3   29 2014
    0    0    3    0 7808    2  220    1   12    4    0    0    3    1    0 7808
    3 7808    4   76    5    4    5    0    1    0    0    0    1    3    5    2
    2    2    4    0   72   99    2    3    0    0  772    1    0    0    0  222
    1    0    4    0
      .019      .650    78.080      .006      .000  1251.000     -.027    20.530
    52.900  1220.703   975.782      .000     5.000  -999.000     2.000      .000
     2.500    10.047     2.500   376.000    15.360    30.000  -999.000     -.055
      .064      .119     2.000    15.000    34.062  -118.201      .423     1.668
     3.944      .024      .215   115.000      .000      .000      .000      .000
     1.000    92.804      .000  -999.000  -999.000  -999.000  -999.000      .000
     9.200      .500     6.300   980.665      .010    78.080     8.419      .000
      .000    40.000      .000    78.080      .010      .200      .000      .000
    20.540   -25.924    20.810    -3.800    27.260     -.636     -.003      .200
    40.000      .010      .010     -.005      .010      .362      .000      .000
      .159      .900      .049      .048      .132      .004      .000      .000
      .000      .000      .000      .000      .000      .000      .000      .000
      .000      .000      .000      .000
      .000      .020      .050      .100      .200
      .040      .042      .044      .046      .048      .050      .055      .060
      .065      .070      .075      .080      .085      .090      .095      .100
      .110      .120      .130      .140      .150      .160      .170      .180
      .190      .200      .220      .240      .260      .280      .300      .320
      .340      .360      .380      .400      .420      .440      .460      .480
      .500      .550      .600      .650      .700      .750      .800      .850
      .900      .950     1.000     1.100     1.200     1.300     1.400     1.500
     1.600     1.700     1.800     1.900     2.000     2.200     2.400     2.600
     2.800     3.000     3.200     3.400     3.600     3.800     4.000     4.200
     4.400     4.600     4.800     5.000      .000      .000      .000      .000
      .000      .000      .000      .000      .000      .000      .000      .000
      .000      .000      .000      .000      .000      .000      .000      .000
      .000      .000      .000      .000
Fourier amplitude spectra in in/sec.
  .943E-02  .346E-01  .545E-01  .103E+00  .971E-01  .602E-01  .695E-01  .580E-01
  .713E-01  .685E-01  .975E-02  .478E-01  .113E+00  .147E+00  .501E-01  .968E-01
  .157E+00  .594E-01  .477E+00  .301E+00  .797E+00  .106E+01  .726E+00  .789E+00
  .184E+01  .890E+00  .141E+00  .749E+00  .204E+01  .267E+01  .239E+01  .353E+01
  .594E+00  .364E+01  .121E+01  .210E+01  .295E+01  .675E+00  .314E+01  .867E+00
  .171E+01  .215E+01  .279E+01  .301E+01  .100E+02  .188E+02  .829E+01  .146E+02
  .374E+02  .141E+02  .274E+02  .152E+02  .480E+01  .432E+01  .162E+01  .473E+01
  .189E+01  .387E+00  .519E+00  .149E+01  .758E+00  .642E+00  .368E+00  .370E+00
  .608E+00  .543E+00  .128E+01  .340E+00  .385E+00  .693E+00  .918E+00  .577E+00
  .298E+00  .477E+00  .422E+00  .279E+00  .000E+00  .000E+00  .000E+00  .000E+00
  .000E+00  .000E+00  .000E+00  .000E+00  .000E+00  .000E+00  .000E+00  .000E+00
  .000E+00  .000E+00  .000E+00  .000E+00  .000E+00  .000E+00  .000E+00  .000E+00
  .000E+00  .000E+00  .000E+00  .000E+00
Damping =  .00. Data of Sd,Sv,Sa,Pssv,ttSd,ttSv,ttSa :
  .577E-03  .967E-03  .890E-03  .939E-03  .762E-03  .848E-03  .132E-02  .147E-02
  .210E-02  .155E-02  .162E-02  .248E-02  .255E-02  .370E-02  .377E-02  .506E-02
  .458E-02  .799E-02  .138E-01  .110E-01  .237E-01  .381E-01  .272E-01  .349E-01
  .609E-01  .420E-01  .368E-01  .432E-01  .882E-01  .134E+00  .119E+00  .190E+00
  .105E+00  .229E+00  .134E+00  .224E+00  .225E+00  .161E+00  .272E+00  .172E+00
  .191E+00  .303E+00  .430E+00  .468E+00  .112E+01  .272E+01  .140E+01  .235E+01
  .548E+01  .256E+01  .476E+01  .268E+01  .117E+01  .138E+01  .871E+00  .116E+01
  .800E+00  .589E+00  .493E+00  .477E+00  .411E+00  .369E+00  .331E+00  .334E+00
  .377E+00  .450E+00  .666E+00  .486E+00  .441E+00  .557E+00  .626E+00  .569E+00
  .434E+00  .374E+00  .361E+00  .306E+00  .000E+00  .000E+00  .000E+00  .000E+00
  .000E+00  .000E+00  .000E+00  .000E+00  .000E+00  .000E+00  .000E+00  .000E+00
  .000E+00  .000E+00  .000E+00  .000E+00  .000E+00  .000E+00  .000E+00  .000E+00
  .000E+00  .000E+00  .000E+00  .000E+00
  .341E-01  .107E+00  .802E-01  .105E+00  .972E-01  .606E-01  .760E-01  .834E-01
  .111E+00  .818E-01  .752E-01  .903E-01  .113E+00  .177E+00  .140E+00  .183E+00
  .183E+00  .309E+00  .537E+00  .359E+00  .853E+00  .135E+01  .864E+00  .115E+01
  .193E+01  .116E+01  .776E+00  .950E+00  .211E+01  .279E+01  .244E+01  .367E+01
  .153E+01  .392E+01  .199E+01  .337E+01  .330E+01  .189E+01  .354E+01  .209E+01
  .216E+01  .333E+01  .386E+01  .436E+01  .100E+02  .226E+02  .107E+02  .168E+02
  .383E+02  .166E+02  .299E+02  .155E+02  .625E+01  .719E+01  .468E+01  .496E+01
  .394E+01  .285E+01  .269E+01  .241E+01  .227E+01  .191E+01  .184E+01  .185E+01
  .179E+01  .187E+01  .191E+01  .189E+01  .197E+01  .196E+01  .181E+01  .188E+01
  .182E+01  .169E+01  .159E+01  .154E+01  .000E+00  .000E+00  .000E+00  .000E+00
  .000E+00  .000E+00  .000E+00  .000E+00  .000E+00  .000E+00  .000E+00  .000E+00
  .000E+00  .000E+00  .000E+00  .000E+00  .000E+00  .000E+00  .000E+00  .000E+00
  .000E+00  .000E+00  .000E+00  .000E+00
  .369E-01  .561E-01  .470E-01  .454E-01  .338E-01  .347E-01  .447E-01  .416E-01
  .507E-01  .324E-01  .295E-01  .396E-01  .362E-01  .467E-01  .428E-01  .518E-01
  .387E-01  .567E-01  .833E-01  .572E-01  .108E+00  .152E+00  .964E-01  .110E+00
  .173E+00  .107E+00  .777E-01  .766E-01  .134E+00  .175E+00  .135E+00  .190E+00
  .930E-01  .181E+00  .950E-01  .143E+00  .130E+00  .852E-01  .132E+00  .764E-01
  .783E-01  .103E+00  .122E+00  .113E+00  .233E+00  .494E+00  .224E+00  .332E+00
  .692E+00  .290E+00  .486E+00  .226E+00  .834E-01  .837E-01  .455E-01  .529E-01
  .320E-01  .209E-01  .156E-01  .135E-01  .105E-01  .781E-02  .588E-02  .506E-02
  .491E-02  .511E-02  .665E-02  .430E-02  .348E-02  .395E-02  .400E-02  .330E-02
  .229E-02  .181E-02  .160E-02  .125E-02  .000E+00  .000E+00  .000E+00  .000E+00
  .000E+00  .000E+00  .000E+00  .000E+00  .000E+00  .000E+00  .000E+00  .000E+00
  .000E+00  .000E+00  .000E+00  .000E+00  .000E+00  .000E+00  .000E+00  .000E+00
  .000E+00  .000E+00  .000E+00  .000E+00
  .906E-01  .145E+00  .127E+00  .128E+00  .998E-01  .107E+00  .151E+00  .154E+00
  .203E+00  .139E+00  .136E+00  .195E+00  .189E+00  .258E+00  .250E+00  .318E+00
  .262E+00  .418E+00  .665E+00  .492E+00  .992E+00  .150E+01  .101E+01  .122E+01
  .201E+01  .132E+01  .105E+01  .113E+01  .213E+01  .302E+01  .248E+01  .373E+01
  .194E+01  .400E+01  .222E+01  .352E+01  .336E+01  .230E+01  .372E+01  .225E+01
  .240E+01  .346E+01  .450E+01  .453E+01  .100E+02  .228E+02  .110E+02  .173E+02
  .383E+02  .169E+02  .299E+02  .153E+02  .615E+01  .669E+01  .391E+01  .488E+01
  .314E+01  .218E+01  .172E+01  .158E+01  .129E+01  .105E+01  .867E+00  .808E+00
  .845E+00  .942E+00  .131E+01  .898E+00  .770E+00  .921E+00  .984E+00  .851E+00
  .620E+00  .511E+00  .473E+00  .385E+00  .000E+00  .000E+00  .000E+00  .000E+00
  .000E+00  .000E+00  .000E+00  .000E+00  .000E+00  .000E+00  .000E+00  .000E+00
  .000E+00  .000E+00  .000E+00  .000E+00  .000E+00  .000E+00  .000E+00  .000E+00
  .000E+00  .000E+00  .000E+00  .000E+00
  .267E+02  .211E+02  .273E+02  .273E+02  .761E+02  .205E+02  .210E+02  .268E+02
  .205E+02  .173E+02  .178E+02  .210E+02  .268E+02  .268E+02  .182E+02  .268E+02
  .164E+02  .178E+02  .267E+02  .263E+02  .273E+02  .268E+02  .357E+02  .159E+02
  .598E+02  .356E+02  .201E+02  .272E+02  .603E+02  .366E+02  .705E+02  .601E+02
  .267E+02  .598E+02  .210E+02  .321E+02  .454E+02  .267E+02  .356E+02  .304E+02
  .357E+02  .361E+02  .206E+02  .317E+02  .761E+02  .375E+02  .192E+02  .258E+02
  .644E+02  .246E+02  .414E+02  .749E+02  .522E+02  .267E+02  .257E+02  .709E+02
  .277E+02  .273E+02  .210E+02  .361E+02  .273E+02  .589E+02  .272E+02  .361E+02
  .210E+02  .362E+02  .708E+02  .267E+02  .277E+02  .356E+02  .541E+02  .366E+02
  .328E+02  .272E+02  .621E+02  .272E+02  .000E+00  .000E+00  .000E+00  .000E+00
  .000E+00  .000E+00  .000E+00  .000E+00  .000E+00  .000E+00  .000E+00  .000E+00
  .000E+00  .000E+00  .000E+00  .000E+00  .000E+00  .000E+00  .000E+00  .000E+00
  .000E+00  .000E+00  .000E+00  .000E+00
  .272E+02  .505E+02  .294E+02  .766E+02  .776E+02  .771E+02  .213E+02  .285E+02
  .213E+02  .727E+02  .622E+02  .213E+02  .764E+02  .413E+02  .184E+02  .265E+02
  .631E+02  .167E+02  .311E+02  .330E+02  .608E+02  .269E+02  .359E+02  .159E+02
  .627E+02  .356E+02  .191E+02  .367E+02  .604E+02  .358E+02  .677E+02  .658E+02
  .199E+02  .467E+02  .275E+02  .320E+02  .480E+02  .265E+02  .456E+02  .302E+02
  .368E+02  .409E+02  .207E+02  .315E+02  .763E+02  .376E+02  .194E+02  .256E+02
  .641E+02  .230E+02  .412E+02  .372E+02  .459E+02  .270E+02  .260E+02  .368E+02
  .280E+02  .275E+02  .213E+02  .208E+02  .208E+02  .208E+02  .275E+02  .213E+02
  .213E+02  .208E+02  .208E+02  .208E+02  .265E+02  .265E+02  .275E+02  .275E+02
  .275E+02  .275E+02  .275E+02  .275E+02  .000E+00  .000E+00  .000E+00  .000E+00
  .000E+00  .000E+00  .000E+00  .000E+00  .000E+00  .000E+00  .000E+00  .000E+00
  .000E+00  .000E+00  .000E+00  .000E+00  .000E+00  .000E+00  .000E+00  .000E+00
  .000E+00  .000E+00  .000E+00  .000E+00
  .267E+02  .211E+02  .273E+02  .273E+02  .761E+02  .205E+02  .210E+02  .268E+02
  .205E+02  .173E+02  .178E+02  .210E+02  .268E+02  .268E+02  .182E+02  .268E+02
  .164E+02  .178E+02  .267E+02  .263E+02  .273E+02  .268E+02  .357E+02  .159E+02
  .598E+02  .356E+02  .201E+02  .272E+02  .603E+02  .366E+02  .705E+02  .601E+02
  .267E+02  .598E+02  .210E+02  .321E+02  .454E+02  .267E+02  .356E+02  .304E+02
  .357E+02  .361E+02  .206E+02  .317E+02  .761E+02  .375E+02  .192E+02  .258E+02
  .644E+02  .246E+02  .414E+02  .749E+02  .522E+02  .267E+02  .257E+02  .709E+02
  .277E+02  .273E+02  .210E+02  .361E+02  .273E+02  .589E+02  .272E+02  .361E+02
  .210E+02  .362E+02  .708E+02  .267E+02  .277E+02  .356E+02  .541E+02  .366E+02
  .328E+02  .272E+02  .621E+02  .272E+02  .000E+00  .000E+00  .000E+00  .000E+00
  .000E+00  .000E+00  .000E+00  .000E+00  .000E+00  .000E+00  .000E+00  .000E+00
  .000E+00  .000E+00  .000E+00  .000E+00  .000E+00  .000E+00  .000E+00  .000E+00
  .000E+00  .000E+00  .000E+00  .000E+00
Damping =  .02. Data of Sd,Sv,Sa,Pssv,ttSd,ttSv,ttSa :
  .438E-03  .467E-03  .524E-03  .574E-03  .603E-03  .672E-03  .839E-03  .974E-03
  .118E-02  .131E-02  .153E-02  .181E-02  .207E-02  .249E-02  .276E-02  .283E-02
  .367E-02  .509E-02  .689E-02  .688E-02  .108E-01  .139E-01  .160E-01  .197E-01
  .220E-01  .272E-01  .266E-01  .278E-01  .473E-01  .534E-01  .584E-01  .581E-01
  .676E-01  .991E-01  .908E-01  .114E+00  .934E-01  .115E+00  .119E+00  .116E+00
  .140E+00  .194E+00  .333E+00  .392E+00  .680E+00  .927E+00  .110E+01  .126E+01
  .197E+01  .183E+01  .224E+01  .166E+01  .100E+01  .105E+01  .770E+00  .622E+00
  .617E+00  .466E+00  .448E+00  .430E+00  .371E+00  .298E+00  .304E+00  .308E+00
  .360E+00  .373E+00  .386E+00  .434E+00  .402E+00  .482E+00  .474E+00  .441E+00
  .394E+00  .339E+00  .328E+00  .306E+00  .000E+00  .000E+00  .000E+00  .000E+00
  .000E+00  .000E+00  .000E+00  .000E+00  .000E+00  .000E+00  .000E+00  .000E+00
  .000E+00  .000E+00  .000E+00  .000E+00  .000E+00  .000E+00  .000E+00  .000E+00
  .000E+00  .000E+00  .000E+00  .000E+00
  .112E-01  .108E-01  .124E-01  .129E-01  .115E-01  .136E-01  .171E-01  .208E-01
  .190E-01  .246E-01  .242E-01  .316E-01  .414E-01  .490E-01  .579E-01  .631E-01
  .712E-01  .135E+00  .154E+00  .182E+00  .315E+00  .435E+00  .356E+00  .510E+00
  .523E+00  .627E+00  .582E+00  .620E+00  .925E+00  .101E+01  .107E+01  .100E+01
  .966E+00  .132E+01  .118E+01  .130E+01  .108E+01  .123E+01  .144E+01  .129E+01
  .135E+01  .178E+01  .285E+01  .335E+01  .573E+01  .747E+01  .836E+01  .890E+01
  .138E+02  .122E+02  .142E+02  .997E+01  .585E+01  .575E+01  .416E+01  .321E+01
  .317E+01  .261E+01  .254E+01  .228E+01  .220E+01  .191E+01  .177E+01  .180E+01
  .175E+01  .184E+01  .188E+01  .187E+01  .188E+01  .188E+01  .177E+01  .180E+01
  .176E+01  .168E+01  .160E+01  .156E+01  .000E+00  .000E+00  .000E+00  .000E+00
  .000E+00  .000E+00  .000E+00  .000E+00  .000E+00  .000E+00  .000E+00  .000E+00
  .000E+00  .000E+00  .000E+00  .000E+00  .000E+00  .000E+00  .000E+00  .000E+00
  .000E+00  .000E+00  .000E+00  .000E+00
  .280E-01  .271E-01  .277E-01  .278E-01  .268E-01  .275E-01  .284E-01  .277E-01
  .286E-01  .272E-01  .279E-01  .289E-01  .294E-01  .315E-01  .313E-01  .289E-01
  .311E-01  .362E-01  .419E-01  .360E-01  .493E-01  .556E-01  .569E-01  .621E-01
  .625E-01  .695E-01  .564E-01  .493E-01  .714E-01  .698E-01  .663E-01  .580E-01
  .597E-01  .782E-01  .643E-01  .728E-01  .542E-01  .607E-01  .574E-01  .513E-01
  .573E-01  .658E-01  .946E-01  .951E-01  .142E+00  .169E+00  .176E+00  .179E+00
  .249E+00  .208E+00  .229E+00  .141E+00  .712E-01  .638E-01  .402E-01  .283E-01
  .247E-01  .165E-01  .142E-01  .122E-01  .951E-02  .632E-02  .542E-02  .468E-02
  .472E-02  .426E-02  .388E-02  .386E-02  .319E-02  .343E-02  .305E-02  .257E-02
  .210E-02  .166E-02  .147E-02  .127E-02  .000E+00  .000E+00  .000E+00  .000E+00
  .000E+00  .000E+00  .000E+00  .000E+00  .000E+00  .000E+00  .000E+00  .000E+00
  .000E+00  .000E+00  .000E+00  .000E+00  .000E+00  .000E+00  .000E+00  .000E+00
  .000E+00  .000E+00  .000E+00  .000E+00
  .689E-01  .698E-01  .748E-01  .785E-01  .790E-01  .844E-01  .958E-01  .102E+00
  .114E+00  .117E+00  .128E+00  .142E+00  .153E+00  .174E+00  .182E+00  .178E+00
  .210E+00  .267E+00  .333E+00  .309E+00  .454E+00  .548E+00  .592E+00  .686E+00
  .727E+00  .854E+00  .760E+00  .728E+00  .114E+01  .120E+01  .122E+01  .114E+01
  .125E+01  .173E+01  .150E+01  .179E+01  .140E+01  .164E+01  .162E+01  .151E+01
  .176E+01  .222E+01  .349E+01  .379E+01  .610E+01  .776E+01  .864E+01  .934E+01
  .137E+02  .121E+02  .141E+02  .951E+01  .524E+01  .509E+01  .345E+01  .260E+01
  .242E+01  .172E+01  .156E+01  .142E+01  .117E+01  .851E+00  .796E+00  .744E+00
  .807E+00  .781E+00  .758E+00  .801E+00  .702E+00  .797E+00  .744E+00  .659E+00
  .562E+00  .463E+00  .429E+00  .384E+00  .000E+00  .000E+00  .000E+00  .000E+00
  .000E+00  .000E+00  .000E+00  .000E+00  .000E+00  .000E+00  .000E+00  .000E+00
  .000E+00  .000E+00  .000E+00  .000E+00  .000E+00  .000E+00  .000E+00  .000E+00
  .000E+00  .000E+00  .000E+00  .000E+00
  .205E+02  .205E+02  .205E+02  .205E+02  .205E+02  .205E+02  .205E+02  .210E+02
  .205E+02  .205E+02  .205E+02  .178E+02  .178E+02  .178E+02  .205E+02  .201E+02
  .205E+02  .166E+02  .205E+02  .190E+02  .166E+02  .190E+02  .201E+02  .210E+02
  .210E+02  .214E+02  .187E+02  .193E+02  .209E+02  .223E+02  .228E+02  .241E+02
  .201E+02  .201E+02  .210E+02  .210E+02  .169E+02  .211E+02  .277E+02  .214E+02
  .215E+02  .169E+02  .206E+02  .174E+02  .361E+02  .220E+02  .192E+02  .215E+02
  .226E+02  .223E+02  .284E+02  .281E+02  .277E+02  .267E+02  .263E+02  .365E+02
  .277E+02  .272E+02  .210E+02  .210E+02  .210E+02  .277E+02  .272E+02  .210E+02
  .210E+02  .210E+02  .267E+02  .267E+02  .277E+02  .277E+02  .278E+02  .366E+02
  .263E+02  .272E+02  .272E+02  .272E+02  .000E+00  .000E+00  .000E+00  .000E+00
  .000E+00  .000E+00  .000E+00  .000E+00  .000E+00  .000E+00  .000E+00  .000E+00
  .000E+00  .000E+00  .000E+00  .000E+00  .000E+00  .000E+00  .000E+00  .000E+00
  .000E+00  .000E+00  .000E+00  .000E+00
  .172E+02  .618E+02  .172E+02  .172E+02  .183E+02  .200E+02  .205E+02  .213E+02
  .172E+02  .186E+02  .184E+02  .186E+02  .161E+02  .166E+02  .184E+02  .200E+02
  .180E+02  .166E+02  .167E+02  .190E+02  .167E+02  .191E+02  .200E+02  .208E+02
  .213E+02  .213E+02  .188E+02  .194E+02  .209E+02  .222E+02  .229E+02  .240E+02
  .200E+02  .203E+02  .203E+02  .203E+02  .185E+02  .212E+02  .290E+02  .302E+02
  .358E+02  .171E+02  .204E+02  .176E+02  .360E+02  .185E+02  .190E+02  .191E+02
  .228E+02  .225E+02  .287E+02  .284E+02  .274E+02  .264E+02  .260E+02  .368E+02
  .280E+02  .275E+02  .213E+02  .208E+02  .208E+02  .208E+02  .275E+02  .213E+02
  .213E+02  .208E+02  .208E+02  .208E+02  .265E+02  .265E+02  .208E+02  .275E+02
  .275E+02  .275E+02  .275E+02  .275E+02  .000E+00  .000E+00  .000E+00  .000E+00
  .000E+00  .000E+00  .000E+00  .000E+00  .000E+00  .000E+00  .000E+00  .000E+00
  .000E+00  .000E+00  .000E+00  .000E+00  .000E+00  .000E+00  .000E+00  .000E+00
  .000E+00  .000E+00  .000E+00  .000E+00
  .205E+02  .205E+02  .205E+02  .205E+02  .205E+02  .205E+02  .205E+02  .210E+02
  .205E+02  .205E+02  .205E+02  .178E+02  .178E+02  .178E+02  .205E+02  .201E+02
  .178E+02  .166E+02  .205E+02  .190E+02  .166E+02  .190E+02  .201E+02  .210E+02
  .210E+02  .214E+02  .187E+02  .193E+02  .209E+02  .223E+02  .228E+02  .241E+02
  .201E+02  .201E+02  .210E+02  .210E+02  .169E+02  .211E+02  .277E+02  .214E+02
  .215E+02  .169E+02  .206E+02  .174E+02  .361E+02  .220E+02  .192E+02  .215E+02
  .226E+02  .222E+02  .284E+02  .281E+02  .277E+02  .267E+02  .263E+02  .365E+02
  .277E+02  .272E+02  .210E+02  .210E+02  .210E+02  .277E+02  .272E+02  .210E+02
  .210E+02  .210E+02  .267E+02  .267E+02  .277E+02  .277E+02  .277E+02  .365E+02
  .262E+02  .262E+02  .272E+02  .272E+02  .000E+00  .000E+00  .000E+00  .000E+00
  .000E+00  .000E+00  .000E+00  .000E+00  .000E+00  .000E+00  .000E+00  .000E+00
  .000E+00  .000E+00  .000E+00  .000E+00  .000E+00  .000E+00  .000E+00  .000E+00
  .000E+00  .000E+00  .000E+00  .000E+00
Damping =  .05. Data of Sd,Sv,Sa,Pssv,ttSd,ttSv,ttSa :
  .429E-03  .469E-03  .519E-03  .565E-03  .607E-03  .661E-03  .797E-03  .957E-03
