Response and Fourier amplitude spectra (76 periods,  .04 -  5.0 sec)   for      
Corrected accelerogram   24605-E0822-14091.06       Chan  1: 360 Deg     from   
Uncorrected Accelerogram Data             Processed: 04/01/14, CGS  e0822e06    
Rcrd of Fri Mar 28, 2014 21:10:13.4 PDT*              (Avol1 v0.5, 2/14 CSMIP)  
CSMIP Preliminary Processing            (Origin:  To be determined)             
24605-E0822-14091.06                 Start time:  3/29/14, 04:10:13.4(*LoQ*)    
Station No. 24605   34.062N, 118.201W    SSA-1   s/n  822  (4 Chns of 27 at Sta)
Los Angeles - 7-story Univ. Hospital      CGS   Data: Acceleration              
Chan  1: 360 DegR (Sta Chn: 17)     Location: 6th Floor: Center                 
Rcrd of Fri Mar 28, 2014 21:10:13.4 PDT*   Fri Mar 28, 2014 21:10:13.4 PDT*     
Hypocenter:  To be determined.               ML:  To be determined.
Instr Period =  .0186 sec,  Damping =  .660,  Sensitivity = 1.25 v/g
                        Record length = 78.080 sec.
                                     Uncor Max  =  -.041 g , at  21.570 sec.
RMS accel of (uncor) record  =        .   Chn. metadata effective date: 05/02/91
Accelerogram bandpass filtered with 3 dB pts at   .20 and 40.00 cyc/sec
                 instrument- and baseline-corrected





Rcrd of Fri Mar 28, 2014 21:10:13.4 PDT*   Fri Mar 28, 2014 21:10:13.4 PDT*

24605-E0822-14091.06      Los Angeles - 7-story Univ. Hospital    Chan  1: 360 D
eg
24605-E0822-14091.06      Los Angeles - 7-story Univ. Hospital    Chan  1: 360 D
eg
Units for spectra are inches and sec, except Sa is in fraction of g.

    1  100   17    4   27  200    1    3    1   12    5  822    024605    2    0
    4   10   13  410   88    3   29 2014    0    6  36015616   39   36   74   -1
15616    0  100    3 2115    7    6   61    2    4   10   13  410    3   29 2014
    0    0    3    0 7808    2  220    1   12    4    0    0    3    1    0 7808
    3 7808    4   76    5    4    5    0    1    0    0    0    1    3    5    2
    2    2    4    0   72   99    2    3    0    0  772    1    0    0    0  222
    1    0    1    0
      .019      .660    78.080      .006      .000  1251.000     -.041    21.570
    53.700  1220.703   975.782      .000     5.000  -999.000     2.000      .000
     2.500    13.369     2.500   376.000    15.360    30.000  -999.000      .160
     -.004     -.164     2.000    15.000    34.062  -118.201      .348     1.341
     3.856     -.241     -.086   115.000      .000      .000      .000      .000
     1.000   -10.070      .000  -999.000  -999.000  -999.000  -999.000      .000
     9.200      .500     6.300   980.665      .010    78.080     8.547      .000
      .000    40.000      .000    78.080      .010      .200      .000      .000
    21.620   -39.586    21.840    -6.431    21.590     1.256      .004      .200
    40.000      .010      .010      .007      .010      .341      .000      .000
      .207      .900      .050      .046      .154      .007      .000      .000
      .000      .000      .000      .000      .000      .000      .000      .000
      .000      .000      .000      .000
      .000      .020      .050      .100      .200
      .040      .042      .044      .046      .048      .050      .055      .060
      .065      .070      .075      .080      .085      .090      .095      .100
      .110      .120      .130      .140      .150      .160      .170      .180
      .190      .200      .220      .240      .260      .280      .300      .320
      .340      .360      .380      .400      .420      .440      .460      .480
      .500      .550      .600      .650      .700      .750      .800      .850
      .900      .950     1.000     1.100     1.200     1.300     1.400     1.500
     1.600     1.700     1.800     1.900     2.000     2.200     2.400     2.600
     2.800     3.000     3.200     3.400     3.600     3.800     4.000     4.200
     4.400     4.600     4.800     5.000      .000      .000      .000      .000
      .000      .000      .000      .000      .000      .000      .000      .000
      .000      .000      .000      .000      .000      .000      .000      .000
      .000      .000      .000      .000
Fourier amplitude spectra in in/sec.
  .104E+00  .474E-01  .614E-01  .617E-01  .954E-01  .527E-01  .345E-01  .574E-01
  .107E+00  .591E-01  .436E-01  .649E-01  .636E-01  .112E+00  .525E-01  .979E-01
  .138E+00  .295E+00  .511E+00  .614E-01  .686E+00  .757E+00  .329E+00  .587E+00
  .146E+00  .105E+01  .145E+01  .150E+01  .950E+00  .194E+01  .118E+01  .114E+01
  .239E+00  .535E+00  .344E+00  .961E+00  .197E+01  .177E+01  .408E+01  .352E+01
  .157E+01  .186E+01  .359E+01  .244E+01  .612E+01  .132E+02  .460E+01  .208E+02
  .416E+02  .207E+02  .125E+02  .225E+02  .114E+02  .459E+01  .516E+01  .683E+01
  .556E+01  .380E+01  .183E+01  .180E+01  .274E+01  .145E+01  .670E+00  .355E+00
  .110E+01  .973E+00  .234E+00  .561E+00  .531E+00  .326E+00  .595E+00  .475E+00
  .201E+00  .681E-01  .186E+00  .196E+00  .000E+00  .000E+00  .000E+00  .000E+00
  .000E+00  .000E+00  .000E+00  .000E+00  .000E+00  .000E+00  .000E+00  .000E+00
  .000E+00  .000E+00  .000E+00  .000E+00  .000E+00  .000E+00  .000E+00  .000E+00
  .000E+00  .000E+00  .000E+00  .000E+00
Damping =  .00. Data of Sd,Sv,Sa,Pssv,ttSd,ttSv,ttSa :
  .762E-03  .102E-02  .108E-02  .996E-03  .120E-02  .118E-02  .174E-02  .163E-02
  .254E-02  .236E-02  .249E-02  .322E-02  .391E-02  .475E-02  .409E-02  .455E-02
  .696E-02  .734E-02  .147E-01  .117E-01  .197E-01  .206E-01  .198E-01  .302E-01
  .273E-01  .423E-01  .741E-01  .662E-01  .699E-01  .107E+00  .623E-01  .675E-01
  .655E-01  .663E-01  .715E-01  .167E+00  .166E+00  .236E+00  .342E+00  .272E+00
  .300E+00  .316E+00  .434E+00  .538E+00  .110E+01  .189E+01  .128E+01  .303E+01
  .605E+01  .330E+01  .200E+01  .415E+01  .232E+01  .122E+01  .149E+01  .174E+01
  .144E+01  .103E+01  .722E+00  .799E+00  .949E+00  .907E+00  .710E+00  .602E+00
  .505E+00  .544E+00  .639E+00  .688E+00  .674E+00  .627E+00  .560E+00  .581E+00
  .571E+00  .552E+00  .544E+00  .555E+00  .000E+00  .000E+00  .000E+00  .000E+00
  .000E+00  .000E+00  .000E+00  .000E+00  .000E+00  .000E+00  .000E+00  .000E+00
  .000E+00  .000E+00  .000E+00  .000E+00  .000E+00  .000E+00  .000E+00  .000E+00
  .000E+00  .000E+00  .000E+00  .000E+00
  .115E+00  .131E+00  .754E-01  .886E-01  .101E+00  .618E-01  .738E-01  .600E-01
  .162E+00  .778E-01  .529E-01  .814E-01  .120E+00  .149E+00  .879E-01  .116E+00
  .154E+00  .297E+00  .541E+00  .374E+00  .705E+00  .785E+00  .453E+00  .681E+00
  .530E+00  .124E+01  .184E+01  .165E+01  .120E+01  .220E+01  .123E+01  .122E+01
  .619E+00  .794E+00  .715E+00  .226E+01  .228E+01  .289E+01  .462E+01  .352E+01
  .303E+01  .296E+01  .394E+01  .463E+01  .887E+01  .156E+02  .100E+02  .224E+02
  .423E+02  .218E+02  .126E+02  .238E+02  .123E+02  .621E+01  .707E+01  .757E+01
  .636E+01  .483E+01  .413E+01  .360E+01  .373E+01  .398E+01  .377E+01  .312E+01
  .291E+01  .282E+01  .290E+01  .304E+01  .310E+01  .311E+01  .307E+01  .298E+01
  .290E+01  .285E+01  .284E+01  .283E+01  .000E+00  .000E+00  .000E+00  .000E+00
  .000E+00  .000E+00  .000E+00  .000E+00  .000E+00  .000E+00  .000E+00  .000E+00
  .000E+00  .000E+00  .000E+00  .000E+00  .000E+00  .000E+00  .000E+00  .000E+00
  .000E+00  .000E+00  .000E+00  .000E+00
  .487E-01  .592E-01  .573E-01  .481E-01  .534E-01  .485E-01  .589E-01  .464E-01
  .616E-01  .492E-01  .453E-01  .515E-01  .553E-01  .599E-01  .463E-01  .465E-01
  .588E-01  .522E-01  .889E-01  .611E-01  .897E-01  .825E-01  .702E-01  .954E-01
  .774E-01  .108E+00  .157E+00  .118E+00  .106E+00  .140E+00  .708E-01  .674E-01
  .579E-01  .523E-01  .506E-01  .107E+00  .961E-01  .124E+00  .165E+00  .121E+00
  .123E+00  .107E+00  .123E+00  .130E+00  .229E+00  .344E+00  .205E+00  .429E+00
  .764E+00  .373E+00  .205E+00  .351E+00  .165E+00  .738E-01  .777E-01  .789E-01
  .577E-01  .366E-01  .228E-01  .226E-01  .243E-01  .192E-01  .126E-01  .911E-02
  .659E-02  .618E-02  .638E-02  .609E-02  .532E-02  .444E-02  .358E-02  .337E-02
  .302E-02  .267E-02  .242E-02  .227E-02  .000E+00  .000E+00  .000E+00  .000E+00
  .000E+00  .000E+00  .000E+00  .000E+00  .000E+00  .000E+00  .000E+00  .000E+00
  .000E+00  .000E+00  .000E+00  .000E+00  .000E+00  .000E+00  .000E+00  .000E+00
  .000E+00  .000E+00  .000E+00  .000E+00
  .120E+00  .153E+00  .155E+00  .136E+00  .158E+00  .149E+00  .199E+00  .171E+00
  .246E+00  .212E+00  .209E+00  .253E+00  .289E+00  .331E+00  .270E+00  .286E+00
  .397E+00  .385E+00  .710E+00  .525E+00  .827E+00  .811E+00  .734E+00  .105E+01
  .903E+00  .133E+01  .212E+01  .173E+01  .169E+01  .240E+01  .130E+01  .133E+01
  .121E+01  .116E+01  .118E+01  .262E+01  .248E+01  .337E+01  .468E+01  .356E+01
  .376E+01  .361E+01  .455E+01  .520E+01  .986E+01  .159E+02  .101E+02  .224E+02
  .422E+02  .218E+02  .126E+02  .237E+02  .122E+02  .589E+01  .668E+01  .727E+01
  .567E+01  .382E+01  .252E+01  .264E+01  .298E+01  .259E+01  .186E+01  .146E+01
  .113E+01  .114E+01  .125E+01  .127E+01  .118E+01  .104E+01  .880E+00  .869E+00
  .816E+00  .754E+00  .712E+00  .697E+00  .000E+00  .000E+00  .000E+00  .000E+00
  .000E+00  .000E+00  .000E+00  .000E+00  .000E+00  .000E+00  .000E+00  .000E+00
  .000E+00  .000E+00  .000E+00  .000E+00  .000E+00  .000E+00  .000E+00  .000E+00
  .000E+00  .000E+00  .000E+00  .000E+00
  .731E+02  .441E+02  .216E+02  .216E+02  .216E+02  .216E+02  .216E+02  .216E+02
  .216E+02  .216E+02  .216E+02  .215E+02  .216E+02  .216E+02  .216E+02  .215E+02
  .216E+02  .216E+02  .215E+02  .176E+02  .272E+02  .596E+02  .216E+02  .221E+02
  .216E+02  .197E+02  .272E+02  .440E+02  .216E+02  .222E+02  .272E+02  .440E+02
  .215E+02  .215E+02  .215E+02  .216E+02  .262E+02  .211E+02  .473E+02  .596E+02
  .211E+02  .216E+02  .221E+02  .171E+02  .211E+02  .262E+02  .189E+02  .692E+02
  .381E+02  .632E+02  .753E+02  .593E+02  .597E+02  .232E+02  .226E+02  .355E+02
  .596E+02  .764E+02  .211E+02  .256E+02  .588E+02  .221E+02  .216E+02  .216E+02
  .567E+02  .221E+02  .221E+02  .221E+02  .221E+02  .221E+02  .221E+02  .216E+02
  .216E+02  .216E+02  .216E+02  .216E+02  .000E+00  .000E+00  .000E+00  .000E+00
  .000E+00  .000E+00  .000E+00  .000E+00  .000E+00  .000E+00  .000E+00  .000E+00
  .000E+00  .000E+00  .000E+00  .000E+00  .000E+00  .000E+00  .000E+00  .000E+00
  .000E+00  .000E+00  .000E+00  .000E+00
  .731E+02  .442E+02  .474E+02  .609E+02  .750E+02  .569E+02  .214E+02  .635E+02
  .538E+02  .649E+02  .164E+02  .164E+02  .376E+02  .590E+02  .164E+02  .621E+02
  .200E+02  .746E+02  .706E+02  .190E+02  .724E+02  .667E+02  .260E+02  .220E+02
  .209E+02  .374E+02  .260E+02  .410E+02  .213E+02  .270E+02  .646E+02  .410E+02
  .199E+02  .219E+02  .199E+02  .243E+02  .475E+02  .218E+02  .474E+02  .747E+02
  .213E+02  .239E+02  .205E+02  .173E+02  .209E+02  .264E+02  .191E+02  .690E+02
  .383E+02  .630E+02  .756E+02  .590E+02  .594E+02  .229E+02  .229E+02  .269E+02
  .218E+02  .218E+02  .213E+02  .259E+02  .224E+02  .218E+02  .218E+02  .218E+02
  .218E+02  .218E+02  .218E+02  .218E+02  .218E+02  .218E+02  .218E+02  .218E+02
  .218E+02  .218E+02  .218E+02  .218E+02  .000E+00  .000E+00  .000E+00  .000E+00
  .000E+00  .000E+00  .000E+00  .000E+00  .000E+00  .000E+00  .000E+00  .000E+00
  .000E+00  .000E+00  .000E+00  .000E+00  .000E+00  .000E+00  .000E+00  .000E+00
  .000E+00  .000E+00  .000E+00  .000E+00
  .731E+02  .441E+02  .216E+02  .216E+02  .216E+02  .216E+02  .216E+02  .216E+02
  .216E+02  .216E+02  .216E+02  .215E+02  .216E+02  .216E+02  .216E+02  .215E+02
  .216E+02  .216E+02  .215E+02  .176E+02  .272E+02  .596E+02  .216E+02  .221E+02
  .216E+02  .197E+02  .272E+02  .440E+02  .216E+02  .222E+02  .272E+02  .440E+02
  .215E+02  .215E+02  .215E+02  .216E+02  .262E+02  .211E+02  .473E+02  .596E+02
  .211E+02  .216E+02  .221E+02  .171E+02  .211E+02  .262E+02  .189E+02  .692E+02
  .381E+02  .632E+02  .753E+02  .593E+02  .597E+02  .232E+02  .226E+02  .355E+02
  .596E+02  .764E+02  .211E+02  .256E+02  .588E+02  .221E+02  .216E+02  .216E+02
  .567E+02  .221E+02  .221E+02  .221E+02  .221E+02  .221E+02  .221E+02  .216E+02
  .216E+02  .216E+02  .216E+02  .216E+02  .000E+00  .000E+00  .000E+00  .000E+00
  .000E+00  .000E+00  .000E+00  .000E+00  .000E+00  .000E+00  .000E+00  .000E+00
  .000E+00  .000E+00  .000E+00  .000E+00  .000E+00  .000E+00  .000E+00  .000E+00
  .000E+00  .000E+00  .000E+00  .000E+00
Damping =  .02. Data of Sd,Sv,Sa,Pssv,ttSd,ttSv,ttSa :
  .636E-03  .704E-03  .768E-03  .867E-03  .946E-03  .101E-02  .123E-02  .146E-02
  .173E-02  .200E-02  .229E-02  .260E-02  .301E-02  .333E-02  .367E-02  .413E-02
  .498E-02  .614E-02  .694E-02  .937E-02  .108E-01  .111E-01  .148E-01  .164E-01
  .194E-01  .283E-01  .350E-01  .273E-01  .408E-01  .469E-01  .429E-01  .438E-01
  .565E-01  .601E-01  .776E-01  .113E+00  .116E+00  .149E+00  .165E+00  .164E+00
  .218E+00  .278E+00  .330E+00  .480E+00  .726E+00  .104E+01  .982E+00  .180E+01
  .243E+01  .212E+01  .176E+01  .220E+01  .169E+01  .121E+01  .135E+01  .131E+01
  .114E+01  .860E+00  .645E+00  .682E+00  .734E+00  .835E+00  .675E+00  .585E+00
  .516E+00  .552E+00  .620E+00  .659E+00  .649E+00  .611E+00  .557E+00  .561E+00
  .559E+00  .549E+00  .546E+00  .554E+00  .000E+00  .000E+00  .000E+00  .000E+00
  .000E+00  .000E+00  .000E+00  .000E+00  .000E+00  .000E+00  .000E+00  .000E+00
  .000E+00  .000E+00  .000E+00  .000E+00  .000E+00  .000E+00  .000E+00  .000E+00
  .000E+00  .000E+00  .000E+00  .000E+00
  .108E-01  .110E-01  .127E-01  .133E-01  .142E-01  .147E-01  .184E-01  .198E-01
  .228E-01  .284E-01  .307E-01  .352E-01  .562E-01  .546E-01  .589E-01  .689E-01
  .778E-01  .110E+00  .148E+00  .160E+00  .299E+00  .195E+00  .208E+00  .326E+00
  .527E+00  .872E+00  .955E+00  .562E+00  .620E+00  .749E+00  .526E+00  .487E+00
  .539E+00  .607E+00  .731E+00  .103E+01  .133E+01  .158E+01  .191E+01  .152E+01
  .199E+01  .226E+01  .290E+01  .400E+01  .561E+01  .795E+01  .753E+01  .124E+02
  .165E+02  .143E+02  .111E+02  .129E+02  .937E+01  .629E+01  .654E+01  .660E+01
  .581E+01  .472E+01  .389E+01  .323E+01  .353E+01  .382E+01  .366E+01  .317E+01
  .295E+01  .287E+01  .292E+01  .301E+01  .307E+01  .307E+01  .304E+01  .297E+01
  .290E+01  .286E+01  .284E+01  .283E+01  .000E+00  .000E+00  .000E+00  .000E+00
  .000E+00  .000E+00  .000E+00  .000E+00  .000E+00  .000E+00  .000E+00  .000E+00
  .000E+00  .000E+00  .000E+00  .000E+00  .000E+00  .000E+00  .000E+00  .000E+00
  .000E+00  .000E+00  .000E+00  .000E+00
  .407E-01  .408E-01  .406E-01  .419E-01  .420E-01  .414E-01  .417E-01  .414E-01
  .419E-01  .417E-01  .416E-01  .416E-01  .426E-01  .421E-01  .416E-01  .422E-01
  .421E-01  .436E-01  .420E-01  .490E-01  .491E-01  .442E-01  .523E-01  .518E-01
  .549E-01  .722E-01  .744E-01  .486E-01  .616E-01  .612E-01  .488E-01  .437E-01
  .500E-01  .474E-01  .550E-01  .721E-01  .672E-01  .790E-01  .798E-01  .729E-01
  .893E-01  .941E-01  .938E-01  .116E+00  .151E+00  .190E+00  .157E+00  .255E+00
  .307E+00  .241E+00  .180E+00  .186E+00  .120E+00  .735E-01  .703E-01  .595E-01
  .455E-01  .305E-01  .204E-01  .194E-01  .188E-01  .177E-01  .120E-01  .889E-02
  .676E-02  .631E-02  .623E-02  .586E-02  .516E-02  .436E-02  .359E-02  .329E-02
  .299E-02  .269E-02  .246E-02  .230E-02  .000E+00  .000E+00  .000E+00  .000E+00
  .000E+00  .000E+00  .000E+00  .000E+00  .000E+00  .000E+00  .000E+00  .000E+00
  .000E+00  .000E+00  .000E+00  .000E+00  .000E+00  .000E+00  .000E+00  .000E+00
  .000E+00  .000E+00  .000E+00  .000E+00
  .100E+00  .105E+00  .110E+00  .118E+00  .124E+00  .127E+00  .141E+00  .153E+00
  .167E+00  .180E+00  .192E+00  .204E+00  .222E+00  .233E+00  .243E+00  .260E+00
  .284E+00  .322E+00  .335E+00  .421E+00  .452E+00  .434E+00  .546E+00  .572E+00
  .642E+00  .889E+00  .100E+01  .715E+00  .985E+00  .105E+01  .899E+00  .859E+00
  .104E+01  .105E+01  .128E+01  .177E+01  .173E+01  .213E+01  .225E+01  .215E+01
  .274E+01  .318E+01  .345E+01  .464E+01  .651E+01  .872E+01  .771E+01  .133E+02
  .170E+02  .140E+02  .110E+02  .125E+02  .886E+01  .587E+01  .604E+01  .548E+01
  .447E+01  .318E+01  .225E+01  .226E+01  .231E+01  .238E+01  .177E+01  .141E+01
  .116E+01  .116E+01  .122E+01  .122E+01  .113E+01  .101E+01  .875E+00  .840E+00
  .799E+00  .750E+00  .714E+00  .696E+00  .000E+00  .000E+00  .000E+00  .000E+00
  .000E+00  .000E+00  .000E+00  .000E+00  .000E+00  .000E+00  .000E+00  .000E+00
  .000E+00  .000E+00  .000E+00  .000E+00  .000E+00  .000E+00  .000E+00  .000E+00
  .000E+00  .000E+00  .000E+00  .000E+00
  .216E+02  .216E+02  .216E+02  .216E+02  .216E+02  .216E+02  .216E+02  .216E+02
  .216E+02  .215E+02  .216E+02  .216E+02  .216E+02  .216E+02  .216E+02  .216E+02
  .215E+02  .215E+02  .216E+02  .215E+02  .216E+02  .216E+02  .216E+02  .221E+02
  .181E+02  .189E+02  .185E+02  .221E+02  .216E+02  .222E+02  .215E+02  .215E+02
  .216E+02  .215E+02  .215E+02  .216E+02  .166E+02  .211E+02  .257E+02  .211E+02
  .211E+02  .216E+02  .171E+02  .171E+02  .211E+02  .221E+02  .181E+02  .221E+02
  .227E+02  .243E+02  .244E+02  .235E+02  .231E+02  .226E+02  .226E+02  .227E+02
  .221E+02  .216E+02  .216E+02  .256E+02  .257E+02  .221E+02  .221E+02  .216E+02
  .221E+02  .221E+02  .221E+02  .221E+02  .221E+02  .221E+02  .221E+02  .216E+02
  .216E+02  .216E+02  .216E+02  .216E+02  .000E+00  .000E+00  .000E+00  .000E+00
  .000E+00  .000E+00  .000E+00  .000E+00  .000E+00  .000E+00  .000E+00  .000E+00
  .000E+00  .000E+00  .000E+00  .000E+00  .000E+00  .000E+00  .000E+00  .000E+00
  .000E+00  .000E+00  .000E+00  .000E+00
  .224E+02  .722E+02  .178E+02  .213E+02  .218E+02  .218E+02  .218E+02  .173E+02
  .218E+02  .173E+02  .173E+02  .164E+02  .169E+02  .173E+02  .173E+02  .173E+02
  .186E+02  .168E+02  .173E+02  .173E+02  .173E+02  .176E+02  .181E+02  .181E+02
  .181E+02  .191E+02  .182E+02  .179E+02  .177E+02  .177E+02  .174E+02  .199E+02
  .165E+02  .165E+02  .165E+02  .165E+02  .174E+02  .209E+02  .256E+02  .259E+02
  .213E+02  .169E+02  .169E+02  .173E+02  .209E+02  .219E+02  .179E+02  .219E+02
  .230E+02  .245E+02  .246E+02  .238E+02  .228E+02  .229E+02  .223E+02  .224E+02
  .218E+02  .218E+02  .213E+02  .224E+02  .224E+02  .218E+02  .218E+02  .218E+02
  .218E+02  .218E+02  .218E+02  .218E+02  .218E+02  .218E+02  .218E+02  .218E+02
  .218E+02  .218E+02  .218E+02  .218E+02  .000E+00  .000E+00  .000E+00  .000E+00
  .000E+00  .000E+00  .000E+00  .000E+00  .000E+00  .000E+00  .000E+00  .000E+00
  .000E+00  .000E+00  .000E+00  .000E+00  .000E+00  .000E+00  .000E+00  .000E+00
  .000E+00  .000E+00  .000E+00  .000E+00
  .216E+02  .216E+02  .216E+02  .216E+02  .216E+02  .216E+02  .216E+02  .216E+02
  .216E+02  .215E+02  .216E+02  .216E+02  .216E+02  .216E+02  .216E+02  .216E+02
  .215E+02  .215E+02  .216E+02  .215E+02  .216E+02  .216E+02  .216E+02  .221E+02
  .181E+02  .189E+02  .185E+02  .221E+02  .216E+02  .222E+02  .215E+02  .215E+02
  .216E+02  .215E+02  .215E+02  .216E+02  .166E+02  .211E+02  .257E+02  .211E+02
  .211E+02  .216E+02  .171E+02  .171E+02  .211E+02  .221E+02  .181E+02  .221E+02
  .227E+02  .243E+02  .244E+02  .235E+02  .231E+02  .226E+02  .226E+02  .227E+02
  .221E+02  .216E+02  .216E+02  .256E+02  .257E+02  .221E+02  .221E+02  .216E+02
  .221E+02  .221E+02  .221E+02  .221E+02  .221E+02  .221E+02  .221E+02  .215E+02
  .215E+02  .215E+02  .215E+02  .215E+02  .000E+00  .000E+00  .000E+00  .000E+00
  .000E+00  .000E+00  .000E+00  .000E+00  .000E+00  .000E+00  .000E+00  .000E+00
  .000E+00  .000E+00  .000E+00  .000E+00  .000E+00  .000E+00  .000E+00  .000E+00
  .000E+00  .000E+00  .000E+00  .000E+00
Damping =  .05. Data of Sd,Sv,Sa,Pssv,ttSd,ttSv,ttSa :
  .639E-03  .704E-03  .771E-03  .846E-03  .918E-03  .994E-03  .121E-02  .144E-02
