Response and Fourier amplitude spectra (91 periods,  .04 - 15.0 sec)   for      
Corrected accelerogram   14578-E0772-14093.02       Chan  4:  90 Deg     from   
Uncorrected Accelerogram Data             Processed: 10/12/15, CGS  e772e002    
Rcrd of Sun Mar 30, 2014 21:09:46.5 PDT*              (Avol1 v0.9, 9/14 CSMIP)  
CSMIP Preliminary Processing            (Origin:  To be determined)             
14578-E0772-14093.02                 Start time:  3/31/14, 04:09:46.5 UTC (Unk) 
Station No. 14578   33.757N, 118.085W    SSA-1   s/n  772  (4 Chns of 31 at Sta)
Seal Beach - 8-story Office Bldg          CGS   Data: Acceleration              
Chan  4:  90 DegR (Sta Chn: 28)     Location: Grounds: N. of building, surface  
Rcrd of Sun Mar 30, 2014 21:09:46.5 PDT*   Sun Mar 30, 2014 21:09:46.5 PDT*     
Hypocenter:  To be determined.               ML:  To be determined.
Instr Period =  .0193 sec,  Damping =  .670,  Sensitivity = 1.24 v/g
                        Record length = 87.495 sec.
                                     Uncor Max  =  -.073 g , at  21.170 sec.
RMS accel of (uncor) record  =        .   Chn. metadata effective date: 04/08/92
Accelerogram bandpass filtered with 3 dB pts at   .17 and 40.00 cyc/sec
                 instrument- and baseline-corrected





Rcrd of Sun Mar 30, 2014 21:09:46.5 PDT*   Sun Mar 30, 2014 21:09:46.5 PDT*

14578-E0772-14093.02      Seal Beach - 8-story Office Bldg    Chan  4:  90 Deg

14578-E0772-14093.02      Seal Beach - 8-story Office Bldg    Chan  4:  90 Deg

Units for spectra are inches and sec, except Sa is in fraction of g.

    4  100   28    4   31  200    1    3    1   12    5  772    014578    2    0
    4    9   46  500   90    3   31 2014   10    4   9017500   39   32   74   -1
17499    1  100    3   -1    7    2   71    2    4    9   51  990    3   29 2014
    0    0    3    0 8750    2  220    1   12    4    0    0    3    1    0 8750
    3 8750    4   91    5    4    5    0    1    0    0    0    1    3    7    2
    2    2    4    1   79   67    1    1    0    0    4    1    0    0    0  222
    1    0    4    0
      .019      .670    87.495      .005      .000  1242.000     -.073    21.170
    51.800  1220.703   982.853      .000     5.000  -999.000     2.000      .000
     2.500    -8.253     2.500   371.000    15.360    30.000  -999.000     -.020
     -.009      .011     2.000    15.000    33.757  -118.085      .485      .803
     1.655     -.069      .091     5.000      .000      .000      .000      .000
     1.000    -7.964      .000  -999.000  -999.000  -999.000  -999.000      .000
     9.200      .900     6.300   980.665      .010    87.495     8.244      .000
      .000    40.000      .000    87.495      .010      .167      .000      .000
    21.170   -70.630    25.430    -2.353    26.940      .484      .002      .167
    40.000      .010      .010      .001      .330      .186      .000      .000
      .257      .140      .192      .115      .026      .004      .000      .000
      .000      .000      .000      .000      .000      .000      .000      .000
      .000      .000      .000      .000
      .000      .020      .050      .100      .200
      .040      .042      .044      .046      .048      .050      .055      .060
      .065      .070      .075      .080      .085      .090      .095      .100
      .110      .120      .130      .140      .150      .160      .170      .180
      .190      .200      .220      .240      .260      .280      .300      .320
      .340      .360      .380      .400      .420      .440      .460      .480
      .500      .550      .600      .650      .700      .750      .800      .850
      .900      .950     1.000     1.100     1.200     1.300     1.400     1.500
     1.600     1.700     1.800     1.900     2.000     2.200     2.400     2.600
     2.800     3.000     3.200     3.400     3.600     3.800     4.000     4.200
     4.400     4.600     4.800     5.000     5.500     6.000     6.500     7.000
     7.500     8.000     8.500     9.000     9.500    10.000    11.000    12.000
    13.000    14.000    15.000      .000      .000      .000      .000      .000
      .000      .000      .000      .000
Fourier amplitude spectra in in/sec.
  .819E-01  .800E-01  .825E-01  .226E+00  .340E+00  .454E-01  .585E+00  .349E+00
  .540E+00  .231E+00  .302E+00  .132E+01  .821E+00  .231E+01  .141E+01  .954E+00
  .149E+01  .177E+01  .286E+01  .568E+01  .487E+01  .337E+01  .151E+01  .327E+01
  .254E+01  .560E+01  .497E+01  .424E+01  .730E+01  .422E+01  .383E+01  .702E+01
  .840E+01  .114E+01  .264E+01  .233E+01  .236E+01  .233E+01  .740E+01  .476E+01
  .437E+01  .305E+01  .157E+01  .501E+01  .131E+01  .148E+01  .514E+01  .533E+01
  .462E+01  .310E+01  .321E+01  .340E+01  .588E+00  .266E+01  .274E+01  .114E+01
  .402E+01  .569E+01  .131E+01  .838E+00  .438E+01  .322E+01  .162E+01  .108E+01
  .100E+01  .122E+01  .452E+00  .107E+01  .610E+00  .101E+01  .377E+00  .314E+00
  .659E+00  .624E+00  .422E+00  .529E+00  .233E+00  .211E+00  .127E+00  .206E+00
  .212E+00  .183E+00  .108E+00  .637E-01  .491E-01  .347E-01  .172E-01  .687E-02
  .850E-03  .175E-02  .122E-02  .000E+00  .000E+00  .000E+00  .000E+00  .000E+00
  .000E+00  .000E+00  .000E+00  .000E+00
Damping =  .00. Data of Sd,Sv,Sa,Pssv,ttSd,ttSv,ttSa :
  .135E-02  .177E-02  .205E-02  .265E-02  .338E-02  .240E-02  .546E-02  .429E-02
  .686E-02  .410E-02  .756E-02  .180E-01  .158E-01  .373E-01  .336E-01  .245E-01
  .410E-01  .491E-01  .614E-01  .135E+00  .160E+00  .111E+00  .567E-01  .123E+00
  .948E-01  .196E+00  .185E+00  .165E+00  .382E+00  .220E+00  .195E+00  .389E+00
  .475E+00  .238E+00  .166E+00  .243E+00  .216E+00  .252E+00  .584E+00  .398E+00
  .383E+00  .335E+00  .228E+00  .545E+00  .422E+00  .483E+00  .911E+00  .777E+00
  .685E+00  .516E+00  .529E+00  .604E+00  .366E+00  .671E+00  .714E+00  .568E+00
  .120E+01  .154E+01  .950E+00  .902E+00  .140E+01  .122E+01  .667E+00  .811E+00
  .580E+00  .641E+00  .531E+00  .725E+00  .593E+00  .656E+00  .515E+00  .390E+00
  .519E+00  .479E+00  .437E+00  .467E+00  .333E+00  .252E+00  .242E+00  .262E+00
  .310E+00  .280E+00  .244E+00  .229E+00  .238E+00  .241E+00  .234E+00  .221E+00
  .213E+00  .208E+00  .206E+00  .000E+00  .000E+00  .000E+00  .000E+00  .000E+00
  .000E+00  .000E+00  .000E+00  .000E+00
  .107E+00  .127E+00  .160E+00  .248E+00  .341E+00  .163E+00  .617E+00  .396E+00
  .581E+00  .249E+00  .479E+00  .136E+01  .107E+01  .251E+01  .217E+01  .146E+01
  .227E+01  .251E+01  .295E+01  .584E+01  .663E+01  .427E+01  .205E+01  .426E+01
  .325E+01  .605E+01  .527E+01  .431E+01  .916E+01  .487E+01  .407E+01  .761E+01
  .870E+01  .439E+01  .286E+01  .378E+01  .321E+01  .352E+01  .786E+01  .517E+01
  .478E+01  .392E+01  .228E+01  .525E+01  .377E+01  .396E+01  .706E+01  .575E+01
  .480E+01  .339E+01  .332E+01  .342E+01  .199E+01  .323E+01  .323E+01  .277E+01
  .484E+01  .569E+01  .316E+01  .314E+01  .441E+01  .354E+01  .189E+01  .214E+01
  .166E+01  .150E+01  .136E+01  .138E+01  .126E+01  .119E+01  .108E+01  .102E+01
  .936E+00  .905E+00  .944E+00  .959E+00  .958E+00  .971E+00  .967E+00  .952E+00
  .944E+00  .940E+00  .933E+00  .925E+00  .917E+00  .912E+00  .910E+00  .913E+00
  .917E+00  .919E+00  .919E+00  .000E+00  .000E+00  .000E+00  .000E+00  .000E+00
  .000E+00  .000E+00  .000E+00  .000E+00
  .866E-01  .103E+00  .108E+00  .128E+00  .150E+00  .981E-01  .185E+00  .122E+00
  .166E+00  .856E-01  .137E+00  .288E+00  .223E+00  .472E+00  .381E+00  .250E+00
  .347E+00  .349E+00  .372E+00  .707E+00  .725E+00  .443E+00  .201E+00  .389E+00
  .269E+00  .500E+00  .390E+00  .293E+00  .578E+00  .286E+00  .222E+00  .389E+00
  .421E+00  .187E+00  .118E+00  .156E+00  .126E+00  .133E+00  .282E+00  .177E+00
  .157E+00  .113E+00  .649E-01  .132E+00  .881E-01  .878E-01  .146E+00  .110E+00
  .865E-01  .585E-01  .541E-01  .511E-01  .260E-01  .406E-01  .373E-01  .258E-01
  .481E-01  .545E-01  .300E-01  .256E-01  .357E-01  .259E-01  .118E-01  .123E-01
  .756E-02  .728E-02  .530E-02  .642E-02  .468E-02  .464E-02  .329E-02  .226E-02
  .274E-02  .232E-02  .194E-02  .191E-02  .113E-02  .715E-03  .587E-03  .547E-03
  .564E-03  .447E-03  .345E-03  .289E-03  .269E-03  .246E-03  .198E-03  .157E-03
  .129E-03  .109E-03  .937E-04  .000E+00  .000E+00  .000E+00  .000E+00  .000E+00
  .000E+00  .000E+00  .000E+00  .000E+00
  .213E+00  .265E+00  .293E+00  .363E+00  .442E+00  .301E+00  .624E+00  .450E+00
  .663E+00  .368E+00  .633E+00  .142E+01  .117E+01  .261E+01  .222E+01  .154E+01
  .234E+01  .257E+01  .297E+01  .608E+01  .668E+01  .435E+01  .209E+01  .430E+01
  .314E+01  .614E+01  .527E+01  .432E+01  .923E+01  .493E+01  .409E+01  .764E+01
  .879E+01  .415E+01  .275E+01  .382E+01  .324E+01  .360E+01  .798E+01  .521E+01
  .481E+01  .383E+01  .239E+01  .527E+01  .379E+01  .404E+01  .716E+01  .574E+01
  .478E+01  .341E+01  .332E+01  .345E+01  .191E+01  .324E+01  .321E+01  .238E+01
  .473E+01  .569E+01  .332E+01  .298E+01  .439E+01  .350E+01  .175E+01  .196E+01
  .130E+01  .134E+01  .104E+01  .134E+01  .104E+01  .108E+01  .809E+00  .583E+00
  .742E+00  .654E+00  .572E+00  .587E+00  .381E+00  .263E+00  .234E+00  .235E+00
  .260E+00  .220E+00  .180E+00  .160E+00  .157E+00  .151E+00  .133E+00  .116E+00
  .103E+00  .935E-01  .863E-01  .000E+00  .000E+00  .000E+00  .000E+00  .000E+00
  .000E+00  .000E+00  .000E+00  .000E+00
  .212E+02  .212E+02  .212E+02  .212E+02  .212E+02  .212E+02  .730E+02  .220E+02
  .212E+02  .202E+02  .212E+02  .227E+02  .212E+02  .215E+02  .234E+02  .259E+02
  .239E+02  .255E+02  .497E+02  .255E+02  .219E+02  .251E+02  .309E+02  .232E+02
  .214E+02  .259E+02  .341E+02  .563E+02  .303E+02  .221E+02  .552E+02  .353E+02
  .329E+02  .218E+02  .260E+02  .293E+02  .434E+02  .374E+02  .333E+02  .590E+02
  .508E+02  .325E+02  .242E+02  .765E+02  .369E+02  .270E+02  .288E+02  .694E+02
  .403E+02  .734E+02  .781E+02  .831E+02  .513E+02  .718E+02  .342E+02  .261E+02
  .554E+02  .876E+02  .318E+02  .320E+02  .865E+02  .822E+02  .794E+02  .531E+02
  .353E+02  .822E+02  .515E+02  .630E+02  .331E+02  .617E+02  .333E+02  .362E+02
  .591E+02  .531E+02  .491E+02  .521E+02  .591E+02  .431E+02  .431E+02  .431E+02
  .591E+02  .411E+02  .380E+02  .269E+02  .269E+02  .269E+02  .269E+02  .269E+02
  .269E+02  .269E+02  .269E+02  .000E+00  .000E+00  .000E+00  .000E+00  .000E+00
  .000E+00  .000E+00  .000E+00  .000E+00
  .564E+02  .429E+02  .519E+02  .240E+02  .849E+02  .194E+02  .701E+02  .220E+02
  .212E+02  .202E+02  .212E+02  .344E+02  .265E+02  .215E+02  .234E+02  .261E+02
  .240E+02  .260E+02  .498E+02  .255E+02  .218E+02  .251E+02  .308E+02  .233E+02
  .214E+02  .258E+02  .341E+02  .564E+02  .303E+02  .226E+02  .562E+02  .357E+02
  .328E+02  .215E+02  .261E+02  .292E+02  .433E+02  .375E+02  .334E+02  .589E+02
  .510E+02  .324E+02  .244E+02  .766E+02  .367E+02  .276E+02  .286E+02  .679E+02
  .401E+02  .736E+02  .778E+02  .828E+02  .510E+02  .715E+02  .338E+02  .265E+02
  .550E+02  .880E+02  .305E+02  .316E+02  .860E+02  .817E+02  .284E+02  .551E+02
  .254E+02  .254E+02  .254E+02  .656E+02  .336E+02  .627E+02  .326E+02  .272E+02
  .272E+02  .254E+02  .254E+02  .254E+02  .254E+02  .254E+02  .254E+02  .254E+02
  .254E+02  .254E+02  .254E+02  .254E+02  .254E+02  .254E+02  .254E+02  .254E+02
  .254E+02  .254E+02  .254E+02  .000E+00  .000E+00  .000E+00  .000E+00  .000E+00
  .000E+00  .000E+00  .000E+00  .000E+00
  .212E+02  .212E+02  .212E+02  .212E+02  .212E+02  .212E+02  .730E+02  .220E+02
  .212E+02  .202E+02  .212E+02  .227E+02  .212E+02  .215E+02  .234E+02  .259E+02
  .239E+02  .255E+02  .497E+02  .255E+02  .219E+02  .251E+02  .309E+02  .232E+02
  .214E+02  .259E+02  .341E+02  .563E+02  .303E+02  .221E+02  .552E+02  .353E+02
  .329E+02  .218E+02  .260E+02  .293E+02  .434E+02  .374E+02  .333E+02  .590E+02
  .508E+02  .325E+02  .242E+02  .765E+02  .369E+02  .270E+02  .288E+02  .694E+02
  .403E+02  .734E+02  .781E+02  .831E+02  .513E+02  .718E+02  .342E+02  .261E+02
  .554E+02  .876E+02  .318E+02  .320E+02  .865E+02  .822E+02  .794E+02  .531E+02
  .353E+02  .822E+02  .515E+02  .630E+02  .331E+02  .617E+02  .333E+02  .362E+02
  .591E+02  .531E+02  .491E+02  .521E+02  .591E+02  .431E+02  .431E+02  .431E+02
  .591E+02  .411E+02  .380E+02  .269E+02  .269E+02  .269E+02  .269E+02  .269E+02
  .269E+02  .269E+02  .269E+02  .000E+00  .000E+00  .000E+00  .000E+00  .000E+00
  .000E+00  .000E+00  .000E+00  .000E+00
Damping =  .02. Data of Sd,Sv,Sa,Pssv,ttSd,ttSv,ttSa :
  .117E-02  .135E-02  .156E-02  .188E-02  .202E-02  .185E-02  .275E-02  .252E-02
  .412E-02  .425E-02  .646E-02  .734E-02  .989E-02  .150E-01  .184E-01  .158E-01
  .208E-01  .238E-01  .363E-01  .711E-01  .894E-01  .656E-01  .513E-01  .723E-01
  .871E-01  .108E+00  .800E-01  .928E-01  .199E+00  .136E+00  .123E+00  .168E+00
  .218E+00  .156E+00  .133E+00  .122E+00  .121E+00  .148E+00  .201E+00  .199E+00
  .177E+00  .193E+00  .203E+00  .347E+00  .207E+00  .364E+00  .549E+00  .458E+00
  .437E+00  .318E+00  .315E+00  .321E+00  .238E+00  .358E+00  .435E+00  .468E+00
  .655E+00  .870E+00  .746E+00  .720E+00  .711E+00  .661E+00  .466E+00  .567E+00
  .501E+00  .398E+00  .409E+00  .501E+00  .507E+00  .540E+00  .456E+00  .335E+00
  .324E+00  .345E+00  .336E+00  .341E+00  .274E+00  .239E+00  .232E+00  .235E+00
  .247E+00  .253E+00  .224E+00  .224E+00  .232E+00  .235E+00  .230E+00  .220E+00
  .213E+00  .208E+00  .206E+00  .000E+00  .000E+00  .000E+00  .000E+00  .000E+00
  .000E+00  .000E+00  .000E+00  .000E+00
  .475E-01  .497E-01  .604E-01  .827E-01  .978E-01  .109E+00  .159E+00  .195E+00
  .219E+00  .208E+00  .336E+00  .445E+00  .601E+00  .936E+00  .115E+01  .855E+00
  .915E+00  .112E+01  .166E+01  .311E+01  .382E+01  .267E+01  .204E+01  .261E+01
  .291E+01  .346E+01  .235E+01  .240E+01  .505E+01  .321E+01  .247E+01  .335E+01
  .411E+01  .319E+01  .230E+01  .199E+01  .225E+01  .214E+01  .272E+01  .281E+01
  .277E+01  .270E+01  .209E+01  .321E+01  .192E+01  .283E+01  .433E+01  .339E+01
  .302E+01  .195E+01  .242E+01  .174E+01  .142E+01  .175E+01  .200E+01  .229E+01
  .282E+01  .331E+01  .269E+01  .245E+01  .243E+01  .215E+01  .172E+01  .165E+01
  .159E+01  .147E+01  .134E+01  .118E+01  .115E+01  .112E+01  .102E+01  .980E+00
  .921E+00  .912E+00  .940E+00  .954E+00  .959E+00  .967E+00  .964E+00  .953E+00
  .945E+00  .940E+00  .934E+00  .927E+00  .920E+00  .915E+00  .913E+00  .915E+00
  .917E+00  .919E+00  .920E+00  .000E+00  .000E+00  .000E+00  .000E+00  .000E+00
  .000E+00  .000E+00  .000E+00  .000E+00
  .747E-01  .784E-01  .826E-01  .910E-01  .898E-01  .758E-01  .932E-01  .713E-01
  .997E-01  .888E-01  .118E+00  .118E+00  .140E+00  .191E+00  .209E+00  .161E+00
  .177E+00  .170E+00  .219E+00  .373E+00  .407E+00  .263E+00  .181E+00  .227E+00
  .246E+00  .277E+00  .170E+00  .165E+00  .302E+00  .177E+00  .139E+00  .168E+00
  .193E+00  .123E+00  .937E-01  .784E-01  .703E-01  .786E-01  .974E-01  .884E-01
  .723E-01  .653E-01  .578E-01  .842E-01  .433E-01  .662E-01  .878E-01  .649E-01
  .552E-01  .360E-01  .322E-01  .271E-01  .169E-01  .217E-01  .227E-01  .213E-01
  .262E-01  .308E-01  .236E-01  .204E-01  .182E-01  .140E-01  .828E-02  .859E-02
  .654E-02  .453E-02  .409E-02  .444E-02  .401E-02  .383E-02  .292E-02  .195E-02
  .171E-02  .167E-02  .149E-02  .140E-02  .931E-03  .685E-03  .565E-03  .496E-03
  .452E-03  .408E-03  .322E-03  .296E-03  .275E-03  .253E-03  .207E-03  .168E-03
  .140E-03  .120E-03  .105E-03  .000E+00  .000E+00  .000E+00  .000E+00  .000E+00
  .000E+00  .000E+00  .000E+00  .000E+00
  .184E+00  .202E+00  .223E+00  .257E+00  .265E+00  .233E+00  .315E+00  .263E+00
  .398E+00  .382E+00  .542E+00  .576E+00  .731E+00  .105E+01  .122E+01  .993E+00
  .119E+01  .125E+01  .176E+01  .319E+01  .374E+01  .258E+01  .190E+01  .252E+01
  .288E+01  .339E+01  .229E+01  .243E+01  .480E+01  .305E+01  .257E+01  .330E+01
  .403E+01  .272E+01  .219E+01  .192E+01  .181E+01  .212E+01  .275E+01  .260E+01
  .222E+01  .221E+01  .213E+01  .336E+01  .186E+01  .305E+01  .431E+01  .339E+01
  .305E+01  .210E+01  .198E+01  .183E+01  .125E+01  .173E+01  .195E+01  .196E+01
  .257E+01  .321E+01  .260E+01  .238E+01  .223E+01  .189E+01  .122E+01  .137E+01
  .112E+01  .833E+00  .802E+00  .926E+00  .885E+00  .892E+00  .716E+00  .501E+00
  .462E+00  .471E+00  .439E+00  .429E+00  .313E+00  .251E+00  .224E+00  .211E+00
  .207E+00  .199E+00  .166E+00  .157E+00  .153E+00  .148E+00  .131E+00  .115E+00
  .103E+00  .935E-01  .862E-01  .000E+00  .000E+00  .000E+00  .000E+00  .000E+00
  .000E+00  .000E+00  .000E+00  .000E+00
  .212E+02  .212E+02  .212E+02  .212E+02  .212E+02  .212E+02  .212E+02  .207E+02
  .212E+02  .212E+02  .212E+02  .202E+02  .207E+02  .212E+02  .204E+02  .201E+02
  .212E+02  .216E+02  .218E+02  .218E+02  .217E+02  .217E+02  .215E+02  .214E+02
  .214E+02  .213E+02  .213E+02  .213E+02  .213E+02  .221E+02  .232E+02  .234E+02
  .224E+02  .212E+02  .202E+02  .202E+02  .214E+02  .213E+02  .256E+02  .232E+02
  .230E+02  .323E+02  .211E+02  .258E+02  .258E+02  .270E+02  .276E+02  .294E+02
  .295E+02  .296E+02  .296E+02  .279E+02  .377E+02  .377E+02  .335E+02  .261E+02
  .378E+02  .374E+02  .318E+02  .311E+02  .375E+02  .360E+02  .289E+02  .362E+02
  .353E+02  .354E+02  .354E+02  .343E+02  .331E+02  .332E+02  .333E+02  .303E+02
  .591E+02  .531E+02  .490E+02  .521E+02  .479E+02  .430E+02  .431E+02  .431E+02
  .411E+02  .411E+02  .380E+02  .269E+02  .269E+02  .269E+02  .269E+02  .269E+02
  .269E+02  .269E+02  .269E+02  .000E+00  .000E+00  .000E+00  .000E+00  .000E+00
  .000E+00  .000E+00  .000E+00  .000E+00
  .212E+02  .212E+02  .215E+02  .215E+02  .212E+02  .207E+02  .201E+02  .207E+02
  .200E+02  .201E+02  .212E+02  .203E+02  .207E+02  .204E+02  .204E+02  .202E+02
  .212E+02  .216E+02  .218E+02  .218E+02  .218E+02  .217E+02  .216E+02  .214E+02
  .213E+02  .214E+02  .214E+02  .214E+02  .215E+02  .212E+02  .230E+02  .232E+02
  .223E+02  .215E+02  .203E+02  .203E+02  .215E+02  .212E+02  .255E+02  .212E+02
  .212E+02  .212E+02  .212E+02  .256E+02  .228E+02  .276E+02  .274E+02  .292E+02
  .297E+02  .254E+02  .252E+02  .281E+02  .211E+02  .374E+02  .338E+02  .265E+02
  .375E+02  .370E+02  .304E+02  .316E+02  .370E+02  .291E+02  .284E+02  .356E+02
  .254E+02  .254E+02  .254E+02  .254E+02  .284E+02  .284E+02  .284E+02  .272E+02
  .272E+02  .254E+02  .254E+02  .254E+02  .254E+02  .254E+02  .254E+02  .254E+02
  .254E+02  .254E+02  .254E+02  .254E+02  .254E+02  .254E+02  .254E+02  .254E+02
  .254E+02  .254E+02  .254E+02  .000E+00  .000E+00  .000E+00  .000E+00  .000E+00
  .000E+00  .000E+00  .000E+00  .000E+00
  .212E+02  .212E+02  .212E+02  .212E+02  .212E+02  .212E+02  .212E+02  .207E+02
  .212E+02  .212E+02  .212E+02  .202E+02  .207E+02  .212E+02  .204E+02  .201E+02
  .212E+02  .216E+02  .218E+02  .218E+02  .217E+02  .217E+02  .215E+02  .214E+02
  .214E+02  .213E+02  .213E+02  .213E+02  .213E+02  .221E+02  .232E+02  .253E+02
  .224E+02  .212E+02  .202E+02  .202E+02  .214E+02  .212E+02  .256E+02  .232E+02
  .230E+02  .323E+02  .211E+02  .258E+02  .258E+02  .270E+02  .276E+02  .294E+02
  .295E+02  .296E+02  .296E+02  .279E+02  .377E+02  .377E+02  .335E+02  .261E+02
  .378E+02  .374E+02  .318E+02  .310E+02  .374E+02  .360E+02  .288E+02  .362E+02
  .353E+02  .353E+02  .354E+02  .343E+02  .331E+02  .332E+02  .333E+02  .303E+02
  .590E+02  .531E+02  .490E+02  .520E+02  .478E+02  .430E+02  .430E+02  .430E+02
  .410E+02  .411E+02  .380E+02  .269E+02  .269E+02  .269E+02  .269E+02  .269E+02
  .269E+02  .269E+02  .269E+02  .000E+00  .000E+00  .000E+00  .000E+00  .000E+00
  .000E+00  .000E+00  .000E+00  .000E+00
Damping =  .05. Data of Sd,Sv,Sa,Pssv,ttSd,ttSv,ttSa :
  .119E-02  .134E-02  .153E-02  .174E-02  .187E-02  .196E-02  .248E-02  .289E-02
