Response and Fourier amplitude spectra (76 periods,  .04 -  5.0 sec)   for      
Corrected accelerogram   24468-M0270-14087.35       Chan 10: 180 Deg     from   
Uncorrected Accelerogram Data             Processed: 03/28/14, CGS  468as035    
Rcrd of Fri Mar 28, 2014 21:09:29.0 PDT               (Avol1 v0.5, 2/14 CSMIP)  
CSMIP Preliminary Processing            (Origin:  To be determined)             
24468-M0270-14087.35                 Start time:  3/29/14, 04:09:29.0 UTC (GPS) 
Station No. 24468   34.066N, 118.169W    MtWtny  s/n  270 (16 Chns of 16 at Sta)
Los Angeles - 8-story CSULA Admin. Bldg.  CGS   Data: Acceleration              
Chan 10: 180 DegR                   Location: Roof: East Wall                   
Rcrd of Fri Mar 28, 2014 21:09:29.0 PDT    Fri Mar 28, 2014 21:09:29.0 PDT      
Hypocenter:  To be determined.               ML:  To be determined.
Instr Period =  .0200 sec,  Damping =  .690,  Sensitivity = 2.51 v/g
                        Record length = 72.000 sec.
                                     Uncor Max  =  -.042 g , at  25.180 sec.
RMS accel of (uncor) record  =        .   Chn. metadata effective date: 03/27/08
Accelerogram bandpass filtered with 3 dB pts at   .20 and 40.00 cyc/sec
                 instrument- and baseline-corrected





Rcrd of Fri Mar 28, 2014 21:09:29.0 PDT    Fri Mar 28, 2014 21:09:29.0 PDT

24468-M0270-14087.35      Los Angeles - 8-story CSULA Admin. Bldg.  CGChan 10: 1
80 Deg
24468-M0270-14087.35      Los Angeles - 8-story CSULA Admin. Bldg.  CGChan 10: 1
80 Deg
Units for spectra are inches and sec, except Sa is in fraction of g.

   10  100   10   18   16  200    1    3    1   24   13  270    024468    2    0
    4    9   29    0   88    3   29 2014   10    3  18014400   39   40   74   -1
14400    0  100    3  270    1   35  720    2    0    0    0    0    0    0    0
    0    0    3    0 7200    2  333    1   18    2    0    0    3    1    0 7200
    3 7200    4   76    5   16    5    0    0    0    0    0    1    3    1    2
    2    2    4    0   79   99    0    1    0    0   96    1    0    0    0  222
    1    0    6    0
      .020      .690    72.000      .006      .000  2509.000     -.042    25.180
    50.100      .298      .119      .000     5.000  -999.000     1.000      .000
     2.500    -2.314     2.500  -999.000    23.000    30.000  -999.000     -.010
      .060      .070     2.000    15.000    34.066  -118.169      .099     3.443
    34.704     -.093      .232   150.000    23.500    41.700    13.000    97.160
     1.000     1.016      .000  -999.000  -999.000  -999.000  -999.000      .000
      .100      .500     6.300   980.665      .010    72.000     7.974      .000
      .000    40.000      .000    72.000      .010      .200      .000      .000
    25.180   -41.091    32.480    -3.750    39.110      .777      .000      .200
    40.000      .010      .010     -.001      .010      .437      .000      .000
      .159      .420      .051      .088      .058      .006      .000      .000
      .000      .000      .000      .000      .000      .000      .000      .000
      .000      .000      .000      .000
      .000      .020      .050      .100      .200
      .040      .042      .044      .046      .048      .050      .055      .060
      .065      .070      .075      .080      .085      .090      .095      .100
      .110      .120      .130      .140      .150      .160      .170      .180
      .190      .200      .220      .240      .260      .280      .300      .320
      .340      .360      .380      .400      .420      .440      .460      .480
      .500      .550      .600      .650      .700      .750      .800      .850
      .900      .950     1.000     1.100     1.200     1.300     1.400     1.500
     1.600     1.700     1.800     1.900     2.000     2.200     2.400     2.600
     2.800     3.000     3.200     3.400     3.600     3.800     4.000     4.200
     4.400     4.600     4.800     5.000      .000      .000      .000      .000
      .000      .000      .000      .000      .000      .000      .000      .000
      .000      .000      .000      .000      .000      .000      .000      .000
      .000      .000      .000      .000
Fourier amplitude spectra in in/sec.
  .221E-01  .190E-01  .339E-01  .284E-01  .230E-01  .517E-01  .297E-01  .181E-01
  .685E-01  .598E-01  .487E-01  .606E-01  .806E-01  .130E+00  .215E+00  .548E+00
  .449E+00  .102E+01  .184E+00  .485E+00  .987E+00  .218E+00  .252E+00  .299E+00
  .131E+01  .712E+00  .131E+01  .226E+01  .791E+00  .657E+00  .246E+01  .102E+01
  .402E+01  .276E+01  .907E+01  .811E+01  .219E+02  .250E+01  .595E+01  .688E+01
  .369E+01  .587E+01  .245E+01  .609E+01  .353E+01  .426E+01  .434E+01  .106E+02
  .389E+01  .918E+01  .863E+00  .272E+01  .700E+01  .220E+01  .325E+02  .509E+01
  .229E+01  .258E+01  .278E+01  .148E+01  .376E+01  .811E+00  .108E+01  .490E+00
  .887E+00  .709E+00  .975E+00  .148E+00  .448E+00  .766E+00  .638E+00  .526E+00
  .171E+00  .275E+00  .332E+00  .188E+00  .000E+00  .000E+00  .000E+00  .000E+00
  .000E+00  .000E+00  .000E+00  .000E+00  .000E+00  .000E+00  .000E+00  .000E+00
  .000E+00  .000E+00  .000E+00  .000E+00  .000E+00  .000E+00  .000E+00  .000E+00
  .000E+00  .000E+00  .000E+00  .000E+00
Damping =  .00. Data of Sd,Sv,Sa,Pssv,ttSd,ttSv,ttSa :
  .687E-03  .809E-03  .918E-03  .911E-03  .101E-02  .112E-02  .146E-02  .158E-02
  .192E-02  .238E-02  .309E-02  .319E-02  .398E-02  .711E-02  .834E-02  .128E-01
  .130E-01  .218E-01  .113E-01  .180E-01  .327E-01  .164E-01  .318E-01  .375E-01
  .493E-01  .363E-01  .603E-01  .142E+00  .901E-01  .820E-01  .138E+00  .152E+00
  .335E+00  .393E+00  .652E+00  .566E+00  .155E+01  .580E+00  .475E+00  .544E+00
  .393E+00  .661E+00  .493E+00  .737E+00  .603E+00  .610E+00  .611E+00  .170E+01
  .125E+01  .155E+01  .681E+00  .137E+01  .207E+01  .242E+01  .763E+01  .346E+01
  .149E+01  .946E+00  .113E+01  .104E+01  .129E+01  .654E+00  .555E+00  .556E+00
  .723E+00  .784E+00  .653E+00  .639E+00  .575E+00  .639E+00  .582E+00  .530E+00
  .552E+00  .523E+00  .479E+00  .434E+00  .000E+00  .000E+00  .000E+00  .000E+00
  .000E+00  .000E+00  .000E+00  .000E+00  .000E+00  .000E+00  .000E+00  .000E+00
  .000E+00  .000E+00  .000E+00  .000E+00  .000E+00  .000E+00  .000E+00  .000E+00
  .000E+00  .000E+00  .000E+00  .000E+00
  .279E-01  .340E-01  .440E-01  .335E-01  .445E-01  .544E-01  .375E-01  .710E-01
  .901E-01  .892E-01  .130E+00  .132E+00  .165E+00  .292E+00  .427E+00  .593E+00
  .701E+00  .104E+01  .523E+00  .650E+00  .117E+01  .554E+00  .100E+01  .111E+01
  .152E+01  .102E+01  .157E+01  .353E+01  .186E+01  .163E+01  .264E+01  .281E+01
  .576E+01  .667E+01  .103E+02  .869E+01  .232E+02  .856E+01  .668E+01  .703E+01
  .479E+01  .746E+01  .546E+01  .685E+01  .522E+01  .469E+01  .471E+01  .121E+02
  .833E+01  .100E+02  .409E+01  .746E+01  .105E+02  .116E+02  .343E+02  .150E+02
  .683E+01  .430E+01  .429E+01  .431E+01  .441E+01  .270E+01  .211E+01  .207E+01
  .267E+01  .231E+01  .233E+01  .193E+01  .197E+01  .203E+01  .199E+01  .190E+01
  .181E+01  .173E+01  .169E+01  .168E+01  .000E+00  .000E+00  .000E+00  .000E+00
  .000E+00  .000E+00  .000E+00  .000E+00  .000E+00  .000E+00  .000E+00  .000E+00
  .000E+00  .000E+00  .000E+00  .000E+00  .000E+00  .000E+00  .000E+00  .000E+00
  .000E+00  .000E+00  .000E+00  .000E+00
  .439E-01  .469E-01  .485E-01  .440E-01  .448E-01  .458E-01  .495E-01  .450E-01
  .465E-01  .496E-01  .563E-01  .511E-01  .564E-01  .898E-01  .945E-01  .131E+00
  .110E+00  .155E+00  .686E-01  .937E-01  .148E+00  .655E-01  .112E+00  .118E+00
  .140E+00  .927E-01  .127E+00  .253E+00  .136E+00  .107E+00  .156E+00  .152E+00
  .296E+00  .310E+00  .462E+00  .362E+00  .900E+00  .307E+00  .230E+00  .242E+00
  .161E+00  .223E+00  .140E+00  .178E+00  .126E+00  .111E+00  .976E-01  .241E+00
  .158E+00  .176E+00  .696E-01  .116E+00  .147E+00  .146E+00  .398E+00  .157E+00
  .597E-01  .335E-01  .358E-01  .295E-01  .331E-01  .138E-01  .986E-02  .841E-02
  .943E-02  .890E-02  .652E-02  .565E-02  .454E-02  .453E-02  .372E-02  .307E-02
  .292E-02  .253E-02  .213E-02  .178E-02  .000E+00  .000E+00  .000E+00  .000E+00
  .000E+00  .000E+00  .000E+00  .000E+00  .000E+00  .000E+00  .000E+00  .000E+00
  .000E+00  .000E+00  .000E+00  .000E+00  .000E+00  .000E+00  .000E+00  .000E+00
  .000E+00  .000E+00  .000E+00  .000E+00
  .108E+00  .121E+00  .131E+00  .124E+00  .132E+00  .141E+00  .167E+00  .166E+00
  .186E+00  .213E+00  .259E+00  .251E+00  .294E+00  .497E+00  .551E+00  .804E+00
  .740E+00  .114E+01  .548E+00  .806E+00  .137E+01  .644E+00  .117E+01  .131E+01
  .163E+01  .114E+01  .172E+01  .372E+01  .218E+01  .184E+01  .288E+01  .299E+01
  .619E+01  .686E+01  .108E+02  .889E+01  .232E+02  .829E+01  .649E+01  .712E+01
  .494E+01  .755E+01  .516E+01  .712E+01  .541E+01  .511E+01  .480E+01  .126E+02
  .872E+01  .103E+02  .428E+01  .783E+01  .109E+02  .117E+02  .342E+02  .145E+02
  .587E+01  .349E+01  .396E+01  .345E+01  .407E+01  .187E+01  .145E+01  .134E+01
  .162E+01  .164E+01  .128E+01  .118E+01  .100E+01  .106E+01  .914E+00  .793E+00
  .789E+00  .715E+00  .627E+00  .545E+00  .000E+00  .000E+00  .000E+00  .000E+00
  .000E+00  .000E+00  .000E+00  .000E+00  .000E+00  .000E+00  .000E+00  .000E+00
  .000E+00  .000E+00  .000E+00  .000E+00  .000E+00  .000E+00  .000E+00  .000E+00
  .000E+00  .000E+00  .000E+00  .000E+00
  .252E+02  .307E+02  .307E+02  .252E+02  .252E+02  .307E+02  .252E+02  .274E+02
  .252E+02  .307E+02  .252E+02  .252E+02  .274E+02  .252E+02  .264E+02  .307E+02
  .255E+02  .323E+02  .259E+02  .307E+02  .307E+02  .313E+02  .301E+02  .290E+02
  .306E+02  .322E+02  .315E+02  .301E+02  .306E+02  .313E+02  .329E+02  .313E+02
  .307E+02  .277E+02  .323E+02  .352E+02  .446E+02  .303E+02  .309E+02  .671E+02
  .363E+02  .327E+02  .308E+02  .328E+02  .399E+02  .358E+02  .665E+02  .397E+02
  .363E+02  .670E+02  .315E+02  .384E+02  .383E+02  .550E+02  .458E+02  .363E+02
  .322E+02  .286E+02  .496E+02  .377E+02  .684E+02  .391E+02  .670E+02  .398E+02
  .398E+02  .391E+02  .307E+02  .307E+02  .307E+02  .391E+02  .391E+02  .363E+02
  .363E+02  .364E+02  .364E+02  .364E+02  .000E+00  .000E+00  .000E+00  .000E+00
  .000E+00  .000E+00  .000E+00  .000E+00  .000E+00  .000E+00  .000E+00  .000E+00
  .000E+00  .000E+00  .000E+00  .000E+00  .000E+00  .000E+00  .000E+00  .000E+00
  .000E+00  .000E+00  .000E+00  .000E+00
  .466E+02  .312E+02  .515E+02  .544E+02  .252E+02  .679E+02  .252E+02  .269E+02
  .270E+02  .310E+02  .314E+02  .268E+02  .287E+02  .252E+02  .263E+02  .312E+02
  .255E+02  .449E+02  .257E+02  .304E+02  .304E+02  .268E+02  .300E+02  .292E+02
  .305E+02  .321E+02  .314E+02  .302E+02  .306E+02  .302E+02  .330E+02  .312E+02
  .306E+02  .276E+02  .324E+02  .349E+02  .445E+02  .304E+02  .310E+02  .672E+02
  .262E+02  .310E+02  .310E+02  .326E+02  .400E+02  .360E+02  .667E+02  .399E+02
  .360E+02  .672E+02  .317E+02  .381E+02  .380E+02  .553E+02  .426E+02  .367E+02
  .325E+02  .282E+02  .500E+02  .373E+02  .679E+02  .354E+02  .395E+02  .373E+02
  .395E+02  .388E+02  .361E+02  .354E+02  .395E+02  .325E+02  .325E+02  .325E+02
  .325E+02  .325E+02  .361E+02  .361E+02  .000E+00  .000E+00  .000E+00  .000E+00
  .000E+00  .000E+00  .000E+00  .000E+00  .000E+00  .000E+00  .000E+00  .000E+00
  .000E+00  .000E+00  .000E+00  .000E+00  .000E+00  .000E+00  .000E+00  .000E+00
  .000E+00  .000E+00  .000E+00  .000E+00
  .252E+02  .307E+02  .307E+02  .252E+02  .252E+02  .307E+02  .252E+02  .274E+02
  .252E+02  .307E+02  .252E+02  .252E+02  .274E+02  .252E+02  .264E+02  .307E+02
  .255E+02  .323E+02  .259E+02  .307E+02  .307E+02  .313E+02  .301E+02  .290E+02
  .306E+02  .322E+02  .315E+02  .301E+02  .306E+02  .313E+02  .329E+02  .313E+02
  .307E+02  .277E+02  .323E+02  .352E+02  .446E+02  .303E+02  .309E+02  .671E+02
  .363E+02  .327E+02  .308E+02  .328E+02  .399E+02  .358E+02  .665E+02  .397E+02
  .363E+02  .670E+02  .315E+02  .384E+02  .383E+02  .550E+02  .458E+02  .363E+02
  .322E+02  .286E+02  .496E+02  .377E+02  .684E+02  .391E+02  .670E+02  .398E+02
  .398E+02  .391E+02  .307E+02  .307E+02  .307E+02  .391E+02  .391E+02  .363E+02
  .363E+02  .364E+02  .364E+02  .364E+02  .000E+00  .000E+00  .000E+00  .000E+00
  .000E+00  .000E+00  .000E+00  .000E+00  .000E+00  .000E+00  .000E+00  .000E+00
  .000E+00  .000E+00  .000E+00  .000E+00  .000E+00  .000E+00  .000E+00  .000E+00
  .000E+00  .000E+00  .000E+00  .000E+00
Damping =  .02. Data of Sd,Sv,Sa,Pssv,ttSd,ttSv,ttSa :
  .678E-03  .732E-03  .814E-03  .917E-03  .992E-03  .106E-02  .134E-02  .159E-02
  .180E-02  .220E-02  .250E-02  .292E-02  .395E-02  .549E-02  .629E-02  .699E-02
  .917E-02  .918E-02  .959E-02  .128E-01  .153E-01  .155E-01  .170E-01  .182E-01
  .208E-01  .235E-01  .314E-01  .649E-01  .655E-01  .663E-01  .115E+00  .106E+00
  .194E+00  .271E+00  .319E+00  .319E+00  .509E+00  .331E+00  .304E+00  .306E+00
  .302E+00  .337E+00  .353E+00  .480E+00  .385E+00  .411E+00  .497E+00  .939E+00
  .817E+00  .599E+00  .614E+00  .921E+00  .140E+01  .208E+01  .416E+01  .244E+01
  .127E+01  .870E+00  .794E+00  .845E+00  .848E+00  .602E+00  .517E+00  .549E+00
  .601E+00  .661E+00  .614E+00  .604E+00  .553E+00  .556E+00  .524E+00  .487E+00
  .513E+00  .497E+00  .464E+00  .427E+00  .000E+00  .000E+00  .000E+00  .000E+00
  .000E+00  .000E+00  .000E+00  .000E+00  .000E+00  .000E+00  .000E+00  .000E+00
  .000E+00  .000E+00  .000E+00  .000E+00  .000E+00  .000E+00  .000E+00  .000E+00
  .000E+00  .000E+00  .000E+00  .000E+00
  .218E-01  .236E-01  .273E-01  .212E-01  .237E-01  .276E-01  .307E-01  .460E-01
  .552E-01  .632E-01  .869E-01  .947E-01  .130E+00  .191E+00  .255E+00  .311E+00
  .431E+00  .356E+00  .360E+00  .408E+00  .467E+00  .431E+00  .466E+00  .452E+00
  .581E+00  .569E+00  .701E+00  .149E+01  .125E+01  .122E+01  .198E+01  .187E+01
  .329E+01  .463E+01  .505E+01  .478E+01  .757E+01  .486E+01  .417E+01  .402E+01
  .399E+01  .390E+01  .379E+01  .435E+01  .332E+01  .323E+01  .377E+01  .685E+01
  .579E+01  .394E+01  .353E+01  .488E+01  .701E+01  .993E+01  .189E+02  .109E+02
  .613E+01  .395E+01  .361E+01  .377E+01  .345E+01  .249E+01  .206E+01  .199E+01
  .239E+01  .203E+01  .214E+01  .181E+01  .188E+01  .196E+01  .194E+01  .188E+01
  .180E+01  .173E+01  .168E+01  .165E+01  .000E+00  .000E+00  .000E+00  .000E+00
  .000E+00  .000E+00  .000E+00  .000E+00  .000E+00  .000E+00  .000E+00  .000E+00
  .000E+00  .000E+00  .000E+00  .000E+00  .000E+00  .000E+00  .000E+00  .000E+00
  .000E+00  .000E+00  .000E+00  .000E+00
  .433E-01  .424E-01  .430E-01  .444E-01  .440E-01  .433E-01  .454E-01  .453E-01
  .437E-01  .458E-01  .454E-01  .467E-01  .559E-01  .692E-01  .715E-01  .712E-01
  .771E-01  .654E-01  .579E-01  .665E-01  .694E-01  .620E-01  .601E-01  .577E-01
  .590E-01  .602E-01  .665E-01  .116E+00  .992E-01  .864E-01  .131E+00  .106E+00
  .172E+00  .214E+00  .226E+00  .203E+00  .296E+00  .175E+00  .147E+00  .136E+00
  .124E+00  .114E+00  .100E+00  .116E+00  .803E-01  .748E-01  .795E-01  .133E+00
  .103E+00  .680E-01  .628E-01  .779E-01  .998E-01  .126E+00  .217E+00  .111E+00
  .507E-01  .308E-01  .251E-01  .240E-01  .217E-01  .128E-01  .920E-02  .833E-02
  .786E-02  .753E-02  .617E-02  .538E-02  .439E-02  .395E-02  .336E-02  .284E-02
  .272E-02  .242E-02  .208E-02  .176E-02  .000E+00  .000E+00  .000E+00  .000E+00
  .000E+00  .000E+00  .000E+00  .000E+00  .000E+00  .000E+00  .000E+00  .000E+00
  .000E+00  .000E+00  .000E+00  .000E+00  .000E+00  .000E+00  .000E+00  .000E+00
  .000E+00  .000E+00  .000E+00  .000E+00
  .106E+00  .110E+00  .116E+00  .125E+00  .130E+00  .133E+00  .153E+00  .167E+00
  .174E+00  .197E+00  .209E+00  .229E+00  .292E+00  .383E+00  .416E+00  .439E+00
  .524E+00  .481E+00  .464E+00  .574E+00  .641E+00  .610E+00  .628E+00  .636E+00
  .687E+00  .739E+00  .897E+00  .170E+01  .158E+01  .149E+01  .241E+01  .208E+01
  .359E+01  .473E+01  .527E+01  .501E+01  .761E+01  .472E+01  .416E+01  .401E+01
  .380E+01  .385E+01  .370E+01  .464E+01  .345E+01  .344E+01  .390E+01  .694E+01
  .570E+01  .396E+01  .386E+01  .526E+01  .735E+01  .100E+02  .187E+02  .102E+02
  .498E+01  .322E+01  .277E+01  .279E+01  .266E+01  .172E+01  .135E+01  .133E+01
  .135E+01  .138E+01  .121E+01  .112E+01  .964E+00  .919E+00  .823E+00  .729E+00
  .732E+00  .678E+00  .607E+00  .537E+00  .000E+00  .000E+00  .000E+00  .000E+00
  .000E+00  .000E+00  .000E+00  .000E+00  .000E+00  .000E+00  .000E+00  .000E+00
  .000E+00  .000E+00  .000E+00  .000E+00  .000E+00  .000E+00  .000E+00  .000E+00
  .000E+00  .000E+00  .000E+00  .000E+00
  .252E+02  .252E+02  .252E+02  .252E+02  .252E+02  .252E+02  .252E+02  .252E+02
  .252E+02  .252E+02  .252E+02  .252E+02  .252E+02  .252E+02  .252E+02  .252E+02
  .252E+02  .252E+02  .252E+02  .252E+02  .274E+02  .313E+02  .323E+02  .323E+02
  .301E+02  .306E+02  .274E+02  .270E+02  .265E+02  .306E+02  .307E+02  .265E+02
  .271E+02  .275E+02  .323E+02  .324E+02  .318E+02  .272E+02  .262E+02  .263E+02
  .263E+02  .273E+02  .269E+02  .328E+02  .328E+02  .343E+02  .328E+02  .329E+02
  .331E+02  .315E+02  .315E+02  .378E+02  .378E+02  .406E+02  .402E+02  .363E+02
  .328E+02  .397E+02  .398E+02  .370E+02  .363E+02  .307E+02  .398E+02  .398E+02
  .398E+02  .391E+02  .307E+02  .307E+02  .307E+02  .391E+02  .391E+02  .363E+02
  .363E+02  .364E+02  .364E+02  .364E+02  .000E+00  .000E+00  .000E+00  .000E+00
  .000E+00  .000E+00  .000E+00  .000E+00  .000E+00  .000E+00  .000E+00  .000E+00
  .000E+00  .000E+00  .000E+00  .000E+00  .000E+00  .000E+00  .000E+00  .000E+00
  .000E+00  .000E+00  .000E+00  .000E+00
  .252E+02  .252E+02  .252E+02  .252E+02  .252E+02  .252E+02  .252E+02  .252E+02
  .253E+02  .253E+02  .261E+02  .253E+02  .251E+02  .251E+02  .253E+02  .254E+02
  .254E+02  .256E+02  .257E+02  .252E+02  .270E+02  .262E+02  .316E+02  .308E+02
  .305E+02  .306E+02  .275E+02  .270E+02  .266E+02  .306E+02  .306E+02  .312E+02
  .272E+02  .276E+02  .316E+02  .325E+02  .317E+02  .269E+02  .263E+02  .262E+02
  .262E+02  .271E+02  .267E+02  .326E+02  .326E+02  .326E+02  .326E+02  .332E+02
  .333E+02  .316E+02  .317E+02  .381E+02  .381E+02  .409E+02  .405E+02  .366E+02
  .325E+02  .282E+02  .325E+02  .325E+02  .366E+02  .395E+02  .395E+02  .395E+02
  .395E+02  .360E+02  .361E+02  .361E+02  .325E+02  .325E+02  .325E+02  .325E+02
  .325E+02  .325E+02  .325E+02  .361E+02  .000E+00  .000E+00  .000E+00  .000E+00
  .000E+00  .000E+00  .000E+00  .000E+00  .000E+00  .000E+00  .000E+00  .000E+00
  .000E+00  .000E+00  .000E+00  .000E+00  .000E+00  .000E+00  .000E+00  .000E+00
  .000E+00  .000E+00  .000E+00  .000E+00
  .252E+02  .252E+02  .252E+02  .252E+02  .252E+02  .252E+02  .252E+02  .252E+02
  .252E+02  .252E+02  .252E+02  .252E+02  .252E+02  .252E+02  .252E+02  .252E+02
  .252E+02  .252E+02  .252E+02  .252E+02  .274E+02  .313E+02  .323E+02  .323E+02
  .301E+02  .306E+02  .274E+02  .270E+02  .265E+02  .306E+02  .307E+02  .265E+02
  .271E+02  .275E+02  .323E+02  .324E+02  .318E+02  .272E+02  .262E+02  .263E+02
  .263E+02  .273E+02  .269E+02  .328E+02  .328E+02  .343E+02  .328E+02  .329E+02
  .331E+02  .315E+02  .315E+02  .378E+02  .378E+02  .406E+02  .402E+02  .363E+02
  .328E+02  .397E+02  .398E+02  .370E+02  .363E+02  .307E+02  .397E+02  .397E+02
  .398E+02  .391E+02  .307E+02  .307E+02  .307E+02  .391E+02  .391E+02  .363E+02
  .363E+02  .363E+02  .363E+02  .363E+02  .000E+00  .000E+00  .000E+00  .000E+00
  .000E+00  .000E+00  .000E+00  .000E+00  .000E+00  .000E+00  .000E+00  .000E+00
  .000E+00  .000E+00  .000E+00  .000E+00  .000E+00  .000E+00  .000E+00  .000E+00
  .000E+00  .000E+00  .000E+00  .000E+00
Damping =  .05. Data of Sd,Sv,Sa,Pssv,ttSd,ttSv,ttSa :
  .673E-03  .729E-03  .792E-03  .891E-03  .979E-03  .106E-02  .132E-02  .158E-02
