Response and Fourier amplitude spectra (76 periods,  .04 -  5.0 sec)   for      
Corrected accelerogram   24468-M0270-14087.35       Chan 16:  90 Deg     from   
Uncorrected Accelerogram Data             Processed: 03/28/14, CGS  468as035    
Rcrd of Fri Mar 28, 2014 21:09:29.0 PDT               (Avol1 v0.5, 2/14 CSMIP)  
CSMIP Preliminary Processing            (Origin:  To be determined)             
24468-M0270-14087.35                 Start time:  3/29/14, 04:09:29.0 UTC (GPS) 
Station No. 24468   34.066N, 118.169W    MtWtny  s/n  270 (16 Chns of 16 at Sta)
Los Angeles - 8-story CSULA Admin. Bldg.  CGS   Data: Acceleration              
Chan 16:  90 DegR                   Location: Ground Floor: SW Corner           
Rcrd of Fri Mar 28, 2014 21:09:29.0 PDT    Fri Mar 28, 2014 21:09:29.0 PDT      
Hypocenter:  To be determined.               ML:  To be determined.
Instr Period =  .0103 sec,  Damping =  .700,  Sensitivity =  .63 v/g
                        Record length = 72.000 sec.
                                     Uncor Max  =   .050 g , at  25.140 sec.
RMS accel of (uncor) record  =        .   Chn. metadata effective date: 03/27/08
Accelerogram bandpass filtered with 3 dB pts at   .20 and 40.00 cyc/sec
                 instrument- and baseline-corrected





Rcrd of Fri Mar 28, 2014 21:09:29.0 PDT    Fri Mar 28, 2014 21:09:29.0 PDT

24468-M0270-14087.35      Los Angeles - 8-story CSULA Admin. Bldg.  CGChan 16:
90 Deg
24468-M0270-14087.35      Los Angeles - 8-story CSULA Admin. Bldg.  CGChan 16:
90 Deg
Units for spectra are inches and sec, except Sa is in fraction of g.

   16  100   16   18   16  200    1    3    1   24   13  270    024468    2    0
    4    9   29    0   88    3   29 2014   10    3   9014400   39   40   74   -1
14400    1  100    3  270    1   35  720    2    0    0    0    0    0    0    0
    0    0    3    0 7200    2  333    1   18    4    0    0    3    1    0 7200
    3 7200    4   76    5   16    5    0    0    0    0    0    1    3    1    2
    2    2    4    0   79   99    0    1    0    0   96    1    0    0    0  222
    1    0    6    0
      .010      .700    72.000      .004      .000   625.000      .050    25.140
    96.700      .298      .477      .000     5.000  -999.000     4.000      .000
     2.500    15.198     2.500  -999.000    23.000    30.000  -999.000     -.004
     -.002      .003     2.000    15.000    34.066  -118.169      .146      .628
     4.297     -.032      .038   150.000    23.500    41.700    13.000    97.160
     1.000     1.004      .000  -999.000  -999.000  -999.000  -999.000      .000
      .100      .500     6.300   980.665      .010    72.000    15.390      .000
      .000    40.000      .000    72.000      .010      .200      .000      .000
    25.140    49.155    25.190     1.872    32.930      .223      .000      .200
    40.000      .010      .010      .000      .010      .086      .000      .000
      .227      .200      .212      .072      .015      .002      .000      .000
      .000      .000      .000      .000      .000      .000      .000      .000
      .000      .000      .000      .000
      .000      .020      .050      .100      .200
      .040      .042      .044      .046      .048      .050      .055      .060
      .065      .070      .075      .080      .085      .090      .095      .100
      .110      .120      .130      .140      .150      .160      .170      .180
      .190      .200      .220      .240      .260      .280      .300      .320
      .340      .360      .380      .400      .420      .440      .460      .480
      .500      .550      .600      .650      .700      .750      .800      .850
      .900      .950     1.000     1.100     1.200     1.300     1.400     1.500
     1.600     1.700     1.800     1.900     2.000     2.200     2.400     2.600
     2.800     3.000     3.200     3.400     3.600     3.800     4.000     4.200
     4.400     4.600     4.800     5.000      .000      .000      .000      .000
      .000      .000      .000      .000      .000      .000      .000      .000
      .000      .000      .000      .000      .000      .000      .000      .000
      .000      .000      .000      .000
Fourier amplitude spectra in in/sec.
  .909E-02  .186E-01  .257E-01  .978E-02  .218E-01  .382E-01  .310E-01  .109E+00
  .805E-01  .126E+00  .293E+00  .455E+00  .257E+00  .336E+00  .110E+01  .758E+00
  .461E+00  .157E+01  .939E+00  .882E+00  .286E+01  .164E+01  .273E+01  .375E+01
  .431E+01  .537E+01  .711E+01  .155E+01  .414E+01  .121E+01  .275E+01  .374E+00
  .143E+01  .108E+01  .263E+01  .163E+01  .706E+00  .106E+01  .136E+01  .102E+01
  .147E+01  .235E+01  .437E+00  .173E+01  .489E+01  .394E+01  .501E+01  .102E+01
  .828E+00  .195E+01  .263E+01  .813E+00  .800E+00  .288E+01  .130E+01  .503E+00
  .885E+00  .904E+00  .914E+00  .741E+00  .725E+00  .120E+01  .330E+00  .129E+00
  .943E+00  .506E+00  .383E+00  .482E+00  .367E+00  .539E+00  .811E+00  .380E+00
  .223E+00  .451E+00  .495E+00  .413E+00  .000E+00  .000E+00  .000E+00  .000E+00
  .000E+00  .000E+00  .000E+00  .000E+00  .000E+00  .000E+00  .000E+00  .000E+00
  .000E+00  .000E+00  .000E+00  .000E+00  .000E+00  .000E+00  .000E+00  .000E+00
  .000E+00  .000E+00  .000E+00  .000E+00
Damping =  .00. Data of Sd,Sv,Sa,Pssv,ttSd,ttSv,ttSa :
  .862E-03  .932E-03  .115E-02  .114E-02  .122E-02  .145E-02  .185E-02  .265E-02
  .268E-02  .320E-02  .490E-02  .796E-02  .664E-02  .752E-02  .206E-01  .143E-01
  .179E-01  .309E-01  .312E-01  .409E-01  .698E-01  .657E-01  .738E-01  .120E+00
  .137E+00  .201E+00  .253E+00  .159E+00  .171E+00  .108E+00  .134E+00  .908E-01
  .126E+00  .152E+00  .226E+00  .139E+00  .854E-01  .112E+00  .148E+00  .152E+00
  .138E+00  .218E+00  .130E+00  .299E+00  .623E+00  .659E+00  .688E+00  .230E+00
  .197E+00  .297E+00  .433E+00  .205E+00  .306E+00  .622E+00  .350E+00  .381E+00
  .266E+00  .291E+00  .289E+00  .353E+00  .323E+00  .432E+00  .201E+00  .204E+00
  .423E+00  .410E+00  .250E+00  .303E+00  .263E+00  .331E+00  .529E+00  .332E+00
  .317E+00  .332E+00  .396E+00  .373E+00  .000E+00  .000E+00  .000E+00  .000E+00
  .000E+00  .000E+00  .000E+00  .000E+00  .000E+00  .000E+00  .000E+00  .000E+00
  .000E+00  .000E+00  .000E+00  .000E+00  .000E+00  .000E+00  .000E+00  .000E+00
  .000E+00  .000E+00  .000E+00  .000E+00
  .402E-01  .381E-01  .669E-01  .516E-01  .497E-01  .667E-01  .916E-01  .177E+00
  .141E+00  .141E+00  .324E+00  .590E+00  .394E+00  .387E+00  .130E+01  .876E+00
  .980E+00  .161E+01  .150E+01  .178E+01  .291E+01  .243E+01  .273E+01  .411E+01
  .451E+01  .626E+01  .725E+01  .431E+01  .414E+01  .243E+01  .277E+01  .211E+01
  .221E+01  .268E+01  .365E+01  .214E+01  .142E+01  .156E+01  .203E+01  .197E+01
  .172E+01  .251E+01  .124E+01  .285E+01  .554E+01  .553E+01  .548E+01  .181E+01
  .150E+01  .197E+01  .273E+01  .136E+01  .162E+01  .300E+01  .154E+01  .169E+01
  .123E+01  .120E+01  .117E+01  .117E+01  .105E+01  .124E+01  .784E+00  .768E+00
  .971E+00  .898E+00  .730E+00  .730E+00  .730E+00  .737E+00  .857E+00  .736E+00
  .742E+00  .746E+00  .750E+00  .754E+00  .000E+00  .000E+00  .000E+00  .000E+00
  .000E+00  .000E+00  .000E+00  .000E+00  .000E+00  .000E+00  .000E+00  .000E+00
  .000E+00  .000E+00  .000E+00  .000E+00  .000E+00  .000E+00  .000E+00  .000E+00
  .000E+00  .000E+00  .000E+00  .000E+00
  .551E-01  .540E-01  .609E-01  .552E-01  .540E-01  .592E-01  .624E-01  .754E-01
  .649E-01  .667E-01  .892E-01  .127E+00  .939E-01  .950E-01  .233E+00  .146E+00
  .151E+00  .220E+00  .189E+00  .213E+00  .317E+00  .263E+00  .261E+00  .379E+00
  .388E+00  .515E+00  .534E+00  .283E+00  .259E+00  .140E+00  .152E+00  .907E-01
  .112E+00  .120E+00  .160E+00  .887E-01  .495E-01  .593E-01  .717E-01  .674E-01
  .564E-01  .736E-01  .369E-01  .724E-01  .130E+00  .120E+00  .110E+00  .325E-01
  .248E-01  .337E-01  .442E-01  .173E-01  .217E-01  .376E-01  .183E-01  .173E-01
  .106E-01  .103E-01  .912E-02  .999E-02  .826E-02  .913E-02  .356E-02  .308E-02
  .552E-02  .466E-02  .250E-02  .268E-02  .207E-02  .234E-02  .338E-02  .193E-02
  .168E-02  .161E-02  .176E-02  .152E-02  .000E+00  .000E+00  .000E+00  .000E+00
  .000E+00  .000E+00  .000E+00  .000E+00  .000E+00  .000E+00  .000E+00  .000E+00
  .000E+00  .000E+00  .000E+00  .000E+00  .000E+00  .000E+00  .000E+00  .000E+00
  .000E+00  .000E+00  .000E+00  .000E+00
  .135E+00  .139E+00  .165E+00  .156E+00  .159E+00  .182E+00  .211E+00  .278E+00
  .259E+00  .287E+00  .411E+00  .625E+00  .491E+00  .525E+00  .136E+01  .899E+00
  .102E+01  .162E+01  .151E+01  .184E+01  .293E+01  .258E+01  .273E+01  .419E+01
  .453E+01  .632E+01  .722E+01  .417E+01  .413E+01  .242E+01  .280E+01  .178E+01
  .233E+01  .264E+01  .373E+01  .218E+01  .128E+01  .160E+01  .203E+01  .199E+01
  .173E+01  .249E+01  .136E+01  .289E+01  .559E+01  .552E+01  .541E+01  .170E+01
  .137E+01  .197E+01  .272E+01  .117E+01  .160E+01  .301E+01  .157E+01  .160E+01
  .104E+01  .107E+01  .101E+01  .117E+01  .102E+01  .123E+01  .525E+00  .492E+00
  .950E+00  .859E+00  .491E+00  .561E+00  .459E+00  .547E+00  .831E+00  .497E+00
  .453E+00  .454E+00  .519E+00  .468E+00  .000E+00  .000E+00  .000E+00  .000E+00
  .000E+00  .000E+00  .000E+00  .000E+00  .000E+00  .000E+00  .000E+00  .000E+00
  .000E+00  .000E+00  .000E+00  .000E+00  .000E+00  .000E+00  .000E+00  .000E+00
  .000E+00  .000E+00  .000E+00  .000E+00
  .251E+02  .251E+02  .251E+02  .251E+02  .251E+02  .251E+02  .251E+02  .251E+02
  .251E+02  .250E+02  .251E+02  .264E+02  .251E+02  .250E+02  .285E+02  .350E+02
  .284E+02  .343E+02  .268E+02  .263E+02  .572E+02  .253E+02  .701E+02  .324E+02
  .391E+02  .304E+02  .394E+02  .254E+02  .667E+02  .274E+02  .440E+02  .250E+02
  .288E+02  .271E+02  .314E+02  .403E+02  .463E+02  .463E+02  .315E+02  .366E+02
  .579E+02  .477E+02  .275E+02  .296E+02  .330E+02  .354E+02  .409E+02  .303E+02
  .322E+02  .674E+02  .688E+02  .322E+02  .343E+02  .592E+02  .488E+02  .430E+02
  .350E+02  .613E+02  .591E+02  .472E+02  .569E+02  .695E+02  .336E+02  .306E+02
  .690E+02  .533E+02  .345E+02  .644E+02  .335E+02  .633E+02  .682E+02  .511E+02
  .475E+02  .667E+02  .607E+02  .588E+02  .000E+00  .000E+00  .000E+00  .000E+00
  .000E+00  .000E+00  .000E+00  .000E+00  .000E+00  .000E+00  .000E+00  .000E+00
  .000E+00  .000E+00  .000E+00  .000E+00  .000E+00  .000E+00  .000E+00  .000E+00
  .000E+00  .000E+00  .000E+00  .000E+00
  .252E+02  .252E+02  .251E+02  .251E+02  .252E+02  .251E+02  .252E+02  .251E+02
  .251E+02  .259E+02  .385E+02  .264E+02  .254E+02  .250E+02  .280E+02  .348E+02
  .279E+02  .344E+02  .268E+02  .263E+02  .585E+02  .253E+02  .700E+02  .323E+02
  .392E+02  .304E+02  .440E+02  .255E+02  .668E+02  .274E+02  .440E+02  .251E+02
  .288E+02  .272E+02  .315E+02  .404E+02  .253E+02  .462E+02  .327E+02  .367E+02
  .578E+02  .478E+02  .279E+02  .298E+02  .335E+02  .356E+02  .407E+02  .305E+02
  .287E+02  .677E+02  .686E+02  .320E+02  .407E+02  .596E+02  .491E+02  .434E+02
  .332E+02  .313E+02  .313E+02  .467E+02  .564E+02  .701E+02  .309E+02  .309E+02
  .683E+02  .526E+02  .252E+02  .252E+02  .252E+02  .313E+02  .611E+02  .252E+02
  .252E+02  .252E+02  .252E+02  .252E+02  .000E+00  .000E+00  .000E+00  .000E+00
  .000E+00  .000E+00  .000E+00  .000E+00  .000E+00  .000E+00  .000E+00  .000E+00
  .000E+00  .000E+00  .000E+00  .000E+00  .000E+00  .000E+00  .000E+00  .000E+00
  .000E+00  .000E+00  .000E+00  .000E+00
  .251E+02  .251E+02  .251E+02  .251E+02  .251E+02  .251E+02  .251E+02  .251E+02
  .251E+02  .250E+02  .251E+02  .264E+02  .251E+02  .250E+02  .285E+02  .350E+02
  .284E+02  .343E+02  .268E+02  .263E+02  .572E+02  .253E+02  .701E+02  .324E+02
  .391E+02  .304E+02  .394E+02  .254E+02  .667E+02  .274E+02  .440E+02  .250E+02
  .288E+02  .271E+02  .314E+02  .403E+02  .463E+02  .463E+02  .315E+02  .366E+02
  .579E+02  .477E+02  .275E+02  .296E+02  .330E+02  .354E+02  .409E+02  .303E+02
  .322E+02  .674E+02  .688E+02  .322E+02  .343E+02  .592E+02  .488E+02  .430E+02
  .350E+02  .613E+02  .591E+02  .472E+02  .569E+02  .695E+02  .336E+02  .306E+02
  .690E+02  .533E+02  .345E+02  .644E+02  .335E+02  .633E+02  .682E+02  .511E+02
  .475E+02  .667E+02  .607E+02  .588E+02  .000E+00  .000E+00  .000E+00  .000E+00
  .000E+00  .000E+00  .000E+00  .000E+00  .000E+00  .000E+00  .000E+00  .000E+00
  .000E+00  .000E+00  .000E+00  .000E+00  .000E+00  .000E+00  .000E+00  .000E+00
  .000E+00  .000E+00  .000E+00  .000E+00
Damping =  .02. Data of Sd,Sv,Sa,Pssv,ttSd,ttSv,ttSa :
  .830E-03  .910E-03  .100E-02  .109E-02  .120E-02  .126E-02  .152E-02  .190E-02
  .248E-02  .324E-02  .373E-02  .470E-02  .573E-02  .632E-02  .847E-02  .867E-02
  .112E-01  .201E-01  .235E-01  .251E-01  .460E-01  .562E-01  .607E-01  .689E-01
  .771E-01  .114E+00  .121E+00  .134E+00  .980E-01  .710E-01  .745E-01  .780E-01
  .780E-01  .951E-01  .103E+00  .907E-01  .655E-01  .724E-01  .904E-01  .835E-01
  .875E-01  .129E+00  .108E+00  .208E+00  .382E+00  .425E+00  .334E+00  .188E+00
  .158E+00  .157E+00  .206E+00  .170E+00  .241E+00  .353E+00  .262E+00  .258E+00
  .208E+00  .218E+00  .183E+00  .199E+00  .223E+00  .205E+00  .165E+00  .178E+00
  .216E+00  .229E+00  .206E+00  .219E+00  .234E+00  .236E+00  .298E+00  .256E+00
  .235E+00  .247E+00  .271E+00  .263E+00  .000E+00  .000E+00  .000E+00  .000E+00
  .000E+00  .000E+00  .000E+00  .000E+00  .000E+00  .000E+00  .000E+00  .000E+00
  .000E+00  .000E+00  .000E+00  .000E+00  .000E+00  .000E+00  .000E+00  .000E+00
  .000E+00  .000E+00  .000E+00  .000E+00
  .336E-01  .362E-01  .406E-01  .438E-01  .507E-01  .574E-01  .723E-01  .846E-01
  .115E+00  .131E+00  .143E+00  .233E+00  .305E+00  .338E+00  .484E+00  .481E+00
  .544E+00  .774E+00  .108E+01  .109E+01  .166E+01  .199E+01  .205E+01  .217E+01
  .234E+01  .350E+01  .351E+01  .350E+01  .261E+01  .181E+01  .188E+01  .185E+01
  .179E+01  .180E+01  .182E+01  .154E+01  .129E+01  .117E+01  .121E+01  .112E+01
  .103E+01  .147E+01  .105E+01  .190E+01  .330E+01  .360E+01  .276E+01  .154E+01
  .126E+01  .122E+01  .141E+01  .117E+01  .129E+01  .169E+01  .134E+01  .131E+01
  .100E+01  .107E+01  .108E+01  .992E+00  .889E+00  .773E+00  .721E+00  .705E+00
  .705E+00  .718E+00  .724E+00  .725E+00  .726E+00  .727E+00  .729E+00  .733E+00
  .738E+00  .743E+00  .746E+00  .749E+00  .000E+00  .000E+00  .000E+00  .000E+00
  .000E+00  .000E+00  .000E+00  .000E+00  .000E+00  .000E+00  .000E+00  .000E+00
  .000E+00  .000E+00  .000E+00  .000E+00  .000E+00  .000E+00  .000E+00  .000E+00
  .000E+00  .000E+00  .000E+00  .000E+00
  .530E-01  .527E-01  .529E-01  .528E-01  .532E-01  .517E-01  .515E-01  .541E-01
  .599E-01  .678E-01  .679E-01  .753E-01  .812E-01  .796E-01  .958E-01  .880E-01
  .951E-01  .143E+00  .143E+00  .131E+00  .209E+00  .223E+00  .216E+00  .218E+00
  .220E+00  .292E+00  .255E+00  .237E+00  .148E+00  .925E-01  .847E-01  .776E-01
  .692E-01  .750E-01  .729E-01  .582E-01  .382E-01  .382E-01  .437E-01  .371E-01
  .358E-01  .438E-01  .306E-01  .504E-01  .798E-01  .773E-01  .534E-01  .266E-01
  .200E-01  .178E-01  .211E-01  .144E-01  .171E-01  .214E-01  .137E-01  .117E-01
  .833E-02  .773E-02  .579E-02  .566E-02  .570E-02  .434E-02  .295E-02  .270E-02
  .283E-02  .261E-02  .206E-02  .194E-02  .185E-02  .167E-02  .191E-02  .149E-02
  .124E-02  .119E-02  .121E-02  .108E-02  .000E+00  .000E+00  .000E+00  .000E+00
  .000E+00  .000E+00  .000E+00  .000E+00  .000E+00  .000E+00  .000E+00  .000E+00
  .000E+00  .000E+00  .000E+00  .000E+00  .000E+00  .000E+00  .000E+00  .000E+00
  .000E+00  .000E+00  .000E+00  .000E+00
  .130E+00  .136E+00  .143E+00  .149E+00  .157E+00  .159E+00  .174E+00  .199E+00
  .240E+00  .291E+00  .313E+00  .369E+00  .423E+00  .441E+00  .560E+00  .545E+00
  .641E+00  .105E+01  .114E+01  .113E+01  .193E+01  .221E+01  .224E+01  .241E+01
  .255E+01  .358E+01  .345E+01  .351E+01  .237E+01  .159E+01  .156E+01  .153E+01
  .144E+01  .166E+01  .170E+01  .142E+01  .979E+00  .103E+01  .124E+01  .109E+01
  .110E+01  .148E+01  .113E+01  .201E+01  .343E+01  .356E+01  .262E+01  .139E+01
  .110E+01  .104E+01  .130E+01  .969E+00  .126E+01  .171E+01  .117E+01  .108E+01
  .818E+00  .807E+00  .639E+00  .660E+00  .699E+00  .586E+00  .433E+00  .430E+00
  .485E+00  .480E+00  .404E+00  .404E+00  .409E+00  .390E+00  .468E+00  .383E+00
  .336E+00  .337E+00  .355E+00  .331E+00  .000E+00  .000E+00  .000E+00  .000E+00
  .000E+00  .000E+00  .000E+00  .000E+00  .000E+00  .000E+00  .000E+00  .000E+00
  .000E+00  .000E+00  .000E+00  .000E+00  .000E+00  .000E+00  .000E+00  .000E+00
  .000E+00  .000E+00  .000E+00  .000E+00
  .251E+02  .251E+02  .251E+02  .251E+02  .251E+02  .251E+02  .251E+02  .251E+02
  .254E+02  .251E+02  .251E+02  .254E+02  .254E+02  .254E+02  .254E+02  .254E+02
  .250E+02  .251E+02  .255E+02  .251E+02  .252E+02  .253E+02  .253E+02  .253E+02
  .253E+02  .253E+02  .254E+02  .254E+02  .255E+02  .263E+02  .251E+02  .250E+02
  .250E+02  .260E+02  .254E+02  .254E+02  .254E+02  .298E+02  .291E+02  .307E+02
  .307E+02  .293E+02  .315E+02  .293E+02  .330E+02  .331E+02  .321E+02  .303E+02
  .322E+02  .307E+02  .303E+02  .322E+02  .337E+02  .353E+02  .354E+02  .355E+02
  .350E+02  .315E+02  .315E+02  .350E+02  .350E+02  .375E+02  .336E+02  .306E+02
  .466E+02  .458E+02  .345E+02  .335E+02  .335E+02  .635E+02  .621E+02  .425E+02
  .475E+02  .457E+02  .584E+02  .587E+02  .000E+00  .000E+00  .000E+00  .000E+00
  .000E+00  .000E+00  .000E+00  .000E+00  .000E+00  .000E+00  .000E+00  .000E+00
  .000E+00  .000E+00  .000E+00  .000E+00  .000E+00  .000E+00  .000E+00  .000E+00
  .000E+00  .000E+00  .000E+00  .000E+00
  .251E+02  .251E+02  .251E+02  .251E+02  .251E+02  .251E+02  .251E+02  .253E+02
  .251E+02  .251E+02  .253E+02  .254E+02  .254E+02  .254E+02  .254E+02  .254E+02
  .254E+02  .255E+02  .255E+02  .257E+02  .252E+02  .253E+02  .253E+02  .253E+02
  .253E+02  .256E+02  .255E+02  .255E+02  .254E+02  .254E+02  .251E+02  .251E+02
  .250E+02  .254E+02  .254E+02  .253E+02  .253E+02  .252E+02  .295E+02  .293E+02
  .308E+02  .294E+02  .251E+02  .298E+02  .328E+02  .333E+02  .323E+02  .305E+02
  .320E+02  .313E+02  .305E+02  .320E+02  .320E+02  .355E+02  .351E+02  .351E+02
  .317E+02  .313E+02  .313E+02  .313E+02  .313E+02  .348E+02  .309E+02  .309E+02
  .252E+02  .252E+02  .252E+02  .252E+02  .252E+02  .252E+02  .252E+02  .252E+02
  .252E+02  .252E+02  .252E+02  .252E+02  .000E+00  .000E+00  .000E+00  .000E+00
  .000E+00  .000E+00  .000E+00  .000E+00  .000E+00  .000E+00  .000E+00  .000E+00
  .000E+00  .000E+00  .000E+00  .000E+00  .000E+00  .000E+00  .000E+00  .000E+00
  .000E+00  .000E+00  .000E+00  .000E+00
  .251E+02  .251E+02  .251E+02  .251E+02  .251E+02  .251E+02  .251E+02  .251E+02
  .254E+02  .251E+02  .251E+02  .254E+02  .254E+02  .254E+02  .254E+02  .254E+02
  .250E+02  .251E+02  .255E+02  .256E+02  .252E+02  .253E+02  .253E+02  .253E+02
  .253E+02  .253E+02  .254E+02  .254E+02  .255E+02  .263E+02  .251E+02  .250E+02
  .250E+02  .260E+02  .254E+02  .254E+02  .254E+02  .298E+02  .291E+02  .307E+02
  .307E+02  .293E+02  .315E+02  .293E+02  .330E+02  .331E+02  .321E+02  .303E+02
  .322E+02  .307E+02  .303E+02  .322E+02  .337E+02  .353E+02  .354E+02  .355E+02
  .350E+02  .315E+02  .315E+02  .349E+02  .350E+02  .375E+02  .336E+02  .306E+02
  .465E+02  .458E+02  .345E+02  .335E+02  .335E+02  .634E+02  .621E+02  .425E+02
  .475E+02  .457E+02  .584E+02  .587E+02  .000E+00  .000E+00  .000E+00  .000E+00
  .000E+00  .000E+00  .000E+00  .000E+00  .000E+00  .000E+00  .000E+00  .000E+00
  .000E+00  .000E+00  .000E+00  .000E+00  .000E+00  .000E+00  .000E+00  .000E+00
  .000E+00  .000E+00  .000E+00  .000E+00
Damping =  .05. Data of Sd,Sv,Sa,Pssv,ttSd,ttSv,ttSa :
  .825E-03  .908E-03  .998E-03  .109E-02  .119E-02  .128E-02  .154E-02  .191E-02
