Response and Fourier amplitude spectra (76 periods,  .04 -  5.0 sec)   for      
Corrected accelerogram   24468-M0270-14087.35       Chan  3: 180 Deg     from   
Uncorrected Accelerogram Data             Processed: 03/28/14, CGS  468as035    
Rcrd of Fri Mar 28, 2014 21:09:29.0 PDT               (Avol1 v0.5, 2/14 CSMIP)  
CSMIP Preliminary Processing            (Origin:  To be determined)             
24468-M0270-14087.35                 Start time:  3/29/14, 04:09:29.0 UTC (GPS) 
Station No. 24468   34.066N, 118.169W    MtWtny  s/n  270 (16 Chns of 16 at Sta)
Los Angeles - 8-story CSULA Admin. Bldg.  CGS   Data: Acceleration              
Chan  3: 180 DegR                   Location: 2nd Floor: West Wall              
Rcrd of Fri Mar 28, 2014 21:09:29.0 PDT    Fri Mar 28, 2014 21:09:29.0 PDT      
Hypocenter:  To be determined.               ML:  To be determined.
Instr Period =  .0195 sec,  Damping =  .630,  Sensitivity = 2.50 v/g
                        Record length = 72.000 sec.
                                     Uncor Max  =  -.066 g , at  25.010 sec.
RMS accel of (uncor) record  =        .   Chn. metadata effective date: 03/27/08
Accelerogram bandpass filtered with 3 dB pts at   .20 and 40.00 cyc/sec
                 instrument- and baseline-corrected





Rcrd of Fri Mar 28, 2014 21:09:29.0 PDT    Fri Mar 28, 2014 21:09:29.0 PDT

24468-M0270-14087.35      Los Angeles - 8-story CSULA Admin. Bldg.  CGChan  3: 1
80 Deg
24468-M0270-14087.35      Los Angeles - 8-story CSULA Admin. Bldg.  CGChan  3: 1
80 Deg
Units for spectra are inches and sec, except Sa is in fraction of g.

    3  100    3   18   16  200    1    3    1   24   13  270    024468    2    0
    4    9   29    0   88    3   29 2014   10    3  18014400   39   40   74   -1
14400    0  100    3  270    1   35  720    2    0    0    0    0    0    0    0
    0    0    3    0 7200    2  333    1   18    2    0    0    3    1    0 7200
    3 7200    4   76    5   16    5    0    0    0    0    0    1    3    1    2
    2    2    4    0   79   99    0    1    0    0   96    1    0    0    0  222
    1    0    6    0
      .020      .630    72.000      .006      .000  2498.000     -.066    25.010
    51.200      .298      .119      .000     5.000  -999.000     1.000      .000
     2.500    -2.384     2.500  -999.000    23.000    30.000  -999.000     -.012
      .029      .040     2.000    15.000    34.066  -118.169      .023     1.576
    69.217     -.034      .115   150.000    23.500    41.700    13.000    97.160
     1.000     1.157      .000  -999.000  -999.000  -999.000  -999.000      .000
      .100      .500     6.300   980.665      .010    72.000     8.149      .000
      .000    40.000      .000    72.000      .010      .200      .000      .000
    25.000   -64.637    25.100    -3.750    29.900     -.428      .000      .200
    40.000      .010      .010     -.001      .220      .199      .000      .000
      .232      .380      .107      .136      .023      .004      .000      .000
      .000      .000      .000      .000      .000      .000      .000      .000
      .000      .000      .000      .000
      .000      .020      .050      .100      .200
      .040      .042      .044      .046      .048      .050      .055      .060
      .065      .070      .075      .080      .085      .090      .095      .100
      .110      .120      .130      .140      .150      .160      .170      .180
      .190      .200      .220      .240      .260      .280      .300      .320
      .340      .360      .380      .400      .420      .440      .460      .480
      .500      .550      .600      .650      .700      .750      .800      .850
      .900      .950     1.000     1.100     1.200     1.300     1.400     1.500
     1.600     1.700     1.800     1.900     2.000     2.200     2.400     2.600
     2.800     3.000     3.200     3.400     3.600     3.800     4.000     4.200
     4.400     4.600     4.800     5.000      .000      .000      .000      .000
      .000      .000      .000      .000      .000      .000      .000      .000
      .000      .000      .000      .000      .000      .000      .000      .000
      .000      .000      .000      .000
Fourier amplitude spectra in in/sec.
  .115E+00  .110E+00  .522E-01  .796E-01  .293E-01  .644E-01  .234E-01  .818E-01
  .953E-01  .992E-01  .125E+00  .933E-01  .113E+00  .325E-01  .308E+00  .696E+00
  .596E+00  .980E+00  .154E+00  .696E+00  .340E+00  .195E+01  .125E+01  .107E+01
  .378E+01  .186E+01  .174E+01  .135E+01  .231E+01  .274E+01  .528E+01  .232E+01
  .689E+01  .698E+01  .770E+01  .681E+01  .327E+02  .314E+01  .623E+01  .117E+02
  .298E+01  .570E+01  .261E+01  .566E+01  .188E+01  .275E+01  .243E+01  .507E+01
  .231E+01  .279E+01  .191E+00  .256E+01  .179E+01  .421E+01  .102E+02  .184E+01
  .624E+00  .103E+01  .137E+01  .106E+01  .234E+01  .657E+00  .723E+00  .318E+00
  .632E+00  .545E+00  .812E+00  .106E+00  .376E+00  .651E+00  .560E+00  .487E+00
  .165E+00  .244E+00  .293E+00  .172E+00  .000E+00  .000E+00  .000E+00  .000E+00
  .000E+00  .000E+00  .000E+00  .000E+00  .000E+00  .000E+00  .000E+00  .000E+00
  .000E+00  .000E+00  .000E+00  .000E+00  .000E+00  .000E+00  .000E+00  .000E+00
  .000E+00  .000E+00  .000E+00  .000E+00
Damping =  .00. Data of Sd,Sv,Sa,Pssv,ttSd,ttSv,ttSa :
  .122E-02  .126E-02  .133E-02  .145E-02  .157E-02  .172E-02  .217E-02  .273E-02
  .306E-02  .365E-02  .482E-02  .518E-02  .602E-02  .830E-02  .111E-01  .149E-01
  .181E-01  .240E-01  .171E-01  .212E-01  .212E-01  .575E-01  .434E-01  .811E-01
  .145E+00  .756E-01  .921E-01  .852E-01  .117E+00  .175E+00  .259E+00  .183E+00
  .479E+00  .539E+00  .522E+00  .707E+00  .238E+01  .741E+00  .789E+00  .912E+00
  .467E+00  .632E+00  .516E+00  .671E+00  .365E+00  .350E+00  .333E+00  .782E+00
  .564E+00  .471E+00  .228E+00  .451E+00  .406E+00  .872E+00  .254E+01  .103E+01
  .622E+00  .385E+00  .562E+00  .487E+00  .805E+00  .359E+00  .307E+00  .289E+00
  .426E+00  .437E+00  .455E+00  .392E+00  .369E+00  .422E+00  .436E+00  .329E+00
  .291E+00  .272E+00  .257E+00  .245E+00  .000E+00  .000E+00  .000E+00  .000E+00
  .000E+00  .000E+00  .000E+00  .000E+00  .000E+00  .000E+00  .000E+00  .000E+00
  .000E+00  .000E+00  .000E+00  .000E+00  .000E+00  .000E+00  .000E+00  .000E+00
  .000E+00  .000E+00  .000E+00  .000E+00
  .125E+00  .115E+00  .662E-01  .913E-01  .585E-01  .634E-01  .646E-01  .157E+00
  .144E+00  .129E+00  .208E+00  .163E+00  .172E+00  .305E+00  .570E+00  .776E+00
  .864E+00  .105E+01  .696E+00  .763E+00  .665E+00  .213E+01  .140E+01  .260E+01
  .448E+01  .227E+01  .238E+01  .203E+01  .275E+01  .373E+01  .539E+01  .338E+01
  .862E+01  .919E+01  .847E+01  .110E+02  .356E+02  .109E+02  .112E+02  .119E+02
  .602E+01  .747E+01  .580E+01  .652E+01  .325E+01  .306E+01  .269E+01  .572E+01
  .417E+01  .304E+01  .197E+01  .256E+01  .203E+01  .421E+01  .114E+02  .462E+01
  .257E+01  .209E+01  .202E+01  .187E+01  .260E+01  .178E+01  .175E+01  .171E+01
  .168E+01  .166E+01  .164E+01  .163E+01  .162E+01  .160E+01  .159E+01  .158E+01
  .157E+01  .156E+01  .155E+01  .154E+01  .000E+00  .000E+00  .000E+00  .000E+00
  .000E+00  .000E+00  .000E+00  .000E+00  .000E+00  .000E+00  .000E+00  .000E+00
  .000E+00  .000E+00  .000E+00  .000E+00  .000E+00  .000E+00  .000E+00  .000E+00
  .000E+00  .000E+00  .000E+00  .000E+00
  .780E-01  .730E-01  .705E-01  .699E-01  .695E-01  .704E-01  .734E-01  .776E-01
  .740E-01  .761E-01  .876E-01  .827E-01  .853E-01  .105E+00  .126E+00  .153E+00
  .153E+00  .170E+00  .103E+00  .111E+00  .964E-01  .230E+00  .154E+00  .256E+00
  .410E+00  .193E+00  .195E+00  .151E+00  .177E+00  .228E+00  .294E+00  .183E+00
  .424E+00  .425E+00  .369E+00  .452E+00  .138E+01  .392E+00  .382E+00  .405E+00
  .191E+00  .214E+00  .147E+00  .163E+00  .761E-01  .636E-01  .532E-01  .111E+00
  .712E-01  .534E-01  .233E-01  .381E-01  .289E-01  .528E-01  .133E+00  .467E-01
  .249E-01  .136E-01  .178E-01  .138E-01  .206E-01  .758E-02  .544E-02  .437E-02
  .556E-02  .497E-02  .454E-02  .346E-02  .291E-02  .299E-02  .279E-02  .191E-02
  .153E-02  .131E-02  .114E-02  .100E-02  .000E+00  .000E+00  .000E+00  .000E+00
  .000E+00  .000E+00  .000E+00  .000E+00  .000E+00  .000E+00  .000E+00  .000E+00
  .000E+00  .000E+00  .000E+00  .000E+00  .000E+00  .000E+00  .000E+00  .000E+00
  .000E+00  .000E+00  .000E+00  .000E+00
  .192E+00  .188E+00  .190E+00  .198E+00  .205E+00  .216E+00  .248E+00  .286E+00
  .295E+00  .327E+00  .404E+00  .407E+00  .445E+00  .580E+00  .737E+00  .939E+00
  .104E+01  .125E+01  .826E+00  .952E+00  .888E+00  .226E+01  .160E+01  .283E+01
  .478E+01  .238E+01  .263E+01  .223E+01  .283E+01  .393E+01  .542E+01  .360E+01
  .886E+01  .940E+01  .862E+01  .111E+02  .356E+02  .106E+02  .108E+02  .119E+02
  .587E+01  .722E+01  .540E+01  .649E+01  .327E+01  .293E+01  .261E+01  .578E+01
  .394E+01  .312E+01  .143E+01  .258E+01  .213E+01  .421E+01  .114E+02  .431E+01
  .244E+01  .142E+01  .196E+01  .161E+01  .253E+01  .102E+01  .803E+00  .698E+00
  .956E+00  .915E+00  .893E+00  .724E+00  .644E+00  .698E+00  .686E+00  .493E+00
  .415E+00  .371E+00  .336E+00  .308E+00  .000E+00  .000E+00  .000E+00  .000E+00
  .000E+00  .000E+00  .000E+00  .000E+00  .000E+00  .000E+00  .000E+00  .000E+00
  .000E+00  .000E+00  .000E+00  .000E+00  .000E+00  .000E+00  .000E+00  .000E+00
  .000E+00  .000E+00  .000E+00  .000E+00
  .315E+02  .305E+02  .250E+02  .250E+02  .250E+02  .250E+02  .250E+02  .250E+02
  .250E+02  .252E+02  .252E+02  .250E+02  .250E+02  .252E+02  .308E+02  .308E+02
  .254E+02  .314E+02  .275E+02  .250E+02  .250E+02  .376E+02  .315E+02  .292E+02
  .307E+02  .323E+02  .313E+02  .290E+02  .354E+02  .303E+02  .435E+02  .309E+02
  .313E+02  .305E+02  .321E+02  .287E+02  .432E+02  .303E+02  .309E+02  .683E+02
  .281E+02  .311E+02  .308E+02  .461E+02  .336E+02  .385E+02  .578E+02  .385E+02
  .323E+02  .689E+02  .307E+02  .709E+02  .671E+02  .717E+02  .458E+02  .370E+02
  .419E+02  .293E+02  .496E+02  .320E+02  .684E+02  .315E+02  .670E+02  .315E+02
  .400E+02  .392E+02  .655E+02  .309E+02  .309E+02  .486E+02  .593E+02  .625E+02
  .383E+02  .299E+02  .299E+02  .299E+02  .000E+00  .000E+00  .000E+00  .000E+00
  .000E+00  .000E+00  .000E+00  .000E+00  .000E+00  .000E+00  .000E+00  .000E+00
  .000E+00  .000E+00  .000E+00  .000E+00  .000E+00  .000E+00  .000E+00  .000E+00
  .000E+00  .000E+00  .000E+00  .000E+00
  .355E+02  .398E+02  .334E+02  .357E+02  .303E+02  .699E+02  .251E+02  .308E+02
  .311E+02  .308E+02  .267E+02  .252E+02  .308E+02  .251E+02  .308E+02  .308E+02
  .253E+02  .314E+02  .277E+02  .383E+02  .302E+02  .375E+02  .386E+02  .292E+02
  .306E+02  .318E+02  .313E+02  .286E+02  .355E+02  .304E+02  .436E+02  .310E+02
  .310E+02  .304E+02  .320E+02  .286E+02  .431E+02  .306E+02  .308E+02  .682E+02
  .280E+02  .310E+02  .310E+02  .463E+02  .359E+02  .357E+02  .251E+02  .383E+02
  .325E+02  .682E+02  .251E+02  .712E+02  .668E+02  .720E+02  .454E+02  .375E+02
  .423E+02  .291E+02  .491E+02  .317E+02  .679E+02  .251E+02  .251E+02  .251E+02
  .251E+02  .251E+02  .251E+02  .251E+02  .251E+02  .251E+02  .251E+02  .251E+02
  .251E+02  .251E+02  .251E+02  .251E+02  .000E+00  .000E+00  .000E+00  .000E+00
  .000E+00  .000E+00  .000E+00  .000E+00  .000E+00  .000E+00  .000E+00  .000E+00
  .000E+00  .000E+00  .000E+00  .000E+00  .000E+00  .000E+00  .000E+00  .000E+00
  .000E+00  .000E+00  .000E+00  .000E+00
  .315E+02  .305E+02  .250E+02  .250E+02  .250E+02  .250E+02  .250E+02  .250E+02
  .250E+02  .252E+02  .252E+02  .250E+02  .250E+02  .252E+02  .308E+02  .308E+02
  .254E+02  .314E+02  .275E+02  .250E+02  .250E+02  .376E+02  .315E+02  .292E+02
  .307E+02  .323E+02  .313E+02  .290E+02  .354E+02  .303E+02  .435E+02  .309E+02
  .313E+02  .305E+02  .321E+02  .287E+02  .432E+02  .303E+02  .309E+02  .683E+02
  .281E+02  .311E+02  .308E+02  .461E+02  .336E+02  .385E+02  .578E+02  .385E+02
  .323E+02  .689E+02  .307E+02  .709E+02  .671E+02  .717E+02  .458E+02  .370E+02
  .419E+02  .293E+02  .496E+02  .320E+02  .684E+02  .315E+02  .670E+02  .315E+02
  .400E+02  .392E+02  .655E+02  .309E+02  .309E+02  .486E+02  .593E+02  .625E+02
  .383E+02  .299E+02  .299E+02  .299E+02  .000E+00  .000E+00  .000E+00  .000E+00
  .000E+00  .000E+00  .000E+00  .000E+00  .000E+00  .000E+00  .000E+00  .000E+00
  .000E+00  .000E+00  .000E+00  .000E+00  .000E+00  .000E+00  .000E+00  .000E+00
  .000E+00  .000E+00  .000E+00  .000E+00
Damping =  .02. Data of Sd,Sv,Sa,Pssv,ttSd,ttSv,ttSa :
  .107E-02  .119E-02  .133E-02  .144E-02  .156E-02  .167E-02  .210E-02  .260E-02
  .300E-02  .357E-02  .444E-02  .519E-02  .617E-02  .722E-02  .908E-02  .101E-01
  .128E-01  .139E-01  .147E-01  .204E-01  .244E-01  .327E-01  .391E-01  .351E-01
  .510E-01  .429E-01  .635E-01  .782E-01  .883E-01  .102E+00  .127E+00  .163E+00
  .238E+00  .264E+00  .469E+00  .437E+00  .735E+00  .472E+00  .447E+00  .398E+00
  .369E+00  .360E+00  .342E+00  .347E+00  .267E+00  .257E+00  .258E+00  .451E+00
  .427E+00  .275E+00  .223E+00  .223E+00  .315E+00  .586E+00  .122E+01  .748E+00
  .476E+00  .340E+00  .330E+00  .411E+00  .398E+00  .339E+00  .235E+00  .280E+00
  .328E+00  .336E+00  .336E+00  .358E+00  .342E+00  .300E+00  .287E+00  .287E+00
  .278E+00  .265E+00  .253E+00  .243E+00  .000E+00  .000E+00  .000E+00  .000E+00
  .000E+00  .000E+00  .000E+00  .000E+00  .000E+00  .000E+00  .000E+00  .000E+00
  .000E+00  .000E+00  .000E+00  .000E+00  .000E+00  .000E+00  .000E+00  .000E+00
  .000E+00  .000E+00  .000E+00  .000E+00
  .299E-01  .318E-01  .351E-01  .346E-01  .351E-01  .388E-01  .543E-01  .843E-01
  .969E-01  .112E+00  .139E+00  .146E+00  .145E+00  .217E+00  .333E+00  .418E+00
  .588E+00  .552E+00  .498E+00  .580E+00  .752E+00  .110E+01  .123E+01  .108E+01
  .145E+01  .122E+01  .144E+01  .168E+01  .178E+01  .201E+01  .241E+01  .285E+01
  .411E+01  .437E+01  .745E+01  .662E+01  .111E+02  .716E+01  .617E+01  .535E+01
  .477E+01  .444E+01  .405E+01  .373E+01  .301E+01  .274E+01  .261E+01  .335E+01
  .326E+01  .209E+01  .198E+01  .192E+01  .190E+01  .315E+01  .569E+01  .354E+01
  .224E+01  .182E+01  .178E+01  .178E+01  .178E+01  .177E+01  .174E+01  .171E+01
  .168E+01  .166E+01  .164E+01  .163E+01  .162E+01  .160E+01  .159E+01  .158E+01
  .157E+01  .156E+01  .155E+01  .154E+01  .000E+00  .000E+00  .000E+00  .000E+00
  .000E+00  .000E+00  .000E+00  .000E+00  .000E+00  .000E+00  .000E+00  .000E+00
  .000E+00  .000E+00  .000E+00  .000E+00  .000E+00  .000E+00  .000E+00  .000E+00
  .000E+00  .000E+00  .000E+00  .000E+00
  .681E-01  .692E-01  .703E-01  .696E-01  .693E-01  .684E-01  .712E-01  .739E-01
  .726E-01  .745E-01  .807E-01  .828E-01  .872E-01  .910E-01  .103E+00  .104E+00
  .108E+00  .983E-01  .893E-01  .106E+00  .111E+00  .131E+00  .139E+00  .111E+00
  .144E+00  .110E+00  .134E+00  .139E+00  .134E+00  .133E+00  .144E+00  .163E+00
  .211E+00  .208E+00  .333E+00  .279E+00  .427E+00  .250E+00  .216E+00  .177E+00
  .151E+00  .122E+00  .973E-01  .839E-01  .559E-01  .467E-01  .413E-01  .639E-01
  .540E-01  .312E-01  .228E-01  .188E-01  .224E-01  .355E-01  .636E-01  .340E-01
  .190E-01  .121E-01  .104E-01  .117E-01  .102E-01  .719E-02  .421E-02  .427E-02
  .430E-02  .383E-02  .339E-02  .320E-02  .273E-02  .216E-02  .186E-02  .169E-02
  .149E-02  .131E-02  .115E-02  .102E-02  .000E+00  .000E+00  .000E+00  .000E+00
  .000E+00  .000E+00  .000E+00  .000E+00  .000E+00  .000E+00  .000E+00  .000E+00
  .000E+00  .000E+00  .000E+00  .000E+00  .000E+00  .000E+00  .000E+00  .000E+00
  .000E+00  .000E+00  .000E+00  .000E+00
  .167E+00  .179E+00  .190E+00  .197E+00  .204E+00  .210E+00  .240E+00  .273E+00
  .290E+00  .320E+00  .372E+00  .408E+00  .456E+00  .504E+00  .601E+00  .637E+00
  .732E+00  .727E+00  .710E+00  .914E+00  .102E+01  .128E+01  .145E+01  .123E+01
  .169E+01  .135E+01  .181E+01  .205E+01  .213E+01  .229E+01  .266E+01  .320E+01
  .439E+01  .461E+01  .776E+01  .686E+01  .110E+02  .675E+01  .610E+01  .521E+01
  .463E+01  .411E+01  .358E+01  .335E+01  .240E+01  .215E+01  .203E+01  .333E+01
  .298E+01  .182E+01  .140E+01  .127E+01  .165E+01  .283E+01  .546E+01  .313E+01
  .187E+01  .126E+01  .115E+01  .136E+01  .125E+01  .968E+00  .615E+00  .677E+00
  .735E+00  .704E+00  .660E+00  .662E+00  .597E+00  .496E+00  .452E+00  .430E+00
  .398E+00  .362E+00  .331E+00  .305E+00  .000E+00  .000E+00  .000E+00  .000E+00
  .000E+00  .000E+00  .000E+00  .000E+00  .000E+00  .000E+00  .000E+00  .000E+00
  .000E+00  .000E+00  .000E+00  .000E+00  .000E+00  .000E+00  .000E+00  .000E+00
  .000E+00  .000E+00  .000E+00  .000E+00
  .250E+02  .250E+02  .250E+02  .250E+02  .250E+02  .250E+02  .250E+02  .250E+02
  .250E+02  .252E+02  .252E+02  .250E+02  .250E+02  .250E+02  .252E+02  .252E+02
  .254E+02  .254E+02  .254E+02  .250E+02  .250E+02  .309E+02  .315E+02  .306E+02
  .307E+02  .252E+02  .252E+02  .252E+02  .252E+02  .252E+02  .252E+02  .254E+02
  .313E+02  .313E+02  .315E+02  .316E+02  .316E+02  .307E+02  .258E+02  .258E+02
  .258E+02  .256E+02  .254E+02  .328E+02  .252E+02  .336E+02  .337E+02  .326E+02
  .323E+02  .323E+02  .307E+02  .323E+02  .307E+02  .323E+02  .416E+02  .319E+02
  .320E+02  .293E+02  .320E+02  .320E+02  .314E+02  .315E+02  .315E+02  .315E+02
  .315E+02  .392E+02  .305E+02  .309E+02  .309E+02  .309E+02  .299E+02  .299E+02
  .299E+02  .299E+02  .299E+02  .299E+02  .000E+00  .000E+00  .000E+00  .000E+00
  .000E+00  .000E+00  .000E+00  .000E+00  .000E+00  .000E+00  .000E+00  .000E+00
  .000E+00  .000E+00  .000E+00  .000E+00  .000E+00  .000E+00  .000E+00  .000E+00
  .000E+00  .000E+00  .000E+00  .000E+00
  .311E+02  .251E+02  .251E+02  .251E+02  .251E+02  .251E+02  .251E+02  .251E+02
  .251E+02  .251E+02  .251E+02  .252E+02  .250E+02  .252E+02  .252E+02  .253E+02
  .253E+02  .257E+02  .254E+02  .253E+02  .251E+02  .311E+02  .312E+02  .306E+02
  .306E+02  .304E+02  .253E+02  .253E+02  .253E+02  .268E+02  .274E+02  .255E+02
  .310E+02  .255E+02  .316E+02  .317E+02  .315E+02  .308E+02  .306E+02  .302E+02
  .257E+02  .255E+02  .253E+02  .253E+02  .251E+02  .251E+02  .251E+02  .324E+02
  .325E+02  .308E+02  .251E+02  .251E+02  .251E+02  .306E+02  .419E+02  .322E+02
  .310E+02  .291E+02  .251E+02  .251E+02  .251E+02  .251E+02  .251E+02  .251E+02
  .251E+02  .251E+02  .251E+02  .251E+02  .251E+02  .251E+02  .251E+02  .251E+02
  .251E+02  .251E+02  .251E+02  .251E+02  .000E+00  .000E+00  .000E+00  .000E+00
  .000E+00  .000E+00  .000E+00  .000E+00  .000E+00  .000E+00  .000E+00  .000E+00
  .000E+00  .000E+00  .000E+00  .000E+00  .000E+00  .000E+00  .000E+00  .000E+00
  .000E+00  .000E+00  .000E+00  .000E+00
  .250E+02  .250E+02  .250E+02  .250E+02  .250E+02  .250E+02  .250E+02  .250E+02
  .250E+02  .252E+02  .252E+02  .250E+02  .250E+02  .250E+02  .252E+02  .252E+02
  .254E+02  .254E+02  .254E+02  .250E+02  .250E+02  .309E+02  .315E+02  .306E+02
  .307E+02  .252E+02  .252E+02  .252E+02  .252E+02  .252E+02  .252E+02  .254E+02
  .313E+02  .313E+02  .315E+02  .316E+02  .316E+02  .306E+02  .258E+02  .258E+02
  .258E+02  .256E+02  .254E+02  .328E+02  .252E+02  .336E+02  .337E+02  .326E+02
  .323E+02  .323E+02  .307E+02  .323E+02  .307E+02  .323E+02  .416E+02  .319E+02
  .320E+02  .293E+02  .320E+02  .320E+02  .314E+02  .315E+02  .315E+02  .315E+02
  .315E+02  .392E+02  .305E+02  .308E+02  .308E+02  .308E+02  .298E+02  .298E+02
  .299E+02  .299E+02  .299E+02  .299E+02  .000E+00  .000E+00  .000E+00  .000E+00
  .000E+00  .000E+00  .000E+00  .000E+00  .000E+00  .000E+00  .000E+00  .000E+00
  .000E+00  .000E+00  .000E+00  .000E+00  .000E+00  .000E+00  .000E+00  .000E+00
  .000E+00  .000E+00  .000E+00  .000E+00
Damping =  .05. Data of Sd,Sv,Sa,Pssv,ttSd,ttSv,ttSa :
  .107E-02  .119E-02  .132E-02  .144E-02  .156E-02  .169E-02  .210E-02  .256E-02
