Response and Fourier amplitude spectra (86 periods,  .04 - 10.0 sec)   for      
Corrected accelerogram   24629-E0522-14091.02       Chan  3: 360 Deg     from   
Uncorrected Accelerogram Data             Processed: 04/01/14, CGS  e0522e02    
Rcrd of Fri Mar 28, 2014 21:09:37.7 PDT*              (Avol1 v0.5, 2/14 CSMIP)  
CSMIP Preliminary Processing            (Origin:  To be determined)             
24629-E0522-14091.02                 Start time:  3/29/14, 04:09:37.6 UTC (WWVB)
Station No. 24629   34.048N, 118.262W    SSA-1   s/n  522  (4 Chns of 20 at Sta)
Los Angeles - 54-story Office Bldg        CGS   Data: Acceleration              
Chan  3: 360 DegR (Sta Chn:  7)     Location: Ground Floor: W. Wall             
Rcrd of Fri Mar 28, 2014 21:09:37.7 PDT*   Fri Mar 28, 2014 21:09:37.7 PDT*     
Hypocenter:  To be determined.               ML:  To be determined.
Instr Period =  .0185 sec,  Damping =  .660,  Sensitivity = 1.24 v/g
                        Record length = 78.080 sec.
                                     Uncor Max  =  -.028 g , at  18.990 sec.
RMS accel of (uncor) record  =        .   Chn. metadata effective date: 12/20/91
Accelerogram bandpass filtered with 3 dB pts at   .10 and 40.00 cyc/sec
                 instrument- and baseline-corrected





Rcrd of Fri Mar 28, 2014 21:09:37.7 PDT*   Fri Mar 28, 2014 21:09:37.7 PDT*

24629-E0522-14091.02      Los Angeles - 54-story Office Bldg    Chan  3: 360 Deg

24629-E0522-14091.02      Los Angeles - 54-story Office Bldg    Chan  3: 360 Deg

Units for spectra are inches and sec, except Sa is in fraction of g.

    3  100    7    4   20  200    1    3    1   12    5  522    024629    2    0
    4    9   37  650   88    3   29 2014   10    1  36015616   39   34   74   -1
15616    0  100    3 2125    5    2   61    2    4    9   52  400    3   29 2014
    0    0    3    0 7808    2  220    1   12    4    0    0    3    1    0 7808
    3 7808    4   86    5    4    5    0    1    0    0    0    1    3    2    2
    2    2    4    0   79   99    1    1    0    0    0    1    0    0    0  222
    1    0    0    0
      .019      .660    78.080      .003      .000  1238.000     -.028    18.990
    54.000  1220.703   986.028      .000     5.000  -999.000     2.000      .000
     2.500     7.685     2.500  -999.000    15.360    30.000  -999.000      .209
      .007     -.201     2.000    15.000    34.048  -118.262      .099      .531
     5.380     -.229     -.173    79.000      .000      .000      .000      .000
     1.000     2.790      .000  -999.000  -999.000  -999.000  -999.000      .000
     9.200      .500     6.300   980.665      .010    78.080     8.594      .000
      .000    40.000      .000    78.080      .010      .100      .000      .000
    18.990   -27.611    18.910     2.084    23.870      .497     -.005      .100
    40.000      .010      .010      .072      .010      .112      .000      .000
      .089      .340      .069      .071      .037      .003      .000      .000
      .000      .000      .000      .000      .000      .000      .000      .000
      .000      .000      .000      .000
      .000      .020      .050      .100      .200
      .040      .042      .044      .046      .048      .050      .055      .060
      .065      .070      .075      .080      .085      .090      .095      .100
      .110      .120      .130      .140      .150      .160      .170      .180
      .190      .200      .220      .240      .260      .280      .300      .320
      .340      .360      .380      .400      .420      .440      .460      .480
      .500      .550      .600      .650      .700      .750      .800      .850
      .900      .950     1.000     1.100     1.200     1.300     1.400     1.500
     1.600     1.700     1.800     1.900     2.000     2.200     2.400     2.600
     2.800     3.000     3.200     3.400     3.600     3.800     4.000     4.200
     4.400     4.600     4.800     5.000     5.500     6.000     6.500     7.000
     7.500     8.000     8.500     9.000     9.500    10.000      .000      .000
      .000      .000      .000      .000      .000      .000      .000      .000
      .000      .000      .000      .000
Fourier amplitude spectra in in/sec.
  .802E-01  .755E-02  .606E-01  .532E-01  .458E-01  .143E-01  .630E-01  .572E-01
  .232E+00  .569E-01  .790E-01  .110E+00  .123E+00  .210E+00  .153E+00  .367E+00
  .212E+00  .438E+00  .559E+00  .643E+00  .106E+01  .201E+00  .132E+01  .464E+00
  .130E+01  .157E+01  .265E+01  .137E+01  .251E+01  .206E+01  .108E+01  .219E+01
  .442E+01  .117E+01  .151E+01  .213E+01  .762E+00  .372E+01  .114E+01  .178E+01
  .287E+01  .438E+01  .425E+01  .139E+01  .689E+01  .578E+00  .270E+01  .551E+01
  .371E+01  .486E+01  .441E+01  .722E+00  .434E+01  .483E+01  .222E+01  .186E+01
  .193E+01  .162E+01  .185E+01  .185E+01  .103E+01  .957E+00  .693E+00  .232E+00
  .358E+00  .582E+00  .130E+01  .834E+00  .143E+00  .880E+00  .130E+01  .104E+01
  .567E+00  .506E+00  .727E+00  .598E+00  .412E+00  .370E+00  .591E+00  .154E+00
  .214E+00  .133E+00  .179E+00  .174E+00  .123E+00  .166E+00  .000E+00  .000E+00
  .000E+00  .000E+00  .000E+00  .000E+00  .000E+00  .000E+00  .000E+00  .000E+00
  .000E+00  .000E+00  .000E+00  .000E+00
Damping =  .00. Data of Sd,Sv,Sa,Pssv,ttSd,ttSv,ttSa :
  .590E-03  .510E-03  .610E-03  .617E-03  .863E-03  .108E-02  .117E-02  .123E-02
  .248E-02  .212E-02  .208E-02  .248E-02  .378E-02  .477E-02  .366E-02  .610E-02
  .400E-02  .923E-02  .137E-01  .164E-01  .257E-01  .209E-01  .365E-01  .354E-01
  .534E-01  .691E-01  .102E+00  .851E-01  .111E+00  .127E+00  .112E+00  .193E+00
  .334E+00  .170E+00  .168E+00  .174E+00  .106E+00  .262E+00  .124E+00  .219E+00
  .260E+00  .385E+00  .419E+00  .276E+00  .779E+00  .283E+00  .413E+00  .805E+00
  .554E+00  .846E+00  .710E+00  .428E+00  .848E+00  .999E+00  .621E+00  .535E+00
  .514E+00  .597E+00  .568E+00  .586E+00  .369E+00  .443E+00  .456E+00  .249E+00
  .395E+00  .473E+00  .764E+00  .491E+00  .420E+00  .667E+00  .855E+00  .750E+00
  .650E+00  .576E+00  .571E+00  .518E+00  .361E+00  .542E+00  .611E+00  .349E+00
  .337E+00  .341E+00  .320E+00  .322E+00  .285E+00  .264E+00  .000E+00  .000E+00
  .000E+00  .000E+00  .000E+00  .000E+00  .000E+00  .000E+00  .000E+00  .000E+00
  .000E+00  .000E+00  .000E+00  .000E+00
  .807E-01  .419E-01  .646E-01  .623E-01  .586E-01  .783E-01  .862E-01  .103E+00
  .231E+00  .103E+00  .143E+00  .153E+00  .203E+00  .221E+00  .189E+00  .399E+00
  .220E+00  .478E+00  .635E+00  .669E+00  .107E+01  .594E+00  .133E+01  .101E+01
  .171E+01  .212E+01  .293E+01  .215E+01  .267E+01  .267E+01  .227E+01  .377E+01
  .614E+01  .302E+01  .256E+01  .272E+01  .156E+01  .372E+01  .168E+01  .279E+01
  .325E+01  .442E+01  .439E+01  .269E+01  .699E+01  .264E+01  .324E+01  .599E+01
  .386E+01  .569E+01  .444E+01  .248E+01  .445E+01  .483E+01  .301E+01  .260E+01
  .201E+01  .226E+01  .199E+01  .195E+01  .156E+01  .167E+01  .131E+01  .885E+00
  .948E+00  .116E+01  .152E+01  .115E+01  .119E+01  .127E+01  .143E+01  .114E+01
  .103E+01  .915E+00  .958E+00  .955E+00  .914E+00  .887E+00  .814E+00  .862E+00
  .879E+00  .859E+00  .824E+00  .792E+00  .774E+00  .770E+00  .000E+00  .000E+00
  .000E+00  .000E+00  .000E+00  .000E+00  .000E+00  .000E+00  .000E+00  .000E+00
  .000E+00  .000E+00  .000E+00  .000E+00
  .377E-01  .296E-01  .322E-01  .298E-01  .383E-01  .441E-01  .395E-01  .350E-01
  .601E-01  .442E-01  .378E-01  .396E-01  .535E-01  .603E-01  .414E-01  .624E-01
  .338E-01  .656E-01  .826E-01  .856E-01  .117E+00  .833E-01  .129E+00  .112E+00
  .151E+00  .177E+00  .216E+00  .151E+00  .169E+00  .165E+00  .127E+00  .192E+00
  .296E+00  .134E+00  .119E+00  .111E+00  .617E-01  .138E+00  .601E-01  .970E-01
  .107E+00  .130E+00  .119E+00  .669E-01  .163E+00  .515E-01  .660E-01  .114E+00
  .699E-01  .958E-01  .726E-01  .362E-01  .602E-01  .604E-01  .324E-01  .243E-01
  .206E-01  .211E-01  .179E-01  .166E-01  .945E-02  .936E-02  .810E-02  .377E-02
  .515E-02  .537E-02  .763E-02  .435E-02  .331E-02  .472E-02  .546E-02  .435E-02
  .344E-02  .279E-02  .253E-02  .212E-02  .122E-02  .154E-02  .148E-02  .728E-03
  .613E-03  .545E-03  .454E-03  .407E-03  .323E-03  .270E-03  .000E+00  .000E+00
  .000E+00  .000E+00  .000E+00  .000E+00  .000E+00  .000E+00  .000E+00  .000E+00
  .000E+00  .000E+00  .000E+00  .000E+00
  .927E-01  .763E-01  .871E-01  .843E-01  .113E+00  .136E+00  .134E+00  .129E+00
  .240E+00  .190E+00  .174E+00  .194E+00  .279E+00  .333E+00  .242E+00  .383E+00
  .229E+00  .484E+00  .660E+00  .736E+00  .108E+01  .819E+00  .135E+01  .124E+01
  .177E+01  .217E+01  .292E+01  .223E+01  .269E+01  .285E+01  .234E+01  .378E+01
  .618E+01  .297E+01  .278E+01  .273E+01  .159E+01  .374E+01  .170E+01  .286E+01
  .327E+01  .440E+01  .439E+01  .267E+01  .699E+01  .237E+01  .324E+01  .595E+01
  .387E+01  .559E+01  .446E+01  .244E+01  .444E+01  .483E+01  .279E+01  .224E+01
  .202E+01  .221E+01  .198E+01  .194E+01  .116E+01  .126E+01  .119E+01  .602E+00
  .885E+00  .990E+00  .150E+01  .908E+00  .733E+00  .110E+01  .134E+01  .112E+01
  .929E+00  .787E+00  .747E+00  .651E+00  .412E+00  .567E+00  .591E+00  .313E+00
  .282E+00  .268E+00  .237E+00  .225E+00  .188E+00  .166E+00  .000E+00  .000E+00
  .000E+00  .000E+00  .000E+00  .000E+00  .000E+00  .000E+00  .000E+00  .000E+00
  .000E+00  .000E+00  .000E+00  .000E+00
  .190E+02  .190E+02  .190E+02  .270E+02  .190E+02  .190E+02  .190E+02  .190E+02
  .222E+02  .190E+02  .190E+02  .188E+02  .190E+02  .190E+02  .190E+02  .492E+02
  .190E+02  .616E+02  .350E+02  .238E+02  .749E+02  .190E+02  .314E+02  .190E+02
  .235E+02  .235E+02  .330E+02  .226E+02  .266E+02  .271E+02  .222E+02  .201E+02
  .236E+02  .299E+02  .280E+02  .327E+02  .385E+02  .752E+02  .230E+02  .283E+02
  .359E+02  .375E+02  .483E+02  .267E+02  .728E+02  .233E+02  .446E+02  .554E+02
  .470E+02  .297E+02  .713E+02  .246E+02  .722E+02  .775E+02  .513E+02  .556E+02
  .749E+02  .374E+02  .495E+02  .722E+02  .311E+02  .276E+02  .475E+02  .311E+02
  .512E+02  .393E+02  .612E+02  .461E+02  .281E+02  .464E+02  .593E+02  .733E+02
  .404E+02  .363E+02  .612E+02  .671E+02  .775E+02  .510E+02  .788E+02  .437E+02
  .413E+02  .350E+02  .239E+02  .239E+02  .239E+02  .771E+02  .000E+00  .000E+00
  .000E+00  .000E+00  .000E+00  .000E+00  .000E+00  .000E+00  .000E+00  .000E+00
  .000E+00  .000E+00  .000E+00  .000E+00
  .760E+02  .293E+02  .749E+02  .548E+02  .366E+02  .291E+02  .652E+02  .504E+02
  .769E+02  .190E+02  .398E+02  .300E+02  .208E+02  .515E+02  .298E+02  .493E+02
  .651E+02  .616E+02  .424E+02  .295E+02  .740E+02  .189E+02  .368E+02  .189E+02
  .234E+02  .234E+02  .329E+02  .226E+02  .265E+02  .278E+02  .220E+02  .201E+02
  .237E+02  .194E+02  .279E+02  .328E+02  .384E+02  .753E+02  .218E+02  .282E+02
  .363E+02  .376E+02  .374E+02  .262E+02  .727E+02  .234E+02  .448E+02  .556E+02
  .472E+02  .285E+02  .711E+02  .265E+02  .718E+02  .772E+02  .273E+02  .269E+02
  .745E+02  .369E+02  .491E+02  .717E+02  .278E+02  .273E+02  .273E+02  .189E+02
  .534E+02  .387E+02  .684E+02  .269E+02  .278E+02  .278E+02  .584E+02  .721E+02
  .393E+02  .240E+02  .273E+02  .273E+02  .273E+02  .273E+02  .189E+02  .189E+02
  .189E+02  .189E+02  .189E+02  .189E+02  .189E+02  .189E+02  .000E+00  .000E+00
  .000E+00  .000E+00  .000E+00  .000E+00  .000E+00  .000E+00  .000E+00  .000E+00
  .000E+00  .000E+00  .000E+00  .000E+00
  .190E+02  .190E+02  .190E+02  .270E+02  .190E+02  .190E+02  .190E+02  .190E+02
  .222E+02  .190E+02  .190E+02  .188E+02  .190E+02  .190E+02  .190E+02  .492E+02
  .190E+02  .616E+02  .350E+02  .238E+02  .749E+02  .190E+02  .314E+02  .190E+02
  .235E+02  .235E+02  .330E+02  .226E+02  .266E+02  .271E+02  .222E+02  .201E+02
  .236E+02  .299E+02  .280E+02  .327E+02  .385E+02  .752E+02  .230E+02  .283E+02
  .359E+02  .375E+02  .483E+02  .267E+02  .728E+02  .233E+02  .446E+02  .554E+02
  .470E+02  .297E+02  .713E+02  .246E+02  .722E+02  .775E+02  .513E+02  .556E+02
  .749E+02  .374E+02  .495E+02  .722E+02  .311E+02  .276E+02  .475E+02  .311E+02
  .512E+02  .393E+02  .612E+02  .461E+02  .281E+02  .464E+02  .593E+02  .733E+02
  .404E+02  .363E+02  .612E+02  .671E+02  .775E+02  .510E+02  .788E+02  .437E+02
  .413E+02  .350E+02  .239E+02  .239E+02  .239E+02  .771E+02  .000E+00  .000E+00
  .000E+00  .000E+00  .000E+00  .000E+00  .000E+00  .000E+00  .000E+00  .000E+00
  .000E+00  .000E+00  .000E+00  .000E+00
Damping =  .02. Data of Sd,Sv,Sa,Pssv,ttSd,ttSv,ttSa :
  .464E-03  .483E-03  .558E-03  .599E-03  .670E-03  .772E-03  .963E-03  .113E-02
  .127E-02  .142E-02  .169E-02  .230E-02  .295E-02  .298E-02  .355E-02  .423E-02
  .418E-02  .571E-02  .704E-02  .104E-01  .119E-01  .163E-01  .116E-01  .242E-01
  .235E-01  .299E-01  .451E-01  .543E-01  .546E-01  .632E-01  .764E-01  .123E+00
  .136E+00  .133E+00  .112E+00  .887E-01  .921E-01  .106E+00  .919E-01  .105E+00
  .117E+00  .142E+00  .225E+00  .232E+00  .361E+00  .250E+00  .325E+00  .403E+00
  .397E+00  .583E+00  .508E+00  .352E+00  .497E+00  .510E+00  .430E+00  .403E+00
  .348E+00  .330E+00  .314E+00  .275E+00  .285E+00  .360E+00  .310E+00  .237E+00
  .260E+00  .348E+00  .412E+00  .376E+00  .361E+00  .431E+00  .527E+00  .556E+00
  .539E+00  .481E+00  .366E+00  .349E+00  .318E+00  .393E+00  .416E+00  .316E+00
  .290E+00  .302E+00  .303E+00  .304E+00  .275E+00  .233E+00  .000E+00  .000E+00
  .000E+00  .000E+00  .000E+00  .000E+00  .000E+00  .000E+00  .000E+00  .000E+00
  .000E+00  .000E+00  .000E+00  .000E+00
  .106E-01  .155E-01  .165E-01  .166E-01  .245E-01  .279E-01  .417E-01  .373E-01
  .479E-01  .591E-01  .508E-01  .863E-01  .968E-01  .725E-01  .892E-01  .108E+00
  .965E-01  .164E+00  .206E+00  .327E+00  .399E+00  .429E+00  .384E+00  .628E+00
  .726E+00  .875E+00  .119E+01  .136E+01  .128E+01  .138E+01  .159E+01  .246E+01
  .258E+01  .241E+01  .189E+01  .143E+01  .143E+01  .156E+01  .139E+01  .134E+01
  .144E+01  .157E+01  .233E+01  .222E+01  .302E+01  .218E+01  .254E+01  .299E+01
  .284E+01  .404E+01  .334E+01  .198E+01  .283E+01  .264E+01  .242E+01  .197E+01
  .178E+01  .142E+01  .125E+01  .119E+01  .141E+01  .145E+01  .124E+01  .879E+00
  .900E+00  .909E+00  .104E+01  .106E+01  .110E+01  .115E+01  .106E+01  .955E+00
  .923E+00  .903E+00  .906E+00  .916E+00  .895E+00  .862E+00  .819E+00  .853E+00
  .867E+00  .852E+00  .824E+00  .798E+00  .783E+00  .777E+00  .000E+00  .000E+00
  .000E+00  .000E+00  .000E+00  .000E+00  .000E+00  .000E+00  .000E+00  .000E+00
  .000E+00  .000E+00  .000E+00  .000E+00
  .297E-01  .280E-01  .295E-01  .289E-01  .297E-01  .315E-01  .325E-01  .321E-01
  .307E-01  .297E-01  .308E-01  .368E-01  .418E-01  .377E-01  .402E-01  .431E-01
  .353E-01  .405E-01  .427E-01  .543E-01  .544E-01  .651E-01  .409E-01  .767E-01
  .667E-01  .768E-01  .952E-01  .968E-01  .828E-01  .826E-01  .867E-01  .123E+00
  .120E+00  .105E+00  .792E-01  .568E-01  .534E-01  .561E-01  .445E-01  .466E-01
  .480E-01  .478E-01  .640E-01  .563E-01  .755E-01  .454E-01  .519E-01  .570E-01
  .501E-01  .662E-01  .520E-01  .298E-01  .353E-01  .309E-01  .225E-01  .183E-01
  .139E-01  .117E-01  .993E-02  .779E-02  .730E-02  .762E-02  .552E-02  .360E-02
  .339E-02  .396E-02  .412E-02  .334E-02  .286E-02  .306E-02  .337E-02  .323E-02
  .285E-02  .233E-02  .163E-02  .143E-02  .108E-02  .112E-02  .101E-02  .661E-03
  .528E-03  .485E-03  .442E-03  .396E-03  .324E-03  .251E-03  .000E+00  .000E+00
  .000E+00  .000E+00  .000E+00  .000E+00  .000E+00  .000E+00  .000E+00  .000E+00
  .000E+00  .000E+00  .000E+00  .000E+00
  .729E-01  .723E-01  .796E-01  .818E-01  .877E-01  .970E-01  .110E+00  .118E+00
  .123E+00  .127E+00  .142E+00  .181E+00  .218E+00  .208E+00  .235E+00  .266E+00
  .239E+00  .299E+00  .340E+00  .465E+00  .500E+00  .639E+00  .427E+00  .845E+00
  .778E+00  .940E+00  .129E+01  .142E+01  .132E+01  .142E+01  .160E+01  .242E+01
  .250E+01  .232E+01  .184E+01  .139E+01  .138E+01  .151E+01  .126E+01  .137E+01
  .147E+01  .162E+01  .236E+01  .225E+01  .324E+01  .209E+01  .255E+01  .298E+01
  .277E+01  .386E+01  .319E+01  .201E+01  .260E+01  .247E+01  .193E+01  .169E+01
  .137E+01  .122E+01  .110E+01  .908E+00  .895E+00  .103E+01  .811E+00  .572E+00
  .583E+00  .728E+00  .809E+00  .695E+00  .630E+00  .713E+00  .828E+00  .832E+00
  .769E+00  .657E+00  .479E+00  .439E+00  .363E+00  .411E+00  .402E+00  .283E+00
  .243E+00  .237E+00  .224E+00  .212E+00  .182E+00  .146E+00  .000E+00  .000E+00
  .000E+00  .000E+00  .000E+00  .000E+00  .000E+00  .000E+00  .000E+00  .000E+00
  .000E+00  .000E+00  .000E+00  .000E+00
  .190E+02  .190E+02  .190E+02  .190E+02  .190E+02  .190E+02  .190E+02  .190E+02
  .190E+02  .190E+02  .190E+02  .188E+02  .190E+02  .190E+02  .190E+02  .190E+02
  .190E+02  .188E+02  .190E+02  .188E+02  .189E+02  .190E+02  .229E+02  .190E+02
  .190E+02  .234E+02  .190E+02  .191E+02  .192E+02  .196E+02  .201E+02  .200E+02
  .194E+02  .193E+02  .191E+02  .191E+02  .191E+02  .191E+02  .191E+02  .283E+02
  .287E+02  .243E+02  .243E+02  .244E+02  .276E+02  .289E+02  .285E+02  .286E+02
  .286E+02  .283E+02  .283E+02  .246E+02  .284E+02  .280E+02  .276E+02  .243E+02
  .244E+02  .365E+02  .405E+02  .308E+02  .281E+02  .276E+02  .270E+02  .271E+02
  .344E+02  .348E+02  .385E+02  .280E+02  .266E+02  .464E+02  .374E+02  .377E+02
  .360E+02  .363E+02  .365E+02  .545E+02  .505E+02  .509E+02  .433E+02  .436E+02
  .413E+02  .350E+02  .239E+02  .239E+02  .239E+02  .239E+02  .000E+00  .000E+00
  .000E+00  .000E+00  .000E+00  .000E+00  .000E+00  .000E+00  .000E+00  .000E+00
  .000E+00  .000E+00  .000E+00  .000E+00
  .190E+02  .189E+02  .189E+02  .188E+02  .189E+02  .189E+02  .190E+02  .190E+02
  .200E+02  .200E+02  .198E+02  .189E+02  .189E+02  .189E+02  .189E+02  .189E+02
  .190E+02  .190E+02  .190E+02  .189E+02  .189E+02  .189E+02  .182E+02  .189E+02
  .203E+02  .234E+02  .191E+02  .192E+02  .192E+02  .195E+02  .202E+02  .201E+02
  .195E+02  .194E+02  .192E+02  .192E+02  .192E+02  .190E+02  .190E+02  .282E+02
  .288E+02  .241E+02  .241E+02  .246E+02  .274E+02  .287E+02  .287E+02  .284E+02
  .284E+02  .285E+02  .281E+02  .243E+02  .281E+02  .277E+02  .273E+02  .269E+02
  .240E+02  .228E+02  .228E+02  .278E+02  .278E+02  .273E+02  .273E+02  .189E+02
  .189E+02  .189E+02  .269E+02  .240E+02  .240E+02  .278E+02  .278E+02  .240E+02
  .240E+02  .240E+02  .273E+02  .273E+02  .273E+02  .273E+02  .189E+02  .189E+02
  .189E+02  .189E+02  .189E+02  .189E+02  .189E+02  .189E+02  .000E+00  .000E+00
  .000E+00  .000E+00  .000E+00  .000E+00  .000E+00  .000E+00  .000E+00  .000E+00
  .000E+00  .000E+00  .000E+00  .000E+00
  .190E+02  .190E+02  .190E+02  .190E+02  .190E+02  .190E+02  .190E+02  .190E+02
  .190E+02  .190E+02  .190E+02  .188E+02  .190E+02  .190E+02  .190E+02  .190E+02
  .190E+02  .188E+02  .190E+02  .188E+02  .189E+02  .190E+02  .229E+02  .190E+02
  .190E+02  .234E+02  .190E+02  .191E+02  .192E+02  .196E+02  .201E+02  .200E+02
  .194E+02  .193E+02  .191E+02  .191E+02  .191E+02  .191E+02  .191E+02  .283E+02
  .287E+02  .243E+02  .243E+02  .244E+02  .276E+02  .288E+02  .285E+02  .286E+02
  .286E+02  .283E+02  .283E+02  .246E+02  .284E+02  .280E+02  .275E+02  .243E+02
  .243E+02  .365E+02  .405E+02  .308E+02  .281E+02  .276E+02  .270E+02  .271E+02
  .344E+02  .348E+02  .385E+02  .280E+02  .266E+02  .464E+02  .374E+02  .377E+02
  .360E+02  .362E+02  .364E+02  .545E+02  .505E+02  .509E+02  .433E+02  .436E+02
  .413E+02  .350E+02  .238E+02  .238E+02  .238E+02  .238E+02  .000E+00  .000E+00
  .000E+00  .000E+00  .000E+00  .000E+00  .000E+00  .000E+00  .000E+00  .000E+00
  .000E+00  .000E+00  .000E+00  .000E+00
Damping =  .05. Data of Sd,Sv,Sa,Pssv,ttSd,ttSv,ttSa :
  .454E-03  .494E-03  .547E-03  .599E-03  .660E-03  .730E-03  .919E-03  .111E-02
