Response and Fourier amplitude spectra (76 periods,  .04 -  5.0 sec)   for      
Corrected accelerogram   24468-M0270-14087.35       Chan  4:  Up         from   
Uncorrected Accelerogram Data             Processed: 03/28/14, CGS  468as035    
Rcrd of Fri Mar 28, 2014 21:09:29.0 PDT               (Avol1 v0.5, 2/14 CSMIP)  
CSMIP Preliminary Processing            (Origin:  To be determined)             
24468-M0270-14087.35                 Start time:  3/29/14, 04:09:29.0 UTC (GPS) 
Station No. 24468   34.066N, 118.169W    MtWtny  s/n  270 (16 Chns of 16 at Sta)
Los Angeles - 8-story CSULA Admin. Bldg.  CGS   Data: Acceleration              
Chan  4:  Up                        Location: 2nd Floor: North End of West Wall 
Rcrd of Fri Mar 28, 2014 21:09:29.0 PDT    Fri Mar 28, 2014 21:09:29.0 PDT      
Hypocenter:  To be determined.               ML:  To be determined.
Instr Period =  .0195 sec,  Damping =  .660,  Sensitivity = 2.52 v/g
                        Record length = 72.000 sec.
                                     Uncor Max  =  -.059 g , at  25.610 sec.
RMS accel of (uncor) record  =        .   Chn. metadata effective date: 03/27/08
Accelerogram bandpass filtered with 3 dB pts at   .20 and 40.00 cyc/sec
                 instrument- and baseline-corrected





Rcrd of Fri Mar 28, 2014 21:09:29.0 PDT    Fri Mar 28, 2014 21:09:29.0 PDT

24468-M0270-14087.35      Los Angeles - 8-story CSULA Admin. Bldg.  CGChan  4:
Up
24468-M0270-14087.35      Los Angeles - 8-story CSULA Admin. Bldg.  CGChan  4:
Up
Units for spectra are inches and sec, except Sa is in fraction of g.

    4  100    4   18   16  200    1    3    1   24   13  270    024468    2    0
    4    9   29    0   88    3   29 2014   10    3  50014400   39   40   74   -1
14400    0  100    3  270    1   35  720    2    0    0    0    0    0    0    0
    0    0    3    0 7200    2  333    1   18    2    0    0    3    1    0 7200
    3 7200    4   76    5   16    5    0    0    0    0    0    1    3    1    2
    2    2    4    0   79   99    0    1    0    0   96    1    0    0    0  222
    1    0    6    0
      .020      .660    72.000      .005      .000  2521.000     -.059    25.610
    51.200      .298      .118      .000     5.000  -999.000     1.000      .000
     2.500    42.300     2.500  -999.000    23.000    30.000  -999.000     -.526
      .228      .753     2.000    15.000    34.066  -118.169      .204      .935
     4.591      .702      .805   150.000    23.500    41.700    13.000    97.160
     1.000    13.082      .000  -999.000  -999.000  -999.000  -999.000      .000
      .100      .500     6.300   980.665      .010    72.000     8.149      .000
      .000    40.000      .000    72.000      .010      .200      .000      .000
    25.600   -57.634    25.650    -2.226    27.790      .175     -.009      .200
    40.000      .010      .010     -.029      .040      .119      .000      .000
      .243      .180      .209      .072      .019      .001      .000      .000
      .000      .000      .000      .000      .000      .000      .000      .000
      .000      .000      .000      .000
      .000      .020      .050      .100      .200
      .040      .042      .044      .046      .048      .050      .055      .060
      .065      .070      .075      .080      .085      .090      .095      .100
      .110      .120      .130      .140      .150      .160      .170      .180
      .190      .200      .220      .240      .260      .280      .300      .320
      .340      .360      .380      .400      .420      .440      .460      .480
      .500      .550      .600      .650      .700      .750      .800      .850
      .900      .950     1.000     1.100     1.200     1.300     1.400     1.500
     1.600     1.700     1.800     1.900     2.000     2.200     2.400     2.600
     2.800     3.000     3.200     3.400     3.600     3.800     4.000     4.200
     4.400     4.600     4.800     5.000      .000      .000      .000      .000
      .000      .000      .000      .000      .000      .000      .000      .000
      .000      .000      .000      .000      .000      .000      .000      .000
      .000      .000      .000      .000
Fourier amplitude spectra in in/sec.
  .176E+00  .435E-01  .114E+00  .775E-01  .275E-01  .760E-01  .519E-01  .135E+00
  .222E-01  .105E+00  .841E-01  .144E+00  .219E+00  .641E-01  .229E+00  .289E+00
  .345E+00  .913E+00  .672E+00  .379E+00  .323E+01  .108E+00  .344E+01  .120E+02
  .797E+01  .325E+01  .600E+01  .501E+01  .171E+01  .196E+01  .987E+00  .989E+00
  .227E+01  .117E+01  .106E+01  .119E+01  .950E+01  .210E+00  .986E+00  .339E+01
  .553E+00  .166E+01  .855E+00  .274E+01  .288E+01  .120E+01  .133E+01  .390E+01
  .295E+01  .216E+01  .116E+01  .354E+01  .190E+01  .361E+01  .419E+01  .139E+01
  .297E+00  .274E+00  .906E-01  .510E-01  .284E+00  .437E+00  .108E+00  .300E+00
  .235E+00  .182E+00  .372E+00  .308E+00  .321E+00  .141E+00  .202E+00  .178E+00
  .293E+00  .263E+00  .152E+00  .113E+00  .000E+00  .000E+00  .000E+00  .000E+00
  .000E+00  .000E+00  .000E+00  .000E+00  .000E+00  .000E+00  .000E+00  .000E+00
  .000E+00  .000E+00  .000E+00  .000E+00  .000E+00  .000E+00  .000E+00  .000E+00
  .000E+00  .000E+00  .000E+00  .000E+00
Damping =  .00. Data of Sd,Sv,Sa,Pssv,ttSd,ttSv,ttSa :
  .140E-02  .111E-02  .144E-02  .136E-02  .153E-02  .191E-02  .214E-02  .257E-02
  .258E-02  .361E-02  .441E-02  .427E-02  .534E-02  .700E-02  .817E-02  .128E-01
  .115E-01  .187E-01  .228E-01  .282E-01  .786E-01  .591E-01  .127E+00  .371E+00
  .307E+00  .194E+00  .224E+00  .205E+00  .120E+00  .117E+00  .747E-01  .888E-01
  .151E+00  .149E+00  .191E+00  .202E+00  .689E+00  .256E+00  .260E+00  .265E+00
  .178E+00  .233E+00  .177E+00  .358E+00  .401E+00  .227E+00  .251E+00  .649E+00
  .523E+00  .411E+00  .376E+00  .622E+00  .430E+00  .748E+00  .121E+01  .502E+00
  .255E+00  .209E+00  .172E+00  .144E+00  .150E+00  .266E+00  .163E+00  .148E+00
  .134E+00  .128E+00  .190E+00  .238E+00  .187E+00  .230E+00  .173E+00  .166E+00
  .257E+00  .211E+00  .192E+00  .208E+00  .000E+00  .000E+00  .000E+00  .000E+00
  .000E+00  .000E+00  .000E+00  .000E+00  .000E+00  .000E+00  .000E+00  .000E+00
  .000E+00  .000E+00  .000E+00  .000E+00  .000E+00  .000E+00  .000E+00  .000E+00
  .000E+00  .000E+00  .000E+00  .000E+00
  .176E+00  .548E-01  .119E+00  .988E-01  .741E-01  .965E-01  .812E-01  .176E+00
  .109E+00  .157E+00  .215E+00  .162E+00  .263E+00  .317E+00  .393E+00  .512E+00
  .453E+00  .947E+00  .821E+00  .103E+01  .330E+01  .215E+01  .453E+01  .130E+02
  .102E+02  .615E+01  .635E+01  .527E+01  .312E+01  .259E+01  .157E+01  .173E+01
  .278E+01  .254E+01  .360E+01  .337E+01  .103E+02  .368E+01  .361E+01  .346E+01
  .233E+01  .270E+01  .225E+01  .345E+01  .363E+01  .209E+01  .201E+01  .474E+01
  .373E+01  .275E+01  .236E+01  .355E+01  .224E+01  .361E+01  .542E+01  .229E+01
  .117E+01  .101E+01  .945E+00  .892E+00  .103E+01  .105E+01  .107E+01  .921E+00
  .852E+00  .864E+00  .840E+00  .818E+00  .773E+00  .101E+01  .999E+00  .802E+00
  .744E+00  .789E+00  .800E+00  .771E+00  .000E+00  .000E+00  .000E+00  .000E+00
  .000E+00  .000E+00  .000E+00  .000E+00  .000E+00  .000E+00  .000E+00  .000E+00
  .000E+00  .000E+00  .000E+00  .000E+00  .000E+00  .000E+00  .000E+00  .000E+00
  .000E+00  .000E+00  .000E+00  .000E+00
  .894E-01  .644E-01  .760E-01  .658E-01  .679E-01  .781E-01  .723E-01  .729E-01
  .625E-01  .753E-01  .801E-01  .683E-01  .756E-01  .884E-01  .926E-01  .131E+00
  .968E-01  .132E+00  .138E+00  .147E+00  .357E+00  .236E+00  .448E+00  .117E+01
  .870E+00  .496E+00  .474E+00  .363E+00  .181E+00  .153E+00  .848E-01  .886E-01
  .133E+00  .118E+00  .135E+00  .129E+00  .400E+00  .135E+00  .126E+00  .118E+00
  .727E-01  .789E-01  .502E-01  .868E-01  .838E-01  .412E-01  .400E-01  .919E-01
  .661E-01  .466E-01  .384E-01  .526E-01  .305E-01  .452E-01  .632E-01  .228E-01
  .102E-01  .741E-02  .543E-02  .409E-02  .384E-02  .561E-02  .289E-02  .224E-02
  .174E-02  .146E-02  .189E-02  .211E-02  .147E-02  .163E-02  .110E-02  .962E-03
  .136E-02  .102E-02  .853E-03  .850E-03  .000E+00  .000E+00  .000E+00  .000E+00
  .000E+00  .000E+00  .000E+00  .000E+00  .000E+00  .000E+00  .000E+00  .000E+00
  .000E+00  .000E+00  .000E+00  .000E+00  .000E+00  .000E+00  .000E+00  .000E+00
  .000E+00  .000E+00  .000E+00  .000E+00
  .220E+00  .166E+00  .205E+00  .186E+00  .200E+00  .240E+00  .244E+00  .269E+00
  .250E+00  .324E+00  .369E+00  .336E+00  .395E+00  .489E+00  .541E+00  .804E+00
  .654E+00  .977E+00  .110E+01  .126E+01  .329E+01  .232E+01  .468E+01  .130E+02
  .102E+02  .610E+01  .641E+01  .535E+01  .290E+01  .263E+01  .156E+01  .174E+01
  .279E+01  .260E+01  .316E+01  .317E+01  .103E+02  .366E+01  .356E+01  .347E+01
  .223E+01  .267E+01  .185E+01  .346E+01  .360E+01  .190E+01  .197E+01  .480E+01
  .365E+01  .272E+01  .236E+01  .356E+01  .225E+01  .361E+01  .543E+01  .210E+01
  .100E+01  .774E+00  .600E+00  .477E+00  .472E+00  .759E+00  .426E+00  .358E+00
  .300E+00  .268E+00  .372E+00  .440E+00  .326E+00  .381E+00  .271E+00  .248E+00
  .367E+00  .289E+00  .251E+00  .261E+00  .000E+00  .000E+00  .000E+00  .000E+00
  .000E+00  .000E+00  .000E+00  .000E+00  .000E+00  .000E+00  .000E+00  .000E+00
  .000E+00  .000E+00  .000E+00  .000E+00  .000E+00  .000E+00  .000E+00  .000E+00
  .000E+00  .000E+00  .000E+00  .000E+00
  .256E+02  .256E+02  .256E+02  .256E+02  .256E+02  .256E+02  .256E+02  .265E+02
  .256E+02  .256E+02  .256E+02  .256E+02  .257E+02  .257E+02  .265E+02  .256E+02
  .256E+02  .414E+02  .256E+02  .256E+02  .307E+02  .257E+02  .299E+02  .289E+02
  .277E+02  .261E+02  .313E+02  .301E+02  .265E+02  .289E+02  .355E+02  .307E+02
  .309E+02  .307E+02  .264E+02  .287E+02  .430E+02  .279E+02  .311E+02  .688E+02
  .278E+02  .294E+02  .294E+02  .504E+02  .345E+02  .308E+02  .284E+02  .516E+02
  .350E+02  .537E+02  .315E+02  .709E+02  .664E+02  .711E+02  .437E+02  .392E+02
  .306E+02  .307E+02  .333E+02  .327E+02  .301E+02  .371E+02  .278E+02  .610E+02
  .632E+02  .398E+02  .728E+02  .544E+02  .690E+02  .413E+02  .312E+02  .306E+02
  .619E+02  .683E+02  .364E+02  .365E+02  .000E+00  .000E+00  .000E+00  .000E+00
  .000E+00  .000E+00  .000E+00  .000E+00  .000E+00  .000E+00  .000E+00  .000E+00
  .000E+00  .000E+00  .000E+00  .000E+00  .000E+00  .000E+00  .000E+00  .000E+00
  .000E+00  .000E+00  .000E+00  .000E+00
  .702E+02  .346E+02  .492E+02  .357E+02  .256E+02  .255E+02  .255E+02  .268E+02
  .256E+02  .256E+02  .256E+02  .379E+02  .268E+02  .255E+02  .265E+02  .256E+02
  .298E+02  .468E+02  .255E+02  .256E+02  .442E+02  .257E+02  .298E+02  .291E+02
  .277E+02  .261E+02  .313E+02  .301E+02  .265E+02  .289E+02  .264E+02  .304E+02
  .310E+02  .310E+02  .257E+02  .264E+02  .428E+02  .278E+02  .312E+02  .687E+02
  .256E+02  .295E+02  .255E+02  .502E+02  .357E+02  .310E+02  .283E+02  .519E+02
  .343E+02  .473E+02  .322E+02  .712E+02  .667E+02  .720E+02  .440E+02  .395E+02
  .302E+02  .256E+02  .276E+02  .256E+02  .256E+02  .256E+02  .256E+02  .256E+02
  .256E+02  .256E+02  .256E+02  .256E+02  .256E+02  .256E+02  .256E+02  .256E+02
  .256E+02  .256E+02  .256E+02  .256E+02  .000E+00  .000E+00  .000E+00  .000E+00
  .000E+00  .000E+00  .000E+00  .000E+00  .000E+00  .000E+00  .000E+00  .000E+00
  .000E+00  .000E+00  .000E+00  .000E+00  .000E+00  .000E+00  .000E+00  .000E+00
  .000E+00  .000E+00  .000E+00  .000E+00
  .256E+02  .256E+02  .256E+02  .256E+02  .256E+02  .256E+02  .256E+02  .265E+02
  .256E+02  .256E+02  .256E+02  .256E+02  .257E+02  .257E+02  .265E+02  .256E+02
  .256E+02  .414E+02  .256E+02  .256E+02  .307E+02  .257E+02  .299E+02  .289E+02
  .277E+02  .261E+02  .313E+02  .301E+02  .265E+02  .289E+02  .355E+02  .307E+02
  .309E+02  .307E+02  .264E+02  .287E+02  .430E+02  .279E+02  .311E+02  .688E+02
  .278E+02  .294E+02  .294E+02  .504E+02  .345E+02  .308E+02  .284E+02  .516E+02
  .350E+02  .537E+02  .315E+02  .709E+02  .664E+02  .711E+02  .437E+02  .392E+02
  .306E+02  .307E+02  .333E+02  .327E+02  .301E+02  .371E+02  .278E+02  .610E+02
  .632E+02  .398E+02  .728E+02  .544E+02  .690E+02  .413E+02  .312E+02  .306E+02
  .619E+02  .683E+02  .364E+02  .365E+02  .000E+00  .000E+00  .000E+00  .000E+00
  .000E+00  .000E+00  .000E+00  .000E+00  .000E+00  .000E+00  .000E+00  .000E+00
  .000E+00  .000E+00  .000E+00  .000E+00  .000E+00  .000E+00  .000E+00  .000E+00
  .000E+00  .000E+00  .000E+00  .000E+00
Damping =  .02. Data of Sd,Sv,Sa,Pssv,ttSd,ttSv,ttSa :
  .104E-02  .115E-02  .122E-02  .127E-02  .147E-02  .158E-02  .186E-02  .212E-02
  .256E-02  .310E-02  .366E-02  .456E-02  .525E-02  .566E-02  .762E-02  .102E-01
  .105E-01  .155E-01  .221E-01  .320E-01  .422E-01  .642E-01  .855E-01  .131E+00
  .132E+00  .131E+00  .107E+00  .101E+00  .917E-01  .786E-01  .640E-01  .692E-01
  .109E+00  .112E+00  .143E+00  .162E+00  .207E+00  .161E+00  .145E+00  .147E+00
  .135E+00  .163E+00  .141E+00  .191E+00  .228E+00  .178E+00  .194E+00  .305E+00
  .330E+00  .223E+00  .266E+00  .292E+00  .289E+00  .436E+00  .586E+00  .343E+00
  .226E+00  .182E+00  .144E+00  .131E+00  .132E+00  .198E+00  .141E+00  .115E+00
  .901E-01  .103E+00  .123E+00  .158E+00  .118E+00  .151E+00  .116E+00  .126E+00
  .140E+00  .159E+00  .171E+00  .172E+00  .000E+00  .000E+00  .000E+00  .000E+00
  .000E+00  .000E+00  .000E+00  .000E+00  .000E+00  .000E+00  .000E+00  .000E+00
  .000E+00  .000E+00  .000E+00  .000E+00  .000E+00  .000E+00  .000E+00  .000E+00
  .000E+00  .000E+00  .000E+00  .000E+00
  .443E-01  .443E-01  .422E-01  .422E-01  .487E-01  .594E-01  .695E-01  .101E+00
  .105E+00  .117E+00  .130E+00  .156E+00  .168E+00  .212E+00  .318E+00  .373E+00
  .375E+00  .515E+00  .805E+00  .121E+01  .156E+01  .233E+01  .300E+01  .448E+01
  .439E+01  .409E+01  .314E+01  .279E+01  .246E+01  .189E+01  .151E+01  .148E+01
  .210E+01  .235E+01  .284E+01  .260E+01  .307E+01  .269E+01  .255E+01  .235E+01
  .219E+01  .187E+01  .193E+01  .183E+01  .216E+01  .159E+01  .161E+01  .225E+01
  .245E+01  .145E+01  .162E+01  .170E+01  .183E+01  .230E+01  .264E+01  .167E+01
  .110E+01  .966E+00  .882E+00  .919E+00  .974E+00  .102E+01  .105E+01  .926E+00
  .869E+00  .869E+00  .846E+00  .829E+00  .823E+00  .950E+00  .948E+00  .833E+00
  .781E+00  .794E+00  .799E+00  .784E+00  .000E+00  .000E+00  .000E+00  .000E+00
  .000E+00  .000E+00  .000E+00  .000E+00  .000E+00  .000E+00  .000E+00  .000E+00
  .000E+00  .000E+00  .000E+00  .000E+00  .000E+00  .000E+00  .000E+00  .000E+00
  .000E+00  .000E+00  .000E+00  .000E+00
  .668E-01  .666E-01  .643E-01  .616E-01  .651E-01  .646E-01  .628E-01  .604E-01
  .619E-01  .647E-01  .665E-01  .728E-01  .744E-01  .715E-01  .865E-01  .105E+00
  .885E-01  .110E+00  .134E+00  .167E+00  .192E+00  .258E+00  .301E+00  .414E+00
  .374E+00  .336E+00  .225E+00  .180E+00  .139E+00  .102E+00  .726E-01  .692E-01
  .961E-01  .884E-01  .102E+00  .104E+00  .120E+00  .847E-01  .704E-01  .651E-01
  .553E-01  .551E-01  .401E-01  .462E-01  .476E-01  .324E-01  .310E-01  .432E-01
  .417E-01  .253E-01  .272E-01  .247E-01  .206E-01  .264E-01  .306E-01  .156E-01
  .902E-02  .644E-02  .455E-02  .372E-02  .339E-02  .420E-02  .253E-02  .176E-02
  .118E-02  .118E-02  .123E-02  .141E-02  .933E-03  .107E-02  .757E-03  .761E-03
  .749E-03  .771E-03  .760E-03  .709E-03  .000E+00  .000E+00  .000E+00  .000E+00
  .000E+00  .000E+00  .000E+00  .000E+00  .000E+00  .000E+00  .000E+00  .000E+00
  .000E+00  .000E+00  .000E+00  .000E+00  .000E+00  .000E+00  .000E+00  .000E+00
  .000E+00  .000E+00  .000E+00  .000E+00
  .164E+00  .172E+00  .174E+00  .174E+00  .192E+00  .199E+00  .212E+00  .222E+00
  .247E+00  .278E+00  .307E+00  .358E+00  .388E+00  .395E+00  .504E+00  .642E+00
  .599E+00  .810E+00  .107E+01  .144E+01  .177E+01  .252E+01  .316E+01  .456E+01
  .436E+01  .411E+01  .305E+01  .265E+01  .222E+01  .176E+01  .134E+01  .136E+01
  .201E+01  .196E+01  .237E+01  .255E+01  .310E+01  .229E+01  .198E+01  .192E+01
  .170E+01  .186E+01  .148E+01  .184E+01  .204E+01  .149E+01  .152E+01  .225E+01
  .230E+01  .148E+01  .167E+01  .167E+01  .152E+01  .211E+01  .263E+01  .144E+01
  .886E+00  .671E+00  .502E+00  .434E+00  .416E+00  .567E+00  .370E+00  .279E+00
  .202E+00  .217E+00  .242E+00  .293E+00  .205E+00  .249E+00  .182E+00  .189E+00
  .201E+00  .217E+00  .224E+00  .217E+00  .000E+00  .000E+00  .000E+00  .000E+00
  .000E+00  .000E+00  .000E+00  .000E+00  .000E+00  .000E+00  .000E+00  .000E+00
  .000E+00  .000E+00  .000E+00  .000E+00  .000E+00  .000E+00  .000E+00  .000E+00
  .000E+00  .000E+00  .000E+00  .000E+00
  .256E+02  .256E+02  .256E+02  .256E+02  .256E+02  .256E+02  .256E+02  .256E+02
  .256E+02  .256E+02  .256E+02  .256E+02  .256E+02  .257E+02  .256E+02  .256E+02
  .256E+02  .256E+02  .256E+02  .257E+02  .257E+02  .257E+02  .259E+02  .266E+02
  .270E+02  .259E+02  .269E+02  .267E+02  .265E+02  .264E+02  .258E+02  .258E+02
  .258E+02  .258E+02  .257E+02  .257E+02  .316E+02  .257E+02  .260E+02  .303E+02
  .260E+02  .294E+02  .254E+02  .302E+02  .310E+02  .308E+02  .284E+02  .343E+02
  .340E+02  .341E+02  .315E+02  .373E+02  .293E+02  .342E+02  .430E+02  .333E+02
  .306E+02  .301E+02  .301E+02  .327E+02  .327E+02  .371E+02  .278E+02  .278E+02
  .328E+02  .398E+02  .523E+02  .543E+02  .307E+02  .393E+02  .312E+02  .306E+02
  .307E+02  .363E+02  .364E+02  .365E+02  .000E+00  .000E+00  .000E+00  .000E+00
  .000E+00  .000E+00  .000E+00  .000E+00  .000E+00  .000E+00  .000E+00  .000E+00
  .000E+00  .000E+00  .000E+00  .000E+00  .000E+00  .000E+00  .000E+00  .000E+00
  .000E+00  .000E+00  .000E+00  .000E+00
  .255E+02  .256E+02  .256E+02  .256E+02  .255E+02  .255E+02  .256E+02  .256E+02
  .256E+02  .256E+02  .257E+02  .256E+02  .256E+02  .255E+02  .256E+02  .256E+02
  .256E+02  .255E+02  .256E+02  .256E+02  .257E+02  .258E+02  .258E+02  .267E+02
  .269E+02  .260E+02  .269E+02  .266E+02  .265E+02  .264E+02  .258E+02  .258E+02
  .257E+02  .257E+02  .257E+02  .258E+02  .315E+02  .256E+02  .256E+02  .256E+02
  .256E+02  .293E+02  .255E+02  .253E+02  .312E+02  .310E+02  .283E+02  .336E+02
  .342E+02  .339E+02  .308E+02  .376E+02  .291E+02  .339E+02  .426E+02  .373E+02
  .302E+02  .256E+02  .256E+02  .256E+02  .256E+02  .256E+02  .256E+02  .256E+02
  .256E+02  .256E+02  .256E+02  .256E+02  .256E+02  .256E+02  .256E+02  .256E+02
  .256E+02  .256E+02  .256E+02  .256E+02  .000E+00  .000E+00  .000E+00  .000E+00
  .000E+00  .000E+00  .000E+00  .000E+00  .000E+00  .000E+00  .000E+00  .000E+00
  .000E+00  .000E+00  .000E+00  .000E+00  .000E+00  .000E+00  .000E+00  .000E+00
  .000E+00  .000E+00  .000E+00  .000E+00
  .256E+02  .256E+02  .256E+02  .256E+02  .256E+02  .256E+02  .256E+02  .256E+02
  .256E+02  .256E+02  .256E+02  .256E+02  .256E+02  .257E+02  .256E+02  .256E+02
  .256E+02  .256E+02  .256E+02  .257E+02  .257E+02  .257E+02  .259E+02  .266E+02
  .269E+02  .259E+02  .269E+02  .267E+02  .265E+02  .264E+02  .258E+02  .258E+02
  .258E+02  .258E+02  .257E+02  .257E+02  .316E+02  .257E+02  .260E+02  .303E+02
  .260E+02  .294E+02  .254E+02  .302E+02  .310E+02  .308E+02  .284E+02  .343E+02
  .340E+02  .341E+02  .315E+02  .373E+02  .293E+02  .342E+02  .430E+02  .333E+02
  .306E+02  .300E+02  .301E+02  .327E+02  .327E+02  .371E+02  .278E+02  .278E+02
  .328E+02  .398E+02  .522E+02  .543E+02  .306E+02  .393E+02  .312E+02  .256E+02
  .306E+02  .363E+02  .364E+02  .365E+02  .000E+00  .000E+00  .000E+00  .000E+00
  .000E+00  .000E+00  .000E+00  .000E+00  .000E+00  .000E+00  .000E+00  .000E+00
  .000E+00  .000E+00  .000E+00  .000E+00  .000E+00  .000E+00  .000E+00  .000E+00
  .000E+00  .000E+00  .000E+00  .000E+00
Damping =  .05. Data of Sd,Sv,Sa,Pssv,ttSd,ttSv,ttSa :
  .998E-03  .111E-02  .120E-02  .130E-02  .143E-02  .154E-02  .183E-02  .213E-02
