Response and Fourier amplitude spectra (76 periods,  .04 -  5.0 sec)   for      
Corrected accelerogram   24468-M0270-14087.35       Chan  6:  90 Deg     from   
Uncorrected Accelerogram Data             Processed: 03/28/14, CGS  468as035    
Rcrd of Fri Mar 28, 2014 21:09:29.0 PDT               (Avol1 v0.5, 2/14 CSMIP)  
CSMIP Preliminary Processing            (Origin:  To be determined)             
24468-M0270-14087.35                 Start time:  3/29/14, 04:09:29.0 UTC (GPS) 
Station No. 24468   34.066N, 118.169W    MtWtny  s/n  270 (16 Chns of 16 at Sta)
Los Angeles - 8-story CSULA Admin. Bldg.  CGS   Data: Acceleration              
Chan  6:  90 DegR                   Location: Roof: Center Wall                 
Rcrd of Fri Mar 28, 2014 21:09:29.0 PDT    Fri Mar 28, 2014 21:09:29.0 PDT      
Hypocenter:  To be determined.               ML:  To be determined.
Instr Period =  .0194 sec,  Damping =  .700,  Sensitivity = 2.50 v/g
                        Record length = 72.000 sec.
                                     Uncor Max  =   .034 g , at  33.875 sec.
RMS accel of (uncor) record  =        .   Chn. metadata effective date: 03/27/08
Accelerogram bandpass filtered with 3 dB pts at   .20 and 40.00 cyc/sec
                 instrument- and baseline-corrected





Rcrd of Fri Mar 28, 2014 21:09:29.0 PDT    Fri Mar 28, 2014 21:09:29.0 PDT

24468-M0270-14087.35      Los Angeles - 8-story CSULA Admin. Bldg.  CGChan  6:
90 Deg
24468-M0270-14087.35      Los Angeles - 8-story CSULA Admin. Bldg.  CGChan  6:
90 Deg
Units for spectra are inches and sec, except Sa is in fraction of g.

    6  100    6   18   16  200    1    3    1   24   13  270    024468    2    0
    4    9   29    0   88    3   29 2014   10    3   9014400   39   40   74   -1
14400    0  100    3  270    1   35  720    2    0    0    0    0    0    0    0
    0    0    3    0 7200    2  333    1   18    2    0    0    3    1    0 7200
    3 7200    4   76    5   16    5    0    0    0    0    0    1    3    1    2
    2    2    4    0   79   99    0    1    0    0   96    1    0    0    0  222
    1    0    6    0
      .019      .700    72.000      .005      .000  2499.000      .034    33.875
    51.600      .298      .119      .000     5.000  -999.000     1.000      .000
     2.500    -9.355     2.500  -999.000    23.000    30.000  -999.000     -.001
     -.007     -.006     2.000    15.000    34.066  -118.169      .056     1.626
    29.284     -.083      .071   150.000    23.500    41.700    13.000    97.160
     1.000     1.266      .000  -999.000  -999.000  -999.000  -999.000      .000
      .100      .500     6.300   980.665      .010    72.000     8.212      .000
      .000    40.000      .000    72.000      .010      .200      .000      .000
    33.870    33.192    34.010     3.933    33.820     -.720      .000      .200
    40.000      .010      .010      .000      .010      .307      .000      .000
      .106     1.300      .090      .051      .060      .005      .000      .000
      .000      .000      .000      .000      .000      .000      .000      .000
      .000      .000      .000      .000
      .000      .020      .050      .100      .200
      .040      .042      .044      .046      .048      .050      .055      .060
      .065      .070      .075      .080      .085      .090      .095      .100
      .110      .120      .130      .140      .150      .160      .170      .180
      .190      .200      .220      .240      .260      .280      .300      .320
      .340      .360      .380      .400      .420      .440      .460      .480
      .500      .550      .600      .650      .700      .750      .800      .850
      .900      .950     1.000     1.100     1.200     1.300     1.400     1.500
     1.600     1.700     1.800     1.900     2.000     2.200     2.400     2.600
     2.800     3.000     3.200     3.400     3.600     3.800     4.000     4.200
     4.400     4.600     4.800     5.000      .000      .000      .000      .000
      .000      .000      .000      .000      .000      .000      .000      .000
      .000      .000      .000      .000      .000      .000      .000      .000
      .000      .000      .000      .000
Fourier amplitude spectra in in/sec.
  .463E-02  .125E-01  .200E-01  .148E-01  .273E-02  .265E-01  .493E-01  .792E-01
  .530E-01  .205E-01  .763E-01  .690E-01  .504E-01  .102E+00  .431E-01  .141E+00
  .218E+00  .174E+00  .218E+00  .333E+00  .340E+00  .151E+00  .368E+00  .777E+00
  .242E+00  .170E+01  .336E+01  .235E+01  .227E+01  .112E+01  .180E+01  .657E+00
  .893E+00  .206E+01  .271E+01  .488E+01  .847E+01  .676E+01  .465E+01  .394E+01
  .435E+01  .450E+01  .899E+00  .232E+01  .791E+01  .703E+01  .871E+01  .157E+01
  .227E+01  .542E+01  .876E+01  .794E+01  .885E+01  .253E+02  .542E+01  .274E+01
  .220E+01  .253E+01  .168E+01  .142E+01  .121E+01  .183E+01  .488E+00  .129E+00
  .123E+01  .636E+00  .447E+00  .529E+00  .369E+00  .648E+00  .896E+00  .406E+00
  .248E+00  .476E+00  .522E+00  .439E+00  .000E+00  .000E+00  .000E+00  .000E+00
  .000E+00  .000E+00  .000E+00  .000E+00  .000E+00  .000E+00  .000E+00  .000E+00
  .000E+00  .000E+00  .000E+00  .000E+00  .000E+00  .000E+00  .000E+00  .000E+00
  .000E+00  .000E+00  .000E+00  .000E+00
Damping =  .00. Data of Sd,Sv,Sa,Pssv,ttSd,ttSv,ttSa :
  .576E-03  .700E-03  .728E-03  .741E-03  .882E-03  .105E-02  .120E-02  .175E-02
  .174E-02  .174E-02  .261E-02  .300E-02  .288E-02  .418E-02  .354E-02  .566E-02
  .796E-02  .704E-02  .813E-02  .138E-01  .157E-01  .128E-01  .224E-01  .330E-01
  .257E-01  .738E-01  .144E+00  .112E+00  .959E-01  .583E-01  .121E+00  .546E-01
  .140E+00  .192E+00  .281E+00  .404E+00  .569E+00  .561E+00  .518E+00  .348E+00
  .376E+00  .415E+00  .212E+00  .475E+00  .113E+01  .123E+01  .127E+01  .462E+00
  .496E+00  .840E+00  .150E+01  .144E+01  .297E+01  .541E+01  .177E+01  .159E+01
  .121E+01  .843E+00  .721E+00  .732E+00  .692E+00  .683E+00  .604E+00  .478E+00
  .582E+00  .547E+00  .554E+00  .490E+00  .534E+00  .524E+00  .604E+00  .481E+00
  .443E+00  .426E+00  .441E+00  .420E+00  .000E+00  .000E+00  .000E+00  .000E+00
  .000E+00  .000E+00  .000E+00  .000E+00  .000E+00  .000E+00  .000E+00  .000E+00
  .000E+00  .000E+00  .000E+00  .000E+00  .000E+00  .000E+00  .000E+00  .000E+00
  .000E+00  .000E+00  .000E+00  .000E+00
  .148E-01  .245E-01  .244E-01  .213E-01  .251E-01  .398E-01  .497E-01  .791E-01
  .533E-01  .415E-01  .998E-01  .907E-01  .871E-01  .134E+00  .943E-01  .213E+00
  .284E+00  .215E+00  .255E+00  .422E+00  .426E+00  .376E+00  .750E+00  .943E+00
  .716E+00  .208E+01  .395E+01  .271E+01  .227E+01  .127E+01  .234E+01  .105E+01
  .234E+01  .324E+01  .438E+01  .608E+01  .846E+01  .786E+01  .681E+01  .452E+01
  .469E+01  .477E+01  .203E+01  .441E+01  .959E+01  .968E+01  .994E+01  .343E+01
  .312E+01  .551E+01  .942E+01  .815E+01  .155E+02  .262E+02  .837E+01  .727E+01
  .569E+01  .389E+01  .326E+01  .308E+01  .305E+01  .294E+01  .253E+01  .216E+01
  .198E+01  .209E+01  .228E+01  .223E+01  .205E+01  .187E+01  .178E+01  .174E+01
  .170E+01  .166E+01  .165E+01  .164E+01  .000E+00  .000E+00  .000E+00  .000E+00
  .000E+00  .000E+00  .000E+00  .000E+00  .000E+00  .000E+00  .000E+00  .000E+00
  .000E+00  .000E+00  .000E+00  .000E+00  .000E+00  .000E+00  .000E+00  .000E+00
  .000E+00  .000E+00  .000E+00  .000E+00
  .368E-01  .406E-01  .384E-01  .358E-01  .392E-01  .430E-01  .405E-01  .497E-01
  .421E-01  .363E-01  .475E-01  .480E-01  .408E-01  .528E-01  .401E-01  .579E-01
  .673E-01  .500E-01  .492E-01  .718E-01  .714E-01  .512E-01  .791E-01  .104E+00
  .728E-01  .189E+00  .304E+00  .199E+00  .145E+00  .761E-01  .138E+00  .546E-01
  .124E+00  .151E+00  .199E+00  .258E+00  .330E+00  .296E+00  .250E+00  .155E+00
  .154E+00  .140E+00  .603E-01  .115E+00  .236E+00  .223E+00  .203E+00  .655E-01
  .627E-01  .952E-01  .153E+00  .121E+00  .211E+00  .327E+00  .924E-01  .723E-01
  .483E-01  .298E-01  .228E-01  .207E-01  .177E-01  .144E-01  .107E-01  .724E-02
  .759E-02  .622E-02  .553E-02  .433E-02  .422E-02  .371E-02  .386E-02  .279E-02
  .234E-02  .206E-02  .196E-02  .172E-02  .000E+00  .000E+00  .000E+00  .000E+00
  .000E+00  .000E+00  .000E+00  .000E+00  .000E+00  .000E+00  .000E+00  .000E+00
  .000E+00  .000E+00  .000E+00  .000E+00  .000E+00  .000E+00  .000E+00  .000E+00
  .000E+00  .000E+00  .000E+00  .000E+00
  .905E-01  .105E+00  .104E+00  .101E+00  .115E+00  .132E+00  .137E+00  .183E+00
  .168E+00  .156E+00  .219E+00  .236E+00  .213E+00  .292E+00  .234E+00  .356E+00
  .455E+00  .368E+00  .393E+00  .618E+00  .658E+00  .503E+00  .826E+00  .115E+01
  .850E+00  .232E+01  .411E+01  .293E+01  .232E+01  .131E+01  .254E+01  .107E+01
  .259E+01  .335E+01  .464E+01  .634E+01  .851E+01  .801E+01  .707E+01  .456E+01
  .472E+01  .474E+01  .222E+01  .459E+01  .102E+02  .103E+02  .999E+01  .342E+01
  .347E+01  .555E+01  .940E+01  .820E+01  .156E+02  .261E+02  .795E+01  .666E+01
  .475E+01  .311E+01  .252E+01  .242E+01  .217E+01  .195E+01  .158E+01  .116E+01
  .131E+01  .115E+01  .109E+01  .905E+00  .933E+00  .866E+00  .949E+00  .719E+00
  .632E+00  .581E+00  .577E+00  .528E+00  .000E+00  .000E+00  .000E+00  .000E+00
  .000E+00  .000E+00  .000E+00  .000E+00  .000E+00  .000E+00  .000E+00  .000E+00
  .000E+00  .000E+00  .000E+00  .000E+00  .000E+00  .000E+00  .000E+00  .000E+00
  .000E+00  .000E+00  .000E+00  .000E+00
  .339E+02  .339E+02  .339E+02  .339E+02  .339E+02  .338E+02  .339E+02  .339E+02
  .339E+02  .339E+02  .338E+02  .339E+02  .338E+02  .339E+02  .338E+02  .338E+02
  .338E+02  .345E+02  .406E+02  .339E+02  .338E+02  .345E+02  .255E+02  .352E+02
  .253E+02  .314E+02  .338E+02  .345E+02  .666E+02  .575E+02  .339E+02  .345E+02
  .339E+02  .347E+02  .333E+02  .352E+02  .397E+02  .463E+02  .362E+02  .576E+02
  .579E+02  .482E+02  .318E+02  .299E+02  .337E+02  .343E+02  .389E+02  .307E+02
  .325E+02  .683E+02  .637E+02  .690E+02  .370E+02  .607E+02  .383E+02  .363E+02
  .344E+02  .332E+02  .318E+02  .463E+02  .351E+02  .344E+02  .338E+02  .331E+02
  .690E+02  .344E+02  .344E+02  .337E+02  .338E+02  .338E+02  .683E+02  .406E+02
  .406E+02  .457E+02  .629E+02  .588E+02  .000E+00  .000E+00  .000E+00  .000E+00
  .000E+00  .000E+00  .000E+00  .000E+00  .000E+00  .000E+00  .000E+00  .000E+00
  .000E+00  .000E+00  .000E+00  .000E+00  .000E+00  .000E+00  .000E+00  .000E+00
  .000E+00  .000E+00  .000E+00  .000E+00
  .252E+02  .339E+02  .252E+02  .274E+02  .258E+02  .338E+02  .693E+02  .659E+02
  .701E+02  .265E+02  .252E+02  .255E+02  .256E+02  .339E+02  .252E+02  .253E+02
  .338E+02  .259E+02  .414E+02  .407E+02  .338E+02  .271E+02  .254E+02  .352E+02
  .252E+02  .315E+02  .336E+02  .349E+02  .669E+02  .583E+02  .340E+02  .251E+02
  .334E+02  .346E+02  .334E+02  .353E+02  .707E+02  .464E+02  .361E+02  .587E+02
  .581E+02  .481E+02  .270E+02  .298E+02  .335E+02  .341E+02  .411E+02  .309E+02
  .323E+02  .681E+02  .610E+02  .693E+02  .373E+02  .610E+02  .386E+02  .360E+02
  .340E+02  .321E+02  .321E+02  .354E+02  .346E+02  .340E+02  .340E+02  .334E+02
  .346E+02  .340E+02  .340E+02  .340E+02  .340E+02  .340E+02  .334E+02  .334E+02
  .334E+02  .334E+02  .334E+02  .334E+02  .000E+00  .000E+00  .000E+00  .000E+00
  .000E+00  .000E+00  .000E+00  .000E+00  .000E+00  .000E+00  .000E+00  .000E+00
  .000E+00  .000E+00  .000E+00  .000E+00  .000E+00  .000E+00  .000E+00  .000E+00
  .000E+00  .000E+00  .000E+00  .000E+00
  .339E+02  .339E+02  .339E+02  .339E+02  .339E+02  .338E+02  .339E+02  .339E+02
  .339E+02  .339E+02  .338E+02  .339E+02  .338E+02  .339E+02  .338E+02  .338E+02
  .338E+02  .345E+02  .406E+02  .339E+02  .338E+02  .345E+02  .255E+02  .352E+02
  .253E+02  .314E+02  .338E+02  .345E+02  .666E+02  .575E+02  .339E+02  .345E+02
  .339E+02  .347E+02  .333E+02  .352E+02  .397E+02  .463E+02  .362E+02  .576E+02
  .579E+02  .482E+02  .318E+02  .299E+02  .337E+02  .343E+02  .389E+02  .307E+02
  .325E+02  .683E+02  .637E+02  .690E+02  .370E+02  .607E+02  .383E+02  .363E+02
  .344E+02  .332E+02  .318E+02  .463E+02  .351E+02  .344E+02  .338E+02  .331E+02
  .690E+02  .344E+02  .344E+02  .337E+02  .338E+02  .338E+02  .683E+02  .406E+02
  .406E+02  .457E+02  .629E+02  .588E+02  .000E+00  .000E+00  .000E+00  .000E+00
  .000E+00  .000E+00  .000E+00  .000E+00  .000E+00  .000E+00  .000E+00  .000E+00
  .000E+00  .000E+00  .000E+00  .000E+00  .000E+00  .000E+00  .000E+00  .000E+00
  .000E+00  .000E+00  .000E+00  .000E+00
Damping =  .02. Data of Sd,Sv,Sa,Pssv,ttSd,ttSv,ttSa :
  .544E-03  .601E-03  .643E-03  .707E-03  .776E-03  .859E-03  .107E-02  .125E-02
  .149E-02  .171E-02  .197E-02  .221E-02  .258E-02  .286E-02  .312E-02  .354E-02
  .428E-02  .533E-02  .593E-02  .813E-02  .862E-02  .119E-01  .172E-01  .224E-01
  .272E-01  .467E-01  .710E-01  .660E-01  .610E-01  .488E-01  .513E-01  .512E-01
  .670E-01  .108E+00  .125E+00  .215E+00  .262E+00  .225E+00  .257E+00  .187E+00
  .165E+00  .262E+00  .220E+00  .339E+00  .675E+00  .784E+00  .701E+00  .426E+00
  .421E+00  .550E+00  .727E+00  .959E+00  .207E+01  .293E+01  .156E+01  .129E+01
  .101E+01  .717E+00  .656E+00  .606E+00  .617E+00  .624E+00  .542E+00  .419E+00
  .390E+00  .498E+00  .507E+00  .459E+00  .500E+00  .497E+00  .468E+00  .434E+00
  .408E+00  .393E+00  .385E+00  .379E+00  .000E+00  .000E+00  .000E+00  .000E+00
  .000E+00  .000E+00  .000E+00  .000E+00  .000E+00  .000E+00  .000E+00  .000E+00
  .000E+00  .000E+00  .000E+00  .000E+00  .000E+00  .000E+00  .000E+00  .000E+00
  .000E+00  .000E+00  .000E+00  .000E+00
  .163E-01  .168E-01  .169E-01  .161E-01  .200E-01  .211E-01  .272E-01  .376E-01
  .290E-01  .341E-01  .424E-01  .506E-01  .508E-01  .647E-01  .760E-01  .111E+00
  .120E+00  .162E+00  .193E+00  .220E+00  .272E+00  .366E+00  .551E+00  .649E+00
  .733E+00  .129E+01  .199E+01  .166E+01  .141E+01  .106E+01  .974E+00  .871E+00
  .109E+01  .173E+01  .183E+01  .323E+01  .371E+01  .303E+01  .314E+01  .237E+01
  .199E+01  .275E+01  .175E+01  .307E+01  .565E+01  .631E+01  .522E+01  .310E+01
  .271E+01  .362E+01  .439E+01  .502E+01  .107E+02  .142E+02  .737E+01  .599E+01
  .495E+01  .351E+01  .308E+01  .281E+01  .288E+01  .281E+01  .245E+01  .205E+01
  .188E+01  .205E+01  .220E+01  .217E+01  .203E+01  .188E+01  .177E+01  .172E+01
  .169E+01  .166E+01  .164E+01  .163E+01  .000E+00  .000E+00  .000E+00  .000E+00
  .000E+00  .000E+00  .000E+00  .000E+00  .000E+00  .000E+00  .000E+00  .000E+00
  .000E+00  .000E+00  .000E+00  .000E+00  .000E+00  .000E+00  .000E+00  .000E+00
  .000E+00  .000E+00  .000E+00  .000E+00
  .347E-01  .348E-01  .340E-01  .342E-01  .345E-01  .351E-01  .361E-01  .354E-01
  .360E-01  .356E-01  .358E-01  .353E-01  .365E-01  .361E-01  .354E-01  .361E-01
  .362E-01  .379E-01  .359E-01  .424E-01  .392E-01  .472E-01  .609E-01  .709E-01
  .769E-01  .119E+00  .150E+00  .117E+00  .927E-01  .640E-01  .582E-01  .512E-01
  .593E-01  .851E-01  .883E-01  .138E+00  .152E+00  .119E+00  .124E+00  .829E-01
  .673E-01  .886E-01  .625E-01  .823E-01  .141E+00  .142E+00  .112E+00  .604E-01
  .532E-01  .624E-01  .744E-01  .811E-01  .147E+00  .178E+00  .815E-01  .587E-01
  .402E-01  .254E-01  .208E-01  .172E-01  .158E-01  .132E-01  .964E-02  .636E-02
  .511E-02  .568E-02  .509E-02  .407E-02  .396E-02  .353E-02  .301E-02  .253E-02
  .217E-02  .191E-02  .172E-02  .157E-02  .000E+00  .000E+00  .000E+00  .000E+00
  .000E+00  .000E+00  .000E+00  .000E+00  .000E+00  .000E+00  .000E+00  .000E+00
  .000E+00  .000E+00  .000E+00  .000E+00  .000E+00  .000E+00  .000E+00  .000E+00
  .000E+00  .000E+00  .000E+00  .000E+00
  .854E-01  .899E-01  .919E-01  .966E-01  .102E+00  .108E+00  .122E+00  .131E+00
  .144E+00  .153E+00  .165E+00  .173E+00  .191E+00  .200E+00  .207E+00  .222E+00
  .245E+00  .279E+00  .287E+00  .365E+00  .361E+00  .466E+00  .634E+00  .781E+00
  .898E+00  .147E+01  .203E+01  .173E+01  .147E+01  .110E+01  .107E+01  .101E+01
  .124E+01  .188E+01  .206E+01  .338E+01  .392E+01  .322E+01  .351E+01  .244E+01
  .207E+01  .299E+01  .230E+01  .328E+01  .606E+01  .656E+01  .551E+01  .315E+01
  .294E+01  .364E+01  .457E+01  .548E+01  .108E+02  .142E+02  .700E+01  .540E+01
  .395E+01  .265E+01  .229E+01  .200E+01  .194E+01  .178E+01  .142E+01  .101E+01
  .876E+00  .104E+01  .996E+00  .849E+00  .873E+00  .821E+00  .736E+00  .649E+00
  .583E+00  .536E+00  .504E+00  .477E+00  .000E+00  .000E+00  .000E+00  .000E+00
  .000E+00  .000E+00  .000E+00  .000E+00  .000E+00  .000E+00  .000E+00  .000E+00
  .000E+00  .000E+00  .000E+00  .000E+00  .000E+00  .000E+00  .000E+00  .000E+00
  .000E+00  .000E+00  .000E+00  .000E+00
  .339E+02  .339E+02  .339E+02  .339E+02  .339E+02  .339E+02  .339E+02  .339E+02
  .339E+02  .339E+02  .339E+02  .339E+02  .339E+02  .339E+02  .339E+02  .339E+02
  .339E+02  .339E+02  .339E+02  .339E+02  .339E+02  .253E+02  .255E+02  .255E+02
  .255E+02  .255E+02  .262E+02  .259E+02  .256E+02  .256E+02  .339E+02  .345E+02
  .315E+02  .345E+02  .317E+02  .348E+02  .353E+02  .355E+02  .318E+02  .356E+02
  .432E+02  .295E+02  .318E+02  .296E+02  .319E+02  .324E+02  .325E+02  .306E+02
  .325E+02  .306E+02  .307E+02  .350E+02  .364E+02  .399E+02  .362E+02  .356E+02
  .344E+02  .331E+02  .318E+02  .358E+02  .351E+02  .344E+02  .338E+02  .304E+02
  .351E+02  .344E+02  .344E+02  .338E+02  .338E+02  .338E+02  .338E+02  .338E+02
  .406E+02  .338E+02  .338E+02  .338E+02  .000E+00  .000E+00  .000E+00  .000E+00
  .000E+00  .000E+00  .000E+00  .000E+00  .000E+00  .000E+00  .000E+00  .000E+00
  .000E+00  .000E+00  .000E+00  .000E+00  .000E+00  .000E+00  .000E+00  .000E+00
  .000E+00  .000E+00  .000E+00  .000E+00
  .252E+02  .252E+02  .252E+02  .252E+02  .252E+02  .252E+02  .252E+02  .253E+02
  .261E+02  .252E+02  .253E+02  .255E+02  .256E+02  .252E+02  .253E+02  .253E+02
  .253E+02  .253E+02  .253E+02  .253E+02  .253E+02  .253E+02  .254E+02  .254E+02
  .255E+02  .258E+02  .263E+02  .259E+02  .255E+02  .255E+02  .253E+02  .251E+02
  .316E+02  .346E+02  .316E+02  .347E+02  .354E+02  .354E+02  .317E+02  .430E+02
  .431E+02  .297E+02  .270E+02  .298E+02  .335E+02  .326E+02  .323E+02  .309E+02
  .323E+02  .308E+02  .309E+02  .348E+02  .349E+02  .403E+02  .359E+02  .360E+02
  .340E+02  .320E+02  .321E+02  .346E+02  .346E+02  .340E+02  .340E+02  .334E+02
  .346E+02  .340E+02  .340E+02  .340E+02  .340E+02  .340E+02  .340E+02  .334E+02
  .334E+02  .334E+02  .334E+02  .334E+02  .000E+00  .000E+00  .000E+00  .000E+00
  .000E+00  .000E+00  .000E+00  .000E+00  .000E+00  .000E+00  .000E+00  .000E+00
  .000E+00  .000E+00  .000E+00  .000E+00  .000E+00  .000E+00  .000E+00  .000E+00
  .000E+00  .000E+00  .000E+00  .000E+00
  .339E+02  .339E+02  .339E+02  .339E+02  .339E+02  .339E+02  .339E+02  .339E+02
  .339E+02  .339E+02  .339E+02  .339E+02  .339E+02  .339E+02  .339E+02  .339E+02
  .339E+02  .339E+02  .339E+02  .339E+02  .339E+02  .253E+02  .255E+02  .255E+02
  .255E+02  .255E+02  .262E+02  .259E+02  .256E+02  .256E+02  .339E+02  .345E+02
  .315E+02  .345E+02  .317E+02  .348E+02  .353E+02  .355E+02  .318E+02  .356E+02
  .432E+02  .295E+02  .318E+02  .296E+02  .319E+02  .324E+02  .325E+02  .306E+02
  .325E+02  .306E+02  .307E+02  .350E+02  .364E+02  .399E+02  .362E+02  .356E+02
  .344E+02  .331E+02  .318E+02  .357E+02  .351E+02  .344E+02  .338E+02  .304E+02
  .351E+02  .344E+02  .344E+02  .337E+02  .338E+02  .338E+02  .338E+02  .338E+02
  .406E+02  .338E+02  .338E+02  .338E+02  .000E+00  .000E+00  .000E+00  .000E+00
  .000E+00  .000E+00  .000E+00  .000E+00  .000E+00  .000E+00  .000E+00  .000E+00
  .000E+00  .000E+00  .000E+00  .000E+00  .000E+00  .000E+00  .000E+00  .000E+00
  .000E+00  .000E+00  .000E+00  .000E+00
Damping =  .05. Data of Sd,Sv,Sa,Pssv,ttSd,ttSv,ttSa :
  .539E-03  .595E-03  .646E-03  .706E-03  .777E-03  .853E-03  .105E-02  .125E-02
