Response and Fourier amplitude spectra (76 periods,  .04 -  5.0 sec)   for      
Corrected accelerogram   24468-M0270-14087.35       Chan 11: 180 Deg     from   
Uncorrected Accelerogram Data             Processed: 03/28/14, CGS  468as035    
Rcrd of Fri Mar 28, 2014 21:09:29.0 PDT               (Avol1 v0.5, 2/14 CSMIP)  
CSMIP Preliminary Processing            (Origin:  To be determined)             
24468-M0270-14087.35                 Start time:  3/29/14, 04:09:29.0 UTC (GPS) 
Station No. 24468   34.066N, 118.169W    MtWtny  s/n  270 (16 Chns of 16 at Sta)
Los Angeles - 8-story CSULA Admin. Bldg.  CGS   Data: Acceleration              
Chan 11: 180 DegR                   Location: 2nd Floor: East Wall              
Rcrd of Fri Mar 28, 2014 21:09:29.0 PDT    Fri Mar 28, 2014 21:09:29.0 PDT      
Hypocenter:  To be determined.               ML:  To be determined.
Instr Period =  .0191 sec,  Damping =  .680,  Sensitivity = 2.52 v/g
                        Record length = 72.000 sec.
                                     Uncor Max  =  -.053 g , at  24.990 sec.
RMS accel of (uncor) record  =        .   Chn. metadata effective date: 03/27/08
Accelerogram bandpass filtered with 3 dB pts at   .20 and 40.00 cyc/sec
                 instrument- and baseline-corrected





Rcrd of Fri Mar 28, 2014 21:09:29.0 PDT    Fri Mar 28, 2014 21:09:29.0 PDT

24468-M0270-14087.35      Los Angeles - 8-story CSULA Admin. Bldg.  CGChan 11: 1
80 Deg
24468-M0270-14087.35      Los Angeles - 8-story CSULA Admin. Bldg.  CGChan 11: 1
80 Deg
Units for spectra are inches and sec, except Sa is in fraction of g.

   11  100   11   18   16  200    1    3    1   24   13  270    024468    2    0
    4    9   29    0   88    3   29 2014   10    3  18014400   39   40   74   -1
14400    0  100    3  270    1   35  720    2    0    0    0    0    0    0    0
    0    0    3    0 7200    2  333    1   18    2    0    0    3    1    0 7200
    3 7200    4   76    5   16    5    0    0    0    0    0    1    3    1    2
    2    2    4    0   79   99    0    1    0    0   96    1    0    0    0  222
    1    0    6    0
      .019      .680    72.000      .006      .000  2519.000     -.053    24.990
    52.300      .298      .118      .000     5.000  -999.000     1.000      .000
     2.500   -10.430     2.500  -999.000    23.000    30.000  -999.000     -.006
      .012      .018     2.000    15.000    34.066  -118.169      .023     1.106
    48.721     -.034      .070   150.000    23.500    41.700    13.000    97.160
     1.000     1.017      .000  -999.000  -999.000  -999.000  -999.000      .000
      .100      .500     6.300   980.665      .010    72.000     8.324      .000
      .000    40.000      .000    72.000      .010      .200      .000      .000
    24.980   -51.577    25.060    -2.999    29.890     -.413      .000      .200
    40.000      .010      .010      .000      .020      .174      .000      .000
      .214      .420      .084      .101      .028      .003      .000      .000
      .000      .000      .000      .000      .000      .000      .000      .000
      .000      .000      .000      .000
      .000      .020      .050      .100      .200
      .040      .042      .044      .046      .048      .050      .055      .060
      .065      .070      .075      .080      .085      .090      .095      .100
      .110      .120      .130      .140      .150      .160      .170      .180
      .190      .200      .220      .240      .260      .280      .300      .320
      .340      .360      .380      .400      .420      .440      .460      .480
      .500      .550      .600      .650      .700      .750      .800      .850
      .900      .950     1.000     1.100     1.200     1.300     1.400     1.500
     1.600     1.700     1.800     1.900     2.000     2.200     2.400     2.600
     2.800     3.000     3.200     3.400     3.600     3.800     4.000     4.200
     4.400     4.600     4.800     5.000      .000      .000      .000      .000
      .000      .000      .000      .000      .000      .000      .000      .000
      .000      .000      .000      .000      .000      .000      .000      .000
      .000      .000      .000      .000
Fourier amplitude spectra in in/sec.
  .777E-01  .496E-01  .243E-01  .366E-01  .261E-01  .665E-01  .841E-01  .158E+00
  .825E-01  .232E-01  .113E+00  .133E+00  .914E-01  .121E+00  .138E+00  .193E+00
  .559E+00  .144E+00  .211E-01  .762E+00  .557E+00  .171E+01  .747E+00  .105E+01
  .325E+01  .184E+01  .947E+00  .113E+01  .172E+01  .179E+00  .260E+01  .130E+01
  .546E+01  .292E+01  .113E+02  .107E+02  .301E+02  .377E+01  .724E+01  .931E+01
  .430E+01  .661E+01  .219E+01  .520E+01  .155E+01  .329E+01  .308E+01  .448E+01
  .251E+01  .226E+01  .124E+01  .380E+01  .161E+01  .855E+00  .836E+01  .163E+01
  .831E+00  .105E+01  .141E+01  .913E+00  .229E+01  .589E+00  .719E+00  .349E+00
  .681E+00  .581E+00  .827E+00  .124E+00  .380E+00  .666E+00  .562E+00  .490E+00
  .157E+00  .254E+00  .302E+00  .178E+00  .000E+00  .000E+00  .000E+00  .000E+00
  .000E+00  .000E+00  .000E+00  .000E+00  .000E+00  .000E+00  .000E+00  .000E+00
  .000E+00  .000E+00  .000E+00  .000E+00  .000E+00  .000E+00  .000E+00  .000E+00
  .000E+00  .000E+00  .000E+00  .000E+00
Damping =  .00. Data of Sd,Sv,Sa,Pssv,ttSd,ttSv,ttSa :
  .103E-02  .973E-03  .106E-02  .118E-02  .129E-02  .160E-02  .169E-02  .238E-02
  .249E-02  .308E-02  .403E-02  .415E-02  .453E-02  .477E-02  .711E-02  .855E-02
  .144E-01  .987E-02  .187E-01  .205E-01  .231E-01  .520E-01  .316E-01  .800E-01
  .121E+00  .774E-01  .629E-01  .939E-01  .104E+00  .731E-01  .142E+00  .182E+00
  .437E+00  .520E+00  .805E+00  .751E+00  .214E+01  .775E+00  .610E+00  .726E+00
  .426E+00  .695E+00  .491E+00  .604E+00  .284E+00  .449E+00  .422E+00  .695E+00
  .516E+00  .463E+00  .425E+00  .673E+00  .500E+00  .640E+00  .203E+01  .101E+01
  .558E+00  .375E+00  .568E+00  .429E+00  .739E+00  .325E+00  .303E+00  .265E+00
  .426E+00  .434E+00  .446E+00  .358E+00  .338E+00  .432E+00  .438E+00  .327E+00
  .287E+00  .268E+00  .253E+00  .241E+00  .000E+00  .000E+00  .000E+00  .000E+00
  .000E+00  .000E+00  .000E+00  .000E+00  .000E+00  .000E+00  .000E+00  .000E+00
  .000E+00  .000E+00  .000E+00  .000E+00  .000E+00  .000E+00  .000E+00  .000E+00
  .000E+00  .000E+00  .000E+00  .000E+00
  .863E-01  .511E-01  .427E-01  .427E-01  .466E-01  .109E+00  .908E-01  .176E+00
  .114E+00  .109E+00  .173E+00  .188E+00  .149E+00  .174E+00  .280E+00  .433E+00
  .600E+00  .342E+00  .750E+00  .839E+00  .905E+00  .196E+01  .946E+00  .269E+01
  .375E+01  .230E+01  .161E+01  .227E+01  .226E+01  .154E+01  .276E+01  .335E+01
  .770E+01  .890E+01  .131E+02  .117E+02  .320E+02  .112E+02  .856E+01  .947E+01
  .547E+01  .814E+01  .554E+01  .587E+01  .275E+01  .384E+01  .329E+01  .516E+01
  .384E+01  .311E+01  .322E+01  .386E+01  .251E+01  .311E+01  .920E+01  .461E+01
  .238E+01  .181E+01  .204E+01  .181E+01  .238E+01  .147E+01  .144E+01  .140E+01
  .137E+01  .151E+01  .157E+01  .148E+01  .131E+01  .130E+01  .129E+01  .128E+01
  .127E+01  .125E+01  .124E+01  .123E+01  .000E+00  .000E+00  .000E+00  .000E+00
  .000E+00  .000E+00  .000E+00  .000E+00  .000E+00  .000E+00  .000E+00  .000E+00
  .000E+00  .000E+00  .000E+00  .000E+00  .000E+00  .000E+00  .000E+00  .000E+00
  .000E+00  .000E+00  .000E+00  .000E+00
  .659E-01  .564E-01  .560E-01  .571E-01  .574E-01  .653E-01  .573E-01  .675E-01
  .602E-01  .643E-01  .734E-01  .663E-01  .642E-01  .602E-01  .806E-01  .874E-01
  .122E+00  .701E-01  .113E+00  .107E+00  .105E+00  .208E+00  .112E+00  .253E+00
  .342E+00  .198E+00  .133E+00  .167E+00  .158E+00  .954E-01  .161E+00  .182E+00
  .387E+00  .410E+00  .570E+00  .480E+00  .124E+01  .409E+00  .295E+00  .322E+00
  .174E+00  .235E+00  .139E+00  .146E+00  .593E-01  .816E-01  .675E-01  .984E-01
  .651E-01  .525E-01  .435E-01  .569E-01  .355E-01  .387E-01  .106E+00  .459E-01
  .223E-01  .133E-01  .179E-01  .121E-01  .189E-01  .687E-02  .539E-02  .401E-02
  .555E-02  .494E-02  .445E-02  .317E-02  .267E-02  .306E-02  .280E-02  .190E-02
  .152E-02  .130E-02  .112E-02  .985E-03  .000E+00  .000E+00  .000E+00  .000E+00
  .000E+00  .000E+00  .000E+00  .000E+00  .000E+00  .000E+00  .000E+00  .000E+00
  .000E+00  .000E+00  .000E+00  .000E+00  .000E+00  .000E+00  .000E+00  .000E+00
  .000E+00  .000E+00  .000E+00  .000E+00
  .162E+00  .146E+00  .151E+00  .161E+00  .169E+00  .200E+00  .193E+00  .249E+00
  .240E+00  .277E+00  .338E+00  .326E+00  .335E+00  .333E+00  .470E+00  .537E+00
  .824E+00  .517E+00  .905E+00  .921E+00  .969E+00  .204E+01  .117E+01  .279E+01
  .399E+01  .243E+01  .180E+01  .246E+01  .252E+01  .164E+01  .297E+01  .357E+01
  .808E+01  .907E+01  .133E+02  .118E+02  .320E+02  .111E+02  .833E+01  .950E+01
  .535E+01  .794E+01  .514E+01  .584E+01  .255E+01  .376E+01  .332E+01  .514E+01
  .360E+01  .306E+01  .267E+01  .384E+01  .262E+01  .309E+01  .912E+01  .423E+01
  .219E+01  .138E+01  .198E+01  .142E+01  .232E+01  .929E+00  .795E+00  .640E+00
  .955E+00  .910E+00  .876E+00  .661E+00  .590E+00  .714E+00  .688E+00  .490E+00
  .410E+00  .366E+00  .331E+00  .303E+00  .000E+00  .000E+00  .000E+00  .000E+00
  .000E+00  .000E+00  .000E+00  .000E+00  .000E+00  .000E+00  .000E+00  .000E+00
  .000E+00  .000E+00  .000E+00  .000E+00  .000E+00  .000E+00  .000E+00  .000E+00
  .000E+00  .000E+00  .000E+00  .000E+00
  .315E+02  .250E+02  .250E+02  .250E+02  .250E+02  .315E+02  .250E+02  .315E+02
  .315E+02  .305E+02  .305E+02  .272E+02  .250E+02  .250E+02  .267E+02  .292E+02
  .305E+02  .272E+02  .275E+02  .269E+02  .302E+02  .313E+02  .315E+02  .292E+02
  .307E+02  .315E+02  .293E+02  .269E+02  .313E+02  .293E+02  .307E+02  .311E+02
  .307E+02  .299E+02  .323E+02  .350E+02  .448E+02  .303E+02  .311E+02  .676E+02
  .281E+02  .311E+02  .311E+02  .461E+02  .335E+02  .355E+02  .597E+02  .342E+02
  .323E+02  .490E+02  .315E+02  .693E+02  .383E+02  .516E+02  .457E+02  .349E+02
  .411E+02  .293E+02  .496E+02  .369E+02  .674E+02  .315E+02  .669E+02  .315E+02
  .400E+02  .392E+02  .655E+02  .309E+02  .309E+02  .506E+02  .593E+02  .794E+02
  .383E+02  .299E+02  .299E+02  .299E+02  .000E+00  .000E+00  .000E+00  .000E+00
  .000E+00  .000E+00  .000E+00  .000E+00  .000E+00  .000E+00  .000E+00  .000E+00
  .000E+00  .000E+00  .000E+00  .000E+00  .000E+00  .000E+00  .000E+00  .000E+00
  .000E+00  .000E+00  .000E+00  .000E+00
  .314E+02  .626E+02  .308E+02  .314E+02  .308E+02  .322E+02  .398E+02  .357E+02
  .316E+02  .306E+02  .273E+02  .309E+02  .305E+02  .262E+02  .304E+02  .292E+02
  .304E+02  .276E+02  .294E+02  .376E+02  .302E+02  .324E+02  .296E+02  .291E+02
  .307E+02  .304E+02  .294E+02  .268E+02  .312E+02  .304E+02  .329E+02  .310E+02
  .306E+02  .278E+02  .322E+02  .349E+02  .447E+02  .304E+02  .310E+02  .677E+02
  .262E+02  .310E+02  .310E+02  .460E+02  .250E+02  .356E+02  .595E+02  .340E+02
  .325E+02  .487E+02  .314E+02  .690E+02  .373E+02  .324E+02  .419E+02  .352E+02
  .333E+02  .291E+02  .491E+02  .316E+02  .679E+02  .250E+02  .250E+02  .250E+02
  .250E+02  .314E+02  .314E+02  .314E+02  .250E+02  .250E+02  .250E+02  .250E+02
  .250E+02  .250E+02  .250E+02  .250E+02  .000E+00  .000E+00  .000E+00  .000E+00
  .000E+00  .000E+00  .000E+00  .000E+00  .000E+00  .000E+00  .000E+00  .000E+00
  .000E+00  .000E+00  .000E+00  .000E+00  .000E+00  .000E+00  .000E+00  .000E+00
  .000E+00  .000E+00  .000E+00  .000E+00
  .315E+02  .250E+02  .250E+02  .250E+02  .250E+02  .315E+02  .250E+02  .315E+02
  .315E+02  .305E+02  .305E+02  .272E+02  .250E+02  .250E+02  .267E+02  .292E+02
  .305E+02  .272E+02  .275E+02  .269E+02  .302E+02  .313E+02  .315E+02  .292E+02
  .307E+02  .315E+02  .293E+02  .269E+02  .313E+02  .293E+02  .307E+02  .311E+02
  .307E+02  .299E+02  .323E+02  .350E+02  .448E+02  .303E+02  .311E+02  .676E+02
  .281E+02  .311E+02  .311E+02  .461E+02  .335E+02  .355E+02  .597E+02  .342E+02
  .323E+02  .490E+02  .315E+02  .693E+02  .383E+02  .516E+02  .457E+02  .349E+02
  .411E+02  .293E+02  .496E+02  .369E+02  .674E+02  .315E+02  .669E+02  .315E+02
  .400E+02  .392E+02  .655E+02  .309E+02  .309E+02  .506E+02  .593E+02  .794E+02
  .383E+02  .299E+02  .299E+02  .299E+02  .000E+00  .000E+00  .000E+00  .000E+00
  .000E+00  .000E+00  .000E+00  .000E+00  .000E+00  .000E+00  .000E+00  .000E+00
  .000E+00  .000E+00  .000E+00  .000E+00  .000E+00  .000E+00  .000E+00  .000E+00
  .000E+00  .000E+00  .000E+00  .000E+00
Damping =  .02. Data of Sd,Sv,Sa,Pssv,ttSd,ttSv,ttSa :
  .866E-03  .929E-03  .101E-02  .112E-02  .121E-02  .128E-02  .156E-02  .201E-02
  .241E-02  .281E-02  .324E-02  .372E-02  .455E-02  .516E-02  .550E-02  .660E-02
  .786E-02  .105E-01  .119E-01  .162E-01  .175E-01  .256E-01  .317E-01  .331E-01
  .403E-01  .466E-01  .503E-01  .575E-01  .640E-01  .675E-01  .129E+00  .133E+00
  .257E+00  .342E+00  .433E+00  .409E+00  .677E+00  .450E+00  .385E+00  .349E+00
  .345E+00  .354E+00  .341E+00  .352E+00  .236E+00  .311E+00  .321E+00  .426E+00
  .412E+00  .345E+00  .349E+00  .352E+00  .390E+00  .516E+00  .110E+01  .694E+00
  .398E+00  .325E+00  .314E+00  .330E+00  .333E+00  .303E+00  .209E+00  .257E+00
  .321E+00  .331E+00  .336E+00  .323E+00  .310E+00  .298E+00  .283E+00  .283E+00
  .274E+00  .261E+00  .249E+00  .239E+00  .000E+00  .000E+00  .000E+00  .000E+00
  .000E+00  .000E+00  .000E+00  .000E+00  .000E+00  .000E+00  .000E+00  .000E+00
  .000E+00  .000E+00  .000E+00  .000E+00  .000E+00  .000E+00  .000E+00  .000E+00
  .000E+00  .000E+00  .000E+00  .000E+00
  .244E-01  .259E-01  .236E-01  .266E-01  .308E-01  .348E-01  .420E-01  .547E-01
  .585E-01  .616E-01  .771E-01  .867E-01  .903E-01  .137E+00  .164E+00  .208E+00
  .231E+00  .292E+00  .392E+00  .500E+00  .584E+00  .901E+00  .985E+00  .924E+00
  .112E+01  .133E+01  .125E+01  .137E+01  .139E+01  .128E+01  .239E+01  .237E+01
  .454E+01  .581E+01  .678E+01  .630E+01  .101E+02  .667E+01  .554E+01  .482E+01
  .449E+01  .444E+01  .389E+01  .345E+01  .273E+01  .261E+01  .271E+01  .342E+01
  .321E+01  .255E+01  .263E+01  .231E+01  .193E+01  .267E+01  .491E+01  .328E+01
  .208E+01  .163E+01  .153E+01  .164E+01  .160E+01  .146E+01  .143E+01  .140E+01
  .138E+01  .143E+01  .149E+01  .142E+01  .132E+01  .130E+01  .129E+01  .128E+01
  .127E+01  .126E+01  .125E+01  .124E+01  .000E+00  .000E+00  .000E+00  .000E+00
  .000E+00  .000E+00  .000E+00  .000E+00  .000E+00  .000E+00  .000E+00  .000E+00
  .000E+00  .000E+00  .000E+00  .000E+00  .000E+00  .000E+00  .000E+00  .000E+00
  .000E+00  .000E+00  .000E+00  .000E+00
  .554E-01  .539E-01  .532E-01  .540E-01  .535E-01  .522E-01  .527E-01  .571E-01
  .584E-01  .586E-01  .590E-01  .594E-01  .644E-01  .651E-01  .623E-01  .674E-01
  .664E-01  .746E-01  .722E-01  .845E-01  .799E-01  .103E+00  .112E+00  .105E+00
  .114E+00  .119E+00  .106E+00  .102E+00  .970E-01  .882E-01  .147E+00  .133E+00
  .227E+00  .270E+00  .307E+00  .262E+00  .394E+00  .238E+00  .186E+00  .155E+00
  .141E+00  .120E+00  .970E-01  .852E-01  .493E-01  .566E-01  .513E-01  .603E-01
  .520E-01  .391E-01  .358E-01  .297E-01  .278E-01  .313E-01  .572E-01  .316E-01
  .159E-01  .115E-01  .992E-02  .937E-02  .854E-02  .644E-02  .374E-02  .391E-02
  .420E-02  .377E-02  .339E-02  .288E-02  .247E-02  .212E-02  .182E-02  .165E-02
  .146E-02  .128E-02  .112E-02  .991E-03  .000E+00  .000E+00  .000E+00  .000E+00
  .000E+00  .000E+00  .000E+00  .000E+00  .000E+00  .000E+00  .000E+00  .000E+00
  .000E+00  .000E+00  .000E+00  .000E+00  .000E+00  .000E+00  .000E+00  .000E+00
  .000E+00  .000E+00  .000E+00  .000E+00
  .136E+00  .139E+00  .144E+00  .153E+00  .158E+00  .160E+00  .178E+00  .211E+00
  .233E+00  .252E+00  .272E+00  .292E+00  .336E+00  .360E+00  .364E+00  .415E+00
  .449E+00  .551E+00  .575E+00  .725E+00  .735E+00  .101E+01  .117E+01  .116E+01
  .133E+01  .146E+01  .144E+01  .150E+01  .155E+01  .152E+01  .271E+01  .261E+01
  .474E+01  .597E+01  .715E+01  .642E+01  .101E+02  .643E+01  .525E+01  .456E+01
  .433E+01  .405E+01  .357E+01  .340E+01  .212E+01  .260E+01  .252E+01  .315E+01
  .288E+01  .228E+01  .219E+01  .201E+01  .204E+01  .250E+01  .492E+01  .291E+01
  .156E+01  .120E+01  .110E+01  .109E+01  .105E+01  .867E+00  .547E+00  .620E+00
  .721E+00  .694E+00  .659E+00  .597E+00  .541E+00  .493E+00  .445E+00  .423E+00
  .391E+00  .357E+00  .326E+00  .300E+00  .000E+00  .000E+00  .000E+00  .000E+00
  .000E+00  .000E+00  .000E+00  .000E+00  .000E+00  .000E+00  .000E+00  .000E+00
  .000E+00  .000E+00  .000E+00  .000E+00  .000E+00  .000E+00  .000E+00  .000E+00
  .000E+00  .000E+00  .000E+00  .000E+00
  .250E+02  .250E+02  .250E+02  .250E+02  .250E+02  .250E+02  .250E+02  .250E+02
  .250E+02  .250E+02  .250E+02  .250E+02  .250E+02  .250E+02  .250E+02  .250E+02
  .305E+02  .305E+02  .311E+02  .250E+02  .250E+02  .311E+02  .315E+02  .315E+02
  .307E+02  .261E+02  .252E+02  .269E+02  .263E+02  .305E+02  .307E+02  .309E+02
  .273E+02  .277E+02  .315E+02  .326E+02  .316E+02  .270E+02  .265E+02  .260E+02
  .261E+02  .259E+02  .269E+02  .328E+02  .252E+02  .336E+02  .337E+02  .326E+02
  .323E+02  .323E+02  .306E+02  .363E+02  .384E+02  .399E+02  .401E+02  .348E+02
  .321E+02  .293E+02  .495E+02  .320E+02  .315E+02  .315E+02  .315E+02  .315E+02
  .399E+02  .391E+02  .305E+02  .309E+02  .309E+02  .466E+02  .299E+02  .299E+02
  .299E+02  .299E+02  .299E+02  .299E+02  .000E+00  .000E+00  .000E+00  .000E+00
  .000E+00  .000E+00  .000E+00  .000E+00  .000E+00  .000E+00  .000E+00  .000E+00
  .000E+00  .000E+00  .000E+00  .000E+00  .000E+00  .000E+00  .000E+00  .000E+00
  .000E+00  .000E+00  .000E+00  .000E+00
  .250E+02  .308E+02  .304E+02  .305E+02  .314E+02  .315E+02  .250E+02  .250E+02
  .315E+02  .272E+02  .267E+02  .267E+02  .305E+02  .250E+02  .267E+02  .260E+02
  .304E+02  .304E+02  .311E+02  .250E+02  .250E+02  .306E+02  .312E+02  .309E+02
  .306E+02  .262E+02  .277E+02  .268E+02  .264E+02  .304E+02  .306E+02  .268E+02
  .274E+02  .278E+02  .316E+02  .333E+02  .317E+02  .271E+02  .266E+02  .262E+02
  .262E+02  .271E+02  .270E+02  .326E+02  .250E+02  .326E+02  .335E+02  .324E+02
  .325E+02  .321E+02  .308E+02  .305E+02  .373E+02  .305E+02  .412E+02  .352E+02
  .316E+02  .273E+02  .268E+02  .316E+02  .316E+02  .250E+02  .250E+02  .250E+02
  .250E+02  .314E+02  .314E+02  .314E+02  .250E+02  .250E+02  .250E+02  .250E+02
  .250E+02  .250E+02  .250E+02  .250E+02  .000E+00  .000E+00  .000E+00  .000E+00
  .000E+00  .000E+00  .000E+00  .000E+00  .000E+00  .000E+00  .000E+00  .000E+00
  .000E+00  .000E+00  .000E+00  .000E+00  .000E+00  .000E+00  .000E+00  .000E+00
  .000E+00  .000E+00  .000E+00  .000E+00
  .250E+02  .250E+02  .250E+02  .250E+02  .250E+02  .250E+02  .250E+02  .250E+02
  .250E+02  .250E+02  .250E+02  .250E+02  .250E+02  .250E+02  .250E+02  .250E+02
  .305E+02  .305E+02  .311E+02  .250E+02  .250E+02  .311E+02  .315E+02  .315E+02
  .307E+02  .261E+02  .252E+02  .269E+02  .263E+02  .305E+02  .307E+02  .309E+02
  .273E+02  .277E+02  .315E+02  .326E+02  .316E+02  .270E+02  .264E+02  .263E+02
  .261E+02  .259E+02  .269E+02  .328E+02  .252E+02  .336E+02  .337E+02  .326E+02
  .323E+02  .323E+02  .306E+02  .363E+02  .383E+02  .399E+02  .401E+02  .348E+02
  .320E+02  .293E+02  .495E+02  .320E+02  .315E+02  .315E+02  .315E+02  .315E+02
  .399E+02  .391E+02  .305E+02  .308E+02  .309E+02  .465E+02  .298E+02  .298E+02
  .298E+02  .298E+02  .298E+02  .298E+02  .000E+00  .000E+00  .000E+00  .000E+00
  .000E+00  .000E+00  .000E+00  .000E+00  .000E+00  .000E+00  .000E+00  .000E+00
  .000E+00  .000E+00  .000E+00  .000E+00  .000E+00  .000E+00  .000E+00  .000E+00
  .000E+00  .000E+00  .000E+00  .000E+00
Damping =  .05. Data of Sd,Sv,Sa,Pssv,ttSd,ttSv,ttSa :
  .848E-03  .905E-03  .993E-03  .110E-02  .119E-02  .127E-02  .157E-02  .197E-02
