Response and Fourier amplitude spectra (76 periods,  .04 -  5.0 sec)   for      
Corrected accelerogram   24605-E0823-14091.06       Chan  1: 360 Deg     from   
Uncorrected Accelerogram Data             Processed: 04/01/14, CGS  e0823e06    
Rcrd of Thu Mar 27, 2014 23:11:30.4 PDT*              (Avol1 v0.5, 2/14 CSMIP)  
CSMIP Preliminary Processing            (Origin:  To be determined)             
24605-E0823-14091.06                 Start time:  3/28/14, 06:11:30.4(*LoQ*)    
Station No. 24605   34.062N, 118.201W    SSA-1   s/n  823  (4 Chns of 27 at Sta)
Los Angeles - 7-story Univ. Hospital      CGS   Data: Acceleration              
Chan  1: 360 DegR (Sta Chn: 21)     Location: Roof: Center                      
Rcrd of Thu Mar 27, 2014 23:11:30.4 PDT*   Thu Mar 27, 2014 23:11:30.4 PDT*     
Hypocenter:  To be determined.               ML:  To be determined.
Instr Period =  .0193 sec,  Damping =  .660,  Sensitivity = 1.24 v/g
                        Record length = 78.080 sec.
                                     Uncor Max  =  -.052 g , at  21.580 sec.
RMS accel of (uncor) record  =        .   Chn. metadata effective date: 05/02/91
Accelerogram bandpass filtered with 3 dB pts at   .20 and 40.00 cyc/sec
                 instrument- and baseline-corrected





Rcrd of Thu Mar 27, 2014 23:11:30.4 PDT*   Thu Mar 27, 2014 23:11:30.4 PDT*

24605-E0823-14091.06      Los Angeles - 7-story Univ. Hospital    Chan  1: 360 D
eg
24605-E0823-14091.06      Los Angeles - 7-story Univ. Hospital    Chan  1: 360 D
eg
Units for spectra are inches and sec, except Sa is in fraction of g.

    1  100   21    4   27  200    1    3    1   12    5  823    024605    2    0
    6   11   30  410   87    3   28 2014    0    6  36015616   39   36   74   -1
15616    0  100    3 2115    7    6   61    2    6   11   30  410    3   28 2014
    0    0    3    0 7808    2  220    1   12    4    0    0    3    1    0 7808
    3 7808    4   76    5    4    5    0    1    0    0    0    1    3    6    2
    2    2    4    0   72   99    2    3    0    0  772    1    0    0    0  222
    1    0    1    0
      .019      .660    78.080      .008      .000  1243.000     -.052    21.580
    51.800  1220.703   982.062      .000     5.000  -999.000     2.000      .000
     2.500    34.089     2.500   376.000    15.360    30.000  -999.000      .126
     -.020     -.146     2.000    15.000    34.062  -118.201      .367     1.661
     4.524     -.237     -.055   115.000      .000      .000      .000      .000
     1.000   -10.266      .000  -999.000  -999.000  -999.000  -999.000      .000
     9.200      .500     6.300   980.665      .010    78.080     8.244      .000
      .000    40.000      .000    78.080      .010      .200      .000      .000
    21.600   -50.531    21.860    -7.328    21.590     1.399      .005      .200
    40.000      .010      .010      .007      .050      .416      .000      .000
      .242      .900      .055      .077      .177      .007      .000      .000
      .000      .000      .000      .000      .000      .000      .000      .000
      .000      .000      .000      .000
      .000      .020      .050      .100      .200
      .040      .042      .044      .046      .048      .050      .055      .060
      .065      .070      .075      .080      .085      .090      .095      .100
      .110      .120      .130      .140      .150      .160      .170      .180
      .190      .200      .220      .240      .260      .280      .300      .320
      .340      .360      .380      .400      .420      .440      .460      .480
      .500      .550      .600      .650      .700      .750      .800      .850
      .900      .950     1.000     1.100     1.200     1.300     1.400     1.500
     1.600     1.700     1.800     1.900     2.000     2.200     2.400     2.600
     2.800     3.000     3.200     3.400     3.600     3.800     4.000     4.200
     4.400     4.600     4.800     5.000      .000      .000      .000      .000
      .000      .000      .000      .000      .000      .000      .000      .000
      .000      .000      .000      .000      .000      .000      .000      .000
      .000      .000      .000      .000
Fourier amplitude spectra in in/sec.
  .111E+00  .106E+00  .104E+00  .335E+00  .162E-01  .221E-01  .375E-01  .539E-01
  .709E-01  .564E-01  .807E-01  .821E-01  .106E+00  .807E-01  .183E+00  .816E-01
  .962E-01  .134E+00  .317E+00  .186E+00  .410E+00  .589E+00  .250E+00  .602E+00
  .243E+00  .790E+00  .186E+01  .180E+01  .139E+00  .229E+01  .192E+01  .968E+00
  .161E+01  .271E+01  .212E+01  .365E+01  .635E+01  .558E+01  .107E+02  .816E+01
  .395E+01  .307E+01  .569E+01  .341E+01  .787E+01  .169E+02  .593E+01  .252E+02
  .502E+02  .242E+02  .137E+02  .254E+02  .125E+02  .490E+01  .556E+01  .720E+01
  .582E+01  .404E+01  .196E+01  .192E+01  .275E+01  .148E+01  .831E+00  .289E+00
  .987E+00  .105E+01  .127E+00  .435E+00  .620E+00  .348E+00  .528E+00  .534E+00
  .346E+00  .175E+00  .253E+00  .137E+00  .000E+00  .000E+00  .000E+00  .000E+00
  .000E+00  .000E+00  .000E+00  .000E+00  .000E+00  .000E+00  .000E+00  .000E+00
  .000E+00  .000E+00  .000E+00  .000E+00  .000E+00  .000E+00  .000E+00  .000E+00
  .000E+00  .000E+00  .000E+00  .000E+00
Damping =  .00. Data of Sd,Sv,Sa,Pssv,ttSd,ttSv,ttSa :
  .114E-02  .959E-03  .118E-02  .253E-02  .137E-02  .133E-02  .188E-02  .203E-02
  .266E-02  .325E-02  .323E-02  .376E-02  .489E-02  .489E-02  .659E-02  .593E-02
  .868E-02  .104E-01  .135E-01  .106E-01  .185E-01  .175E-01  .253E-01  .321E-01
  .256E-01  .484E-01  .863E-01  .827E-01  .561E-01  .149E+00  .113E+00  .722E-01
  .173E+00  .208E+00  .201E+00  .499E+00  .496E+00  .555E+00  .863E+00  .624E+00
  .539E+00  .468E+00  .650E+00  .752E+00  .147E+01  .243E+01  .161E+01  .367E+01
  .732E+01  .386E+01  .220E+01  .469E+01  .258E+01  .133E+01  .163E+01  .185E+01
  .152E+01  .110E+01  .798E+00  .869E+00  .980E+00  .948E+00  .766E+00  .685E+00
  .595E+00  .579E+00  .683E+00  .695E+00  .660E+00  .640E+00  .608E+00  .626E+00
  .637E+00  .631E+00  .627E+00  .634E+00  .000E+00  .000E+00  .000E+00  .000E+00
  .000E+00  .000E+00  .000E+00  .000E+00  .000E+00  .000E+00  .000E+00  .000E+00
  .000E+00  .000E+00  .000E+00  .000E+00  .000E+00  .000E+00  .000E+00  .000E+00
  .000E+00  .000E+00  .000E+00  .000E+00
  .122E+00  .115E+00  .117E+00  .336E+00  .633E-01  .428E-01  .813E-01  .666E-01
  .719E-01  .983E-01  .103E+00  .102E+00  .139E+00  .147E+00  .193E+00  .121E+00
  .179E+00  .209E+00  .372E+00  .210E+00  .463E+00  .613E+00  .497E+00  .764E+00
  .522E+00  .108E+01  .239E+01  .210E+01  .107E+01  .278E+01  .213E+01  .117E+01
  .288E+01  .315E+01  .317E+01  .743E+01  .727E+01  .749E+01  .117E+02  .816E+01
  .594E+01  .519E+01  .627E+01  .662E+01  .120E+02  .201E+02  .126E+02  .272E+02
  .512E+02  .257E+02  .142E+02  .269E+02  .137E+02  .693E+01  .770E+01  .832E+01
  .700E+01  .552E+01  .461E+01  .401E+01  .414E+01  .437E+01  .419E+01  .365E+01
  .337E+01  .321E+01  .332E+01  .343E+01  .342E+01  .341E+01  .340E+01  .336E+01
  .329E+01  .323E+01  .320E+01  .318E+01  .000E+00  .000E+00  .000E+00  .000E+00
  .000E+00  .000E+00  .000E+00  .000E+00  .000E+00  .000E+00  .000E+00  .000E+00
  .000E+00  .000E+00  .000E+00  .000E+00  .000E+00  .000E+00  .000E+00  .000E+00
  .000E+00  .000E+00  .000E+00  .000E+00
  .726E-01  .556E-01  .625E-01  .122E+00  .609E-01  .545E-01  .635E-01  .576E-01
  .643E-01  .678E-01  .588E-01  .600E-01  .692E-01  .617E-01  .746E-01  .607E-01
  .734E-01  .735E-01  .814E-01  .553E-01  .842E-01  .700E-01  .895E-01  .101E+00
  .724E-01  .124E+00  .182E+00  .147E+00  .849E-01  .194E+00  .129E+00  .721E-01
  .153E+00  .164E+00  .142E+00  .319E+00  .288E+00  .293E+00  .417E+00  .277E+00
  .220E+00  .158E+00  .185E+00  .182E+00  .307E+00  .442E+00  .258E+00  .520E+00
  .924E+00  .438E+00  .225E+00  .396E+00  .183E+00  .803E-01  .852E-01  .841E-01
  .607E-01  .388E-01  .252E-01  .246E-01  .251E-01  .200E-01  .136E-01  .104E-01
  .776E-02  .658E-02  .682E-02  .615E-02  .521E-02  .453E-02  .388E-02  .363E-02
  .337E-02  .305E-02  .278E-02  .259E-02  .000E+00  .000E+00  .000E+00  .000E+00
  .000E+00  .000E+00  .000E+00  .000E+00  .000E+00  .000E+00  .000E+00  .000E+00
  .000E+00  .000E+00  .000E+00  .000E+00  .000E+00  .000E+00  .000E+00  .000E+00
  .000E+00  .000E+00  .000E+00  .000E+00
  .178E+00  .143E+00  .169E+00  .345E+00  .180E+00  .168E+00  .215E+00  .212E+00
  .257E+00  .291E+00  .271E+00  .295E+00  .361E+00  .341E+00  .436E+00  .373E+00
  .496E+00  .542E+00  .650E+00  .475E+00  .776E+00  .688E+00  .934E+00  .112E+01
  .845E+00  .152E+01  .246E+01  .217E+01  .136E+01  .334E+01  .238E+01  .142E+01
  .319E+01  .362E+01  .332E+01  .784E+01  .742E+01  .793E+01  .118E+02  .817E+01
  .677E+01  .534E+01  .681E+01  .727E+01  .132E+02  .204E+02  .127E+02  .272E+02
  .511E+02  .255E+02  .138E+02  .268E+02  .135E+02  .641E+01  .733E+01  .775E+01
  .597E+01  .405E+01  .278E+01  .287E+01  .308E+01  .271E+01  .200E+01  .166E+01
  .134E+01  .121E+01  .134E+01  .128E+01  .115E+01  .106E+01  .954E+00  .937E+00
  .910E+00  .862E+00  .820E+00  .797E+00  .000E+00  .000E+00  .000E+00  .000E+00
  .000E+00  .000E+00  .000E+00  .000E+00  .000E+00  .000E+00  .000E+00  .000E+00
  .000E+00  .000E+00  .000E+00  .000E+00  .000E+00  .000E+00  .000E+00  .000E+00
  .000E+00  .000E+00  .000E+00  .000E+00
  .216E+02  .216E+02  .216E+02  .727E+02  .216E+02  .216E+02  .216E+02  .216E+02
  .216E+02  .216E+02  .216E+02  .216E+02  .216E+02  .216E+02  .216E+02  .216E+02
  .216E+02  .216E+02  .216E+02  .215E+02  .216E+02  .216E+02  .216E+02  .215E+02
  .216E+02  .216E+02  .316E+02  .412E+02  .175E+02  .220E+02  .275E+02  .163E+02
  .253E+02  .272E+02  .409E+02  .244E+02  .350E+02  .226E+02  .473E+02  .745E+02
  .212E+02  .240E+02  .221E+02  .221E+02  .211E+02  .262E+02  .189E+02  .692E+02
  .381E+02  .632E+02  .244E+02  .593E+02  .597E+02  .232E+02  .226E+02  .355E+02
  .596E+02  .764E+02  .211E+02  .256E+02  .257E+02  .221E+02  .216E+02  .216E+02
  .216E+02  .221E+02  .221E+02  .221E+02  .221E+02  .221E+02  .221E+02  .216E+02
  .216E+02  .216E+02  .216E+02  .216E+02  .000E+00  .000E+00  .000E+00  .000E+00
  .000E+00  .000E+00  .000E+00  .000E+00  .000E+00  .000E+00  .000E+00  .000E+00
  .000E+00  .000E+00  .000E+00  .000E+00  .000E+00  .000E+00  .000E+00  .000E+00
  .000E+00  .000E+00  .000E+00  .000E+00
  .658E+02  .747E+02  .725E+02  .726E+02  .400E+02  .730E+02  .439E+02  .732E+02
  .243E+02  .499E+02  .690E+02  .407E+02  .274E+02  .288E+02  .749E+02  .214E+02
  .273E+02  .219E+02  .243E+02  .174E+02  .282E+02  .654E+02  .218E+02  .309E+02
  .200E+02  .400E+02  .312E+02  .408E+02  .176E+02  .220E+02  .243E+02  .423E+02
  .252E+02  .273E+02  .408E+02  .243E+02  .349E+02  .218E+02  .474E+02  .771E+02
  .213E+02  .239E+02  .205E+02  .173E+02  .209E+02  .264E+02  .191E+02  .690E+02
  .383E+02  .273E+02  .246E+02  .590E+02  .594E+02  .229E+02  .229E+02  .269E+02
  .218E+02  .219E+02  .214E+02  .259E+02  .224E+02  .218E+02  .219E+02  .219E+02
  .219E+02  .219E+02  .218E+02  .218E+02  .219E+02  .219E+02  .219E+02  .219E+02
  .219E+02  .219E+02  .219E+02  .219E+02  .000E+00  .000E+00  .000E+00  .000E+00
  .000E+00  .000E+00  .000E+00  .000E+00  .000E+00  .000E+00  .000E+00  .000E+00
  .000E+00  .000E+00  .000E+00  .000E+00  .000E+00  .000E+00  .000E+00  .000E+00
  .000E+00  .000E+00  .000E+00  .000E+00
  .216E+02  .216E+02  .216E+02  .727E+02  .216E+02  .216E+02  .216E+02  .216E+02
  .216E+02  .216E+02  .216E+02  .216E+02  .216E+02  .216E+02  .216E+02  .216E+02
  .216E+02  .216E+02  .216E+02  .215E+02  .216E+02  .216E+02  .216E+02  .215E+02
  .216E+02  .216E+02  .316E+02  .412E+02  .175E+02  .220E+02  .275E+02  .163E+02
  .253E+02  .272E+02  .409E+02  .244E+02  .350E+02  .226E+02  .473E+02  .745E+02
  .212E+02  .240E+02  .221E+02  .221E+02  .211E+02  .262E+02  .189E+02  .692E+02
  .381E+02  .632E+02  .244E+02  .593E+02  .597E+02  .232E+02  .226E+02  .355E+02
  .596E+02  .764E+02  .211E+02  .256E+02  .257E+02  .221E+02  .216E+02  .216E+02
  .216E+02  .221E+02  .221E+02  .221E+02  .221E+02  .221E+02  .221E+02  .216E+02
  .216E+02  .216E+02  .216E+02  .216E+02  .000E+00  .000E+00  .000E+00  .000E+00
  .000E+00  .000E+00  .000E+00  .000E+00  .000E+00  .000E+00  .000E+00  .000E+00
  .000E+00  .000E+00  .000E+00  .000E+00  .000E+00  .000E+00  .000E+00  .000E+00
  .000E+00  .000E+00  .000E+00  .000E+00
Damping =  .02. Data of Sd,Sv,Sa,Pssv,ttSd,ttSv,ttSa :
  .825E-03  .893E-03  .987E-03  .110E-02  .119E-02  .127E-02  .157E-02  .186E-02
  .215E-02  .252E-02  .288E-02  .323E-02  .378E-02  .418E-02  .493E-02  .525E-02
  .645E-02  .782E-02  .867E-02  .112E-01  .129E-01  .148E-01  .174E-01  .203E-01
  .188E-01  .267E-01  .339E-01  .382E-01  .479E-01  .689E-01  .668E-01  .877E-01
  .127E+00  .130E+00  .151E+00  .232E+00  .240E+00  .307E+00  .375E+00  .284E+00
  .370E+00  .383E+00  .464E+00  .652E+00  .937E+00  .131E+01  .123E+01  .216E+01
  .287E+01  .247E+01  .203E+01  .249E+01  .190E+01  .136E+01  .149E+01  .143E+01
  .124E+01  .974E+00  .727E+00  .746E+00  .789E+00  .884E+00  .736E+00  .668E+00
  .588E+00  .589E+00  .658E+00  .672E+00  .650E+00  .628E+00  .598E+00  .612E+00
  .624E+00  .623E+00  .623E+00  .629E+00  .000E+00  .000E+00  .000E+00  .000E+00
  .000E+00  .000E+00  .000E+00  .000E+00  .000E+00  .000E+00  .000E+00  .000E+00
  .000E+00  .000E+00  .000E+00  .000E+00  .000E+00  .000E+00  .000E+00  .000E+00
  .000E+00  .000E+00  .000E+00  .000E+00
  .121E-01  .106E-01  .128E-01  .161E-01  .157E-01  .168E-01  .197E-01  .211E-01
  .248E-01  .288E-01  .419E-01  .391E-01  .568E-01  .686E-01  .719E-01  .772E-01
  .831E-01  .884E-01  .123E+00  .126E+00  .236E+00  .215E+00  .304E+00  .440E+00
  .449E+00  .570E+00  .783E+00  .608E+00  .849E+00  .115E+01  .106E+01  .120E+01
  .193E+01  .192E+01  .211E+01  .280E+01  .300E+01  .375E+01  .475E+01  .325E+01
  .372E+01  .389E+01  .447E+01  .563E+01  .745E+01  .985E+01  .939E+01  .147E+02
  .198E+02  .170E+02  .129E+02  .147E+02  .106E+02  .709E+01  .716E+01  .728E+01
  .643E+01  .532E+01  .437E+01  .368E+01  .394E+01  .422E+01  .408E+01  .366E+01
  .340E+01  .327E+01  .332E+01  .339E+01  .340E+01  .338E+01  .337E+01  .333E+01
  .328E+01  .323E+01  .320E+01  .318E+01  .000E+00  .000E+00  .000E+00  .000E+00
  .000E+00  .000E+00  .000E+00  .000E+00  .000E+00  .000E+00  .000E+00  .000E+00
  .000E+00  .000E+00  .000E+00  .000E+00  .000E+00  .000E+00  .000E+00  .000E+00
  .000E+00  .000E+00  .000E+00  .000E+00
  .527E-01  .518E-01  .522E-01  .532E-01  .529E-01  .518E-01  .530E-01  .528E-01
  .520E-01  .527E-01  .524E-01  .516E-01  .534E-01  .527E-01  .559E-01  .537E-01
  .545E-01  .556E-01  .525E-01  .586E-01  .585E-01  .590E-01  .615E-01  .640E-01
  .533E-01  .682E-01  .716E-01  .679E-01  .725E-01  .901E-01  .760E-01  .875E-01
  .112E+00  .102E+00  .107E+00  .148E+00  .139E+00  .162E+00  .181E+00  .126E+00
  .151E+00  .129E+00  .132E+00  .158E+00  .196E+00  .238E+00  .196E+00  .306E+00
  .363E+00  .281E+00  .208E+00  .211E+00  .135E+00  .822E-01  .778E-01  .649E-01
  .494E-01  .345E-01  .230E-01  .212E-01  .202E-01  .187E-01  .131E-01  .102E-01
  .772E-02  .672E-02  .660E-02  .598E-02  .516E-02  .448E-02  .385E-02  .359E-02
  .334E-02  .306E-02  .281E-02  .261E-02  .000E+00  .000E+00  .000E+00  .000E+00
  .000E+00  .000E+00  .000E+00  .000E+00  .000E+00  .000E+00  .000E+00  .000E+00
  .000E+00  .000E+00  .000E+00  .000E+00  .000E+00  .000E+00  .000E+00  .000E+00
  .000E+00  .000E+00  .000E+00  .000E+00
  .130E+00  .134E+00  .141E+00  .150E+00  .156E+00  .159E+00  .179E+00  .195E+00
  .208E+00  .227E+00  .241E+00  .254E+00  .279E+00  .292E+00  .326E+00  .330E+00
  .368E+00  .410E+00  .419E+00  .504E+00  .539E+00  .580E+00  .641E+00  .708E+00
  .622E+00  .837E+00  .967E+00  .100E+01  .116E+01  .155E+01  .140E+01  .172E+01
  .235E+01  .226E+01  .250E+01  .364E+01  .359E+01  .438E+01  .512E+01  .372E+01
  .465E+01  .437E+01  .486E+01  .631E+01  .841E+01  .110E+02  .962E+01  .159E+02
  .201E+02  .164E+02  .128E+02  .142E+02  .996E+01  .656E+01  .668E+01  .597E+01
  .485E+01  .360E+01  .254E+01  .247E+01  .248E+01  .253E+01  .193E+01  .161E+01
  .132E+01  .123E+01  .129E+01  .124E+01  .113E+01  .104E+01  .939E+00  .916E+00
  .891E+00  .851E+00  .815E+00  .790E+00  .000E+00  .000E+00  .000E+00  .000E+00
  .000E+00  .000E+00  .000E+00  .000E+00  .000E+00  .000E+00  .000E+00  .000E+00
  .000E+00  .000E+00  .000E+00  .000E+00  .000E+00  .000E+00  .000E+00  .000E+00
  .000E+00  .000E+00  .000E+00  .000E+00
  .216E+02  .216E+02  .216E+02  .216E+02  .216E+02  .216E+02  .216E+02  .216E+02
  .216E+02  .216E+02  .216E+02  .216E+02  .216E+02  .216E+02  .216E+02  .216E+02
  .216E+02  .216E+02  .216E+02  .216E+02  .216E+02  .216E+02  .216E+02  .215E+02
  .216E+02  .216E+02  .215E+02  .216E+02  .175E+02  .171E+02  .172E+02  .163E+02
  .164E+02  .201E+02  .172E+02  .216E+02  .166E+02  .211E+02  .257E+02  .211E+02
  .212E+02  .216E+02  .171E+02  .171E+02  .211E+02  .221E+02  .181E+02  .221E+02
  .227E+02  .243E+02  .244E+02  .235E+02  .225E+02  .226E+02  .226E+02  .227E+02
  .221E+02  .216E+02  .216E+02  .256E+02  .257E+02  .221E+02  .221E+02  .216E+02
  .216E+02  .221E+02  .221E+02  .221E+02  .221E+02  .221E+02  .221E+02  .216E+02
  .216E+02  .216E+02  .216E+02  .216E+02  .000E+00  .000E+00  .000E+00  .000E+00
  .000E+00  .000E+00  .000E+00  .000E+00  .000E+00  .000E+00  .000E+00  .000E+00
  .000E+00  .000E+00  .000E+00  .000E+00  .000E+00  .000E+00  .000E+00  .000E+00
  .000E+00  .000E+00  .000E+00  .000E+00
  .199E+02  .214E+02  .175E+02  .174E+02  .174E+02  .174E+02  .175E+02  .162E+02
  .170E+02  .162E+02  .162E+02  .162E+02  .162E+02  .162E+02  .162E+02  .179E+02
  .170E+02  .175E+02  .162E+02  .219E+02  .174E+02  .161E+02  .199E+02  .200E+02
  .182E+02  .189E+02  .183E+02  .235E+02  .176E+02  .176E+02  .173E+02  .164E+02
  .164E+02  .200E+02  .173E+02  .173E+02  .174E+02  .209E+02  .256E+02  .238E+02
  .213E+02  .169E+02  .169E+02  .173E+02  .178E+02  .219E+02  .183E+02  .219E+02
  .230E+02  .245E+02  .246E+02  .243E+02  .228E+02  .229E+02  .223E+02  .224E+02
  .218E+02  .218E+02  .214E+02  .218E+02  .224E+02  .218E+02  .218E+02  .219E+02
  .218E+02  .218E+02  .218E+02  .218E+02  .218E+02  .218E+02  .219E+02  .219E+02
  .219E+02  .219E+02  .219E+02  .219E+02  .000E+00  .000E+00  .000E+00  .000E+00
  .000E+00  .000E+00  .000E+00  .000E+00  .000E+00  .000E+00  .000E+00  .000E+00
  .000E+00  .000E+00  .000E+00  .000E+00  .000E+00  .000E+00  .000E+00  .000E+00
  .000E+00  .000E+00  .000E+00  .000E+00
  .216E+02  .216E+02  .216E+02  .216E+02  .216E+02  .216E+02  .216E+02  .216E+02
  .216E+02  .216E+02  .216E+02  .216E+02  .216E+02  .216E+02  .216E+02  .216E+02
  .216E+02  .216E+02  .216E+02  .216E+02  .216E+02  .216E+02  .216E+02  .215E+02
  .216E+02  .216E+02  .215E+02  .216E+02  .175E+02  .171E+02  .172E+02  .163E+02
  .164E+02  .201E+02  .172E+02  .216E+02  .166E+02  .211E+02  .257E+02  .211E+02
  .212E+02  .216E+02  .171E+02  .171E+02  .211E+02  .221E+02  .181E+02  .221E+02
  .227E+02  .243E+02  .244E+02  .235E+02  .225E+02  .226E+02  .226E+02  .227E+02
  .221E+02  .216E+02  .216E+02  .256E+02  .257E+02  .221E+02  .221E+02  .216E+02
  .216E+02  .221E+02  .221E+02  .221E+02  .221E+02  .221E+02  .221E+02  .215E+02
  .215E+02  .215E+02  .215E+02  .215E+02  .000E+00  .000E+00  .000E+00  .000E+00
  .000E+00  .000E+00  .000E+00  .000E+00  .000E+00  .000E+00  .000E+00  .000E+00
  .000E+00  .000E+00  .000E+00  .000E+00  .000E+00  .000E+00  .000E+00  .000E+00
  .000E+00  .000E+00  .000E+00  .000E+00
Damping =  .05. Data of Sd,Sv,Sa,Pssv,ttSd,ttSv,ttSa :
  .815E-03  .892E-03  .980E-03  .108E-02  .118E-02  .127E-02  .155E-02  .185E-02
