Response and Fourier amplitude spectra (76 periods,  .04 -  5.0 sec)   for      
Corrected accelerogram   24605-E0822-14091.06       Chan  2:  90 Deg     from   
Uncorrected Accelerogram Data             Processed: 04/01/14, CGS  e0822e06    
Rcrd of Fri Mar 28, 2014 21:10:13.4 PDT*              (Avol1 v0.5, 2/14 CSMIP)  
CSMIP Preliminary Processing            (Origin:  To be determined)             
24605-E0822-14091.06                 Start time:  3/29/14, 04:10:13.4(*LoQ*)    
Station No. 24605   34.062N, 118.201W    SSA-1   s/n  822  (4 Chns of 27 at Sta)
Los Angeles - 7-story Univ. Hospital      CGS   Data: Acceleration              
Chan  2:  90 DegR (Sta Chn: 18)     Location: 6th Floor: North wall             
Rcrd of Fri Mar 28, 2014 21:10:13.4 PDT*   Fri Mar 28, 2014 21:10:13.4 PDT*     
Hypocenter:  To be determined.               ML:  To be determined.
Instr Period =  .0188 sec,  Damping =  .680,  Sensitivity = 1.25 v/g
                        Record length = 78.080 sec.
                                     Uncor Max  =  -.021 g , at  21.665 sec.
RMS accel of (uncor) record  =        .   Chn. metadata effective date: 05/02/91
Accelerogram bandpass filtered with 3 dB pts at   .20 and 40.00 cyc/sec
                 instrument- and baseline-corrected





Rcrd of Fri Mar 28, 2014 21:10:13.4 PDT*   Fri Mar 28, 2014 21:10:13.4 PDT*

24605-E0822-14091.06      Los Angeles - 7-story Univ. Hospital    Chan  2:  90 D
eg
24605-E0822-14091.06      Los Angeles - 7-story Univ. Hospital    Chan  2:  90 D
eg
Units for spectra are inches and sec, except Sa is in fraction of g.

    2  100   18    4   27  200    1    3    1   12    5  822    024605    2    0
    4   10   13  410   88    3   29 2014    0    6   9015616   39   36   74   -1
15616    0  100    3 2115    7    6   61    2    4   10   13  410    3   29 2014
    0    0    3    0 7808    2  220    1   12    4    0    0    3    1    0 7808
    3 7808    4   76    5    4    5    0    1    0    0    0    1    3    5    2
    2    2    4    0   72   99    2    3    0    0  772    1    0    0    0  222
    1    0    2    0
      .019      .680    78.080      .004      .000  1253.000     -.021    21.665
    53.300  1220.703   974.224      .000     5.000  -999.000     2.000      .000
     2.500     4.463     2.500   376.000    15.360    30.000  -999.000      .018
      .015     -.004     2.000    15.000    34.062  -118.201      .483      .888
     1.840     -.079      .071   115.000      .000      .000      .000      .000
     1.000    -9.805      .000  -999.000  -999.000  -999.000  -999.000      .000
     9.200      .500     6.300   980.665      .010    78.080     8.483      .000
      .000    40.000      .000    78.080      .010      .200      .000      .000
    21.690   -20.609    28.680     2.944    24.600      .526     -.001      .200
    40.000      .010      .010     -.001      .010      .265      .000      .000
      .124      .950      .034      .057      .107      .003      .000      .000
      .000      .000      .000      .000      .000      .000      .000      .000
      .000      .000      .000      .000
      .000      .020      .050      .100      .200
      .040      .042      .044      .046      .048      .050      .055      .060
      .065      .070      .075      .080      .085      .090      .095      .100
      .110      .120      .130      .140      .150      .160      .170      .180
      .190      .200      .220      .240      .260      .280      .300      .320
      .340      .360      .380      .400      .420      .440      .460      .480
      .500      .550      .600      .650      .700      .750      .800      .850
      .900      .950     1.000     1.100     1.200     1.300     1.400     1.500
     1.600     1.700     1.800     1.900     2.000     2.200     2.400     2.600
     2.800     3.000     3.200     3.400     3.600     3.800     4.000     4.200
     4.400     4.600     4.800     5.000      .000      .000      .000      .000
      .000      .000      .000      .000      .000      .000      .000      .000
      .000      .000      .000      .000      .000      .000      .000      .000
      .000      .000      .000      .000
Fourier amplitude spectra in in/sec.
  .665E-01  .622E-01  .886E-01  .308E-01  .248E-01  .673E-01  .964E-01  .796E-01
  .112E+00  .179E+00  .112E+00  .346E-01  .108E+00  .168E+00  .436E-01  .159E+00
  .222E+00  .556E+00  .508E+00  .229E+00  .125E+01  .384E+00  .448E+00  .787E+00
  .928E+00  .176E+01  .566E+00  .435E+00  .339E+01  .284E+01  .309E+01  .377E+01
  .146E+01  .316E+01  .140E+01  .112E+01  .585E+00  .616E+00  .769E+00  .157E+01
  .219E+01  .152E+01  .196E+01  .666E+00  .405E+01  .149E+02  .138E+01  .122E+02
  .137E+02  .139E+02  .224E+02  .866E+01  .496E+01  .419E+01  .599E+00  .506E+01
  .265E+01  .103E+01  .268E+00  .153E+01  .114E+01  .555E+00  .376E+00  .248E+00
  .537E+00  .511E+00  .126E+01  .332E+00  .394E+00  .430E+00  .678E+00  .527E+00
  .334E+00  .574E+00  .435E+00  .372E+00  .000E+00  .000E+00  .000E+00  .000E+00
  .000E+00  .000E+00  .000E+00  .000E+00  .000E+00  .000E+00  .000E+00  .000E+00
  .000E+00  .000E+00  .000E+00  .000E+00  .000E+00  .000E+00  .000E+00  .000E+00
  .000E+00  .000E+00  .000E+00  .000E+00
Damping =  .00. Data of Sd,Sv,Sa,Pssv,ttSd,ttSv,ttSa :
  .496E-03  .593E-03  .903E-03  .741E-03  .769E-03  .749E-03  .114E-02  .111E-02
  .147E-02  .265E-02  .268E-02  .218E-02  .328E-02  .442E-02  .242E-02  .498E-02
  .537E-02  .145E-01  .138E-01  .109E-01  .332E-01  .220E-01  .202E-01  .287E-01
  .330E-01  .579E-01  .391E-01  .482E-01  .147E+00  .139E+00  .152E+00  .203E+00
  .130E+00  .222E+00  .111E+00  .136E+00  .123E+00  .106E+00  .142E+00  .200E+00
  .220E+00  .252E+00  .451E+00  .311E+00  .616E+00  .205E+01  .841E+00  .170E+01
  .229E+01  .291E+01  .371E+01  .160E+01  .116E+01  .973E+00  .763E+00  .124E+01
  .941E+00  .581E+00  .489E+00  .463E+00  .384E+00  .335E+00  .295E+00  .304E+00
  .332E+00  .416E+00  .643E+00  .401E+00  .363E+00  .387E+00  .502E+00  .443E+00
  .384E+00  .426E+00  .448E+00  .342E+00  .000E+00  .000E+00  .000E+00  .000E+00
  .000E+00  .000E+00  .000E+00  .000E+00  .000E+00  .000E+00  .000E+00  .000E+00
  .000E+00  .000E+00  .000E+00  .000E+00  .000E+00  .000E+00  .000E+00  .000E+00
  .000E+00  .000E+00  .000E+00  .000E+00
  .654E-01  .855E-01  .969E-01  .713E-01  .558E-01  .799E-01  .976E-01  .817E-01
  .113E+00  .221E+00  .187E+00  .884E-01  .169E+00  .221E+00  .106E+00  .211E+00
  .274E+00  .663E+00  .558E+00  .380E+00  .125E+01  .794E+00  .597E+00  .979E+00
  .951E+00  .177E+01  .971E+00  .108E+01  .346E+01  .297E+01  .312E+01  .393E+01
  .224E+01  .359E+01  .178E+01  .201E+01  .145E+01  .129E+01  .172E+01  .247E+01
  .267E+01  .252E+01  .432E+01  .295E+01  .528E+01  .171E+02  .668E+01  .126E+02
  .161E+02  .193E+02  .234E+02  .923E+01  .605E+01  .520E+01  .397E+01  .520E+01
  .415E+01  .294E+01  .223E+01  .190E+01  .159E+01  .154E+01  .148E+01  .144E+01
  .137E+01  .142E+01  .157E+01  .140E+01  .145E+01  .141E+01  .135E+01  .129E+01
  .121E+01  .120E+01  .122E+01  .121E+01  .000E+00  .000E+00  .000E+00  .000E+00
  .000E+00  .000E+00  .000E+00  .000E+00  .000E+00  .000E+00  .000E+00  .000E+00
  .000E+00  .000E+00  .000E+00  .000E+00  .000E+00  .000E+00  .000E+00  .000E+00
  .000E+00  .000E+00  .000E+00  .000E+00
  .317E-01  .344E-01  .477E-01  .358E-01  .342E-01  .306E-01  .384E-01  .315E-01
  .356E-01  .552E-01  .488E-01  .348E-01  .465E-01  .558E-01  .274E-01  .510E-01
  .454E-01  .103E+00  .837E-01  .566E-01  .151E+00  .880E-01  .716E-01  .906E-01
  .936E-01  .148E+00  .827E-01  .856E-01  .223E+00  .181E+00  .173E+00  .203E+00
  .115E+00  .175E+00  .784E-01  .868E-01  .713E-01  .561E-01  .688E-01  .889E-01
  .899E-01  .852E-01  .128E+00  .752E-01  .129E+00  .373E+00  .134E+00  .241E+00
  .290E+00  .330E+00  .380E+00  .135E+00  .821E-01  .589E-01  .398E-01  .562E-01
  .376E-01  .206E-01  .154E-01  .131E-01  .983E-02  .709E-02  .524E-02  .460E-02
  .433E-02  .473E-02  .642E-02  .355E-02  .286E-02  .274E-02  .321E-02  .257E-02
  .203E-02  .206E-02  .199E-02  .140E-02  .000E+00  .000E+00  .000E+00  .000E+00
  .000E+00  .000E+00  .000E+00  .000E+00  .000E+00  .000E+00  .000E+00  .000E+00
  .000E+00  .000E+00  .000E+00  .000E+00  .000E+00  .000E+00  .000E+00  .000E+00
  .000E+00  .000E+00  .000E+00  .000E+00
  .780E-01  .888E-01  .129E+00  .101E+00  .101E+00  .941E-01  .130E+00  .116E+00
  .142E+00  .238E+00  .225E+00  .171E+00  .243E+00  .309E+00  .160E+00  .313E+00
  .307E+00  .758E+00  .668E+00  .487E+00  .139E+01  .865E+00  .748E+00  .100E+01
  .109E+01  .182E+01  .112E+01  .126E+01  .356E+01  .312E+01  .319E+01  .399E+01
  .240E+01  .388E+01  .183E+01  .213E+01  .184E+01  .152E+01  .194E+01  .262E+01
  .276E+01  .288E+01  .472E+01  .300E+01  .553E+01  .172E+02  .660E+01  .126E+02
  .160E+02  .193E+02  .233E+02  .911E+01  .606E+01  .470E+01  .343E+01  .518E+01
  .369E+01  .215E+01  .171E+01  .153E+01  .121E+01  .958E+00  .773E+00  .735E+00
  .746E+00  .872E+00  .126E+01  .741E+00  .633E+00  .640E+00  .788E+00  .663E+00
  .548E+00  .582E+00  .586E+00  .430E+00  .000E+00  .000E+00  .000E+00  .000E+00
  .000E+00  .000E+00  .000E+00  .000E+00  .000E+00  .000E+00  .000E+00  .000E+00
  .000E+00  .000E+00  .000E+00  .000E+00  .000E+00  .000E+00  .000E+00  .000E+00
  .000E+00  .000E+00  .000E+00  .000E+00
  .193E+02  .226E+02  .285E+02  .217E+02  .226E+02  .285E+02  .221E+02  .226E+02
  .217E+02  .619E+02  .284E+02  .221E+02  .284E+02  .285E+02  .226E+02  .221E+02
  .226E+02  .251E+02  .221E+02  .193E+02  .285E+02  .188E+02  .235E+02  .457E+02
  .251E+02  .615E+02  .226E+02  .193E+02  .619E+02  .256E+02  .231E+02  .616E+02
  .264E+02  .284E+02  .380E+02  .250E+02  .285E+02  .288E+02  .285E+02  .289E+02
  .354E+02  .231E+02  .288E+02  .314E+02  .222E+02  .390E+02  .317E+02  .627E+02
  .336E+02  .271E+02  .584E+02  .376E+02  .527E+02  .279E+02  .256E+02  .738E+02
  .284E+02  .246E+02  .217E+02  .776E+02  .701E+02  .620E+02  .216E+02  .217E+02
  .598E+02  .409E+02  .771E+02  .284E+02  .251E+02  .355E+02  .681E+02  .325E+02
  .325E+02  .747E+02  .619E+02  .583E+02  .000E+00  .000E+00  .000E+00  .000E+00
  .000E+00  .000E+00  .000E+00  .000E+00  .000E+00  .000E+00  .000E+00  .000E+00
  .000E+00  .000E+00  .000E+00  .000E+00  .000E+00  .000E+00  .000E+00  .000E+00
  .000E+00  .000E+00  .000E+00  .000E+00
  .758E+02  .651E+02  .337E+02  .618E+02  .159E+02  .566E+02  .750E+02  .635E+02
  .749E+02  .617E+02  .377E+02  .202E+02  .424E+02  .291E+02  .155E+02  .184E+02
  .598E+02  .250E+02  .600E+02  .166E+02  .777E+02  .194E+02  .244E+02  .462E+02
  .220E+02  .634E+02  .220E+02  .225E+02  .645E+02  .377E+02  .734E+02  .621E+02
  .263E+02  .305E+02  .408E+02  .243E+02  .286E+02  .287E+02  .286E+02  .304E+02
  .353E+02  .232E+02  .287E+02  .316E+02  .348E+02  .392E+02  .319E+02  .625E+02
  .334E+02  .274E+02  .581E+02  .379E+02  .524E+02  .282E+02  .253E+02  .742E+02
  .287E+02  .243E+02  .213E+02  .214E+02  .243E+02  .287E+02  .220E+02  .287E+02
  .214E+02  .287E+02  .287E+02  .225E+02  .282E+02  .282E+02  .248E+02  .248E+02
  .248E+02  .220E+02  .287E+02  .287E+02  .000E+00  .000E+00  .000E+00  .000E+00
  .000E+00  .000E+00  .000E+00  .000E+00  .000E+00  .000E+00  .000E+00  .000E+00
  .000E+00  .000E+00  .000E+00  .000E+00  .000E+00  .000E+00  .000E+00  .000E+00
  .000E+00  .000E+00  .000E+00  .000E+00
  .193E+02  .226E+02  .285E+02  .217E+02  .226E+02  .285E+02  .221E+02  .226E+02
  .217E+02  .619E+02  .284E+02  .221E+02  .284E+02  .285E+02  .226E+02  .221E+02
  .226E+02  .251E+02  .221E+02  .193E+02  .285E+02  .188E+02  .235E+02  .457E+02
  .251E+02  .615E+02  .226E+02  .193E+02  .619E+02  .256E+02  .231E+02  .616E+02
  .264E+02  .284E+02  .380E+02  .250E+02  .285E+02  .288E+02  .285E+02  .289E+02
  .354E+02  .231E+02  .288E+02  .314E+02  .222E+02  .390E+02  .317E+02  .627E+02
  .336E+02  .271E+02  .584E+02  .376E+02  .527E+02  .279E+02  .256E+02  .738E+02
  .284E+02  .246E+02  .217E+02  .776E+02  .701E+02  .620E+02  .216E+02  .217E+02
  .598E+02  .409E+02  .771E+02  .284E+02  .251E+02  .355E+02  .681E+02  .325E+02
  .325E+02  .747E+02  .619E+02  .583E+02  .000E+00  .000E+00  .000E+00  .000E+00
  .000E+00  .000E+00  .000E+00  .000E+00  .000E+00  .000E+00  .000E+00  .000E+00
  .000E+00  .000E+00  .000E+00  .000E+00  .000E+00  .000E+00  .000E+00  .000E+00
  .000E+00  .000E+00  .000E+00  .000E+00
Damping =  .02. Data of Sd,Sv,Sa,Pssv,ttSd,ttSv,ttSa :
  .347E-03  .397E-03  .415E-03  .461E-03  .509E-03  .546E-03  .675E-03  .767E-03
  .885E-03  .112E-02  .127E-02  .147E-02  .164E-02  .201E-02  .223E-02  .232E-02
  .348E-02  .395E-02  .539E-02  .586E-02  .132E-01  .113E-01  .121E-01  .136E-01
  .121E-01  .154E-01  .227E-01  .364E-01  .601E-01  .644E-01  .762E-01  .723E-01
  .685E-01  .825E-01  .722E-01  .761E-01  .757E-01  .756E-01  .917E-01  .123E+00
  .131E+00  .149E+00  .248E+00  .217E+00  .433E+00  .660E+00  .740E+00  .106E+01
  .122E+01  .178E+01  .189E+01  .105E+01  .868E+00  .786E+00  .662E+00  .714E+00
  .673E+00  .506E+00  .442E+00  .350E+00  .297E+00  .288E+00  .280E+00  .284E+00
  .281E+00  .292E+00  .291E+00  .349E+00  .333E+00  .311E+00  .355E+00  .372E+00
  .338E+00  .279E+00  .272E+00  .258E+00  .000E+00  .000E+00  .000E+00  .000E+00
  .000E+00  .000E+00  .000E+00  .000E+00  .000E+00  .000E+00  .000E+00  .000E+00
  .000E+00  .000E+00  .000E+00  .000E+00  .000E+00  .000E+00  .000E+00  .000E+00
  .000E+00  .000E+00  .000E+00  .000E+00
  .986E-02  .107E-01  .111E-01  .134E-01  .139E-01  .135E-01  .152E-01  .197E-01
  .222E-01  .316E-01  .349E-01  .357E-01  .476E-01  .545E-01  .713E-01  .984E-01
  .967E-01  .147E+00  .173E+00  .221E+00  .498E+00  .369E+00  .281E+00  .322E+00
  .328E+00  .409E+00  .488E+00  .719E+00  .132E+01  .124E+01  .132E+01  .115E+01
  .111E+01  .128E+01  .100E+01  .970E+00  .101E+01  .804E+00  .962E+00  .121E+01
  .135E+01  .163E+01  .231E+01  .206E+01  .383E+01  .528E+01  .592E+01  .793E+01
  .875E+01  .118E+02  .120E+02  .658E+01  .519E+01  .420E+01  .355E+01  .325E+01
  .328E+01  .256E+01  .207E+01  .182E+01  .156E+01  .151E+01  .141E+01  .139E+01
  .134E+01  .138E+01  .148E+01  .137E+01  .136E+01  .134E+01  .132E+01  .127E+01
  .120E+01  .118E+01  .120E+01  .120E+01  .000E+00  .000E+00  .000E+00  .000E+00
  .000E+00  .000E+00  .000E+00  .000E+00  .000E+00  .000E+00  .000E+00  .000E+00
  .000E+00  .000E+00  .000E+00  .000E+00  .000E+00  .000E+00  .000E+00  .000E+00
  .000E+00  .000E+00  .000E+00  .000E+00
  .222E-01  .230E-01  .219E-01  .223E-01  .226E-01  .224E-01  .228E-01  .218E-01
  .214E-01  .234E-01  .231E-01  .235E-01  .232E-01  .253E-01  .252E-01  .237E-01
  .294E-01  .281E-01  .327E-01  .306E-01  .603E-01  .450E-01  .428E-01  .430E-01
  .342E-01  .394E-01  .479E-01  .648E-01  .909E-01  .841E-01  .865E-01  .722E-01
  .607E-01  .651E-01  .511E-01  .487E-01  .439E-01  .400E-01  .443E-01  .549E-01
  .536E-01  .503E-01  .704E-01  .524E-01  .906E-01  .120E+00  .118E+00  .150E+00
  .154E+00  .201E+00  .193E+00  .886E-01  .617E-01  .476E-01  .346E-01  .325E-01
  .269E-01  .179E-01  .140E-01  .993E-02  .762E-02  .611E-02  .499E-02  .432E-02
  .368E-02  .333E-02  .292E-02  .311E-02  .265E-02  .221E-02  .228E-02  .216E-02
  .179E-02  .137E-02  .121E-02  .107E-02  .000E+00  .000E+00  .000E+00  .000E+00
  .000E+00  .000E+00  .000E+00  .000E+00  .000E+00  .000E+00  .000E+00  .000E+00
  .000E+00  .000E+00  .000E+00  .000E+00  .000E+00  .000E+00  .000E+00  .000E+00
  .000E+00  .000E+00  .000E+00  .000E+00
  .545E-01  .594E-01  .593E-01  .630E-01  .666E-01  .687E-01  .772E-01  .803E-01
  .855E-01  .100E+00  .106E+00  .115E+00  .121E+00  .140E+00  .147E+00  .145E+00
  .199E+00  .207E+00  .260E+00  .263E+00  .553E+00  .442E+00  .448E+00  .476E+00
  .399E+00  .483E+00  .647E+00  .953E+00  .145E+01  .145E+01  .160E+01  .142E+01
  .127E+01  .144E+01  .119E+01  .120E+01  .113E+01  .108E+01  .125E+01  .162E+01
  .165E+01  .170E+01  .259E+01  .209E+01  .389E+01  .553E+01  .581E+01  .781E+01
  .853E+01  .117E+02  .118E+02  .598E+01  .454E+01  .380E+01  .297E+01  .299E+01
  .264E+01  .187E+01  .154E+01  .116E+01  .935E+00  .823E+00  .733E+00  .687E+00
  .630E+00  .612E+00  .572E+00  .645E+00  .582E+00  .514E+00  .558E+00  .556E+00
  .483E+00  .382E+00  .356E+00  .324E+00  .000E+00  .000E+00  .000E+00  .000E+00
  .000E+00  .000E+00  .000E+00  .000E+00  .000E+00  .000E+00  .000E+00  .000E+00
  .000E+00  .000E+00  .000E+00  .000E+00  .000E+00  .000E+00  .000E+00  .000E+00
  .000E+00  .000E+00  .000E+00  .000E+00
  .226E+02  .226E+02  .221E+02  .193E+02  .193E+02  .217E+02  .193E+02  .221E+02
  .193E+02  .217E+02  .193E+02  .217E+02  .221E+02  .193E+02  .193E+02  .193E+02
  .221E+02  .169E+02  .221E+02  .165E+02  .169E+02  .168E+02  .217E+02  .217E+02
  .164E+02  .209E+02  .189E+02  .193E+02  .194E+02  .221E+02  .231E+02  .227E+02
  .201E+02  .196E+02  .227E+02  .197E+02  .285E+02  .288E+02  .288E+02  .289E+02
  .289E+02  .193E+02  .201E+02  .184E+02  .347E+02  .236E+02  .302E+02  .299E+02
  .291E+02  .262E+02  .259E+02  .288E+02  .226E+02  .226E+02  .256E+02  .289E+02
  .284E+02  .246E+02  .216E+02  .217E+02  .211E+02  .241E+02  .216E+02  .217E+02
  .211E+02  .211E+02  .284E+02  .284E+02  .251E+02  .279E+02  .342E+02  .325E+02
  .325E+02  .289E+02  .619E+02  .289E+02  .000E+00  .000E+00  .000E+00  .000E+00
  .000E+00  .000E+00  .000E+00  .000E+00  .000E+00  .000E+00  .000E+00  .000E+00
  .000E+00  .000E+00  .000E+00  .000E+00  .000E+00  .000E+00  .000E+00  .000E+00
  .000E+00  .000E+00  .000E+00  .000E+00
  .111E+02  .224E+02  .181E+02  .181E+02  .221E+02  .221E+02  .221E+02  .169E+02
  .184E+02  .189E+02  .177E+02  .169E+02  .208E+02  .194E+02  .175E+02  .165E+02
  .169E+02  .171E+02  .118E+02  .123E+02  .172E+02  .170E+02  .168E+02  .218E+02
  .182E+02  .142E+02  .182E+02  .192E+02  .194E+02  .225E+02  .230E+02  .228E+02
  .195E+02  .195E+02  .214E+02  .195E+02  .191E+02  .191E+02  .287E+02  .290E+02
  .290E+02  .191E+02  .199E+02  .183E+02  .345E+02  .333E+02  .304E+02  .301E+02
  .294E+02  .264E+02  .261E+02  .290E+02  .229E+02  .224E+02  .253E+02  .286E+02
  .287E+02  .243E+02  .220E+02  .213E+02  .243E+02  .287E+02  .220E+02  .287E+02
  .213E+02  .287E+02  .287E+02  .225E+02  .282E+02  .248E+02  .248E+02  .248E+02
  .248E+02  .220E+02  .287E+02  .287E+02  .000E+00  .000E+00  .000E+00  .000E+00
  .000E+00  .000E+00  .000E+00  .000E+00  .000E+00  .000E+00  .000E+00  .000E+00
  .000E+00  .000E+00  .000E+00  .000E+00  .000E+00  .000E+00  .000E+00  .000E+00
  .000E+00  .000E+00  .000E+00  .000E+00
  .226E+02  .226E+02  .221E+02  .193E+02  .193E+02  .217E+02  .193E+02  .221E+02
  .193E+02  .217E+02  .193E+02  .217E+02  .221E+02  .193E+02  .193E+02  .193E+02
  .221E+02  .169E+02  .221E+02  .165E+02  .169E+02  .168E+02  .217E+02  .217E+02
  .164E+02  .209E+02  .189E+02  .193E+02  .194E+02  .221E+02  .231E+02  .227E+02
  .201E+02  .196E+02  .227E+02  .197E+02  .285E+02  .288E+02  .288E+02  .289E+02
  .289E+02  .193E+02  .201E+02  .184E+02  .347E+02  .236E+02  .302E+02  .299E+02
  .296E+02  .262E+02  .258E+02  .288E+02  .226E+02  .226E+02  .256E+02  .288E+02
  .284E+02  .246E+02  .216E+02  .217E+02  .211E+02  .240E+02  .216E+02  .216E+02
  .211E+02  .211E+02  .284E+02  .284E+02  .251E+02  .279E+02  .341E+02  .324E+02
  .325E+02  .288E+02  .619E+02  .289E+02  .000E+00  .000E+00  .000E+00  .000E+00
  .000E+00  .000E+00  .000E+00  .000E+00  .000E+00  .000E+00  .000E+00  .000E+00
  .000E+00  .000E+00  .000E+00  .000E+00  .000E+00  .000E+00  .000E+00  .000E+00
  .000E+00  .000E+00  .000E+00  .000E+00
Damping =  .05. Data of Sd,Sv,Sa,Pssv,ttSd,ttSv,ttSa :
  .339E-03  .374E-03  .404E-03  .441E-03  .490E-03  .535E-03  .658E-03  .764E-03
