Response and Fourier amplitude spectra (76 periods,  .04 -  5.0 sec)   for      
Corrected accelerogram   24605-E0823-14091.06       Chan  3:  90 Deg     from   
Uncorrected Accelerogram Data             Processed: 04/01/14, CGS  e0823e06    
Rcrd of Thu Mar 27, 2014 23:11:30.4 PDT*              (Avol1 v0.5, 2/14 CSMIP)  
CSMIP Preliminary Processing            (Origin:  To be determined)             
24605-E0823-14091.06                 Start time:  3/28/14, 06:11:30.4(*LoQ*)    
Station No. 24605   34.062N, 118.201W    SSA-1   s/n  823  (4 Chns of 27 at Sta)
Los Angeles - 7-story Univ. Hospital      CGS   Data: Acceleration              
Chan  3:  90 DegR (Sta Chn: 23)     Location: Roof: Center                      
Rcrd of Thu Mar 27, 2014 23:11:30.4 PDT*   Thu Mar 27, 2014 23:11:30.4 PDT*     
Hypocenter:  To be determined.               ML:  To be determined.
Instr Period =  .0188 sec,  Damping =  .640,  Sensitivity = 1.25 v/g
                        Record length = 78.080 sec.
                                     Uncor Max  =  -.031 g , at  21.510 sec.
RMS accel of (uncor) record  =        .   Chn. metadata effective date: 05/02/91
Accelerogram bandpass filtered with 3 dB pts at   .20 and 40.00 cyc/sec
                 instrument- and baseline-corrected





Rcrd of Thu Mar 27, 2014 23:11:30.4 PDT*   Thu Mar 27, 2014 23:11:30.4 PDT*

24605-E0823-14091.06      Los Angeles - 7-story Univ. Hospital    Chan  3:  90 D
eg
24605-E0823-14091.06      Los Angeles - 7-story Univ. Hospital    Chan  3:  90 D
eg
Units for spectra are inches and sec, except Sa is in fraction of g.

    3  100   23    4   27  200    1    3    1   12    5  823    024605    2    0
    6   11   30  410   87    3   28 2014    0    6   9015616   39   36   74   -1
15616    0  100    3 2115    7    6   61    2    6   11   30  410    3   28 2014
    0    0    3    0 7808    2  220    1   12    4    0    0    3    1    0 7808
    3 7808    4   76    5    4    5    0    1    0    0    0    1    3    6    2
    2    2    4    0   72   99    2    3    0    0  772    1    0    0    0  222
    1    0    3    0
      .019      .640    78.080      .005      .000  1246.000     -.031    21.510
    53.100  1220.703   979.698      .000     5.000  -999.000     2.000      .000
     2.500    -5.379     2.500   376.000    15.360    30.000  -999.000     -.139
      .017      .156     2.000    15.000    34.062  -118.201      .473     1.209
     2.557      .073      .239   115.000      .000      .000      .000      .000
     1.000    21.587      .000  -999.000  -999.000  -999.000  -999.000      .000
     9.200      .500     6.300   980.665      .010    78.080     8.451      .000
      .000    40.000      .000    78.080      .010      .200      .000      .000
    21.520   -30.338    20.340     3.868    20.560      .649      .000      .200
    40.000      .010      .010     -.004      .010      .335      .000      .000
      .166      .900      .054      .064      .129      .004      .000      .000
      .000      .000      .000      .000      .000      .000      .000      .000
      .000      .000      .000      .000
      .000      .020      .050      .100      .200
      .040      .042      .044      .046      .048      .050      .055      .060
      .065      .070      .075      .080      .085      .090      .095      .100
      .110      .120      .130      .140      .150      .160      .170      .180
      .190      .200      .220      .240      .260      .280      .300      .320
      .340      .360      .380      .400      .420      .440      .460      .480
      .500      .550      .600      .650      .700      .750      .800      .850
      .900      .950     1.000     1.100     1.200     1.300     1.400     1.500
     1.600     1.700     1.800     1.900     2.000     2.200     2.400     2.600
     2.800     3.000     3.200     3.400     3.600     3.800     4.000     4.200
     4.400     4.600     4.800     5.000      .000      .000      .000      .000
      .000      .000      .000      .000      .000      .000      .000      .000
      .000      .000      .000      .000      .000      .000      .000      .000
      .000      .000      .000      .000
Fourier amplitude spectra in in/sec.
  .239E-01  .780E-01  .129E+00  .313E+00  .311E-01  .703E-01  .179E-01  .375E-01
  .438E-01  .113E+00  .133E+00  .118E+00  .285E+00  .270E-01  .182E+00  .222E+00
  .174E+00  .401E+00  .290E+00  .295E+00  .485E+00  .363E+00  .394E+00  .174E+01
  .644E+00  .146E+01  .195E+00  .117E+01  .402E+01  .316E+01  .383E+01  .428E+01
  .223E+01  .475E+01  .229E+01  .227E+01  .197E+01  .155E+01  .472E+01  .315E+01
  .447E+01  .120E+01  .422E+01  .183E+01  .651E+01  .136E+02  .407E+01  .201E+02
  .248E+02  .181E+02  .327E+02  .147E+02  .543E+01  .493E+01  .138E+01  .543E+01
  .241E+01  .657E+00  .276E+00  .155E+01  .937E+00  .603E+00  .385E+00  .433E+00
  .689E+00  .540E+00  .132E+01  .330E+00  .267E+00  .565E+00  .668E+00  .443E+00
  .294E+00  .499E+00  .453E+00  .391E+00  .000E+00  .000E+00  .000E+00  .000E+00
  .000E+00  .000E+00  .000E+00  .000E+00  .000E+00  .000E+00  .000E+00  .000E+00
  .000E+00  .000E+00  .000E+00  .000E+00  .000E+00  .000E+00  .000E+00  .000E+00
  .000E+00  .000E+00  .000E+00  .000E+00
Damping =  .00. Data of Sd,Sv,Sa,Pssv,ttSd,ttSv,ttSa :
  .695E-03  .760E-03  .116E-02  .232E-02  .892E-03  .888E-03  .103E-02  .158E-02
  .161E-02  .229E-02  .278E-02  .347E-02  .465E-02  .400E-02  .578E-02  .640E-02
  .742E-02  .116E-01  .125E-01  .123E-01  .206E-01  .223E-01  .216E-01  .581E-01
  .280E-01  .501E-01  .396E-01  .686E-01  .173E+00  .164E+00  .186E+00  .237E+00
  .141E+00  .333E+00  .196E+00  .313E+00  .142E+00  .218E+00  .461E+00  .418E+00
  .465E+00  .313E+00  .647E+00  .373E+00  .727E+00  .166E+01  .974E+00  .288E+01
  .365E+01  .328E+01  .553E+01  .264E+01  .134E+01  .130E+01  .941E+00  .132E+01
  .914E+00  .652E+00  .512E+00  .505E+00  .433E+00  .375E+00  .286E+00  .317E+00
  .398E+00  .437E+00  .671E+00  .408E+00  .417E+00  .438E+00  .486E+00  .460E+00
  .334E+00  .369E+00  .452E+00  .349E+00  .000E+00  .000E+00  .000E+00  .000E+00
  .000E+00  .000E+00  .000E+00  .000E+00  .000E+00  .000E+00  .000E+00  .000E+00
  .000E+00  .000E+00  .000E+00  .000E+00  .000E+00  .000E+00  .000E+00  .000E+00
  .000E+00  .000E+00  .000E+00  .000E+00
  .491E-01  .832E-01  .134E+00  .314E+00  .503E-01  .816E-01  .507E-01  .989E-01
  .930E-01  .137E+00  .171E+00  .179E+00  .299E+00  .149E+00  .242E+00  .289E+00
  .314E+00  .488E+00  .447E+00  .339E+00  .733E+00  .676E+00  .670E+00  .186E+01
  .749E+00  .149E+01  .860E+00  .153E+01  .414E+01  .344E+01  .387E+01  .457E+01
  .235E+01  .574E+01  .314E+01  .482E+01  .208E+01  .280E+01  .624E+01  .540E+01
  .574E+01  .336E+01  .629E+01  .344E+01  .651E+01  .138E+02  .741E+01  .213E+02
  .255E+02  .211E+02  .349E+02  .153E+02  .709E+01  .665E+01  .482E+01  .559E+01
  .432E+01  .326E+01  .261E+01  .235E+01  .219E+01  .195E+01  .185E+01  .172E+01
  .174E+01  .170E+01  .169E+01  .164E+01  .168E+01  .174E+01  .172E+01  .161E+01
  .163E+01  .163E+01  .162E+01  .160E+01  .000E+00  .000E+00  .000E+00  .000E+00
  .000E+00  .000E+00  .000E+00  .000E+00  .000E+00  .000E+00  .000E+00  .000E+00
  .000E+00  .000E+00  .000E+00  .000E+00  .000E+00  .000E+00  .000E+00  .000E+00
  .000E+00  .000E+00  .000E+00  .000E+00
  .444E-01  .441E-01  .615E-01  .112E+00  .396E-01  .363E-01  .349E-01  .450E-01
  .390E-01  .478E-01  .506E-01  .555E-01  .659E-01  .506E-01  .655E-01  .654E-01
  .627E-01  .825E-01  .758E-01  .643E-01  .938E-01  .891E-01  .763E-01  .183E+00
  .793E-01  .128E+00  .837E-01  .122E+00  .262E+00  .213E+00  .212E+00  .236E+00
  .125E+00  .263E+00  .139E+00  .200E+00  .824E-01  .115E+00  .223E+00  .185E+00
  .190E+00  .106E+00  .184E+00  .903E-01  .152E+00  .301E+00  .156E+00  .408E+00
  .460E+00  .371E+00  .565E+00  .224E+00  .952E-01  .785E-01  .491E-01  .599E-01
  .365E-01  .231E-01  .162E-01  .143E-01  .111E-01  .792E-02  .508E-02  .480E-02
  .519E-02  .497E-02  .670E-02  .361E-02  .329E-02  .310E-02  .311E-02  .267E-02
  .176E-02  .178E-02  .201E-02  .143E-02  .000E+00  .000E+00  .000E+00  .000E+00
  .000E+00  .000E+00  .000E+00  .000E+00  .000E+00  .000E+00  .000E+00  .000E+00
  .000E+00  .000E+00  .000E+00  .000E+00  .000E+00  .000E+00  .000E+00  .000E+00
  .000E+00  .000E+00  .000E+00  .000E+00
  .109E+00  .114E+00  .166E+00  .317E+00  .117E+00  .112E+00  .118E+00  .166E+00
  .156E+00  .206E+00  .233E+00  .273E+00  .344E+00  .280E+00  .382E+00  .402E+00
  .424E+00  .608E+00  .605E+00  .553E+00  .865E+00  .876E+00  .797E+00  .203E+01
  .925E+00  .157E+01  .113E+01  .180E+01  .418E+01  .367E+01  .390E+01  .465E+01
  .261E+01  .581E+01  .324E+01  .492E+01  .213E+01  .311E+01  .629E+01  .547E+01
  .584E+01  .357E+01  .677E+01  .361E+01  .652E+01  .139E+02  .765E+01  .213E+02
  .255E+02  .217E+02  .347E+02  .151E+02  .702E+01  .627E+01  .422E+01  .552E+01
  .359E+01  .241E+01  .179E+01  .167E+01  .136E+01  .107E+01  .749E+00  .766E+00
  .893E+00  .916E+00  .132E+01  .754E+00  .728E+00  .725E+00  .763E+00  .688E+00
  .477E+00  .504E+00  .592E+00  .439E+00  .000E+00  .000E+00  .000E+00  .000E+00
  .000E+00  .000E+00  .000E+00  .000E+00  .000E+00  .000E+00  .000E+00  .000E+00
  .000E+00  .000E+00  .000E+00  .000E+00  .000E+00  .000E+00  .000E+00  .000E+00
  .000E+00  .000E+00  .000E+00  .000E+00
  .215E+02  .215E+02  .279E+02  .760E+02  .165E+02  .166E+02  .215E+02  .215E+02
  .215E+02  .215E+02  .215E+02  .165E+02  .215E+02  .215E+02  .215E+02  .178E+02
  .166E+02  .215E+02  .211E+02  .215E+02  .184E+02  .178E+02  .191E+02  .279E+02
  .215E+02  .367E+02  .205E+02  .192E+02  .616E+02  .247E+02  .736E+02  .619E+02
  .279E+02  .288E+02  .212E+02  .246E+02  .168E+02  .211E+02  .376E+02  .327E+02
  .352E+02  .182E+02  .247E+02  .206E+02  .713E+02  .745E+02  .188E+02  .631E+02
  .631E+02  .257E+02  .594E+02  .375E+02  .521E+02  .267E+02  .257E+02  .746E+02
  .284E+02  .247E+02  .210E+02  .210E+02  .211E+02  .620E+02  .215E+02  .210E+02
  .210E+02  .409E+02  .771E+02  .251E+02  .252E+02  .278E+02  .540E+02  .366E+02
  .205E+02  .748E+02  .620E+02  .606E+02  .000E+00  .000E+00  .000E+00  .000E+00
  .000E+00  .000E+00  .000E+00  .000E+00  .000E+00  .000E+00  .000E+00  .000E+00
  .000E+00  .000E+00  .000E+00  .000E+00  .000E+00  .000E+00  .000E+00  .000E+00
  .000E+00  .000E+00  .000E+00  .000E+00
  .109E+02  .529E+02  .405E+02  .761E+02  .166E+02  .638E+02  .115E+02  .400E+02
  .673E+02  .626E+02  .642E+02  .143E+02  .729E+02  .214E+02  .207E+02  .179E+02
  .166E+02  .319E+02  .207E+02  .207E+02  .173E+02  .191E+02  .191E+02  .286E+02
  .214E+02  .423E+02  .203E+02  .192E+02  .617E+02  .243E+02  .735E+02  .613E+02
  .280E+02  .303E+02  .213E+02  .213E+02  .676E+02  .212E+02  .378E+02  .328E+02
  .363E+02  .194E+02  .248E+02  .208E+02  .778E+02  .743E+02  .190E+02  .629E+02
  .637E+02  .254E+02  .591E+02  .378E+02  .518E+02  .270E+02  .254E+02  .742E+02
  .281E+02  .244E+02  .213E+02  .214E+02  .208E+02  .203E+02  .203E+02  .214E+02
  .214E+02  .208E+02  .208E+02  .208E+02  .281E+02  .249E+02  .249E+02  .249E+02
  .203E+02  .203E+02  .203E+02  .203E+02  .000E+00  .000E+00  .000E+00  .000E+00
  .000E+00  .000E+00  .000E+00  .000E+00  .000E+00  .000E+00  .000E+00  .000E+00
  .000E+00  .000E+00  .000E+00  .000E+00  .000E+00  .000E+00  .000E+00  .000E+00
  .000E+00  .000E+00  .000E+00  .000E+00
  .215E+02  .215E+02  .279E+02  .760E+02  .165E+02  .166E+02  .215E+02  .215E+02
  .215E+02  .215E+02  .215E+02  .165E+02  .215E+02  .215E+02  .215E+02  .178E+02
  .166E+02  .215E+02  .211E+02  .215E+02  .184E+02  .178E+02  .191E+02  .279E+02
  .215E+02  .367E+02  .205E+02  .192E+02  .616E+02  .247E+02  .736E+02  .619E+02
  .279E+02  .288E+02  .212E+02  .246E+02  .168E+02  .211E+02  .376E+02  .327E+02
  .352E+02  .182E+02  .247E+02  .206E+02  .713E+02  .745E+02  .188E+02  .631E+02
  .631E+02  .257E+02  .594E+02  .375E+02  .521E+02  .267E+02  .257E+02  .746E+02
  .284E+02  .247E+02  .210E+02  .210E+02  .211E+02  .620E+02  .215E+02  .210E+02
  .210E+02  .409E+02  .771E+02  .251E+02  .252E+02  .278E+02  .540E+02  .366E+02
  .205E+02  .748E+02  .620E+02  .606E+02  .000E+00  .000E+00  .000E+00  .000E+00
  .000E+00  .000E+00  .000E+00  .000E+00  .000E+00  .000E+00  .000E+00  .000E+00
  .000E+00  .000E+00  .000E+00  .000E+00  .000E+00  .000E+00  .000E+00  .000E+00
  .000E+00  .000E+00  .000E+00  .000E+00
Damping =  .02. Data of Sd,Sv,Sa,Pssv,ttSd,ttSv,ttSa :
  .494E-03  .563E-03  .613E-03  .654E-03  .727E-03  .814E-03  .958E-03  .116E-02
  .135E-02  .155E-02  .179E-02  .208E-02  .231E-02  .265E-02  .297E-02  .336E-02
  .478E-02  .526E-02  .700E-02  .722E-02  .109E-01  .134E-01  .119E-01  .170E-01
  .214E-01  .298E-01  .264E-01  .521E-01  .710E-01  .704E-01  .808E-01  .874E-01
  .878E-01  .117E+00  .116E+00  .165E+00  .155E+00  .153E+00  .156E+00  .185E+00
  .194E+00  .253E+00  .377E+00  .361E+00  .564E+00  .688E+00  .776E+00  .132E+01
  .194E+01  .191E+01  .229E+01  .164E+01  .101E+01  .942E+00  .817E+00  .718E+00
  .688E+00  .560E+00  .474E+00  .467E+00  .414E+00  .312E+00  .282E+00  .320E+00
  .379E+00  .392E+00  .363E+00  .381E+00  .388E+00  .390E+00  .414E+00  .368E+00
  .324E+00  .306E+00  .290E+00  .284E+00  .000E+00  .000E+00  .000E+00  .000E+00
  .000E+00  .000E+00  .000E+00  .000E+00  .000E+00  .000E+00  .000E+00  .000E+00
  .000E+00  .000E+00  .000E+00  .000E+00  .000E+00  .000E+00  .000E+00  .000E+00
  .000E+00  .000E+00  .000E+00  .000E+00
  .102E-01  .128E-01  .129E-01  .125E-01  .149E-01  .153E-01  .196E-01  .231E-01
  .294E-01  .302E-01  .408E-01  .362E-01  .456E-01  .607E-01  .889E-01  .836E-01
  .161E+00  .168E+00  .164E+00  .205E+00  .370E+00  .373E+00  .292E+00  .507E+00
  .466E+00  .614E+00  .563E+00  .107E+01  .148E+01  .147E+01  .163E+01  .154E+01
  .123E+01  .176E+01  .172E+01  .222E+01  .185E+01  .198E+01  .194E+01  .222E+01
  .222E+01  .259E+01  .337E+01  .308E+01  .458E+01  .544E+01  .586E+01  .925E+01
  .132E+02  .126E+02  .142E+02  .967E+01  .548E+01  .504E+01  .430E+01  .358E+01
  .360E+01  .279E+01  .247E+01  .223E+01  .210E+01  .190E+01  .181E+01  .168E+01
  .168E+01  .166E+01  .167E+01  .163E+01  .162E+01  .168E+01  .167E+01  .159E+01
  .161E+01  .162E+01  .161E+01  .159E+01  .000E+00  .000E+00  .000E+00  .000E+00
  .000E+00  .000E+00  .000E+00  .000E+00  .000E+00  .000E+00  .000E+00  .000E+00
  .000E+00  .000E+00  .000E+00  .000E+00  .000E+00  .000E+00  .000E+00  .000E+00
  .000E+00  .000E+00  .000E+00  .000E+00
  .316E-01  .326E-01  .324E-01  .316E-01  .323E-01  .333E-01  .324E-01  .330E-01
  .327E-01  .324E-01  .325E-01  .332E-01  .327E-01  .335E-01  .337E-01  .344E-01
  .404E-01  .374E-01  .424E-01  .376E-01  .497E-01  .536E-01  .421E-01  .540E-01
  .604E-01  .762E-01  .558E-01  .927E-01  .107E+00  .918E-01  .917E-01  .872E-01
  .776E-01  .920E-01  .821E-01  .105E+00  .898E-01  .810E-01  .753E-01  .821E-01
  .794E-01  .857E-01  .107E+00  .874E-01  .118E+00  .125E+00  .124E+00  .187E+00
  .245E+00  .217E+00  .234E+00  .139E+00  .717E-01  .570E-01  .427E-01  .327E-01
  .275E-01  .199E-01  .150E-01  .133E-01  .106E-01  .661E-02  .503E-02  .486E-02
  .497E-02  .448E-02  .365E-02  .338E-02  .307E-02  .278E-02  .266E-02  .215E-02
  .173E-02  .150E-02  .131E-02  .118E-02  .000E+00  .000E+00  .000E+00  .000E+00
  .000E+00  .000E+00  .000E+00  .000E+00  .000E+00  .000E+00  .000E+00  .000E+00
  .000E+00  .000E+00  .000E+00  .000E+00  .000E+00  .000E+00  .000E+00  .000E+00
  .000E+00  .000E+00  .000E+00  .000E+00
  .776E-01  .843E-01  .875E-01  .893E-01  .952E-01  .102E+00  .109E+00  .122E+00
  .131E+00  .139E+00  .150E+00  .163E+00  .171E+00  .185E+00  .197E+00  .211E+00
  .273E+00  .276E+00  .338E+00  .324E+00  .459E+00  .524E+00  .440E+00  .595E+00
  .706E+00  .937E+00  .755E+00  .137E+01  .171E+01  .158E+01  .169E+01  .172E+01
  .162E+01  .203E+01  .192E+01  .259E+01  .232E+01  .219E+01  .213E+01  .242E+01
  .243E+01  .289E+01  .394E+01  .349E+01  .506E+01  .577E+01  .610E+01  .974E+01
  .136E+02  .126E+02  .144E+02  .936E+01  .528E+01  .455E+01  .367E+01  .301E+01
  .270E+01  .207E+01  .165E+01  .154E+01  .130E+01  .891E+00  .738E+00  .772E+00
  .850E+00  .821E+00  .712E+00  .704E+00  .676E+00  .645E+00  .650E+00  .550E+00
  .463E+00  .418E+00  .379E+00  .357E+00  .000E+00  .000E+00  .000E+00  .000E+00
  .000E+00  .000E+00  .000E+00  .000E+00  .000E+00  .000E+00  .000E+00  .000E+00
  .000E+00  .000E+00  .000E+00  .000E+00  .000E+00  .000E+00  .000E+00  .000E+00
  .000E+00  .000E+00  .000E+00  .000E+00
  .215E+02  .215E+02  .215E+02  .215E+02  .215E+02  .215E+02  .215E+02  .215E+02
  .215E+02  .215E+02  .215E+02  .215E+02  .215E+02  .201E+02  .205E+02  .215E+02
  .166E+02  .215E+02  .192E+02  .215E+02  .166E+02  .178E+02  .191E+02  .210E+02
  .215E+02  .215E+02  .191E+02  .192E+02  .192E+02  .224E+02  .228E+02  .221E+02
  .197E+02  .198E+02  .211E+02  .201E+02  .201E+02  .193E+02  .370E+02  .179E+02
  .181E+02  .182E+02  .201E+02  .206E+02  .206E+02  .215E+02  .188E+02  .211E+02
  .217E+02  .223E+02  .269E+02  .287E+02  .288E+02  .267E+02  .256E+02  .289E+02
  .284E+02  .246E+02  .210E+02  .210E+02  .211E+02  .205E+02  .210E+02  .210E+02
  .210E+02  .211E+02  .211E+02  .251E+02  .251E+02  .278E+02  .278E+02  .278E+02
  .205E+02  .205E+02  .205E+02  .246E+02  .000E+00  .000E+00  .000E+00  .000E+00
  .000E+00  .000E+00  .000E+00  .000E+00  .000E+00  .000E+00  .000E+00  .000E+00
  .000E+00  .000E+00  .000E+00  .000E+00  .000E+00  .000E+00  .000E+00  .000E+00
  .000E+00  .000E+00  .000E+00  .000E+00
  .448E+01  .166E+02  .166E+02  .166E+02  .173E+02  .166E+02  .166E+02  .179E+02
  .180E+02  .180E+02  .166E+02  .166E+02  .175E+02  .185E+02  .185E+02  .136E+02
  .166E+02  .166E+02  .192E+02  .184E+02  .185E+02  .170E+02  .191E+02  .144E+02
  .214E+02  .214E+02  .191E+02  .192E+02  .193E+02  .224E+02  .229E+02  .221E+02
  .196E+02  .217E+02  .213E+02  .199E+02  .194E+02  .194E+02  .311E+02  .180E+02
  .180E+02  .181E+02  .203E+02  .208E+02  .208E+02  .213E+02  .186E+02  .213E+02
  .219E+02  .225E+02  .271E+02  .290E+02  .285E+02  .264E+02  .253E+02  .254E+02
  .249E+02  .244E+02  .213E+02  .214E+02  .208E+02  .203E+02  .203E+02  .213E+02
  .214E+02  .208E+02  .208E+02  .208E+02  .249E+02  .249E+02  .249E+02  .249E+02
  .203E+02  .203E+02  .203E+02  .203E+02  .000E+00  .000E+00  .000E+00  .000E+00
  .000E+00  .000E+00  .000E+00  .000E+00  .000E+00  .000E+00  .000E+00  .000E+00
  .000E+00  .000E+00  .000E+00  .000E+00  .000E+00  .000E+00  .000E+00  .000E+00
  .000E+00  .000E+00  .000E+00  .000E+00
  .215E+02  .215E+02  .215E+02  .215E+02  .215E+02  .215E+02  .215E+02  .215E+02
  .215E+02  .215E+02  .215E+02  .215E+02  .215E+02  .201E+02  .205E+02  .215E+02
  .166E+02  .215E+02  .192E+02  .215E+02  .166E+02  .178E+02  .191E+02  .210E+02
  .215E+02  .215E+02  .191E+02  .192E+02  .192E+02  .224E+02  .228E+02  .221E+02
  .197E+02  .198E+02  .211E+02  .200E+02  .201E+02  .193E+02  .370E+02  .179E+02
  .181E+02  .182E+02  .201E+02  .206E+02  .206E+02  .215E+02  .188E+02  .211E+02
  .217E+02  .223E+02  .269E+02  .287E+02  .288E+02  .267E+02  .256E+02  .288E+02
  .283E+02  .246E+02  .210E+02  .210E+02  .210E+02  .205E+02  .210E+02  .210E+02
  .210E+02  .210E+02  .210E+02  .251E+02  .251E+02  .278E+02  .278E+02  .278E+02
  .205E+02  .205E+02  .205E+02  .246E+02  .000E+00  .000E+00  .000E+00  .000E+00
  .000E+00  .000E+00  .000E+00  .000E+00  .000E+00  .000E+00  .000E+00  .000E+00
  .000E+00  .000E+00  .000E+00  .000E+00  .000E+00  .000E+00  .000E+00  .000E+00
  .000E+00  .000E+00  .000E+00  .000E+00
Damping =  .05. Data of Sd,Sv,Sa,Pssv,ttSd,ttSv,ttSa :
  .495E-03  .553E-03  .605E-03  .659E-03  .724E-03  .794E-03  .950E-03  .114E-02
