Response and Fourier amplitude spectra (76 periods,  .04 -  5.0 sec)   for      
Corrected accelerogram   24468-M0270-14087.35       Chan 14: 180 Deg     from   
Uncorrected Accelerogram Data             Processed: 03/28/14, CGS  468as035    
Rcrd of Fri Mar 28, 2014 21:09:29.0 PDT               (Avol1 v0.5, 2/14 CSMIP)  
CSMIP Preliminary Processing            (Origin:  To be determined)             
24468-M0270-14087.35                 Start time:  3/29/14, 04:09:29.0 UTC (GPS) 
Station No. 24468   34.066N, 118.169W    MtWtny  s/n  270 (16 Chns of 16 at Sta)
Los Angeles - 8-story CSULA Admin. Bldg.  CGS   Data: Acceleration              
Chan 14: 180 DegR                   Location: Ground Floor: SW Corner           
Rcrd of Fri Mar 28, 2014 21:09:29.0 PDT    Fri Mar 28, 2014 21:09:29.0 PDT      
Hypocenter:  To be determined.               ML:  To be determined.
Instr Period =  .0103 sec,  Damping =  .650,  Sensitivity =  .63 v/g
                        Record length = 72.000 sec.
                                     Uncor Max  =  -.048 g , at  24.950 sec.
RMS accel of (uncor) record  =        .   Chn. metadata effective date: 03/27/08
Accelerogram bandpass filtered with 3 dB pts at   .20 and 40.00 cyc/sec
                 instrument- and baseline-corrected





Rcrd of Fri Mar 28, 2014 21:09:29.0 PDT    Fri Mar 28, 2014 21:09:29.0 PDT

24468-M0270-14087.35      Los Angeles - 8-story CSULA Admin. Bldg.  CGChan 14: 1
80 Deg
24468-M0270-14087.35      Los Angeles - 8-story CSULA Admin. Bldg.  CGChan 14: 1
80 Deg
Units for spectra are inches and sec, except Sa is in fraction of g.

   14  100   14   18   16  200    1    3    1   24   13  270    024468    2    0
    4    9   29    0   88    3   29 2014   10    3  18014400   39   40   74   -1
14400    1  100    3  270    1   35  720    2    0    0    0    0    0    0    0
    0    0    3    0 7200    2  333    1   18    4    0    0    3    1    0 7200
    3 7200    4   76    5   16    5    0    0    0    0    0    1    3    1    2
    2    2    4    0   79   99    0    1    0    0   96    1    0    0    0  222
    1    0    6    0
      .010      .650    72.000      .004      .000   625.000     -.048    24.950
    96.700      .298      .477      .000     5.000  -999.000     4.000      .000
     2.500     3.537     2.500  -999.000    23.000    30.000  -999.000     -.011
      .010      .022     2.000    15.000    34.066  -118.169      .401      .671
     1.673     -.039      .082   150.000    23.500    41.700    13.000    97.160
     1.000    -1.022      .000  -999.000  -999.000  -999.000  -999.000      .000
      .100      .500     6.300   980.665      .010    72.000    15.390      .000
      .000    40.000      .000    72.000      .010      .200      .000      .000
    24.950   -46.428    25.010    -1.878    29.830     -.322      .000      .200
    40.000      .010      .010     -.001      .010      .102      .000      .000
      .149      .240      .116      .089      .028      .003      .000      .000
      .000      .000      .000      .000      .000      .000      .000      .000
      .000      .000      .000      .000
      .000      .020      .050      .100      .200
      .040      .042      .044      .046      .048      .050      .055      .060
      .065      .070      .075      .080      .085      .090      .095      .100
      .110      .120      .130      .140      .150      .160      .170      .180
      .190      .200      .220      .240      .260      .280      .300      .320
      .340      .360      .380      .400      .420      .440      .460      .480
      .500      .550      .600      .650      .700      .750      .800      .850
      .900      .950     1.000     1.100     1.200     1.300     1.400     1.500
     1.600     1.700     1.800     1.900     2.000     2.200     2.400     2.600
     2.800     3.000     3.200     3.400     3.600     3.800     4.000     4.200
     4.400     4.600     4.800     5.000      .000      .000      .000      .000
      .000      .000      .000      .000      .000      .000      .000      .000
      .000      .000      .000      .000      .000      .000      .000      .000
      .000      .000      .000      .000
Fourier amplitude spectra in in/sec.
  .152E-01  .812E-02  .117E-01  .233E-01  .296E-01  .280E-01  .425E-01  .119E+00
  .190E+00  .176E+00  .113E+00  .224E+00  .224E+00  .123E+00  .259E+00  .658E+00
  .174E+00  .451E+00  .132E+01  .592E+00  .190E+01  .247E+01  .855E+00  .358E+01
  .254E+01  .151E+01  .271E+01  .795E+01  .243E+01  .335E+01  .513E+01  .159E+01
  .264E+01  .115E+01  .121E+01  .148E+01  .614E+01  .110E+01  .210E+01  .436E+01
  .232E+01  .404E+01  .267E+01  .560E+01  .126E+01  .306E+01  .304E+01  .736E+01
  .423E+01  .412E+01  .835E+00  .279E+01  .656E+00  .590E+00  .256E+01  .917E+00
  .467E+00  .636E+00  .977E+00  .779E+00  .186E+01  .566E+00  .593E+00  .305E+00
  .612E+00  .523E+00  .774E+00  .109E+00  .352E+00  .635E+00  .537E+00  .476E+00
  .154E+00  .243E+00  .290E+00  .174E+00  .000E+00  .000E+00  .000E+00  .000E+00
  .000E+00  .000E+00  .000E+00  .000E+00  .000E+00  .000E+00  .000E+00  .000E+00
  .000E+00  .000E+00  .000E+00  .000E+00  .000E+00  .000E+00  .000E+00  .000E+00
  .000E+00  .000E+00  .000E+00  .000E+00
Damping =  .00. Data of Sd,Sv,Sa,Pssv,ttSd,ttSv,ttSa :
  .747E-03  .856E-03  .935E-03  .108E-02  .123E-02  .138E-02  .181E-02  .230E-02
  .288E-02  .322E-02  .384E-02  .424E-02  .567E-02  .625E-02  .102E-01  .113E-01
  .131E-01  .131E-01  .323E-01  .349E-01  .469E-01  .767E-01  .660E-01  .125E+00
  .779E-01  .904E-01  .119E+00  .364E+00  .139E+00  .225E+00  .254E+00  .109E+00
  .172E+00  .182E+00  .114E+00  .146E+00  .432E+00  .198E+00  .192E+00  .337E+00
  .232E+00  .380E+00  .416E+00  .649E+00  .309E+00  .383E+00  .417E+00  .107E+01
  .792E+00  .668E+00  .449E+00  .519E+00  .267E+00  .248E+00  .723E+00  .449E+00
  .328E+00  .237E+00  .386E+00  .321E+00  .593E+00  .240E+00  .229E+00  .203E+00
  .350E+00  .354E+00  .403E+00  .298E+00  .284E+00  .419E+00  .408E+00  .318E+00
  .245E+00  .227E+00  .233E+00  .202E+00  .000E+00  .000E+00  .000E+00  .000E+00
  .000E+00  .000E+00  .000E+00  .000E+00  .000E+00  .000E+00  .000E+00  .000E+00
  .000E+00  .000E+00  .000E+00  .000E+00  .000E+00  .000E+00  .000E+00  .000E+00
  .000E+00  .000E+00  .000E+00  .000E+00
  .262E-01  .242E-01  .408E-01  .359E-01  .515E-01  .489E-01  .702E-01  .139E+00
  .191E+00  .223E+00  .179E+00  .276E+00  .315E+00  .340E+00  .520E+00  .664E+00
  .624E+00  .606E+00  .148E+01  .131E+01  .196E+01  .298E+01  .229E+01  .434E+01
  .256E+01  .269E+01  .327E+01  .944E+01  .343E+01  .497E+01  .531E+01  .222E+01
  .306E+01  .299E+01  .201E+01  .235E+01  .645E+01  .293E+01  .269E+01  .440E+01
  .289E+01  .433E+01  .421E+01  .630E+01  .273E+01  .318E+01  .327E+01  .788E+01
  .546E+01  .444E+01  .313E+01  .299E+01  .176E+01  .147E+01  .332E+01  .217E+01
  .156E+01  .131E+01  .137E+01  .145E+01  .186E+01  .973E+00  .944E+00  .916E+00
  .894E+00  .899E+00  .968E+00  .966E+00  .951E+00  .919E+00  .830E+00  .817E+00
  .807E+00  .796E+00  .786E+00  .780E+00  .000E+00  .000E+00  .000E+00  .000E+00
  .000E+00  .000E+00  .000E+00  .000E+00  .000E+00  .000E+00  .000E+00  .000E+00
  .000E+00  .000E+00  .000E+00  .000E+00  .000E+00  .000E+00  .000E+00  .000E+00
  .000E+00  .000E+00  .000E+00  .000E+00
  .477E-01  .497E-01  .494E-01  .522E-01  .546E-01  .564E-01  .612E-01  .652E-01
  .697E-01  .671E-01  .698E-01  .678E-01  .803E-01  .789E-01  .115E+00  .115E+00
  .111E+00  .929E-01  .195E+00  .182E+00  .213E+00  .306E+00  .234E+00  .395E+00
  .221E+00  .231E+00  .252E+00  .646E+00  .210E+00  .293E+00  .288E+00  .109E+00
  .152E+00  .143E+00  .807E-01  .936E-01  .251E+00  .105E+00  .926E-01  .150E+00
  .949E-01  .128E+00  .118E+00  .157E+00  .644E-01  .696E-01  .667E-01  .151E+00
  .100E+00  .757E-01  .459E-01  .438E-01  .190E-01  .150E-01  .377E-01  .204E-01
  .131E-01  .839E-02  .122E-01  .910E-02  .152E-01  .508E-02  .408E-02  .307E-02
  .456E-02  .403E-02  .403E-02  .264E-02  .224E-02  .297E-02  .261E-02  .184E-02
  .129E-02  .110E-02  .104E-02  .826E-03  .000E+00  .000E+00  .000E+00  .000E+00
  .000E+00  .000E+00  .000E+00  .000E+00  .000E+00  .000E+00  .000E+00  .000E+00
  .000E+00  .000E+00  .000E+00  .000E+00  .000E+00  .000E+00  .000E+00  .000E+00
  .000E+00  .000E+00  .000E+00  .000E+00
  .117E+00  .128E+00  .134E+00  .148E+00  .161E+00  .173E+00  .207E+00  .240E+00
  .278E+00  .289E+00  .322E+00  .333E+00  .419E+00  .436E+00  .673E+00  .708E+00
  .748E+00  .685E+00  .156E+01  .157E+01  .197E+01  .301E+01  .244E+01  .437E+01
  .257E+01  .284E+01  .341E+01  .953E+01  .335E+01  .505E+01  .532E+01  .214E+01
  .317E+01  .317E+01  .188E+01  .230E+01  .646E+01  .283E+01  .262E+01  .441E+01
  .292E+01  .434E+01  .436E+01  .628E+01  .277E+01  .320E+01  .328E+01  .790E+01
  .553E+01  .442E+01  .282E+01  .296E+01  .140E+01  .120E+01  .324E+01  .188E+01
  .129E+01  .876E+00  .135E+01  .106E+01  .186E+01  .686E+00  .601E+00  .491E+00
  .785E+00  .742E+00  .791E+00  .552E+00  .495E+00  .693E+00  .640E+00  .476E+00
  .349E+00  .310E+00  .305E+00  .254E+00  .000E+00  .000E+00  .000E+00  .000E+00
  .000E+00  .000E+00  .000E+00  .000E+00  .000E+00  .000E+00  .000E+00  .000E+00
  .000E+00  .000E+00  .000E+00  .000E+00  .000E+00  .000E+00  .000E+00  .000E+00
  .000E+00  .000E+00  .000E+00  .000E+00
  .249E+02  .249E+02  .249E+02  .249E+02  .250E+02  .249E+02  .249E+02  .249E+02
  .266E+02  .249E+02  .256E+02  .265E+02  .249E+02  .256E+02  .266E+02  .256E+02
  .255E+02  .297E+02  .297E+02  .249E+02  .557E+02  .291E+02  .265E+02  .280E+02
  .261E+02  .265E+02  .289E+02  .316E+02  .260E+02  .292E+02  .435E+02  .264E+02
  .287E+02  .298E+02  .252E+02  .252E+02  .420E+02  .294E+02  .320E+02  .676E+02
  .363E+02  .327E+02  .293E+02  .549E+02  .336E+02  .433E+02  .433E+02  .389E+02
  .354E+02  .489E+02  .315E+02  .439E+02  .289E+02  .306E+02  .415E+02  .341E+02
  .435E+02  .293E+02  .496E+02  .320E+02  .724E+02  .316E+02  .693E+02  .473E+02
  .400E+02  .439E+02  .655E+02  .324E+02  .311E+02  .505E+02  .593E+02  .795E+02
  .298E+02  .298E+02  .683E+02  .298E+02  .000E+00  .000E+00  .000E+00  .000E+00
  .000E+00  .000E+00  .000E+00  .000E+00  .000E+00  .000E+00  .000E+00  .000E+00
  .000E+00  .000E+00  .000E+00  .000E+00  .000E+00  .000E+00  .000E+00  .000E+00
  .000E+00  .000E+00  .000E+00  .000E+00
  .256E+02  .256E+02  .256E+02  .256E+02  .250E+02  .277E+02  .253E+02  .256E+02
  .651E+02  .309E+02  .256E+02  .265E+02  .256E+02  .256E+02  .266E+02  .543E+02
  .255E+02  .297E+02  .296E+02  .267E+02  .551E+02  .291E+02  .264E+02  .280E+02
  .594E+02  .264E+02  .289E+02  .309E+02  .262E+02  .293E+02  .450E+02  .256E+02
  .286E+02  .297E+02  .252E+02  .251E+02  .428E+02  .267E+02  .256E+02  .677E+02
  .362E+02  .307E+02  .295E+02  .456E+02  .338E+02  .431E+02  .427E+02  .387E+02
  .325E+02  .492E+02  .317E+02  .437E+02  .291E+02  .288E+02  .418E+02  .322E+02
  .317E+02  .290E+02  .600E+02  .317E+02  .729E+02  .250E+02  .250E+02  .250E+02
  .250E+02  .313E+02  .300E+02  .300E+02  .321E+02  .321E+02  .321E+02  .250E+02
  .250E+02  .250E+02  .250E+02  .250E+02  .000E+00  .000E+00  .000E+00  .000E+00
  .000E+00  .000E+00  .000E+00  .000E+00  .000E+00  .000E+00  .000E+00  .000E+00
  .000E+00  .000E+00  .000E+00  .000E+00  .000E+00  .000E+00  .000E+00  .000E+00
  .000E+00  .000E+00  .000E+00  .000E+00
  .249E+02  .249E+02  .249E+02  .249E+02  .250E+02  .249E+02  .249E+02  .249E+02
  .266E+02  .249E+02  .256E+02  .265E+02  .249E+02  .256E+02  .266E+02  .256E+02
  .255E+02  .297E+02  .297E+02  .249E+02  .557E+02  .291E+02  .265E+02  .280E+02
  .261E+02  .265E+02  .289E+02  .316E+02  .260E+02  .292E+02  .435E+02  .264E+02
  .287E+02  .298E+02  .252E+02  .252E+02  .420E+02  .294E+02  .320E+02  .676E+02
  .363E+02  .327E+02  .293E+02  .549E+02  .336E+02  .433E+02  .433E+02  .389E+02
  .354E+02  .489E+02  .315E+02  .439E+02  .289E+02  .306E+02  .415E+02  .341E+02
  .435E+02  .293E+02  .496E+02  .320E+02  .724E+02  .316E+02  .693E+02  .473E+02
  .400E+02  .439E+02  .655E+02  .324E+02  .311E+02  .505E+02  .593E+02  .795E+02
  .298E+02  .298E+02  .683E+02  .298E+02  .000E+00  .000E+00  .000E+00  .000E+00
  .000E+00  .000E+00  .000E+00  .000E+00  .000E+00  .000E+00  .000E+00  .000E+00
  .000E+00  .000E+00  .000E+00  .000E+00  .000E+00  .000E+00  .000E+00  .000E+00
  .000E+00  .000E+00  .000E+00  .000E+00
Damping =  .02. Data of Sd,Sv,Sa,Pssv,ttSd,ttSv,ttSa :
  .756E-03  .848E-03  .938E-03  .105E-02  .115E-02  .127E-02  .151E-02  .186E-02
  .201E-02  .248E-02  .293E-02  .334E-02  .440E-02  .488E-02  .711E-02  .682E-02
  .770E-02  .120E-01  .171E-01  .261E-01  .391E-01  .346E-01  .425E-01  .595E-01
  .509E-01  .522E-01  .769E-01  .146E+00  .112E+00  .120E+00  .839E-01  .821E-01
  .855E-01  .933E-01  .104E+00  .125E+00  .153E+00  .148E+00  .151E+00  .143E+00
  .150E+00  .219E+00  .254E+00  .327E+00  .231E+00  .275E+00  .347E+00  .600E+00
  .544E+00  .384E+00  .356E+00  .321E+00  .215E+00  .203E+00  .394E+00  .337E+00
  .232E+00  .198E+00  .210E+00  .262E+00  .287E+00  .215E+00  .143E+00  .182E+00
  .254E+00  .250E+00  .258E+00  .258E+00  .252E+00  .271E+00  .253E+00  .247E+00
  .235E+00  .221E+00  .210E+00  .200E+00  .000E+00  .000E+00  .000E+00  .000E+00
  .000E+00  .000E+00  .000E+00  .000E+00  .000E+00  .000E+00  .000E+00  .000E+00
  .000E+00  .000E+00  .000E+00  .000E+00  .000E+00  .000E+00  .000E+00  .000E+00
  .000E+00  .000E+00  .000E+00  .000E+00
  .214E-01  .238E-01  .257E-01  .299E-01  .360E-01  .350E-01  .542E-01  .809E-01
  .111E+00  .101E+00  .104E+00  .127E+00  .182E+00  .206E+00  .324E+00  .343E+00
  .334E+00  .442E+00  .753E+00  .926E+00  .157E+01  .130E+01  .146E+01  .202E+01
  .165E+01  .142E+01  .222E+01  .385E+01  .279E+01  .270E+01  .188E+01  .189E+01
  .159E+01  .162E+01  .178E+01  .209E+01  .227E+01  .240E+01  .223E+01  .215E+01
  .210E+01  .245E+01  .275E+01  .309E+01  .199E+01  .221E+01  .261E+01  .451E+01
  .401E+01  .292E+01  .254E+01  .210E+01  .149E+01  .117E+01  .175E+01  .180E+01
  .139E+01  .116E+01  .104E+01  .131E+01  .137E+01  .968E+00  .944E+00  .918E+00
  .897E+00  .881E+00  .925E+00  .928E+00  .883E+00  .869E+00  .829E+00  .820E+00
  .810E+00  .800E+00  .792E+00  .785E+00  .000E+00  .000E+00  .000E+00  .000E+00
  .000E+00  .000E+00  .000E+00  .000E+00  .000E+00  .000E+00  .000E+00  .000E+00
  .000E+00  .000E+00  .000E+00  .000E+00  .000E+00  .000E+00  .000E+00  .000E+00
  .000E+00  .000E+00  .000E+00  .000E+00
  .483E-01  .492E-01  .496E-01  .508E-01  .511E-01  .520E-01  .512E-01  .527E-01
  .485E-01  .518E-01  .533E-01  .533E-01  .623E-01  .618E-01  .807E-01  .701E-01
  .650E-01  .853E-01  .104E+00  .137E+00  .177E+00  .138E+00  .150E+00  .187E+00
  .145E+00  .133E+00  .164E+00  .258E+00  .168E+00  .157E+00  .957E-01  .824E-01
  .758E-01  .736E-01  .740E-01  .800E-01  .889E-01  .782E-01  .733E-01  .635E-01
  .616E-01  .739E-01  .722E-01  .791E-01  .483E-01  .501E-01  .555E-01  .850E-01
  .687E-01  .436E-01  .365E-01  .272E-01  .153E-01  .123E-01  .206E-01  .153E-01
  .930E-02  .702E-02  .663E-02  .743E-02  .734E-02  .456E-02  .258E-02  .276E-02
  .332E-02  .284E-02  .259E-02  .230E-02  .200E-02  .192E-02  .162E-02  .144E-02
  .125E-02  .108E-02  .938E-03  .826E-03  .000E+00  .000E+00  .000E+00  .000E+00
  .000E+00  .000E+00  .000E+00  .000E+00  .000E+00  .000E+00  .000E+00  .000E+00
  .000E+00  .000E+00  .000E+00  .000E+00  .000E+00  .000E+00  .000E+00  .000E+00
  .000E+00  .000E+00  .000E+00  .000E+00
  .119E+00  .127E+00  .134E+00  .144E+00  .151E+00  .160E+00  .173E+00  .194E+00
  .194E+00  .223E+00  .245E+00  .262E+00  .325E+00  .341E+00  .470E+00  .429E+00
  .440E+00  .630E+00  .827E+00  .117E+01  .164E+01  .136E+01  .157E+01  .208E+01
  .168E+01  .164E+01  .220E+01  .381E+01  .270E+01  .270E+01  .176E+01  .161E+01
  .158E+01  .163E+01  .172E+01  .197E+01  .229E+01  .211E+01  .207E+01  .187E+01
  .189E+01  .250E+01  .266E+01  .316E+01  .207E+01  .231E+01  .273E+01  .443E+01
  .380E+01  .254E+01  .224E+01  .183E+01  .113E+01  .981E+00  .177E+01  .141E+01
  .913E+00  .731E+00  .732E+00  .865E+00  .901E+00  .615E+00  .376E+00  .440E+00
  .570E+00  .523E+00  .507E+00  .477E+00  .440E+00  .448E+00  .397E+00  .369E+00
  .336E+00  .302E+00  .274E+00  .251E+00  .000E+00  .000E+00  .000E+00  .000E+00
  .000E+00  .000E+00  .000E+00  .000E+00  .000E+00  .000E+00  .000E+00  .000E+00
  .000E+00  .000E+00  .000E+00  .000E+00  .000E+00  .000E+00  .000E+00  .000E+00
  .000E+00  .000E+00  .000E+00  .000E+00
  .249E+02  .249E+02  .249E+02  .249E+02  .249E+02  .249E+02  .249E+02  .249E+02
  .250E+02  .249E+02  .250E+02  .249E+02  .249E+02  .256E+02  .256E+02  .256E+02
  .255E+02  .256E+02  .256E+02  .249E+02  .258E+02  .264E+02  .265E+02  .258E+02
  .259E+02  .266E+02  .254E+02  .269E+02  .258E+02  .257E+02  .257E+02  .257E+02
  .278E+02  .274E+02  .252E+02  .252E+02  .307E+02  .250E+02  .250E+02  .250E+02
  .256E+02  .267E+02  .294E+02  .328E+02  .332E+02  .332E+02  .337E+02  .334E+02
  .323E+02  .323E+02  .315E+02  .307E+02  .289E+02  .278E+02  .393E+02  .319E+02
  .320E+02  .293E+02  .487E+02  .320E+02  .424E+02  .316E+02  .256E+02  .315E+02
  .400E+02  .391E+02  .323E+02  .324E+02  .311E+02  .466E+02  .453E+02  .298E+02
  .298E+02  .298E+02  .298E+02  .298E+02  .000E+00  .000E+00  .000E+00  .000E+00
  .000E+00  .000E+00  .000E+00  .000E+00  .000E+00  .000E+00  .000E+00  .000E+00
  .000E+00  .000E+00  .000E+00  .000E+00  .000E+00  .000E+00  .000E+00  .000E+00
  .000E+00  .000E+00  .000E+00  .000E+00
  .256E+02  .256E+02  .256E+02  .256E+02  .256E+02  .256E+02  .255E+02  .256E+02
  .256E+02  .256E+02  .256E+02  .265E+02  .256E+02  .256E+02  .256E+02  .256E+02
  .255E+02  .256E+02  .256E+02  .256E+02  .258E+02  .263E+02  .264E+02  .259E+02
  .259E+02  .265E+02  .254E+02  .269E+02  .257E+02  .257E+02  .256E+02  .256E+02
  .256E+02  .268E+02  .252E+02  .251E+02  .306E+02  .251E+02  .251E+02  .256E+02
  .257E+02  .263E+02  .255E+02  .326E+02  .253E+02  .334E+02  .335E+02  .336E+02
  .325E+02  .317E+02  .317E+02  .305E+02  .291E+02  .277E+02  .321E+02  .321E+02
  .317E+02  .290E+02  .291E+02  .317E+02  .317E+02  .250E+02  .250E+02  .250E+02
  .250E+02  .250E+02  .300E+02  .300E+02  .321E+02  .321E+02  .250E+02  .250E+02
  .250E+02  .250E+02  .250E+02  .250E+02  .000E+00  .000E+00  .000E+00  .000E+00
  .000E+00  .000E+00  .000E+00  .000E+00  .000E+00  .000E+00  .000E+00  .000E+00
  .000E+00  .000E+00  .000E+00  .000E+00  .000E+00  .000E+00  .000E+00  .000E+00
  .000E+00  .000E+00  .000E+00  .000E+00
  .249E+02  .249E+02  .249E+02  .249E+02  .249E+02  .249E+02  .249E+02  .249E+02
  .250E+02  .249E+02  .249E+02  .249E+02  .249E+02  .256E+02  .256E+02  .256E+02
  .255E+02  .256E+02  .256E+02  .249E+02  .258E+02  .250E+02  .265E+02  .258E+02
  .259E+02  .266E+02  .254E+02  .269E+02  .258E+02  .257E+02  .257E+02  .257E+02
  .278E+02  .274E+02  .252E+02  .252E+02  .307E+02  .250E+02  .250E+02  .250E+02
  .256E+02  .267E+02  .294E+02  .328E+02  .332E+02  .332E+02  .337E+02  .334E+02
  .323E+02  .323E+02  .315E+02  .307E+02  .289E+02  .278E+02  .393E+02  .319E+02
  .320E+02  .293E+02  .486E+02  .320E+02  .424E+02  .315E+02  .256E+02  .315E+02
  .400E+02  .391E+02  .323E+02  .323E+02  .311E+02  .466E+02  .453E+02  .298E+02
  .298E+02  .298E+02  .298E+02  .298E+02  .000E+00  .000E+00  .000E+00  .000E+00
  .000E+00  .000E+00  .000E+00  .000E+00  .000E+00  .000E+00  .000E+00  .000E+00
  .000E+00  .000E+00  .000E+00  .000E+00  .000E+00  .000E+00  .000E+00  .000E+00
  .000E+00  .000E+00  .000E+00  .000E+00
Damping =  .05. Data of Sd,Sv,Sa,Pssv,ttSd,ttSv,ttSa :
  .762E-03  .846E-03  .939E-03  .104E-02  .114E-02  .125E-02  .150E-02  .180E-02
