Response and Fourier amplitude spectra (76 periods,  .04 -  5.0 sec)   for      
Corrected accelerogram   24605-E0820-14091.06       Chan  1: 360 Deg     from   
Uncorrected Accelerogram Data             Processed: 04/01/14, CGS  e0820e06    
Rcrd of Fri Mar 28, 2014 21:10:15.4 PDT*              (Avol1 v0.5, 2/14 CSMIP)  
CSMIP Preliminary Processing            (Origin:  To be determined)             
24605-E0820-14091.06                 Start time:  3/29/14, 04:10:15.4(*LoQ*)    
Station No. 24605   34.062N, 118.201W    SSA-1   s/n  820  (4 Chns of 27 at Sta)
Los Angeles - 7-story Univ. Hospital      CGS   Data: Acceleration              
Chan  1: 360 DegR (Sta Chn:  9)     Location: Lower Level: Center               
Rcrd of Fri Mar 28, 2014 21:10:15.4 PDT*   Fri Mar 28, 2014 21:10:15.4 PDT*     
Hypocenter:  To be determined.               ML:  To be determined.
Instr Period =  .0185 sec,  Damping =  .650,  Sensitivity = 1.24 v/g
                        Record length = 78.080 sec.
                                     Uncor Max  =   .022 g , at  22.155 sec.
RMS accel of (uncor) record  =        .   Chn. metadata effective date: 05/02/91
Accelerogram bandpass filtered with 3 dB pts at   .20 and 40.00 cyc/sec
                 instrument- and baseline-corrected





Rcrd of Fri Mar 28, 2014 21:10:15.4 PDT*   Fri Mar 28, 2014 21:10:15.4 PDT*

24605-E0820-14091.06      Los Angeles - 7-story Univ. Hospital    Chan  1: 360 D
eg
24605-E0820-14091.06      Los Angeles - 7-story Univ. Hospital    Chan  1: 360 D
eg
Units for spectra are inches and sec, except Sa is in fraction of g.

    1  100    9    4   27  200    1    3    1   12    5  820    024605    2    0
    4   10   15  440   88    3   29 2014    0    6  36015616   39   36   74   -1
15616    0  100    3 2115    7    6   61    2    4   10   15  440    3   29 2014
    0    0    3    0 7808    2  220    1   12    4    0    0    3    1    0 7808
    3 7808    4   76    5    4    5    0    1    0    0    0    1    3    3    2
    2    2    4    0   72   99    2    3    0    0  772    1    0    0    0  222
    1    0    1    0
      .019      .650    78.080      .003      .000  1244.000      .022    22.155
    54.000  1220.703   981.273      .000     5.000  -999.000     2.000      .000
     2.500    -9.969     2.500   376.000    15.360    30.000  -999.000      .157
      .009     -.147     2.000    15.000    34.062  -118.201      .120      .559
     4.649     -.178     -.117   115.000      .000      .000      .000      .000
     1.000    -2.351      .000  -999.000  -999.000  -999.000  -999.000      .000
     9.200      .500     6.300   980.665      .010    78.080     8.594      .000
      .000    40.000      .000    78.080      .010      .200      .000      .000
    22.160    21.443    21.880    -3.336    21.580      .680      .004      .200
    40.000      .010      .010      .008      .010      .146      .000      .000
      .086      .900      .033      .025      .073      .004      .000      .000
      .000      .000      .000      .000      .000      .000      .000      .000
      .000      .000      .000      .000
      .000      .020      .050      .100      .200
      .040      .042      .044      .046      .048      .050      .055      .060
      .065      .070      .075      .080      .085      .090      .095      .100
      .110      .120      .130      .140      .150      .160      .170      .180
      .190      .200      .220      .240      .260      .280      .300      .320
      .340      .360      .380      .400      .420      .440      .460      .480
      .500      .550      .600      .650      .700      .750      .800      .850
      .900      .950     1.000     1.100     1.200     1.300     1.400     1.500
     1.600     1.700     1.800     1.900     2.000     2.200     2.400     2.600
     2.800     3.000     3.200     3.400     3.600     3.800     4.000     4.200
     4.400     4.600     4.800     5.000      .000      .000      .000      .000
      .000      .000      .000      .000      .000      .000      .000      .000
      .000      .000      .000      .000      .000      .000      .000      .000
      .000      .000      .000      .000
Fourier amplitude spectra in in/sec.
  .148E+00  .512E-01  .477E-01  .944E-01  .900E-01  .844E-01  .160E+00  .469E-01
  .124E+00  .217E+00  .793E-01  .349E-01  .119E+00  .249E+00  .939E-01  .580E-01
  .147E+00  .105E+00  .180E+00  .110E+00  .338E+00  .183E+00  .324E+00  .354E+00
  .110E+00  .551E+00  .122E+01  .159E+01  .138E+01  .704E+00  .432E+00  .789E+00
  .917E+00  .422E+00  .631E+00  .123E+01  .289E+01  .277E+01  .524E+01  .440E+01
  .231E+01  .113E+01  .126E+01  .269E+00  .796E+00  .237E+01  .551E+00  .655E+01
  .141E+02  .870E+01  .706E+01  .121E+02  .677E+01  .306E+01  .345E+01  .505E+01
  .429E+01  .308E+01  .164E+01  .146E+01  .228E+01  .144E+01  .594E+00  .353E+00
  .105E+01  .100E+01  .218E+00  .407E+00  .565E+00  .327E+00  .547E+00  .417E+00
  .265E+00  .219E+00  .146E+00  .169E+00  .000E+00  .000E+00  .000E+00  .000E+00
  .000E+00  .000E+00  .000E+00  .000E+00  .000E+00  .000E+00  .000E+00  .000E+00
  .000E+00  .000E+00  .000E+00  .000E+00  .000E+00  .000E+00  .000E+00  .000E+00
  .000E+00  .000E+00  .000E+00  .000E+00
Damping =  .00. Data of Sd,Sv,Sa,Pssv,ttSd,ttSv,ttSa :
  .970E-03  .699E-03  .623E-03  .777E-03  .960E-03  .121E-02  .177E-02  .142E-02
  .247E-02  .263E-02  .182E-02  .188E-02  .275E-02  .424E-02  .312E-02  .219E-02
  .391E-02  .340E-02  .650E-02  .505E-02  .121E-01  .116E-01  .882E-02  .103E-01
  .165E-01  .235E-01  .626E-01  .630E-01  .623E-01  .507E-01  .327E-01  .548E-01
  .693E-01  .506E-01  .794E-01  .189E+00  .236E+00  .278E+00  .405E+00  .337E+00
  .251E+00  .169E+00  .233E+00  .191E+00  .165E+00  .370E+00  .354E+00  .949E+00
  .205E+01  .139E+01  .112E+01  .221E+01  .138E+01  .762E+00  .966E+00  .126E+01
  .111E+01  .835E+00  .527E+00  .587E+00  .797E+00  .619E+00  .457E+00  .341E+00
  .466E+00  .508E+00  .449E+00  .486E+00  .458E+00  .402E+00  .376E+00  .353E+00
  .351E+00  .341E+00  .332E+00  .333E+00  .000E+00  .000E+00  .000E+00  .000E+00
  .000E+00  .000E+00  .000E+00  .000E+00  .000E+00  .000E+00  .000E+00  .000E+00
  .000E+00  .000E+00  .000E+00  .000E+00  .000E+00  .000E+00  .000E+00  .000E+00
  .000E+00  .000E+00  .000E+00  .000E+00
  .151E+00  .962E-01  .570E-01  .983E-01  .115E+00  .149E+00  .193E+00  .109E+00
  .164E+00  .234E+00  .921E-01  .766E-01  .141E+00  .270E+00  .137E+00  .100E+00
  .146E+00  .111E+00  .217E+00  .168E+00  .406E+00  .365E+00  .324E+00  .352E+00
  .411E+00  .720E+00  .174E+01  .165E+01  .146E+01  .988E+00  .526E+00  .103E+01
  .121E+01  .809E+00  .123E+01  .288E+01  .351E+01  .365E+01  .552E+01  .441E+01
  .311E+01  .188E+01  .196E+01  .150E+01  .135E+01  .273E+01  .271E+01  .702E+01
  .143E+02  .918E+01  .706E+01  .127E+02  .723E+01  .384E+01  .470E+01  .527E+01
  .433E+01  .308E+01  .217E+01  .232E+01  .254E+01  .221E+01  .215E+01  .168E+01
  .145E+01  .144E+01  .155E+01  .169E+01  .176E+01  .175E+01  .170E+01  .164E+01
  .158E+01  .154E+01  .152E+01  .150E+01  .000E+00  .000E+00  .000E+00  .000E+00
  .000E+00  .000E+00  .000E+00  .000E+00  .000E+00  .000E+00  .000E+00  .000E+00
  .000E+00  .000E+00  .000E+00  .000E+00  .000E+00  .000E+00  .000E+00  .000E+00
  .000E+00  .000E+00  .000E+00  .000E+00
  .620E-01  .405E-01  .329E-01  .375E-01  .426E-01  .493E-01  .597E-01  .403E-01
  .598E-01  .549E-01  .330E-01  .300E-01  .389E-01  .536E-01  .354E-01  .224E-01
  .331E-01  .241E-01  .393E-01  .263E-01  .548E-01  .463E-01  .312E-01  .325E-01
  .467E-01  .600E-01  .132E+00  .112E+00  .943E-01  .662E-01  .372E-01  .547E-01
  .613E-01  .399E-01  .563E-01  .121E+00  .137E+00  .147E+00  .196E+00  .149E+00
  .103E+00  .573E-01  .662E-01  .462E-01  .344E-01  .674E-01  .566E-01  .134E+00
  .259E+00  .157E+00  .115E+00  .187E+00  .979E-01  .461E-01  .504E-01  .572E-01
  .443E-01  .296E-01  .167E-01  .166E-01  .204E-01  .131E-01  .812E-02  .515E-02
  .608E-02  .578E-02  .449E-02  .430E-02  .362E-02  .285E-02  .240E-02  .205E-02
  .186E-02  .165E-02  .148E-02  .136E-02  .000E+00  .000E+00  .000E+00  .000E+00
  .000E+00  .000E+00  .000E+00  .000E+00  .000E+00  .000E+00  .000E+00  .000E+00
  .000E+00  .000E+00  .000E+00  .000E+00  .000E+00  .000E+00  .000E+00  .000E+00
  .000E+00  .000E+00  .000E+00  .000E+00
  .152E+00  .105E+00  .890E-01  .106E+00  .126E+00  .151E+00  .202E+00  .149E+00
  .239E+00  .236E+00  .152E+00  .147E+00  .203E+00  .296E+00  .207E+00  .138E+00
  .224E+00  .178E+00  .314E+00  .227E+00  .505E+00  .455E+00  .326E+00  .360E+00
  .545E+00  .738E+00  .179E+01  .165E+01  .151E+01  .114E+01  .685E+00  .108E+01
  .128E+01  .883E+00  .131E+01  .297E+01  .352E+01  .397E+01  .553E+01  .441E+01
  .315E+01  .193E+01  .244E+01  .184E+01  .148E+01  .310E+01  .278E+01  .702E+01
  .143E+02  .919E+01  .706E+01  .126E+02  .722E+01  .368E+01  .434E+01  .527E+01
  .435E+01  .309E+01  .184E+01  .194E+01  .250E+01  .177E+01  .120E+01  .823E+00
  .105E+01  .106E+01  .882E+00  .899E+00  .800E+00  .665E+00  .590E+00  .528E+00
  .502E+00  .465E+00  .435E+00  .418E+00  .000E+00  .000E+00  .000E+00  .000E+00
  .000E+00  .000E+00  .000E+00  .000E+00  .000E+00  .000E+00  .000E+00  .000E+00
  .000E+00  .000E+00  .000E+00  .000E+00  .000E+00  .000E+00  .000E+00  .000E+00
  .000E+00  .000E+00  .000E+00  .000E+00
  .731E+02  .222E+02  .222E+02  .435E+02  .222E+02  .481E+02  .445E+02  .231E+02
  .221E+02  .641E+02  .221E+02  .216E+02  .221E+02  .221E+02  .176E+02  .176E+02
  .211E+02  .216E+02  .177E+02  .222E+02  .176E+02  .222E+02  .768E+02  .750E+02
  .176E+02  .386E+02  .314E+02  .529E+02  .211E+02  .220E+02  .221E+02  .388E+02
  .249E+02  .203E+02  .205E+02  .244E+02  .344E+02  .222E+02  .471E+02  .767E+02
  .449E+02  .235E+02  .216E+02  .211E+02  .216E+02  .216E+02  .201E+02  .692E+02
  .668E+02  .613E+02  .778E+02  .587E+02  .597E+02  .232E+02  .232E+02  .355E+02
  .596E+02  .764E+02  .684E+02  .255E+02  .588E+02  .221E+02  .222E+02  .216E+02
  .777E+02  .588E+02  .221E+02  .221E+02  .222E+02  .222E+02  .571E+02  .215E+02
  .215E+02  .215E+02  .216E+02  .216E+02  .000E+00  .000E+00  .000E+00  .000E+00
  .000E+00  .000E+00  .000E+00  .000E+00  .000E+00  .000E+00  .000E+00  .000E+00
  .000E+00  .000E+00  .000E+00  .000E+00  .000E+00  .000E+00  .000E+00  .000E+00
  .000E+00  .000E+00  .000E+00  .000E+00
  .731E+02  .406E+02  .262E+02  .496E+02  .618E+02  .482E+02  .450E+02  .232E+02
  .644E+02  .641E+02  .584E+02  .535E+02  .702E+02  .643E+02  .178E+02  .160E+02
  .450E+02  .245E+02  .177E+02  .182E+02  .176E+02  .271E+02  .767E+02  .772E+02
  .176E+02  .387E+02  .314E+02  .529E+02  .436E+02  .248E+02  .281E+02  .389E+02
  .250E+02  .204E+02  .204E+02  .243E+02  .345E+02  .223E+02  .470E+02  .766E+02
  .450E+02  .234E+02  .218E+02  .213E+02  .165E+02  .219E+02  .199E+02  .690E+02
  .666E+02  .615E+02  .781E+02  .590E+02  .594E+02  .229E+02  .229E+02  .351E+02
  .592E+02  .760E+02  .213E+02  .259E+02  .563E+02  .218E+02  .219E+02  .219E+02
  .219E+02  .219E+02  .219E+02  .219E+02  .219E+02  .219E+02  .219E+02  .219E+02
  .219E+02  .219E+02  .219E+02  .219E+02  .000E+00  .000E+00  .000E+00  .000E+00
  .000E+00  .000E+00  .000E+00  .000E+00  .000E+00  .000E+00  .000E+00  .000E+00
  .000E+00  .000E+00  .000E+00  .000E+00  .000E+00  .000E+00  .000E+00  .000E+00
  .000E+00  .000E+00  .000E+00  .000E+00
  .731E+02  .222E+02  .222E+02  .435E+02  .222E+02  .481E+02  .445E+02  .231E+02
  .221E+02  .641E+02  .221E+02  .216E+02  .221E+02  .221E+02  .176E+02  .176E+02
  .211E+02  .216E+02  .177E+02  .222E+02  .176E+02  .222E+02  .768E+02  .750E+02
  .176E+02  .386E+02  .314E+02  .529E+02  .211E+02  .220E+02  .221E+02  .388E+02
  .249E+02  .203E+02  .205E+02  .244E+02  .344E+02  .222E+02  .471E+02  .767E+02
  .449E+02  .235E+02  .216E+02  .211E+02  .216E+02  .216E+02  .201E+02  .692E+02
  .668E+02  .613E+02  .778E+02  .587E+02  .597E+02  .232E+02  .232E+02  .355E+02
  .596E+02  .764E+02  .684E+02  .255E+02  .588E+02  .221E+02  .222E+02  .216E+02
  .777E+02  .588E+02  .221E+02  .221E+02  .222E+02  .222E+02  .571E+02  .215E+02
  .215E+02  .215E+02  .216E+02  .216E+02  .000E+00  .000E+00  .000E+00  .000E+00
  .000E+00  .000E+00  .000E+00  .000E+00  .000E+00  .000E+00  .000E+00  .000E+00
  .000E+00  .000E+00  .000E+00  .000E+00  .000E+00  .000E+00  .000E+00  .000E+00
  .000E+00  .000E+00  .000E+00  .000E+00
Damping =  .02. Data of Sd,Sv,Sa,Pssv,ttSd,ttSv,ttSa :
  .380E-03  .430E-03  .465E-03  .506E-03  .582E-03  .570E-03  .785E-03  .859E-03
  .105E-02  .129E-02  .123E-02  .150E-02  .165E-02  .180E-02  .208E-02  .225E-02
  .301E-02  .359E-02  .390E-02  .505E-02  .586E-02  .601E-02  .643E-02  .798E-02
  .120E-01  .172E-01  .278E-01  .184E-01  .310E-01  .257E-01  .240E-01  .259E-01
  .365E-01  .362E-01  .584E-01  .841E-01  .105E+00  .142E+00  .165E+00  .133E+00
  .147E+00  .131E+00  .159E+00  .151E+00  .194E+00  .292E+00  .273E+00  .670E+00
  .951E+00  .901E+00  .801E+00  .114E+01  .997E+00  .746E+00  .825E+00  .862E+00
  .730E+00  .518E+00  .418E+00  .486E+00  .521E+00  .558E+00  .444E+00  .323E+00
  .312E+00  .368E+00  .429E+00  .457E+00  .437E+00  .394E+00  .349E+00  .339E+00
  .340E+00  .334E+00  .330E+00  .330E+00  .000E+00  .000E+00  .000E+00  .000E+00
  .000E+00  .000E+00  .000E+00  .000E+00  .000E+00  .000E+00  .000E+00  .000E+00
  .000E+00  .000E+00  .000E+00  .000E+00  .000E+00  .000E+00  .000E+00  .000E+00
  .000E+00  .000E+00  .000E+00  .000E+00
  .183E-01  .261E-01  .275E-01  .253E-01  .348E-01  .343E-01  .504E-01  .469E-01
  .417E-01  .581E-01  .536E-01  .398E-01  .475E-01  .592E-01  .614E-01  .733E-01
  .705E-01  .967E-01  .104E+00  .108E+00  .152E+00  .176E+00  .180E+00  .214E+00
  .329E+00  .515E+00  .759E+00  .465E+00  .658E+00  .448E+00  .293E+00  .345E+00
  .555E+00  .547E+00  .837E+00  .118E+01  .151E+01  .179E+01  .220E+01  .172E+01
  .177E+01  .129E+01  .132E+01  .117E+01  .122E+01  .200E+01  .200E+01  .446E+01
  .653E+01  .606E+01  .517E+01  .679E+01  .526E+01  .385E+01  .414E+01  .405E+01
  .327E+01  .261E+01  .202E+01  .192E+01  .211E+01  .207E+01  .204E+01  .170E+01
  .149E+01  .148E+01  .155E+01  .166E+01  .171E+01  .171E+01  .167E+01  .163E+01
  .158E+01  .154E+01  .152E+01  .150E+01  .000E+00  .000E+00  .000E+00  .000E+00
  .000E+00  .000E+00  .000E+00  .000E+00  .000E+00  .000E+00  .000E+00  .000E+00
  .000E+00  .000E+00  .000E+00  .000E+00  .000E+00  .000E+00  .000E+00  .000E+00
  .000E+00  .000E+00  .000E+00  .000E+00
  .243E-01  .249E-01  .246E-01  .244E-01  .258E-01  .233E-01  .264E-01  .244E-01
  .255E-01  .270E-01  .223E-01  .239E-01  .234E-01  .227E-01  .236E-01  .230E-01
  .254E-01  .255E-01  .236E-01  .264E-01  .266E-01  .240E-01  .228E-01  .252E-01
  .340E-01  .440E-01  .585E-01  .328E-01  .469E-01  .335E-01  .273E-01  .258E-01
  .324E-01  .286E-01  .413E-01  .539E-01  .608E-01  .749E-01  .796E-01  .591E-01
  .603E-01  .442E-01  .451E-01  .366E-01  .405E-01  .531E-01  .437E-01  .949E-01
  .120E+00  .102E+00  .820E-01  .967E-01  .709E-01  .452E-01  .431E-01  .392E-01
  .292E-01  .183E-01  .132E-01  .138E-01  .133E-01  .118E-01  .791E-02  .490E-02
  .409E-02  .421E-02  .431E-02  .406E-02  .347E-02  .281E-02  .225E-02  .198E-02
  .181E-02  .163E-02  .148E-02  .137E-02  .000E+00  .000E+00  .000E+00  .000E+00
  .000E+00  .000E+00  .000E+00  .000E+00  .000E+00  .000E+00  .000E+00  .000E+00
  .000E+00  .000E+00  .000E+00  .000E+00  .000E+00  .000E+00  .000E+00  .000E+00
  .000E+00  .000E+00  .000E+00  .000E+00
  .597E-01  .643E-01  .664E-01  .691E-01  .762E-01  .716E-01  .897E-01  .900E-01
  .102E+00  .116E+00  .103E+00  .118E+00  .122E+00  .126E+00  .138E+00  .141E+00
  .172E+00  .188E+00  .188E+00  .227E+00  .246E+00  .236E+00  .238E+00  .279E+00
  .396E+00  .542E+00  .793E+00  .483E+00  .749E+00  .576E+00  .503E+00  .508E+00
  .675E+00  .632E+00  .965E+00  .132E+01  .157E+01  .202E+01  .225E+01  .174E+01
  .185E+01  .149E+01  .166E+01  .146E+01  .174E+01  .245E+01  .215E+01  .496E+01
  .664E+01  .596E+01  .503E+01  .653E+01  .522E+01  .360E+01  .370E+01  .361E+01
  .287E+01  .191E+01  .146E+01  .161E+01  .164E+01  .159E+01  .116E+01  .780E+00
  .700E+00  .772E+00  .843E+00  .844E+00  .763E+00  .652E+00  .548E+00  .507E+00
  .485E+00  .457E+00  .432E+00  .415E+00  .000E+00  .000E+00  .000E+00  .000E+00
  .000E+00  .000E+00  .000E+00  .000E+00  .000E+00  .000E+00  .000E+00  .000E+00
  .000E+00  .000E+00  .000E+00  .000E+00  .000E+00  .000E+00  .000E+00  .000E+00
  .000E+00  .000E+00  .000E+00  .000E+00
  .222E+02  .222E+02  .222E+02  .222E+02  .222E+02  .222E+02  .222E+02  .222E+02
  .221E+02  .222E+02  .222E+02  .222E+02  .222E+02  .222E+02  .222E+02  .222E+02
  .222E+02  .222E+02  .216E+02  .222E+02  .222E+02  .222E+02  .222E+02  .180E+02
  .180E+02  .188E+02  .180E+02  .239E+02  .211E+02  .220E+02  .221E+02  .222E+02
  .161E+02  .161E+02  .205E+02  .212E+02  .171E+02  .215E+02  .252E+02  .232E+02
  .207E+02  .210E+02  .216E+02  .215E+02  .216E+02  .216E+02  .216E+02  .216E+02
  .223E+02  .238E+02  .239E+02  .230E+02  .231E+02  .232E+02  .226E+02  .227E+02
  .260E+02  .262E+02  .262E+02  .256E+02  .257E+02  .221E+02  .222E+02  .216E+02
  .221E+02  .221E+02  .221E+02  .221E+02  .222E+02  .222E+02  .222E+02  .215E+02
  .215E+02  .215E+02  .215E+02  .215E+02  .000E+00  .000E+00  .000E+00  .000E+00
  .000E+00  .000E+00  .000E+00  .000E+00  .000E+00  .000E+00  .000E+00  .000E+00
  .000E+00  .000E+00  .000E+00  .000E+00  .000E+00  .000E+00  .000E+00  .000E+00
  .000E+00  .000E+00  .000E+00  .000E+00
  .222E+02  .222E+02  .222E+02  .223E+02  .222E+02  .223E+02  .223E+02  .223E+02
  .169E+02  .223E+02  .177E+02  .187E+02  .187E+02  .177E+02  .163E+02  .160E+02
  .185E+02  .163E+02  .191E+02  .195E+02  .162E+02  .179E+02  .179E+02  .179E+02
  .179E+02  .189E+02  .181E+02  .239E+02  .204E+02  .204E+02  .198E+02  .160E+02
  .160E+02  .198E+02  .204E+02  .213E+02  .178E+02  .214E+02  .253E+02  .233E+02
  .208E+02  .234E+02  .199E+02  .164E+02  .218E+02  .219E+02  .187E+02  .219E+02
  .225E+02  .240E+02  .241E+02  .232E+02  .228E+02  .229E+02  .229E+02  .223E+02
  .218E+02  .219E+02  .213E+02  .259E+02  .224E+02  .218E+02  .219E+02  .219E+02
  .219E+02  .219E+02  .219E+02  .219E+02  .219E+02  .219E+02  .219E+02  .219E+02
  .219E+02  .219E+02  .219E+02  .219E+02  .000E+00  .000E+00  .000E+00  .000E+00
  .000E+00  .000E+00  .000E+00  .000E+00  .000E+00  .000E+00  .000E+00  .000E+00
  .000E+00  .000E+00  .000E+00  .000E+00  .000E+00  .000E+00  .000E+00  .000E+00
  .000E+00  .000E+00  .000E+00  .000E+00
  .222E+02  .222E+02  .222E+02  .222E+02  .222E+02  .221E+02  .222E+02  .222E+02
  .221E+02  .222E+02  .222E+02  .222E+02  .222E+02  .222E+02  .222E+02  .222E+02
  .222E+02  .222E+02  .216E+02  .222E+02  .222E+02  .222E+02  .222E+02  .180E+02
  .180E+02  .188E+02  .180E+02  .239E+02  .211E+02  .220E+02  .221E+02  .222E+02
  .161E+02  .161E+02  .205E+02  .212E+02  .171E+02  .215E+02  .252E+02  .232E+02
  .207E+02  .210E+02  .216E+02  .215E+02  .216E+02  .216E+02  .216E+02  .216E+02
  .222E+02  .238E+02  .239E+02  .229E+02  .231E+02  .231E+02  .226E+02  .227E+02
  .260E+02  .262E+02  .262E+02  .256E+02  .257E+02  .221E+02  .221E+02  .215E+02
  .221E+02  .221E+02  .221E+02  .221E+02  .221E+02  .221E+02  .221E+02  .215E+02
  .215E+02  .215E+02  .215E+02  .215E+02  .000E+00  .000E+00  .000E+00  .000E+00
  .000E+00  .000E+00  .000E+00  .000E+00  .000E+00  .000E+00  .000E+00  .000E+00
  .000E+00  .000E+00  .000E+00  .000E+00  .000E+00  .000E+00  .000E+00  .000E+00
  .000E+00  .000E+00  .000E+00  .000E+00
Damping =  .05. Data of Sd,Sv,Sa,Pssv,ttSd,ttSv,ttSa :
  .366E-03  .409E-03  .445E-03  .481E-03  .534E-03  .564E-03  .695E-03  .815E-03
