Response and Fourier amplitude spectra (76 periods,  .04 -  5.0 sec)   for      
Corrected accelerogram   24605-E0822-14091.06       Chan  3:  90 Deg     from   
Uncorrected Accelerogram Data             Processed: 04/01/14, CGS  e0822e06    
Rcrd of Fri Mar 28, 2014 21:10:13.4 PDT*              (Avol1 v0.5, 2/14 CSMIP)  
CSMIP Preliminary Processing            (Origin:  To be determined)             
24605-E0822-14091.06                 Start time:  3/29/14, 04:10:13.4(*LoQ*)    
Station No. 24605   34.062N, 118.201W    SSA-1   s/n  822  (4 Chns of 27 at Sta)
Los Angeles - 7-story Univ. Hospital      CGS   Data: Acceleration              
Chan  3:  90 DegR (Sta Chn: 19)     Location: 6th Floor: Center                 
Rcrd of Fri Mar 28, 2014 21:10:13.4 PDT*   Fri Mar 28, 2014 21:10:13.4 PDT*     
Hypocenter:  To be determined.               ML:  To be determined.
Instr Period =  .0189 sec,  Damping =  .670,  Sensitivity = 1.25 v/g
                        Record length = 78.080 sec.
                                     Uncor Max  =   .022 g , at  20.170 sec.
RMS accel of (uncor) record  =        .   Chn. metadata effective date: 05/02/91
Accelerogram bandpass filtered with 3 dB pts at   .20 and 40.00 cyc/sec
                 instrument- and baseline-corrected





Rcrd of Fri Mar 28, 2014 21:10:13.4 PDT*   Fri Mar 28, 2014 21:10:13.4 PDT*

24605-E0822-14091.06      Los Angeles - 7-story Univ. Hospital    Chan  3:  90 D
eg
24605-E0822-14091.06      Los Angeles - 7-story Univ. Hospital    Chan  3:  90 D
eg
Units for spectra are inches and sec, except Sa is in fraction of g.

    3  100   19    4   27  200    1    3    1   12    5  822    024605    2    0
    4   10   13  410   88    3   29 2014    0    6   9015616   39   36   74   -1
15616    0  100    3 2115    7    6   61    2    4   10   13  410    3   29 2014
    0    0    3    0 7808    2  220    1   12    4    0    0    3    1    0 7808
    3 7808    4   76    5    4    5    0    1    0    0    0    1    3    5    2
    2    2    4    0   72   99    2    3    0    0  772    1    0    0    0  222
    1    0    3    0
      .019      .670    78.080      .004      .000  1254.000      .022    20.170
    52.900  1220.703   973.447      .000     5.000  -999.000     2.000      .000
     2.500    -7.547     2.500   376.000    15.360    30.000  -999.000     -.172
      .006      .179     2.000    15.000    34.062  -118.201      .249      .888
     3.570      .126      .231   115.000      .000      .000      .000      .000
     1.000    65.081      .000  -999.000  -999.000  -999.000  -999.000      .000
     9.200      .500     6.300   980.665      .010    78.080     8.419      .000
      .000    40.000      .000    78.080      .010      .200      .000      .000
    20.170    21.654    20.800    -3.131    20.560      .513     -.004      .200
    40.000      .010      .010     -.008      .010      .257      .000      .000
      .126      .900      .052      .038      .103      .004      .000      .000
      .000      .000      .000      .000      .000      .000      .000      .000
      .000      .000      .000      .000
      .000      .020      .050      .100      .200
      .040      .042      .044      .046      .048      .050      .055      .060
      .065      .070      .075      .080      .085      .090      .095      .100
      .110      .120      .130      .140      .150      .160      .170      .180
      .190      .200      .220      .240      .260      .280      .300      .320
      .340      .360      .380      .400      .420      .440      .460      .480
      .500      .550      .600      .650      .700      .750      .800      .850
      .900      .950     1.000     1.100     1.200     1.300     1.400     1.500
     1.600     1.700     1.800     1.900     2.000     2.200     2.400     2.600
     2.800     3.000     3.200     3.400     3.600     3.800     4.000     4.200
     4.400     4.600     4.800     5.000      .000      .000      .000      .000
      .000      .000      .000      .000      .000      .000      .000      .000
      .000      .000      .000      .000      .000      .000      .000      .000
      .000      .000      .000      .000
Fourier amplitude spectra in in/sec.
  .829E-01  .855E-01  .569E-01  .156E+00  .482E-01  .777E-01  .537E-01  .140E+00
  .764E-01  .804E-01  .261E-01  .111E+00  .154E+00  .768E-01  .113E+00  .197E+00
  .174E+00  .569E+00  .451E+00  .142E+00  .588E+00  .330E+00  .243E+00  .217E+00
  .137E+01  .769E+00  .962E+00  .139E+01  .226E+01  .152E+01  .200E+01  .770E+00
  .803E+00  .783E+00  .347E+00  .837E+00  .208E+00  .750E+00  .118E+01  .126E+01
  .166E+01  .509E+00  .218E+01  .115E+01  .380E+01  .878E+01  .306E+01  .145E+02
  .182E+02  .143E+02  .258E+02  .120E+02  .473E+01  .413E+01  .103E+01  .517E+01
  .230E+01  .686E+00  .266E+00  .135E+01  .852E+00  .494E+00  .566E+00  .416E+00
  .562E+00  .524E+00  .127E+01  .301E+00  .269E+00  .580E+00  .602E+00  .386E+00
  .269E+00  .425E+00  .400E+00  .397E+00  .000E+00  .000E+00  .000E+00  .000E+00
  .000E+00  .000E+00  .000E+00  .000E+00  .000E+00  .000E+00  .000E+00  .000E+00
  .000E+00  .000E+00  .000E+00  .000E+00  .000E+00  .000E+00  .000E+00  .000E+00
  .000E+00  .000E+00  .000E+00  .000E+00
Damping =  .00. Data of Sd,Sv,Sa,Pssv,ttSd,ttSv,ttSa :
  .634E-03  .597E-03  .682E-03  .119E-02  .737E-03  .864E-03  .102E-02  .168E-02
  .148E-02  .159E-02  .187E-02  .205E-02  .292E-02  .320E-02  .460E-02  .439E-02
  .556E-02  .119E-01  .102E-01  .119E-01  .186E-01  .232E-01  .183E-01  .226E-01
  .471E-01  .287E-01  .586E-01  .997E-01  .947E-01  .830E-01  .106E+00  .467E-01
  .876E-01  .704E-01  .633E-01  .914E-01  .596E-01  .711E-01  .136E+00  .154E+00
  .179E+00  .158E+00  .342E+00  .237E+00  .460E+00  .107E+01  .673E+00  .209E+01
  .267E+01  .259E+01  .436E+01  .216E+01  .115E+01  .109E+01  .822E+00  .125E+01
  .848E+00  .564E+00  .444E+00  .429E+00  .358E+00  .353E+00  .278E+00  .303E+00
  .363E+00  .433E+00  .647E+00  .384E+00  .365E+00  .404E+00  .455E+00  .396E+00
  .294E+00  .320E+00  .385E+00  .336E+00  .000E+00  .000E+00  .000E+00  .000E+00
  .000E+00  .000E+00  .000E+00  .000E+00  .000E+00  .000E+00  .000E+00  .000E+00
  .000E+00  .000E+00  .000E+00  .000E+00  .000E+00  .000E+00  .000E+00  .000E+00
  .000E+00  .000E+00  .000E+00  .000E+00
  .899E-01  .860E-01  .948E-01  .160E+00  .759E-01  .970E-01  .942E-01  .173E+00
  .118E+00  .110E+00  .808E-01  .150E+00  .213E+00  .125E+00  .228E+00  .245E+00
  .234E+00  .615E+00  .453E+00  .461E+00  .715E+00  .848E+00  .590E+00  .683E+00
  .154E+01  .872E+00  .149E+01  .248E+01  .228E+01  .178E+01  .220E+01  .866E+00
  .152E+01  .870E+00  .699E+00  .126E+01  .794E+00  .973E+00  .177E+01  .193E+01
  .214E+01  .151E+01  .325E+01  .190E+01  .381E+01  .896E+01  .504E+01  .154E+02
  .186E+02  .168E+02  .274E+02  .125E+02  .605E+01  .560E+01  .410E+01  .529E+01
  .384E+01  .273E+01  .240E+01  .207E+01  .198E+01  .153E+01  .154E+01  .164E+01
  .156E+01  .162E+01  .163E+01  .161E+01  .157E+01  .150E+01  .144E+01  .138E+01
  .132E+01  .127E+01  .124E+01  .123E+01  .000E+00  .000E+00  .000E+00  .000E+00
  .000E+00  .000E+00  .000E+00  .000E+00  .000E+00  .000E+00  .000E+00  .000E+00
  .000E+00  .000E+00  .000E+00  .000E+00  .000E+00  .000E+00  .000E+00  .000E+00
  .000E+00  .000E+00  .000E+00  .000E+00
  .405E-01  .346E-01  .360E-01  .573E-01  .327E-01  .353E-01  .346E-01  .477E-01
  .359E-01  .333E-01  .340E-01  .327E-01  .414E-01  .404E-01  .521E-01  .449E-01
  .470E-01  .847E-01  .615E-01  .619E-01  .843E-01  .928E-01  .649E-01  .712E-01
  .134E+00  .734E-01  .124E+00  .177E+00  .143E+00  .108E+00  .121E+00  .466E-01
  .775E-01  .555E-01  .449E-01  .585E-01  .346E-01  .376E-01  .655E-01  .682E-01
  .733E-01  .535E-01  .972E-01  .573E-01  .960E-01  .195E+00  .108E+00  .296E+00
  .337E+00  .294E+00  .446E+00  .182E+00  .819E-01  .662E-01  .429E-01  .569E-01
  .339E-01  .200E-01  .140E-01  .121E-01  .915E-02  .745E-02  .494E-02  .458E-02
  .473E-02  .492E-02  .646E-02  .340E-02  .288E-02  .286E-02  .291E-02  .230E-02
  .155E-02  .155E-02  .171E-02  .138E-02  .000E+00  .000E+00  .000E+00  .000E+00
  .000E+00  .000E+00  .000E+00  .000E+00  .000E+00  .000E+00  .000E+00  .000E+00
  .000E+00  .000E+00  .000E+00  .000E+00  .000E+00  .000E+00  .000E+00  .000E+00
  .000E+00  .000E+00  .000E+00  .000E+00
  .995E-01  .893E-01  .974E-01  .162E+00  .965E-01  .109E+00  .117E+00  .176E+00
  .143E+00  .143E+00  .157E+00  .161E+00  .216E+00  .224E+00  .304E+00  .276E+00
  .318E+00  .624E+00  .491E+00  .532E+00  .777E+00  .912E+00  .677E+00  .787E+00
  .156E+01  .901E+00  .167E+01  .261E+01  .229E+01  .186E+01  .223E+01  .917E+00
  .162E+01  .123E+01  .105E+01  .144E+01  .892E+00  .102E+01  .185E+01  .201E+01
  .225E+01  .181E+01  .358E+01  .229E+01  .413E+01  .900E+01  .529E+01  .154E+02
  .186E+02  .172E+02  .274E+02  .123E+02  .603E+01  .528E+01  .369E+01  .524E+01
  .333E+01  .208E+01  .155E+01  .142E+01  .112E+01  .101E+01  .729E+00  .732E+00
  .814E+00  .906E+00  .127E+01  .710E+00  .638E+00  .668E+00  .714E+00  .593E+00
  .420E+00  .437E+00  .504E+00  .422E+00  .000E+00  .000E+00  .000E+00  .000E+00
  .000E+00  .000E+00  .000E+00  .000E+00  .000E+00  .000E+00  .000E+00  .000E+00
  .000E+00  .000E+00  .000E+00  .000E+00  .000E+00  .000E+00  .000E+00  .000E+00
  .000E+00  .000E+00  .000E+00  .000E+00
  .202E+02  .211E+02  .644E+02  .737E+02  .202E+02  .246E+02  .251E+02  .685E+02
  .246E+02  .197E+02  .202E+02  .211E+02  .473E+02  .211E+02  .202E+02  .278E+02
  .196E+02  .685E+02  .278E+02  .202E+02  .183E+02  .175E+02  .236E+02  .183E+02
  .451E+02  .205E+02  .211E+02  .206E+02  .506E+02  .380E+02  .423E+02  .614E+02
  .279E+02  .205E+02  .206E+02  .278E+02  .165E+02  .278E+02  .376E+02  .356E+02
  .361E+02  .206E+02  .247E+02  .210E+02  .205E+02  .744E+02  .188E+02  .631E+02
  .631E+02  .257E+02  .594E+02  .375E+02  .521E+02  .267E+02  .257E+02  .746E+02
  .284E+02  .247E+02  .210E+02  .210E+02  .211E+02  .589E+02  .338E+02  .210E+02
  .210E+02  .409E+02  .771E+02  .284E+02  .252E+02  .356E+02  .541E+02  .366E+02
  .351E+02  .749E+02  .619E+02  .606E+02  .000E+00  .000E+00  .000E+00  .000E+00
  .000E+00  .000E+00  .000E+00  .000E+00  .000E+00  .000E+00  .000E+00  .000E+00
  .000E+00  .000E+00  .000E+00  .000E+00  .000E+00  .000E+00  .000E+00  .000E+00
  .000E+00  .000E+00  .000E+00  .000E+00
  .740E+02  .769E+02  .641E+02  .736E+02  .526E+02  .531E+02  .598E+02  .682E+02
  .498E+02  .669E+02  .213E+02  .586E+02  .447E+02  .213E+02  .346E+02  .591E+02
  .339E+02  .686E+02  .734E+02  .171E+02  .180E+02  .175E+02  .235E+02  .182E+02
  .451E+02  .658E+02  .212E+02  .203E+02  .510E+02  .383E+02  .423E+02  .613E+02
  .244E+02  .206E+02  .207E+02  .340E+02  .166E+02  .508E+02  .378E+02  .335E+02
  .383E+02  .194E+02  .248E+02  .208E+02  .711E+02  .743E+02  .190E+02  .633E+02
  .633E+02  .259E+02  .591E+02  .378E+02  .518E+02  .270E+02  .254E+02  .742E+02
  .280E+02  .244E+02  .213E+02  .208E+02  .208E+02  .208E+02  .213E+02  .213E+02
  .213E+02  .208E+02  .208E+02  .208E+02  .208E+02  .208E+02  .208E+02  .208E+02
  .208E+02  .208E+02  .208E+02  .208E+02  .000E+00  .000E+00  .000E+00  .000E+00
  .000E+00  .000E+00  .000E+00  .000E+00  .000E+00  .000E+00  .000E+00  .000E+00
  .000E+00  .000E+00  .000E+00  .000E+00  .000E+00  .000E+00  .000E+00  .000E+00
  .000E+00  .000E+00  .000E+00  .000E+00
  .202E+02  .211E+02  .644E+02  .737E+02  .202E+02  .246E+02  .251E+02  .685E+02
  .246E+02  .197E+02  .202E+02  .211E+02  .473E+02  .211E+02  .202E+02  .278E+02
  .196E+02  .685E+02  .278E+02  .202E+02  .183E+02  .175E+02  .236E+02  .183E+02
  .451E+02  .205E+02  .211E+02  .206E+02  .506E+02  .380E+02  .423E+02  .614E+02
  .279E+02  .205E+02  .206E+02  .278E+02  .165E+02  .278E+02  .376E+02  .356E+02
  .361E+02  .206E+02  .247E+02  .210E+02  .205E+02  .744E+02  .188E+02  .631E+02
  .631E+02  .257E+02  .594E+02  .375E+02  .521E+02  .267E+02  .257E+02  .746E+02
  .284E+02  .247E+02  .210E+02  .210E+02  .211E+02  .589E+02  .338E+02  .210E+02
  .210E+02  .409E+02  .771E+02  .284E+02  .252E+02  .356E+02  .541E+02  .366E+02
  .351E+02  .749E+02  .619E+02  .606E+02  .000E+00  .000E+00  .000E+00  .000E+00
  .000E+00  .000E+00  .000E+00  .000E+00  .000E+00  .000E+00  .000E+00  .000E+00
  .000E+00  .000E+00  .000E+00  .000E+00  .000E+00  .000E+00  .000E+00  .000E+00
  .000E+00  .000E+00  .000E+00  .000E+00
Damping =  .02. Data of Sd,Sv,Sa,Pssv,ttSd,ttSv,ttSa :
  .369E-03  .405E-03  .451E-03  .482E-03  .531E-03  .546E-03  .678E-03  .824E-03
  .945E-03  .117E-02  .127E-02  .151E-02  .179E-02  .209E-02  .226E-02  .282E-02
  .319E-02  .508E-02  .614E-02  .693E-02  .128E-01  .150E-01  .137E-01  .182E-01
  .205E-01  .280E-01  .356E-01  .421E-01  .431E-01  .384E-01  .334E-01  .397E-01
  .444E-01  .459E-01  .462E-01  .595E-01  .570E-01  .614E-01  .638E-01  .796E-01
  .967E-01  .117E+00  .222E+00  .235E+00  .373E+00  .479E+00  .539E+00  .100E+01
  .147E+01  .153E+01  .182E+01  .132E+01  .822E+00  .778E+00  .709E+00  .646E+00
  .621E+00  .488E+00  .405E+00  .394E+00  .342E+00  .265E+00  .259E+00  .296E+00
  .343E+00  .349E+00  .320E+00  .346E+00  .332E+00  .343E+00  .337E+00  .312E+00
  .283E+00  .264E+00  .243E+00  .220E+00  .000E+00  .000E+00  .000E+00  .000E+00
  .000E+00  .000E+00  .000E+00  .000E+00  .000E+00  .000E+00  .000E+00  .000E+00
  .000E+00  .000E+00  .000E+00  .000E+00  .000E+00  .000E+00  .000E+00  .000E+00
  .000E+00  .000E+00  .000E+00  .000E+00
  .942E-02  .114E-01  .128E-01  .147E-01  .155E-01  .167E-01  .169E-01  .197E-01
  .294E-01  .273E-01  .340E-01  .342E-01  .684E-01  .592E-01  .947E-01  .819E-01
  .105E+00  .222E+00  .209E+00  .229E+00  .450E+00  .468E+00  .397E+00  .507E+00
  .485E+00  .694E+00  .802E+00  .988E+00  .951E+00  .798E+00  .609E+00  .686E+00
  .681E+00  .666E+00  .497E+00  .602E+00  .655E+00  .559E+00  .645E+00  .782E+00
  .832E+00  .119E+01  .197E+01  .172E+01  .275E+01  .363E+01  .388E+01  .697E+01
  .100E+02  .976E+01  .113E+02  .775E+01  .445E+01  .413E+01  .360E+01  .314E+01
  .305E+01  .235E+01  .227E+01  .199E+01  .189E+01  .155E+01  .153E+01  .159E+01
  .152E+01  .159E+01  .160E+01  .158E+01  .155E+01  .149E+01  .143E+01  .138E+01
  .133E+01  .129E+01  .126E+01  .125E+01  .000E+00  .000E+00  .000E+00  .000E+00
  .000E+00  .000E+00  .000E+00  .000E+00  .000E+00  .000E+00  .000E+00  .000E+00
  .000E+00  .000E+00  .000E+00  .000E+00  .000E+00  .000E+00  .000E+00  .000E+00
  .000E+00  .000E+00  .000E+00  .000E+00
  .236E-01  .235E-01  .238E-01  .233E-01  .236E-01  .223E-01  .229E-01  .234E-01
  .229E-01  .245E-01  .231E-01  .241E-01  .254E-01  .264E-01  .256E-01  .289E-01
  .269E-01  .363E-01  .371E-01  .362E-01  .582E-01  .603E-01  .486E-01  .575E-01
  .580E-01  .714E-01  .754E-01  .747E-01  .654E-01  .502E-01  .379E-01  .398E-01
  .394E-01  .363E-01  .327E-01  .380E-01  .330E-01  .325E-01  .309E-01  .353E-01
  .395E-01  .396E-01  .630E-01  .570E-01  .778E-01  .872E-01  .863E-01  .142E+00
  .186E+00  .174E+00  .186E+00  .112E+00  .584E-01  .471E-01  .370E-01  .294E-01
  .248E-01  .173E-01  .128E-01  .112E-01  .878E-02  .561E-02  .462E-02  .450E-02
  .450E-02  .398E-02  .321E-02  .308E-02  .264E-02  .245E-02  .216E-02  .182E-02
  .151E-02  .129E-02  .108E-02  .914E-03  .000E+00  .000E+00  .000E+00  .000E+00
  .000E+00  .000E+00  .000E+00  .000E+00  .000E+00  .000E+00  .000E+00  .000E+00
  .000E+00  .000E+00  .000E+00  .000E+00  .000E+00  .000E+00  .000E+00  .000E+00
  .000E+00  .000E+00  .000E+00  .000E+00
  .580E-01  .606E-01  .643E-01  .659E-01  .695E-01  .687E-01  .774E-01  .863E-01
  .914E-01  .105E+00  .107E+00  .118E+00  .132E+00  .146E+00  .149E+00  .177E+00
  .182E+00  .266E+00  .297E+00  .311E+00  .538E+00  .590E+00  .505E+00  .634E+00
  .676E+00  .880E+00  .102E+01  .110E+01  .104E+01  .861E+00  .700E+00  .779E+00
  .820E+00  .802E+00  .763E+00  .935E+00  .853E+00  .876E+00  .872E+00  .104E+01
  .122E+01  .134E+01  .232E+01  .228E+01  .335E+01  .402E+01  .424E+01  .741E+01
  .103E+02  .101E+02  .114E+02  .754E+01  .430E+01  .376E+01  .318E+01  .271E+01
  .244E+01  .180E+01  .141E+01  .130E+01  .108E+01  .756E+00  .679E+00  .715E+00
  .770E+00  .731E+00  .628E+00  .639E+00  .580E+00  .568E+00  .529E+00  .467E+00
  .404E+00  .360E+00  .318E+00  .277E+00  .000E+00  .000E+00  .000E+00  .000E+00
  .000E+00  .000E+00  .000E+00  .000E+00  .000E+00  .000E+00  .000E+00  .000E+00
  .000E+00  .000E+00  .000E+00  .000E+00  .000E+00  .000E+00  .000E+00  .000E+00
  .000E+00  .000E+00  .000E+00  .000E+00
  .202E+02  .202E+02  .202E+02  .210E+02  .202E+02  .202E+02  .202E+02  .202E+02
  .196E+02  .197E+02  .202E+02  .211E+02  .197E+02  .202E+02  .202E+02  .202E+02
  .202E+02  .166E+02  .167E+02  .167E+02  .167E+02  .168E+02  .186E+02  .168E+02
  .202E+02  .205E+02  .211E+02  .200E+02  .175E+02  .177E+02  .169E+02  .169E+02
  .197E+02  .205E+02  .200E+02  .201E+02  .201E+02  .201E+02  .205E+02  .178E+02
  .201E+02  .182E+02  .201E+02  .206E+02  .206E+02  .215E+02  .188E+02  .211E+02
  .221E+02  .247E+02  .269E+02  .287E+02  .288E+02  .267E+02  .256E+02  .289E+02
  .284E+02  .246E+02  .210E+02  .210E+02  .211E+02  .241E+02  .216E+02  .210E+02
  .210E+02  .211E+02  .211E+02  .251E+02  .251E+02  .278E+02  .343E+02  .366E+02
  .205E+02  .205E+02  .619E+02  .360E+02  .000E+00  .000E+00  .000E+00  .000E+00
  .000E+00  .000E+00  .000E+00  .000E+00  .000E+00  .000E+00  .000E+00  .000E+00
  .000E+00  .000E+00  .000E+00  .000E+00  .000E+00  .000E+00  .000E+00  .000E+00
  .000E+00  .000E+00  .000E+00  .000E+00
  .223E+02  .167E+02  .180E+02  .167E+02  .167E+02  .208E+02  .167E+02  .199E+02
  .155E+02  .167E+02  .167E+02  .180E+02  .180E+02  .167E+02  .167E+02  .167E+02
  .167E+02  .167E+02  .167E+02  .171E+02  .167E+02  .167E+02  .186E+02  .168E+02
  .168E+02  .203E+02  .212E+02  .203E+02  .171E+02  .176E+02  .169E+02  .169E+02
  .168E+02  .166E+02  .166E+02  .200E+02  .166E+02  .203E+02  .311E+02  .312E+02
  .200E+02  .181E+02  .203E+02  .208E+02  .208E+02  .213E+02  .186E+02  .213E+02
  .219E+02  .235E+02  .266E+02  .290E+02  .285E+02  .264E+02  .253E+02  .254E+02
  .249E+02  .243E+02  .213E+02  .213E+02  .208E+02  .208E+02  .213E+02  .213E+02
  .213E+02  .208E+02  .208E+02  .208E+02  .208E+02  .208E+02  .208E+02  .208E+02
  .208E+02  .208E+02  .208E+02  .208E+02  .000E+00  .000E+00  .000E+00  .000E+00
  .000E+00  .000E+00  .000E+00  .000E+00  .000E+00  .000E+00  .000E+00  .000E+00
  .000E+00  .000E+00  .000E+00  .000E+00  .000E+00  .000E+00  .000E+00  .000E+00
  .000E+00  .000E+00  .000E+00  .000E+00
  .202E+02  .202E+02  .202E+02  .210E+02  .202E+02  .202E+02  .202E+02  .202E+02
  .196E+02  .197E+02  .202E+02  .211E+02  .197E+02  .202E+02  .202E+02  .202E+02
  .202E+02  .166E+02  .167E+02  .167E+02  .167E+02  .168E+02  .186E+02  .168E+02
  .202E+02  .205E+02  .211E+02  .200E+02  .175E+02  .177E+02  .169E+02  .169E+02
  .197E+02  .205E+02  .200E+02  .201E+02  .201E+02  .201E+02  .205E+02  .178E+02
  .201E+02  .182E+02  .201E+02  .206E+02  .206E+02  .215E+02  .188E+02  .211E+02
  .221E+02  .247E+02  .269E+02  .287E+02  .288E+02  .267E+02  .256E+02  .288E+02
  .283E+02  .246E+02  .210E+02  .210E+02  .210E+02  .241E+02  .215E+02  .210E+02
  .210E+02  .210E+02  .210E+02  .251E+02  .251E+02  .278E+02  .342E+02  .366E+02
  .205E+02  .205E+02  .619E+02  .278E+02  .000E+00  .000E+00  .000E+00  .000E+00
  .000E+00  .000E+00  .000E+00  .000E+00  .000E+00  .000E+00  .000E+00  .000E+00
  .000E+00  .000E+00  .000E+00  .000E+00  .000E+00  .000E+00  .000E+00  .000E+00
  .000E+00  .000E+00  .000E+00  .000E+00
Damping =  .05. Data of Sd,Sv,Sa,Pssv,ttSd,ttSv,ttSa :
  .363E-03  .401E-03  .440E-03  .477E-03  .518E-03  .552E-03  .669E-03  .800E-03
