Response and Fourier amplitude spectra (76 periods,  .04 -  5.0 sec)   for      
Corrected accelerogram   24605-E0819-14091.06       Chan  4:  90 Deg     from   
Uncorrected Accelerogram Data             Processed: 04/01/14, CGS  e0819e06    
Rcrd of Fri Mar 28, 2014 21:09:39.9 PDT*              (Avol1 v0.5, 2/14 CSMIP)  
CSMIP Preliminary Processing            (Origin:  To be determined)             
24605-E0819-14091.06                 Start time:  3/29/14, 04:09:39.9(*LoQ*)    
Station No. 24605   34.062N, 118.201W    SSA-1   s/n  819  (4 Chns of 27 at Sta)
Los Angeles - 7-story Univ. Hospital      CGS   Data: Acceleration              
Chan  4:  90 DegR (Sta Chn:  8)     Location: Foundation: South wall            
Rcrd of Fri Mar 28, 2014 21:09:39.9 PDT*   Fri Mar 28, 2014 21:09:39.9 PDT*     
Hypocenter:  To be determined.               ML:  To be determined.
Instr Period =  .0188 sec,  Damping =  .640,  Sensitivity = 1.25 v/g
                        Record length = 78.080 sec.
                                     Uncor Max  =  -.015 g , at  16.395 sec.
RMS accel of (uncor) record  =        .   Chn. metadata effective date: 05/28/92
Accelerogram bandpass filtered with 3 dB pts at   .20 and 40.00 cyc/sec
                 instrument- and baseline-corrected





Rcrd of Fri Mar 28, 2014 21:09:39.9 PDT*   Fri Mar 28, 2014 21:09:39.9 PDT*

24605-E0819-14091.06      Los Angeles - 7-story Univ. Hospital    Chan  4:  90 D
eg
24605-E0819-14091.06      Los Angeles - 7-story Univ. Hospital    Chan  4:  90 D
eg
Units for spectra are inches and sec, except Sa is in fraction of g.

    4  100    8    4   27  200    1    3    1   12    5  819    024605    2    0
    4    9   39  930   88    3   29 2014    0    6   9015616   39   36   74   -1
15616    0  100    3 2115    7    6   61    2    4    9   39  930    3   29 2014
    0    0    3    0 7808    2  220    1   12    4    0    0    3    1    0 7808
    3 7808    4   76    5    4    5    0    1    0    0    0    1    3    2    2
    2    2    4    0   72   99    2    3    0    0  772    1    0    0    0  222
    1    0    4    0
      .019      .640    78.080      .002      .000  1248.000     -.015    16.395
    53.100  1220.703   978.128      .000     5.000  -999.000     2.000      .000
     2.500    -8.547     2.500   376.000    15.360    30.000  -999.000     -.175
     -.020      .156     2.000    15.000    34.062  -118.201      .278      .462
     1.662      .114      .198   115.000      .000      .000      .000      .000
     1.000    66.308      .000  -999.000  -999.000  -999.000  -999.000      .000
     9.200      .500     6.300   980.665      .010    78.080     8.451      .000
      .000    40.000      .000    78.080      .010      .200      .000      .000
    16.400   -14.610    16.340      .942    24.440      .177     -.004      .200
    40.000      .010      .010     -.009      .010      .073      .000      .000
      .055      .260      .044      .036      .017      .002      .000      .000
      .000      .000      .000      .000      .000      .000      .000      .000
      .000      .000      .000      .000
      .000      .020      .050      .100      .200
      .040      .042      .044      .046      .048      .050      .055      .060
      .065      .070      .075      .080      .085      .090      .095      .100
      .110      .120      .130      .140      .150      .160      .170      .180
      .190      .200      .220      .240      .260      .280      .300      .320
      .340      .360      .380      .400      .420      .440      .460      .480
      .500      .550      .600      .650      .700      .750      .800      .850
      .900      .950     1.000     1.100     1.200     1.300     1.400     1.500
     1.600     1.700     1.800     1.900     2.000     2.200     2.400     2.600
     2.800     3.000     3.200     3.400     3.600     3.800     4.000     4.200
     4.400     4.600     4.800     5.000      .000      .000      .000      .000
      .000      .000      .000      .000      .000      .000      .000      .000
      .000      .000      .000      .000      .000      .000      .000      .000
      .000      .000      .000      .000
Fourier amplitude spectra in in/sec.
  .821E-01  .585E-01  .105E-01  .810E-01  .437E-01  .712E-01  .627E-01  .221E-01
  .759E-01  .744E-01  .162E+00  .814E-01  .230E+00  .705E-01  .230E+00  .372E+00
  .209E+00  .222E+00  .100E+01  .224E+00  .354E+00  .659E+00  .172E+00  .648E+00
  .901E+00  .136E+01  .124E+01  .374E+00  .269E+01  .199E+01  .321E+01  .767E+00
  .827E+00  .149E+01  .547E+00  .651E+00  .101E+01  .494E+00  .887E+00  .133E+01
  .150E+01  .613E+00  .125E+01  .116E+01  .199E+01  .268E+01  .116E+01  .251E+01
  .169E+01  .284E+01  .398E+01  .266E+01  .133E+01  .149E+01  .979E+00  .262E+01
  .101E+01  .355E+00  .155E+00  .835E+00  .558E+00  .486E+00  .453E+00  .412E+00
  .508E+00  .351E+00  .110E+01  .105E+00  .180E+00  .695E+00  .640E+00  .409E+00
  .327E+00  .456E+00  .409E+00  .386E+00  .000E+00  .000E+00  .000E+00  .000E+00
  .000E+00  .000E+00  .000E+00  .000E+00  .000E+00  .000E+00  .000E+00  .000E+00
  .000E+00  .000E+00  .000E+00  .000E+00  .000E+00  .000E+00  .000E+00  .000E+00
  .000E+00  .000E+00  .000E+00  .000E+00
Damping =  .00. Data of Sd,Sv,Sa,Pssv,ttSd,ttSv,ttSa :
  .546E-03  .489E-03  .453E-03  .823E-03  .644E-03  .839E-03  .929E-03  .701E-03
  .114E-02  .120E-02  .232E-02  .175E-02  .338E-02  .273E-02  .554E-02  .636E-02
  .603E-02  .600E-02  .211E-01  .991E-02  .177E-01  .198E-01  .128E-01  .246E-01
  .292E-01  .447E-01  .470E-01  .596E-01  .113E+00  .110E+00  .155E+00  .599E-01
  .529E-01  .950E-01  .536E-01  .111E+00  .825E-01  .555E-01  .137E+00  .142E+00
  .122E+00  .101E+00  .198E+00  .138E+00  .232E+00  .327E+00  .233E+00  .357E+00
  .272E+00  .450E+00  .650E+00  .475E+00  .288E+00  .314E+00  .272E+00  .634E+00
  .402E+00  .243E+00  .204E+00  .253E+00  .221E+00  .219E+00  .173E+00  .205E+00
  .284E+00  .360E+00  .561E+00  .201E+00  .226E+00  .429E+00  .489E+00  .398E+00
  .311E+00  .353E+00  .353E+00  .329E+00  .000E+00  .000E+00  .000E+00  .000E+00
  .000E+00  .000E+00  .000E+00  .000E+00  .000E+00  .000E+00  .000E+00  .000E+00
  .000E+00  .000E+00  .000E+00  .000E+00  .000E+00  .000E+00  .000E+00  .000E+00
  .000E+00  .000E+00  .000E+00  .000E+00
  .853E-01  .676E-01  .510E-01  .111E+00  .801E-01  .100E+00  .106E+00  .589E-01
  .109E+00  .806E-01  .165E+00  .109E+00  .236E+00  .173E+00  .335E+00  .395E+00
  .319E+00  .273E+00  .102E+01  .406E+00  .692E+00  .777E+00  .399E+00  .828E+00
  .957E+00  .140E+01  .131E+01  .154E+01  .270E+01  .240E+01  .324E+01  .116E+01
  .890E+00  .163E+01  .802E+00  .175E+01  .128E+01  .765E+00  .180E+01  .183E+01
  .152E+01  .121E+01  .196E+01  .133E+01  .208E+01  .272E+01  .181E+01  .263E+01
  .195E+01  .299E+01  .410E+01  .271E+01  .153E+01  .151E+01  .123E+01  .266E+01
  .163E+01  .105E+01  .719E+00  .835E+00  .710E+00  .650E+00  .504E+00  .500E+00
  .650E+00  .784E+00  .110E+01  .487E+00  .568E+00  .799E+00  .802E+00  .641E+00
  .575E+00  .518E+00  .481E+00  .491E+00  .000E+00  .000E+00  .000E+00  .000E+00
  .000E+00  .000E+00  .000E+00  .000E+00  .000E+00  .000E+00  .000E+00  .000E+00
  .000E+00  .000E+00  .000E+00  .000E+00  .000E+00  .000E+00  .000E+00  .000E+00
  .000E+00  .000E+00  .000E+00  .000E+00
  .349E-01  .284E-01  .240E-01  .398E-01  .286E-01  .343E-01  .314E-01  .199E-01
  .275E-01  .251E-01  .423E-01  .280E-01  .479E-01  .344E-01  .627E-01  .650E-01
  .509E-01  .426E-01  .128E+00  .517E-01  .804E-01  .791E-01  .453E-01  .776E-01
  .828E-01  .114E+00  .992E-01  .106E+00  .170E+00  .144E+00  .176E+00  .598E-01
  .468E-01  .750E-01  .380E-01  .710E-01  .478E-01  .293E-01  .662E-01  .630E-01
  .498E-01  .343E-01  .563E-01  .335E-01  .483E-01  .594E-01  .372E-01  .506E-01
  .343E-01  .510E-01  .665E-01  .402E-01  .204E-01  .190E-01  .142E-01  .288E-01
  .161E-01  .861E-02  .644E-02  .716E-02  .566E-02  .464E-02  .307E-02  .310E-02
  .370E-02  .409E-02  .560E-02  .178E-02  .179E-02  .304E-02  .313E-02  .231E-02
  .164E-02  .171E-02  .157E-02  .135E-02  .000E+00  .000E+00  .000E+00  .000E+00
  .000E+00  .000E+00  .000E+00  .000E+00  .000E+00  .000E+00  .000E+00  .000E+00
  .000E+00  .000E+00  .000E+00  .000E+00  .000E+00  .000E+00  .000E+00  .000E+00
  .000E+00  .000E+00  .000E+00  .000E+00
  .858E-01  .731E-01  .648E-01  .112E+00  .843E-01  .105E+00  .106E+00  .734E-01
  .110E+00  .108E+00  .195E+00  .138E+00  .250E+00  .190E+00  .366E+00  .399E+00
  .344E+00  .314E+00  .102E+01  .445E+00  .741E+00  .778E+00  .473E+00  .859E+00
  .967E+00  .140E+01  .134E+01  .156E+01  .272E+01  .247E+01  .325E+01  .118E+01
  .978E+00  .166E+01  .886E+00  .175E+01  .123E+01  .793E+00  .187E+01  .186E+01
  .153E+01  .116E+01  .207E+01  .134E+01  .208E+01  .274E+01  .183E+01  .264E+01
  .190E+01  .298E+01  .409E+01  .272E+01  .151E+01  .152E+01  .122E+01  .266E+01
  .158E+01  .899E+00  .712E+00  .835E+00  .695E+00  .627E+00  .453E+00  .495E+00
  .637E+00  .754E+00  .110E+01  .372E+00  .395E+00  .710E+00  .768E+00  .595E+00
  .444E+00  .483E+00  .462E+00  .413E+00  .000E+00  .000E+00  .000E+00  .000E+00
  .000E+00  .000E+00  .000E+00  .000E+00  .000E+00  .000E+00  .000E+00  .000E+00
  .000E+00  .000E+00  .000E+00  .000E+00  .000E+00  .000E+00  .000E+00  .000E+00
  .000E+00  .000E+00  .000E+00  .000E+00
  .747E+02  .271E+02  .164E+02  .503E+02  .354E+02  .555E+02  .481E+02  .184E+02
  .653E+02  .166E+02  .206E+02  .164E+02  .181E+02  .179E+02  .199E+02  .193E+02
  .201E+02  .166E+02  .670E+02  .171E+02  .180E+02  .173E+02  .166E+02  .241E+02
  .683E+02  .588E+02  .215E+02  .169E+02  .470E+02  .243E+02  .575E+02  .172E+02
  .202E+02  .264E+02  .244E+02  .209E+02  .225E+02  .190E+02  .244E+02  .294E+02
  .721E+02  .190E+02  .244E+02  .506E+02  .283E+02  .505E+02  .330E+02  .619E+02
  .223E+02  .591E+02  .592E+02  .710E+02  .521E+02  .760E+02  .293E+02  .738E+02
  .331E+02  .239E+02  .309E+02  .777E+02  .671E+02  .620E+02  .780E+02  .743E+02
  .598E+02  .410E+02  .834E+02  .285E+02  .253E+02  .566E+02  .540E+02  .346E+02
  .349E+02  .749E+02  .620E+02  .682E+02  .000E+00  .000E+00  .000E+00  .000E+00
  .000E+00  .000E+00  .000E+00  .000E+00  .000E+00  .000E+00  .000E+00  .000E+00
  .000E+00  .000E+00  .000E+00  .000E+00  .000E+00  .000E+00  .000E+00  .000E+00
  .000E+00  .000E+00  .000E+00  .000E+00
  .746E+02  .268E+02  .304E+02  .504E+02  .366E+02  .556E+02  .481E+02  .184E+02
  .649E+02  .268E+02  .206E+02  .186E+02  .751E+02  .179E+02  .188E+02  .724E+02
  .209E+02  .165E+02  .710E+02  .170E+02  .180E+02  .174E+02  .166E+02  .242E+02
  .684E+02  .588E+02  .214E+02  .170E+02  .469E+02  .244E+02  .426E+02  .171E+02
  .204E+02  .263E+02  .469E+02  .210E+02  .224E+02  .189E+02  .224E+02  .298E+02
  .722E+02  .205E+02  .245E+02  .507E+02  .284E+02  .507E+02  .328E+02  .617E+02
  .221E+02  .589E+02  .589E+02  .712E+02  .530E+02  .757E+02  .297E+02  .719E+02
  .311E+02  .242E+02  .304E+02  .772E+02  .636E+02  .615E+02  .333E+02  .686E+02
  .688E+02  .356E+02  .714E+02  .279E+02  .279E+02  .573E+02  .529E+02  .339E+02
  .339E+02  .715E+02  .586E+02  .572E+02  .000E+00  .000E+00  .000E+00  .000E+00
  .000E+00  .000E+00  .000E+00  .000E+00  .000E+00  .000E+00  .000E+00  .000E+00
  .000E+00  .000E+00  .000E+00  .000E+00  .000E+00  .000E+00  .000E+00  .000E+00
  .000E+00  .000E+00  .000E+00  .000E+00
  .747E+02  .271E+02  .164E+02  .503E+02  .354E+02  .555E+02  .481E+02  .184E+02
  .653E+02  .166E+02  .206E+02  .164E+02  .181E+02  .179E+02  .199E+02  .193E+02
  .201E+02  .166E+02  .670E+02  .171E+02  .180E+02  .173E+02  .166E+02  .241E+02
  .683E+02  .588E+02  .215E+02  .169E+02  .470E+02  .243E+02  .575E+02  .172E+02
  .202E+02  .264E+02  .244E+02  .209E+02  .225E+02  .190E+02  .244E+02  .294E+02
  .721E+02  .190E+02  .244E+02  .506E+02  .283E+02  .505E+02  .330E+02  .619E+02
  .223E+02  .591E+02  .592E+02  .710E+02  .521E+02  .760E+02  .293E+02  .738E+02
  .331E+02  .239E+02  .309E+02  .777E+02  .671E+02  .620E+02  .780E+02  .743E+02
  .598E+02  .410E+02  .834E+02  .285E+02  .253E+02  .566E+02  .540E+02  .346E+02
  .349E+02  .749E+02  .620E+02  .682E+02  .000E+00  .000E+00  .000E+00  .000E+00
  .000E+00  .000E+00  .000E+00  .000E+00  .000E+00  .000E+00  .000E+00  .000E+00
  .000E+00  .000E+00  .000E+00  .000E+00  .000E+00  .000E+00  .000E+00  .000E+00
  .000E+00  .000E+00  .000E+00  .000E+00
Damping =  .02. Data of Sd,Sv,Sa,Pssv,ttSd,ttSv,ttSa :
  .247E-03  .274E-03  .299E-03  .347E-03  .364E-03  .386E-03  .541E-03  .649E-03
  .753E-03  .747E-03  .984E-03  .132E-02  .168E-02  .176E-02  .271E-02  .293E-02
  .311E-02  .512E-02  .668E-02  .829E-02  .118E-01  .138E-01  .133E-01  .150E-01
  .185E-01  .209E-01  .261E-01  .408E-01  .482E-01  .430E-01  .514E-01  .432E-01
  .355E-01  .352E-01  .343E-01  .532E-01  .508E-01  .498E-01  .660E-01  .667E-01
  .655E-01  .675E-01  .983E-01  .954E-01  .130E+00  .167E+00  .162E+00  .190E+00
  .204E+00  .227E+00  .306E+00  .233E+00  .147E+00  .191E+00  .188E+00  .266E+00
  .247E+00  .188E+00  .146E+00  .129E+00  .123E+00  .133E+00  .122E+00  .156E+00
  .176E+00  .224E+00  .253E+00  .173E+00  .195E+00  .247E+00  .307E+00  .308E+00
  .254E+00  .220E+00  .232E+00  .226E+00  .000E+00  .000E+00  .000E+00  .000E+00
  .000E+00  .000E+00  .000E+00  .000E+00  .000E+00  .000E+00  .000E+00  .000E+00
  .000E+00  .000E+00  .000E+00  .000E+00  .000E+00  .000E+00  .000E+00  .000E+00
  .000E+00  .000E+00  .000E+00  .000E+00
  .942E-02  .103E-01  .106E-01  .126E-01  .127E-01  .144E-01  .239E-01  .304E-01
  .314E-01  .321E-01  .485E-01  .617E-01  .859E-01  .882E-01  .130E+00  .163E+00
  .130E+00  .224E+00  .273E+00  .341E+00  .454E+00  .448E+00  .402E+00  .441E+00
  .535E+00  .601E+00  .717E+00  .104E+01  .121E+01  .976E+00  .103E+01  .843E+00
  .658E+00  .618E+00  .604E+00  .817E+00  .752E+00  .703E+00  .871E+00  .848E+00
  .781E+00  .777E+00  .984E+00  .918E+00  .121E+01  .136E+01  .129E+01  .138E+01
  .138E+01  .165E+01  .197E+01  .130E+01  .816E+00  .953E+00  .953E+00  .111E+01
  .104E+01  .891E+00  .580E+00  .531E+00  .564E+00  .482E+00  .456E+00  .439E+00
  .440E+00  .578E+00  .561E+00  .434E+00  .482E+00  .476E+00  .576E+00  .512E+00
  .496E+00  .457E+00  .448E+00  .439E+00  .000E+00  .000E+00  .000E+00  .000E+00
  .000E+00  .000E+00  .000E+00  .000E+00  .000E+00  .000E+00  .000E+00  .000E+00
  .000E+00  .000E+00  .000E+00  .000E+00  .000E+00  .000E+00  .000E+00  .000E+00
  .000E+00  .000E+00  .000E+00  .000E+00
  .158E-01  .159E-01  .158E-01  .168E-01  .161E-01  .158E-01  .183E-01  .185E-01
  .182E-01  .156E-01  .179E-01  .212E-01  .238E-01  .222E-01  .308E-01  .299E-01
  .263E-01  .365E-01  .404E-01  .434E-01  .535E-01  .549E-01  .469E-01  .475E-01
  .526E-01  .535E-01  .552E-01  .723E-01  .730E-01  .561E-01  .585E-01  .432E-01
  .315E-01  .278E-01  .243E-01  .340E-01  .294E-01  .263E-01  .319E-01  .296E-01
  .268E-01  .229E-01  .279E-01  .231E-01  .271E-01  .305E-01  .259E-01  .270E-01
  .258E-01  .257E-01  .313E-01  .198E-01  .105E-01  .116E-01  .980E-02  .121E-01
  .986E-02  .668E-02  .463E-02  .366E-02  .314E-02  .281E-02  .217E-02  .237E-02
  .229E-02  .254E-02  .253E-02  .153E-02  .154E-02  .175E-02  .197E-02  .179E-02
  .134E-02  .106E-02  .103E-02  .925E-03  .000E+00  .000E+00  .000E+00  .000E+00
  .000E+00  .000E+00  .000E+00  .000E+00  .000E+00  .000E+00  .000E+00  .000E+00
  .000E+00  .000E+00  .000E+00  .000E+00  .000E+00  .000E+00  .000E+00  .000E+00
  .000E+00  .000E+00  .000E+00  .000E+00
  .388E-01  .410E-01  .427E-01  .474E-01  .476E-01  .485E-01  .618E-01  .680E-01
  .728E-01  .671E-01  .825E-01  .104E+00  .124E+00  .123E+00  .179E+00  .184E+00
  .178E+00  .268E+00  .323E+00  .372E+00  .493E+00  .541E+00  .491E+00  .523E+00
  .613E+00  .655E+00  .747E+00  .107E+01  .117E+01  .966E+00  .108E+01  .849E+00
  .657E+00  .614E+00  .568E+00  .836E+00  .760E+00  .711E+00  .901E+00  .873E+00
  .823E+00  .771E+00  .103E+01  .922E+00  .116E+01  .140E+01  .127E+01  .141E+01
  .142E+01  .150E+01  .192E+01  .133E+01  .770E+00  .923E+00  .842E+00  .111E+01
  .968E+00  .697E+00  .511E+00  .427E+00  .385E+00  .379E+00  .319E+00  .377E+00
  .394E+00  .468E+00  .496E+00  .319E+00  .340E+00  .408E+00  .483E+00  .461E+00
  .363E+00  .300E+00  .304E+00  .284E+00  .000E+00  .000E+00  .000E+00  .000E+00
  .000E+00  .000E+00  .000E+00  .000E+00  .000E+00  .000E+00  .000E+00  .000E+00
  .000E+00  .000E+00  .000E+00  .000E+00  .000E+00  .000E+00  .000E+00  .000E+00
  .000E+00  .000E+00  .000E+00  .000E+00
  .164E+02  .164E+02  .164E+02  .164E+02  .164E+02  .164E+02  .164E+02  .164E+02
  .164E+02  .166E+02  .168E+02  .164E+02  .164E+02  .174E+02  .164E+02  .184E+02
  .164E+02  .165E+02  .166E+02  .171E+02  .171E+02  .166E+02  .166E+02  .166E+02
  .166E+02  .174E+02  .182E+02  .169E+02  .168E+02  .228E+02  .194E+02  .172E+02
  .165E+02  .229E+02  .172E+02  .209E+02  .190E+02  .190E+02  .224E+02  .229E+02
  .240E+02  .179E+02  .214E+02  .291E+02  .203E+02  .204E+02  .249E+02  .250E+02
  .214E+02  .215E+02  .251E+02  .292E+02  .293E+02  .248E+02  .249E+02  .364E+02
  .298E+02  .239E+02  .208E+02  .359E+02  .360E+02  .336E+02  .328E+02  .330E+02
  .330E+02  .380E+02  .578E+02  .234E+02  .234E+02  .355E+02  .342E+02  .345E+02
  .326E+02  .541E+02  .524E+02  .508E+02  .000E+00  .000E+00  .000E+00  .000E+00
  .000E+00  .000E+00  .000E+00  .000E+00  .000E+00  .000E+00  .000E+00  .000E+00
  .000E+00  .000E+00  .000E+00  .000E+00  .000E+00  .000E+00  .000E+00  .000E+00
  .000E+00  .000E+00  .000E+00  .000E+00
  .164E+02  .164E+02  .164E+02  .164E+02  .165E+02  .164E+02  .170E+02  .181E+02
  .179E+02  .165E+02  .169E+02  .181E+02  .175E+02  .176E+02  .184E+02  .184E+02
  .164E+02  .164E+02  .165E+02  .170E+02  .171E+02  .166E+02  .166E+02  .167E+02
  .167E+02  .173E+02  .181E+02  .169E+02  .169E+02  .176E+02  .193E+02  .171E+02
  .164E+02  .216E+02  .171E+02  .210E+02  .191E+02  .189E+02  .225E+02  .235E+02
  .229E+02  .175E+02  .212E+02  .168E+02  .168E+02  .203E+02  .251E+02  .252E+02
  .221E+02  .213E+02  .249E+02  .283E+02  .290E+02  .257E+02  .246E+02  .360E+02
  .287E+02  .242E+02  .211E+02  .206E+02  .242E+02  .242E+02  .333E+02  .242E+02
  .163E+02  .356E+02  .572E+02  .279E+02  .279E+02  .246E+02  .351E+02  .339E+02
  .339E+02  .200E+02  .200E+02  .163E+02  .000E+00  .000E+00  .000E+00  .000E+00
  .000E+00  .000E+00  .000E+00  .000E+00  .000E+00  .000E+00  .000E+00  .000E+00
  .000E+00  .000E+00  .000E+00  .000E+00  .000E+00  .000E+00  .000E+00  .000E+00
  .000E+00  .000E+00  .000E+00  .000E+00
  .164E+02  .164E+02  .164E+02  .164E+02  .164E+02  .164E+02  .164E+02  .164E+02
  .164E+02  .166E+02  .168E+02  .164E+02  .164E+02  .174E+02  .164E+02  .184E+02
  .164E+02  .165E+02  .166E+02  .171E+02  .171E+02  .166E+02  .166E+02  .166E+02
  .166E+02  .174E+02  .182E+02  .169E+02  .169E+02  .228E+02  .194E+02  .172E+02
  .165E+02  .229E+02  .172E+02  .209E+02  .190E+02  .190E+02  .224E+02  .229E+02
  .240E+02  .179E+02  .214E+02  .291E+02  .203E+02  .204E+02  .249E+02  .250E+02
  .214E+02  .215E+02  .251E+02  .291E+02  .293E+02  .248E+02  .249E+02  .363E+02
  .298E+02  .239E+02  .208E+02  .359E+02  .360E+02  .336E+02  .328E+02  .330E+02
  .330E+02  .380E+02  .577E+02  .234E+02  .234E+02  .355E+02  .341E+02  .345E+02
  .326E+02  .541E+02  .524E+02  .507E+02  .000E+00  .000E+00  .000E+00  .000E+00
  .000E+00  .000E+00  .000E+00  .000E+00  .000E+00  .000E+00  .000E+00  .000E+00
  .000E+00  .000E+00  .000E+00  .000E+00  .000E+00  .000E+00  .000E+00  .000E+00
  .000E+00  .000E+00  .000E+00  .000E+00
Damping =  .05. Data of Sd,Sv,Sa,Pssv,ttSd,ttSv,ttSa :
  .243E-03  .274E-03  .305E-03  .337E-03  .363E-03  .395E-03  .518E-03  .634E-03
