Response and Fourier amplitude spectra (91 periods,  .04 - 15.0 sec)   for      
Corrected accelerogram   14724-M0159-01248.06       Chan  1:  Up         from   
Uncorrected Accelerogram Data             Processed: 09/10/01, CDMG  724ea006   
Record of Sun Sep  9, 2001 16:59:21 PDT               (Avol1 v4.6  7/01 CSMIP)  
CSMIP Preliminary Processing            (Origin:  To be determined)             
14724-M0159-01248.06                 Start time:  9/09/01, 23:59:21.0 UTC (GPS) 
Station No. 14724   33.923N, 118.242W    MtWtny  s/n  159 (12 Chns of 21 at Sta)
Los Angeles - 5-story Hospital                                                  
Chan  1:  Up                        Location: Foundation: NW Corner             
Record of Sun Sep  9, 2001 16:59:21 PDT    Sun Sep  9, 2001 16:59:21 PDT        
Hypocenter:  To be determined.               ML:  To be determined.
Instr Period =  .0200 sec,  Damping =  .700,  Sensitivity =  .63  v/g
                        Record length = 49.000 sec.
                                     Uncor Max  =  -.006 g, at   4.025 sec.
RMS accel of (uncor) record  =        .
Accelerogram bandpass filtered with 3 dB pts at   .30 and 40.00 cyc/sec
                 instrument- and baseline-corrected





Record of Sun Sep  9, 2001 16:59:21 PDT    Sun Sep  9, 2001 16:59:21 PDT

14724-M0159-01248.06      Los Angeles - 5-story Hospital    Chan  1:  Up

14724-M0159-01248.06      Los Angeles - 5-story Hospital    Chan  1:  Up

Units for spectra are inches and sec, except Sa is in fraction of g.

    1  100    1   12   21  200    1    3    1   24   13  159    014724    2    0
   23   59   21    0  252    9    9 2001   10    3  500 9800   39   30   72 -999
 9800    1   50    3  159    1    6  490    1    0    0    0    0    0    0    0
    0    4    0    0 4900    2    0    0    0    0   72   30    0    0    0 4900
    0 4900   31   91    1   12    0    0    0    0   21    0    0    0    0    2
    2    2    4    0   72   99    0   32   32    0    0    1    0    0    0    0
  -99   -1    0    0
      .020      .700    49.000      .001      .000   625.000     -.006     4.025
    50.000      .298      .477      .000     5.000      .000      .000      .000
     2.500   -30.719     -.016     -.022     5.000    30.000      .000      .007
      .001     -.006     2.000    15.000    33.923  -118.242      .432      .147
      .340     -.063      .050  -999.000      .000      .000   -13.200      .000
  1000.000    -1.116      .000      .000      .000      .000      .000      .000
     4.600     4.400      .000   980.665      .010    49.000     7.958      .000
      .000    40.000      .000    49.000      .010      .300      .000      .000
     4.020    -5.697    14.160      .169    19.190      .012     -.001      .300
    40.000      .010      .010      .000      .010      .011      .000      .000
      .016      .100      .012      .011      .001      .000      .000      .000
      .000      .000      .000      .000      .000      .000      .000      .000
      .000      .000      .000      .000
      .050
      .040      .042      .044      .046      .048      .050      .055      .060
      .065      .070      .075      .080      .085      .090      .095      .100
      .110      .120      .130      .140      .150      .160      .170      .180
      .190      .200      .220      .240      .260      .280      .300      .320
      .340      .360      .380      .400      .420      .440      .460      .480
      .500      .550      .600      .650      .700      .750      .800      .850
      .900      .950     1.000     1.100     1.200     1.300     1.400     1.500
     1.600     1.700     1.800     1.900     2.000     2.200     2.400     2.600
     2.800     3.000     3.200     3.400     3.600     3.800     4.000     4.200
     4.400     4.600     4.800     5.000     5.500     6.000     6.500     7.000
     7.500     8.000     8.500     9.000     9.500    10.000    11.000    12.000
    13.000    14.000    15.000      .000      .000      .000      .000      .000
      .000      .000      .000      .000
Fourier amplitude spectra in in/sec.
  .000E+00  .000E+00  .000E+00  .000E+00  .000E+00  .000E+00  .000E+00  .000E+00
  .000E+00  .000E+00  .000E+00  .000E+00  .000E+00  .000E+00  .000E+00  .000E+00
  .000E+00  .000E+00  .000E+00  .000E+00  .000E+00  .000E+00  .000E+00  .000E+00
  .000E+00  .000E+00  .000E+00  .000E+00  .000E+00  .000E+00  .000E+00  .000E+00
  .000E+00  .000E+00  .000E+00  .000E+00  .000E+00  .000E+00  .000E+00  .000E+00
  .000E+00  .000E+00  .000E+00  .000E+00  .000E+00  .000E+00  .000E+00  .000E+00
  .000E+00  .000E+00  .000E+00  .000E+00  .000E+00  .000E+00  .000E+00  .000E+00
  .000E+00  .000E+00  .000E+00  .000E+00  .000E+00  .000E+00  .000E+00  .000E+00
  .000E+00  .000E+00  .000E+00  .000E+00  .000E+00  .000E+00  .000E+00  .000E+00
  .000E+00  .000E+00  .000E+00  .000E+00  .000E+00  .000E+00  .000E+00  .000E+00
  .000E+00  .000E+00  .000E+00  .000E+00  .000E+00  .000E+00  .000E+00  .000E+00
  .000E+00  .000E+00  .000E+00  .000E+00  .000E+00  .000E+00  .000E+00  .000E+00
  .000E+00  .000E+00  .000E+00  .000E+00
Damping =  .05. Data of Sd,Sv,Sa,Pssv,ttSd,ttSv,ttSa :
  .979E-04  .980E-04  .122E-03  .150E-03  .179E-03  .204E-03  .207E-03  .261E-03
  .342E-03  .453E-03  .678E-03  .788E-03  .945E-03  .115E-02  .137E-02  .160E-02
  .161E-02  .168E-02  .177E-02  .265E-02  .312E-02  .302E-02  .379E-02  .379E-02
  .431E-02  .484E-02  .497E-02  .598E-02  .686E-02  .702E-02  .875E-02  .140E-01
  .141E-01  .122E-01  .975E-02  .939E-02  .104E-01  .122E-01  .113E-01  .111E-01
  .114E-01  .117E-01  .955E-02  .133E-01  .128E-01  .122E-01  .152E-01  .153E-01
  .149E-01  .117E-01  .884E-02  .897E-02  .998E-02  .923E-02  .107E-01  .113E-01
  .127E-01  .135E-01  .131E-01  .131E-01  .119E-01  .183E-01  .156E-01  .133E-01
  .131E-01  .153E-01  .163E-01  .144E-01  .125E-01  .106E-01  .910E-02  .824E-02
  .746E-02  .703E-02  .671E-02  .655E-02  .636E-02  .597E-02  .559E-02  .544E-02
  .542E-02  .538E-02  .528E-02  .518E-02  .514E-02  .506E-02  .494E-02  .504E-02
  .514E-02  .518E-02  .529E-02  .000E+00  .000E+00  .000E+00  .000E+00  .000E+00
  .000E+00  .000E+00  .000E+00  .000E+00
  .644E-02  .747E-02  .876E-02  .106E-01  .140E-01  .149E-01  .194E-01  .194E-01
  .203E-01  .256E-01  .392E-01  .513E-01  .590E-01  .697E-01  .859E-01  .972E-01
  .875E-01  .805E-01  .826E-01  .113E+00  .136E+00  .114E+00  .138E+00  .140E+00
  .128E+00  .145E+00  .145E+00  .161E+00  .180E+00  .166E+00  .194E+00  .278E+00
  .282E+00  .239E+00  .169E+00  .157E+00  .161E+00  .179E+00  .167E+00  .168E+00
  .172E+00  .133E+00  .115E+00  .145E+00  .147E+00  .123E+00  .127E+00  .119E+00
  .111E+00  .960E-01  .746E-01  .930E-01  .814E-01  .870E-01  .777E-01  .805E-01
  .722E-01  .674E-01  .726E-01  .692E-01  .680E-01  .734E-01  .777E-01  .734E-01
  .759E-01  .724E-01  .675E-01  .659E-01  .660E-01  .659E-01  .653E-01  .648E-01
  .648E-01  .650E-01  .653E-01  .655E-01  .656E-01  .655E-01  .655E-01  .657E-01
  .658E-01  .658E-01  .658E-01  .657E-01  .657E-01  .657E-01  .657E-01  .658E-01
  .659E-01  .659E-01  .660E-01  .000E+00  .000E+00  .000E+00  .000E+00  .000E+00
  .000E+00  .000E+00  .000E+00  .000E+00
  .626E-02  .569E-02  .644E-02  .724E-02  .794E-02  .843E-02  .711E-02  .748E-02
  .830E-02  .955E-02  .123E-01  .127E-01  .135E-01  .147E-01  .155E-01  .161E-01
  .139E-01  .118E-01  .107E-01  .138E-01  .145E-01  .122E-01  .134E-01  .120E-01
  .122E-01  .125E-01  .106E-01  .107E-01  .104E-01  .915E-02  .100E-01  .140E-01
  .126E-01  .973E-02  .693E-02  .604E-02  .608E-02  .649E-02  .551E-02  .495E-02
  .470E-02  .398E-02  .274E-02  .324E-02  .268E-02  .225E-02  .244E-02  .218E-02
  .190E-02  .134E-02  .910E-03  .762E-03  .720E-03  .564E-03  .560E-03  .518E-03
  .512E-03  .481E-03  .417E-03  .375E-03  .311E-03  .395E-03  .280E-03  .204E-03
  .173E-03  .177E-03  .165E-03  .130E-03  .100E-03  .771E-04  .630E-04  .520E-04
  .437E-04  .400E-04  .369E-04  .342E-04  .289E-04  .251E-04  .222E-04  .201E-04
  .183E-04  .168E-04  .155E-04  .144E-04  .136E-04  .128E-04  .116E-04  .105E-04
  .954E-05  .870E-05  .799E-05  .000E+00  .000E+00  .000E+00  .000E+00  .000E+00
  .000E+00  .000E+00  .000E+00  .000E+00
  .154E-01  .147E-01  .174E-01  .205E-01  .235E-01  .256E-01  .236E-01  .273E-01
  .330E-01  .407E-01  .568E-01  .619E-01  .698E-01  .803E-01  .903E-01  .100E+00
  .920E-01  .881E-01  .856E-01  .119E+00  .131E+00  .119E+00  .140E+00  .132E+00
  .142E+00  .152E+00  .142E+00  .157E+00  .166E+00  .157E+00  .183E+00  .275E+00
  .260E+00  .213E+00  .161E+00  .147E+00  .156E+00  .175E+00  .155E+00  .145E+00
  .143E+00  .134E+00  .100E+00  .129E+00  .115E+00  .103E+00  .120E+00  .113E+00
  .104E+00  .776E-01  .556E-01  .512E-01  .523E-01  .446E-01  .479E-01  .475E-01
  .501E-01  .499E-01  .458E-01  .434E-01  .373E-01  .522E-01  .408E-01  .321E-01
  .295E-01  .321E-01  .320E-01  .267E-01  .217E-01  .176E-01  .143E-01  .123E-01
  .107E-01  .961E-02  .879E-02  .823E-02  .727E-02  .625E-02  .540E-02  .488E-02
  .454E-02  .423E-02  .391E-02  .362E-02  .340E-02  .318E-02  .282E-02  .264E-02
  .249E-02  .232E-02  .221E-02  .000E+00  .000E+00  .000E+00  .000E+00  .000E+00
  .000E+00  .000E+00  .000E+00  .000E+00
  .402E+01  .402E+01  .401E+01  .402E+01  .402E+01  .402E+01  .259E+01  .401E+01
  .401E+01  .401E+01  .402E+01  .403E+01  .749E+01  .750E+01  .424E+01  .424E+01
  .425E+01  .426E+01  .428E+01  .817E+01  .842E+01  .762E+01  .763E+01  .838E+01
  .125E+02  .136E+02  .114E+02  .443E+01  .598E+01  .435E+01  .131E+02  .143E+02
  .143E+02  .131E+02  .179E+02  .179E+02  .119E+02  .119E+02  .119E+02  .119E+02
  .118E+02  .925E+01  .144E+02  .144E+02  .144E+02  .142E+02  .260E+02  .261E+02
  .258E+02  .250E+02  .370E+02  .471E+02  .118E+02  .258E+02  .468E+02  .468E+02
  .469E+02  .463E+02  .463E+02  .457E+02  .170E+02  .196E+02  .198E+02  .190E+02
  .191E+02  .191E+02  .191E+02  .192E+02  .192E+02  .192E+02  .181E+02  .182E+02
  .168E+02  .168E+02  .168E+02  .168E+02  .168E+02  .168E+02  .168E+02  .168E+02
  .168E+02  .168E+02  .168E+02  .192E+02  .192E+02  .192E+02  .168E+02  .168E+02
  .168E+02  .168E+02  .192E+02  .000E+00  .000E+00  .000E+00  .000E+00  .000E+00
  .000E+00  .000E+00  .000E+00  .000E+00
  .253E+01  .420E+01  .420E+01  .257E+01  .257E+01  .257E+01  .258E+01  .258E+01
  .259E+01  .399E+01  .404E+01  .405E+01  .747E+01  .753E+01  .421E+01  .421E+01
  .423E+01  .423E+01  .407E+01  .813E+01  .839E+01  .408E+01  .767E+01  .834E+01
  .124E+02  .136E+02  .117E+02  .560E+01  .439E+01  .441E+01  .132E+02  .144E+02
  .131E+02  .131E+02  .180E+02  .178E+02  .120E+02  .120E+02  .130E+02  .130E+02
  .119E+02  .935E+01  .152E+02  .152E+02  .143E+02  .143E+02  .262E+02  .259E+02
  .260E+02  .252E+02  .141E+02  .141E+02  .117E+02  .117E+02  .117E+02  .117E+02
  .129E+02  .124E+02  .135E+02  .135E+02  .135E+02  .135E+02  .193E+02  .141E+02
  .141E+02  .141E+02  .141E+02  .141E+02  .141E+02  .141E+02  .141E+02  .141E+02
  .141E+02  .141E+02  .141E+02  .141E+02  .141E+02  .141E+02  .141E+02  .141E+02
  .141E+02  .141E+02  .141E+02  .141E+02  .141E+02  .141E+02  .141E+02  .141E+02
  .141E+02  .141E+02  .141E+02  .000E+00  .000E+00  .000E+00  .000E+00  .000E+00
  .000E+00  .000E+00  .000E+00  .000E+00
  .402E+01  .402E+01  .401E+01  .402E+01  .402E+01  .402E+01  .259E+01  .400E+01
  .401E+01  .401E+01  .402E+01  .403E+01  .749E+01  .750E+01  .424E+01  .424E+01
  .425E+01  .426E+01  .427E+01  .817E+01  .842E+01  .761E+01  .762E+01  .764E+01
  .125E+02  .136E+02  .113E+02  .442E+01  .598E+01  .435E+01  .131E+02  .143E+02
  .143E+02  .131E+02  .179E+02  .179E+02  .119E+02  .119E+02  .119E+02  .119E+02
  .117E+02  .924E+01  .143E+02  .144E+02  .144E+02  .142E+02  .260E+02  .261E+02
  .258E+02  .250E+02  .370E+02  .471E+02  .118E+02  .258E+02  .468E+02  .468E+02
  .469E+02  .463E+02  .463E+02  .456E+02  .170E+02  .196E+02  .198E+02  .190E+02
  .191E+02  .191E+02  .191E+02  .191E+02  .191E+02  .192E+02  .180E+02  .180E+02
  .398E+01  .398E+01  .398E+01  .398E+01  .398E+01  .398E+01  .398E+01  .142E+02
  .142E+02  .142E+02  .142E+02  .142E+02  .142E+02  .142E+02  .142E+02  .142E+02
  .142E+02  .142E+02  .142E+02  .000E+00  .000E+00  .000E+00  .000E+00  .000E+00
  .000E+00  .000E+00  .000E+00  .000E+00
/&   ----------  End of spectral data for channel  1  ----------
