Response and Fourier amplitude spectra (91 periods,  .04 - 15.0 sec)   for      
Corrected accelerogram   14724-M0159-01248.06       Chan  2:  Up         from   
Uncorrected Accelerogram Data             Processed: 09/10/01, CDMG  724ea006   
Record of Sun Sep  9, 2001 16:59:21 PDT               (Avol1 v4.6  7/01 CSMIP)  
CSMIP Preliminary Processing            (Origin:  To be determined)             
14724-M0159-01248.06                 Start time:  9/09/01, 23:59:21.0 UTC (GPS) 
Station No. 14724   33.923N, 118.242W    MtWtny  s/n  159 (12 Chns of 21 at Sta)
Los Angeles - 5-story Hospital                                                  
Chan  2:  Up                        Location: Basement: NW Corner               
Record of Sun Sep  9, 2001 16:59:21 PDT    Sun Sep  9, 2001 16:59:21 PDT        
Hypocenter:  To be determined.               ML:  To be determined.
Instr Period =  .0200 sec,  Damping =  .700,  Sensitivity =  .63  v/g
                        Record length = 49.000 sec.
                                     Uncor Max  =  -.006 g, at   4.025 sec.
RMS accel of (uncor) record  =        .
Accelerogram bandpass filtered with 3 dB pts at   .30 and 40.00 cyc/sec
                 instrument- and baseline-corrected





Record of Sun Sep  9, 2001 16:59:21 PDT    Sun Sep  9, 2001 16:59:21 PDT

14724-M0159-01248.06      Los Angeles - 5-story Hospital    Chan  2:  Up

14724-M0159-01248.06      Los Angeles - 5-story Hospital    Chan  2:  Up

Units for spectra are inches and sec, except Sa is in fraction of g.

    2  100    2   12   21  200    1    3    1   24   13  159    014724    2    0
   23   59   21    0  252    9    9 2001   10    3  500 9800   39   30   72 -999
 9800    0   50    3  159    1    6  490    1    0    0    0    0    0    0    0
    0    4    0    0 4900    2    0    0    0    0   72   30    0    0    0 4900
    0 4900   31   91    1   12    0    0    0    0   21    0    0    0    0    2
    2    2    4    0   72   99    0   32   32    0    0    1    0    0    0    0
  -99   -1    0    0
      .020      .700    49.000      .001      .000   625.000     -.006     4.025
    50.000      .298      .477      .000     5.000      .000      .000      .000
     2.500   -35.310     -.018     -.025     5.000    30.000      .000      .010
     -.001     -.010     2.000    15.000    33.923  -118.242      .501      .153
      .305     -.075      .055  -999.000      .000      .000   -13.200      .000
  1000.000    -1.109      .000      .000      .000      .000      .000      .000
     4.600     4.400      .000   980.665      .010    49.000     7.958      .000
      .000    40.000      .000    49.000      .010      .300      .000      .000
     4.020    -5.903    14.160      .176    19.160      .013     -.001      .300
    40.000      .010      .010      .000      .010      .012      .000      .000
      .017      .100      .013      .012      .001      .000      .000      .000
      .000      .000      .000      .000      .000      .000      .000      .000
      .000      .000      .000      .000
      .050
      .040      .042      .044      .046      .048      .050      .055      .060
      .065      .070      .075      .080      .085      .090      .095      .100
      .110      .120      .130      .140      .150      .160      .170      .180
      .190      .200      .220      .240      .260      .280      .300      .320
      .340      .360      .380      .400      .420      .440      .460      .480
      .500      .550      .600      .650      .700      .750      .800      .850
      .900      .950     1.000     1.100     1.200     1.300     1.400     1.500
     1.600     1.700     1.800     1.900     2.000     2.200     2.400     2.600
     2.800     3.000     3.200     3.400     3.600     3.800     4.000     4.200
     4.400     4.600     4.800     5.000     5.500     6.000     6.500     7.000
     7.500     8.000     8.500     9.000     9.500    10.000    11.000    12.000
    13.000    14.000    15.000      .000      .000      .000      .000      .000
      .000      .000      .000      .000
Fourier amplitude spectra in in/sec.
  .000E+00  .000E+00  .000E+00  .000E+00  .000E+00  .000E+00  .000E+00  .000E+00
  .000E+00  .000E+00  .000E+00  .000E+00  .000E+00  .000E+00  .000E+00  .000E+00
  .000E+00  .000E+00  .000E+00  .000E+00  .000E+00  .000E+00  .000E+00  .000E+00
  .000E+00  .000E+00  .000E+00  .000E+00  .000E+00  .000E+00  .000E+00  .000E+00
  .000E+00  .000E+00  .000E+00  .000E+00  .000E+00  .000E+00  .000E+00  .000E+00
  .000E+00  .000E+00  .000E+00  .000E+00  .000E+00  .000E+00  .000E+00  .000E+00
  .000E+00  .000E+00  .000E+00  .000E+00  .000E+00  .000E+00  .000E+00  .000E+00
  .000E+00  .000E+00  .000E+00  .000E+00  .000E+00  .000E+00  .000E+00  .000E+00
  .000E+00  .000E+00  .000E+00  .000E+00  .000E+00  .000E+00  .000E+00  .000E+00
  .000E+00  .000E+00  .000E+00  .000E+00  .000E+00  .000E+00  .000E+00  .000E+00
  .000E+00  .000E+00  .000E+00  .000E+00  .000E+00  .000E+00  .000E+00  .000E+00
  .000E+00  .000E+00  .000E+00  .000E+00  .000E+00  .000E+00  .000E+00  .000E+00
  .000E+00  .000E+00  .000E+00  .000E+00
Damping =  .05. Data of Sd,Sv,Sa,Pssv,ttSd,ttSv,ttSa :
  .116E-03  .156E-03  .195E-03  .230E-03  .263E-03  .290E-03  .266E-03  .285E-03
  .358E-03  .481E-03  .749E-03  .881E-03  .103E-02  .124E-02  .139E-02  .167E-02
  .164E-02  .196E-02  .215E-02  .319E-02  .360E-02  .348E-02  .423E-02  .416E-02
  .443E-02  .525E-02  .575E-02  .635E-02  .742E-02  .738E-02  .951E-02  .143E-01
  .143E-01  .125E-01  .980E-02  .957E-02  .113E-01  .132E-01  .123E-01  .121E-01
  .125E-01  .117E-01  .125E-01  .177E-01  .170E-01  .153E-01  .160E-01  .157E-01
  .153E-01  .117E-01  .900E-02  .895E-02  .114E-01  .958E-02  .106E-01  .113E-01
  .124E-01  .132E-01  .128E-01  .131E-01  .126E-01  .185E-01  .155E-01  .134E-01
  .137E-01  .159E-01  .170E-01  .155E-01  .132E-01  .109E-01  .977E-02  .853E-02
  .751E-02  .693E-02  .665E-02  .645E-02  .613E-02  .572E-02  .560E-02  .558E-02
  .557E-02  .556E-02  .542E-02  .545E-02  .541E-02  .530E-02  .549E-02  .556E-02
  .552E-02  .547E-02  .562E-02  .000E+00  .000E+00  .000E+00  .000E+00  .000E+00
  .000E+00  .000E+00  .000E+00  .000E+00
  .127E-01  .135E-01  .164E-01  .187E-01  .227E-01  .243E-01  .272E-01  .259E-01
  .269E-01  .314E-01  .440E-01  .576E-01  .631E-01  .749E-01  .888E-01  .984E-01
  .857E-01  .961E-01  .103E+00  .140E+00  .155E+00  .132E+00  .157E+00  .154E+00
  .140E+00  .157E+00  .161E+00  .174E+00  .187E+00  .179E+00  .209E+00  .289E+00
  .293E+00  .248E+00  .171E+00  .162E+00  .167E+00  .189E+00  .177E+00  .175E+00
  .184E+00  .143E+00  .134E+00  .192E+00  .185E+00  .153E+00  .134E+00  .123E+00
  .115E+00  .970E-01  .885E-01  .986E-01  .914E-01  .957E-01  .864E-01  .887E-01
  .760E-01  .794E-01  .814E-01  .786E-01  .780E-01  .827E-01  .818E-01  .764E-01
  .784E-01  .753E-01  .715E-01  .690E-01  .680E-01  .673E-01  .667E-01  .664E-01
  .667E-01  .671E-01  .676E-01  .678E-01  .680E-01  .680E-01  .682E-01  .684E-01
  .685E-01  .685E-01  .684E-01  .683E-01  .683E-01  .683E-01  .683E-01  .684E-01
  .685E-01  .686E-01  .686E-01  .000E+00  .000E+00  .000E+00  .000E+00  .000E+00
  .000E+00  .000E+00  .000E+00  .000E+00
  .742E-02  .908E-02  .103E-01  .112E-01  .117E-01  .119E-01  .891E-02  .813E-02
  .865E-02  .100E-01  .137E-01  .141E-01  .147E-01  .158E-01  .158E-01  .172E-01
  .139E-01  .140E-01  .131E-01  .169E-01  .164E-01  .139E-01  .149E-01  .132E-01
  .127E-01  .135E-01  .122E-01  .114E-01  .113E-01  .962E-02  .109E-01  .144E-01
  .128E-01  .998E-02  .699E-02  .614E-02  .660E-02  .698E-02  .597E-02  .541E-02
  .513E-02  .399E-02  .357E-02  .432E-02  .357E-02  .282E-02  .257E-02  .223E-02
  .194E-02  .134E-02  .926E-03  .760E-03  .828E-03  .585E-03  .557E-03  .522E-03
  .499E-03  .469E-03  .406E-03  .373E-03  .330E-03  .401E-03  .278E-03  .205E-03
  .181E-03  .184E-03  .174E-03  .140E-03  .107E-03  .814E-04  .681E-04  .551E-04
  .452E-04  .398E-04  .374E-04  .351E-04  .302E-04  .271E-04  .246E-04  .223E-04
  .201E-04  .182E-04  .167E-04  .156E-04  .146E-04  .138E-04  .125E-04  .113E-04
  .102E-04  .930E-05  .851E-05  .000E+00  .000E+00  .000E+00  .000E+00  .000E+00
  .000E+00  .000E+00  .000E+00  .000E+00
  .183E-01  .233E-01  .279E-01  .314E-01  .344E-01  .365E-01  .303E-01  .299E-01
  .346E-01  .432E-01  .628E-01  .692E-01  .759E-01  .868E-01  .919E-01  .105E+00
  .939E-01  .103E+00  .104E+00  .143E+00  .151E+00  .137E+00  .156E+00  .145E+00
  .146E+00  .165E+00  .164E+00  .166E+00  .179E+00  .166E+00  .199E+00  .282E+00
  .264E+00  .219E+00  .162E+00  .150E+00  .169E+00  .188E+00  .168E+00  .159E+00
  .157E+00  .134E+00  .131E+00  .171E+00  .153E+00  .128E+00  .125E+00  .116E+00
  .107E+00  .775E-01  .565E-01  .511E-01  .599E-01  .463E-01  .476E-01  .474E-01
  .487E-01  .486E-01  .446E-01  .433E-01  .396E-01  .530E-01  .405E-01  .325E-01
  .307E-01  .334E-01  .335E-01  .286E-01  .231E-01  .180E-01  .153E-01  .128E-01
  .107E-01  .946E-02  .870E-02  .811E-02  .700E-02  .599E-02  .542E-02  .501E-02
  .467E-02  .436E-02  .401E-02  .381E-02  .358E-02  .333E-02  .313E-02  .291E-02
  .267E-02  .246E-02  .235E-02  .000E+00  .000E+00  .000E+00  .000E+00  .000E+00
  .000E+00  .000E+00  .000E+00  .000E+00
  .401E+01  .401E+01  .401E+01  .402E+01  .402E+01  .403E+01  .260E+01  .260E+01
  .401E+01  .401E+01  .402E+01  .403E+01  .750E+01  .751E+01  .424E+01  .424E+01
  .426E+01  .426E+01  .428E+01  .810E+01  .843E+01  .762E+01  .763E+01  .765E+01
  .136E+02  .136E+02  .114E+02  .565E+01  .598E+01  .435E+01  .131E+02  .143E+02
  .143E+02  .131E+02  .179E+02  .179E+02  .119E+02  .119E+02  .119E+02  .119E+02
  .120E+02  .925E+01  .195E+02  .144E+02  .144E+02  .142E+02  .260E+02  .261E+02
  .258E+02  .250E+02  .370E+02  .471E+02  .136E+02  .258E+02  .468E+02  .116E+02
  .469E+02  .463E+02  .463E+02  .457E+02  .170E+02  .196E+02  .198E+02  .190E+02
  .191E+02  .191E+02  .191E+02  .192E+02  .192E+02  .192E+02  .181E+02  .181E+02
  .181E+02  .181E+02  .181E+02  .181E+02  .168E+02  .168E+02  .142E+02  .142E+02
  .168E+02  .168E+02  .168E+02  .192E+02  .192E+02  .142E+02  .142E+02  .142E+02
  .142E+02  .192E+02  .192E+02  .000E+00  .000E+00  .000E+00  .000E+00  .000E+00
  .000E+00  .000E+00  .000E+00  .000E+00
  .257E+01  .257E+01  .307E+01  .331E+01  .257E+01  .476E+01  .258E+01  .542E+01
  .543E+01  .672E+01  .405E+01  .405E+01  .748E+01  .753E+01  .421E+01  .422E+01
  .423E+01  .367E+01  .363E+01  .814E+01  .839E+01  .766E+01  .767E+01  .752E+01
  .836E+01  .136E+02  .117E+02  .560E+01  .439E+01  .482E+01  .132E+02  .144E+02
  .131E+02  .131E+02  .180E+02  .178E+02  .120E+02  .120E+02  .118E+02  .118E+02
  .119E+02  .935E+01  .148E+02  .152E+02  .143E+02  .143E+02  .262E+02  .259E+02
  .260E+02  .252E+02  .124E+02  .141E+02  .117E+02  .117E+02  .117E+02  .117E+02
  .129E+02  .124E+02  .135E+02  .135E+02  .135E+02  .135E+02  .193E+02  .141E+02
  .141E+02  .141E+02  .130E+02  .130E+02  .141E+02  .141E+02  .141E+02  .141E+02
  .141E+02  .141E+02  .141E+02  .141E+02  .141E+02  .141E+02  .141E+02  .141E+02
  .141E+02  .141E+02  .141E+02  .141E+02  .141E+02  .141E+02  .141E+02  .141E+02
  .141E+02  .141E+02  .141E+02  .000E+00  .000E+00  .000E+00  .000E+00  .000E+00
  .000E+00  .000E+00  .000E+00  .000E+00
  .401E+01  .401E+01  .401E+01  .402E+01  .402E+01  .402E+01  .260E+01  .260E+01
  .401E+01  .401E+01  .402E+01  .403E+01  .750E+01  .751E+01  .424E+01  .424E+01
  .426E+01  .426E+01  .428E+01  .817E+01  .835E+01  .762E+01  .763E+01  .838E+01
  .136E+02  .136E+02  .113E+02  .565E+01  .598E+01  .435E+01  .131E+02  .143E+02
  .132E+02  .131E+02  .179E+02  .179E+02  .119E+02  .119E+02  .119E+02  .119E+02
  .120E+02  .924E+01  .195E+02  .144E+02  .144E+02  .142E+02  .260E+02  .261E+02
  .258E+02  .250E+02  .370E+02  .471E+02  .135E+02  .258E+02  .468E+02  .116E+02
  .469E+02  .463E+02  .463E+02  .456E+02  .170E+02  .196E+02  .198E+02  .190E+02
  .191E+02  .191E+02  .191E+02  .191E+02  .191E+02  .180E+02  .180E+02  .180E+02
  .180E+02  .398E+01  .142E+02  .142E+02  .142E+02  .142E+02  .142E+02  .142E+02
  .142E+02  .142E+02  .142E+02  .142E+02  .142E+02  .142E+02  .142E+02  .142E+02
  .142E+02  .142E+02  .142E+02  .000E+00  .000E+00  .000E+00  .000E+00  .000E+00
  .000E+00  .000E+00  .000E+00  .000E+00
/&   ----------  End of spectral data for channel  2  ----------
