Response and Fourier amplitude spectra (91 periods,  .04 - 15.0 sec)   for      
Corrected accelerogram   14724-M0159-01248.06       Chan  6:  Up         from   
Uncorrected Accelerogram Data             Processed: 09/10/01, CDMG  724ea006   
Record of Sun Sep  9, 2001 16:59:21 PDT               (Avol1 v4.6  7/01 CSMIP)  
CSMIP Preliminary Processing            (Origin:  To be determined)             
14724-M0159-01248.06                 Start time:  9/09/01, 23:59:21.0 UTC (GPS) 
Station No. 14724   33.923N, 118.242W    MtWtny  s/n  159 (12 Chns of 21 at Sta)
Los Angeles - 5-story Hospital                                                  
Chan  6:  Up                        Location: Basement: SE Corner               
Record of Sun Sep  9, 2001 16:59:21 PDT    Sun Sep  9, 2001 16:59:21 PDT        
Hypocenter:  To be determined.               ML:  To be determined.
Instr Period =  .0200 sec,  Damping =  .700,  Sensitivity =  .63  v/g
                        Record length = 49.000 sec.
                                     Uncor Max  =  -.006 g, at   4.030 sec.
RMS accel of (uncor) record  =        .
Accelerogram bandpass filtered with 3 dB pts at   .30 and 40.00 cyc/sec
                 instrument- and baseline-corrected





Record of Sun Sep  9, 2001 16:59:21 PDT    Sun Sep  9, 2001 16:59:21 PDT

14724-M0159-01248.06      Los Angeles - 5-story Hospital    Chan  6:  Up

14724-M0159-01248.06      Los Angeles - 5-story Hospital    Chan  6:  Up

Units for spectra are inches and sec, except Sa is in fraction of g.

    6  100    6   12   21  200    1    3    1   24   13  159    014724    2    0
   23   59   21    0  252    9    9 2001   10    3  500 9800   39   30   72 -999
 9800    0   50    3  159    1    6  490    1    0    0    0    0    0    0    0
    0    4    0    0 4900    2    0    0    0    0   72   30    0    0    0 4900
    0 4900   31   91    1   12    0    0    0    0   21    0    0    0    0    2
    2    2    4    0   72   99    0   32   32    0    0    1    0    0    0    0
  -99   -1    0    0
      .020      .700    49.000      .001      .000   625.000     -.006     4.030
    50.000      .298      .477      .000     5.000      .000      .000      .000
     2.500   -25.636     -.012     -.020     5.000    30.000      .000      .011
      .002     -.009     2.000    15.000    33.923  -118.242      .629      .149
      .237     -.090      .072  -999.000      .000      .000   -13.200      .000
  1000.000    -1.118      .000      .000      .000      .000      .000      .000
     4.600     4.400      .000   980.665      .010    49.000     7.958      .000
      .000    40.000      .000    49.000      .010      .300      .000      .000
     4.030    -6.064     4.000      .187     4.040      .011     -.001      .300
    40.000      .010      .010      .000      .010      .012      .000      .000
      .022      .130      .017      .010      .001      .000      .000      .000
      .000      .000      .000      .000      .000      .000      .000      .000
      .000      .000      .000      .000
      .050
      .040      .042      .044      .046      .048      .050      .055      .060
      .065      .070      .075      .080      .085      .090      .095      .100
      .110      .120      .130      .140      .150      .160      .170      .180
      .190      .200      .220      .240      .260      .280      .300      .320
      .340      .360      .380      .400      .420      .440      .460      .480
      .500      .550      .600      .650      .700      .750      .800      .850
      .900      .950     1.000     1.100     1.200     1.300     1.400     1.500
     1.600     1.700     1.800     1.900     2.000     2.200     2.400     2.600
     2.800     3.000     3.200     3.400     3.600     3.800     4.000     4.200
     4.400     4.600     4.800     5.000     5.500     6.000     6.500     7.000
     7.500     8.000     8.500     9.000     9.500    10.000    11.000    12.000
    13.000    14.000    15.000      .000      .000      .000      .000      .000
      .000      .000      .000      .000
Fourier amplitude spectra in in/sec.
  .000E+00  .000E+00  .000E+00  .000E+00  .000E+00  .000E+00  .000E+00  .000E+00
  .000E+00  .000E+00  .000E+00  .000E+00  .000E+00  .000E+00  .000E+00  .000E+00
  .000E+00  .000E+00  .000E+00  .000E+00  .000E+00  .000E+00  .000E+00  .000E+00
  .000E+00  .000E+00  .000E+00  .000E+00  .000E+00  .000E+00  .000E+00  .000E+00
  .000E+00  .000E+00  .000E+00  .000E+00  .000E+00  .000E+00  .000E+00  .000E+00
  .000E+00  .000E+00  .000E+00  .000E+00  .000E+00  .000E+00  .000E+00  .000E+00
  .000E+00  .000E+00  .000E+00  .000E+00  .000E+00  .000E+00  .000E+00  .000E+00
  .000E+00  .000E+00  .000E+00  .000E+00  .000E+00  .000E+00  .000E+00  .000E+00
  .000E+00  .000E+00  .000E+00  .000E+00  .000E+00  .000E+00  .000E+00  .000E+00
  .000E+00  .000E+00  .000E+00  .000E+00  .000E+00  .000E+00  .000E+00  .000E+00
  .000E+00  .000E+00  .000E+00  .000E+00  .000E+00  .000E+00  .000E+00  .000E+00
  .000E+00  .000E+00  .000E+00  .000E+00  .000E+00  .000E+00  .000E+00  .000E+00
  .000E+00  .000E+00  .000E+00  .000E+00
Damping =  .05. Data of Sd,Sv,Sa,Pssv,ttSd,ttSv,ttSa :
  .150E-03  .176E-03  .213E-03  .240E-03  .260E-03  .275E-03  .268E-03  .373E-03
  .565E-03  .699E-03  .873E-03  .116E-02  .116E-02  .121E-02  .136E-02  .153E-02
  .179E-02  .261E-02  .365E-02  .386E-02  .410E-02  .490E-02  .540E-02  .616E-02
  .690E-02  .679E-02  .678E-02  .706E-02  .835E-02  .840E-02  .976E-02  .877E-02
  .102E-01  .930E-02  .108E-01  .128E-01  .149E-01  .142E-01  .122E-01  .132E-01
  .133E-01  .156E-01  .158E-01  .192E-01  .143E-01  .115E-01  .120E-01  .125E-01
  .126E-01  .112E-01  .952E-02  .936E-02  .106E-01  .107E-01  .106E-01  .106E-01
  .115E-01  .121E-01  .119E-01  .121E-01  .124E-01  .184E-01  .163E-01  .140E-01
  .130E-01  .147E-01  .155E-01  .146E-01  .130E-01  .111E-01  .106E-01  .980E-02
  .892E-02  .835E-02  .808E-02  .792E-02  .729E-02  .673E-02  .659E-02  .653E-02
  .633E-02  .622E-02  .610E-02  .593E-02  .591E-02  .597E-02  .599E-02  .588E-02
  .599E-02  .601E-02  .596E-02  .000E+00  .000E+00  .000E+00  .000E+00  .000E+00
  .000E+00  .000E+00  .000E+00  .000E+00
  .198E-01  .218E-01  .248E-01  .259E-01  .225E-01  .238E-01  .262E-01  .341E-01
  .433E-01  .484E-01  .630E-01  .721E-01  .707E-01  .698E-01  .762E-01  .784E-01
  .951E-01  .126E+00  .176E+00  .169E+00  .166E+00  .184E+00  .197E+00  .201E+00
  .207E+00  .193E+00  .184E+00  .181E+00  .198E+00  .191E+00  .203E+00  .176E+00
  .176E+00  .166E+00  .174E+00  .215E+00  .225E+00  .207E+00  .179E+00  .179E+00
  .174E+00  .185E+00  .180E+00  .197E+00  .168E+00  .130E+00  .113E+00  .102E+00
  .959E-01  .994E-01  .966E-01  .929E-01  .101E+00  .953E-01  .819E-01  .855E-01
  .946E-01  .866E-01  .877E-01  .894E-01  .866E-01  .757E-01  .716E-01  .756E-01
  .781E-01  .772E-01  .751E-01  .735E-01  .728E-01  .728E-01  .732E-01  .735E-01
  .737E-01  .737E-01  .736E-01  .734E-01  .730E-01  .726E-01  .725E-01  .725E-01
  .726E-01  .726E-01  .726E-01  .726E-01  .726E-01  .726E-01  .725E-01  .724E-01
  .723E-01  .723E-01  .722E-01  .000E+00  .000E+00  .000E+00  .000E+00  .000E+00
  .000E+00  .000E+00  .000E+00  .000E+00
  .967E-02  .102E-01  .114E-01  .117E-01  .116E-01  .113E-01  .910E-02  .106E-01
  .139E-01  .146E-01  .159E-01  .187E-01  .163E-01  .153E-01  .156E-01  .156E-01
  .155E-01  .184E-01  .223E-01  .205E-01  .186E-01  .199E-01  .191E-01  .194E-01
  .195E-01  .174E-01  .143E-01  .127E-01  .127E-01  .110E-01  .112E-01  .879E-02
  .907E-02  .741E-02  .770E-02  .822E-02  .870E-02  .758E-02  .593E-02  .587E-02
  .549E-02  .532E-02  .451E-02  .467E-02  .302E-02  .211E-02  .192E-02  .178E-02
  .160E-02  .128E-02  .979E-03  .795E-03  .771E-03  .657E-03  .556E-03  .497E-03
  .462E-03  .433E-03  .379E-03  .344E-03  .319E-03  .393E-03  .290E-03  .214E-03
  .176E-03  .169E-03  .156E-03  .131E-03  .105E-03  .828E-04  .730E-04  .620E-04
  .531E-04  .468E-04  .422E-04  .390E-04  .331E-04  .280E-04  .250E-04  .227E-04
  .208E-04  .193E-04  .179E-04  .168E-04  .157E-04  .148E-04  .133E-04  .121E-04
  .110E-04  .101E-04  .938E-05  .000E+00  .000E+00  .000E+00  .000E+00  .000E+00
  .000E+00  .000E+00  .000E+00  .000E+00
  .235E-01  .263E-01  .305E-01  .328E-01  .341E-01  .346E-01  .306E-01  .391E-01
  .546E-01  .627E-01  .731E-01  .911E-01  .856E-01  .843E-01  .903E-01  .961E-01
  .102E+00  .136E+00  .176E+00  .173E+00  .172E+00  .192E+00  .200E+00  .215E+00
  .228E+00  .213E+00  .194E+00  .185E+00  .202E+00  .189E+00  .204E+00  .172E+00
  .189E+00  .162E+00  .179E+00  .201E+00  .224E+00  .203E+00  .167E+00  .172E+00
  .168E+00  .179E+00  .165E+00  .186E+00  .129E+00  .965E-01  .939E-01  .925E-01
  .877E-01  .740E-01  .598E-01  .535E-01  .556E-01  .516E-01  .475E-01  .443E-01
  .452E-01  .448E-01  .416E-01  .400E-01  .390E-01  .525E-01  .426E-01  .337E-01
  .292E-01  .307E-01  .305E-01  .270E-01  .226E-01  .183E-01  .167E-01  .147E-01
  .127E-01  .114E-01  .106E-01  .996E-02  .833E-02  .705E-02  .637E-02  .586E-02
  .530E-02  .488E-02  .451E-02  .414E-02  .391E-02  .375E-02  .342E-02  .308E-02
  .289E-02  .270E-02  .250E-02  .000E+00  .000E+00  .000E+00  .000E+00  .000E+00
  .000E+00  .000E+00  .000E+00  .000E+00
  .262E+01  .401E+01  .402E+01  .402E+01  .402E+01  .403E+01  .403E+01  .429E+01
  .430E+01  .430E+01  .403E+01  .403E+01  .404E+01  .404E+01  .405E+01  .404E+01
  .405E+01  .405E+01  .452E+01  .468E+01  .470E+01  .787E+01  .789E+01  .857E+01
  .859E+01  .860E+01  .122E+02  .124E+02  .613E+01  .615E+01  .617E+01  .990E+01
  .120E+02  .120E+02  .120E+02  .122E+02  .123E+02  .123E+02  .123E+02  .868E+01
  .871E+01  .185E+02  .183E+02  .134E+02  .131E+02  .132E+02  .257E+02  .257E+02
  .258E+02  .370E+02  .201E+02  .472E+02  .112E+02  .201E+02  .468E+02  .469E+02
  .470E+02  .463E+02  .464E+02  .457E+02  .401E+02  .196E+02  .199E+02  .199E+02
  .203E+02  .191E+02  .193E+02  .193E+02  .193E+02  .193E+02  .183E+02  .183E+02
  .183E+02  .183E+02  .183E+02  .183E+02  .183E+02  .183E+02  .183E+02  .183E+02
  .183E+02  .169E+02  .169E+02  .169E+02  .183E+02  .183E+02  .183E+02  .164E+02
  .164E+02  .169E+02  .169E+02  .000E+00  .000E+00  .000E+00  .000E+00  .000E+00
  .000E+00  .000E+00  .000E+00  .000E+00
  .263E+01  .307E+01  .308E+01  .324E+01  .325E+01  .503E+01  .503E+01  .503E+01
  .714E+01  .428E+01  .715E+01  .405E+01  .406E+01  .407E+01  .407E+01  .406E+01
  .419E+01  .420E+01  .449E+01  .472E+01  .466E+01  .791E+01  .793E+01  .852E+01
  .854E+01  .855E+01  .124E+02  .123E+02  .619E+01  .912E+01  .610E+01  .983E+01
  .120E+02  .613E+01  .119E+02  .123E+02  .124E+02  .122E+02  .122E+02  .122E+02
  .861E+01  .183E+02  .184E+02  .132E+02  .133E+02  .133E+02  .848E+01  .131E+02
  .121E+02  .121E+02  .121E+02  .849E+01  .849E+01  .603E+01  .584E+01  .121E+02
  .121E+02  .121E+02  .849E+01  .849E+01  .849E+01  .585E+01  .849E+01  .849E+01
  .849E+01  .849E+01  .849E+01  .849E+01  .849E+01  .849E+01  .849E+01  .849E+01
  .849E+01  .849E+01  .849E+01  .849E+01  .849E+01  .849E+01  .849E+01  .849E+01
  .849E+01  .849E+01  .849E+01  .849E+01  .849E+01  .849E+01  .849E+01  .849E+01
  .849E+01  .849E+01  .849E+01  .000E+00  .000E+00  .000E+00  .000E+00  .000E+00
  .000E+00  .000E+00  .000E+00  .000E+00
  .262E+01  .401E+01  .402E+01  .402E+01  .402E+01  .403E+01  .403E+01  .429E+01
  .430E+01  .430E+01  .403E+01  .403E+01  .403E+01  .404E+01  .404E+01  .404E+01
  .404E+01  .405E+01  .452E+01  .468E+01  .470E+01  .787E+01  .789E+01  .856E+01
  .858E+01  .860E+01  .122E+02  .124E+02  .613E+01  .614E+01  .616E+01  .990E+01
  .120E+02  .120E+02  .120E+02  .122E+02  .123E+02  .123E+02  .123E+02  .867E+01
  .870E+01  .184E+02  .183E+02  .133E+02  .131E+02  .131E+02  .257E+02  .257E+02
  .258E+02  .370E+02  .200E+02  .471E+02  .111E+02  .201E+02  .468E+02  .121E+02
  .469E+02  .463E+02  .464E+02  .457E+02  .401E+02  .196E+02  .197E+02  .199E+02
  .203E+02  .191E+02  .192E+02  .193E+02  .193E+02  .178E+02  .182E+02  .182E+02
  .168E+02  .168E+02  .168E+02  .168E+02  .168E+02  .399E+01  .399E+01  .399E+01
  .399E+01  .399E+01  .399E+01  .399E+01  .399E+01  .399E+01  .399E+01  .399E+01
  .399E+01  .399E+01  .399E+01  .000E+00  .000E+00  .000E+00  .000E+00  .000E+00
  .000E+00  .000E+00  .000E+00  .000E+00
/&   ----------  End of spectral data for channel  6  ----------
