Response and Fourier amplitude spectra (91 periods,  .04 - 15.0 sec)   for      
Corrected accelerogram   14724-M0159-01248.06       Chan  4:  Up         from   
Uncorrected Accelerogram Data             Processed: 09/10/01, CDMG  724ea006   
Record of Sun Sep  9, 2001 16:59:21 PDT               (Avol1 v4.6  7/01 CSMIP)  
CSMIP Preliminary Processing            (Origin:  To be determined)             
14724-M0159-01248.06                 Start time:  9/09/01, 23:59:21.0 UTC (GPS) 
Station No. 14724   33.923N, 118.242W    MtWtny  s/n  159 (12 Chns of 21 at Sta)
Los Angeles - 5-story Hospital                                                  
Chan  4:  Up                        Location: Basement: SW Corner               
Record of Sun Sep  9, 2001 16:59:21 PDT    Sun Sep  9, 2001 16:59:21 PDT        
Hypocenter:  To be determined.               ML:  To be determined.
Instr Period =  .0200 sec,  Damping =  .700,  Sensitivity =  .63  v/g
                        Record length = 49.000 sec.
                                     Uncor Max  =  -.006 g, at   4.035 sec.
RMS accel of (uncor) record  =        .
Accelerogram bandpass filtered with 3 dB pts at   .30 and 40.00 cyc/sec
                 instrument- and baseline-corrected





Record of Sun Sep  9, 2001 16:59:21 PDT    Sun Sep  9, 2001 16:59:21 PDT

14724-M0159-01248.06      Los Angeles - 5-story Hospital    Chan  4:  Up

14724-M0159-01248.06      Los Angeles - 5-story Hospital    Chan  4:  Up

Units for spectra are inches and sec, except Sa is in fraction of g.

    4  100    4   12   21  200    1    3    1   24   13  159    014724    2    0
   23   59   21    0  252    9    9 2001   10    3  500 9800   39   30   72 -999
 9800    0   50    3  159    1    6  490    1    0    0    0    0    0    0    0
    0    4    0    0 4900    2    0    0    0    0   72   30    0    0    0 4900
    0 4900   31   91    1   12    0    0    0    0   21    0    0    0    0    2
    2    2    4    0   72   99    0   32   32    0    0    1    0    0    0    0
  -99   -1    0    0
      .020      .700    49.000      .001      .000   625.000     -.006     4.035
    50.000      .298      .477      .000     5.000      .000      .000      .000
     2.500   -25.917     -.012     -.019     5.000    30.000      .000      .001
      .002      .000     2.000    15.000    33.923  -118.242      .447      .157
      .351     -.058      .058  -999.000      .000      .000   -13.200      .000
  1000.000    -1.005      .000      .000      .000      .000      .000      .000
     4.600     4.400      .000   980.665      .010    49.000     7.958      .000
      .000    40.000      .000    49.000      .010      .300      .000      .000
     4.030    -5.919    11.850      .171    25.110     -.010     -.001      .300
    40.000      .010      .010      .000      .010      .012      .000      .000
      .019      .190      .014      .012      .001      .000      .000      .000
      .000      .000      .000      .000      .000      .000      .000      .000
      .000      .000      .000      .000
      .050
      .040      .042      .044      .046      .048      .050      .055      .060
      .065      .070      .075      .080      .085      .090      .095      .100
      .110      .120      .130      .140      .150      .160      .170      .180
      .190      .200      .220      .240      .260      .280      .300      .320
      .340      .360      .380      .400      .420      .440      .460      .480
      .500      .550      .600      .650      .700      .750      .800      .850
      .900      .950     1.000     1.100     1.200     1.300     1.400     1.500
     1.600     1.700     1.800     1.900     2.000     2.200     2.400     2.600
     2.800     3.000     3.200     3.400     3.600     3.800     4.000     4.200
     4.400     4.600     4.800     5.000     5.500     6.000     6.500     7.000
     7.500     8.000     8.500     9.000     9.500    10.000    11.000    12.000
    13.000    14.000    15.000      .000      .000      .000      .000      .000
      .000      .000      .000      .000
Fourier amplitude spectra in in/sec.
  .000E+00  .000E+00  .000E+00  .000E+00  .000E+00  .000E+00  .000E+00  .000E+00
  .000E+00  .000E+00  .000E+00  .000E+00  .000E+00  .000E+00  .000E+00  .000E+00
  .000E+00  .000E+00  .000E+00  .000E+00  .000E+00  .000E+00  .000E+00  .000E+00
  .000E+00  .000E+00  .000E+00  .000E+00  .000E+00  .000E+00  .000E+00  .000E+00
  .000E+00  .000E+00  .000E+00  .000E+00  .000E+00  .000E+00  .000E+00  .000E+00
  .000E+00  .000E+00  .000E+00  .000E+00  .000E+00  .000E+00  .000E+00  .000E+00
  .000E+00  .000E+00  .000E+00  .000E+00  .000E+00  .000E+00  .000E+00  .000E+00
  .000E+00  .000E+00  .000E+00  .000E+00  .000E+00  .000E+00  .000E+00  .000E+00
  .000E+00  .000E+00  .000E+00  .000E+00  .000E+00  .000E+00  .000E+00  .000E+00
  .000E+00  .000E+00  .000E+00  .000E+00  .000E+00  .000E+00  .000E+00  .000E+00
  .000E+00  .000E+00  .000E+00  .000E+00  .000E+00  .000E+00  .000E+00  .000E+00
  .000E+00  .000E+00  .000E+00  .000E+00  .000E+00  .000E+00  .000E+00  .000E+00
  .000E+00  .000E+00  .000E+00  .000E+00
Damping =  .05. Data of Sd,Sv,Sa,Pssv,ttSd,ttSv,ttSa :
  .143E-03  .160E-03  .167E-03  .187E-03  .200E-03  .231E-03  .275E-03  .372E-03
  .402E-03  .605E-03  .961E-03  .116E-02  .102E-02  .106E-02  .120E-02  .141E-02
  .184E-02  .200E-02  .231E-02  .264E-02  .355E-02  .327E-02  .384E-02  .525E-02
  .665E-02  .528E-02  .506E-02  .690E-02  .747E-02  .905E-02  .109E-01  .116E-01
  .114E-01  .876E-02  .924E-02  .118E-01  .115E-01  .115E-01  .115E-01  .110E-01
  .120E-01  .124E-01  .135E-01  .159E-01  .127E-01  .126E-01  .160E-01  .159E-01
  .154E-01  .115E-01  .118E-01  .975E-02  .994E-02  .101E-01  .108E-01  .110E-01
  .118E-01  .126E-01  .122E-01  .124E-01  .123E-01  .193E-01  .176E-01  .137E-01
  .129E-01  .150E-01  .159E-01  .144E-01  .125E-01  .105E-01  .953E-02  .880E-02
  .794E-02  .729E-02  .695E-02  .676E-02  .616E-02  .564E-02  .551E-02  .543E-02
  .537E-02  .521E-02  .505E-02  .501E-02  .501E-02  .498E-02  .492E-02  .481E-02
  .466E-02  .469E-02  .480E-02  .000E+00  .000E+00  .000E+00  .000E+00  .000E+00
  .000E+00  .000E+00  .000E+00  .000E+00
  .153E-01  .157E-01  .160E-01  .181E-01  .216E-01  .224E-01  .269E-01  .304E-01
  .268E-01  .388E-01  .635E-01  .819E-01  .700E-01  .660E-01  .714E-01  .817E-01
  .974E-01  .106E+00  .111E+00  .109E+00  .138E+00  .116E+00  .138E+00  .169E+00
  .218E+00  .170E+00  .148E+00  .170E+00  .163E+00  .189E+00  .220E+00  .227E+00
  .211E+00  .166E+00  .157E+00  .199E+00  .182E+00  .166E+00  .153E+00  .152E+00
  .148E+00  .151E+00  .151E+00  .192E+00  .130E+00  .118E+00  .133E+00  .126E+00
  .111E+00  .980E-01  .940E-01  .940E-01  .894E-01  .791E-01  .756E-01  .929E-01
  .922E-01  .793E-01  .711E-01  .688E-01  .712E-01  .712E-01  .750E-01  .715E-01
  .740E-01  .762E-01  .747E-01  .722E-01  .709E-01  .707E-01  .708E-01  .707E-01
  .703E-01  .697E-01  .692E-01  .688E-01  .684E-01  .685E-01  .685E-01  .684E-01
  .682E-01  .681E-01  .680E-01  .679E-01  .679E-01  .679E-01  .679E-01  .679E-01
  .679E-01  .678E-01  .678E-01  .000E+00  .000E+00  .000E+00  .000E+00  .000E+00
  .000E+00  .000E+00  .000E+00  .000E+00
  .918E-02  .937E-02  .882E-02  .907E-02  .893E-02  .943E-02  .938E-02  .105E-01
  .981E-02  .128E-01  .174E-01  .187E-01  .144E-01  .134E-01  .136E-01  .141E-01
  .156E-01  .144E-01  .141E-01  .140E-01  .161E-01  .131E-01  .138E-01  .167E-01
  .190E-01  .135E-01  .107E-01  .123E-01  .113E-01  .119E-01  .125E-01  .116E-01
  .101E-01  .693E-02  .658E-02  .758E-02  .675E-02  .614E-02  .561E-02  .492E-02
  .496E-02  .421E-02  .385E-02  .387E-02  .266E-02  .231E-02  .257E-02  .226E-02
  .196E-02  .131E-02  .121E-02  .828E-03  .710E-03  .617E-03  .569E-03  .504E-03
  .475E-03  .450E-03  .390E-03  .352E-03  .317E-03  .416E-03  .316E-03  .212E-03
  .170E-03  .173E-03  .159E-03  .130E-03  .102E-03  .781E-04  .648E-04  .539E-04
  .441E-04  .395E-04  .364E-04  .338E-04  .285E-04  .248E-04  .219E-04  .197E-04
  .179E-04  .165E-04  .152E-04  .142E-04  .132E-04  .124E-04  .111E-04  .999E-05
  .909E-05  .833E-05  .768E-05  .000E+00  .000E+00  .000E+00  .000E+00  .000E+00
  .000E+00  .000E+00  .000E+00  .000E+00
  .225E-01  .240E-01  .239E-01  .255E-01  .262E-01  .290E-01  .314E-01  .389E-01
  .389E-01  .543E-01  .805E-01  .911E-01  .752E-01  .742E-01  .794E-01  .884E-01
  .105E+00  .105E+00  .112E+00  .119E+00  .149E+00  .129E+00  .142E+00  .183E+00
  .220E+00  .166E+00  .144E+00  .181E+00  .181E+00  .203E+00  .229E+00  .228E+00
  .211E+00  .153E+00  .153E+00  .185E+00  .172E+00  .165E+00  .157E+00  .144E+00
  .151E+00  .142E+00  .141E+00  .154E+00  .114E+00  .106E+00  .126E+00  .117E+00
  .108E+00  .762E-01  .740E-01  .557E-01  .521E-01  .487E-01  .487E-01  .461E-01
  .464E-01  .466E-01  .428E-01  .409E-01  .386E-01  .552E-01  .461E-01  .330E-01
  .290E-01  .314E-01  .311E-01  .266E-01  .218E-01  .174E-01  .150E-01  .132E-01
  .113E-01  .996E-02  .910E-02  .850E-02  .704E-02  .590E-02  .533E-02  .487E-02
  .449E-02  .409E-02  .373E-02  .350E-02  .331E-02  .313E-02  .281E-02  .252E-02
  .225E-02  .211E-02  .201E-02  .000E+00  .000E+00  .000E+00  .000E+00  .000E+00
  .000E+00  .000E+00  .000E+00  .000E+00
  .390E+01  .390E+01  .390E+01  .390E+01  .466E+01  .390E+01  .391E+01  .402E+01
  .402E+01  .402E+01  .403E+01  .404E+01  .405E+01  .753E+01  .419E+01  .420E+01
  .466E+01  .365E+01  .902E+01  .902E+01  .912E+01  .913E+01  .773E+01  .914E+01
  .916E+01  .918E+01  .127E+02  .121E+02  .121E+02  .121E+02  .121E+02  .122E+02
  .135E+02  .122E+02  .122E+02  .122E+02  .125E+02  .835E+01  .836E+01  .838E+01
  .893E+01  .927E+01  .271E+02  .136E+02  .205E+02  .235E+02  .261E+02  .257E+02
  .258E+02  .254E+02  .200E+02  .471E+02  .473E+02  .201E+02  .468E+02  .468E+02
  .469E+02  .463E+02  .464E+02  .457E+02  .401E+02  .197E+02  .198E+02  .198E+02
  .191E+02  .191E+02  .192E+02  .192E+02  .193E+02  .193E+02  .182E+02  .183E+02
  .183E+02  .183E+02  .183E+02  .183E+02  .183E+02  .155E+02  .155E+02  .183E+02
  .183E+02  .183E+02  .183E+02  .155E+02  .155E+02  .155E+02  .183E+02  .183E+02
  .155E+02  .192E+02  .192E+02  .000E+00  .000E+00  .000E+00  .000E+00  .000E+00
  .000E+00  .000E+00  .000E+00  .000E+00
  .389E+01  .389E+01  .391E+01  .392E+01  .512E+01  .513E+01  .392E+01  .383E+01
  .383E+01  .400E+01  .405E+01  .406E+01  .407E+01  .755E+01  .407E+01  .422E+01
  .469E+01  .368E+01  .522E+01  .906E+01  .908E+01  .917E+01  .777E+01  .910E+01
  .912E+01  .913E+01  .127E+02  .126E+02  .120E+02  .121E+02  .121E+02  .121E+02
  .135E+02  .126E+02  .125E+02  .125E+02  .120E+02  .120E+02  .827E+01  .829E+01
  .830E+01  .888E+01  .888E+01  .135E+02  .120E+02  .204E+02  .262E+02  .259E+02
  .260E+02  .201E+02  .202E+02  .118E+02  .126E+02  .820E+01  .643E+01  .120E+02
  .120E+02  .120E+02  .118E+02  .118E+02  .120E+02  .118E+02  .118E+02  .118E+02
  .118E+02  .118E+02  .118E+02  .118E+02  .118E+02  .118E+02  .118E+02  .118E+02
  .118E+02  .118E+02  .118E+02  .118E+02  .118E+02  .118E+02  .118E+02  .118E+02
  .118E+02  .118E+02  .118E+02  .118E+02  .118E+02  .118E+02  .118E+02  .118E+02
  .118E+02  .118E+02  .118E+02  .000E+00  .000E+00  .000E+00  .000E+00  .000E+00
  .000E+00  .000E+00  .000E+00  .000E+00
  .390E+01  .390E+01  .390E+01  .390E+01  .390E+01  .390E+01  .391E+01  .401E+01
  .402E+01  .402E+01  .403E+01  .403E+01  .404E+01  .753E+01  .419E+01  .420E+01
  .466E+01  .365E+01  .901E+01  .902E+01  .912E+01  .913E+01  .772E+01  .914E+01
  .916E+01  .918E+01  .127E+02  .121E+02  .121E+02  .121E+02  .121E+02  .122E+02
  .135E+02  .122E+02  .122E+02  .122E+02  .125E+02  .834E+01  .836E+01  .837E+01
  .892E+01  .926E+01  .271E+02  .136E+02  .205E+02  .235E+02  .260E+02  .257E+02
  .258E+02  .254E+02  .200E+02  .471E+02  .473E+02  .200E+02  .468E+02  .468E+02
  .469E+02  .463E+02  .463E+02  .456E+02  .401E+02  .196E+02  .198E+02  .198E+02
  .190E+02  .190E+02  .192E+02  .192E+02  .192E+02  .192E+02  .181E+02  .181E+02
  .181E+02  .399E+01  .399E+01  .399E+01  .399E+01  .399E+01  .399E+01  .399E+01
  .399E+01  .399E+01  .399E+01  .399E+01  .399E+01  .399E+01  .399E+01  .399E+01
  .399E+01  .399E+01  .399E+01  .000E+00  .000E+00  .000E+00  .000E+00  .000E+00
  .000E+00  .000E+00  .000E+00  .000E+00
/&   ----------  End of spectral data for channel  4  ----------
