Response and Fourier amplitude spectra (91 periods,  .04 - 15.0 sec)   for      
Corrected accelerogram   14724-M0159-01248.06       Chan  7: 360 Deg     from   
Uncorrected Accelerogram Data             Processed: 09/10/01, CDMG  724ea006   
Record of Sun Sep  9, 2001 16:59:21 PDT               (Avol1 v4.6  7/01 CSMIP)  
CSMIP Preliminary Processing            (Origin:  To be determined)             
14724-M0159-01248.06                 Start time:  9/09/01, 23:59:21.0 UTC (GPS) 
Station No. 14724   33.923N, 118.242W    MtWtny  s/n  159 (12 Chns of 21 at Sta)
Los Angeles - 5-story Hospital                                                  
Chan  7: 360 Deg                    Location: Foundation: West Wall             
Record of Sun Sep  9, 2001 16:59:21 PDT    Sun Sep  9, 2001 16:59:21 PDT        
Hypocenter:  To be determined.               ML:  To be determined.
Instr Period =  .0200 sec,  Damping =  .700,  Sensitivity =  .63  v/g
                        Record length = 49.000 sec.
                                     Uncor Max  =   .011 g, at  11.390 sec.
RMS accel of (uncor) record  =        .
Accelerogram bandpass filtered with 3 dB pts at   .30 and 40.00 cyc/sec
                 instrument- and baseline-corrected





Record of Sun Sep  9, 2001 16:59:21 PDT    Sun Sep  9, 2001 16:59:21 PDT

14724-M0159-01248.06      Los Angeles - 5-story Hospital    Chan  7: 360 Deg

14724-M0159-01248.06      Los Angeles - 5-story Hospital    Chan  7: 360 Deg

Units for spectra are inches and sec, except Sa is in fraction of g.

    7  100    7   12   21  200    1    3    1   24   13  159    014724    2    0
   23   59   21    0  252    9    9 2001   10    3  360 9800   39   30   72 -999
 9800    1   50    3  159    1    6  490    1    0    0    0    0    0    0    0
    0    4    0    0 4900    2    0    0    0    0   72   30    0    0    0 4900
    0 4900   31   91    1   12    0    0    0    0   21    0    0    0    0    2
    2    2    4    0   72   99    0   32   32    0    0    1    0    0    0    0
  -99   -1    0    0
      .020      .700    49.000      .001      .000   625.000      .011    11.390
    50.000      .298      .477      .000     5.000      .000      .000      .000
     2.500   -17.012     -.005     -.018     5.000    30.000      .000      .001
     -.004     -.005     2.000    15.000    33.923  -118.242      .055      .242
     4.367     -.018      .009  -999.000      .000      .000   -13.200      .000
  1000.000     1.011      .000      .000      .000      .000      .000      .000
     4.600     4.400      .000   980.665      .010    49.000     7.958      .000
      .000    40.000      .000    49.000      .010      .300      .000      .000
    11.390    10.787    11.470      .659    11.620      .052      .000      .300
    40.000      .010      .010      .000      .010      .023      .000      .000
      .033      .220      .027      .025      .004      .000      .000      .000
      .000      .000      .000      .000      .000      .000      .000      .000
      .000      .000      .000      .000
      .050
      .040      .042      .044      .046      .048      .050      .055      .060
      .065      .070      .075      .080      .085      .090      .095      .100
      .110      .120      .130      .140      .150      .160      .170      .180
      .190      .200      .220      .240      .260      .280      .300      .320
      .340      .360      .380      .400      .420      .440      .460      .480
      .500      .550      .600      .650      .700      .750      .800      .850
      .900      .950     1.000     1.100     1.200     1.300     1.400     1.500
     1.600     1.700     1.800     1.900     2.000     2.200     2.400     2.600
     2.800     3.000     3.200     3.400     3.600     3.800     4.000     4.200
     4.400     4.600     4.800     5.000     5.500     6.000     6.500     7.000
     7.500     8.000     8.500     9.000     9.500    10.000    11.000    12.000
    13.000    14.000    15.000      .000      .000      .000      .000      .000
      .000      .000      .000      .000
Fourier amplitude spectra in in/sec.
  .000E+00  .000E+00  .000E+00  .000E+00  .000E+00  .000E+00  .000E+00  .000E+00
  .000E+00  .000E+00  .000E+00  .000E+00  .000E+00  .000E+00  .000E+00  .000E+00
  .000E+00  .000E+00  .000E+00  .000E+00  .000E+00  .000E+00  .000E+00  .000E+00
  .000E+00  .000E+00  .000E+00  .000E+00  .000E+00  .000E+00  .000E+00  .000E+00
  .000E+00  .000E+00  .000E+00  .000E+00  .000E+00  .000E+00  .000E+00  .000E+00
  .000E+00  .000E+00  .000E+00  .000E+00  .000E+00  .000E+00  .000E+00  .000E+00
  .000E+00  .000E+00  .000E+00  .000E+00  .000E+00  .000E+00  .000E+00  .000E+00
  .000E+00  .000E+00  .000E+00  .000E+00  .000E+00  .000E+00  .000E+00  .000E+00
  .000E+00  .000E+00  .000E+00  .000E+00  .000E+00  .000E+00  .000E+00  .000E+00
  .000E+00  .000E+00  .000E+00  .000E+00  .000E+00  .000E+00  .000E+00  .000E+00
  .000E+00  .000E+00  .000E+00  .000E+00  .000E+00  .000E+00  .000E+00  .000E+00
  .000E+00  .000E+00  .000E+00  .000E+00  .000E+00  .000E+00  .000E+00  .000E+00
  .000E+00  .000E+00  .000E+00  .000E+00
Damping =  .05. Data of Sd,Sv,Sa,Pssv,ttSd,ttSv,ttSa :
  .174E-03  .191E-03  .210E-03  .227E-03  .254E-03  .283E-03  .338E-03  .406E-03
  .538E-03  .685E-03  .770E-03  .964E-03  .115E-02  .125E-02  .113E-02  .140E-02
  .195E-02  .262E-02  .363E-02  .493E-02  .492E-02  .426E-02  .537E-02  .632E-02
  .825E-02  .100E-01  .154E-01  .170E-01  .190E-01  .187E-01  .219E-01  .259E-01
  .309E-01  .343E-01  .389E-01  .404E-01  .482E-01  .551E-01  .598E-01  .659E-01
  .654E-01  .646E-01  .631E-01  .684E-01  .620E-01  .510E-01  .441E-01  .406E-01
  .420E-01  .503E-01  .414E-01  .322E-01  .331E-01  .317E-01  .295E-01  .317E-01
  .283E-01  .257E-01  .259E-01  .247E-01  .266E-01  .305E-01  .316E-01  .280E-01
  .257E-01  .234E-01  .231E-01  .221E-01  .217E-01  .214E-01  .211E-01  .208E-01
  .208E-01  .210E-01  .212E-01  .213E-01  .213E-01  .213E-01  .212E-01  .211E-01
  .210E-01  .209E-01  .209E-01  .209E-01  .209E-01  .209E-01  .209E-01  .209E-01
  .209E-01  .209E-01  .210E-01  .000E+00  .000E+00  .000E+00  .000E+00  .000E+00
  .000E+00  .000E+00  .000E+00  .000E+00
  .626E-02  .711E-02  .776E-02  .857E-02  .950E-02  .121E-01  .177E-01  .215E-01
  .275E-01  .352E-01  .402E-01  .407E-01  .563E-01  .543E-01  .569E-01  .666E-01
  .112E+00  .113E+00  .140E+00  .187E+00  .182E+00  .147E+00  .168E+00  .215E+00
  .243E+00  .286E+00  .365E+00  .416E+00  .417E+00  .408E+00  .417E+00  .437E+00
  .500E+00  .586E+00  .651E+00  .626E+00  .728E+00  .802E+00  .816E+00  .824E+00
  .777E+00  .755E+00  .809E+00  .752E+00  .570E+00  .504E+00  .429E+00  .422E+00
  .345E+00  .392E+00  .425E+00  .316E+00  .324E+00  .297E+00  .306E+00  .310E+00
  .313E+00  .292E+00  .274E+00  .272E+00  .280E+00  .287E+00  .276E+00  .266E+00
  .264E+00  .267E+00  .269E+00  .268E+00  .267E+00  .265E+00  .264E+00  .263E+00
  .262E+00  .262E+00  .262E+00  .262E+00  .262E+00  .261E+00  .261E+00  .261E+00
  .261E+00  .260E+00  .260E+00  .260E+00  .260E+00  .260E+00  .260E+00  .260E+00
  .260E+00  .259E+00  .259E+00  .000E+00  .000E+00  .000E+00  .000E+00  .000E+00
  .000E+00  .000E+00  .000E+00  .000E+00
  .111E-01  .111E-01  .111E-01  .110E-01  .113E-01  .116E-01  .114E-01  .115E-01
  .131E-01  .143E-01  .140E-01  .155E-01  .162E-01  .158E-01  .128E-01  .144E-01
  .165E-01  .187E-01  .221E-01  .258E-01  .226E-01  .170E-01  .190E-01  .200E-01
  .233E-01  .256E-01  .326E-01  .304E-01  .291E-01  .246E-01  .249E-01  .261E-01
  .274E-01  .272E-01  .277E-01  .259E-01  .281E-01  .293E-01  .291E-01  .294E-01
  .269E-01  .220E-01  .180E-01  .166E-01  .130E-01  .935E-02  .713E-02  .580E-02
  .534E-02  .574E-02  .429E-02  .277E-02  .240E-02  .197E-02  .158E-02  .148E-02
  .114E-02  .954E-03  .842E-03  .744E-03  .712E-03  .662E-03  .577E-03  .437E-03
  .345E-03  .302E-03  .266E-03  .236E-03  .212E-03  .191E-03  .174E-03  .160E-03
  .147E-03  .137E-03  .128E-03  .120E-03  .103E-03  .908E-04  .808E-04  .730E-04
  .665E-04  .611E-04  .565E-04  .525E-04  .490E-04  .460E-04  .408E-04  .367E-04
  .334E-04  .306E-04  .283E-04  .000E+00  .000E+00  .000E+00  .000E+00  .000E+00
  .000E+00  .000E+00  .000E+00  .000E+00
  .274E-01  .285E-01  .300E-01  .310E-01  .333E-01  .356E-01  .386E-01  .425E-01
  .520E-01  .615E-01  .645E-01  .757E-01  .848E-01  .876E-01  .746E-01  .881E-01
  .111E+00  .137E+00  .176E+00  .221E+00  .206E+00  .167E+00  .198E+00  .221E+00
  .273E+00  .315E+00  .440E+00  .444E+00  .460E+00  .419E+00  .458E+00  .509E+00
  .572E+00  .599E+00  .643E+00  .634E+00  .721E+00  .787E+00  .817E+00  .862E+00
  .822E+00  .738E+00  .661E+00  .661E+00  .556E+00  .427E+00  .347E+00  .300E+00
  .293E+00  .333E+00  .260E+00  .184E+00  .173E+00  .153E+00  .132E+00  .133E+00
  .111E+00  .951E-01  .903E-01  .818E-01  .836E-01  .871E-01  .827E-01  .677E-01
  .576E-01  .490E-01  .454E-01  .408E-01  .379E-01  .353E-01  .331E-01  .311E-01
  .297E-01  .287E-01  .277E-01  .267E-01  .244E-01  .223E-01  .205E-01  .189E-01
  .176E-01  .164E-01  .154E-01  .146E-01  .138E-01  .131E-01  .119E-01  .110E-01
  .101E-01  .940E-02  .878E-02  .000E+00  .000E+00  .000E+00  .000E+00  .000E+00
  .000E+00  .000E+00  .000E+00  .000E+00
  .114E+02  .114E+02  .114E+02  .114E+02  .114E+02  .114E+02  .114E+02  .114E+02
  .114E+02  .114E+02  .114E+02  .114E+02  .114E+02  .114E+02  .114E+02  .125E+02
  .654E+01  .126E+02  .126E+02  .126E+02  .126E+02  .126E+02  .113E+02  .824E+01
  .126E+02  .126E+02  .114E+02  .116E+02  .116E+02  .116E+02  .116E+02  .116E+02
  .116E+02  .116E+02  .117E+02  .119E+02  .119E+02  .119E+02  .120E+02  .120E+02
  .120E+02  .120E+02  .127E+02  .124E+02  .125E+02  .119E+02  .119E+02  .119E+02
  .178E+02  .175E+02  .116E+02  .574E+01  .575E+01  .576E+01  .576E+01  .116E+02
  .298E+02  .576E+01  .198E+02  .577E+01  .116E+02  .194E+02  .194E+02  .195E+02
  .187E+02  .116E+02  .116E+02  .577E+01  .577E+01  .577E+01  .577E+01  .577E+01
  .116E+02  .116E+02  .116E+02  .116E+02  .116E+02  .116E+02  .116E+02  .116E+02
  .116E+02  .116E+02  .116E+02  .116E+02  .116E+02  .116E+02  .116E+02  .116E+02
  .116E+02  .116E+02  .116E+02  .000E+00  .000E+00  .000E+00  .000E+00  .000E+00
  .000E+00  .000E+00  .000E+00  .000E+00
  .125E+02  .126E+02  .126E+02  .126E+02  .583E+01  .583E+01  .584E+01  .751E+01
  .619E+01  .800E+01  .801E+01  .626E+01  .753E+01  .759E+01  .600E+01  .633E+01
  .651E+01  .761E+01  .126E+02  .127E+02  .127E+02  .127E+02  .152E+02  .811E+01
  .127E+02  .127E+02  .115E+02  .115E+02  .115E+02  .126E+02  .126E+02  .115E+02
  .126E+02  .127E+02  .125E+02  .120E+02  .120E+02  .121E+02  .121E+02  .121E+02
  .119E+02  .119E+02  .126E+02  .126E+02  .120E+02  .117E+02  .117E+02  .117E+02
  .199E+02  .117E+02  .118E+02  .115E+02  .118E+02  .115E+02  .118E+02  .114E+02
  .115E+02  .115E+02  .115E+02  .114E+02  .114E+02  .115E+02  .115E+02  .115E+02
  .115E+02  .115E+02  .115E+02  .115E+02  .115E+02  .115E+02  .115E+02  .115E+02
  .115E+02  .115E+02  .115E+02  .115E+02  .115E+02  .115E+02  .115E+02  .115E+02
  .115E+02  .115E+02  .115E+02  .115E+02  .115E+02  .115E+02  .115E+02  .115E+02
  .115E+02  .115E+02  .115E+02  .000E+00  .000E+00  .000E+00  .000E+00  .000E+00
  .000E+00  .000E+00  .000E+00  .000E+00
  .114E+02  .114E+02  .114E+02  .114E+02  .114E+02  .114E+02  .114E+02  .114E+02
  .114E+02  .114E+02  .114E+02  .114E+02  .114E+02  .114E+02  .114E+02  .125E+02
  .648E+01  .126E+02  .126E+02  .126E+02  .126E+02  .126E+02  .113E+02  .824E+01
  .126E+02  .126E+02  .114E+02  .116E+02  .116E+02  .127E+02  .116E+02  .116E+02
  .116E+02  .116E+02  .117E+02  .119E+02  .119E+02  .119E+02  .120E+02  .120E+02
  .120E+02  .120E+02  .127E+02  .124E+02  .125E+02  .118E+02  .118E+02  .119E+02
  .178E+02  .174E+02  .116E+02  .572E+01  .573E+01  .573E+01  .574E+01  .116E+02
  .297E+02  .573E+01  .198E+02  .573E+01  .116E+02  .194E+02  .194E+02  .194E+02
  .572E+01  .572E+01  .572E+01  .571E+01  .571E+01  .571E+01  .571E+01  .571E+01
  .571E+01  .570E+01  .570E+01  .570E+01  .570E+01  .570E+01  .570E+01  .569E+01
  .569E+01  .569E+01  .569E+01  .569E+01  .569E+01  .569E+01  .569E+01  .569E+01
  .569E+01  .568E+01  .568E+01  .000E+00  .000E+00  .000E+00  .000E+00  .000E+00
  .000E+00  .000E+00  .000E+00  .000E+00
/&   ----------  End of spectral data for channel  7  ----------
