Response and Fourier amplitude spectra (91 periods,  .04 - 15.0 sec)   for      
Corrected accelerogram   14724-M0159-01248.06       Chan  5:  Up         from   
Uncorrected Accelerogram Data             Processed: 09/10/01, CDMG  724ea006   
Record of Sun Sep  9, 2001 16:59:21 PDT               (Avol1 v4.6  7/01 CSMIP)  
CSMIP Preliminary Processing            (Origin:  To be determined)             
14724-M0159-01248.06                 Start time:  9/09/01, 23:59:21.0 UTC (GPS) 
Station No. 14724   33.923N, 118.242W    MtWtny  s/n  159 (12 Chns of 21 at Sta)
Los Angeles - 5-story Hospital                                                  
Chan  5:  Up                        Location: Foundation: SE Corner             
Record of Sun Sep  9, 2001 16:59:21 PDT    Sun Sep  9, 2001 16:59:21 PDT        
Hypocenter:  To be determined.               ML:  To be determined.
Instr Period =  .0200 sec,  Damping =  .700,  Sensitivity =  .63  v/g
                        Record length = 49.000 sec.
                                     Uncor Max  =  -.006 g, at   4.030 sec.
RMS accel of (uncor) record  =        .
Accelerogram bandpass filtered with 3 dB pts at   .30 and 40.00 cyc/sec
                 instrument- and baseline-corrected





Record of Sun Sep  9, 2001 16:59:21 PDT    Sun Sep  9, 2001 16:59:21 PDT

14724-M0159-01248.06      Los Angeles - 5-story Hospital    Chan  5:  Up

14724-M0159-01248.06      Los Angeles - 5-story Hospital    Chan  5:  Up

Units for spectra are inches and sec, except Sa is in fraction of g.

    5  100    5   12   21  200    1    3    1   24   13  159    014724    2    0
   23   59   21    0  252    9    9 2001   10    3  500 9800   39   30   72 -999
 9800    1   50    3  159    1    6  490    1    0    0    0    0    0    0    0
    0    4    0    0 4900    2    0    0    0    0   72   30    0    0    0 4900
    0 4900   31   91    1   12    0    0    0    0   21    0    0    0    0    2
    2    2    4    0   72   99    0   32   32    0    0    1    0    0    0    0
  -99   -1    0    0
      .020      .700    49.000      .001      .000   625.000     -.006     4.030
    50.000      .298      .477      .000     5.000      .000      .000      .000
     2.500   -26.194     -.013     -.019     5.000    30.000      .000      .004
      .002     -.002     2.000    15.000    33.923  -118.242      .507      .136
      .268     -.068      .063  -999.000      .000      .000   -13.200      .000
  1000.000    -1.100      .000      .000      .000      .000      .000      .000
     4.600     4.400      .000   980.665      .010    49.000     7.958      .000
      .000    40.000      .000    49.000      .010      .300      .000      .000
     4.020    -5.402     3.990      .169     4.040      .010     -.001      .300
    40.000      .010      .010      .000      .010      .011      .000      .000
      .018      .190      .015      .010      .001      .000      .000      .000
      .000      .000      .000      .000      .000      .000      .000      .000
      .000      .000      .000      .000
      .050
      .040      .042      .044      .046      .048      .050      .055      .060
      .065      .070      .075      .080      .085      .090      .095      .100
      .110      .120      .130      .140      .150      .160      .170      .180
      .190      .200      .220      .240      .260      .280      .300      .320
      .340      .360      .380      .400      .420      .440      .460      .480
      .500      .550      .600      .650      .700      .750      .800      .850
      .900      .950     1.000     1.100     1.200     1.300     1.400     1.500
     1.600     1.700     1.800     1.900     2.000     2.200     2.400     2.600
     2.800     3.000     3.200     3.400     3.600     3.800     4.000     4.200
     4.400     4.600     4.800     5.000     5.500     6.000     6.500     7.000
     7.500     8.000     8.500     9.000     9.500    10.000    11.000    12.000
    13.000    14.000    15.000      .000      .000      .000      .000      .000
      .000      .000      .000      .000
Fourier amplitude spectra in in/sec.
  .000E+00  .000E+00  .000E+00  .000E+00  .000E+00  .000E+00  .000E+00  .000E+00
  .000E+00  .000E+00  .000E+00  .000E+00  .000E+00  .000E+00  .000E+00  .000E+00
  .000E+00  .000E+00  .000E+00  .000E+00  .000E+00  .000E+00  .000E+00  .000E+00
  .000E+00  .000E+00  .000E+00  .000E+00  .000E+00  .000E+00  .000E+00  .000E+00
  .000E+00  .000E+00  .000E+00  .000E+00  .000E+00  .000E+00  .000E+00  .000E+00
  .000E+00  .000E+00  .000E+00  .000E+00  .000E+00  .000E+00  .000E+00  .000E+00
  .000E+00  .000E+00  .000E+00  .000E+00  .000E+00  .000E+00  .000E+00  .000E+00
  .000E+00  .000E+00  .000E+00  .000E+00  .000E+00  .000E+00  .000E+00  .000E+00
  .000E+00  .000E+00  .000E+00  .000E+00  .000E+00  .000E+00  .000E+00  .000E+00
  .000E+00  .000E+00  .000E+00  .000E+00  .000E+00  .000E+00  .000E+00  .000E+00
  .000E+00  .000E+00  .000E+00  .000E+00  .000E+00  .000E+00  .000E+00  .000E+00
  .000E+00  .000E+00  .000E+00  .000E+00  .000E+00  .000E+00  .000E+00  .000E+00
  .000E+00  .000E+00  .000E+00  .000E+00
Damping =  .05. Data of Sd,Sv,Sa,Pssv,ttSd,ttSv,ttSa :
  .107E-03  .121E-03  .148E-03  .168E-03  .184E-03  .195E-03  .213E-03  .303E-03
  .391E-03  .490E-03  .678E-03  .918E-03  .950E-03  .103E-02  .118E-02  .128E-02
  .153E-02  .195E-02  .251E-02  .299E-02  .348E-02  .428E-02  .462E-02  .550E-02
  .621E-02  .613E-02  .605E-02  .654E-02  .747E-02  .793E-02  .919E-02  .807E-02
  .965E-02  .869E-02  .101E-01  .123E-01  .141E-01  .132E-01  .107E-01  .122E-01
  .124E-01  .129E-01  .131E-01  .134E-01  .103E-01  .957E-02  .127E-01  .129E-01
  .129E-01  .111E-01  .935E-02  .929E-02  .103E-01  .102E-01  .105E-01  .105E-01
  .114E-01  .121E-01  .119E-01  .124E-01  .123E-01  .187E-01  .161E-01  .140E-01
  .130E-01  .149E-01  .156E-01  .144E-01  .127E-01  .108E-01  .102E-01  .942E-02
  .855E-02  .801E-02  .777E-02  .763E-02  .696E-02  .641E-02  .625E-02  .622E-02
  .612E-02  .608E-02  .593E-02  .574E-02  .558E-02  .554E-02  .561E-02  .559E-02
  .570E-02  .572E-02  .566E-02  .000E+00  .000E+00  .000E+00  .000E+00  .000E+00
  .000E+00  .000E+00  .000E+00  .000E+00
  .125E-01  .121E-01  .134E-01  .148E-01  .164E-01  .176E-01  .181E-01  .252E-01
  .318E-01  .345E-01  .440E-01  .548E-01  .553E-01  .574E-01  .632E-01  .685E-01
  .809E-01  .989E-01  .119E+00  .125E+00  .135E+00  .159E+00  .166E+00  .178E+00
  .193E+00  .179E+00  .165E+00  .168E+00  .178E+00  .179E+00  .191E+00  .165E+00
  .171E+00  .162E+00  .171E+00  .210E+00  .211E+00  .201E+00  .168E+00  .163E+00
  .160E+00  .165E+00  .146E+00  .148E+00  .123E+00  .992E-01  .104E+00  .951E-01
  .936E-01  .922E-01  .895E-01  .858E-01  .925E-01  .862E-01  .785E-01  .807E-01
  .821E-01  .781E-01  .809E-01  .825E-01  .797E-01  .713E-01  .681E-01  .680E-01
  .709E-01  .703E-01  .684E-01  .668E-01  .661E-01  .663E-01  .666E-01  .667E-01
  .669E-01  .670E-01  .669E-01  .667E-01  .665E-01  .663E-01  .661E-01  .660E-01
  .659E-01  .658E-01  .659E-01  .659E-01  .659E-01  .659E-01  .658E-01  .658E-01
  .657E-01  .657E-01  .658E-01  .000E+00  .000E+00  .000E+00  .000E+00  .000E+00
  .000E+00  .000E+00  .000E+00  .000E+00
  .688E-02  .697E-02  .783E-02  .813E-02  .817E-02  .799E-02  .727E-02  .859E-02
  .938E-02  .102E-01  .124E-01  .146E-01  .134E-01  .131E-01  .133E-01  .132E-01
  .131E-01  .141E-01  .154E-01  .158E-01  .157E-01  .173E-01  .163E-01  .175E-01
  .178E-01  .157E-01  .129E-01  .116E-01  .113E-01  .103E-01  .105E-01  .810E-02
  .856E-02  .693E-02  .716E-02  .790E-02  .823E-02  .701E-02  .523E-02  .544E-02
  .511E-02  .438E-02  .375E-02  .327E-02  .217E-02  .175E-02  .203E-02  .184E-02
  .164E-02  .127E-02  .963E-03  .789E-03  .744E-03  .626E-03  .552E-03  .482E-03
  .459E-03  .432E-03  .378E-03  .352E-03  .317E-03  .400E-03  .287E-03  .215E-03
  .175E-03  .171E-03  .158E-03  .128E-03  .102E-03  .797E-04  .698E-04  .591E-04
  .496E-04  .431E-04  .388E-04  .355E-04  .299E-04  .257E-04  .229E-04  .207E-04
  .190E-04  .175E-04  .162E-04  .152E-04  .142E-04  .134E-04  .120E-04  .109E-04
  .991E-05  .911E-05  .843E-05  .000E+00  .000E+00  .000E+00  .000E+00  .000E+00
  .000E+00  .000E+00  .000E+00  .000E+00
  .169E-01  .180E-01  .212E-01  .229E-01  .241E-01  .245E-01  .244E-01  .317E-01
  .378E-01  .440E-01  .568E-01  .721E-01  .702E-01  .721E-01  .779E-01  .803E-01
  .876E-01  .102E+00  .121E+00  .134E+00  .146E+00  .168E+00  .171E+00  .192E+00
  .205E+00  .193E+00  .173E+00  .171E+00  .180E+00  .178E+00  .192E+00  .158E+00
  .178E+00  .152E+00  .167E+00  .193E+00  .211E+00  .189E+00  .146E+00  .159E+00
  .155E+00  .147E+00  .137E+00  .130E+00  .924E-01  .802E-01  .995E-01  .954E-01
  .902E-01  .737E-01  .588E-01  .531E-01  .537E-01  .493E-01  .472E-01  .441E-01
  .449E-01  .448E-01  .415E-01  .409E-01  .387E-01  .533E-01  .422E-01  .339E-01
  .291E-01  .312E-01  .306E-01  .266E-01  .222E-01  .178E-01  .161E-01  .141E-01
  .122E-01  .109E-01  .102E-01  .958E-02  .795E-02  .671E-02  .604E-02  .558E-02
  .513E-02  .478E-02  .439E-02  .401E-02  .369E-02  .348E-02  .320E-02  .293E-02
  .275E-02  .257E-02  .237E-02  .000E+00  .000E+00  .000E+00  .000E+00  .000E+00
  .000E+00  .000E+00  .000E+00  .000E+00
  .261E+01  .401E+01  .401E+01  .402E+01  .402E+01  .402E+01  .401E+01  .403E+01
  .712E+01  .430E+01  .402E+01  .403E+01  .403E+01  .403E+01  .404E+01  .404E+01
  .404E+01  .405E+01  .439E+01  .468E+01  .786E+01  .787E+01  .789E+01  .857E+01
  .859E+01  .860E+01  .122E+02  .124E+02  .613E+01  .920E+01  .617E+01  .990E+01
  .120E+02  .120E+02  .120E+02  .118E+02  .123E+02  .123E+02  .123E+02  .869E+01
  .949E+01  .931E+01  .936E+01  .169E+02  .132E+02  .206E+02  .257E+02  .257E+02
  .258E+02  .370E+02  .371E+02  .472E+02  .112E+02  .201E+02  .468E+02  .469E+02
  .470E+02  .463E+02  .464E+02  .457E+02  .401E+02  .196E+02  .199E+02  .200E+02
  .191E+02  .191E+02  .192E+02  .193E+02  .193E+02  .193E+02  .183E+02  .183E+02
  .183E+02  .183E+02  .183E+02  .183E+02  .164E+02  .164E+02  .183E+02  .183E+02
  .164E+02  .164E+02  .164E+02  .164E+02  .164E+02  .183E+02  .183E+02  .164E+02
  .164E+02  .164E+02  .164E+02  .000E+00  .000E+00  .000E+00  .000E+00  .000E+00
  .000E+00  .000E+00  .000E+00  .000E+00
  .262E+01  .307E+01  .307E+01  .324E+01  .502E+01  .503E+01  .503E+01  .503E+01
  .713E+01  .428E+01  .715E+01  .405E+01  .405E+01  .406E+01  .407E+01  .406E+01
  .419E+01  .414E+01  .449E+01  .465E+01  .466E+01  .791E+01  .793E+01  .852E+01
  .854E+01  .855E+01  .123E+02  .123E+02  .619E+01  .913E+01  .610E+01  .983E+01
  .119E+02  .613E+01  .119E+02  .119E+02  .124E+02  .122E+02  .122E+02  .122E+02
  .862E+01  .944E+01  .922E+01  .132E+02  .133E+02  .904E+01  .259E+02  .259E+02
  .256E+02  .202E+02  .202E+02  .849E+01  .849E+01  .603E+01  .116E+02  .585E+01
  .121E+02  .849E+01  .849E+01  .849E+01  .849E+01  .200E+02  .205E+02  .849E+01
  .849E+01  .849E+01  .849E+01  .849E+01  .849E+01  .398E+01  .398E+01  .398E+01
  .849E+01  .849E+01  .849E+01  .849E+01  .398E+01  .398E+01  .398E+01  .398E+01
  .398E+01  .849E+01  .849E+01  .849E+01  .849E+01  .849E+01  .849E+01  .849E+01
  .398E+01  .398E+01  .398E+01  .000E+00  .000E+00  .000E+00  .000E+00  .000E+00
  .000E+00  .000E+00  .000E+00  .000E+00
  .261E+01  .401E+01  .401E+01  .402E+01  .402E+01  .402E+01  .401E+01  .403E+01
  .712E+01  .430E+01  .402E+01  .403E+01  .403E+01  .403E+01  .403E+01  .403E+01
  .404E+01  .404E+01  .438E+01  .468E+01  .786E+01  .787E+01  .789E+01  .856E+01
  .858E+01  .860E+01  .122E+02  .124E+02  .613E+01  .920E+01  .616E+01  .990E+01
  .120E+02  .120E+02  .120E+02  .118E+02  .123E+02  .123E+02  .123E+02  .868E+01
  .948E+01  .930E+01  .935E+01  .169E+02  .131E+02  .205E+02  .257E+02  .257E+02
  .258E+02  .370E+02  .370E+02  .471E+02  .111E+02  .201E+02  .468E+02  .469E+02
  .469E+02  .463E+02  .464E+02  .457E+02  .401E+02  .196E+02  .199E+02  .199E+02
  .203E+02  .191E+02  .191E+02  .193E+02  .193E+02  .178E+02  .182E+02  .182E+02
  .182E+02  .182E+02  .182E+02  .182E+02  .168E+02  .399E+01  .399E+01  .399E+01
  .399E+01  .399E+01  .399E+01  .399E+01  .399E+01  .399E+01  .399E+01  .399E+01
  .399E+01  .399E+01  .398E+01  .000E+00  .000E+00  .000E+00  .000E+00  .000E+00
  .000E+00  .000E+00  .000E+00  .000E+00
/&   ----------  End of spectral data for channel  5  ----------
