Response and Fourier amplitude spectra (91 periods,  .04 - 15.0 sec)   for      
Corrected accelerogram   24401-K0651-01252.08       Chan  1: 360 Deg     from   
Uncorrected Accelerogram Data             Processed: 09/10/01, CDMG  401ds008   
Record of Sun Sep  9, 2001 16:59:21 PDT               (Avol1 v4.6  7/01 CSMIP)  
CSMIP Preliminary Processing            (Origin:  To be determined)             
24401-K0651-01252.08                 Start time:  9/09/01, 23:59:21.0 UTC (GPS) 
Station No. 24401   34.115N, 118.130W        K2  s/n  651  (3 Channels)         
San Marino - Southwestern Academy                                               
Chan  1: 360 Deg                                                                
Record of Sun Sep  9, 2001 16:59:21 PDT    Sun Sep  9, 2001 16:59:21 PDT        
Hypocenter:  To be determined.               ML:  To be determined.             
Instr Period =  .0107 sec,  Damping =  .670,  Sensitivity =  .63  v/g           
                        Record length = 37.000 sec.                             
                                     Uncor Max  =  -.008 g, at   5.375 sec.     
RMS accel of (uncor) record  =        .                                         
Accelerogram bandpass filtered with 3 dB pts at   .30 and 40.00 cyc/sec         
                 instrument- and baseline-corrected                             
                                                                                
                                                                                
                                                                                
                                                                                
                                                                                
Record of Sun Sep  9, 2001 16:59:21 PDT    Sun Sep  9, 2001 16:59:21 PDT        
                                                                                
24401-K0651-01252.08      San Marino - Southwestern Academy   Chan  1: 360 Deg  
                                                                                
24401-K0651-01252.08      San Marino - Southwestern Academy   Chan  1: 360 Deg  
                                                                                
Units for spectra are inches and sec, except Sa is in fraction of g.            
                                                                                
    1  100    1    3    3  200    1    3    1   24   11  651    024401    1    0
   23   59   21    0  252    9    9 2001   10    3  360 7400   39   33   72  360
 7400    1   50    3  651    1    8  370    1    0    0    0    0    0    0    0
    0    4    0    0 3700    2    0    0    0    0   72   33    0    0    0 3700
    0 3700   34   91    1    3    0    0    0    0    3    0    0    0    0    2
    2    2    4    0   32   99    0   32   32    0    0    1    0    0    0    0
  -99   -1    0    0
      .011      .670    37.000      .001      .000   625.000     -.008     5.375
    93.500      .298      .477      .000     5.000      .000      .000      .000
     2.500     -.364      .005     -.004     5.000    30.000      .000      .007
      .001     -.007     2.000    15.000    34.115  -118.130      .212      .171
      .809     -.035      .022  -999.000      .000      .000   -13.200      .000
  1000.000    -1.008      .000      .000      .000      .000      .000      .000
     4.600     4.400      .000   980.665      .010    37.000    14.881      .000
      .000    40.000      .000    37.000      .010      .300      .000      .000
     5.370    -7.676     5.580      .424     5.490     -.023      .000      .300
    40.000      .010      .010      .000      .010      .008      .000      .000
      .027      .260      .018      .025      .002      .000      .000      .000
      .000      .000      .000      .000      .000      .000      .000      .000
      .000      .000      .000      .000
      .050
      .040      .042      .044      .046      .048      .050      .055      .060
      .065      .070      .075      .080      .085      .090      .095      .100
      .110      .120      .130      .140      .150      .160      .170      .180
      .190      .200      .220      .240      .260      .280      .300      .320
      .340      .360      .380      .400      .420      .440      .460      .480
      .500      .550      .600      .650      .700      .750      .800      .850
      .900      .950     1.000     1.100     1.200     1.300     1.400     1.500
     1.600     1.700     1.800     1.900     2.000     2.200     2.400     2.600
     2.800     3.000     3.200     3.400     3.600     3.800     4.000     4.200
     4.400     4.600     4.800     5.000     5.500     6.000     6.500     7.000
     7.500     8.000     8.500     9.000     9.500    10.000    11.000    12.000
    13.000    14.000    15.000      .000      .000      .000      .000      .000
      .000      .000      .000      .000
Fourier amplitude spectra in in/sec.
  .000E+00  .000E+00  .000E+00  .000E+00  .000E+00  .000E+00  .000E+00  .000E+00
  .000E+00  .000E+00  .000E+00  .000E+00  .000E+00  .000E+00  .000E+00  .000E+00
  .000E+00  .000E+00  .000E+00  .000E+00  .000E+00  .000E+00  .000E+00  .000E+00
  .000E+00  .000E+00  .000E+00  .000E+00  .000E+00  .000E+00  .000E+00  .000E+00
  .000E+00  .000E+00  .000E+00  .000E+00  .000E+00  .000E+00  .000E+00  .000E+00
  .000E+00  .000E+00  .000E+00  .000E+00  .000E+00  .000E+00  .000E+00  .000E+00
  .000E+00  .000E+00  .000E+00  .000E+00  .000E+00  .000E+00  .000E+00  .000E+00
  .000E+00  .000E+00  .000E+00  .000E+00  .000E+00  .000E+00  .000E+00  .000E+00
  .000E+00  .000E+00  .000E+00  .000E+00  .000E+00  .000E+00  .000E+00  .000E+00
  .000E+00  .000E+00  .000E+00  .000E+00  .000E+00  .000E+00  .000E+00  .000E+00
  .000E+00  .000E+00  .000E+00  .000E+00  .000E+00  .000E+00  .000E+00  .000E+00
  .000E+00  .000E+00  .000E+00  .000E+00  .000E+00  .000E+00  .000E+00  .000E+00
  .000E+00  .000E+00  .000E+00  .000E+00
Damping =  .05. Data of Sd,Sv,Sa,Pssv,ttSd,ttSv,ttSa :
  .156E-03  .189E-03  .217E-03  .246E-03  .301E-03  .356E-03  .424E-03  .456E-03
  .648E-03  .891E-03  .103E-02  .123E-02  .131E-02  .141E-02  .169E-02  .201E-02
  .305E-02  .320E-02  .325E-02  .350E-02  .360E-02  .336E-02  .433E-02  .490E-02
  .566E-02  .636E-02  .997E-02  .145E-01  .179E-01  .198E-01  .225E-01  .235E-01
  .221E-01  .184E-01  .157E-01  .149E-01  .136E-01  .124E-01  .122E-01  .126E-01
  .133E-01  .152E-01  .145E-01  .157E-01  .188E-01  .208E-01  .222E-01  .215E-01
  .226E-01  .228E-01  .230E-01  .229E-01  .230E-01  .222E-01  .210E-01  .196E-01
  .217E-01  .210E-01  .184E-01  .172E-01  .148E-01  .135E-01  .132E-01  .130E-01
  .128E-01  .126E-01  .124E-01  .122E-01  .119E-01  .118E-01  .117E-01  .116E-01
  .115E-01  .114E-01  .113E-01  .112E-01  .110E-01  .108E-01  .107E-01  .106E-01
  .105E-01  .105E-01  .105E-01  .104E-01  .104E-01  .103E-01  .103E-01  .103E-01
  .102E-01  .102E-01  .102E-01  .000E+00  .000E+00  .000E+00  .000E+00  .000E+00
  .000E+00  .000E+00  .000E+00  .000E+00
  .131E-01  .146E-01  .159E-01  .203E-01  .261E-01  .329E-01  .399E-01  .322E-01
  .392E-01  .536E-01  .568E-01  .731E-01  .770E-01  .783E-01  .913E-01  .105E+00
  .159E+00  .169E+00  .165E+00  .152E+00  .132E+00  .123E+00  .134E+00  .147E+00
  .175E+00  .177E+00  .268E+00  .381E+00  .433E+00  .474E+00  .481E+00  .445E+00
  .440E+00  .386E+00  .339E+00  .309E+00  .291E+00  .254E+00  .222E+00  .214E+00
  .206E+00  .189E+00  .182E+00  .199E+00  .215E+00  .230E+00  .230E+00  .223E+00
  .212E+00  .198E+00  .182E+00  .189E+00  .201E+00  .208E+00  .211E+00  .211E+00
  .210E+00  .208E+00  .205E+00  .202E+00  .199E+00  .194E+00  .189E+00  .186E+00
  .182E+00  .180E+00  .178E+00  .176E+00  .174E+00  .173E+00  .172E+00  .171E+00
  .171E+00  .170E+00  .170E+00  .169E+00  .169E+00  .168E+00  .168E+00  .168E+00
  .167E+00  .167E+00  .167E+00  .167E+00  .167E+00  .167E+00  .167E+00  .167E+00
  .166E+00  .166E+00  .166E+00  .000E+00  .000E+00  .000E+00  .000E+00  .000E+00
  .000E+00  .000E+00  .000E+00  .000E+00
  .999E-02  .110E-01  .115E-01  .119E-01  .134E-01  .147E-01  .142E-01  .131E-01
  .158E-01  .187E-01  .190E-01  .195E-01  .186E-01  .180E-01  .191E-01  .203E-01
  .258E-01  .231E-01  .200E-01  .182E-01  .163E-01  .135E-01  .154E-01  .155E-01
  .160E-01  .164E-01  .212E-01  .260E-01  .272E-01  .259E-01  .258E-01  .235E-01
  .196E-01  .146E-01  .112E-01  .960E-02  .797E-02  .660E-02  .597E-02  .569E-02
  .551E-02  .521E-02  .418E-02  .383E-02  .394E-02  .382E-02  .358E-02  .308E-02
  .288E-02  .260E-02  .237E-02  .197E-02  .167E-02  .138E-02  .113E-02  .924E-03
  .876E-03  .746E-03  .588E-03  .496E-03  .391E-03  .299E-03  .248E-03  .210E-03
  .180E-03  .157E-03  .137E-03  .124E-03  .112E-03  .101E-03  .918E-04  .837E-04
  .767E-04  .706E-04  .653E-04  .605E-04  .510E-04  .438E-04  .383E-04  .357E-04
  .335E-04  .316E-04  .299E-04  .283E-04  .269E-04  .256E-04  .234E-04  .216E-04
  .200E-04  .186E-04  .174E-04  .000E+00  .000E+00  .000E+00  .000E+00  .000E+00
  .000E+00  .000E+00  .000E+00  .000E+00
  .244E-01  .283E-01  .310E-01  .336E-01  .394E-01  .448E-01  .485E-01  .478E-01
  .626E-01  .800E-01  .865E-01  .967E-01  .968E-01  .987E-01  .112E+00  .126E+00
  .174E+00  .168E+00  .157E+00  .157E+00  .151E+00  .132E+00  .160E+00  .171E+00
  .187E+00  .200E+00  .285E+00  .380E+00  .432E+00  .445E+00  .471E+00  .461E+00
  .408E+00  .322E+00  .259E+00  .234E+00  .204E+00  .177E+00  .167E+00  .165E+00
  .167E+00  .174E+00  .152E+00  .152E+00  .168E+00  .174E+00  .174E+00  .159E+00
  .158E+00  .151E+00  .145E+00  .131E+00  .120E+00  .108E+00  .942E-01  .821E-01
  .854E-01  .776E-01  .641E-01  .567E-01  .465E-01  .386E-01  .347E-01  .315E-01
  .288E-01  .265E-01  .244E-01  .225E-01  .208E-01  .196E-01  .184E-01  .174E-01
  .164E-01  .155E-01  .148E-01  .140E-01  .125E-01  .113E-01  .103E-01  .953E-02
  .884E-02  .824E-02  .773E-02  .727E-02  .687E-02  .650E-02  .588E-02  .537E-02
  .494E-02  .458E-02  .427E-02  .000E+00  .000E+00  .000E+00  .000E+00  .000E+00
  .000E+00  .000E+00  .000E+00  .000E+00
  .535E+01  .535E+01  .535E+01  .566E+01  .566E+01  .566E+01  .567E+01  .535E+01
  .536E+01  .536E+01  .537E+01  .562E+01  .575E+01  .591E+01  .592E+01  .592E+01
  .599E+01  .618E+01  .619E+01  .540E+01  .549E+01  .549E+01  .550E+01  .551E+01
  .712E+01  .551E+01  .566E+01  .580E+01  .596E+01  .571E+01  .573E+01  .574E+01
  .576E+01  .577E+01  .563E+01  .563E+01  .564E+01  .534E+01  .534E+01  .534E+01
  .535E+01  .535E+01  .537E+01  .619E+01  .623E+01  .625E+01  .671E+01  .598E+01
  .600E+01  .603E+01  .607E+01  .565E+01  .566E+01  .566E+01  .567E+01  .567E+01
  .116E+02  .117E+02  .136E+02  .866E+01  .867E+01  .523E+01  .523E+01  .523E+01
  .523E+01  .523E+01  .523E+01  .523E+01  .548E+01  .548E+01  .548E+01  .548E+01
  .548E+01  .548E+01  .548E+01  .548E+01  .548E+01  .548E+01  .548E+01  .548E+01
  .548E+01  .548E+01  .548E+01  .548E+01  .548E+01  .548E+01  .548E+01  .548E+01
  .548E+01  .548E+01  .548E+01  .000E+00  .000E+00  .000E+00  .000E+00  .000E+00
  .000E+00  .000E+00  .000E+00  .000E+00
  .533E+01  .534E+01  .613E+01  .614E+01  .572E+01  .583E+01  .587E+01  .588E+01
  .534E+01  .534E+01  .535E+01  .563E+01  .573E+01  .588E+01  .594E+01  .595E+01
  .596E+01  .615E+01  .616E+01  .543E+01  .581E+01  .582E+01  .775E+01  .777E+01
  .707E+01  .709E+01  .583E+01  .599E+01  .576E+01  .578E+01  .579E+01  .567E+01
  .569E+01  .570E+01  .570E+01  .571E+01  .557E+01  .557E+01  .541E+01  .541E+01
  .542E+01  .544E+01  .531E+01  .571E+01  .571E+01  .571E+01  .571E+01  .571E+01
  .571E+01  .571E+01  .571E+01  .557E+01  .557E+01  .557E+01  .557E+01  .557E+01
  .557E+01  .557E+01  .557E+01  .557E+01  .557E+01  .557E+01  .557E+01  .557E+01
  .557E+01  .557E+01  .557E+01  .557E+01  .557E+01  .557E+01  .557E+01  .557E+01
  .557E+01  .557E+01  .557E+01  .557E+01  .557E+01  .557E+01  .557E+01  .557E+01
  .557E+01  .557E+01  .557E+01  .557E+01  .557E+01  .557E+01  .557E+01  .557E+01
  .557E+01  .557E+01  .557E+01  .000E+00  .000E+00  .000E+00  .000E+00  .000E+00
  .000E+00  .000E+00  .000E+00  .000E+00
  .535E+01  .535E+01  .535E+01  .566E+01  .566E+01  .566E+01  .567E+01  .535E+01
  .536E+01  .536E+01  .536E+01  .562E+01  .575E+01  .591E+01  .591E+01  .592E+01
  .599E+01  .618E+01  .619E+01  .539E+01  .549E+01  .549E+01  .549E+01  .550E+01
  .712E+01  .551E+01  .578E+01  .580E+01  .595E+01  .571E+01  .572E+01  .574E+01
  .575E+01  .576E+01  .562E+01  .563E+01  .564E+01  .533E+01  .534E+01  .534E+01
  .534E+01  .535E+01  .536E+01  .618E+01  .622E+01  .624E+01  .670E+01  .597E+01
  .598E+01  .601E+01  .605E+01  .563E+01  .564E+01  .564E+01  .564E+01  .565E+01
  .116E+02  .117E+02  .937E+01  .864E+01  .865E+01  .520E+01  .520E+01  .520E+01
  .518E+01  .517E+01  .517E+01  .545E+01  .545E+01  .545E+01  .545E+01  .545E+01
  .545E+01  .545E+01  .545E+01  .545E+01  .545E+01  .545E+01  .545E+01  .558E+01
  .558E+01  .558E+01  .558E+01  .558E+01  .558E+01  .558E+01  .558E+01  .558E+01
  .558E+01  .558E+01  .558E+01  .000E+00  .000E+00  .000E+00  .000E+00  .000E+00
  .000E+00  .000E+00  .000E+00  .000E+00
/&   ----------  End of spectral data for channel  1  ----------
Response and Fourier amplitude spectra (91 periods,  .04 - 15.0 sec)   for      
Corrected accelerogram   24401-K0651-01252.08       Chan  2:  Up         from   
Uncorrected Accelerogram Data             Processed: 09/10/01, CDMG  401ds008   
Record of Sun Sep  9, 2001 16:59:21 PDT               (Avol1 v4.6  7/01 CSMIP)  
CSMIP Preliminary Processing            (Origin:  To be determined)             
24401-K0651-01252.08                 Start time:  9/09/01, 23:59:21.0 UTC (GPS) 
Station No. 24401   34.115N, 118.130W        K2  s/n  651  (3 Channels)         
San Marino - Southwestern Academy                                               
Chan  2:  Up                                                                    
Record of Sun Sep  9, 2001 16:59:21 PDT    Sun Sep  9, 2001 16:59:21 PDT        
Hypocenter:  To be determined.               ML:  To be determined.             
Instr Period =  .0108 sec,  Damping =  .660,  Sensitivity =  .63  v/g           
                        Record length = 37.000 sec.                             
                                     Uncor Max  =   .005 g, at   6.295 sec.     
RMS accel of (uncor) record  =        .                                         
Accelerogram bandpass filtered with 3 dB pts at   .30 and 40.00 cyc/sec         
                 instrument- and baseline-corrected                             
                                                                                
                                                                                
                                                                                
                                                                                
                                                                                
Record of Sun Sep  9, 2001 16:59:21 PDT    Sun Sep  9, 2001 16:59:21 PDT        
                                                                                
24401-K0651-01252.08      San Marino - Southwestern Academy   Chan  2:  Up      
                                                                                
24401-K0651-01252.08      San Marino - Southwestern Academy   Chan  2:  Up      
                                                                                
Units for spectra are inches and sec, except Sa is in fraction of g.            
                                                                                
    2  100    2    3    3  200    1    3    1   24   11  651    024401    1    0
   23   59   21    0  252    9    9 2001   10    3  500 7400   39   33   72  360
 7400    1   50    3  651    1    8  370    1    0    0    0    0    0    0    0
    0    4    0    0 3700    2    0    0    0    0   72   33    0    0    0 3700
    0 3700   34   91    1    3    0    0    0    0    3    0    0    0    0    2
    2    2    4    0   32   99    0   32   32    0    0    1    0    0    0    0
  -99   -1    0    0
      .011      .660    37.000      .001      .000   625.000      .005     6.295
    92.700      .298      .477      .000     5.000      .000      .000      .000
     2.500   -11.137     -.004     -.010     5.000    30.000      .000     -.019
      .000      .019     2.000    15.000    34.115  -118.130      .545      .117
      .215     -.051      .090  -999.000      .000      .000   -13.200      .000
  1000.000     1.081      .000      .000      .000      .000      .000      .000
     4.600     4.400      .000   980.665      .010    37.000    14.754      .000
      .000    40.000      .000    37.000      .010      .300      .000      .000
     6.290     4.942     6.580     -.147     6.470      .009      .000      .300
    40.000      .010      .010      .000      .010      .006      .000      .000
      .015      .120      .011      .011      .001      .000      .000      .000
      .000      .000      .000      .000      .000      .000      .000      .000
      .000      .000      .000      .000
      .050
      .040      .042      .044      .046      .048      .050      .055      .060
      .065      .070      .075      .080      .085      .090      .095      .100
      .110      .120      .130      .140      .150      .160      .170      .180
      .190      .200      .220      .240      .260      .280      .300      .320
      .340      .360      .380      .400      .420      .440      .460      .480
      .500      .550      .600      .650      .700      .750      .800      .850
      .900      .950     1.000     1.100     1.200     1.300     1.400     1.500
     1.600     1.700     1.800     1.900     2.000     2.200     2.400     2.600
     2.800     3.000     3.200     3.400     3.600     3.800     4.000     4.200
     4.400     4.600     4.800     5.000     5.500     6.000     6.500     7.000
     7.500     8.000     8.500     9.000     9.500    10.000    11.000    12.000
    13.000    14.000    15.000      .000      .000      .000      .000      .000
      .000      .000      .000      .000
Fourier amplitude spectra in in/sec.
  .000E+00  .000E+00  .000E+00  .000E+00  .000E+00  .000E+00  .000E+00  .000E+00
  .000E+00  .000E+00  .000E+00  .000E+00  .000E+00  .000E+00  .000E+00  .000E+00
  .000E+00  .000E+00  .000E+00  .000E+00  .000E+00  .000E+00  .000E+00  .000E+00
  .000E+00  .000E+00  .000E+00  .000E+00  .000E+00  .000E+00  .000E+00  .000E+00
  .000E+00  .000E+00  .000E+00  .000E+00  .000E+00  .000E+00  .000E+00  .000E+00
  .000E+00  .000E+00  .000E+00  .000E+00  .000E+00  .000E+00  .000E+00  .000E+00
  .000E+00  .000E+00  .000E+00  .000E+00  .000E+00  .000E+00  .000E+00  .000E+00
  .000E+00  .000E+00  .000E+00  .000E+00  .000E+00  .000E+00  .000E+00  .000E+00
  .000E+00  .000E+00  .000E+00  .000E+00  .000E+00  .000E+00  .000E+00  .000E+00
  .000E+00  .000E+00  .000E+00  .000E+00  .000E+00  .000E+00  .000E+00  .000E+00
  .000E+00  .000E+00  .000E+00  .000E+00  .000E+00  .000E+00  .000E+00  .000E+00
  .000E+00  .000E+00  .000E+00  .000E+00  .000E+00  .000E+00  .000E+00  .000E+00
  .000E+00  .000E+00  .000E+00  .000E+00
Damping =  .05. Data of Sd,Sv,Sa,Pssv,ttSd,ttSv,ttSa :
  .159E-03  .200E-03  .238E-03  .264E-03  .313E-03  .354E-03  .394E-03  .507E-03
  .519E-03  .543E-03  .672E-03  .953E-03  .104E-02  .105E-02  .979E-03  .115E-02
  .181E-02  .217E-02  .188E-02  .164E-02  .164E-02  .215E-02  .311E-02  .434E-02
  .414E-02  .402E-02  .529E-02  .660E-02  .737E-02  .890E-02  .110E-01  .868E-02
  .932E-02  .955E-02  .921E-02  .976E-02  .744E-02  .791E-02  .809E-02  .740E-02
