Response and Fourier amplitude spectra (91 periods,  .04 - 15.0 sec)   for      
Corrected accelerogram   24655-F0219-01252.02       Chan  2:  Up         from   
Uncorrected Accelerogram Data             Processed: 09/10/01, CDMG  s655e02    
Earthquake of Sun Sep  9, 2001  16:59 PDT             (Avol1 v4.6  7/01 CSMIP)  
CSMIP Preliminary Processing            (Origin:  To be determined)             
24655-F0219-01252.02                 Start time:  9/09/01, 23:59:15.6 GMT (WWVB)
Station No. 24655   34.021N, 118.289W     SSA-2  s/n  219  (3 Channels)         
Los Angeles - 6-story Parking Structure                                         
Chan  2:  Up                        Location: 1st Floor: E End of N Shear Wall  
Earthquake of Sun Sep  9, 2001  16:59 PDT    Sun Sep  9, 2001  16:59 PDT        
Hypocenter:  To be determined.               ML:  To be determined.
Instr Period =  .0222 sec,  Damping =  .700,  Sensitivity = 1.25  v/g
                        Record length = 67.840 sec.
                                     Uncor Max  =  -.049 g, at   5.175 sec.
RMS accel of (uncor) record  =        .
Accelerogram bandpass filtered with 3 dB pts at   .30 and 40.00 cyc/sec
                 instrument- and baseline-corrected





Earthquake of Sun Sep  9, 2001  16:59 PDT    Sun Sep  9, 2001  16:59 PDT

24655-F0219-01252.02      Los Angeles - 6-story Parking Structure   Chan  2:  Up

24655-F0219-01252.02      Los Angeles - 6-story Parking Structure   Chan  2:  Up

Units for spectra are inches and sec, except Sa is in fraction of g.

    2  100    2    3    3  200    1    3    1   12    6  219    024655    2    0
   23   59   15  605  252    9    9 2001   10    1  50013568   41   39   72   30
13568    1   50    0 3103    1    2   53    0   23   59   11  870    9    9 2001
    0    0    0    0 6784    2    0    0    0    0   72   39    0    0    0 6784
    0 6784   40   91    1    3    0    0    0    0   14    0    0    0    0    2
    2    2    4    0   80   99    1   32   32    0    0    0   16    0    9  129
  -99   -1    0    0
      .022      .700    67.840      .003      .000  1250.000     -.049     5.175
    45.000  1220.703   976.563      .000     5.000      .000      .000      .000
     2.500   -14.612      .043     -.063     5.120    30.000      .000      .036
      .039      .003     2.000    15.000    34.021  -118.289      .000      .050
  1000.000      .000      .005  -999.000      .000      .000      .000      .000
     3.074    -1.006      .000      .000      .000      .000      .000      .000
     4.600     4.400      .000   980.665      .010    67.840     7.162      .000
      .000    40.000      .000    67.840      .010      .300      .000      .000
     5.170   -48.430     8.420     1.335     8.260     -.078      .001      .300
    40.000      .010      .010      .000      .010      .035      .000      .000
      .156      .100      .074      .075      .005      .001      .000      .000
      .000      .000      .000      .000      .000      .000      .000      .000
      .000      .000      .000      .000
      .050
      .040      .042      .044      .046      .048      .050      .055      .060
      .065      .070      .075      .080      .085      .090      .095      .100
      .110      .120      .130      .140      .150      .160      .170      .180
      .190      .200      .220      .240      .260      .280      .300      .320
      .340      .360      .380      .400      .420      .440      .460      .480
      .500      .550      .600      .650      .700      .750      .800      .850
      .900      .950     1.000     1.100     1.200     1.300     1.400     1.500
     1.600     1.700     1.800     1.900     2.000     2.200     2.400     2.600
     2.800     3.000     3.200     3.400     3.600     3.800     4.000     4.200
     4.400     4.600     4.800     5.000     5.500     6.000     6.500     7.000
     7.500     8.000     8.500     9.000     9.500    10.000    11.000    12.000
    13.000    14.000    15.000      .000      .000      .000      .000      .000
      .000      .000      .000      .000
Fourier amplitude spectra in in/sec.
  .000E+00  .000E+00  .000E+00  .000E+00  .000E+00  .000E+00  .000E+00  .000E+00
  .000E+00  .000E+00  .000E+00  .000E+00  .000E+00  .000E+00  .000E+00  .000E+00
  .000E+00  .000E+00  .000E+00  .000E+00  .000E+00  .000E+00  .000E+00  .000E+00
  .000E+00  .000E+00  .000E+00  .000E+00  .000E+00  .000E+00  .000E+00  .000E+00
  .000E+00  .000E+00  .000E+00  .000E+00  .000E+00  .000E+00  .000E+00  .000E+00
  .000E+00  .000E+00  .000E+00  .000E+00  .000E+00  .000E+00  .000E+00  .000E+00
  .000E+00  .000E+00  .000E+00  .000E+00  .000E+00  .000E+00  .000E+00  .000E+00
  .000E+00  .000E+00  .000E+00  .000E+00  .000E+00  .000E+00  .000E+00  .000E+00
  .000E+00  .000E+00  .000E+00  .000E+00  .000E+00  .000E+00  .000E+00  .000E+00
  .000E+00  .000E+00  .000E+00  .000E+00  .000E+00  .000E+00  .000E+00  .000E+00
  .000E+00  .000E+00  .000E+00  .000E+00  .000E+00  .000E+00  .000E+00  .000E+00
  .000E+00  .000E+00  .000E+00  .000E+00  .000E+00  .000E+00  .000E+00  .000E+00
  .000E+00  .000E+00  .000E+00  .000E+00
Damping =  .05. Data of Sd,Sv,Sa,Pssv,ttSd,ttSv,ttSa :
  .927E-03  .103E-02  .115E-02  .131E-02  .151E-02  .173E-02  .210E-02  .258E-02
  .335E-02  .335E-02  .395E-02  .553E-02  .725E-02  .106E-01  .137E-01  .154E-01
  .154E-01  .122E-01  .138E-01  .207E-01  .275E-01  .281E-01  .256E-01  .210E-01
  .247E-01  .287E-01  .358E-01  .424E-01  .526E-01  .607E-01  .660E-01  .691E-01
  .698E-01  .838E-01  .970E-01  .101E+00  .123E+00  .130E+00  .132E+00  .137E+00
  .130E+00  .115E+00  .104E+00  .848E-01  .816E-01  .729E-01  .595E-01  .568E-01
  .574E-01  .543E-01  .503E-01  .518E-01  .573E-01  .547E-01  .468E-01  .440E-01
  .424E-01  .406E-01  .392E-01  .382E-01  .376E-01  .369E-01  .364E-01  .362E-01
  .367E-01  .379E-01  .393E-01  .405E-01  .411E-01  .412E-01  .410E-01  .405E-01
  .399E-01  .392E-01  .387E-01  .382E-01  .373E-01  .367E-01  .362E-01  .358E-01
  .353E-01  .349E-01  .345E-01  .341E-01  .337E-01  .334E-01  .330E-01  .328E-01
  .326E-01  .326E-01  .326E-01  .000E+00  .000E+00  .000E+00  .000E+00  .000E+00
  .000E+00  .000E+00  .000E+00  .000E+00
  .668E-01  .764E-01  .966E-01  .125E+00  .140E+00  .131E+00  .153E+00  .257E+00
  .259E+00  .259E+00  .273E+00  .318E+00  .454E+00  .637E+00  .785E+00  .877E+00
  .805E+00  .657E+00  .578E+00  .792E+00  .104E+01  .103E+01  .888E+00  .694E+00
  .768E+00  .828E+00  .857E+00  .988E+00  .119E+01  .126E+01  .141E+01  .142E+01
  .137E+01  .139E+01  .149E+01  .153E+01  .187E+01  .190E+01  .188E+01  .194E+01
  .179E+01  .136E+01  .126E+01  .111E+01  .106E+01  .901E+00  .771E+00  .743E+00
  .717E+00  .678E+00  .650E+00  .635E+00  .636E+00  .661E+00  .653E+00  .629E+00
  .607E+00  .591E+00  .580E+00  .573E+00  .568E+00  .560E+00  .554E+00  .551E+00
  .549E+00  .548E+00  .546E+00  .542E+00  .539E+00  .535E+00  .531E+00  .529E+00
  .527E+00  .525E+00  .524E+00  .523E+00  .522E+00  .521E+00  .520E+00  .520E+00
  .519E+00  .519E+00  .519E+00  .519E+00  .519E+00  .519E+00  .519E+00  .519E+00
  .519E+00  .519E+00  .519E+00  .000E+00  .000E+00  .000E+00  .000E+00  .000E+00
  .000E+00  .000E+00  .000E+00  .000E+00
  .595E-01  .600E-01  .607E-01  .637E-01  .674E-01  .718E-01  .712E-01  .741E-01
  .816E-01  .707E-01  .725E-01  .886E-01  .102E+00  .134E+00  .155E+00  .156E+00
  .131E+00  .881E-01  .850E-01  .107E+00  .126E+00  .114E+00  .914E-01  .671E-01
  .702E-01  .737E-01  .766E-01  .763E-01  .796E-01  .796E-01  .756E-01  .690E-01
  .623E-01  .665E-01  .693E-01  .648E-01  .715E-01  .689E-01  .641E-01  .611E-01
  .534E-01  .394E-01  .297E-01  .207E-01  .172E-01  .134E-01  .969E-02  .821E-02
  .741E-02  .633E-02  .531E-02  .452E-02  .422E-02  .345E-02  .258E-02  .207E-02
  .177E-02  .150E-02  .130E-02  .115E-02  .103E-02  .848E-03  .717E-03  .620E-03
  .554E-03  .507E-03  .470E-03  .437E-03  .404E-03  .372E-03  .342E-03  .314E-03
  .290E-03  .268E-03  .249E-03  .233E-03  .202E-03  .178E-03  .159E-03  .144E-03
  .131E-03  .120E-03  .111E-03  .103E-03  .957E-04  .897E-04  .803E-04  .736E-04
  .678E-04  .628E-04  .585E-04  .000E+00  .000E+00  .000E+00  .000E+00  .000E+00
  .000E+00  .000E+00  .000E+00  .000E+00
  .146E+00  .154E+00  .164E+00  .178E+00  .198E+00  .218E+00  .239E+00  .270E+00
  .324E+00  .300E+00  .331E+00  .434E+00  .536E+00  .739E+00  .903E+00  .966E+00
  .878E+00  .637E+00  .669E+00  .928E+00  .115E+01  .111E+01  .945E+00  .732E+00
  .815E+00  .901E+00  .102E+01  .111E+01  .127E+01  .136E+01  .138E+01  .136E+01
  .129E+01  .146E+01  .160E+01  .159E+01  .184E+01  .185E+01  .180E+01  .179E+01
  .163E+01  .132E+01  .108E+01  .820E+00  .733E+00  .610E+00  .467E+00  .420E+00
  .401E+00  .359E+00  .316E+00  .296E+00  .300E+00  .264E+00  .210E+00  .184E+00
  .167E+00  .150E+00  .137E+00  .126E+00  .118E+00  .105E+00  .954E-01  .875E-01
  .823E-01  .793E-01  .771E-01  .748E-01  .718E-01  .682E-01  .644E-01  .605E-01
  .569E-01  .536E-01  .506E-01  .480E-01  .426E-01  .384E-01  .350E-01  .321E-01
  .296E-01  .274E-01  .255E-01  .238E-01  .223E-01  .210E-01  .189E-01  .172E-01
  .158E-01  .146E-01  .137E-01  .000E+00  .000E+00  .000E+00  .000E+00  .000E+00
  .000E+00  .000E+00  .000E+00  .000E+00
  .517E+01  .517E+01  .517E+01  .546E+01  .531E+01  .530E+01  .532E+01  .591E+01
  .540E+01  .545E+01  .530E+01  .531E+01  .532E+01  .546E+01  .547E+01  .548E+01
  .549E+01  .535E+01  .893E+01  .894E+01  .895E+01  .896E+01  .898E+01  .898E+01
  .852E+01  .853E+01  .534E+01  .535E+01  .551E+01  .553E+01  .554E+01  .556E+01
  .575E+01  .875E+01  .877E+01  .920E+01  .902E+01  .905E+01  .906E+01  .909E+01
  .889E+01  .892E+01  .869E+01  .870E+01  .848E+01  .849E+01  .849E+01  .849E+01
  .849E+01  .849E+01  .849E+01  .849E+01  .850E+01  .850E+01  .850E+01  .824E+01
  .824E+01  .825E+01  .825E+01  .825E+01  .825E+01  .825E+01  .825E+01  .825E+01
  .825E+01  .825E+01  .825E+01  .825E+01  .825E+01  .825E+01  .825E+01  .825E+01
  .825E+01  .825E+01  .825E+01  .825E+01  .825E+01  .825E+01  .825E+01  .825E+01
  .825E+01  .825E+01  .825E+01  .825E+01  .825E+01  .825E+01  .825E+01  .825E+01
  .825E+01  .825E+01  .825E+01  .000E+00  .000E+00  .000E+00  .000E+00  .000E+00
  .000E+00  .000E+00  .000E+00  .000E+00
  .519E+01  .519E+01  .538E+01  .538E+01  .539E+01  .541E+01  .522E+01  .593E+01
  .542E+01  .543E+01  .574E+01  .528E+01  .543E+01  .544E+01  .545E+01  .550E+01
  .552E+01  .537E+01  .522E+01  .897E+01  .899E+01  .893E+01  .894E+01  .894E+01
  .537E+01  .537E+01  .895E+01  .555E+01  .557E+01  .547E+01  .578E+01  .579E+01
  .549E+01  .882E+01  .908E+01  .910E+01  .913E+01  .915E+01  .896E+01  .897E+01
  .899E+01  .903E+01  .860E+01  .861E+01  .861E+01  .862E+01  .862E+01  .862E+01
  .862E+01  .841E+01  .841E+01  .862E+01  .841E+01  .841E+01  .841E+01  .841E+01
  .841E+01  .841E+01  .841E+01  .841E+01  .841E+01  .841E+01  .841E+01  .841E+01
  .841E+01  .841E+01  .841E+01  .842E+01  .842E+01  .842E+01  .842E+01  .842E+01
  .842E+01  .842E+01  .842E+01  .842E+01  .842E+01  .842E+01  .842E+01  .842E+01
  .842E+01  .842E+01  .842E+01  .842E+01  .842E+01  .842E+01  .842E+01  .842E+01
  .842E+01  .842E+01  .842E+01  .000E+00  .000E+00  .000E+00  .000E+00  .000E+00
  .000E+00  .000E+00  .000E+00  .000E+00
  .517E+01  .517E+01  .517E+01  .546E+01  .530E+01  .530E+01  .532E+01  .594E+01
  .540E+01  .545E+01  .530E+01  .530E+01  .532E+01  .546E+01  .547E+01  .547E+01
  .549E+01  .534E+01  .893E+01  .894E+01  .895E+01  .896E+01  .897E+01  .898E+01
  .852E+01  .853E+01  .534E+01  .535E+01  .551E+01  .552E+01  .554E+01  .555E+01
  .574E+01  .875E+01  .877E+01  .920E+01  .902E+01  .904E+01  .906E+01  .908E+01
  .888E+01  .891E+01  .868E+01  .869E+01  .847E+01  .848E+01  .848E+01  .848E+01
  .848E+01  .848E+01  .848E+01  .848E+01  .848E+01  .848E+01  .848E+01  .822E+01
  .822E+01  .822E+01  .822E+01  .821E+01  .821E+01  .820E+01  .820E+01  .819E+01
  .819E+01  .819E+01  .818E+01  .818E+01  .818E+01  .818E+01  .818E+01  .818E+01
  .818E+01  .818E+01  .818E+01  .817E+01  .817E+01  .817E+01  .817E+01  .817E+01
  .817E+01  .817E+01  .817E+01  .817E+01  .817E+01  .817E+01  .842E+01  .842E+01
  .842E+01  .842E+01  .842E+01  .000E+00  .000E+00  .000E+00  .000E+00  .000E+00
  .000E+00  .000E+00  .000E+00  .000E+00
/&   ----------  End of spectral data for channel  2  ----------
