Response and Fourier amplitude spectra (91 periods,  .04 - 15.0 sec)   for      
Corrected accelerogram   24694-F1363-01252.02       Chan  3: 360 Deg     from   
Uncorrected Accelerogram Data             Processed: 09/10/01, CDMG  s694e02    
Earthquake of Sun Sep  9, 2001  16:59 PDT             (Avol1 v4.6  7/01 CSMIP)  
CSMIP Preliminary Processing            (Origin:  To be determined)             
24694-F1363-01252.02                 Start time:  9/09/01, 23:59 GMT (*LoQ*)    
Station No. 24694   34.334N, 118.504W     SSA-2  s/n 1363  (3 Channels)         
Sylmar - I5/14 Interchange Bridge                                               
Chan  3: 360 Deg  (Sta Chn: 42)     Location: Freefield near Abutment 1         
Earthquake of Sun Sep  9, 2001  16:59 PDT    Sun Sep  9, 2001  16:59 PDT        
Hypocenter:  To be determined.               ML:  To be determined.
Instr Period =  .0222 sec,  Damping =  .700,  Sensitivity = 1.25  v/g
                        Record length = 37.120 sec.
                                     Uncor Max  =  -.004 g, at   7.185 sec.
RMS accel of (uncor) record  =        .
Accelerogram bandpass filtered with 3 dB pts at   .30 and 40.00 cyc/sec
                 instrument- and baseline-corrected





Earthquake of Sun Sep  9, 2001  16:59 PDT    Sun Sep  9, 2001  16:59 PDT

24694-F1363-01252.02      Sylmar - I5/14 Interchange Bridge   Chan  3: 360 Deg

24694-F1363-01252.02      Sylmar - I5/14 Interchange Bridge   Chan  3: 360 Deg

Units for spectra are inches and sec, except Sa is in fraction of g.

    3  100   42    3    3  200    1    3    1   12    6 1363    024694    3    0
   23   59   15   20  252    9    9 2001    0    2  360 7424   41   33   72   -1
 7424    1   50    0 4103    1    2   29    1   23   59   15   20    9    9 2001
    0    0    0    0 3712    2    0    0    0    0   72   33    0    0    0 3712
    0 3712   34   91    1    3    0    0    0    0   42    0    0    0    0    2
    2    2    4    1   66   99    4   32   32    0    0    0    0    0   12  128
  -99   -1    0    0
      .022      .700    37.120      .001      .000  1250.000     -.004     7.185
    45.000  1220.703   976.563      .000     5.000      .000      .000      .000
     2.500     -.177      .005     -.004     5.120    30.000      .000     -.062
     -.027      .035     2.000    15.000    34.334  -118.504      .315      .378
     1.202     -.009      .080  -999.000      .000      .000      .000      .000
      .715     1.052      .000      .000      .000      .000      .000      .000
     4.600     4.400      .000   980.665      .010    37.120     7.162      .000
      .000    40.000      .000    37.120      .010      .300      .000      .000
     7.180    -3.445     8.330     -.240     8.220      .029      .000      .300
    40.000      .010      .010      .000      .010      .014      .000      .000
      .012      .280      .007      .011      .002      .000      .000      .000
      .000      .000      .000      .000      .000      .000      .000      .000
      .000      .000      .000      .000
      .050
      .040      .042      .044      .046      .048      .050      .055      .060
      .065      .070      .075      .080      .085      .090      .095      .100
      .110      .120      .130      .140      .150      .160      .170      .180
      .190      .200      .220      .240      .260      .280      .300      .320
      .340      .360      .380      .400      .420      .440      .460      .480
      .500      .550      .600      .650      .700      .750      .800      .850
      .900      .950     1.000     1.100     1.200     1.300     1.400     1.500
     1.600     1.700     1.800     1.900     2.000     2.200     2.400     2.600
     2.800     3.000     3.200     3.400     3.600     3.800     4.000     4.200
     4.400     4.600     4.800     5.000     5.500     6.000     6.500     7.000
     7.500     8.000     8.500     9.000     9.500    10.000    11.000    12.000
    13.000    14.000    15.000      .000      .000      .000      .000      .000
      .000      .000      .000      .000
Fourier amplitude spectra in in/sec.
  .000E+00  .000E+00  .000E+00  .000E+00  .000E+00  .000E+00  .000E+00  .000E+00
  .000E+00  .000E+00  .000E+00  .000E+00  .000E+00  .000E+00  .000E+00  .000E+00
  .000E+00  .000E+00  .000E+00  .000E+00  .000E+00  .000E+00  .000E+00  .000E+00
  .000E+00  .000E+00  .000E+00  .000E+00  .000E+00  .000E+00  .000E+00  .000E+00
  .000E+00  .000E+00  .000E+00  .000E+00  .000E+00  .000E+00  .000E+00  .000E+00
  .000E+00  .000E+00  .000E+00  .000E+00  .000E+00  .000E+00  .000E+00  .000E+00
  .000E+00  .000E+00  .000E+00  .000E+00  .000E+00  .000E+00  .000E+00  .000E+00
  .000E+00  .000E+00  .000E+00  .000E+00  .000E+00  .000E+00  .000E+00  .000E+00
  .000E+00  .000E+00  .000E+00  .000E+00  .000E+00  .000E+00  .000E+00  .000E+00
  .000E+00  .000E+00  .000E+00  .000E+00  .000E+00  .000E+00  .000E+00  .000E+00
  .000E+00  .000E+00  .000E+00  .000E+00  .000E+00  .000E+00  .000E+00  .000E+00
  .000E+00  .000E+00  .000E+00  .000E+00  .000E+00  .000E+00  .000E+00  .000E+00
  .000E+00  .000E+00  .000E+00  .000E+00
Damping =  .05. Data of Sd,Sv,Sa,Pssv,ttSd,ttSv,ttSa :
  .771E-04  .882E-04  .966E-04  .101E-03  .110E-03  .112E-03  .135E-03  .170E-03
  .184E-03  .201E-03  .252E-03  .299E-03  .336E-03  .325E-03  .408E-03  .486E-03
  .617E-03  .854E-03  .105E-02  .108E-02  .151E-02  .188E-02  .156E-02  .162E-02
  .197E-02  .234E-02  .414E-02  .589E-02  .770E-02  .914E-02  .104E-01  .106E-01
  .128E-01  .137E-01  .140E-01  .160E-01  .171E-01  .207E-01  .215E-01  .250E-01
  .281E-01  .218E-01  .221E-01  .215E-01  .185E-01  .237E-01  .307E-01  .276E-01
  .236E-01  .173E-01  .172E-01  .192E-01  .232E-01  .363E-01  .429E-01  .378E-01
  .341E-01  .423E-01  .400E-01  .367E-01  .336E-01  .282E-01  .280E-01  .314E-01
  .272E-01  .261E-01  .244E-01  .258E-01  .268E-01  .250E-01  .235E-01  .232E-01
  .212E-01  .183E-01  .155E-01  .147E-01  .158E-01  .166E-01  .181E-01  .184E-01
  .167E-01  .146E-01  .135E-01  .136E-01  .135E-01  .134E-01  .131E-01  .128E-01
  .125E-01  .124E-01  .129E-01  .000E+00  .000E+00  .000E+00  .000E+00  .000E+00
  .000E+00  .000E+00  .000E+00  .000E+00
  .497E-02  .587E-02  .597E-02  .574E-02  .571E-02  .563E-02  .756E-02  .841E-02
  .836E-02  .857E-02  .949E-02  .118E-01  .134E-01  .134E-01  .146E-01  .180E-01
  .198E-01  .255E-01  .327E-01  .358E-01  .512E-01  .609E-01  .446E-01  .460E-01
  .550E-01  .683E-01  .101E+00  .141E+00  .163E+00  .192E+00  .208E+00  .204E+00
  .235E+00  .243E+00  .243E+00  .248E+00  .260E+00  .305E+00  .317E+00  .334E+00
  .355E+00  .272E+00  .224E+00  .198E+00  .202E+00  .226E+00  .270E+00  .259E+00
  .200E+00  .160E+00  .131E+00  .127E+00  .142E+00  .192E+00  .198E+00  .176E+00
  .157E+00  .197E+00  .186E+00  .175E+00  .150E+00  .114E+00  .106E+00  .110E+00
  .110E+00  .106E+00  .101E+00  .970E-01  .946E-01  .935E-01  .933E-01  .936E-01
  .943E-01  .951E-01  .960E-01  .967E-01  .981E-01  .987E-01  .987E-01  .983E-01
  .978E-01  .973E-01  .968E-01  .964E-01  .960E-01  .958E-01  .954E-01  .952E-01
  .951E-01  .950E-01  .950E-01  .000E+00  .000E+00  .000E+00  .000E+00  .000E+00
  .000E+00  .000E+00  .000E+00  .000E+00
  .496E-02  .512E-02  .513E-02  .487E-02  .491E-02  .460E-02  .458E-02  .482E-02
  .445E-02  .419E-02  .459E-02  .477E-02  .477E-02  .412E-02  .462E-02  .502E-02
  .521E-02  .608E-02  .634E-02  .559E-02  .687E-02  .760E-02  .550E-02  .514E-02
  .564E-02  .598E-02  .879E-02  .106E-01  .117E-01  .120E-01  .118E-01  .106E-01
  .114E-01  .109E-01  .100E-01  .103E-01  .994E-02  .110E-01  .104E-01  .112E-01
  .116E-01  .739E-02  .632E-02  .523E-02  .388E-02  .434E-02  .495E-02  .393E-02
  .300E-02  .198E-02  .176E-02  .164E-02  .166E-02  .221E-02  .225E-02  .173E-02
  .137E-02  .151E-02  .127E-02  .105E-02  .866E-03  .603E-03  .501E-03  .480E-03
  .358E-03  .302E-03  .250E-03  .232E-03  .216E-03  .181E-03  .153E-03  .138E-03
  .116E-03  .924E-04  .748E-04  .648E-04  .572E-04  .509E-04  .477E-04  .423E-04
  .342E-04  .286E-04  .262E-04  .240E-04  .220E-04  .202E-04  .172E-04  .149E-04
  .130E-04  .116E-04  .104E-04  .000E+00  .000E+00  .000E+00  .000E+00  .000E+00
  .000E+00  .000E+00  .000E+00  .000E+00
  .121E-01  .132E-01  .138E-01  .138E-01  .144E-01  .141E-01  .154E-01  .178E-01
  .178E-01  .181E-01  .211E-01  .235E-01  .248E-01  .227E-01  .270E-01  .305E-01
  .352E-01  .447E-01  .509E-01  .484E-01  .631E-01  .739E-01  .576E-01  .567E-01
  .652E-01  .734E-01  .118E+00  .154E+00  .186E+00  .205E+00  .218E+00  .208E+00
  .237E+00  .240E+00  .232E+00  .251E+00  .256E+00  .295E+00  .294E+00  .328E+00
  .354E+00  .248E+00  .232E+00  .208E+00  .166E+00  .199E+00  .241E+00  .204E+00
  .165E+00  .114E+00  .108E+00  .110E+00  .121E+00  .176E+00  .193E+00  .158E+00
  .134E+00  .156E+00  .140E+00  .121E+00  .105E+00  .806E-01  .733E-01  .758E-01
  .611E-01  .548E-01  .478E-01  .476E-01  .467E-01  .413E-01  .370E-01  .347E-01
  .303E-01  .250E-01  .203E-01  .184E-01  .180E-01  .173E-01  .175E-01  .166E-01
  .140E-01  .114E-01  .100E-01  .947E-02  .894E-02  .843E-02  .749E-02  .669E-02
  .602E-02  .556E-02  .541E-02  .000E+00  .000E+00  .000E+00  .000E+00  .000E+00
  .000E+00  .000E+00  .000E+00  .000E+00
  .402E+01  .821E+01  .821E+01  .821E+01  .821E+01  .403E+01  .822E+01  .822E+01
  .822E+01  .822E+01  .822E+01  .823E+01  .823E+01  .824E+01  .715E+01  .715E+01
  .717E+01  .718E+01  .671E+01  .672E+01  .719E+01  .730E+01  .732E+01  .875E+01
  .447E+01  .460E+01  .732E+01  .734E+01  .843E+01  .891E+01  .895E+01  .897E+01
  .933E+01  .901E+01  .904E+01  .742E+01  .474E+01  .745E+01  .727E+01  .852E+01
  .855E+01  .837E+01  .176E+02  .177E+02  .214E+02  .713E+01  .840E+01  .688E+01
  .693E+01  .695E+01  .184E+02  .250E+02  .251E+02  .251E+02  .247E+02  .248E+02
  .248E+02  .242E+02  .228E+02  .229E+02  .212E+02  .176E+02  .310E+02  .289E+02
  .280E+02  .243E+02  .171E+02  .207E+02  .207E+02  .269E+02  .160E+02  .160E+02
  .160E+02  .160E+02  .147E+02  .273E+02  .243E+02  .243E+02  .243E+02  .243E+02
  .243E+02  .243E+02  .821E+01  .821E+01  .821E+01  .821E+01  .821E+01  .821E+01
  .821E+01  .243E+02  .243E+02  .000E+00  .000E+00  .000E+00  .000E+00  .000E+00
  .000E+00  .000E+00  .000E+00  .000E+00
  .348E+02  .820E+01  .820E+01  .187E+02  .820E+01  .383E+01  .387E+01  .830E+01
  .830E+01  .901E+01  .396E+01  .397E+01  .487E+01  .488E+01  .594E+01  .452E+01
  .453E+01  .722E+01  .674E+01  .597E+01  .724E+01  .726E+01  .658E+01  .441E+01
  .453E+01  .454E+01  .725E+01  .765E+01  .836E+01  .884E+01  .903E+01  .905E+01
  .941E+01  .927E+01  .895E+01  .482E+01  .484E+01  .735E+01  .738E+01  .863E+01
  .843E+01  .849E+01  .850E+01  .179E+02  .723E+01  .725E+01  .899E+01  .831E+01
  .676E+01  .677E+01  .677E+01  .965E+01  .879E+01  .249E+02  .250E+02  .245E+02
  .245E+02  .245E+02  .832E+01  .832E+01  .832E+01  .173E+02  .832E+01  .832E+01
  .832E+01  .832E+01  .832E+01  .832E+01  .832E+01  .832E+01  .832E+01  .832E+01
  .832E+01  .832E+01  .832E+01  .832E+01  .832E+01  .832E+01  .832E+01  .832E+01
  .832E+01  .832E+01  .832E+01  .832E+01  .832E+01  .832E+01  .832E+01  .832E+01
  .832E+01  .832E+01  .832E+01  .000E+00  .000E+00  .000E+00  .000E+00  .000E+00
  .000E+00  .000E+00  .000E+00  .000E+00
  .402E+01  .821E+01  .821E+01  .821E+01  .821E+01  .403E+01  .822E+01  .822E+01
  .822E+01  .822E+01  .822E+01  .823E+01  .823E+01  .823E+01  .715E+01  .715E+01
  .716E+01  .717E+01  .670E+01  .672E+01  .719E+01  .730E+01  .732E+01  .875E+01
  .447E+01  .459E+01  .731E+01  .734E+01  .842E+01  .891E+01  .895E+01  .896E+01
  .932E+01  .900E+01  .903E+01  .742E+01  .473E+01  .744E+01  .726E+01  .851E+01
  .854E+01  .836E+01  .176E+02  .177E+02  .213E+02  .712E+01  .839E+01  .687E+01
  .692E+01  .694E+01  .184E+02  .250E+02  .250E+02  .251E+02  .246E+02  .247E+02
  .248E+02  .241E+02  .228E+02  .228E+02  .212E+02  .175E+02  .310E+02  .289E+02
  .279E+02  .242E+02  .170E+02  .206E+02  .207E+02  .268E+02  .159E+02  .159E+02
  .159E+02  .159E+02  .146E+02  .146E+02  .242E+02  .242E+02  .242E+02  .242E+02
  .242E+02  .814E+01  .814E+01  .814E+01  .814E+01  .814E+01  .814E+01  .813E+01
  .813E+01  .813E+01  .813E+01  .000E+00  .000E+00  .000E+00  .000E+00  .000E+00
  .000E+00  .000E+00  .000E+00  .000E+00
/&   ----------  End of spectral data for channel  3  ----------
