Response and Fourier amplitude spectra (91 periods,  .04 - 15.0 sec)   for      
Corrected accelerogram   24694-F1363-01252.02       Chan  1:  90 Deg     from   
Uncorrected Accelerogram Data             Processed: 09/10/01, CDMG  s694e02    
Earthquake of Sun Sep  9, 2001  16:59 PDT             (Avol1 v4.6  7/01 CSMIP)  
CSMIP Preliminary Processing            (Origin:  To be determined)             
24694-F1363-01252.02                 Start time:  9/09/01, 23:59 GMT (*LoQ*)    
Station No. 24694   34.334N, 118.504W     SSA-2  s/n 1363  (3 Channels)         
Sylmar - I5/14 Interchange Bridge                                               
Chan  1:  90 Deg  (Sta Chn: 40)     Location: Freefield near Abutment 1         
Earthquake of Sun Sep  9, 2001  16:59 PDT    Sun Sep  9, 2001  16:59 PDT        
Hypocenter:  To be determined.               ML:  To be determined.
Instr Period =  .0222 sec,  Damping =  .700,  Sensitivity = 1.25  v/g
                        Record length = 37.120 sec.
                                     Uncor Max  =  -.003 g, at   5.200 sec.
RMS accel of (uncor) record  =        .
Accelerogram bandpass filtered with 3 dB pts at   .30 and 40.00 cyc/sec
                 instrument- and baseline-corrected





Earthquake of Sun Sep  9, 2001  16:59 PDT    Sun Sep  9, 2001  16:59 PDT

24694-F1363-01252.02      Sylmar - I5/14 Interchange Bridge   Chan  1:  90 Deg

24694-F1363-01252.02      Sylmar - I5/14 Interchange Bridge   Chan  1:  90 Deg

Units for spectra are inches and sec, except Sa is in fraction of g.

    1  100   40    3   42  200    1    3    1   12    6 1363    024694    3    0
   23   59   15   20  252    9    9 2001    0    2   90 7424   41   33   72   -1
 7424    1   50    0 4103    1    2   29    1   23   59   15   20    9    9 2001
    0    0    0    0 3712    2    0    0    0    0   72   33    0    0    0 3712
    0 3712   34   91    1    3    0    0    0    0   42    0    0    0    0    2
    2    2    4    1   66   99    4   32   32    0    0    0    0    0   12  128
  -99   -1    0    0
      .022      .700    37.120      .001      .000  1250.000     -.003     5.200
    45.000  1220.703   976.563      .000     5.000      .000      .000      .000
     2.500    -6.429     -.005     -.011     5.120    30.000      .000      .004
      .043      .040     2.000    15.000    34.334  -118.504      .481      .472
      .981     -.026      .105  -999.000      .000      .000      .000      .000
      .622    -1.440      .000      .000      .000      .000      .000      .000
     4.600     4.400      .000   980.665      .010    37.120     7.162      .000
      .000    40.000      .000    37.120      .010      .300      .000      .000
     8.210    -2.538     8.270     -.182     8.160      .026     -.002      .300
    40.000      .010      .010      .000      .010      .013      .000      .000
      .010      .280      .006      .009      .003      .000      .000      .000
      .000      .000      .000      .000      .000      .000      .000      .000
      .000      .000      .000      .000
      .050
      .040      .042      .044      .046      .048      .050      .055      .060
      .065      .070      .075      .080      .085      .090      .095      .100
      .110      .120      .130      .140      .150      .160      .170      .180
      .190      .200      .220      .240      .260      .280      .300      .320
      .340      .360      .380      .400      .420      .440      .460      .480
      .500      .550      .600      .650      .700      .750      .800      .850
      .900      .950     1.000     1.100     1.200     1.300     1.400     1.500
     1.600     1.700     1.800     1.900     2.000     2.200     2.400     2.600
     2.800     3.000     3.200     3.400     3.600     3.800     4.000     4.200
     4.400     4.600     4.800     5.000     5.500     6.000     6.500     7.000
     7.500     8.000     8.500     9.000     9.500    10.000    11.000    12.000
    13.000    14.000    15.000      .000      .000      .000      .000      .000
      .000      .000      .000      .000
Fourier amplitude spectra in in/sec.
  .000E+00  .000E+00  .000E+00  .000E+00  .000E+00  .000E+00  .000E+00  .000E+00
  .000E+00  .000E+00  .000E+00  .000E+00  .000E+00  .000E+00  .000E+00  .000E+00
  .000E+00  .000E+00  .000E+00  .000E+00  .000E+00  .000E+00  .000E+00  .000E+00
  .000E+00  .000E+00  .000E+00  .000E+00  .000E+00  .000E+00  .000E+00  .000E+00
  .000E+00  .000E+00  .000E+00  .000E+00  .000E+00  .000E+00  .000E+00  .000E+00
  .000E+00  .000E+00  .000E+00  .000E+00  .000E+00  .000E+00  .000E+00  .000E+00
  .000E+00  .000E+00  .000E+00  .000E+00  .000E+00  .000E+00  .000E+00  .000E+00
  .000E+00  .000E+00  .000E+00  .000E+00  .000E+00  .000E+00  .000E+00  .000E+00
  .000E+00  .000E+00  .000E+00  .000E+00  .000E+00  .000E+00  .000E+00  .000E+00
  .000E+00  .000E+00  .000E+00  .000E+00  .000E+00  .000E+00  .000E+00  .000E+00
  .000E+00  .000E+00  .000E+00  .000E+00  .000E+00  .000E+00  .000E+00  .000E+00
  .000E+00  .000E+00  .000E+00  .000E+00  .000E+00  .000E+00  .000E+00  .000E+00
  .000E+00  .000E+00  .000E+00  .000E+00
Damping =  .05. Data of Sd,Sv,Sa,Pssv,ttSd,ttSv,ttSa :
  .542E-04  .625E-04  .703E-04  .802E-04  .869E-04  .874E-04  .107E-03  .117E-03
  .138E-03  .147E-03  .195E-03  .251E-03  .305E-03  .330E-03  .438E-03  .502E-03
  .520E-03  .787E-03  .102E-02  .108E-02  .123E-02  .120E-02  .132E-02  .149E-02
  .183E-02  .218E-02  .288E-02  .437E-02  .625E-02  .773E-02  .743E-02  .917E-02
  .109E-01  .115E-01  .128E-01  .143E-01  .146E-01  .124E-01  .160E-01  .191E-01
  .192E-01  .190E-01  .204E-01  .205E-01  .191E-01  .193E-01  .178E-01  .195E-01
  .244E-01  .270E-01  .287E-01  .292E-01  .278E-01  .238E-01  .346E-01  .386E-01
  .322E-01  .267E-01  .272E-01  .265E-01  .266E-01  .311E-01  .241E-01  .287E-01
  .260E-01  .186E-01  .180E-01  .183E-01  .166E-01  .163E-01  .168E-01  .169E-01
  .167E-01  .163E-01  .164E-01  .165E-01  .141E-01  .133E-01  .126E-01  .127E-01
  .128E-01  .130E-01  .131E-01  .132E-01  .133E-01  .133E-01  .132E-01  .129E-01
  .126E-01  .123E-01  .120E-01  .000E+00  .000E+00  .000E+00  .000E+00  .000E+00
  .000E+00  .000E+00  .000E+00  .000E+00
  .523E-02  .519E-02  .523E-02  .595E-02  .679E-02  .649E-02  .657E-02  .759E-02
  .671E-02  .794E-02  .104E-01  .126E-01  .152E-01  .144E-01  .165E-01  .209E-01
  .208E-01  .320E-01  .451E-01  .346E-01  .328E-01  .349E-01  .368E-01  .358E-01
  .402E-01  .469E-01  .766E-01  .977E-01  .147E+00  .171E+00  .154E+00  .180E+00
  .201E+00  .211E+00  .234E+00  .239E+00  .218E+00  .193E+00  .209E+00  .245E+00
  .251E+00  .238E+00  .215E+00  .207E+00  .195E+00  .167E+00  .149E+00  .148E+00
  .171E+00  .186E+00  .191E+00  .176E+00  .149E+00  .168E+00  .166E+00  .177E+00
  .144E+00  .160E+00  .168E+00  .156E+00  .138E+00  .112E+00  .110E+00  .936E-01
  .883E-01  .833E-01  .785E-01  .782E-01  .784E-01  .781E-01  .776E-01  .779E-01
  .787E-01  .792E-01  .793E-01  .793E-01  .789E-01  .783E-01  .779E-01  .774E-01
  .771E-01  .767E-01  .764E-01  .760E-01  .757E-01  .754E-01  .748E-01  .744E-01
  .741E-01  .739E-01  .737E-01  .000E+00  .000E+00  .000E+00  .000E+00  .000E+00
  .000E+00  .000E+00  .000E+00  .000E+00
  .345E-02  .361E-02  .369E-02  .386E-02  .385E-02  .357E-02  .363E-02  .332E-02
  .336E-02  .305E-02  .354E-02  .402E-02  .433E-02  .420E-02  .496E-02  .516E-02
  .444E-02  .559E-02  .625E-02  .571E-02  .559E-02  .482E-02  .471E-02  .470E-02
  .521E-02  .560E-02  .616E-02  .775E-02  .954E-02  .101E-01  .847E-02  .921E-02
  .963E-02  .910E-02  .909E-02  .919E-02  .850E-02  .662E-02  .780E-02  .850E-02
  .790E-02  .645E-02  .582E-02  .499E-02  .402E-02  .353E-02  .286E-02  .278E-02
  .309E-02  .308E-02  .295E-02  .249E-02  .199E-02  .145E-02  .181E-02  .176E-02
  .130E-02  .950E-03  .865E-03  .757E-03  .692E-03  .664E-03  .439E-03  .440E-03
  .344E-03  .214E-03  .183E-03  .165E-03  .134E-03  .124E-03  .116E-03  .107E-03
  .968E-04  .873E-04  .786E-04  .710E-04  .564E-04  .463E-04  .391E-04  .336E-04
  .292E-04  .258E-04  .229E-04  .206E-04  .188E-04  .172E-04  .149E-04  .133E-04
  .120E-04  .110E-04  .102E-04  .000E+00  .000E+00  .000E+00  .000E+00  .000E+00
  .000E+00  .000E+00  .000E+00  .000E+00
  .851E-02  .935E-02  .100E-01  .109E-01  .114E-01  .110E-01  .122E-01  .123E-01
  .133E-01  .132E-01  .163E-01  .197E-01  .225E-01  .231E-01  .290E-01  .315E-01
  .297E-01  .412E-01  .494E-01  .485E-01  .513E-01  .470E-01  .489E-01  .521E-01
  .605E-01  .686E-01  .823E-01  .114E+00  .151E+00  .173E+00  .156E+00  .180E+00
  .201E+00  .201E+00  .212E+00  .225E+00  .218E+00  .177E+00  .219E+00  .249E+00
  .241E+00  .217E+00  .213E+00  .198E+00  .172E+00  .161E+00  .140E+00  .144E+00
  .170E+00  .179E+00  .180E+00  .167E+00  .145E+00  .115E+00  .155E+00  .161E+00
  .126E+00  .985E-01  .949E-01  .876E-01  .836E-01  .889E-01  .632E-01  .694E-01
  .584E-01  .390E-01  .354E-01  .338E-01  .289E-01  .270E-01  .264E-01  .253E-01
  .238E-01  .222E-01  .214E-01  .207E-01  .161E-01  .139E-01  .122E-01  .114E-01
  .108E-01  .102E-01  .971E-02  .924E-02  .879E-02  .835E-02  .753E-02  .678E-02
  .611E-02  .552E-02  .501E-02  .000E+00  .000E+00  .000E+00  .000E+00  .000E+00
  .000E+00  .000E+00  .000E+00  .000E+00
  .537E+01  .504E+01  .504E+01  .504E+01  .505E+01  .505E+01  .538E+01  .816E+01
  .521E+01  .818E+01  .818E+01  .537E+01  .507E+01  .507E+01  .538E+01  .538E+01
  .538E+01  .539E+01  .540E+01  .523E+01  .505E+01  .507E+01  .834E+01  .508E+01
  .523E+01  .524E+01  .444E+01  .507E+01  .541E+01  .558E+01  .575E+01  .577E+01
  .563E+01  .565E+01  .550E+01  .534E+01  .536E+01  .538E+01  .846E+01  .848E+01
  .851E+01  .830E+01  .135E+02  .522E+01  .147E+02  .237E+02  .331E+02  .227E+02
  .224E+02  .179E+02  .180E+02  .177E+02  .838E+01  .325E+02  .296E+02  .283E+02
  .124E+02  .858E+01  .865E+01  .293E+02  .811E+01  .167E+02  .815E+01  .278E+02
  .279E+02  .271E+02  .162E+02  .162E+02  .163E+02  .815E+01  .815E+01  .816E+01
  .816E+01  .816E+01  .235E+02  .235E+02  .816E+01  .816E+01  .816E+01  .738E+01
  .738E+01  .738E+01  .738E+01  .738E+01  .738E+01  .738E+01  .739E+01  .739E+01
  .739E+01  .739E+01  .739E+01  .000E+00  .000E+00  .000E+00  .000E+00  .000E+00
  .000E+00  .000E+00  .000E+00  .000E+00
  .294E+02  .191E+02  .270E+01  .897E+01  .897E+01  .885E+01  .886E+01  .721E+01
  .117E+02  .533E+01  .533E+01  .495E+01  .495E+01  .496E+01  .535E+01  .541E+01
  .542E+01  .542E+01  .544E+01  .545E+01  .501E+01  .545E+01  .830E+01  .546E+01
  .528E+01  .529E+01  .547E+01  .440E+01  .547E+01  .565E+01  .567E+01  .568E+01
  .571E+01  .557E+01  .541E+01  .543E+01  .527E+01  .529E+01  .856E+01  .837E+01
  .839E+01  .842E+01  .136E+02  .533E+01  .825E+01  .239E+02  .146E+02  .229E+02
  .221E+02  .182E+02  .178E+02  .179E+02  .514E+01  .825E+01  .285E+02  .294E+02
  .134E+02  .825E+01  .826E+01  .826E+01  .826E+01  .826E+01  .122E+02  .123E+02
  .802E+01  .802E+01  .802E+01  .495E+01  .826E+01  .495E+01  .495E+01  .802E+01
  .802E+01  .802E+01  .802E+01  .802E+01  .802E+01  .803E+01  .803E+01  .803E+01
  .803E+01  .803E+01  .803E+01  .803E+01  .803E+01  .803E+01  .803E+01  .803E+01
  .803E+01  .803E+01  .803E+01  .000E+00  .000E+00  .000E+00  .000E+00  .000E+00
  .000E+00  .000E+00  .000E+00  .000E+00
  .537E+01  .504E+01  .504E+01  .504E+01  .505E+01  .505E+01  .538E+01  .816E+01
  .521E+01  .818E+01  .818E+01  .537E+01  .507E+01  .507E+01  .538E+01  .538E+01
  .538E+01  .539E+01  .540E+01  .523E+01  .505E+01  .506E+01  .834E+01  .508E+01
  .523E+01  .524E+01  .443E+01  .506E+01  .540E+01  .557E+01  .574E+01  .576E+01
  .562E+01  .565E+01  .549E+01  .534E+01  .535E+01  .537E+01  .845E+01  .847E+01
  .850E+01  .829E+01  .134E+02  .520E+01  .147E+02  .237E+02  .331E+02  .227E+02
  .223E+02  .179E+02  .180E+02  .177E+02  .836E+01  .325E+02  .295E+02  .283E+02
  .124E+02  .855E+01  .862E+01  .292E+02  .807E+01  .167E+02  .811E+01  .278E+02
  .279E+02  .271E+02  .161E+02  .162E+02  .162E+02  .810E+01  .810E+01  .810E+01
  .810E+01  .809E+01  .808E+01  .808E+01  .808E+01  .807E+01  .807E+01  .807E+01
  .806E+01  .806E+01  .806E+01  .806E+01  .806E+01  .805E+01  .805E+01  .805E+01
  .805E+01  .805E+01  .805E+01  .000E+00  .000E+00  .000E+00  .000E+00  .000E+00
  .000E+00  .000E+00  .000E+00  .000E+00
/&   ----------  End of spectral data for channel  1  ----------
