Response and Fourier amplitude spectra (91 periods,  .04 - 15.0 sec)   for      
Corrected accelerogram   24980-L1788-01252.08       Chan  1:   0 Deg     from   
Uncorrected Accelerogram Data             Processed: 09/10/01, CDMG  980av008   
Record of Sun Sep  9, 2001 16:59:17 PDT               (Avol1 v4.6  7/01 CSMIP)  
CSMIP Preliminary Processing            (Origin:  To be determined)             
24980-L1788-01252.08                 Start time:  9/09/01, 23:59:17.0 UTC (GPS) 
Station No. 24980   34.056N, 118.274W      Etna  s/n 1788  (3 Channels)         
Los Angeles - 7th & Burlington                                                  
Chan  1:   0 Deg                                                                
Record of Sun Sep  9, 2001 16:59:17 PDT    Sun Sep  9, 2001 16:59:17 PDT        
Hypocenter:  To be determined.               ML:  To be determined.             
Instr Period =  .0109 sec,  Damping =  .680,  Sensitivity =  .63  v/g           
                        Record length = 45.000 sec.                             
                                     Uncor Max  =  -.081 g, at   6.715 sec.     
RMS accel of (uncor) record  =        .                                         
Accelerogram bandpass filtered with 3 dB pts at   .30 and 40.00 cyc/sec         
                 instrument- and baseline-corrected                             
                                                                                
                                                                                
                                                                                
                                                                                
                                                                                
Record of Sun Sep  9, 2001 16:59:17 PDT    Sun Sep  9, 2001 16:59:17 PDT        
                                                                                
24980-L1788-01252.08      Los Angeles - 7th & Burlington    Chan  1:   0 Deg    
                                                                                
24980-L1788-01252.08      Los Angeles - 7th & Burlington    Chan  1:   0 Deg    
                                                                                
Units for spectra are inches and sec, except Sa is in fraction of g.            
                                                                                
    1  100    1    3    3  200    1    3    1   24   12 1788    024980    1    0
   23   59   17    0  252    9    9 2001   10    3    0 9000   39   30   72 -999
 9000    1   50    3 1788    1    8  450    1    0    0    0    0    0    0    0
    0    4    0    0 4500    2    0    0    0    0   72   30    0    0    0 4500
    0 4500   31   91    1    3    0    0    0    0    3    0    0    0    0    2
    2    2    4    0   32   99 -999   32   32    0    0    1    0    0    0    0
  -99   -1    0    0
      .011      .680    45.000      .005      .000   625.000     -.081     6.715
    91.500      .298      .477      .000     5.000      .000      .000      .000
     2.500     4.747      .053     -.034     5.000    30.000      .000     -.009
      .002      .011     2.000    15.000    34.056  -118.274      .020      .237
    11.725     -.001      .022  -999.000      .000      .000   -13.400      .000
  1000.000     1.000      .000      .000      .000      .000      .000      .000
     4.600     4.400      .000   980.665      .010    45.000    14.563      .000
      .000    40.000      .000    45.000      .010      .300      .000      .000
     6.710   -76.134     6.480     2.390     6.420     -.144      .000      .300
    40.000      .010      .010      .000      .380      .035      .000      .000
      .269      .190      .245      .132      .007      .001      .000      .000
      .000      .000      .000      .000      .000      .000      .000      .000
      .000      .000      .000      .000
      .050
      .040      .042      .044      .046      .048      .050      .055      .060
      .065      .070      .075      .080      .085      .090      .095      .100
      .110      .120      .130      .140      .150      .160      .170      .180
      .190      .200      .220      .240      .260      .280      .300      .320
      .340      .360      .380      .400      .420      .440      .460      .480
      .500      .550      .600      .650      .700      .750      .800      .850
      .900      .950     1.000     1.100     1.200     1.300     1.400     1.500
     1.600     1.700     1.800     1.900     2.000     2.200     2.400     2.600
     2.800     3.000     3.200     3.400     3.600     3.800     4.000     4.200
     4.400     4.600     4.800     5.000     5.500     6.000     6.500     7.000
     7.500     8.000     8.500     9.000     9.500    10.000    11.000    12.000
    13.000    14.000    15.000      .000      .000      .000      .000      .000
      .000      .000      .000      .000
Fourier amplitude spectra in in/sec.
  .000E+00  .000E+00  .000E+00  .000E+00  .000E+00  .000E+00  .000E+00  .000E+00
  .000E+00  .000E+00  .000E+00  .000E+00  .000E+00  .000E+00  .000E+00  .000E+00
  .000E+00  .000E+00  .000E+00  .000E+00  .000E+00  .000E+00  .000E+00  .000E+00
  .000E+00  .000E+00  .000E+00  .000E+00  .000E+00  .000E+00  .000E+00  .000E+00
  .000E+00  .000E+00  .000E+00  .000E+00  .000E+00  .000E+00  .000E+00  .000E+00
  .000E+00  .000E+00  .000E+00  .000E+00  .000E+00  .000E+00  .000E+00  .000E+00
  .000E+00  .000E+00  .000E+00  .000E+00  .000E+00  .000E+00  .000E+00  .000E+00
  .000E+00  .000E+00  .000E+00  .000E+00  .000E+00  .000E+00  .000E+00  .000E+00
  .000E+00  .000E+00  .000E+00  .000E+00  .000E+00  .000E+00  .000E+00  .000E+00
  .000E+00  .000E+00  .000E+00  .000E+00  .000E+00  .000E+00  .000E+00  .000E+00
  .000E+00  .000E+00  .000E+00  .000E+00  .000E+00  .000E+00  .000E+00  .000E+00
  .000E+00  .000E+00  .000E+00  .000E+00  .000E+00  .000E+00  .000E+00  .000E+00
  .000E+00  .000E+00  .000E+00  .000E+00
Damping =  .05. Data of Sd,Sv,Sa,Pssv,ttSd,ttSv,ttSa :
  .125E-02  .141E-02  .160E-02  .178E-02  .197E-02  .218E-02  .278E-02  .353E-02
  .479E-02  .564E-02  .740E-02  .970E-02  .115E-01  .128E-01  .144E-01  .164E-01
  .202E-01  .273E-01  .336E-01  .416E-01  .505E-01  .600E-01  .704E-01  .848E-01
  .958E-01  .995E-01  .999E-01  .104E+00  .109E+00  .115E+00  .118E+00  .110E+00
  .103E+00  .103E+00  .101E+00  .984E-01  .943E-01  .978E-01  .100E+00  .997E-01
  .965E-01  .855E-01  .802E-01  .732E-01  .670E-01  .616E-01  .603E-01  .610E-01
  .618E-01  .626E-01  .631E-01  .630E-01  .619E-01  .609E-01  .604E-01  .604E-01
  .608E-01  .613E-01  .619E-01  .625E-01  .631E-01  .640E-01  .646E-01  .651E-01
  .655E-01  .659E-01  .661E-01  .661E-01  .660E-01  .658E-01  .654E-01  .650E-01
  .646E-01  .641E-01  .637E-01  .633E-01  .625E-01  .619E-01  .615E-01  .612E-01
  .609E-01  .608E-01  .606E-01  .605E-01  .604E-01  .603E-01  .602E-01  .600E-01
  .599E-01  .598E-01  .598E-01  .000E+00  .000E+00  .000E+00  .000E+00  .000E+00
  .000E+00  .000E+00  .000E+00  .000E+00
  .996E-01  .108E+00  .113E+00  .119E+00  .126E+00  .133E+00  .165E+00  .225E+00
  .323E+00  .402E+00  .444E+00  .612E+00  .743E+00  .841E+00  .913E+00  .969E+00
  .113E+01  .144E+01  .164E+01  .181E+01  .205E+01  .241E+01  .280E+01  .314E+01
  .319E+01  .330E+01  .326E+01  .302E+01  .294E+01  .276E+01  .276E+01  .266E+01
  .248E+01  .225E+01  .204E+01  .187E+01  .180E+01  .163E+01  .157E+01  .154E+01
  .152E+01  .150E+01  .148E+01  .143E+01  .138E+01  .133E+01  .129E+01  .126E+01
  .123E+01  .121E+01  .118E+01  .113E+01  .110E+01  .107E+01  .106E+01  .105E+01
  .104E+01  .103E+01  .102E+01  .101E+01  .101E+01  .996E+00  .986E+00  .979E+00
  .973E+00  .967E+00  .962E+00  .958E+00  .955E+00  .952E+00  .949E+00  .947E+00
  .946E+00  .944E+00  .943E+00  .942E+00  .941E+00  .940E+00  .939E+00  .939E+00
  .938E+00  .938E+00  .938E+00  .938E+00  .937E+00  .937E+00  .937E+00  .937E+00
  .936E+00  .936E+00  .936E+00  .000E+00  .000E+00  .000E+00  .000E+00  .000E+00
  .000E+00  .000E+00  .000E+00  .000E+00
  .799E-01  .821E-01  .845E-01  .859E-01  .875E-01  .897E-01  .943E-01  .101E+00
  .115E+00  .117E+00  .134E+00  .157E+00  .164E+00  .161E+00  .163E+00  .168E+00
  .172E+00  .194E+00  .206E+00  .218E+00  .228E+00  .243E+00  .251E+00  .267E+00
  .269E+00  .256E+00  .211E+00  .188E+00  .166E+00  .151E+00  .134E+00  .110E+00
  .922E-01  .814E-01  .722E-01  .632E-01  .553E-01  .520E-01  .487E-01  .446E-01
  .399E-01  .294E-01  .232E-01  .181E-01  .144E-01  .116E-01  .993E-02  .893E-02
  .810E-02  .739E-02  .675E-02  .563E-02  .470E-02  .398E-02  .343E-02  .301E-02
  .269E-02  .243E-02  .221E-02  .203E-02  .186E-02  .160E-02  .138E-02  .121E-02
  .108E-02  .963E-03  .867E-03  .786E-03  .718E-03  .658E-03  .606E-03  .560E-03
  .520E-03  .485E-03  .453E-03  .425E-03  .368E-03  .323E-03  .288E-03  .259E-03
  .236E-03  .217E-03  .201E-03  .187E-03  .175E-03  .164E-03  .146E-03  .131E-03
  .119E-03  .109E-03  .100E-03  .000E+00  .000E+00  .000E+00  .000E+00  .000E+00
  .000E+00  .000E+00  .000E+00  .000E+00
  .196E+00  .211E+00  .228E+00  .243E+00  .258E+00  .274E+00  .318E+00  .370E+00
  .463E+00  .507E+00  .620E+00  .762E+00  .848E+00  .895E+00  .950E+00  .103E+01
  .115E+01  .143E+01  .163E+01  .187E+01  .212E+01  .236E+01  .260E+01  .296E+01
  .317E+01  .313E+01  .285E+01  .273E+01  .264E+01  .258E+01  .246E+01  .215E+01
  .191E+01  .179E+01  .167E+01  .155E+01  .141E+01  .140E+01  .137E+01  .130E+01
  .121E+01  .977E+00  .840E+00  .708E+00  .601E+00  .516E+00  .474E+00  .451E+00
  .431E+00  .414E+00  .397E+00  .360E+00  .324E+00  .294E+00  .271E+00  .253E+00
  .239E+00  .227E+00  .216E+00  .207E+00  .198E+00  .183E+00  .169E+00  .157E+00
  .147E+00  .138E+00  .130E+00  .122E+00  .115E+00  .109E+00  .103E+00  .972E-01
  .922E-01  .876E-01  .834E-01  .796E-01  .714E-01  .648E-01  .594E-01  .549E-01
  .510E-01  .477E-01  .448E-01  .422E-01  .400E-01  .379E-01  .344E-01  .314E-01
  .289E-01  .268E-01  .250E-01  .000E+00  .000E+00  .000E+00  .000E+00  .000E+00
  .000E+00  .000E+00  .000E+00  .000E+00
  .670E+01  .670E+01  .670E+01  .670E+01  .670E+01  .670E+01  .670E+01  .700E+01
  .701E+01  .671E+01  .676E+01  .676E+01  .677E+01  .677E+01  .702E+01  .708E+01
  .683E+01  .678E+01  .679E+01  .679E+01  .710E+01  .680E+01  .681E+01  .674E+01
  .675E+01  .676E+01  .668E+01  .669E+01  .660E+01  .661E+01  .662E+01  .663E+01
  .651E+01  .651E+01  .652E+01  .652E+01  .652E+01  .697E+01  .698E+01  .699E+01
  .700E+01  .653E+01  .654E+01  .654E+01  .654E+01  .654E+01  .640E+01  .640E+01
  .640E+01  .640E+01  .640E+01  .640E+01  .640E+01  .641E+01  .641E+01  .641E+01
  .641E+01  .641E+01  .641E+01  .641E+01  .641E+01  .641E+01  .641E+01  .641E+01
  .641E+01  .641E+01  .641E+01  .641E+01  .641E+01  .641E+01  .641E+01  .641E+01
  .641E+01  .641E+01  .641E+01  .641E+01  .641E+01  .641E+01  .641E+01  .641E+01
  .641E+01  .641E+01  .641E+01  .641E+01  .641E+01  .641E+01  .641E+01  .641E+01
  .641E+01  .641E+01  .641E+01  .000E+00  .000E+00  .000E+00  .000E+00  .000E+00
  .000E+00  .000E+00  .000E+00  .000E+00
  .674E+01  .674E+01  .674E+01  .674E+01  .674E+01  .674E+01  .674E+01  .698E+01
  .703E+01  .703E+01  .674E+01  .679E+01  .680E+01  .684E+01  .685E+01  .705E+01
  .680E+01  .681E+01  .682E+01  .682E+01  .714E+01  .677E+01  .677E+01  .678E+01
  .679E+01  .671E+01  .673E+01  .664E+01  .665E+01  .666E+01  .656E+01  .657E+01
  .657E+01  .657E+01  .658E+01  .703E+01  .703E+01  .704E+01  .646E+01  .646E+01
  .646E+01  .647E+01  .647E+01  .647E+01  .647E+01  .647E+01  .647E+01  .647E+01
  .647E+01  .647E+01  .647E+01  .647E+01  .647E+01  .647E+01  .647E+01  .647E+01
  .647E+01  .647E+01  .647E+01  .647E+01  .647E+01  .647E+01  .647E+01  .647E+01
  .647E+01  .647E+01  .647E+01  .647E+01  .647E+01  .647E+01  .647E+01  .647E+01
  .647E+01  .647E+01  .647E+01  .647E+01  .647E+01  .647E+01  .647E+01  .647E+01
  .647E+01  .647E+01  .647E+01  .647E+01  .647E+01  .647E+01  .647E+01  .647E+01
  .647E+01  .647E+01  .647E+01  .000E+00  .000E+00  .000E+00  .000E+00  .000E+00
  .000E+00  .000E+00  .000E+00  .000E+00
  .670E+01  .670E+01  .670E+01  .670E+01  .670E+01  .670E+01  .670E+01  .700E+01
  .701E+01  .671E+01  .676E+01  .676E+01  .677E+01  .677E+01  .702E+01  .707E+01
  .683E+01  .678E+01  .678E+01  .679E+01  .710E+01  .680E+01  .681E+01  .674E+01
  .675E+01  .675E+01  .668E+01  .669E+01  .659E+01  .660E+01  .661E+01  .662E+01
  .650E+01  .651E+01  .651E+01  .651E+01  .652E+01  .697E+01  .698E+01  .698E+01
  .699E+01  .653E+01  .653E+01  .653E+01  .653E+01  .653E+01  .639E+01  .639E+01
  .639E+01  .639E+01  .639E+01  .639E+01  .639E+01  .639E+01  .639E+01  .639E+01
  .638E+01  .638E+01  .638E+01  .638E+01  .638E+01  .638E+01  .638E+01  .638E+01
  .638E+01  .638E+01  .638E+01  .637E+01  .637E+01  .637E+01  .637E+01  .637E+01
  .637E+01  .637E+01  .637E+01  .637E+01  .637E+01  .637E+01  .637E+01  .637E+01
  .636E+01  .636E+01  .636E+01  .636E+01  .636E+01  .636E+01  .636E+01  .636E+01
  .636E+01  .636E+01  .636E+01  .000E+00  .000E+00  .000E+00  .000E+00  .000E+00
  .000E+00  .000E+00  .000E+00  .000E+00
/&   ----------  End of spectral data for channel  1  ----------
Response and Fourier amplitude spectra (91 periods,  .04 - 15.0 sec)   for      
Corrected accelerogram   24980-L1788-01252.08       Chan  2:   0 Deg     from   
Uncorrected Accelerogram Data             Processed: 09/10/01, CDMG  980av008   
Record of Sun Sep  9, 2001 16:59:17 PDT               (Avol1 v4.6  7/01 CSMIP)  
CSMIP Preliminary Processing            (Origin:  To be determined)             
24980-L1788-01252.08                 Start time:  9/09/01, 23:59:17.0 UTC (GPS) 
Station No. 24980   34.056N, 118.274W      Etna  s/n 1788  (3 Channels)         
Los Angeles - 7th & Burlington                                                  
Chan  2:   0 Deg                                                                
Record of Sun Sep  9, 2001 16:59:17 PDT    Sun Sep  9, 2001 16:59:17 PDT        
Hypocenter:  To be determined.               ML:  To be determined.             
Instr Period =  .0101 sec,  Damping =  .680,  Sensitivity =  .63  v/g           
                        Record length = 45.000 sec.                             
                                     Uncor Max  =  -.046 g, at   7.170 sec.     
RMS accel of (uncor) record  =        .                                         
Accelerogram bandpass filtered with 3 dB pts at   .30 and 40.00 cyc/sec         
                 instrument- and baseline-corrected                             
                                                                                
                                                                                
                                                                                
                                                                                
                                                                                
Record of Sun Sep  9, 2001 16:59:17 PDT    Sun Sep  9, 2001 16:59:17 PDT        
                                                                                
24980-L1788-01252.08      Los Angeles - 7th & Burlington    Chan  2:   0 Deg    
                                                                                
24980-L1788-01252.08      Los Angeles - 7th & Burlington    Chan  2:   0 Deg    
                                                                                
Units for spectra are inches and sec, except Sa is in fraction of g.            
                                                                                
    2  100    2    3    3  200    1    3    1   24   12 1788    024980    1    0
   23   59   17    0  252    9    9 2001   10    3    0 9000   39   30   72 -999
 9000    1   50    3 1788    1    8  450    1    0    0    0    0    0    0    0
    0    4    0    0 4500    2    0    0    0    0   72   30    0    0    0 4500
    0 4500   31   91    1    3    0    0    0    0    3    0    0    0    0    2
    2    2    4    0   32   99 -999   32   32    0    0    1    0    0    0    0
  -99   -1    0    0
      .010      .680    45.000      .004      .000   625.000     -.046     7.170
    99.000      .298      .477      .000     5.000      .000      .000      .000
     2.500   -25.721      .013     -.042     5.000    30.000      .000     -.012
      .004      .015     2.000    15.000    34.056  -118.274      .032      .193
     6.045      .005      .025  -999.000      .000      .000   -13.400      .000
  1000.000     1.011      .000      .000      .000      .000      .000      .000
     4.600     4.400      .000   980.665      .010    45.000    15.756      .000
      .000    40.000      .000    45.000      .010      .300      .000      .000
     7.170   -44.722     7.380     1.178     7.080     -.062      .000      .300
    40.000      .010      .010      .000      .010      .029      .000      .000
      .164      .160      .086      .071      .003      .000      .000      .000
      .000      .000      .000      .000      .000      .000      .000      .000
      .000      .000      .000      .000
      .050
      .040      .042      .044      .046      .048      .050      .055      .060
      .065      .070      .075      .080      .085      .090      .095      .100
      .110      .120      .130      .140      .150      .160      .170      .180
      .190      .200      .220      .240      .260      .280      .300      .320
      .340      .360      .380      .400      .420      .440      .460      .480
      .500      .550      .600      .650      .700      .750      .800      .850
      .900      .950     1.000     1.100     1.200     1.300     1.400     1.500
     1.600     1.700     1.800     1.900     2.000     2.200     2.400     2.600
     2.800     3.000     3.200     3.400     3.600     3.800     4.000     4.200
     4.400     4.600     4.800     5.000     5.500     6.000     6.500     7.000
     7.500     8.000     8.500     9.000     9.500    10.000    11.000    12.000
    13.000    14.000    15.000      .000      .000      .000      .000      .000
      .000      .000      .000      .000
Fourier amplitude spectra in in/sec.
  .000E+00  .000E+00  .000E+00  .000E+00  .000E+00  .000E+00  .000E+00  .000E+00
  .000E+00  .000E+00  .000E+00  .000E+00  .000E+00  .000E+00  .000E+00  .000E+00
  .000E+00  .000E+00  .000E+00  .000E+00  .000E+00  .000E+00  .000E+00  .000E+00
  .000E+00  .000E+00  .000E+00  .000E+00  .000E+00  .000E+00  .000E+00  .000E+00
  .000E+00  .000E+00  .000E+00  .000E+00  .000E+00  .000E+00  .000E+00  .000E+00
  .000E+00  .000E+00  .000E+00  .000E+00  .000E+00  .000E+00  .000E+00  .000E+00
  .000E+00  .000E+00  .000E+00  .000E+00  .000E+00  .000E+00  .000E+00  .000E+00
  .000E+00  .000E+00  .000E+00  .000E+00  .000E+00  .000E+00  .000E+00  .000E+00
  .000E+00  .000E+00  .000E+00  .000E+00  .000E+00  .000E+00  .000E+00  .000E+00
  .000E+00  .000E+00  .000E+00  .000E+00  .000E+00  .000E+00  .000E+00  .000E+00
  .000E+00  .000E+00  .000E+00  .000E+00  .000E+00  .000E+00  .000E+00  .000E+00
  .000E+00  .000E+00  .000E+00  .000E+00  .000E+00  .000E+00  .000E+00  .000E+00
  .000E+00  .000E+00  .000E+00  .000E+00
Damping =  .05. Data of Sd,Sv,Sa,Pssv,ttSd,ttSv,ttSa :
  .834E-03  .816E-03  .889E-03  .959E-03  .108E-02  .129E-02  .199E-02  .236E-02
  .293E-02  .452E-02  .571E-02  .620E-02  .583E-02  .674E-02  .854E-02  .969E-02
  .157E-01  .191E-01  .189E-01  .249E-01  .303E-01  .402E-01  .428E-01  .382E-01
  .350E-01  .286E-01  .402E-01  .533E-01  .503E-01  .599E-01  .544E-01  .722E-01
  .668E-01  .582E-01  .667E-01  .745E-01  .779E-01  .701E-01  .638E-01  .637E-01
