Response and Fourier amplitude spectra (91 periods,  .04 - 15.0 sec)   for      
Corrected accelerogram   14017-L1819-20113.02       Chan  1: 360 Deg     from   
Uncorrected Accelerogram Data             Processed: 04/22/20, CGS  017as002    
Rcrd of Wed Apr 22, 2020 00:03:22.0 PDT               (Avol1 v2.0, 4/18 CSMIP)  
CSMIP Preliminary Processing            (Origin:  To be determined)             
14017-L1819-20113.02                 Start time:  4/22/20, 07:03:22.0 UTC (GPS) 
Station No. 14017   33.990N, 118.312W    Etna    s/n 1819  (3 Chns of  3 at Sta)
Los Angeles - Slauson & Western           CGS   Data: Acceleration              
Chan  1: 360 Deg                                                                
Rcrd of Wed Apr 22, 2020 00:03:22.0 PDT    Wed Apr 22, 2020 00:03:22.0 PDT      
Hypocenter:  To be determined.               ML:  To be determined.             
Instr Period =  .0108 sec,  Damping =  .660,  Sensitivity =  .63 v/g            
                        Record Length = 60.000 sec.                             
                                     Uncor Max  =  -.049 g, at   30.450 sec.    
RMS accel of (uncor) record  =        .   Chn. metadata effective date: 05/09/02
Accelerogram bandpass filtered with 3 dB pts at   .30 and 23.00 cyc/sec         
                 instrument- and base-line correcte                             
                                                                                
                                                                                
                                                                                
                                                                                
                                                                                
Rcrd of Wed Apr 22, 2020 00:03:22.0 PDT    Wed Apr 22, 2020 00:03:22.0 PDT      
                                                                                
14017-L1819-20113.02      Los Angeles - Slauson & Western   Chan  1: 360 Deg    
                                                                                
14017-L1819-20113.02      Los Angeles - Slauson & Western   Chan  1: 360 Deg    
                                                                                
Units for spectra are inches and sec, except Sa is in fraction of g.            
                                                                                
    1  100    1    3    3  200    1    3    1   24   12 1819    014017   11    0
    7    3   22    0  113    4   22 2020   10    3  36012600   39   31   74  360
12600    1  100    3 1819    1    2  630    2 -999 -999 -999 -999 -999 -999 -999
 -999 -999    3 -99912000    1  202    0   18    4 -999 -999    3    1 -99912000
    312000    4   91    1    3    5    0    0 -999    0    0    1    3    1    2
    2    2    4    0   32   67    0    5 -999    0    0    1    0    0    0  222
    0    0    0    0
      .011      .660    63.000      .002     1.000   626.000     -.049    30.450
    92.800      .298      .476  -999.000     5.000  -999.000     4.000  -999.000
     2.500    -6.796     2.500  -999.000    30.000    30.000  -999.000      .134
     -.125     -.259     2.000    15.000    33.990  -118.312      .031      .102
     3.255     -.267     -.251    41.000    30.500    32.000    13.400    69.260
     1.000    10.003    -8.000  -999.000  -999.000  -999.000  -999.000  -999.000
     6.900     2.000     6.800   980.665      .005    60.000    14.770      .006
  -999.000    23.000  -999.000    60.000      .005      .303  -999.000  -999.000
    30.450   -46.817    30.415      .751    30.360     -.021      .002      .303
    23.000      .005      .005      .002      .005      .007  -999.000  -999.000
      .129      .120      .050      .017      .001      .000  -999.000  -999.000
  -999.000  -999.000  -999.000  -999.000  -999.000  -999.000  -999.000  -999.000
  -999.000  -999.000  -999.000  -999.000
      .050
      .040      .042      .044      .046      .048      .050      .055      .060
      .065      .070      .075      .080      .085      .090      .095      .100
      .110      .120      .130      .140      .150      .160      .170      .180
      .190      .200      .220      .240      .260      .280      .300      .320
      .340      .360      .380      .400      .420      .440      .460      .480
      .500      .550      .600      .650      .700      .750      .800      .850
      .900      .950     1.000     1.100     1.200     1.300     1.400     1.500
     1.600     1.700     1.800     1.900     2.000     2.200     2.400     2.600
     2.800     3.000     3.200     3.400     3.600     3.800     4.000     4.200
     4.400     4.600     4.800     5.000     5.500     6.000     6.500     7.000
     7.500     8.000     8.500     9.000     9.500    10.000    11.000    12.000
    13.000    14.000    15.000      .000      .000      .000      .000      .000
      .000      .000      .000      .000
Fourier amplitude spectra in in/sec.
  .000E+00  .000E+00  .000E+00  .000E+00  .000E+00  .000E+00  .000E+00  .000E+00
  .000E+00  .000E+00  .000E+00  .000E+00  .000E+00  .000E+00  .000E+00  .000E+00
  .000E+00  .000E+00  .000E+00  .000E+00  .000E+00  .000E+00  .000E+00  .000E+00
  .000E+00  .000E+00  .000E+00  .000E+00  .000E+00  .000E+00  .000E+00  .000E+00
  .000E+00  .000E+00  .000E+00  .000E+00  .000E+00  .000E+00  .000E+00  .000E+00
  .000E+00  .000E+00  .000E+00  .000E+00  .000E+00  .000E+00  .000E+00  .000E+00
  .000E+00  .000E+00  .000E+00  .000E+00  .000E+00  .000E+00  .000E+00  .000E+00
  .000E+00  .000E+00  .000E+00  .000E+00  .000E+00  .000E+00  .000E+00  .000E+00
  .000E+00  .000E+00  .000E+00  .000E+00  .000E+00  .000E+00  .000E+00  .000E+00
  .000E+00  .000E+00  .000E+00  .000E+00  .000E+00  .000E+00  .000E+00  .000E+00
  .000E+00  .000E+00  .000E+00  .000E+00  .000E+00  .000E+00  .000E+00  .000E+00
  .000E+00  .000E+00  .000E+00  .000E+00  .000E+00  .000E+00  .000E+00  .000E+00
  .000E+00  .000E+00  .000E+00  .000E+00
Damping =  .05. Data of Sd,Sv,Sa,Pssv,ttSd,ttSv,ttSa :
  .923E-03  .105E-02  .123E-02  .153E-02  .182E-02  .200E-02  .244E-02  .338E-02
  .428E-02  .501E-02  .548E-02  .566E-02  .589E-02  .666E-02  .793E-02  .966E-02
  .140E-01  .182E-01  .209E-01  .216E-01  .224E-01  .220E-01  .208E-01  .207E-01
  .205E-01  .200E-01  .183E-01  .160E-01  .148E-01  .145E-01  .142E-01  .139E-01
  .136E-01  .134E-01  .132E-01  .130E-01  .128E-01  .126E-01  .124E-01  .122E-01
  .121E-01  .117E-01  .114E-01  .112E-01  .111E-01  .109E-01  .109E-01  .108E-01
  .108E-01  .108E-01  .108E-01  .109E-01  .111E-01  .112E-01  .113E-01  .117E-01
  .119E-01  .121E-01  .124E-01  .127E-01  .127E-01  .130E-01  .138E-01  .142E-01
  .144E-01  .149E-01  .146E-01  .146E-01  .142E-01  .150E-01  .148E-01  .141E-01
  .144E-01  .139E-01  .128E-01  .127E-01  .126E-01  .115E-01  .125E-01  .110E-01
  .104E-01  .115E-01  .117E-01  .105E-01  .937E-02  .919E-02  .106E-01  .106E-01
  .909E-02  .858E-02  .838E-02  .000E+00  .000E+00  .000E+00  .000E+00  .000E+00
  .000E+00  .000E+00  .000E+00  .000E+00
  .838E-01  .992E-01  .124E+00  .151E+00  .184E+00  .209E+00  .245E+00  .272E+00
  .330E+00  .365E+00  .373E+00  .357E+00  .342E+00  .367E+00  .444E+00  .555E+00
  .759E+00  .917E+00  .104E+01  .105E+01  .984E+00  .898E+00  .863E+00  .825E+00
  .777E+00  .772E+00  .737E+00  .687E+00  .627E+00  .572E+00  .527E+00  .492E+00
  .463E+00  .440E+00  .421E+00  .405E+00  .391E+00  .379E+00  .369E+00  .361E+00
  .355E+00  .342E+00  .333E+00  .327E+00  .323E+00  .319E+00  .317E+00  .314E+00
  .313E+00  .312E+00  .310E+00  .309E+00  .307E+00  .306E+00  .305E+00  .304E+00
  .302E+00  .302E+00  .301E+00  .299E+00  .298E+00  .297E+00  .296E+00  .294E+00
  .293E+00  .294E+00  .296E+00  .296E+00  .296E+00  .296E+00  .298E+00  .298E+00
  .298E+00  .299E+00  .299E+00  .298E+00  .299E+00  .297E+00  .298E+00  .298E+00
  .297E+00  .297E+00  .297E+00  .298E+00  .297E+00  .296E+00  .296E+00  .297E+00
  .297E+00  .296E+00  .295E+00  .000E+00  .000E+00  .000E+00  .000E+00  .000E+00
  .000E+00  .000E+00  .000E+00  .000E+00
  .592E-01  .609E-01  .656E-01  .742E-01  .810E-01  .819E-01  .812E-01  .966E-01
  .103E+00  .105E+00  .101E+00  .901E-01  .837E-01  .846E-01  .912E-01  .986E-01
  .119E+00  .129E+00  .126E+00  .113E+00  .103E+00  .890E-01  .743E-01  .660E-01
  .584E-01  .514E-01  .389E-01  .287E-01  .226E-01  .192E-01  .164E-01  .141E-01
  .123E-01  .108E-01  .958E-02  .855E-02  .766E-02  .689E-02  .622E-02  .565E-02
  .515E-02  .416E-02  .343E-02  .290E-02  .251E-02  .218E-02  .193E-02  .172E-02
  .155E-02  .141E-02  .129E-02  .109E-02  .953E-03  .834E-03  .748E-03  .685E-03
  .624E-03  .572E-03  .533E-03  .498E-03  .457E-03  .401E-03  .364E-03  .329E-03
  .298E-03  .275E-03  .248E-03  .228E-03  .207E-03  .198E-03  .183E-03  .167E-03
  .158E-03  .147E-03  .134E-03  .126E-03  .112E-03  .974E-04  .911E-04  .804E-04
  .730E-04  .695E-04  .652E-04  .596E-04  .548E-04  .515E-04  .476E-04  .433E-04
  .388E-04  .352E-04  .329E-04  .000E+00  .000E+00  .000E+00  .000E+00  .000E+00
  .000E+00  .000E+00  .000E+00  .000E+00
  .145E+00  .158E+00  .176E+00  .208E+00  .238E+00  .251E+00  .278E+00  .354E+00
  .414E+00  .450E+00  .459E+00  .444E+00  .435E+00  .465E+00  .525E+00  .607E+00
  .799E+00  .951E+00  .101E+01  .971E+00  .940E+00  .865E+00  .770E+00  .722E+00
  .678E+00  .628E+00  .523E+00  .419E+00  .357E+00  .326E+00  .297E+00  .273E+00
  .252E+00  .234E+00  .218E+00  .205E+00  .192E+00  .180E+00  .170E+00  .160E+00
  .152E+00  .134E+00  .119E+00  .108E+00  .993E-01  .916E-01  .854E-01  .800E-01
  .751E-01  .713E-01  .680E-01  .621E-01  .581E-01  .539E-01  .509E-01  .491E-01
  .467E-01  .446E-01  .434E-01  .421E-01  .398E-01  .372E-01  .361E-01  .342E-01
  .323E-01  .311E-01  .286E-01  .270E-01  .248E-01  .249E-01  .232E-01  .211E-01
  .206E-01  .189E-01  .167E-01  .159E-01  .144E-01  .121E-01  .121E-01  .987E-02
  .875E-02  .907E-02  .864E-02  .733E-02  .620E-02  .577E-02  .605E-02  .556E-02
  .439E-02  .385E-02  .351E-02  .000E+00  .000E+00  .000E+00  .000E+00  .000E+00
  .000E+00  .000E+00  .000E+00  .000E+00
  .304E+02  .305E+02  .306E+02  .306E+02  .306E+02  .306E+02  .306E+02  .305E+02
  .305E+02  .305E+02  .305E+02  .305E+02  .305E+02  .305E+02  .305E+02  .305E+02
  .306E+02  .306E+02  .306E+02  .306E+02  .305E+02  .306E+02  .306E+02  .305E+02
  .305E+02  .305E+02  .305E+02  .305E+02  .304E+02  .304E+02  .304E+02  .304E+02
  .304E+02  .304E+02  .304E+02  .304E+02  .304E+02  .304E+02  .304E+02  .304E+02
  .304E+02  .304E+02  .304E+02  .304E+02  .304E+02  .304E+02  .304E+02  .304E+02
  .304E+02  .304E+02  .304E+02  .304E+02  .304E+02  .304E+02  .304E+02  .304E+02
  .304E+02  .304E+02  .304E+02  .304E+02  .304E+02  .304E+02  .304E+02  .304E+02
  .304E+02  .304E+02  .304E+02  .304E+02  .304E+02  .304E+02  .304E+02  .304E+02
  .304E+02  .304E+02  .304E+02  .304E+02  .304E+02  .304E+02  .304E+02  .304E+02
  .304E+02  .304E+02  .304E+02  .304E+02  .304E+02  .304E+02  .304E+02  .304E+02
  .304E+02  .304E+02  .304E+02  .000E+00  .000E+00  .000E+00  .000E+00  .000E+00
  .000E+00  .000E+00  .000E+00  .000E+00
  .305E+02  .305E+02  .305E+02  .305E+02  .306E+02  .306E+02  .306E+02  .305E+02
  .305E+02  .305E+02  .305E+02  .305E+02  .305E+02  .305E+02  .306E+02  .306E+02
  .306E+02  .306E+02  .306E+02  .306E+02  .306E+02  .305E+02  .305E+02  .305E+02
  .305E+02  .305E+02  .305E+02  .305E+02  .305E+02  .305E+02  .305E+02  .305E+02
  .305E+02  .305E+02  .305E+02  .305E+02  .305E+02  .305E+02  .305E+02  .305E+02
  .305E+02  .305E+02  .305E+02  .305E+02  .305E+02  .305E+02  .305E+02  .305E+02
  .305E+02  .305E+02  .305E+02  .305E+02  .305E+02  .305E+02  .305E+02  .305E+02
  .305E+02  .305E+02  .305E+02  .305E+02  .305E+02  .305E+02  .305E+02  .305E+02
  .304E+02  .304E+02  .304E+02  .304E+02  .304E+02  .304E+02  .304E+02  .304E+02
  .304E+02  .304E+02  .304E+02  .304E+02  .304E+02  .304E+02  .304E+02  .304E+02
  .304E+02  .304E+02  .304E+02  .304E+02  .304E+02  .304E+02  .304E+02  .304E+02
  .304E+02  .304E+02  .304E+02  .000E+00  .000E+00  .000E+00  .000E+00  .000E+00
  .000E+00  .000E+00  .000E+00  .000E+00
  .304E+02  .304E+02  .306E+02  .306E+02  .306E+02  .306E+02  .306E+02  .305E+02
  .305E+02  .305E+02  .305E+02  .305E+02  .305E+02  .305E+02  .305E+02  .305E+02
  .306E+02  .306E+02  .306E+02  .306E+02  .305E+02  .305E+02  .306E+02  .305E+02
  .305E+02  .305E+02  .305E+02  .305E+02  .304E+02  .304E+02  .304E+02  .304E+02
  .304E+02  .304E+02  .304E+02  .304E+02  .304E+02  .304E+02  .304E+02  .304E+02
  .304E+02  .304E+02  .304E+02  .304E+02  .304E+02  .304E+02  .304E+02  .304E+02
  .304E+02  .304E+02  .304E+02  .304E+02  .304E+02  .304E+02  .304E+02  .304E+02
  .304E+02  .304E+02  .304E+02  .304E+02  .304E+02  .304E+02  .304E+02  .304E+02
  .304E+02  .304E+02  .304E+02  .304E+02  .304E+02  .304E+02  .304E+02  .304E+02
  .304E+02  .304E+02  .304E+02  .304E+02  .304E+02  .304E+02  .304E+02  .304E+02
  .304E+02  .304E+02  .304E+02  .304E+02  .304E+02  .304E+02  .304E+02  .304E+02
  .304E+02  .304E+02  .304E+02  .000E+00  .000E+00  .000E+00  .000E+00  .000E+00
  .000E+00  .000E+00  .000E+00  .000E+00
/&   ----------  End of spectral data for channel  1  ----------
Response and Fourier amplitude spectra (91 periods,  .04 - 15.0 sec)   for      
Corrected accelerogram   14017-L1819-20113.02       Chan  2:  Up         from   
Uncorrected Accelerogram Data             Processed: 04/22/20, CGS  017as002    
Rcrd of Wed Apr 22, 2020 00:03:22.0 PDT               (Avol1 v2.0, 4/18 CSMIP)  
CSMIP Preliminary Processing            (Origin:  To be determined)             
14017-L1819-20113.02                 Start time:  4/22/20, 07:03:22.0 UTC (GPS) 
Station No. 14017   33.990N, 118.312W    Etna    s/n 1819  (3 Chns of  3 at Sta)
Los Angeles - Slauson & Western           CGS   Data: Acceleration              
Chan  2:  Up                                                                    
Rcrd of Wed Apr 22, 2020 00:03:22.0 PDT    Wed Apr 22, 2020 00:03:22.0 PDT      
Hypocenter:  To be determined.               ML:  To be determined.             
Instr Period =  .0105 sec,  Damping =  .660,  Sensitivity =  .63 v/g            
                        Record Length = 60.000 sec.                             
                                     Uncor Max  =  -.021 g, at   28.435 sec.    
RMS accel of (uncor) record  =        .   Chn. metadata effective date: 05/09/02
Accelerogram bandpass filtered with 3 dB pts at   .30 and 23.00 cyc/sec         
                 instrument- and base-line correcte                             
                                                                                
                                                                                
                                                                                
                                                                                
                                                                                
Rcrd of Wed Apr 22, 2020 00:03:22.0 PDT    Wed Apr 22, 2020 00:03:22.0 PDT      
                                                                                
14017-L1819-20113.02      Los Angeles - Slauson & Western   Chan  2:  Up        
                                                                                
14017-L1819-20113.02      Los Angeles - Slauson & Western   Chan  2:  Up        
                                                                                
Units for spectra are inches and sec, except Sa is in fraction of g.            
                                                                                
    2  100    2    3    3  200    1    3    1   24   12 1819    014017   11    0
    7    3   22    0  113    4   22 2020   10    3  50012600   39   31   74  360
12600    1  100    3 1819    1    2  630    2 -999 -999 -999 -999 -999 -999 -999
 -999 -999    3 -99912000    1  202    0   18    4 -999 -999    3    1 -99912000
    312000    4   91    1    3    5    0    0 -999    0    0    1    3    1    2
    2    2    4    0   32   67    0    5 -999    0    0    1    0    0    0  222
    0    0    0    0
      .011      .660    63.000      .001     1.000   625.000     -.021    28.435
    94.800      .298      .477  -999.000     5.000  -999.000     4.000  -999.000
     2.500    98.793     2.500  -999.000    30.000    30.000  -999.000      .002
     -.001     -.003     2.000    15.000    33.990  -118.312      .135      .045
      .336     -.021      .015    41.000    30.500    32.000    13.400    69.260
     1.000    10.003    -8.000  -999.000  -999.000  -999.000  -999.000  -999.000
     6.900     2.000     6.800   980.665      .005    60.000    15.088      .000
  -999.000    23.000  -999.000    60.000      .005      .303  -999.000  -999.000
    28.410    12.725    30.660     -.140    30.570     -.003      .000      .303
    23.000      .005      .005      .000      .005      .003  -999.000  -999.000
      .084      .048      .007      .002      .000      .000  -999.000  -999.000
  -999.000  -999.000  -999.000  -999.000  -999.000  -999.000  -999.000  -999.000
  -999.000  -999.000  -999.000  -999.000
      .050
      .040      .042      .044      .046      .048      .050      .055      .060
      .065      .070      .075      .080      .085      .090      .095      .100
      .110      .120      .130      .140      .150      .160      .170      .180
      .190      .200      .220      .240      .260      .280      .300      .320
      .340      .360      .380      .400      .420      .440      .460      .480
      .500      .550      .600      .650      .700      .750      .800      .850
      .900      .950     1.000     1.100     1.200     1.300     1.400     1.500
     1.600     1.700     1.800     1.900     2.000     2.200     2.400     2.600
     2.800     3.000     3.200     3.400     3.600     3.800     4.000     4.200
     4.400     4.600     4.800     5.000     5.500     6.000     6.500     7.000
     7.500     8.000     8.500     9.000     9.500    10.000    11.000    12.000
    13.000    14.000    15.000      .000      .000      .000      .000      .000
      .000      .000      .000      .000
Fourier amplitude spectra in in/sec.
  .000E+00  .000E+00  .000E+00  .000E+00  .000E+00  .000E+00  .000E+00  .000E+00
  .000E+00  .000E+00  .000E+00  .000E+00  .000E+00  .000E+00  .000E+00  .000E+00
  .000E+00  .000E+00  .000E+00  .000E+00  .000E+00  .000E+00  .000E+00  .000E+00
  .000E+00  .000E+00  .000E+00  .000E+00  .000E+00  .000E+00  .000E+00  .000E+00
  .000E+00  .000E+00  .000E+00  .000E+00  .000E+00  .000E+00  .000E+00  .000E+00
  .000E+00  .000E+00  .000E+00  .000E+00  .000E+00  .000E+00  .000E+00  .000E+00
  .000E+00  .000E+00  .000E+00  .000E+00  .000E+00  .000E+00  .000E+00  .000E+00
  .000E+00  .000E+00  .000E+00  .000E+00  .000E+00  .000E+00  .000E+00  .000E+00
  .000E+00  .000E+00  .000E+00  .000E+00  .000E+00  .000E+00  .000E+00  .000E+00
  .000E+00  .000E+00  .000E+00  .000E+00  .000E+00  .000E+00  .000E+00  .000E+00
  .000E+00  .000E+00  .000E+00  .000E+00  .000E+00  .000E+00  .000E+00  .000E+00
  .000E+00  .000E+00  .000E+00  .000E+00  .000E+00  .000E+00  .000E+00  .000E+00
  .000E+00  .000E+00  .000E+00  .000E+00
Damping =  .05. Data of Sd,Sv,Sa,Pssv,ttSd,ttSv,ttSa :
  .747E-03  .994E-03  .129E-02  .164E-02  .188E-02  .196E-02  .164E-02  .140E-02
  .145E-02  .169E-02  .183E-02  .159E-02  .157E-02  .193E-02  .195E-02  .231E-02
  .354E-02  .391E-02  .321E-02  .309E-02  .253E-02  .278E-02  .336E-02  .314E-02
  .315E-02  .251E-02  .313E-02  .305E-02  .286E-02  .204E-02  .187E-02  .184E-02
  .200E-02  .223E-02  .217E-02  .210E-02  .198E-02  .194E-02  .209E-02  .193E-02
