Response and Fourier amplitude spectra (91 periods,  .04 - 15.0 sec)   for      
Corrected accelerogram   14934-L1774-01250.09       Chan  1:   0 Deg     from   
Uncorrected Accelerogram Data             Processed: 09/10/01, CDMG  ak009      
Record of Sun Sep  9, 2001 16:59:20 PDT               (Avol1 v4.6  7/01 CSMIP)  
CSMIP Preliminary Processing            (Origin:  To be determined)             
14934-L1774-01250.09                 Start time:  9/09/01, 23:59:20.0 UTC (GPS) 
Station No. 14934   33.939N, 118.301W      Etna  s/n 1774  (3 Channels)         
Los Angeles - Normandie & 108th                                                 
Chan  1:   0 Deg                                                                
Record of Sun Sep  9, 2001 16:59:20 PDT    Sun Sep  9, 2001 16:59:20 PDT        
Hypocenter:  To be determined.               ML:  To be determined.             
Instr Period =  .0109 sec,  Damping =  .650,  Sensitivity =  .63  v/g           
                        Record length = 46.000 sec.                             
                                     Uncor Max  =   .015 g, at   4.745 sec.     
RMS accel of (uncor) record  =        .                                         
Accelerogram bandpass filtered with 3 dB pts at   .30 and 40.00 cyc/sec         
                 instrument- and baseline-corrected                             
                                                                                
                                                                                
                                                                                
                                                                                
                                                                                
Record of Sun Sep  9, 2001 16:59:20 PDT    Sun Sep  9, 2001 16:59:20 PDT        
                                                                                
14934-L1774-01250.09      Los Angeles - Normandie & 108th   Chan  1:   0 Deg    
                                                                                
14934-L1774-01250.09      Los Angeles - Normandie & 108th   Chan  1:   0 Deg    
                                                                                
Units for spectra are inches and sec, except Sa is in fraction of g.            
                                                                                
    1  100    1    3    3  200    1    3    1   24   12 1774    014934    1    0
   23   59   20    0  252    9    9 2001   10    3    0 9200   39   31   72 -999
 9200    1   50    3 1774    1    9  460    1    0    0    0    0    0    0    0
    0    4    0    0 4600    2    0    0    0    0   72   31    0    0    0 4600
    0 4600   32   91    1    3    0    0    0    0    3    0    0    0    0    2
    2    2    4    0   32   99 -999   32   32    0    0    1    0    0    0    0
  -99   -1    0    0
      .011      .650    46.000      .002      .000   625.000      .015     4.745
    91.900      .298      .477      .000     5.000      .000      .000      .000
     2.500     4.606      .011     -.006     5.000    30.000      .000     -.017
      .002      .020     2.000    15.000    33.939  -118.301      .177      .249
     1.410     -.006      .045  -999.000      .000      .000   -13.400      .000
  1000.000     1.010      .000      .000      .000      .000      .000      .000
     4.600     4.400      .000   980.665      .010    46.000    14.626      .000
      .000    40.000      .000    46.000      .010      .300      .000      .000
     4.740    14.474     4.800      .834     4.890      .051      .000      .300
    40.000      .010      .010      .000      .010      .025      .000      .000
      .041      .160      .036      .034      .004      .000      .000      .000
      .000      .000      .000      .000      .000      .000      .000      .000
      .000      .000      .000      .000
      .050
      .040      .042      .044      .046      .048      .050      .055      .060
      .065      .070      .075      .080      .085      .090      .095      .100
      .110      .120      .130      .140      .150      .160      .170      .180
      .190      .200      .220      .240      .260      .280      .300      .320
      .340      .360      .380      .400      .420      .440      .460      .480
      .500      .550      .600      .650      .700      .750      .800      .850
      .900      .950     1.000     1.100     1.200     1.300     1.400     1.500
     1.600     1.700     1.800     1.900     2.000     2.200     2.400     2.600
     2.800     3.000     3.200     3.400     3.600     3.800     4.000     4.200
     4.400     4.600     4.800     5.000     5.500     6.000     6.500     7.000
     7.500     8.000     8.500     9.000     9.500    10.000    11.000    12.000
    13.000    14.000    15.000      .000      .000      .000      .000      .000
      .000      .000      .000      .000
Fourier amplitude spectra in in/sec.
  .000E+00  .000E+00  .000E+00  .000E+00  .000E+00  .000E+00  .000E+00  .000E+00
  .000E+00  .000E+00  .000E+00  .000E+00  .000E+00  .000E+00  .000E+00  .000E+00
  .000E+00  .000E+00  .000E+00  .000E+00  .000E+00  .000E+00  .000E+00  .000E+00
  .000E+00  .000E+00  .000E+00  .000E+00  .000E+00  .000E+00  .000E+00  .000E+00
  .000E+00  .000E+00  .000E+00  .000E+00  .000E+00  .000E+00  .000E+00  .000E+00
  .000E+00  .000E+00  .000E+00  .000E+00  .000E+00  .000E+00  .000E+00  .000E+00
  .000E+00  .000E+00  .000E+00  .000E+00  .000E+00  .000E+00  .000E+00  .000E+00
  .000E+00  .000E+00  .000E+00  .000E+00  .000E+00  .000E+00  .000E+00  .000E+00
  .000E+00  .000E+00  .000E+00  .000E+00  .000E+00  .000E+00  .000E+00  .000E+00
  .000E+00  .000E+00  .000E+00  .000E+00  .000E+00  .000E+00  .000E+00  .000E+00
  .000E+00  .000E+00  .000E+00  .000E+00  .000E+00  .000E+00  .000E+00  .000E+00
  .000E+00  .000E+00  .000E+00  .000E+00  .000E+00  .000E+00  .000E+00  .000E+00
  .000E+00  .000E+00  .000E+00  .000E+00
Damping =  .05. Data of Sd,Sv,Sa,Pssv,ttSd,ttSv,ttSa :
  .263E-03  .290E-03  .327E-03  .362E-03  .407E-03  .470E-03  .644E-03  .781E-03
  .935E-03  .106E-02  .144E-02  .192E-02  .182E-02  .168E-02  .160E-02  .197E-02
  .323E-02  .384E-02  .438E-02  .647E-02  .770E-02  .103E-01  .109E-01  .105E-01
  .117E-01  .145E-01  .182E-01  .202E-01  .240E-01  .270E-01  .296E-01  .332E-01
  .389E-01  .387E-01  .389E-01  .402E-01  .420E-01  .456E-01  .464E-01  .433E-01
  .424E-01  .400E-01  .478E-01  .531E-01  .520E-01  .514E-01  .470E-01  .442E-01
  .399E-01  .419E-01  .408E-01  .331E-01  .381E-01  .317E-01  .297E-01  .332E-01
  .325E-01  .272E-01  .270E-01  .270E-01  .273E-01  .267E-01  .261E-01  .256E-01
  .252E-01  .249E-01  .247E-01  .245E-01  .244E-01  .242E-01  .240E-01  .238E-01
  .236E-01  .233E-01  .231E-01  .229E-01  .225E-01  .221E-01  .218E-01  .216E-01
  .214E-01  .213E-01  .212E-01  .211E-01  .211E-01  .210E-01  .210E-01  .210E-01
  .210E-01  .210E-01  .211E-01  .000E+00  .000E+00  .000E+00  .000E+00  .000E+00
  .000E+00  .000E+00  .000E+00  .000E+00
  .143E-01  .172E-01  .182E-01  .185E-01  .242E-01  .319E-01  .506E-01  .565E-01
  .575E-01  .678E-01  .966E-01  .128E+00  .114E+00  .915E-01  .926E-01  .101E+00
  .159E+00  .193E+00  .197E+00  .275E+00  .309E+00  .350E+00  .357E+00  .338E+00
  .354E+00  .375E+00  .524E+00  .555E+00  .592E+00  .612E+00  .611E+00  .654E+00
  .695E+00  .755E+00  .663E+00  .647E+00  .670E+00  .726E+00  .677E+00  .602E+00
  .587E+00  .543E+00  .548E+00  .526E+00  .441E+00  .511E+00  .491E+00  .452E+00
  .366E+00  .359E+00  .361E+00  .368E+00  .369E+00  .368E+00  .364E+00  .359E+00
  .354E+00  .351E+00  .348E+00  .346E+00  .345E+00  .344E+00  .343E+00  .341E+00
  .340E+00  .339E+00  .338E+00  .337E+00  .337E+00  .336E+00  .336E+00  .336E+00
  .335E+00  .335E+00  .335E+00  .334E+00  .333E+00  .333E+00  .332E+00  .332E+00
  .331E+00  .331E+00  .331E+00  .331E+00  .330E+00  .330E+00  .330E+00  .330E+00
  .330E+00  .330E+00  .330E+00  .000E+00  .000E+00  .000E+00  .000E+00  .000E+00
  .000E+00  .000E+00  .000E+00  .000E+00
  .168E-01  .168E-01  .173E-01  .175E-01  .181E-01  .192E-01  .220E-01  .224E-01
  .225E-01  .221E-01  .259E-01  .308E-01  .256E-01  .212E-01  .181E-01  .200E-01
  .278E-01  .275E-01  .270E-01  .339E-01  .351E-01  .408E-01  .390E-01  .333E-01
  .332E-01  .375E-01  .386E-01  .361E-01  .367E-01  .356E-01  .340E-01  .332E-01
  .346E-01  .306E-01  .277E-01  .259E-01  .244E-01  .242E-01  .226E-01  .194E-01
  .175E-01  .136E-01  .137E-01  .129E-01  .109E-01  .942E-02  .755E-02  .632E-02
  .510E-02  .482E-02  .424E-02  .287E-02  .276E-02  .195E-02  .162E-02  .154E-02
  .134E-02  .103E-02  .920E-03  .832E-03  .755E-03  .628E-03  .527E-03  .451E-03
  .392E-03  .345E-03  .307E-03  .276E-03  .251E-03  .230E-03  .211E-03  .194E-03
  .180E-03  .167E-03  .157E-03  .147E-03  .127E-03  .112E-03  .100E-03  .906E-04
  .830E-04  .766E-04  .711E-04  .663E-04  .622E-04  .585E-04  .526E-04  .478E-04
  .438E-04  .405E-04  .376E-04  .000E+00  .000E+00  .000E+00  .000E+00  .000E+00
  .000E+00  .000E+00  .000E+00  .000E+00
  .413E-01  .434E-01  .467E-01  .494E-01  .533E-01  .591E-01  .736E-01  .818E-01
  .903E-01  .950E-01  .120E+00  .151E+00  .134E+00  .117E+00  .106E+00  .124E+00
  .184E+00  .201E+00  .212E+00  .290E+00  .323E+00  .403E+00  .403E+00  .367E+00
  .388E+00  .456E+00  .520E+00  .528E+00  .581E+00  .606E+00  .620E+00  .652E+00
  .720E+00  .675E+00  .644E+00  .632E+00  .628E+00  .651E+00  .634E+00  .567E+00
  .533E+00  .457E+00  .501E+00  .513E+00  .467E+00  .431E+00  .369E+00  .326E+00
  .279E+00  .277E+00  .256E+00  .189E+00  .200E+00  .153E+00  .133E+00  .139E+00
  .128E+00  .101E+00  .944E-01  .893E-01  .857E-01  .761E-01  .685E-01  .619E-01
  .566E-01  .522E-01  .485E-01  .453E-01  .425E-01  .400E-01  .377E-01  .356E-01
  .336E-01  .319E-01  .303E-01  .288E-01  .257E-01  .231E-01  .211E-01  .194E-01
  .179E-01  .167E-01  .157E-01  .147E-01  .139E-01  .132E-01  .120E-01  .110E-01
  .101E-01  .943E-02  .882E-02  .000E+00  .000E+00  .000E+00  .000E+00  .000E+00
  .000E+00  .000E+00  .000E+00  .000E+00
  .474E+01  .474E+01  .474E+01  .474E+01  .474E+01  .474E+01  .537E+01  .558E+01
  .475E+01  .538E+01  .559E+01  .559E+01  .561E+01  .816E+01  .792E+01  .816E+01
  .823E+01  .825E+01  .119E+02  .847E+01  .857E+01  .111E+02  .111E+02  .111E+02
  .488E+01  .489E+01  .545E+01  .491E+01  .492E+01  .494E+01  .494E+01  .579E+01
  .582E+01  .568E+01  .536E+01  .538E+01  .114E+02  .112E+02  .112E+02  .526E+01
  .527E+01  .153E+02  .112E+02  .119E+02  .120E+02  .120E+02  .117E+02  .111E+02
  .111E+02  .111E+02  .111E+02  .487E+01  .108E+02  .136E+02  .488E+01  .125E+02
  .118E+02  .488E+01  .488E+01  .488E+01  .182E+02  .488E+01  .488E+01  .488E+01
  .488E+01  .488E+01  .488E+01  .488E+01  .488E+01  .488E+01  .488E+01  .488E+01
  .488E+01  .488E+01  .488E+01  .488E+01  .488E+01  .488E+01  .488E+01  .488E+01
  .488E+01  .488E+01  .488E+01  .488E+01  .488E+01  .488E+01  .488E+01  .488E+01
  .488E+01  .488E+01  .488E+01  .000E+00  .000E+00  .000E+00  .000E+00  .000E+00
  .000E+00  .000E+00  .000E+00  .000E+00
  .534E+01  .535E+01  .535E+01  .535E+01  .639E+01  .534E+01  .536E+01  .560E+01
  .561E+01  .561E+01  .561E+01  .561E+01  .559E+01  .819E+01  .790E+01  .781E+01
  .820E+01  .828E+01  .778E+01  .851E+01  .853E+01  .111E+02  .112E+02  .112E+02
  .112E+02  .546E+01  .540E+01  .116E+02  .499E+01  .500E+01  .501E+01  .586E+01
  .575E+01  .577E+01  .544E+01  .529E+01  .532E+01  .113E+02  .113E+02  .492E+01
  .493E+01  .153E+02  .120E+02  .121E+02  .119E+02  .119E+02  .119E+02  .112E+02
  .112E+02  .478E+01  .478E+01  .478E+01  .478E+01  .478E+01  .479E+01  .479E+01
  .479E+01  .479E+01  .479E+01  .479E+01  .479E+01  .479E+01  .479E+01  .479E+01
  .479E+01  .479E+01  .479E+01  .479E+01  .479E+01  .479E+01  .479E+01  .479E+01
  .479E+01  .479E+01  .479E+01  .479E+01  .479E+01  .479E+01  .479E+01  .479E+01
  .479E+01  .479E+01  .479E+01  .479E+01  .479E+01  .479E+01  .479E+01  .479E+01
  .479E+01  .479E+01  .479E+01  .000E+00  .000E+00  .000E+00  .000E+00  .000E+00
  .000E+00  .000E+00  .000E+00  .000E+00
  .474E+01  .474E+01  .474E+01  .474E+01  .474E+01  .474E+01  .537E+01  .558E+01
  .475E+01  .476E+01  .559E+01  .559E+01  .560E+01  .816E+01  .792E+01  .816E+01
  .823E+01  .831E+01  .119E+02  .854E+01  .856E+01  .111E+02  .111E+02  .111E+02
  .487E+01  .488E+01  .490E+01  .491E+01  .492E+01  .493E+01  .494E+01  .579E+01
  .581E+01  .568E+01  .536E+01  .537E+01  .113E+02  .112E+02  .112E+02  .525E+01
  .526E+01  .153E+02  .112E+02  .119E+02  .120E+02  .120E+02  .117E+02  .111E+02
  .111E+02  .111E+02  .111E+02  .485E+01  .108E+02  .486E+01  .486E+01  .125E+02
  .118E+02  .485E+01  .485E+01  .485E+01  .485E+01  .485E+01  .484E+01  .484E+01
  .484E+01  .484E+01  .484E+01  .483E+01  .483E+01  .483E+01  .483E+01  .483E+01
  .483E+01  .483E+01  .482E+01  .482E+01  .482E+01  .482E+01  .482E+01  .481E+01
  .481E+01  .481E+01  .481E+01  .481E+01  .481E+01  .481E+01  .480E+01  .480E+01
  .480E+01  .480E+01  .480E+01  .000E+00  .000E+00  .000E+00  .000E+00  .000E+00
  .000E+00  .000E+00  .000E+00  .000E+00
/&   ----------  End of spectral data for channel  1  ----------
Response and Fourier amplitude spectra (91 periods,  .04 - 15.0 sec)   for      
Corrected accelerogram   14934-L1774-01250.09       Chan  2:   0 Deg     from   
Uncorrected Accelerogram Data             Processed: 09/10/01, CDMG  ak009      
Record of Sun Sep  9, 2001 16:59:20 PDT               (Avol1 v4.6  7/01 CSMIP)  
CSMIP Preliminary Processing            (Origin:  To be determined)             
14934-L1774-01250.09                 Start time:  9/09/01, 23:59:20.0 UTC (GPS) 
Station No. 14934   33.939N, 118.301W      Etna  s/n 1774  (3 Channels)         
Los Angeles - Normandie & 108th                                                 
Chan  2:   0 Deg                                                                
Record of Sun Sep  9, 2001 16:59:20 PDT    Sun Sep  9, 2001 16:59:20 PDT        
Hypocenter:  To be determined.               ML:  To be determined.             
Instr Period =  .0103 sec,  Damping =  .660,  Sensitivity =  .63  v/g           
                        Record length = 46.000 sec.                             
                                     Uncor Max  =   .010 g, at   8.110 sec.     
RMS accel of (uncor) record  =        .                                         
Accelerogram bandpass filtered with 3 dB pts at   .30 and 40.00 cyc/sec         
                 instrument- and baseline-corrected                             
                                                                                
                                                                                
                                                                                
                                                                                
                                                                                
Record of Sun Sep  9, 2001 16:59:20 PDT    Sun Sep  9, 2001 16:59:20 PDT        
                                                                                
14934-L1774-01250.09      Los Angeles - Normandie & 108th   Chan  2:   0 Deg    
                                                                                
14934-L1774-01250.09      Los Angeles - Normandie & 108th   Chan  2:   0 Deg    
                                                                                
Units for spectra are inches and sec, except Sa is in fraction of g.            
                                                                                
    2  100    2    3    3  200    1    3    1   24   12 1774    014934    1    0
   23   59   20    0  252    9    9 2001   10    3    0 9200   39   31   72 -999
 9200    1   50    3 1774    1    9  460    1    0    0    0    0    0    0    0
    0    4    0    0 4600    2    0    0    0    0   72   31    0    0    0 4600
    0 4600   32   91    1    3    0    0    0    0    3    0    0    0    0    2
    2    2    4    0   32   99 -999   32   32    0    0    1    0    0    0    0
  -99   -1    0    0
      .010      .660    46.000      .001      .000   625.000      .010     8.110
    97.000      .298      .477      .000     5.000      .000      .000      .000
     2.500    -8.308      .000     -.012     5.000    30.000      .000     -.010
      .005      .015     2.000    15.000    33.939  -118.301      .777      .185
      .238     -.086      .115  -999.000      .000      .000   -13.400      .000
  1000.000    -1.033      .000      .000      .000      .000      .000      .000
     4.600     4.400      .000   980.665      .010    46.000    15.438      .000
      .000    40.000      .000    46.000      .010      .300      .000      .000
     8.110    10.260    11.750      .281    11.670     -.020     -.001      .300
    40.000      .010      .010      .000      .010      .016      .000      .000
      .039      .140      .020      .017      .002      .000      .000      .000
      .000      .000      .000      .000      .000      .000      .000      .000
      .000      .000      .000      .000
      .050
      .040      .042      .044      .046      .048      .050      .055      .060
      .065      .070      .075      .080      .085      .090      .095      .100
      .110      .120      .130      .140      .150      .160      .170      .180
      .190      .200      .220      .240      .260      .280      .300      .320
      .340      .360      .380      .400      .420      .440      .460      .480
      .500      .550      .600      .650      .700      .750      .800      .850
      .900      .950     1.000     1.100     1.200     1.300     1.400     1.500
     1.600     1.700     1.800     1.900     2.000     2.200     2.400     2.600
     2.800     3.000     3.200     3.400     3.600     3.800     4.000     4.200
     4.400     4.600     4.800     5.000     5.500     6.000     6.500     7.000
     7.500     8.000     8.500     9.000     9.500    10.000    11.000    12.000
    13.000    14.000    15.000      .000      .000      .000      .000      .000
      .000      .000      .000      .000
Fourier amplitude spectra in in/sec.
  .000E+00  .000E+00  .000E+00  .000E+00  .000E+00  .000E+00  .000E+00  .000E+00
  .000E+00  .000E+00  .000E+00  .000E+00  .000E+00  .000E+00  .000E+00  .000E+00
  .000E+00  .000E+00  .000E+00  .000E+00  .000E+00  .000E+00  .000E+00  .000E+00
  .000E+00  .000E+00  .000E+00  .000E+00  .000E+00  .000E+00  .000E+00  .000E+00
  .000E+00  .000E+00  .000E+00  .000E+00  .000E+00  .000E+00  .000E+00  .000E+00
  .000E+00  .000E+00  .000E+00  .000E+00  .000E+00  .000E+00  .000E+00  .000E+00
  .000E+00  .000E+00  .000E+00  .000E+00  .000E+00  .000E+00  .000E+00  .000E+00
  .000E+00  .000E+00  .000E+00  .000E+00  .000E+00  .000E+00  .000E+00  .000E+00
  .000E+00  .000E+00  .000E+00  .000E+00  .000E+00  .000E+00  .000E+00  .000E+00
  .000E+00  .000E+00  .000E+00  .000E+00  .000E+00  .000E+00  .000E+00  .000E+00
  .000E+00  .000E+00  .000E+00  .000E+00  .000E+00  .000E+00  .000E+00  .000E+00
  .000E+00  .000E+00  .000E+00  .000E+00  .000E+00  .000E+00  .000E+00  .000E+00
  .000E+00  .000E+00  .000E+00  .000E+00
Damping =  .05. Data of Sd,Sv,Sa,Pssv,ttSd,ttSv,ttSa :
  .193E-03  .217E-03  .291E-03  .377E-03  .451E-03  .532E-03  .847E-03  .106E-02
  .112E-02  .126E-02  .121E-02  .141E-02  .153E-02  .186E-02  .248E-02  .285E-02
  .351E-02  .374E-02  .523E-02  .747E-02  .839E-02  .929E-02  .971E-02  .761E-02
  .741E-02  .724E-02  .910E-02  .134E-01  .112E-01  .124E-01  .166E-01  .162E-01
  .153E-01  .194E-01  .252E-01  .258E-01  .213E-01  .175E-01  .161E-01  .172E-01
