Response and Fourier amplitude spectra (91 periods,  .04 - 15.0 sec)   for      
Corrected accelerogram   24839-L1199-01252.10       Chan  1: 308 Deg     from   
Uncorrected Accelerogram Data             Processed: 09/10/01, CDMG  839as010   
Record of Sun Sep  9, 2001 16:59:18 PDT               (Avol1 v4.6  7/01 CSMIP)  
CSMIP Preliminary Processing            (Origin:  To be determined)             
24839-L1199-01252.10                 Start time:  9/09/01, 23:59:18.0 UTC (GPS) 
Station No. 24839   34.058N, 118.252W      Etna  s/n 1199  (3 Channels)         
Los Angeles - 1st & Figueroa                                                    
Chan  1: 308 Deg                                                                
Record of Sun Sep  9, 2001 16:59:18 PDT    Sun Sep  9, 2001 16:59:18 PDT        
Hypocenter:  To be determined.               ML:  To be determined.             
Instr Period =  .0104 sec,  Damping =  .650,  Sensitivity =  .63  v/g           
                        Record length = 44.000 sec.                             
                                     Uncor Max  =   .026 g, at   5.735 sec.     
RMS accel of (uncor) record  =        .                                         
Accelerogram bandpass filtered with 3 dB pts at   .30 and 40.00 cyc/sec         
                 instrument- and baseline-corrected                             
                                                                                
                                                                                
                                                                                
                                                                                
                                                                                
Record of Sun Sep  9, 2001 16:59:18 PDT    Sun Sep  9, 2001 16:59:18 PDT        
                                                                                
24839-L1199-01252.10      Los Angeles - 1st & Figueroa    Chan  1: 308 Deg      
                                                                                
24839-L1199-01252.10      Los Angeles - 1st & Figueroa    Chan  1: 308 Deg      
                                                                                
Units for spectra are inches and sec, except Sa is in fraction of g.            
                                                                                
    1  100    1    3    3  200    1    3    1   24   12 1199    024839    1    0
   23   59   18    0  252    9    9 2001   10    3  308 8800   39   28   72  308
 8800    1   50    3 1199    1   10  440    1    0    0    0    0    0    0    0
    0    4    0    0 4400    2    0    0    0    0   72   28    0    0    0 4400
    0 4400   29   91    1    3    0    0    0    0    3    0    0    0    0    2
    2    2    4    0   32   99    0   32   32    0    0    1    0    0    0    0
  -99   -1    0    0
      .010      .650    44.000      .003      .000   625.000      .026     5.735
    95.800      .298      .477      .000     5.000      .000      .000      .000
     2.500     2.395      .016     -.015     5.000    30.000      .000      .001
      .004      .003     2.000    15.000    34.058  -118.252      .016      .249
    15.638     -.009      .015  -999.000      .000      .000   -14.200      .000
  1000.000     1.030      .000      .000      .000      .000      .000      .000
     4.600     4.400      .000   980.665      .010    44.000    15.247      .000
      .000    40.000      .000    44.000      .010      .300      .000      .000
     5.730    25.838     5.670    -1.218     5.740     -.094      .000      .300
    40.000      .010      .010      .000      .010      .033      .000      .000
      .087      .140      .066      .060      .005      .001      .000      .000
      .000      .000      .000      .000      .000      .000      .000      .000
      .000      .000      .000      .000
      .050
      .040      .042      .044      .046      .048      .050      .055      .060
      .065      .070      .075      .080      .085      .090      .095      .100
      .110      .120      .130      .140      .150      .160      .170      .180
      .190      .200      .220      .240      .260      .280      .300      .320
      .340      .360      .380      .400      .420      .440      .460      .480
      .500      .550      .600      .650      .700      .750      .800      .850
      .900      .950     1.000     1.100     1.200     1.300     1.400     1.500
     1.600     1.700     1.800     1.900     2.000     2.200     2.400     2.600
     2.800     3.000     3.200     3.400     3.600     3.800     4.000     4.200
     4.400     4.600     4.800     5.000     5.500     6.000     6.500     7.000
     7.500     8.000     8.500     9.000     9.500    10.000    11.000    12.000
    13.000    14.000    15.000      .000      .000      .000      .000      .000
      .000      .000      .000      .000
Fourier amplitude spectra in in/sec.
  .000E+00  .000E+00  .000E+00  .000E+00  .000E+00  .000E+00  .000E+00  .000E+00
  .000E+00  .000E+00  .000E+00  .000E+00  .000E+00  .000E+00  .000E+00  .000E+00
  .000E+00  .000E+00  .000E+00  .000E+00  .000E+00  .000E+00  .000E+00  .000E+00
  .000E+00  .000E+00  .000E+00  .000E+00  .000E+00  .000E+00  .000E+00  .000E+00
  .000E+00  .000E+00  .000E+00  .000E+00  .000E+00  .000E+00  .000E+00  .000E+00
  .000E+00  .000E+00  .000E+00  .000E+00  .000E+00  .000E+00  .000E+00  .000E+00
  .000E+00  .000E+00  .000E+00  .000E+00  .000E+00  .000E+00  .000E+00  .000E+00
  .000E+00  .000E+00  .000E+00  .000E+00  .000E+00  .000E+00  .000E+00  .000E+00
  .000E+00  .000E+00  .000E+00  .000E+00  .000E+00  .000E+00  .000E+00  .000E+00
  .000E+00  .000E+00  .000E+00  .000E+00  .000E+00  .000E+00  .000E+00  .000E+00
  .000E+00  .000E+00  .000E+00  .000E+00  .000E+00  .000E+00  .000E+00  .000E+00
  .000E+00  .000E+00  .000E+00  .000E+00  .000E+00  .000E+00  .000E+00  .000E+00
  .000E+00  .000E+00  .000E+00  .000E+00
Damping =  .05. Data of Sd,Sv,Sa,Pssv,ttSd,ttSv,ttSa :
  .424E-03  .469E-03  .506E-03  .547E-03  .591E-03  .645E-03  .805E-03  .105E-02
  .133E-02  .160E-02  .176E-02  .226E-02  .291E-02  .340E-02  .386E-02  .454E-02
  .660E-02  .979E-02  .110E-01  .166E-01  .168E-01  .191E-01  .224E-01  .241E-01
  .229E-01  .258E-01  .319E-01  .397E-01  .410E-01  .447E-01  .549E-01  .590E-01
  .683E-01  .777E-01  .815E-01  .895E-01  .853E-01  .826E-01  .920E-01  .784E-01
  .737E-01  .679E-01  .648E-01  .564E-01  .554E-01  .540E-01  .517E-01  .493E-01
  .473E-01  .454E-01  .436E-01  .448E-01  .452E-01  .451E-01  .452E-01  .475E-01
  .571E-01  .540E-01  .468E-01  .471E-01  .474E-01  .479E-01  .483E-01  .486E-01
  .486E-01  .485E-01  .481E-01  .476E-01  .471E-01  .465E-01  .460E-01  .455E-01
  .450E-01  .445E-01  .441E-01  .437E-01  .428E-01  .422E-01  .417E-01  .414E-01
  .411E-01  .409E-01  .407E-01  .405E-01  .404E-01  .403E-01  .402E-01  .401E-01
  .400E-01  .399E-01  .399E-01  .000E+00  .000E+00  .000E+00  .000E+00  .000E+00
  .000E+00  .000E+00  .000E+00  .000E+00
  .171E-01  .203E-01  .234E-01  .278E-01  .310E-01  .333E-01  .456E-01  .516E-01
  .749E-01  .866E-01  .109E+00  .142E+00  .169E+00  .183E+00  .192E+00  .222E+00
  .318E+00  .486E+00  .486E+00  .694E+00  .656E+00  .699E+00  .796E+00  .845E+00
  .785E+00  .780E+00  .844E+00  .985E+00  .997E+00  .105E+01  .115E+01  .118E+01
  .130E+01  .140E+01  .138E+01  .140E+01  .143E+01  .134E+01  .132E+01  .111E+01
  .108E+01  .104E+01  .960E+00  .855E+00  .803E+00  .774E+00  .745E+00  .717E+00
  .694E+00  .675E+00  .659E+00  .626E+00  .598E+00  .576E+00  .560E+00  .557E+00
  .536E+00  .527E+00  .518E+00  .511E+00  .504E+00  .493E+00  .484E+00  .480E+00
  .482E+00  .483E+00  .485E+00  .486E+00  .486E+00  .486E+00  .486E+00  .486E+00
  .486E+00  .486E+00  .486E+00  .485E+00  .485E+00  .484E+00  .484E+00  .483E+00
  .483E+00  .483E+00  .482E+00  .482E+00  .482E+00  .482E+00  .482E+00  .481E+00
  .481E+00  .481E+00  .481E+00  .000E+00  .000E+00  .000E+00  .000E+00  .000E+00
  .000E+00  .000E+00  .000E+00  .000E+00
  .271E-01  .272E-01  .267E-01  .264E-01  .262E-01  .265E-01  .272E-01  .298E-01
  .322E-01  .334E-01  .321E-01  .362E-01  .415E-01  .433E-01  .441E-01  .461E-01
  .552E-01  .693E-01  .664E-01  .871E-01  .766E-01  .776E-01  .805E-01  .763E-01
  .649E-01  .659E-01  .676E-01  .710E-01  .627E-01  .587E-01  .626E-01  .590E-01
  .608E-01  .617E-01  .579E-01  .574E-01  .496E-01  .438E-01  .446E-01  .350E-01
  .303E-01  .231E-01  .185E-01  .137E-01  .116E-01  .990E-02  .835E-02  .708E-02
  .606E-02  .524E-02  .462E-02  .394E-02  .335E-02  .287E-02  .250E-02  .220E-02
  .235E-02  .198E-02  .161E-02  .146E-02  .134E-02  .114E-02  .981E-03  .856E-03
  .753E-03  .667E-03  .594E-03  .532E-03  .479E-03  .435E-03  .397E-03  .365E-03
  .337E-03  .313E-03  .291E-03  .272E-03  .234E-03  .204E-03  .181E-03  .163E-03
  .148E-03  .136E-03  .125E-03  .116E-03  .108E-03  .101E-03  .898E-04  .806E-04
  .731E-04  .669E-04  .616E-04  .000E+00  .000E+00  .000E+00  .000E+00  .000E+00
  .000E+00  .000E+00  .000E+00  .000E+00
  .666E-01  .702E-01  .723E-01  .747E-01  .774E-01  .811E-01  .919E-01  .109E+00
  .128E+00  .144E+00  .148E+00  .177E+00  .215E+00  .237E+00  .255E+00  .286E+00
  .377E+00  .513E+00  .533E+00  .746E+00  .702E+00  .749E+00  .827E+00  .840E+00
  .757E+00  .811E+00  .912E+00  .104E+01  .990E+00  .100E+01  .115E+01  .116E+01
  .126E+01  .136E+01  .135E+01  .141E+01  .128E+01  .118E+01  .126E+01  .103E+01
  .926E+00  .775E+00  .679E+00  .545E+00  .497E+00  .452E+00  .406E+00  .364E+00
  .330E+00  .300E+00  .274E+00  .256E+00  .237E+00  .218E+00  .203E+00  .199E+00
  .224E+00  .200E+00  .163E+00  .156E+00  .149E+00  .137E+00  .126E+00  .117E+00
  .109E+00  .101E+00  .945E-01  .880E-01  .822E-01  .770E-01  .722E-01  .680E-01
  .642E-01  .608E-01  .577E-01  .549E-01  .489E-01  .442E-01  .404E-01  .371E-01
  .344E-01  .321E-01  .301E-01  .283E-01  .267E-01  .253E-01  .230E-01  .210E-01
  .193E-01  .179E-01  .167E-01  .000E+00  .000E+00  .000E+00  .000E+00  .000E+00
  .000E+00  .000E+00  .000E+00  .000E+00
  .573E+01  .573E+01  .574E+01  .574E+01  .574E+01  .598E+01  .571E+01  .571E+01
  .571E+01  .572E+01  .758E+01  .672E+01  .673E+01  .673E+01  .674E+01  .598E+01
  .599E+01  .759E+01  .682E+01  .684E+01  .609E+01  .609E+01  .610E+01  .612E+01
  .587E+01  .588E+01  .589E+01  .590E+01  .592E+01  .593E+01  .824E+01  .614E+01
  .617E+01  .637E+01  .640E+01  .103E+02  .103E+02  .101E+02  .102E+02  .102E+02
  .608E+01  .611E+01  .155E+02  .591E+01  .593E+01  .594E+01  .595E+01  .595E+01
  .596E+01  .596E+01  .571E+01  .572E+01  .572E+01  .572E+01  .572E+01  .139E+02
  .960E+01  .961E+01  .572E+01  .572E+01  .572E+01  .572E+01  .573E+01  .573E+01
  .573E+01  .573E+01  .573E+01  .573E+01  .573E+01  .573E+01  .573E+01  .573E+01
  .573E+01  .573E+01  .573E+01  .573E+01  .573E+01  .573E+01  .573E+01  .573E+01
  .573E+01  .573E+01  .573E+01  .573E+01  .573E+01  .573E+01  .573E+01  .573E+01
  .573E+01  .573E+01  .573E+01  .000E+00  .000E+00  .000E+00  .000E+00  .000E+00
  .000E+00  .000E+00  .000E+00  .000E+00
  .601E+01  .601E+01  .601E+01  .677E+01  .678E+01  .677E+01  .678E+01  .602E+01
  .678E+01  .670E+01  .761E+01  .670E+01  .670E+01  .671E+01  .671E+01  .677E+01
  .602E+01  .762E+01  .624E+01  .680E+01  .612E+01  .613E+01  .606E+01  .607E+01
  .609E+01  .592E+01  .594E+01  .585E+01  .586E+01  .586E+01  .817E+01  .588E+01
  .608E+01  .646E+01  .631E+01  .102E+02  .102E+02  .103E+02  .103E+02  .619E+01
  .620E+01  .601E+01  .601E+01  .602E+01  .579E+01  .580E+01  .580E+01  .580E+01
  .580E+01  .580E+01  .580E+01  .580E+01  .580E+01  .580E+01  .580E+01  .969E+01
  .580E+01  .580E+01  .580E+01  .580E+01  .580E+01  .580E+01  .580E+01  .566E+01
  .566E+01  .566E+01  .566E+01  .566E+01  .566E+01  .566E+01  .566E+01  .566E+01
  .566E+01  .566E+01  .566E+01  .566E+01  .566E+01  .566E+01  .566E+01  .566E+01
  .566E+01  .566E+01  .566E+01  .566E+01  .566E+01  .566E+01  .566E+01  .566E+01
  .566E+01  .566E+01  .566E+01  .000E+00  .000E+00  .000E+00  .000E+00  .000E+00
  .000E+00  .000E+00  .000E+00  .000E+00
  .573E+01  .573E+01  .574E+01  .574E+01  .574E+01  .598E+01  .599E+01  .571E+01
  .571E+01  .572E+01  .758E+01  .672E+01  .673E+01  .673E+01  .674E+01  .598E+01
  .599E+01  .759E+01  .627E+01  .683E+01  .608E+01  .609E+01  .610E+01  .611E+01
  .613E+01  .587E+01  .588E+01  .590E+01  .591E+01  .592E+01  .823E+01  .613E+01
  .616E+01  .637E+01  .639E+01  .103E+02  .103E+02  .101E+02  .102E+02  .102E+02
  .607E+01  .610E+01  .155E+02  .590E+01  .592E+01  .593E+01  .594E+01  .594E+01
  .594E+01  .595E+01  .570E+01  .570E+01  .570E+01  .570E+01  .570E+01  .570E+01
  .957E+01  .959E+01  .570E+01  .570E+01  .570E+01  .569E+01  .569E+01  .569E+01
  .569E+01  .569E+01  .569E+01  .569E+01  .569E+01  .568E+01  .568E+01  .568E+01
  .568E+01  .568E+01  .568E+01  .568E+01  .568E+01  .568E+01  .568E+01  .567E+01
  .567E+01  .567E+01  .567E+01  .567E+01  .567E+01  .567E+01  .567E+01  .567E+01
  .567E+01  .567E+01  .567E+01  .000E+00  .000E+00  .000E+00  .000E+00  .000E+00
  .000E+00  .000E+00  .000E+00  .000E+00
/&   ----------  End of spectral data for channel  1  ----------
Response and Fourier amplitude spectra (91 periods,  .04 - 15.0 sec)   for      
Corrected accelerogram   24839-L1199-01252.10       Chan  2:  Up         from   
Uncorrected Accelerogram Data             Processed: 09/10/01, CDMG  839as010   
Record of Sun Sep  9, 2001 16:59:18 PDT               (Avol1 v4.6  7/01 CSMIP)  
CSMIP Preliminary Processing            (Origin:  To be determined)             
24839-L1199-01252.10                 Start time:  9/09/01, 23:59:18.0 UTC (GPS) 
Station No. 24839   34.058N, 118.252W      Etna  s/n 1199  (3 Channels)         
Los Angeles - 1st & Figueroa                                                    
Chan  2:  Up                                                                    
Record of Sun Sep  9, 2001 16:59:18 PDT    Sun Sep  9, 2001 16:59:18 PDT        
Hypocenter:  To be determined.               ML:  To be determined.             
Instr Period =  .0104 sec,  Damping =  .660,  Sensitivity =  .63  v/g           
                        Record length = 44.000 sec.                             
                                     Uncor Max  =   .016 g, at   6.045 sec.     
RMS accel of (uncor) record  =        .                                         
Accelerogram bandpass filtered with 3 dB pts at   .30 and 40.00 cyc/sec         
                 instrument- and baseline-corrected                             
                                                                                
                                                                                
                                                                                
                                                                                
                                                                                
Record of Sun Sep  9, 2001 16:59:18 PDT    Sun Sep  9, 2001 16:59:18 PDT        
                                                                                
24839-L1199-01252.10      Los Angeles - 1st & Figueroa    Chan  2:  Up          
                                                                                
24839-L1199-01252.10      Los Angeles - 1st & Figueroa    Chan  2:  Up          
                                                                                
Units for spectra are inches and sec, except Sa is in fraction of g.            
                                                                                
    2  100    2    3    3  200    1    3    1   24   12 1199    024839    1    0
   23   59   18    0  252    9    9 2001   10    3  500 8800   39   28   72  308
 8800    1   50    3 1199    1   10  440    1    0    0    0    0    0    0    0
    0    4    0    0 4400    2    0    0    0    0   72   28    0    0    0 4400
    0 4400   29   91    1    3    0    0    0    0    3    0    0    0    0    2
    2    2    4    0   32   99    0   32   32    0    0    1    0    0    0    0
  -99   -1    0    0
      .010      .660    44.000      .002      .000   625.000      .016     6.045
    96.400      .298      .477      .000     5.000      .000      .000      .000
     2.500   -29.624     -.010     -.029     5.000    30.000      .000     -.001
     -.002     -.001     2.000    15.000    34.058  -118.252      .014      .176
    12.473     -.010      .007  -999.000      .000      .000   -14.200      .000
  1000.000     1.020      .000      .000      .000      .000      .000      .000
     4.600     4.400      .000   980.665      .010    44.000    15.343      .000
      .000    40.000      .000    44.000      .010      .300      .000      .000
     6.050    16.021     5.830     -.522     5.770      .028      .000      .300
    40.000      .010      .010      .000      .010      .019      .000      .000
      .079      .190      .066      .024      .003      .000      .000      .000
      .000      .000      .000      .000      .000      .000      .000      .000
      .000      .000      .000      .000
      .050
      .040      .042      .044      .046      .048      .050      .055      .060
      .065      .070      .075      .080      .085      .090      .095      .100
      .110      .120      .130      .140      .150      .160      .170      .180
      .190      .200      .220      .240      .260      .280      .300      .320
      .340      .360      .380      .400      .420      .440      .460      .480
      .500      .550      .600      .650      .700      .750      .800      .850
      .900      .950     1.000     1.100     1.200     1.300     1.400     1.500
     1.600     1.700     1.800     1.900     2.000     2.200     2.400     2.600
     2.800     3.000     3.200     3.400     3.600     3.800     4.000     4.200
     4.400     4.600     4.800     5.000     5.500     6.000     6.500     7.000
     7.500     8.000     8.500     9.000     9.500    10.000    11.000    12.000
    13.000    14.000    15.000      .000      .000      .000      .000      .000
      .000      .000      .000      .000
Fourier amplitude spectra in in/sec.
  .000E+00  .000E+00  .000E+00  .000E+00  .000E+00  .000E+00  .000E+00  .000E+00
  .000E+00  .000E+00  .000E+00  .000E+00  .000E+00  .000E+00  .000E+00  .000E+00
  .000E+00  .000E+00  .000E+00  .000E+00  .000E+00  .000E+00  .000E+00  .000E+00
  .000E+00  .000E+00  .000E+00  .000E+00  .000E+00  .000E+00  .000E+00  .000E+00
  .000E+00  .000E+00  .000E+00  .000E+00  .000E+00  .000E+00  .000E+00  .000E+00
  .000E+00  .000E+00  .000E+00  .000E+00  .000E+00  .000E+00  .000E+00  .000E+00
  .000E+00  .000E+00  .000E+00  .000E+00  .000E+00  .000E+00  .000E+00  .000E+00
  .000E+00  .000E+00  .000E+00  .000E+00  .000E+00  .000E+00  .000E+00  .000E+00
  .000E+00  .000E+00  .000E+00  .000E+00  .000E+00  .000E+00  .000E+00  .000E+00
  .000E+00  .000E+00  .000E+00  .000E+00  .000E+00  .000E+00  .000E+00  .000E+00
  .000E+00  .000E+00  .000E+00  .000E+00  .000E+00  .000E+00  .000E+00  .000E+00
  .000E+00  .000E+00  .000E+00  .000E+00  .000E+00  .000E+00  .000E+00  .000E+00
  .000E+00  .000E+00  .000E+00  .000E+00
Damping =  .05. Data of Sd,Sv,Sa,Pssv,ttSd,ttSv,ttSa :
  .289E-03  .314E-03  .345E-03  .377E-03  .438E-03  .484E-03  .591E-03  .653E-03
  .977E-03  .121E-02  .154E-02  .184E-02  .168E-02  .177E-02  .213E-02  .254E-02
  .384E-02  .612E-02  .685E-02  .712E-02  .901E-02  .138E-01  .189E-01  .238E-01
  .276E-01  .265E-01  .246E-01  .236E-01  .273E-01  .215E-01  .193E-01  .226E-01
  .248E-01  .249E-01  .323E-01  .340E-01  .316E-01  .290E-01  .290E-01  .361E-01
