Response and Fourier amplitude spectra (91 periods,  .04 - 15.0 sec)   for      
Corrected accelerogram   24680-F0322-01252.02       Chan  3: 360 Deg     from   
Uncorrected Accelerogram Data             Processed: 09/10/01, CDMG  s680e02    
Earthquake of Sun Sep  9, 2001  16:59 PDT             (Avol1 v4.6  7/01 CSMIP)  
CSMIP Preliminary Processing            (Origin:  To be determined)             
24680-F0322-01252.02                 Start time:  9/09/01, 23:59:16.1 GMT (WWVB)
Station No. 24680   34.152N, 118.453W     SSA-2  s/n  322  (3 Channels)         
Sherman Oaks - 14-story Commercial Bldg                                         
Chan  3: 360 Deg                    Location: Ground Floor: West Shear Wall     
Earthquake of Sun Sep  9, 2001  16:59 PDT    Sun Sep  9, 2001  16:59 PDT        
Hypocenter:  To be determined.               ML:  To be determined.
Instr Period =  .0222 sec,  Damping =  .700,  Sensitivity = 1.25  v/g
                        Record length = 67.840 sec.
                                     Uncor Max  =  -.137 g, at   7.270 sec.
RMS accel of (uncor) record  =        .
Accelerogram bandpass filtered with 3 dB pts at   .30 and 40.00 cyc/sec
                 instrument- and baseline-corrected





Earthquake of Sun Sep  9, 2001  16:59 PDT    Sun Sep  9, 2001  16:59 PDT

24680-F0322-01252.02      Sherman Oaks - 14-story Commercial Bldg   Chan  3: 360
 Deg
24680-F0322-01252.02      Sherman Oaks - 14-story Commercial Bldg   Chan  3: 360
 Deg
Units for spectra are inches and sec, except Sa is in fraction of g.

    3  100    3    3    3  200    1    3    1   12    6  322    024680    2    0
   23   59   16  100  252    9    9 2001   10    1  36013568   41   39   72   12
13568    1   50    0 3113    1    2   53    0   23   59   28  680    9    9 2001
    0    0    0    0 6784    2    0    0    0    0   72   39    0    0    0 6784
    0 6784   40   91    1    3    0    0    0    0   15    0    0    0    0    2
    2    2    4    0   79   99    1   32   32    0    0    0    0    0    9  129
  -99   -1    0    0
      .022      .700    67.840      .005      .000  1250.000     -.137     7.270
    45.000  1220.703   976.563      .000     5.000      .000      .000      .000
     2.500   -10.910      .157     -.148     5.120    30.000      .000     -.161
     -.128      .033     2.000    15.000    34.152  -118.453      .084      .194
     2.296      .019      .047  -999.000      .000      .000      .000      .000
     5.295     1.035      .000      .000      .000      .000      .000      .000
     4.600     4.400      .000   980.665      .010    67.840     7.162      .000
      .000    40.000      .000    67.840      .010      .300      .000      .000
     7.260  -130.987     7.220     4.832     7.160     -.267     -.002      .300
    40.000      .010      .010      .000      .180      .045      .000      .000
      .336      .150      .257      .154      .013      .002      .000      .000
      .000      .000      .000      .000      .000      .000      .000      .000
      .000      .000      .000      .000
      .050
      .040      .042      .044      .046      .048      .050      .055      .060
      .065      .070      .075      .080      .085      .090      .095      .100
      .110      .120      .130      .140      .150      .160      .170      .180
      .190      .200      .220      .240      .260      .280      .300      .320
      .340      .360      .380      .400      .420      .440      .460      .480
      .500      .550      .600      .650      .700      .750      .800      .850
      .900      .950     1.000     1.100     1.200     1.300     1.400     1.500
     1.600     1.700     1.800     1.900     2.000     2.200     2.400     2.600
     2.800     3.000     3.200     3.400     3.600     3.800     4.000     4.200
     4.400     4.600     4.800     5.000     5.500     6.000     6.500     7.000
     7.500     8.000     8.500     9.000     9.500    10.000    11.000    12.000
    13.000    14.000    15.000      .000      .000      .000      .000      .000
      .000      .000      .000      .000
Fourier amplitude spectra in in/sec.
  .000E+00  .000E+00  .000E+00  .000E+00  .000E+00  .000E+00  .000E+00  .000E+00
  .000E+00  .000E+00  .000E+00  .000E+00  .000E+00  .000E+00  .000E+00  .000E+00
  .000E+00  .000E+00  .000E+00  .000E+00  .000E+00  .000E+00  .000E+00  .000E+00
  .000E+00  .000E+00  .000E+00  .000E+00  .000E+00  .000E+00  .000E+00  .000E+00
  .000E+00  .000E+00  .000E+00  .000E+00  .000E+00  .000E+00  .000E+00  .000E+00
  .000E+00  .000E+00  .000E+00  .000E+00  .000E+00  .000E+00  .000E+00  .000E+00
  .000E+00  .000E+00  .000E+00  .000E+00  .000E+00  .000E+00  .000E+00  .000E+00
  .000E+00  .000E+00  .000E+00  .000E+00  .000E+00  .000E+00  .000E+00  .000E+00
  .000E+00  .000E+00  .000E+00  .000E+00  .000E+00  .000E+00  .000E+00  .000E+00
  .000E+00  .000E+00  .000E+00  .000E+00  .000E+00  .000E+00  .000E+00  .000E+00
  .000E+00  .000E+00  .000E+00  .000E+00  .000E+00  .000E+00  .000E+00  .000E+00
  .000E+00  .000E+00  .000E+00  .000E+00  .000E+00  .000E+00  .000E+00  .000E+00
  .000E+00  .000E+00  .000E+00  .000E+00
Damping =  .05. Data of Sd,Sv,Sa,Pssv,ttSd,ttSv,ttSa :
  .242E-02  .272E-02  .303E-02  .332E-02  .356E-02  .375E-02  .431E-02  .591E-02
  .783E-02  .958E-02  .114E-01  .120E-01  .130E-01  .151E-01  .178E-01  .203E-01
  .301E-01  .426E-01  .523E-01  .636E-01  .731E-01  .798E-01  .860E-01  .914E-01
  .978E-01  .101E+00  .111E+00  .122E+00  .129E+00  .133E+00  .133E+00  .135E+00
  .138E+00  .151E+00  .159E+00  .161E+00  .158E+00  .156E+00  .160E+00  .165E+00
  .168E+00  .174E+00  .170E+00  .158E+00  .155E+00  .149E+00  .142E+00  .136E+00
  .131E+00  .130E+00  .128E+00  .124E+00  .119E+00  .112E+00  .102E+00  .102E+00
  .101E+00  .100E+00  .998E-01  .101E+00  .104E+00  .113E+00  .122E+00  .128E+00
  .130E+00  .131E+00  .130E+00  .129E+00  .127E+00  .125E+00  .122E+00  .119E+00
  .116E+00  .113E+00  .111E+00  .109E+00  .105E+00  .104E+00  .104E+00  .105E+00
  .107E+00  .108E+00  .109E+00  .110E+00  .111E+00  .112E+00  .113E+00  .113E+00
  .112E+00  .112E+00  .112E+00  .000E+00  .000E+00  .000E+00  .000E+00  .000E+00
  .000E+00  .000E+00  .000E+00  .000E+00
  .134E+00  .157E+00  .189E+00  .224E+00  .259E+00  .287E+00  .312E+00  .354E+00
  .517E+00  .714E+00  .845E+00  .863E+00  .892E+00  .970E+00  .111E+01  .120E+01
  .168E+01  .215E+01  .249E+01  .291E+01  .326E+01  .322E+01  .326E+01  .317E+01
  .314E+01  .301E+01  .312E+01  .340E+01  .356E+01  .366E+01  .358E+01  .340E+01
  .322E+01  .298E+01  .271E+01  .264E+01  .265E+01  .260E+01  .251E+01  .239E+01
  .234E+01  .239E+01  .243E+01  .248E+01  .251E+01  .251E+01  .249E+01  .247E+01
  .244E+01  .242E+01  .240E+01  .235E+01  .231E+01  .227E+01  .223E+01  .218E+01
  .214E+01  .212E+01  .211E+01  .210E+01  .210E+01  .208E+01  .205E+01  .202E+01
  .200E+01  .197E+01  .196E+01  .194E+01  .193E+01  .192E+01  .191E+01  .191E+01
  .191E+01  .190E+01  .190E+01  .190E+01  .190E+01  .190E+01  .190E+01  .191E+01
  .190E+01  .190E+01  .190E+01  .190E+01  .190E+01  .190E+01  .190E+01  .190E+01
  .190E+01  .189E+01  .189E+01  .000E+00  .000E+00  .000E+00  .000E+00  .000E+00
  .000E+00  .000E+00  .000E+00  .000E+00
  .154E+00  .158E+00  .161E+00  .160E+00  .159E+00  .154E+00  .146E+00  .168E+00
  .190E+00  .200E+00  .207E+00  .195E+00  .184E+00  .190E+00  .202E+00  .210E+00
  .261E+00  .305E+00  .318E+00  .333E+00  .336E+00  .316E+00  .307E+00  .292E+00
  .277E+00  .260E+00  .234E+00  .216E+00  .195E+00  .173E+00  .153E+00  .135E+00
  .123E+00  .121E+00  .113E+00  .103E+00  .926E-01  .826E-01  .779E-01  .735E-01
  .693E-01  .592E-01  .486E-01  .392E-01  .330E-01  .278E-01  .234E-01  .199E-01
  .171E-01  .148E-01  .132E-01  .106E-01  .862E-02  .692E-02  .553E-02  .492E-02
  .433E-02  .382E-02  .342E-02  .313E-02  .292E-02  .264E-02  .241E-02  .217E-02
  .193E-02  .171E-02  .152E-02  .136E-02  .121E-02  .109E-02  .981E-03  .886E-03
  .804E-03  .733E-03  .672E-03  .619E-03  .518E-03  .460E-03  .428E-03  .398E-03
  .371E-03  .348E-03  .327E-03  .309E-03  .293E-03  .278E-03  .254E-03  .234E-03
  .217E-03  .203E-03  .190E-03  .000E+00  .000E+00  .000E+00  .000E+00  .000E+00
  .000E+00  .000E+00  .000E+00  .000E+00
  .380E+00  .407E+00  .432E+00  .454E+00  .466E+00  .471E+00  .493E+00  .619E+00
  .757E+00  .860E+00  .958E+00  .944E+00  .964E+00  .106E+01  .117E+01  .127E+01
  .172E+01  .223E+01  .253E+01  .285E+01  .306E+01  .313E+01  .318E+01  .319E+01
  .323E+01  .316E+01  .317E+01  .318E+01  .311E+01  .297E+01  .279E+01  .265E+01
  .255E+01  .264E+01  .263E+01  .253E+01  .237E+01  .223E+01  .219E+01  .215E+01
  .212E+01  .199E+01  .178E+01  .153E+01  .139E+01  .125E+01  .112E+01  .100E+01
  .915E+00  .858E+00  .805E+00  .709E+00  .623E+00  .540E+00  .458E+00  .428E+00
  .397E+00  .369E+00  .348E+00  .334E+00  .327E+00  .323E+00  .320E+00  .309E+00
  .292E+00  .273E+00  .255E+00  .238E+00  .222E+00  .206E+00  .192E+00  .178E+00
  .166E+00  .155E+00  .145E+00  .137E+00  .120E+00  .109E+00  .101E+00  .945E-01
  .893E-01  .849E-01  .808E-01  .771E-01  .736E-01  .703E-01  .643E-01  .591E-01
  .544E-01  .503E-01  .468E-01  .000E+00  .000E+00  .000E+00  .000E+00  .000E+00
  .000E+00  .000E+00  .000E+00  .000E+00
  .726E+01  .726E+01  .726E+01  .727E+01  .727E+01  .726E+01  .726E+01  .726E+01
  .726E+01  .732E+01  .732E+01  .732E+01  .732E+01  .732E+01  .732E+01  .732E+01
  .733E+01  .733E+01  .734E+01  .742E+01  .728E+01  .729E+01  .729E+01  .730E+01
  .730E+01  .730E+01  .731E+01  .732E+01  .733E+01  .734E+01  .735E+01  .737E+01
  .758E+01  .760E+01  .761E+01  .763E+01  .764E+01  .746E+01  .747E+01  .748E+01
  .749E+01  .751E+01  .753E+01  .726E+01  .727E+01  .727E+01  .727E+01  .727E+01
  .735E+01  .736E+01  .736E+01  .737E+01  .738E+01  .738E+01  .738E+01  .714E+01
  .714E+01  .714E+01  .714E+01  .714E+01  .714E+01  .714E+01  .715E+01  .715E+01
  .715E+01  .715E+01  .715E+01  .715E+01  .715E+01  .715E+01  .715E+01  .715E+01
  .715E+01  .715E+01  .715E+01  .715E+01  .715E+01  .715E+01  .715E+01  .715E+01
  .715E+01  .715E+01  .715E+01  .715E+01  .715E+01  .715E+01  .715E+01  .715E+01
  .715E+01  .715E+01  .715E+01  .000E+00  .000E+00  .000E+00  .000E+00  .000E+00
  .000E+00  .000E+00  .000E+00  .000E+00
  .729E+01  .729E+01  .729E+01  .729E+01  .729E+01  .729E+01  .729E+01  .729E+01
  .729E+01  .734E+01  .734E+01  .734E+01  .734E+01  .735E+01  .735E+01  .735E+01
  .735E+01  .736E+01  .731E+01  .731E+01  .732E+01  .732E+01  .733E+01  .734E+01
  .734E+01  .735E+01  .727E+01  .727E+01  .728E+01  .728E+01  .728E+01  .728E+01
  .729E+01  .729E+01  .729E+01  .754E+01  .755E+01  .756E+01  .757E+01  .758E+01
  .720E+01  .720E+01  .721E+01  .721E+01  .721E+01  .721E+01  .721E+01  .721E+01
  .721E+01  .721E+01  .721E+01  .721E+01  .721E+01  .721E+01  .721E+01  .721E+01
  .721E+01  .721E+01  .721E+01  .721E+01  .721E+01  .721E+01  .721E+01  .721E+01
  .721E+01  .721E+01  .721E+01  .721E+01  .721E+01  .721E+01  .721E+01  .721E+01
  .721E+01  .721E+01  .721E+01  .721E+01  .721E+01  .721E+01  .721E+01  .721E+01
  .721E+01  .721E+01  .721E+01  .721E+01  .721E+01  .721E+01  .721E+01  .721E+01
  .721E+01  .721E+01  .721E+01  .000E+00  .000E+00  .000E+00  .000E+00  .000E+00
  .000E+00  .000E+00  .000E+00  .000E+00
  .726E+01  .726E+01  .726E+01  .727E+01  .727E+01  .726E+01  .726E+01  .726E+01
  .726E+01  .732E+01  .732E+01  .732E+01  .732E+01  .732E+01  .732E+01  .732E+01
  .732E+01  .733E+01  .740E+01  .741E+01  .728E+01  .729E+01  .729E+01  .729E+01
  .730E+01  .730E+01  .731E+01  .731E+01  .732E+01  .734E+01  .735E+01  .736E+01
  .757E+01  .759E+01  .761E+01  .762E+01  .764E+01  .745E+01  .747E+01  .748E+01
  .749E+01  .750E+01  .752E+01  .725E+01  .726E+01  .726E+01  .726E+01  .726E+01
  .726E+01  .734E+01  .735E+01  .736E+01  .736E+01  .737E+01  .713E+01  .713E+01
  .713E+01  .713E+01  .713E+01  .713E+01  .713E+01  .713E+01  .713E+01  .712E+01
  .712E+01  .712E+01  .712E+01  .712E+01  .712E+01  .712E+01  .712E+01  .712E+01
  .712E+01  .712E+01  .712E+01  .712E+01  .712E+01  .722E+01  .722E+01  .722E+01
  .722E+01  .722E+01  .722E+01  .722E+01  .722E+01  .722E+01  .722E+01  .722E+01
  .722E+01  .722E+01  .722E+01  .000E+00  .000E+00  .000E+00  .000E+00  .000E+00
  .000E+00  .000E+00  .000E+00  .000E+00
/&   ----------  End of spectral data for channel  3  ----------
