Response and Fourier amplitude spectra (91 periods,  .04 - 15.0 sec)   for      
Corrected accelerogram   24680-F0322-01252.02       Chan  2:  Up         from   
Uncorrected Accelerogram Data             Processed: 09/10/01, CDMG  s680e02    
Earthquake of Sun Sep  9, 2001  16:59 PDT             (Avol1 v4.6  7/01 CSMIP)  
CSMIP Preliminary Processing            (Origin:  To be determined)             
24680-F0322-01252.02                 Start time:  9/09/01, 23:59:16.1 GMT (WWVB)
Station No. 24680   34.152N, 118.453W     SSA-2  s/n  322  (3 Channels)         
Sherman Oaks - 14-story Commercial Bldg                                         
Chan  2:  Up                        Location: Ground Floor: West Shear Wall     
Earthquake of Sun Sep  9, 2001  16:59 PDT    Sun Sep  9, 2001  16:59 PDT        
Hypocenter:  To be determined.               ML:  To be determined.
Instr Period =  .0222 sec,  Damping =  .700,  Sensitivity = 1.25  v/g
                        Record length = 67.840 sec.
                                     Uncor Max  =  -.024 g, at   7.270 sec.
RMS accel of (uncor) record  =        .
Accelerogram bandpass filtered with 3 dB pts at   .30 and 40.00 cyc/sec
                 instrument- and baseline-corrected





Earthquake of Sun Sep  9, 2001  16:59 PDT    Sun Sep  9, 2001  16:59 PDT

24680-F0322-01252.02      Sherman Oaks - 14-story Commercial Bldg   Chan  2:  Up

24680-F0322-01252.02      Sherman Oaks - 14-story Commercial Bldg   Chan  2:  Up

Units for spectra are inches and sec, except Sa is in fraction of g.

    2  100    2    3    3  200    1    3    1   12    6  322    024680    2    0
   23   59   16  100  252    9    9 2001   10    1  50013568   41   39   72   12
13568    1   50    0 3113    1    2   53    0   23   59   28  680    9    9 2001
    0    0    0    0 6784    2    0    0    0    0   72   39    0    0    0 6784
    0 6784   40   91    1    3    0    0    0    0   15    0    0    0    0    2
    2    2    4    0   79   99    1   32   32    0    0    0    0    0    9  129
  -99   -1    0    0
      .022      .700    67.840      .002      .000  1250.000     -.024     7.270
    45.000  1220.703   976.563      .000     5.000      .000      .000      .000
     2.500   -45.943     -.027     -.083     5.120    30.000      .000     -.040
     -.039      .001     2.000    15.000    34.152  -118.453      .069      .073
     1.063     -.009      .010  -999.000      .000      .000      .000      .000
     2.093     1.089      .000      .000      .000      .000      .000      .000
     4.600     4.400      .000   980.665      .010    67.840     7.162      .000
      .000    40.000      .000    67.840      .010      .300      .000      .000
     7.270   -24.211     7.960     -.811    10.330     -.052      .000      .300
    40.000      .010      .010      .000      .010      .023      .000      .000
      .100      .150      .065      .063      .005      .000      .000      .000
      .000      .000      .000      .000      .000      .000      .000      .000
      .000      .000      .000      .000
      .050
      .040      .042      .044      .046      .048      .050      .055      .060
      .065      .070      .075      .080      .085      .090      .095      .100
      .110      .120      .130      .140      .150      .160      .170      .180
      .190      .200      .220      .240      .260      .280      .300      .320
      .340      .360      .380      .400      .420      .440      .460      .480
      .500      .550      .600      .650      .700      .750      .800      .850
      .900      .950     1.000     1.100     1.200     1.300     1.400     1.500
     1.600     1.700     1.800     1.900     2.000     2.200     2.400     2.600
     2.800     3.000     3.200     3.400     3.600     3.800     4.000     4.200
     4.400     4.600     4.800     5.000     5.500     6.000     6.500     7.000
     7.500     8.000     8.500     9.000     9.500    10.000    11.000    12.000
    13.000    14.000    15.000      .000      .000      .000      .000      .000
      .000      .000      .000      .000
Fourier amplitude spectra in in/sec.
  .000E+00  .000E+00  .000E+00  .000E+00  .000E+00  .000E+00  .000E+00  .000E+00
  .000E+00  .000E+00  .000E+00  .000E+00  .000E+00  .000E+00  .000E+00  .000E+00
  .000E+00  .000E+00  .000E+00  .000E+00  .000E+00  .000E+00  .000E+00  .000E+00
  .000E+00  .000E+00  .000E+00  .000E+00  .000E+00  .000E+00  .000E+00  .000E+00
  .000E+00  .000E+00  .000E+00  .000E+00  .000E+00  .000E+00  .000E+00  .000E+00
  .000E+00  .000E+00  .000E+00  .000E+00  .000E+00  .000E+00  .000E+00  .000E+00
  .000E+00  .000E+00  .000E+00  .000E+00  .000E+00  .000E+00  .000E+00  .000E+00
  .000E+00  .000E+00  .000E+00  .000E+00  .000E+00  .000E+00  .000E+00  .000E+00
  .000E+00  .000E+00  .000E+00  .000E+00  .000E+00  .000E+00  .000E+00  .000E+00
  .000E+00  .000E+00  .000E+00  .000E+00  .000E+00  .000E+00  .000E+00  .000E+00
  .000E+00  .000E+00  .000E+00  .000E+00  .000E+00  .000E+00  .000E+00  .000E+00
  .000E+00  .000E+00  .000E+00  .000E+00  .000E+00  .000E+00  .000E+00  .000E+00
  .000E+00  .000E+00  .000E+00  .000E+00
Damping =  .05. Data of Sd,Sv,Sa,Pssv,ttSd,ttSv,ttSa :
  .474E-03  .525E-03  .598E-03  .679E-03  .769E-03  .802E-03  .101E-02  .121E-02
  .179E-02  .242E-02  .318E-02  .370E-02  .386E-02  .433E-02  .458E-02  .485E-02
  .630E-02  .919E-02  .155E-01  .183E-01  .216E-01  .161E-01  .171E-01  .203E-01
  .219E-01  .275E-01  .301E-01  .315E-01  .339E-01  .438E-01  .535E-01  .689E-01
  .755E-01  .785E-01  .716E-01  .564E-01  .632E-01  .727E-01  .703E-01  .585E-01
  .495E-01  .410E-01  .417E-01  .356E-01  .360E-01  .404E-01  .393E-01  .418E-01
  .498E-01  .495E-01  .522E-01  .575E-01  .615E-01  .468E-01  .397E-01  .355E-01
  .358E-01  .389E-01  .397E-01  .347E-01  .348E-01  .365E-01  .339E-01  .291E-01
  .268E-01  .265E-01  .263E-01  .257E-01  .246E-01  .241E-01  .235E-01  .227E-01
  .219E-01  .217E-01  .221E-01  .225E-01  .238E-01  .247E-01  .244E-01  .235E-01
  .225E-01  .216E-01  .210E-01  .205E-01  .203E-01  .202E-01  .204E-01  .207E-01
  .210E-01  .213E-01  .215E-01  .000E+00  .000E+00  .000E+00  .000E+00  .000E+00
  .000E+00  .000E+00  .000E+00  .000E+00
  .391E-01  .421E-01  .483E-01  .578E-01  .606E-01  .661E-01  .742E-01  .727E-01
  .129E+00  .168E+00  .208E+00  .228E+00  .223E+00  .228E+00  .234E+00  .235E+00
  .299E+00  .423E+00  .713E+00  .773E+00  .877E+00  .597E+00  .586E+00  .671E+00
  .727E+00  .789E+00  .851E+00  .885E+00  .772E+00  .859E+00  .102E+01  .129E+01
  .137E+01  .134E+01  .121E+01  .925E+00  .975E+00  .115E+01  .104E+01  .912E+00
  .771E+00  .582E+00  .565E+00  .514E+00  .399E+00  .427E+00  .441E+00  .501E+00
  .457E+00  .515E+00  .526E+00  .432E+00  .465E+00  .422E+00  .373E+00  .340E+00
  .318E+00  .307E+00  .311E+00  .326E+00  .344E+00  .361E+00  .355E+00  .343E+00
  .338E+00  .336E+00  .335E+00  .335E+00  .334E+00  .334E+00  .334E+00  .333E+00
  .333E+00  .333E+00  .332E+00  .331E+00  .329E+00  .327E+00  .325E+00  .323E+00
  .322E+00  .321E+00  .321E+00  .320E+00  .320E+00  .320E+00  .320E+00  .320E+00
  .320E+00  .320E+00  .320E+00  .000E+00  .000E+00  .000E+00  .000E+00  .000E+00
  .000E+00  .000E+00  .000E+00  .000E+00
  .302E-01  .304E-01  .316E-01  .329E-01  .341E-01  .329E-01  .342E-01  .344E-01
  .431E-01  .509E-01  .582E-01  .594E-01  .544E-01  .547E-01  .518E-01  .500E-01
  .527E-01  .659E-01  .953E-01  .947E-01  .995E-01  .652E-01  .604E-01  .640E-01
  .623E-01  .702E-01  .635E-01  .564E-01  .516E-01  .576E-01  .609E-01  .692E-01
  .673E-01  .620E-01  .511E-01  .363E-01  .368E-01  .387E-01  .342E-01  .262E-01
  .204E-01  .140E-01  .120E-01  .869E-02  .759E-02  .742E-02  .633E-02  .601E-02
  .636E-02  .568E-02  .542E-02  .495E-02  .442E-02  .286E-02  .210E-02  .164E-02
  .146E-02  .141E-02  .129E-02  .102E-02  .948E-03  .831E-03  .662E-03  .499E-03
  .395E-03  .348E-03  .309E-03  .272E-03  .246E-03  .223E-03  .202E-03  .184E-03
  .168E-03  .153E-03  .140E-03  .136E-03  .126E-03  .114E-03  .101E-03  .900E-04
  .803E-04  .725E-04  .662E-04  .611E-04  .575E-04  .547E-04  .497E-04  .455E-04
  .420E-04  .389E-04  .362E-04  .000E+00  .000E+00  .000E+00  .000E+00  .000E+00
  .000E+00  .000E+00  .000E+00  .000E+00
  .744E-01  .785E-01  .855E-01  .928E-01  .101E+00  .101E+00  .116E+00  .127E+00
  .173E+00  .217E+00  .267E+00  .291E+00  .285E+00  .302E+00  .303E+00  .305E+00
  .360E+00  .481E+00  .751E+00  .823E+00  .906E+00  .631E+00  .631E+00  .710E+00
  .725E+00  .863E+00  .861E+00  .825E+00  .820E+00  .983E+00  .112E+01  .135E+01
  .139E+01  .137E+01  .118E+01  .887E+00  .945E+00  .104E+01  .960E+00  .766E+00
  .622E+00  .469E+00  .436E+00  .344E+00  .323E+00  .338E+00  .308E+00  .309E+00
  .348E+00  .327E+00  .328E+00  .328E+00  .322E+00  .226E+00  .178E+00  .149E+00
  .141E+00  .144E+00  .138E+00  .115E+00  .109E+00  .104E+00  .887E-01  .704E-01
  .602E-01  .556E-01  .516E-01  .474E-01  .430E-01  .398E-01  .369E-01  .340E-01
  .313E-01  .296E-01  .289E-01  .283E-01  .272E-01  .258E-01  .236E-01  .211E-01
  .188E-01  .170E-01  .155E-01  .143E-01  .134E-01  .127E-01  .116E-01  .108E-01
  .102E-01  .955E-02  .901E-02  .000E+00  .000E+00  .000E+00  .000E+00  .000E+00
  .000E+00  .000E+00  .000E+00  .000E+00
  .727E+01  .727E+01  .727E+01  .727E+01  .727E+01  .727E+01  .751E+01  .752E+01
  .727E+01  .732E+01  .732E+01  .732E+01  .733E+01  .760E+01  .734E+01  .733E+01
  .734E+01  .767E+01  .775E+01  .777E+01  .778E+01  .736E+01  .737E+01  .738E+01
  .790E+01  .803E+01  .806E+01  .766E+01  .977E+01  .995E+01  .997E+01  .102E+02
  .104E+02  .104E+02  .104E+02  .104E+02  .104E+02  .105E+02  .103E+02  .103E+02
  .992E+01  .116E+02  .103E+02  .101E+02  .857E+01  .858E+01  .860E+01  .959E+01
  .101E+02  .101E+02  .990E+01  .992E+01  .130E+02  .114E+02  .114E+02  .114E+02
  .114E+02  .114E+02  .114E+02  .115E+02  .110E+02  .103E+02  .103E+02  .103E+02
  .809E+01  .974E+01  .974E+01  .974E+01  .974E+01  .809E+01  .809E+01  .809E+01
  .110E+02  .110E+02  .751E+01  .751E+01  .103E+02  .103E+02  .103E+02  .103E+02
  .103E+02  .103E+02  .103E+02  .103E+02  .103E+02  .103E+02  .103E+02  .103E+02
  .103E+02  .103E+02  .103E+02  .000E+00  .000E+00  .000E+00  .000E+00  .000E+00
  .000E+00  .000E+00  .000E+00  .000E+00
  .490E+01  .493E+01  .493E+01  .485E+01  .485E+01  .729E+01  .749E+01  .729E+01
  .729E+01  .729E+01  .730E+01  .734E+01  .735E+01  .736E+01  .731E+01  .731E+01
  .731E+01  .771E+01  .772E+01  .780E+01  .782E+01  .776E+01  .733E+01  .733E+01
  .776E+01  .798E+01  .801E+01  .761E+01  .763E+01  .100E+02  .101E+02  .101E+02
  .105E+02  .105E+02  .103E+02  .103E+02  .103E+02  .104E+02  .104E+02  .102E+02
  .983E+01  .966E+01  .102E+02  .102E+02  .102E+02  .844E+01  .102E+02  .102E+02
  .102E+02  .100E+02  .100E+02  .983E+01  .984E+01  .984E+01  .984E+01  .984E+01
  .984E+01  .984E+01  .984E+01  .984E+01  .984E+01  .984E+01  .984E+01  .984E+01
  .795E+01  .795E+01  .795E+01  .795E+01  .795E+01  .795E+01  .795E+01  .795E+01
  .795E+01  .795E+01  .795E+01  .795E+01  .795E+01  .795E+01  .795E+01  .795E+01
  .795E+01  .795E+01  .795E+01  .795E+01  .795E+01  .795E+01  .795E+01  .795E+01
  .795E+01  .795E+01  .795E+01  .000E+00  .000E+00  .000E+00  .000E+00  .000E+00
  .000E+00  .000E+00  .000E+00  .000E+00
  .726E+01  .727E+01  .727E+01  .727E+01  .727E+01  .727E+01  .751E+01  .752E+01
  .727E+01  .732E+01  .732E+01  .732E+01  .733E+01  .759E+01  .734E+01  .733E+01
  .734E+01  .767E+01  .775E+01  .777E+01  .778E+01  .736E+01  .737E+01  .738E+01
  .780E+01  .803E+01  .806E+01  .766E+01  .977E+01  .995E+01  .997E+01  .102E+02
  .104E+02  .104E+02  .104E+02  .104E+02  .104E+02  .105E+02  .103E+02  .103E+02
  .991E+01  .116E+02  .103E+02  .101E+02  .856E+01  .857E+01  .859E+01  .957E+01
  .101E+02  .101E+02  .988E+01  .991E+01  .130E+02  .114E+02  .114E+02  .114E+02
  .114E+02  .114E+02  .114E+02  .114E+02  .990E+01  .103E+02  .103E+02  .103E+02
  .798E+01  .970E+01  .970E+01  .970E+01  .797E+01  .797E+01  .797E+01  .797E+01
  .797E+01  .797E+01  .797E+01  .103E+02  .103E+02  .103E+02  .103E+02  .103E+02
  .103E+02  .103E+02  .103E+02  .103E+02  .796E+01  .796E+01  .796E+01  .795E+01
  .795E+01  .795E+01  .795E+01  .000E+00  .000E+00  .000E+00  .000E+00  .000E+00
  .000E+00  .000E+00  .000E+00  .000E+00
/&   ----------  End of spectral data for channel  2  ----------
