Response and Fourier amplitude spectra (91 periods,  .04 - 15.0 sec)   for      
Corrected accelerogram   24805-L1124-01253.15       Chan  1: 360 Deg     from   
Uncorrected Accelerogram Data             Processed: 09/10/01, CDMG  bx015      
Record of Sun Sep  9, 2001 16:59:22 PDT               (Avol1 v4.6  7/01 CSMIP)  
CSMIP Preliminary Processing            (Origin:  To be determined)             
24805-L1124-01253.15                 Start time:  9/09/01, 23:59:22.0 UTC (GPS) 
Station No. 24805   34.229N, 118.527W      Etna  s/n 1124  (3 Channels)         
Northridge - Parthenia & Lindley                                                
Chan  1: 360 Deg                                                                
Record of Sun Sep  9, 2001 16:59:22 PDT    Sun Sep  9, 2001 16:59:22 PDT        
Hypocenter:  To be determined.               ML:  To be determined.             
Instr Period =  .0107 sec,  Damping =  .640,  Sensitivity =  .63  v/g           
                        Record length = 39.000 sec.                             
                                     Uncor Max  =  -.030 g, at   5.190 sec.     
RMS accel of (uncor) record  =        .                                         
Accelerogram bandpass filtered with 3 dB pts at   .30 and 40.00 cyc/sec         
                 instrument- and baseline-corrected                             
                                                                                
                                                                                
                                                                                
                                                                                
                                                                                
Record of Sun Sep  9, 2001 16:59:22 PDT    Sun Sep  9, 2001 16:59:22 PDT        
                                                                                
24805-L1124-01253.15      Northridge - Parthenia & Lindley    Chan  1: 360 Deg  
                                                                                
24805-L1124-01253.15      Northridge - Parthenia & Lindley    Chan  1: 360 Deg  
                                                                                
Units for spectra are inches and sec, except Sa is in fraction of g.            
                                                                                
    1  100    1    3    3  200    1    3    1   24   12 1124    024805    1    0
   23   59   22    0  252    9    9 2001   10    3  360 7800   39   32   72  360
 7800    1   50    3 1124    1   15  390    1    0    0    0    0    0    0    0
    0    4    0    0 3900    2    0    0    0    0   72   32    0    0    0 3900
    0 3900   33   91    1    3    0    0    0    0    3    0    0    0    0    2
    2    2    4    0   32   99    0   32   32    0    0    1    0    0    0    0
  -99   -1    0    0
      .011      .640    39.000      .002      .000   625.000     -.030     5.190
    93.200      .298      .477      .000     5.000      .000      .000      .000
     2.500   -15.208      .009     -.020     5.000    30.000      .000      .001
     -.002     -.003     2.000    15.000    34.229  -118.527      .242      .606
     2.499     -.045      .039  -999.000      .000      .000   -13.500      .000
  1000.000    -1.019      .000      .000      .000      .000      .000      .000
     4.600     4.400      .000   980.665      .010    39.000    14.833      .000
      .000    40.000      .000    39.000      .010      .300      .000      .000
     5.190   -29.370     5.130     1.102     5.000     -.073      .000      .300
    40.000      .010      .010      .000      .010      .030      .000      .000
      .071      .280      .049      .066      .005      .000      .000      .000
      .000      .000      .000      .000      .000      .000      .000      .000
      .000      .000      .000      .000
      .050
      .040      .042      .044      .046      .048      .050      .055      .060
      .065      .070      .075      .080      .085      .090      .095      .100
      .110      .120      .130      .140      .150      .160      .170      .180
      .190      .200      .220      .240      .260      .280      .300      .320
      .340      .360      .380      .400      .420      .440      .460      .480
      .500      .550      .600      .650      .700      .750      .800      .850
      .900      .950     1.000     1.100     1.200     1.300     1.400     1.500
     1.600     1.700     1.800     1.900     2.000     2.200     2.400     2.600
     2.800     3.000     3.200     3.400     3.600     3.800     4.000     4.200
     4.400     4.600     4.800     5.000     5.500     6.000     6.500     7.000
     7.500     8.000     8.500     9.000     9.500    10.000    11.000    12.000
    13.000    14.000    15.000      .000      .000      .000      .000      .000
      .000      .000      .000      .000
Fourier amplitude spectra in in/sec.
  .000E+00  .000E+00  .000E+00  .000E+00  .000E+00  .000E+00  .000E+00  .000E+00
  .000E+00  .000E+00  .000E+00  .000E+00  .000E+00  .000E+00  .000E+00  .000E+00
  .000E+00  .000E+00  .000E+00  .000E+00  .000E+00  .000E+00  .000E+00  .000E+00
  .000E+00  .000E+00  .000E+00  .000E+00  .000E+00  .000E+00  .000E+00  .000E+00
  .000E+00  .000E+00  .000E+00  .000E+00  .000E+00  .000E+00  .000E+00  .000E+00
  .000E+00  .000E+00  .000E+00  .000E+00  .000E+00  .000E+00  .000E+00  .000E+00
  .000E+00  .000E+00  .000E+00  .000E+00  .000E+00  .000E+00  .000E+00  .000E+00
  .000E+00  .000E+00  .000E+00  .000E+00  .000E+00  .000E+00  .000E+00  .000E+00
  .000E+00  .000E+00  .000E+00  .000E+00  .000E+00  .000E+00  .000E+00  .000E+00
  .000E+00  .000E+00  .000E+00  .000E+00  .000E+00  .000E+00  .000E+00  .000E+00
  .000E+00  .000E+00  .000E+00  .000E+00  .000E+00  .000E+00  .000E+00  .000E+00
  .000E+00  .000E+00  .000E+00  .000E+00  .000E+00  .000E+00  .000E+00  .000E+00
  .000E+00  .000E+00  .000E+00  .000E+00
Damping =  .05. Data of Sd,Sv,Sa,Pssv,ttSd,ttSv,ttSa :
  .489E-03  .541E-03  .599E-03  .663E-03  .730E-03  .809E-03  .103E-02  .127E-02
  .149E-02  .166E-02  .185E-02  .243E-02  .305E-02  .330E-02  .346E-02  .395E-02
  .561E-02  .873E-02  .114E-01  .133E-01  .150E-01  .163E-01  .166E-01  .160E-01
  .163E-01  .179E-01  .266E-01  .372E-01  .466E-01  .536E-01  .583E-01  .605E-01
  .611E-01  .605E-01  .604E-01  .621E-01  .631E-01  .636E-01  .634E-01  .624E-01
  .605E-01  .543E-01  .516E-01  .527E-01  .535E-01  .535E-01  .541E-01  .549E-01
  .550E-01  .544E-01  .533E-01  .503E-01  .460E-01  .520E-01  .489E-01  .359E-01
  .354E-01  .376E-01  .397E-01  .388E-01  .337E-01  .336E-01  .338E-01  .338E-01
  .336E-01  .335E-01  .333E-01  .331E-01  .330E-01  .328E-01  .327E-01  .325E-01
  .324E-01  .322E-01  .321E-01  .319E-01  .316E-01  .313E-01  .311E-01  .309E-01
  .307E-01  .306E-01  .305E-01  .304E-01  .304E-01  .303E-01  .302E-01  .302E-01
  .302E-01  .301E-01  .301E-01  .000E+00  .000E+00  .000E+00  .000E+00  .000E+00
  .000E+00  .000E+00  .000E+00  .000E+00
  .133E-01  .150E-01  .167E-01  .182E-01  .208E-01  .238E-01  .257E-01  .343E-01
  .468E-01  .565E-01  .787E-01  .102E+00  .114E+00  .142E+00  .174E+00  .224E+00
  .218E+00  .318E+00  .448E+00  .540E+00  .571E+00  .550E+00  .505E+00  .491E+00
  .483E+00  .513E+00  .721E+00  .974E+00  .114E+01  .122E+01  .121E+01  .121E+01
  .122E+01  .119E+01  .115E+01  .109E+01  .103E+01  .102E+01  .103E+01  .102E+01
  .999E+00  .944E+00  .852E+00  .778E+00  .712E+00  .652E+00  .606E+00  .563E+00
  .533E+00  .542E+00  .548E+00  .553E+00  .550E+00  .541E+00  .529E+00  .518E+00
  .508E+00  .501E+00  .496E+00  .490E+00  .485E+00  .476E+00  .468E+00  .462E+00
  .457E+00  .453E+00  .450E+00  .448E+00  .446E+00  .444E+00  .443E+00  .441E+00
  .440E+00  .439E+00  .439E+00  .438E+00  .437E+00  .436E+00  .435E+00  .435E+00
  .435E+00  .435E+00  .434E+00  .434E+00  .434E+00  .434E+00  .434E+00  .434E+00
  .434E+00  .433E+00  .433E+00  .000E+00  .000E+00  .000E+00  .000E+00  .000E+00
  .000E+00  .000E+00  .000E+00  .000E+00
  .313E-01  .314E-01  .317E-01  .320E-01  .324E-01  .332E-01  .348E-01  .359E-01
  .361E-01  .347E-01  .336E-01  .389E-01  .433E-01  .418E-01  .394E-01  .410E-01
  .473E-01  .616E-01  .687E-01  .691E-01  .683E-01  .648E-01  .585E-01  .508E-01
  .459E-01  .455E-01  .566E-01  .665E-01  .705E-01  .708E-01  .663E-01  .608E-01
  .546E-01  .478E-01  .431E-01  .400E-01  .368E-01  .339E-01  .309E-01  .279E-01
  .250E-01  .185E-01  .149E-01  .129E-01  .113E-01  .991E-02  .883E-02  .796E-02
  .713E-02  .634E-02  .562E-02  .441E-02  .343E-02  .316E-02  .257E-02  .174E-02
  .147E-02  .134E-02  .126E-02  .111E-02  .924E-03  .788E-03  .677E-03  .586E-03
  .512E-03  .452E-03  .403E-03  .361E-03  .326E-03  .297E-03  .272E-03  .251E-03
  .232E-03  .215E-03  .201E-03  .188E-03  .161E-03  .140E-03  .124E-03  .113E-03
  .105E-03  .975E-04  .912E-04  .856E-04  .807E-04  .762E-04  .687E-04  .625E-04
  .573E-04  .529E-04  .491E-04  .000E+00  .000E+00  .000E+00  .000E+00  .000E+00
  .000E+00  .000E+00  .000E+00  .000E+00
  .769E-01  .809E-01  .856E-01  .905E-01  .955E-01  .102E+00  .117E+00  .132E+00
  .144E+00  .149E+00  .155E+00  .191E+00  .226E+00  .230E+00  .229E+00  .248E+00
  .320E+00  .457E+00  .553E+00  .597E+00  .629E+00  .640E+00  .613E+00  .559E+00
  .537E+00  .561E+00  .761E+00  .974E+00  .113E+01  .120E+01  .122E+01  .119E+01
  .113E+01  .106E+01  .998E+00  .975E+00  .945E+00  .908E+00  .866E+00  .817E+00
  .761E+00  .621E+00  .541E+00  .509E+00  .480E+00  .448E+00  .425E+00  .406E+00
  .384E+00  .360E+00  .335E+00  .287E+00  .241E+00  .251E+00  .219E+00  .150E+00
  .139E+00  .139E+00  .139E+00  .128E+00  .106E+00  .961E-01  .886E-01  .816E-01
  .755E-01  .701E-01  .654E-01  .612E-01  .576E-01  .543E-01  .513E-01  .487E-01
  .462E-01  .440E-01  .420E-01  .401E-01  .361E-01  .328E-01  .300E-01  .277E-01
  .257E-01  .240E-01  .226E-01  .212E-01  .201E-01  .191E-01  .173E-01  .158E-01
  .146E-01  .135E-01  .126E-01  .000E+00  .000E+00  .000E+00  .000E+00  .000E+00
  .000E+00  .000E+00  .000E+00  .000E+00
  .518E+01  .518E+01  .518E+01  .518E+01  .518E+01  .518E+01  .518E+01  .518E+01
  .518E+01  .519E+01  .518E+01  .518E+01  .518E+01  .519E+01  .519E+01  .586E+01
  .518E+01  .519E+01  .520E+01  .521E+01  .530E+01  .531E+01  .532E+01  .533E+01
  .533E+01  .544E+01  .533E+01  .547E+01  .536E+01  .537E+01  .539E+01  .540E+01
  .542E+01  .543E+01  .528E+01  .528E+01  .529E+01  .530E+01  .530E+01  .531E+01
  .532E+01  .533E+01  .516E+01  .516E+01  .517E+01  .517E+01  .517E+01  .517E+01
  .518E+01  .518E+01  .518E+01  .518E+01  .518E+01  .281E+02  .283E+02  .264E+02
  .264E+02  .367E+02  .368E+02  .362E+02  .363E+02  .498E+01  .498E+01  .498E+01
  .498E+01  .498E+01  .498E+01  .499E+01  .499E+01  .499E+01  .499E+01  .499E+01
  .499E+01  .499E+01  .499E+01  .499E+01  .499E+01  .499E+01  .499E+01  .499E+01
  .499E+01  .499E+01  .499E+01  .499E+01  .499E+01  .499E+01  .499E+01  .499E+01
  .499E+01  .499E+01  .499E+01  .000E+00  .000E+00  .000E+00  .000E+00  .000E+00
  .000E+00  .000E+00  .000E+00  .000E+00
  .515E+01  .515E+01  .515E+01  .515E+01  .515E+01  .515E+01  .588E+01  .520E+01
  .521E+01  .582E+01  .588E+01  .609E+01  .609E+01  .588E+01  .589E+01  .589E+01
  .608E+01  .522E+01  .523E+01  .525E+01  .526E+01  .527E+01  .527E+01  .538E+01
  .538E+01  .539E+01  .539E+01  .541E+01  .542E+01  .544E+01  .546E+01  .533E+01
  .534E+01  .535E+01  .536E+01  .536E+01  .537E+01  .522E+01  .522E+01  .522E+01
  .522E+01  .523E+01  .523E+01  .524E+01  .524E+01  .524E+01  .524E+01  .524E+01
  .511E+01  .511E+01  .511E+01  .511E+01  .511E+01  .512E+01  .512E+01  .512E+01
  .512E+01  .512E+01  .512E+01  .512E+01  .512E+01  .512E+01  .512E+01  .512E+01
  .512E+01  .512E+01  .512E+01  .512E+01  .512E+01  .512E+01  .512E+01  .512E+01
  .512E+01  .512E+01  .512E+01  .512E+01  .512E+01  .512E+01  .512E+01  .512E+01
  .512E+01  .512E+01  .512E+01  .512E+01  .512E+01  .512E+01  .512E+01  .512E+01
  .512E+01  .512E+01  .512E+01  .000E+00  .000E+00  .000E+00  .000E+00  .000E+00
  .000E+00  .000E+00  .000E+00  .000E+00
  .518E+01  .518E+01  .518E+01  .518E+01  .518E+01  .517E+01  .518E+01  .518E+01
  .518E+01  .519E+01  .518E+01  .518E+01  .518E+01  .519E+01  .519E+01  .586E+01
  .518E+01  .519E+01  .520E+01  .520E+01  .529E+01  .531E+01  .532E+01  .532E+01
  .533E+01  .533E+01  .533E+01  .534E+01  .536E+01  .537E+01  .538E+01  .540E+01
  .541E+01  .542E+01  .527E+01  .528E+01  .528E+01  .529E+01  .530E+01  .530E+01
  .531E+01  .532E+01  .515E+01  .515E+01  .516E+01  .516E+01  .516E+01  .516E+01
  .516E+01  .516E+01  .516E+01  .516E+01  .517E+01  .281E+02  .282E+02  .516E+01
  .516E+01  .367E+02  .368E+02  .362E+02  .495E+01  .495E+01  .495E+01  .495E+01
  .495E+01  .495E+01  .495E+01  .495E+01  .495E+01  .494E+01  .494E+01  .494E+01
  .494E+01  .494E+01  .494E+01  .494E+01  .494E+01  .494E+01  .494E+01  .513E+01
  .513E+01  .513E+01  .513E+01  .513E+01  .513E+01  .513E+01  .513E+01  .513E+01
  .513E+01  .513E+01  .513E+01  .000E+00  .000E+00  .000E+00  .000E+00  .000E+00
  .000E+00  .000E+00  .000E+00  .000E+00
/&   ----------  End of spectral data for channel  1  ----------
Response and Fourier amplitude spectra (91 periods,  .04 - 15.0 sec)   for      
Corrected accelerogram   24805-L1124-01253.15       Chan  2:  Up         from   
Uncorrected Accelerogram Data             Processed: 09/10/01, CDMG  bx015      
Record of Sun Sep  9, 2001 16:59:22 PDT               (Avol1 v4.6  7/01 CSMIP)  
CSMIP Preliminary Processing            (Origin:  To be determined)             
24805-L1124-01253.15                 Start time:  9/09/01, 23:59:22.0 UTC (GPS) 
Station No. 24805   34.229N, 118.527W      Etna  s/n 1124  (3 Channels)         
Northridge - Parthenia & Lindley                                                
Chan  2:  Up                                                                    
Record of Sun Sep  9, 2001 16:59:22 PDT    Sun Sep  9, 2001 16:59:22 PDT        
Hypocenter:  To be determined.               ML:  To be determined.             
Instr Period =  .0109 sec,  Damping =  .670,  Sensitivity =  .63  v/g           
                        Record length = 39.000 sec.                             
                                     Uncor Max  =  -.009 g, at   5.265 sec.     
RMS accel of (uncor) record  =        .                                         
Accelerogram bandpass filtered with 3 dB pts at   .30 and 40.00 cyc/sec         
                 instrument- and baseline-corrected                             
                                                                                
                                                                                
                                                                                
                                                                                
                                                                                
Record of Sun Sep  9, 2001 16:59:22 PDT    Sun Sep  9, 2001 16:59:22 PDT        
                                                                                
24805-L1124-01253.15      Northridge - Parthenia & Lindley    Chan  2:  Up      
                                                                                
24805-L1124-01253.15      Northridge - Parthenia & Lindley    Chan  2:  Up      
                                                                                
Units for spectra are inches and sec, except Sa is in fraction of g.            
                                                                                
    2  100    2    3    3  200    1    3    1   24   12 1124    024805    1    0
   23   59   22    0  252    9    9 2001   10    3  500 7800   39   32   72  360
 7800    1   50    3 1124    1   15  390    1    0    0    0    0    0    0    0
    0    4    0    0 3900    2    0    0    0    0   72   32    0    0    0 3900
    0 3900   33   91    1    3    0    0    0    0    3    0    0    0    0    2
    2    2    4    0   32   99    0   32   32    0    0    1    0    0    0    0
  -99   -1    0    0
      .011      .670    39.000      .001      .000   625.000     -.009     5.265
    91.600      .298      .477      .000     5.000      .000      .000      .000
     2.500      .725      .006     -.005     5.000    30.000      .000      .000
     -.002     -.002     2.000    15.000    34.229  -118.527     1.387      .351
      .253     -.181      .178  -999.000      .000      .000   -13.500      .000
  1000.000    -1.104      .000      .000      .000      .000      .000      .000
     4.600     4.400      .000   980.665      .010    39.000    14.579      .000
      .000    40.000      .000    39.000      .010      .300      .000      .000
     4.020    -9.030     3.680     -.301    20.800     -.019      .001      .300
    40.000      .010      .010      .000      .010      .013      .000      .000
      .033      .060      .024      .016      .002      .000      .000      .000
      .000      .000      .000      .000      .000      .000      .000      .000
      .000      .000      .000      .000
      .050
      .040      .042      .044      .046      .048      .050      .055      .060
      .065      .070      .075      .080      .085      .090      .095      .100
      .110      .120      .130      .140      .150      .160      .170      .180
      .190      .200      .220      .240      .260      .280      .300      .320
      .340      .360      .380      .400      .420      .440      .460      .480
      .500      .550      .600      .650      .700      .750      .800      .850
      .900      .950     1.000     1.100     1.200     1.300     1.400     1.500
     1.600     1.700     1.800     1.900     2.000     2.200     2.400     2.600
     2.800     3.000     3.200     3.400     3.600     3.800     4.000     4.200
     4.400     4.600     4.800     5.000     5.500     6.000     6.500     7.000
     7.500     8.000     8.500     9.000     9.500    10.000    11.000    12.000
    13.000    14.000    15.000      .000      .000      .000      .000      .000
      .000      .000      .000      .000
Fourier amplitude spectra in in/sec.
  .000E+00  .000E+00  .000E+00  .000E+00  .000E+00  .000E+00  .000E+00  .000E+00
  .000E+00  .000E+00  .000E+00  .000E+00  .000E+00  .000E+00  .000E+00  .000E+00
  .000E+00  .000E+00  .000E+00  .000E+00  .000E+00  .000E+00  .000E+00  .000E+00
  .000E+00  .000E+00  .000E+00  .000E+00  .000E+00  .000E+00  .000E+00  .000E+00
  .000E+00  .000E+00  .000E+00  .000E+00  .000E+00  .000E+00  .000E+00  .000E+00
  .000E+00  .000E+00  .000E+00  .000E+00  .000E+00  .000E+00  .000E+00  .000E+00
  .000E+00  .000E+00  .000E+00  .000E+00  .000E+00  .000E+00  .000E+00  .000E+00
  .000E+00  .000E+00  .000E+00  .000E+00  .000E+00  .000E+00  .000E+00  .000E+00
  .000E+00  .000E+00  .000E+00  .000E+00  .000E+00  .000E+00  .000E+00  .000E+00
  .000E+00  .000E+00  .000E+00  .000E+00  .000E+00  .000E+00  .000E+00  .000E+00
  .000E+00  .000E+00  .000E+00  .000E+00  .000E+00  .000E+00  .000E+00  .000E+00
  .000E+00  .000E+00  .000E+00  .000E+00  .000E+00  .000E+00  .000E+00  .000E+00
  .000E+00  .000E+00  .000E+00  .000E+00
Damping =  .05. Data of Sd,Sv,Sa,Pssv,ttSd,ttSv,ttSa :
  .208E-03  .241E-03  .293E-03  .375E-03  .496E-03  .633E-03  .888E-03  .118E-02
  .106E-02  .950E-03  .117E-02  .122E-02  .127E-02  .129E-02  .169E-02  .224E-02
  .305E-02  .396E-02  .437E-02  .517E-02  .583E-02  .766E-02  .794E-02  .873E-02
  .969E-02  .956E-02  .962E-02  .123E-01  .904E-02  .112E-01  .143E-01  .165E-01
  .155E-01  .127E-01  .107E-01  .102E-01  .116E-01  .102E-01  .114E-01  .134E-01
