Response and Fourier amplitude spectra (91 periods,  .04 - 15.0 sec)   for      
Corrected accelerogram   24723-M0130-01253.01       Chan  3:  Up         from   
Uncorrected Accelerogram Data             Processed: 09/10/01, CDMG  td001      
Record of Sun Sep  9, 2001 16:59:20 PDT               (Avol1 v4.6  7/01 CSMIP)  
CSMIP Preliminary Processing            (Origin:  To be determined)             
24723-M0130-01253.01                 Start time:  9/09/01, 23:59:20.0 UTC (GPS) 
Station No. 24723   34.049N, 118.176W    MtWtny  s/n  130 (15 Channels)         
Los Angeles - 2-story County EOC Bldg                                           
Chan  3:  Up                        Location: 1st Floor: SW Crnr(above isolator)
Record of Sun Sep  9, 2001 16:59:20 PDT    Sun Sep  9, 2001 16:59:20 PDT        
Hypocenter:  To be determined.               ML:  To be determined.
Instr Period =  .0200 sec,  Damping =  .700,  Sensitivity =  .63  v/g
                        Record length = 44.000 sec.
                                     Uncor Max  =  -.011 g, at   6.935 sec.
RMS accel of (uncor) record  =        .
Accelerogram bandpass filtered with 3 dB pts at   .30 and 40.00 cyc/sec
                 instrument- and baseline-corrected





Record of Sun Sep  9, 2001 16:59:20 PDT    Sun Sep  9, 2001 16:59:20 PDT

24723-M0130-01253.01      Los Angeles - 2-story County EOC Bldg   Chan  3:  Up

24723-M0130-01253.01      Los Angeles - 2-story County EOC Bldg   Chan  3:  Up

Units for spectra are inches and sec, except Sa is in fraction of g.

    3  100    3   15   15  200    1    3    1   24   13  130    024723    2    0
   23   59   20    0  252    9    9 2001   10    3  500 8800   39   37   72   14
 8800    0   50    3  130    1    1  440    1    0    0    0    0    0    0    0
    0    4    0    0 4400    2    0    0    0    0   72   37    0    0    0 4400
    0 4400   38   91    1   15    0    0    0    0   15    0    0    0    0    2
    2    2    4    0   71   99    0   32   32    0    0    1    0    0    0    0
  -99   -1    0    0
      .020      .700    44.000      .001      .000   625.000     -.011     6.935
    50.000      .298      .477      .000     5.000      .000      .000      .000
     2.500   -39.193     -.017     -.030     5.000    30.000      .000     -.008
      .003      .011     2.000    15.000    34.049  -118.176      .036      .147
     4.117      .003      .019  -999.000      .000      .000   -13.100      .000
  1000.000     1.002      .000      .000      .000      .000      .000      .000
     4.600     4.400      .000   980.665      .010    44.000     7.958      .000
      .000    40.000      .000    44.000      .010      .300      .000      .000
     6.930   -11.152     6.900      .288    10.220     -.015      .000      .300
    40.000      .010      .010      .000      .010      .011      .000      .000
      .044      .130      .022      .013      .001      .000      .000      .000
      .000      .000      .000      .000      .000      .000      .000      .000
      .000      .000      .000      .000
      .050
      .040      .042      .044      .046      .048      .050      .055      .060
      .065      .070      .075      .080      .085      .090      .095      .100
      .110      .120      .130      .140      .150      .160      .170      .180
      .190      .200      .220      .240      .260      .280      .300      .320
      .340      .360      .380      .400      .420      .440      .460      .480
      .500      .550      .600      .650      .700      .750      .800      .850
      .900      .950     1.000     1.100     1.200     1.300     1.400     1.500
     1.600     1.700     1.800     1.900     2.000     2.200     2.400     2.600
     2.800     3.000     3.200     3.400     3.600     3.800     4.000     4.200
     4.400     4.600     4.800     5.000     5.500     6.000     6.500     7.000
     7.500     8.000     8.500     9.000     9.500    10.000    11.000    12.000
    13.000    14.000    15.000      .000      .000      .000      .000      .000
      .000      .000      .000      .000
Fourier amplitude spectra in in/sec.
  .000E+00  .000E+00  .000E+00  .000E+00  .000E+00  .000E+00  .000E+00  .000E+00
  .000E+00  .000E+00  .000E+00  .000E+00  .000E+00  .000E+00  .000E+00  .000E+00
  .000E+00  .000E+00  .000E+00  .000E+00  .000E+00  .000E+00  .000E+00  .000E+00
  .000E+00  .000E+00  .000E+00  .000E+00  .000E+00  .000E+00  .000E+00  .000E+00
  .000E+00  .000E+00  .000E+00  .000E+00  .000E+00  .000E+00  .000E+00  .000E+00
  .000E+00  .000E+00  .000E+00  .000E+00  .000E+00  .000E+00  .000E+00  .000E+00
  .000E+00  .000E+00  .000E+00  .000E+00  .000E+00  .000E+00  .000E+00  .000E+00
  .000E+00  .000E+00  .000E+00  .000E+00  .000E+00  .000E+00  .000E+00  .000E+00
  .000E+00  .000E+00  .000E+00  .000E+00  .000E+00  .000E+00  .000E+00  .000E+00
  .000E+00  .000E+00  .000E+00  .000E+00  .000E+00  .000E+00  .000E+00  .000E+00
  .000E+00  .000E+00  .000E+00  .000E+00  .000E+00  .000E+00  .000E+00  .000E+00
  .000E+00  .000E+00  .000E+00  .000E+00  .000E+00  .000E+00  .000E+00  .000E+00
  .000E+00  .000E+00  .000E+00  .000E+00
Damping =  .05. Data of Sd,Sv,Sa,Pssv,ttSd,ttSv,ttSa :
  .206E-03  .224E-03  .245E-03  .284E-03  .336E-03  .399E-03  .470E-03  .639E-03
  .889E-03  .119E-02  .158E-02  .190E-02  .201E-02  .199E-02  .209E-02  .252E-02
  .441E-02  .610E-02  .721E-02  .666E-02  .541E-02  .677E-02  .102E-01  .100E-01
  .858E-02  .778E-02  .104E-01  .112E-01  .965E-02  .979E-02  .112E-01  .128E-01
  .156E-01  .137E-01  .111E-01  .923E-02  .120E-01  .150E-01  .142E-01  .136E-01
  .141E-01  .132E-01  .127E-01  .111E-01  .112E-01  .142E-01  .107E-01  .100E-01
  .112E-01  .113E-01  .995E-02  .148E-01  .162E-01  .119E-01  .112E-01  .115E-01
  .112E-01  .106E-01  .102E-01  .107E-01  .116E-01  .116E-01  .104E-01  .871E-02
  .833E-02  .826E-02  .865E-02  .895E-02  .898E-02  .919E-02  .919E-02  .906E-02
  .884E-02  .861E-02  .840E-02  .820E-02  .784E-02  .757E-02  .735E-02  .715E-02
  .697E-02  .683E-02  .673E-02  .665E-02  .661E-02  .658E-02  .657E-02  .659E-02
  .661E-02  .663E-02  .665E-02  .000E+00  .000E+00  .000E+00  .000E+00  .000E+00
  .000E+00  .000E+00  .000E+00  .000E+00
  .113E-01  .114E-01  .138E-01  .154E-01  .188E-01  .224E-01  .299E-01  .440E-01
  .643E-01  .928E-01  .115E+00  .135E+00  .136E+00  .128E+00  .129E+00  .147E+00
  .244E+00  .288E+00  .311E+00  .306E+00  .231E+00  .263E+00  .355E+00  .340E+00
  .290E+00  .269E+00  .291E+00  .324E+00  .282E+00  .211E+00  .232E+00  .269E+00
  .298E+00  .248E+00  .205E+00  .167E+00  .177E+00  .221E+00  .213E+00  .197E+00
  .191E+00  .180E+00  .168E+00  .135E+00  .149E+00  .143E+00  .123E+00  .123E+00
  .121E+00  .122E+00  .122E+00  .115E+00  .123E+00  .120E+00  .117E+00  .116E+00
  .114E+00  .112E+00  .112E+00  .113E+00  .115E+00  .118E+00  .119E+00  .118E+00
  .118E+00  .117E+00  .117E+00  .116E+00  .116E+00  .115E+00  .115E+00  .114E+00
  .114E+00  .114E+00  .114E+00  .113E+00  .113E+00  .113E+00  .113E+00  .113E+00
  .113E+00  .113E+00  .113E+00  .113E+00  .113E+00  .113E+00  .112E+00  .112E+00
  .112E+00  .112E+00  .112E+00  .000E+00  .000E+00  .000E+00  .000E+00  .000E+00
  .000E+00  .000E+00  .000E+00  .000E+00
  .132E-01  .130E-01  .130E-01  .138E-01  .149E-01  .164E-01  .160E-01  .183E-01
  .217E-01  .251E-01  .290E-01  .305E-01  .288E-01  .256E-01  .238E-01  .257E-01
  .380E-01  .432E-01  .442E-01  .353E-01  .248E-01  .270E-01  .363E-01  .319E-01
  .244E-01  .201E-01  .220E-01  .200E-01  .148E-01  .129E-01  .128E-01  .128E-01
  .139E-01  .109E-01  .792E-02  .595E-02  .702E-02  .794E-02  .690E-02  .607E-02
  .579E-02  .447E-02  .364E-02  .270E-02  .237E-02  .259E-02  .173E-02  .143E-02
  .142E-02  .129E-02  .102E-02  .127E-02  .118E-02  .732E-03  .592E-03  .533E-03
  .462E-03  .388E-03  .335E-03  .316E-03  .311E-03  .259E-03  .199E-03  .147E-03
  .123E-03  .108E-03  .941E-04  .905E-04  .812E-04  .753E-04  .689E-04  .625E-04
  .565E-04  .513E-04  .481E-04  .457E-04  .407E-04  .366E-04  .332E-04  .303E-04
  .279E-04  .259E-04  .242E-04  .227E-04  .213E-04  .202E-04  .182E-04  .165E-04
  .152E-04  .140E-04  .130E-04  .000E+00  .000E+00  .000E+00  .000E+00  .000E+00
  .000E+00  .000E+00  .000E+00  .000E+00
  .324E-01  .335E-01  .350E-01  .389E-01  .440E-01  .501E-01  .536E-01  .669E-01
  .859E-01  .106E+00  .132E+00  .149E+00  .149E+00  .139E+00  .138E+00  .159E+00
  .252E+00  .319E+00  .348E+00  .299E+00  .227E+00  .266E+00  .377E+00  .351E+00
  .284E+00  .244E+00  .298E+00  .293E+00  .233E+00  .220E+00  .234E+00  .251E+00
  .289E+00  .240E+00  .184E+00  .145E+00  .180E+00  .214E+00  .194E+00  .178E+00
  .177E+00  .150E+00  .133E+00  .107E+00  .100E+00  .119E+00  .840E-01  .741E-01
  .781E-01  .750E-01  .625E-01  .846E-01  .849E-01  .573E-01  .501E-01  .480E-01
  .442E-01  .392E-01  .356E-01  .355E-01  .366E-01  .332E-01  .271E-01  .211E-01
  .187E-01  .173E-01  .170E-01  .165E-01  .157E-01  .152E-01  .144E-01  .135E-01
  .126E-01  .118E-01  .110E-01  .103E-01  .895E-02  .793E-02  .710E-02  .641E-02
  .584E-02  .537E-02  .497E-02  .464E-02  .437E-02  .414E-02  .375E-02  .345E-02
  .320E-02  .298E-02  .279E-02  .000E+00  .000E+00  .000E+00  .000E+00  .000E+00
  .000E+00  .000E+00  .000E+00  .000E+00
  .693E+01  .693E+01  .693E+01  .693E+01  .693E+01  .693E+01  .693E+01  .703E+01
  .704E+01  .705E+01  .728E+01  .640E+01  .641E+01  .641E+01  .736E+01  .297E+01
  .686E+01  .694E+01  .695E+01  .696E+01  .705E+01  .705E+01  .706E+01  .708E+01
  .718E+01  .741E+01  .778E+01  .806E+01  .822E+01  .130E+02  .151E+02  .133E+02
  .133E+02  .134E+02  .134E+02  .129E+02  .105E+02  .105E+02  .103E+02  .103E+02
  .103E+02  .104E+02  .104E+02  .846E+01  .129E+02  .134E+02  .102E+02  .153E+02
  .162E+02  .153E+02  .159E+02  .132E+02  .128E+02  .106E+02  .102E+02  .102E+02
  .102E+02  .102E+02  .102E+02  .102E+02  .102E+02  .102E+02  .126E+02  .126E+02
  .126E+02  .126E+02  .146E+02  .133E+02  .102E+02  .102E+02  .102E+02  .102E+02
  .102E+02  .102E+02  .102E+02  .102E+02  .102E+02  .102E+02  .102E+02  .102E+02
  .102E+02  .102E+02  .102E+02  .102E+02  .102E+02  .102E+02  .102E+02  .102E+02
  .102E+02  .102E+02  .102E+02  .000E+00  .000E+00  .000E+00  .000E+00  .000E+00
  .000E+00  .000E+00  .000E+00  .000E+00
  .751E+01  .676E+01  .365E+01  .691E+01  .691E+01  .691E+01  .701E+01  .702E+01
  .706E+01  .721E+01  .638E+01  .638E+01  .639E+01  .639E+01  .738E+01  .294E+01
  .784E+01  .697E+01  .698E+01  .736E+01  .662E+01  .657E+01  .710E+01  .704E+01
  .704E+01  .736E+01  .782E+01  .776E+01  .731E+01  .129E+02  .150E+02  .134E+02
  .134E+02  .133E+02  .133E+02  .128E+02  .106E+02  .104E+02  .104E+02  .104E+02
  .104E+02  .699E+01  .103E+02  .937E+01  .937E+01  .103E+02  .101E+02  .700E+01
  .700E+01  .755E+01  .755E+01  .133E+02  .127E+02  .127E+02  .689E+01  .689E+01
  .689E+01  .689E+01  .689E+01  .689E+01  .689E+01  .689E+01  .689E+01  .689E+01
  .689E+01  .689E+01  .689E+01  .689E+01  .689E+01  .689E+01  .689E+01  .689E+01
  .689E+01  .689E+01  .689E+01  .689E+01  .689E+01  .689E+01  .689E+01  .689E+01
  .689E+01  .689E+01  .689E+01  .689E+01  .689E+01  .689E+01  .689E+01  .689E+01
  .689E+01  .689E+01  .689E+01  .000E+00  .000E+00  .000E+00  .000E+00  .000E+00
  .000E+00  .000E+00  .000E+00  .000E+00
  .693E+01  .693E+01  .693E+01  .693E+01  .693E+01  .692E+01  .693E+01  .703E+01
  .704E+01  .705E+01  .728E+01  .640E+01  .641E+01  .641E+01  .736E+01  .297E+01
  .759E+01  .694E+01  .695E+01  .696E+01  .705E+01  .705E+01  .706E+01  .707E+01
  .708E+01  .740E+01  .778E+01  .805E+01  .822E+01  .129E+02  .151E+02  .135E+02
  .133E+02  .134E+02  .134E+02  .129E+02  .105E+02  .105E+02  .103E+02  .103E+02
  .103E+02  .104E+02  .104E+02  .845E+01  .816E+01  .134E+02  .102E+02  .152E+02
  .162E+02  .153E+02  .159E+02  .132E+02  .127E+02  .106E+02  .102E+02  .102E+02
  .102E+02  .102E+02  .102E+02  .102E+02  .102E+02  .102E+02  .126E+02  .126E+02
  .126E+02  .126E+02  .132E+02  .132E+02  .102E+02  .102E+02  .102E+02  .102E+02
  .102E+02  .102E+02  .690E+01  .690E+01  .690E+01  .690E+01  .690E+01  .690E+01
  .689E+01  .689E+01  .689E+01  .689E+01  .689E+01  .689E+01  .689E+01  .689E+01
  .689E+01  .689E+01  .689E+01  .000E+00  .000E+00  .000E+00  .000E+00  .000E+00
  .000E+00  .000E+00  .000E+00  .000E+00
/&   ----------  End of spectral data for channel  3  ----------
