Response and Fourier amplitude spectra (91 periods,  .04 - 15.0 sec)   for      
Corrected accelerogram   24909-L1106-01252.16       Chan  1:   0 Deg     from   
Uncorrected Accelerogram Data             Processed: 09/10/01, CDMG  909bd016   
Record of Sun Sep  9, 2001 16:59:15 PDT               (Avol1 v4.6  7/01 CSMIP)  
CSMIP Preliminary Processing            (Origin:  To be determined)             
24909-L1106-01252.16                 Start time:  9/09/01, 23:59:15.0 UTC (GPS) 
Station No. 24909   34.030N, 118.434W      Etna  s/n 1106  (3 Channels)         
Los Angeles - I10/405 Interchange Grnds                                         
Chan  1:   0 Deg                                                                
Record of Sun Sep  9, 2001 16:59:15 PDT    Sun Sep  9, 2001 16:59:15 PDT        
Hypocenter:  To be determined.               ML:  To be determined.             
Instr Period =  .0101 sec,  Damping =  .660,  Sensitivity =  .63  v/g           
                        Record length = 48.000 sec.                             
                                     Uncor Max  =  -.134 g, at   7.080 sec.     
RMS accel of (uncor) record  =        .                                         
Accelerogram bandpass filtered with 3 dB pts at   .30 and 40.00 cyc/sec         
                 instrument- and baseline-corrected                             
                                                                                
                                                                                
                                                                                
                                                                                
                                                                                
Record of Sun Sep  9, 2001 16:59:15 PDT    Sun Sep  9, 2001 16:59:15 PDT        
                                                                                
24909-L1106-01252.16      Los Angeles - I10/405 Interchange Grnds   Chan  1:   0
 Deg                                                                            
24909-L1106-01252.16      Los Angeles - I10/405 Interchange Grnds   Chan  1:   0
 Deg                                                                            
Units for spectra are inches and sec, except Sa is in fraction of g.            
                                                                                
    1  100    1    3    3  200    1    3    1   24   12 1106    024909    1    0
   23   59   15    0  252    9    9 2001   10    3    0 9600   39   39   72 -999
 9600    1   50    3 1106    1   16  480    1    0    0    0    0    0    0    0
    0    4    0    0 4800    2    0    0    0    0   72   39    0    0    0 4800
    0 4800   40   91    1    3    0    0    0    0    3    0    0    0    0    2
    2    2    4    0   32   99    0   32   32    0    0    1    0    0    0    0
  -99   -1    0    0
      .010      .660    48.000      .009      .000   625.000     -.134     7.080
    99.200      .298      .477      .000     5.000      .000      .000      .000
     2.500   -10.658      .077     -.071     5.000    30.000      .000     -.001
     -.007     -.006     2.000    15.000    34.030  -118.434      .015      .284
    19.065     -.020      .007  -999.000      .000      .000   -14.200      .000
  1000.000    -1.015      .000      .000      .000      .000      .000      .000
     4.600     4.400      .000   980.665      .010    48.000    15.788      .000
      .000    40.000      .000    48.000      .010      .300      .000      .000
     7.080  -131.175     7.020     5.390     7.080      .385      .000      .300
    40.000      .010      .010      .000      .340      .055      .000      .000
      .517      .160      .351      .172      .021      .003      .000      .000
      .000      .000      .000      .000      .000      .000      .000      .000
      .000      .000      .000      .000
      .050
      .040      .042      .044      .046      .048      .050      .055      .060
      .065      .070      .075      .080      .085      .090      .095      .100
      .110      .120      .130      .140      .150      .160      .170      .180
      .190      .200      .220      .240      .260      .280      .300      .320
      .340      .360      .380      .400      .420      .440      .460      .480
      .500      .550      .600      .650      .700      .750      .800      .850
      .900      .950     1.000     1.100     1.200     1.300     1.400     1.500
     1.600     1.700     1.800     1.900     2.000     2.200     2.400     2.600
     2.800     3.000     3.200     3.400     3.600     3.800     4.000     4.200
     4.400     4.600     4.800     5.000     5.500     6.000     6.500     7.000
     7.500     8.000     8.500     9.000     9.500    10.000    11.000    12.000
    13.000    14.000    15.000      .000      .000      .000      .000      .000
      .000      .000      .000      .000
Fourier amplitude spectra in in/sec.
  .000E+00  .000E+00  .000E+00  .000E+00  .000E+00  .000E+00  .000E+00  .000E+00
  .000E+00  .000E+00  .000E+00  .000E+00  .000E+00  .000E+00  .000E+00  .000E+00
  .000E+00  .000E+00  .000E+00  .000E+00  .000E+00  .000E+00  .000E+00  .000E+00
  .000E+00  .000E+00  .000E+00  .000E+00  .000E+00  .000E+00  .000E+00  .000E+00
  .000E+00  .000E+00  .000E+00  .000E+00  .000E+00  .000E+00  .000E+00  .000E+00
  .000E+00  .000E+00  .000E+00  .000E+00  .000E+00  .000E+00  .000E+00  .000E+00
  .000E+00  .000E+00  .000E+00  .000E+00  .000E+00  .000E+00  .000E+00  .000E+00
  .000E+00  .000E+00  .000E+00  .000E+00  .000E+00  .000E+00  .000E+00  .000E+00
  .000E+00  .000E+00  .000E+00  .000E+00  .000E+00  .000E+00  .000E+00  .000E+00
  .000E+00  .000E+00  .000E+00  .000E+00  .000E+00  .000E+00  .000E+00  .000E+00
  .000E+00  .000E+00  .000E+00  .000E+00  .000E+00  .000E+00  .000E+00  .000E+00
  .000E+00  .000E+00  .000E+00  .000E+00  .000E+00  .000E+00  .000E+00  .000E+00
  .000E+00  .000E+00  .000E+00  .000E+00
Damping =  .05. Data of Sd,Sv,Sa,Pssv,ttSd,ttSv,ttSa :
  .229E-02  .253E-02  .274E-02  .306E-02  .358E-02  .414E-02  .578E-02  .671E-02
  .751E-02  .823E-02  .118E-01  .158E-01  .183E-01  .205E-01  .210E-01  .261E-01
  .338E-01  .500E-01  .715E-01  .927E-01  .112E+00  .127E+00  .138E+00  .141E+00
  .137E+00  .138E+00  .143E+00  .153E+00  .150E+00  .149E+00  .150E+00  .148E+00
  .145E+00  .161E+00  .176E+00  .177E+00  .184E+00  .196E+00  .201E+00  .203E+00
  .204E+00  .203E+00  .195E+00  .183E+00  .199E+00  .225E+00  .222E+00  .207E+00
  .208E+00  .213E+00  .214E+00  .208E+00  .206E+00  .200E+00  .192E+00  .183E+00
  .173E+00  .169E+00  .174E+00  .179E+00  .184E+00  .192E+00  .198E+00  .202E+00
  .204E+00  .204E+00  .203E+00  .201E+00  .199E+00  .197E+00  .194E+00  .192E+00
  .190E+00  .187E+00  .186E+00  .184E+00  .180E+00  .177E+00  .175E+00  .174E+00
  .172E+00  .171E+00  .170E+00  .170E+00  .169E+00  .169E+00  .168E+00  .168E+00
  .167E+00  .167E+00  .167E+00  .000E+00  .000E+00  .000E+00  .000E+00  .000E+00
  .000E+00  .000E+00  .000E+00  .000E+00
  .151E+00  .171E+00  .197E+00  .229E+00  .282E+00  .383E+00  .546E+00  .542E+00
  .439E+00  .405E+00  .617E+00  .780E+00  .864E+00  .853E+00  .903E+00  .124E+01
  .163E+01  .242E+01  .330E+01  .412E+01  .479E+01  .508E+01  .505E+01  .524E+01
  .514E+01  .477E+01  .476E+01  .439E+01  .375E+01  .347E+01  .348E+01  .347E+01
  .343E+01  .342E+01  .331E+01  .328E+01  .303E+01  .295E+01  .281E+01  .267E+01
  .256E+01  .247E+01  .256E+01  .252E+01  .241E+01  .225E+01  .210E+01  .216E+01
  .218E+01  .215E+01  .215E+01  .215E+01  .216E+01  .215E+01  .214E+01  .212E+01
  .209E+01  .207E+01  .204E+01  .202E+01  .199E+01  .200E+01  .203E+01  .205E+01
  .207E+01  .209E+01  .210E+01  .211E+01  .211E+01  .212E+01  .212E+01  .212E+01
  .212E+01  .212E+01  .212E+01  .212E+01  .212E+01  .212E+01  .212E+01  .212E+01
  .212E+01  .212E+01  .212E+01  .212E+01  .212E+01  .212E+01  .212E+01  .212E+01
  .211E+01  .212E+01  .212E+01  .000E+00  .000E+00  .000E+00  .000E+00  .000E+00
  .000E+00  .000E+00  .000E+00  .000E+00
  .147E+00  .147E+00  .145E+00  .148E+00  .159E+00  .171E+00  .198E+00  .190E+00
  .182E+00  .172E+00  .217E+00  .254E+00  .261E+00  .261E+00  .237E+00  .264E+00
  .287E+00  .355E+00  .430E+00  .481E+00  .509E+00  .517E+00  .494E+00  .448E+00
  .390E+00  .358E+00  .305E+00  .272E+00  .230E+00  .195E+00  .173E+00  .148E+00
  .130E+00  .128E+00  .125E+00  .114E+00  .108E+00  .104E+00  .980E-01  .909E-01
  .841E-01  .693E-01  .558E-01  .444E-01  .418E-01  .414E-01  .359E-01  .295E-01
  .264E-01  .243E-01  .222E-01  .179E-01  .149E-01  .124E-01  .103E-01  .849E-02
  .718E-02  .663E-02  .615E-02  .572E-02  .533E-02  .467E-02  .411E-02  .363E-02
  .323E-02  .288E-02  .258E-02  .232E-02  .210E-02  .191E-02  .175E-02  .161E-02
  .148E-02  .138E-02  .128E-02  .120E-02  .103E-02  .903E-03  .805E-03  .725E-03
  .660E-03  .605E-03  .559E-03  .518E-03  .484E-03  .453E-03  .402E-03  .361E-03
  .328E-03  .300E-03  .277E-03  .000E+00  .000E+00  .000E+00  .000E+00  .000E+00
  .000E+00  .000E+00  .000E+00  .000E+00
  .360E+00  .378E+00  .392E+00  .418E+00  .468E+00  .521E+00  .660E+00  .703E+00
  .726E+00  .739E+00  .992E+00  .124E+01  .135E+01  .143E+01  .139E+01  .164E+01
  .193E+01  .262E+01  .346E+01  .416E+01  .468E+01  .498E+01  .509E+01  .491E+01
  .454E+01  .434E+01  .410E+01  .401E+01  .364E+01  .333E+01  .315E+01  .291E+01
  .268E+01  .281E+01  .291E+01  .278E+01  .276E+01  .279E+01  .275E+01  .266E+01
  .257E+01  .232E+01  .204E+01  .176E+01  .178E+01  .188E+01  .174E+01  .153E+01
  .145E+01  .141E+01  .134E+01  .119E+01  .108E+01  .969E+00  .862E+00  .767E+00
  .680E+00  .624E+00  .608E+00  .593E+00  .578E+00  .548E+00  .518E+00  .488E+00
  .457E+00  .427E+00  .399E+00  .372E+00  .348E+00  .325E+00  .305E+00  .287E+00
  .271E+00  .256E+00  .243E+00  .231E+00  .206E+00  .186E+00  .169E+00  .156E+00
  .144E+00  .134E+00  .126E+00  .118E+00  .112E+00  .106E+00  .960E-01  .877E-01
  .807E-01  .748E-01  .698E-01  .000E+00  .000E+00  .000E+00  .000E+00  .000E+00
  .000E+00  .000E+00  .000E+00  .000E+00
  .708E+01  .709E+01  .705E+01  .705E+01  .721E+01  .720E+01  .721E+01  .705E+01
  .706E+01  .715E+01  .705E+01  .706E+01  .707E+01  .707E+01  .708E+01  .722E+01
  .722E+01  .729E+01  .730E+01  .731E+01  .725E+01  .725E+01  .726E+01  .727E+01
  .720E+01  .720E+01  .712E+01  .713E+01  .714E+01  .714E+01  .715E+01  .715E+01
  .716E+01  .813E+01  .816E+01  .802E+01  .745E+01  .746E+01  .747E+01  .749E+01
  .750E+01  .752E+01  .754E+01  .757E+01  .803E+01  .805E+01  .808E+01  .734E+01
  .735E+01  .782E+01  .784E+01  .737E+01  .738E+01  .739E+01  .740E+01  .741E+01
  .742E+01  .706E+01  .707E+01  .707E+01  .707E+01  .707E+01  .707E+01  .707E+01
  .707E+01  .707E+01  .707E+01  .707E+01  .707E+01  .707E+01  .707E+01  .707E+01
  .707E+01  .707E+01  .707E+01  .707E+01  .707E+01  .707E+01  .707E+01  .707E+01
  .707E+01  .707E+01  .707E+01  .707E+01  .707E+01  .707E+01  .707E+01  .707E+01
  .707E+01  .707E+01  .707E+01  .000E+00  .000E+00  .000E+00  .000E+00  .000E+00
  .000E+00  .000E+00  .000E+00  .000E+00
  .726E+01  .745E+01  .745E+01  .745E+01  .745E+01  .745E+01  .746E+01  .755E+01
  .756E+01  .713E+01  .718E+01  .719E+01  .725E+01  .730E+01  .711E+01  .725E+01
  .726E+01  .726E+01  .727E+01  .727E+01  .728E+01  .729E+01  .722E+01  .723E+01
  .724E+01  .716E+01  .717E+01  .718E+01  .718E+01  .709E+01  .710E+01  .710E+01
  .710E+01  .710E+01  .710E+01  .810E+01  .754E+01  .756E+01  .757E+01  .711E+01
  .711E+01  .743E+01  .744E+01  .744E+01  .744E+01  .744E+01  .711E+01  .800E+01
  .800E+01  .724E+01  .724E+01  .724E+01  .725E+01  .725E+01  .725E+01  .725E+01
  .725E+01  .725E+01  .725E+01  .725E+01  .725E+01  .701E+01  .701E+01  .701E+01
  .701E+01  .701E+01  .701E+01  .701E+01  .701E+01  .701E+01  .701E+01  .701E+01
  .701E+01  .701E+01  .701E+01  .701E+01  .701E+01  .701E+01  .701E+01  .701E+01
  .701E+01  .701E+01  .701E+01  .701E+01  .701E+01  .701E+01  .701E+01  .701E+01
  .701E+01  .701E+01  .701E+01  .000E+00  .000E+00  .000E+00  .000E+00  .000E+00
  .000E+00  .000E+00  .000E+00  .000E+00
  .708E+01  .709E+01  .705E+01  .705E+01  .721E+01  .720E+01  .721E+01  .705E+01
  .706E+01  .715E+01  .705E+01  .721E+01  .707E+01  .707E+01  .707E+01  .722E+01
  .722E+01  .729E+01  .730E+01  .731E+01  .724E+01  .725E+01  .726E+01  .727E+01
  .719E+01  .720E+01  .712E+01  .713E+01  .713E+01  .714E+01  .714E+01  .715E+01
  .715E+01  .813E+01  .816E+01  .802E+01  .745E+01  .746E+01  .747E+01  .748E+01
  .749E+01  .751E+01  .753E+01  .729E+01  .802E+01  .804E+01  .806E+01  .733E+01
  .734E+01  .781E+01  .782E+01  .736E+01  .736E+01  .737E+01  .737E+01  .737E+01
  .704E+01  .704E+01  .704E+01  .704E+01  .704E+01  .704E+01  .704E+01  .704E+01
  .703E+01  .703E+01  .703E+01  .703E+01  .703E+01  .703E+01  .703E+01  .703E+01
  .703E+01  .703E+01  .703E+01  .703E+01  .703E+01  .702E+01  .702E+01  .702E+01
  .702E+01  .702E+01  .702E+01  .702E+01  .702E+01  .702E+01  .702E+01  .702E+01
  .702E+01  .702E+01  .702E+01  .000E+00  .000E+00  .000E+00  .000E+00  .000E+00
  .000E+00  .000E+00  .000E+00  .000E+00
/&   ----------  End of spectral data for channel  1  ----------
Response and Fourier amplitude spectra (91 periods,  .04 - 15.0 sec)   for      
Corrected accelerogram   24909-L1106-01252.16       Chan  2:   0 Deg     from   
Uncorrected Accelerogram Data             Processed: 09/10/01, CDMG  909bd016   
Record of Sun Sep  9, 2001 16:59:15 PDT               (Avol1 v4.6  7/01 CSMIP)  
CSMIP Preliminary Processing            (Origin:  To be determined)             
24909-L1106-01252.16                 Start time:  9/09/01, 23:59:15.0 UTC (GPS) 
Station No. 24909   34.030N, 118.434W      Etna  s/n 1106  (3 Channels)         
Los Angeles - I10/405 Interchange Grnds                                         
Chan  2:   0 Deg                                                                
Record of Sun Sep  9, 2001 16:59:15 PDT    Sun Sep  9, 2001 16:59:15 PDT        
Hypocenter:  To be determined.               ML:  To be determined.             
Instr Period =  .0101 sec,  Damping =  .670,  Sensitivity =  .63  v/g           
                        Record length = 48.000 sec.                             
                                     Uncor Max  =  -.069 g, at   5.230 sec.     
RMS accel of (uncor) record  =        .                                         
Accelerogram bandpass filtered with 3 dB pts at   .30 and 40.00 cyc/sec         
                 instrument- and baseline-corrected                             
                                                                                
                                                                                
                                                                                
                                                                                
                                                                                
Record of Sun Sep  9, 2001 16:59:15 PDT    Sun Sep  9, 2001 16:59:15 PDT        
                                                                                
24909-L1106-01252.16      Los Angeles - I10/405 Interchange Grnds   Chan  2:   0
 Deg                                                                            
24909-L1106-01252.16      Los Angeles - I10/405 Interchange Grnds   Chan  2:   0
 Deg                                                                            
Units for spectra are inches and sec, except Sa is in fraction of g.            
                                                                                
    2  100    2    3    3  200    1    3    1   24   12 1106    024909    1    0
   23   59   15    0  252    9    9 2001   10    3    0 9600   39   39   72 -999
 9600    1   50    3 1106    1   16  480    1    0    0    0    0    0    0    0
    0    4    0    0 4800    2    0    0    0    0   72   39    0    0    0 4800
    0 4800   40   91    1    3    0    0    0    0    3    0    0    0    0    2
    2    2    4    0   32   99    0   32   32    0    0    1    0    0    0    0
  -99   -1    0    0
      .010      .670    48.000      .005      .000   625.000     -.069     5.230
    98.700      .298      .477      .000     5.000      .000      .000      .000
     2.500   -11.840      .036     -.043     5.000    30.000      .000     -.001
      .001      .002     2.000    15.000    34.030  -118.434      .022      .177
     7.893     -.007      .011  -999.000      .000      .000   -14.200      .000
  1000.000    -1.010      .000      .000      .000      .000      .000      .000
     4.600     4.400      .000   980.665      .010    48.000    15.709      .000
      .000    40.000      .000    48.000      .010      .300      .000      .000
     5.230   -65.469     7.460     1.406     7.420     -.066      .000      .300
    40.000      .010      .010      .000      .080      .028      .000      .000
      .361      .095      .091      .046      .005      .000      .000      .000
      .000      .000      .000      .000      .000      .000      .000      .000
      .000      .000      .000      .000
      .050
      .040      .042      .044      .046      .048      .050      .055      .060
      .065      .070      .075      .080      .085      .090      .095      .100
      .110      .120      .130      .140      .150      .160      .170      .180
      .190      .200      .220      .240      .260      .280      .300      .320
      .340      .360      .380      .400      .420      .440      .460      .480
      .500      .550      .600      .650      .700      .750      .800      .850
      .900      .950     1.000     1.100     1.200     1.300     1.400     1.500
     1.600     1.700     1.800     1.900     2.000     2.200     2.400     2.600
     2.800     3.000     3.200     3.400     3.600     3.800     4.000     4.200
     4.400     4.600     4.800     5.000     5.500     6.000     6.500     7.000
     7.500     8.000     8.500     9.000     9.500    10.000    11.000    12.000
    13.000    14.000    15.000      .000      .000      .000      .000      .000
      .000      .000      .000      .000
Fourier amplitude spectra in in/sec.
  .000E+00  .000E+00  .000E+00  .000E+00  .000E+00  .000E+00  .000E+00  .000E+00
  .000E+00  .000E+00  .000E+00  .000E+00  .000E+00  .000E+00  .000E+00  .000E+00
  .000E+00  .000E+00  .000E+00  .000E+00  .000E+00  .000E+00  .000E+00  .000E+00
  .000E+00  .000E+00  .000E+00  .000E+00  .000E+00  .000E+00  .000E+00  .000E+00
  .000E+00  .000E+00  .000E+00  .000E+00  .000E+00  .000E+00  .000E+00  .000E+00
  .000E+00  .000E+00  .000E+00  .000E+00  .000E+00  .000E+00  .000E+00  .000E+00
  .000E+00  .000E+00  .000E+00  .000E+00  .000E+00  .000E+00  .000E+00  .000E+00
  .000E+00  .000E+00  .000E+00  .000E+00  .000E+00  .000E+00  .000E+00  .000E+00
  .000E+00  .000E+00  .000E+00  .000E+00  .000E+00  .000E+00  .000E+00  .000E+00
  .000E+00  .000E+00  .000E+00  .000E+00  .000E+00  .000E+00  .000E+00  .000E+00
  .000E+00  .000E+00  .000E+00  .000E+00  .000E+00  .000E+00  .000E+00  .000E+00
  .000E+00  .000E+00  .000E+00  .000E+00  .000E+00  .000E+00  .000E+00  .000E+00
  .000E+00  .000E+00  .000E+00  .000E+00
Damping =  .05. Data of Sd,Sv,Sa,Pssv,ttSd,ttSv,ttSa :
  .149E-02  .159E-02  .168E-02  .182E-02  .218E-02  .275E-02  .380E-02  .417E-02
  .531E-02  .702E-02  .913E-02  .111E-01  .172E-01  .252E-01  .315E-01  .324E-01
  .250E-01  .281E-01  .222E-01  .303E-01  .300E-01  .352E-01  .423E-01  .409E-01
  .378E-01  .328E-01  .382E-01  .397E-01  .322E-01  .451E-01  .368E-01  .358E-01
  .340E-01  .415E-01  .412E-01  .515E-01  .579E-01  .603E-01  .675E-01  .760E-01
