
 PEER Ground Motion Database, Time Series Search Report -- NGA-West2 -- 2020-08-05


 -- Summary of PEER Ground Motion Database Search Criteria --
Magnitude Min:, -1.0e-06
Magnitude Max:, 99999
Rrup Min (km):, -1.0e-06
Rrup Max (km):, 99999
Rjb Min (km):, -1.0e-06
Rjb Max (km):, 99999
Vs30 Min (m/sec):, -1.0e-06
Vs30 Max (m/sec):, 99999
D9-95 Min (sec):, -1.0e-06
D9-95 Max (sec):, 99999
Scale Factor Min:, -1.0e-06
Scale Factor Max:, 99999
Period Array:, 
Weight Array:, 
Record Sequence Number:, 
Earthquake Name:, 9703873
Station Name:, 
User-Defined Maximum Number of Records:, 
Pulse:, 1
Damping Ratio:, 0.05
Scaling Method:, No Scaling
Suite Average:, Arithmetic
Single-Period-Scaling Period (sec):, 
Component:, SRSS
Fault Type:, All Types


 -- Summary of Metadata of Selected Records --
Result ID, Spectral Ordinate, Record Sequence Number, Mean Squared Error, Scale Factor, Tp-Pulse Period (sec), 5-75% Duration (sec), 5-95% Duration (sec), Arias Intensity (m/sec), Earthquake Name, Year, Station Name, Magnitude, Mechanism, Rjb (km), Rrup (km), Vs30 (m/sec), Lowest Useable Frequency (Hz), Initial-search Scale Factor, Horizontal-1 Acc. Filename, Horizontal-2 Acc. Filename, Vertical Acc. Filename
1, SRSS, 11870, -, 1.0, -, 12.9, 21.8, 0.0, "9703873", 2001, "Hawthorne; FAA Bldg", 4.24, strike slip, 16.94, 18.04, 332.33, 0.2, 1.0, RSN11870_9703873_N5243360.AT2, RSN11870_9703873_N5243090.AT2 , RSN11870_9703873_N5243-UP.AT2  
2, SRSS, 11871, -, 1.0, -, 6.5, 12.8, 0.0, "9703873", 2001, "Los Angeles - Acosta Residence", 4.24, strike slip, 20.0, 21.15, 330.03, 0.175, 1.0, RSN11871_9703873_N5396180.AT2, RSN11871_9703873_N5396270.AT2 , RSN11871_9703873_N5396-UP.AT2  
3, SRSS, 11872, -, 1.0, -, 1.6, 4.2, 0.0, "9703873", 2001, "Beverly Hills Pac Bell Bsmt", 4.24, strike slip, 1.8, 6.48, 460.09, 0.15, 1.0, RSN11872_9703873_N5402360.AT2, RSN11872_9703873_N5402090.AT2 , RSN11872_9703873_N5402-UP.AT2  
4, SRSS, 11873, -, 1.0, -, 2.5, 6.4, 0.0, "9703873", 2001, "La Canada - Wald Residence", 4.24, strike slip, 25.3, 26.23, 399.8, 0.325, 1.0, RSN11873_9703873_N5408360.AT2, RSN11873_9703873_N5408090.AT2 , RSN11873_9703873_N5408-UP.AT2  
5, SRSS, 11874, -, 1.0, -, 1.1, 3.9, 0.0, "9703873", 2001, "Los Angeles; Mullholland Fire Station 109 Mullholland Dr (at Fwy 405); 1-story; ground level", 4.24, strike slip, 11.92, 13.45, 425.25, 0.375, 1.0, RSN11874_9703873_N5421360.AT2, RSN11874_9703873_N5421090.AT2 , RSN11874_9703873_N5421-UP.AT2  
6, SRSS, 11875, -, 1.0, -, 3.5, 7.2, 0.0, "9703873", 2001, "Van Nuys - Fire Station No. 39", 4.24, strike slip, 14.75, 16.01, 304.04, 0.2, 1.0, RSN11875_9703873_N5422360.AT2, RSN11875_9703873_N5422090.AT2 , RSN11875_9703873_N5422-UP.AT2  
7, SRSS, 11876, -, 1.0, -, 4.3, 13.9, 0.0, "9703873", 2001, "Sylmar - Fire Station #91", 4.24, strike slip, 28.14, 28.82, 398.94, 0.2375, 1.0, RSN11876_9703873_N5423220.AT2, RSN11876_9703873_N5423310.AT2 , RSN11876_9703873_N5423-UP.AT2  
8, SRSS, 11877, -, 1.0, -, 4.4, 17.6, 0.0, "9703873", 2001, "Reseda - Fire Station 100", 4.24, strike slip, 18.22, 19.25, 287.16, 0.2, 1.0, RSN11877_9703873_N5424180.AT2, RSN11877_9703873_N5424270.AT2 , RSN11877_9703873_N5424-UP.AT2  
9, SRSS, 11878, -, 1.0, -, 4.3, 12.2, 0.0, "9703873", 2001, "Tarzana - Fire Station No. 93", 4.24, strike slip, 18.96, 19.96, 332.51, 0.275, 1.0, RSN11878_9703873_N5427360.AT2, RSN11878_9703873_N5427090.AT2 , RSN11878_9703873_N5427-UP.AT2  
10, SRSS, 11879, -, 1.0, -, 6.3, 12.8, 0.0, "9703873", 2001, "Chatsworth; Fire Station 96 Marilla St; 1-story; ground level", 4.24, strike slip, 28.36, 29.03, 282.5, 0.2375, 1.0, RSN11879_9703873_N5428360.AT2, RSN11879_9703873_N5428090.AT2 , RSN11879_9703873_N5428-UP.AT2  
11, SRSS, 11880, -, 1.0, -, 10.5, 18.5, 0.0, "9703873", 2001, "Compton; Cressey Park Fire Station 3 Rosecrans Ave ;2-story;ground level", 4.24, strike slip, 20.91, 21.93, 334.78, 0.25, 1.0, RSN11880_9703873_N5429360.AT2, RSN11880_9703873_N5429090.AT2 , RSN11880_9703873_N5429-UP.AT2  
12, SRSS, 11881, -, 1.0, -, 4.0, 9.0, 0.0, "9703873", 2001, "Jensen Filter Plant Administrative Building", 4.24, strike slip, 29.57, 30.22, 373.07, 0.25, 1.0, RSN11881_9703873_NS655022.AT2, RSN11881_9703873_NS655112.AT2 , RSN11881_9703873_NS655-UP.AT2  
13, SRSS, 11882, -, 1.0, -, 0.4, 2.1, 0.0, "9703873", 2001, "Los Angeles; Sepulveda Canyon", 4.24, strike slip, 8.8, 10.77, 681.24, 0.2625, 1.0, RSN11882_9703873_NS757256.AT2, RSN11882_9703873_NS757166.AT2 , RSN11882_9703873_NS757-UP.AT2  

 These records were obtained from the NGA-West2 On-Line Ground-Motion Database Tool
 These records are UNSCALED, AS RECORDED
 Filename Extension: 
   ,AT2 = Acceleration
   ,VT2 = Velocity
   ,DT2 = Displacement
 The users of the NGA-West2 databases, flatfiles, models and reports are requested to acknowledge the Pacific Earthquake Engineering Research Center (PEER) in their work and publications.

 -- Scaled Spectra used in Search & Scaling --
Period (sec),Arithmetic Mean pSa (g),Arithmetic Mean + Sigma pSa (g),Arithmetic Mean - Sigma pSa (g),RSN-11870 SRSS pSa (g),RSN-11871 SRSS pSa (g),RSN-11872 SRSS pSa (g),RSN-11873 SRSS pSa (g),RSN-11874 SRSS pSa (g),RSN-11875 SRSS pSa (g),RSN-11876 SRSS pSa (g),RSN-11877 SRSS pSa (g),RSN-11878 SRSS pSa (g),RSN-11879 SRSS pSa (g),RSN-11880 SRSS pSa (g),RSN-11881 SRSS pSa (g),RSN-11882 SRSS pSa (g)
0.01,0.04002949,0.08353839,0.01918112,0.00962145,0.02716926,0.11698801,0.03545563,0.04273064,0.05299861,0.03169358,0.02863311,0.02865411,0.0124972,0.01858823,0.02688754,0.08846601
0.02,0.04055115,0.08353862,0.01968425,0.00984183,0.02787219,0.1159305,0.03695987,0.043649,0.0540957,0.03183925,0.02898815,0.02939317,0.01271921,0.01892135,0.02720838,0.08974629
0.022,0.04068973,0.08368706,0.01978387,0.00994278,0.0278023,0.11624118,0.03755131,0.04371036,0.05450903,0.03182184,0.02908459,0.02956527,0.01279693,0.01902489,0.02725801,0.08965795
0.025,0.04111118,0.08407831,0.02010184,0.01029503,0.02883605,0.11659929,0.03853562,0.04406062,0.05573283,0.03194054,0.02903647,0.03012635,0.01281475,0.01908759,0.02734542,0.09003474
0.029,0.04206685,0.08547367,0.02070368,0.01050631,0.02968461,0.11824764,0.03970107,0.04618053,0.05887396,0.03215427,0.02943463,0.03119903,0.01304729,0.01954716,0.02755516,0.09073737
0.03,0.04231397,0.08577765,0.02087341,0.01073741,0.02991957,0.11861189,0.04053476,0.04653597,0.05939261,0.03218831,0.02961378,0.03124032,0.01308759,0.01964982,0.0276013,0.09096833
0.032,0.0426848,0.08603712,0.02117681,0.01101919,0.03094145,0.11931783,0.04216757,0.04672398,0.05926375,0.03226047,0.02988626,0.03180472,0.01314582,0.01971966,0.02779949,0.09085221
0.035,0.04376163,0.08832852,0.02168133,0.01162494,0.03309459,0.12313228,0.0434115,0.04928282,0.05985738,0.0323904,0.0297801,0.03260704,0.01328074,0.02011517,0.02800451,0.09231967
0.036,0.04417343,0.08942828,0.02181963,0.01167438,0.0336813,0.12496746,0.04388864,0.04997012,0.06007883,0.03247292,0.0296387,0.03298562,0.01339564,0.02028915,0.02814498,0.09306681
0.04,0.04546774,0.09298675,0.02223237,0.01179073,0.03549455,0.1293874,0.0479504,0.04878998,0.06305529,0.03250531,0.02973511,0.03149705,0.01360452,0.02174878,0.02835607,0.09716546
0.042,0.04570548,0.0928342,0.02250238,0.01225261,0.03679728,0.12872389,0.04823482,0.04733982,0.06480384,0.03264683,0.02957095,0.03230568,0.01351036,0.02194002,0.028672,0.09737309
0.044,0.04693439,0.0939192,0.02345459,0.01311335,0.03977343,0.12949389,0.04875364,0.04810208,0.07076749,0.03280967,0.03093091,0.03456181,0.01360283,0.02201322,0.02896642,0.0972583
0.045,0.04804905,0.09689712,0.02382641,0.01332079,0.04206251,0.13552848,0.05015549,0.04806691,0.07294613,0.03284099,0.03159942,0.03578046,0.01393559,0.02217887,0.02913616,0.09708581
0.046,0.04862562,0.09784248,0.02416589,0.01324139,0.04382352,0.13776065,0.05227512,0.04795575,0.0729263,0.03285466,0.03191004,0.0369725,0.01421552,0.02237398,0.02931322,0.09651041
0.048,0.04974436,0.09938393,0.02489841,0.01475522,0.04441967,0.14054888,0.05766137,0.04827257,0.07202073,0.0328878,0.03212337,0.03883877,0.01450844,0.02329165,0.02971533,0.09763289
0.05,0.05116165,0.10347829,0.0252953,0.0166272,0.04199181,0.14728721,0.06153853,0.04983398,0.07232543,0.03284103,0.03246814,0.04003697,0.01485161,0.02411503,0.03000423,0.1011803
0.055,0.05385458,0.10754442,0.02696853,0.01736473,0.04483907,0.14996132,0.0652424,0.05467887,0.07519867,0.03418006,0.03623202,0.04369835,0.01630894,0.02211898,0.03108112,0.10920497
0.06,0.05634295,0.11106161,0.02858349,0.01860317,0.05363439,0.15556959,0.07358286,0.05346735,0.07493647,0.03596007,0.03505124,0.04943634,0.01659106,0.02289104,0.03257422,0.1101606
0.065,0.06187702,0.12187018,0.03141675,0.02306239,0.06144885,0.17462124,0.08584924,0.05902433,0.08791476,0.03681171,0.03738539,0.05301408,0.01791321,0.02453795,0.03554042,0.10727763
0.067,0.06364418,0.12322931,0.03287028,0.02525946,0.06386696,0.17566888,0.09061475,0.06191613,0.09643871,0.03699903,0.03832996,0.05415805,0.01842556,0.02633491,0.03644072,0.10292123
0.07,0.06591262,0.12531932,0.03466723,0.02774722,0.06567634,0.17662827,0.0955341,0.06534767,0.10053064,0.03652739,0.03951629,0.05825998,0.01876151,0.02946417,0.03756208,0.10530836
0.075,0.0703868,0.1337073,0.03705334,0.02764189,0.06342412,0.18288295,0.10728958,0.06716459,0.10440035,0.03824465,0.04604366,0.06364058,0.0201873,0.03193273,0.03891227,0.1232637
0.08,0.0766192,0.15219026,0.03857344,0.03173537,0.066598,0.21512003,0.12614287,0.06629533,0.11690169,0.04000397,0.05180346,0.06071431,0.02234527,0.03203322,0.04295624,0.12339978
0.085,0.08224061,0.16456773,0.04109869,0.03103148,0.06778172,0.22784508,0.14585349,0.06668606,0.12515692,0.04203669,0.05524178,0.06550207,0.02632523,0.03194519,0.04897102,0.13475118
0.09,0.08395679,0.15870553,0.04441397,0.02826271,0.07290175,0.20501613,0.14694564,0.07250001,0.12044779,0.04440872,0.05760889,0.0657725,0.0303406,0.03737312,0.05330932,0.15655105
0.095,0.08311452,0.15984933,0.04321584,0.02639606,0.06089093,0.20557683,0.13903611,0.07771293,0.11260486,0.046966,0.05979188,0.05795815,0.03335674,0.0397641,0.04951073,0.17092339
0.1,0.08306075,0.15867106,0.04348044,0.02515432,0.05900616,0.19783087,0.12233325,0.09429765,0.11888085,0.04938171,0.06189883,0.05172624,0.0338444,0.03936797,0.04659994,0.17946756
0.11,0.09203375,0.1871363,0.04526226,0.0265996,0.06008795,0.22963745,0.08255879,0.14105815,0.13892529,0.05720562,0.07233295,0.05296016,0.036724,0.03396442,0.04929259,0.21509184
0.12,0.09898912,0.20186172,0.04854237,0.02881717,0.06460408,0.23686125,0.08255139,0.16947039,0.14700781,0.06895617,0.06655751,0.05954569,0.04111657,0.02650832,0.06020512,0.23465712
0.13,0.1007427,0.20060032,0.05059359,0.02766219,0.08523727,0.23391524,0.07839971,0.17567604,0.14616287,0.07809517,0.05567711,0.06443731,0.03825551,0.0290243,0.06605833,0.231054
0.133,0.10016698,0.19629867,0.05111306,0.02652432,0.09314945,0.22853387,0.07056713,0.17579072,0.14526117,0.07988337,0.05436499,0.06478475,0.03861189,0.03096431,0.07017955,0.22355527
0.14,0.09659593,0.17940003,0.05201099,0.02486681,0.0887018,0.20791494,0.07105957,0.16431532,0.13725385,0.08163521,0.05628025,0.06448873,0.04124998,0.03746442,0.07412655,0.20638966
0.15,0.09278485,0.16212772,0.05310028,0.02378266,0.07812698,0.18180817,0.08354293,0.1471091,0.12162998,0.07736655,0.06498189,0.06828056,0.03933086,0.04589624,0.07600981,0.19833727
0.16,0.0913507,0.15939418,0.05235418,0.02332875,0.06533302,0.18677863,0.09171583,0.12596213,0.11793314,0.0706294,0.07427795,0.07497301,0.03620844,0.05053152,0.07246944,0.1974179
0.17,0.08826441,0.15347008,0.05076303,0.02205901,0.07339624,0.19292855,0.09037499,0.09651574,0.11212349,0.06384603,0.07429369,0.0745314,0.03717848,0.04771081,0.07710129,0.1853776
0.18,0.08357334,0.14740167,0.04738415,0.01920493,0.08438747,0.18950288,0.08045365,0.07197453,0.10287589,0.05962795,0.07354559,0.07803347,0.03317962,0.04427161,0.0737931,0.17560273
0.19,0.08042347,0.14296251,0.04524217,0.01876815,0.09037871,0.18611181,0.07017098,0.06302984,0.09776995,0.06235931,0.07593425,0.07898812,0.02884835,0.0430869,0.06379469,0.16626404
0.2,0.07773552,0.14182868,0.04260641,0.01951616,0.09313915,0.189681,0.0576494,0.05802213,0.09215656,0.06621008,0.07010795,0.07554459,0.02807363,0.04072618,0.05913079,0.16060416
0.22,0.07670402,0.14757211,0.03986869,0.02130374,0.08870534,0.19241628,0.04957865,0.05833752,0.08852968,0.06901352,0.05924817,0.06956447,0.02437607,0.03735178,0.06194571,0.17678131
0.24,0.07606078,0.15059605,0.03841563,0.01989982,0.08390278,0.19605866,0.03903034,0.07042377,0.08578789,0.06887993,0.06477913,0.05935103,0.02264219,0.033997,0.06425699,0.17978066
0.25,0.0753399,0.15023069,0.03778257,0.02103621,0.06906022,0.19429806,0.0376659,0.06866098,0.09474517,0.06824596,0.06767616,0.05465806,0.02193535,0.0337068,0.06757897,0.18015089
0.26,0.0739454,0.14948393,0.03657866,0.02328878,0.06221826,0.19470083,0.03527439,0.06290359,0.09748387,0.06751611,0.06778686,0.0483495,0.02436586,0.03085703,0.06921864,0.17732642
0.28,0.06998209,0.14785283,0.03312411,0.02237128,0.06185502,0.19498754,0.03004369,0.04872132,0.09691234,0.0650401,0.06406895,0.0348115,0.0230113,0.02589946,0.07501999,0.16702471
0.29,0.0681838,0.1488608,0.03123072,0.02246645,0.05654012,0.19840056,0.02806177,0.04573292,0.09432075,0.06334139,0.06244392,0.02977278,0.02099571,0.02585507,0.07392145,0.1645365
0.3,0.06666855,0.14903907,0.02982235,0.02114581,0.05303222,0.1969549,0.02606826,0.04416393,0.09586328,0.06151129,0.06206428,0.02601222,0.01863143,0.02509346,0.07261772,0.16353236
0.32,0.06373283,0.13871003,0.0292832,0.02209251,0.05656022,0.18275899,0.02147329,0.04465443,0.09115905,0.05792921,0.05731909,0.02454717,0.01924381,0.02834264,0.06804656,0.15439983
0.34,0.05764861,0.11884704,0.02796336,0.021425,0.04808663,0.15423135,0.02074444,0.04309804,0.08475444,0.05439059,0.04903925,0.0248626,0.0209776,0.03120589,0.05917311,0.13744298
0.35,0.05444707,0.10907613,0.02717812,0.02217257,0.04177985,0.13916191,0.01941177,0.0425774,0.08040359,0.05249385,0.04444457,0.02478202,0.02141012,0.03386153,0.055472,0.12984077
0.36,0.05300239,0.10458988,0.0268597,0.02299434,0.0408677,0.13548363,0.01760841,0.04222206,0.07720077,0.05052745,0.04269761,0.02548037,0.02157798,0.03708647,0.05188763,0.1233966
0.38,0.05047066,0.09685756,0.02629932,0.02361082,0.04543155,0.12957745,0.01499291,0.04018518,0.06890211,0.04766998,0.03878902,0.02578549,0.02338856,0.03882783,0.04741499,0.11154272
0.4,0.04798784,0.09022273,0.02552387,0.02434689,0.04314233,0.12395859,0.01252895,0.0339931,0.0670544,0.04568739,0.03601014,0.02974539,0.02244515,0.04223969,0.04392675,0.09876318
0.42,0.04562415,0.08578444,0.02426505,0.02502147,0.03720574,0.11932765,0.01107438,0.02909078,0.07165264,0.04374592,0.03182992,0.03525445,0.0189146,0.04047129,0.0430586,0.08646657
0.44,0.04275221,0.07897746,0.0231427,0.02443717,0.03660324,0.11448978,0.0099443,0.0271803,0.05845568,0.04158235,0.03159924,0.03477997,0.02023099,0.03801029,0.04186925,0.07659623
0.45,0.0415187,0.07592707,0.0227034,0.02471387,0.03771388,0.11245185,0.00955907,0.02689993,0.05179317,0.04046422,0.03267393,0.03372385,0.02194079,0.03518962,0.04057386,0.07204508
0.46,0.04063585,0.0735525,0.02245025,0.02552338,0.03808978,0.1103125,0.00900472,0.02671929,0.04955038,0.03941264,0.03450383,0.0326521,0.02336628,0.03305207,0.0384124,0.06766666
0.48,0.03868,0.0697934,0.02143673,0.02578844,0.03316265,0.10574617,0.00801885,0.02670403,0.05236226,0.03706793,0.03524623,0.02987059,0.02386705,0.03265863,0.03294006,0.05940705
0.5,0.03543687,0.06600717,0.01902477,0.02374497,0.02725282,0.10208857,0.00751881,0.02564339,0.04841371,0.03454744,0.03147063,0.0255824,0.02168663,0.03047061,0.03031132,0.05194797
0.55,0.03048821,0.0692509,0.01342265,0.0171478,0.03545036,0.11060813,0.00605939,0.02212262,0.04064073,0.02841003,0.02063339,0.01726943,0.01348929,0.02000282,0.02677364,0.03773908
0.6,0.02823771,0.07524907,0.01059639,0.01545392,0.03646243,0.11885628,0.00531769,0.02005365,0.03783294,0.02284184,0.01522937,0.01577783,0.00984583,0.01876587,0.02129072,0.02936191
0.65,0.02477606,0.07405857,0.00828875,0.01225566,0.02448352,0.11494664,0.00462352,0.01795015,0.03662276,0.01819416,0.01252706,0.01689227,0.00966529,0.01302194,0.01671641,0.02418943
0.667,0.02350096,0.07205742,0.00766465,0.01134617,0.02114692,0.11068987,0.00431926,0.01678826,0.03743065,0.01692598,0.01182894,0.01658948,0.00917024,0.01124488,0.01528034,0.02275151
0.7,0.02134225,0.06770004,0.00672809,0.01074747,0.01768446,0.10311272,0.00377242,0.01422513,0.03440763,0.01485794,0.01204296,0.01495024,0.007019,0.01040848,0.0140236,0.02019722
0.75,0.01844677,0.06116383,0.00556347,0.00995833,0.01518642,0.09277993,0.00311608,0.01153466,0.02651921,0.01222585,0.01149959,0.01231025,0.00547445,0.01094259,0.01154139,0.01671921
0.8,0.01620658,0.05763544,0.00455715,0.00771085,0.01254404,0.08534117,0.0027432,0.00903596,0.02407785,0.01022571,0.01308579,0.0096376,0.00459071,0.00794155,0.0100176,0.01373347
0.85,0.01442099,0.05171749,0.00402117,0.00793964,0.01214865,0.07644594,0.00228048,0.00751454,0.02052336,0.00918384,0.01251692,0.00772377,0.00365737,0.0072832,0.00883452,0.0114206
0.9,0.01319887,0.04532341,0.00384371,0.0071001,0.01090553,0.06689203,0.00173965,0.00691089,0.02326049,0.00824136,0.01207791,0.00619084,0.00321533,0.00759587,0.00741942,0.01003588
0.95,0.0114318,0.03921166,0.00333284,0.00547229,0.0094081,0.05764989,0.00133474,0.0062841,0.02121665,0.00743815,0.00913932,0.00543083,0.00290253,0.00714018,0.00629855,0.00889813
1.0,0.00987617,0.03339922,0.00292039,0.00483146,0.00871371,0.04962486,0.00127467,0.0056144,0.01702215,0.0067493,0.00710888,0.00469108,0.00230945,0.0069173,0.00559812,0.00793482
1.1,0.00789233,0.02540598,0.00245174,0.00466104,0.00765158,0.03812444,0.00105332,0.00444939,0.01386994,0.0055693,0.00577555,0.00342927,0.00171284,0.0054313,0.00448373,0.00638854
1.2,0.0065277,0.02179735,0.00195487,0.00463276,0.00628927,0.0327418,0.0008726,0.00356118,0.01007854,0.0045896,0.00435827,0.00290684,0.00150569,0.00444791,0.00364833,0.00522735
1.3,0.00553709,0.01784268,0.00171832,0.00450567,0.00465252,0.02658726,0.00076608,0.00285226,0.01055745,0.00379916,0.00364524,0.00273239,0.00129079,0.00318254,0.0030576,0.00435322
1.4,0.00459616,0.01550982,0.00136202,0.00357141,0.00353942,0.02279365,0.00068367,0.00231842,0.00898475,0.00318607,0.00265487,0.00233625,0.00117889,0.00224277,0.00250251,0.00375737
1.5,0.0040114,0.01318781,0.00122017,0.00334748,0.00296447,0.01954596,0.00060232,0.00204432,0.00775599,0.00270365,0.00220477,0.00211483,0.00110836,0.00204245,0.00241414,0.00329947
1.6,0.00361157,0.01131533,0.00115272,0.00316402,0.00263441,0.01681949,0.000527,0.00178374,0.00741168,0.00231384,0.002244,0.00190085,0.00099767,0.00201178,0.00224915,0.00289281
1.7,0.00310973,0.00973958,0.0009929,0.00295558,0.00205358,0.01443907,0.00046002,0.00153088,0.0064106,0.00199168,0.00192819,0.00172544,0.00069956,0.00167407,0.00201311,0.00254476
1.8,0.00266949,0.00836559,0.00085184,0.00232221,0.00170075,0.01239665,0.00039894,0.00130706,0.00554676,0.00172337,0.00171339,0.00150754,0.00059509,0.00144589,0.00179286,0.00225282
1.9,0.00229458,0.00713912,0.0007375,0.00171939,0.00148198,0.01063939,0.00035929,0.0011201,0.00466392,0.00161292,0.0016435,0.00125814,0.00050889,0.00136002,0.0014529,0.00200915
2.0,0.00195501,0.0060684,0.00062983,0.00138093,0.00131596,0.00918742,0.00032812,0.00098854,0.0035104,0.00145432,0.00153455,0.00101766,0.0004517,0.00109176,0.00134713,0.00180659
2.2,0.00151627,0.00473931,0.00048511,0.00109623,0.00104362,0.00724523,0.00028296,0.00079356,0.00235906,0.00121,0.00115547,0.00073306,0.00034568,0.00112232,0.00082333,0.00150097
2.4,0.00122385,0.00380927,0.0003932,0.00108696,0.00078305,0.00587061,0.00025021,0.00065555,0.00168273,0.00094664,0.00083471,0.00059692,0.00031513,0.00092271,0.00069806,0.00126683
2.5,0.00112738,0.0035529,0.00035773,0.00100085,0.00071476,0.00545064,0.00023334,0.00060718,0.00160012,0.0007605,0.00077122,0.00053778,0.00029231,0.00086256,0.0006562,0.00116853
2.6,0.0010466,0.00331352,0.00033058,0.00098026,0.00066437,0.00506724,0.0002158,0.00056586,0.00151622,0.00069133,0.00070226,0.00049247,0.00025562,0.00078164,0.00059245,0.00108034
