Response and Fourier amplitude spectra (91 periods,  .04 - 15.0 sec)   for      
Corrected accelerogram   24011-L1813-01252.22       Chan  1:   0 Deg     from   
Uncorrected Accelerogram Data             Processed: 09/10/01, CDMG  011am022   
Record of Sun Sep  9, 2001 16:59:15 PDT               (Avol1 v4.6  7/01 CSMIP)  
CSMIP Preliminary Processing            (Origin:  To be determined)             
24011-L1813-01252.22                 Start time:  9/09/01, 23:59:15.0 UTC (GPS) 
Station No. 24011   34.127N, 118.346W      Etna  s/n 1813  (3 Channels)         
Hollywood - Hwy 101 & Barham                                                    
Chan  1:   0 Deg                                                                
Record of Sun Sep  9, 2001 16:59:15 PDT    Sun Sep  9, 2001 16:59:15 PDT        
Hypocenter:  To be determined.               ML:  To be determined.             
Instr Period =  .0104 sec,  Damping =  .660,  Sensitivity =  .63  v/g           
                        Record length = 40.000 sec.                             
                                     Uncor Max  =  -.043 g, at   6.720 sec.     
RMS accel of (uncor) record  =        .                                         
Accelerogram bandpass filtered with 3 dB pts at   .30 and 40.00 cyc/sec         
                 instrument- and baseline-corrected                             
                                                                                
                                                                                
                                                                                
                                                                                
                                                                                
Record of Sun Sep  9, 2001 16:59:15 PDT    Sun Sep  9, 2001 16:59:15 PDT        
                                                                                
24011-L1813-01252.22      Hollywood - Hwy 101 & Barham    Chan  1:   0 Deg      
                                                                                
24011-L1813-01252.22      Hollywood - Hwy 101 & Barham    Chan  1:   0 Deg      
                                                                                
Units for spectra are inches and sec, except Sa is in fraction of g.            
                                                                                
    1  100    1    3    3  200    1    3    1   24   12 1813    024011    1    0
   23   59   15    0  252    9    9 2001   10    3    0 8000   39   28   72 -999
 8000    1   50    3 1813    1   22  400    1    0    0    0    0    0    0    0
    0    4    0    0 4000    2    0    0    0    0   72   28    0    0    0 4000
    0 4000   29   91    1    3    0    0    0    0    3    0    0    0    0    2
    2    2    4    0   32   99 -999   32   32    0    0    1    0    0    0    0
  -99   -1    0    0
      .010      .660    40.000      .003      .000   625.000     -.043     6.720
    96.100      .298      .477      .000     5.000      .000      .000      .000
     2.500     5.969      .030     -.014     5.000    30.000      .000      .002
     -.002     -.004     2.000    15.000    34.127  -118.346      .026      .182
     7.034     -.013      .005  -999.000      .000      .000   -13.400      .000
  1000.000    -1.006      .000      .000      .000      .000      .000      .000
     4.600     4.400      .000   980.665      .010    40.000    15.295      .000
      .000    40.000      .000    40.000      .010      .300      .000      .000
     6.720   -41.581     6.670     1.071     6.720      .062      .000      .300
    40.000      .010      .010      .000      .010      .011      .000      .000
      .150      .140      .062      .038      .003      .000      .000      .000
      .000      .000      .000      .000      .000      .000      .000      .000
      .000      .000      .000      .000
      .050
      .040      .042      .044      .046      .048      .050      .055      .060
      .065      .070      .075      .080      .085      .090      .095      .100
      .110      .120      .130      .140      .150      .160      .170      .180
      .190      .200      .220      .240      .260      .280      .300      .320
      .340      .360      .380      .400      .420      .440      .460      .480
      .500      .550      .600      .650      .700      .750      .800      .850
      .900      .950     1.000     1.100     1.200     1.300     1.400     1.500
     1.600     1.700     1.800     1.900     2.000     2.200     2.400     2.600
     2.800     3.000     3.200     3.400     3.600     3.800     4.000     4.200
     4.400     4.600     4.800     5.000     5.500     6.000     6.500     7.000
     7.500     8.000     8.500     9.000     9.500    10.000    11.000    12.000
    13.000    14.000    15.000      .000      .000      .000      .000      .000
      .000      .000      .000      .000
Fourier amplitude spectra in in/sec.
  .000E+00  .000E+00  .000E+00  .000E+00  .000E+00  .000E+00  .000E+00  .000E+00
  .000E+00  .000E+00  .000E+00  .000E+00  .000E+00  .000E+00  .000E+00  .000E+00
  .000E+00  .000E+00  .000E+00  .000E+00  .000E+00  .000E+00  .000E+00  .000E+00
  .000E+00  .000E+00  .000E+00  .000E+00  .000E+00  .000E+00  .000E+00  .000E+00
  .000E+00  .000E+00  .000E+00  .000E+00  .000E+00  .000E+00  .000E+00  .000E+00
  .000E+00  .000E+00  .000E+00  .000E+00  .000E+00  .000E+00  .000E+00  .000E+00
  .000E+00  .000E+00  .000E+00  .000E+00  .000E+00  .000E+00  .000E+00  .000E+00
  .000E+00  .000E+00  .000E+00  .000E+00  .000E+00  .000E+00  .000E+00  .000E+00
  .000E+00  .000E+00  .000E+00  .000E+00  .000E+00  .000E+00  .000E+00  .000E+00
  .000E+00  .000E+00  .000E+00  .000E+00  .000E+00  .000E+00  .000E+00  .000E+00
  .000E+00  .000E+00  .000E+00  .000E+00  .000E+00  .000E+00  .000E+00  .000E+00
  .000E+00  .000E+00  .000E+00  .000E+00  .000E+00  .000E+00  .000E+00  .000E+00
  .000E+00  .000E+00  .000E+00  .000E+00
Damping =  .05. Data of Sd,Sv,Sa,Pssv,ttSd,ttSv,ttSa :
  .667E-03  .748E-03  .832E-03  .961E-03  .118E-02  .127E-02  .145E-02  .194E-02
  .268E-02  .352E-02  .326E-02  .488E-02  .660E-02  .802E-02  .770E-02  .839E-02
  .114E-01  .174E-01  .236E-01  .289E-01  .293E-01  .276E-01  .250E-01  .266E-01
  .247E-01  .242E-01  .260E-01  .311E-01  .319E-01  .304E-01  .301E-01  .399E-01
  .391E-01  .373E-01  .368E-01  .341E-01  .297E-01  .268E-01  .264E-01  .276E-01
  .292E-01  .321E-01  .349E-01  .366E-01  .332E-01  .317E-01  .325E-01  .314E-01
  .291E-01  .289E-01  .301E-01  .325E-01  .340E-01  .346E-01  .345E-01  .341E-01
  .338E-01  .335E-01  .334E-01  .333E-01  .332E-01  .331E-01  .328E-01  .324E-01
  .319E-01  .313E-01  .306E-01  .300E-01  .294E-01  .288E-01  .283E-01  .279E-01
  .275E-01  .272E-01  .269E-01  .267E-01  .262E-01  .259E-01  .258E-01  .257E-01
  .256E-01  .255E-01  .255E-01  .254E-01  .254E-01  .253E-01  .253E-01  .253E-01
  .252E-01  .252E-01  .252E-01  .000E+00  .000E+00  .000E+00  .000E+00  .000E+00
  .000E+00  .000E+00  .000E+00  .000E+00
  .422E-01  .567E-01  .801E-01  .101E+00  .116E+00  .113E+00  .110E+00  .155E+00
  .201E+00  .269E+00  .234E+00  .338E+00  .468E+00  .530E+00  .506E+00  .441E+00
  .580E+00  .818E+00  .117E+01  .131E+01  .126E+01  .118E+01  .102E+01  .100E+01
  .901E+00  .870E+00  .847E+00  .884E+00  .796E+00  .773E+00  .740E+00  .756E+00
  .849E+00  .780E+00  .775E+00  .761E+00  .725E+00  .682E+00  .651E+00  .637E+00
  .632E+00  .609E+00  .574E+00  .551E+00  .535E+00  .520E+00  .506E+00  .495E+00
  .486E+00  .478E+00  .470E+00  .451E+00  .431E+00  .411E+00  .412E+00  .416E+00
  .418E+00  .420E+00  .421E+00  .422E+00  .423E+00  .424E+00  .426E+00  .427E+00
  .428E+00  .428E+00  .428E+00  .428E+00  .428E+00  .427E+00  .427E+00  .426E+00
  .426E+00  .425E+00  .425E+00  .424E+00  .423E+00  .423E+00  .422E+00  .422E+00
  .422E+00  .421E+00  .421E+00  .421E+00  .421E+00  .421E+00  .421E+00  .421E+00
  .421E+00  .421E+00  .421E+00  .000E+00  .000E+00  .000E+00  .000E+00  .000E+00
  .000E+00  .000E+00  .000E+00  .000E+00
  .426E-01  .434E-01  .440E-01  .468E-01  .530E-01  .513E-01  .491E-01  .552E-01
  .648E-01  .736E-01  .593E-01  .781E-01  .948E-01  .101E+00  .869E-01  .862E-01
  .951E-01  .126E+00  .146E+00  .150E+00  .133E+00  .109E+00  .883E-01  .848E-01
  .697E-01  .623E-01  .548E-01  .563E-01  .485E-01  .400E-01  .346E-01  .404E-01
  .348E-01  .300E-01  .263E-01  .219E-01  .173E-01  .142E-01  .129E-01  .123E-01
  .120E-01  .110E-01  .995E-02  .896E-02  .706E-02  .590E-02  .531E-02  .457E-02
  .378E-02  .346E-02  .326E-02  .292E-02  .260E-02  .228E-02  .198E-02  .173E-02
  .152E-02  .135E-02  .122E-02  .110E-02  .101E-02  .854E-03  .733E-03  .636E-03
  .556E-03  .491E-03  .437E-03  .391E-03  .353E-03  .321E-03  .294E-03  .271E-03
  .251E-03  .234E-03  .220E-03  .207E-03  .181E-03  .160E-03  .144E-03  .131E-03
  .120E-03  .111E-03  .103E-03  .956E-04  .895E-04  .841E-04  .751E-04  .677E-04
  .617E-04  .566E-04  .523E-04  .000E+00  .000E+00  .000E+00  .000E+00  .000E+00
  .000E+00  .000E+00  .000E+00  .000E+00
  .105E+00  .112E+00  .119E+00  .131E+00  .155E+00  .159E+00  .166E+00  .203E+00
  .259E+00  .316E+00  .274E+00  .384E+00  .488E+00  .560E+00  .509E+00  .527E+00
  .649E+00  .913E+00  .114E+01  .130E+01  .123E+01  .108E+01  .922E+00  .930E+00
  .818E+00  .759E+00  .742E+00  .815E+00  .771E+00  .682E+00  .631E+00  .783E+00
  .722E+00  .652E+00  .609E+00  .535E+00  .444E+00  .383E+00  .360E+00  .361E+00
  .367E+00  .367E+00  .365E+00  .354E+00  .298E+00  .266E+00  .255E+00  .232E+00
  .203E+00  .191E+00  .189E+00  .185E+00  .178E+00  .167E+00  .155E+00  .143E+00
  .133E+00  .124E+00  .117E+00  .110E+00  .104E+00  .944E-01  .858E-01  .783E-01
  .715E-01  .655E-01  .601E-01  .554E-01  .513E-01  .477E-01  .445E-01  .417E-01
  .393E-01  .371E-01  .352E-01  .335E-01  .300E-01  .272E-01  .249E-01  .230E-01
  .214E-01  .200E-01  .188E-01  .177E-01  .168E-01  .159E-01  .145E-01  .132E-01
  .122E-01  .113E-01  .105E-01  .000E+00  .000E+00  .000E+00  .000E+00  .000E+00
  .000E+00  .000E+00  .000E+00  .000E+00
  .672E+01  .671E+01  .671E+01  .734E+01  .734E+01  .734E+01  .671E+01  .723E+01
  .734E+01  .736E+01  .744E+01  .762E+01  .767E+01  .768E+01  .752E+01  .678E+01
  .679E+01  .692E+01  .700E+01  .702E+01  .703E+01  .697E+01  .698E+01  .683E+01
  .684E+01  .684E+01  .676E+01  .676E+01  .677E+01  .678E+01  .759E+01  .760E+01
  .763E+01  .698E+01  .699E+01  .700E+01  .701E+01  .705E+01  .689E+01  .689E+01
  .689E+01  .690E+01  .752E+01  .754E+01  .755E+01  .733E+01  .734E+01  .735E+01
  .735E+01  .670E+01  .670E+01  .670E+01  .670E+01  .670E+01  .670E+01  .671E+01
  .671E+01  .671E+01  .671E+01  .671E+01  .671E+01  .671E+01  .671E+01  .671E+01
  .671E+01  .671E+01  .671E+01  .671E+01  .671E+01  .671E+01  .671E+01  .671E+01
  .671E+01  .671E+01  .671E+01  .671E+01  .671E+01  .671E+01  .671E+01  .671E+01
  .671E+01  .671E+01  .671E+01  .671E+01  .671E+01  .671E+01  .671E+01  .671E+01
  .671E+01  .671E+01  .671E+01  .000E+00  .000E+00  .000E+00  .000E+00  .000E+00
  .000E+00  .000E+00  .000E+00  .000E+00
  .720E+01  .720E+01  .732E+01  .732E+01  .733E+01  .733E+01  .724E+01  .721E+01
  .732E+01  .738E+01  .738E+01  .764E+01  .765E+01  .766E+01  .749E+01  .681E+01
  .682E+01  .708E+01  .704E+01  .705E+01  .699E+01  .700E+01  .694E+01  .687E+01
  .680E+01  .680E+01  .680E+01  .681E+01  .673E+01  .673E+01  .701E+01  .736E+01
  .757E+01  .758E+01  .674E+01  .674E+01  .674E+01  .674E+01  .674E+01  .674E+01
  .674E+01  .674E+01  .674E+01  .674E+01  .674E+01  .674E+01  .674E+01  .674E+01
  .674E+01  .674E+01  .674E+01  .674E+01  .674E+01  .674E+01  .666E+01  .666E+01
  .666E+01  .666E+01  .666E+01  .666E+01  .666E+01  .666E+01  .666E+01  .666E+01
  .666E+01  .666E+01  .666E+01  .666E+01  .666E+01  .666E+01  .666E+01  .666E+01
  .666E+01  .666E+01  .666E+01  .666E+01  .666E+01  .666E+01  .666E+01  .666E+01
  .666E+01  .666E+01  .666E+01  .666E+01  .666E+01  .666E+01  .666E+01  .666E+01
  .666E+01  .666E+01  .666E+01  .000E+00  .000E+00  .000E+00  .000E+00  .000E+00
  .000E+00  .000E+00  .000E+00  .000E+00
  .672E+01  .671E+01  .671E+01  .734E+01  .734E+01  .734E+01  .671E+01  .723E+01
  .734E+01  .736E+01  .744E+01  .762E+01  .767E+01  .768E+01  .751E+01  .678E+01
  .678E+01  .692E+01  .700E+01  .701E+01  .703E+01  .697E+01  .682E+01  .683E+01
  .684E+01  .684E+01  .676E+01  .676E+01  .677E+01  .677E+01  .758E+01  .760E+01
  .762E+01  .698E+01  .699E+01  .699E+01  .700E+01  .705E+01  .688E+01  .688E+01
  .688E+01  .689E+01  .751E+01  .753E+01  .754E+01  .690E+01  .733E+01  .733E+01
  .734E+01  .669E+01  .669E+01  .669E+01  .669E+01  .669E+01  .669E+01  .669E+01
  .669E+01  .669E+01  .668E+01  .668E+01  .668E+01  .668E+01  .668E+01  .668E+01
  .668E+01  .668E+01  .668E+01  .668E+01  .668E+01  .668E+01  .668E+01  .668E+01
  .668E+01  .667E+01  .667E+01  .667E+01  .667E+01  .667E+01  .667E+01  .667E+01
  .667E+01  .667E+01  .667E+01  .667E+01  .667E+01  .667E+01  .667E+01  .667E+01
  .667E+01  .667E+01  .667E+01  .000E+00  .000E+00  .000E+00  .000E+00  .000E+00
  .000E+00  .000E+00  .000E+00  .000E+00
/&   ----------  End of spectral data for channel  1  ----------
Response and Fourier amplitude spectra (91 periods,  .04 - 15.0 sec)   for      
Corrected accelerogram   24011-L1813-01252.22       Chan  2:   0 Deg     from   
Uncorrected Accelerogram Data             Processed: 09/10/01, CDMG  011am022   
Record of Sun Sep  9, 2001 16:59:15 PDT               (Avol1 v4.6  7/01 CSMIP)  
CSMIP Preliminary Processing            (Origin:  To be determined)             
24011-L1813-01252.22                 Start time:  9/09/01, 23:59:15.0 UTC (GPS) 
Station No. 24011   34.127N, 118.346W      Etna  s/n 1813  (3 Channels)         
Hollywood - Hwy 101 & Barham                                                    
Chan  2:   0 Deg                                                                
Record of Sun Sep  9, 2001 16:59:15 PDT    Sun Sep  9, 2001 16:59:15 PDT        
Hypocenter:  To be determined.               ML:  To be determined.             
Instr Period =  .0101 sec,  Damping =  .660,  Sensitivity =  .63  v/g           
                        Record length = 40.000 sec.                             
                                     Uncor Max  =  -.027 g, at   5.115 sec.     
RMS accel of (uncor) record  =        .                                         
Accelerogram bandpass filtered with 3 dB pts at   .30 and 40.00 cyc/sec         
                 instrument- and baseline-corrected                             
                                                                                
                                                                                
                                                                                
                                                                                
                                                                                
Record of Sun Sep  9, 2001 16:59:15 PDT    Sun Sep  9, 2001 16:59:15 PDT        
                                                                                
24011-L1813-01252.22      Hollywood - Hwy 101 & Barham    Chan  2:   0 Deg      
                                                                                
24011-L1813-01252.22      Hollywood - Hwy 101 & Barham    Chan  2:   0 Deg      
                                                                                
Units for spectra are inches and sec, except Sa is in fraction of g.            
                                                                                
    2  100    2    3    3  200    1    3    1   24   12 1813    024011    1    0
   23   59   15    0  252    9    9 2001   10    3    0 8000   39   28   72 -999
 8000    1   50    3 1813    1   22  400    1    0    0    0    0    0    0    0
    0    4    0    0 4000    2    0    0    0    0   72   28    0    0    0 4000
    0 4000   29   91    1    3    0    0    0    0    3    0    0    0    0    2
    2    2    4    0   32   99 -999   32   32    0    0    1    0    0    0    0
  -99   -1    0    0
      .010      .660    40.000      .002      .000   625.000     -.027     5.115
    99.500      .298      .477      .000     5.000      .000      .000      .000
     2.500   -25.496      .001     -.031     5.000    30.000      .000      .003
      .000     -.003     2.000    15.000    34.127  -118.346      .058      .138
     2.359     -.013      .007  -999.000      .000      .000   -13.400      .000
  1000.000    -1.007      .000      .000      .000      .000      .000      .000
     4.600     4.400      .000   980.665      .010    40.000    15.836      .000
      .000    40.000      .000    40.000      .010      .300      .000      .000
     5.110   -20.717     7.160     -.340     8.010      .014      .000      .300
    40.000      .010      .010      .000      .010      .007      .000      .000
      .069      .080      .021      .025      .001      .000      .000      .000
      .000      .000      .000      .000      .000      .000      .000      .000
      .000      .000      .000      .000
      .050
      .040      .042      .044      .046      .048      .050      .055      .060
      .065      .070      .075      .080      .085      .090      .095      .100
      .110      .120      .130      .140      .150      .160      .170      .180
      .190      .200      .220      .240      .260      .280      .300      .320
      .340      .360      .380      .400      .420      .440      .460      .480
      .500      .550      .600      .650      .700      .750      .800      .850
      .900      .950     1.000     1.100     1.200     1.300     1.400     1.500
     1.600     1.700     1.800     1.900     2.000     2.200     2.400     2.600
     2.800     3.000     3.200     3.400     3.600     3.800     4.000     4.200
     4.400     4.600     4.800     5.000     5.500     6.000     6.500     7.000
     7.500     8.000     8.500     9.000     9.500    10.000    11.000    12.000
    13.000    14.000    15.000      .000      .000      .000      .000      .000
      .000      .000      .000      .000
Fourier amplitude spectra in in/sec.
  .000E+00  .000E+00  .000E+00  .000E+00  .000E+00  .000E+00  .000E+00  .000E+00
  .000E+00  .000E+00  .000E+00  .000E+00  .000E+00  .000E+00  .000E+00  .000E+00
  .000E+00  .000E+00  .000E+00  .000E+00  .000E+00  .000E+00  .000E+00  .000E+00
  .000E+00  .000E+00  .000E+00  .000E+00  .000E+00  .000E+00  .000E+00  .000E+00
  .000E+00  .000E+00  .000E+00  .000E+00  .000E+00  .000E+00  .000E+00  .000E+00
  .000E+00  .000E+00  .000E+00  .000E+00  .000E+00  .000E+00  .000E+00  .000E+00
  .000E+00  .000E+00  .000E+00  .000E+00  .000E+00  .000E+00  .000E+00  .000E+00
  .000E+00  .000E+00  .000E+00  .000E+00  .000E+00  .000E+00  .000E+00  .000E+00
  .000E+00  .000E+00  .000E+00  .000E+00  .000E+00  .000E+00  .000E+00  .000E+00
  .000E+00  .000E+00  .000E+00  .000E+00  .000E+00  .000E+00  .000E+00  .000E+00
  .000E+00  .000E+00  .000E+00  .000E+00  .000E+00  .000E+00  .000E+00  .000E+00
  .000E+00  .000E+00  .000E+00  .000E+00  .000E+00  .000E+00  .000E+00  .000E+00
  .000E+00  .000E+00  .000E+00  .000E+00
Damping =  .05. Data of Sd,Sv,Sa,Pssv,ttSd,ttSv,ttSa :
  .887E-03  .863E-03  .906E-03  .107E-02  .110E-02  .129E-02  .141E-02  .227E-02
  .220E-02  .271E-02  .373E-02  .436E-02  .393E-02  .372E-02  .322E-02  .306E-02
  .411E-02  .476E-02  .515E-02  .520E-02  .608E-02  .827E-02  .736E-02  .631E-02
  .593E-02  .739E-02  .132E-01  .137E-01  .185E-01  .236E-01  .217E-01  .185E-01
  .175E-01  .159E-01  .134E-01  .154E-01  .174E-01  .177E-01  .181E-01  .179E-01
