Response and Fourier amplitude spectra (91 periods,  .04 - 15.0 sec)   for      
Corrected accelerogram   24714-M0104-01252.01       Chan 11:  Long       from   
Uncorrected Accelerogram Data             Processed: 09/10/01, CDMG  714js001   
Record of Sun Sep  9, 2001 16:59:23 PDT               (Avol1 v4.6  7/01 CSMIP)  
CSMIP Preliminary Processing            (Origin:  To be determined)             
24714-M0104-01252.01                 Start time:  9/09/01, 23:59:23.0 UTC (GPS) 
Station No. 24714   34.288N, 118.407W    MtWtny  s/n  104 (18 Chns of 36 at Sta)
San Fernando - I210/Hwy 118 Bridge                                              
Chan 11:  Long                      Location: Bent 8 Hinge: Deck, S Side/W edge 
Record of Sun Sep  9, 2001 16:59:23 PDT    Sun Sep  9, 2001 16:59:23 PDT        
Hypocenter:  To be determined.               ML:  To be determined.
Instr Period =  .0200 sec,  Damping =  .700,  Sensitivity =  .63  v/g
                        Record length = 36.000 sec.
                                     Uncor Max  =  -.013 g, at  34.730 sec.
RMS accel of (uncor) record  =        .
Accelerogram bandpass filtered with 3 dB pts at   .30 and 40.00 cyc/sec
                 instrument- and baseline-corrected





Record of Sun Sep  9, 2001 16:59:23 PDT    Sun Sep  9, 2001 16:59:23 PDT

24714-M0104-01252.01      San Fernando - I210/Hwy 118 Bridge    Chan 11:  Long

24714-M0104-01252.01      San Fernando - I210/Hwy 118 Bridge    Chan 11:  Long

Units for spectra are inches and sec, except Sa is in fraction of g.

   11  100   11   18   36  200    1    3    1   24   13  104    024714    3    0
   23   59   23    0  252    9    9 2001   10    3  800 7200   39   34   72   -1
 7200    0   50    3  104    1    1  360    1    0    0    0    0    0    0    0
    0    4    0    0 3600    2    0    0    0    0   72   34    0    0    0 3600
    0 3600   35   91    1   18    0    0    0    0   36    0    0    0    0    2
    2    2    4    1   66   99    0   32   32    0    0    1    0    0    0    0
  -99   -1    0    0
      .020      .700    36.000      .002      .000   625.000     -.013    34.730
    50.000      .298      .477      .000     5.000      .000      .000      .000
     2.500    -6.935      .004     -.009     5.000    30.000      .000      .020
     -.014     -.034     2.000    15.000    34.288  -118.407      .619     1.706
     2.756     -.147      .079  -999.000      .000      .000   -12.400      .000
  1000.000    -1.029      .000      .000      .000      .000      .000      .000
     4.600     4.400      .000   980.665      .010    36.000     7.958      .000
      .000    40.000      .000    36.000      .010      .300      .000      .000
     7.300    -9.901     5.100      .707     4.630      .068      .002      .300
    40.000      .010      .010      .000      .010      .038      .000      .000
      .032      .180      .022      .013      .006      .000      .000      .000
      .000      .000      .000      .000      .000      .000      .000      .000
      .000      .000      .000      .000
      .050
      .040      .042      .044      .046      .048      .050      .055      .060
      .065      .070      .075      .080      .085      .090      .095      .100
      .110      .120      .130      .140      .150      .160      .170      .180
      .190      .200      .220      .240      .260      .280      .300      .320
      .340      .360      .380      .400      .420      .440      .460      .480
      .500      .550      .600      .650      .700      .750      .800      .850
      .900      .950     1.000     1.100     1.200     1.300     1.400     1.500
     1.600     1.700     1.800     1.900     2.000     2.200     2.400     2.600
     2.800     3.000     3.200     3.400     3.600     3.800     4.000     4.200
     4.400     4.600     4.800     5.000     5.500     6.000     6.500     7.000
     7.500     8.000     8.500     9.000     9.500    10.000    11.000    12.000
    13.000    14.000    15.000      .000      .000      .000      .000      .000
      .000      .000      .000      .000
Fourier amplitude spectra in in/sec.
  .000E+00  .000E+00  .000E+00  .000E+00  .000E+00  .000E+00  .000E+00  .000E+00
  .000E+00  .000E+00  .000E+00  .000E+00  .000E+00  .000E+00  .000E+00  .000E+00
  .000E+00  .000E+00  .000E+00  .000E+00  .000E+00  .000E+00  .000E+00  .000E+00
  .000E+00  .000E+00  .000E+00  .000E+00  .000E+00  .000E+00  .000E+00  .000E+00
  .000E+00  .000E+00  .000E+00  .000E+00  .000E+00  .000E+00  .000E+00  .000E+00
  .000E+00  .000E+00  .000E+00  .000E+00  .000E+00  .000E+00  .000E+00  .000E+00
  .000E+00  .000E+00  .000E+00  .000E+00  .000E+00  .000E+00  .000E+00  .000E+00
  .000E+00  .000E+00  .000E+00  .000E+00  .000E+00  .000E+00  .000E+00  .000E+00
  .000E+00  .000E+00  .000E+00  .000E+00  .000E+00  .000E+00  .000E+00  .000E+00
  .000E+00  .000E+00  .000E+00  .000E+00  .000E+00  .000E+00  .000E+00  .000E+00
  .000E+00  .000E+00  .000E+00  .000E+00  .000E+00  .000E+00  .000E+00  .000E+00
  .000E+00  .000E+00  .000E+00  .000E+00  .000E+00  .000E+00  .000E+00  .000E+00
  .000E+00  .000E+00  .000E+00  .000E+00
Damping =  .05. Data of Sd,Sv,Sa,Pssv,ttSd,ttSv,ttSa :
  .195E-03  .274E-03  .346E-03  .445E-03  .550E-03  .594E-03  .384E-03  .461E-03
  .618E-03  .773E-03  .863E-03  .108E-02  .124E-02  .150E-02  .183E-02  .225E-02
  .277E-02  .388E-02  .437E-02  .561E-02  .666E-02  .593E-02  .751E-02  .989E-02
  .103E-01  .811E-02  .668E-02  .814E-02  .937E-02  .111E-01  .106E-01  .122E-01
  .141E-01  .155E-01  .192E-01  .241E-01  .270E-01  .319E-01  .395E-01  .472E-01
  .608E-01  .824E-01  .102E+00  .119E+00  .128E+00  .100E+00  .819E-01  .743E-01
  .644E-01  .582E-01  .549E-01  .528E-01  .536E-01  .519E-01  .455E-01  .415E-01
  .489E-01  .432E-01  .318E-01  .321E-01  .327E-01  .333E-01  .343E-01  .355E-01
  .346E-01  .334E-01  .320E-01  .306E-01  .295E-01  .286E-01  .279E-01  .275E-01
  .273E-01  .271E-01  .271E-01  .271E-01  .273E-01  .275E-01  .277E-01  .278E-01
  .278E-01  .278E-01  .278E-01  .277E-01  .276E-01  .275E-01  .272E-01  .270E-01
  .268E-01  .266E-01  .264E-01  .000E+00  .000E+00  .000E+00  .000E+00  .000E+00
  .000E+00  .000E+00  .000E+00  .000E+00
  .244E-01  .292E-01  .405E-01  .529E-01  .670E-01  .657E-01  .409E-01  .338E-01
  .381E-01  .651E-01  .566E-01  .692E-01  .646E-01  .873E-01  .101E+00  .132E+00
  .149E+00  .190E+00  .190E+00  .219E+00  .248E+00  .219E+00  .259E+00  .320E+00
  .333E+00  .260E+00  .192E+00  .204E+00  .208E+00  .221E+00  .195E+00  .183E+00
  .207E+00  .204E+00  .253E+00  .328E+00  .363E+00  .375E+00  .476E+00  .570E+00
  .671E+00  .910E+00  .101E+01  .117E+01  .118E+01  .917E+00  .760E+00  .696E+00
  .641E+00  .594E+00  .557E+00  .506E+00  .467E+00  .411E+00  .395E+00  .366E+00
  .337E+00  .317E+00  .310E+00  .308E+00  .304E+00  .304E+00  .298E+00  .289E+00
  .280E+00  .280E+00  .283E+00  .284E+00  .285E+00  .285E+00  .285E+00  .284E+00
  .283E+00  .283E+00  .282E+00  .281E+00  .280E+00  .280E+00  .279E+00  .279E+00
  .279E+00  .279E+00  .279E+00  .279E+00  .279E+00  .279E+00  .279E+00  .279E+00
  .279E+00  .278E+00  .278E+00  .000E+00  .000E+00  .000E+00  .000E+00  .000E+00
  .000E+00  .000E+00  .000E+00  .000E+00
  .125E-01  .158E-01  .186E-01  .213E-01  .243E-01  .242E-01  .130E-01  .132E-01
  .150E-01  .162E-01  .158E-01  .174E-01  .177E-01  .191E-01  .207E-01  .234E-01
  .241E-01  .276E-01  .265E-01  .291E-01  .302E-01  .240E-01  .267E-01  .315E-01
  .295E-01  .210E-01  .141E-01  .146E-01  .142E-01  .145E-01  .121E-01  .122E-01
  .125E-01  .123E-01  .137E-01  .155E-01  .157E-01  .170E-01  .192E-01  .210E-01
  .250E-01  .280E-01  .290E-01  .289E-01  .268E-01  .183E-01  .132E-01  .106E-01
  .818E-02  .663E-02  .568E-02  .452E-02  .386E-02  .318E-02  .241E-02  .194E-02
  .196E-02  .154E-02  .105E-02  .939E-03  .865E-03  .722E-03  .649E-03  .570E-03
  .491E-03  .419E-03  .358E-03  .309E-03  .270E-03  .239E-03  .214E-03  .195E-03
  .178E-03  .165E-03  .154E-03  .144E-03  .123E-03  .108E-03  .958E-04  .856E-04
  .772E-04  .700E-04  .639E-04  .588E-04  .543E-04  .504E-04  .440E-04  .392E-04
  .356E-04  .326E-04  .300E-04  .000E+00  .000E+00  .000E+00  .000E+00  .000E+00
  .000E+00  .000E+00  .000E+00  .000E+00
  .307E-01  .409E-01  .495E-01  .608E-01  .720E-01  .747E-01  .438E-01  .483E-01
  .597E-01  .694E-01  .723E-01  .848E-01  .916E-01  .104E+00  .121E+00  .142E+00
  .158E+00  .203E+00  .211E+00  .252E+00  .279E+00  .233E+00  .277E+00  .345E+00
  .340E+00  .255E+00  .191E+00  .213E+00  .226E+00  .249E+00  .221E+00  .239E+00
  .260E+00  .271E+00  .318E+00  .379E+00  .404E+00  .456E+00  .540E+00  .617E+00
  .764E+00  .941E+00  .106E+01  .115E+01  .115E+01  .839E+00  .643E+00  .549E+00
  .449E+00  .385E+00  .345E+00  .301E+00  .281E+00  .251E+00  .204E+00  .174E+00
  .192E+00  .160E+00  .111E+00  .106E+00  .103E+00  .951E-01  .897E-01  .857E-01
  .776E-01  .699E-01  .627E-01  .565E-01  .514E-01  .472E-01  .439E-01  .412E-01
  .389E-01  .371E-01  .355E-01  .341E-01  .312E-01  .288E-01  .268E-01  .250E-01
  .233E-01  .219E-01  .205E-01  .193E-01  .183E-01  .173E-01  .156E-01  .141E-01
  .129E-01  .119E-01  .111E-01  .000E+00  .000E+00  .000E+00  .000E+00  .000E+00
  .000E+00  .000E+00  .000E+00  .000E+00
  .341E+02  .342E+02  .342E+02  .343E+02  .343E+02  .344E+02  .730E+01  .671E+01
  .731E+01  .230E+02  .532E+01  .634E+01  .672E+01  .533E+01  .636E+01  .585E+01
  .336E+02  .337E+02  .672E+01  .788E+01  .878E+01  .879E+01  .879E+01  .880E+01
  .911E+01  .913E+01  .734E+01  .734E+01  .735E+01  .793E+01  .521E+01  .522E+01
  .523E+01  .465E+01  .700E+01  .701E+01  .704E+01  .524E+01  .525E+01  .526E+01
  .735E+01  .534E+01  .538E+01  .779E+01  .787E+01  .695E+01  .520E+01  .154E+02
  .524E+01  .526E+01  .491E+01  .492E+01  .493E+01  .494E+01  .495E+01  .460E+01
  .353E+02  .355E+02  .461E+01  .495E+01  .495E+01  .356E+02  .461E+01  .358E+02
  .461E+01  .461E+01  .462E+01  .462E+01  .462E+01  .462E+01  .462E+01  .462E+01
  .462E+01  .461E+01  .461E+01  .461E+01  .461E+01  .461E+01  .461E+01  .461E+01
  .462E+01  .462E+01  .462E+01  .462E+01  .462E+01  .462E+01  .462E+01  .462E+01
  .462E+01  .462E+01  .462E+01  .000E+00  .000E+00  .000E+00  .000E+00  .000E+00
  .000E+00  .000E+00  .000E+00  .000E+00
  .341E+02  .342E+02  .343E+02  .343E+02  .343E+02  .343E+02  .344E+02  .343E+02
  .231E+02  .231E+02  .575E+01  .632E+01  .632E+01  .536E+01  .546E+01  .587E+01
  .336E+02  .338E+02  .342E+02  .792E+01  .882E+01  .538E+01  .539E+01  .876E+01
  .916E+01  .918E+01  .919E+01  .740E+01  .741E+01  .799E+01  .789E+01  .516E+01
  .516E+01  .516E+01  .711E+01  .713E+01  .714E+01  .515E+01  .515E+01  .515E+01
  .516E+01  .547E+01  .554E+01  .793E+01  .910E+01  .679E+01  .535E+01  .507E+01
  .508E+01  .508E+01  .509E+01  .509E+01  .509E+01  .509E+01  .478E+01  .478E+01
  .478E+01  .478E+01  .509E+01  .509E+01  .478E+01  .478E+01  .478E+01  .478E+01
  .478E+01  .509E+01  .509E+01  .509E+01  .509E+01  .509E+01  .509E+01  .509E+01
  .509E+01  .509E+01  .509E+01  .509E+01  .509E+01  .509E+01  .509E+01  .509E+01
  .509E+01  .509E+01  .509E+01  .509E+01  .509E+01  .509E+01  .509E+01  .509E+01
  .509E+01  .509E+01  .509E+01  .000E+00  .000E+00  .000E+00  .000E+00  .000E+00
  .000E+00  .000E+00  .000E+00  .000E+00
  .341E+02  .342E+02  .342E+02  .343E+02  .343E+02  .344E+02  .730E+01  .671E+01
  .731E+01  .230E+02  .532E+01  .634E+01  .672E+01  .533E+01  .636E+01  .584E+01
  .336E+02  .337E+02  .672E+01  .788E+01  .878E+01  .878E+01  .879E+01  .880E+01
  .911E+01  .791E+01  .734E+01  .734E+01  .735E+01  .793E+01  .521E+01  .521E+01
  .522E+01  .464E+01  .699E+01  .701E+01  .703E+01  .523E+01  .524E+01  .525E+01
  .734E+01  .533E+01  .537E+01  .778E+01  .786E+01  .694E+01  .519E+01  .154E+02
  .523E+01  .524E+01  .489E+01  .490E+01  .491E+01  .492E+01  .493E+01  .458E+01
  .353E+02  .354E+02  .458E+01  .492E+01  .491E+01  .458E+01  .457E+01  .457E+01
  .457E+01  .457E+01  .457E+01  .457E+01  .457E+01  .457E+01  .456E+01  .456E+01
  .456E+01  .456E+01  .456E+01  .456E+01  .456E+01  .455E+01  .455E+01  .455E+01
  .455E+01  .455E+01  .454E+01  .454E+01  .454E+01  .454E+01  .454E+01  .485E+01
  .485E+01  .485E+01  .485E+01  .000E+00  .000E+00  .000E+00  .000E+00  .000E+00
  .000E+00  .000E+00  .000E+00  .000E+00
/&   ----------  End of spectral data for channel 11  ----------
