Response and Fourier amplitude spectra (91 periods,  .04 - 15.0 sec)   for      
Corrected accelerogram   24714-M0104-01252.01       Chan  6:  Up         from   
Uncorrected Accelerogram Data             Processed: 09/10/01, CDMG  714js001   
Record of Sun Sep  9, 2001 16:59:23 PDT               (Avol1 v4.6  7/01 CSMIP)  
CSMIP Preliminary Processing            (Origin:  To be determined)             
24714-M0104-01252.01                 Start time:  9/09/01, 23:59:23.0 UTC (GPS) 
Station No. 24714   34.288N, 118.407W    MtWtny  s/n  104 (18 Chns of 36 at Sta)
San Fernando - I210/Hwy 118 Bridge                                              
Chan  6:  Up                        Location: Near Abutment 11: Deck Level      
Record of Sun Sep  9, 2001 16:59:23 PDT    Sun Sep  9, 2001 16:59:23 PDT        
Hypocenter:  To be determined.               ML:  To be determined.
Instr Period =  .0200 sec,  Damping =  .700,  Sensitivity =  .63  v/g
                        Record length = 36.000 sec.
                                     Uncor Max  =  -.051 g, at  35.000 sec.
RMS accel of (uncor) record  =        .
Accelerogram bandpass filtered with 3 dB pts at   .30 and 40.00 cyc/sec
                 instrument- and baseline-corrected





Record of Sun Sep  9, 2001 16:59:23 PDT    Sun Sep  9, 2001 16:59:23 PDT

24714-M0104-01252.01      San Fernando - I210/Hwy 118 Bridge    Chan  6:  Up

24714-M0104-01252.01      San Fernando - I210/Hwy 118 Bridge    Chan  6:  Up

Units for spectra are inches and sec, except Sa is in fraction of g.

    6  100    6   18   36  200    1    3    1   24   13  104    024714    3    0
   23   59   23    0  252    9    9 2001   10    3  500 7200   39   34   72   -1
 7200    0   50    3  104    1    1  360    1    0    0    0    0    0    0    0
    0    4    0    0 3600    2    0    0    0    0   72   34    0    0    0 3600
    0 3600   35   91    1   18    0    0    0    0   36    0    0    0    0    2
    2    2    4    1   66   99    0   32   32    0    0    1    0    0    0    0
  -99   -1    0    0
      .020      .700    36.000      .003      .000   625.000     -.051    35.000
    50.000      .298      .477      .000     5.000      .000      .000      .000
     2.500   -44.442      .004     -.059     5.000    30.000      .000      .010
      .001     -.009     2.000    15.000    34.288  -118.407     1.613     4.224
     2.619     -.297      .278  -999.000      .000      .000   -12.400      .000
  1000.000    -1.055      .000      .000      .000      .000      .000      .000
     4.600     4.400      .000   980.665      .010    36.000     7.958      .000
      .000    40.000      .000    36.000      .010      .300      .000      .000
     5.190    14.301     5.340      .378     5.380      .023      .000      .300
    40.000      .010      .010      .000      .010      .011      .000      .000
      .064      .100      .025      .014      .002      .000      .000      .000
      .000      .000      .000      .000      .000      .000      .000      .000
      .000      .000      .000      .000
      .050
      .040      .042      .044      .046      .048      .050      .055      .060
      .065      .070      .075      .080      .085      .090      .095      .100
      .110      .120      .130      .140      .150      .160      .170      .180
      .190      .200      .220      .240      .260      .280      .300      .320
      .340      .360      .380      .400      .420      .440      .460      .480
      .500      .550      .600      .650      .700      .750      .800      .850
      .900      .950     1.000     1.100     1.200     1.300     1.400     1.500
     1.600     1.700     1.800     1.900     2.000     2.200     2.400     2.600
     2.800     3.000     3.200     3.400     3.600     3.800     4.000     4.200
     4.400     4.600     4.800     5.000     5.500     6.000     6.500     7.000
     7.500     8.000     8.500     9.000     9.500    10.000    11.000    12.000
    13.000    14.000    15.000      .000      .000      .000      .000      .000
      .000      .000      .000      .000
Fourier amplitude spectra in in/sec.
  .000E+00  .000E+00  .000E+00  .000E+00  .000E+00  .000E+00  .000E+00  .000E+00
  .000E+00  .000E+00  .000E+00  .000E+00  .000E+00  .000E+00  .000E+00  .000E+00
  .000E+00  .000E+00  .000E+00  .000E+00  .000E+00  .000E+00  .000E+00  .000E+00
  .000E+00  .000E+00  .000E+00  .000E+00  .000E+00  .000E+00  .000E+00  .000E+00
  .000E+00  .000E+00  .000E+00  .000E+00  .000E+00  .000E+00  .000E+00  .000E+00
  .000E+00  .000E+00  .000E+00  .000E+00  .000E+00  .000E+00  .000E+00  .000E+00
  .000E+00  .000E+00  .000E+00  .000E+00  .000E+00  .000E+00  .000E+00  .000E+00
  .000E+00  .000E+00  .000E+00  .000E+00  .000E+00  .000E+00  .000E+00  .000E+00
  .000E+00  .000E+00  .000E+00  .000E+00  .000E+00  .000E+00  .000E+00  .000E+00
  .000E+00  .000E+00  .000E+00  .000E+00  .000E+00  .000E+00  .000E+00  .000E+00
  .000E+00  .000E+00  .000E+00  .000E+00  .000E+00  .000E+00  .000E+00  .000E+00
  .000E+00  .000E+00  .000E+00  .000E+00  .000E+00  .000E+00  .000E+00  .000E+00
  .000E+00  .000E+00  .000E+00  .000E+00
Damping =  .05. Data of Sd,Sv,Sa,Pssv,ttSd,ttSv,ttSa :
  .537E-03  .514E-03  .494E-03  .480E-03  .531E-03  .669E-03  .888E-03  .101E-02
  .149E-02  .167E-02  .172E-02  .201E-02  .293E-02  .386E-02  .533E-02  .612E-02
  .637E-02  .566E-02  .539E-02  .752E-02  .103E-01  .906E-02  .752E-02  .822E-02
  .879E-02  .958E-02  .117E-01  .116E-01  .114E-01  .126E-01  .114E-01  .133E-01
  .152E-01  .171E-01  .189E-01  .195E-01  .180E-01  .178E-01  .182E-01  .193E-01
  .210E-01  .247E-01  .249E-01  .268E-01  .239E-01  .189E-01  .170E-01  .203E-01
  .199E-01  .182E-01  .159E-01  .119E-01  .137E-01  .143E-01  .137E-01  .141E-01
  .126E-01  .116E-01  .114E-01  .109E-01  .110E-01  .115E-01  .124E-01  .119E-01
  .116E-01  .110E-01  .104E-01  .981E-02  .931E-02  .977E-02  .960E-02  .899E-02
  .829E-02  .817E-02  .812E-02  .809E-02  .811E-02  .817E-02  .823E-02  .829E-02
  .832E-02  .835E-02  .836E-02  .836E-02  .837E-02  .835E-02  .833E-02  .831E-02
  .826E-02  .824E-02  .822E-02  .000E+00  .000E+00  .000E+00  .000E+00  .000E+00
  .000E+00  .000E+00  .000E+00  .000E+00
  .845E-01  .781E-01  .732E-01  .637E-01  .686E-01  .871E-01  .102E+00  .817E-01
  .109E+00  .110E+00  .111E+00  .138E+00  .198E+00  .253E+00  .350E+00  .395E+00
  .352E+00  .301E+00  .262E+00  .323E+00  .425E+00  .385E+00  .324E+00  .303E+00
  .291E+00  .330E+00  .370E+00  .286E+00  .312E+00  .325E+00  .321E+00  .332E+00
  .311E+00  .285E+00  .257E+00  .291E+00  .314E+00  .306E+00  .300E+00  .290E+00
  .294E+00  .296E+00  .297E+00  .301E+00  .263E+00  .227E+00  .200E+00  .202E+00
  .173E+00  .154E+00  .145E+00  .146E+00  .141E+00  .149E+00  .154E+00  .156E+00
  .155E+00  .154E+00  .152E+00  .151E+00  .150E+00  .149E+00  .150E+00  .152E+00
  .153E+00  .153E+00  .153E+00  .153E+00  .152E+00  .152E+00  .151E+00  .151E+00
  .150E+00  .150E+00  .149E+00  .149E+00  .148E+00  .148E+00  .148E+00  .148E+00
  .148E+00  .148E+00  .148E+00  .148E+00  .148E+00  .148E+00  .148E+00  .148E+00
  .148E+00  .148E+00  .148E+00  .000E+00  .000E+00  .000E+00  .000E+00  .000E+00
  .000E+00  .000E+00  .000E+00  .000E+00
  .341E-01  .306E-01  .263E-01  .234E-01  .239E-01  .279E-01  .297E-01  .285E-01
  .367E-01  .349E-01  .316E-01  .326E-01  .418E-01  .490E-01  .613E-01  .637E-01
  .545E-01  .404E-01  .327E-01  .393E-01  .473E-01  .359E-01  .266E-01  .261E-01
  .248E-01  .246E-01  .250E-01  .209E-01  .172E-01  .166E-01  .131E-01  .134E-01
  .135E-01  .136E-01  .136E-01  .126E-01  .105E-01  .945E-02  .886E-02  .861E-02
  .864E-02  .840E-02  .713E-02  .652E-02  .503E-02  .349E-02  .279E-02  .288E-02
  .254E-02  .209E-02  .164E-02  .107E-02  .104E-02  .925E-03  .776E-03  .650E-03
  .539E-03  .462E-03  .406E-03  .365E-03  .336E-03  .295E-03  .263E-03  .231E-03
  .200E-03  .173E-03  .150E-03  .132E-03  .117E-03  .105E-03  .958E-04  .881E-04
  .817E-04  .764E-04  .718E-04  .677E-04  .596E-04  .533E-04  .481E-04  .438E-04
  .404E-04  .374E-04  .348E-04  .325E-04  .305E-04  .287E-04  .257E-04  .233E-04
  .212E-04  .195E-04  .180E-04  .000E+00  .000E+00  .000E+00  .000E+00  .000E+00
  .000E+00  .000E+00  .000E+00  .000E+00
  .844E-01  .769E-01  .705E-01  .656E-01  .695E-01  .841E-01  .101E+00  .106E+00
  .144E+00  .150E+00  .144E+00  .158E+00  .217E+00  .269E+00  .353E+00  .384E+00
  .364E+00  .297E+00  .261E+00  .337E+00  .431E+00  .356E+00  .278E+00  .287E+00
  .291E+00  .301E+00  .334E+00  .304E+00  .276E+00  .283E+00  .240E+00  .262E+00
  .281E+00  .298E+00  .313E+00  .306E+00  .270E+00  .254E+00  .248E+00  .253E+00
  .264E+00  .282E+00  .261E+00  .259E+00  .215E+00  .158E+00  .134E+00  .150E+00
  .139E+00  .121E+00  .100E+00  .680E-01  .719E-01  .690E-01  .615E-01  .591E-01
  .494E-01  .430E-01  .398E-01  .362E-01  .347E-01  .329E-01  .325E-01  .288E-01
  .260E-01  .231E-01  .204E-01  .181E-01  .163E-01  .162E-01  .151E-01  .135E-01
  .118E-01  .112E-01  .106E-01  .102E-01  .926E-02  .855E-02  .796E-02  .744E-02
  .697E-02  .656E-02  .618E-02  .584E-02  .553E-02  .525E-02  .476E-02  .435E-02
  .399E-02  .370E-02  .344E-02  .000E+00  .000E+00  .000E+00  .000E+00  .000E+00
  .000E+00  .000E+00  .000E+00  .000E+00
  .266E+02  .266E+02  .266E+02  .519E+01  .268E+02  .268E+02  .268E+02  .567E+01
  .537E+01  .538E+01  .538E+01  .528E+01  .528E+01  .529E+01  .530E+01  .530E+01
  .640E+01  .507E+01  .577E+01  .577E+01  .609E+01  .604E+01  .567E+01  .543E+01
  .554E+01  .521E+01  .523E+01  .592E+01  .556E+01  .545E+01  .546E+01  .564E+01
  .565E+01  .566E+01  .567E+01  .567E+01  .593E+01  .619E+01  .620E+01  .602E+01
  .603E+01  .605E+01  .608E+01  .713E+01  .689E+01  .561E+01  .536E+01  .120E+02
  .120E+02  .117E+02  .113E+02  .537E+01  .537E+01  .537E+01  .537E+01  .215E+02
  .163E+02  .163E+02  .156E+02  .537E+01  .537E+01  .537E+01  .151E+02  .537E+01
  .537E+01  .537E+01  .537E+01  .537E+01  .537E+01  .121E+02  .121E+02  .121E+02
  .121E+02  .537E+01  .537E+01  .537E+01  .537E+01  .537E+01  .537E+01  .537E+01
  .537E+01  .537E+01  .537E+01  .537E+01  .537E+01  .537E+01  .537E+01  .537E+01
  .537E+01  .537E+01  .537E+01  .000E+00  .000E+00  .000E+00  .000E+00  .000E+00
  .000E+00  .000E+00  .000E+00  .000E+00
  .266E+02  .266E+02  .266E+02  .266E+02  .268E+02  .268E+02  .268E+02  .521E+01
  .536E+01  .536E+01  .526E+01  .526E+01  .526E+01  .527E+01  .528E+01  .523E+01
  .643E+01  .510E+01  .505E+01  .580E+01  .613E+01  .600E+01  .563E+01  .557E+01
  .558E+01  .525E+01  .519E+01  .587E+01  .589E+01  .552E+01  .569E+01  .570E+01
  .570E+01  .571E+01  .554E+01  .563E+01  .563E+01  .563E+01  .609E+01  .589E+01
  .589E+01  .564E+01  .564E+01  .601E+01  .601E+01  .577E+01  .543E+01  .121E+02
  .118E+02  .533E+01  .533E+01  .543E+01  .543E+01  .533E+01  .533E+01  .533E+01
  .533E+01  .533E+01  .533E+01  .533E+01  .533E+01  .533E+01  .533E+01  .533E+01
  .533E+01  .533E+01  .533E+01  .533E+01  .533E+01  .533E+01  .533E+01  .533E+01
  .533E+01  .533E+01  .533E+01  .533E+01  .533E+01  .533E+01  .533E+01  .533E+01
  .533E+01  .533E+01  .533E+01  .533E+01  .533E+01  .533E+01  .533E+01  .533E+01
  .533E+01  .533E+01  .533E+01  .000E+00  .000E+00  .000E+00  .000E+00  .000E+00
  .000E+00  .000E+00  .000E+00  .000E+00
  .266E+02  .266E+02  .266E+02  .519E+01  .268E+02  .268E+02  .268E+02  .567E+01
  .537E+01  .538E+01  .538E+01  .528E+01  .528E+01  .529E+01  .530E+01  .530E+01
  .575E+01  .507E+01  .576E+01  .577E+01  .609E+01  .596E+01  .566E+01  .552E+01
  .554E+01  .520E+01  .523E+01  .591E+01  .556E+01  .544E+01  .545E+01  .564E+01
  .565E+01  .565E+01  .566E+01  .567E+01  .592E+01  .618E+01  .620E+01  .601E+01
  .602E+01  .604E+01  .607E+01  .712E+01  .688E+01  .560E+01  .535E+01  .120E+02
  .120E+02  .117E+02  .113E+02  .535E+01  .535E+01  .535E+01  .535E+01  .214E+02
  .535E+01  .535E+01  .535E+01  .535E+01  .535E+01  .534E+01  .534E+01  .534E+01
  .534E+01  .534E+01  .534E+01  .534E+01  .534E+01  .534E+01  .534E+01  .534E+01
  .534E+01  .534E+01  .534E+01  .534E+01  .534E+01  .534E+01  .534E+01  .533E+01
  .533E+01  .533E+01  .533E+01  .533E+01  .533E+01  .533E+01  .533E+01  .533E+01
  .533E+01  .533E+01  .533E+01  .000E+00  .000E+00  .000E+00  .000E+00  .000E+00
  .000E+00  .000E+00  .000E+00  .000E+00
/&   ----------  End of spectral data for channel  6  ----------
