Response and Fourier amplitude spectra (91 periods,  .04 - 15.0 sec)   for      
Corrected accelerogram   24714-M0104-01252.01       Chan 18:  Up         from   
Uncorrected Accelerogram Data             Processed: 09/10/01, CDMG  714js001   
Record of Sun Sep  9, 2001 16:59:23 PDT               (Avol1 v4.6  7/01 CSMIP)  
CSMIP Preliminary Processing            (Origin:  To be determined)             
24714-M0104-01252.01                 Start time:  9/09/01, 23:59:23.0 UTC (GPS) 
Station No. 24714   34.288N, 118.407W    MtWtny  s/n  104 (18 Chns of 36 at Sta)
San Fernando - I210/Hwy 118 Bridge                                              
Chan 18:  Up                        Location: Bent 7: Deck, W. Edge             
Record of Sun Sep  9, 2001 16:59:23 PDT    Sun Sep  9, 2001 16:59:23 PDT        
Hypocenter:  To be determined.               ML:  To be determined.
Instr Period =  .0200 sec,  Damping =  .700,  Sensitivity =  .63  v/g
                        Record length = 36.000 sec.
                                     Uncor Max  =  -.040 g, at  30.305 sec.
RMS accel of (uncor) record  =        .
Accelerogram bandpass filtered with 3 dB pts at   .30 and 40.00 cyc/sec
                 instrument- and baseline-corrected





Record of Sun Sep  9, 2001 16:59:23 PDT    Sun Sep  9, 2001 16:59:23 PDT

24714-M0104-01252.01      San Fernando - I210/Hwy 118 Bridge    Chan 18:  Up

24714-M0104-01252.01      San Fernando - I210/Hwy 118 Bridge    Chan 18:  Up

Units for spectra are inches and sec, except Sa is in fraction of g.

   18  100   18   18   36  200    1    3    1   24   13  104    024714    3    0
   23   59   23    0  252    9    9 2001   10    3  500 7200   39   34   72   -1
 7200    0   50    3  104    1    1  360    1    0    0    0    0    0    0    0
    0    4    0    0 3600    2    0    0    0    0   72   34    0    0    0 3600
    0 3600   35   91    1   18    0    0    0    0   36    0    0    0    0    2
    2    2    4    1   66   99    0   32   32    0    0    1    0    0    0    0
  -99   -1    0    0
      .020      .700    36.000      .003      .000   625.000     -.040    30.305
    50.000      .298      .477      .000     5.000      .000      .000      .000
     2.500   -44.881     -.003     -.041     5.000    30.000      .000     -.009
     -.003      .006     2.000    15.000    34.288  -118.407      .954     3.156
     3.308     -.186      .199  -999.000      .000      .000   -12.400      .000
  1000.000    -1.004      .000      .000      .000      .000      .000      .000
     4.600     4.400      .000   980.665      .010    36.000     7.958      .000
      .000    40.000      .000    36.000      .010      .300      .000      .000
    30.300   -15.711     4.930      .463     6.770     -.031      .000      .300
    40.000      .010      .010      .000      .010      .022      .000      .000
      .060      .180      .049      .014      .004      .000      .000      .000
      .000      .000      .000      .000      .000      .000      .000      .000
      .000      .000      .000      .000
      .050
      .040      .042      .044      .046      .048      .050      .055      .060
      .065      .070      .075      .080      .085      .090      .095      .100
      .110      .120      .130      .140      .150      .160      .170      .180
      .190      .200      .220      .240      .260      .280      .300      .320
      .340      .360      .380      .400      .420      .440      .460      .480
      .500      .550      .600      .650      .700      .750      .800      .850
      .900      .950     1.000     1.100     1.200     1.300     1.400     1.500
     1.600     1.700     1.800     1.900     2.000     2.200     2.400     2.600
     2.800     3.000     3.200     3.400     3.600     3.800     4.000     4.200
     4.400     4.600     4.800     5.000     5.500     6.000     6.500     7.000
     7.500     8.000     8.500     9.000     9.500    10.000    11.000    12.000
    13.000    14.000    15.000      .000      .000      .000      .000      .000
      .000      .000      .000      .000
Fourier amplitude spectra in in/sec.
  .000E+00  .000E+00  .000E+00  .000E+00  .000E+00  .000E+00  .000E+00  .000E+00
  .000E+00  .000E+00  .000E+00  .000E+00  .000E+00  .000E+00  .000E+00  .000E+00
  .000E+00  .000E+00  .000E+00  .000E+00  .000E+00  .000E+00  .000E+00  .000E+00
  .000E+00  .000E+00  .000E+00  .000E+00  .000E+00  .000E+00  .000E+00  .000E+00
  .000E+00  .000E+00  .000E+00  .000E+00  .000E+00  .000E+00  .000E+00  .000E+00
  .000E+00  .000E+00  .000E+00  .000E+00  .000E+00  .000E+00  .000E+00  .000E+00
  .000E+00  .000E+00  .000E+00  .000E+00  .000E+00  .000E+00  .000E+00  .000E+00
  .000E+00  .000E+00  .000E+00  .000E+00  .000E+00  .000E+00  .000E+00  .000E+00
  .000E+00  .000E+00  .000E+00  .000E+00  .000E+00  .000E+00  .000E+00  .000E+00
  .000E+00  .000E+00  .000E+00  .000E+00  .000E+00  .000E+00  .000E+00  .000E+00
  .000E+00  .000E+00  .000E+00  .000E+00  .000E+00  .000E+00  .000E+00  .000E+00
  .000E+00  .000E+00  .000E+00  .000E+00  .000E+00  .000E+00  .000E+00  .000E+00
  .000E+00  .000E+00  .000E+00  .000E+00
Damping =  .05. Data of Sd,Sv,Sa,Pssv,ttSd,ttSv,ttSa :
  .280E-03  .349E-03  .443E-03  .430E-03  .415E-03  .408E-03  .523E-03  .599E-03
  .750E-03  .101E-02  .130E-02  .176E-02  .238E-02  .269E-02  .283E-02  .289E-02
  .548E-02  .829E-02  .729E-02  .665E-02  .888E-02  .117E-01  .149E-01  .189E-01
  .209E-01  .208E-01  .166E-01  .131E-01  .118E-01  .115E-01  .117E-01  .124E-01
  .141E-01  .159E-01  .155E-01  .160E-01  .164E-01  .186E-01  .195E-01  .189E-01
  .197E-01  .288E-01  .307E-01  .348E-01  .305E-01  .291E-01  .330E-01  .326E-01
  .315E-01  .370E-01  .418E-01  .564E-01  .552E-01  .382E-01  .308E-01  .296E-01
  .263E-01  .240E-01  .242E-01  .250E-01  .244E-01  .210E-01  .177E-01  .186E-01
  .178E-01  .164E-01  .151E-01  .142E-01  .139E-01  .136E-01  .134E-01  .131E-01
  .130E-01  .128E-01  .127E-01  .127E-01  .125E-01  .124E-01  .124E-01  .123E-01
  .123E-01  .123E-01  .123E-01  .123E-01  .123E-01  .123E-01  .123E-01  .123E-01
  .123E-01  .123E-01  .123E-01  .000E+00  .000E+00  .000E+00  .000E+00  .000E+00
  .000E+00  .000E+00  .000E+00  .000E+00
  .389E-01  .447E-01  .531E-01  .510E-01  .487E-01  .419E-01  .420E-01  .524E-01
  .633E-01  .816E-01  .103E+00  .120E+00  .136E+00  .149E+00  .154E+00  .159E+00
  .297E+00  .429E+00  .369E+00  .265E+00  .357E+00  .435E+00  .535E+00  .641E+00
  .711E+00  .684E+00  .534E+00  .372E+00  .317E+00  .285E+00  .306E+00  .304E+00
  .254E+00  .274E+00  .274E+00  .270E+00  .287E+00  .269E+00  .303E+00  .320E+00
  .322E+00  .349E+00  .371E+00  .375E+00  .311E+00  .299E+00  .298E+00  .292E+00
  .263E+00  .295E+00  .342E+00  .338E+00  .397E+00  .246E+00  .230E+00  .226E+00
  .218E+00  .210E+00  .205E+00  .203E+00  .203E+00  .204E+00  .203E+00  .201E+00
  .198E+00  .195E+00  .193E+00  .191E+00  .189E+00  .188E+00  .187E+00  .186E+00
  .185E+00  .185E+00  .185E+00  .184E+00  .184E+00  .183E+00  .183E+00  .183E+00
  .182E+00  .182E+00  .182E+00  .182E+00  .182E+00  .182E+00  .182E+00  .181E+00
  .181E+00  .181E+00  .181E+00  .000E+00  .000E+00  .000E+00  .000E+00  .000E+00
  .000E+00  .000E+00  .000E+00  .000E+00
  .182E-01  .203E-01  .232E-01  .207E-01  .185E-01  .168E-01  .178E-01  .170E-01
  .180E-01  .211E-01  .236E-01  .281E-01  .337E-01  .341E-01  .323E-01  .291E-01
  .458E-01  .596E-01  .439E-01  .350E-01  .407E-01  .465E-01  .525E-01  .601E-01
  .592E-01  .533E-01  .355E-01  .235E-01  .179E-01  .151E-01  .133E-01  .125E-01
  .126E-01  .126E-01  .110E-01  .103E-01  .961E-02  .986E-02  .951E-02  .846E-02
  .811E-02  .981E-02  .878E-02  .847E-02  .640E-02  .532E-02  .531E-02  .464E-02
  .404E-02  .422E-02  .430E-02  .479E-02  .395E-02  .233E-02  .163E-02  .136E-02
  .107E-02  .862E-03  .778E-03  .728E-03  .647E-03  .459E-03  .335E-03  .298E-03
  .248E-03  .202E-03  .171E-03  .152E-03  .136E-03  .122E-03  .111E-03  .101E-03
  .925E-04  .853E-04  .792E-04  .740E-04  .634E-04  .554E-04  .492E-04  .441E-04
  .399E-04  .371E-04  .348E-04  .328E-04  .309E-04  .293E-04  .265E-04  .242E-04
  .224E-04  .208E-04  .194E-04  .000E+00  .000E+00  .000E+00  .000E+00  .000E+00
  .000E+00  .000E+00  .000E+00  .000E+00
  .440E-01  .522E-01  .632E-01  .588E-01  .543E-01  .513E-01  .598E-01  .627E-01
  .725E-01  .908E-01  .109E+00  .138E+00  .176E+00  .188E+00  .187E+00  .181E+00
  .313E+00  .434E+00  .353E+00  .298E+00  .372E+00  .460E+00  .550E+00  .661E+00
  .691E+00  .653E+00  .473E+00  .343E+00  .285E+00  .258E+00  .245E+00  .243E+00
  .261E+00  .277E+00  .257E+00  .252E+00  .245E+00  .265E+00  .266E+00  .247E+00
  .248E+00  .329E+00  .322E+00  .336E+00  .274E+00  .244E+00  .259E+00  .241E+00
  .220E+00  .244E+00  .262E+00  .322E+00  .289E+00  .185E+00  .138E+00  .124E+00
  .103E+00  .889E-01  .843E-01  .826E-01  .767E-01  .599E-01  .463E-01  .448E-01
  .399E-01  .344E-01  .297E-01  .262E-01  .242E-01  .225E-01  .210E-01  .197E-01
  .185E-01  .175E-01  .166E-01  .159E-01  .143E-01  .130E-01  .120E-01  .111E-01
  .103E-01  .966E-02  .909E-02  .859E-02  .814E-02  .774E-02  .704E-02  .646E-02
  .597E-02  .554E-02  .517E-02  .000E+00  .000E+00  .000E+00  .000E+00  .000E+00
  .000E+00  .000E+00  .000E+00  .000E+00
  .342E+02  .305E+02  .306E+02  .305E+02  .305E+02  .322E+02  .495E+01  .320E+02
  .306E+02  .652E+01  .507E+01  .508E+01  .496E+01  .497E+01  .516E+01  .542E+01
  .322E+02  .322E+02  .322E+02  .524E+01  .610E+01  .544E+01  .545E+01  .546E+01
  .548E+01  .540E+01  .505E+01  .868E+01  .574E+01  .476E+01  .609E+01  .598E+01
  .705E+01  .708E+01  .710E+01  .735E+01  .599E+01  .600E+01  .601E+01  .628E+01
  .765E+01  .807E+01  .933E+01  .188E+02  .186E+02  .183E+02  .180E+02  .180E+02
  .729E+01  .739E+01  .331E+02  .327E+02  .323E+02  .302E+02  .302E+02  .105E+02
  .140E+02  .291E+02  .798E+01  .799E+01  .800E+01  .715E+01  .673E+01  .675E+01
  .675E+01  .676E+01  .676E+01  .676E+01  .468E+01  .468E+01  .468E+01  .468E+01
  .468E+01  .468E+01  .676E+01  .676E+01  .676E+01  .676E+01  .676E+01  .676E+01
  .676E+01  .676E+01  .676E+01  .676E+01  .676E+01  .676E+01  .676E+01  .676E+01
  .676E+01  .676E+01  .676E+01  .000E+00  .000E+00  .000E+00  .000E+00  .000E+00
  .000E+00  .000E+00  .000E+00  .000E+00
  .342E+02  .342E+02  .305E+02  .305E+02  .305E+02  .305E+02  .337E+02  .206E+02
  .306E+02  .654E+01  .655E+01  .655E+01  .511E+01  .513E+01  .519E+01  .539E+01
  .322E+02  .323E+02  .322E+02  .322E+02  .614E+01  .548E+01  .549E+01  .542E+01
  .543E+01  .535E+01  .510E+01  .511E+01  .569E+01  .603E+01  .603E+01  .604E+01
  .604E+01  .700E+01  .701E+01  .729E+01  .729E+01  .637E+01  .637E+01  .595E+01
  .596E+01  .760E+01  .920E+01  .835E+01  .746E+01  .185E+02  .596E+01  .179E+02
  .748E+01  .721E+01  .722E+01  .330E+02  .320E+02  .320E+02  .492E+01  .492E+01
  .492E+01  .492E+01  .492E+01  .492E+01  .492E+01  .492E+01  .492E+01  .492E+01
  .492E+01  .492E+01  .492E+01  .492E+01  .492E+01  .492E+01  .492E+01  .492E+01
  .492E+01  .492E+01  .492E+01  .492E+01  .492E+01  .492E+01  .492E+01  .492E+01
  .492E+01  .492E+01  .492E+01  .492E+01  .492E+01  .492E+01  .492E+01  .492E+01
  .492E+01  .492E+01  .492E+01  .000E+00  .000E+00  .000E+00  .000E+00  .000E+00
  .000E+00  .000E+00  .000E+00  .000E+00
  .342E+02  .305E+02  .306E+02  .305E+02  .305E+02  .322E+02  .495E+01  .320E+02
  .306E+02  .652E+01  .507E+01  .508E+01  .496E+01  .497E+01  .516E+01  .541E+01
  .322E+02  .322E+02  .322E+02  .524E+01  .610E+01  .543E+01  .545E+01  .546E+01
  .547E+01  .540E+01  .504E+01  .868E+01  .574E+01  .476E+01  .608E+01  .598E+01
  .704E+01  .707E+01  .709E+01  .734E+01  .599E+01  .600E+01  .600E+01  .627E+01
  .764E+01  .806E+01  .932E+01  .188E+02  .186E+02  .183E+02  .180E+02  .180E+02
  .727E+01  .738E+01  .331E+02  .327E+02  .323E+02  .301E+02  .302E+02  .105E+02
  .296E+02  .291E+02  .797E+01  .797E+01  .797E+01  .712E+01  .668E+01  .668E+01
  .668E+01  .668E+01  .463E+01  .463E+01  .463E+01  .463E+01  .463E+01  .463E+01
  .463E+01  .463E+01  .462E+01  .462E+01  .462E+01  .462E+01  .462E+01  .462E+01
  .462E+01  .493E+01  .493E+01  .493E+01  .493E+01  .493E+01  .493E+01  .493E+01
  .492E+01  .492E+01  .492E+01  .000E+00  .000E+00  .000E+00  .000E+00  .000E+00
  .000E+00  .000E+00  .000E+00  .000E+00
/&   ----------  End of spectral data for channel 18  ----------
