Response and Fourier amplitude spectra (91 periods,  .04 - 15.0 sec)   for      
Corrected accelerogram   24714-M0104-01252.01       Chan 10:  Tran       from   
Uncorrected Accelerogram Data             Processed: 09/10/01, CDMG  714js001   
Record of Sun Sep  9, 2001 16:59:23 PDT               (Avol1 v4.6  7/01 CSMIP)  
CSMIP Preliminary Processing            (Origin:  To be determined)             
24714-M0104-01252.01                 Start time:  9/09/01, 23:59:23.0 UTC (GPS) 
Station No. 24714   34.288N, 118.407W    MtWtny  s/n  104 (18 Chns of 36 at Sta)
San Fernando - I210/Hwy 118 Bridge                                              
Chan 10:  Tran                      Location: Bent 8 Hinge: Deck                
Record of Sun Sep  9, 2001 16:59:23 PDT    Sun Sep  9, 2001 16:59:23 PDT        
Hypocenter:  To be determined.               ML:  To be determined.
Instr Period =  .0200 sec,  Damping =  .700,  Sensitivity =  .63  v/g
                        Record length = 36.000 sec.
                                     Uncor Max  =  -.030 g, at  34.740 sec.
RMS accel of (uncor) record  =        .
Accelerogram bandpass filtered with 3 dB pts at   .30 and 40.00 cyc/sec
                 instrument- and baseline-corrected





Record of Sun Sep  9, 2001 16:59:23 PDT    Sun Sep  9, 2001 16:59:23 PDT

24714-M0104-01252.01      San Fernando - I210/Hwy 118 Bridge    Chan 10:  Tran

24714-M0104-01252.01      San Fernando - I210/Hwy 118 Bridge    Chan 10:  Tran

Units for spectra are inches and sec, except Sa is in fraction of g.

   10  100   10   18   36  200    1    3    1   24   13  104    024714    3    0
   23   59   23    0  252    9    9 2001   10    3  900 7200   39   34   72   -1
 7200    0   50    3  104    1    1  360    1    0    0    0    0    0    0    0
    0    4    0    0 3600    2    0    0    0    0   72   34    0    0    0 3600
    0 3600   35   91    1   18    0    0    0    0   36    0    0    0    0    2
    2    2    4    1   66   99    0   32   32    0    0    1    0    0    0    0
  -99   -1    0    0
      .020      .700    36.000      .003      .000   625.000     -.030    34.740
    50.000      .298      .477      .000     5.000      .000      .000      .000
     2.500     8.016      .024     -.011     5.000    30.000      .000     -.024
      .009      .033     2.000    15.000    34.288  -118.407      .776     2.649
     3.415     -.126      .193  -999.000      .000      .000   -12.400      .000
  1000.000     1.058      .000      .000      .000      .000      .000      .000
     4.600     4.400      .000   980.665      .010    36.000     7.958      .000
      .000    40.000      .000    36.000      .010      .300      .000      .000
     5.130    11.985    10.710     -.970     5.120     -.110     -.001      .300
    40.000      .010      .010      .000      .010      .060      .000      .000
      .048      .550      .026      .026      .012      .001      .000      .000
      .000      .000      .000      .000      .000      .000      .000      .000
      .000      .000      .000      .000
      .050
      .040      .042      .044      .046      .048      .050      .055      .060
      .065      .070      .075      .080      .085      .090      .095      .100
      .110      .120      .130      .140      .150      .160      .170      .180
      .190      .200      .220      .240      .260      .280      .300      .320
      .340      .360      .380      .400      .420      .440      .460      .480
      .500      .550      .600      .650      .700      .750      .800      .850
      .900      .950     1.000     1.100     1.200     1.300     1.400     1.500
     1.600     1.700     1.800     1.900     2.000     2.200     2.400     2.600
     2.800     3.000     3.200     3.400     3.600     3.800     4.000     4.200
     4.400     4.600     4.800     5.000     5.500     6.000     6.500     7.000
     7.500     8.000     8.500     9.000     9.500    10.000    11.000    12.000
    13.000    14.000    15.000      .000      .000      .000      .000      .000
      .000      .000      .000      .000
Fourier amplitude spectra in in/sec.
  .000E+00  .000E+00  .000E+00  .000E+00  .000E+00  .000E+00  .000E+00  .000E+00
  .000E+00  .000E+00  .000E+00  .000E+00  .000E+00  .000E+00  .000E+00  .000E+00
  .000E+00  .000E+00  .000E+00  .000E+00  .000E+00  .000E+00  .000E+00  .000E+00
  .000E+00  .000E+00  .000E+00  .000E+00  .000E+00  .000E+00  .000E+00  .000E+00
  .000E+00  .000E+00  .000E+00  .000E+00  .000E+00  .000E+00  .000E+00  .000E+00
  .000E+00  .000E+00  .000E+00  .000E+00  .000E+00  .000E+00  .000E+00  .000E+00
  .000E+00  .000E+00  .000E+00  .000E+00  .000E+00  .000E+00  .000E+00  .000E+00
  .000E+00  .000E+00  .000E+00  .000E+00  .000E+00  .000E+00  .000E+00  .000E+00
  .000E+00  .000E+00  .000E+00  .000E+00  .000E+00  .000E+00  .000E+00  .000E+00
  .000E+00  .000E+00  .000E+00  .000E+00  .000E+00  .000E+00  .000E+00  .000E+00
  .000E+00  .000E+00  .000E+00  .000E+00  .000E+00  .000E+00  .000E+00  .000E+00
  .000E+00  .000E+00  .000E+00  .000E+00  .000E+00  .000E+00  .000E+00  .000E+00
  .000E+00  .000E+00  .000E+00  .000E+00
Damping =  .05. Data of Sd,Sv,Sa,Pssv,ttSd,ttSv,ttSa :
  .278E-03  .273E-03  .313E-03  .404E-03  .516E-03  .606E-03  .512E-03  .535E-03
  .679E-03  .965E-03  .127E-02  .165E-02  .160E-02  .203E-02  .281E-02  .296E-02
  .244E-02  .388E-02  .559E-02  .632E-02  .638E-02  .605E-02  .712E-02  .882E-02
  .965E-02  .985E-02  .112E-01  .181E-01  .198E-01  .198E-01  .199E-01  .281E-01
  .403E-01  .452E-01  .407E-01  .449E-01  .449E-01  .540E-01  .689E-01  .862E-01
  .106E+00  .141E+00  .127E+00  .117E+00  .992E-01  .105E+00  .106E+00  .105E+00
  .106E+00  .107E+00  .121E+00  .129E+00  .128E+00  .109E+00  .910E-01  .856E-01
  .767E-01  .693E-01  .694E-01  .679E-01  .659E-01  .624E-01  .606E-01  .596E-01
  .587E-01  .574E-01  .559E-01  .543E-01  .528E-01  .513E-01  .501E-01  .491E-01
  .482E-01  .476E-01  .470E-01  .466E-01  .459E-01  .456E-01  .454E-01  .453E-01
  .452E-01  .451E-01  .450E-01  .450E-01  .449E-01  .448E-01  .447E-01  .445E-01
  .444E-01  .442E-01  .441E-01  .000E+00  .000E+00  .000E+00  .000E+00  .000E+00
  .000E+00  .000E+00  .000E+00  .000E+00
  .447E-01  .441E-01  .378E-01  .512E-01  .659E-01  .700E-01  .514E-01  .497E-01
  .454E-01  .490E-01  .638E-01  .846E-01  .902E-01  .113E+00  .157E+00  .171E+00
  .106E+00  .146E+00  .217E+00  .250E+00  .247E+00  .200E+00  .185E+00  .231E+00
  .258E+00  .270E+00  .272E+00  .384E+00  .425E+00  .375E+00  .388E+00  .511E+00
  .674E+00  .755E+00  .628E+00  .694E+00  .674E+00  .683E+00  .848E+00  .103E+01
  .124E+01  .164E+01  .140E+01  .126E+01  .953E+00  .945E+00  .949E+00  .922E+00
  .880E+00  .832E+00  .789E+00  .794E+00  .827E+00  .673E+00  .590E+00  .570E+00
  .551E+00  .523E+00  .492E+00  .483E+00  .503E+00  .473E+00  .414E+00  .388E+00
  .394E+00  .407E+00  .411E+00  .408E+00  .403E+00  .398E+00  .395E+00  .394E+00
  .393E+00  .393E+00  .393E+00  .392E+00  .391E+00  .389E+00  .388E+00  .387E+00
  .387E+00  .386E+00  .385E+00  .385E+00  .385E+00  .384E+00  .384E+00  .384E+00
  .384E+00  .384E+00  .383E+00  .000E+00  .000E+00  .000E+00  .000E+00  .000E+00
  .000E+00  .000E+00  .000E+00  .000E+00
  .179E-01  .157E-01  .164E-01  .196E-01  .231E-01  .250E-01  .173E-01  .152E-01
  .165E-01  .201E-01  .230E-01  .267E-01  .228E-01  .259E-01  .320E-01  .306E-01
  .204E-01  .276E-01  .341E-01  .334E-01  .292E-01  .241E-01  .251E-01  .280E-01
  .275E-01  .253E-01  .238E-01  .322E-01  .301E-01  .261E-01  .227E-01  .283E-01
  .359E-01  .359E-01  .290E-01  .289E-01  .262E-01  .287E-01  .334E-01  .384E-01
  .434E-01  .481E-01  .363E-01  .285E-01  .208E-01  .191E-01  .171E-01  .150E-01
  .135E-01  .122E-01  .124E-01  .110E-01  .917E-02  .668E-02  .481E-02  .396E-02
  .313E-02  .250E-02  .224E-02  .197E-02  .173E-02  .136E-02  .112E-02  .943E-03
  .806E-03  .692E-03  .598E-03  .520E-03  .455E-03  .402E-03  .358E-03  .322E-03
  .292E-03  .266E-03  .244E-03  .225E-03  .189E-03  .162E-03  .141E-03  .125E-03
  .112E-03  .101E-03  .915E-04  .838E-04  .771E-04  .714E-04  .619E-04  .544E-04
  .493E-04  .451E-04  .415E-04  .000E+00  .000E+00  .000E+00  .000E+00  .000E+00
  .000E+00  .000E+00  .000E+00  .000E+00
  .436E-01  .409E-01  .447E-01  .551E-01  .675E-01  .762E-01  .585E-01  .560E-01
  .656E-01  .866E-01  .107E+00  .130E+00  .118E+00  .142E+00  .186E+00  .186E+00
  .139E+00  .203E+00  .270E+00  .283E+00  .267E+00  .237E+00  .263E+00  .308E+00
  .319E+00  .309E+00  .319E+00  .473E+00  .479E+00  .445E+00  .417E+00  .552E+00
  .744E+00  .789E+00  .673E+00  .705E+00  .672E+00  .771E+00  .940E+00  .113E+01
  .133E+01  .162E+01  .133E+01  .113E+01  .890E+00  .877E+00  .834E+00  .778E+00
  .740E+00  .707E+00  .758E+00  .736E+00  .670E+00  .528E+00  .408E+00  .359E+00
  .301E+00  .256E+00  .242E+00  .225E+00  .207E+00  .178E+00  .159E+00  .144E+00
  .132E+00  .120E+00  .110E+00  .100E+00  .921E-01  .849E-01  .787E-01  .734E-01
  .689E-01  .650E-01  .616E-01  .586E-01  .525E-01  .477E-01  .439E-01  .406E-01
  .379E-01  .354E-01  .333E-01  .314E-01  .297E-01  .282E-01  .255E-01  .233E-01
  .214E-01  .198E-01  .185E-01  .000E+00  .000E+00  .000E+00  .000E+00  .000E+00
  .000E+00  .000E+00  .000E+00  .000E+00
  .348E+02  .348E+02  .343E+02  .343E+02  .343E+02  .344E+02  .210E+02  .648E+01
  .628E+01  .628E+01  .628E+01  .629E+01  .582E+01  .583E+01  .584E+01  .584E+01
  .649E+01  .649E+01  .650E+01  .652E+01  .697E+01  .511E+01  .513E+01  .543E+01
  .545E+01  .546E+01  .584E+01  .635E+01  .653E+01  .655E+01  .131E+02  .131E+02
  .145E+02  .148E+02  .658E+01  .661E+01  .664E+01  .109E+02  .109E+02  .109E+02
  .109E+02  .121E+02  .114E+02  .114E+02  .597E+01  .602E+01  .606E+01  .571E+01
  .574E+01  .578E+01  .325E+02  .349E+02  .130E+02  .109E+02  .544E+01  .545E+01
  .545E+01  .507E+01  .508E+01  .509E+01  .509E+01  .510E+01  .510E+01  .510E+01
  .510E+01  .510E+01  .510E+01  .510E+01  .511E+01  .511E+01  .511E+01  .511E+01
  .511E+01  .511E+01  .511E+01  .511E+01  .511E+01  .511E+01  .511E+01  .511E+01
  .511E+01  .511E+01  .511E+01  .511E+01  .511E+01  .511E+01  .511E+01  .511E+01
  .511E+01  .511E+01  .511E+01  .000E+00  .000E+00  .000E+00  .000E+00  .000E+00
  .000E+00  .000E+00  .000E+00  .000E+00
  .348E+02  .348E+02  .343E+02  .343E+02  .343E+02  .343E+02  .344E+02  .341E+02
  .343E+02  .626E+01  .626E+01  .580E+01  .580E+01  .580E+01  .581E+01  .572E+01
  .573E+01  .652E+01  .654E+01  .741E+01  .694E+01  .695E+01  .518E+01  .519E+01
  .917E+01  .553E+01  .555E+01  .629E+01  .659E+01  .649E+01  .599E+01  .132E+02
  .132E+02  .147E+02  .650E+01  .651E+01  .653E+01  .108E+02  .108E+02  .108E+02
  .113E+02  .123E+02  .121E+02  .113E+02  .113E+02  .549E+01  .549E+01  .550E+01
  .551E+01  .551E+01  .110E+02  .831E+01  .110E+02  .110E+02  .107E+02  .525E+01
  .526E+01  .526E+01  .526E+01  .107E+02  .107E+02  .107E+02  .107E+02  .107E+02
  .107E+02  .107E+02  .107E+02  .107E+02  .107E+02  .107E+02  .107E+02  .107E+02
  .107E+02  .107E+02  .107E+02  .107E+02  .107E+02  .107E+02  .107E+02  .107E+02
  .107E+02  .107E+02  .107E+02  .107E+02  .107E+02  .107E+02  .107E+02  .107E+02
  .107E+02  .107E+02  .107E+02  .000E+00  .000E+00  .000E+00  .000E+00  .000E+00
  .000E+00  .000E+00  .000E+00  .000E+00
  .348E+02  .348E+02  .343E+02  .343E+02  .344E+02  .344E+02  .210E+02  .648E+01
  .628E+01  .628E+01  .628E+01  .629E+01  .630E+01  .582E+01  .584E+01  .584E+01
  .649E+01  .649E+01  .650E+01  .651E+01  .697E+01  .511E+01  .513E+01  .542E+01
  .544E+01  .546E+01  .583E+01  .634E+01  .653E+01  .655E+01  .131E+02  .131E+02
  .145E+02  .148E+02  .658E+01  .660E+01  .663E+01  .109E+02  .109E+02  .109E+02
  .109E+02  .121E+02  .113E+02  .114E+02  .596E+01  .600E+01  .605E+01  .570E+01
  .573E+01  .576E+01  .325E+02  .349E+02  .130E+02  .108E+02  .542E+01  .542E+01
  .543E+01  .505E+01  .505E+01  .506E+01  .506E+01  .506E+01  .506E+01  .506E+01
  .506E+01  .506E+01  .506E+01  .506E+01  .506E+01  .505E+01  .505E+01  .505E+01
  .505E+01  .505E+01  .505E+01  .505E+01  .504E+01  .504E+01  .504E+01  .503E+01
  .503E+01  .503E+01  .502E+01  .502E+01  .502E+01  .502E+01  .502E+01  .502E+01
  .535E+01  .535E+01  .535E+01  .000E+00  .000E+00  .000E+00  .000E+00  .000E+00
  .000E+00  .000E+00  .000E+00  .000E+00
/&   ----------  End of spectral data for channel 10  ----------
