Response and Fourier amplitude spectra (91 periods,  .04 - 15.0 sec)   for      
Corrected accelerogram   24714-M0104-01252.01       Chan 15:  Up         from   
Uncorrected Accelerogram Data             Processed: 09/10/01, CDMG  714js001   
Record of Sun Sep  9, 2001 16:59:23 PDT               (Avol1 v4.6  7/01 CSMIP)  
CSMIP Preliminary Processing            (Origin:  To be determined)             
24714-M0104-01252.01                 Start time:  9/09/01, 23:59:23.0 UTC (GPS) 
Station No. 24714   34.288N, 118.407W    MtWtny  s/n  104 (18 Chns of 36 at Sta)
San Fernando - I210/Hwy 118 Bridge                                              
Chan 15:  Up                        Location: Bents 7/8 Mid-Span: Deck, W. Edge 
Record of Sun Sep  9, 2001 16:59:23 PDT    Sun Sep  9, 2001 16:59:23 PDT        
Hypocenter:  To be determined.               ML:  To be determined.
Instr Period =  .0200 sec,  Damping =  .700,  Sensitivity =  .63  v/g
                        Record length = 36.000 sec.
                                     Uncor Max  =   .035 g, at   6.190 sec.
RMS accel of (uncor) record  =        .
Accelerogram bandpass filtered with 3 dB pts at   .30 and 40.00 cyc/sec
                 instrument- and baseline-corrected





Record of Sun Sep  9, 2001 16:59:23 PDT    Sun Sep  9, 2001 16:59:23 PDT

24714-M0104-01252.01      San Fernando - I210/Hwy 118 Bridge    Chan 15:  Up

24714-M0104-01252.01      San Fernando - I210/Hwy 118 Bridge    Chan 15:  Up

Units for spectra are inches and sec, except Sa is in fraction of g.

   15  100   15   18   36  200    1    3    1   24   13  104    024714    3    0
   23   59   23    0  252    9    9 2001   10    3  500 7200   39   34   72   -1
 7200    0   50    3  104    1    1  360    1    0    0    0    0    0    0    0
    0    4    0    0 3600    2    0    0    0    0   72   34    0    0    0 3600
    0 3600   35   91    1   18    0    0    0    0   36    0    0    0    0    2
    2    2    4    1   66   99    0   32   32    0    0    1    0    0    0    0
  -99   -1    0    0
      .020      .700    36.000      .006      .000   625.000      .035     6.190
    50.000      .298      .477      .000     5.000      .000      .000      .000
     2.500   -43.559     -.011     -.049     5.000    30.000      .000      .007
     -.012     -.019     2.000    15.000    34.288  -118.407     1.634     4.665
     2.855     -.323      .285  -999.000      .000      .000   -12.400      .000
  1000.000     1.012      .000      .000      .000      .000      .000      .000
     4.600     4.400      .000   980.665      .010    36.000     7.958      .000
      .000    40.000      .000    36.000      .010      .300      .000      .000
     6.180    33.423     6.240     1.087     5.920      .051      .002      .300
    40.000      .010      .010      .001      .010      .054      .000      .000
      .182      .180      .117      .057      .005      .001      .000      .000
      .000      .000      .000      .000      .000      .000      .000      .000
      .000      .000      .000      .000
      .050
      .040      .042      .044      .046      .048      .050      .055      .060
      .065      .070      .075      .080      .085      .090      .095      .100
      .110      .120      .130      .140      .150      .160      .170      .180
      .190      .200      .220      .240      .260      .280      .300      .320
      .340      .360      .380      .400      .420      .440      .460      .480
      .500      .550      .600      .650      .700      .750      .800      .850
      .900      .950     1.000     1.100     1.200     1.300     1.400     1.500
     1.600     1.700     1.800     1.900     2.000     2.200     2.400     2.600
     2.800     3.000     3.200     3.400     3.600     3.800     4.000     4.200
     4.400     4.600     4.800     5.000     5.500     6.000     6.500     7.000
     7.500     8.000     8.500     9.000     9.500    10.000    11.000    12.000
    13.000    14.000    15.000      .000      .000      .000      .000      .000
      .000      .000      .000      .000
Fourier amplitude spectra in in/sec.
  .000E+00  .000E+00  .000E+00  .000E+00  .000E+00  .000E+00  .000E+00  .000E+00
  .000E+00  .000E+00  .000E+00  .000E+00  .000E+00  .000E+00  .000E+00  .000E+00
  .000E+00  .000E+00  .000E+00  .000E+00  .000E+00  .000E+00  .000E+00  .000E+00
  .000E+00  .000E+00  .000E+00  .000E+00  .000E+00  .000E+00  .000E+00  .000E+00
  .000E+00  .000E+00  .000E+00  .000E+00  .000E+00  .000E+00  .000E+00  .000E+00
  .000E+00  .000E+00  .000E+00  .000E+00  .000E+00  .000E+00  .000E+00  .000E+00
  .000E+00  .000E+00  .000E+00  .000E+00  .000E+00  .000E+00  .000E+00  .000E+00
  .000E+00  .000E+00  .000E+00  .000E+00  .000E+00  .000E+00  .000E+00  .000E+00
  .000E+00  .000E+00  .000E+00  .000E+00  .000E+00  .000E+00  .000E+00  .000E+00
  .000E+00  .000E+00  .000E+00  .000E+00  .000E+00  .000E+00  .000E+00  .000E+00
  .000E+00  .000E+00  .000E+00  .000E+00  .000E+00  .000E+00  .000E+00  .000E+00
  .000E+00  .000E+00  .000E+00  .000E+00  .000E+00  .000E+00  .000E+00  .000E+00
  .000E+00  .000E+00  .000E+00  .000E+00
Damping =  .05. Data of Sd,Sv,Sa,Pssv,ttSd,ttSv,ttSa :
  .114E-02  .134E-02  .169E-02  .211E-02  .223E-02  .223E-02  .229E-02  .350E-02
  .351E-02  .262E-02  .281E-02  .282E-02  .290E-02  .370E-02  .443E-02  .531E-02
  .785E-02  .774E-02  .928E-02  .138E-01  .164E-01  .226E-01  .379E-01  .581E-01
  .573E-01  .457E-01  .341E-01  .436E-01  .464E-01  .518E-01  .487E-01  .473E-01
  .594E-01  .659E-01  .633E-01  .587E-01  .594E-01  .587E-01  .530E-01  .429E-01
  .416E-01  .452E-01  .605E-01  .539E-01  .617E-01  .621E-01  .583E-01  .523E-01
  .479E-01  .524E-01  .521E-01  .526E-01  .472E-01  .422E-01  .314E-01  .377E-01
  .480E-01  .533E-01  .557E-01  .603E-01  .605E-01  .717E-01  .653E-01  .662E-01
  .661E-01  .585E-01  .577E-01  .529E-01  .458E-01  .436E-01  .417E-01  .395E-01
  .388E-01  .376E-01  .377E-01  .376E-01  .355E-01  .348E-01  .339E-01  .339E-01
  .332E-01  .326E-01  .324E-01  .322E-01  .317E-01  .313E-01  .311E-01  .311E-01
  .307E-01  .303E-01  .302E-01  .000E+00  .000E+00  .000E+00  .000E+00  .000E+00
  .000E+00  .000E+00  .000E+00  .000E+00
  .152E+00  .177E+00  .213E+00  .259E+00  .265E+00  .263E+00  .240E+00  .351E+00
  .333E+00  .228E+00  .245E+00  .191E+00  .171E+00  .182E+00  .227E+00  .286E+00
  .419E+00  .401E+00  .349E+00  .482E+00  .557E+00  .836E+00  .127E+01  .193E+01
  .187E+01  .147E+01  .998E+00  .119E+01  .108E+01  .120E+01  .116E+01  .107E+01
  .114E+01  .119E+01  .117E+01  .112E+01  .107E+01  .965E+00  .928E+00  .839E+00
  .713E+00  .763E+00  .924E+00  .979E+00  .861E+00  .713E+00  .584E+00  .533E+00
  .541E+00  .540E+00  .535E+00  .534E+00  .468E+00  .435E+00  .418E+00  .415E+00
  .433E+00  .441E+00  .435E+00  .424E+00  .416E+00  .414E+00  .421E+00  .424E+00
  .421E+00  .417E+00  .414E+00  .413E+00  .413E+00  .415E+00  .416E+00  .418E+00
  .420E+00  .421E+00  .422E+00  .423E+00  .424E+00  .424E+00  .424E+00  .424E+00
  .424E+00  .423E+00  .423E+00  .423E+00  .423E+00  .423E+00  .423E+00  .423E+00
  .423E+00  .424E+00  .424E+00  .000E+00  .000E+00  .000E+00  .000E+00  .000E+00
  .000E+00  .000E+00  .000E+00  .000E+00
  .735E-01  .789E-01  .888E-01  .102E+00  .998E-01  .923E-01  .765E-01  .993E-01
  .863E-01  .544E-01  .516E-01  .454E-01  .411E-01  .470E-01  .501E-01  .540E-01
  .675E-01  .554E-01  .569E-01  .717E-01  .756E-01  .900E-01  .133E+00  .182E+00
  .162E+00  .118E+00  .718E-01  .776E-01  .708E-01  .677E-01  .558E-01  .475E-01
  .532E-01  .522E-01  .449E-01  .377E-01  .347E-01  .313E-01  .258E-01  .193E-01
  .172E-01  .155E-01  .174E-01  .131E-01  .130E-01  .115E-01  .953E-02  .760E-02
  .619E-02  .603E-02  .546E-02  .452E-02  .342E-02  .257E-02  .171E-02  .173E-02
  .194E-02  .191E-02  .178E-02  .172E-02  .156E-02  .153E-02  .117E-02  .103E-02
  .882E-03  .688E-03  .600E-03  .490E-03  .379E-03  .326E-03  .285E-03  .246E-03
  .223E-03  .200E-03  .185E-03  .172E-03  .148E-03  .131E-03  .118E-03  .108E-03
  .993E-04  .923E-04  .866E-04  .816E-04  .772E-04  .732E-04  .663E-04  .606E-04
  .558E-04  .517E-04  .481E-04  .000E+00  .000E+00  .000E+00  .000E+00  .000E+00
  .000E+00  .000E+00  .000E+00  .000E+00
  .180E+00  .201E+00  .242E+00  .288E+00  .292E+00  .280E+00  .262E+00  .366E+00
  .340E+00  .235E+00  .235E+00  .221E+00  .214E+00  .258E+00  .293E+00  .334E+00
  .448E+00  .405E+00  .449E+00  .621E+00  .686E+00  .889E+00  .140E+01  .203E+01
  .189E+01  .144E+01  .974E+00  .114E+01  .112E+01  .116E+01  .102E+01  .929E+00
  .110E+01  .115E+01  .105E+01  .922E+00  .889E+00  .839E+00  .724E+00  .561E+00
  .523E+00  .517E+00  .634E+00  .521E+00  .554E+00  .520E+00  .458E+00  .386E+00
  .335E+00  .346E+00  .327E+00  .301E+00  .247E+00  .204E+00  .141E+00  .158E+00
  .189E+00  .197E+00  .194E+00  .200E+00  .190E+00  .205E+00  .171E+00  .160E+00
  .148E+00  .122E+00  .113E+00  .978E-01  .799E-01  .721E-01  .655E-01  .591E-01
  .554E-01  .514E-01  .494E-01  .473E-01  .405E-01  .365E-01  .327E-01  .304E-01
  .278E-01  .256E-01  .239E-01  .225E-01  .210E-01  .197E-01  .178E-01  .163E-01
  .148E-01  .136E-01  .127E-01  .000E+00  .000E+00  .000E+00  .000E+00  .000E+00
  .000E+00  .000E+00  .000E+00  .000E+00
  .342E+02  .342E+02  .342E+02  .342E+02  .342E+02  .342E+02  .343E+02  .343E+02
  .342E+02  .342E+02  .342E+02  .620E+01  .582E+01  .544E+01  .545E+01  .590E+01
  .335E+02  .627E+01  .627E+01  .628E+01  .628E+01  .565E+01  .629E+01  .631E+01
  .633E+01  .634E+01  .570E+01  .635E+01  .745E+01  .906E+01  .909E+01  .669E+01
  .671E+01  .898E+01  .885E+01  .740E+01  .726E+01  .627E+01  .628E+01  .629E+01
  .554E+01  .628E+01  .630E+01  .614E+01  .616E+01  .617E+01  .617E+01  .618E+01
  .590E+01  .112E+02  .839E+01  .811E+01  .155E+02  .121E+02  .109E+02  .350E+02
  .350E+02  .350E+02  .351E+02  .351E+02  .352E+02  .353E+02  .354E+02  .345E+02
  .346E+02  .346E+02  .346E+02  .346E+02  .348E+02  .348E+02  .348E+02  .338E+02
  .338E+02  .338E+02  .338E+02  .338E+02  .338E+02  .338E+02  .338E+02  .338E+02
  .338E+02  .338E+02  .338E+02  .338E+02  .338E+02  .338E+02  .338E+02  .338E+02
  .338E+02  .338E+02  .338E+02  .000E+00  .000E+00  .000E+00  .000E+00  .000E+00
  .000E+00  .000E+00  .000E+00  .000E+00
  .342E+02  .342E+02  .342E+02  .342E+02  .342E+02  .342E+02  .343E+02  .342E+02
  .342E+02  .342E+02  .342E+02  .342E+02  .342E+02  .335E+02  .335E+02  .335E+02
  .335E+02  .335E+02  .335E+02  .624E+01  .569E+01  .569E+01  .624E+01  .626E+01
  .638E+01  .639E+01  .565E+01  .566E+01  .739E+01  .913E+01  .558E+01  .676E+01
  .664E+01  .890E+01  .893E+01  .732E+01  .634E+01  .634E+01  .621E+01  .622E+01
  .622E+01  .548E+01  .622E+01  .622E+01  .623E+01  .623E+01  .623E+01  .611E+01
  .612E+01  .612E+01  .612E+01  .834E+01  .585E+01  .585E+01  .585E+01  .585E+01
  .622E+01  .622E+01  .622E+01  .622E+01  .622E+01  .622E+01  .622E+01  .622E+01
  .622E+01  .622E+01  .622E+01  .622E+01  .622E+01  .622E+01  .622E+01  .622E+01
  .622E+01  .622E+01  .622E+01  .622E+01  .622E+01  .622E+01  .622E+01  .622E+01
  .622E+01  .622E+01  .622E+01  .622E+01  .622E+01  .622E+01  .622E+01  .622E+01
  .622E+01  .622E+01  .622E+01  .000E+00  .000E+00  .000E+00  .000E+00  .000E+00
  .000E+00  .000E+00  .000E+00  .000E+00
  .342E+02  .342E+02  .342E+02  .342E+02  .342E+02  .342E+02  .343E+02  .343E+02
  .342E+02  .342E+02  .342E+02  .620E+01  .582E+01  .544E+01  .545E+01  .590E+01
  .335E+02  .627E+01  .627E+01  .628E+01  .628E+01  .564E+01  .629E+01  .631E+01
  .633E+01  .634E+01  .570E+01  .635E+01  .745E+01  .905E+01  .909E+01  .669E+01
  .671E+01  .897E+01  .884E+01  .739E+01  .725E+01  .627E+01  .628E+01  .628E+01
  .553E+01  .627E+01  .629E+01  .613E+01  .615E+01  .615E+01  .616E+01  .616E+01
  .588E+01  .112E+02  .838E+01  .810E+01  .155E+02  .121E+02  .714E+01  .350E+02
  .350E+02  .350E+02  .350E+02  .351E+02  .352E+02  .353E+02  .353E+02  .345E+02
  .345E+02  .345E+02  .345E+02  .345E+02  .348E+02  .348E+02  .348E+02  .338E+02
  .338E+02  .338E+02  .338E+02  .338E+02  .624E+01  .624E+01  .624E+01  .624E+01
  .624E+01  .623E+01  .623E+01  .623E+01  .623E+01  .623E+01  .623E+01  .623E+01
  .623E+01  .623E+01  .623E+01  .000E+00  .000E+00  .000E+00  .000E+00  .000E+00
  .000E+00  .000E+00  .000E+00  .000E+00
/&   ----------  End of spectral data for channel 15  ----------
