Response and Fourier amplitude spectra (91 periods,  .04 - 15.0 sec)   for      
Corrected accelerogram   24714-M0104-01252.01       Chan  1: 270 Deg     from   
Uncorrected Accelerogram Data             Processed: 09/10/01, CDMG  714js001   
Record of Sun Sep  9, 2001 16:59:23 PDT               (Avol1 v4.6  7/01 CSMIP)  
CSMIP Preliminary Processing            (Origin:  To be determined)             
24714-M0104-01252.01                 Start time:  9/09/01, 23:59:23.0 UTC (GPS) 
Station No. 24714   34.288N, 118.407W    MtWtny  s/n  104 (18 Chns of 36 at Sta)
San Fernando - I210/Hwy 118 Bridge                                              
Chan  1: 270 Deg                    Location: Freefield (300ft N of North Abut) 
Record of Sun Sep  9, 2001 16:59:23 PDT    Sun Sep  9, 2001 16:59:23 PDT        
Hypocenter:  To be determined.               ML:  To be determined.
Instr Period =  .0200 sec,  Damping =  .700,  Sensitivity = 1.25  v/g
                        Record length = 36.000 sec.
                                     Uncor Max  =   .013 g, at   4.840 sec.
RMS accel of (uncor) record  =        .
Accelerogram bandpass filtered with 3 dB pts at   .30 and 40.00 cyc/sec
                 instrument- and baseline-corrected





Record of Sun Sep  9, 2001 16:59:23 PDT    Sun Sep  9, 2001 16:59:23 PDT

24714-M0104-01252.01      San Fernando - I210/Hwy 118 Bridge    Chan  1: 270 Deg

24714-M0104-01252.01      San Fernando - I210/Hwy 118 Bridge    Chan  1: 270 Deg

Units for spectra are inches and sec, except Sa is in fraction of g.

    1  100    1   18   36  200    1    3    1   24   13  104    024714    3    0
   23   59   23    0  252    9    9 2001   10    3  270 7200   39   34   72   -1
 7200    1   50    3  104    1    1  360    1    0    0    0    0    0    0    0
    0    0    0    0 3600    2    0    0    0    0   72   34    0    0    0 3600
    0 3600   35   91    1   18    0    0    0    0   36    0    0    0    0    2
    2    2    4    1   66   99    0   32   32    0    0    1    0    0    0    0
  -99   -1    0    0
      .020      .700    36.000      .001      .000  1250.000      .013     4.840
    50.000      .298      .238      .000     5.000      .000      .000      .000
     2.500    12.018      .028     -.001     5.000    30.000      .000     -.005
     -.006     -.001     2.000    15.000    34.288  -118.407      .585      .453
      .775     -.080      .077  -999.000      .000      .000   -12.400      .000
  1000.000     1.039      .000      .000      .000      .000      .000      .000
     4.600     4.400      .000   980.665      .010    36.000     7.958      .000
      .000    40.000      .000    36.000      .010      .300      .000      .000
     4.830    12.309     4.670     -.623     4.840     -.051      .000      .300
    40.000      .010      .010      .000      .010      .015      .000      .000
      .044      .180      .036      .016      .004      .000      .000      .000
      .000      .000      .000      .000      .000      .000      .000      .000
      .000      .000      .000      .000
      .050
      .040      .042      .044      .046      .048      .050      .055      .060
      .065      .070      .075      .080      .085      .090      .095      .100
      .110      .120      .130      .140      .150      .160      .170      .180
      .190      .200      .220      .240      .260      .280      .300      .320
      .340      .360      .380      .400      .420      .440      .460      .480
      .500      .550      .600      .650      .700      .750      .800      .850
      .900      .950     1.000     1.100     1.200     1.300     1.400     1.500
     1.600     1.700     1.800     1.900     2.000     2.200     2.400     2.600
     2.800     3.000     3.200     3.400     3.600     3.800     4.000     4.200
     4.400     4.600     4.800     5.000     5.500     6.000     6.500     7.000
     7.500     8.000     8.500     9.000     9.500    10.000    11.000    12.000
    13.000    14.000    15.000      .000      .000      .000      .000      .000
      .000      .000      .000      .000
Fourier amplitude spectra in in/sec.
  .000E+00  .000E+00  .000E+00  .000E+00  .000E+00  .000E+00  .000E+00  .000E+00
  .000E+00  .000E+00  .000E+00  .000E+00  .000E+00  .000E+00  .000E+00  .000E+00
  .000E+00  .000E+00  .000E+00  .000E+00  .000E+00  .000E+00  .000E+00  .000E+00
  .000E+00  .000E+00  .000E+00  .000E+00  .000E+00  .000E+00  .000E+00  .000E+00
  .000E+00  .000E+00  .000E+00  .000E+00  .000E+00  .000E+00  .000E+00  .000E+00
  .000E+00  .000E+00  .000E+00  .000E+00  .000E+00  .000E+00  .000E+00  .000E+00
  .000E+00  .000E+00  .000E+00  .000E+00  .000E+00  .000E+00  .000E+00  .000E+00
  .000E+00  .000E+00  .000E+00  .000E+00  .000E+00  .000E+00  .000E+00  .000E+00
  .000E+00  .000E+00  .000E+00  .000E+00  .000E+00  .000E+00  .000E+00  .000E+00
  .000E+00  .000E+00  .000E+00  .000E+00  .000E+00  .000E+00  .000E+00  .000E+00
  .000E+00  .000E+00  .000E+00  .000E+00  .000E+00  .000E+00  .000E+00  .000E+00
  .000E+00  .000E+00  .000E+00  .000E+00  .000E+00  .000E+00  .000E+00  .000E+00
  .000E+00  .000E+00  .000E+00  .000E+00
Damping =  .05. Data of Sd,Sv,Sa,Pssv,ttSd,ttSv,ttSa :
  .224E-03  .261E-03  .345E-03  .444E-03  .521E-03  .562E-03  .653E-03  .705E-03
  .949E-03  .129E-02  .152E-02  .174E-02  .200E-02  .219E-02  .248E-02  .324E-02
  .449E-02  .471E-02  .488E-02  .626E-02  .847E-02  .890E-02  .113E-01  .141E-01
  .149E-01  .154E-01  .115E-01  .100E-01  .102E-01  .122E-01  .141E-01  .166E-01
  .181E-01  .206E-01  .236E-01  .269E-01  .312E-01  .364E-01  .408E-01  .441E-01
  .482E-01  .583E-01  .637E-01  .626E-01  .576E-01  .534E-01  .506E-01  .476E-01
  .442E-01  .409E-01  .390E-01  .393E-01  .397E-01  .402E-01  .402E-01  .395E-01
  .382E-01  .365E-01  .348E-01  .332E-01  .317E-01  .292E-01  .272E-01  .255E-01
  .242E-01  .231E-01  .228E-01  .229E-01  .230E-01  .230E-01  .229E-01  .229E-01
  .228E-01  .227E-01  .226E-01  .225E-01  .223E-01  .221E-01  .219E-01  .218E-01
  .216E-01  .215E-01  .214E-01  .213E-01  .213E-01  .212E-01  .211E-01  .211E-01
  .210E-01  .210E-01  .209E-01  .000E+00  .000E+00  .000E+00  .000E+00  .000E+00
  .000E+00  .000E+00  .000E+00  .000E+00
  .172E-01  .228E-01  .317E-01  .392E-01  .429E-01  .440E-01  .429E-01  .491E-01
  .580E-01  .787E-01  .106E+00  .118E+00  .134E+00  .149E+00  .120E+00  .175E+00
  .228E+00  .221E+00  .204E+00  .267E+00  .334E+00  .324E+00  .429E+00  .510E+00
  .523E+00  .515E+00  .345E+00  .255E+00  .238E+00  .214E+00  .238E+00  .285E+00
  .315E+00  .351E+00  .402E+00  .452E+00  .513E+00  .571E+00  .609E+00  .670E+00
  .714E+00  .687E+00  .627E+00  .621E+00  .613E+00  .583E+00  .550E+00  .525E+00
  .496E+00  .468E+00  .444E+00  .403E+00  .371E+00  .343E+00  .322E+00  .320E+00
  .317E+00  .313E+00  .308E+00  .303E+00  .298E+00  .290E+00  .283E+00  .278E+00
  .273E+00  .270E+00  .267E+00  .264E+00  .262E+00  .260E+00  .258E+00  .257E+00
  .255E+00  .254E+00  .254E+00  .253E+00  .251E+00  .250E+00  .250E+00  .249E+00
  .249E+00  .248E+00  .248E+00  .248E+00  .248E+00  .247E+00  .247E+00  .247E+00
  .247E+00  .247E+00  .247E+00  .000E+00  .000E+00  .000E+00  .000E+00  .000E+00
  .000E+00  .000E+00  .000E+00  .000E+00
  .143E-01  .151E-01  .183E-01  .215E-01  .231E-01  .233E-01  .220E-01  .199E-01
  .228E-01  .269E-01  .278E-01  .278E-01  .284E-01  .276E-01  .281E-01  .336E-01
  .383E-01  .342E-01  .294E-01  .331E-01  .385E-01  .361E-01  .405E-01  .443E-01
  .423E-01  .400E-01  .246E-01  .179E-01  .156E-01  .159E-01  .161E-01  .167E-01
  .161E-01  .163E-01  .167E-01  .173E-01  .181E-01  .193E-01  .199E-01  .197E-01
  .198E-01  .198E-01  .182E-01  .153E-01  .121E-01  .977E-02  .813E-02  .680E-02
  .563E-02  .467E-02  .403E-02  .337E-02  .288E-02  .249E-02  .216E-02  .186E-02
  .159E-02  .136E-02  .116E-02  .100E-02  .869E-03  .673E-03  .536E-03  .439E-03
  .366E-03  .311E-03  .268E-03  .235E-03  .208E-03  .186E-03  .168E-03  .153E-03
  .140E-03  .130E-03  .120E-03  .112E-03  .956E-04  .831E-04  .735E-04  .657E-04
  .594E-04  .540E-04  .495E-04  .456E-04  .423E-04  .393E-04  .345E-04  .308E-04
  .285E-04  .266E-04  .249E-04  .000E+00  .000E+00  .000E+00  .000E+00  .000E+00
  .000E+00  .000E+00  .000E+00  .000E+00
  .352E-01  .390E-01  .492E-01  .607E-01  .682E-01  .707E-01  .746E-01  .738E-01
  .917E-01  .116E+00  .127E+00  .136E+00  .148E+00  .153E+00  .164E+00  .204E+00
  .257E+00  .247E+00  .236E+00  .281E+00  .355E+00  .349E+00  .418E+00  .493E+00
  .492E+00  .485E+00  .328E+00  .262E+00  .246E+00  .273E+00  .295E+00  .325E+00
  .334E+00  .359E+00  .390E+00  .422E+00  .466E+00  .520E+00  .558E+00  .578E+00
  .606E+00  .667E+00  .667E+00  .605E+00  .517E+00  .447E+00  .397E+00  .352E+00
  .309E+00  .271E+00  .245E+00  .225E+00  .208E+00  .194E+00  .180E+00  .165E+00
  .150E+00  .135E+00  .122E+00  .110E+00  .995E-01  .833E-01  .711E-01  .617E-01
  .543E-01  .483E-01  .448E-01  .424E-01  .401E-01  .380E-01  .360E-01  .342E-01
  .325E-01  .310E-01  .296E-01  .283E-01  .255E-01  .231E-01  .212E-01  .195E-01
  .181E-01  .169E-01  .158E-01  .149E-01  .141E-01  .133E-01  .121E-01  .110E-01
  .102E-01  .941E-02  .877E-02  .000E+00  .000E+00  .000E+00  .000E+00  .000E+00
  .000E+00  .000E+00  .000E+00  .000E+00
  .483E+01  .525E+01  .525E+01  .525E+01  .526E+01  .526E+01  .526E+01  .608E+01
  .526E+01  .527E+01  .609E+01  .609E+01  .611E+01  .599E+01  .484E+01  .526E+01
  .528E+01  .542E+01  .486E+01  .560E+01  .561E+01  .611E+01  .562E+01  .564E+01
  .539E+01  .531E+01  .533E+01  .477E+01  .503E+01  .504E+01  .504E+01  .505E+01
  .505E+01  .506E+01  .507E+01  .509E+01  .510E+01  .535E+01  .537E+01  .515E+01
  .518E+01  .523E+01  .525E+01  .528E+01  .500E+01  .503E+01  .507E+01  .508E+01
  .510E+01  .511E+01  .480E+01  .481E+01  .482E+01  .482E+01  .482E+01  .483E+01
  .483E+01  .483E+01  .483E+01  .483E+01  .483E+01  .483E+01  .483E+01  .483E+01
  .483E+01  .483E+01  .454E+01  .454E+01  .454E+01  .454E+01  .454E+01  .454E+01
  .454E+01  .454E+01  .454E+01  .455E+01  .455E+01  .455E+01  .455E+01  .455E+01
  .455E+01  .455E+01  .455E+01  .455E+01  .455E+01  .455E+01  .455E+01  .455E+01
  .455E+01  .455E+01  .455E+01  .000E+00  .000E+00  .000E+00  .000E+00  .000E+00
  .000E+00  .000E+00  .000E+00  .000E+00
  .523E+01  .523E+01  .524E+01  .524E+01  .524E+01  .524E+01  .596E+01  .507E+01
  .507E+01  .529E+01  .556E+01  .611E+01  .613E+01  .597E+01  .508E+01  .508E+01
  .531E+01  .546E+01  .613E+01  .563E+01  .565E+01  .608E+01  .609E+01  .560E+01
  .553E+01  .536E+01  .529E+01  .472E+01  .530E+01  .500E+01  .500E+01  .500E+01
  .500E+01  .500E+01  .500E+01  .500E+01  .501E+01  .501E+01  .502E+01  .529E+01
  .530E+01  .532E+01  .542E+01  .545E+01  .521E+01  .522E+01  .491E+01  .492E+01
  .492E+01  .492E+01  .492E+01  .493E+01  .493E+01  .493E+01  .465E+01  .465E+01
  .465E+01  .465E+01  .465E+01  .465E+01  .465E+01  .466E+01  .466E+01  .466E+01
  .466E+01  .466E+01  .466E+01  .466E+01  .466E+01  .466E+01  .466E+01  .466E+01
  .466E+01  .466E+01  .466E+01  .466E+01  .466E+01  .466E+01  .466E+01  .466E+01
  .466E+01  .466E+01  .466E+01  .466E+01  .466E+01  .466E+01  .466E+01  .466E+01
  .466E+01  .466E+01  .466E+01  .000E+00  .000E+00  .000E+00  .000E+00  .000E+00
  .000E+00  .000E+00  .000E+00  .000E+00
  .483E+01  .525E+01  .525E+01  .525E+01  .526E+01  .526E+01  .526E+01  .608E+01
  .526E+01  .527E+01  .609E+01  .609E+01  .610E+01  .599E+01  .484E+01  .526E+01
  .528E+01  .542E+01  .486E+01  .559E+01  .561E+01  .611E+01  .562E+01  .564E+01
  .539E+01  .531E+01  .533E+01  .477E+01  .503E+01  .503E+01  .504E+01  .504E+01
  .505E+01  .505E+01  .506E+01  .508E+01  .509E+01  .534E+01  .536E+01  .515E+01
  .517E+01  .522E+01  .525E+01  .527E+01  .499E+01  .501E+01  .506E+01  .507E+01
  .508E+01  .509E+01  .479E+01  .480E+01  .480E+01  .480E+01  .481E+01  .481E+01
  .481E+01  .481E+01  .481E+01  .481E+01  .481E+01  .481E+01  .480E+01  .480E+01
  .480E+01  .480E+01  .480E+01  .480E+01  .480E+01  .480E+01  .480E+01  .480E+01
  .480E+01  .480E+01  .480E+01  .480E+01  .480E+01  .480E+01  .479E+01  .479E+01
  .479E+01  .479E+01  .479E+01  .479E+01  .479E+01  .479E+01  .479E+01  .467E+01
  .467E+01  .467E+01  .467E+01  .000E+00  .000E+00  .000E+00  .000E+00  .000E+00
  .000E+00  .000E+00  .000E+00  .000E+00
/&   ----------  End of spectral data for channel  1  ----------
