Response and Fourier amplitude spectra (91 periods,  .04 - 15.0 sec)   for      
Corrected accelerogram   24714-M0104-01252.01       Chan  2:  Up         from   
Uncorrected Accelerogram Data             Processed: 09/10/01, CDMG  714js001   
Record of Sun Sep  9, 2001 16:59:23 PDT               (Avol1 v4.6  7/01 CSMIP)  
CSMIP Preliminary Processing            (Origin:  To be determined)             
24714-M0104-01252.01                 Start time:  9/09/01, 23:59:23.0 UTC (GPS) 
Station No. 24714   34.288N, 118.407W    MtWtny  s/n  104 (18 Chns of 36 at Sta)
San Fernando - I210/Hwy 118 Bridge                                              
Chan  2:  Up                        Location: Freefield (300ft N of North Abut) 
Record of Sun Sep  9, 2001 16:59:23 PDT    Sun Sep  9, 2001 16:59:23 PDT        
Hypocenter:  To be determined.               ML:  To be determined.
Instr Period =  .0200 sec,  Damping =  .700,  Sensitivity = 1.25  v/g
                        Record length = 36.000 sec.
                                     Uncor Max  =   .010 g, at   4.845 sec.
RMS accel of (uncor) record  =        .
Accelerogram bandpass filtered with 3 dB pts at   .30 and 40.00 cyc/sec
                 instrument- and baseline-corrected





Record of Sun Sep  9, 2001 16:59:23 PDT    Sun Sep  9, 2001 16:59:23 PDT

24714-M0104-01252.01      San Fernando - I210/Hwy 118 Bridge    Chan  2:  Up

24714-M0104-01252.01      San Fernando - I210/Hwy 118 Bridge    Chan  2:  Up

Units for spectra are inches and sec, except Sa is in fraction of g.

    2  100    2   18   36  200    1    3    1   24   13  104    024714    3    0
   23   59   23    0  252    9    9 2001   10    3  500 7200   39   34   72   -1
 7200    1   50    3  104    1    1  360    1    0    0    0    0    0    0    0
    0    0    0    0 3600    2    0    0    0    0   72   34    0    0    0 3600
    0 3600   35   91    1   18    0    0    0    0   36    0    0    0    0    2
    2    2    4    1   66   99    0   32   32    0    0    1    0    0    0    0
  -99   -1    0    0
      .020      .700    36.000      .001      .000  1250.000      .010     4.845
    50.000      .298      .238      .000     5.000      .000      .000      .000
     2.500    -8.506     -.001     -.023     5.000    30.000      .000     -.005
     -.003      .002     2.000    15.000    34.288  -118.407      .720      .508
      .706     -.094      .097  -999.000      .000      .000   -12.400      .000
  1000.000     1.036      .000      .000      .000      .000      .000      .000
     4.600     4.400      .000   980.665      .010    36.000     7.958      .000
      .000    40.000      .000    36.000      .010      .300      .000      .000
     4.840     9.057     4.800     -.311     4.850     -.017      .000      .300
    40.000      .010      .010      .000      .010      .008      .000      .000
      .042      .200      .039      .011      .001      .000      .000      .000
      .000      .000      .000      .000      .000      .000      .000      .000
      .000      .000      .000      .000
      .050
      .040      .042      .044      .046      .048      .050      .055      .060
      .065      .070      .075      .080      .085      .090      .095      .100
      .110      .120      .130      .140      .150      .160      .170      .180
      .190      .200      .220      .240      .260      .280      .300      .320
      .340      .360      .380      .400      .420      .440      .460      .480
      .500      .550      .600      .650      .700      .750      .800      .850
      .900      .950     1.000     1.100     1.200     1.300     1.400     1.500
     1.600     1.700     1.800     1.900     2.000     2.200     2.400     2.600
     2.800     3.000     3.200     3.400     3.600     3.800     4.000     4.200
     4.400     4.600     4.800     5.000     5.500     6.000     6.500     7.000
     7.500     8.000     8.500     9.000     9.500    10.000    11.000    12.000
    13.000    14.000    15.000      .000      .000      .000      .000      .000
      .000      .000      .000      .000
Fourier amplitude spectra in in/sec.
  .000E+00  .000E+00  .000E+00  .000E+00  .000E+00  .000E+00  .000E+00  .000E+00
  .000E+00  .000E+00  .000E+00  .000E+00  .000E+00  .000E+00  .000E+00  .000E+00
  .000E+00  .000E+00  .000E+00  .000E+00  .000E+00  .000E+00  .000E+00  .000E+00
  .000E+00  .000E+00  .000E+00  .000E+00  .000E+00  .000E+00  .000E+00  .000E+00
  .000E+00  .000E+00  .000E+00  .000E+00  .000E+00  .000E+00  .000E+00  .000E+00
  .000E+00  .000E+00  .000E+00  .000E+00  .000E+00  .000E+00  .000E+00  .000E+00
  .000E+00  .000E+00  .000E+00  .000E+00  .000E+00  .000E+00  .000E+00  .000E+00
  .000E+00  .000E+00  .000E+00  .000E+00  .000E+00  .000E+00  .000E+00  .000E+00
  .000E+00  .000E+00  .000E+00  .000E+00  .000E+00  .000E+00  .000E+00  .000E+00
  .000E+00  .000E+00  .000E+00  .000E+00  .000E+00  .000E+00  .000E+00  .000E+00
  .000E+00  .000E+00  .000E+00  .000E+00  .000E+00  .000E+00  .000E+00  .000E+00
  .000E+00  .000E+00  .000E+00  .000E+00  .000E+00  .000E+00  .000E+00  .000E+00
  .000E+00  .000E+00  .000E+00  .000E+00
Damping =  .05. Data of Sd,Sv,Sa,Pssv,ttSd,ttSv,ttSa :
  .157E-03  .182E-03  .221E-03  .268E-03  .292E-03  .325E-03  .533E-03  .711E-03
  .108E-02  .154E-02  .203E-02  .226E-02  .255E-02  .256E-02  .317E-02  .302E-02
  .277E-02  .278E-02  .333E-02  .402E-02  .445E-02  .538E-02  .742E-02  .104E-01
  .135E-01  .165E-01  .166E-01  .133E-01  .977E-02  .964E-02  .983E-02  .999E-02
  .787E-02  .876E-02  .103E-01  .121E-01  .133E-01  .142E-01  .148E-01  .151E-01
  .160E-01  .149E-01  .134E-01  .145E-01  .141E-01  .130E-01  .133E-01  .157E-01
  .132E-01  .138E-01  .126E-01  .104E-01  .116E-01  .948E-02  .126E-01  .117E-01
  .125E-01  .991E-02  .108E-01  .117E-01  .114E-01  .100E-01  .122E-01  .103E-01
  .789E-02  .840E-02  .873E-02  .891E-02  .899E-02  .898E-02  .893E-02  .885E-02
  .875E-02  .865E-02  .855E-02  .846E-02  .826E-02  .810E-02  .799E-02  .791E-02
  .785E-02  .781E-02  .778E-02  .775E-02  .774E-02  .772E-02  .770E-02  .769E-02
  .768E-02  .767E-02  .768E-02  .000E+00  .000E+00  .000E+00  .000E+00  .000E+00
  .000E+00  .000E+00  .000E+00  .000E+00
  .137E-01  .161E-01  .198E-01  .229E-01  .229E-01  .270E-01  .435E-01  .587E-01
  .881E-01  .122E+00  .149E+00  .166E+00  .181E+00  .170E+00  .203E+00  .187E+00
  .169E+00  .144E+00  .160E+00  .177E+00  .183E+00  .193E+00  .268E+00  .350E+00
  .454E+00  .524E+00  .511E+00  .370E+00  .266E+00  .244E+00  .255E+00  .210E+00
  .200E+00  .208E+00  .221E+00  .231E+00  .250E+00  .271E+00  .271E+00  .255E+00
  .251E+00  .255E+00  .235E+00  .211E+00  .182E+00  .168E+00  .164E+00  .157E+00
  .144E+00  .131E+00  .122E+00  .129E+00  .126E+00  .124E+00  .126E+00  .126E+00
  .125E+00  .125E+00  .124E+00  .123E+00  .121E+00  .119E+00  .118E+00  .117E+00
  .118E+00  .118E+00  .119E+00  .120E+00  .121E+00  .121E+00  .121E+00  .122E+00
  .122E+00  .122E+00  .122E+00  .122E+00  .122E+00  .122E+00  .122E+00  .122E+00
  .122E+00  .122E+00  .122E+00  .122E+00  .122E+00  .122E+00  .122E+00  .122E+00
  .122E+00  .122E+00  .122E+00  .000E+00  .000E+00  .000E+00  .000E+00  .000E+00
  .000E+00  .000E+00  .000E+00  .000E+00
  .100E-01  .105E-01  .117E-01  .130E-01  .130E-01  .134E-01  .179E-01  .205E-01
  .261E-01  .320E-01  .367E-01  .363E-01  .361E-01  .324E-01  .359E-01  .315E-01
  .238E-01  .197E-01  .203E-01  .208E-01  .202E-01  .218E-01  .261E-01  .326E-01
  .384E-01  .421E-01  .355E-01  .240E-01  .150E-01  .127E-01  .113E-01  .100E-01
  .699E-02  .697E-02  .732E-02  .776E-02  .782E-02  .753E-02  .724E-02  .677E-02
  .658E-02  .509E-02  .386E-02  .354E-02  .301E-02  .241E-02  .215E-02  .224E-02
  .169E-02  .157E-02  .130E-02  .890E-03  .833E-03  .579E-03  .663E-03  .538E-03
  .505E-03  .357E-03  .345E-03  .336E-03  .301E-03  .217E-03  .223E-03  .158E-03
  .140E-03  .131E-03  .122E-03  .112E-03  .103E-03  .951E-04  .879E-04  .814E-04
  .757E-04  .706E-04  .661E-04  .620E-04  .537E-04  .474E-04  .424E-04  .383E-04
  .350E-04  .321E-04  .297E-04  .277E-04  .259E-04  .243E-04  .216E-04  .195E-04
  .177E-04  .163E-04  .150E-04  .000E+00  .000E+00  .000E+00  .000E+00  .000E+00
  .000E+00  .000E+00  .000E+00  .000E+00
  .246E-01  .272E-01  .315E-01  .367E-01  .382E-01  .408E-01  .609E-01  .745E-01
  .105E+00  .139E+00  .170E+00  .177E+00  .189E+00  .179E+00  .210E+00  .190E+00
  .158E+00  .145E+00  .161E+00  .181E+00  .187E+00  .211E+00  .274E+00  .363E+00
  .448E+00  .519E+00  .474E+00  .349E+00  .236E+00  .216E+00  .206E+00  .196E+00
  .145E+00  .153E+00  .169E+00  .190E+00  .200E+00  .203E+00  .202E+00  .198E+00
  .201E+00  .170E+00  .140E+00  .140E+00  .127E+00  .109E+00  .105E+00  .116E+00
  .921E-01  .911E-01  .795E-01  .596E-01  .608E-01  .458E-01  .566E-01  .492E-01
  .491E-01  .366E-01  .378E-01  .386E-01  .360E-01  .286E-01  .318E-01  .249E-01
  .177E-01  .176E-01  .171E-01  .165E-01  .157E-01  .149E-01  .140E-01  .132E-01
  .125E-01  .118E-01  .112E-01  .106E-01  .943E-02  .849E-02  .773E-02  .710E-02
  .658E-02  .614E-02  .575E-02  .541E-02  .512E-02  .485E-02  .440E-02  .403E-02
  .371E-02  .344E-02  .322E-02  .000E+00  .000E+00  .000E+00  .000E+00  .000E+00
  .000E+00  .000E+00  .000E+00  .000E+00
  .553E+01  .483E+01  .553E+01  .553E+01  .553E+01  .553E+01  .553E+01  .553E+01
  .554E+01  .559E+01  .559E+01  .559E+01  .564E+01  .598E+01  .599E+01  .604E+01
  .561E+01  .533E+01  .643E+01  .645E+01  .654E+01  .505E+01  .535E+01  .536E+01
  .537E+01  .529E+01  .532E+01  .502E+01  .503E+01  .504E+01  .505E+01  .770E+01
  .493E+01  .493E+01  .493E+01  .533E+01  .494E+01  .494E+01  .495E+01  .522E+01
  .523E+01  .525E+01  .482E+01  .745E+01  .483E+01  .484E+01  .144E+02  .158E+02
  .142E+02  .217E+02  .218E+02  .214E+02  .214E+02  .162E+02  .214E+02  .215E+02
  .211E+02  .156E+02  .157E+02  .159E+02  .159E+02  .151E+02  .151E+02  .153E+02
  .484E+01  .604E+01  .484E+01  .484E+01  .484E+01  .484E+01  .484E+01  .484E+01
  .484E+01  .484E+01  .484E+01  .484E+01  .484E+01  .484E+01  .484E+01  .484E+01
  .484E+01  .484E+01  .484E+01  .484E+01  .484E+01  .484E+01  .484E+01  .484E+01
  .484E+01  .484E+01  .484E+01  .000E+00  .000E+00  .000E+00  .000E+00  .000E+00
  .000E+00  .000E+00  .000E+00  .000E+00
  .551E+01  .551E+01  .552E+01  .552E+01  .552E+01  .551E+01  .551E+01  .555E+01
  .556E+01  .557E+01  .561E+01  .561E+01  .563E+01  .567E+01  .596E+01  .602E+01
  .564E+01  .560E+01  .551E+01  .656E+01  .657E+01  .547E+01  .547E+01  .531E+01
  .532E+01  .534E+01  .527E+01  .508E+01  .498E+01  .498E+01  .499E+01  .499E+01
  .499E+01  .499E+01  .500E+01  .500E+01  .528E+01  .528E+01  .528E+01  .529E+01
  .489E+01  .489E+01  .490E+01  .490E+01  .490E+01  .611E+01  .479E+01  .479E+01
  .479E+01  .479E+01  .479E+01  .490E+01  .490E+01  .479E+01  .479E+01  .479E+01
  .479E+01  .479E+01  .479E+01  .479E+01  .479E+01  .479E+01  .479E+01  .479E+01
  .479E+01  .479E+01  .479E+01  .479E+01  .479E+01  .479E+01  .479E+01  .479E+01
  .479E+01  .479E+01  .479E+01  .479E+01  .479E+01  .479E+01  .479E+01  .479E+01
  .479E+01  .479E+01  .479E+01  .479E+01  .479E+01  .479E+01  .479E+01  .479E+01
  .479E+01  .479E+01  .479E+01  .000E+00  .000E+00  .000E+00  .000E+00  .000E+00
  .000E+00  .000E+00  .000E+00  .000E+00
  .553E+01  .483E+01  .553E+01  .553E+01  .553E+01  .553E+01  .553E+01  .553E+01
  .554E+01  .558E+01  .559E+01  .559E+01  .564E+01  .597E+01  .598E+01  .604E+01
  .561E+01  .494E+01  .643E+01  .645E+01  .654E+01  .505E+01  .535E+01  .536E+01
  .537E+01  .529E+01  .531E+01  .502E+01  .503E+01  .503E+01  .504E+01  .770E+01
  .492E+01  .492E+01  .492E+01  .532E+01  .493E+01  .494E+01  .494E+01  .522E+01
  .522E+01  .524E+01  .481E+01  .744E+01  .482E+01  .483E+01  .144E+02  .158E+02
  .142E+02  .217E+02  .218E+02  .213E+02  .214E+02  .162E+02  .214E+02  .215E+02
  .210E+02  .156E+02  .156E+02  .159E+02  .159E+02  .151E+02  .151E+02  .152E+02
  .481E+01  .481E+01  .481E+01  .481E+01  .481E+01  .480E+01  .480E+01  .480E+01
  .480E+01  .480E+01  .480E+01  .480E+01  .480E+01  .480E+01  .480E+01  .480E+01
  .480E+01  .480E+01  .480E+01  .480E+01  .480E+01  .480E+01  .480E+01  .480E+01
  .480E+01  .480E+01  .480E+01  .000E+00  .000E+00  .000E+00  .000E+00  .000E+00
  .000E+00  .000E+00  .000E+00  .000E+00
/&   ----------  End of spectral data for channel  2  ----------
