Response and Fourier amplitude spectra (91 periods,  .04 - 15.0 sec)   for      
Corrected accelerogram   24714-M0104-01252.01       Chan 16:  Up         from   
Uncorrected Accelerogram Data             Processed: 09/10/01, CDMG  714js001   
Record of Sun Sep  9, 2001 16:59:23 PDT               (Avol1 v4.6  7/01 CSMIP)  
CSMIP Preliminary Processing            (Origin:  To be determined)             
24714-M0104-01252.01                 Start time:  9/09/01, 23:59:23.0 UTC (GPS) 
Station No. 24714   34.288N, 118.407W    MtWtny  s/n  104 (18 Chns of 36 at Sta)
San Fernando - I210/Hwy 118 Bridge                                              
Chan 16:  Up                        Location: Bents 7/8 Mip-Span: Deck, E. Edge 
Record of Sun Sep  9, 2001 16:59:23 PDT    Sun Sep  9, 2001 16:59:23 PDT        
Hypocenter:  To be determined.               ML:  To be determined.
Instr Period =  .0200 sec,  Damping =  .700,  Sensitivity =  .63  v/g
                        Record length = 36.000 sec.
                                     Uncor Max  =  -.031 g, at   6.015 sec.
RMS accel of (uncor) record  =        .
Accelerogram bandpass filtered with 3 dB pts at   .30 and 40.00 cyc/sec
                 instrument- and baseline-corrected





Record of Sun Sep  9, 2001 16:59:23 PDT    Sun Sep  9, 2001 16:59:23 PDT

24714-M0104-01252.01      San Fernando - I210/Hwy 118 Bridge    Chan 16:  Up

24714-M0104-01252.01      San Fernando - I210/Hwy 118 Bridge    Chan 16:  Up

Units for spectra are inches and sec, except Sa is in fraction of g.

   16  100   16   18   36  200    1    3    1   24   13  104    024714    3    0
   23   59   23    0  252    9    9 2001   10    3  500 7200   39   34   72   -1
 7200    0   50    3  104    1    1  360    1    0    0    0    0    0    0    0
    0    4    0    0 3600    2    0    0    0    0   72   34    0    0    0 3600
    0 3600   35   91    1   18    0    0    0    0   36    0    0    0    0    2
    2    2    4    1   66   99    0   32   32    0    0    1    0    0    0    0
  -99   -1    0    0
      .020      .700    36.000      .006      .000   625.000     -.031     6.015
    50.000      .298      .477      .000     5.000      .000      .000      .000
     2.500   -37.216     -.004     -.041     5.000    30.000      .000      .002
      .012      .011     2.000    15.000    34.288  -118.407     1.681     4.290
     2.552     -.285      .306  -999.000      .000      .000   -12.400      .000
  1000.000    -1.041      .000      .000      .000      .000      .000      .000
     4.600     4.400      .000   980.665      .010    36.000     7.958      .000
      .000    40.000      .000    36.000      .010      .300      .000      .000
     6.010   -29.689     6.060    -1.204     4.690      .066      .001      .300
    40.000      .010      .010      .001      .010      .058      .000      .000
      .159      .180      .115      .062      .007      .001      .000      .000
      .000      .000      .000      .000      .000      .000      .000      .000
      .000      .000      .000      .000
      .050
      .040      .042      .044      .046      .048      .050      .055      .060
      .065      .070      .075      .080      .085      .090      .095      .100
      .110      .120      .130      .140      .150      .160      .170      .180
      .190      .200      .220      .240      .260      .280      .300      .320
      .340      .360      .380      .400      .420      .440      .460      .480
      .500      .550      .600      .650      .700      .750      .800      .850
      .900      .950     1.000     1.100     1.200     1.300     1.400     1.500
     1.600     1.700     1.800     1.900     2.000     2.200     2.400     2.600
     2.800     3.000     3.200     3.400     3.600     3.800     4.000     4.200
     4.400     4.600     4.800     5.000     5.500     6.000     6.500     7.000
     7.500     8.000     8.500     9.000     9.500    10.000    11.000    12.000
    13.000    14.000    15.000      .000      .000      .000      .000      .000
      .000      .000      .000      .000
Fourier amplitude spectra in in/sec.
  .000E+00  .000E+00  .000E+00  .000E+00  .000E+00  .000E+00  .000E+00  .000E+00
  .000E+00  .000E+00  .000E+00  .000E+00  .000E+00  .000E+00  .000E+00  .000E+00
  .000E+00  .000E+00  .000E+00  .000E+00  .000E+00  .000E+00  .000E+00  .000E+00
  .000E+00  .000E+00  .000E+00  .000E+00  .000E+00  .000E+00  .000E+00  .000E+00
  .000E+00  .000E+00  .000E+00  .000E+00  .000E+00  .000E+00  .000E+00  .000E+00
  .000E+00  .000E+00  .000E+00  .000E+00  .000E+00  .000E+00  .000E+00  .000E+00
  .000E+00  .000E+00  .000E+00  .000E+00  .000E+00  .000E+00  .000E+00  .000E+00
  .000E+00  .000E+00  .000E+00  .000E+00  .000E+00  .000E+00  .000E+00  .000E+00
  .000E+00  .000E+00  .000E+00  .000E+00  .000E+00  .000E+00  .000E+00  .000E+00
  .000E+00  .000E+00  .000E+00  .000E+00  .000E+00  .000E+00  .000E+00  .000E+00
  .000E+00  .000E+00  .000E+00  .000E+00  .000E+00  .000E+00  .000E+00  .000E+00
  .000E+00  .000E+00  .000E+00  .000E+00  .000E+00  .000E+00  .000E+00  .000E+00
  .000E+00  .000E+00  .000E+00  .000E+00
Damping =  .05. Data of Sd,Sv,Sa,Pssv,ttSd,ttSv,ttSa :
  .905E-03  .107E-02  .128E-02  .173E-02  .205E-02  .218E-02  .172E-02  .169E-02
  .235E-02  .254E-02  .249E-02  .332E-02  .430E-02  .422E-02  .467E-02  .588E-02
  .922E-02  .882E-02  .990E-02  .149E-01  .186E-01  .251E-01  .331E-01  .503E-01
  .511E-01  .440E-01  .419E-01  .363E-01  .535E-01  .480E-01  .607E-01  .530E-01
  .631E-01  .678E-01  .642E-01  .594E-01  .552E-01  .572E-01  .572E-01  .517E-01
  .532E-01  .638E-01  .859E-01  .938E-01  .924E-01  .943E-01  .838E-01  .806E-01
  .728E-01  .642E-01  .670E-01  .674E-01  .768E-01  .462E-01  .415E-01  .397E-01
  .394E-01  .346E-01  .412E-01  .501E-01  .482E-01  .609E-01  .517E-01  .570E-01
  .506E-01  .417E-01  .386E-01  .384E-01  .336E-01  .326E-01  .335E-01  .333E-01
  .314E-01  .295E-01  .291E-01  .289E-01  .281E-01  .283E-01  .276E-01  .275E-01
  .270E-01  .265E-01  .264E-01  .262E-01  .259E-01  .258E-01  .258E-01  .259E-01
  .259E-01  .259E-01  .259E-01  .000E+00  .000E+00  .000E+00  .000E+00  .000E+00
  .000E+00  .000E+00  .000E+00  .000E+00
  .123E+00  .138E+00  .158E+00  .220E+00  .263E+00  .259E+00  .183E+00  .159E+00
  .208E+00  .202E+00  .169E+00  .184E+00  .236E+00  .226E+00  .225E+00  .300E+00
  .429E+00  .401E+00  .408E+00  .553E+00  .689E+00  .838E+00  .113E+01  .168E+01
  .171E+01  .135E+01  .122E+01  .103E+01  .135E+01  .110E+01  .130E+01  .116E+01
  .133E+01  .134E+01  .116E+01  .113E+01  .108E+01  .102E+01  .914E+00  .758E+00
  .728E+00  .775E+00  .103E+01  .123E+01  .124E+01  .982E+00  .770E+00  .703E+00
  .704E+00  .692E+00  .677E+00  .654E+00  .644E+00  .627E+00  .594E+00  .558E+00
  .541E+00  .533E+00  .530E+00  .525E+00  .518E+00  .500E+00  .487E+00  .484E+00
  .486E+00  .488E+00  .489E+00  .488E+00  .486E+00  .484E+00  .482E+00  .480E+00
  .478E+00  .477E+00  .476E+00  .475E+00  .474E+00  .474E+00  .474E+00  .473E+00
  .473E+00  .473E+00  .473E+00  .473E+00  .473E+00  .473E+00  .473E+00  .473E+00
  .472E+00  .472E+00  .472E+00  .000E+00  .000E+00  .000E+00  .000E+00  .000E+00
  .000E+00  .000E+00  .000E+00  .000E+00
  .577E-01  .621E-01  .675E-01  .847E-01  .924E-01  .893E-01  .581E-01  .479E-01
  .574E-01  .528E-01  .451E-01  .532E-01  .605E-01  .531E-01  .530E-01  .611E-01
  .783E-01  .638E-01  .603E-01  .772E-01  .849E-01  .100E+00  .117E+00  .159E+00
  .144E+00  .113E+00  .888E-01  .648E-01  .813E-01  .628E-01  .697E-01  .532E-01
  .565E-01  .536E-01  .459E-01  .382E-01  .324E-01  .305E-01  .280E-01  .231E-01
  .219E-01  .217E-01  .246E-01  .228E-01  .194E-01  .173E-01  .135E-01  .116E-01
  .936E-02  .742E-02  .694E-02  .586E-02  .551E-02  .285E-02  .221E-02  .183E-02
  .161E-02  .126E-02  .134E-02  .146E-02  .128E-02  .133E-02  .962E-03  .907E-03
  .690E-03  .504E-03  .415E-03  .359E-03  .289E-03  .263E-03  .246E-03  .228E-03
  .212E-03  .197E-03  .183E-03  .170E-03  .145E-03  .126E-03  .112E-03  .103E-03
  .966E-04  .908E-04  .856E-04  .810E-04  .768E-04  .731E-04  .665E-04  .610E-04
  .563E-04  .523E-04  .488E-04  .000E+00  .000E+00  .000E+00  .000E+00  .000E+00
  .000E+00  .000E+00  .000E+00  .000E+00
  .142E+00  .161E+00  .183E+00  .236E+00  .269E+00  .274E+00  .196E+00  .177E+00
  .227E+00  .228E+00  .208E+00  .261E+00  .318E+00  .295E+00  .309E+00  .370E+00
  .527E+00  .462E+00  .478E+00  .667E+00  .778E+00  .987E+00  .122E+01  .176E+01
  .169E+01  .138E+01  .120E+01  .950E+00  .129E+01  .108E+01  .127E+01  .104E+01
  .117E+01  .118E+01  .106E+01  .934E+00  .827E+00  .817E+00  .782E+00  .677E+00
  .668E+00  .728E+00  .899E+00  .906E+00  .829E+00  .790E+00  .658E+00  .596E+00
  .508E+00  .425E+00  .421E+00  .385E+00  .402E+00  .223E+00  .186E+00  .166E+00
  .155E+00  .128E+00  .144E+00  .166E+00  .152E+00  .174E+00  .135E+00  .138E+00
  .114E+00  .874E-01  .758E-01  .710E-01  .586E-01  .540E-01  .527E-01  .499E-01
  .449E-01  .403E-01  .381E-01  .363E-01  .321E-01  .296E-01  .266E-01  .247E-01
  .226E-01  .208E-01  .195E-01  .183E-01  .171E-01  .162E-01  .148E-01  .135E-01
  .125E-01  .116E-01  .108E-01  .000E+00  .000E+00  .000E+00  .000E+00  .000E+00
  .000E+00  .000E+00  .000E+00  .000E+00
  .342E+02  .342E+02  .342E+02  .342E+02  .342E+02  .342E+02  .342E+02  .233E+02
  .784E+01  .745E+01  .553E+01  .526E+01  .526E+01  .527E+01  .527E+01  .526E+01
  .560E+01  .528E+01  .562E+01  .635E+01  .636E+01  .572E+01  .102E+02  .648E+01
  .660E+01  .615E+01  .617E+01  .726E+01  .716E+01  .762E+01  .580E+01  .653E+01
  .656E+01  .643E+01  .645E+01  .707E+01  .709E+01  .632E+01  .633E+01  .633E+01
  .110E+02  .633E+01  .636E+01  .614E+01  .858E+01  .597E+01  .569E+01  .570E+01
  .571E+01  .572E+01  .742E+01  .698E+01  .323E+02  .318E+02  .347E+02  .347E+02
  .348E+02  .343E+02  .343E+02  .343E+02  .343E+02  .343E+02  .343E+02  .343E+02
  .345E+02  .345E+02  .345E+02  .335E+02  .335E+02  .335E+02  .335E+02  .338E+02
  .338E+02  .338E+02  .338E+02  .338E+02  .338E+02  .338E+02  .338E+02  .338E+02
  .338E+02  .338E+02  .338E+02  .338E+02  .338E+02  .467E+01  .467E+01  .467E+01
  .467E+01  .467E+01  .467E+01  .000E+00  .000E+00  .000E+00  .000E+00  .000E+00
  .000E+00  .000E+00  .000E+00  .000E+00
  .342E+02  .342E+02  .342E+02  .342E+02  .342E+02  .342E+02  .342E+02  .234E+02
  .234E+02  .338E+02  .337E+02  .523E+01  .541E+01  .542E+01  .530E+01  .555E+01
  .557E+01  .531E+01  .565E+01  .631E+01  .640E+01  .585E+01  .586E+01  .653E+01
  .655E+01  .620E+01  .612E+01  .613E+01  .722E+01  .583E+01  .573E+01  .575E+01
  .649E+01  .650E+01  .637E+01  .638E+01  .639E+01  .639E+01  .640E+01  .640E+01
  .111E+02  .641E+01  .628E+01  .604E+01  .605E+01  .605E+01  .577E+01  .521E+01
  .521E+01  .521E+01  .521E+01  .521E+01  .521E+01  .521E+01  .521E+01  .521E+01
  .605E+01  .605E+01  .605E+01  .605E+01  .605E+01  .605E+01  .605E+01  .605E+01
  .605E+01  .605E+01  .605E+01  .605E+01  .605E+01  .605E+01  .605E+01  .605E+01
  .605E+01  .605E+01  .605E+01  .605E+01  .605E+01  .605E+01  .605E+01  .605E+01
  .605E+01  .605E+01  .605E+01  .605E+01  .605E+01  .605E+01  .605E+01  .605E+01
  .605E+01  .605E+01  .605E+01  .000E+00  .000E+00  .000E+00  .000E+00  .000E+00
  .000E+00  .000E+00  .000E+00  .000E+00
  .342E+02  .342E+02  .342E+02  .342E+02  .342E+02  .342E+02  .342E+02  .233E+02
  .784E+01  .745E+01  .553E+01  .526E+01  .526E+01  .527E+01  .526E+01  .526E+01
  .560E+01  .528E+01  .561E+01  .635E+01  .636E+01  .572E+01  .102E+02  .648E+01
  .660E+01  .615E+01  .616E+01  .725E+01  .716E+01  .762E+01  .579E+01  .653E+01
  .655E+01  .642E+01  .644E+01  .706E+01  .708E+01  .631E+01  .632E+01  .633E+01
  .110E+02  .632E+01  .635E+01  .613E+01  .857E+01  .596E+01  .568E+01  .569E+01
  .570E+01  .570E+01  .741E+01  .696E+01  .323E+02  .318E+02  .497E+01  .347E+02
  .347E+02  .342E+02  .342E+02  .342E+02  .342E+02  .342E+02  .342E+02  .342E+02
  .345E+02  .345E+02  .345E+02  .335E+02  .694E+01  .595E+01  .595E+01  .595E+01
  .595E+01  .595E+01  .595E+01  .595E+01  .595E+01  .595E+01  .523E+01  .523E+01
  .522E+01  .522E+01  .522E+01  .522E+01  .522E+01  .522E+01  .522E+01  .522E+01
  .522E+01  .522E+01  .522E+01  .000E+00  .000E+00  .000E+00  .000E+00  .000E+00
  .000E+00  .000E+00  .000E+00  .000E+00
/&   ----------  End of spectral data for channel 16  ----------
