Response and Fourier amplitude spectra (91 periods,  .04 - 15.0 sec)   for      
Corrected accelerogram   24806-L1125-01248.12       Chan  1: 360 Deg     from   
Uncorrected Accelerogram Data             Processed: 09/10/01, CDMG  806as012   
Record of Sun Sep  9, 2001 16:59:22 PDT               (Avol1 v4.6  7/01 CSMIP)  
CSMIP Preliminary Processing            (Origin:  To be determined)             
24806-L1125-01248.12                 Start time:  9/09/01, 23:59:22.0 UTC (GPS) 
Station No. 24806   34.222N, 118.570W      Etna  s/n 1125  (3 Channels)         
Canoga Park - Winnetka & Roscoe                                                 
Chan  1: 360 Deg                                                                
Record of Sun Sep  9, 2001 16:59:22 PDT    Sun Sep  9, 2001 16:59:22 PDT        
Hypocenter:  To be determined.               ML:  To be determined.             
Instr Period =  .0107 sec,  Damping =  .660,  Sensitivity =  .63  v/g           
                        Record length = 40.000 sec.                             
                                     Uncor Max  =  -.030 g, at   5.785 sec.     
RMS accel of (uncor) record  =        .                                         
Accelerogram bandpass filtered with 3 dB pts at   .30 and 40.00 cyc/sec         
                 instrument- and baseline-corrected                             
                                                                                
                                                                                
                                                                                
                                                                                
                                                                                
Record of Sun Sep  9, 2001 16:59:22 PDT    Sun Sep  9, 2001 16:59:22 PDT        
                                                                                
24806-L1125-01248.12      Canoga Park - Winnetka & Roscoe   Chan  1: 360 Deg    
                                                                                
24806-L1125-01248.12      Canoga Park - Winnetka & Roscoe   Chan  1: 360 Deg    
                                                                                
Units for spectra are inches and sec, except Sa is in fraction of g.            
                                                                                
    1  100    1    3    3  200    1    3    1   24   12 1125    024806    1    0
   23   59   22    0  252    9    9 2001   10    3  360 8000   39   31   72  360
 8000    1   50    3 1125    1   12  400    1    0    0    0    0    0    0    0
    0    4    0    0 4000    2    0    0    0    0   72   31    0    0    0 4000
    0 4000   32   91    1    3    0    0    0    0    3    0    0    0    0    2
    2    2    4    0   32   99    0   32   32    0    0    1    0    0    0    0
  -99   -1    0    0
      .011      .660    40.000      .002      .000   625.000     -.030     5.785
    93.800      .298      .477      .000     5.000      .000      .000      .000
     2.500      .039      .019     -.018     5.000    30.000      .000      .007
      .004     -.003     2.000    15.000    34.222  -118.570      .389      .504
     1.296     -.058      .053  -999.000      .000      .000   -13.200      .000
  1000.000    -1.032      .000      .000      .000      .000      .000      .000
     4.600     4.400      .000   980.665      .010    40.000    14.929      .000
      .000    40.000      .000    40.000      .010      .300      .000      .000
     5.780   -29.337     5.740     1.476     5.670     -.086     -.001      .300
    40.000      .010      .010      .000      .010      .027      .000      .000
      .095      .190      .090      .051      .005      .000      .000      .000
      .000      .000      .000      .000      .000      .000      .000      .000
      .000      .000      .000      .000
      .050
      .040      .042      .044      .046      .048      .050      .055      .060
      .065      .070      .075      .080      .085      .090      .095      .100
      .110      .120      .130      .140      .150      .160      .170      .180
      .190      .200      .220      .240      .260      .280      .300      .320
      .340      .360      .380      .400      .420      .440      .460      .480
      .500      .550      .600      .650      .700      .750      .800      .850
      .900      .950     1.000     1.100     1.200     1.300     1.400     1.500
     1.600     1.700     1.800     1.900     2.000     2.200     2.400     2.600
     2.800     3.000     3.200     3.400     3.600     3.800     4.000     4.200
     4.400     4.600     4.800     5.000     5.500     6.000     6.500     7.000
     7.500     8.000     8.500     9.000     9.500    10.000    11.000    12.000
    13.000    14.000    15.000      .000      .000      .000      .000      .000
      .000      .000      .000      .000
Fourier amplitude spectra in in/sec.
  .000E+00  .000E+00  .000E+00  .000E+00  .000E+00  .000E+00  .000E+00  .000E+00
  .000E+00  .000E+00  .000E+00  .000E+00  .000E+00  .000E+00  .000E+00  .000E+00
  .000E+00  .000E+00  .000E+00  .000E+00  .000E+00  .000E+00  .000E+00  .000E+00
  .000E+00  .000E+00  .000E+00  .000E+00  .000E+00  .000E+00  .000E+00  .000E+00
  .000E+00  .000E+00  .000E+00  .000E+00  .000E+00  .000E+00  .000E+00  .000E+00
  .000E+00  .000E+00  .000E+00  .000E+00  .000E+00  .000E+00  .000E+00  .000E+00
  .000E+00  .000E+00  .000E+00  .000E+00  .000E+00  .000E+00  .000E+00  .000E+00
  .000E+00  .000E+00  .000E+00  .000E+00  .000E+00  .000E+00  .000E+00  .000E+00
  .000E+00  .000E+00  .000E+00  .000E+00  .000E+00  .000E+00  .000E+00  .000E+00
  .000E+00  .000E+00  .000E+00  .000E+00  .000E+00  .000E+00  .000E+00  .000E+00
  .000E+00  .000E+00  .000E+00  .000E+00  .000E+00  .000E+00  .000E+00  .000E+00
  .000E+00  .000E+00  .000E+00  .000E+00  .000E+00  .000E+00  .000E+00  .000E+00
  .000E+00  .000E+00  .000E+00  .000E+00
Damping =  .05. Data of Sd,Sv,Sa,Pssv,ttSd,ttSv,ttSa :
  .502E-03  .560E-03  .624E-03  .691E-03  .757E-03  .825E-03  .103E-02  .128E-02
  .159E-02  .179E-02  .200E-02  .251E-02  .304E-02  .356E-02  .386E-02  .409E-02
  .541E-02  .667E-02  .868E-02  .112E-01  .146E-01  .196E-01  .254E-01  .295E-01
  .338E-01  .359E-01  .389E-01  .421E-01  .429E-01  .440E-01  .446E-01  .452E-01
  .454E-01  .449E-01  .427E-01  .509E-01  .595E-01  .575E-01  .616E-01  .529E-01
  .560E-01  .650E-01  .547E-01  .573E-01  .565E-01  .555E-01  .524E-01  .508E-01
  .509E-01  .504E-01  .483E-01  .431E-01  .401E-01  .376E-01  .356E-01  .330E-01
  .335E-01  .342E-01  .347E-01  .352E-01  .356E-01  .363E-01  .367E-01  .368E-01
  .369E-01  .370E-01  .371E-01  .372E-01  .372E-01  .373E-01  .373E-01  .373E-01
  .373E-01  .373E-01  .372E-01  .372E-01  .370E-01  .368E-01  .366E-01  .364E-01
  .362E-01  .361E-01  .359E-01  .358E-01  .357E-01  .356E-01  .354E-01  .353E-01
  .352E-01  .351E-01  .350E-01  .000E+00  .000E+00  .000E+00  .000E+00  .000E+00
  .000E+00  .000E+00  .000E+00  .000E+00
  .163E-01  .179E-01  .195E-01  .209E-01  .232E-01  .264E-01  .311E-01  .427E-01
  .499E-01  .608E-01  .681E-01  .843E-01  .102E+00  .132E+00  .148E+00  .157E+00
  .196E+00  .246E+00  .329E+00  .454E+00  .577E+00  .749E+00  .926E+00  .102E+01
  .111E+01  .115E+01  .113E+01  .110E+01  .102E+01  .101E+01  .100E+01  .994E+00
  .987E+00  .968E+00  .893E+00  .863E+00  .940E+00  .884E+00  .858E+00  .768E+00
  .714E+00  .837E+00  .711E+00  .723E+00  .742E+00  .760E+00  .751E+00  .736E+00
  .735E+00  .742E+00  .744E+00  .729E+00  .712E+00  .704E+00  .695E+00  .684E+00
  .672E+00  .662E+00  .654E+00  .647E+00  .641E+00  .631E+00  .622E+00  .615E+00
  .610E+00  .606E+00  .603E+00  .600E+00  .598E+00  .596E+00  .594E+00  .592E+00
  .591E+00  .590E+00  .589E+00  .588E+00  .586E+00  .585E+00  .584E+00  .583E+00
  .583E+00  .582E+00  .582E+00  .582E+00  .581E+00  .581E+00  .581E+00  .581E+00
  .581E+00  .580E+00  .580E+00  .000E+00  .000E+00  .000E+00  .000E+00  .000E+00
  .000E+00  .000E+00  .000E+00  .000E+00
  .321E-01  .325E-01  .329E-01  .334E-01  .336E-01  .337E-01  .347E-01  .361E-01
  .386E-01  .374E-01  .365E-01  .401E-01  .429E-01  .452E-01  .437E-01  .420E-01
  .462E-01  .470E-01  .524E-01  .587E-01  .662E-01  .792E-01  .905E-01  .932E-01
  .954E-01  .931E-01  .829E-01  .756E-01  .657E-01  .580E-01  .510E-01  .452E-01
  .402E-01  .356E-01  .303E-01  .328E-01  .346E-01  .305E-01  .299E-01  .236E-01
  .231E-01  .221E-01  .158E-01  .140E-01  .120E-01  .103E-01  .855E-02  .736E-02
  .658E-02  .585E-02  .508E-02  .377E-02  .297E-02  .240E-02  .192E-02  .156E-02
  .142E-02  .129E-02  .118E-02  .108E-02  .994E-03  .850E-03  .732E-03  .636E-03
  .559E-03  .495E-03  .442E-03  .399E-03  .362E-03  .331E-03  .303E-03  .280E-03
  .259E-03  .240E-03  .224E-03  .209E-03  .179E-03  .156E-03  .137E-03  .122E-03
  .114E-03  .107E-03  .101E-03  .960E-04  .913E-04  .870E-04  .796E-04  .733E-04
  .679E-04  .632E-04  .591E-04  .000E+00  .000E+00  .000E+00  .000E+00  .000E+00
  .000E+00  .000E+00  .000E+00  .000E+00
  .788E-01  .838E-01  .891E-01  .943E-01  .991E-01  .104E+00  .117E+00  .134E+00
  .153E+00  .161E+00  .168E+00  .197E+00  .224E+00  .248E+00  .255E+00  .257E+00
  .309E+00  .349E+00  .419E+00  .505E+00  .610E+00  .771E+00  .937E+00  .103E+01
  .112E+01  .113E+01  .111E+01  .110E+01  .104E+01  .986E+00  .934E+00  .887E+00
  .838E+00  .784E+00  .706E+00  .799E+00  .891E+00  .822E+00  .841E+00  .693E+00
  .704E+00  .742E+00  .573E+00  .554E+00  .507E+00  .465E+00  .411E+00  .376E+00
  .355E+00  .333E+00  .303E+00  .246E+00  .210E+00  .182E+00  .160E+00  .138E+00
  .132E+00  .126E+00  .121E+00  .116E+00  .112E+00  .104E+00  .960E-01  .890E-01
  .829E-01  .775E-01  .728E-01  .687E-01  .650E-01  .617E-01  .586E-01  .558E-01
  .533E-01  .509E-01  .487E-01  .467E-01  .422E-01  .385E-01  .354E-01  .327E-01
  .303E-01  .283E-01  .266E-01  .250E-01  .236E-01  .224E-01  .202E-01  .185E-01
  .170E-01  .157E-01  .147E-01  .000E+00  .000E+00  .000E+00  .000E+00  .000E+00
  .000E+00  .000E+00  .000E+00  .000E+00
  .578E+01  .578E+01  .578E+01  .578E+01  .578E+01  .578E+01  .578E+01  .578E+01
  .578E+01  .578E+01  .578E+01  .578E+01  .578E+01  .578E+01  .579E+01  .579E+01
  .578E+01  .579E+01  .579E+01  .579E+01  .579E+01  .580E+01  .580E+01  .581E+01
  .582E+01  .582E+01  .584E+01  .585E+01  .586E+01  .586E+01  .587E+01  .588E+01
  .589E+01  .590E+01  .592E+01  .101E+02  .101E+02  .990E+01  .992E+01  .672E+01
  .674E+01  .976E+01  .578E+01  .932E+01  .579E+01  .579E+01  .580E+01  .580E+01
  .580E+01  .580E+01  .580E+01  .581E+01  .581E+01  .581E+01  .592E+01  .592E+01
  .565E+01  .565E+01  .565E+01  .565E+01  .565E+01  .565E+01  .565E+01  .565E+01
  .565E+01  .565E+01  .566E+01  .566E+01  .566E+01  .566E+01  .566E+01  .566E+01
  .566E+01  .566E+01  .566E+01  .566E+01  .566E+01  .566E+01  .566E+01  .566E+01
  .566E+01  .566E+01  .566E+01  .566E+01  .566E+01  .566E+01  .566E+01  .566E+01
  .566E+01  .566E+01  .566E+01  .000E+00  .000E+00  .000E+00  .000E+00  .000E+00
  .000E+00  .000E+00  .000E+00  .000E+00
  .575E+01  .575E+01  .575E+01  .575E+01  .575E+01  .575E+01  .573E+01  .575E+01
  .580E+01  .581E+01  .573E+01  .574E+01  .582E+01  .582E+01  .582E+01  .582E+01
  .582E+01  .583E+01  .598E+01  .599E+01  .599E+01  .600E+01  .593E+01  .594E+01
  .587E+01  .587E+01  .589E+01  .590E+01  .580E+01  .581E+01  .581E+01  .581E+01
  .582E+01  .582E+01  .583E+01  .583E+01  .998E+01  .100E+02  .100E+02  .682E+01
  .584E+01  .964E+01  .572E+01  .572E+01  .572E+01  .572E+01  .572E+01  .573E+01
  .573E+01  .573E+01  .573E+01  .573E+01  .573E+01  .573E+01  .573E+01  .573E+01
  .573E+01  .573E+01  .573E+01  .573E+01  .573E+01  .573E+01  .573E+01  .573E+01
  .573E+01  .573E+01  .573E+01  .573E+01  .573E+01  .573E+01  .573E+01  .573E+01
  .573E+01  .573E+01  .573E+01  .573E+01  .573E+01  .573E+01  .573E+01  .573E+01
  .573E+01  .573E+01  .573E+01  .573E+01  .573E+01  .573E+01  .573E+01  .573E+01
  .573E+01  .573E+01  .573E+01  .000E+00  .000E+00  .000E+00  .000E+00  .000E+00
  .000E+00  .000E+00  .000E+00  .000E+00
  .578E+01  .578E+01  .578E+01  .578E+01  .578E+01  .578E+01  .578E+01  .578E+01
  .578E+01  .578E+01  .578E+01  .578E+01  .578E+01  .578E+01  .579E+01  .578E+01
  .578E+01  .579E+01  .578E+01  .579E+01  .579E+01  .579E+01  .580E+01  .581E+01
  .581E+01  .582E+01  .583E+01  .584E+01  .585E+01  .586E+01  .587E+01  .588E+01
  .588E+01  .590E+01  .591E+01  .100E+02  .101E+02  .989E+01  .991E+01  .671E+01
  .673E+01  .975E+01  .577E+01  .931E+01  .578E+01  .578E+01  .578E+01  .578E+01
  .578E+01  .578E+01  .579E+01  .579E+01  .578E+01  .578E+01  .578E+01  .563E+01
  .563E+01  .563E+01  .563E+01  .563E+01  .563E+01  .563E+01  .563E+01  .563E+01
  .563E+01  .563E+01  .563E+01  .562E+01  .562E+01  .562E+01  .562E+01  .562E+01
  .562E+01  .562E+01  .562E+01  .562E+01  .562E+01  .562E+01  .562E+01  .562E+01
  .574E+01  .574E+01  .574E+01  .574E+01  .574E+01  .574E+01  .574E+01  .574E+01
  .574E+01  .574E+01  .574E+01  .000E+00  .000E+00  .000E+00  .000E+00  .000E+00
  .000E+00  .000E+00  .000E+00  .000E+00
/&   ----------  End of spectral data for channel  1  ----------
Response and Fourier amplitude spectra (91 periods,  .04 - 15.0 sec)   for      
Corrected accelerogram   24806-L1125-01248.12       Chan  2:  Up         from   
Uncorrected Accelerogram Data             Processed: 09/10/01, CDMG  806as012   
Record of Sun Sep  9, 2001 16:59:22 PDT               (Avol1 v4.6  7/01 CSMIP)  
CSMIP Preliminary Processing            (Origin:  To be determined)             
24806-L1125-01248.12                 Start time:  9/09/01, 23:59:22.0 UTC (GPS) 
Station No. 24806   34.222N, 118.570W      Etna  s/n 1125  (3 Channels)         
Canoga Park - Winnetka & Roscoe                                                 
Chan  2:  Up                                                                    
Record of Sun Sep  9, 2001 16:59:22 PDT    Sun Sep  9, 2001 16:59:22 PDT        
Hypocenter:  To be determined.               ML:  To be determined.             
Instr Period =  .0106 sec,  Damping =  .660,  Sensitivity =  .63  v/g           
                        Record length = 40.000 sec.                             
                                     Uncor Max  =   .008 g, at   2.155 sec.     
RMS accel of (uncor) record  =        .                                         
Accelerogram bandpass filtered with 3 dB pts at   .30 and 40.00 cyc/sec         
                 instrument- and baseline-corrected                             
                                                                                
                                                                                
                                                                                
                                                                                
                                                                                
Record of Sun Sep  9, 2001 16:59:22 PDT    Sun Sep  9, 2001 16:59:22 PDT        
                                                                                
24806-L1125-01248.12      Canoga Park - Winnetka & Roscoe   Chan  2:  Up        
                                                                                
24806-L1125-01248.12      Canoga Park - Winnetka & Roscoe   Chan  2:  Up        
                                                                                
Units for spectra are inches and sec, except Sa is in fraction of g.            
                                                                                
    2  100    2    3    3  200    1    3    1   24   12 1125    024806    1    0
   23   59   22    0  252    9    9 2001   10    3  500 8000   39   31   72  360
 8000    1   50    3 1125    1   12  400    1    0    0    0    0    0    0    0
    0    4    0    0 4000    2    0    0    0    0   72   31    0    0    0 4000
    0 4000   32   91    1    3    0    0    0    0    3    0    0    0    0    2
    2    2    4    0   32   99    0   32   32    0    0    1    0    0    0    0
  -99   -1    0    0
      .011      .660    40.000      .001      .000   625.000      .008     2.155
    94.200      .298      .477      .000     5.000      .000      .000      .000
     2.500   -28.442     -.013     -.023     5.000    30.000      .000      .005
      .000     -.005     2.000    15.000    34.222  -118.570     1.956      .301
      .154     -.257      .247  -999.000      .000      .000   -13.200      .000
  1000.000     1.007      .000      .000      .000      .000      .000      .000
     4.600     4.400      .000   980.665      .010    40.000    14.992      .000
      .000    40.000      .000    40.000      .010      .300      .000      .000
     2.150     7.549     4.250     -.162    26.390      .016      .000      .300
    40.000      .010      .010      .000      .010      .012      .000      .000
      .038      .100      .014      .008      .002      .000      .000      .000
      .000      .000      .000      .000      .000      .000      .000      .000
      .000      .000      .000      .000
      .050
      .040      .042      .044      .046      .048      .050      .055      .060
      .065      .070      .075      .080      .085      .090      .095      .100
      .110      .120      .130      .140      .150      .160      .170      .180
      .190      .200      .220      .240      .260      .280      .300      .320
      .340      .360      .380      .400      .420      .440      .460      .480
      .500      .550      .600      .650      .700      .750      .800      .850
      .900      .950     1.000     1.100     1.200     1.300     1.400     1.500
     1.600     1.700     1.800     1.900     2.000     2.200     2.400     2.600
     2.800     3.000     3.200     3.400     3.600     3.800     4.000     4.200
     4.400     4.600     4.800     5.000     5.500     6.000     6.500     7.000
     7.500     8.000     8.500     9.000     9.500    10.000    11.000    12.000
    13.000    14.000    15.000      .000      .000      .000      .000      .000
      .000      .000      .000      .000
Fourier amplitude spectra in in/sec.
  .000E+00  .000E+00  .000E+00  .000E+00  .000E+00  .000E+00  .000E+00  .000E+00
  .000E+00  .000E+00  .000E+00  .000E+00  .000E+00  .000E+00  .000E+00  .000E+00
  .000E+00  .000E+00  .000E+00  .000E+00  .000E+00  .000E+00  .000E+00  .000E+00
  .000E+00  .000E+00  .000E+00  .000E+00  .000E+00  .000E+00  .000E+00  .000E+00
  .000E+00  .000E+00  .000E+00  .000E+00  .000E+00  .000E+00  .000E+00  .000E+00
  .000E+00  .000E+00  .000E+00  .000E+00  .000E+00  .000E+00  .000E+00  .000E+00
  .000E+00  .000E+00  .000E+00  .000E+00  .000E+00  .000E+00  .000E+00  .000E+00
  .000E+00  .000E+00  .000E+00  .000E+00  .000E+00  .000E+00  .000E+00  .000E+00
  .000E+00  .000E+00  .000E+00  .000E+00  .000E+00  .000E+00  .000E+00  .000E+00
  .000E+00  .000E+00  .000E+00  .000E+00  .000E+00  .000E+00  .000E+00  .000E+00
  .000E+00  .000E+00  .000E+00  .000E+00  .000E+00  .000E+00  .000E+00  .000E+00
  .000E+00  .000E+00  .000E+00  .000E+00  .000E+00  .000E+00  .000E+00  .000E+00
  .000E+00  .000E+00  .000E+00  .000E+00
Damping =  .05. Data of Sd,Sv,Sa,Pssv,ttSd,ttSv,ttSa :
  .253E-03  .315E-03  .352E-03  .387E-03  .351E-03  .369E-03  .416E-03  .539E-03
  .667E-03  .681E-03  .101E-02  .146E-02  .200E-02  .256E-02  .317E-02  .361E-02
  .368E-02  .384E-02  .437E-02  .534E-02  .543E-02  .606E-02  .561E-02  .505E-02
  .536E-02  .584E-02  .505E-02  .431E-02  .508E-02  .673E-02  .694E-02  .676E-02
  .755E-02  .882E-02  .850E-02  .103E-01  .111E-01  .118E-01  .115E-01  .117E-01
