Response and Fourier amplitude spectra (91 periods,  .04 - 15.0 sec)   for      
Corrected accelerogram   14821-L1181-01252.11       Chan  1: 360 Deg     from   
Uncorrected Accelerogram Data             Processed: 09/10/01, CDMG  821ar011   
Record of Sun Sep  9, 2001 16:59:19 PDT               (Avol1 v4.6  7/01 CSMIP)  
CSMIP Preliminary Processing            (Origin:  To be determined)             
14821-L1181-01252.11                 Start time:  9/09/01, 23:59:19.0 UTC (GPS) 
Station No. 14821   33.968N, 118.290W      Etna  s/n 1181  (3 Channels)         
Los Angeles - Vermont & 78th                                                    
Chan  1: 360 Deg                                                                
Record of Sun Sep  9, 2001 16:59:19 PDT    Sun Sep  9, 2001 16:59:19 PDT        
Hypocenter:  To be determined.               ML:  To be determined.             
Instr Period =  .0110 sec,  Damping =  .650,  Sensitivity =  .63  v/g           
                        Record length = 43.000 sec.                             
                                     Uncor Max  =   .032 g, at   6.980 sec.     
RMS accel of (uncor) record  =        .                                         
Accelerogram bandpass filtered with 3 dB pts at   .30 and 40.00 cyc/sec         
                 instrument- and baseline-corrected                             
                                                                                
                                                                                
                                                                                
                                                                                
                                                                                
Record of Sun Sep  9, 2001 16:59:19 PDT    Sun Sep  9, 2001 16:59:19 PDT        
                                                                                
14821-L1181-01252.11      Los Angeles - Vermont & 78th    Chan  1: 360 Deg      
                                                                                
14821-L1181-01252.11      Los Angeles - Vermont & 78th    Chan  1: 360 Deg      
                                                                                
Units for spectra are inches and sec, except Sa is in fraction of g.            
                                                                                
    1  100    1    3    3  200    1    3    1   24   12 1181    014821    1    0
   23   59   19    0  252    9    9 2001   10    3  360 8600   39   28   72  360
 8600    1   50    3 1181    1   11  430    1    0    0    0    0    0    0    0
    0    4    0    0 4300    2    0    0    0    0   72   28    0    0    0 4300
    0 4300   29   91    1    3    0    0    0    0    3    0    0    0    0    2
    2    2    4    0   32   99    0   32   32    0    0    1    0    0    0    0
  -99   -1    0    0
      .011      .650    43.000      .003      .000   625.000      .032     6.980
    90.700      .298      .477      .000     5.000      .000      .000      .000
     2.500   -22.351      .000     -.034     5.000    30.000      .000      .000
     -.002     -.002     2.000    15.000    33.968  -118.290      .018      .369
    20.733     -.020      .015  -999.000      .000      .000   -13.300      .000
  1000.000     1.001      .000      .000      .000      .000      .000      .000
     4.600     4.400      .000   980.665      .010    43.000    14.435      .000
      .000    40.000      .000    43.000      .010      .300      .000      .000
     6.980    30.555     7.490     -.742    11.120      .052      .000      .300
    40.000      .010      .010      .000      .010      .028      .000      .000
      .120      .130      .068      .026      .004      .000      .000      .000
      .000      .000      .000      .000      .000      .000      .000      .000
      .000      .000      .000      .000
      .050
      .040      .042      .044      .046      .048      .050      .055      .060
      .065      .070      .075      .080      .085      .090      .095      .100
      .110      .120      .130      .140      .150      .160      .170      .180
      .190      .200      .220      .240      .260      .280      .300      .320
      .340      .360      .380      .400      .420      .440      .460      .480
      .500      .550      .600      .650      .700      .750      .800      .850
      .900      .950     1.000     1.100     1.200     1.300     1.400     1.500
     1.600     1.700     1.800     1.900     2.000     2.200     2.400     2.600
     2.800     3.000     3.200     3.400     3.600     3.800     4.000     4.200
     4.400     4.600     4.800     5.000     5.500     6.000     6.500     7.000
     7.500     8.000     8.500     9.000     9.500    10.000    11.000    12.000
    13.000    14.000    15.000      .000      .000      .000      .000      .000
      .000      .000      .000      .000
Fourier amplitude spectra in in/sec.
  .000E+00  .000E+00  .000E+00  .000E+00  .000E+00  .000E+00  .000E+00  .000E+00
  .000E+00  .000E+00  .000E+00  .000E+00  .000E+00  .000E+00  .000E+00  .000E+00
  .000E+00  .000E+00  .000E+00  .000E+00  .000E+00  .000E+00  .000E+00  .000E+00
  .000E+00  .000E+00  .000E+00  .000E+00  .000E+00  .000E+00  .000E+00  .000E+00
  .000E+00  .000E+00  .000E+00  .000E+00  .000E+00  .000E+00  .000E+00  .000E+00
  .000E+00  .000E+00  .000E+00  .000E+00  .000E+00  .000E+00  .000E+00  .000E+00
  .000E+00  .000E+00  .000E+00  .000E+00  .000E+00  .000E+00  .000E+00  .000E+00
  .000E+00  .000E+00  .000E+00  .000E+00  .000E+00  .000E+00  .000E+00  .000E+00
  .000E+00  .000E+00  .000E+00  .000E+00  .000E+00  .000E+00  .000E+00  .000E+00
  .000E+00  .000E+00  .000E+00  .000E+00  .000E+00  .000E+00  .000E+00  .000E+00
  .000E+00  .000E+00  .000E+00  .000E+00  .000E+00  .000E+00  .000E+00  .000E+00
  .000E+00  .000E+00  .000E+00  .000E+00  .000E+00  .000E+00  .000E+00  .000E+00
  .000E+00  .000E+00  .000E+00  .000E+00
Damping =  .05. Data of Sd,Sv,Sa,Pssv,ttSd,ttSv,ttSa :
  .525E-03  .578E-03  .650E-03  .741E-03  .777E-03  .942E-03  .138E-02  .247E-02
  .288E-02  .307E-02  .343E-02  .480E-02  .585E-02  .590E-02  .796E-02  .895E-02
  .810E-02  .123E-01  .197E-01  .165E-01  .242E-01  .238E-01  .247E-01  .288E-01
  .309E-01  .264E-01  .222E-01  .278E-01  .222E-01  .225E-01  .201E-01  .241E-01
  .269E-01  .281E-01  .289E-01  .306E-01  .354E-01  .434E-01  .472E-01  .487E-01
  .504E-01  .560E-01  .478E-01  .469E-01  .435E-01  .420E-01  .400E-01  .382E-01
  .363E-01  .395E-01  .358E-01  .375E-01  .361E-01  .423E-01  .510E-01  .444E-01
  .459E-01  .563E-01  .552E-01  .512E-01  .439E-01  .381E-01  .381E-01  .381E-01
  .328E-01  .279E-01  .269E-01  .273E-01  .289E-01  .300E-01  .300E-01  .291E-01
  .276E-01  .260E-01  .261E-01  .263E-01  .259E-01  .250E-01  .243E-01  .239E-01
  .237E-01  .236E-01  .236E-01  .236E-01  .236E-01  .236E-01  .235E-01  .234E-01
  .233E-01  .232E-01  .231E-01  .000E+00  .000E+00  .000E+00  .000E+00  .000E+00
  .000E+00  .000E+00  .000E+00  .000E+00
  .360E-01  .411E-01  .456E-01  .464E-01  .581E-01  .803E-01  .120E+00  .178E+00
  .213E+00  .248E+00  .262E+00  .308E+00  .405E+00  .377E+00  .435E+00  .486E+00
  .400E+00  .613E+00  .906E+00  .744E+00  .990E+00  .905E+00  .845E+00  .995E+00
  .104E+01  .868E+00  .743E+00  .744E+00  .674E+00  .639E+00  .487E+00  .494E+00
  .486E+00  .510E+00  .571E+00  .495E+00  .503E+00  .671E+00  .766E+00  .822E+00
  .827E+00  .638E+00  .581E+00  .601E+00  .550E+00  .487E+00  .454E+00  .434E+00
  .445E+00  .453E+00  .409E+00  .364E+00  .346E+00  .340E+00  .307E+00  .337E+00
  .365E+00  .372E+00  .363E+00  .346E+00  .328E+00  .309E+00  .306E+00  .302E+00
  .298E+00  .294E+00  .291E+00  .288E+00  .291E+00  .292E+00  .294E+00  .294E+00
  .295E+00  .295E+00  .295E+00  .294E+00  .294E+00  .293E+00  .292E+00  .291E+00
  .291E+00  .291E+00  .291E+00  .291E+00  .291E+00  .290E+00  .290E+00  .290E+00
  .290E+00  .290E+00  .290E+00  .000E+00  .000E+00  .000E+00  .000E+00  .000E+00
  .000E+00  .000E+00  .000E+00  .000E+00
  .336E-01  .335E-01  .344E-01  .358E-01  .346E-01  .388E-01  .469E-01  .699E-01
  .693E-01  .636E-01  .619E-01  .775E-01  .834E-01  .741E-01  .904E-01  .930E-01
  .684E-01  .895E-01  .120E+00  .875E-01  .110E+00  .948E-01  .880E-01  .922E-01
  .882E-01  .684E-01  .471E-01  .495E-01  .336E-01  .296E-01  .233E-01  .242E-01
  .238E-01  .224E-01  .205E-01  .197E-01  .208E-01  .231E-01  .231E-01  .218E-01
  .207E-01  .191E-01  .138E-01  .115E-01  .913E-02  .769E-02  .644E-02  .545E-02
  .461E-02  .452E-02  .371E-02  .321E-02  .258E-02  .259E-02  .269E-02  .205E-02
  .187E-02  .202E-02  .176E-02  .148E-02  .116E-02  .840E-03  .717E-03  .618E-03
  .468E-03  .356E-03  .301E-03  .278E-03  .265E-03  .248E-03  .227E-03  .203E-03
  .180E-03  .159E-03  .144E-03  .135E-03  .114E-03  .963E-04  .833E-04  .737E-04
  .684E-04  .636E-04  .595E-04  .557E-04  .524E-04  .495E-04  .444E-04  .402E-04
  .369E-04  .341E-04  .316E-04  .000E+00  .000E+00  .000E+00  .000E+00  .000E+00
  .000E+00  .000E+00  .000E+00  .000E+00
  .825E-01  .865E-01  .929E-01  .101E+00  .102E+00  .118E+00  .158E+00  .258E+00
  .278E+00  .275E+00  .288E+00  .377E+00  .432E+00  .412E+00  .526E+00  .562E+00
  .463E+00  .647E+00  .951E+00  .742E+00  .101E+01  .933E+00  .913E+00  .101E+01
  .102E+01  .830E+00  .634E+00  .728E+00  .535E+00  .505E+00  .420E+00  .473E+00
  .497E+00  .490E+00  .478E+00  .481E+00  .530E+00  .620E+00  .645E+00  .638E+00
  .633E+00  .639E+00  .501E+00  .453E+00  .390E+00  .352E+00  .314E+00  .282E+00
  .253E+00  .261E+00  .225E+00  .214E+00  .189E+00  .204E+00  .229E+00  .186E+00
  .180E+00  .208E+00  .193E+00  .169E+00  .138E+00  .109E+00  .997E-01  .921E-01
  .735E-01  .585E-01  .529E-01  .504E-01  .505E-01  .496E-01  .471E-01  .435E-01
  .395E-01  .356E-01  .342E-01  .331E-01  .295E-01  .262E-01  .235E-01  .214E-01
  .198E-01  .186E-01  .175E-01  .165E-01  .156E-01  .148E-01  .134E-01  .122E-01
  .113E-01  .104E-01  .969E-02  .000E+00  .000E+00  .000E+00  .000E+00  .000E+00
  .000E+00  .000E+00  .000E+00  .000E+00
  .697E+01  .697E+01  .697E+01  .697E+01  .698E+01  .670E+01  .671E+01  .697E+01
  .718E+01  .719E+01  .724E+01  .698E+01  .703E+01  .704E+01  .744E+01  .744E+01
  .752E+01  .704E+01  .706E+01  .707E+01  .708E+01  .710E+01  .755E+01  .757E+01
  .758E+01  .759E+01  .733E+01  .735E+01  .726E+01  .760E+01  .696E+01  .761E+01
  .762E+01  .763E+01  .764E+01  .579E+01  .627E+01  .629E+01  .751E+01  .753E+01
  .638E+01  .619E+01  .621E+01  .598E+01  .571E+01  .573E+01  .574E+01  .575E+01
  .577E+01  .120E+02  .135E+02  .120E+02  .200E+02  .120E+02  .123E+02  .123E+02
  .123E+02  .123E+02  .124E+02  .135E+02  .135E+02  .135E+02  .118E+02  .118E+02
  .118E+02  .118E+02  .556E+01  .118E+02  .118E+02  .118E+02  .118E+02  .118E+02
  .118E+02  .118E+02  .111E+02  .111E+02  .111E+02  .111E+02  .111E+02  .111E+02
  .111E+02  .111E+02  .111E+02  .111E+02  .111E+02  .111E+02  .111E+02  .111E+02
  .111E+02  .111E+02  .111E+02  .000E+00  .000E+00  .000E+00  .000E+00  .000E+00
  .000E+00  .000E+00  .000E+00  .000E+00
  .700E+01  .700E+01  .740E+01  .740E+01  .700E+01  .669E+01  .673E+01  .695E+01
  .716E+01  .721E+01  .722E+01  .700E+01  .701E+01  .701E+01  .741E+01  .742E+01
  .702E+01  .701E+01  .703E+01  .711E+01  .712E+01  .706E+01  .751E+01  .761E+01
  .763E+01  .764E+01  .738E+01  .740E+01  .720E+01  .699E+01  .693E+01  .767E+01
  .756E+01  .757E+01  .757E+01  .758E+01  .124E+02  .758E+01  .623E+01  .623E+01
  .624E+01  .709E+01  .615E+01  .616E+01  .616E+01  .592E+01  .592E+01  .560E+01
  .747E+01  .748E+01  .748E+01  .561E+01  .561E+01  .693E+01  .709E+01  .748E+01
  .748E+01  .748E+01  .748E+01  .748E+01  .748E+01  .616E+01  .616E+01  .616E+01
  .616E+01  .616E+01  .616E+01  .748E+01  .748E+01  .748E+01  .748E+01  .748E+01
  .748E+01  .748E+01  .748E+01  .748E+01  .748E+01  .748E+01  .748E+01  .748E+01
  .748E+01  .748E+01  .748E+01  .748E+01  .748E+01  .748E+01  .748E+01  .748E+01
  .748E+01  .748E+01  .748E+01  .000E+00  .000E+00  .000E+00  .000E+00  .000E+00
  .000E+00  .000E+00  .000E+00  .000E+00
  .697E+01  .697E+01  .697E+01  .697E+01  .698E+01  .670E+01  .671E+01  .697E+01
  .718E+01  .719E+01  .724E+01  .697E+01  .703E+01  .743E+01  .744E+01  .744E+01
  .752E+01  .704E+01  .706E+01  .707E+01  .708E+01  .718E+01  .755E+01  .756E+01
  .758E+01  .759E+01  .733E+01  .735E+01  .725E+01  .760E+01  .696E+01  .760E+01
  .761E+01  .762E+01  .763E+01  .578E+01  .627E+01  .628E+01  .750E+01  .752E+01
  .637E+01  .618E+01  .620E+01  .597E+01  .570E+01  .571E+01  .573E+01  .574E+01
  .575E+01  .120E+02  .135E+02  .120E+02  .200E+02  .120E+02  .123E+02  .123E+02
  .123E+02  .123E+02  .123E+02  .135E+02  .135E+02  .135E+02  .117E+02  .117E+02
  .117E+02  .117E+02  .117E+02  .117E+02  .117E+02  .117E+02  .117E+02  .117E+02
  .117E+02  .117E+02  .110E+02  .110E+02  .110E+02  .110E+02  .110E+02  .617E+01
  .617E+01  .617E+01  .617E+01  .617E+01  .617E+01  .617E+01  .617E+01  .616E+01
  .616E+01  .616E+01  .616E+01  .000E+00  .000E+00  .000E+00  .000E+00  .000E+00
  .000E+00  .000E+00  .000E+00  .000E+00
/&   ----------  End of spectral data for channel  1  ----------
Response and Fourier amplitude spectra (91 periods,  .04 - 15.0 sec)   for      
Corrected accelerogram   14821-L1181-01252.11       Chan  2:  Up         from   
Uncorrected Accelerogram Data             Processed: 09/10/01, CDMG  821ar011   
Record of Sun Sep  9, 2001 16:59:19 PDT               (Avol1 v4.6  7/01 CSMIP)  
CSMIP Preliminary Processing            (Origin:  To be determined)             
14821-L1181-01252.11                 Start time:  9/09/01, 23:59:19.0 UTC (GPS) 
Station No. 14821   33.968N, 118.290W      Etna  s/n 1181  (3 Channels)         
Los Angeles - Vermont & 78th                                                    
Chan  2:  Up                                                                    
Record of Sun Sep  9, 2001 16:59:19 PDT    Sun Sep  9, 2001 16:59:19 PDT        
Hypocenter:  To be determined.               ML:  To be determined.             
Instr Period =  .0103 sec,  Damping =  .660,  Sensitivity =  .63  v/g           
                        Record length = 43.000 sec.                             
                                     Uncor Max  =  -.026 g, at   3.035 sec.     
RMS accel of (uncor) record  =        .                                         
Accelerogram bandpass filtered with 3 dB pts at   .30 and 40.00 cyc/sec         
                 instrument- and baseline-corrected                             
                                                                                
                                                                                
                                                                                
                                                                                
                                                                                
Record of Sun Sep  9, 2001 16:59:19 PDT    Sun Sep  9, 2001 16:59:19 PDT        
                                                                                
14821-L1181-01252.11      Los Angeles - Vermont & 78th    Chan  2:  Up          
                                                                                
14821-L1181-01252.11      Los Angeles - Vermont & 78th    Chan  2:  Up          
                                                                                
Units for spectra are inches and sec, except Sa is in fraction of g.            
                                                                                
    2  100    2    3    3  200    1    3    1   24   12 1181    014821    1    0
   23   59   19    0  252    9    9 2001   10    3  500 8600   39   28   72  360
 8600    1   50    3 1181    1   11  430    1    0    0    0    0    0    0    0
    0    4    0    0 4300    2    0    0    0    0   72   28    0    0    0 4300
    0 4300   29   91    1    3    0    0    0    0    3    0    0    0    0    2
    2    2    4    0   32   99    0   32   32    0    0    1    0    0    0    0
  -99   -1    0    0
      .010      .660    43.000      .002      .000   625.000     -.026     3.035
    96.700      .298      .477      .000     5.000      .000      .000      .000
     2.500   -26.018      .000     -.030     5.000    30.000      .000      .001
     -.003     -.004     2.000    15.000    33.968  -118.290      .041      .214
     5.201     -.015      .007  -999.000      .000      .000   -13.300      .000
  1000.000    -1.005      .000      .000      .000      .000      .000      .000
     4.600     4.400      .000   980.665      .010    43.000    15.390      .000
      .000    40.000      .000    43.000      .010      .300      .000      .000
     3.030   -25.797     3.050     -.417     8.000      .019      .001      .300
    40.000      .010      .010      .000      .010      .017      .000      .000
      .071      .048      .032      .029      .002      .000      .000      .000
      .000      .000      .000      .000      .000      .000      .000      .000
      .000      .000      .000      .000
      .050
      .040      .042      .044      .046      .048      .050      .055      .060
      .065      .070      .075      .080      .085      .090      .095      .100
      .110      .120      .130      .140      .150      .160      .170      .180
      .190      .200      .220      .240      .260      .280      .300      .320
      .340      .360      .380      .400      .420      .440      .460      .480
      .500      .550      .600      .650      .700      .750      .800      .850
      .900      .950     1.000     1.100     1.200     1.300     1.400     1.500
     1.600     1.700     1.800     1.900     2.000     2.200     2.400     2.600
     2.800     3.000     3.200     3.400     3.600     3.800     4.000     4.200
     4.400     4.600     4.800     5.000     5.500     6.000     6.500     7.000
     7.500     8.000     8.500     9.000     9.500    10.000    11.000    12.000
    13.000    14.000    15.000      .000      .000      .000      .000      .000
      .000      .000      .000      .000
Fourier amplitude spectra in in/sec.
  .000E+00  .000E+00  .000E+00  .000E+00  .000E+00  .000E+00  .000E+00  .000E+00
  .000E+00  .000E+00  .000E+00  .000E+00  .000E+00  .000E+00  .000E+00  .000E+00
  .000E+00  .000E+00  .000E+00  .000E+00  .000E+00  .000E+00  .000E+00  .000E+00
  .000E+00  .000E+00  .000E+00  .000E+00  .000E+00  .000E+00  .000E+00  .000E+00
  .000E+00  .000E+00  .000E+00  .000E+00  .000E+00  .000E+00  .000E+00  .000E+00
  .000E+00  .000E+00  .000E+00  .000E+00  .000E+00  .000E+00  .000E+00  .000E+00
  .000E+00  .000E+00  .000E+00  .000E+00  .000E+00  .000E+00  .000E+00  .000E+00
  .000E+00  .000E+00  .000E+00  .000E+00  .000E+00  .000E+00  .000E+00  .000E+00
  .000E+00  .000E+00  .000E+00  .000E+00  .000E+00  .000E+00  .000E+00  .000E+00
  .000E+00  .000E+00  .000E+00  .000E+00  .000E+00  .000E+00  .000E+00  .000E+00
  .000E+00  .000E+00  .000E+00  .000E+00  .000E+00  .000E+00  .000E+00  .000E+00
  .000E+00  .000E+00  .000E+00  .000E+00  .000E+00  .000E+00  .000E+00  .000E+00
  .000E+00  .000E+00  .000E+00  .000E+00
Damping =  .05. Data of Sd,Sv,Sa,Pssv,ttSd,ttSv,ttSa :
  .676E-03  .824E-03  .103E-02  .137E-02  .159E-02  .152E-02  .133E-02  .212E-02
  .287E-02  .306E-02  .354E-02  .397E-02  .470E-02  .543E-02  .599E-02  .644E-02
  .705E-02  .858E-02  .908E-02  .117E-01  .119E-01  .106E-01  .843E-02  .998E-02
  .128E-01  .118E-01  .134E-01  .171E-01  .218E-01  .244E-01  .261E-01  .241E-01
  .170E-01  .161E-01  .153E-01  .153E-01  .181E-01  .208E-01  .232E-01  .219E-01
