Response and Fourier amplitude spectra (91 periods,  .04 - 15.0 sec)   for      
Corrected accelerogram   24400-L1855-01252.01       Chan  3:  90 Deg     from   
Uncorrected Accelerogram Data             Processed: 09/10/01, CDMG  400as001   
Record of Sun Sep  9, 2001 16:59:22 PDT               (Avol1 v4.6  7/01 CSMIP)  
CSMIP Preliminary Processing            (Origin:  To be determined)             
24400-L1855-01252.01                 Start time:  9/09/01, 23:59:22.0 UTC (GPS) 
Station No. 24400   34.037N, 118.178W      Etna  s/n 1855  (3 Channels)         
(real time, in parallel)                                                        
Chan  3:  90 Deg                                                                
Record of Sun Sep  9, 2001 16:59:22 PDT    Sun Sep  9, 2001 16:59:22 PDT        
Hypocenter:  To be determined.               ML:  To be determined.
Instr Period =  .0104 sec,  Damping =  .680,  Sensitivity =  .63  v/g
                        Record length = 38.000 sec.
                                     Uncor Max  =   .022 g, at   4.820 sec.
RMS accel of (uncor) record  =        .
Accelerogram bandpass filtered with 3 dB pts at   .30 and 23.00 cyc/sec
                 instrument- and baseline-corrected





Record of Sun Sep  9, 2001 16:59:22 PDT    Sun Sep  9, 2001 16:59:22 PDT

24400-L1855-01252.01      (real time, in parallel)    Chan  3:  90 Deg

24400-L1855-01252.01      (real time, in parallel)    Chan  3:  90 Deg

Units for spectra are inches and sec, except Sa is in fraction of g.

    3  100    3    3    3  100    1    3    1   24   12 1855    024400    1    0
   23   59   22    0  252    9    9 2001   10    3   90 3800   39   24   72  360
 3800    1   50    3 1855    1    1  380    1    0    0    0    0    0    0    0
    0    4    0    0 1900    2    0    0    0    0   72   24    0    0    0 1900
    0 1900   25   91    1    3    0    0    0    0    3    0    0    0    0    2
    2    2    4    0   32   82    0   32   32    0    0    1    0    0    0    0
  -99   -1    0    0
      .010      .680    38.000      .002      .000   625.000      .022     4.820
    95.700      .298      .477      .000    10.000      .000      .000      .000
     2.500    18.527      .025     -.002     5.000    30.000      .000      .001
     -.001     -.002     2.000    15.000    34.037  -118.178      .331      .374
     1.131     -.067      .063  -999.000      .000      .000   -13.400      .000
  1000.000     1.019      .000      .000      .000      .000      .000      .000
     4.600     4.400      .000   980.665      .020    38.000    15.231      .000
      .000    23.000      .000    38.000      .020      .300      .000      .000
     4.820    21.254     4.660      .727     4.740      .033      .000      .300
    23.000      .020      .020      .000      .020      .020      .000      .000
      .078      .190      .073      .032      .004      .000      .000      .000
      .000      .000      .000      .000      .000      .000      .000      .000
      .000      .000      .000      .000
      .050
      .040      .042      .044      .046      .048      .050      .055      .060
      .065      .070      .075      .080      .085      .090      .095      .100
      .110      .120      .130      .140      .150      .160      .170      .180
      .190      .200      .220      .240      .260      .280      .300      .320
      .340      .360      .380      .400      .420      .440      .460      .480
      .500      .550      .600      .650      .700      .750      .800      .850
      .900      .950     1.000     1.100     1.200     1.300     1.400     1.500
     1.600     1.700     1.800     1.900     2.000     2.200     2.400     2.600
     2.800     3.000     3.200     3.400     3.600     3.800     4.000     4.200
     4.400     4.600     4.800     5.000     5.500     6.000     6.500     7.000
     7.500     8.000     8.500     9.000     9.500    10.000    11.000    12.000
    13.000    14.000    15.000      .000      .000      .000      .000      .000
      .000      .000      .000      .000
Fourier amplitude spectra in in/sec.
  .000E+00  .000E+00  .000E+00  .000E+00  .000E+00  .000E+00  .000E+00  .000E+00
  .000E+00  .000E+00  .000E+00  .000E+00  .000E+00  .000E+00  .000E+00  .000E+00
  .000E+00  .000E+00  .000E+00  .000E+00  .000E+00  .000E+00  .000E+00  .000E+00
  .000E+00  .000E+00  .000E+00  .000E+00  .000E+00  .000E+00  .000E+00  .000E+00
  .000E+00  .000E+00  .000E+00  .000E+00  .000E+00  .000E+00  .000E+00  .000E+00
  .000E+00  .000E+00  .000E+00  .000E+00  .000E+00  .000E+00  .000E+00  .000E+00
  .000E+00  .000E+00  .000E+00  .000E+00  .000E+00  .000E+00  .000E+00  .000E+00
  .000E+00  .000E+00  .000E+00  .000E+00  .000E+00  .000E+00  .000E+00  .000E+00
  .000E+00  .000E+00  .000E+00  .000E+00  .000E+00  .000E+00  .000E+00  .000E+00
  .000E+00  .000E+00  .000E+00  .000E+00  .000E+00  .000E+00  .000E+00  .000E+00
  .000E+00  .000E+00  .000E+00  .000E+00  .000E+00  .000E+00  .000E+00  .000E+00
  .000E+00  .000E+00  .000E+00  .000E+00  .000E+00  .000E+00  .000E+00  .000E+00
  .000E+00  .000E+00  .000E+00  .000E+00
Damping =  .05. Data of Sd,Sv,Sa,Pssv,ttSd,ttSv,ttSa :
  .350E-03  .388E-03  .432E-03  .486E-03  .552E-03  .601E-03  .757E-03  .974E-03
  .120E-02  .143E-02  .185E-02  .227E-02  .227E-02  .296E-02  .365E-02  .371E-02
  .562E-02  .625E-02  .755E-02  .959E-02  .137E-01  .181E-01  .216E-01  .247E-01
  .277E-01  .296E-01  .308E-01  .300E-01  .316E-01  .310E-01  .276E-01  .245E-01
  .249E-01  .270E-01  .292E-01  .340E-01  .352E-01  .343E-01  .362E-01  .361E-01
  .344E-01  .278E-01  .304E-01  .298E-01  .277E-01  .312E-01  .299E-01  .313E-01
  .410E-01  .393E-01  .352E-01  .283E-01  .320E-01  .277E-01  .247E-01  .224E-01
  .226E-01  .223E-01  .215E-01  .206E-01  .217E-01  .196E-01  .168E-01  .163E-01
  .155E-01  .148E-01  .143E-01  .140E-01  .138E-01  .137E-01  .136E-01  .135E-01
  .134E-01  .133E-01  .132E-01  .132E-01  .132E-01  .132E-01  .132E-01  .132E-01
  .132E-01  .132E-01  .132E-01  .132E-01  .132E-01  .132E-01  .132E-01  .132E-01
  .132E-01  .133E-01  .132E-01  .000E+00  .000E+00  .000E+00  .000E+00  .000E+00
  .000E+00  .000E+00  .000E+00  .000E+00
  .190E-01  .210E-01  .236E-01  .270E-01  .317E-01  .352E-01  .484E-01  .641E-01
  .791E-01  .993E-01  .121E+00  .134E+00  .151E+00  .202E+00  .243E+00  .209E+00
  .269E+00  .301E+00  .277E+00  .381E+00  .477E+00  .675E+00  .766E+00  .835E+00
  .912E+00  .956E+00  .914E+00  .858E+00  .846E+00  .736E+00  .652E+00  .561E+00
  .539E+00  .562E+00  .615E+00  .667E+00  .697E+00  .677E+00  .619E+00  .577E+00
  .598E+00  .572E+00  .507E+00  .427E+00  .352E+00  .355E+00  .353E+00  .340E+00
  .327E+00  .413E+00  .393E+00  .335E+00  .329E+00  .318E+00  .305E+00  .291E+00
  .279E+00  .286E+00  .290E+00  .292E+00  .293E+00  .293E+00  .291E+00  .289E+00
  .288E+00  .286E+00  .285E+00  .285E+00  .284E+00  .283E+00  .283E+00  .283E+00
  .282E+00  .282E+00  .282E+00  .282E+00  .281E+00  .281E+00  .281E+00  .281E+00
  .281E+00  .281E+00  .281E+00  .281E+00  .281E+00  .281E+00  .281E+00  .281E+00
  .280E+00  .280E+00  .281E+00  .000E+00  .000E+00  .000E+00  .000E+00  .000E+00
  .000E+00  .000E+00  .000E+00  .000E+00
  .224E-01  .225E-01  .229E-01  .235E-01  .245E-01  .246E-01  .257E-01  .277E-01
  .293E-01  .302E-01  .336E-01  .360E-01  .323E-01  .381E-01  .419E-01  .388E-01
  .479E-01  .449E-01  .455E-01  .503E-01  .629E-01  .720E-01  .768E-01  .780E-01
  .782E-01  .753E-01  .662E-01  .533E-01  .479E-01  .410E-01  .312E-01  .246E-01
  .221E-01  .216E-01  .213E-01  .219E-01  .208E-01  .184E-01  .175E-01  .163E-01
  .144E-01  .952E-02  .865E-02  .738E-02  .588E-02  .575E-02  .481E-02  .449E-02
  .523E-02  .447E-02  .364E-02  .242E-02  .233E-02  .171E-02  .133E-02  .111E-02
  .997E-03  .883E-03  .775E-03  .678E-03  .595E-03  .466E-03  .379E-03  .318E-03
  .274E-03  .241E-03  .216E-03  .195E-03  .178E-03  .164E-03  .151E-03  .141E-03
  .132E-03  .125E-03  .118E-03  .113E-03  .100E-03  .906E-04  .826E-04  .758E-04
  .701E-04  .652E-04  .609E-04  .572E-04  .538E-04  .509E-04  .458E-04  .417E-04
  .382E-04  .353E-04  .328E-04  .000E+00  .000E+00  .000E+00  .000E+00  .000E+00
  .000E+00  .000E+00  .000E+00  .000E+00
  .550E-01  .581E-01  .616E-01  .664E-01  .723E-01  .756E-01  .865E-01  .102E+00
  .116E+00  .128E+00  .155E+00  .178E+00  .168E+00  .207E+00  .241E+00  .233E+00
  .321E+00  .327E+00  .365E+00  .430E+00  .574E+00  .712E+00  .799E+00  .862E+00
  .917E+00  .930E+00  .879E+00  .786E+00  .763E+00  .696E+00  .578E+00  .482E+00
  .460E+00  .471E+00  .483E+00  .535E+00  .527E+00  .489E+00  .494E+00  .472E+00
  .433E+00  .317E+00  .318E+00  .288E+00  .248E+00  .262E+00  .235E+00  .231E+00
  .286E+00  .260E+00  .221E+00  .161E+00  .168E+00  .134E+00  .111E+00  .936E-01
  .889E-01  .823E-01  .751E-01  .681E-01  .681E-01  .559E-01  .439E-01  .393E-01
  .347E-01  .310E-01  .281E-01  .259E-01  .241E-01  .226E-01  .213E-01  .202E-01
  .191E-01  .182E-01  .173E-01  .166E-01  .151E-01  .138E-01  .127E-01  .118E-01
  .110E-01  .103E-01  .974E-02  .920E-02  .873E-02  .829E-02  .754E-02  .693E-02
  .640E-02  .596E-02  .555E-02  .000E+00  .000E+00  .000E+00  .000E+00  .000E+00
  .000E+00  .000E+00  .000E+00  .000E+00
  .473E+01  .473E+01  .482E+01  .482E+01  .482E+01  .482E+01  .482E+01  .473E+01
  .474E+01  .475E+01  .459E+01  .459E+01  .460E+01  .568E+01  .579E+01  .584E+01
  .528E+01  .536E+01  .462E+01  .471E+01  .472E+01  .483E+01  .493E+01  .494E+01
  .495E+01  .506E+01  .530E+01  .488E+01  .478E+01  .480E+01  .480E+01  .480E+01
  .480E+01  .480E+01  .480E+01  .526E+01  .528E+01  .470E+01  .470E+01  .470E+01
  .472E+01  .456E+01  .458E+01  .458E+01  .460E+01  .107E+02  .116E+02  .972E+01
  .892E+01  .898E+01  .862E+01  .878E+01  .880E+01  .782E+01  .730E+01  .470E+01
  .470E+01  .470E+01  .470E+01  .472E+01  .782E+01  .782E+01  .730E+01  .730E+01
  .730E+01  .730E+01  .730E+01  .730E+01  .730E+01  .730E+01  .730E+01  .730E+01
  .730E+01  .730E+01  .472E+01  .472E+01  .472E+01  .472E+01  .472E+01  .472E+01
  .472E+01  .472E+01  .472E+01  .472E+01  .472E+01  .472E+01  .472E+01  .472E+01
  .472E+01  .472E+01  .472E+01  .000E+00  .000E+00  .000E+00  .000E+00  .000E+00
  .000E+00  .000E+00  .000E+00  .000E+00
  .484E+01  .484E+01  .484E+01  .484E+01  .484E+01  .484E+01  .569E+01  .484E+01
  .569E+01  .467E+01  .467E+01  .570E+01  .575E+01  .575E+01  .571E+01  .572E+01
  .531E+01  .533E+01  .554E+01  .599E+01  .468E+01  .487E+01  .488E+01  .489E+01
  .490E+01  .490E+01  .536E+01  .482E+01  .484E+01  .484E+01  .474E+01  .474E+01
  .474E+01  .474E+01  .474E+01  .476E+01  .476E+01  .476E+01  .476E+01  .464E+01
  .464E+01  .464E+01  .466E+01  .466E+01  .466E+01  .454E+01  .454E+01  .454E+01
  .884E+01  .884E+01  .886E+01  .476E+01  .476E+01  .476E+01  .476E+01  .476E+01
  .464E+01  .464E+01  .464E+01  .464E+01  .464E+01  .464E+01  .466E+01  .466E+01
  .466E+01  .466E+01  .466E+01  .466E+01  .466E+01  .466E+01  .466E+01  .466E+01
  .466E+01  .466E+01  .466E+01  .466E+01  .466E+01  .466E+01  .466E+01  .466E+01
  .466E+01  .466E+01  .466E+01  .466E+01  .466E+01  .466E+01  .466E+01  .466E+01
  .466E+01  .466E+01  .466E+01  .000E+00  .000E+00  .000E+00  .000E+00  .000E+00
  .000E+00  .000E+00  .000E+00  .000E+00
  .473E+01  .473E+01  .482E+01  .482E+01  .482E+01  .482E+01  .482E+01  .473E+01
  .474E+01  .475E+01  .481E+01  .459E+01  .459E+01  .568E+01  .569E+01  .584E+01
  .528E+01  .536E+01  .461E+01  .462E+01  .472E+01  .483E+01  .492E+01  .493E+01
  .494E+01  .504E+01  .530E+01  .488E+01  .478E+01  .478E+01  .480E+01  .480E+01
  .480E+01  .480E+01  .480E+01  .524E+01  .526E+01  .468E+01  .470E+01  .470E+01
  .470E+01  .456E+01  .456E+01  .458E+01  .458E+01  .107E+02  .116E+02  .970E+01
  .892E+01  .896E+01  .862E+01  .876E+01  .878E+01  .780E+01  .728E+01  .468E+01
  .468E+01  .468E+01  .468E+01  .468E+01  .468E+01  .468E+01  .468E+01  .468E+01
  .468E+01  .468E+01  .468E+01  .468E+01  .468E+01  .468E+01  .468E+01  .468E+01
  .466E+01  .466E+01  .466E+01  .466E+01  .466E+01  .466E+01  .466E+01  .466E+01
  .466E+01  .466E+01  .466E+01  .466E+01  .466E+01  .466E+01  .466E+01  .466E+01
  .466E+01  .466E+01  .466E+01  .000E+00  .000E+00  .000E+00  .000E+00  .000E+00
  .000E+00  .000E+00  .000E+00  .000E+00
/&   ----------  End of spectral data for channel  3  ----------
