Response and Fourier amplitude spectra (91 periods,  .04 - 15.0 sec)   for      
Corrected accelerogram   24400-L1855-01252.01       Chan  2:  Up         from   
Uncorrected Accelerogram Data             Processed: 09/10/01, CDMG  400as001   
Record of Sun Sep  9, 2001 16:59:22 PDT               (Avol1 v4.6  7/01 CSMIP)  
CSMIP Preliminary Processing            (Origin:  To be determined)             
24400-L1855-01252.01                 Start time:  9/09/01, 23:59:22.0 UTC (GPS) 
Station No. 24400   34.037N, 118.178W      Etna  s/n 1855  (3 Channels)         
(real time, in parallel)                                                        
Chan  2:  Up                                                                    
Record of Sun Sep  9, 2001 16:59:22 PDT    Sun Sep  9, 2001 16:59:22 PDT        
Hypocenter:  To be determined.               ML:  To be determined.
Instr Period =  .0106 sec,  Damping =  .680,  Sensitivity =  .63  v/g
                        Record length = 38.000 sec.
                                     Uncor Max  =  -.010 g, at   4.900 sec.
RMS accel of (uncor) record  =        .
Accelerogram bandpass filtered with 3 dB pts at   .30 and 23.00 cyc/sec
                 instrument- and baseline-corrected





Record of Sun Sep  9, 2001 16:59:22 PDT    Sun Sep  9, 2001 16:59:22 PDT

24400-L1855-01252.01      (real time, in parallel)    Chan  2:  Up

24400-L1855-01252.01      (real time, in parallel)    Chan  2:  Up

Units for spectra are inches and sec, except Sa is in fraction of g.

    2  100    2    3    3  100    1    3    1   24   12 1855    024400    1    0
   23   59   22    0  252    9    9 2001   10    3  500 3800   39   24   72  360
 3800    1   50    3 1855    1    1  380    1    0    0    0    0    0    0    0
    0    4    0    0 1900    2    0    0    0    0   72   24    0    0    0 1900
    0 1900   25   91    1    3    0    0    0    0    3    0    0    0    0    2
    2    2    4    0   32   82    0   32   32    0    0    1    0    0    0    0
  -99   -1    0    0
      .011      .680    38.000      .001      .000   625.000     -.010     4.900
    93.900      .298      .477      .000    10.000      .000      .000      .000
     2.500   -23.820     -.009     -.021     5.000    30.000      .000      .002
      .003      .001     2.000    15.000    34.037  -118.178      .944      .209
      .221     -.172      .173  -999.000      .000      .000   -13.400      .000
  1000.000    -1.015      .000      .000      .000      .000      .000      .000
     4.600     4.400      .000   980.665      .020    38.000    14.945      .000
      .000    23.000      .000    38.000      .020      .300      .000      .000
     4.900    -9.493     4.860      .249     4.560      .015      .000      .300
    23.000      .020      .020      .000      .020      .010      .000      .000
      .032      .150      .018      .010      .001      .000      .000      .000
      .000      .000      .000      .000      .000      .000      .000      .000
      .000      .000      .000      .000
      .050
      .040      .042      .044      .046      .048      .050      .055      .060
      .065      .070      .075      .080      .085      .090      .095      .100
      .110      .120      .130      .140      .150      .160      .170      .180
      .190      .200      .220      .240      .260      .280      .300      .320
      .340      .360      .380      .400      .420      .440      .460      .480
      .500      .550      .600      .650      .700      .750      .800      .850
      .900      .950     1.000     1.100     1.200     1.300     1.400     1.500
     1.600     1.700     1.800     1.900     2.000     2.200     2.400     2.600
     2.800     3.000     3.200     3.400     3.600     3.800     4.000     4.200
     4.400     4.600     4.800     5.000     5.500     6.000     6.500     7.000
     7.500     8.000     8.500     9.000     9.500    10.000    11.000    12.000
    13.000    14.000    15.000      .000      .000      .000      .000      .000
      .000      .000      .000      .000
Fourier amplitude spectra in in/sec.
  .000E+00  .000E+00  .000E+00  .000E+00  .000E+00  .000E+00  .000E+00  .000E+00
  .000E+00  .000E+00  .000E+00  .000E+00  .000E+00  .000E+00  .000E+00  .000E+00
  .000E+00  .000E+00  .000E+00  .000E+00  .000E+00  .000E+00  .000E+00  .000E+00
  .000E+00  .000E+00  .000E+00  .000E+00  .000E+00  .000E+00  .000E+00  .000E+00
  .000E+00  .000E+00  .000E+00  .000E+00  .000E+00  .000E+00  .000E+00  .000E+00
  .000E+00  .000E+00  .000E+00  .000E+00  .000E+00  .000E+00  .000E+00  .000E+00
  .000E+00  .000E+00  .000E+00  .000E+00  .000E+00  .000E+00  .000E+00  .000E+00
  .000E+00  .000E+00  .000E+00  .000E+00  .000E+00  .000E+00  .000E+00  .000E+00
  .000E+00  .000E+00  .000E+00  .000E+00  .000E+00  .000E+00  .000E+00  .000E+00
  .000E+00  .000E+00  .000E+00  .000E+00  .000E+00  .000E+00  .000E+00  .000E+00
  .000E+00  .000E+00  .000E+00  .000E+00  .000E+00  .000E+00  .000E+00  .000E+00
  .000E+00  .000E+00  .000E+00  .000E+00  .000E+00  .000E+00  .000E+00  .000E+00
  .000E+00  .000E+00  .000E+00  .000E+00
Damping =  .05. Data of Sd,Sv,Sa,Pssv,ttSd,ttSv,ttSa :
  .165E-03  .187E-03  .214E-03  .240E-03  .275E-03  .349E-03  .495E-03  .620E-03
  .677E-03  .798E-03  .939E-03  .144E-02  .160E-02  .168E-02  .221E-02  .251E-02
  .271E-02  .299E-02  .404E-02  .486E-02  .690E-02  .670E-02  .613E-02  .701E-02
  .627E-02  .653E-02  .910E-02  .930E-02  .787E-02  .822E-02  .829E-02  .106E-01
  .141E-01  .159E-01  .161E-01  .151E-01  .156E-01  .168E-01  .178E-01  .170E-01
  .168E-01  .169E-01  .145E-01  .123E-01  .103E-01  .108E-01  .110E-01  .126E-01
  .113E-01  .107E-01  .810E-02  .817E-02  .922E-02  .103E-01  .127E-01  .146E-01
  .140E-01  .149E-01  .130E-01  .119E-01  .106E-01  .102E-01  .962E-02  .892E-02
  .888E-02  .907E-02  .928E-02  .877E-02  .785E-02  .806E-02  .790E-02  .728E-02
  .654E-02  .632E-02  .633E-02  .632E-02  .625E-02  .617E-02  .609E-02  .602E-02
  .598E-02  .598E-02  .597E-02  .596E-02  .596E-02  .594E-02  .593E-02  .592E-02
  .591E-02  .590E-02  .588E-02  .000E+00  .000E+00  .000E+00  .000E+00  .000E+00
  .000E+00  .000E+00  .000E+00  .000E+00
  .953E-02  .111E-01  .127E-01  .144E-01  .171E-01  .241E-01  .378E-01  .517E-01
  .532E-01  .537E-01  .612E-01  .930E-01  .115E+00  .102E+00  .121E+00  .144E+00
  .150E+00  .156E+00  .174E+00  .198E+00  .295E+00  .279E+00  .241E+00  .249E+00
  .223E+00  .212E+00  .242E+00  .244E+00  .211E+00  .191E+00  .169E+00  .190E+00
  .267E+00  .318E+00  .281E+00  .245E+00  .248E+00  .276E+00  .283E+00  .252E+00
  .222E+00  .229E+00  .211E+00  .168E+00  .139E+00  .144E+00  .137E+00  .120E+00
  .111E+00  .110E+00  .115E+00  .122E+00  .118E+00  .108E+00  .105E+00  .101E+00
  .991E-01  .933E-01  .945E-01  .958E-01  .969E-01  .981E-01  .982E-01  .977E-01
  .969E-01  .962E-01  .956E-01  .951E-01  .948E-01  .946E-01  .945E-01  .945E-01
  .945E-01  .945E-01  .945E-01  .946E-01  .947E-01  .948E-01  .949E-01  .950E-01
  .951E-01  .951E-01  .952E-01  .952E-01  .952E-01  .952E-01  .953E-01  .953E-01
  .953E-01  .953E-01  .953E-01  .000E+00  .000E+00  .000E+00  .000E+00  .000E+00
  .000E+00  .000E+00  .000E+00  .000E+00
  .106E-01  .109E-01  .113E-01  .115E-01  .123E-01  .142E-01  .170E-01  .176E-01
  .166E-01  .167E-01  .169E-01  .230E-01  .231E-01  .211E-01  .249E-01  .258E-01
  .226E-01  .216E-01  .242E-01  .251E-01  .316E-01  .273E-01  .217E-01  .222E-01
  .178E-01  .173E-01  .190E-01  .169E-01  .121E-01  .107E-01  .944E-02  .108E-01
  .125E-01  .127E-01  .116E-01  .969E-02  .912E-02  .894E-02  .856E-02  .768E-02
  .683E-02  .573E-02  .415E-02  .299E-02  .215E-02  .196E-02  .178E-02  .179E-02
  .144E-02  .123E-02  .838E-03  .698E-03  .672E-03  .638E-03  .675E-03  .675E-03
  .572E-03  .531E-03  .425E-03  .347E-03  .284E-03  .229E-03  .187E-03  .148E-03
  .128E-03  .115E-03  .104E-03  .863E-04  .692E-04  .666E-04  .600E-04  .566E-04
  .534E-04  .504E-04  .476E-04  .449E-04  .393E-04  .348E-04  .311E-04  .282E-04
  .257E-04  .236E-04  .219E-04  .204E-04  .191E-04  .179E-04  .160E-04  .144E-04
  .131E-04  .120E-04  .111E-04  .000E+00  .000E+00  .000E+00  .000E+00  .000E+00
  .000E+00  .000E+00  .000E+00  .000E+00
  .259E-01  .280E-01  .306E-01  .327E-01  .360E-01  .438E-01  .566E-01  .649E-01
  .654E-01  .716E-01  .787E-01  .113E+00  .118E+00  .118E+00  .146E+00  .158E+00
  .155E+00  .156E+00  .195E+00  .218E+00  .289E+00  .263E+00  .227E+00  .245E+00
  .207E+00  .205E+00  .260E+00  .244E+00  .190E+00  .184E+00  .174E+00  .209E+00
  .261E+00  .277E+00  .265E+00  .237E+00  .233E+00  .241E+00  .243E+00  .222E+00
  .211E+00  .193E+00  .152E+00  .119E+00  .922E-01  .902E-01  .863E-01  .933E-01
  .791E-01  .710E-01  .509E-01  .467E-01  .483E-01  .499E-01  .570E-01  .610E-01
  .548E-01  .551E-01  .455E-01  .393E-01  .332E-01  .292E-01  .252E-01  .215E-01
  .199E-01  .190E-01  .182E-01  .162E-01  .137E-01  .133E-01  .124E-01  .109E-01
  .934E-02  .864E-02  .829E-02  .794E-02  .714E-02  .646E-02  .588E-02  .541E-02
  .501E-02  .470E-02  .441E-02  .416E-02  .394E-02  .374E-02  .339E-02  .310E-02
  .286E-02  .265E-02  .246E-02  .000E+00  .000E+00  .000E+00  .000E+00  .000E+00
  .000E+00  .000E+00  .000E+00  .000E+00
  .489E+01  .489E+01  .489E+01  .489E+01  .489E+01  .489E+01  .489E+01  .503E+01
  .503E+01  .577E+01  .577E+01  .577E+01  .579E+01  .479E+01  .457E+01  .457E+01
  .526E+01  .458E+01  .480E+01  .481E+01  .513E+01  .507E+01  .526E+01  .948E+01
  .494E+01  .580E+01  .950E+01  .964E+01  .842E+01  .968E+01  .123E+02  .494E+01
  .496E+01  .518E+01  .522E+01  .522E+01  .524E+01  .506E+01  .508E+01  .508E+01
  .488E+01  .794E+01  .726E+01  .728E+01  .730E+01  .197E+02  .100E+02  .219E+02
  .216E+02  .191E+02  .187E+02  .155E+02  .876E+01  .878E+01  .820E+01  .822E+01
  .121E+02  .298E+02  .780E+01  .782E+01  .712E+01  .213E+02  .712E+01  .748E+01
  .622E+01  .233E+02  .195E+02  .148E+02  .119E+02  .123E+02  .123E+02  .123E+02
  .123E+02  .576E+01  .576E+01  .576E+01  .576E+01  .576E+01  .576E+01  .576E+01
  .454E+01  .454E+01  .454E+01  .454E+01  .454E+01  .454E+01  .454E+01  .454E+01
  .454E+01  .454E+01  .454E+01  .000E+00  .000E+00  .000E+00  .000E+00  .000E+00
  .000E+00  .000E+00  .000E+00  .000E+00
  .488E+01  .488E+01  .488E+01  .574E+01  .488E+01  .488E+01  .500E+01  .516E+01
  .520E+01  .579E+01  .579E+01  .579E+01  .585E+01  .494E+01  .459E+01  .460E+01
  .523E+01  .461E+01  .483E+01  .484E+01  .510E+01  .511E+01  .505E+01  .498E+01
  .498E+01  .576E+01  .944E+01  .960E+01  .848E+01  .100E+02  .962E+01  .124E+02
  .490E+01  .490E+01  .492E+01  .572E+01  .492E+01  .518E+01  .518E+01  .518E+01
  .480E+01  .480E+01  .482E+01  .484E+01  .484E+01  .484E+01  .484E+01  .484E+01
  .484E+01  .484E+01  .484E+01  .484E+01  .484E+01  .484E+01  .458E+01  .458E+01
  .870E+01  .458E+01  .484E+01  .484E+01  .484E+01  .484E+01  .484E+01  .484E+01
  .484E+01  .484E+01  .484E+01  .484E+01  .484E+01  .484E+01  .484E+01  .484E+01
  .484E+01  .484E+01  .484E+01  .484E+01  .484E+01  .484E+01  .484E+01  .484E+01
  .484E+01  .484E+01  .484E+01  .484E+01  .484E+01  .484E+01  .484E+01  .484E+01
  .484E+01  .484E+01  .484E+01  .000E+00  .000E+00  .000E+00  .000E+00  .000E+00
  .000E+00  .000E+00  .000E+00  .000E+00
  .489E+01  .489E+01  .489E+01  .489E+01  .489E+01  .489E+01  .489E+01  .503E+01
  .503E+01  .577E+01  .577E+01  .577E+01  .578E+01  .479E+01  .457E+01  .457E+01
  .526E+01  .464E+01  .480E+01  .481E+01  .513E+01  .507E+01  .526E+01  .948E+01
  .494E+01  .580E+01  .950E+01  .964E+01  .840E+01  .101E+02  .123E+02  .494E+01
  .496E+01  .518E+01  .520E+01  .522E+01  .522E+01  .506E+01  .506E+01  .508E+01
  .486E+01  .794E+01  .724E+01  .726E+01  .728E+01  .197E+02  .100E+02  .219E+02
  .216E+02  .191E+02  .640E+01  .155E+02  .874E+01  .874E+01  .818E+01  .820E+01
  .121E+02  .297E+02  .778E+01  .778E+01  .710E+01  .710E+01  .710E+01  .710E+01
  .618E+01  .940E+01  .940E+01  .940E+01  .940E+01  .122E+02  .122E+02  .572E+01
  .572E+01  .572E+01  .572E+01  .572E+01  .572E+01  .572E+01  .572E+01  .572E+01
  .572E+01  .572E+01  .572E+01  .572E+01  .572E+01  .572E+01  .572E+01  .572E+01
  .572E+01  .572E+01  .572E+01  .000E+00  .000E+00  .000E+00  .000E+00  .000E+00
  .000E+00  .000E+00  .000E+00  .000E+00
/&   ----------  End of spectral data for channel  2  ----------
