Uncorrected acceleration  (Format v01.20 with 13 text lines)
Record of     Cascade, ID Earthquake of Tue Apr 21, 2020 05:58 UTC
Hypocenter: 44.41870 -115.21680 H= 10km Mb=4.1
Origin: 2020/04/21 05:58:01    UTC
Statn No: 64-001259 Code:IW-PLID     IW  Pearl Lake, Idaho, USA
Coords: 45.0876 -116.0003  Site geology:
Recorder: (see cmnt)      ( ? Chns of   3 at Sta) Sensor: (see comment)    
Rcrd start time: 2020/04/21 05:57:50.265 UTC (Q=5) RcrdId: (see comment)
Sta Chan   ?:360 Deg (Rcrdr Chan  ?) Location:
Raw record length = 119.820 sec, Uncor max =    192532, at  44.350 sec.
Processed:2020-07-29 19:29:15 GMT, USGS, Max =    1.363 cm/sec2 at   44.670 sec
Record filtered below       Hz (periods over       secs), and above      Hz
Values used when parameter or data value is unknown/unspecified:   -999, -999.00
 100 Integer-header values follow on  10 lines, Format= (10I8)
       1       1       4     120       1    -999    -999    1259    -999    -999
      64      64    -999       2    -999       1    -999    -999       4    -999
    -999    -999       3    -999    -999    -999    -999    -999    -999    1000
       3    -999    -999    -999       0       0    -999    -999    -999    2020
     112       4      21       5      57       5       5    -999    -999    -999
    -999     900    -999     360    -999    -999    -999    -999    -999    -999
    -999    -999    -999    -999    -999    -999    -999    -999    -999    -999
    -999    -999    -999    -999       1       0    -999    -999    -999    -999
    -999    -999    -999    -999    -999    -999    -999    -999    -999    -999
    -999    -999    -999    -999    -999    -999    -999    -999    -999    -999
 100 Real-header values follow on  20 lines, Format= (5F15.6)
      45.087570    -116.000252    2164.400000    -999.000000    -999.000000
    -999.000000    -999.000000    -999.000000    -999.000000      44.418700
    -115.216800      10.000000    -999.000000    -999.000000    -999.000000
       4.100000      96.741505     320.246312    -999.000000    -999.000000
    -999.000000       1.588999    -999.000000      26.821084      93.000000
      40.000000    -999.000000    -999.000000    -999.000000      50.265000
    -999.000000       0.000000    -999.000000       0.010000     119.820000
     -29.084959    -999.000000    -999.000000    -999.000000     223.975851
       0.697089       9.920000    -999.000000    -999.000000      40.000000
    -999.000000       1.000000    -999.000000    -999.000000    -999.000000
    -999.000000    -999.000000    -999.000000    -999.000000    -999.000000
    -999.000000    -999.000000    -999.000000    -999.000000    -999.000000
    -999.000000      10.000000     119.821084       1.362574      44.670000
       0.000000    -999.000000    -999.000000    -999.000000    -999.000000
    -999.000000    -999.000000    -999.000000    -999.000000    -999.000000
    -999.000000    -999.000000    -999.000000    -999.000000    -999.000000
    -999.000000    -999.000000    -999.000000    -999.000000    -999.000000
    -999.000000    -999.000000    -999.000000    -999.000000    -999.000000
    -999.000000    -999.000000    -999.000000    -999.000000    -999.000000
    -999.000000    -999.000000    -999.000000    -999.000000    -999.000000
   5 Comment line(s) follow, each starting with a "|":
| Recorder: REFTEK 130-01 
| Sensor: KINEMETRICS EPISENSOR ES-T
| RcrdId: US.700090vm.IW.PLID.HN1.20
|<SCNL>PLID.HN1.IW.20    <AUTH> 2020/03/21 07:05:13.000
|<PROCESS> AUTO
   11982 acceleration pts, approx  119 secs, units=cm/sec2(04),Format=(1E15.6)
[...]
   1.059002e-01
   4.039610e-02
   3.324216e-03
   1.683346e-02
  -3.107723e-02
  -3.924561e-02
   4.737974e-03
  -4.458062e-04
  -8.338629e-02
  -4.898484e-02
   1.019731e-01
   8.469385e-02
   5.994648e-03
  -9.242524e-03
   1.102134e-02
   4.856448e-02
   4.557988e-02
  -1.144170e-02
  -3.170557e-02
  -1.238421e-02
  -6.202283e-02
  -7.396123e-02
  -2.416553e-02
  -3.437600e-02
  -1.065628e-02
   7.542588e-02
   4.636530e-02
   4.423805e-03
   2.657268e-02
   2.060348e-02
   4.580890e-03
  -3.249099e-02
  -8.142934e-03
   8.665080e-03
   2.067542e-03
  -3.830311e-02
  -1.141748e-01
  -5.605363e-02
  -2.275177e-02
   1.133551e-02
   9.003472e-02
   1.145399e-01
   8.705012e-02
  -2.777846e-02
  -1.038072e-01
  -9.689553e-02
  -2.149509e-02
   1.997515e-02
  -3.343350e-02
  -3.940270e-02
   3.324216e-03
   2.657268e-02
   3.317022e-02
   8.350911e-03
  -3.044890e-02
  -3.296224e-02
   1.589096e-02
   1.205091e-01
   9.773185e-02
  -2.887219e-04
  -1.702480e-03
  -5.315418e-03
   1.510553e-02
  -2.118093e-02
  -4.034520e-02
   4.872156e-02
   2.295975e-02
  -6.217991e-02
  -6.924871e-02
  -1.426922e-02
   2.390225e-02
   5.500493e-02
   7.102753e-02
   5.296284e-02
   7.385504e-02
   5.924621e-02
   3.018562e-02
  -9.399608e-03
  -7.804542e-02
  -6.862037e-02
  -5.809572e-02
  -1.072631e-01
  -8.684214e-02
  -4.380106e-02
  -5.809572e-02
  -4.065937e-02
  -1.191296e-02
  -4.458062e-04
  -1.395505e-02
  -2.605054e-02
   2.657268e-02
   8.406552e-02
   7.731089e-02
   5.359117e-02
   3.442690e-02
  -9.556692e-03
  -5.196944e-02
  -4.081646e-02
   2.625852e-02
   1.149260e-02
   1.400594e-02
   7.228420e-02
   5.736120e-02
   4.746489e-02
   3.803983e-02
   2.688685e-02
  -2.824972e-02
  -4.270147e-02
  -1.442630e-02
  -6.265117e-02
  -4.505773e-02
  -4.458062e-04
  -3.390475e-02
  -4.945609e-02
  -2.824972e-02
   2.531601e-02
   1.194095e-01
   8.877804e-02
   2.547309e-02
   2.814353e-02
  -2.479386e-02
  -6.532160e-02
  -5.102693e-02
  -4.065937e-02
  -5.275486e-02
   1.432011e-02
   5.484785e-02
  -2.400844e-02
  -1.929592e-02
   1.573387e-02
  -2.338011e-02
  -4.458062e-04
   4.118152e-02
   2.908603e-02
   5.736120e-02
   3.584065e-02
  -4.631441e-02
  -6.343659e-02
  -4.364397e-02
  -2.777846e-02
  -2.432261e-02
  -5.001249e-03
   2.861478e-02
   2.657268e-02
  -1.231227e-03
  -2.353719e-02
  -1.678257e-02
   1.856139e-02
   4.165277e-02
   5.940329e-02
   3.819692e-02
   2.123182e-02
   5.908912e-02
   4.737974e-03
  -2.652179e-02
   2.248849e-02
   1.840430e-02
  -2.762138e-02
  -8.888424e-02
  -5.919531e-02
  -3.123432e-02
  -7.380415e-02
  -6.139449e-02
  -2.620762e-02
  -3.170557e-02
  -1.395505e-02
   1.840430e-02
   3.788275e-02
   1.220799e-01
   1.329187e-01
   5.186325e-02
   7.055627e-02
   8.422260e-02
   2.295975e-02
  -4.050229e-02
  -1.086769e-01
  -1.429212e-01
  -1.413504e-01
  -6.862037e-02
   2.845769e-02
   5.736120e-02
   4.133860e-02
   2.672977e-02
   7.385504e-02
   6.772876e-02
   1.007884e-02
  -2.173733e-03
  -3.044890e-02
  -7.788834e-02
  -8.747048e-02
  -2.275177e-02
   2.123182e-02
   8.979248e-03
   1.125036e-03
  -3.280516e-02
  -3.201974e-02
   2.280266e-02
   3.348439e-02
   2.484476e-02
   5.390534e-02
   4.730780e-02
   4.840739e-02
   8.830679e-02
  -7.828766e-03
  -1.319253e-01
  -1.132323e-01
  -5.228361e-02
  -9.242524e-03
   3.615482e-02
   2.782936e-02
   3.049979e-02
   9.082014e-02
   6.301623e-02
   3.411273e-02
   5.359117e-02
   3.167131e-03
  -5.856698e-02
  -4.474356e-02
  -3.296224e-02
  -6.657827e-02
  -2.872097e-02
   7.565490e-03
   1.164968e-02
   7.652547e-02
   5.327701e-02
  -1.426922e-02
   1.573387e-02
   5.994648e-03
  -6.720661e-02
  -7.239039e-02
  -7.993043e-02
  -9.343968e-02
   1.416303e-02
   7.699673e-02
   2.735811e-02
  -2.872097e-02
  -5.338320e-02
   1.439205e-03
   6.223081e-02
   4.212402e-02
   2.381710e-03
   1.463428e-02
  -2.542220e-02
  -5.024151e-02
   2.695879e-03
  -9.085440e-03
   3.662608e-02
   8.563636e-02
   2.955728e-02
   1.683346e-02
   1.432011e-02
   2.484476e-02
   4.652238e-02
  -4.058744e-03
  -4.411523e-02
  -3.107723e-02
   1.793305e-02
   5.186325e-02
   3.709733e-02
   2.688685e-02
  -2.887219e-04
  -1.144170e-02
  -5.621071e-02
  -1.287836e-01
  -8.260087e-02
  -8.928355e-03
   2.381710e-03
  -2.432261e-02
  -1.364088e-02
  -2.887805e-02
  -7.129080e-02
  -1.945300e-02
   3.976776e-02
   7.526880e-02
   8.563636e-02
   5.359117e-02
   3.976776e-02
   3.945359e-02
  -1.269838e-02
  -5.228361e-02
  -6.060907e-02
  -5.872406e-02
  -4.788525e-02
  -5.071276e-02
   1.856139e-02
   9.380474e-02
   8.092383e-02
   2.814353e-02
   3.474106e-02
   4.620821e-02
  -1.049920e-02
   2.751519e-02
   7.636839e-02
   3.175646e-02
   4.118152e-02
   3.803983e-02
  -7.599747e-04
   2.390225e-02
   4.793614e-02
   1.416303e-02
  -7.914501e-02
  -1.663268e-01
  -1.358524e-01
   3.709733e-02
   1.688910e-01
   1.457996e-01
   8.202342e-02
   6.537249e-02
   6.584374e-02
   5.311992e-02
   9.851727e-02
   7.998133e-02
  -1.097764e-01
  -2.894808e-01
  -3.661379e-01
  -3.007909e-01
  -1.058493e-01
   4.275236e-02
   8.893513e-02
   1.259219e-02
  -2.950639e-02
   7.574005e-02
   1.578951e-01
   1.963808e-01
   1.417154e-01
   5.406243e-02
  -4.034520e-02
  -2.104674e-01
  -3.257673e-01
  -3.625250e-01
  -4.063515e-01
  -4.305425e-01
  -3.127293e-01
  -1.510896e-01
  -4.270147e-02
   6.741459e-02
   1.781590e-01
   3.718439e-01
   5.677279e-01
   6.132823e-01
   5.314414e-01
   3.247186e-01
   1.461138e-01
  -1.144170e-02
  -2.110958e-01
  -2.970209e-01
  -3.246677e-01
  -2.868104e-01
  -2.343442e-01
  -2.382714e-01
  -1.223432e-01
   1.457996e-01
   4.513285e-01
   5.370965e-01
   2.873325e-01
  -6.028904e-04
  -1.528175e-01
  -1.344387e-01
   6.977085e-02
   1.602514e-01
   1.192524e-01
   1.585234e-01
   1.605655e-01
   1.791015e-01
   2.518315e-01
   1.489413e-01
  -6.563577e-02
  -1.700968e-01
  -2.448689e-01
  -4.038381e-01
  -5.973659e-01
  -6.292540e-01
  -4.120065e-01
  -1.700968e-01
   1.057431e-01
   3.159219e-01
   2.563869e-01
   1.076282e-01
   3.898234e-02
   1.874270e-01
   3.621046e-01
   2.714670e-01
  -3.814602e-02
  -2.846112e-01
  -2.161225e-01
  -1.945300e-02
   1.519259e-01
   1.051148e-01
  -1.792077e-01
  -3.618967e-01
  -3.538854e-01
  -1.182590e-01
   1.225512e-01
   1.600943e-01
   8.767845e-02
   8.532219e-02
   2.764937e-01
   3.661888e-01
   1.706189e-01
  -8.778465e-02
  -2.131379e-01
  -2.208350e-01
  -2.101533e-01
  -1.777939e-01
  -6.375076e-02
   3.992484e-02
   8.406552e-02
   1.630789e-01
   1.904116e-01
   8.987763e-02
  -6.642119e-02
  -2.514664e-01
  -2.970209e-01
  -7.647458e-02
   1.055861e-01
   1.417154e-01
   1.473705e-01
   6.622985e-03
  -8.762756e-02
   1.308766e-01
   4.147279e-01
   4.921704e-01
   4.021611e-01
   2.939301e-01
   2.387935e-01
   1.426579e-01
  -1.482621e-01
  -5.461565e-01
  -6.876894e-01
  -5.797725e-01
  -4.459367e-01
  -2.203637e-01
   7.432629e-02
   2.871754e-01
   2.774362e-01
   1.271066e-01
   8.186634e-02
   2.559157e-01
   4.203829e-01
   2.687966e-01
   4.055318e-02
  -1.254849e-01
  -2.371718e-01
  -3.296944e-01
  -5.040579e-01
  -5.197663e-01
  -3.557704e-01
  -4.458648e-02
   2.951867e-01
   4.499147e-01
   4.122145e-01
   1.861703e-01
  -6.202283e-02
  -2.572785e-01
  -2.682744e-01
  -1.085198e-01
  -7.348998e-02
  -2.699304e-02
   1.955953e-01
   3.421549e-01
   2.576436e-01
   3.175646e-02
  -1.374233e-01
  -1.349099e-01
  -1.487333e-01
  -2.356009e-01
  -1.955444e-01
  -2.872097e-02
   1.831857e-01
   4.466160e-01
   5.824938e-01
   3.924219e-01
   2.955728e-02
  -2.282180e-01
  -3.686513e-01
  -4.561472e-01
  -3.292231e-01
  -4.081646e-02
   1.337041e-01
   1.503551e-01
   1.055861e-01
   4.605113e-02
  -1.866758e-02
   6.678625e-02
   2.714670e-01
   3.311590e-01
   1.941816e-01
  -1.664839e-01
  -6.102468e-01
  -7.103095e-01
  -3.834172e-01
   6.065996e-02
   3.600625e-01
   3.823685e-01
   2.094187e-01
   1.035440e-01
   1.828715e-01
   2.978572e-01
   2.818346e-01
   1.346466e-01
  -1.457487e-01
  -3.939418e-01
  -4.107499e-01
  -2.755003e-01
  -9.186884e-02
  -8.432879e-02
  -2.907375e-01
  -3.383340e-01
  -5.573946e-02
   3.036693e-01
   4.840020e-01
   4.781899e-01
   4.125287e-01
   3.740430e-01
   1.974803e-01
  -6.729176e-03
  -8.134419e-02
  -1.539171e-01
  -9.893763e-02
  -6.406493e-02
  -1.837631e-01
  -2.940363e-01
  -4.120065e-01
  -4.006965e-01
  -2.126666e-01
  -4.929901e-02
  -4.521482e-02
  -8.354337e-02
   1.173674e-01
   3.200061e-01
   1.456425e-01
  -8.715631e-02
  -5.008443e-02
   1.503551e-01
   3.423120e-01
   3.231477e-01
   2.188438e-01
   1.501980e-01
  -6.799203e-02
  -2.817837e-01
  -3.507437e-01
  -3.618967e-01
  -3.507437e-01
  -2.601061e-01
  -2.652179e-02
   1.156395e-01
   7.291254e-02
   8.579344e-02
   1.674773e-01
   2.788500e-01
   3.440399e-01
   2.486898e-01
   1.627647e-01
   4.919282e-02
  -5.888115e-02
  -2.196635e-02
   6.144539e-02
   1.966949e-01
   3.321015e-01
   2.728808e-01
  -1.493617e-01
  -5.288772e-01
  -6.503033e-01
  -6.737089e-01
  -3.653525e-01
  -2.982056e-02
   2.208859e-01
   6.190945e-01
   6.880544e-01
   2.647124e-01
  -1.448062e-01
  -2.734582e-01
  -2.202067e-01
  -2.510803e-02
   9.993103e-02
   2.500184e-02
  -4.490065e-02
  -7.176205e-02
  -1.726101e-01
  -2.425126e-01
  -1.181019e-01
   4.557988e-02
   1.519259e-01
   1.308766e-01
   4.580890e-03
  -7.490374e-02
  -8.747048e-02
   2.390225e-02
   1.985799e-01
   2.724095e-01
   1.626076e-01
  -2.699304e-02
  -2.043412e-01
  -3.033042e-01
  -2.274325e-01
  -1.104048e-01
  -1.364808e-01
  -1.050639e-01
   1.814577e-01
   4.197545e-01
   4.582402e-01
   3.245615e-01
   7.511172e-02
  -5.369737e-02
  -6.045199e-02
  -5.275486e-02
   9.607585e-03
   4.086735e-02
  -7.820251e-02
  -1.330249e-01
  -6.249408e-02
  -5.244069e-02
  -8.904132e-02
  -1.510896e-01
  -2.403134e-01
  -2.806841e-01
  -2.279038e-01
  -7.663166e-02
   1.552247e-01
   2.463335e-01
   1.911970e-01
   2.846621e-01
   4.507001e-01
   4.315359e-01
   1.593089e-01
  -1.564305e-01
  -3.471307e-01
  -4.592889e-01
  -3.692796e-01
  -1.036502e-01
  -3.657518e-02
  -1.680547e-01
  -1.812498e-01
  -2.903514e-02
   2.343951e-01
   5.322269e-01
   7.114600e-01
   5.850072e-01
   2.133459e-01
  -1.876902e-01
  -5.302910e-01
  -6.223423e-01
  -4.423238e-01
  -1.448062e-01
   1.479137e-02
  -6.060907e-02
  -7.081955e-02
  -3.846019e-02
  -1.487333e-01
  -2.294746e-01
  -2.652179e-02
   3.844106e-01
   6.726602e-01
   7.274826e-01
   5.314414e-01
   1.824003e-01
  -9.736678e-02
  -2.901092e-01
  -3.743063e-01
  -4.120065e-01
  -4.179757e-01
  -2.963925e-01
  -1.600434e-01
  -2.824972e-02
   5.516202e-02
  -1.077343e-01
  -2.662323e-01
  -2.345013e-01
  -1.936594e-01
   6.160247e-02
   3.441970e-01
   2.326672e-01
  -2.982056e-02
  -2.059120e-01
  -2.305742e-01
  -7.223331e-02
   1.665347e-01
   4.547843e-01
   7.887454e-01
   9.646798e-01
   8.877085e-01
   5.174609e-01
  -7.804542e-02
  -6.060056e-01
  -1.017409e+00
  -1.158785e+00
  -7.918362e-01
  -2.208350e-01
   1.981087e-01
   4.126858e-01
   3.528367e-01
   1.665347e-01
  -4.372912e-03
  -5.636780e-02
   2.268551e-01
   5.364681e-01
   5.763675e-01
   3.512658e-01
  -6.139449e-02
  -2.704736e-01
  -1.837631e-01
  -1.374233e-01
  -1.952303e-01
  -9.956596e-02
   1.536538e-01
   3.452966e-01
   3.270748e-01
  -2.023842e-02
  -4.715415e-01
  -7.915221e-01
  -1.001072e+00
  -9.933753e-01
  -7.981196e-01
  -3.834172e-01
   2.342381e-01
   8.410545e-01
   1.323774e+00
   1.362574e+00
   9.316921e-01
   2.802637e-01
  -3.463453e-01
  -7.566494e-01
  -9.344687e-01
  -7.541360e-01
  -4.270866e-01
  -2.451831e-01
  -2.596348e-01
  -2.205208e-01
   1.626076e-01
   5.416519e-01
   6.783152e-01
   6.853840e-01
   5.964743e-01
   5.011242e-01
   5.091355e-01
   5.392957e-01
   3.789126e-01
   6.442999e-02
  -3.179131e-01
  -7.740857e-01
  -1.086526e+00
  -1.084798e+00
  -8.559266e-01
  -4.932191e-01
  -7.616041e-02
   3.305307e-01
   7.135021e-01
   9.503851e-01
   1.044007e+00
   9.924837e-01
   6.684189e-01
   2.416210e-01
  -1.520321e-01
  -5.588803e-01
  -8.221535e-01
  -8.083301e-01
  -7.905796e-01
  -7.698444e-01
  -6.012930e-01
  -5.507119e-01
  -5.255784e-01
  -2.842970e-01
   1.029156e-01
   4.321642e-01
   6.718748e-01
   9.739478e-01
   1.254657e+00
   1.319533e+00
   1.055474e+00
   5.138480e-01
  -1.045927e-01
  -5.684624e-01
  -8.188547e-01
  -8.951977e-01
  -8.147705e-01
  -7.070107e-01
  -5.427006e-01
  -2.448689e-01
  -2.149509e-02
  -4.050229e-02
  -1.256419e-01
  -1.085198e-01
  -2.959154e-03
   2.373797e-01
   5.810801e-01
   9.078153e-01
   9.645227e-01
   5.623870e-01
  -6.886260e-03
  -3.997540e-01
  -6.069481e-01
  -7.151791e-01
  -6.843906e-01
  -5.367314e-01
  -2.382714e-01
   2.878038e-01
   7.425627e-01
   9.177116e-01
   8.688584e-01
   6.379446e-01
   3.434116e-01
   6.364457e-02
  -1.246994e-01
  -2.568073e-01
  -4.357262e-01
  -6.199861e-01
  -7.431401e-01
  -7.605765e-01
  -6.605138e-01
  -3.251389e-01
   2.032925e-01
   6.037002e-01
   5.876776e-01
   1.948099e-01
  -2.388997e-01
  -4.305425e-01
  -2.170650e-01
   2.409927e-01
   6.187803e-01
   7.508881e-01
   6.652772e-01
   3.591200e-01
  -1.171594e-01
  -4.918053e-01
  -6.949153e-01
  -5.981514e-01
  -1.342816e-01
   2.604711e-01
   3.170215e-01
   2.164875e-01
   3.552649e-02
  -2.392139e-01
  -4.010106e-01
  -4.366688e-01
  -4.339983e-01
  -2.373288e-01
   1.153253e-01
   3.833110e-01
   4.887145e-01
   5.056796e-01
   4.519568e-01
   2.238705e-01
  -6.390784e-02
  -1.016081e-01
  -1.175587e-02
  -8.260087e-02
  -2.297888e-01
  -3.033042e-01
  -3.487016e-01
  -4.415384e-01
  -3.975548e-01
  -1.558021e-01
   6.065996e-02
   2.270122e-01
   3.933644e-01
   4.971971e-01
   5.206026e-01
   4.824312e-01
   3.765564e-01
   2.490040e-01
   9.239098e-02
  -1.338103e-01
  -2.667036e-01
  -2.635619e-01
  -2.619911e-01
  -2.902662e-01
  -3.185414e-01
  -2.563360e-01
  -1.754377e-01
  -1.740239e-01
  -1.941307e-01
  -1.746522e-01
  -3.264808e-02
   1.679485e-01
   1.954382e-01
   5.908912e-02
   6.505832e-02
   1.941816e-01
   2.469619e-01
   2.054916e-01
   1.214516e-01
   4.479446e-02
  -5.526821e-02
  -1.019222e-01
  -5.621071e-02
  -1.458339e-02
   1.322052e-02
   4.919282e-02
   5.390534e-02
   2.248849e-02
  -7.270456e-02
  -1.691543e-01
  -1.366378e-01
  -6.846328e-02
   3.662608e-02
   1.770594e-01
   2.464906e-01
   2.235563e-01
   3.866817e-02
  -2.115670e-01
  -3.312652e-01
  -3.333073e-01
  -3.256102e-01
  -3.102159e-01
  -2.332447e-01
  -5.306903e-02
   1.919824e-01
   3.754568e-01
   5.762105e-01
   7.684816e-01
   6.567947e-01
   2.945584e-01
  -7.223331e-02
  -3.122580e-01
  -3.955127e-01
  -4.192324e-01
  -3.639387e-01
  -2.787991e-01
  -2.703165e-01
  -2.638761e-01
  -2.346584e-01
  -9.265426e-02
   1.142257e-01
   2.122463e-01
   2.501036e-01
   2.125604e-01
   1.954382e-01
   2.109896e-01
   9.867435e-02
  -3.814602e-02
  -8.495713e-02
  -5.369737e-02
   6.308816e-03
   7.165586e-02
   5.987454e-02
   8.350911e-03
   6.270206e-02
   1.035440e-01
   4.416612e-02
  -1.568298e-02
  -1.961008e-02
  -1.772507e-02
  -3.578976e-02
  -9.312551e-02
  -1.741810e-01
  -1.762231e-01
  -1.333391e-01
  -9.909471e-02
  -8.699922e-02
  -7.694583e-02
  -6.752078e-02
  -7.898793e-02
  -4.458062e-04
   1.949670e-01
   3.985482e-01
   4.783470e-01
   3.961919e-01
   2.486898e-01
   8.752137e-02
  -8.071586e-02
  -1.550167e-01
  -1.903607e-01
  -3.488587e-01
  -4.266154e-01
  -2.711020e-01
  -1.108760e-01
  -8.794173e-02
  -1.166881e-01
  -1.149602e-01
  -1.067918e-01
  -5.369737e-02
   7.951007e-02
   2.318818e-01
   3.795410e-01
   4.037320e-01
   3.311590e-01
   2.138171e-01
   5.092074e-02
   4.055318e-02
   8.877804e-02
   8.736429e-02
   2.327391e-02
  -1.297261e-01
  -1.957015e-01
  -1.196727e-01
  -4.458062e-04
   3.379856e-02
   1.337761e-02
  -1.214007e-01
  -3.706934e-01
  -4.060373e-01
  -2.553935e-01
  -1.210865e-01
   1.753373e-03
   1.269495e-01
   2.534023e-01
   3.391703e-01
   3.361857e-01
   2.036066e-01
  -3.092015e-02
  -2.450260e-01
  -3.585979e-01
  -3.763484e-01
  -3.716359e-01
  -2.970209e-01
  -1.433925e-01
  -6.469326e-02
  -1.646840e-02
   1.069998e-01
   2.468048e-01
   2.240276e-01
   8.155217e-02
   6.835709e-02
   2.252843e-01
   4.199116e-01
   4.624815e-01
   3.685451e-01
   2.277976e-01
   7.636839e-02
  -3.846019e-02
  -1.796789e-01
  -2.989059e-01
  -3.359778e-01
  -3.139860e-01
  -2.238196e-01
