Uncorrected acceleration  (Format v01.20 with 13 text lines)
Record of     Cascade, ID Earthquake of Tue Apr 21, 2020 05:58 UTC
Hypocenter: 44.41870 -115.21680 H= 10km Mb=4.1
Origin: 2020/04/21 05:58:01    UTC
Statn No: 64-001259 Code:IW-PLID     IW  Pearl Lake, Idaho, USA
Coords: 45.0876 -116.0003  Site geology:
Recorder: (see cmnt)      ( ? Chns of   3 at Sta) Sensor: (see comment)    
Rcrd start time: 2020/04/21 05:57:50.265 UTC (Q=5) RcrdId: (see comment)
Sta Chan   ?:Up      (Rcrdr Chan  ?) Location:
Raw record length = 119.820 sec, Uncor max =    101052, at  44.750 sec.
Processed:2020-07-29 19:29:17 GMT, USGS, Max =   -1.822 cm/sec2 at   44.800 sec
Record filtered below       Hz (periods over       secs), and above      Hz
Values used when parameter or data value is unknown/unspecified:   -999, -999.00
 100 Integer-header values follow on  10 lines, Format= (10I8)
       1       1       4     120       1    -999    -999    1259    -999    -999
      64      64    -999       2    -999       1    -999    -999       4    -999
    -999    -999       3    -999    -999    -999    -999    -999    -999    1000
       3    -999    -999    -999       0       0    -999    -999    -999    2020
     112       4      21       5      57       5       5    -999    -999    -999
    -999     900    -999     400    -999    -999    -999    -999    -999    -999
    -999    -999    -999    -999    -999    -999    -999    -999    -999    -999
    -999    -999    -999    -999       1       0    -999    -999    -999    -999
    -999    -999    -999    -999    -999    -999    -999    -999    -999    -999
    -999    -999    -999    -999    -999    -999    -999    -999    -999    -999
 100 Real-header values follow on  20 lines, Format= (5F15.6)
      45.087570    -116.000252    2164.400000    -999.000000    -999.000000
    -999.000000    -999.000000    -999.000000    -999.000000      44.418700
    -115.216800      10.000000    -999.000000    -999.000000    -999.000000
       4.100000      96.741505     320.246312    -999.000000    -999.000000
    -999.000000       1.588999    -999.000000      26.821084      93.000000
      40.000000    -999.000000    -999.000000    -999.000000      50.265000
    -999.000000       0.000000    -999.000000       0.010000     119.820000
      14.158474    -999.000000    -999.000000    -999.000000     223.975851
       0.697089       9.920000    -999.000000    -999.000000      40.000000
    -999.000000       1.000000    -999.000000    -999.000000    -999.000000
    -999.000000    -999.000000    -999.000000    -999.000000    -999.000000
    -999.000000    -999.000000    -999.000000    -999.000000    -999.000000
    -999.000000      10.000000     119.821084      -1.821706      44.800000
       0.000000    -999.000000    -999.000000    -999.000000    -999.000000
    -999.000000    -999.000000    -999.000000    -999.000000    -999.000000
    -999.000000    -999.000000    -999.000000    -999.000000    -999.000000
    -999.000000    -999.000000    -999.000000    -999.000000    -999.000000
    -999.000000    -999.000000    -999.000000    -999.000000    -999.000000
    -999.000000    -999.000000    -999.000000    -999.000000    -999.000000
    -999.000000    -999.000000    -999.000000    -999.000000    -999.000000
   5 Comment line(s) follow, each starting with a "|":
| Recorder: REFTEK 130-01 
| Sensor: KINEMETRICS EPISENSOR ES-T
| RcrdId: US.700090vm.IW.PLID.HNZ.20
|<SCNL>PLID.HNZ.IW.20    <AUTH> 2020/03/21 07:05:13.000
|<PROCESS> AUTO
   11982 acceleration pts, approx  119 secs, units=cm/sec2(04),Format=(1E15.6)
[...]
   4.743984e-02
   5.120986e-02
  -1.790721e-02
  -7.398629e-02
  -1.416896e-01
  -1.387050e-01
  -7.131585e-02
  -9.943393e-02
  -7.210127e-02
   7.273040e-02
   9.126634e-02
  -3.137752e-04
  -4.708594e-04
  -1.759304e-02
   5.655426e-03
   1.226832e-01
   1.724789e-01
   8.278379e-02
  -5.702119e-02
  -2.717518e-02
   2.450554e-02
   3.534435e-02
   2.764722e-02
  -1.209509e-02
   2.262052e-02
  -9.421122e-04
  -5.419367e-02
  -3.675732e-02
   4.806817e-02
   1.088598e-01
   2.387720e-02
  -1.405900e-01
  -1.905428e-01
  -6.440061e-03
   1.354070e-01
   3.078891e-02
  -1.124719e-01
  -1.313220e-01
  -2.654684e-02
   8.356921e-02
   5.686489e-02
   1.586590e-02
   1.083921e-02
   9.582532e-03
   8.199837e-02
   5.513696e-02
  -5.466492e-02
  -9.079430e-02
  -6.267622e-02
  -9.424661e-03
  -3.911358e-02
  -4.948114e-02
   4.916776e-02
   7.964211e-02
  -2.152015e-02
  -4.995240e-02
   3.895729e-02
   9.268010e-02
   9.770679e-02
   3.330225e-02
  -1.036717e-02
   3.832895e-02
   1.021052e-01
   1.184419e-01
  -2.293391e-02
  -1.834740e-01
  -1.088590e-01
  -5.968808e-03
  -7.320086e-02
  -5.749244e-02
  -2.199140e-02
  -6.707458e-02
   7.858145e-04
   8.451172e-02
   8.529714e-02
  -1.570449e-03
  -8.938054e-02
  -3.015978e-02
   8.105586e-02
   4.712567e-02
  -4.272652e-02
   8.325858e-03
   9.676429e-02
   7.697167e-02
   4.901068e-02
   3.738644e-02
  -7.210127e-02
  -6.267622e-02
   4.099938e-02
   1.083921e-02
  -6.880251e-02
  -5.592160e-02
   2.874681e-02
  -2.921728e-02
  -1.030469e-01
  -8.136925e-02
  -7.649963e-02
  -2.906019e-02
   7.115956e-02
   6.063491e-02
  -1.633637e-02
  -9.424661e-03
   4.005688e-02
   9.440802e-02
   5.749323e-02
  -1.712179e-02
  -3.440106e-02
  -2.686101e-02
  -1.209509e-02
   1.146754e-02
  -1.790721e-02
  -1.167132e-01
  -8.136925e-02
   1.225296e-02
   3.063182e-02
   9.990597e-02
   1.229974e-01
   2.010718e-02
  -1.775013e-02
   1.728320e-03
   1.712258e-02
   8.011336e-02
   5.372320e-02
  -3.392980e-02
  -1.884972e-02
   8.482942e-03
   9.268364e-03
  -8.953409e-03
  -6.031996e-02
  -8.953409e-03
   9.158051e-02
   3.597269e-02
  -1.074452e-01
  -1.124719e-01
  -1.256635e-02
   2.167802e-02
   1.885404e-03
  -8.702428e-02
  -8.278300e-02
   9.409386e-02
   1.082314e-01
  -1.382302e-02
  -3.408689e-02
   6.236284e-02
   8.529714e-02
  -5.136615e-02
  -7.995549e-02
  -4.083797e-03
   3.933006e-07
  -1.319468e-02
   8.640027e-03
   1.272422e-02
  -3.926713e-03
   7.383353e-03
   5.435154e-02
   1.277099e-01
   8.671090e-02
  -5.136615e-02
  -3.298730e-02
   2.796139e-02
  -2.167723e-02
  -6.817417e-02
  -5.340825e-02
   7.858145e-04
  -3.471522e-02
  -1.060315e-01
  -3.298730e-02
   9.158051e-02
   4.791109e-02
  -5.309408e-02
  -1.743596e-02
   3.157433e-02
   5.607947e-02
   6.691828e-02
   2.984640e-02
  -3.314438e-02
  -6.063413e-02
  -3.597190e-02
  -5.545034e-02
  -5.937745e-02
  -1.932097e-02
   2.780430e-02
   8.341213e-02
   1.044614e-01
   6.314826e-02
  -2.214849e-02
  -4.256944e-02
  -7.555713e-02
  -7.398629e-02
   5.026735e-02
   6.142033e-02
  -4.209818e-02
  -8.859512e-02
  -4.304069e-02
   4.194189e-02
   7.524375e-02
  -1.303760e-02
  -4.366903e-02
   3.157433e-02
  -3.141292e-03
  -1.759304e-02
   4.649733e-02
   2.214927e-02
  -2.733227e-02
  -1.947805e-02
  -2.309099e-02
  -2.827477e-02
   3.456247e-03
   2.042488e-03
   4.099938e-02
   1.745210e-01
   1.792335e-01
   3.895729e-02
   5.341258e-03
  -1.633637e-02
  -1.388621e-01
  -1.445171e-01
  -1.190695e-01
  -1.570839e-01
  -6.817417e-02
   7.492958e-02
   9.817805e-02
   2.780430e-02
   1.241005e-02
   6.801787e-02
   8.435463e-02
   5.545113e-02
   2.481970e-02
  -1.193801e-02
  -5.859203e-02
  -1.822138e-02
   5.498342e-03
  -5.529326e-02
   2.906098e-02
   1.071318e-01
   1.728320e-03
  -7.618547e-02
  -5.749244e-02
   5.498342e-03
   6.770370e-02
   4.099938e-02
  -4.256944e-02
  -7.068752e-02
  -4.476862e-02
  -2.042056e-02
  -1.963514e-02
  -3.063103e-02
  -7.068398e-03
   6.471910e-02
   7.602917e-02
   1.979301e-02
   2.167802e-02
   5.466571e-02
   3.000348e-02
  -3.408689e-02
  -6.864542e-02
  -6.471832e-02
   1.696549e-02
   9.723554e-02
   5.796448e-02
   1.539465e-02
   1.319547e-02
  -1.052425e-02
  -2.089181e-02
  -4.508278e-02
  -9.487849e-02
  -6.047704e-02
  -2.843185e-02
  -3.644315e-02
  -4.979531e-02
  -7.979840e-02
  -6.927376e-02
  -8.011257e-02
  -1.198549e-01
  -1.383908e-01
  -8.592469e-02
  -4.916698e-02
  -1.168703e-01
  -9.707767e-02
   9.896701e-03
   3.722936e-02
   2.262052e-02
   3.188849e-02
   9.268010e-02
   1.745210e-01
   2.095508e-01
   2.161483e-01
   2.425385e-01
   2.425385e-01
   1.658814e-01
   8.152712e-02
  -5.686410e-02
  -2.346835e-01
  -2.411239e-01
  -8.922346e-02
  -7.540004e-02
  -2.098642e-01
  -1.611680e-01
   1.900759e-02
   1.277099e-01
   2.662582e-01
   3.642788e-01
   3.036442e-01
   2.507068e-01
   2.690857e-01
   2.946904e-01
   2.073516e-01
   5.560822e-02
  -7.288670e-02
  -2.152050e-01
  -2.742687e-01
  -3.375736e-01
  -4.509885e-01
  -5.040829e-01
  -4.223991e-01
  -1.743631e-01
   4.853942e-02
   5.812156e-02
  -1.240926e-02
   7.021705e-02
   2.225888e-01
   2.909204e-01
   2.964184e-01
   2.580898e-01
   2.038957e-01
   6.833204e-02
  -1.196978e-01
  -1.442029e-01
  -1.154565e-01
  -1.350921e-01
  -1.608539e-01
  -2.152050e-01
  -2.098642e-01
  -1.247245e-01
   8.954195e-03
   4.963901e-02
  -5.686410e-02
  -7.178711e-02
   7.822835e-02
   2.233742e-01
   1.822181e-01
   4.209897e-02
   9.268010e-02
   1.515867e-01
   2.120677e-02
  -7.477171e-02
  -2.260438e-01
  -3.988365e-01
  -2.847933e-01
  -8.356842e-02
  -2.199140e-02
   1.159286e-01
   3.834430e-01
   6.856731e-01
   9.054340e-01
   8.011300e-01
   5.406844e-01
   2.046812e-01
  -2.175613e-01
  -5.727288e-01
  -9.169003e-01
  -1.097704e+00
  -1.108857e+00
  -9.684240e-01
  -5.441394e-01
  -7.917007e-02
   2.389255e-01
   5.889092e-01
   1.062989e+00
   1.325791e+00
   1.229813e+00
   8.960089e-01
   3.853280e-01
  -7.508588e-02
  -4.077903e-01
  -6.643089e-01
  -8.542237e-01
  -9.310379e-01
  -8.358449e-01
  -6.520563e-01
  -3.611363e-01
  -1.900680e-02
   2.697140e-01
   4.293116e-01
   3.600375e-01
   3.016021e-01
   4.533455e-01
   5.149225e-01
   3.074143e-01
   5.859282e-02
  -8.843804e-02
  -1.595972e-01
  -2.712841e-01
  -4.399926e-01
  -5.040829e-01
  -3.771589e-01
  -1.861444e-01
  -9.550683e-02
  -3.581481e-02
   1.000631e-01
   3.388311e-01
   4.610427e-01
   3.191956e-01
   2.181904e-01
   1.058752e-01
  -1.068169e-01
  -1.950982e-01
  -2.265151e-01
  -2.092358e-01
  -1.222111e-01
  -5.623577e-02
  -2.450475e-02
  -7.850279e-04
   4.806817e-02
   1.184419e-01
   3.246935e-01
   6.016330e-01
   7.056228e-01
   5.777562e-01
   3.460570e-01
   1.079173e-01
  -1.555130e-01
  -2.059371e-01
  -2.070366e-01
  -4.274258e-01
  -5.867093e-01
  -5.713150e-01
  -3.474700e-01
  -1.707502e-01
  -2.494494e-01
  -3.014443e-01
  -1.206403e-01
   1.853598e-01
   3.729184e-01
   4.283691e-01
   3.261073e-01
   1.222119e-01
   4.586899e-02
   8.623964e-02
   7.901377e-02
  -7.225482e-03
  -3.879942e-02
  -8.561052e-02
  -2.873067e-01
  -3.113406e-01
  -2.984561e-02
   1.822217e-02
  -1.528426e-01
  -1.079165e-01
   6.361951e-02
   2.101791e-01
   2.961042e-01
   2.890354e-01
   2.177192e-01
   1.647818e-01
   1.610117e-01
   8.545422e-02
  -1.332070e-01
  -3.454279e-01
  -3.964802e-01
  -4.062195e-01
  -4.278971e-01
  -2.968888e-01
  -7.005918e-02
   9.189468e-02
   1.952561e-01
   2.571473e-01
   3.171535e-01
   2.612315e-01
   4.681150e-02
  -8.294009e-02
  -1.814319e-01
  -2.343693e-01
  -1.159278e-01
   2.858973e-02
   2.070374e-01
   3.790447e-01
   3.463712e-01
   1.365066e-01
  -6.880251e-02
  -6.440415e-02
   7.320165e-02
  -7.696735e-03
  -1.652522e-01
  -1.853590e-01
  -2.005962e-01
  -1.149853e-01
   7.917085e-02
   2.422243e-01
   2.800816e-01
   1.484450e-01
   4.115647e-02
   2.356303e-02
   2.984640e-02
  -2.183432e-02
  -2.293426e-01
  -3.889402e-01
  -3.124402e-01
  -1.063456e-01
   1.350928e-01
   3.380457e-01
   2.472510e-01
  -1.032040e-01
  -3.147964e-01
  -2.260438e-01
  -1.052425e-02
  -2.906019e-02
  -1.654093e-01
  -1.016331e-01
  -1.916388e-02
   1.043043e-01
   3.689913e-01
   4.846053e-01
   3.375744e-01
   1.998116e-01
   1.577130e-01
  -1.649345e-02
  -2.585603e-01
  -2.890346e-01
  -2.392389e-01
  -2.610736e-01
  -5.073782e-02
   2.280867e-01
   1.617972e-01
   4.716460e-04
  -2.654684e-02
  -8.812387e-02
  -1.886578e-01
  -8.231175e-02
   4.398398e-02
  -3.518648e-02
  -1.302224e-01
  -1.600685e-01
  -5.513618e-02
   1.534717e-01
   2.650015e-01
   2.730128e-01
   2.158341e-01
   1.143577e-01
   1.099594e-01
   6.550452e-02
  -1.234678e-01
  -2.035808e-01
  -1.652522e-01
  -2.148909e-01
  -2.742687e-01
  -1.426321e-01
   4.979610e-02
   2.139491e-01
   2.857366e-01
   2.731699e-01
   3.608229e-01
   2.404964e-01
  -1.504863e-01
  -3.788868e-01
  -4.685819e-01
  -4.585285e-01
  -2.728549e-01
  -1.548847e-01
  -2.040520e-01
  -2.188180e-01
  -2.183432e-02
   2.693999e-01
   4.451771e-01
   5.078538e-01
   4.253845e-01
   3.111843e-01
   2.163054e-01
   1.837925e-02
  -7.587130e-02
  -1.010048e-01
  -1.800182e-01
  -1.047748e-01
  -3.125937e-02
  -1.519001e-01
  -1.938416e-01
  -1.630531e-01
  -2.194463e-01
  -1.533138e-01
  -5.372242e-02
  -4.712134e-03
   2.214892e-01
   4.698394e-01
   4.533455e-01
   2.282438e-01
   1.303839e-02
  -1.732635e-01
  -2.755254e-01
  -2.244730e-01
  -2.081362e-01
  -2.120633e-01
  -1.944699e-01
  -1.551988e-01
   2.136385e-02
   1.946278e-01
   2.152058e-01
   1.115302e-01
  -4.696780e-02
  -1.709073e-01
  -2.098642e-01
  -1.613251e-01
  -6.456123e-02
   7.382999e-02
   1.723218e-01
   1.556709e-01
   8.498297e-02
   2.136385e-02
   1.336791e-01
   2.516494e-01
   6.503327e-02
  -1.674514e-01
  -2.731691e-01
  -2.064083e-01
   7.398707e-02
   3.121268e-01
   3.033301e-01
   1.652530e-01
   1.388629e-01
   1.614830e-01
   9.189468e-02
  -1.151424e-01
  -3.623930e-01
  -3.675767e-01
  -1.401188e-01
   1.000631e-01
   2.921771e-01
   3.840714e-01
   2.723845e-01
  -7.068398e-03
  -2.620161e-01
  -4.103037e-01
  -5.127226e-01
  -3.941240e-01
  -4.602529e-02
   1.792335e-01
   2.112787e-01
   1.869306e-01
   1.671380e-01
   7.555791e-02
  -7.210127e-02
  -1.486013e-01
  -2.415952e-01
  -2.293426e-01
  -3.958484e-02
   1.479738e-01
   3.342757e-01
   3.460570e-01
   1.409050e-01
  -9.283640e-02
  -2.866784e-01
  -3.273632e-01
  -1.666660e-01
   2.513741e-03
   9.613595e-02
   2.719132e-01
   3.606658e-01
   2.670436e-01
   1.599122e-01
   4.319856e-02
   3.393059e-02
   1.338362e-01
   1.465600e-01
   4.649733e-02
  -4.335486e-02
  -1.712179e-02
  -1.727533e-03
  -4.665363e-02
  -1.050890e-01
  -3.405582e-01
  -5.999043e-01
  -5.813684e-01
  -4.399926e-01
  -3.881548e-01
  -2.708128e-01
  -6.126246e-02
   5.953532e-02
   1.523721e-01
   2.126925e-01
   2.557335e-01
   3.616083e-01
   3.897264e-01
   3.055292e-01
   2.324851e-01
   2.917058e-01
   4.252274e-01
   4.357521e-01
   3.224943e-01
   1.698085e-01
  -4.397966e-03
  -2.503919e-01
  -3.906681e-01
  -3.900398e-01
  -4.814628e-01
  -4.891599e-01
  -4.055911e-01
  -3.008159e-01
  -1.677656e-01
  -4.194110e-02
   3.429153e-01
   7.310705e-01
   7.395530e-01
   4.784790e-01
   2.089260e-02
  -5.036117e-01
  -8.763726e-01
  -9.043336e-01
  -6.405892e-01
  -2.664145e-01
   1.751493e-01
   6.487583e-01
   1.119540e+00
   1.527016e+00
   1.715203e+00
   1.339458e+00
   3.909831e-01
  -6.190686e-01
  -1.432922e+00
  -1.821706e+00
  -1.627392e+00
  -1.196982e+00
  -7.112771e-01
  -8.513927e-02
   5.722583e-01
   9.544443e-01
   9.410921e-01
   6.366628e-01
   2.152058e-01
  -1.258241e-01
  -3.303478e-01
  -3.630213e-01
  -2.491352e-01
  -6.958793e-02
   4.885359e-02
  -3.298730e-02
  -2.155192e-01
  -3.209227e-01
  -3.507687e-01
  -3.394587e-01
  -2.128488e-01
   7.273040e-02
   3.916114e-01
   6.344637e-01
   8.213939e-01
   7.444226e-01
   4.558589e-01
   3.011309e-01
   1.366637e-01
  -1.006906e-01
  -2.835367e-01
  -4.764361e-01
  -5.741425e-01
  -4.717236e-01
  -3.020726e-01
  -1.245674e-01
   8.246962e-02
   2.298146e-01
   2.736411e-01
   3.388311e-01
   3.792018e-01
   1.633680e-01
  -1.123148e-01
  -1.096444e-01
  -6.173371e-02
  -1.657235e-01
  -2.081362e-01
  -1.129432e-01
   7.744293e-02
   2.953188e-01
   4.022931e-01
   3.281494e-01
   8.278379e-02
  -1.938416e-01
  -3.590942e-01
  -4.935583e-01
  -5.937781e-01
  -5.188489e-01
  -2.081362e-01
   1.355641e-01
   1.853598e-01
   1.077602e-01
   7.273040e-02
   4.696858e-02
   5.340904e-02
  -6.597145e-03
  -4.146985e-02
   1.193880e-02
   1.264532e-01
   2.755262e-01
   3.678917e-01
   4.459626e-01
   4.547593e-01
   3.419728e-01
   1.142006e-01
  -1.515859e-01
  -3.122831e-01
  -4.041774e-01
  -4.296250e-01
  -3.487266e-01
  -2.037379e-01
  -8.482510e-02
   8.011690e-03
   1.223690e-01
   2.076658e-01
   1.745210e-01
   1.460923e-02
  -1.179699e-01
  -1.299083e-01
  -5.466492e-02
   1.570882e-02
   5.309487e-02
   1.231544e-01
   2.048382e-01
   2.488218e-01
   1.939994e-01
  -1.743596e-02
  -2.604453e-01
  -3.248498e-01
  -2.500777e-01
  -2.453652e-01
  -2.637441e-01
  -1.941557e-01
  -7.869881e-02
   1.138865e-01
   2.863650e-01
   2.956329e-01
   2.197613e-01
   1.578701e-01
   1.003772e-01
   3.235975e-02
   9.582532e-03
   2.749014e-02
   2.670471e-02
  -7.696735e-03
  -6.738875e-02
  -1.501721e-01
  -2.002820e-01
  -1.748344e-01
  -1.979258e-01
  -2.720695e-01
  -2.483498e-01
  -1.443600e-01
   4.162772e-02
   2.117500e-01
   2.714420e-01
   3.394594e-01
   3.779451e-01
   4.250704e-01
   4.941874e-01
   3.711905e-01
   1.143577e-01
  -9.173681e-02
  -1.687081e-01
  -1.482871e-01
  -1.621105e-01
  -1.723210e-01
  -2.219596e-01
  -3.081989e-01
  -2.783529e-01
  -2.483498e-01
  -2.898200e-01
  -1.913282e-01
   9.974889e-02
   2.921771e-01
   3.853280e-01
   4.387367e-01
   3.050580e-01
   1.047756e-01
  -7.948423e-02
  -2.518057e-01
  -3.890973e-01
  -3.801435e-01
  -1.638385e-01
   5.152403e-02
   1.800189e-01
   2.075087e-01
   1.325795e-01
   1.869342e-02
  -1.528426e-01
  -2.437944e-01
  -1.616393e-01
  -2.670393e-02
   1.683947e-01
   3.317623e-01
   2.945334e-01
   1.720076e-01
   7.021705e-02
  -1.240926e-02
  -7.712797e-02
  -1.753056e-01
  -2.697133e-01
  -3.001876e-01
  -2.474073e-01
  -1.526855e-01
  -9.629225e-02
  -3.220188e-02
   6.613286e-02
   1.456175e-01
   1.833177e-01
   1.972982e-01
   2.263588e-01
   2.403393e-01
   1.969840e-01
   1.591267e-01
   1.449892e-01
   5.136694e-02
  -2.906019e-02
  -2.623268e-02
  -4.869572e-02
  -6.691749e-02
  -9.048013e-02
  -6.911667e-02
  -2.529017e-02
  -8.309717e-02
  -1.533138e-01
  -2.024812e-01
  -1.613251e-01
  -6.346164e-02
  -6.833125e-02
  -1.388621e-01
  -2.031095e-01
  -1.300654e-01
   3.644394e-02
   8.105586e-02
   1.087027e-01
   2.340559e-01
   3.124410e-01
   2.090795e-01
   3.754353e-02
   2.073551e-02
   1.121585e-01
   1.470312e-01
   1.261390e-01
   8.341213e-02
  -1.932097e-02
  -1.113723e-01
  -1.666660e-01
  -2.318560e-01
  -2.346835e-01
  -1.754627e-01
  -1.192265e-01
  -7.948423e-02
  -2.670393e-02
   3.314517e-02
   6.566161e-02
   9.315135e-02
   7.901377e-02
  -1.727887e-02
  -4.806739e-02
   5.136694e-02
   9.377969e-02
   3.298808e-02
  -1.256281e-03
   2.796139e-02
   6.189159e-02
   4.147063e-02
   4.382690e-02
   3.785770e-02
  -5.168032e-02
  -1.132573e-01
  -9.079430e-02
   3.188849e-02
   1.379204e-01
   2.169337e-01
   2.912346e-01
   2.123783e-01
   7.163081e-02
  -5.497909e-02
  -1.687081e-01
  -2.445798e-01
  -2.436373e-01
  -1.694935e-01
  -1.135715e-01
  -5.764952e-02
  -6.282976e-03
   6.110616e-02
   8.655381e-02
   5.042444e-02
   4.382690e-02
  -6.754229e-03
  -3.581481e-02
  -5.906328e-02
  -1.424750e-01
  -1.165561e-01
  -2.355870e-03
   8.089878e-02
   1.347787e-01
   2.024820e-01
   1.950990e-01
   6.974580e-02
  -1.617928e-02
  -8.843804e-02
  -1.567697e-01
  -1.734206e-01
  -1.218970e-01
   1.508048e-02
   9.974889e-02
   6.330534e-02
  -1.445136e-02
   3.408767e-02
   1.240969e-01
   1.168711e-01
   1.240969e-01
   9.330843e-02
   1.146754e-02
  -6.251914e-02
  -1.044606e-01
  -1.085448e-01
  -1.410613e-01
  -1.170274e-01
  -6.628916e-02
  -9.487849e-02
  -1.343066e-01
  -1.504863e-01
  -1.281804e-01
  -2.560434e-02
   5.623655e-02
   6.880329e-02
   1.302232e-01
   1.489163e-01
   1.066606e-01
   9.739262e-02
   1.076031e-01
   1.413762e-01
   1.512725e-01
   1.096452e-01
