Uncorrected acceleration  (Format v01.20 with 13 text lines)
Record of     Cascade, ID Earthquake of Tue Apr 21, 2020 05:58 UTC
Hypocenter: 44.41870 -115.21680 H= 10km Mb=4.1
Origin: 2020/04/21 05:58:01    UTC
Statn No: 64-001259 Code:IW-PLID     IW  Pearl Lake, Idaho, USA
Coords: 45.0876 -116.0003  Site geology:
Recorder: (see cmnt)      ( ? Chns of   3 at Sta) Sensor: (see comment)    
Rcrd start time: 2020/04/21 05:57:50.265 UTC (Q=5) RcrdId: (see comment)
Sta Chan   ?: 90 Deg (Rcrdr Chan  ?) Location:
Raw record length = 119.820 sec, Uncor max =    165126, at  44.710 sec.
Processed:2020-07-29 19:29:17 GMT, USGS, Max =   -1.905 cm/sec2 at   44.710 sec
Record filtered below       Hz (periods over       secs), and above      Hz
Values used when parameter or data value is unknown/unspecified:   -999, -999.00
 100 Integer-header values follow on  10 lines, Format= (10I8)
       1       1       4     120       1    -999    -999    1259    -999    -999
      64      64    -999       2    -999       1    -999    -999       4    -999
    -999    -999       3    -999    -999    -999    -999    -999    -999    1000
       3    -999    -999    -999       0       0    -999    -999    -999    2020
     112       4      21       5      57       5       5    -999    -999    -999
    -999     900    -999      90    -999    -999    -999    -999    -999    -999
    -999    -999    -999    -999    -999    -999    -999    -999    -999    -999
    -999    -999    -999    -999       1       0    -999    -999    -999    -999
    -999    -999    -999    -999    -999    -999    -999    -999    -999    -999
    -999    -999    -999    -999    -999    -999    -999    -999    -999    -999
 100 Real-header values follow on  20 lines, Format= (5F15.6)
      45.087570    -116.000252    2164.400000    -999.000000    -999.000000
    -999.000000    -999.000000    -999.000000    -999.000000      44.418700
    -115.216800      10.000000    -999.000000    -999.000000    -999.000000
       4.100000      96.741505     320.246312    -999.000000    -999.000000
    -999.000000       1.588999    -999.000000      26.821084      93.000000
      40.000000    -999.000000    -999.000000    -999.000000      50.265000
    -999.000000       0.000000    -999.000000       0.010000     119.820000
     -24.033628    -999.000000    -999.000000    -999.000000     223.975851
       0.697089       9.920000    -999.000000    -999.000000      40.000000
    -999.000000       1.000000    -999.000000    -999.000000    -999.000000
    -999.000000    -999.000000    -999.000000    -999.000000    -999.000000
    -999.000000    -999.000000    -999.000000    -999.000000    -999.000000
    -999.000000      10.000000     119.821084      -1.905065      44.710000
       0.000000    -999.000000    -999.000000    -999.000000    -999.000000
    -999.000000    -999.000000    -999.000000    -999.000000    -999.000000
    -999.000000    -999.000000    -999.000000    -999.000000    -999.000000
    -999.000000    -999.000000    -999.000000    -999.000000    -999.000000
    -999.000000    -999.000000    -999.000000    -999.000000    -999.000000
    -999.000000    -999.000000    -999.000000    -999.000000    -999.000000
    -999.000000    -999.000000    -999.000000    -999.000000    -999.000000
   5 Comment line(s) follow, each starting with a "|":
| Recorder: REFTEK 130-01 
| Sensor: KINEMETRICS EPISENSOR ES-T
| RcrdId: US.700090vm.IW.PLID.HN2.20
|<SCNL>PLID.HN2.IW.20    <AUTH> 2020/03/21 07:05:13.000
|<PROCESS> AUTO
   11982 acceleration pts, approx  119 secs, units=cm/sec2(04),Format=(1E15.6)
[...]
  -5.649732e-02
  -1.832007e-03
   1.827478e-02
  -2.869341e-02
  -4.942853e-02
  -2.853633e-02
   8.378469e-03
   1.090695e-01
   8.487850e-02
   1.167724e-02
   2.502940e-02
   1.261974e-02
  -4.958562e-02
  -1.014234e-01
  -5.681149e-02
  -3.858972e-02
  -5.130776e-03
   7.922346e-02
   5.361873e-02
   7.592469e-02
   8.817726e-02
   2.644316e-02
  -4.816608e-03
  -7.974579e-02
  -8.712875e-02
  -4.581560e-02
  -3.214927e-02
   1.089182e-02
   1.073473e-02
   6.493458e-03
  -2.617428e-03
  -2.209587e-02
   1.057765e-02
   1.858894e-02
   4.497910e-02
   9.556022e-02
   6.540005e-02
  -3.088681e-03
  -4.911436e-02
  -6.215236e-02
  -4.691519e-02
   9.955093e-04
   2.550065e-02
   2.424398e-02
   5.597499e-02
   3.586821e-02
  -1.691209e-02
  -1.738335e-02
   8.064300e-03
   1.906020e-02
  -2.445214e-02
  -7.707536e-02
  -3.623346e-02
   7.907216e-03
  -3.780430e-02
  -6.827864e-02
  -5.995318e-02
   2.330147e-02
   1.189658e-01
   1.381301e-01
   1.216362e-01
   3.429737e-02
  -1.203670e-03
   2.361564e-02
  -4.188271e-03
  -4.503017e-02
  -7.644702e-02
  -8.021705e-02
  -5.885359e-02
  -3.120676e-02
  -1.015747e-02
   4.497910e-02
   2.518648e-02
  -5.712566e-02
  -5.602607e-02
  -4.974270e-02
   8.692637e-03
   6.587130e-02
   5.126247e-02
   3.900990e-02
   2.220188e-02
   2.283022e-02
   1.686102e-02
   2.409267e-03
  -1.015747e-02
  -7.015787e-03
  -3.780430e-02
  -1.089635e-01
  -9.922424e-02
  -7.424784e-02
  -5.319856e-02
   1.010640e-02
   1.041999e-01
   1.395438e-01
   4.356534e-02
   2.377272e-02
   5.628916e-02
   1.748935e-02
   2.063104e-02
  -1.062872e-02
  -4.770061e-02
  -1.267082e-02
   3.194689e-03
   2.927067e-02
   4.765531e-03
  -1.549834e-02
   3.932406e-02
   2.675733e-02
   3.351773e-03
   1.230557e-02
   2.550065e-02
   3.555404e-02
   2.063104e-02
  -1.832007e-03
  -6.105277e-02
  -9.922424e-02
  -6.874990e-02
  -5.571190e-02
  -7.094907e-02
  -3.921806e-02
   3.037026e-02
   5.848834e-02
   4.890620e-02
   4.010949e-02
   2.078812e-02
  -6.858703e-03
  -2.602298e-02
  -4.534434e-02
  -2.963592e-02
  -1.644084e-02
  -4.989979e-02
  -1.455583e-02
   2.220188e-02
   3.209819e-02
   8.503558e-02
   1.029432e-01
   8.095139e-02
   3.366903e-02
   1.858894e-02
   1.309100e-02
  -1.769752e-02
  -1.989670e-02
  -4.848603e-02
  -7.251992e-02
  -4.848603e-02
  -1.062872e-02
   1.686102e-02
   8.064300e-03
   1.277683e-02
   4.482201e-02
   1.261974e-02
  -8.430124e-02
  -1.468208e-01
  -1.100631e-01
  -2.837924e-02
   1.544726e-02
   3.382612e-02
   5.424707e-02
   6.712798e-02
   5.738875e-02
   4.686411e-02
   2.157355e-02
   1.733227e-02
   4.419368e-02
   4.230867e-02
  -1.832007e-03
  -8.021705e-02
  -1.069214e-01
  -1.067643e-01
  -7.519035e-02
   6.022205e-03
   6.602839e-02
   8.864852e-02
   7.718137e-02
   8.063722e-02
   7.906638e-02
   5.094830e-02
  -1.361333e-02
  -7.471910e-02
  -7.487618e-02
  -1.942544e-02
   2.691441e-02
  -5.068521e-02
  -1.018947e-01
  -4.377350e-02
  -1.675501e-02
   4.042365e-02
   1.037286e-01
   6.697089e-02
   2.267313e-02
   2.314439e-02
  -1.329916e-02
  -8.524374e-02
  -8.587208e-02
  -7.173450e-02
  -5.869650e-02
   1.026348e-02
   5.581791e-02
   3.052735e-02
   1.230557e-02
   4.764953e-02
   3.586821e-02
   3.806739e-02
   7.608178e-02
   5.503249e-02
   1.481892e-02
  -3.497678e-02
  -3.670471e-02
   3.508857e-03
   3.414028e-02
   2.173063e-02
  -8.115377e-03
   1.843186e-02
  -2.869341e-02
  -8.225914e-02
  -3.230635e-02
  -2.429505e-02
   6.813408e-04
   4.812078e-02
   1.827478e-02
   1.717519e-02
   2.392981e-02
  -2.775091e-02
  -4.942853e-02
  -4.377350e-02
  -5.052812e-02
  -2.602298e-02
   2.723436e-03
   9.478058e-03
   1.607560e-02
  -1.046586e-03
   2.173063e-02
   3.099860e-02
   6.336374e-03
   2.031687e-02
  -9.057882e-03
  -6.639363e-02
  -8.021705e-02
   2.550065e-02
   9.383230e-02
   5.063413e-02
   7.953763e-02
   3.555404e-02
  -3.434845e-02
   3.671723e-04
  -4.518726e-02
  -1.036226e-01
  -6.765031e-02
   1.654685e-02
   8.377891e-02
   3.696780e-02
  -1.848294e-02
  -1.329916e-02
   5.079700e-03
   5.126247e-02
   7.011258e-02
   6.398629e-02
   4.654994e-02
   3.099860e-02
   3.366903e-02
   2.314439e-02
   2.031687e-02
  -1.046586e-03
  -5.445523e-02
  -1.391236e-01
  -1.708547e-01
  -1.394378e-01
  -1.375528e-01
  -8.115955e-02
  -2.633715e-02
  -4.204557e-02
  -1.864002e-02
   6.163003e-02
   9.933025e-02
   6.524297e-02
   6.665672e-02
   1.052994e-01
   1.018436e-01
   1.065561e-01
   1.508539e-01
   9.760232e-02
   4.105199e-02
   6.822757e-02
   8.849721e-03
  -3.780430e-02
  -4.188849e-02
  -6.120985e-02
  -2.523756e-02
   1.419059e-02
   2.942776e-02
   1.733227e-02
   2.424398e-02
   2.235897e-02
  -3.906097e-02
  -8.304456e-02
  -1.575025e-01
  -2.021144e-01
  -1.521616e-01
  -8.492957e-02
  -2.979300e-02
   2.974193e-02
   1.497543e-01
   2.114884e-01
   1.673477e-01
   1.271342e-01
   8.377891e-02
  -3.073551e-02
  -1.662992e-01
  -2.201791e-01
  -2.596073e-01
  -2.924379e-01
  -2.819132e-01
  -2.412284e-01
  -1.179173e-01
   9.964441e-02
   3.665305e-01
   5.773376e-01
   6.232062e-01
   4.694207e-01
   1.491260e-01
  -2.104399e-01
  -4.140211e-01
  -3.813475e-01
  -2.302325e-01
  -1.416370e-01
  -2.049419e-01
  -3.527582e-01
  -4.212469e-01
  -2.949512e-01
  -2.036795e-02
   2.169863e-01
   3.069956e-01
   3.640172e-01
   4.449156e-01
   4.625090e-01
   3.459525e-01
   1.235212e-01
  -5.869650e-02
  -1.488629e-01
  -1.728967e-01
  -2.198649e-01
  -3.654820e-01
  -4.264307e-01
  -3.478886e-01
  -2.294471e-01
   4.466493e-02
   3.778406e-01
   6.067124e-01
   7.028479e-01
   5.493766e-01
   2.526445e-01
  -3.874680e-02
  -2.068269e-01
  -2.804995e-01
  -4.496792e-01
  -5.819441e-01
  -6.022080e-01
  -5.797449e-01
  -4.338137e-01
  -1.325261e-01
   1.899679e-01
   5.093201e-01
   8.533346e-01
   1.003193e+00
   9.040728e-01
   6.532093e-01
   2.256260e-01
  -2.396576e-01
  -5.766033e-01
  -7.713877e-01
  -8.067317e-01
  -6.702255e-01
  -4.198332e-01
  -1.716401e-01
   1.348313e-01
   4.320347e-01
   5.757668e-01
   7.122730e-01
   7.389773e-01
   5.377524e-01
   2.116455e-01
  -1.329974e-01
  -2.889820e-01
  -3.007633e-01
  -4.462233e-01
  -6.950448e-01
  -8.230684e-01
  -7.296033e-01
  -4.336566e-01
  -1.141472e-01
   1.236783e-01
   3.443817e-01
   5.801651e-01
   7.540574e-01
   7.325368e-01
   5.617863e-01
   3.021260e-01
   1.906020e-02
  -1.384953e-01
  -2.720169e-01
  -4.426104e-01
  -5.019882e-01
  -3.101884e-01
   1.529018e-02
   1.656198e-01
   1.803857e-01
   6.822757e-02
  -9.231253e-02
  -5.775400e-02
   1.984562e-02
   8.833435e-02
   1.397009e-01
  -8.115377e-03
  -3.185138e-01
  -5.492706e-01
  -5.527265e-01
  -4.132356e-01
  -1.736822e-01
   1.686044e-01
   4.502564e-01
   4.584248e-01
   3.318149e-01
   3.211332e-01
   2.947430e-01
   2.122738e-01
   2.407061e-01
   2.598703e-01
   9.477480e-02
  -1.015805e-01
  -2.385580e-01
  -4.182623e-01
  -5.351330e-01
  -5.104708e-01
  -5.175396e-01
  -4.870652e-01
  -1.345682e-01
   3.410829e-01
   6.199074e-01
   6.970358e-01
   5.902185e-01
   4.351764e-01
   2.832759e-01
   9.933025e-02
  -4.078890e-02
  -1.130477e-01
  -2.148382e-01
  -3.552716e-01
  -3.835467e-01
  -3.874738e-01
  -3.372069e-01
  -1.436791e-01
   8.849721e-03
   1.712748e-01
   3.112369e-01
   2.118026e-01
   3.099860e-02
   8.911977e-02
   2.325377e-01
   1.902820e-01
   8.142264e-02
  -7.644124e-03
  -3.152093e-02
  -3.591929e-02
  -1.524758e-01
  -2.220641e-01
  -1.306411e-01
  -6.890698e-02
  -1.554604e-01
  -3.153722e-01
  -4.223465e-01
  -3.192993e-01
  -3.450553e-02
   2.295531e-01
   4.155408e-01
   5.741959e-01
   6.321600e-01
   4.892133e-01
   2.790346e-01
   1.849412e-01
   3.838156e-02
  -3.122305e-01
  -5.748753e-01
  -6.441495e-01
  -6.658271e-01
  -6.212152e-01
  -4.856515e-01
  -2.347879e-01
   8.205098e-02
   3.321291e-01
   5.008376e-01
   6.535235e-01
   7.216980e-01
   5.328828e-01
   2.207564e-01
   5.204789e-02
   6.728506e-02
   1.774011e-01
   1.423713e-01
  -5.524065e-02
  -3.384635e-01
  -6.273415e-01
  -5.291638e-01
  -8.053121e-02
   1.381301e-01
  -1.364532e-01
  -4.804677e-01
  -5.659215e-01
  -2.409142e-01
   3.929207e-01
   5.828356e-01
   3.600901e-01
   1.307471e-01
  -8.618625e-02
  -1.203670e-03
   2.487174e-01
   2.953714e-01
   3.838156e-02
  -3.390919e-01
  -4.432387e-01
  -3.995693e-01
  -2.633773e-01
  -3.780430e-02
   6.650542e-03
   9.901608e-02
   2.928580e-01
   3.622893e-01
   3.451671e-01
   2.469894e-01
   4.482201e-02
  -1.871914e-01
  -1.914327e-01
   3.351195e-02
  -6.230366e-03
  -3.144297e-01
  -4.176340e-01
  -3.383065e-01
  -7.440493e-02
   3.709289e-01
   5.605296e-01
   5.240860e-01
   5.165460e-01
   5.014659e-01
   4.037595e-01
   1.340459e-01
  -1.923752e-01
  -4.203044e-01
  -5.021453e-01
  -4.738702e-01
  -5.233517e-01
  -5.235088e-01
  -4.099369e-01
  -3.789913e-01
  -2.140528e-01
   6.194420e-02
   2.674104e-01
   4.298355e-01
   4.579536e-01
   4.884279e-01
   4.577965e-01
   3.304012e-01
   2.537441e-01
   1.173949e-01
   6.807626e-03
  -1.416370e-01
  -3.048475e-01
  -2.941658e-01
  -3.486740e-01
  -3.876309e-01
  -2.228495e-01
  -9.325504e-02
  -2.680840e-02
   1.623846e-03
  -5.398398e-02
  -8.304456e-02
  -7.456201e-02
   5.079121e-02
   3.124936e-01
   4.713057e-01
   3.512934e-01
   3.382612e-02
  -1.823218e-01
  -1.094347e-01
   9.838774e-02
   1.272912e-01
   8.582100e-02
   1.626352e-01
   2.424398e-02
  -2.812849e-01
  -2.550518e-01
  -3.246343e-02
   1.610644e-01
   3.003981e-01
   1.712748e-01
  -1.575025e-01
  -4.927203e-01
  -6.691259e-01
  -5.085858e-01
  -1.084922e-01
   1.433138e-01
   1.335746e-01
   2.000212e-01
   4.293642e-01
   5.474916e-01
   5.281702e-01
   4.760183e-01
   2.125880e-01
  -1.064501e-01
  -2.121678e-01
  -2.404430e-01
  -2.753157e-01
  -2.786144e-01
  -2.212787e-01
  -1.584450e-01
  -1.562458e-01
  -2.374584e-01
  -2.449984e-01
  -5.241313e-02
   1.098549e-01
   1.541526e-01
   2.216989e-01
   3.404546e-01
   4.268509e-01
   2.798200e-01
  -4.110307e-02
  -2.563085e-01
  -3.807192e-01
  -3.860601e-01
  -3.317089e-01
  -3.076750e-01
  -1.381811e-01
   1.109545e-01
   3.541209e-01
   5.509474e-01
   5.143468e-01
   2.746363e-01
   1.722173e-01
   1.381301e-01
  -1.446216e-01
  -3.687808e-01
  -4.012972e-01
  -3.689379e-01
  -1.545179e-01
   8.597809e-02
   1.929525e-01
   2.086609e-01
   1.978221e-01
   1.948375e-01
   1.495972e-01
   6.885590e-02
  -1.505908e-01
  -4.994749e-01
  -5.952963e-01
  -3.849605e-01
  -7.267700e-02
   2.276681e-01
   2.358365e-01
  -1.989670e-02
  -2.907099e-01
  -2.775149e-01
   7.907216e-03
   1.409576e-01
   2.626979e-01
   4.047020e-01
   4.285788e-01
   3.805110e-01
   1.246208e-01
  -1.169748e-01
  -1.450928e-01
  -1.421082e-01
  -1.542037e-01
  -1.317407e-01
  -9.875299e-02
  -2.005378e-02
   9.665981e-02
   1.541526e-01
   1.764586e-01
   1.106403e-01
  -9.953841e-02
  -2.270908e-01
  -1.347253e-01
  -1.674923e-03
   8.378469e-03
  -5.052812e-02
  -9.027044e-02
   1.152015e-02
   2.218560e-01
   1.404863e-01
  -1.871914e-01
  -1.732109e-01
  -2.303838e-02
  -5.178480e-02
   6.964711e-03
   4.183741e-02
   1.491260e-01
   2.691383e-01
   1.563518e-01
   5.503249e-02
   7.718137e-02
   2.466753e-01
   2.388211e-01
  -6.733614e-02
  -2.437417e-01
  -2.885108e-01
  -4.887932e-01
  -7.124811e-01
  -5.907408e-01
  -1.270281e-01
   4.816733e-01
   9.736612e-01
   1.131374e+00
   1.015603e+00
   7.603407e-01
   4.409885e-01
   4.387951e-02
  -4.619318e-01
  -1.045500e+00
  -1.600164e+00
  -1.905065e+00
  -1.665825e+00
  -1.024608e+00
  -3.637541e-01
   4.119279e-01
   1.052832e+00
   1.146611e+00
   8.461087e-01
   3.786260e-01
   1.582368e-01
   1.865120e-01
   2.381927e-01
   4.218242e-01
   6.147237e-01
   8.770543e-01
   1.140013e+00
   1.071053e+00
   7.615974e-01
   4.153837e-01
   6.649964e-02
  -3.397202e-01
  -7.149945e-01
  -9.082081e-01
  -9.284720e-01
  -8.419185e-01
  -7.841115e-01
  -8.100304e-01
  -9.286290e-01
  -1.064664e+00
  -1.022251e+00
  -8.287235e-01
  -5.191104e-01
  -1.182314e-01
   2.667821e-01
   5.178027e-01
   6.761436e-01
   9.504127e-01
   1.200805e+00
   1.301182e+00
   1.392605e+00
   1.326787e+00
   8.429671e-01
   1.918529e-01
  -3.207130e-01
  -8.020191e-01
  -1.222377e+00
  -1.444180e+00
  -1.465857e+00
  -1.160171e+00
  -4.843948e-01
   2.405490e-01
   6.976641e-01
   8.178336e-01
   7.194988e-01
   5.388520e-01
   3.385696e-01
   2.196568e-01
   2.251547e-01
   3.465808e-01
   4.577965e-01
   3.407687e-01
  -2.869341e-02
  -4.708856e-01
  -6.395940e-01
  -5.652932e-01
  -5.407880e-01
  -4.020827e-01
  -1.479204e-01
   1.307471e-01
   6.019998e-01
   9.559106e-01
   9.047012e-01
   6.360871e-01
   2.730654e-01
  -1.768239e-01
  -6.328394e-01
  -9.344412e-01
  -1.017853e+00
  -9.536054e-01
  -8.843313e-01
  -7.061978e-01
  -3.343794e-01
   4.922037e-02
   3.651168e-01
   4.954967e-01
   4.940830e-01
   5.495337e-01
   5.905327e-01
   6.563510e-01
   8.374691e-01
   8.698285e-01
   7.045758e-01
   4.554402e-01
   1.167724e-02
  -4.259595e-01
  -6.573446e-01
  -7.539514e-01
  -7.416988e-01
  -7.115386e-01
  -6.749380e-01
  -5.349759e-01
  -3.073609e-01
  -4.487309e-02
   1.949946e-01
   3.043252e-01
   1.794432e-01
  -9.733923e-02
  -2.685611e-01
  -2.204933e-01
  -1.219957e-02
   2.267256e-01
   3.577338e-01
   3.992041e-01
   5.405799e-01
   7.752637e-01
   8.343274e-01
   7.367781e-01
   6.153520e-01
   3.616609e-01
  -3.324886e-02
  -4.460663e-01
  -7.010140e-01
  -7.825407e-01
  -9.060089e-01
  -9.642872e-01
  -7.729586e-01
  -4.690005e-01
  -1.520045e-01
   1.605931e-01
   3.844381e-01
   4.576394e-01
   4.527698e-01
   4.620378e-01
   3.984186e-01
   2.281393e-01
   5.173372e-02
  -1.089635e-01
  -1.719542e-01
  -5.759691e-02
   9.618856e-02
   7.733845e-02
  -6.168110e-02
  -1.881339e-01
  -2.165662e-01
  -4.078890e-02
   1.601218e-01
   3.183057e-01
   3.665305e-01
   2.091321e-01
   2.612899e-02
  -2.943229e-01
  -6.029934e-01
  -6.017367e-01
  -4.276874e-01
  -1.400661e-01
   1.986075e-01
   4.460152e-01
   5.198448e-01
   4.901558e-01
   3.154782e-01
  -8.508666e-02
  -4.462233e-01
  -4.980611e-01
  -2.995067e-01
  -2.539464e-02
   2.196568e-01
   2.812338e-01
   2.542153e-01
   2.036342e-01
   7.262592e-02
  -2.963592e-02
  -6.733614e-02
   2.723436e-03
   1.042056e-02
  -1.223156e-01
  -2.946370e-01
  -5.008887e-01
  -5.060724e-01
  -2.759440e-01
   3.602530e-02
   3.230182e-01
   4.298355e-01
   4.343909e-01
   4.078437e-01
   3.833386e-01
   4.321918e-01
   4.408314e-01
   2.807625e-01
  -4.361642e-02
  -3.799338e-01
  -5.337193e-01
  -4.477942e-01
  -3.109738e-01
  -2.852120e-01
  -2.486114e-01
  -1.799655e-01
  -1.419512e-01
  -8.194497e-02
  -2.162462e-02
   1.042056e-02
   1.356225e-02
   2.251605e-02
   1.466184e-02
  -7.440493e-02
  -8.744292e-02
   4.608447e-03
   1.013723e-01
   1.725315e-01
   2.220130e-01
   2.751075e-01
   3.063673e-01
   4.339197e-01
   4.995809e-01
   2.619124e-01
  -9.325504e-02
  -2.969933e-01
  -3.439615e-01
  -3.871597e-01
  -3.670529e-01
  -2.847407e-01
  -1.845210e-01
  -1.088064e-01
  -1.989670e-02
   1.819566e-01
   3.024402e-01
   2.436907e-01
   1.159812e-01
   2.047396e-02
  -7.409076e-02
  -1.619009e-01
  -1.315836e-01
   3.037026e-02
   1.604360e-01
   1.263487e-01
   1.343600e-01
   1.855695e-01
   8.503558e-02
  -8.477249e-02
  -1.575025e-01
  -1.380240e-01
  -1.362961e-01
  -1.505908e-01
  -1.427366e-01
  -3.199218e-02
   1.609073e-01
   2.644258e-01
   2.510736e-01
   2.240551e-01
   1.439422e-01
  -2.775091e-02
  -2.046278e-01
  -3.400344e-01
  -3.321802e-01
  -1.722684e-01
   5.361873e-02
   2.366219e-01
   3.013406e-01
   2.634833e-01
   2.785692e-02
  -2.679327e-01
  -3.181997e-01
  -1.128906e-01
   1.078128e-01
   1.774011e-01
   1.942091e-01
   1.153528e-01
  -9.576839e-02
  -2.288187e-01
  -2.302325e-01
  -1.631575e-01
  -5.948192e-02
   7.969472e-02
   1.596506e-01
   7.796679e-02
  -6.262361e-02
  -1.080210e-01
   3.319778e-02
   2.724371e-01
   3.814535e-01
   2.636404e-01
   6.084461e-02
  -1.017376e-01
  -1.887623e-01
  -2.388721e-01
  -2.826986e-01
  -1.637859e-01
   9.760232e-02
   3.179915e-01
   3.046394e-01
   8.126556e-02
  -6.670780e-02
  -1.334686e-01
  -1.919039e-01
  -3.145867e-01
  -4.952336e-01
  -5.233517e-01
  -3.329656e-01
  -2.633715e-02
   2.337944e-01
   4.447585e-01
   5.319403e-01
   4.199392e-01
   3.212903e-01
   1.910674e-01
  -2.611647e-04
  -1.062872e-02
   4.215158e-02
  -1.157123e-02
