Response and Fourier amplitude spectra (91 periods,  .04 - 15.0 sec)   for      
Corrected accelerogram   14654-F0274-01252.02       Chan  2:  Up         from   
Uncorrected Accelerogram Data             Processed: 09/10/01, CDMG  s654e02    
Earthquake of Sun Sep  9, 2001  16:59 PDT             (Avol1 v4.6  7/01 CSMIP)  
CSMIP Preliminary Processing            (Origin:  To be determined)             
14654-F0274-01252.02                 Start time:  9/09/01, 23:59 GMT (*LoQ*)    
Station No. 14654   33.920N, 118.390W     SSA-2  s/n  274  (3 Channels)         
El Segundo - 14-story Office Bldg                                               
Chan  2:  Up                        Location: 1st Floor: West Wall              
Earthquake of Sun Sep  9, 2001  16:59 PDT    Sun Sep  9, 2001  16:59 PDT        
Hypocenter:  To be determined.               ML:  To be determined.
Instr Period =  .0222 sec,  Damping =  .700,  Sensitivity = 1.25  v/g
                        Record length = 67.840 sec.
                                     Uncor Max  =   .005 g, at   2.755 sec.
RMS accel of (uncor) record  =        .
Accelerogram bandpass filtered with 3 dB pts at   .30 and 40.00 cyc/sec
                 instrument- and baseline-corrected





Earthquake of Sun Sep  9, 2001  16:59 PDT    Sun Sep  9, 2001  16:59 PDT

14654-F0274-01252.02      El Segundo - 14-story Office Bldg   Chan  2:  Up

14654-F0274-01252.02      El Segundo - 14-story Office Bldg   Chan  2:  Up

Units for spectra are inches and sec, except Sa is in fraction of g.

    2  100    2    3    3  200    1    3    1   12    6  274    014654    2    0
   23   59   37  700  252    9    9 2001    0    1  50013568   41   33   72  315
13568    1   50    0 3107    1    2   53    0   23   59   37  700    9    9 2001
    0    0    0    0 6784    2    0    0    0    0   72   33    0    0    0 6784
    0 6784   34   91    1    3    0    0    0    0   16    0    0    0    0    2
    2    2    4    0   79   99    1   32   32    0    0    0    0    0    9  132
  -99   -1    0    0
      .022      .700    67.840      .001      .000  1250.000      .005     2.755
    45.000  1220.703   976.563      .000     5.000      .000      .000      .000
     2.500   -21.083     -.022     -.033     5.120    30.000      .000     -.050
      .078      .128     2.000    15.000    33.920  -118.390     1.304      .460
      .352     -.041      .298  -999.000      .000      .000      .000      .000
      .671    -1.514      .000      .000      .000      .000      .000      .000
     4.600     4.400      .000   980.665      .010    67.840     7.162      .000
      .000    40.000      .000    67.840      .010      .300      .000      .000
     2.750     5.040     5.930      .167    35.590      .019      .000      .300
    40.000      .010      .010      .000      .010      .022      .000      .000
      .014      .180      .011      .008      .002      .000      .000      .000
      .000      .000      .000      .000      .000      .000      .000      .000
      .000      .000      .000      .000
      .050
      .040      .042      .044      .046      .048      .050      .055      .060
      .065      .070      .075      .080      .085      .090      .095      .100
      .110      .120      .130      .140      .150      .160      .170      .180
      .190      .200      .220      .240      .260      .280      .300      .320
      .340      .360      .380      .400      .420      .440      .460      .480
      .500      .550      .600      .650      .700      .750      .800      .850
      .900      .950     1.000     1.100     1.200     1.300     1.400     1.500
     1.600     1.700     1.800     1.900     2.000     2.200     2.400     2.600
     2.800     3.000     3.200     3.400     3.600     3.800     4.000     4.200
     4.400     4.600     4.800     5.000     5.500     6.000     6.500     7.000
     7.500     8.000     8.500     9.000     9.500    10.000    11.000    12.000
    13.000    14.000    15.000      .000      .000      .000      .000      .000
      .000      .000      .000      .000
Fourier amplitude spectra in in/sec.
  .000E+00  .000E+00  .000E+00  .000E+00  .000E+00  .000E+00  .000E+00  .000E+00
  .000E+00  .000E+00  .000E+00  .000E+00  .000E+00  .000E+00  .000E+00  .000E+00
  .000E+00  .000E+00  .000E+00  .000E+00  .000E+00  .000E+00  .000E+00  .000E+00
  .000E+00  .000E+00  .000E+00  .000E+00  .000E+00  .000E+00  .000E+00  .000E+00
  .000E+00  .000E+00  .000E+00  .000E+00  .000E+00  .000E+00  .000E+00  .000E+00
  .000E+00  .000E+00  .000E+00  .000E+00  .000E+00  .000E+00  .000E+00  .000E+00
  .000E+00  .000E+00  .000E+00  .000E+00  .000E+00  .000E+00  .000E+00  .000E+00
  .000E+00  .000E+00  .000E+00  .000E+00  .000E+00  .000E+00  .000E+00  .000E+00
  .000E+00  .000E+00  .000E+00  .000E+00  .000E+00  .000E+00  .000E+00  .000E+00
  .000E+00  .000E+00  .000E+00  .000E+00  .000E+00  .000E+00  .000E+00  .000E+00
  .000E+00  .000E+00  .000E+00  .000E+00  .000E+00  .000E+00  .000E+00  .000E+00
  .000E+00  .000E+00  .000E+00  .000E+00  .000E+00  .000E+00  .000E+00  .000E+00
  .000E+00  .000E+00  .000E+00  .000E+00
Damping =  .05. Data of Sd,Sv,Sa,Pssv,ttSd,ttSv,ttSa :
  .969E-04  .948E-04  .949E-04  .127E-03  .156E-03  .165E-03  .209E-03  .272E-03
  .371E-03  .387E-03  .451E-03  .535E-03  .619E-03  .618E-03  .801E-03  .999E-03
  .864E-03  .113E-02  .145E-02  .196E-02  .205E-02  .266E-02  .389E-02  .446E-02
  .420E-02  .385E-02  .476E-02  .624E-02  .673E-02  .640E-02  .653E-02  .797E-02
  .110E-01  .120E-01  .123E-01  .114E-01  .116E-01  .137E-01  .136E-01  .131E-01
  .137E-01  .155E-01  .132E-01  .154E-01  .171E-01  .183E-01  .183E-01  .197E-01
  .201E-01  .245E-01  .250E-01  .246E-01  .297E-01  .398E-01  .330E-01  .266E-01
  .368E-01  .333E-01  .343E-01  .345E-01  .380E-01  .334E-01  .232E-01  .207E-01
  .240E-01  .266E-01  .224E-01  .212E-01  .219E-01  .193E-01  .163E-01  .154E-01
  .154E-01  .141E-01  .132E-01  .127E-01  .122E-01  .120E-01  .139E-01  .114E-01
  .115E-01  .112E-01  .106E-01  .105E-01  .956E-02  .929E-02  .923E-02  .961E-02
  .932E-02  .897E-02  .923E-02  .000E+00  .000E+00  .000E+00  .000E+00  .000E+00
  .000E+00  .000E+00  .000E+00  .000E+00
  .616E-02  .735E-02  .834E-02  .840E-02  .809E-02  .838E-02  .103E-01  .168E-01
  .222E-01  .245E-01  .315E-01  .389E-01  .417E-01  .375E-01  .413E-01  .506E-01
  .414E-01  .502E-01  .573E-01  .807E-01  .822E-01  .973E-01  .130E+00  .146E+00
  .135E+00  .121E+00  .130E+00  .164E+00  .153E+00  .138E+00  .132E+00  .143E+00
  .210E+00  .229E+00  .209E+00  .193E+00  .179E+00  .193E+00  .189E+00  .179E+00
  .184E+00  .187E+00  .169E+00  .166E+00  .159E+00  .164E+00  .137E+00  .144E+00
  .154E+00  .164E+00  .160E+00  .150E+00  .169E+00  .210E+00  .170E+00  .132E+00
  .148E+00  .146E+00  .138E+00  .120E+00  .125E+00  .109E+00  .825E-01  .803E-01
  .819E-01  .853E-01  .720E-01  .722E-01  .653E-01  .644E-01  .636E-01  .628E-01
  .622E-01  .625E-01  .632E-01  .638E-01  .649E-01  .655E-01  .657E-01  .658E-01
  .658E-01  .657E-01  .656E-01  .656E-01  .655E-01  .654E-01  .653E-01  .652E-01
  .652E-01  .652E-01  .652E-01  .000E+00  .000E+00  .000E+00  .000E+00  .000E+00
  .000E+00  .000E+00  .000E+00  .000E+00
  .621E-02  .551E-02  .501E-02  .613E-02  .693E-02  .675E-02  .709E-02  .778E-02
  .904E-02  .815E-02  .820E-02  .848E-02  .873E-02  .785E-02  .912E-02  .101E-01
  .725E-02  .806E-02  .882E-02  .103E-01  .928E-02  .107E-01  .139E-01  .140E-01
  .120E-01  .982E-02  .101E-01  .112E-01  .102E-01  .836E-02  .749E-02  .800E-02
  .978E-02  .953E-02  .872E-02  .732E-02  .674E-02  .727E-02  .661E-02  .586E-02
  .563E-02  .528E-02  .378E-02  .375E-02  .358E-02  .334E-02  .294E-02  .280E-02
  .255E-02  .279E-02  .257E-02  .209E-02  .212E-02  .242E-02  .173E-02  .122E-02
  .148E-02  .118E-02  .109E-02  .985E-03  .976E-03  .711E-03  .417E-03  .317E-03
  .317E-03  .304E-03  .227E-03  .191E-03  .176E-03  .140E-03  .107E-03  .928E-04
  .848E-04  .714E-04  .615E-04  .550E-04  .442E-04  .357E-04  .357E-04  .259E-04
  .230E-04  .205E-04  .185E-04  .170E-04  .157E-04  .146E-04  .129E-04  .116E-04
  .106E-04  .969E-05  .897E-05  .000E+00  .000E+00  .000E+00  .000E+00  .000E+00
  .000E+00  .000E+00  .000E+00  .000E+00
  .152E-01  .142E-01  .136E-01  .174E-01  .204E-01  .207E-01  .239E-01  .284E-01
  .359E-01  .347E-01  .378E-01  .420E-01  .458E-01  .432E-01  .530E-01  .628E-01
  .494E-01  .591E-01  .703E-01  .878E-01  .859E-01  .105E+00  .144E+00  .156E+00
  .139E+00  .121E+00  .136E+00  .163E+00  .163E+00  .144E+00  .137E+00  .157E+00
  .203E+00  .209E+00  .203E+00  .179E+00  .173E+00  .196E+00  .186E+00  .172E+00
  .172E+00  .177E+00  .139E+00  .149E+00  .153E+00  .153E+00  .144E+00  .145E+00
  .141E+00  .162E+00  .157E+00  .140E+00  .156E+00  .192E+00  .148E+00  .111E+00
  .145E+00  .123E+00  .120E+00  .114E+00  .119E+00  .954E-01  .607E-01  .500E-01
  .538E-01  .556E-01  .439E-01  .391E-01  .383E-01  .320E-01  .256E-01  .231E-01
  .220E-01  .193E-01  .172E-01  .160E-01  .140E-01  .126E-01  .134E-01  .102E-01
  .963E-02  .878E-02  .786E-02  .735E-02  .632E-02  .584E-02  .527E-02  .503E-02
  .451E-02  .402E-02  .387E-02  .000E+00  .000E+00  .000E+00  .000E+00  .000E+00
  .000E+00  .000E+00  .000E+00  .000E+00
  .276E+01  .276E+01  .276E+01  .275E+01  .275E+01  .275E+01  .275E+01  .275E+01
  .276E+01  .276E+01  .206E+01  .207E+01  .200E+01  .377E+01  .377E+01  .378E+01
  .277E+01  .277E+01  .285E+01  .307E+01  .309E+01  .242E+01  .287E+01  .289E+01
  .290E+01  .639E+01  .601E+01  .603E+01  .606E+01  .311E+01  .221E+01  .312E+01
  .315E+01  .301E+01  .303E+01  .305E+01  .399E+01  .402E+01  .404E+01  .406E+01
  .407E+01  .388E+01  .292E+02  .164E+02  .411E+02  .408E+02  .445E+02  .446E+02
  .490E+02  .491E+02  .487E+02  .516E+02  .402E+02  .398E+02  .380E+02  .367E+02
  .548E+02  .503E+02  .496E+02  .657E+02  .622E+02  .544E+02  .444E+02  .239E+02
  .388E+02  .363E+02  .380E+02  .381E+02  .355E+02  .355E+02  .355E+02  .355E+02
  .356E+02  .356E+02  .356E+02  .356E+02  .356E+02  .623E+02  .509E+02  .509E+02
  .509E+02  .356E+02  .464E+02  .464E+02  .381E+02  .509E+02  .509E+02  .509E+02
  .509E+02  .509E+02  .356E+02  .000E+00  .000E+00  .000E+00  .000E+00  .000E+00
  .000E+00  .000E+00  .000E+00  .000E+00
  .301E+01  .496E+02  .496E+02  .176E+01  .177E+01  .243E+01  .297E+01  .187E+01
  .188E+01  .279E+01  .208E+01  .209E+01  .198E+01  .199E+01  .380E+01  .380E+01
  .382E+01  .280E+01  .281E+01  .311E+01  .313E+01  .313E+01  .283E+01  .284E+01
  .286E+01  .644E+01  .607E+01  .609E+01  .600E+01  .317E+01  .214E+01  .320E+01
  .307E+01  .309E+01  .311E+01  .278E+01  .279E+01  .413E+01  .415E+01  .395E+01
  .395E+01  .400E+01  .380E+01  .105E+02  .412E+02  .410E+02  .447E+02  .250E+02
  .248E+02  .489E+02  .490E+02  .514E+02  .404E+02  .401E+02  .383E+02  .378E+02
  .545E+02  .154E+02  .500E+02  .652E+02  .645E+02  .541E+02  .542E+02  .236E+02
  .383E+02  .383E+02  .358E+02  .358E+02  .382E+01  .382E+01  .382E+01  .382E+01
  .382E+01  .592E+01  .592E+01  .592E+01  .592E+01  .592E+01  .592E+01  .592E+01
  .592E+01  .592E+01  .592E+01  .592E+01  .592E+01  .592E+01  .592E+01  .592E+01
  .592E+01  .592E+01  .592E+01  .000E+00  .000E+00  .000E+00  .000E+00  .000E+00
  .000E+00  .000E+00  .000E+00  .000E+00
  .276E+01  .276E+01  .276E+01  .275E+01  .275E+01  .275E+01  .275E+01  .275E+01
  .276E+01  .276E+01  .206E+01  .207E+01  .200E+01  .377E+01  .377E+01  .378E+01
  .277E+01  .277E+01  .285E+01  .307E+01  .309E+01  .241E+01  .287E+01  .288E+01
  .290E+01  .639E+01  .601E+01  .603E+01  .606E+01  .310E+01  .220E+01  .312E+01
  .314E+01  .300E+01  .302E+01  .304E+01  .398E+01  .401E+01  .403E+01  .405E+01
  .406E+01  .387E+01  .292E+02  .164E+02  .410E+02  .408E+02  .445E+02  .446E+02
  .490E+02  .491E+02  .487E+02  .516E+02  .401E+02  .397E+02  .380E+02  .367E+02
  .548E+02  .502E+02  .496E+02  .656E+02  .621E+02  .544E+02  .444E+02  .239E+02
  .388E+02  .362E+02  .380E+02  .380E+02  .355E+02  .355E+02  .355E+02  .355E+02
  .355E+02  .355E+02  .355E+02  .355E+02  .355E+02  .622E+02  .508E+02  .508E+02
  .508E+02  .355E+02  .593E+01  .593E+01  .593E+01  .593E+01  .593E+01  .592E+01
  .592E+01  .592E+01  .592E+01  .000E+00  .000E+00  .000E+00  .000E+00  .000E+00
  .000E+00  .000E+00  .000E+00  .000E+00
/&   ----------  End of spectral data for channel  2  ----------
