Response and Fourier amplitude spectra (91 periods,  .04 - 15.0 sec)   for      
Corrected accelerogram   14654-F0274-01252.02       Chan  3:  90 Deg     from   
Uncorrected Accelerogram Data             Processed: 09/10/01, CDMG  s654e02    
Earthquake of Sun Sep  9, 2001  16:59 PDT             (Avol1 v4.6  7/01 CSMIP)  
CSMIP Preliminary Processing            (Origin:  To be determined)             
14654-F0274-01252.02                 Start time:  9/09/01, 23:59 GMT (*LoQ*)    
Station No. 14654   33.920N, 118.390W     SSA-2  s/n  274  (3 Channels)         
El Segundo - 14-story Office Bldg                                               
Chan  3:  90 Deg                    Location: 1st Floor: SW Corner              
Earthquake of Sun Sep  9, 2001  16:59 PDT    Sun Sep  9, 2001  16:59 PDT        
Hypocenter:  To be determined.               ML:  To be determined.
Instr Period =  .0222 sec,  Damping =  .700,  Sensitivity = 1.25  v/g
                        Record length = 67.840 sec.
                                     Uncor Max  =  -.007 g, at   5.095 sec.
RMS accel of (uncor) record  =        .
Accelerogram bandpass filtered with 3 dB pts at   .30 and 40.00 cyc/sec
                 instrument- and baseline-corrected





Earthquake of Sun Sep  9, 2001  16:59 PDT    Sun Sep  9, 2001  16:59 PDT

14654-F0274-01252.02      El Segundo - 14-story Office Bldg   Chan  3:  90 Deg

14654-F0274-01252.02      El Segundo - 14-story Office Bldg   Chan  3:  90 Deg

Units for spectra are inches and sec, except Sa is in fraction of g.

    3  100    3    3    3  200    1    3    1   12    6  274    014654    2    0
   23   59   37  700  252    9    9 2001    0    1   9013568   41   33   72  315
13568    1   50    0 3107    1    2   53    0   23   59   37  700    9    9 2001
    0    0    0    0 6784    2    0    0    0    0   72   33    0    0    0 6784
    0 6784   34   91    1    3    0    0    0    0   16    0    0    0    0    2
    2    2    4    0   79   99    1   32   32    0    0    0    0    0    9  132
  -99   -1    0    0
      .022      .700    67.840      .001      .000  1250.000     -.007     5.095
    45.000  1220.703   976.563      .000     5.000      .000      .000      .000
     2.500    -7.997     -.001     -.016     5.120    30.000      .000      .096
     -.140     -.236     2.000    15.000    33.920  -118.390     1.575      .205
      .130     -.439     -.032  -999.000      .000      .000      .000      .000
      .973    -1.209      .000      .000      .000      .000      .000      .000
     4.600     4.400      .000   980.665      .010    67.840     7.162      .000
      .000    40.000      .000    67.840      .010      .300      .000      .000
     5.120    -7.008     5.240     -.401     5.130      .062      .001      .300
    40.000      .010      .010      .000      .010      .027      .000      .000
      .021      .420      .019      .017      .005      .001      .000      .000
      .000      .000      .000      .000      .000      .000      .000      .000
      .000      .000      .000      .000
      .050
      .040      .042      .044      .046      .048      .050      .055      .060
      .065      .070      .075      .080      .085      .090      .095      .100
      .110      .120      .130      .140      .150      .160      .170      .180
      .190      .200      .220      .240      .260      .280      .300      .320
      .340      .360      .380      .400      .420      .440      .460      .480
      .500      .550      .600      .650      .700      .750      .800      .850
      .900      .950     1.000     1.100     1.200     1.300     1.400     1.500
     1.600     1.700     1.800     1.900     2.000     2.200     2.400     2.600
     2.800     3.000     3.200     3.400     3.600     3.800     4.000     4.200
     4.400     4.600     4.800     5.000     5.500     6.000     6.500     7.000
     7.500     8.000     8.500     9.000     9.500    10.000    11.000    12.000
    13.000    14.000    15.000      .000      .000      .000      .000      .000
      .000      .000      .000      .000
Fourier amplitude spectra in in/sec.
  .000E+00  .000E+00  .000E+00  .000E+00  .000E+00  .000E+00  .000E+00  .000E+00
  .000E+00  .000E+00  .000E+00  .000E+00  .000E+00  .000E+00  .000E+00  .000E+00
  .000E+00  .000E+00  .000E+00  .000E+00  .000E+00  .000E+00  .000E+00  .000E+00
  .000E+00  .000E+00  .000E+00  .000E+00  .000E+00  .000E+00  .000E+00  .000E+00
  .000E+00  .000E+00  .000E+00  .000E+00  .000E+00  .000E+00  .000E+00  .000E+00
  .000E+00  .000E+00  .000E+00  .000E+00  .000E+00  .000E+00  .000E+00  .000E+00
  .000E+00  .000E+00  .000E+00  .000E+00  .000E+00  .000E+00  .000E+00  .000E+00
  .000E+00  .000E+00  .000E+00  .000E+00  .000E+00  .000E+00  .000E+00  .000E+00
  .000E+00  .000E+00  .000E+00  .000E+00  .000E+00  .000E+00  .000E+00  .000E+00
  .000E+00  .000E+00  .000E+00  .000E+00  .000E+00  .000E+00  .000E+00  .000E+00
  .000E+00  .000E+00  .000E+00  .000E+00  .000E+00  .000E+00  .000E+00  .000E+00
  .000E+00  .000E+00  .000E+00  .000E+00  .000E+00  .000E+00  .000E+00  .000E+00
  .000E+00  .000E+00  .000E+00  .000E+00
Damping =  .05. Data of Sd,Sv,Sa,Pssv,ttSd,ttSv,ttSa :
  .127E-03  .147E-03  .162E-03  .180E-03  .198E-03  .214E-03  .289E-03  .327E-03
  .417E-03  .458E-03  .575E-03  .692E-03  .721E-03  .905E-03  .109E-02  .130E-02
  .127E-02  .165E-02  .206E-02  .266E-02  .380E-02  .491E-02  .487E-02  .527E-02
  .653E-02  .780E-02  .884E-02  .715E-02  .898E-02  .117E-01  .146E-01  .180E-01
  .188E-01  .174E-01  .224E-01  .304E-01  .352E-01  .339E-01  .302E-01  .275E-01
  .298E-01  .270E-01  .385E-01  .327E-01  .318E-01  .399E-01  .433E-01  .474E-01
  .498E-01  .468E-01  .525E-01  .417E-01  .417E-01  .409E-01  .429E-01  .505E-01
  .474E-01  .489E-01  .575E-01  .498E-01  .421E-01  .402E-01  .379E-01  .410E-01
  .477E-01  .496E-01  .418E-01  .332E-01  .284E-01  .277E-01  .290E-01  .307E-01
  .314E-01  .310E-01  .296E-01  .278E-01  .267E-01  .275E-01  .280E-01  .284E-01
  .285E-01  .286E-01  .285E-01  .284E-01  .283E-01  .281E-01  .277E-01  .273E-01
  .269E-01  .266E-01  .263E-01  .000E+00  .000E+00  .000E+00  .000E+00  .000E+00
  .000E+00  .000E+00  .000E+00  .000E+00
  .681E-02  .708E-02  .773E-02  .875E-02  .114E-01  .123E-01  .124E-01  .162E-01
  .242E-01  .236E-01  .375E-01  .484E-01  .488E-01  .494E-01  .577E-01  .728E-01
  .637E-01  .817E-01  .868E-01  .116E+00  .115E+00  .137E+00  .128E+00  .138E+00
  .156E+00  .186E+00  .236E+00  .164E+00  .203E+00  .238E+00  .296E+00  .340E+00
  .377E+00  .304E+00  .376E+00  .452E+00  .519E+00  .458E+00  .388E+00  .361E+00
  .362E+00  .304E+00  .398E+00  .327E+00  .327E+00  .351E+00  .368E+00  .322E+00
  .342E+00  .355E+00  .349E+00  .310E+00  .275E+00  .268E+00  .246E+00  .286E+00
  .258E+00  .235E+00  .260E+00  .260E+00  .210E+00  .199E+00  .201E+00  .244E+00
  .225E+00  .188E+00  .186E+00  .185E+00  .184E+00  .183E+00  .182E+00  .181E+00
  .180E+00  .179E+00  .178E+00  .178E+00  .176E+00  .174E+00  .172E+00  .171E+00
  .169E+00  .168E+00  .168E+00  .167E+00  .166E+00  .166E+00  .165E+00  .165E+00
  .164E+00  .164E+00  .164E+00  .000E+00  .000E+00  .000E+00  .000E+00  .000E+00
  .000E+00  .000E+00  .000E+00  .000E+00
  .812E-02  .853E-02  .859E-02  .871E-02  .879E-02  .879E-02  .977E-02  .935E-02
  .101E-01  .956E-02  .105E-01  .110E-01  .102E-01  .114E-01  .124E-01  .134E-01
  .106E-01  .119E-01  .125E-01  .138E-01  .174E-01  .196E-01  .173E-01  .167E-01
  .186E-01  .201E-01  .188E-01  .128E-01  .136E-01  .152E-01  .168E-01  .180E-01
  .168E-01  .138E-01  .159E-01  .195E-01  .205E-01  .180E-01  .147E-01  .123E-01
  .123E-01  .917E-02  .110E-01  .796E-02  .667E-02  .729E-02  .695E-02  .677E-02
  .635E-02  .534E-02  .539E-02  .354E-02  .299E-02  .250E-02  .226E-02  .231E-02
  .190E-02  .174E-02  .182E-02  .142E-02  .111E-02  .860E-03  .687E-03  .622E-03
  .644E-03  .591E-03  .445E-03  .321E-03  .250E-03  .221E-03  .210E-03  .202E-03
  .190E-03  .173E-03  .155E-03  .137E-03  .116E-03  .102E-03  .911E-04  .815E-04
  .733E-04  .662E-04  .601E-04  .549E-04  .503E-04  .464E-04  .399E-04  .349E-04
  .309E-04  .276E-04  .250E-04  .000E+00  .000E+00  .000E+00  .000E+00  .000E+00
  .000E+00  .000E+00  .000E+00  .000E+00
  .199E-01  .220E-01  .232E-01  .246E-01  .259E-01  .269E-01  .330E-01  .343E-01
  .403E-01  .411E-01  .482E-01  .543E-01  .533E-01  .632E-01  .722E-01  .815E-01
  .727E-01  .862E-01  .995E-01  .120E+00  .159E+00  .193E+00  .180E+00  .184E+00
  .216E+00  .245E+00  .252E+00  .187E+00  .217E+00  .262E+00  .306E+00  .354E+00
  .348E+00  .304E+00  .370E+00  .477E+00  .527E+00  .485E+00  .413E+00  .360E+00
  .374E+00  .308E+00  .403E+00  .316E+00  .285E+00  .334E+00  .340E+00  .351E+00
  .348E+00  .310E+00  .330E+00  .238E+00  .218E+00  .198E+00  .192E+00  .212E+00
  .186E+00  .181E+00  .201E+00  .165E+00  .132E+00  .115E+00  .993E-01  .990E-01
  .107E+00  .104E+00  .821E-01  .614E-01  .496E-01  .457E-01  .456E-01  .459E-01
  .449E-01  .424E-01  .388E-01  .349E-01  .305E-01  .288E-01  .271E-01  .255E-01
  .239E-01  .225E-01  .211E-01  .199E-01  .187E-01  .177E-01  .158E-01  .143E-01
  .130E-01  .119E-01  .110E-01  .000E+00  .000E+00  .000E+00  .000E+00  .000E+00
  .000E+00  .000E+00  .000E+00  .000E+00
  .509E+01  .509E+01  .510E+01  .510E+01  .510E+01  .509E+01  .510E+01  .510E+01
  .511E+01  .511E+01  .511E+01  .248E+01  .249E+01  .511E+01  .512E+01  .597E+01
  .599E+01  .845E+01  .576E+01  .601E+01  .511E+01  .512E+01  .513E+01  .513E+01
  .514E+01  .515E+01  .517E+01  .518E+01  .518E+01  .102E+02  .584E+01  .651E+01
  .673E+01  .180E+02  .105E+02  .109E+02  .112E+02  .128E+02  .128E+02  .548E+01
  .549E+01  .128E+02  .129E+02  .129E+02  .129E+02  .134E+02  .134E+02  .576E+01
  .578E+01  .581E+01  .131E+02  .818E+01  .132E+02  .167E+02  .197E+02  .223E+02
  .217E+02  .218E+02  .219E+02  .212E+02  .124E+02  .188E+02  .776E+01  .436E+02
  .124E+02  .124E+02  .124E+02  .124E+02  .124E+02  .124E+02  .124E+02  .124E+02
  .124E+02  .124E+02  .124E+02  .124E+02  .511E+01  .511E+01  .511E+01  .511E+01
  .511E+01  .511E+01  .511E+01  .511E+01  .511E+01  .511E+01  .511E+01  .511E+01
  .511E+01  .511E+01  .511E+01  .000E+00  .000E+00  .000E+00  .000E+00  .000E+00
  .000E+00  .000E+00  .000E+00  .000E+00
  .830E+01  .277E+01  .277E+01  .547E+01  .547E+01  .547E+01  .730E+01  .244E+01
  .245E+01  .249E+01  .249E+01  .250E+01  .251E+01  .265E+01  .589E+01  .589E+01
  .596E+01  .842E+01  .573E+01  .597E+01  .506E+01  .516E+01  .676E+01  .894E+01
  .518E+01  .520E+01  .587E+01  .525E+01  .526E+01  .103E+02  .590E+01  .579E+01
  .581E+01  .568E+01  .102E+02  .111E+02  .113E+02  .127E+02  .129E+02  .993E+01
  .538E+01  .542E+01  .127E+02  .128E+02  .582E+01  .128E+02  .133E+02  .133E+02
  .520E+01  .521E+01  .133E+02  .125E+02  .125E+02  .125E+02  .523E+01  .125E+02
  .221E+02  .523E+01  .125E+02  .125E+02  .126E+02  .523E+01  .125E+02  .125E+02
  .125E+02  .523E+01  .523E+01  .523E+01  .523E+01  .523E+01  .523E+01  .523E+01
  .523E+01  .523E+01  .523E+01  .523E+01  .523E+01  .523E+01  .523E+01  .523E+01
  .523E+01  .523E+01  .523E+01  .523E+01  .523E+01  .523E+01  .523E+01  .523E+01
  .523E+01  .523E+01  .523E+01  .000E+00  .000E+00  .000E+00  .000E+00  .000E+00
  .000E+00  .000E+00  .000E+00  .000E+00
  .509E+01  .509E+01  .509E+01  .510E+01  .510E+01  .509E+01  .509E+01  .510E+01
  .511E+01  .510E+01  .511E+01  .248E+01  .249E+01  .511E+01  .511E+01  .597E+01
  .599E+01  .845E+01  .576E+01  .600E+01  .510E+01  .512E+01  .513E+01  .513E+01
  .513E+01  .514E+01  .516E+01  .517E+01  .518E+01  .102E+02  .583E+01  .650E+01
  .672E+01  .180E+02  .105E+02  .109E+02  .112E+02  .128E+02  .128E+02  .547E+01
  .548E+01  .128E+02  .129E+02  .129E+02  .129E+02  .134E+02  .134E+02  .574E+01
  .577E+01  .579E+01  .131E+02  .816E+01  .132E+02  .167E+02  .197E+02  .222E+02
  .217E+02  .218E+02  .219E+02  .212E+02  .124E+02  .188E+02  .771E+01  .435E+02
  .124E+02  .124E+02  .124E+02  .124E+02  .124E+02  .124E+02  .124E+02  .124E+02
  .124E+02  .124E+02  .124E+02  .124E+02  .506E+01  .506E+01  .506E+01  .506E+01
  .506E+01  .506E+01  .506E+01  .506E+01  .506E+01  .505E+01  .505E+01  .505E+01
  .505E+01  .505E+01  .505E+01  .000E+00  .000E+00  .000E+00  .000E+00  .000E+00
  .000E+00  .000E+00  .000E+00  .000E+00
/&   ----------  End of spectral data for channel  3  ----------
