Response and Fourier amplitude spectra (91 periods,  .04 - 15.0 sec)   for      
Corrected accelerogram   24689-F0847-01252.02       Chan  3:  Long       from   
Uncorrected Accelerogram Data             Processed: 09/10/01, CDMG  s689e02    
Earthquake of Sun Sep  9, 2001  17:00 PDT             (Avol1 v4.6  7/01 CSMIP)  
CSMIP Preliminary Processing            (Origin:  To be determined)             
24689-F0847-01252.02                 Start time:  9/10/01, 00:00 GMT (*LoQ*)    
Station No. 24689   34.150N, 118.154W     SSA-2  s/n  847  (3 Channels)         
Pasadena - I210/Hwy134 Interchnge Bridge                                        
Chan  3:  Long                      Location: South Abutment                    
Earthquake of Sun Sep  9, 2001  17:00 PDT    Sun Sep  9, 2001  17:00 PDT        
Hypocenter:  To be determined.               ML:  To be determined.
Instr Period =  .0222 sec,  Damping =  .700,  Sensitivity = 1.25  v/g
                        Record length = 67.840 sec.
                                     Uncor Max  =  -.012 g, at   5.585 sec.
RMS accel of (uncor) record  =        .
Accelerogram bandpass filtered with 3 dB pts at   .30 and 40.00 cyc/sec
                 instrument- and baseline-corrected





Earthquake of Sun Sep  9, 2001  17:00 PDT    Sun Sep  9, 2001  17:00 PDT

24689-F0847-01252.02      Pasadena - I210/Hwy134 Interchnge Bridge    Chan  3:
Long
24689-F0847-01252.02      Pasadena - I210/Hwy134 Interchnge Bridge    Chan  3:
Long
Units for spectra are inches and sec, except Sa is in fraction of g.

    3  100    3    3    3  200    1    3    1   12    6  847    024689    3    0
    0    0   30  140  253    9   10 2001    0    1  80013568   41   40   72   40
13568    1   50    0 3117    1    2   53    0    0    0   30  140    9   10 2001
    0    0    0    0 6784    2    0    0    0    0   72   40    0    0    0 6784
    0 6784   41   91    1    3    0    0    0    0    6    0    0    0    0    2
    2    2    4    0   66   99    1   32   32    0    0    0    0    0    9  130
  -99   -1    0    0
      .022      .700    67.840      .001      .000  1250.000     -.012     5.585
    45.000  1220.703   976.563      .000     5.000      .000      .000      .000
     2.500    13.792      .032      .006     5.120    30.000      .000      .023
      .103      .080     2.000    15.000    34.150  -118.154      .391      .130
      .332      .029      .131  -999.000      .000      .000      .000      .000
     1.210    -1.144      .000      .000      .000      .000      .000      .000
     4.600     4.400      .000   980.665      .010    67.840     7.162      .000
      .000    40.000      .000    67.840      .010      .300      .000      .000
     5.580   -11.029     5.680     -.573     5.590      .036     -.002      .300
    40.000      .010      .010      .001      .010      .018      .000      .000
      .049      .280      .033      .036      .003      .000      .000      .000
      .000      .000      .000      .000      .000      .000      .000      .000
      .000      .000      .000      .000
      .050
      .040      .042      .044      .046      .048      .050      .055      .060
      .065      .070      .075      .080      .085      .090      .095      .100
      .110      .120      .130      .140      .150      .160      .170      .180
      .190      .200      .220      .240      .260      .280      .300      .320
      .340      .360      .380      .400      .420      .440      .460      .480
      .500      .550      .600      .650      .700      .750      .800      .850
      .900      .950     1.000     1.100     1.200     1.300     1.400     1.500
     1.600     1.700     1.800     1.900     2.000     2.200     2.400     2.600
     2.800     3.000     3.200     3.400     3.600     3.800     4.000     4.200
     4.400     4.600     4.800     5.000     5.500     6.000     6.500     7.000
     7.500     8.000     8.500     9.000     9.500    10.000    11.000    12.000
    13.000    14.000    15.000      .000      .000      .000      .000      .000
      .000      .000      .000      .000
Fourier amplitude spectra in in/sec.
  .000E+00  .000E+00  .000E+00  .000E+00  .000E+00  .000E+00  .000E+00  .000E+00
  .000E+00  .000E+00  .000E+00  .000E+00  .000E+00  .000E+00  .000E+00  .000E+00
  .000E+00  .000E+00  .000E+00  .000E+00  .000E+00  .000E+00  .000E+00  .000E+00
  .000E+00  .000E+00  .000E+00  .000E+00  .000E+00  .000E+00  .000E+00  .000E+00
  .000E+00  .000E+00  .000E+00  .000E+00  .000E+00  .000E+00  .000E+00  .000E+00
  .000E+00  .000E+00  .000E+00  .000E+00  .000E+00  .000E+00  .000E+00  .000E+00
  .000E+00  .000E+00  .000E+00  .000E+00  .000E+00  .000E+00  .000E+00  .000E+00
  .000E+00  .000E+00  .000E+00  .000E+00  .000E+00  .000E+00  .000E+00  .000E+00
  .000E+00  .000E+00  .000E+00  .000E+00  .000E+00  .000E+00  .000E+00  .000E+00
  .000E+00  .000E+00  .000E+00  .000E+00  .000E+00  .000E+00  .000E+00  .000E+00
  .000E+00  .000E+00  .000E+00  .000E+00  .000E+00  .000E+00  .000E+00  .000E+00
  .000E+00  .000E+00  .000E+00  .000E+00  .000E+00  .000E+00  .000E+00  .000E+00
  .000E+00  .000E+00  .000E+00  .000E+00
Damping =  .05. Data of Sd,Sv,Sa,Pssv,ttSd,ttSv,ttSa :
  .198E-03  .240E-03  .294E-03  .354E-03  .401E-03  .432E-03  .605E-03  .812E-03
  .949E-03  .136E-02  .167E-02  .188E-02  .193E-02  .224E-02  .259E-02  .258E-02
  .275E-02  .409E-02  .521E-02  .463E-02  .539E-02  .736E-02  .946E-02  .101E-01
  .113E-01  .126E-01  .169E-01  .170E-01  .240E-01  .375E-01  .324E-01  .210E-01
  .196E-01  .214E-01  .217E-01  .249E-01  .267E-01  .295E-01  .352E-01  .395E-01
  .404E-01  .514E-01  .543E-01  .476E-01  .503E-01  .434E-01  .385E-01  .372E-01
  .350E-01  .318E-01  .319E-01  .276E-01  .260E-01  .235E-01  .205E-01  .192E-01
  .192E-01  .184E-01  .199E-01  .220E-01  .227E-01  .198E-01  .167E-01  .154E-01
  .161E-01  .155E-01  .153E-01  .177E-01  .194E-01  .203E-01  .205E-01  .201E-01
  .193E-01  .182E-01  .181E-01  .185E-01  .180E-01  .162E-01  .164E-01  .168E-01
  .174E-01  .176E-01  .175E-01  .171E-01  .166E-01  .160E-01  .149E-01  .150E-01
  .145E-01  .153E-01  .163E-01  .000E+00  .000E+00  .000E+00  .000E+00  .000E+00
  .000E+00  .000E+00  .000E+00  .000E+00
  .168E-01  .170E-01  .208E-01  .238E-01  .254E-01  .297E-01  .486E-01  .513E-01
  .681E-01  .104E+00  .132E+00  .136E+00  .124E+00  .130E+00  .157E+00  .145E+00
  .135E+00  .185E+00  .231E+00  .186E+00  .186E+00  .235E+00  .321E+00  .327E+00
  .320E+00  .358E+00  .420E+00  .423E+00  .536E+00  .818E+00  .681E+00  .455E+00
  .368E+00  .368E+00  .375E+00  .411E+00  .413E+00  .458E+00  .466E+00  .505E+00
  .530E+00  .604E+00  .633E+00  .569E+00  .481E+00  .483E+00  .460E+00  .391E+00
  .336E+00  .333E+00  .328E+00  .316E+00  .308E+00  .301E+00  .287E+00  .277E+00
  .274E+00  .275E+00  .273E+00  .266E+00  .254E+00  .233E+00  .225E+00  .228E+00
  .234E+00  .239E+00  .240E+00  .239E+00  .236E+00  .232E+00  .229E+00  .226E+00
  .223E+00  .221E+00  .220E+00  .219E+00  .219E+00  .220E+00  .221E+00  .223E+00
  .224E+00  .225E+00  .226E+00  .226E+00  .227E+00  .227E+00  .227E+00  .227E+00
  .227E+00  .227E+00  .227E+00  .000E+00  .000E+00  .000E+00  .000E+00  .000E+00
  .000E+00  .000E+00  .000E+00  .000E+00
  .127E-01  .140E-01  .156E-01  .171E-01  .177E-01  .175E-01  .206E-01  .231E-01
  .231E-01  .285E-01  .309E-01  .303E-01  .274E-01  .283E-01  .296E-01  .264E-01
  .232E-01  .291E-01  .318E-01  .241E-01  .248E-01  .295E-01  .338E-01  .320E-01
  .319E-01  .321E-01  .358E-01  .305E-01  .365E-01  .494E-01  .368E-01  .210E-01
  .174E-01  .169E-01  .155E-01  .160E-01  .156E-01  .156E-01  .171E-01  .176E-01
  .166E-01  .175E-01  .155E-01  .116E-01  .106E-01  .798E-02  .621E-02  .532E-02
  .447E-02  .365E-02  .329E-02  .237E-02  .188E-02  .146E-02  .110E-02  .907E-03
  .800E-03  .683E-03  .664E-03  .662E-03  .621E-03  .460E-03  .318E-03  .277E-03
  .230E-03  .197E-03  .184E-03  .186E-03  .183E-03  .173E-03  .160E-03  .145E-03
  .130E-03  .118E-03  .115E-03  .110E-03  .939E-04  .775E-04  .661E-04  .627E-04
  .585E-04  .542E-04  .502E-04  .465E-04  .431E-04  .400E-04  .348E-04  .307E-04
  .275E-04  .249E-04  .228E-04  .000E+00  .000E+00  .000E+00  .000E+00  .000E+00
  .000E+00  .000E+00  .000E+00  .000E+00
  .311E-01  .359E-01  .420E-01  .484E-01  .525E-01  .543E-01  .691E-01  .850E-01
  .917E-01  .122E+00  .140E+00  .148E+00  .143E+00  .156E+00  .172E+00  .162E+00
  .157E+00  .214E+00  .252E+00  .208E+00  .226E+00  .289E+00  .350E+00  .352E+00
  .373E+00  .396E+00  .482E+00  .446E+00  .579E+00  .841E+00  .679E+00  .412E+00
  .361E+00  .373E+00  .360E+00  .391E+00  .399E+00  .421E+00  .481E+00  .517E+00
  .508E+00  .588E+00  .568E+00  .460E+00  .452E+00  .364E+00  .303E+00  .275E+00
  .244E+00  .210E+00  .200E+00  .158E+00  .136E+00  .114E+00  .921E-01  .806E-01
  .755E-01  .679E-01  .694E-01  .728E-01  .713E-01  .565E-01  .438E-01  .372E-01
  .361E-01  .326E-01  .301E-01  .327E-01  .338E-01  .335E-01  .322E-01  .301E-01
  .276E-01  .249E-01  .237E-01  .233E-01  .206E-01  .169E-01  .159E-01  .151E-01
  .146E-01  .138E-01  .129E-01  .119E-01  .110E-01  .101E-01  .849E-02  .785E-02
  .703E-02  .686E-02  .683E-02  .000E+00  .000E+00  .000E+00  .000E+00  .000E+00
  .000E+00  .000E+00  .000E+00  .000E+00
  .538E+01  .538E+01  .539E+01  .539E+01  .539E+01  .539E+01  .557E+01  .558E+01
  .565E+01  .566E+01  .566E+01  .571E+01  .572E+01  .573E+01  .584E+01  .584E+01
  .627E+01  .635E+01  .600E+01  .549E+01  .549E+01  .559E+01  .647E+01  .561E+01
  .562E+01  .563E+01  .677E+01  .579E+01  .678E+01  .682E+01  .685E+01  .588E+01
  .703E+01  .705E+01  .726E+01  .708E+01  .711E+01  .760E+01  .811E+01  .814E+01
  .816E+01  .822E+01  .749E+01  .697E+01  .674E+01  .677E+01  .613E+01  .615E+01
  .753E+01  .756E+01  .918E+01  .580E+01  .581E+01  .581E+01  .581E+01  .581E+01
  .581E+01  .581E+01  .557E+01  .557E+01  .557E+01  .558E+01  .999E+01  .675E+01
  .581E+01  .581E+01  .557E+01  .557E+01  .557E+01  .558E+01  .558E+01  .558E+01
  .558E+01  .558E+01  .675E+01  .675E+01  .675E+01  .675E+01  .519E+01  .581E+01
  .581E+01  .581E+01  .581E+01  .581E+01  .581E+01  .581E+01  .803E+01  .803E+01
  .803E+01  .558E+01  .558E+01  .000E+00  .000E+00  .000E+00  .000E+00  .000E+00
  .000E+00  .000E+00  .000E+00  .000E+00
  .532E+01  .533E+01  .533E+01  .533E+01  .590E+01  .548E+01  .555E+01  .557E+01
  .567E+01  .568E+01  .568E+01  .569E+01  .570E+01  .570E+01  .586E+01  .587E+01
  .630E+01  .632E+01  .597E+01  .605E+01  .553E+01  .546E+01  .643E+01  .645E+01
  .558E+01  .558E+01  .572E+01  .573E+01  .685E+01  .689E+01  .692E+01  .594E+01
  .693E+01  .716E+01  .717E+01  .718E+01  .721E+01  .770E+01  .799E+01  .802E+01
  .830E+01  .808E+01  .761E+01  .682E+01  .685E+01  .666E+01  .667E+01  .668E+01
  .567E+01  .567E+01  .567E+01  .567E+01  .567E+01  .567E+01  .567E+01  .567E+01
  .567E+01  .567E+01  .567E+01  .567E+01  .567E+01  .567E+01  .567E+01  .567E+01
  .567E+01  .567E+01  .567E+01  .567E+01  .567E+01  .567E+01  .567E+01  .567E+01
  .567E+01  .567E+01  .567E+01  .567E+01  .567E+01  .567E+01  .567E+01  .567E+01
  .567E+01  .567E+01  .567E+01  .567E+01  .567E+01  .567E+01  .567E+01  .567E+01
  .567E+01  .567E+01  .567E+01  .000E+00  .000E+00  .000E+00  .000E+00  .000E+00
  .000E+00  .000E+00  .000E+00  .000E+00
  .538E+01  .538E+01  .539E+01  .539E+01  .539E+01  .539E+01  .557E+01  .558E+01
  .565E+01  .566E+01  .566E+01  .571E+01  .572E+01  .573E+01  .584E+01  .584E+01
  .627E+01  .635E+01  .600E+01  .549E+01  .549E+01  .559E+01  .647E+01  .561E+01
  .562E+01  .563E+01  .676E+01  .578E+01  .678E+01  .681E+01  .685E+01  .587E+01
  .703E+01  .705E+01  .725E+01  .708E+01  .710E+01  .760E+01  .810E+01  .813E+01
  .816E+01  .821E+01  .748E+01  .696E+01  .673E+01  .675E+01  .612E+01  .613E+01
  .752E+01  .754E+01  .916E+01  .579E+01  .579E+01  .579E+01  .579E+01  .579E+01
  .579E+01  .579E+01  .555E+01  .555E+01  .555E+01  .555E+01  .996E+01  .671E+01
  .671E+01  .578E+01  .555E+01  .555E+01  .555E+01  .555E+01  .555E+01  .555E+01
  .555E+01  .670E+01  .670E+01  .670E+01  .670E+01  .670E+01  .570E+01  .570E+01
  .570E+01  .570E+01  .569E+01  .569E+01  .569E+01  .569E+01  .569E+01  .569E+01
  .568E+01  .568E+01  .568E+01  .000E+00  .000E+00  .000E+00  .000E+00  .000E+00
  .000E+00  .000E+00  .000E+00  .000E+00
/&   ----------  End of spectral data for channel  3  ----------
