Response and Fourier amplitude spectra (91 periods,  .04 - 15.0 sec)   for      
Corrected accelerogram   24866-L1338-01253.19       Chan  1: 360 Deg     from   
Uncorrected Accelerogram Data             Processed: 09/10/01, CDMG  am019      
Record of Sun Sep  9, 2001 16:59:21 PDT               (Avol1 v4.6  7/01 CSMIP)  
CSMIP Preliminary Processing            (Origin:  To be determined)             
24866-L1338-01253.19                 Start time:  9/09/01, 23:59:21.0 UTC (GPS) 
Station No. 24866   34.193N, 118.547W      Etna  s/n 1338  (3 Channels)         
(LADOT 7; real-time?)                                                           
Chan  1: 360 Deg                                                                
Record of Sun Sep  9, 2001 16:59:21 PDT    Sun Sep  9, 2001 16:59:21 PDT        
Hypocenter:  To be determined.               ML:  To be determined.             
Instr Period =  .0108 sec,  Damping =  .660,  Sensitivity =  .63  v/g           
                        Record length = 40.000 sec.                             
                                     Uncor Max  =   .019 g, at   5.115 sec.     
RMS accel of (uncor) record  =        .                                         
Accelerogram bandpass filtered with 3 dB pts at   .30 and 40.00 cyc/sec         
                 instrument- and baseline-corrected                             
                                                                                
                                                                                
                                                                                
                                                                                
                                                                                
Record of Sun Sep  9, 2001 16:59:21 PDT    Sun Sep  9, 2001 16:59:21 PDT        
                                                                                
24866-L1338-01253.19      (LADOT 7; real-time?)   Chan  1: 360 Deg              
                                                                                
24866-L1338-01253.19      (LADOT 7; real-time?)   Chan  1: 360 Deg              
                                                                                
Units for spectra are inches and sec, except Sa is in fraction of g.            
                                                                                
    1  100    1    3    3  200    1    3    1   24   12 1338    024866    1    0
   23   59   21    0  252    9    9 2001   10    3  360 8000   39   21   72  360
 8000    1   50    3 1338    1   19  400    1    0    0    0    0    0    0    0
    0    4    0    0 4000    2    0    0    0    0   72   21    0    0    0 4000
    0 4000   22   91    1    3    0    0    0    0    3    0    0    0    0    2
    2    2    4    0   32   99    0   32   32    0    0    1    0    0    0    0
  -99   -1    0    0
      .011      .660    40.000      .002      .000   625.000      .019     5.115
    92.300      .298      .477      .000     5.000      .000      .000      .000
     2.500    -2.344      .010     -.014     5.000    30.000      .000      .020
      .003     -.017     2.000    15.000    34.193  -118.547      .311      .562
     1.809     -.065      .031  -999.000      .000      .000   -13.400      .000
  1000.000     1.014      .000      .000      .000      .000      .000      .000
     4.600     4.400      .000   980.665      .010    40.000    14.690      .000
      .000    40.000      .000    40.000      .010      .300      .000      .000
     5.110    18.959     7.120     -.818     5.100     -.071      .000      .300
    40.000      .010      .010      .000      .010      .029      .000      .000
      .067      .170      .041      .033      .006      .000      .000      .000
      .000      .000      .000      .000      .000      .000      .000      .000
      .000      .000      .000      .000
      .050
      .040      .042      .044      .046      .048      .050      .055      .060
      .065      .070      .075      .080      .085      .090      .095      .100
      .110      .120      .130      .140      .150      .160      .170      .180
      .190      .200      .220      .240      .260      .280      .300      .320
      .340      .360      .380      .400      .420      .440      .460      .480
      .500      .550      .600      .650      .700      .750      .800      .850
      .900      .950     1.000     1.100     1.200     1.300     1.400     1.500
     1.600     1.700     1.800     1.900     2.000     2.200     2.400     2.600
     2.800     3.000     3.200     3.400     3.600     3.800     4.000     4.200
     4.400     4.600     4.800     5.000     5.500     6.000     6.500     7.000
     7.500     8.000     8.500     9.000     9.500    10.000    11.000    12.000
    13.000    14.000    15.000      .000      .000      .000      .000      .000
      .000      .000      .000      .000
Fourier amplitude spectra in in/sec.
  .000E+00  .000E+00  .000E+00  .000E+00  .000E+00  .000E+00  .000E+00  .000E+00
  .000E+00  .000E+00  .000E+00  .000E+00  .000E+00  .000E+00  .000E+00  .000E+00
  .000E+00  .000E+00  .000E+00  .000E+00  .000E+00  .000E+00  .000E+00  .000E+00
  .000E+00  .000E+00  .000E+00  .000E+00  .000E+00  .000E+00  .000E+00  .000E+00
  .000E+00  .000E+00  .000E+00  .000E+00  .000E+00  .000E+00  .000E+00  .000E+00
  .000E+00  .000E+00  .000E+00  .000E+00  .000E+00  .000E+00  .000E+00  .000E+00
  .000E+00  .000E+00  .000E+00  .000E+00  .000E+00  .000E+00  .000E+00  .000E+00
  .000E+00  .000E+00  .000E+00  .000E+00  .000E+00  .000E+00  .000E+00  .000E+00
  .000E+00  .000E+00  .000E+00  .000E+00  .000E+00  .000E+00  .000E+00  .000E+00
  .000E+00  .000E+00  .000E+00  .000E+00  .000E+00  .000E+00  .000E+00  .000E+00
  .000E+00  .000E+00  .000E+00  .000E+00  .000E+00  .000E+00  .000E+00  .000E+00
  .000E+00  .000E+00  .000E+00  .000E+00  .000E+00  .000E+00  .000E+00  .000E+00
  .000E+00  .000E+00  .000E+00  .000E+00
Damping =  .05. Data of Sd,Sv,Sa,Pssv,ttSd,ttSv,ttSa :
  .316E-03  .352E-03  .395E-03  .445E-03  .493E-03  .536E-03  .680E-03  .857E-03
  .104E-02  .134E-02  .149E-02  .167E-02  .210E-02  .297E-02  .355E-02  .385E-02
  .549E-02  .760E-02  .935E-02  .103E-01  .108E-01  .141E-01  .189E-01  .210E-01
  .189E-01  .140E-01  .167E-01  .179E-01  .179E-01  .232E-01  .294E-01  .350E-01
  .374E-01  .405E-01  .394E-01  .418E-01  .445E-01  .459E-01  .441E-01  .446E-01
  .482E-01  .674E-01  .491E-01  .632E-01  .537E-01  .656E-01  .787E-01  .677E-01
  .526E-01  .505E-01  .589E-01  .714E-01  .782E-01  .677E-01  .513E-01  .453E-01
  .397E-01  .368E-01  .346E-01  .351E-01  .352E-01  .349E-01  .342E-01  .336E-01
  .331E-01  .328E-01  .327E-01  .327E-01  .327E-01  .327E-01  .327E-01  .327E-01
  .326E-01  .326E-01  .325E-01  .324E-01  .321E-01  .318E-01  .315E-01  .313E-01
  .310E-01  .308E-01  .306E-01  .305E-01  .303E-01  .302E-01  .300E-01  .298E-01
  .297E-01  .296E-01  .295E-01  .000E+00  .000E+00  .000E+00  .000E+00  .000E+00
  .000E+00  .000E+00  .000E+00  .000E+00
  .122E-01  .142E-01  .159E-01  .172E-01  .180E-01  .199E-01  .272E-01  .319E-01
  .478E-01  .601E-01  .687E-01  .739E-01  .882E-01  .140E+00  .175E+00  .185E+00
  .260E+00  .355E+00  .420E+00  .430E+00  .449E+00  .491E+00  .650E+00  .688E+00
  .601E+00  .443E+00  .475E+00  .469E+00  .469E+00  .535E+00  .586E+00  .690E+00
  .760E+00  .752E+00  .718E+00  .697E+00  .661E+00  .664E+00  .644E+00  .648E+00
  .694E+00  .760E+00  .552E+00  .610E+00  .585E+00  .611E+00  .612E+00  .553E+00
  .490E+00  .478E+00  .474E+00  .504E+00  .500E+00  .541E+00  .516E+00  .467E+00
  .417E+00  .377E+00  .351E+00  .338E+00  .334E+00  .338E+00  .343E+00  .346E+00
  .347E+00  .347E+00  .347E+00  .345E+00  .344E+00  .342E+00  .340E+00  .338E+00
  .336E+00  .334E+00  .333E+00  .331E+00  .329E+00  .328E+00  .327E+00  .326E+00
  .326E+00  .326E+00  .325E+00  .325E+00  .325E+00  .325E+00  .325E+00  .325E+00
  .324E+00  .324E+00  .324E+00  .000E+00  .000E+00  .000E+00  .000E+00  .000E+00
  .000E+00  .000E+00  .000E+00  .000E+00
  .202E-01  .204E-01  .209E-01  .215E-01  .219E-01  .219E-01  .230E-01  .243E-01
  .253E-01  .280E-01  .270E-01  .268E-01  .297E-01  .376E-01  .404E-01  .388E-01
  .463E-01  .535E-01  .565E-01  .529E-01  .498E-01  .571E-01  .668E-01  .663E-01
  .534E-01  .357E-01  .354E-01  .317E-01  .272E-01  .304E-01  .337E-01  .350E-01
  .332E-01  .321E-01  .281E-01  .268E-01  .259E-01  .243E-01  .215E-01  .199E-01
  .198E-01  .229E-01  .140E-01  .154E-01  .113E-01  .120E-01  .127E-01  .965E-02
  .668E-02  .576E-02  .605E-02  .610E-02  .560E-02  .415E-02  .272E-02  .211E-02
  .164E-02  .136E-02  .115E-02  .106E-02  .962E-03  .799E-03  .667E-03  .566E-03
  .489E-03  .429E-03  .381E-03  .342E-03  .310E-03  .282E-03  .258E-03  .237E-03
  .219E-03  .203E-03  .188E-03  .176E-03  .150E-03  .129E-03  .113E-03  .101E-03
  .900E-04  .813E-04  .740E-04  .678E-04  .625E-04  .579E-04  .505E-04  .450E-04
  .412E-04  .381E-04  .354E-04  .000E+00  .000E+00  .000E+00  .000E+00  .000E+00
  .000E+00  .000E+00  .000E+00  .000E+00
  .497E-01  .527E-01  .564E-01  .608E-01  .645E-01  .673E-01  .777E-01  .898E-01
  .101E+00  .120E+00  .125E+00  .131E+00  .155E+00  .208E+00  .235E+00  .242E+00
  .314E+00  .398E+00  .452E+00  .460E+00  .452E+00  .555E+00  .697E+00  .732E+00
  .625E+00  .439E+00  .476E+00  .469E+00  .433E+00  .520E+00  .615E+00  .687E+00
  .691E+00  .706E+00  .652E+00  .657E+00  .666E+00  .655E+00  .602E+00  .583E+00
  .606E+00  .770E+00  .515E+00  .611E+00  .482E+00  .549E+00  .618E+00  .500E+00
  .367E+00  .334E+00  .370E+00  .408E+00  .409E+00  .327E+00  .230E+00  .190E+00
  .156E+00  .136E+00  .121E+00  .116E+00  .111E+00  .998E-01  .896E-01  .811E-01
  .742E-01  .687E-01  .642E-01  .604E-01  .571E-01  .541E-01  .514E-01  .489E-01
  .466E-01  .445E-01  .425E-01  .407E-01  .367E-01  .333E-01  .305E-01  .281E-01
  .260E-01  .242E-01  .226E-01  .213E-01  .201E-01  .190E-01  .171E-01  .156E-01
  .143E-01  .133E-01  .124E-01  .000E+00  .000E+00  .000E+00  .000E+00  .000E+00
  .000E+00  .000E+00  .000E+00  .000E+00
  .511E+01  .511E+01  .530E+01  .530E+01  .530E+01  .530E+01  .511E+01  .511E+01
  .530E+01  .530E+01  .530E+01  .530E+01  .530E+01  .530E+01  .531E+01  .531E+01
  .531E+01  .532E+01  .533E+01  .534E+01  .597E+01  .708E+01  .718E+01  .720E+01
  .722E+01  .723E+01  .851E+01  .799E+01  .546E+01  .547E+01  .548E+01  .550E+01
  .552E+01  .861E+01  .538E+01  .539E+01  .540E+01  .778E+01  .542E+01  .542E+01
  .104E+02  .928E+01  .113E+02  .111E+02  .111E+02  .106E+02  .103E+02  .996E+01
  .100E+02  .751E+01  .754E+01  .718E+01  .722E+01  .725E+01  .727E+01  .689E+01
  .627E+01  .628E+01  .509E+01  .509E+01  .509E+01  .509E+01  .509E+01  .509E+01
  .509E+01  .509E+01  .509E+01  .509E+01  .509E+01  .509E+01  .509E+01  .509E+01
  .509E+01  .509E+01  .509E+01  .509E+01  .509E+01  .509E+01  .509E+01  .509E+01
  .509E+01  .509E+01  .509E+01  .509E+01  .509E+01  .509E+01  .509E+01  .509E+01
  .509E+01  .509E+01  .509E+01  .000E+00  .000E+00  .000E+00  .000E+00  .000E+00
  .000E+00  .000E+00  .000E+00  .000E+00
  .527E+01  .527E+01  .528E+01  .528E+01  .528E+01  .532E+01  .532E+01  .513E+01
  .527E+01  .532E+01  .533E+01  .533E+01  .546E+01  .533E+01  .534E+01  .533E+01
  .534E+01  .535E+01  .536E+01  .537E+01  .593E+01  .712E+01  .714E+01  .716E+01
  .717E+01  .520E+01  .639E+01  .793E+01  .552E+01  .553E+01  .555E+01  .543E+01
  .544E+01  .545E+01  .546E+01  .547E+01  .548E+01  .787E+01  .533E+01  .533E+01
  .773E+01  .915E+01  .535E+01  .110E+02  .110E+02  .762E+01  .101E+02  .981E+01
  .984E+01  .515E+01  .732E+01  .734E+01  .710E+01  .711E+01  .711E+01  .711E+01
  .711E+01  .711E+01  .711E+01  .711E+01  .711E+01  .711E+01  .711E+01  .711E+01
  .711E+01  .711E+01  .711E+01  .711E+01  .711E+01  .711E+01  .711E+01  .711E+01
  .711E+01  .711E+01  .711E+01  .711E+01  .711E+01  .711E+01  .711E+01  .711E+01
  .711E+01  .711E+01  .711E+01  .711E+01  .711E+01  .711E+01  .711E+01  .711E+01
  .711E+01  .711E+01  .711E+01  .000E+00  .000E+00  .000E+00  .000E+00  .000E+00
  .000E+00  .000E+00  .000E+00  .000E+00
  .511E+01  .511E+01  .530E+01  .530E+01  .530E+01  .530E+01  .511E+01  .511E+01
  .530E+01  .530E+01  .530E+01  .530E+01  .530E+01  .530E+01  .530E+01  .531E+01
  .531E+01  .532E+01  .532E+01  .534E+01  .596E+01  .707E+01  .718E+01  .720E+01
  .721E+01  .723E+01  .851E+01  .798E+01  .546E+01  .547E+01  .548E+01  .549E+01
  .551E+01  .860E+01  .538E+01  .539E+01  .539E+01  .778E+01  .541E+01  .542E+01
  .104E+02  .928E+01  .113E+02  .111E+02  .111E+02  .106E+02  .103E+02  .995E+01
  .999E+01  .749E+01  .752E+01  .716E+01  .721E+01  .723E+01  .724E+01  .686E+01
  .625E+01  .626E+01  .507E+01  .507E+01  .507E+01  .507E+01  .507E+01  .506E+01
  .506E+01  .506E+01  .506E+01  .506E+01  .506E+01  .506E+01  .506E+01  .506E+01
  .506E+01  .506E+01  .506E+01  .505E+01  .505E+01  .505E+01  .505E+01  .505E+01
  .505E+01  .505E+01  .505E+01  .505E+01  .505E+01  .505E+01  .504E+01  .713E+01
  .713E+01  .712E+01  .712E+01  .000E+00  .000E+00  .000E+00  .000E+00  .000E+00
  .000E+00  .000E+00  .000E+00  .000E+00
/&   ----------  End of spectral data for channel  1  ----------
Response and Fourier amplitude spectra (91 periods,  .04 - 15.0 sec)   for      
Corrected accelerogram   24866-L1338-01253.19       Chan  2:  Up         from   
Uncorrected Accelerogram Data             Processed: 09/10/01, CDMG  am019      
Record of Sun Sep  9, 2001 16:59:21 PDT               (Avol1 v4.6  7/01 CSMIP)  
CSMIP Preliminary Processing            (Origin:  To be determined)             
24866-L1338-01253.19                 Start time:  9/09/01, 23:59:21.0 UTC (GPS) 
Station No. 24866   34.193N, 118.547W      Etna  s/n 1338  (3 Channels)         
(LADOT 7; real-time?)                                                           
Chan  2:  Up                                                                    
Record of Sun Sep  9, 2001 16:59:21 PDT    Sun Sep  9, 2001 16:59:21 PDT        
Hypocenter:  To be determined.               ML:  To be determined.             
Instr Period =  .0102 sec,  Damping =  .670,  Sensitivity =  .63  v/g           
                        Record length = 40.000 sec.                             
                                     Uncor Max  =   .011 g, at   1.265 sec.     
RMS accel of (uncor) record  =        .                                         
Accelerogram bandpass filtered with 3 dB pts at   .30 and 40.00 cyc/sec         
                 instrument- and baseline-corrected                             
                                                                                
                                                                                
                                                                                
                                                                                
                                                                                
Record of Sun Sep  9, 2001 16:59:21 PDT    Sun Sep  9, 2001 16:59:21 PDT        
                                                                                
24866-L1338-01253.19      (LADOT 7; real-time?)   Chan  2:  Up                  
                                                                                
24866-L1338-01253.19      (LADOT 7; real-time?)   Chan  2:  Up                  
                                                                                
Units for spectra are inches and sec, except Sa is in fraction of g.            
                                                                                
    2  100    2    3    3  200    1    3    1   24   12 1338    024866    1    0
   23   59   21    0  252    9    9 2001   10    3  500 8000   39   21   72  360
 8000    1   50    3 1338    1   19  400    1    0    0    0    0    0    0    0
    0    4    0    0 4000    2    0    0    0    0   72   21    0    0    0 4000
    0 4000   22   91    1    3    0    0    0    0    3    0    0    0    0    2
    2    2    4    0   32   99    0   32   32    0    0    1    0    0    0    0
  -99   -1    0    0
      .010      .670    40.000      .001      .000   625.000      .011     1.265
    98.100      .298      .477      .000     5.000      .000      .000      .000
     2.500   -11.236     -.001     -.014     5.000    30.000      .000      .065
     -.002     -.067     2.000    15.000    34.193  -118.547     3.306      .290
      .088     -.493      .359  -999.000      .000      .000   -13.400      .000
  1000.000    -1.165      .000      .000      .000      .000      .000      .000
     4.600     4.400      .000   980.665      .010    40.000    15.613      .000
      .000    40.000      .000    40.000      .010      .300      .000      .000
     4.680   -10.265     5.300      .253     9.430     -.029      .000      .300
    40.000      .010      .010      .000      .010      .014      .000      .000
      .055      .095      .014      .007      .002      .000      .000      .000
      .000      .000      .000      .000      .000      .000      .000      .000
      .000      .000      .000      .000
      .050
      .040      .042      .044      .046      .048      .050      .055      .060
      .065      .070      .075      .080      .085      .090      .095      .100
      .110      .120      .130      .140      .150      .160      .170      .180
      .190      .200      .220      .240      .260      .280      .300      .320
      .340      .360      .380      .400      .420      .440      .460      .480
      .500      .550      .600      .650      .700      .750      .800      .850
      .900      .950     1.000     1.100     1.200     1.300     1.400     1.500
     1.600     1.700     1.800     1.900     2.000     2.200     2.400     2.600
     2.800     3.000     3.200     3.400     3.600     3.800     4.000     4.200
     4.400     4.600     4.800     5.000     5.500     6.000     6.500     7.000
     7.500     8.000     8.500     9.000     9.500    10.000    11.000    12.000
    13.000    14.000    15.000      .000      .000      .000      .000      .000
      .000      .000      .000      .000
Fourier amplitude spectra in in/sec.
  .000E+00  .000E+00  .000E+00  .000E+00  .000E+00  .000E+00  .000E+00  .000E+00
  .000E+00  .000E+00  .000E+00  .000E+00  .000E+00  .000E+00  .000E+00  .000E+00
  .000E+00  .000E+00  .000E+00  .000E+00  .000E+00  .000E+00  .000E+00  .000E+00
  .000E+00  .000E+00  .000E+00  .000E+00  .000E+00  .000E+00  .000E+00  .000E+00
  .000E+00  .000E+00  .000E+00  .000E+00  .000E+00  .000E+00  .000E+00  .000E+00
  .000E+00  .000E+00  .000E+00  .000E+00  .000E+00  .000E+00  .000E+00  .000E+00
  .000E+00  .000E+00  .000E+00  .000E+00  .000E+00  .000E+00  .000E+00  .000E+00
  .000E+00  .000E+00  .000E+00  .000E+00  .000E+00  .000E+00  .000E+00  .000E+00
  .000E+00  .000E+00  .000E+00  .000E+00  .000E+00  .000E+00  .000E+00  .000E+00
  .000E+00  .000E+00  .000E+00  .000E+00  .000E+00  .000E+00  .000E+00  .000E+00
  .000E+00  .000E+00  .000E+00  .000E+00  .000E+00  .000E+00  .000E+00  .000E+00
  .000E+00  .000E+00  .000E+00  .000E+00  .000E+00  .000E+00  .000E+00  .000E+00
  .000E+00  .000E+00  .000E+00  .000E+00
Damping =  .05. Data of Sd,Sv,Sa,Pssv,ttSd,ttSv,ttSa :
  .255E-03  .273E-03  .315E-03  .333E-03  .364E-03  .366E-03  .481E-03  .588E-03
  .796E-03  .105E-02  .159E-02  .209E-02  .315E-02  .349E-02  .486E-02  .518E-02
  .486E-02  .455E-02  .536E-02  .521E-02  .421E-02  .538E-02  .586E-02  .606E-02
  .550E-02  .533E-02  .643E-02  .575E-02  .596E-02  .516E-02  .553E-02  .682E-02
  .886E-02  .800E-02  .100E-01  .115E-01  .125E-01  .159E-01  .189E-01  .219E-01
