Response and Fourier amplitude spectra (91 periods,  .04 - 15.0 sec)   for      
Corrected accelerogram   24811-L1131-01252.15       Chan  1: 360 Deg     from   
Uncorrected Accelerogram Data             Processed: 09/10/01, CDMG  811bd015   
Record of Sun Sep  9, 2001 16:59:15 PDT               (Avol1 v4.6  7/01 CSMIP)  
CSMIP Preliminary Processing            (Origin:  To be determined)             
24811-L1131-01252.15                 Start time:  9/09/01, 23:59:15.0 UTC (GPS) 
Station No. 24811   34.084N, 118.307W      Etna  s/n 1131  (3 Channels)         
Los Angeles - Melrose & Western                                                 
Chan  1: 360 Deg                                                                
Record of Sun Sep  9, 2001 16:59:15 PDT    Sun Sep  9, 2001 16:59:15 PDT        
Hypocenter:  To be determined.               ML:  To be determined.             
Instr Period =  .0096 sec,  Damping =  .640,  Sensitivity =  .63  v/g           
                        Record length = 49.000 sec.                             
                                     Uncor Max  =   .105 g, at   7.905 sec.     
RMS accel of (uncor) record  =        .                                         
Accelerogram bandpass filtered with 3 dB pts at   .30 and 40.00 cyc/sec         
                 instrument- and baseline-corrected                             
                                                                                
                                                                                
                                                                                
                                                                                
                                                                                
Record of Sun Sep  9, 2001 16:59:15 PDT    Sun Sep  9, 2001 16:59:15 PDT        
                                                                                
24811-L1131-01252.15      Los Angeles - Melrose & Western   Chan  1: 360 Deg    
                                                                                
24811-L1131-01252.15      Los Angeles - Melrose & Western   Chan  1: 360 Deg    
                                                                                
Units for spectra are inches and sec, except Sa is in fraction of g.            
                                                                                
    1  100    1    3    3  200    1    3    1   24   12 1131    024811    1    0
   23   59   15    0  252    9    9 2001   10    3  360 9800   39   31   72  360
 9800    1   50    3 1131    1   15  490    1    0    0    0    0    0    0    0
    0    4    0    0 4900    2    0    0    0    0   72   31    0    0    0 4900
    0 4900   32   91    1    3    0    0    0    0    3    0    0    0    0    2
    2    2    4    0   32   99    0   32   32    0    0    1    0    0    0    0
  -99   -1    0    0
      .010      .640    49.000      .006      .000   625.000      .105     7.905
   103.800      .298      .477      .000     5.000      .000      .000      .000
     2.500      .064      .044     -.065     5.000    30.000      .000     -.001
     -.002      .000     2.000    15.000    34.084  -118.307      .020      .220
    10.837     -.011      .010  -999.000      .000      .000   -14.200      .000
  1000.000     1.023      .000      .000      .000      .000      .000      .000
     4.600     4.400      .000   980.665      .010    49.000    16.520      .000
      .000    40.000      .000    49.000      .010      .300      .000      .000
     7.900   103.090     7.320    -2.822     7.370     -.227      .000      .300
    40.000      .010      .010      .000      .750      .045      .000      .000
      .343      .110      .195      .128      .015      .002      .000      .000
      .000      .000      .000      .000      .000      .000      .000      .000
      .000      .000      .000      .000
      .050
      .040      .042      .044      .046      .048      .050      .055      .060
      .065      .070      .075      .080      .085      .090      .095      .100
      .110      .120      .130      .140      .150      .160      .170      .180
      .190      .200      .220      .240      .260      .280      .300      .320
      .340      .360      .380      .400      .420      .440      .460      .480
      .500      .550      .600      .650      .700      .750      .800      .850
      .900      .950     1.000     1.100     1.200     1.300     1.400     1.500
     1.600     1.700     1.800     1.900     2.000     2.200     2.400     2.600
     2.800     3.000     3.200     3.400     3.600     3.800     4.000     4.200
     4.400     4.600     4.800     5.000     5.500     6.000     6.500     7.000
     7.500     8.000     8.500     9.000     9.500    10.000    11.000    12.000
    13.000    14.000    15.000      .000      .000      .000      .000      .000
      .000      .000      .000      .000
Fourier amplitude spectra in in/sec.
  .000E+00  .000E+00  .000E+00  .000E+00  .000E+00  .000E+00  .000E+00  .000E+00
  .000E+00  .000E+00  .000E+00  .000E+00  .000E+00  .000E+00  .000E+00  .000E+00
  .000E+00  .000E+00  .000E+00  .000E+00  .000E+00  .000E+00  .000E+00  .000E+00
  .000E+00  .000E+00  .000E+00  .000E+00  .000E+00  .000E+00  .000E+00  .000E+00
  .000E+00  .000E+00  .000E+00  .000E+00  .000E+00  .000E+00  .000E+00  .000E+00
  .000E+00  .000E+00  .000E+00  .000E+00  .000E+00  .000E+00  .000E+00  .000E+00
  .000E+00  .000E+00  .000E+00  .000E+00  .000E+00  .000E+00  .000E+00  .000E+00
  .000E+00  .000E+00  .000E+00  .000E+00  .000E+00  .000E+00  .000E+00  .000E+00
  .000E+00  .000E+00  .000E+00  .000E+00  .000E+00  .000E+00  .000E+00  .000E+00
  .000E+00  .000E+00  .000E+00  .000E+00  .000E+00  .000E+00  .000E+00  .000E+00
  .000E+00  .000E+00  .000E+00  .000E+00  .000E+00  .000E+00  .000E+00  .000E+00
  .000E+00  .000E+00  .000E+00  .000E+00  .000E+00  .000E+00  .000E+00  .000E+00
  .000E+00  .000E+00  .000E+00  .000E+00
Damping =  .05. Data of Sd,Sv,Sa,Pssv,ttSd,ttSv,ttSa :
  .175E-02  .194E-02  .216E-02  .240E-02  .273E-02  .306E-02  .388E-02  .535E-02
  .793E-02  .105E-01  .115E-01  .136E-01  .166E-01  .183E-01  .204E-01  .289E-01
  .409E-01  .351E-01  .504E-01  .585E-01  .559E-01  .603E-01  .694E-01  .722E-01
  .818E-01  .837E-01  .662E-01  .686E-01  .896E-01  .113E+00  .116E+00  .104E+00
  .103E+00  .119E+00  .142E+00  .163E+00  .175E+00  .184E+00  .200E+00  .209E+00
  .213E+00  .204E+00  .195E+00  .206E+00  .203E+00  .187E+00  .166E+00  .148E+00
  .147E+00  .146E+00  .145E+00  .141E+00  .136E+00  .130E+00  .124E+00  .118E+00
  .112E+00  .107E+00  .106E+00  .107E+00  .108E+00  .110E+00  .111E+00  .112E+00
  .111E+00  .111E+00  .110E+00  .109E+00  .108E+00  .108E+00  .107E+00  .106E+00
  .105E+00  .104E+00  .103E+00  .103E+00  .102E+00  .101E+00  .997E-01  .991E-01
  .986E-01  .982E-01  .979E-01  .975E-01  .974E-01  .971E-01  .968E-01  .966E-01
  .963E-01  .961E-01  .961E-01  .000E+00  .000E+00  .000E+00  .000E+00  .000E+00
  .000E+00  .000E+00  .000E+00  .000E+00
  .986E-01  .111E+00  .125E+00  .146E+00  .161E+00  .176E+00  .229E+00  .343E+00
  .487E+00  .620E+00  .813E+00  .837E+00  .943E+00  .102E+01  .107E+01  .155E+01
  .203E+01  .164E+01  .219E+01  .251E+01  .227E+01  .227E+01  .249E+01  .246E+01
  .265E+01  .255E+01  .209E+01  .201E+01  .212E+01  .275E+01  .254E+01  .208E+01
  .199E+01  .204E+01  .221E+01  .267E+01  .305E+01  .325E+01  .324E+01  .306E+01
  .299E+01  .298E+01  .277E+01  .239E+01  .203E+01  .189E+01  .179E+01  .181E+01
  .180E+01  .176E+01  .170E+01  .157E+01  .144E+01  .133E+01  .124E+01  .119E+01
  .117E+01  .116E+01  .114E+01  .113E+01  .111E+01  .108E+01  .108E+01  .108E+01
  .109E+01  .110E+01  .110E+01  .110E+01  .110E+01  .110E+01  .111E+01  .111E+01
  .111E+01  .111E+01  .111E+01  .111E+01  .111E+01  .111E+01  .111E+01  .111E+01
  .111E+01  .111E+01  .111E+01  .111E+01  .111E+01  .111E+01  .111E+01  .111E+01
  .111E+01  .111E+01  .111E+01  .000E+00  .000E+00  .000E+00  .000E+00  .000E+00
  .000E+00  .000E+00  .000E+00  .000E+00
  .112E+00  .113E+00  .114E+00  .117E+00  .121E+00  .125E+00  .131E+00  .153E+00
  .192E+00  .219E+00  .207E+00  .217E+00  .238E+00  .232E+00  .230E+00  .296E+00
  .343E+00  .255E+00  .302E+00  .307E+00  .259E+00  .245E+00  .248E+00  .231E+00
  .233E+00  .213E+00  .140E+00  .122E+00  .135E+00  .148E+00  .132E+00  .104E+00
  .913E-01  .944E-01  .101E+00  .104E+00  .103E+00  .981E-01  .973E-01  .933E-01
  .875E-01  .693E-01  .558E-01  .507E-01  .431E-01  .348E-01  .272E-01  .211E-01
  .187E-01  .166E-01  .149E-01  .121E-01  .980E-02  .802E-02  .664E-02  .554E-02
  .466E-02  .407E-02  .372E-02  .342E-02  .315E-02  .270E-02  .233E-02  .203E-02
  .179E-02  .158E-02  .141E-02  .127E-02  .115E-02  .105E-02  .963E-03  .887E-03
  .821E-03  .763E-03  .712E-03  .667E-03  .574E-03  .503E-03  .446E-03  .400E-03
  .362E-03  .331E-03  .306E-03  .283E-03  .264E-03  .247E-03  .219E-03  .196E-03
  .178E-03  .162E-03  .149E-03  .000E+00  .000E+00  .000E+00  .000E+00  .000E+00
  .000E+00  .000E+00  .000E+00  .000E+00
  .275E+00  .291E+00  .308E+00  .328E+00  .357E+00  .384E+00  .443E+00  .560E+00
  .766E+00  .939E+00  .960E+00  .106E+01  .123E+01  .128E+01  .135E+01  .182E+01
  .234E+01  .184E+01  .244E+01  .262E+01  .234E+01  .237E+01  .257E+01  .252E+01
  .271E+01  .263E+01  .189E+01  .180E+01  .216E+01  .253E+01  .242E+01  .203E+01
  .190E+01  .208E+01  .235E+01  .256E+01  .262E+01  .263E+01  .273E+01  .273E+01
  .267E+01  .233E+01  .204E+01  .200E+01  .182E+01  .157E+01  .130E+01  .109E+01
  .102E+01  .963E+00  .908E+00  .808E+00  .712E+00  .629E+00  .557E+00  .495E+00
  .441E+00  .395E+00  .369E+00  .354E+00  .341E+00  .315E+00  .291E+00  .270E+00
  .250E+00  .233E+00  .217E+00  .202E+00  .189E+00  .178E+00  .167E+00  .158E+00
  .150E+00  .142E+00  .135E+00  .129E+00  .116E+00  .105E+00  .964E-01  .890E-01
  .826E-01  .771E-01  .723E-01  .681E-01  .644E-01  .610E-01  .553E-01  .506E-01
  .465E-01  .431E-01  .403E-01  .000E+00  .000E+00  .000E+00  .000E+00  .000E+00
  .000E+00  .000E+00  .000E+00  .000E+00
  .790E+01  .790E+01  .790E+01  .789E+01  .789E+01  .789E+01  .789E+01  .789E+01
  .789E+01  .790E+01  .790E+01  .790E+01  .790E+01  .791E+01  .791E+01  .791E+01
  .792E+01  .792E+01  .793E+01  .794E+01  .754E+01  .755E+01  .764E+01  .803E+01
  .805E+01  .818E+01  .771E+01  .741E+01  .821E+01  .823E+01  .812E+01  .813E+01
  .813E+01  .813E+01  .814E+01  .815E+01  .817E+01  .799E+01  .800E+01  .802E+01
  .803E+01  .806E+01  .787E+01  .788E+01  .789E+01  .790E+01  .791E+01  .764E+01
  .765E+01  .766E+01  .767E+01  .769E+01  .770E+01  .770E+01  .770E+01  .770E+01
  .771E+01  .771E+01  .735E+01  .735E+01  .735E+01  .735E+01  .735E+01  .735E+01
  .736E+01  .736E+01  .736E+01  .736E+01  .736E+01  .736E+01  .736E+01  .736E+01
  .736E+01  .736E+01  .736E+01  .736E+01  .736E+01  .736E+01  .736E+01  .736E+01
  .736E+01  .736E+01  .736E+01  .736E+01  .736E+01  .736E+01  .736E+01  .736E+01
  .736E+01  .736E+01  .736E+01  .000E+00  .000E+00  .000E+00  .000E+00  .000E+00
  .000E+00  .000E+00  .000E+00  .000E+00
  .787E+01  .787E+01  .787E+01  .787E+01  .787E+01  .787E+01  .787E+01  .787E+01
  .788E+01  .810E+01  .811E+01  .812E+01  .793E+01  .793E+01  .793E+01  .793E+01
  .795E+01  .795E+01  .796E+01  .791E+01  .750E+01  .750E+01  .760E+01  .761E+01
  .800E+01  .823E+01  .745E+01  .746E+01  .815E+01  .817E+01  .818E+01  .819E+01
  .738E+01  .820E+01  .808E+01  .808E+01  .809E+01  .809E+01  .810E+01  .810E+01
  .793E+01  .795E+01  .797E+01  .797E+01  .775E+01  .775E+01  .785E+01  .786E+01
  .786E+01  .786E+01  .786E+01  .786E+01  .786E+01  .786E+01  .786E+01  .757E+01
  .757E+01  .757E+01  .757E+01  .757E+01  .757E+01  .757E+01  .730E+01  .730E+01
  .730E+01  .730E+01  .730E+01  .731E+01  .731E+01  .731E+01  .731E+01  .731E+01
  .731E+01  .731E+01  .731E+01  .731E+01  .731E+01  .731E+01  .731E+01  .731E+01
  .731E+01  .731E+01  .731E+01  .731E+01  .731E+01  .731E+01  .731E+01  .731E+01
  .731E+01  .731E+01  .731E+01  .000E+00  .000E+00  .000E+00  .000E+00  .000E+00
  .000E+00  .000E+00  .000E+00  .000E+00
  .790E+01  .790E+01  .790E+01  .789E+01  .789E+01  .789E+01  .789E+01  .789E+01
  .789E+01  .790E+01  .790E+01  .790E+01  .790E+01  .791E+01  .791E+01  .790E+01
  .792E+01  .792E+01  .793E+01  .794E+01  .753E+01  .754E+01  .764E+01  .803E+01
  .805E+01  .818E+01  .770E+01  .741E+01  .820E+01  .823E+01  .811E+01  .812E+01
  .812E+01  .813E+01  .813E+01  .814E+01  .816E+01  .799E+01  .800E+01  .801E+01
  .802E+01  .805E+01  .787E+01  .788E+01  .788E+01  .789E+01  .789E+01  .763E+01
  .763E+01  .764E+01  .765E+01  .768E+01  .768E+01  .769E+01  .769E+01  .769E+01
  .769E+01  .733E+01  .733E+01  .733E+01  .733E+01  .733E+01  .733E+01  .733E+01
  .733E+01  .733E+01  .732E+01  .732E+01  .732E+01  .732E+01  .732E+01  .732E+01
  .732E+01  .732E+01  .732E+01  .732E+01  .732E+01  .732E+01  .732E+01  .732E+01
  .732E+01  .731E+01  .731E+01  .731E+01  .731E+01  .731E+01  .731E+01  .731E+01
  .731E+01  .731E+01  .731E+01  .000E+00  .000E+00  .000E+00  .000E+00  .000E+00
  .000E+00  .000E+00  .000E+00  .000E+00
/&   ----------  End of spectral data for channel  1  ----------
Response and Fourier amplitude spectra (91 periods,  .04 - 15.0 sec)   for      
Corrected accelerogram   24811-L1131-01252.15       Chan  2:  Up         from   
Uncorrected Accelerogram Data             Processed: 09/10/01, CDMG  811bd015   
Record of Sun Sep  9, 2001 16:59:15 PDT               (Avol1 v4.6  7/01 CSMIP)  
CSMIP Preliminary Processing            (Origin:  To be determined)             
24811-L1131-01252.15                 Start time:  9/09/01, 23:59:15.0 UTC (GPS) 
Station No. 24811   34.084N, 118.307W      Etna  s/n 1131  (3 Channels)         
Los Angeles - Melrose & Western                                                 
Chan  2:  Up                                                                    
Record of Sun Sep  9, 2001 16:59:15 PDT    Sun Sep  9, 2001 16:59:15 PDT        
Hypocenter:  To be determined.               ML:  To be determined.             
Instr Period =  .0098 sec,  Damping =  .660,  Sensitivity =  .63  v/g           
                        Record length = 49.000 sec.                             
                                     Uncor Max  =  -.066 g, at   5.210 sec.     
RMS accel of (uncor) record  =        .                                         
Accelerogram bandpass filtered with 3 dB pts at   .30 and 40.00 cyc/sec         
                 instrument- and baseline-corrected                             
                                                                                
                                                                                
                                                                                
                                                                                
                                                                                
Record of Sun Sep  9, 2001 16:59:15 PDT    Sun Sep  9, 2001 16:59:15 PDT        
                                                                                
24811-L1131-01252.15      Los Angeles - Melrose & Western   Chan  2:  Up        
                                                                                
24811-L1131-01252.15      Los Angeles - Melrose & Western   Chan  2:  Up        
                                                                                
Units for spectra are inches and sec, except Sa is in fraction of g.            
                                                                                
    2  100    2    3    3  200    1    3    1   24   12 1131    024811    1    0
   23   59   15    0  252    9    9 2001   10    3  500 9800   39   31   72  360
 9800    1   50    3 1131    1   15  490    1    0    0    0    0    0    0    0
    0    4    0    0 4900    2    0    0    0    0   72   31    0    0    0 4900
    0 4900   32   91    1    3    0    0    0    0    3    0    0    0    0    2
    2    2    4    0   32   99    0   32   32    0    0    1    0    0    0    0
  -99   -1    0    0
      .010      .660    49.000      .005      .000   625.000     -.066     5.210
   101.600      .298      .477      .000     5.000      .000      .000      .000
     2.500   -28.236      .024     -.058     5.000    30.000      .000      .000
      .000      .000     2.000    15.000    34.084  -118.307      .042      .149
     3.514     -.009      .009  -999.000      .000      .000   -14.200      .000
  1000.000     1.004      .000      .000      .000      .000      .000      .000
     4.600     4.400      .000   980.665      .010    49.000    16.170      .000
      .000    40.000      .000    49.000      .010      .300      .000      .000
     5.210   -66.070     7.610    -1.540     8.010     -.064      .000      .300
    40.000      .010      .010      .000     2.490      .025      .000      .000
      .258      .070      .107      .096      .003      .000      .000      .000
      .000      .000      .000      .000      .000      .000      .000      .000
      .000      .000      .000      .000
      .050
      .040      .042      .044      .046      .048      .050      .055      .060
      .065      .070      .075      .080      .085      .090      .095      .100
      .110      .120      .130      .140      .150      .160      .170      .180
      .190      .200      .220      .240      .260      .280      .300      .320
      .340      .360      .380      .400      .420      .440      .460      .480
      .500      .550      .600      .650      .700      .750      .800      .850
      .900      .950     1.000     1.100     1.200     1.300     1.400     1.500
     1.600     1.700     1.800     1.900     2.000     2.200     2.400     2.600
     2.800     3.000     3.200     3.400     3.600     3.800     4.000     4.200
     4.400     4.600     4.800     5.000     5.500     6.000     6.500     7.000
     7.500     8.000     8.500     9.000     9.500    10.000    11.000    12.000
    13.000    14.000    15.000      .000      .000      .000      .000      .000
      .000      .000      .000      .000
Fourier amplitude spectra in in/sec.
  .000E+00  .000E+00  .000E+00  .000E+00  .000E+00  .000E+00  .000E+00  .000E+00
  .000E+00  .000E+00  .000E+00  .000E+00  .000E+00  .000E+00  .000E+00  .000E+00
  .000E+00  .000E+00  .000E+00  .000E+00  .000E+00  .000E+00  .000E+00  .000E+00
  .000E+00  .000E+00  .000E+00  .000E+00  .000E+00  .000E+00  .000E+00  .000E+00
  .000E+00  .000E+00  .000E+00  .000E+00  .000E+00  .000E+00  .000E+00  .000E+00
  .000E+00  .000E+00  .000E+00  .000E+00  .000E+00  .000E+00  .000E+00  .000E+00
  .000E+00  .000E+00  .000E+00  .000E+00  .000E+00  .000E+00  .000E+00  .000E+00
  .000E+00  .000E+00  .000E+00  .000E+00  .000E+00  .000E+00  .000E+00  .000E+00
  .000E+00  .000E+00  .000E+00  .000E+00  .000E+00  .000E+00  .000E+00  .000E+00
  .000E+00  .000E+00  .000E+00  .000E+00  .000E+00  .000E+00  .000E+00  .000E+00
  .000E+00  .000E+00  .000E+00  .000E+00  .000E+00  .000E+00  .000E+00  .000E+00
  .000E+00  .000E+00  .000E+00  .000E+00  .000E+00  .000E+00  .000E+00  .000E+00
  .000E+00  .000E+00  .000E+00  .000E+00
Damping =  .05. Data of Sd,Sv,Sa,Pssv,ttSd,ttSv,ttSa :
  .162E-02  .191E-02  .220E-02  .253E-02  .303E-02  .346E-02  .523E-02  .737E-02
  .996E-02  .121E-01  .138E-01  .147E-01  .150E-01  .146E-01  .142E-01  .138E-01
  .172E-01  .259E-01  .308E-01  .316E-01  .305E-01  .363E-01  .400E-01  .400E-01
  .412E-01  .426E-01  .453E-01  .468E-01  .662E-01  .777E-01  .835E-01  .905E-01
  .901E-01  .863E-01  .802E-01  .797E-01  .727E-01  .607E-01  .539E-01  .477E-01
