Response and Fourier amplitude spectra (91 periods,  .04 - 15.0 sec)   for      
Corrected accelerogram   24713-F1386-01252.02       Chan  3:  90 Deg     from   
Uncorrected Accelerogram Data             Processed: 09/10/01, CDMG  s713e02    
Earthquake of Sun Sep  9, 2001  16:59 PDT             (Avol1 v4.6  7/01 CSMIP)  
CSMIP Preliminary Processing            (Origin:  To be determined)             
24713-F1386-01252.02                 Start time:  9/09/01, 23:59:16.* GMT (WWVB)
Station No. 24713   34.055N, 118.264W     SSA-2  s/n 1386  (3 Channels)         
Los Angeles - 8-story Hospital                                                  
Chan  3:  90 Deg                    Location: Basement: North Wall              
Earthquake of Sun Sep  9, 2001  16:59 PDT    Sun Sep  9, 2001  16:59 PDT        
Hypocenter:  To be determined.               ML:  To be determined.
Instr Period =  .0222 sec,  Damping =  .700,  Sensitivity = 1.25  v/g
                        Record length = 67.840 sec.
                                     Uncor Max  =   .038 g, at   6.500 sec.
RMS accel of (uncor) record  =        .
Accelerogram bandpass filtered with 3 dB pts at   .30 and 40.00 cyc/sec
                 instrument- and baseline-corrected





Earthquake of Sun Sep  9, 2001  16:59 PDT    Sun Sep  9, 2001  16:59 PDT

24713-F1386-01252.02      Los Angeles - 8-story Hospital    Chan  3:  90 Deg

24713-F1386-01252.02      Los Angeles - 8-story Hospital    Chan  3:  90 Deg

Units for spectra are inches and sec, except Sa is in fraction of g.

    3  100    3    3    3  200    1    3    1   12    6 1386    024713    2    0
   23   59   16  990  252    9    9 2001   10    1   9013568   41   30   72  344
13568    1   50    0 4106    1    2   53    0   23   59   25  910    9    9 2001
    0    0    0    0 6784    2    0    0    0    0   72   30    0    0    0 6784
    0 6784   31   91    1    3    0    0    0    0   15    0    0    0    0    2
    2    2    4    0   72   99    1   32   32    0    0    0    0    0    9  129
  -99   -1    0    0
      .022      .700    67.840      .003      .000  1250.000      .038     6.500
    45.000  1220.703   976.563      .000     5.000      .000      .000      .000
     2.500    -6.751      .033     -.056     5.120    30.000      .000      .085
      .082     -.003     2.000    15.000    34.055  -118.264      .000      .080
  1000.000     -.007      .000  -999.000      .000      .000      .000      .000
     2.936    -1.069      .000      .000      .000      .000      .000      .000
     4.600     4.400      .000   980.665      .010    67.840     7.162      .000
      .000    40.000      .000    67.840      .010      .300      .000      .000
     6.500    36.280     6.760     1.399     6.510     -.095      .001      .300
    40.000      .010      .010      .000      .010      .032      .000      .000
      .146      .090      .111      .044      .007      .001      .000      .000
      .000      .000      .000      .000      .000      .000      .000      .000
      .000      .000      .000      .000
      .050
      .040      .042      .044      .046      .048      .050      .055      .060
      .065      .070      .075      .080      .085      .090      .095      .100
      .110      .120      .130      .140      .150      .160      .170      .180
      .190      .200      .220      .240      .260      .280      .300      .320
      .340      .360      .380      .400      .420      .440      .460      .480
      .500      .550      .600      .650      .700      .750      .800      .850
      .900      .950     1.000     1.100     1.200     1.300     1.400     1.500
     1.600     1.700     1.800     1.900     2.000     2.200     2.400     2.600
     2.800     3.000     3.200     3.400     3.600     3.800     4.000     4.200
     4.400     4.600     4.800     5.000     5.500     6.000     6.500     7.000
     7.500     8.000     8.500     9.000     9.500    10.000    11.000    12.000
    13.000    14.000    15.000      .000      .000      .000      .000      .000
      .000      .000      .000      .000
Fourier amplitude spectra in in/sec.
  .000E+00  .000E+00  .000E+00  .000E+00  .000E+00  .000E+00  .000E+00  .000E+00
  .000E+00  .000E+00  .000E+00  .000E+00  .000E+00  .000E+00  .000E+00  .000E+00
  .000E+00  .000E+00  .000E+00  .000E+00  .000E+00  .000E+00  .000E+00  .000E+00
  .000E+00  .000E+00  .000E+00  .000E+00  .000E+00  .000E+00  .000E+00  .000E+00
  .000E+00  .000E+00  .000E+00  .000E+00  .000E+00  .000E+00  .000E+00  .000E+00
  .000E+00  .000E+00  .000E+00  .000E+00  .000E+00  .000E+00  .000E+00  .000E+00
  .000E+00  .000E+00  .000E+00  .000E+00  .000E+00  .000E+00  .000E+00  .000E+00
  .000E+00  .000E+00  .000E+00  .000E+00  .000E+00  .000E+00  .000E+00  .000E+00
  .000E+00  .000E+00  .000E+00  .000E+00  .000E+00  .000E+00  .000E+00  .000E+00
  .000E+00  .000E+00  .000E+00  .000E+00  .000E+00  .000E+00  .000E+00  .000E+00
  .000E+00  .000E+00  .000E+00  .000E+00  .000E+00  .000E+00  .000E+00  .000E+00
  .000E+00  .000E+00  .000E+00  .000E+00  .000E+00  .000E+00  .000E+00  .000E+00
  .000E+00  .000E+00  .000E+00  .000E+00
Damping =  .05. Data of Sd,Sv,Sa,Pssv,ttSd,ttSv,ttSa :
  .708E-03  .835E-03  .946E-03  .109E-02  .111E-02  .120E-02  .186E-02  .287E-02
  .360E-02  .599E-02  .749E-02  .700E-02  .831E-02  .116E-01  .123E-01  .105E-01
  .104E-01  .160E-01  .209E-01  .214E-01  .245E-01  .278E-01  .334E-01  .374E-01
  .428E-01  .452E-01  .449E-01  .414E-01  .346E-01  .321E-01  .382E-01  .443E-01
  .421E-01  .404E-01  .361E-01  .326E-01  .350E-01  .428E-01  .504E-01  .569E-01
  .668E-01  .698E-01  .756E-01  .763E-01  .798E-01  .792E-01  .761E-01  .759E-01
  .752E-01  .744E-01  .736E-01  .701E-01  .642E-01  .590E-01  .558E-01  .538E-01
  .537E-01  .618E-01  .723E-01  .699E-01  .573E-01  .488E-01  .470E-01  .435E-01
  .414E-01  .401E-01  .398E-01  .404E-01  .417E-01  .433E-01  .450E-01  .466E-01
  .480E-01  .490E-01  .497E-01  .501E-01  .500E-01  .488E-01  .472E-01  .456E-01
  .441E-01  .428E-01  .418E-01  .409E-01  .403E-01  .399E-01  .394E-01  .392E-01
  .393E-01  .395E-01  .398E-01  .000E+00  .000E+00  .000E+00  .000E+00  .000E+00
  .000E+00  .000E+00  .000E+00  .000E+00
  .568E-01  .634E-01  .733E-01  .886E-01  .968E-01  .104E+00  .149E+00  .213E+00
  .283E+00  .455E+00  .522E+00  .492E+00  .517E+00  .753E+00  .767E+00  .607E+00
  .518E+00  .789E+00  .938E+00  .956E+00  .104E+01  .979E+00  .109E+01  .125E+01
  .128E+01  .134E+01  .132E+01  .114E+01  .960E+00  .798E+00  .871E+00  .906E+00
  .921E+00  .761E+00  .689E+00  .692E+00  .760E+00  .813E+00  .816E+00  .805E+00
  .803E+00  .952E+00  .103E+01  .900E+00  .835E+00  .799E+00  .743E+00  .735E+00
  .713E+00  .657E+00  .667E+00  .694E+00  .698E+00  .686E+00  .675E+00  .670E+00
  .669E+00  .667E+00  .662E+00  .653E+00  .641E+00  .619E+00  .601E+00  .590E+00
  .583E+00  .580E+00  .580E+00  .580E+00  .580E+00  .580E+00  .578E+00  .576E+00
  .574E+00  .571E+00  .569E+00  .566E+00  .560E+00  .555E+00  .552E+00  .550E+00
  .549E+00  .548E+00  .548E+00  .548E+00  .548E+00  .548E+00  .548E+00  .548E+00
  .548E+00  .549E+00  .549E+00  .000E+00  .000E+00  .000E+00  .000E+00  .000E+00
  .000E+00  .000E+00  .000E+00  .000E+00
  .455E-01  .483E-01  .503E-01  .529E-01  .493E-01  .493E-01  .631E-01  .819E-01
  .880E-01  .126E+00  .137E+00  .113E+00  .118E+00  .146E+00  .142E+00  .109E+00
  .880E-01  .112E+00  .127E+00  .111E+00  .110E+00  .111E+00  .118E+00  .118E+00
  .123E+00  .117E+00  .947E-01  .733E-01  .528E-01  .421E-01  .439E-01  .447E-01
  .376E-01  .320E-01  .257E-01  .210E-01  .203E-01  .227E-01  .244E-01  .254E-01
  .275E-01  .238E-01  .216E-01  .186E-01  .168E-01  .146E-01  .124E-01  .110E-01
  .966E-02  .859E-02  .767E-02  .602E-02  .463E-02  .362E-02  .296E-02  .249E-02
  .217E-02  .221E-02  .230E-02  .202E-02  .150E-02  .120E-02  .979E-03  .810E-03
  .686E-03  .598E-03  .536E-03  .492E-03  .460E-03  .434E-03  .411E-03  .390E-03
  .370E-03  .351E-03  .332E-03  .313E-03  .271E-03  .234E-03  .205E-03  .181E-03
  .162E-03  .147E-03  .134E-03  .123E-03  .114E-03  .107E-03  .941E-04  .844E-04
  .766E-04  .702E-04  .648E-04  .000E+00  .000E+00  .000E+00  .000E+00  .000E+00
  .000E+00  .000E+00  .000E+00  .000E+00
  .111E+00  .125E+00  .135E+00  .149E+00  .146E+00  .151E+00  .213E+00  .300E+00
  .348E+00  .538E+00  .627E+00  .550E+00  .614E+00  .807E+00  .815E+00  .659E+00
  .594E+00  .835E+00  .101E+01  .962E+00  .102E+01  .109E+01  .123E+01  .130E+01
  .142E+01  .142E+01  .128E+01  .108E+01  .836E+00  .720E+00  .800E+00  .869E+00
  .778E+00  .706E+00  .598E+00  .512E+00  .524E+00  .611E+00  .688E+00  .744E+00
  .839E+00  .798E+00  .792E+00  .738E+00  .717E+00  .664E+00  .598E+00  .561E+00
  .525E+00  .492E+00  .462E+00  .401E+00  .336E+00  .285E+00  .250E+00  .225E+00
  .211E+00  .228E+00  .252E+00  .231E+00  .180E+00  .139E+00  .123E+00  .105E+00
  .928E-01  .839E-01  .781E-01  .747E-01  .728E-01  .716E-01  .708E-01  .698E-01
  .685E-01  .669E-01  .651E-01  .630E-01  .571E-01  .511E-01  .457E-01  .409E-01
  .369E-01  .336E-01  .309E-01  .286E-01  .267E-01  .250E-01  .225E-01  .205E-01
  .190E-01  .177E-01  .167E-01  .000E+00  .000E+00  .000E+00  .000E+00  .000E+00
  .000E+00  .000E+00  .000E+00  .000E+00
  .667E+01  .667E+01  .679E+01  .707E+01  .668E+01  .711E+01  .678E+01  .678E+01
  .679E+01  .712E+01  .713E+01  .717E+01  .680E+01  .718E+01  .719E+01  .719E+01
  .720E+01  .727E+01  .728E+01  .757E+01  .730E+01  .669E+01  .670E+01  .681E+01
  .682E+01  .684E+01  .686E+01  .688E+01  .657E+01  .658E+01  .830E+01  .819E+01
  .792E+01  .121E+02  .122E+02  .120E+02  .691E+01  .692E+01  .693E+01  .694E+01
  .107E+02  .696E+01  .700E+01  .702E+01  .745E+01  .747E+01  .679E+01  .680E+01
  .680E+01  .681E+01  .681E+01  .682E+01  .683E+01  .684E+01  .684E+01  .685E+01
  .164E+02  .159E+02  .152E+02  .145E+02  .145E+02  .649E+01  .145E+02  .650E+01
  .650E+01  .650E+01  .650E+01  .650E+01  .649E+01  .649E+01  .650E+01  .650E+01
  .650E+01  .650E+01  .650E+01  .650E+01  .650E+01  .650E+01  .650E+01  .650E+01
  .650E+01  .650E+01  .650E+01  .650E+01  .650E+01  .650E+01  .650E+01  .650E+01
  .650E+01  .650E+01  .650E+01  .000E+00  .000E+00  .000E+00  .000E+00  .000E+00
  .000E+00  .000E+00  .000E+00  .000E+00
  .705E+01  .677E+01  .669E+01  .709E+01  .669E+01  .669E+01  .676E+01  .677E+01
  .709E+01  .710E+01  .714E+01  .715E+01  .682E+01  .716E+01  .717E+01  .717E+01
  .717E+01  .730E+01  .725E+01  .760E+01  .726E+01  .728E+01  .666E+01  .667E+01
  .668E+01  .679E+01  .714E+01  .707E+01  .662E+01  .652E+01  .824E+01  .826E+01
  .798E+01  .787E+01  .121E+02  .722E+01  .722E+01  .723E+01  .723E+01  .704E+01
  .704E+01  .714E+01  .714E+01  .714E+01  .692E+01  .693E+01  .693E+01  .742E+01
  .742E+01  .742E+01  .675E+01  .675E+01  .675E+01  .675E+01  .675E+01  .675E+01
  .675E+01  .675E+01  .675E+01  .675E+01  .675E+01  .675E+01  .675E+01  .675E+01
  .675E+01  .675E+01  .675E+01  .675E+01  .675E+01  .675E+01  .675E+01  .675E+01
  .675E+01  .675E+01  .675E+01  .675E+01  .675E+01  .675E+01  .675E+01  .675E+01
  .675E+01  .675E+01  .675E+01  .675E+01  .675E+01  .675E+01  .675E+01  .675E+01
  .675E+01  .675E+01  .675E+01  .000E+00  .000E+00  .000E+00  .000E+00  .000E+00
  .000E+00  .000E+00  .000E+00  .000E+00
  .667E+01  .667E+01  .667E+01  .707E+01  .668E+01  .711E+01  .678E+01  .678E+01
  .679E+01  .711E+01  .713E+01  .717E+01  .680E+01  .718E+01  .719E+01  .719E+01
  .719E+01  .720E+01  .728E+01  .757E+01  .730E+01  .669E+01  .670E+01  .681E+01
  .682E+01  .683E+01  .685E+01  .687E+01  .656E+01  .657E+01  .830E+01  .819E+01
  .791E+01  .121E+02  .122E+02  .120E+02  .690E+01  .691E+01  .692E+01  .693E+01
  .107E+02  .695E+01  .699E+01  .701E+01  .744E+01  .745E+01  .678E+01  .678E+01
  .678E+01  .679E+01  .679E+01  .680E+01  .681E+01  .681E+01  .681E+01  .681E+01
  .164E+02  .158E+02  .151E+02  .144E+02  .145E+02  .647E+01  .647E+01  .647E+01
  .646E+01  .646E+01  .646E+01  .646E+01  .646E+01  .646E+01  .646E+01  .646E+01
  .646E+01  .646E+01  .646E+01  .646E+01  .646E+01  .646E+01  .646E+01  .645E+01
  .645E+01  .645E+01  .645E+01  .645E+01  .645E+01  .645E+01  .645E+01  .645E+01
  .645E+01  .645E+01  .645E+01  .000E+00  .000E+00  .000E+00  .000E+00  .000E+00
  .000E+00  .000E+00  .000E+00  .000E+00
/&   ----------  End of spectral data for channel  3  ----------
