Response and Fourier amplitude spectra (91 periods,  .04 - 15.0 sec)   for      
Corrected accelerogram   24764-K0987-01253.97       Chan  4:  90 Deg     from   
Uncorrected Accelerogram Data             Processed: 09/10/01, CDMG  bm097      
Record of Sun Sep  9, 2001 16:59:19 PDT               (Avol1 v4.6  7/01 CSMIP)  
CSMIP Preliminary Processing            (Origin:  To be determined)             
24764-K0987-01253.97                 Start time:  9/09/01, 23:59:19.0 UTC (GPS) 
Station No. 24764   34.160N, 118.534W        K2  s/n  987  (6 Channels)         
Tarzana - Cedar Hill B                                                          
Chan  4:  90 Deg                    Location: 60 m Depth                        
Record of Sun Sep  9, 2001 16:59:19 PDT    Sun Sep  9, 2001 16:59:19 PDT        
Hypocenter:  To be determined.               ML:  To be determined.
Instr Period =  .0200 sec,  Damping =  .700,  Sensitivity = 1.25  v/g
                        Record length = 39.000 sec.
                                     Uncor Max  =  -.007 g, at   5.175 sec.
RMS accel of (uncor) record  =        .
Accelerogram bandpass filtered with 3 dB pts at   .30 and 40.00 cyc/sec
                 instrument- and baseline-corrected





Record of Sun Sep  9, 2001 16:59:19 PDT    Sun Sep  9, 2001 16:59:19 PDT

24764-K0987-01253.97      Tarzana - Cedar Hill B    Chan  4:  90 Deg

24764-K0987-01253.97      Tarzana - Cedar Hill B    Chan  4:  90 Deg

Units for spectra are inches and sec, except Sa is in fraction of g.

    4  100    4    6    6  200    1    3    1   24   11  987    024764    4    0
   23   59   19    0  252    9    9 2001   10    3   90 7800   39   22   72  359
 7800    0   50    3  987    1   97  390    1    0    0    0    0    0    0    0
    0    0    0    0 3900    2    0    0    0    0   72   22    0    0    0 3900
    0 3900   23   91    1    6    0    0    0    0    6    0    0    0    0    2
    2    2    4    1   65   99    0   32   32    0    0    1    0    0    0    0
  -99   -1    0    0
      .020      .700    39.000      .001      .000  1250.000     -.007     5.175
    50.000      .298      .238      .000     5.000      .000      .000      .000
     2.500   -17.398     -.013     -.028     5.000    30.000      .000      .001
     -.001     -.002     2.000    15.000    34.160  -118.534      .008      .141
    18.044     -.008      .005  -999.000      .000      .000    12.600      .000
  1000.000     1.010      .000      .000      .000      .000      .000      .000
     4.600     4.400      .000   980.665      .010    39.000     7.958      .000
      .000    40.000      .000    39.000      .010      .300      .000      .000
     5.170    -6.673     5.130      .232     7.520      .020      .000      .300
    40.000      .010      .010      .000      .010      .008      .000      .000
      .029      .100      .011      .010      .002      .000      .000      .000
      .000      .000      .000      .000      .000      .000      .000      .000
      .000      .000      .000      .000
      .050
      .040      .042      .044      .046      .048      .050      .055      .060
      .065      .070      .075      .080      .085      .090      .095      .100
      .110      .120      .130      .140      .150      .160      .170      .180
      .190      .200      .220      .240      .260      .280      .300      .320
      .340      .360      .380      .400      .420      .440      .460      .480
      .500      .550      .600      .650      .700      .750      .800      .850
      .900      .950     1.000     1.100     1.200     1.300     1.400     1.500
     1.600     1.700     1.800     1.900     2.000     2.200     2.400     2.600
     2.800     3.000     3.200     3.400     3.600     3.800     4.000     4.200
     4.400     4.600     4.800     5.000     5.500     6.000     6.500     7.000
     7.500     8.000     8.500     9.000     9.500    10.000    11.000    12.000
    13.000    14.000    15.000      .000      .000      .000      .000      .000
      .000      .000      .000      .000
Fourier amplitude spectra in in/sec.
  .000E+00  .000E+00  .000E+00  .000E+00  .000E+00  .000E+00  .000E+00  .000E+00
  .000E+00  .000E+00  .000E+00  .000E+00  .000E+00  .000E+00  .000E+00  .000E+00
  .000E+00  .000E+00  .000E+00  .000E+00  .000E+00  .000E+00  .000E+00  .000E+00
  .000E+00  .000E+00  .000E+00  .000E+00  .000E+00  .000E+00  .000E+00  .000E+00
  .000E+00  .000E+00  .000E+00  .000E+00  .000E+00  .000E+00  .000E+00  .000E+00
  .000E+00  .000E+00  .000E+00  .000E+00  .000E+00  .000E+00  .000E+00  .000E+00
  .000E+00  .000E+00  .000E+00  .000E+00  .000E+00  .000E+00  .000E+00  .000E+00
  .000E+00  .000E+00  .000E+00  .000E+00  .000E+00  .000E+00  .000E+00  .000E+00
  .000E+00  .000E+00  .000E+00  .000E+00  .000E+00  .000E+00  .000E+00  .000E+00
  .000E+00  .000E+00  .000E+00  .000E+00  .000E+00  .000E+00  .000E+00  .000E+00
  .000E+00  .000E+00  .000E+00  .000E+00  .000E+00  .000E+00  .000E+00  .000E+00
  .000E+00  .000E+00  .000E+00  .000E+00  .000E+00  .000E+00  .000E+00  .000E+00
  .000E+00  .000E+00  .000E+00  .000E+00
Damping =  .05. Data of Sd,Sv,Sa,Pssv,ttSd,ttSv,ttSa :
  .138E-03  .163E-03  .178E-03  .198E-03  .228E-03  .229E-03  .329E-03  .448E-03
  .524E-03  .690E-03  .847E-03  .111E-02  .133E-02  .167E-02  .230E-02  .287E-02
  .308E-02  .259E-02  .223E-02  .322E-02  .297E-02  .333E-02  .391E-02  .442E-02
  .447E-02  .425E-02  .452E-02  .590E-02  .693E-02  .710E-02  .757E-02  .107E-01
  .125E-01  .132E-01  .127E-01  .117E-01  .995E-02  .101E-01  .108E-01  .101E-01
  .108E-01  .125E-01  .168E-01  .255E-01  .341E-01  .311E-01  .282E-01  .255E-01
  .258E-01  .245E-01  .238E-01  .249E-01  .203E-01  .177E-01  .163E-01  .155E-01
  .158E-01  .161E-01  .156E-01  .182E-01  .195E-01  .182E-01  .145E-01  .113E-01
  .102E-01  .957E-02  .930E-02  .918E-02  .908E-02  .900E-02  .894E-02  .890E-02
  .885E-02  .881E-02  .876E-02  .871E-02  .857E-02  .844E-02  .845E-02  .845E-02
  .844E-02  .843E-02  .842E-02  .840E-02  .838E-02  .836E-02  .832E-02  .829E-02
  .825E-02  .823E-02  .821E-02  .000E+00  .000E+00  .000E+00  .000E+00  .000E+00
  .000E+00  .000E+00  .000E+00  .000E+00
  .954E-02  .114E-01  .150E-01  .179E-01  .214E-01  .226E-01  .300E-01  .364E-01
  .423E-01  .498E-01  .579E-01  .734E-01  .842E-01  .104E+00  .143E+00  .173E+00
  .191E+00  .147E+00  .121E+00  .145E+00  .126E+00  .145E+00  .165E+00  .168E+00
  .172E+00  .157E+00  .144E+00  .155E+00  .155E+00  .165E+00  .170E+00  .220E+00
  .267E+00  .237E+00  .191E+00  .183E+00  .165E+00  .153E+00  .152E+00  .143E+00
  .134E+00  .135E+00  .177E+00  .240E+00  .321E+00  .281E+00  .258E+00  .219E+00
  .200E+00  .190E+00  .176E+00  .167E+00  .145E+00  .134E+00  .127E+00  .122E+00
  .122E+00  .126E+00  .129E+00  .126E+00  .118E+00  .112E+00  .109E+00  .106E+00
  .103E+00  .101E+00  .995E-01  .983E-01  .974E-01  .968E-01  .962E-01  .958E-01
  .955E-01  .952E-01  .949E-01  .947E-01  .942E-01  .938E-01  .935E-01  .932E-01
  .930E-01  .929E-01  .927E-01  .926E-01  .925E-01  .924E-01  .923E-01  .922E-01
  .922E-01  .921E-01  .921E-01  .000E+00  .000E+00  .000E+00  .000E+00  .000E+00
  .000E+00  .000E+00  .000E+00  .000E+00
  .885E-02  .942E-02  .947E-02  .959E-02  .102E-01  .941E-02  .112E-01  .128E-01
  .126E-01  .145E-01  .154E-01  .177E-01  .188E-01  .209E-01  .263E-01  .293E-01
  .265E-01  .190E-01  .138E-01  .168E-01  .134E-01  .132E-01  .140E-01  .142E-01
  .127E-01  .110E-01  .969E-02  .106E-01  .105E-01  .931E-02  .862E-02  .107E-01
  .111E-01  .105E-01  .907E-02  .759E-02  .582E-02  .534E-02  .524E-02  .453E-02
  .444E-02  .425E-02  .479E-02  .621E-02  .715E-02  .568E-02  .454E-02  .362E-02
  .328E-02  .281E-02  .245E-02  .212E-02  .145E-02  .108E-02  .861E-03  .714E-03
  .642E-03  .582E-03  .502E-03  .524E-03  .508E-03  .395E-03  .268E-03  .181E-03
  .138E-03  .116E-03  .102E-03  .905E-04  .808E-04  .728E-04  .660E-04  .604E-04
  .554E-04  .511E-04  .473E-04  .439E-04  .374E-04  .323E-04  .283E-04  .250E-04
  .223E-04  .201E-04  .182E-04  .166E-04  .152E-04  .141E-04  .127E-04  .116E-04
  .107E-04  .100E-04  .940E-05  .000E+00  .000E+00  .000E+00  .000E+00  .000E+00
  .000E+00  .000E+00  .000E+00  .000E+00
  .217E-01  .243E-01  .255E-01  .271E-01  .298E-01  .287E-01  .376E-01  .469E-01
  .507E-01  .619E-01  .709E-01  .870E-01  .981E-01  .116E+00  .152E+00  .181E+00
  .176E+00  .136E+00  .108E+00  .144E+00  .125E+00  .131E+00  .144E+00  .154E+00
  .148E+00  .134E+00  .129E+00  .154E+00  .168E+00  .159E+00  .159E+00  .210E+00
  .232E+00  .231E+00  .209E+00  .184E+00  .149E+00  .144E+00  .147E+00  .133E+00
  .136E+00  .143E+00  .176E+00  .247E+00  .306E+00  .260E+00  .222E+00  .189E+00
  .180E+00  .162E+00  .149E+00  .142E+00  .106E+00  .855E-01  .733E-01  .648E-01
  .620E-01  .595E-01  .546E-01  .601E-01  .611E-01  .520E-01  .381E-01  .274E-01
  .230E-01  .200E-01  .183E-01  .170E-01  .158E-01  .149E-01  .140E-01  .133E-01
  .126E-01  .120E-01  .115E-01  .109E-01  .979E-02  .884E-02  .817E-02  .758E-02
  .707E-02  .662E-02  .622E-02  .586E-02  .554E-02  .525E-02  .475E-02  .434E-02
  .399E-02  .369E-02  .344E-02  .000E+00  .000E+00  .000E+00  .000E+00  .000E+00
  .000E+00  .000E+00  .000E+00  .000E+00
  .517E+01  .517E+01  .517E+01  .544E+01  .544E+01  .544E+01  .547E+01  .548E+01
  .556E+01  .557E+01  .557E+01  .557E+01  .558E+01  .559E+01  .559E+01  .550E+01
  .541E+01  .542E+01  .592E+01  .594E+01  .618E+01  .533E+01  .527E+01  .527E+01
  .520E+01  .521E+01  .588E+01  .590E+01  .522E+01  .523E+01  .622E+01  .625E+01
  .580E+01  .582E+01  .583E+01  .585E+01  .585E+01  .883E+01  .887E+01  .709E+01
  .710E+01  .713E+01  .718E+01  .826E+01  .801E+01  .809E+01  .673E+01  .643E+01
  .646E+01  .648E+01  .814E+01  .778E+01  .783E+01  .786E+01  .787E+01  .788E+01
  .788E+01  .789E+01  .746E+01  .747E+01  .749E+01  .751E+01  .752E+01  .752E+01
  .702E+01  .703E+01  .615E+01  .615E+01  .615E+01  .615E+01  .615E+01  .615E+01
  .615E+01  .615E+01  .615E+01  .615E+01  .616E+01  .502E+01  .502E+01  .502E+01
  .502E+01  .502E+01  .502E+01  .502E+01  .502E+01  .502E+01  .502E+01  .502E+01
  .502E+01  .502E+01  .502E+01  .000E+00  .000E+00  .000E+00  .000E+00  .000E+00
  .000E+00  .000E+00  .000E+00  .000E+00
  .541E+01  .541E+01  .542E+01  .542E+01  .546E+01  .545E+01  .546E+01  .546E+01
  .554E+01  .555E+01  .555E+01  .555E+01  .556E+01  .556E+01  .557E+01  .552E+01
  .544E+01  .540E+01  .540E+01  .590E+01  .535E+01  .530E+01  .530E+01  .524E+01
  .524E+01  .525E+01  .525E+01  .586E+01  .526E+01  .518E+01  .518E+01  .586E+01
  .587E+01  .589E+01  .590E+01  .577E+01  .578E+01  .894E+01  .897E+01  .880E+01
  .695E+01  .696E+01  .734E+01  .810E+01  .818E+01  .792E+01  .653E+01  .661E+01
  .581E+01  .581E+01  .581E+01  .800E+01  .767E+01  .767E+01  .767E+01  .767E+01
  .768E+01  .768E+01  .768E+01  .768E+01  .768E+01  .512E+01  .512E+01  .512E+01
  .512E+01  .512E+01  .512E+01  .512E+01  .512E+01  .512E+01  .512E+01  .512E+01
  .512E+01  .512E+01  .512E+01  .512E+01  .512E+01  .512E+01  .512E+01  .512E+01
  .512E+01  .512E+01  .512E+01  .512E+01  .512E+01  .512E+01  .512E+01  .512E+01
  .512E+01  .512E+01  .512E+01  .000E+00  .000E+00  .000E+00  .000E+00  .000E+00
  .000E+00  .000E+00  .000E+00  .000E+00
  .517E+01  .517E+01  .517E+01  .544E+01  .544E+01  .544E+01  .547E+01  .548E+01
  .548E+01  .557E+01  .557E+01  .557E+01  .558E+01  .558E+01  .559E+01  .550E+01
  .541E+01  .542E+01  .592E+01  .587E+01  .618E+01  .533E+01  .526E+01  .527E+01
  .520E+01  .520E+01  .588E+01  .590E+01  .521E+01  .522E+01  .621E+01  .625E+01
  .579E+01  .582E+01  .583E+01  .584E+01  .585E+01  .882E+01  .886E+01  .708E+01
  .709E+01  .712E+01  .717E+01  .825E+01  .800E+01  .808E+01  .672E+01  .642E+01
  .645E+01  .647E+01  .812E+01  .777E+01  .780E+01  .785E+01  .785E+01  .786E+01
  .786E+01  .787E+01  .744E+01  .745E+01  .746E+01  .747E+01  .748E+01  .748E+01
  .700E+01  .611E+01  .611E+01  .611E+01  .611E+01  .611E+01  .611E+01  .610E+01
  .610E+01  .610E+01  .610E+01  .499E+01  .499E+01  .499E+01  .499E+01  .499E+01
  .499E+01  .499E+01  .499E+01  .499E+01  .499E+01  .499E+01  .561E+01  .513E+01
  .513E+01  .513E+01  .513E+01  .000E+00  .000E+00  .000E+00  .000E+00  .000E+00
  .000E+00  .000E+00  .000E+00  .000E+00
/&   ----------  End of spectral data for channel  4  ----------
