Response and Fourier amplitude spectra (91 periods,  .04 - 15.0 sec)   for      
Corrected accelerogram   24764-K0987-01253.97       Chan  3: 180 Deg     from   
Uncorrected Accelerogram Data             Processed: 09/10/01, CDMG  bm097      
Record of Sun Sep  9, 2001 16:59:19 PDT               (Avol1 v4.6  7/01 CSMIP)  
CSMIP Preliminary Processing            (Origin:  To be determined)             
24764-K0987-01253.97                 Start time:  9/09/01, 23:59:19.0 UTC (GPS) 
Station No. 24764   34.160N, 118.534W        K2  s/n  987  (6 Channels)         
Tarzana - Cedar Hill B                                                          
Chan  3: 180 Deg                    Location: Surface                           
Record of Sun Sep  9, 2001 16:59:19 PDT    Sun Sep  9, 2001 16:59:19 PDT        
Hypocenter:  To be determined.               ML:  To be determined.
Instr Period =  .0103 sec,  Damping =  .640,  Sensitivity =  .63  v/g
                        Record length = 39.000 sec.
                                     Uncor Max  =   .028 g, at   5.570 sec.
RMS accel of (uncor) record  =        .
Accelerogram bandpass filtered with 3 dB pts at   .30 and 40.00 cyc/sec
                 instrument- and baseline-corrected





Record of Sun Sep  9, 2001 16:59:19 PDT    Sun Sep  9, 2001 16:59:19 PDT

24764-K0987-01253.97      Tarzana - Cedar Hill B    Chan  3: 180 Deg

24764-K0987-01253.97      Tarzana - Cedar Hill B    Chan  3: 180 Deg

Units for spectra are inches and sec, except Sa is in fraction of g.

    3  100    3    6    6  200    1    3    1   24   11  987    024764    4    0
   23   59   19    0  252    9    9 2001   10    3  180 7800   39   22   72  359
 7800    1   50    3  987    1   97  390    1    0    0    0    0    0    0    0
    0    4    0    0 3900    2    0    0    0    0   72   22    0    0    0 3900
    0 3900   23   91    1    6    0    0    0    0    6    0    0    0    0    2
    2    2    4    1   65   99    0   32   32    0    0    1    0    0    0    0
  -99   -1    0    0
      .010      .640    39.000      .003      .000   625.000      .028     5.570
    97.100      .298      .477      .000     5.000      .000      .000      .000
     2.500    -5.611      .009     -.021     5.000    30.000      .000      .001
      .001      .000     2.000    15.000    34.160  -118.534      .009      .416
    47.578     -.020      .020  -999.000      .000      .000    12.600      .000
  1000.000     1.005      .000      .000      .000      .000      .000      .000
     4.600     4.400      .000   980.665      .010    39.000    15.454      .000
      .000    40.000      .000    39.000      .010      .300      .000      .000
     5.570    27.216     5.530    -1.121     5.350      .095      .000      .300
    40.000      .010      .010      .000      .010      .023      .000      .000
      .077      .100      .050      .039      .007      .001      .000      .000
      .000      .000      .000      .000      .000      .000      .000      .000
      .000      .000      .000      .000
      .050
      .040      .042      .044      .046      .048      .050      .055      .060
      .065      .070      .075      .080      .085      .090      .095      .100
      .110      .120      .130      .140      .150      .160      .170      .180
      .190      .200      .220      .240      .260      .280      .300      .320
      .340      .360      .380      .400      .420      .440      .460      .480
      .500      .550      .600      .650      .700      .750      .800      .850
      .900      .950     1.000     1.100     1.200     1.300     1.400     1.500
     1.600     1.700     1.800     1.900     2.000     2.200     2.400     2.600
     2.800     3.000     3.200     3.400     3.600     3.800     4.000     4.200
     4.400     4.600     4.800     5.000     5.500     6.000     6.500     7.000
     7.500     8.000     8.500     9.000     9.500    10.000    11.000    12.000
    13.000    14.000    15.000      .000      .000      .000      .000      .000
      .000      .000      .000      .000
Fourier amplitude spectra in in/sec.
  .000E+00  .000E+00  .000E+00  .000E+00  .000E+00  .000E+00  .000E+00  .000E+00
  .000E+00  .000E+00  .000E+00  .000E+00  .000E+00  .000E+00  .000E+00  .000E+00
  .000E+00  .000E+00  .000E+00  .000E+00  .000E+00  .000E+00  .000E+00  .000E+00
  .000E+00  .000E+00  .000E+00  .000E+00  .000E+00  .000E+00  .000E+00  .000E+00
  .000E+00  .000E+00  .000E+00  .000E+00  .000E+00  .000E+00  .000E+00  .000E+00
  .000E+00  .000E+00  .000E+00  .000E+00  .000E+00  .000E+00  .000E+00  .000E+00
  .000E+00  .000E+00  .000E+00  .000E+00  .000E+00  .000E+00  .000E+00  .000E+00
  .000E+00  .000E+00  .000E+00  .000E+00  .000E+00  .000E+00  .000E+00  .000E+00
  .000E+00  .000E+00  .000E+00  .000E+00  .000E+00  .000E+00  .000E+00  .000E+00
  .000E+00  .000E+00  .000E+00  .000E+00  .000E+00  .000E+00  .000E+00  .000E+00
  .000E+00  .000E+00  .000E+00  .000E+00  .000E+00  .000E+00  .000E+00  .000E+00
  .000E+00  .000E+00  .000E+00  .000E+00  .000E+00  .000E+00  .000E+00  .000E+00
  .000E+00  .000E+00  .000E+00  .000E+00
Damping =  .05. Data of Sd,Sv,Sa,Pssv,ttSd,ttSv,ttSa :
  .568E-03  .638E-03  .684E-03  .749E-03  .925E-03  .106E-02  .132E-02  .120E-02
  .133E-02  .159E-02  .204E-02  .278E-02  .379E-02  .565E-02  .673E-02  .760E-02
  .840E-02  .886E-02  .652E-02  .724E-02  .109E-01  .123E-01  .135E-01  .155E-01
  .183E-01  .197E-01  .222E-01  .204E-01  .262E-01  .289E-01  .327E-01  .420E-01
  .513E-01  .560E-01  .592E-01  .656E-01  .785E-01  .904E-01  .956E-01  .986E-01
  .970E-01  .901E-01  .838E-01  .818E-01  .798E-01  .734E-01  .694E-01  .682E-01
  .685E-01  .688E-01  .680E-01  .625E-01  .552E-01  .506E-01  .484E-01  .467E-01
  .445E-01  .429E-01  .443E-01  .451E-01  .455E-01  .451E-01  .441E-01  .432E-01
  .426E-01  .423E-01  .421E-01  .419E-01  .418E-01  .417E-01  .415E-01  .413E-01
  .411E-01  .409E-01  .407E-01  .405E-01  .401E-01  .397E-01  .394E-01  .392E-01
  .390E-01  .389E-01  .388E-01  .388E-01  .387E-01  .387E-01  .387E-01  .387E-01
  .387E-01  .388E-01  .388E-01  .000E+00  .000E+00  .000E+00  .000E+00  .000E+00
  .000E+00  .000E+00  .000E+00  .000E+00
  .304E-01  .330E-01  .382E-01  .423E-01  .480E-01  .592E-01  .854E-01  .649E-01
  .811E-01  .818E-01  .103E+00  .130E+00  .188E+00  .287E+00  .353E+00  .405E+00
  .449E+00  .432E+00  .292E+00  .286E+00  .431E+00  .481E+00  .468E+00  .520E+00
  .585E+00  .556E+00  .632E+00  .535E+00  .548E+00  .605E+00  .621E+00  .766E+00
  .846E+00  .887E+00  .890E+00  .961E+00  .117E+01  .127E+01  .130E+01  .135E+01
  .131E+01  .123E+01  .958E+00  .892E+00  .802E+00  .692E+00  .645E+00  .589E+00
  .580E+00  .579E+00  .578E+00  .586E+00  .573E+00  .553E+00  .541E+00  .537E+00
  .535E+00  .532E+00  .526E+00  .518E+00  .509E+00  .494E+00  .482E+00  .475E+00
  .469E+00  .465E+00  .462E+00  .459E+00  .457E+00  .455E+00  .453E+00  .451E+00
  .450E+00  .449E+00  .448E+00  .447E+00  .446E+00  .445E+00  .444E+00  .443E+00
  .443E+00  .443E+00  .443E+00  .442E+00  .442E+00  .442E+00  .442E+00  .442E+00
  .442E+00  .441E+00  .441E+00  .000E+00  .000E+00  .000E+00  .000E+00  .000E+00
  .000E+00  .000E+00  .000E+00  .000E+00
  .365E-01  .370E-01  .363E-01  .362E-01  .412E-01  .433E-01  .451E-01  .339E-01
  .322E-01  .332E-01  .372E-01  .444E-01  .536E-01  .711E-01  .766E-01  .775E-01
  .709E-01  .640E-01  .396E-01  .381E-01  .497E-01  .487E-01  .477E-01  .498E-01
  .524E-01  .508E-01  .473E-01  .362E-01  .396E-01  .379E-01  .373E-01  .420E-01
  .457E-01  .444E-01  .420E-01  .420E-01  .458E-01  .480E-01  .466E-01  .441E-01
  .400E-01  .307E-01  .239E-01  .199E-01  .168E-01  .135E-01  .113E-01  .986E-02
  .882E-02  .796E-02  .712E-02  .542E-02  .405E-02  .319E-02  .265E-02  .225E-02
  .190E-02  .162E-02  .150E-02  .138E-02  .126E-02  .105E-02  .878E-03  .748E-03
  .649E-03  .572E-03  .509E-03  .458E-03  .415E-03  .378E-03  .347E-03  .320E-03
  .296E-03  .276E-03  .257E-03  .241E-03  .207E-03  .180E-03  .160E-03  .144E-03
  .131E-03  .119E-03  .110E-03  .102E-03  .949E-04  .887E-04  .785E-04  .703E-04
  .637E-04  .583E-04  .537E-04  .000E+00  .000E+00  .000E+00  .000E+00  .000E+00
  .000E+00  .000E+00  .000E+00  .000E+00
  .892E-01  .955E-01  .977E-01  .102E+00  .121E+00  .133E+00  .151E+00  .125E+00
  .129E+00  .143E+00  .171E+00  .218E+00  .280E+00  .394E+00  .445E+00  .478E+00
  .480E+00  .464E+00  .315E+00  .325E+00  .457E+00  .483E+00  .499E+00  .543E+00
  .606E+00  .618E+00  .633E+00  .533E+00  .633E+00  .647E+00  .684E+00  .825E+00
  .948E+00  .978E+00  .979E+00  .103E+01  .117E+01  .129E+01  .131E+01  .129E+01
  .122E+01  .103E+01  .877E+00  .790E+00  .716E+00  .615E+00  .545E+00  .504E+00
  .478E+00  .455E+00  .427E+00  .357E+00  .289E+00  .244E+00  .217E+00  .196E+00
  .175E+00  .159E+00  .155E+00  .149E+00  .143E+00  .129E+00  .116E+00  .104E+00
  .957E-01  .886E-01  .826E-01  .775E-01  .730E-01  .689E-01  .652E-01  .618E-01
  .587E-01  .559E-01  .533E-01  .509E-01  .458E-01  .416E-01  .381E-01  .352E-01
  .327E-01  .305E-01  .287E-01  .271E-01  .256E-01  .243E-01  .221E-01  .203E-01
  .187E-01  .174E-01  .162E-01  .000E+00  .000E+00  .000E+00  .000E+00  .000E+00
  .000E+00  .000E+00  .000E+00  .000E+00
  .556E+01  .556E+01  .556E+01  .556E+01  .556E+01  .557E+01  .557E+01  .557E+01
  .557E+01  .557E+01  .556E+01  .557E+01  .557E+01  .557E+01  .557E+01  .558E+01
  .620E+01  .559E+01  .560E+01  .533E+01  .704E+01  .706E+01  .560E+01  .623E+01
  .561E+01  .534E+01  .820E+01  .537E+01  .538E+01  .539E+01  .560E+01  .561E+01
  .562E+01  .564E+01  .565E+01  .566E+01  .634E+01  .637E+01  .618E+01  .620E+01
  .622E+01  .603E+01  .606E+01  .582E+01  .584E+01  .586E+01  .556E+01  .557E+01
  .557E+01  .557E+01  .558E+01  .558E+01  .559E+01  .559E+01  .559E+01  .559E+01
  .559E+01  .532E+01  .532E+01  .533E+01  .533E+01  .533E+01  .533E+01  .533E+01
  .533E+01  .533E+01  .533E+01  .533E+01  .533E+01  .533E+01  .533E+01  .533E+01
  .533E+01  .533E+01  .534E+01  .534E+01  .534E+01  .534E+01  .534E+01  .534E+01
  .534E+01  .534E+01  .534E+01  .534E+01  .534E+01  .534E+01  .534E+01  .534E+01
  .534E+01  .534E+01  .534E+01  .000E+00  .000E+00  .000E+00  .000E+00  .000E+00
  .000E+00  .000E+00  .000E+00  .000E+00
  .312E+01  .277E+01  .280E+01  .544E+01  .555E+01  .558E+01  .559E+01  .510E+01
  .630E+01  .634E+01  .553E+01  .553E+01  .553E+01  .559E+01  .560E+01  .560E+01
  .617E+01  .603E+01  .563E+01  .638E+01  .700E+01  .702E+01  .799E+01  .593E+01
  .594E+01  .558E+01  .826E+01  .818E+01  .819E+01  .620E+01  .639E+01  .787E+01
  .571E+01  .573E+01  .574E+01  .558E+01  .644E+01  .647E+01  .630E+01  .632E+01
  .612E+01  .614E+01  .590E+01  .598E+01  .599E+01  .569E+01  .765E+01  .543E+01
  .543E+01  .543E+01  .543E+01  .551E+01  .551E+01  .552E+01  .552E+01  .552E+01
  .552E+01  .552E+01  .552E+01  .552E+01  .552E+01  .552E+01  .552E+01  .552E+01
  .552E+01  .552E+01  .552E+01  .552E+01  .552E+01  .552E+01  .552E+01  .552E+01
  .552E+01  .552E+01  .552E+01  .552E+01  .552E+01  .552E+01  .552E+01  .552E+01
  .552E+01  .552E+01  .552E+01  .552E+01  .552E+01  .552E+01  .552E+01  .552E+01
  .552E+01  .552E+01  .552E+01  .000E+00  .000E+00  .000E+00  .000E+00  .000E+00
  .000E+00  .000E+00  .000E+00  .000E+00
  .556E+01  .556E+01  .556E+01  .556E+01  .556E+01  .557E+01  .557E+01  .557E+01
  .557E+01  .557E+01  .556E+01  .556E+01  .556E+01  .557E+01  .557E+01  .557E+01
  .620E+01  .559E+01  .560E+01  .533E+01  .704E+01  .706E+01  .560E+01  .623E+01
  .561E+01  .534E+01  .820E+01  .537E+01  .537E+01  .539E+01  .559E+01  .561E+01
  .562E+01  .563E+01  .564E+01  .566E+01  .634E+01  .636E+01  .617E+01  .619E+01
  .621E+01  .602E+01  .605E+01  .581E+01  .583E+01  .584E+01  .555E+01  .555E+01
  .555E+01  .556E+01  .556E+01  .556E+01  .556E+01  .556E+01  .556E+01  .556E+01
  .556E+01  .530E+01  .530E+01  .530E+01  .530E+01  .530E+01  .529E+01  .529E+01
  .529E+01  .529E+01  .529E+01  .529E+01  .529E+01  .528E+01  .528E+01  .528E+01
  .528E+01  .528E+01  .528E+01  .528E+01  .528E+01  .528E+01  .527E+01  .527E+01
  .527E+01  .527E+01  .527E+01  .527E+01  .527E+01  .527E+01  .527E+01  .527E+01
  .526E+01  .526E+01  .526E+01  .000E+00  .000E+00  .000E+00  .000E+00  .000E+00
  .000E+00  .000E+00  .000E+00  .000E+00
/&   ----------  End of spectral data for channel  3  ----------
