Response and Fourier amplitude spectra (91 periods,  .04 - 15.0 sec)   for      
Corrected accelerogram   24652-F0217-01337.02       Chan  1: 360 Deg     from   
Uncorrected Accelerogram Data             Processed: 06/06/08, CDMG  ce24652    
Record of Sun Sep  9, 2001 16:59:15.6 PDT             (Avol1 v7.5 7/07 CSMIP)   
CSMIP Preliminary Processing            (Origin:  To be determined)             
24652-F0217-01337.02                 Start time:  9/09/01, 23:59:15.6 UTC (WWVB)
Station No. 24652   34.021N, 118.287W     SSA-2  s/n  217  (3 Chns of 15 at Sta)
Los Angeles - 6-story Univ. Office Bldg   CGS                                   
Chan  1: 360 DegR (Sta Chn: 10)     Location: 3rd Floor: West Tower             
Record of Sun Sep  9, 2001 16:59:15.6 PDT    Sun Sep  9, 2001 16:59:15.6 PDT    
Hypocenter:  To be determined.               ML:  To be determined.
Instr Period =  .0222 sec,  Damping =  .700,  Sensitivity = 1.25  v/g  (Nominal)
                        Record length = 67.840 sec.
                                     Uncor Max  =  -.067 g , at   8.050 sec.
RMS accel of (uncor) record  =        .   Chn. metadata effective date: 01/01/04
Accelerogram bandpass filtered with 3 dB pts at   .50 and 40.00 cyc/sec
                 instrument- and baseline-corrected





Record of Sun Sep  9, 2001 16:59:15.6 PDT    Sun Sep  9, 2001 16:59:15.6 PDT

24652-F0217-01337.02      Los Angeles - 6-story Univ. Office Bldg   Chan  1: 360
 Deg
24652-F0217-01337.02      Los Angeles - 6-story Univ. Office Bldg   Chan  1: 360
 Deg
Units for spectra are inches and sec, except Sa is in fraction of g.

    1  100   10    3   15  200    1    3    1   12    6  217    024652    2    0
   23   59   15  615  252    9    9 2001   10    1  36013568   41   39   76  345
13568    0   50    3 3102    1    2   53    2   23   59   19  110    9    9 2001
    0    2    0    013568    1  220    1   12    4   76   39    0    0    013568
    313568   40   91    5    3    5    0    0    0   15    0    0    3    0    2
    2    2    4    0   79   99    1   32   32    0    0    1    0    0    8  333
    1    1    1    0
      .022      .700    67.840      .005      .000  1250.000     -.067     8.050
    45.000  1220.703   976.563      .000     5.000      .000      .000      .000
     2.500   -62.512     2.500  -999.000     5.120    30.000      .000      .009
     -.019     -.028     2.000    15.000    34.021  -118.287      .085      .242
     2.859     -.044     -.012    54.000      .000      .000      .000      .000
      .000    -1.010     7.000      .000      .000      .000      .000      .000
     6.800     7.500     4.600   980.665      .005    67.840     7.162      .000
      .000    40.000      .000    67.840      .005      .500      .000      .000
     8.045   -65.677     8.080    -2.103    12.480     -.104      .000      .500
    40.000      .005      .005      .000      .535      .072      .000      .000
      .307      .120      .122      .122      .012      .001      .000      .000
      .000      .000      .000      .000      .000      .000      .000      .000
      .000      .000      .000      .000
      .000      .020      .050      .100      .200
      .040      .042      .044      .046      .048      .050      .055      .060
      .065      .070      .075      .080      .085      .090      .095      .100
      .110      .120      .130      .140      .150      .160      .170      .180
      .190      .200      .220      .240      .260      .280      .300      .320
      .340      .360      .380      .400      .420      .440      .460      .480
      .500      .550      .600      .650      .700      .750      .800      .850
      .900      .950     1.000     1.100     1.200     1.300     1.400     1.500
     1.600     1.700     1.800     1.900     2.000     2.200     2.400     2.600
     2.800     3.000     3.200     3.400     3.600     3.800     4.000     4.200
     4.400     4.600     4.800     5.000     5.500     6.000     6.500     7.000
     7.500     8.000     8.500     9.000     9.500    10.000    11.000    12.000
    13.000    14.000    15.000      .000      .000      .000      .000      .000
      .000      .000      .000      .000
Fourier amplitude spectra in in/sec.
  .110E+00  .136E+00  .639E-01  .990E-01  .108E+00  .107E+00  .103E+00  .927E-01
  .953E-01  .194E+00  .187E+00  .905E+00  .434E+00  .157E+01  .245E+01  .235E+01
  .433E+01  .292E+01  .106E+01  .327E+01  .522E+01  .298E+01  .128E+01  .211E+01
  .201E+01  .123E+01  .353E+01  .108E+02  .586E+00  .342E+01  .406E+01  .213E+01
  .335E+01  .172E+01  .201E+01  .158E+01  .512E+00  .140E+01  .141E+01  .131E+01
  .504E+00  .308E+00  .812E-01  .116E+00  .566E+00  .197E+01  .655E+01  .238E+01
  .982E+00  .243E+01  .999E+00  .188E+00  .150E+00  .349E+00  .307E+00  .454E+00
  .249E+00  .266E+00  .660E-01  .144E+00  .684E-01  .124E+00  .503E-01  .556E-01
  .633E-02  .946E-02  .181E-01  .179E-01  .588E-02  .101E-01  .825E-02  .536E-02
  .373E-02  .297E-02  .162E-02  .323E-02  .269E-02  .263E-03  .789E-03  .249E-03
  .453E-03  .460E-03  .882E-04  .101E-03  .979E-04  .761E-04  .111E-03  .915E-04
  .145E-03  .147E-03  .601E-04  .000E+00  .000E+00  .000E+00  .000E+00  .000E+00
  .000E+00  .000E+00  .000E+00  .000E+00
Damping =  .00. Data of Sd,Sv,Sa,Pssv,ttSd,ttSv,ttSa :
  .125E-02  .135E-02  .162E-02  .182E-02  .198E-02  .243E-02  .266E-02  .437E-02
  .394E-02  .480E-02  .657E-02  .128E-01  .121E-01  .264E-01  .398E-01  .389E-01
  .827E-01  .701E-01  .597E-01  .136E+00  .142E+00  .103E+00  .722E-01  .641E-01
  .664E-01  .663E-01  .133E+00  .441E+00  .193E+00  .266E+00  .257E+00  .185E+00
  .203E+00  .152E+00  .143E+00  .136E+00  .110E+00  .104E+00  .109E+00  .126E+00
  .984E-01  .561E-01  .543E-01  .828E-01  .892E-01  .256E+00  .870E+00  .438E+00
  .324E+00  .387E+00  .219E+00  .141E+00  .126E+00  .785E-01  .941E-01  .131E+00
  .122E+00  .104E+00  .767E-01  .587E-01  .524E-01  .531E-01  .598E-01  .616E-01
  .557E-01  .482E-01  .435E-01  .417E-01  .415E-01  .416E-01  .417E-01  .418E-01
  .419E-01  .420E-01  .421E-01  .422E-01  .422E-01  .420E-01  .417E-01  .415E-01
  .414E-01  .414E-01  .414E-01  .414E-01  .414E-01  .413E-01  .413E-01  .412E-01
  .412E-01  .412E-01  .411E-01  .000E+00  .000E+00  .000E+00  .000E+00  .000E+00
  .000E+00  .000E+00  .000E+00  .000E+00
  .110E+00  .153E+00  .898E-01  .991E-01  .130E+00  .145E+00  .163E+00  .300E+00
  .234E+00  .254E+00  .453E+00  .953E+00  .764E+00  .179E+01  .261E+01  .242E+01
  .472E+01  .362E+01  .279E+01  .605E+01  .590E+01  .396E+01  .284E+01  .250E+01
  .230E+01  .200E+01  .378E+01  .115E+02  .507E+01  .613E+01  .547E+01  .376E+01
  .390E+01  .261E+01  .252E+01  .236E+01  .190E+01  .171E+01  .168E+01  .172E+01
  .156E+01  .137E+01  .132E+01  .128E+01  .119E+01  .214E+01  .684E+01  .326E+01
  .235E+01  .261E+01  .148E+01  .948E+00  .103E+01  .811E+00  .778E+00  .846E+00
  .834E+00  .756E+00  .757E+00  .760E+00  .766E+00  .783E+00  .796E+00  .802E+00
  .806E+00  .810E+00  .814E+00  .817E+00  .819E+00  .820E+00  .821E+00  .822E+00
  .822E+00  .823E+00  .823E+00  .823E+00  .824E+00  .824E+00  .824E+00  .825E+00
  .825E+00  .825E+00  .825E+00  .825E+00  .825E+00  .825E+00  .825E+00  .825E+00
  .825E+00  .825E+00  .825E+00  .000E+00  .000E+00  .000E+00  .000E+00  .000E+00
  .000E+00  .000E+00  .000E+00  .000E+00
  .799E-01  .783E-01  .855E-01  .880E-01  .880E-01  .995E-01  .901E-01  .124E+00
  .953E-01  .100E+00  .120E+00  .204E+00  .171E+00  .334E+00  .451E+00  .398E+00
  .699E+00  .498E+00  .361E+00  .710E+00  .646E+00  .413E+00  .256E+00  .202E+00
  .188E+00  .170E+00  .281E+00  .784E+00  .293E+00  .347E+00  .292E+00  .184E+00
  .180E+00  .120E+00  .102E+00  .868E-01  .639E-01  .547E-01  .526E-01  .559E-01
  .403E-01  .190E-01  .154E-01  .200E-01  .186E-01  .465E-01  .139E+00  .620E-01
  .409E-01  .439E-01  .224E-01  .119E-01  .895E-02  .475E-02  .491E-02  .596E-02
  .486E-02  .367E-02  .242E-02  .166E-02  .134E-02  .112E-02  .106E-02  .931E-03
  .726E-03  .548E-03  .434E-03  .369E-03  .327E-03  .294E-03  .267E-03  .242E-03
  .221E-03  .203E-03  .187E-03  .173E-03  .143E-03  .119E-03  .101E-03  .867E-04
  .753E-04  .661E-04  .586E-04  .522E-04  .469E-04  .423E-04  .349E-04  .293E-04
  .249E-04  .215E-04  .187E-04  .000E+00  .000E+00  .000E+00  .000E+00  .000E+00
  .000E+00  .000E+00  .000E+00  .000E+00
  .196E+00  .202E+00  .231E+00  .249E+00  .259E+00  .306E+00  .304E+00  .457E+00
  .381E+00  .431E+00  .551E+00  .100E+01  .892E+00  .184E+01  .263E+01  .244E+01
  .473E+01  .367E+01  .288E+01  .611E+01  .595E+01  .405E+01  .267E+01  .224E+01
  .220E+01  .208E+01  .380E+01  .116E+02  .468E+01  .597E+01  .539E+01  .363E+01
  .376E+01  .266E+01  .237E+01  .213E+01  .165E+01  .148E+01  .149E+01  .165E+01
  .124E+01  .641E+00  .569E+00  .800E+00  .801E+00  .214E+01  .684E+01  .324E+01
  .226E+01  .256E+01  .138E+01  .804E+00  .660E+00  .379E+00  .422E+00  .549E+00
  .477E+00  .383E+00  .268E+00  .194E+00  .165E+00  .152E+00  .156E+00  .149E+00
  .125E+00  .101E+00  .853E-01  .771E-01  .723E-01  .687E-01  .655E-01  .625E-01
  .598E-01  .574E-01  .552E-01  .531E-01  .482E-01  .440E-01  .403E-01  .373E-01
  .347E-01  .325E-01  .306E-01  .289E-01  .273E-01  .260E-01  .236E-01  .216E-01
  .199E-01  .185E-01  .172E-01  .000E+00  .000E+00  .000E+00  .000E+00  .000E+00
  .000E+00  .000E+00  .000E+00  .000E+00
  .835E+01  .804E+01  .836E+01  .836E+01  .835E+01  .836E+01  .849E+01  .835E+01
  .855E+01  .835E+01  .889E+01  .120E+02  .856E+01  .123E+02  .133E+02  .146E+02
  .894E+01  .864E+01  .892E+01  .993E+01  .905E+01  .102E+02  .849E+01  .843E+01
  .144E+02  .978E+01  .209E+02  .204E+02  .832E+01  .965E+01  .108E+02  .919E+01
  .124E+02  .145E+02  .190E+02  .111E+02  .104E+02  .177E+02  .160E+02  .177E+02
  .123E+02  .802E+01  .802E+01  .168E+02  .211E+02  .489E+02  .446E+02  .193E+02
  .148E+02  .397E+02  .180E+02  .132E+02  .177E+02  .228E+02  .412E+02  .294E+02
  .219E+02  .125E+02  .125E+02  .255E+02  .835E+01  .251E+02  .125E+02  .125E+02
  .125E+02  .125E+02  .125E+02  .125E+02  .125E+02  .125E+02  .125E+02  .125E+02
  .125E+02  .125E+02  .125E+02  .125E+02  .125E+02  .125E+02  .125E+02  .125E+02
  .125E+02  .125E+02  .125E+02  .125E+02  .125E+02  .125E+02  .125E+02  .125E+02
  .125E+02  .125E+02  .125E+02  .000E+00  .000E+00  .000E+00  .000E+00  .000E+00
  .000E+00  .000E+00  .000E+00  .000E+00
  .621E+02  .546E+02  .807E+01  .663E+02  .414E+02  .827E+01  .839E+01  .807E+01
  .853E+01  .852E+01  .888E+01  .254E+02  .859E+01  .123E+02  .146E+02  .230E+02
  .897E+01  .867E+01  .868E+01  .997E+01  .909E+01  .102E+02  .845E+01  .839E+01
  .832E+01  .973E+01  .209E+02  .201E+02  .852E+01  .958E+01  .107E+02  .897E+01
  .123E+02  .146E+02  .839E+01  .124E+02  .839E+01  .807E+01  .807E+01  .126E+02
  .807E+01  .807E+01  .807E+01  .807E+01  .807E+01  .487E+02  .452E+02  .182E+02
  .155E+02  .233E+02  .182E+02  .126E+02  .126E+02  .807E+01  .807E+01  .126E+02
  .126E+02  .807E+01  .807E+01  .807E+01  .807E+01  .807E+01  .807E+01  .807E+01
  .807E+01  .807E+01  .807E+01  .807E+01  .807E+01  .807E+01  .807E+01  .807E+01
  .807E+01  .807E+01  .807E+01  .807E+01  .807E+01  .807E+01  .807E+01  .807E+01
  .807E+01  .807E+01  .807E+01  .807E+01  .807E+01  .807E+01  .807E+01  .807E+01
  .807E+01  .807E+01  .807E+01  .000E+00  .000E+00  .000E+00  .000E+00  .000E+00
  .000E+00  .000E+00  .000E+00  .000E+00
  .835E+01  .804E+01  .836E+01  .836E+01  .835E+01  .836E+01  .849E+01  .835E+01
  .855E+01  .835E+01  .889E+01  .120E+02  .856E+01  .123E+02  .133E+02  .146E+02
  .894E+01  .864E+01  .892E+01  .993E+01  .905E+01  .102E+02  .849E+01  .843E+01
  .144E+02  .978E+01  .209E+02  .204E+02  .832E+01  .965E+01  .108E+02  .919E+01
  .124E+02  .145E+02  .190E+02  .111E+02  .104E+02  .177E+02  .160E+02  .177E+02
  .123E+02  .802E+01  .802E+01  .168E+02  .211E+02  .489E+02  .446E+02  .193E+02
  .148E+02  .397E+02  .180E+02  .132E+02  .177E+02  .228E+02  .412E+02  .294E+02
  .219E+02  .125E+02  .125E+02  .255E+02  .835E+01  .251E+02  .125E+02  .125E+02
  .125E+02  .125E+02  .125E+02  .125E+02  .125E+02  .125E+02  .125E+02  .125E+02
  .125E+02  .125E+02  .125E+02  .125E+02  .125E+02  .125E+02  .125E+02  .125E+02
  .125E+02  .125E+02  .125E+02  .125E+02  .125E+02  .125E+02  .125E+02  .125E+02
  .125E+02  .125E+02  .125E+02  .000E+00  .000E+00  .000E+00  .000E+00  .000E+00
  .000E+00  .000E+00  .000E+00  .000E+00
Damping =  .02. Data of Sd,Sv,Sa,Pssv,ttSd,ttSv,ttSa :
  .116E-02  .134E-02  .142E-02  .162E-02  .188E-02  .208E-02  .229E-02  .287E-02
  .341E-02  .454E-02  .580E-02  .868E-02  .110E-01  .173E-01  .277E-01  .338E-01
  .511E-01  .572E-01  .553E-01  .717E-01  .826E-01  .694E-01  .603E-01  .523E-01
  .516E-01  .532E-01  .662E-01  .151E+00  .133E+00  .175E+00  .159E+00  .135E+00
  .130E+00  .115E+00  .100E+00  .837E-01  .824E-01  .804E-01  .747E-01  .698E-01
  .651E-01  .546E-01  .544E-01  .632E-01  .828E-01  .183E+00  .348E+00  .248E+00
  .232E+00  .194E+00  .168E+00  .123E+00  .103E+00  .645E-01  .685E-01  .932E-01
  .855E-01  .907E-01  .723E-01  .550E-01  .517E-01  .463E-01  .571E-01  .589E-01
  .544E-01  .484E-01  .443E-01  .424E-01  .419E-01  .418E-01  .418E-01  .419E-01
  .419E-01  .420E-01  .421E-01  .421E-01  .421E-01  .419E-01  .417E-01  .415E-01
  .414E-01  .414E-01  .414E-01  .413E-01  .413E-01  .413E-01  .413E-01  .412E-01
  .412E-01  .412E-01  .412E-01  .000E+00  .000E+00  .000E+00  .000E+00  .000E+00
  .000E+00  .000E+00  .000E+00  .000E+00
  .649E-01  .678E-01  .716E-01  .814E-01  .937E-01  .108E+00  .121E+00  .160E+00
  .216E+00  .259E+00  .372E+00  .497E+00  .612E+00  .989E+00  .157E+01  .196E+01
  .274E+01  .286E+01  .260E+01  .316E+01  .352E+01  .298E+01  .244E+01  .210E+01
  .198E+01  .185E+01  .180E+01  .380E+01  .356E+01  .417E+01  .354E+01  .286E+01
  .242E+01  .235E+01  .228E+01  .203E+01  .180E+01  .165E+01  .162E+01  .157E+01
  .152E+01  .137E+01  .131E+01  .126E+01  .118E+01  .146E+01  .276E+01  .198E+01
  .162E+01  .137E+01  .117E+01  .912E+00  .946E+00  .816E+00  .787E+00  .792E+00
  .785E+00  .762E+00  .763E+00  .766E+00  .771E+00  .785E+00  .796E+00  .802E+00
  .806E+00  .810E+00  .813E+00  .816E+00  .818E+00  .820E+00  .821E+00  .821E+00
  .822E+00  .822E+00  .823E+00  .823E+00  .824E+00  .824E+00  .824E+00  .825E+00
  .825E+00  .825E+00  .825E+00  .825E+00  .825E+00  .825E+00  .825E+00  .825E+00
  .825E+00  .825E+00  .825E+00  .000E+00  .000E+00  .000E+00  .000E+00  .000E+00
  .000E+00  .000E+00  .000E+00  .000E+00
  .741E-01  .775E-01  .753E-01  .783E-01  .835E-01  .851E-01  .773E-01  .815E-01
  .828E-01  .949E-01  .106E+00  .139E+00  .155E+00  .219E+00  .315E+00  .345E+00
  .432E+00  .407E+00  .334E+00  .374E+00  .377E+00  .278E+00  .214E+00  .165E+00
  .147E+00  .136E+00  .140E+00  .268E+00  .201E+00  .228E+00  .181E+00  .135E+00
  .115E+00  .907E-01  .710E-01  .535E-01  .478E-01  .426E-01  .361E-01  .310E-01
  .267E-01  .185E-01  .155E-01  .153E-01  .173E-01  .334E-01  .556E-01  .351E-01
  .293E-01  .221E-01  .172E-01  .104E-01  .730E-02  .391E-02  .359E-02  .425E-02
  .343E-02  .323E-02  .230E-02  .161E-02  .137E-02  .100E-02  .103E-02  .907E-03
  .726E-03  .566E-03  .457E-03  .390E-03  .345E-03  .311E-03  .282E-03  .257E-03
  .236E-03  .217E-03  .201E-03  .186E-03  .156E-03  .132E-03  .114E-03  .995E-04
  .878E-04  .807E-04  .747E-04  .694E-04  .648E-04  .608E-04  .542E-04  .490E-04
  .447E-04  .411E-04  .381E-04  .000E+00  .000E+00  .000E+00  .000E+00  .000E+00
  .000E+00  .000E+00  .000E+00  .000E+00
  .182E+00  .200E+00  .203E+00  .221E+00  .246E+00  .261E+00  .261E+00  .301E+00
  .329E+00  .407E+00  .486E+00  .682E+00  .811E+00  .121E+01  .183E+01  .213E+01
  .292E+01  .300E+01  .267E+01  .322E+01  .346E+01  .273E+01  .223E+01  .182E+01
  .171E+01  .167E+01  .189E+01  .395E+01  .320E+01  .392E+01  .332E+01  .266E+01
  .241E+01  .200E+01  .166E+01  .131E+01  .123E+01  .115E+01  .102E+01  .914E+00
  .818E+00  .624E+00  .569E+00  .611E+00  .743E+00  .154E+01  .273E+01  .183E+01
  .162E+01  .129E+01  .106E+01  .702E+00  .537E+00  .312E+00  .307E+00  .390E+00
  .336E+00  .335E+00  .252E+00  .182E+00  .162E+00  .132E+00  .149E+00  .142E+00
  .122E+00  .101E+00  .869E-01  .784E-01  .731E-01  .691E-01  .657E-01  .626E-01
  .599E-01  .574E-01  .551E-01  .529E-01  .481E-01  .439E-01  .403E-01  .373E-01
  .347E-01  .325E-01  .306E-01  .289E-01  .273E-01  .260E-01  .236E-01  .216E-01
  .199E-01  .185E-01  .172E-01  .000E+00  .000E+00  .000E+00  .000E+00  .000E+00
  .000E+00  .000E+00  .000E+00  .000E+00
  .835E+01  .836E+01  .836E+01  .835E+01  .836E+01  .836E+01  .836E+01  .836E+01
  .830E+01  .835E+01  .835E+01  .835E+01  .835E+01  .835E+01  .836E+01  .843E+01
  .856E+01  .864E+01  .865E+01  .866E+01  .868E+01  .848E+01  .849E+01  .843E+01
  .828E+01  .828E+01  .931E+01  .125E+02  .820E+01  .964E+01  .928E+01  .903E+01
  .843E+01  .844E+01  .865E+01  .832E+01  .834E+01  .835E+01  .814E+01  .815E+01
  .815E+01  .801E+01  .801E+01  .172E+02  .141E+02  .177E+02  .190E+02  .192E+02
  .148E+02  .231E+02  .180E+02  .132E+02  .128E+02  .168E+02  .133E+02  .129E+02
  .124E+02  .125E+02  .125E+02  .835E+01  .835E+01  .125E+02  .125E+02  .125E+02
  .125E+02  .125E+02  .125E+02  .125E+02  .125E+02  .125E+02  .125E+02  .125E+02
  .125E+02  .125E+02  .125E+02  .125E+02  .125E+02  .125E+02  .125E+02  .125E+02
  .125E+02  .125E+02  .125E+02  .125E+02  .125E+02  .125E+02  .125E+02  .125E+02
  .125E+02  .125E+02  .125E+02  .000E+00  .000E+00  .000E+00  .000E+00  .000E+00
  .000E+00  .000E+00  .000E+00  .000E+00
  .839E+01  .853E+01  .853E+01  .847E+01  .827E+01  .827E+01  .839E+01  .852E+01
  .832E+01  .887E+01  .888E+01  .905E+01  .859E+01  .833E+01  .839E+01  .839E+01
  .853E+01  .867E+01  .868E+01  .863E+01  .864E+01  .852E+01  .845E+01  .839E+01
  .832E+01  .832E+01  .826E+01  .124E+02  .826E+01  .958E+01  .922E+01  .896E+01
  .868E+01  .838E+01  .839E+01  .839E+01  .839E+01  .807E+01  .807E+01  .807E+01
  .807E+01  .807E+01  .807E+01  .807E+01  .807E+01  .187E+02  .196E+02  .182E+02
  .141E+02  .186E+02  .182E+02  .126E+02  .126E+02  .807E+01  .807E+01  .126E+02
  .126E+02  .807E+01  .807E+01  .807E+01  .807E+01  .807E+01  .807E+01  .807E+01
  .807E+01  .807E+01  .807E+01  .807E+01  .807E+01  .807E+01  .807E+01  .807E+01
  .807E+01  .807E+01  .807E+01  .807E+01  .807E+01  .807E+01  .807E+01  .807E+01
  .807E+01  .807E+01  .807E+01  .807E+01  .807E+01  .807E+01  .807E+01  .807E+01
  .807E+01  .807E+01  .807E+01  .000E+00  .000E+00  .000E+00  .000E+00  .000E+00
  .000E+00  .000E+00  .000E+00  .000E+00
  .835E+01  .836E+01  .836E+01  .835E+01  .836E+01  .835E+01  .836E+01  .836E+01
  .830E+01  .835E+01  .835E+01  .835E+01  .835E+01  .835E+01  .836E+01  .843E+01
  .856E+01  .864E+01  .865E+01  .866E+01  .868E+01  .848E+01  .849E+01  .843E+01
  .827E+01  .828E+01  .943E+01  .125E+02  .819E+01  .964E+01  .928E+01  .903E+01
  .843E+01  .844E+01  .864E+01  .832E+01  .834E+01  .834E+01  .814E+01  .815E+01
  .815E+01  .801E+01  .801E+01  .172E+02  .141E+02  .177E+02  .190E+02  .192E+02
  .148E+02  .231E+02  .180E+02  .132E+02  .128E+02  .168E+02  .133E+02  .128E+02
  .124E+02  .125E+02  .125E+02  .835E+01  .835E+01  .835E+01  .125E+02  .125E+02
  .125E+02  .125E+02  .125E+02  .125E+02  .125E+02  .124E+02  .124E+02  .124E+02
  .124E+02  .124E+02  .124E+02  .124E+02  .124E+02  .124E+02  .124E+02  .124E+02
  .810E+01  .809E+01  .809E+01  .809E+01  .809E+01  .809E+01  .809E+01  .809E+01
  .809E+01  .809E+01  .809E+01  .000E+00  .000E+00  .000E+00  .000E+00  .000E+00
  .000E+00  .000E+00  .000E+00  .000E+00
Damping =  .05. Data of Sd,Sv,Sa,Pssv,ttSd,ttSv,ttSa :
  .116E-02  .131E-02  .145E-02  .162E-02  .182E-02  .199E-02  .234E-02  .281E-02
