Response and Fourier amplitude spectra (91 periods,  .04 - 15.0 sec)   for      
Corrected accelerogram   24652-F0218-01337.02       Chan  3:  Up         from   
Uncorrected Accelerogram Data             Processed: 06/06/08, CDMG  ce24652    
Record of Sun Sep  9, 2001 16:59:15.6 PDT             (Avol1 v7.5 7/07 CSMIP)   
CSMIP Preliminary Processing            (Origin:  To be determined)             
24652-F0218-01337.02                 Start time:  9/09/01, 23:59:15.6 UTC (WWVB)
Station No. 24652   34.021N, 118.287W     SSA-2  s/n  218  (3 Chns of 15 at Sta)
Los Angeles - 6-story Univ. Office Bldg   CGS                                   
Chan  3:  Up      (Sta Chn: 15)     Location: 3rd Floor: Southwest Wall         
Record of Sun Sep  9, 2001 16:59:15.6 PDT    Sun Sep  9, 2001 16:59:15.6 PDT    
Hypocenter:  To be determined.               ML:  To be determined.
Instr Period =  .0222 sec,  Damping =  .700,  Sensitivity = 1.25  v/g  (Nominal)
                        Record length = 67.840 sec.
                                     Uncor Max  =  -.073 g , at   5.240 sec.
RMS accel of (uncor) record  =        .   Chn. metadata effective date: 01/01/04
Accelerogram bandpass filtered with 3 dB pts at   .50 and 40.00 cyc/sec
                 instrument- and baseline-corrected





Record of Sun Sep  9, 2001 16:59:15.6 PDT    Sun Sep  9, 2001 16:59:15.6 PDT

24652-F0218-01337.02      Los Angeles - 6-story Univ. Office Bldg   Chan  3:  Up

24652-F0218-01337.02      Los Angeles - 6-story Univ. Office Bldg   Chan  3:  Up

Units for spectra are inches and sec, except Sa is in fraction of g.

    3  100   15    3   15  200    1    3    1   12    6  218    024652    2    0
   23   59   15  615  252    9    9 2001   10    1  50013568   41   39   76  345
13568    0   50    3 3102    1    2   53    2   23   59   17  950    9    9 2001
    0    2    0    013568    1  220    1   12    4   76   39    0    0    013568
    313568   40   91    5    3    5    0    0    0   15    0    0    3    0    2
    2    2    4    0   79   99    1   32   32    0    0    1    0    0    8  333
    1    1    3    0
      .022      .700    67.840      .007      .000  1250.000     -.073     5.240
    45.000  1220.703   976.563      .000     5.000      .000      .000      .000
     2.500    41.064     2.500  -999.000     5.120    30.000      .000     -.009
     -.006      .003     2.000    15.000    34.021  -118.287      .389      .341
      .877     -.050      .055    54.000      .000      .000      .000      .000
      .000    -1.015     7.000      .000      .000      .000      .000      .000
     6.800     7.500     4.600   980.665      .005    67.840     7.162      .000
      .000    40.000      .000    67.840      .005      .500      .000      .000
     5.235   -71.512     5.280    -2.496     5.365     -.104      .000      .500
    40.000      .005      .005      .000     3.160      .054      .000      .000
      .311      .110      .202      .142      .006      .001      .000      .000
      .000      .000      .000      .000      .000      .000      .000      .000
      .000      .000      .000      .000
      .000      .020      .050      .100      .200
      .040      .042      .044      .046      .048      .050      .055      .060
      .065      .070      .075      .080      .085      .090      .095      .100
      .110      .120      .130      .140      .150      .160      .170      .180
      .190      .200      .220      .240      .260      .280      .300      .320
      .340      .360      .380      .400      .420      .440      .460      .480
      .500      .550      .600      .650      .700      .750      .800      .850
      .900      .950     1.000     1.100     1.200     1.300     1.400     1.500
     1.600     1.700     1.800     1.900     2.000     2.200     2.400     2.600
     2.800     3.000     3.200     3.400     3.600     3.800     4.000     4.200
     4.400     4.600     4.800     5.000     5.500     6.000     6.500     7.000
     7.500     8.000     8.500     9.000     9.500    10.000    11.000    12.000
    13.000    14.000    15.000      .000      .000      .000      .000      .000
      .000      .000      .000      .000
Fourier amplitude spectra in in/sec.
  .105E+00  .118E+00  .614E-01  .499E-01  .168E+00  .382E+00  .255E+00  .403E+00
  .136E-01  .190E+00  .107E+00  .609E+00  .327E+00  .474E+00  .900E+00  .312E+01
  .604E+01  .423E+01  .473E+00  .113E+01  .994E+01  .127E+02  .328E+01  .814E+01
  .153E+01  .451E+01  .885E+01  .361E+01  .846E+01  .117E+01  .232E+01  .733E+01
  .150E+01  .241E+01  .105E+01  .443E+01  .109E+01  .901E+00  .208E+01  .157E+01
  .350E+00  .201E+01  .122E+01  .173E+00  .230E+00  .799E+00  .128E+01  .753E+00
  .396E+00  .480E+00  .188E+00  .135E+00  .206E+00  .122E+00  .266E-01  .227E+00
  .689E-01  .828E-01  .730E-01  .589E-01  .261E-01  .510E-01  .105E-01  .122E-01
  .240E-02  .124E-01  .116E-01  .727E-02  .347E-02  .690E-02  .842E-02  .722E-02
  .168E-02  .351E-02  .229E-02  .848E-03  .115E-02  .919E-03  .939E-03  .241E-03
  .375E-03  .412E-03  .316E-03  .203E-03  .531E-04  .307E-04  .185E-03  .128E-03
  .976E-04  .118E-03  .171E-04  .000E+00  .000E+00  .000E+00  .000E+00  .000E+00
  .000E+00  .000E+00  .000E+00  .000E+00
Damping =  .00. Data of Sd,Sv,Sa,Pssv,ttSd,ttSv,ttSa :
  .141E-02  .163E-02  .204E-02  .218E-02  .208E-02  .331E-02  .343E-02  .392E-02
  .418E-02  .521E-02  .653E-02  .105E-01  .132E-01  .192E-01  .301E-01  .536E-01
  .128E+00  .108E+00  .351E-01  .684E-01  .246E+00  .332E+00  .107E+00  .264E+00
  .154E+00  .145E+00  .356E+00  .251E+00  .410E+00  .192E+00  .269E+00  .376E+00
  .148E+00  .203E+00  .127E+00  .285E+00  .149E+00  .113E+00  .171E+00  .124E+00
  .773E-01  .199E+00  .121E+00  .789E-01  .918E-01  .113E+00  .165E+00  .102E+00
  .898E-01  .875E-01  .543E-01  .535E-01  .537E-01  .504E-01  .471E-01  .549E-01
  .432E-01  .426E-01  .423E-01  .418E-01  .413E-01  .415E-01  .417E-01  .416E-01
  .414E-01  .412E-01  .410E-01  .409E-01  .408E-01  .408E-01  .408E-01  .409E-01
  .409E-01  .409E-01  .409E-01  .409E-01  .409E-01  .409E-01  .408E-01  .408E-01
  .408E-01  .408E-01  .408E-01  .408E-01  .408E-01  .408E-01  .408E-01  .408E-01
  .409E-01  .409E-01  .409E-01  .000E+00  .000E+00  .000E+00  .000E+00  .000E+00
  .000E+00  .000E+00  .000E+00  .000E+00
  .115E+00  .129E+00  .158E+00  .176E+00  .220E+00  .385E+00  .281E+00  .408E+00
  .292E+00  .323E+00  .385E+00  .725E+00  .750E+00  .114E+01  .177E+01  .334E+01
  .730E+01  .545E+01  .156E+01  .293E+01  .102E+02  .130E+02  .390E+01  .923E+01
  .507E+01  .455E+01  .102E+02  .679E+01  .101E+02  .436E+01  .594E+01  .739E+01
  .266E+01  .401E+01  .244E+01  .447E+01  .270E+01  .204E+01  .252E+01  .186E+01
  .176E+01  .230E+01  .141E+01  .130E+01  .124E+01  .120E+01  .129E+01  .117E+01
  .116E+01  .114E+01  .112E+01  .109E+01  .109E+01  .108E+01  .106E+01  .105E+01
  .104E+01  .103E+01  .102E+01  .101E+01  .101E+01  .100E+01  .100E+01  .997E+00
  .995E+00  .993E+00  .991E+00  .990E+00  .989E+00  .988E+00  .987E+00  .986E+00
  .986E+00  .985E+00  .985E+00  .985E+00  .984E+00  .983E+00  .983E+00  .983E+00
  .982E+00  .982E+00  .982E+00  .982E+00  .982E+00  .982E+00  .981E+00  .981E+00
  .981E+00  .981E+00  .981E+00  .000E+00  .000E+00  .000E+00  .000E+00  .000E+00
  .000E+00  .000E+00  .000E+00  .000E+00
  .904E-01  .942E-01  .108E+00  .106E+00  .925E-01  .135E+00  .116E+00  .111E+00
  .101E+00  .109E+00  .119E+00  .168E+00  .186E+00  .242E+00  .341E+00  .548E+00
  .109E+01  .766E+00  .213E+00  .357E+00  .112E+01  .133E+01  .378E+00  .834E+00
  .435E+00  .370E+00  .751E+00  .446E+00  .621E+00  .251E+00  .306E+00  .376E+00
  .131E+00  .160E+00  .899E-01  .182E+00  .867E-01  .594E-01  .829E-01  .551E-01
  .316E-01  .674E-01  .343E-01  .191E-01  .192E-01  .205E-01  .264E-01  .144E-01
  .113E-01  .991E-02  .555E-02  .452E-02  .382E-02  .305E-02  .246E-02  .249E-02
  .173E-02  .151E-02  .134E-02  .119E-02  .106E-02  .877E-03  .740E-03  .630E-03
  .540E-03  .468E-03  .409E-03  .362E-03  .322E-03  .289E-03  .261E-03  .237E-03
  .216E-03  .198E-03  .182E-03  .167E-03  .138E-03  .116E-03  .988E-04  .852E-04
  .742E-04  .652E-04  .577E-04  .515E-04  .462E-04  .417E-04  .345E-04  .290E-04
  .247E-04  .213E-04  .186E-04  .000E+00  .000E+00  .000E+00  .000E+00  .000E+00
  .000E+00  .000E+00  .000E+00  .000E+00
  .222E+00  .243E+00  .291E+00  .298E+00  .273E+00  .416E+00  .392E+00  .410E+00
  .404E+00  .467E+00  .547E+00  .826E+00  .973E+00  .134E+01  .199E+01  .337E+01
  .734E+01  .565E+01  .170E+01  .307E+01  .103E+02  .130E+02  .395E+01  .922E+01
  .508E+01  .455E+01  .102E+02  .657E+01  .991E+01  .431E+01  .564E+01  .739E+01
  .273E+01  .354E+01  .210E+01  .447E+01  .224E+01  .161E+01  .234E+01  .163E+01
  .971E+00  .228E+01  .127E+01  .763E+00  .824E+00  .943E+00  .130E+01  .752E+00
  .627E+00  .579E+00  .341E+00  .305E+00  .281E+00  .243E+00  .211E+00  .230E+00
  .170E+00  .157E+00  .148E+00  .138E+00  .130E+00  .118E+00  .109E+00  .101E+00
  .929E-01  .862E-01  .805E-01  .755E-01  .713E-01  .675E-01  .641E-01  .611E-01
  .584E-01  .559E-01  .535E-01  .514E-01  .467E-01  .428E-01  .395E-01  .366E-01
  .342E-01  .320E-01  .301E-01  .285E-01  .270E-01  .256E-01  .233E-01  .214E-01
  .198E-01  .184E-01  .171E-01  .000E+00  .000E+00  .000E+00  .000E+00  .000E+00
  .000E+00  .000E+00  .000E+00  .000E+00
  .561E+01  .538E+01  .538E+01  .836E+01  .827E+01  .908E+01  .870E+01  .562E+01
  .524E+01  .543E+01  .543E+01  .126E+02  .544E+01  .555E+01  .561E+01  .113E+02
  .131E+02  .907E+01  .926E+01  .101E+02  .133E+02  .227E+02  .732E+01  .135E+02
  .941E+01  .645E+02  .184E+02  .997E+01  .132E+02  .597E+01  .768E+01  .371E+02
  .561E+01  .868E+01  .718E+01  .375E+02  .838E+01  .746E+01  .147E+02  .836E+01
  .534E+01  .229E+02  .378E+02  .957E+01  .139E+02  .189E+02  .298E+02  .670E+02
  .137E+02  .176E+02  .536E+01  .536E+01  .102E+02  .536E+01  .536E+01  .656E+02
  .536E+01  .522E+01  .522E+01  .522E+01  .522E+01  .536E+01  .536E+01  .536E+01
  .536E+01  .536E+01  .536E+01  .536E+01  .536E+01  .536E+01  .536E+01  .536E+01
  .536E+01  .536E+01  .536E+01  .536E+01  .536E+01  .536E+01  .536E+01  .536E+01
  .536E+01  .536E+01  .536E+01  .536E+01  .536E+01  .536E+01  .536E+01  .536E+01
  .536E+01  .536E+01  .536E+01  .000E+00  .000E+00  .000E+00  .000E+00  .000E+00
  .000E+00  .000E+00  .000E+00  .000E+00
  .830E+01  .621E+02  .904E+01  .830E+01  .368E+02  .653E+02  .951E+01  .626E+02
  .541E+01  .541E+01  .541E+01  .126E+02  .541E+01  .552E+01  .558E+01  .113E+02
  .127E+02  .952E+01  .922E+01  .100E+02  .133E+02  .226E+02  .727E+01  .136E+02
  .936E+01  .645E+02  .184E+02  .991E+01  .131E+02  .578E+01  .761E+01  .370E+02
  .555E+01  .912E+01  .557E+01  .376E+02  .830E+01  .541E+01  .148E+02  .541E+01
  .541E+01  .230E+02  .541E+01  .541E+01  .831E+01  .528E+01  .500E+02  .528E+01
  .528E+01  .528E+01  .528E+01  .528E+01  .528E+01  .528E+01  .528E+01  .528E+01
  .528E+01  .528E+01  .528E+01  .528E+01  .528E+01  .528E+01  .528E+01  .528E+01
  .528E+01  .528E+01  .528E+01  .528E+01  .528E+01  .528E+01  .528E+01  .528E+01
  .528E+01  .528E+01  .528E+01  .528E+01  .528E+01  .528E+01  .528E+01  .528E+01
  .528E+01  .528E+01  .528E+01  .528E+01  .528E+01  .528E+01  .528E+01  .528E+01
  .528E+01  .528E+01  .528E+01  .000E+00  .000E+00  .000E+00  .000E+00  .000E+00
  .000E+00  .000E+00  .000E+00  .000E+00
  .561E+01  .538E+01  .538E+01  .836E+01  .827E+01  .908E+01  .870E+01  .562E+01
  .524E+01  .543E+01  .543E+01  .126E+02  .544E+01  .555E+01  .561E+01  .113E+02
  .131E+02  .907E+01  .926E+01  .101E+02  .133E+02  .227E+02  .732E+01  .135E+02
  .941E+01  .645E+02  .184E+02  .997E+01  .132E+02  .597E+01  .768E+01  .371E+02
  .561E+01  .868E+01  .718E+01  .375E+02  .838E+01  .746E+01  .147E+02  .836E+01
  .534E+01  .229E+02  .378E+02  .957E+01  .139E+02  .189E+02  .298E+02  .670E+02
  .137E+02  .176E+02  .536E+01  .536E+01  .102E+02  .536E+01  .536E+01  .656E+02
  .536E+01  .522E+01  .522E+01  .522E+01  .522E+01  .536E+01  .536E+01  .536E+01
  .536E+01  .536E+01  .536E+01  .536E+01  .536E+01  .536E+01  .536E+01  .536E+01
  .536E+01  .536E+01  .536E+01  .536E+01  .536E+01  .536E+01  .536E+01  .536E+01
  .536E+01  .536E+01  .536E+01  .536E+01  .536E+01  .536E+01  .536E+01  .536E+01
  .536E+01  .536E+01  .536E+01  .000E+00  .000E+00  .000E+00  .000E+00  .000E+00
  .000E+00  .000E+00  .000E+00  .000E+00
Damping =  .02. Data of Sd,Sv,Sa,Pssv,ttSd,ttSv,ttSa :
  .133E-02  .156E-02  .178E-02  .189E-02  .212E-02  .243E-02  .302E-02  .378E-02
  .422E-02  .512E-02  .647E-02  .892E-02  .124E-01  .168E-01  .255E-01  .361E-01
  .497E-01  .416E-01  .351E-01  .531E-01  .684E-01  .116E+00  .853E-01  .119E+00
  .106E+00  .945E-01  .111E+00  .150E+00  .161E+00  .155E+00  .153E+00  .144E+00
  .134E+00  .127E+00  .108E+00  .126E+00  .102E+00  .854E-01  .814E-01  .910E-01
  .749E-01  .811E-01  .699E-01  .672E-01  .685E-01  .641E-01  .680E-01  .690E-01
  .669E-01  .607E-01  .546E-01  .533E-01  .527E-01  .502E-01  .473E-01  .451E-01
  .436E-01  .425E-01  .419E-01  .415E-01  .415E-01  .416E-01  .417E-01  .417E-01
  .415E-01  .412E-01  .411E-01  .410E-01  .409E-01  .409E-01  .409E-01  .409E-01
  .409E-01  .409E-01  .409E-01  .409E-01  .409E-01  .409E-01  .409E-01  .408E-01
  .408E-01  .408E-01  .408E-01  .408E-01  .408E-01  .408E-01  .408E-01  .408E-01
  .408E-01  .409E-01  .411E-01  .000E+00  .000E+00  .000E+00  .000E+00  .000E+00
  .000E+00  .000E+00  .000E+00  .000E+00
  .720E-01  .796E-01  .101E+00  .123E+00  .132E+00  .125E+00  .155E+00  .231E+00
  .278E+00  .320E+00  .387E+00  .522E+00  .699E+00  .990E+00  .150E+01  .201E+01
  .275E+01  .217E+01  .155E+01  .227E+01  .274E+01  .456E+01  .321E+01  .409E+01
  .348E+01  .301E+01  .330E+01  .409E+01  .411E+01  .370E+01  .355E+01  .291E+01
  .241E+01  .248E+01  .228E+01  .221E+01  .208E+01  .199E+01  .191E+01  .183E+01
  .174E+01  .156E+01  .141E+01  .131E+01  .124E+01  .119E+01  .117E+01  .116E+01
  .115E+01  .114E+01  .112E+01  .109E+01  .108E+01  .108E+01  .106E+01  .105E+01
  .104E+01  .103E+01  .102E+01  .101E+01  .101E+01  .100E+01  .100E+01  .998E+00
  .996E+00  .994E+00  .992E+00  .991E+00  .989E+00  .988E+00  .988E+00  .987E+00
  .986E+00  .986E+00  .985E+00  .985E+00  .984E+00  .984E+00  .983E+00  .983E+00
  .983E+00  .982E+00  .982E+00  .982E+00  .982E+00  .982E+00  .982E+00  .981E+00
  .981E+00  .981E+00  .981E+00  .000E+00  .000E+00  .000E+00  .000E+00  .000E+00
  .000E+00  .000E+00  .000E+00  .000E+00
  .852E-01  .902E-01  .942E-01  .916E-01  .941E-01  .995E-01  .102E+00  .108E+00
  .102E+00  .107E+00  .118E+00  .142E+00  .176E+00  .213E+00  .289E+00  .370E+00
  .420E+00  .296E+00  .213E+00  .277E+00  .311E+00  .463E+00  .302E+00  .376E+00
  .299E+00  .242E+00  .233E+00  .267E+00  .243E+00  .203E+00  .173E+00  .144E+00
  .119E+00  .100E+00  .764E-01  .809E-01  .594E-01  .451E-01  .394E-01  .405E-01
  .307E-01  .275E-01  .199E-01  .163E-01  .143E-01  .117E-01  .109E-01  .977E-02
  .848E-02  .690E-02  .563E-02  .455E-02  .379E-02  .308E-02  .251E-02  .209E-02
  .178E-02  .154E-02  .137E-02  .122E-02  .110E-02  .916E-03  .777E-03  .665E-03
  .574E-03  .502E-03  .443E-03  .394E-03  .354E-03  .320E-03  .291E-03  .266E-03
  .245E-03  .226E-03  .210E-03  .195E-03  .165E-03  .143E-03  .125E-03  .111E-03
  .993E-04  .897E-04  .815E-04  .754E-04  .705E-04  .661E-04  .591E-04  .535E-04
  .490E-04  .453E-04  .421E-04  .000E+00  .000E+00  .000E+00  .000E+00  .000E+00
  .000E+00  .000E+00  .000E+00  .000E+00
  .209E+00  .233E+00  .255E+00  .259E+00  .278E+00  .305E+00  .345E+00  .395E+00
  .408E+00  .460E+00  .542E+00  .701E+00  .916E+00  .117E+01  .169E+01  .227E+01
  .284E+01  .218E+01  .170E+01  .238E+01  .287E+01  .454E+01  .315E+01  .416E+01
  .349E+01  .297E+01  .316E+01  .394E+01  .389E+01  .349E+01  .320E+01  .282E+01
  .248E+01  .221E+01  .178E+01  .198E+01  .153E+01  .122E+01  .111E+01  .119E+01
  .941E+00  .926E+00  .732E+00  .649E+00  .615E+00  .537E+00  .534E+00  .510E+00
  .467E+00  .401E+00  .343E+00  .304E+00  .276E+00  .242E+00  .212E+00  .189E+00
  .171E+00  .157E+00  .146E+00  .137E+00  .130E+00  .119E+00  .109E+00  .101E+00
  .930E-01  .864E-01  .806E-01  .757E-01  .714E-01  .676E-01  .642E-01  .612E-01
  .584E-01  .559E-01  .536E-01  .514E-01  .467E-01  .428E-01  .395E-01  .367E-01
  .342E-01  .321E-01  .302E-01  .285E-01  .270E-01  .256E-01  .233E-01  .214E-01
  .197E-01  .184E-01  .172E-01  .000E+00  .000E+00  .000E+00  .000E+00  .000E+00
  .000E+00  .000E+00  .000E+00  .000E+00
  .538E+01  .538E+01  .538E+01  .523E+01  .523E+01  .523E+01  .538E+01  .538E+01
  .538E+01  .543E+01  .543E+01  .544E+01  .544E+01  .555E+01  .561E+01  .561E+01
  .607E+01  .570E+01  .918E+01  .101E+02  .103E+02  .880E+01  .961E+01  .103E+02
  .932E+01  .549E+01  .630E+01  .602E+01  .581E+01  .584E+01  .754E+01  .843E+01
  .561E+01  .868E+01  .563E+01  .869E+01  .836E+01  .549E+01  .872E+01  .836E+01
  .534E+01  .836E+01  .536E+01  .536E+01  .139E+02  .536E+01  .178E+02  .139E+02
  .132E+02  .134E+02  .536E+01  .536E+01  .536E+01  .536E+01  .536E+01  .536E+01
  .536E+01  .536E+01  .536E+01  .536E+01  .536E+01  .536E+01  .536E+01  .536E+01
  .536E+01  .536E+01  .536E+01  .536E+01  .536E+01  .536E+01  .536E+01  .536E+01
  .536E+01  .536E+01  .536E+01  .536E+01  .536E+01  .536E+01  .536E+01  .536E+01
  .536E+01  .536E+01  .536E+01  .536E+01  .536E+01  .536E+01  .536E+01  .536E+01
  .536E+01  .536E+01  .536E+01  .000E+00  .000E+00  .000E+00  .000E+00  .000E+00
  .000E+00  .000E+00  .000E+00  .000E+00
  .563E+01  .557E+01  .540E+01  .540E+01  .558E+01  .541E+01  .559E+01  .540E+01
  .541E+01  .541E+01  .541E+01  .541E+01  .541E+01  .552E+01  .558E+01  .564E+01
  .604E+01  .567E+01  .922E+01  .100E+02  .103E+02  .885E+01  .965E+01  .102E+02
  .937E+01  .856E+01  .625E+01  .608E+01  .600E+01  .577E+01  .761E+01  .566E+01
  .555E+01  .840E+01  .557E+01  .840E+01  .540E+01  .540E+01  .541E+01  .541E+01
  .541E+01  .541E+01  .541E+01  .541E+01  .541E+01  .528E+01  .528E+01  .528E+01
  .528E+01  .528E+01  .528E+01  .528E+01  .528E+01  .528E+01  .528E+01  .528E+01
  .528E+01  .528E+01  .528E+01  .528E+01  .528E+01  .528E+01  .528E+01  .528E+01
  .528E+01  .528E+01  .528E+01  .528E+01  .528E+01  .528E+01  .528E+01  .528E+01
  .528E+01  .528E+01  .528E+01  .528E+01  .528E+01  .528E+01  .528E+01  .528E+01
  .528E+01  .528E+01  .528E+01  .528E+01  .528E+01  .528E+01  .528E+01  .528E+01
  .528E+01  .528E+01  .528E+01  .000E+00  .000E+00  .000E+00  .000E+00  .000E+00
  .000E+00  .000E+00  .000E+00  .000E+00
  .538E+01  .538E+01  .538E+01  .523E+01  .523E+01  .523E+01  .538E+01  .538E+01
  .538E+01  .543E+01  .543E+01  .544E+01  .544E+01  .555E+01  .561E+01  .561E+01
  .607E+01  .570E+01  .918E+01  .101E+02  .103E+02  .880E+01  .961E+01  .103E+02
  .932E+01  .549E+01  .630E+01  .602E+01  .580E+01  .584E+01  .754E+01  .843E+01
  .561E+01  .868E+01  .563E+01  .869E+01  .836E+01  .548E+01  .872E+01  .835E+01
  .534E+01  .835E+01  .535E+01  .535E+01  .139E+02  .536E+01  .178E+02  .139E+02
  .132E+02  .134E+02  .536E+01  .536E+01  .536E+01  .536E+01  .536E+01  .536E+01
  .536E+01  .536E+01  .521E+01  .521E+01  .535E+01  .535E+01  .535E+01  .535E+01
  .535E+01  .534E+01  .534E+01  .534E+01  .534E+01  .534E+01  .534E+01  .534E+01
  .534E+01  .534E+01  .534E+01  .520E+01  .520E+01  .520E+01  .520E+01  .520E+01
  .520E+01  .520E+01  .520E+01  .530E+01  .530E+01  .530E+01  .530E+01  .530E+01
  .529E+01  .529E+01  .529E+01  .000E+00  .000E+00  .000E+00  .000E+00  .000E+00
  .000E+00  .000E+00  .000E+00  .000E+00
Damping =  .05. Data of Sd,Sv,Sa,Pssv,ttSd,ttSv,ttSa :
  .130E-02  .149E-02  .166E-02  .185E-02  .208E-02  .232E-02  .289E-02  .357E-02
