Response and Fourier amplitude spectra (91 periods,  .04 - 15.0 sec)   for      
Corrected accelerogram   24022-L1821-01250.05       Chan  1: 360 Deg     from   
Uncorrected Accelerogram Data             Processed: 09/10/01, CDMG  ar005      
Record of Sun Sep  9, 2001 16:59:21 PDT               (Avol1 v4.6  7/01 CSMIP)  
CSMIP Preliminary Processing            (Origin:  To be determined)             
24022-L1821-01250.05                 Start time:  9/09/01, 23:59:21.0 UTC (GPS) 
Station No. 24022   34.155N, 118.133W      Etna  s/n 1821  (3 Channels)         
Pasadena - I210 & Lake                                                          
Chan  1: 360 Deg                                                                
Record of Sun Sep  9, 2001 16:59:21 PDT    Sun Sep  9, 2001 16:59:21 PDT        
Hypocenter:  To be determined.               ML:  To be determined.             
Instr Period =  .0098 sec,  Damping =  .660,  Sensitivity =  .63  v/g           
                        Record length = 38.000 sec.                             
                                     Uncor Max  =   .009 g, at   6.760 sec.     
RMS accel of (uncor) record  =        .                                         
Accelerogram bandpass filtered with 3 dB pts at   .30 and 40.00 cyc/sec         
                 instrument- and baseline-corrected                             
                                                                                
                                                                                
                                                                                
                                                                                
                                                                                
Record of Sun Sep  9, 2001 16:59:21 PDT    Sun Sep  9, 2001 16:59:21 PDT        
                                                                                
24022-L1821-01250.05      Pasadena - I210 & Lake    Chan  1: 360 Deg            
                                                                                
24022-L1821-01250.05      Pasadena - I210 & Lake    Chan  1: 360 Deg            
                                                                                
Units for spectra are inches and sec, except Sa is in fraction of g.            
                                                                                
    1  100    1    3    3  200    1    3    1   24   12 1821    024022    1    0
   23   59   21    0  252    9    9 2001   10    3  360 7600   39   22   72  360
 7600    1   50    3 1821    1    5  380    1    0    0    0    0    0    0    0
    0    4    0    0 3800    2    0    0    0    0   72   22    0    0    0 3800
    0 3800   23   91    1    3    0    0    0    0    3    0    0    0    0    2
    2    2    4    0   32   99 -999   32   32    0    0    1    0    0    0    0
  -99   -1    0    0
      .010      .660    38.000      .001      .000   625.000      .009     6.760
   101.700      .298      .477      .000     5.000      .000      .000      .000
     2.500      .089      .005     -.006     5.000    30.000      .000     -.008
      .003      .010     2.000    15.000    34.155  -118.133      .093      .174
     1.881     -.004      .025  -999.000      .000      .000   -13.400      .000
  1000.000    -1.010      .000      .000      .000      .000      .000      .000
     4.600     4.400      .000   980.665      .010    38.000    16.186      .000
      .000    40.000      .000    38.000      .010      .300      .000      .000
     6.760     8.777     6.860      .323     9.580      .030      .000      .300
    40.000      .010      .010      .000      .010      .011      .000      .000
      .030      .200      .029      .017      .003      .000      .000      .000
      .000      .000      .000      .000      .000      .000      .000      .000
      .000      .000      .000      .000
      .050
      .040      .042      .044      .046      .048      .050      .055      .060
      .065      .070      .075      .080      .085      .090      .095      .100
      .110      .120      .130      .140      .150      .160      .170      .180
      .190      .200      .220      .240      .260      .280      .300      .320
      .340      .360      .380      .400      .420      .440      .460      .480
      .500      .550      .600      .650      .700      .750      .800      .850
      .900      .950     1.000     1.100     1.200     1.300     1.400     1.500
     1.600     1.700     1.800     1.900     2.000     2.200     2.400     2.600
     2.800     3.000     3.200     3.400     3.600     3.800     4.000     4.200
     4.400     4.600     4.800     5.000     5.500     6.000     6.500     7.000
     7.500     8.000     8.500     9.000     9.500    10.000    11.000    12.000
    13.000    14.000    15.000      .000      .000      .000      .000      .000
      .000      .000      .000      .000
Fourier amplitude spectra in in/sec.
  .000E+00  .000E+00  .000E+00  .000E+00  .000E+00  .000E+00  .000E+00  .000E+00
  .000E+00  .000E+00  .000E+00  .000E+00  .000E+00  .000E+00  .000E+00  .000E+00
  .000E+00  .000E+00  .000E+00  .000E+00  .000E+00  .000E+00  .000E+00  .000E+00
  .000E+00  .000E+00  .000E+00  .000E+00  .000E+00  .000E+00  .000E+00  .000E+00
  .000E+00  .000E+00  .000E+00  .000E+00  .000E+00  .000E+00  .000E+00  .000E+00
  .000E+00  .000E+00  .000E+00  .000E+00  .000E+00  .000E+00  .000E+00  .000E+00
  .000E+00  .000E+00  .000E+00  .000E+00  .000E+00  .000E+00  .000E+00  .000E+00
  .000E+00  .000E+00  .000E+00  .000E+00  .000E+00  .000E+00  .000E+00  .000E+00
  .000E+00  .000E+00  .000E+00  .000E+00  .000E+00  .000E+00  .000E+00  .000E+00
  .000E+00  .000E+00  .000E+00  .000E+00  .000E+00  .000E+00  .000E+00  .000E+00
  .000E+00  .000E+00  .000E+00  .000E+00  .000E+00  .000E+00  .000E+00  .000E+00
  .000E+00  .000E+00  .000E+00  .000E+00  .000E+00  .000E+00  .000E+00  .000E+00
  .000E+00  .000E+00  .000E+00  .000E+00
Damping =  .05. Data of Sd,Sv,Sa,Pssv,ttSd,ttSv,ttSa :
  .150E-03  .175E-03  .205E-03  .237E-03  .288E-03  .317E-03  .368E-03  .580E-03
  .895E-03  .102E-02  .125E-02  .137E-02  .164E-02  .206E-02  .206E-02  .197E-02
  .172E-02  .207E-02  .291E-02  .506E-02  .635E-02  .593E-02  .563E-02  .638E-02
  .937E-02  .117E-01  .139E-01  .132E-01  .126E-01  .145E-01  .142E-01  .154E-01
  .169E-01  .156E-01  .131E-01  .114E-01  .129E-01  .151E-01  .192E-01  .231E-01
  .240E-01  .191E-01  .194E-01  .224E-01  .315E-01  .353E-01  .388E-01  .390E-01
  .350E-01  .257E-01  .264E-01  .377E-01  .374E-01  .286E-01  .259E-01  .251E-01
  .276E-01  .268E-01  .221E-01  .187E-01  .162E-01  .143E-01  .149E-01  .143E-01
  .162E-01  .166E-01  .159E-01  .146E-01  .132E-01  .125E-01  .124E-01  .123E-01
  .122E-01  .120E-01  .119E-01  .118E-01  .116E-01  .119E-01  .120E-01  .120E-01
  .120E-01  .120E-01  .120E-01  .120E-01  .120E-01  .120E-01  .119E-01  .119E-01
  .119E-01  .119E-01  .119E-01  .000E+00  .000E+00  .000E+00  .000E+00  .000E+00
  .000E+00  .000E+00  .000E+00  .000E+00
  .129E-01  .145E-01  .167E-01  .203E-01  .222E-01  .246E-01  .274E-01  .468E-01
  .587E-01  .661E-01  .815E-01  .863E-01  .899E-01  .113E+00  .106E+00  .114E+00
  .904E-01  .905E-01  .117E+00  .216E+00  .245E+00  .229E+00  .213E+00  .210E+00
  .280E+00  .329E+00  .363E+00  .340E+00  .287E+00  .321E+00  .311E+00  .335E+00
  .341E+00  .286E+00  .232E+00  .190E+00  .205E+00  .246E+00  .283E+00  .294E+00
  .335E+00  .296E+00  .218E+00  .216E+00  .275E+00  .318E+00  .318E+00  .303E+00
  .259E+00  .201E+00  .195E+00  .261E+00  .204E+00  .188E+00  .178E+00  .179E+00
  .174E+00  .153E+00  .157E+00  .150E+00  .135E+00  .112E+00  .117E+00  .120E+00
  .122E+00  .125E+00  .126E+00  .128E+00  .129E+00  .129E+00  .130E+00  .130E+00
  .130E+00  .130E+00  .129E+00  .129E+00  .129E+00  .128E+00  .128E+00  .128E+00
  .128E+00  .128E+00  .128E+00  .127E+00  .127E+00  .127E+00  .127E+00  .127E+00
  .127E+00  .127E+00  .127E+00  .000E+00  .000E+00  .000E+00  .000E+00  .000E+00
  .000E+00  .000E+00  .000E+00  .000E+00
  .963E-02  .101E-01  .109E-01  .115E-01  .128E-01  .129E-01  .126E-01  .166E-01
  .215E-01  .217E-01  .227E-01  .219E-01  .233E-01  .260E-01  .234E-01  .206E-01
  .144E-01  .147E-01  .176E-01  .267E-01  .288E-01  .239E-01  .200E-01  .203E-01
  .267E-01  .302E-01  .294E-01  .236E-01  .192E-01  .190E-01  .163E-01  .154E-01
  .151E-01  .124E-01  .930E-02  .735E-02  .752E-02  .804E-02  .934E-02  .103E-01
  .988E-02  .650E-02  .555E-02  .545E-02  .660E-02  .646E-02  .624E-02  .556E-02
  .445E-02  .294E-02  .273E-02  .321E-02  .268E-02  .174E-02  .137E-02  .116E-02
  .113E-02  .972E-03  .715E-03  .542E-03  .429E-03  .314E-03  .276E-03  .235E-03
  .230E-03  .207E-03  .176E-03  .147E-03  .132E-03  .118E-03  .106E-03  .961E-04
  .874E-04  .801E-04  .740E-04  .688E-04  .586E-04  .511E-04  .455E-04  .410E-04
  .373E-04  .342E-04  .316E-04  .294E-04  .274E-04  .257E-04  .229E-04  .206E-04
  .187E-04  .172E-04  .159E-04  .000E+00  .000E+00  .000E+00  .000E+00  .000E+00
  .000E+00  .000E+00  .000E+00  .000E+00
  .236E-01  .261E-01  .293E-01  .323E-01  .378E-01  .398E-01  .420E-01  .608E-01
  .865E-01  .920E-01  .105E+00  .108E+00  .121E+00  .144E+00  .136E+00  .124E+00
  .982E-01  .109E+00  .141E+00  .227E+00  .266E+00  .233E+00  .208E+00  .223E+00
  .310E+00  .366E+00  .397E+00  .345E+00  .305E+00  .325E+00  .297E+00  .303E+00
  .312E+00  .273E+00  .216E+00  .179E+00  .193E+00  .216E+00  .263E+00  .303E+00
  .301E+00  .218E+00  .204E+00  .217E+00  .283E+00  .296E+00  .305E+00  .289E+00
  .244E+00  .170E+00  .166E+00  .215E+00  .196E+00  .138E+00  .116E+00  .105E+00
  .108E+00  .992E-01  .770E-01  .617E-01  .509E-01  .408E-01  .390E-01  .346E-01
  .364E-01  .347E-01  .311E-01  .269E-01  .231E-01  .206E-01  .195E-01  .184E-01
  .174E-01  .165E-01  .156E-01  .148E-01  .133E-01  .124E-01  .116E-01  .108E-01
  .101E-01  .945E-02  .888E-02  .837E-02  .792E-02  .752E-02  .682E-02  .624E-02
  .575E-02  .533E-02  .497E-02  .000E+00  .000E+00  .000E+00  .000E+00  .000E+00
  .000E+00  .000E+00  .000E+00  .000E+00
  .675E+01  .675E+01  .675E+01  .675E+01  .675E+01  .675E+01  .619E+01  .620E+01
  .676E+01  .676E+01  .689E+01  .657E+01  .690E+01  .691E+01  .692E+01  .692E+01
  .605E+01  .612E+01  .613E+01  .665E+01  .667E+01  .677E+01  .625E+01  .678E+01
  .678E+01  .679E+01  .694E+01  .709E+01  .710E+01  .711E+01  .712E+01  .714E+01
  .701E+01  .702E+01  .760E+01  .761E+01  .128E+02  .764E+01  .724E+01  .703E+01
  .705E+01  .688E+01  .130E+02  .101E+02  .101E+02  .125E+02  .122E+02  .107E+02
  .108E+02  .108E+02  .108E+02  .104E+02  .105E+02  .100E+02  .100E+02  .954E+01
  .955E+01  .957E+01  .958E+01  .910E+01  .911E+01  .774E+01  .100E+02  .956E+01
  .956E+01  .956E+01  .957E+01  .957E+01  .957E+01  .568E+01  .568E+01  .568E+01
  .568E+01  .568E+01  .568E+01  .568E+01  .956E+01  .956E+01  .956E+01  .956E+01
  .957E+01  .957E+01  .957E+01  .957E+01  .957E+01  .957E+01  .957E+01  .957E+01
  .957E+01  .957E+01  .957E+01  .000E+00  .000E+00  .000E+00  .000E+00  .000E+00
  .000E+00  .000E+00  .000E+00  .000E+00
  .618E+01  .618E+01  .618E+01  .618E+01  .618E+01  .621E+01  .621E+01  .621E+01
  .674E+01  .678E+01  .688E+01  .659E+01  .692E+01  .689E+01  .690E+01  .681E+01
  .668E+01  .668E+01  .609E+01  .669E+01  .670E+01  .620E+01  .621E+01  .621E+01
  .683E+01  .684E+01  .700E+01  .714E+01  .703E+01  .705E+01  .706E+01  .707E+01
  .708E+01  .709E+01  .696E+01  .770E+01  .616E+01  .755E+01  .734E+01  .695E+01
  .696E+01  .697E+01  .131E+02  .990E+01  .129E+02  .126E+02  .124E+02  .121E+02
  .106E+02  .106E+02  .679E+01  .106E+02  .107E+02  .981E+01  .981E+01  .981E+01
  .982E+01  .982E+01  .945E+01  .946E+01  .946E+01  .685E+01  .685E+01  .685E+01
  .685E+01  .685E+01  .685E+01  .685E+01  .685E+01  .685E+01  .685E+01  .685E+01
  .685E+01  .685E+01  .685E+01  .685E+01  .685E+01  .685E+01  .685E+01  .685E+01
  .685E+01  .685E+01  .685E+01  .685E+01  .685E+01  .685E+01  .685E+01  .685E+01
  .685E+01  .685E+01  .685E+01  .000E+00  .000E+00  .000E+00  .000E+00  .000E+00
  .000E+00  .000E+00  .000E+00  .000E+00
  .675E+01  .675E+01  .675E+01  .619E+01  .675E+01  .675E+01  .619E+01  .620E+01
  .676E+01  .676E+01  .689E+01  .657E+01  .690E+01  .691E+01  .692E+01  .692E+01
  .605E+01  .612E+01  .613E+01  .665E+01  .667E+01  .677E+01  .625E+01  .677E+01
  .678E+01  .679E+01  .693E+01  .708E+01  .709E+01  .711E+01  .712E+01  .713E+01
  .700E+01  .701E+01  .759E+01  .761E+01  .128E+02  .764E+01  .724E+01  .702E+01
  .704E+01  .687E+01  .130E+02  .101E+02  .101E+02  .125E+02  .122E+02  .107E+02
  .107E+02  .108E+02  .107E+02  .104E+02  .104E+02  .999E+01  .100E+02  .952E+01
  .953E+01  .954E+01  .955E+01  .907E+01  .908E+01  .772E+01  .773E+01  .952E+01
  .952E+01  .952E+01  .952E+01  .687E+01  .687E+01  .687E+01  .687E+01  .687E+01
  .687E+01  .686E+01  .686E+01  .686E+01  .686E+01  .686E+01  .686E+01  .686E+01
  .686E+01  .686E+01  .686E+01  .686E+01  .686E+01  .686E+01  .686E+01  .686E+01
  .685E+01  .685E+01  .685E+01  .000E+00  .000E+00  .000E+00  .000E+00  .000E+00
  .000E+00  .000E+00  .000E+00  .000E+00
/&   ----------  End of spectral data for channel  1  ----------
Response and Fourier amplitude spectra (91 periods,  .04 - 15.0 sec)   for      
Corrected accelerogram   24022-L1821-01250.05       Chan  2:  Up         from   
Uncorrected Accelerogram Data             Processed: 09/10/01, CDMG  ar005      
Record of Sun Sep  9, 2001 16:59:21 PDT               (Avol1 v4.6  7/01 CSMIP)  
CSMIP Preliminary Processing            (Origin:  To be determined)             
24022-L1821-01250.05                 Start time:  9/09/01, 23:59:21.0 UTC (GPS) 
Station No. 24022   34.155N, 118.133W      Etna  s/n 1821  (3 Channels)         
Pasadena - I210 & Lake                                                          
Chan  2:  Up                                                                    
Record of Sun Sep  9, 2001 16:59:21 PDT    Sun Sep  9, 2001 16:59:21 PDT        
Hypocenter:  To be determined.               ML:  To be determined.             
Instr Period =  .0108 sec,  Damping =  .660,  Sensitivity =  .63  v/g           
                        Record length = 38.000 sec.                             
                                     Uncor Max  =  -.011 g, at   5.920 sec.     
RMS accel of (uncor) record  =        .                                         
Accelerogram bandpass filtered with 3 dB pts at   .30 and 40.00 cyc/sec         
                 instrument- and baseline-corrected                             
                                                                                
                                                                                
                                                                                
                                                                                
                                                                                
Record of Sun Sep  9, 2001 16:59:21 PDT    Sun Sep  9, 2001 16:59:21 PDT        
                                                                                
24022-L1821-01250.05      Pasadena - I210 & Lake    Chan  2:  Up                
                                                                                
24022-L1821-01250.05      Pasadena - I210 & Lake    Chan  2:  Up                
                                                                                
Units for spectra are inches and sec, except Sa is in fraction of g.            
                                                                                
    2  100    2    3    3  200    1    3    1   24   12 1821    024022    1    0
   23   59   21    0  252    9    9 2001   10    3  500 7600   39   22   72  360
 7600    1   50    3 1821    1    5  380    1    0    0    0    0    0    0    0
    0    4    0    0 3800    2    0    0    0    0   72   22    0    0    0 3800
    0 3800   23   91    1    3    0    0    0    0    3    0    0    0    0    2
    2    2    4    0   32   99 -999   32   32    0    0    1    0    0    0    0
  -99   -1    0    0
      .011      .660    38.000      .001      .000   625.000     -.011     5.920
    92.600      .298      .477      .000     5.000      .000      .000      .000
     2.500   -39.224     -.017     -.030     5.000    30.000      .000     -.035
      .002      .037     2.000    15.000    34.155  -118.133      .663      .168
      .253     -.049      .123  -999.000      .000      .000   -13.400      .000
  1000.000     1.070      .000      .000      .000      .000      .000      .000
     4.600     4.400      .000   980.665      .010    38.000    14.738      .000
      .000    40.000      .000    38.000      .010      .300      .000      .000
     5.920   -11.180     5.890      .315     9.800      .023      .000      .300
    40.000      .010      .010      .000      .010      .009      .000      .000
      .038      .110      .013      .020      .003      .000      .000      .000
      .000      .000      .000      .000      .000      .000      .000      .000
      .000      .000      .000      .000
      .050
      .040      .042      .044      .046      .048      .050      .055      .060
      .065      .070      .075      .080      .085      .090      .095      .100
      .110      .120      .130      .140      .150      .160      .170      .180
      .190      .200      .220      .240      .260      .280      .300      .320
      .340      .360      .380      .400      .420      .440      .460      .480
      .500      .550      .600      .650      .700      .750      .800      .850
      .900      .950     1.000     1.100     1.200     1.300     1.400     1.500
     1.600     1.700     1.800     1.900     2.000     2.200     2.400     2.600
     2.800     3.000     3.200     3.400     3.600     3.800     4.000     4.200
     4.400     4.600     4.800     5.000     5.500     6.000     6.500     7.000
     7.500     8.000     8.500     9.000     9.500    10.000    11.000    12.000
    13.000    14.000    15.000      .000      .000      .000      .000      .000
      .000      .000      .000      .000
Fourier amplitude spectra in in/sec.
  .000E+00  .000E+00  .000E+00  .000E+00  .000E+00  .000E+00  .000E+00  .000E+00
  .000E+00  .000E+00  .000E+00  .000E+00  .000E+00  .000E+00  .000E+00  .000E+00
  .000E+00  .000E+00  .000E+00  .000E+00  .000E+00  .000E+00  .000E+00  .000E+00
  .000E+00  .000E+00  .000E+00  .000E+00  .000E+00  .000E+00  .000E+00  .000E+00
  .000E+00  .000E+00  .000E+00  .000E+00  .000E+00  .000E+00  .000E+00  .000E+00
  .000E+00  .000E+00  .000E+00  .000E+00  .000E+00  .000E+00  .000E+00  .000E+00
  .000E+00  .000E+00  .000E+00  .000E+00  .000E+00  .000E+00  .000E+00  .000E+00
  .000E+00  .000E+00  .000E+00  .000E+00  .000E+00  .000E+00  .000E+00  .000E+00
  .000E+00  .000E+00  .000E+00  .000E+00  .000E+00  .000E+00  .000E+00  .000E+00
  .000E+00  .000E+00  .000E+00  .000E+00  .000E+00  .000E+00  .000E+00  .000E+00
  .000E+00  .000E+00  .000E+00  .000E+00  .000E+00  .000E+00  .000E+00  .000E+00
  .000E+00  .000E+00  .000E+00  .000E+00  .000E+00  .000E+00  .000E+00  .000E+00
  .000E+00  .000E+00  .000E+00  .000E+00
Damping =  .05. Data of Sd,Sv,Sa,Pssv,ttSd,ttSv,ttSa :
  .221E-03  .255E-03  .274E-03  .294E-03  .314E-03  .351E-03  .484E-03  .774E-03
  .107E-02  .121E-02  .131E-02  .123E-02  .185E-02  .255E-02  .313E-02  .341E-02
  .455E-02  .362E-02  .377E-02  .429E-02  .428E-02  .478E-02  .509E-02  .475E-02
  .438E-02  .509E-02  .649E-02  .930E-02  .132E-01  .195E-01  .181E-01  .149E-01
  .153E-01  .156E-01  .144E-01  .157E-01  .136E-01  .114E-01  .108E-01  .126E-01
