Response and Fourier amplitude spectra (91 periods,  .04 - 15.0 sec)   for      
Corrected accelerogram   14044-L1853-01253.05       Chan  1:   0 Deg     from   
Uncorrected Accelerogram Data             Processed: 09/10/01, CDMG  ao005      
Record of Sun Sep  9, 2001 16:59:18 PDT               (Avol1 v4.6  7/01 CSMIP)  
CSMIP Preliminary Processing            (Origin:  To be determined)             
14044-L1853-01253.05                 Start time:  9/09/01, 23:59:18.0 UTC (GPS) 
Station No. 14044   33.976N, 118.354W      Etna  s/n 1853  (3 Channels)         
Inglewood - Centinela & La Brea                                                 
Chan  1:   0 Deg                                                                
Record of Sun Sep  9, 2001 16:59:18 PDT    Sun Sep  9, 2001 16:59:18 PDT        
Hypocenter:  To be determined.               ML:  To be determined.             
Instr Period =  .0103 sec,  Damping =  .670,  Sensitivity =  .63  v/g           
                        Record length = 45.000 sec.                             
                                     Uncor Max  =   .018 g, at   4.800 sec.     
RMS accel of (uncor) record  =        .                                         
Accelerogram bandpass filtered with 3 dB pts at   .30 and 40.00 cyc/sec         
                 instrument- and baseline-corrected                             
                                                                                
                                                                                
                                                                                
                                                                                
                                                                                
Record of Sun Sep  9, 2001 16:59:18 PDT    Sun Sep  9, 2001 16:59:18 PDT        
                                                                                
14044-L1853-01253.05      Inglewood - Centinela & La Brea   Chan  1:   0 Deg    
                                                                                
14044-L1853-01253.05      Inglewood - Centinela & La Brea   Chan  1:   0 Deg    
                                                                                
Units for spectra are inches and sec, except Sa is in fraction of g.            
                                                                                
    1  100    1    3    3  200    1    3    1   24   12 1853    014044    1    0
   23   59   18    0  252    9    9 2001   10    3    0 9000   39   31   72 -999
 9000    1   50    3 1853    1    5  450    1    0    0    0    0    0    0    0
    0    4    0    0 4500    2    0    0    0    0   72   31    0    0    0 4500
    0 4500   32   91    1    3    0    0    0    0    3    0    0    0    0    2
    2    2    4    0   32   99 -999   32   32    0    0    1    0    0    0    0
  -99   -1    0    0
      .010      .670    45.000      .002      .000   625.000      .018     4.800
    96.700      .298      .477      .000     5.000      .000      .000      .000
     2.500    -6.628      .006     -.015     5.000    30.000      .000      .001
      .002      .001     2.000    15.000    33.976  -118.354      .015      .261
    17.496     -.011      .014  -999.000      .000      .000   -13.400      .000
  1000.000     1.030      .000      .000      .000      .000      .000      .000
     4.600     4.400      .000   980.665      .010    45.000    15.390      .000
      .000    40.000      .000    45.000      .010      .300      .000      .000
     4.800    17.186     4.870      .823     4.800     -.046      .000      .300
    40.000      .010      .010      .000      .010      .025      .000      .000
      .075      .085      .041      .025      .005      .000      .000      .000
      .000      .000      .000      .000      .000      .000      .000      .000
      .000      .000      .000      .000
      .050
      .040      .042      .044      .046      .048      .050      .055      .060
      .065      .070      .075      .080      .085      .090      .095      .100
      .110      .120      .130      .140      .150      .160      .170      .180
      .190      .200      .220      .240      .260      .280      .300      .320
      .340      .360      .380      .400      .420      .440      .460      .480
      .500      .550      .600      .650      .700      .750      .800      .850
      .900      .950     1.000     1.100     1.200     1.300     1.400     1.500
     1.600     1.700     1.800     1.900     2.000     2.200     2.400     2.600
     2.800     3.000     3.200     3.400     3.600     3.800     4.000     4.200
     4.400     4.600     4.800     5.000     5.500     6.000     6.500     7.000
     7.500     8.000     8.500     9.000     9.500    10.000    11.000    12.000
    13.000    14.000    15.000      .000      .000      .000      .000      .000
      .000      .000      .000      .000
Fourier amplitude spectra in in/sec.
  .000E+00  .000E+00  .000E+00  .000E+00  .000E+00  .000E+00  .000E+00  .000E+00
  .000E+00  .000E+00  .000E+00  .000E+00  .000E+00  .000E+00  .000E+00  .000E+00
  .000E+00  .000E+00  .000E+00  .000E+00  .000E+00  .000E+00  .000E+00  .000E+00
  .000E+00  .000E+00  .000E+00  .000E+00  .000E+00  .000E+00  .000E+00  .000E+00
  .000E+00  .000E+00  .000E+00  .000E+00  .000E+00  .000E+00  .000E+00  .000E+00
  .000E+00  .000E+00  .000E+00  .000E+00  .000E+00  .000E+00  .000E+00  .000E+00
  .000E+00  .000E+00  .000E+00  .000E+00  .000E+00  .000E+00  .000E+00  .000E+00
  .000E+00  .000E+00  .000E+00  .000E+00  .000E+00  .000E+00  .000E+00  .000E+00
  .000E+00  .000E+00  .000E+00  .000E+00  .000E+00  .000E+00  .000E+00  .000E+00
  .000E+00  .000E+00  .000E+00  .000E+00  .000E+00  .000E+00  .000E+00  .000E+00
  .000E+00  .000E+00  .000E+00  .000E+00  .000E+00  .000E+00  .000E+00  .000E+00
  .000E+00  .000E+00  .000E+00  .000E+00  .000E+00  .000E+00  .000E+00  .000E+00
  .000E+00  .000E+00  .000E+00  .000E+00
Damping =  .05. Data of Sd,Sv,Sa,Pssv,ttSd,ttSv,ttSa :
  .352E-03  .393E-03  .436E-03  .539E-03  .652E-03  .763E-03  .112E-02  .167E-02
  .202E-02  .224E-02  .281E-02  .451E-02  .535E-02  .521E-02  .433E-02  .386E-02
  .552E-02  .680E-02  .847E-02  .109E-01  .109E-01  .121E-01  .134E-01  .142E-01
  .153E-01  .158E-01  .179E-01  .189E-01  .207E-01  .241E-01  .202E-01  .204E-01
  .256E-01  .334E-01  .362E-01  .322E-01  .302E-01  .320E-01  .342E-01  .354E-01
  .383E-01  .396E-01  .378E-01  .374E-01  .392E-01  .343E-01  .331E-01  .361E-01
  .423E-01  .445E-01  .504E-01  .529E-01  .534E-01  .593E-01  .426E-01  .406E-01
  .448E-01  .386E-01  .345E-01  .312E-01  .272E-01  .340E-01  .313E-01  .265E-01
  .283E-01  .334E-01  .360E-01  .345E-01  .307E-01  .264E-01  .239E-01  .233E-01
  .228E-01  .223E-01  .218E-01  .214E-01  .205E-01  .199E-01  .196E-01  .196E-01
  .195E-01  .193E-01  .191E-01  .189E-01  .188E-01  .187E-01  .187E-01  .187E-01
  .187E-01  .187E-01  .187E-01  .000E+00  .000E+00  .000E+00  .000E+00  .000E+00
  .000E+00  .000E+00  .000E+00  .000E+00
  .277E-01  .345E-01  .376E-01  .417E-01  .520E-01  .663E-01  .107E+00  .146E+00
  .182E+00  .182E+00  .210E+00  .339E+00  .380E+00  .385E+00  .286E+00  .246E+00
  .306E+00  .339E+00  .389E+00  .500E+00  .453E+00  .502E+00  .538E+00  .518E+00
  .507E+00  .510E+00  .498E+00  .462E+00  .508E+00  .527E+00  .453E+00  .432E+00
  .478E+00  .595E+00  .673E+00  .578E+00  .490E+00  .468E+00  .492E+00  .494E+00
  .505E+00  .509E+00  .529E+00  .431E+00  .438E+00  .402E+00  .391E+00  .377E+00
  .367E+00  .362E+00  .392E+00  .380E+00  .363E+00  .382E+00  .357E+00  .355E+00
  .354E+00  .353E+00  .352E+00  .350E+00  .348E+00  .345E+00  .343E+00  .342E+00
  .341E+00  .340E+00  .340E+00  .340E+00  .339E+00  .339E+00  .338E+00  .337E+00
  .337E+00  .336E+00  .335E+00  .334E+00  .333E+00  .332E+00  .331E+00  .330E+00
  .329E+00  .329E+00  .328E+00  .328E+00  .328E+00  .328E+00  .327E+00  .327E+00
  .327E+00  .327E+00  .326E+00  .000E+00  .000E+00  .000E+00  .000E+00  .000E+00
  .000E+00  .000E+00  .000E+00  .000E+00
  .225E-01  .229E-01  .232E-01  .259E-01  .291E-01  .311E-01  .376E-01  .473E-01
  .497E-01  .474E-01  .510E-01  .729E-01  .753E-01  .667E-01  .495E-01  .399E-01
  .475E-01  .493E-01  .509E-01  .577E-01  .495E-01  .484E-01  .480E-01  .449E-01
  .431E-01  .410E-01  .385E-01  .341E-01  .312E-01  .317E-01  .230E-01  .206E-01
  .227E-01  .265E-01  .259E-01  .207E-01  .176E-01  .170E-01  .166E-01  .158E-01
  .157E-01  .135E-01  .108E-01  .912E-02  .823E-02  .634E-02  .533E-02  .513E-02
  .539E-02  .509E-02  .520E-02  .450E-02  .384E-02  .364E-02  .228E-02  .190E-02
  .182E-02  .140E-02  .113E-02  .932E-03  .732E-03  .747E-03  .587E-03  .435E-03
  .397E-03  .407E-03  .387E-03  .334E-03  .270E-03  .214E-03  .181E-03  .163E-03
  .147E-03  .134E-03  .123E-03  .116E-03  .100E-03  .892E-04  .810E-04  .743E-04
  .688E-04  .642E-04  .602E-04  .567E-04  .536E-04  .509E-04  .463E-04  .426E-04
  .395E-04  .368E-04  .344E-04  .000E+00  .000E+00  .000E+00  .000E+00  .000E+00
  .000E+00  .000E+00  .000E+00  .000E+00
  .553E-01  .588E-01  .622E-01  .736E-01  .854E-01  .959E-01  .127E+00  .175E+00
  .196E+00  .201E+00  .236E+00  .354E+00  .396E+00  .364E+00  .286E+00  .243E+00
  .315E+00  .356E+00  .409E+00  .488E+00  .458E+00  .474E+00  .494E+00  .494E+00
  .506E+00  .497E+00  .512E+00  .496E+00  .499E+00  .541E+00  .424E+00  .400E+00
  .472E+00  .584E+00  .598E+00  .506E+00  .451E+00  .456E+00  .467E+00  .464E+00
  .481E+00  .453E+00  .396E+00  .362E+00  .352E+00  .288E+00  .260E+00  .267E+00
  .295E+00  .295E+00  .317E+00  .302E+00  .280E+00  .286E+00  .191E+00  .170E+00
  .176E+00  .143E+00  .120E+00  .103E+00  .854E-01  .970E-01  .820E-01  .639E-01
  .636E-01  .700E-01  .706E-01  .638E-01  .535E-01  .437E-01  .375E-01  .349E-01
  .325E-01  .304E-01  .286E-01  .269E-01  .235E-01  .208E-01  .189E-01  .176E-01
  .163E-01  .152E-01  .141E-01  .132E-01  .125E-01  .118E-01  .107E-01  .979E-02
  .905E-02  .841E-02  .785E-02  .000E+00  .000E+00  .000E+00  .000E+00  .000E+00
  .000E+00  .000E+00  .000E+00  .000E+00
  .525E+01  .525E+01  .581E+01  .581E+01  .581E+01  .582E+01  .582E+01  .586E+01
  .562E+01  .566E+01  .538E+01  .567E+01  .568E+01  .539E+01  .540E+01  .540E+01
  .587E+01  .588E+01  .118E+02  .612E+01  .119E+02  .517E+01  .518E+01  .572E+01
  .495E+01  .495E+01  .497E+01  .497E+01  .106E+02  .107E+02  .123E+02  .107E+02
  .125E+02  .129E+02  .119E+02  .119E+02  .510E+01  .534E+01  .535E+01  .536E+01
  .155E+02  .106E+02  .517E+01  .523E+01  .929E+01  .932E+01  .935E+01  .183E+02
  .179E+02  .180E+02  .116E+02  .117E+02  .117E+02  .119E+02  .119E+02  .119E+02
  .114E+02  .114E+02  .102E+02  .103E+02  .503E+01  .114E+02  .114E+02  .503E+01
  .114E+02  .114E+02  .114E+02  .114E+02  .114E+02  .114E+02  .504E+01  .504E+01
  .504E+01  .504E+01  .504E+01  .504E+01  .504E+01  .504E+01  .108E+02  .108E+02
  .108E+02  .108E+02  .108E+02  .108E+02  .108E+02  .108E+02  .108E+02  .108E+02
  .108E+02  .108E+02  .108E+02  .000E+00  .000E+00  .000E+00  .000E+00  .000E+00
  .000E+00  .000E+00  .000E+00  .000E+00
  .526E+01  .527E+01  .527E+01  .513E+01  .583E+01  .526E+01  .530E+01  .584E+01
  .564E+01  .564E+01  .536E+01  .565E+01  .554E+01  .555E+01  .538E+01  .538E+01
  .590E+01  .591E+01  .586E+01  .608E+01  .526E+01  .521E+01  .582E+01  .516E+01
  .500E+01  .500E+01  .501E+01  .492E+01  .107E+02  .107E+02  .494E+01  .494E+01
  .495E+01  .128E+02  .119E+02  .118E+02  .540E+01  .545E+01  .570E+01  .571E+01
  .153E+02  .583E+01  .105E+02  .534E+01  .945E+01  .485E+01  .485E+01  .485E+01
  .485E+01  .485E+01  .117E+02  .119E+02  .485E+01  .115E+02  .485E+01  .485E+01
  .485E+01  .485E+01  .485E+01  .485E+01  .485E+01  .486E+01  .486E+01  .486E+01
  .486E+01  .486E+01  .486E+01  .486E+01  .486E+01  .486E+01  .486E+01  .486E+01
  .486E+01  .486E+01  .486E+01  .486E+01  .486E+01  .486E+01  .486E+01  .486E+01
  .486E+01  .486E+01  .486E+01  .486E+01  .486E+01  .486E+01  .486E+01  .486E+01
  .486E+01  .486E+01  .486E+01  .000E+00  .000E+00  .000E+00  .000E+00  .000E+00
  .000E+00  .000E+00  .000E+00  .000E+00
  .525E+01  .525E+01  .581E+01  .581E+01  .581E+01  .582E+01  .561E+01  .586E+01
  .562E+01  .566E+01  .566E+01  .567E+01  .568E+01  .539E+01  .540E+01  .540E+01
  .587E+01  .588E+01  .118E+02  .611E+01  .119E+02  .517E+01  .518E+01  .572E+01
  .495E+01  .495E+01  .496E+01  .497E+01  .106E+02  .107E+02  .123E+02  .107E+02
  .125E+02  .129E+02  .119E+02  .119E+02  .509E+01  .533E+01  .535E+01  .536E+01
  .155E+02  .106E+02  .516E+01  .522E+01  .928E+01  .523E+01  .933E+01  .183E+02
  .179E+02  .180E+02  .116E+02  .116E+02  .117E+02  .119E+02  .119E+02  .119E+02
  .113E+02  .114E+02  .102E+02  .102E+02  .501E+01  .113E+02  .113E+02  .501E+01
  .113E+02  .113E+02  .113E+02  .113E+02  .113E+02  .113E+02  .501E+01  .501E+01
  .501E+01  .501E+01  .488E+01  .488E+01  .488E+01  .487E+01  .487E+01  .487E+01
  .487E+01  .487E+01  .487E+01  .487E+01  .487E+01  .487E+01  .486E+01  .486E+01
  .486E+01  .486E+01  .486E+01  .000E+00  .000E+00  .000E+00  .000E+00  .000E+00
  .000E+00  .000E+00  .000E+00  .000E+00
/&   ----------  End of spectral data for channel  1  ----------
Response and Fourier amplitude spectra (91 periods,  .04 - 15.0 sec)   for      
Corrected accelerogram   14044-L1853-01253.05       Chan  2:   0 Deg     from   
Uncorrected Accelerogram Data             Processed: 09/10/01, CDMG  ao005      
Record of Sun Sep  9, 2001 16:59:18 PDT               (Avol1 v4.6  7/01 CSMIP)  
CSMIP Preliminary Processing            (Origin:  To be determined)             
14044-L1853-01253.05                 Start time:  9/09/01, 23:59:18.0 UTC (GPS) 
Station No. 14044   33.976N, 118.354W      Etna  s/n 1853  (3 Channels)         
Inglewood - Centinela & La Brea                                                 
Chan  2:   0 Deg                                                                
Record of Sun Sep  9, 2001 16:59:18 PDT    Sun Sep  9, 2001 16:59:18 PDT        
Hypocenter:  To be determined.               ML:  To be determined.             
Instr Period =  .0108 sec,  Damping =  .660,  Sensitivity =  .63  v/g           
                        Record length = 45.000 sec.                             
                                     Uncor Max  =   .011 g, at   5.825 sec.     
RMS accel of (uncor) record  =        .                                         
Accelerogram bandpass filtered with 3 dB pts at   .30 and 40.00 cyc/sec         
                 instrument- and baseline-corrected                             
                                                                                
                                                                                
                                                                                
                                                                                
                                                                                
Record of Sun Sep  9, 2001 16:59:18 PDT    Sun Sep  9, 2001 16:59:18 PDT        
                                                                                
14044-L1853-01253.05      Inglewood - Centinela & La Brea   Chan  2:   0 Deg    
                                                                                
14044-L1853-01253.05      Inglewood - Centinela & La Brea   Chan  2:   0 Deg    
                                                                                
Units for spectra are inches and sec, except Sa is in fraction of g.            
                                                                                
    2  100    2    3    3  200    1    3    1   24   12 1853    014044    1    0
   23   59   18    0  252    9    9 2001   10    3    0 9000   39   31   72 -999
 9000    1   50    3 1853    1    5  450    1    0    0    0    0    0    0    0
    0    4    0    0 4500    2    0    0    0    0   72   31    0    0    0 4500
    0 4500   32   91    1    3    0    0    0    0    3    0    0    0    0    2
    2    2    4    0   32   99 -999   32   32    0    0    1    0    0    0    0
  -99   -1    0    0
      .011      .660    45.000      .002      .000   625.000      .011     5.825
    92.600      .298      .477      .000     5.000      .000      .000      .000
     2.500   -30.891     -.013     -.026     5.000    30.000      .000      .001
      .001      .000     2.000    15.000    33.976  -118.354      .031      .199
     6.367     -.010      .010  -999.000      .000      .000   -13.400      .000
  1000.000    -1.030      .000      .000      .000      .000      .000      .000
     4.600     4.400      .000   980.665      .010    45.000    14.738      .000
      .000    40.000      .000    45.000      .010      .300      .000      .000
     5.870   -10.657    10.740      .366     9.710      .021      .000      .300
    40.000      .010      .010      .000      .010      .018      .000      .000
      .041      .080      .035      .020      .002      .000      .000      .000
      .000      .000      .000      .000      .000      .000      .000      .000
      .000      .000      .000      .000
      .050
      .040      .042      .044      .046      .048      .050      .055      .060
      .065      .070      .075      .080      .085      .090      .095      .100
      .110      .120      .130      .140      .150      .160      .170      .180
      .190      .200      .220      .240      .260      .280      .300      .320
      .340      .360      .380      .400      .420      .440      .460      .480
      .500      .550      .600      .650      .700      .750      .800      .850
      .900      .950     1.000     1.100     1.200     1.300     1.400     1.500
     1.600     1.700     1.800     1.900     2.000     2.200     2.400     2.600
     2.800     3.000     3.200     3.400     3.600     3.800     4.000     4.200
     4.400     4.600     4.800     5.000     5.500     6.000     6.500     7.000
     7.500     8.000     8.500     9.000     9.500    10.000    11.000    12.000
    13.000    14.000    15.000      .000      .000      .000      .000      .000
      .000      .000      .000      .000
Fourier amplitude spectra in in/sec.
  .000E+00  .000E+00  .000E+00  .000E+00  .000E+00  .000E+00  .000E+00  .000E+00
  .000E+00  .000E+00  .000E+00  .000E+00  .000E+00  .000E+00  .000E+00  .000E+00
  .000E+00  .000E+00  .000E+00  .000E+00  .000E+00  .000E+00  .000E+00  .000E+00
  .000E+00  .000E+00  .000E+00  .000E+00  .000E+00  .000E+00  .000E+00  .000E+00
  .000E+00  .000E+00  .000E+00  .000E+00  .000E+00  .000E+00  .000E+00  .000E+00
  .000E+00  .000E+00  .000E+00  .000E+00  .000E+00  .000E+00  .000E+00  .000E+00
  .000E+00  .000E+00  .000E+00  .000E+00  .000E+00  .000E+00  .000E+00  .000E+00
  .000E+00  .000E+00  .000E+00  .000E+00  .000E+00  .000E+00  .000E+00  .000E+00
  .000E+00  .000E+00  .000E+00  .000E+00  .000E+00  .000E+00  .000E+00  .000E+00
  .000E+00  .000E+00  .000E+00  .000E+00  .000E+00  .000E+00  .000E+00  .000E+00
  .000E+00  .000E+00  .000E+00  .000E+00  .000E+00  .000E+00  .000E+00  .000E+00
  .000E+00  .000E+00  .000E+00  .000E+00  .000E+00  .000E+00  .000E+00  .000E+00
  .000E+00  .000E+00  .000E+00  .000E+00
Damping =  .05. Data of Sd,Sv,Sa,Pssv,ttSd,ttSv,ttSa :
  .261E-03  .291E-03  .403E-03  .521E-03  .590E-03  .627E-03  .863E-03  .128E-02
  .143E-02  .198E-02  .217E-02  .257E-02  .275E-02  .279E-02  .260E-02  .270E-02
  .328E-02  .419E-02  .448E-02  .527E-02  .656E-02  .667E-02  .779E-02  .818E-02
  .107E-01  .139E-01  .177E-01  .154E-01  .180E-01  .188E-01  .155E-01  .169E-01
  .198E-01  .228E-01  .269E-01  .310E-01  .313E-01  .253E-01  .232E-01  .249E-01
