Response and Fourier amplitude spectra (91 periods,  .04 - 15.0 sec)   for      
Corrected accelerogram   24611-L1118-01252.12       Chan  1: 360 Deg     from   
Uncorrected Accelerogram Data             Processed: 09/10/01, CDMG  611as012   
Record of Sun Sep  9, 2001 16:59:18 PDT               (Avol1 v4.6  7/01 CSMIP)  
CSMIP Preliminary Processing            (Origin:  To be determined)             
24611-L1118-01252.12                 Start time:  9/09/01, 23:59:18.0 UTC (GPS) 
Station No. 24611   34.059N, 118.246W      Etna  s/n 1118  (3 Channels)         
Los Angeles - Temple & Hope                                                     
Chan  1: 360 Deg                                                                
Record of Sun Sep  9, 2001 16:59:18 PDT    Sun Sep  9, 2001 16:59:18 PDT        
Hypocenter:  To be determined.               ML:  To be determined.             
Instr Period =  .0108 sec,  Damping =  .650,  Sensitivity =  .63  v/g           
                        Record length = 44.000 sec.                             
                                     Uncor Max  =   .047 g, at   5.830 sec.     
RMS accel of (uncor) record  =        .                                         
Accelerogram bandpass filtered with 3 dB pts at   .30 and 40.00 cyc/sec         
                 instrument- and baseline-corrected                             
                                                                                
                                                                                
                                                                                
                                                                                
                                                                                
Record of Sun Sep  9, 2001 16:59:18 PDT    Sun Sep  9, 2001 16:59:18 PDT        
                                                                                
24611-L1118-01252.12      Los Angeles - Temple & Hope   Chan  1: 360 Deg        
                                                                                
24611-L1118-01252.12      Los Angeles - Temple & Hope   Chan  1: 360 Deg        
                                                                                
Units for spectra are inches and sec, except Sa is in fraction of g.            
                                                                                
    1  100    1    3    3  200    1    3    1   24   12 1118    024611    1    0
   23   59   18    0  252    9    9 2001   10    3  360 8800   39   27   72  360
 8800    1   50    3 1118    1   12  440    1    0    0    0    0    0    0    0
    0    4    0    0 4400    2    0    0    0    0   72   27    0    0    0 4400
    0 4400   28   91    1    3    0    0    0    0    3    0    0    0    0    2
    2    2    4    0   32   99    0   32   32    0    0    1    0    0    0    0
  -99   -1    0    0
      .011      .650    44.000      .003      .000   625.000      .047     5.830
    92.300      .298      .477      .000     5.000      .000      .000      .000
     2.500    -4.656      .021     -.032     5.000    30.000      .000     -.001
      .002      .003     2.000    15.000    34.059  -118.246      .107      .221
     2.060     -.014      .021  -999.000      .000      .000   -12.500      .000
  1000.000    -1.006      .000      .000      .000      .000      .000      .000
     4.600     4.400      .000   980.665      .010    44.000    14.690      .000
      .000    40.000      .000    44.000      .010      .300      .000      .000
     5.830    45.521     5.760    -1.995     5.830     -.149      .000      .300
    40.000      .010      .010      .000      .010      .028      .000      .000
      .134      .190      .126      .088      .007      .001      .000      .000
      .000      .000      .000      .000      .000      .000      .000      .000
      .000      .000      .000      .000
      .050
      .040      .042      .044      .046      .048      .050      .055      .060
      .065      .070      .075      .080      .085      .090      .095      .100
      .110      .120      .130      .140      .150      .160      .170      .180
      .190      .200      .220      .240      .260      .280      .300      .320
      .340      .360      .380      .400      .420      .440      .460      .480
      .500      .550      .600      .650      .700      .750      .800      .850
      .900      .950     1.000     1.100     1.200     1.300     1.400     1.500
     1.600     1.700     1.800     1.900     2.000     2.200     2.400     2.600
     2.800     3.000     3.200     3.400     3.600     3.800     4.000     4.200
     4.400     4.600     4.800     5.000     5.500     6.000     6.500     7.000
     7.500     8.000     8.500     9.000     9.500    10.000    11.000    12.000
    13.000    14.000    15.000      .000      .000      .000      .000      .000
      .000      .000      .000      .000
Fourier amplitude spectra in in/sec.
  .000E+00  .000E+00  .000E+00  .000E+00  .000E+00  .000E+00  .000E+00  .000E+00
  .000E+00  .000E+00  .000E+00  .000E+00  .000E+00  .000E+00  .000E+00  .000E+00
  .000E+00  .000E+00  .000E+00  .000E+00  .000E+00  .000E+00  .000E+00  .000E+00
  .000E+00  .000E+00  .000E+00  .000E+00  .000E+00  .000E+00  .000E+00  .000E+00
  .000E+00  .000E+00  .000E+00  .000E+00  .000E+00  .000E+00  .000E+00  .000E+00
  .000E+00  .000E+00  .000E+00  .000E+00  .000E+00  .000E+00  .000E+00  .000E+00
  .000E+00  .000E+00  .000E+00  .000E+00  .000E+00  .000E+00  .000E+00  .000E+00
  .000E+00  .000E+00  .000E+00  .000E+00  .000E+00  .000E+00  .000E+00  .000E+00
  .000E+00  .000E+00  .000E+00  .000E+00  .000E+00  .000E+00  .000E+00  .000E+00
  .000E+00  .000E+00  .000E+00  .000E+00  .000E+00  .000E+00  .000E+00  .000E+00
  .000E+00  .000E+00  .000E+00  .000E+00  .000E+00  .000E+00  .000E+00  .000E+00
  .000E+00  .000E+00  .000E+00  .000E+00  .000E+00  .000E+00  .000E+00  .000E+00
  .000E+00  .000E+00  .000E+00  .000E+00
Damping =  .05. Data of Sd,Sv,Sa,Pssv,ttSd,ttSv,ttSa :
  .756E-03  .850E-03  .968E-03  .106E-02  .124E-02  .145E-02  .159E-02  .213E-02
  .266E-02  .286E-02  .326E-02  .373E-02  .518E-02  .756E-02  .860E-02  .904E-02
  .752E-02  .935E-02  .121E-01  .169E-01  .208E-01  .248E-01  .335E-01  .422E-01
  .472E-01  .482E-01  .567E-01  .693E-01  .716E-01  .713E-01  .741E-01  .837E-01
  .904E-01  .915E-01  .891E-01  .863E-01  .836E-01  .809E-01  .792E-01  .777E-01
  .764E-01  .755E-01  .768E-01  .723E-01  .732E-01  .731E-01  .724E-01  .709E-01
  .693E-01  .699E-01  .710E-01  .728E-01  .738E-01  .743E-01  .748E-01  .755E-01
  .763E-01  .770E-01  .777E-01  .782E-01  .786E-01  .791E-01  .792E-01  .791E-01
  .788E-01  .781E-01  .772E-01  .762E-01  .751E-01  .741E-01  .731E-01  .721E-01
  .713E-01  .705E-01  .698E-01  .692E-01  .679E-01  .670E-01  .663E-01  .658E-01
  .654E-01  .651E-01  .648E-01  .646E-01  .644E-01  .643E-01  .640E-01  .639E-01
  .637E-01  .636E-01  .635E-01  .000E+00  .000E+00  .000E+00  .000E+00  .000E+00
  .000E+00  .000E+00  .000E+00  .000E+00
  .600E-01  .616E-01  .701E-01  .949E-01  .124E+00  .132E+00  .119E+00  .160E+00
  .197E+00  .169E+00  .199E+00  .251E+00  .320E+00  .462E+00  .503E+00  .496E+00
  .422E+00  .494E+00  .527E+00  .734E+00  .862E+00  .931E+00  .118E+01  .151E+01
  .164E+01  .158E+01  .163E+01  .177E+01  .183E+01  .183E+01  .185E+01  .186E+01
  .178E+01  .158E+01  .151E+01  .147E+01  .142E+01  .138E+01  .135E+01  .132E+01
  .130E+01  .126E+01  .124E+01  .123E+01  .121E+01  .116E+01  .111E+01  .107E+01
  .103E+01  .995E+00  .965E+00  .910E+00  .866E+00  .830E+00  .803E+00  .780E+00
  .769E+00  .772E+00  .776E+00  .779E+00  .782E+00  .787E+00  .790E+00  .794E+00
  .796E+00  .798E+00  .799E+00  .800E+00  .800E+00  .800E+00  .800E+00  .799E+00
  .799E+00  .798E+00  .797E+00  .797E+00  .795E+00  .794E+00  .793E+00  .792E+00
  .791E+00  .791E+00  .790E+00  .790E+00  .790E+00  .790E+00  .789E+00  .789E+00
  .789E+00  .788E+00  .788E+00  .000E+00  .000E+00  .000E+00  .000E+00  .000E+00
  .000E+00  .000E+00  .000E+00  .000E+00
  .483E-01  .493E-01  .512E-01  .514E-01  .553E-01  .597E-01  .539E-01  .606E-01
  .650E-01  .597E-01  .595E-01  .598E-01  .732E-01  .967E-01  .969E-01  .926E-01
  .631E-01  .677E-01  .740E-01  .895E-01  .949E-01  .998E-01  .119E+00  .133E+00
  .134E+00  .123E+00  .121E+00  .123E+00  .109E+00  .937E-01  .851E-01  .840E-01
  .802E-01  .728E-01  .637E-01  .557E-01  .487E-01  .433E-01  .386E-01  .348E-01
  .316E-01  .257E-01  .220E-01  .176E-01  .154E-01  .133E-01  .117E-01  .101E-01
  .891E-02  .815E-02  .749E-02  .637E-02  .546E-02  .472E-02  .413E-02  .366E-02
  .327E-02  .295E-02  .267E-02  .243E-02  .223E-02  .188E-02  .161E-02  .140E-02
  .122E-02  .108E-02  .958E-03  .858E-03  .773E-03  .701E-03  .639E-03  .586E-03
  .541E-03  .501E-03  .466E-03  .435E-03  .374E-03  .328E-03  .292E-03  .263E-03
  .239E-03  .219E-03  .201E-03  .187E-03  .174E-03  .163E-03  .145E-03  .130E-03
  .118E-03  .108E-03  .100E-03  .000E+00  .000E+00  .000E+00  .000E+00  .000E+00
  .000E+00  .000E+00  .000E+00  .000E+00
  .119E+00  .127E+00  .138E+00  .145E+00  .162E+00  .182E+00  .182E+00  .223E+00
  .257E+00  .257E+00  .273E+00  .293E+00  .383E+00  .528E+00  .569E+00  .568E+00
  .430E+00  .490E+00  .585E+00  .760E+00  .870E+00  .974E+00  .124E+01  .147E+01
  .156E+01  .151E+01  .162E+01  .181E+01  .173E+01  .160E+01  .155E+01  .164E+01
  .167E+01  .160E+01  .147E+01  .136E+01  .125E+01  .115E+01  .108E+01  .102E+01
  .960E+00  .863E+00  .804E+00  .699E+00  .657E+00  .612E+00  .568E+00  .524E+00
  .484E+00  .462E+00  .446E+00  .416E+00  .386E+00  .359E+00  .336E+00  .316E+00
  .299E+00  .285E+00  .271E+00  .259E+00  .247E+00  .226E+00  .207E+00  .191E+00
  .177E+00  .164E+00  .152E+00  .141E+00  .131E+00  .122E+00  .115E+00  .108E+00
  .102E+00  .963E-01  .914E-01  .869E-01  .776E-01  .702E-01  .641E-01  .591E-01
  .548E-01  .511E-01  .479E-01  .451E-01  .426E-01  .404E-01  .366E-01  .334E-01
  .308E-01  .285E-01  .266E-01  .000E+00  .000E+00  .000E+00  .000E+00  .000E+00
  .000E+00  .000E+00  .000E+00  .000E+00
  .582E+01  .582E+01  .582E+01  .582E+01  .626E+01  .626E+01  .583E+01  .627E+01
  .628E+01  .582E+01  .582E+01  .582E+01  .628E+01  .628E+01  .629E+01  .629E+01
  .601E+01  .601E+01  .644E+01  .646E+01  .647E+01  .583E+01  .603E+01  .604E+01
  .596E+01  .597E+01  .598E+01  .599E+01  .600E+01  .601E+01  .590E+01  .590E+01
  .591E+01  .592E+01  .592E+01  .593E+01  .593E+01  .594E+01  .594E+01  .594E+01
  .594E+01  .625E+01  .627E+01  .630E+01  .604E+01  .607E+01  .608E+01  .609E+01
  .610E+01  .581E+01  .581E+01  .581E+01  .581E+01  .581E+01  .581E+01  .582E+01
  .582E+01  .582E+01  .582E+01  .582E+01  .582E+01  .582E+01  .582E+01  .582E+01
  .582E+01  .582E+01  .582E+01  .582E+01  .582E+01  .582E+01  .582E+01  .582E+01
  .582E+01  .582E+01  .582E+01  .582E+01  .582E+01  .582E+01  .582E+01  .582E+01
  .582E+01  .582E+01  .582E+01  .582E+01  .582E+01  .582E+01  .582E+01  .582E+01
  .582E+01  .582E+01  .582E+01  .000E+00  .000E+00  .000E+00  .000E+00  .000E+00
  .000E+00  .000E+00  .000E+00  .000E+00
  .625E+01  .625E+01  .625E+01  .625E+01  .625E+01  .625E+01  .609E+01  .625E+01
  .630E+01  .630E+01  .657E+01  .615E+01  .615E+01  .630E+01  .632E+01  .627E+01
  .604E+01  .604E+01  .641E+01  .642E+01  .643E+01  .623E+01  .599E+01  .600E+01
  .601E+01  .601E+01  .602E+01  .594E+01  .595E+01  .595E+01  .596E+01  .597E+01
  .597E+01  .598E+01  .586E+01  .586E+01  .586E+01  .587E+01  .587E+01  .587E+01
  .587E+01  .587E+01  .588E+01  .588E+01  .588E+01  .588E+01  .588E+01  .588E+01
  .588E+01  .588E+01  .588E+01  .588E+01  .588E+01  .588E+01  .588E+01  .588E+01
  .575E+01  .575E+01  .575E+01  .575E+01  .575E+01  .575E+01  .575E+01  .575E+01
  .575E+01  .575E+01  .575E+01  .575E+01  .575E+01  .575E+01  .575E+01  .575E+01
  .575E+01  .575E+01  .575E+01  .575E+01  .575E+01  .575E+01  .575E+01  .575E+01
  .575E+01  .575E+01  .575E+01  .575E+01  .575E+01  .575E+01  .575E+01  .575E+01
  .575E+01  .575E+01  .575E+01  .000E+00  .000E+00  .000E+00  .000E+00  .000E+00
  .000E+00  .000E+00  .000E+00  .000E+00
  .582E+01  .582E+01  .582E+01  .582E+01  .626E+01  .626E+01  .582E+01  .627E+01
  .628E+01  .582E+01  .582E+01  .582E+01  .628E+01  .628E+01  .629E+01  .629E+01
  .601E+01  .601E+01  .644E+01  .645E+01  .647E+01  .583E+01  .603E+01  .604E+01
  .596E+01  .596E+01  .597E+01  .598E+01  .600E+01  .601E+01  .589E+01  .590E+01
  .590E+01  .591E+01  .592E+01  .592E+01  .593E+01  .593E+01  .593E+01  .593E+01
  .594E+01  .625E+01  .626E+01  .629E+01  .603E+01  .606E+01  .607E+01  .608E+01
  .579E+01  .579E+01  .579E+01  .580E+01  .580E+01  .580E+01  .579E+01  .579E+01
  .579E+01  .579E+01  .579E+01  .579E+01  .579E+01  .579E+01  .579E+01  .579E+01
  .579E+01  .579E+01  .578E+01  .578E+01  .578E+01  .578E+01  .578E+01  .578E+01
  .578E+01  .578E+01  .578E+01  .578E+01  .577E+01  .577E+01  .577E+01  .577E+01
  .577E+01  .577E+01  .577E+01  .577E+01  .577E+01  .577E+01  .576E+01  .576E+01
  .576E+01  .576E+01  .576E+01  .000E+00  .000E+00  .000E+00  .000E+00  .000E+00
  .000E+00  .000E+00  .000E+00  .000E+00
/&   ----------  End of spectral data for channel  1  ----------
Response and Fourier amplitude spectra (91 periods,  .04 - 15.0 sec)   for      
Corrected accelerogram   24611-L1118-01252.12       Chan  2:  Up         from   
Uncorrected Accelerogram Data             Processed: 09/10/01, CDMG  611as012   
Record of Sun Sep  9, 2001 16:59:18 PDT               (Avol1 v4.6  7/01 CSMIP)  
CSMIP Preliminary Processing            (Origin:  To be determined)             
24611-L1118-01252.12                 Start time:  9/09/01, 23:59:18.0 UTC (GPS) 
Station No. 24611   34.059N, 118.246W      Etna  s/n 1118  (3 Channels)         
Los Angeles - Temple & Hope                                                     
Chan  2:  Up                                                                    
Record of Sun Sep  9, 2001 16:59:18 PDT    Sun Sep  9, 2001 16:59:18 PDT        
Hypocenter:  To be determined.               ML:  To be determined.             
Instr Period =  .0110 sec,  Damping =  .640,  Sensitivity =  .63  v/g           
                        Record length = 44.000 sec.                             
                                     Uncor Max  =  -.014 g, at   6.505 sec.     
RMS accel of (uncor) record  =        .                                         
Accelerogram bandpass filtered with 3 dB pts at   .30 and 40.00 cyc/sec         
                 instrument- and baseline-corrected                             
                                                                                
                                                                                
                                                                                
                                                                                
                                                                                
Record of Sun Sep  9, 2001 16:59:18 PDT    Sun Sep  9, 2001 16:59:18 PDT        
                                                                                
24611-L1118-01252.12      Los Angeles - Temple & Hope   Chan  2:  Up            
                                                                                
24611-L1118-01252.12      Los Angeles - Temple & Hope   Chan  2:  Up            
                                                                                
Units for spectra are inches and sec, except Sa is in fraction of g.            
                                                                                
    2  100    2    3    3  200    1    3    1   24   12 1118    024611    1    0
   23   59   18    0  252    9    9 2001   10    3  500 8800   39   27   72  360
 8800    1   50    3 1118    1   12  440    1    0    0    0    0    0    0    0
    0    4    0    0 4400    2    0    0    0    0   72   27    0    0    0 4400
    0 4400   28   91    1    3    0    0    0    0    3    0    0    0    0    2
    2    2    4    0   32   99    0   32   32    0    0    1    0    0    0    0
  -99   -1    0    0
      .011      .640    44.000      .002      .000   625.000     -.014     6.505
    91.000      .298      .477      .000     5.000      .000      .000      .000
     2.500   -46.504     -.020     -.037     5.000    30.000      .000     -.004
      .001      .005     2.000    15.000    34.059  -118.246      .092      .150
     1.640     -.009      .019  -999.000      .000      .000   -12.500      .000
  1000.000     1.011      .000      .000      .000      .000      .000      .000
     4.600     4.400      .000   980.665      .010    44.000    14.483      .000
      .000    40.000      .000    44.000      .010      .300      .000      .000
     6.500   -13.775     8.310     -.466     8.970     -.028      .000      .300
    40.000      .010      .010      .000      .010      .018      .000      .000
      .055      .080      .028      .037      .002      .000      .000      .000
      .000      .000      .000      .000      .000      .000      .000      .000
      .000      .000      .000      .000
      .050
      .040      .042      .044      .046      .048      .050      .055      .060
      .065      .070      .075      .080      .085      .090      .095      .100
      .110      .120      .130      .140      .150      .160      .170      .180
      .190      .200      .220      .240      .260      .280      .300      .320
      .340      .360      .380      .400      .420      .440      .460      .480
      .500      .550      .600      .650      .700      .750      .800      .850
      .900      .950     1.000     1.100     1.200     1.300     1.400     1.500
     1.600     1.700     1.800     1.900     2.000     2.200     2.400     2.600
     2.800     3.000     3.200     3.400     3.600     3.800     4.000     4.200
     4.400     4.600     4.800     5.000     5.500     6.000     6.500     7.000
     7.500     8.000     8.500     9.000     9.500    10.000    11.000    12.000
    13.000    14.000    15.000      .000      .000      .000      .000      .000
      .000      .000      .000      .000
Fourier amplitude spectra in in/sec.
  .000E+00  .000E+00  .000E+00  .000E+00  .000E+00  .000E+00  .000E+00  .000E+00
  .000E+00  .000E+00  .000E+00  .000E+00  .000E+00  .000E+00  .000E+00  .000E+00
  .000E+00  .000E+00  .000E+00  .000E+00  .000E+00  .000E+00  .000E+00  .000E+00
  .000E+00  .000E+00  .000E+00  .000E+00  .000E+00  .000E+00  .000E+00  .000E+00
  .000E+00  .000E+00  .000E+00  .000E+00  .000E+00  .000E+00  .000E+00  .000E+00
  .000E+00  .000E+00  .000E+00  .000E+00  .000E+00  .000E+00  .000E+00  .000E+00
  .000E+00  .000E+00  .000E+00  .000E+00  .000E+00  .000E+00  .000E+00  .000E+00
  .000E+00  .000E+00  .000E+00  .000E+00  .000E+00  .000E+00  .000E+00  .000E+00
  .000E+00  .000E+00  .000E+00  .000E+00  .000E+00  .000E+00  .000E+00  .000E+00
  .000E+00  .000E+00  .000E+00  .000E+00  .000E+00  .000E+00  .000E+00  .000E+00
  .000E+00  .000E+00  .000E+00  .000E+00  .000E+00  .000E+00  .000E+00  .000E+00
  .000E+00  .000E+00  .000E+00  .000E+00  .000E+00  .000E+00  .000E+00  .000E+00
  .000E+00  .000E+00  .000E+00  .000E+00
Damping =  .05. Data of Sd,Sv,Sa,Pssv,ttSd,ttSv,ttSa :
  .329E-03  .379E-03  .401E-03  .433E-03  .516E-03  .640E-03  .922E-03  .103E-02
  .143E-02  .210E-02  .298E-02  .338E-02  .374E-02  .360E-02  .373E-02  .421E-02
  .519E-02  .657E-02  .809E-02  .690E-02  .739E-02  .722E-02  .935E-02  .113E-01
  .109E-01  .965E-02  .130E-01  .203E-01  .271E-01  .356E-01  .342E-01  .262E-01
  .276E-01  .272E-01  .266E-01  .271E-01  .290E-01  .323E-01  .394E-01  .360E-01
