Response and Fourier amplitude spectra (91 periods,  .04 - 15.0 sec)   for      
Corrected accelerogram   14935-L1775-01250.07       Chan  1:   0 Deg     from   
Uncorrected Accelerogram Data             Processed: 09/10/01, CDMG  am007      
Record of Sun Sep  9, 2001 16:59:22 PDT               (Avol1 v4.6  7/01 CSMIP)  
CSMIP Preliminary Processing            (Origin:  To be determined)             
14935-L1775-01250.07                 Start time:  9/09/01, 23:59:22.0 UTC (GPS) 
Station No. 14935   33.867N, 118.262W      Etna  s/n 1775  (3 Channels)         
Carson - Victoria & Avalon                                                      
Chan  1:   0 Deg                                                                
Record of Sun Sep  9, 2001 16:59:22 PDT    Sun Sep  9, 2001 16:59:22 PDT        
Hypocenter:  To be determined.               ML:  To be determined.             
Instr Period =  .0098 sec,  Damping =  .660,  Sensitivity =  .63  v/g           
                        Record length = 36.000 sec.                             
                                     Uncor Max  =   .008 g, at   5.535 sec.     
RMS accel of (uncor) record  =        .                                         
Accelerogram bandpass filtered with 3 dB pts at   .30 and 40.00 cyc/sec         
                 instrument- and baseline-corrected                             
                                                                                
                                                                                
                                                                                
                                                                                
                                                                                
Record of Sun Sep  9, 2001 16:59:22 PDT    Sun Sep  9, 2001 16:59:22 PDT        
                                                                                
14935-L1775-01250.07      Carson - Victoria & Avalon    Chan  1:   0 Deg        
                                                                                
14935-L1775-01250.07      Carson - Victoria & Avalon    Chan  1:   0 Deg        
                                                                                
Units for spectra are inches and sec, except Sa is in fraction of g.            
                                                                                
    1  100    1    3    3  200    1    3    1   24   12 1775    014935    1    0
   23   59   22    0  252    9    9 2001   10    3    0 7200   39   26   72 -999
 7200    1   50    3 1775    1    7  360    1    0    0    0    0    0    0    0
    0    4    0    0 3600    2    0    0    0    0   72   26    0    0    0 3600
    0 3600   27   91    1    3    0    0    0    0    3    0    0    0    0    2
    2    2    4    0   32   99 -999   32   32    0    0    1    0    0    0    0
  -99   -1    0    0
      .010      .660    36.000      .001      .000   625.000      .008     5.535
   101.600      .298      .477      .000     5.000      .000      .000      .000
     2.500    -5.892      .000     -.009     5.000    30.000      .000     -.002
     -.002      .000     2.000    15.000    33.867  -118.262      .120      .525
     4.388     -.029      .029  -999.000      .000      .000   -13.400      .000
  1000.000     1.010      .000      .000      .000      .000      .000      .000
     4.600     4.400      .000   980.665      .010    36.000    16.170      .000
      .000    40.000      .000    36.000      .010      .300      .000      .000
     5.530     8.314     5.480     -.231    12.770     -.024      .000      .300
    40.000      .010      .010      .000      .010      .014      .000      .000
      .029      .150      .019      .013      .002      .000      .000      .000
      .000      .000      .000      .000      .000      .000      .000      .000
      .000      .000      .000      .000
      .050
      .040      .042      .044      .046      .048      .050      .055      .060
      .065      .070      .075      .080      .085      .090      .095      .100
      .110      .120      .130      .140      .150      .160      .170      .180
      .190      .200      .220      .240      .260      .280      .300      .320
      .340      .360      .380      .400      .420      .440      .460      .480
      .500      .550      .600      .650      .700      .750      .800      .850
      .900      .950     1.000     1.100     1.200     1.300     1.400     1.500
     1.600     1.700     1.800     1.900     2.000     2.200     2.400     2.600
     2.800     3.000     3.200     3.400     3.600     3.800     4.000     4.200
     4.400     4.600     4.800     5.000     5.500     6.000     6.500     7.000
     7.500     8.000     8.500     9.000     9.500    10.000    11.000    12.000
    13.000    14.000    15.000      .000      .000      .000      .000      .000
      .000      .000      .000      .000
Fourier amplitude spectra in in/sec.
  .000E+00  .000E+00  .000E+00  .000E+00  .000E+00  .000E+00  .000E+00  .000E+00
  .000E+00  .000E+00  .000E+00  .000E+00  .000E+00  .000E+00  .000E+00  .000E+00
  .000E+00  .000E+00  .000E+00  .000E+00  .000E+00  .000E+00  .000E+00  .000E+00
  .000E+00  .000E+00  .000E+00  .000E+00  .000E+00  .000E+00  .000E+00  .000E+00
  .000E+00  .000E+00  .000E+00  .000E+00  .000E+00  .000E+00  .000E+00  .000E+00
  .000E+00  .000E+00  .000E+00  .000E+00  .000E+00  .000E+00  .000E+00  .000E+00
  .000E+00  .000E+00  .000E+00  .000E+00  .000E+00  .000E+00  .000E+00  .000E+00
  .000E+00  .000E+00  .000E+00  .000E+00  .000E+00  .000E+00  .000E+00  .000E+00
  .000E+00  .000E+00  .000E+00  .000E+00  .000E+00  .000E+00  .000E+00  .000E+00
  .000E+00  .000E+00  .000E+00  .000E+00  .000E+00  .000E+00  .000E+00  .000E+00
  .000E+00  .000E+00  .000E+00  .000E+00  .000E+00  .000E+00  .000E+00  .000E+00
  .000E+00  .000E+00  .000E+00  .000E+00  .000E+00  .000E+00  .000E+00  .000E+00
  .000E+00  .000E+00  .000E+00  .000E+00
Damping =  .05. Data of Sd,Sv,Sa,Pssv,ttSd,ttSv,ttSa :
  .149E-03  .164E-03  .182E-03  .202E-03  .218E-03  .224E-03  .261E-03  .298E-03
  .449E-03  .502E-03  .596E-03  .711E-03  .842E-03  .102E-02  .118E-02  .162E-02
  .229E-02  .238E-02  .370E-02  .543E-02  .650E-02  .715E-02  .790E-02  .845E-02
  .822E-02  .773E-02  .691E-02  .615E-02  .702E-02  .102E-01  .115E-01  .118E-01
  .146E-01  .151E-01  .167E-01  .153E-01  .156E-01  .125E-01  .127E-01  .152E-01
  .154E-01  .223E-01  .205E-01  .209E-01  .242E-01  .235E-01  .230E-01  .261E-01
  .230E-01  .201E-01  .227E-01  .224E-01  .198E-01  .234E-01  .209E-01  .191E-01
  .204E-01  .195E-01  .182E-01  .180E-01  .164E-01  .179E-01  .153E-01  .139E-01
  .139E-01  .135E-01  .126E-01  .115E-01  .120E-01  .118E-01  .108E-01  .997E-02
  .101E-01  .103E-01  .105E-01  .106E-01  .106E-01  .105E-01  .104E-01  .104E-01
  .104E-01  .104E-01  .104E-01  .103E-01  .103E-01  .103E-01  .103E-01  .102E-01
  .102E-01  .102E-01  .102E-01  .000E+00  .000E+00  .000E+00  .000E+00  .000E+00
  .000E+00  .000E+00  .000E+00  .000E+00
  .725E-02  .895E-02  .104E-01  .128E-01  .152E-01  .170E-01  .178E-01  .221E-01
  .318E-01  .372E-01  .402E-01  .466E-01  .510E-01  .522E-01  .627E-01  .873E-01
  .115E+00  .108E+00  .156E+00  .228E+00  .266E+00  .278E+00  .289E+00  .291E+00
  .274E+00  .241E+00  .209E+00  .174E+00  .168E+00  .218E+00  .248E+00  .240E+00
  .272E+00  .288E+00  .273E+00  .275E+00  .254E+00  .220E+00  .218E+00  .211E+00
  .208E+00  .265E+00  .234E+00  .217E+00  .240E+00  .245E+00  .230E+00  .223E+00
  .182E+00  .138E+00  .160E+00  .160E+00  .139E+00  .138E+00  .126E+00  .119E+00
  .124E+00  .113E+00  .105E+00  .104E+00  .103E+00  .972E-01  .946E-01  .944E-01
  .939E-01  .933E-01  .928E-01  .924E-01  .920E-01  .917E-01  .915E-01  .913E-01
  .912E-01  .910E-01  .909E-01  .908E-01  .906E-01  .904E-01  .903E-01  .902E-01
  .901E-01  .900E-01  .899E-01  .898E-01  .898E-01  .897E-01  .897E-01  .896E-01
  .896E-01  .896E-01  .895E-01  .000E+00  .000E+00  .000E+00  .000E+00  .000E+00
  .000E+00  .000E+00  .000E+00  .000E+00
  .955E-02  .954E-02  .959E-02  .979E-02  .968E-02  .917E-02  .882E-02  .850E-02
  .110E-01  .106E-01  .109E-01  .114E-01  .120E-01  .129E-01  .134E-01  .169E-01
  .197E-01  .171E-01  .224E-01  .282E-01  .294E-01  .287E-01  .283E-01  .269E-01
  .233E-01  .199E-01  .146E-01  .109E-01  .107E-01  .135E-01  .131E-01  .119E-01
  .130E-01  .119E-01  .118E-01  .985E-02  .907E-02  .663E-02  .619E-02  .676E-02
  .635E-02  .757E-02  .587E-02  .509E-02  .507E-02  .429E-02  .369E-02  .371E-02
  .292E-02  .229E-02  .234E-02  .191E-02  .142E-02  .143E-02  .110E-02  .887E-03
  .838E-03  .705E-03  .586E-03  .520E-03  .437E-03  .395E-03  .288E-03  .227E-03
  .198E-03  .170E-03  .141E-03  .116E-03  .103E-03  .920E-04  .779E-04  .715E-04
  .669E-04  .630E-04  .593E-04  .558E-04  .477E-04  .411E-04  .360E-04  .320E-04
  .288E-04  .261E-04  .238E-04  .219E-04  .202E-04  .187E-04  .163E-04  .144E-04
  .128E-04  .116E-04  .105E-04  .000E+00  .000E+00  .000E+00  .000E+00  .000E+00
  .000E+00  .000E+00  .000E+00  .000E+00
  .235E-01  .245E-01  .260E-01  .276E-01  .286E-01  .281E-01  .298E-01  .312E-01
  .434E-01  .450E-01  .500E-01  .559E-01  .622E-01  .711E-01  .781E-01  .102E+00
  .131E+00  .125E+00  .179E+00  .244E+00  .272E+00  .281E+00  .292E+00  .295E+00
  .272E+00  .243E+00  .197E+00  .161E+00  .170E+00  .230E+00  .241E+00  .232E+00
  .269E+00  .263E+00  .275E+00  .241E+00  .233E+00  .178E+00  .174E+00  .198E+00
  .194E+00  .254E+00  .215E+00  .202E+00  .217E+00  .197E+00  .180E+00  .193E+00
  .161E+00  .133E+00  .143E+00  .128E+00  .104E+00  .113E+00  .936E-01  .799E-01
  .803E-01  .719E-01  .636E-01  .594E-01  .515E-01  .511E-01  .401E-01  .336E-01
  .313E-01  .284E-01  .246E-01  .213E-01  .209E-01  .194E-01  .170E-01  .149E-01
  .145E-01  .141E-01  .137E-01  .133E-01  .121E-01  .110E-01  .101E-01  .931E-02
  .868E-02  .814E-02  .766E-02  .722E-02  .684E-02  .648E-02  .587E-02  .536E-02
  .493E-02  .456E-02  .425E-02  .000E+00  .000E+00  .000E+00  .000E+00  .000E+00
  .000E+00  .000E+00  .000E+00  .000E+00
  .553E+01  .553E+01  .554E+01  .554E+01  .554E+01  .554E+01  .594E+01  .551E+01
  .594E+01  .595E+01  .552E+01  .553E+01  .553E+01  .553E+01  .553E+01  .601E+01
  .603E+01  .552E+01  .553E+01  .554E+01  .555E+01  .556E+01  .556E+01  .557E+01
  .568E+01  .569E+01  .571E+01  .894E+01  .128E+02  .136E+02  .136E+02  .640E+01
  .167E+02  .169E+02  .124E+02  .928E+01  .912E+01  .914E+01  .125E+02  .125E+02
  .125E+02  .209E+02  .183E+02  .207E+02  .174E+02  .175E+02  .175E+02  .172E+02
  .282E+02  .282E+02  .283E+02  .130E+02  .137E+02  .191E+02  .220E+02  .132E+02
  .132E+02  .127E+02  .180E+02  .181E+02  .173E+02  .128E+02  .128E+02  .128E+02
  .128E+02  .128E+02  .128E+02  .265E+02  .181E+02  .181E+02  .181E+02  .128E+02
  .128E+02  .128E+02  .128E+02  .128E+02  .128E+02  .128E+02  .128E+02  .128E+02
  .128E+02  .128E+02  .128E+02  .128E+02  .128E+02  .128E+02  .128E+02  .128E+02
  .128E+02  .128E+02  .128E+02  .000E+00  .000E+00  .000E+00  .000E+00  .000E+00
  .000E+00  .000E+00  .000E+00  .000E+00
  .592E+01  .555E+01  .555E+01  .556E+01  .556E+01  .556E+01  .592E+01  .571E+01
  .596E+01  .597E+01  .597E+01  .598E+01  .598E+01  .598E+01  .598E+01  .599E+01
  .606E+01  .586E+01  .557E+01  .558E+01  .559E+01  .560E+01  .560E+01  .562E+01
  .611E+01  .604E+01  .576E+01  .539E+01  .891E+01  .135E+02  .141E+02  .647E+01
  .635E+01  .604E+01  .606E+01  .919E+01  .920E+01  .555E+01  .556E+01  .556E+01
  .124E+02  .208E+02  .181E+02  .179E+02  .173E+02  .173E+02  .173E+02  .174E+02
  .171E+02  .275E+02  .275E+02  .192E+02  .129E+02  .221E+02  .171E+02  .129E+02
  .129E+02  .129E+02  .547E+01  .547E+01  .171E+02  .547E+01  .523E+01  .523E+01
  .523E+01  .523E+01  .523E+01  .523E+01  .523E+01  .523E+01  .523E+01  .523E+01
  .523E+01  .523E+01  .523E+01  .523E+01  .523E+01  .523E+01  .523E+01  .523E+01
  .523E+01  .523E+01  .523E+01  .523E+01  .523E+01  .523E+01  .523E+01  .523E+01
  .523E+01  .523E+01  .523E+01  .000E+00  .000E+00  .000E+00  .000E+00  .000E+00
  .000E+00  .000E+00  .000E+00  .000E+00
  .553E+01  .553E+01  .553E+01  .554E+01  .554E+01  .554E+01  .594E+01  .551E+01
  .594E+01  .595E+01  .551E+01  .552E+01  .552E+01  .553E+01  .553E+01  .601E+01
  .603E+01  .552E+01  .553E+01  .554E+01  .555E+01  .555E+01  .556E+01  .557E+01
  .606E+01  .569E+01  .571E+01  .881E+01  .128E+02  .136E+02  .136E+02  .639E+01
  .167E+02  .169E+02  .124E+02  .927E+01  .911E+01  .913E+01  .125E+02  .125E+02
  .125E+02  .209E+02  .182E+02  .207E+02  .174E+02  .175E+02  .175E+02  .172E+02
  .282E+02  .282E+02  .283E+02  .130E+02  .137E+02  .191E+02  .219E+02  .132E+02
  .132E+02  .127E+02  .180E+02  .180E+02  .173E+02  .127E+02  .127E+02  .127E+02
  .127E+02  .127E+02  .127E+02  .127E+02  .180E+02  .180E+02  .180E+02  .127E+02
  .127E+02  .127E+02  .127E+02  .127E+02  .127E+02  .127E+02  .127E+02  .127E+02
  .127E+02  .127E+02  .127E+02  .127E+02  .127E+02  .127E+02  .127E+02  .127E+02
  .127E+02  .127E+02  .127E+02  .000E+00  .000E+00  .000E+00  .000E+00  .000E+00
  .000E+00  .000E+00  .000E+00  .000E+00
/&   ----------  End of spectral data for channel  1  ----------
Response and Fourier amplitude spectra (91 periods,  .04 - 15.0 sec)   for      
Corrected accelerogram   14935-L1775-01250.07       Chan  2:   0 Deg     from   
Uncorrected Accelerogram Data             Processed: 09/10/01, CDMG  am007      
Record of Sun Sep  9, 2001 16:59:22 PDT               (Avol1 v4.6  7/01 CSMIP)  
CSMIP Preliminary Processing            (Origin:  To be determined)             
14935-L1775-01250.07                 Start time:  9/09/01, 23:59:22.0 UTC (GPS) 
Station No. 14935   33.867N, 118.262W      Etna  s/n 1775  (3 Channels)         
Carson - Victoria & Avalon                                                      
Chan  2:   0 Deg                                                                
Record of Sun Sep  9, 2001 16:59:22 PDT    Sun Sep  9, 2001 16:59:22 PDT        
Hypocenter:  To be determined.               ML:  To be determined.             
Instr Period =  .0110 sec,  Damping =  .600,  Sensitivity =  .63  v/g           
                        Record length = 36.000 sec.                             
                                     Uncor Max  =  -.005 g, at   5.735 sec.     
RMS accel of (uncor) record  =        .                                         
Accelerogram bandpass filtered with 3 dB pts at   .30 and 40.00 cyc/sec         
                 instrument- and baseline-corrected                             
                                                                                
                                                                                
                                                                                
                                                                                
                                                                                
Record of Sun Sep  9, 2001 16:59:22 PDT    Sun Sep  9, 2001 16:59:22 PDT        
                                                                                
14935-L1775-01250.07      Carson - Victoria & Avalon    Chan  2:   0 Deg        
                                                                                
14935-L1775-01250.07      Carson - Victoria & Avalon    Chan  2:   0 Deg        
                                                                                
Units for spectra are inches and sec, except Sa is in fraction of g.            
                                                                                
    2  100    2    3    3  200    1    3    1   24   12 1775    014935    1    0
   23   59   22    0  252    9    9 2001   10    3    0 7200   39   26   72 -999
 7200    1   50    3 1775    1    7  360    1    0    0    0    0    0    0    0
    0    4    0    0 3600    2    0    0    0    0   72   26    0    0    0 3600
    0 3600   27   91    1    3    0    0    0    0    3    0    0    0    0    2
    2    2    4    0   32   99 -999   32   32    0    0    1    0    0    0    0
  -99   -1    0    0
      .011      .600    36.000      .001      .000   625.000     -.005     5.735
    91.000      .298      .477      .000     5.000      .000      .000      .000
     2.500   -38.791     -.021     -.027     5.000    30.000      .000      .003
     -.001     -.005     2.000    15.000    33.867  -118.262      .676      .460
      .680     -.094      .085  -999.000      .000      .000   -13.400      .000
  1000.000    -1.062      .000      .000      .000      .000      .000      .000
     4.600     4.400      .000   980.665      .010    36.000    14.483      .000
      .000    40.000      .000    36.000      .010      .300      .000      .000
     5.740    -4.616     4.380      .137    12.050     -.009      .000      .300
    40.000      .010      .010      .000      .010      .009      .000      .000
      .018      .180      .016      .011      .001      .000      .000      .000
      .000      .000      .000      .000      .000      .000      .000      .000
      .000      .000      .000      .000
      .050
      .040      .042      .044      .046      .048      .050      .055      .060
      .065      .070      .075      .080      .085      .090      .095      .100
      .110      .120      .130      .140      .150      .160      .170      .180
      .190      .200      .220      .240      .260      .280      .300      .320
      .340      .360      .380      .400      .420      .440      .460      .480
      .500      .550      .600      .650      .700      .750      .800      .850
      .900      .950     1.000     1.100     1.200     1.300     1.400     1.500
     1.600     1.700     1.800     1.900     2.000     2.200     2.400     2.600
     2.800     3.000     3.200     3.400     3.600     3.800     4.000     4.200
     4.400     4.600     4.800     5.000     5.500     6.000     6.500     7.000
     7.500     8.000     8.500     9.000     9.500    10.000    11.000    12.000
    13.000    14.000    15.000      .000      .000      .000      .000      .000
      .000      .000      .000      .000
Fourier amplitude spectra in in/sec.
  .000E+00  .000E+00  .000E+00  .000E+00  .000E+00  .000E+00  .000E+00  .000E+00
  .000E+00  .000E+00  .000E+00  .000E+00  .000E+00  .000E+00  .000E+00  .000E+00
  .000E+00  .000E+00  .000E+00  .000E+00  .000E+00  .000E+00  .000E+00  .000E+00
  .000E+00  .000E+00  .000E+00  .000E+00  .000E+00  .000E+00  .000E+00  .000E+00
  .000E+00  .000E+00  .000E+00  .000E+00  .000E+00  .000E+00  .000E+00  .000E+00
  .000E+00  .000E+00  .000E+00  .000E+00  .000E+00  .000E+00  .000E+00  .000E+00
  .000E+00  .000E+00  .000E+00  .000E+00  .000E+00  .000E+00  .000E+00  .000E+00
  .000E+00  .000E+00  .000E+00  .000E+00  .000E+00  .000E+00  .000E+00  .000E+00
  .000E+00  .000E+00  .000E+00  .000E+00  .000E+00  .000E+00  .000E+00  .000E+00
  .000E+00  .000E+00  .000E+00  .000E+00  .000E+00  .000E+00  .000E+00  .000E+00
  .000E+00  .000E+00  .000E+00  .000E+00  .000E+00  .000E+00  .000E+00  .000E+00
  .000E+00  .000E+00  .000E+00  .000E+00  .000E+00  .000E+00  .000E+00  .000E+00
  .000E+00  .000E+00  .000E+00  .000E+00
Damping =  .05. Data of Sd,Sv,Sa,Pssv,ttSd,ttSv,ttSa :
  .103E-03  .114E-03  .135E-03  .162E-03  .183E-03  .205E-03  .257E-03  .302E-03
  .383E-03  .355E-03  .365E-03  .501E-03  .712E-03  .774E-03  .808E-03  .887E-03
  .135E-02  .188E-02  .260E-02  .338E-02  .344E-02  .413E-02  .450E-02  .573E-02
  .602E-02  .596E-02  .661E-02  .603E-02  .702E-02  .911E-02  .940E-02  .926E-02
  .864E-02  .867E-02  .820E-02  .914E-02  .779E-02  .789E-02  .853E-02  .911E-02
