Response and Fourier amplitude spectra (91 periods,  .04 - 15.0 sec)   for      
Corrected accelerogram   24021-L1826-01252.07       Chan  1:   0 Deg     from   
Uncorrected Accelerogram Data             Processed: 09/10/01, CDMG  021an007   
Record of Sun Sep  9, 2001 17:00:06 PDT               (Avol1 v4.6  7/01 CSMIP)  
CSMIP Preliminary Processing            (Origin:  To be determined)             
24021-L1826-01252.07                 Start time:  9/10/01, 00:00:06.0 UTC (GPS) 
Station No. 24021   34.174N, 118.200W      Etna  s/n 1826  (3 Channels)         
Glendale - Chevy Chase & Linda Vista                                            
Chan  1:   0 Deg                                                                
Record of Sun Sep  9, 2001 17:00:06 PDT    Sun Sep  9, 2001 17:00:06 PDT        
Hypocenter:  To be determined.               ML:  To be determined.             
Instr Period =  .0104 sec,  Damping =  .680,  Sensitivity =  .63  v/g           
                        Record length = 38.000 sec.                             
                                     Uncor Max  =  -.015 g, at   5.980 sec.     
RMS accel of (uncor) record  =        .                                         
Accelerogram bandpass filtered with 3 dB pts at   .30 and 40.00 cyc/sec         
                 instrument- and baseline-corrected                             
                                                                                
                                                                                
                                                                                
                                                                                
                                                                                
Record of Sun Sep  9, 2001 17:00:06 PDT    Sun Sep  9, 2001 17:00:06 PDT        
                                                                                
24021-L1826-01252.07      Glendale - Chevy Chase & Linda Vista    Chan  1:   0 D
eg                                                                              
24021-L1826-01252.07      Glendale - Chevy Chase & Linda Vista    Chan  1:   0 D
eg                                                                              
Units for spectra are inches and sec, except Sa is in fraction of g.            
                                                                                
    1  100    1    3    3  200    1    3    1   24   12 1826    024021    1    0
    0    0    6    0  253    9   10 2001   10    3    0 7600   39   36   72 -999
 7600    1   50    3 1826    1    7  380    1    0    0    0    0    0    0    0
    0    4    0    0 3800    2    0    0    0    0   72   36    0    0    0 3800
    0 3800   37   91    1    3    0    0    0    0    3    0    0    0    0    2
    2    2    4    0   32   99 -999   32   32    0    0    1    0    0    0    0
  -99   -1    0    0
      .010      .680    38.000      .001      .000   625.000     -.015     5.980
    95.800      .298      .477      .000     5.000      .000      .000      .000
     2.500     5.274      .013     -.006     5.000    30.000      .000     -.001
      .001      .001     2.000    15.000    34.174  -118.200      .013      .163
    12.249     -.007      .009  -999.000      .000      .000   -13.500      .000
  1000.000    -1.012      .000      .000      .000      .000      .000      .000
     4.600     4.400      .000   980.665      .010    38.000    15.247      .000
      .000    40.000      .000    38.000      .010      .300      .000      .000
     5.980   -15.026     6.030     -.436     5.970      .017      .000      .300
    40.000      .010      .010      .000      .010      .007      .000      .000
      .070      .180      .055      .022      .001      .000      .000      .000
      .000      .000      .000      .000      .000      .000      .000      .000
      .000      .000      .000      .000
      .050
      .040      .042      .044      .046      .048      .050      .055      .060
      .065      .070      .075      .080      .085      .090      .095      .100
      .110      .120      .130      .140      .150      .160      .170      .180
      .190      .200      .220      .240      .260      .280      .300      .320
      .340      .360      .380      .400      .420      .440      .460      .480
      .500      .550      .600      .650      .700      .750      .800      .850
      .900      .950     1.000     1.100     1.200     1.300     1.400     1.500
     1.600     1.700     1.800     1.900     2.000     2.200     2.400     2.600
     2.800     3.000     3.200     3.400     3.600     3.800     4.000     4.200
     4.400     4.600     4.800     5.000     5.500     6.000     6.500     7.000
     7.500     8.000     8.500     9.000     9.500    10.000    11.000    12.000
    13.000    14.000    15.000      .000      .000      .000      .000      .000
      .000      .000      .000      .000
Fourier amplitude spectra in in/sec.
  .000E+00  .000E+00  .000E+00  .000E+00  .000E+00  .000E+00  .000E+00  .000E+00
  .000E+00  .000E+00  .000E+00  .000E+00  .000E+00  .000E+00  .000E+00  .000E+00
  .000E+00  .000E+00  .000E+00  .000E+00  .000E+00  .000E+00  .000E+00  .000E+00
  .000E+00  .000E+00  .000E+00  .000E+00  .000E+00  .000E+00  .000E+00  .000E+00
  .000E+00  .000E+00  .000E+00  .000E+00  .000E+00  .000E+00  .000E+00  .000E+00
  .000E+00  .000E+00  .000E+00  .000E+00  .000E+00  .000E+00  .000E+00  .000E+00
  .000E+00  .000E+00  .000E+00  .000E+00  .000E+00  .000E+00  .000E+00  .000E+00
  .000E+00  .000E+00  .000E+00  .000E+00  .000E+00  .000E+00  .000E+00  .000E+00
  .000E+00  .000E+00  .000E+00  .000E+00  .000E+00  .000E+00  .000E+00  .000E+00
  .000E+00  .000E+00  .000E+00  .000E+00  .000E+00  .000E+00  .000E+00  .000E+00
  .000E+00  .000E+00  .000E+00  .000E+00  .000E+00  .000E+00  .000E+00  .000E+00
  .000E+00  .000E+00  .000E+00  .000E+00  .000E+00  .000E+00  .000E+00  .000E+00
  .000E+00  .000E+00  .000E+00  .000E+00
Damping =  .05. Data of Sd,Sv,Sa,Pssv,ttSd,ttSv,ttSa :
  .323E-03  .367E-03  .400E-03  .464E-03  .553E-03  .632E-03  .804E-03  .964E-03
  .128E-02  .126E-02  .126E-02  .149E-02  .183E-02  .161E-02  .169E-02  .198E-02
  .319E-02  .424E-02  .577E-02  .987E-02  .127E-01  .147E-01  .192E-01  .219E-01
  .221E-01  .218E-01  .219E-01  .198E-01  .199E-01  .197E-01  .190E-01  .185E-01
  .194E-01  .189E-01  .177E-01  .159E-01  .146E-01  .144E-01  .141E-01  .127E-01
  .116E-01  .970E-02  .107E-01  .940E-02  .779E-02  .836E-02  .963E-02  .978E-02
  .954E-02  .954E-02  .944E-02  .832E-02  .732E-02  .796E-02  .851E-02  .870E-02
  .853E-02  .824E-02  .807E-02  .810E-02  .829E-02  .878E-02  .895E-02  .870E-02
  .819E-02  .763E-02  .713E-02  .675E-02  .648E-02  .631E-02  .622E-02  .617E-02
  .615E-02  .614E-02  .615E-02  .616E-02  .618E-02  .618E-02  .618E-02  .617E-02
  .615E-02  .615E-02  .615E-02  .614E-02  .615E-02  .614E-02  .615E-02  .617E-02
  .617E-02  .619E-02  .623E-02  .000E+00  .000E+00  .000E+00  .000E+00  .000E+00
  .000E+00  .000E+00  .000E+00  .000E+00
  .189E-01  .246E-01  .289E-01  .357E-01  .402E-01  .430E-01  .491E-01  .580E-01
  .854E-01  .886E-01  .898E-01  .980E-01  .105E+00  .904E-01  .864E-01  .978E-01
  .145E+00  .169E+00  .247E+00  .420E+00  .511E+00  .570E+00  .724E+00  .806E+00
  .788E+00  .743E+00  .671E+00  .592E+00  .533E+00  .501E+00  .487E+00  .454E+00
  .426E+00  .397E+00  .390E+00  .372E+00  .329E+00  .309E+00  .280E+00  .259E+00
  .250E+00  .229E+00  .214E+00  .177E+00  .170E+00  .170E+00  .179E+00  .187E+00
  .189E+00  .191E+00  .194E+00  .196E+00  .193E+00  .191E+00  .187E+00  .183E+00
  .180E+00  .178E+00  .177E+00  .177E+00  .177E+00  .175E+00  .173E+00  .170E+00
  .169E+00  .168E+00  .168E+00  .168E+00  .169E+00  .169E+00  .169E+00  .170E+00
  .170E+00  .170E+00  .170E+00  .170E+00  .170E+00  .170E+00  .170E+00  .170E+00
  .170E+00  .170E+00  .170E+00  .170E+00  .170E+00  .170E+00  .170E+00  .170E+00
  .170E+00  .171E+00  .171E+00  .000E+00  .000E+00  .000E+00  .000E+00  .000E+00
  .000E+00  .000E+00  .000E+00  .000E+00
  .207E-01  .213E-01  .211E-01  .226E-01  .247E-01  .259E-01  .272E-01  .274E-01
  .314E-01  .263E-01  .229E-01  .241E-01  .261E-01  .205E-01  .192E-01  .203E-01
  .268E-01  .300E-01  .351E-01  .519E-01  .572E-01  .584E-01  .683E-01  .701E-01
  .634E-01  .562E-01  .461E-01  .350E-01  .302E-01  .260E-01  .219E-01  .187E-01
  .173E-01  .151E-01  .126E-01  .103E-01  .857E-02  .771E-02  .687E-02  .572E-02
  .486E-02  .333E-02  .308E-02  .231E-02  .166E-02  .160E-02  .161E-02  .145E-02
  .127E-02  .115E-02  .103E-02  .773E-03  .584E-03  .527E-03  .490E-03  .442E-03
  .387E-03  .337E-03  .300E-03  .274E-03  .256E-03  .228E-03  .200E-03  .171E-03
  .145E-03  .125E-03  .108E-03  .963E-04  .920E-04  .875E-04  .828E-04  .783E-04
  .741E-04  .702E-04  .666E-04  .634E-04  .569E-04  .517E-04  .473E-04  .436E-04
  .405E-04  .377E-04  .353E-04  .332E-04  .313E-04  .297E-04  .268E-04  .244E-04
  .224E-04  .207E-04  .193E-04  .000E+00  .000E+00  .000E+00  .000E+00  .000E+00
  .000E+00  .000E+00  .000E+00  .000E+00
  .507E-01  .549E-01  .571E-01  .633E-01  .724E-01  .794E-01  .918E-01  .101E+00
  .124E+00  .113E+00  .106E+00  .117E+00  .136E+00  .112E+00  .112E+00  .125E+00
  .182E+00  .222E+00  .279E+00  .443E+00  .532E+00  .576E+00  .710E+00  .766E+00
  .731E+00  .685E+00  .625E+00  .517E+00  .481E+00  .443E+00  .398E+00  .363E+00
  .359E+00  .329E+00  .293E+00  .250E+00  .218E+00  .205E+00  .192E+00  .166E+00
  .146E+00  .111E+00  .112E+00  .908E-01  .700E-01  .700E-01  .756E-01  .723E-01
  .666E-01  .631E-01  .593E-01  .475E-01  .383E-01  .385E-01  .382E-01  .365E-01
  .335E-01  .305E-01  .282E-01  .268E-01  .261E-01  .251E-01  .234E-01  .210E-01
  .184E-01  .160E-01  .140E-01  .125E-01  .113E-01  .104E-01  .976E-02  .922E-02
  .878E-02  .839E-02  .805E-02  .774E-02  .705E-02  .647E-02  .597E-02  .554E-02
  .516E-02  .483E-02  .455E-02  .428E-02  .407E-02  .386E-02  .351E-02  .323E-02
  .298E-02  .278E-02  .261E-02  .000E+00  .000E+00  .000E+00  .000E+00  .000E+00
  .000E+00  .000E+00  .000E+00  .000E+00
  .598E+01  .598E+01  .598E+01  .606E+01  .606E+01  .607E+01  .607E+01  .607E+01
  .609E+01  .599E+01  .594E+01  .595E+01  .625E+01  .609E+01  .597E+01  .625E+01
  .632E+01  .607E+01  .609E+01  .641E+01  .658E+01  .667E+01  .644E+01  .637E+01
  .638E+01  .621E+01  .623E+01  .614E+01  .615E+01  .616E+01  .617E+01  .605E+01
  .606E+01  .607E+01  .607E+01  .595E+01  .595E+01  .596E+01  .596E+01  .596E+01
  .596E+01  .583E+01  .583E+01  .585E+01  .585E+01  .607E+01  .607E+01  .607E+01
  .607E+01  .607E+01  .607E+01  .607E+01  .596E+01  .596E+01  .596E+01  .596E+01
  .596E+01  .596E+01  .596E+01  .596E+01  .596E+01  .596E+01  .596E+01  .596E+01
  .596E+01  .596E+01  .596E+01  .596E+01  .596E+01  .596E+01  .596E+01  .596E+01
  .596E+01  .596E+01  .596E+01  .596E+01  .596E+01  .596E+01  .596E+01  .596E+01
  .596E+01  .596E+01  .596E+01  .596E+01  .596E+01  .596E+01  .596E+01  .596E+01
  .596E+01  .596E+01  .596E+01  .000E+00  .000E+00  .000E+00  .000E+00  .000E+00
  .000E+00  .000E+00  .000E+00  .000E+00
  .599E+01  .599E+01  .604E+01  .605E+01  .605E+01  .605E+01  .605E+01  .579E+01
  .610E+01  .601E+01  .592E+01  .592E+01  .628E+01  .612E+01  .628E+01  .628E+01
  .628E+01  .644E+01  .612E+01  .645E+01  .654E+01  .663E+01  .656E+01  .641E+01
  .634E+01  .626E+01  .618E+01  .619E+01  .620E+01  .610E+01  .610E+01  .611E+01
  .612E+01  .600E+01  .601E+01  .602E+01  .602E+01  .602E+01  .602E+01  .590E+01
  .590E+01  .590E+01  .590E+01  .591E+01  .602E+01  .602E+01  .602E+01  .602E+01
  .602E+01  .602E+01  .602E+01  .602E+01  .602E+01  .602E+01  .602E+01  .602E+01
  .602E+01  .602E+01  .602E+01  .602E+01  .602E+01  .602E+01  .602E+01  .602E+01
  .602E+01  .602E+01  .602E+01  .602E+01  .602E+01  .602E+01  .602E+01  .602E+01
  .602E+01  .602E+01  .602E+01  .602E+01  .602E+01  .602E+01  .602E+01  .602E+01
  .602E+01  .602E+01  .602E+01  .602E+01  .602E+01  .602E+01  .602E+01  .602E+01
  .602E+01  .602E+01  .602E+01  .000E+00  .000E+00  .000E+00  .000E+00  .000E+00
  .000E+00  .000E+00  .000E+00  .000E+00
  .598E+01  .598E+01  .598E+01  .606E+01  .606E+01  .607E+01  .607E+01  .607E+01
  .608E+01  .599E+01  .594E+01  .594E+01  .625E+01  .609E+01  .597E+01  .624E+01
  .632E+01  .607E+01  .616E+01  .648E+01  .665E+01  .667E+01  .652E+01  .645E+01
  .629E+01  .621E+01  .623E+01  .614E+01  .614E+01  .615E+01  .616E+01  .605E+01
  .605E+01  .606E+01  .606E+01  .594E+01  .595E+01  .595E+01  .595E+01  .596E+01
  .596E+01  .582E+01  .582E+01  .584E+01  .605E+01  .605E+01  .605E+01  .606E+01
  .606E+01  .606E+01  .606E+01  .606E+01  .605E+01  .594E+01  .594E+01  .594E+01
  .594E+01  .594E+01  .594E+01  .594E+01  .594E+01  .594E+01  .594E+01  .594E+01
  .593E+01  .593E+01  .593E+01  .604E+01  .604E+01  .604E+01  .604E+01  .604E+01
  .604E+01  .604E+01  .604E+01  .603E+01  .603E+01  .603E+01  .603E+01  .603E+01
  .603E+01  .603E+01  .603E+01  .603E+01  .603E+01  .603E+01  .603E+01  .603E+01
  .603E+01  .603E+01  .603E+01  .000E+00  .000E+00  .000E+00  .000E+00  .000E+00
  .000E+00  .000E+00  .000E+00  .000E+00
/&   ----------  End of spectral data for channel  1  ----------
Response and Fourier amplitude spectra (91 periods,  .04 - 15.0 sec)   for      
Corrected accelerogram   24021-L1826-01252.07       Chan  2:   0 Deg     from   
Uncorrected Accelerogram Data             Processed: 09/10/01, CDMG  021an007   
Record of Sun Sep  9, 2001 17:00:06 PDT               (Avol1 v4.6  7/01 CSMIP)  
CSMIP Preliminary Processing            (Origin:  To be determined)             
24021-L1826-01252.07                 Start time:  9/10/01, 00:00:06.0 UTC (GPS) 
Station No. 24021   34.174N, 118.200W      Etna  s/n 1826  (3 Channels)         
Glendale - Chevy Chase & Linda Vista                                            
Chan  2:   0 Deg                                                                
Record of Sun Sep  9, 2001 17:00:06 PDT    Sun Sep  9, 2001 17:00:06 PDT        
Hypocenter:  To be determined.               ML:  To be determined.             
Instr Period =  .0103 sec,  Damping =  .680,  Sensitivity =  .63  v/g           
                        Record length = 38.000 sec.                             
                                     Uncor Max  =  -.008 g, at   5.580 sec.     
RMS accel of (uncor) record  =        .                                         
Accelerogram bandpass filtered with 3 dB pts at   .30 and 40.00 cyc/sec         
                 instrument- and baseline-corrected                             
                                                                                
                                                                                
                                                                                
                                                                                
                                                                                
Record of Sun Sep  9, 2001 17:00:06 PDT    Sun Sep  9, 2001 17:00:06 PDT        
                                                                                
24021-L1826-01252.07      Glendale - Chevy Chase & Linda Vista    Chan  2:   0 D
eg                                                                              
24021-L1826-01252.07      Glendale - Chevy Chase & Linda Vista    Chan  2:   0 D
eg                                                                              
Units for spectra are inches and sec, except Sa is in fraction of g.            
                                                                                
    2  100    2    3    3  200    1    3    1   24   12 1826    024021    1    0
    0    0    6    0  253    9   10 2001   10    3    0 7600   39   36   72 -999
 7600    1   50    3 1826    1    7  380    1    0    0    0    0    0    0    0
    0    4    0    0 3800    2    0    0    0    0   72   36    0    0    0 3800
    0 3800   37   91    1    3    0    0    0    0    3    0    0    0    0    2
    2    2    4    0   32   99 -999   32   32    0    0    1    0    0    0    0
  -99   -1    0    0
      .010      .680    38.000      .001      .000   625.000     -.008     5.580
    96.700      .298      .477      .000     5.000      .000      .000      .000
     2.500    -9.204      .000     -.011     5.000    30.000      .000      .000
      .001      .001     2.000    15.000    34.174  -118.200      .013      .076
     5.811     -.003      .005  -999.000      .000      .000   -13.500      .000
  1000.000    -1.002      .000      .000      .000      .000      .000      .000
     4.600     4.400      .000   980.665      .010    38.000    15.390      .000
      .000    40.000      .000    38.000      .010      .300      .000      .000
     5.580    -8.314     6.370     -.151     6.080     -.006      .000      .300
    40.000      .010      .010      .000      .010      .003      .000      .000
      .039      .100      .013      .006      .000      .000      .000      .000
      .000      .000      .000      .000      .000      .000      .000      .000
      .000      .000      .000      .000
      .050
      .040      .042      .044      .046      .048      .050      .055      .060
      .065      .070      .075      .080      .085      .090      .095      .100
      .110      .120      .130      .140      .150      .160      .170      .180
      .190      .200      .220      .240      .260      .280      .300      .320
      .340      .360      .380      .400      .420      .440      .460      .480
      .500      .550      .600      .650      .700      .750      .800      .850
      .900      .950     1.000     1.100     1.200     1.300     1.400     1.500
     1.600     1.700     1.800     1.900     2.000     2.200     2.400     2.600
     2.800     3.000     3.200     3.400     3.600     3.800     4.000     4.200
     4.400     4.600     4.800     5.000     5.500     6.000     6.500     7.000
     7.500     8.000     8.500     9.000     9.500    10.000    11.000    12.000
    13.000    14.000    15.000      .000      .000      .000      .000      .000
      .000      .000      .000      .000
Fourier amplitude spectra in in/sec.
  .000E+00  .000E+00  .000E+00  .000E+00  .000E+00  .000E+00  .000E+00  .000E+00
  .000E+00  .000E+00  .000E+00  .000E+00  .000E+00  .000E+00  .000E+00  .000E+00
  .000E+00  .000E+00  .000E+00  .000E+00  .000E+00  .000E+00  .000E+00  .000E+00
  .000E+00  .000E+00  .000E+00  .000E+00  .000E+00  .000E+00  .000E+00  .000E+00
  .000E+00  .000E+00  .000E+00  .000E+00  .000E+00  .000E+00  .000E+00  .000E+00
  .000E+00  .000E+00  .000E+00  .000E+00  .000E+00  .000E+00  .000E+00  .000E+00
  .000E+00  .000E+00  .000E+00  .000E+00  .000E+00  .000E+00  .000E+00  .000E+00
  .000E+00  .000E+00  .000E+00  .000E+00  .000E+00  .000E+00  .000E+00  .000E+00
  .000E+00  .000E+00  .000E+00  .000E+00  .000E+00  .000E+00  .000E+00  .000E+00
  .000E+00  .000E+00  .000E+00  .000E+00  .000E+00  .000E+00  .000E+00  .000E+00
  .000E+00  .000E+00  .000E+00  .000E+00  .000E+00  .000E+00  .000E+00  .000E+00
  .000E+00  .000E+00  .000E+00  .000E+00  .000E+00  .000E+00  .000E+00  .000E+00
  .000E+00  .000E+00  .000E+00  .000E+00
Damping =  .05. Data of Sd,Sv,Sa,Pssv,ttSd,ttSv,ttSa :
  .212E-03  .233E-03  .264E-03  .295E-03  .354E-03  .449E-03  .714E-03  .770E-03
  .947E-03  .119E-02  .155E-02  .192E-02  .248E-02  .262E-02  .339E-02  .375E-02
  .399E-02  .343E-02  .363E-02  .312E-02  .328E-02  .441E-02  .562E-02  .606E-02
  .632E-02  .557E-02  .382E-02  .324E-02  .412E-02  .516E-02  .492E-02  .557E-02
  .641E-02  .616E-02  .512E-02  .476E-02  .378E-02  .337E-02  .305E-02  .271E-02
