Response and Fourier amplitude spectra (78 periods,  .04 -  6.0 sec)   for      
Corrected accelerogram   13884-O0529-20263.08       Chan  1:  Up         from   
Uncorrected Accelerogram Data             Processed: 09/19/20, CGS  ce13884h    
Rcrd of Fri Sep 18, 2020 23:38:29.0 PDT               (Avol1 v2.0, 4/18 CSMIP)  
CSMIP Preliminary Processing            (Origin:  To be determined)             
13884-O0529-20263.08                 Start time:  9/19/20, 06:38:29.0 UTC (GPS) 
Station No. 13884   33.767N, 117.918W    Obsidn  s/n  529  (3 Chns of  3 at Sta)
Garden Grove - Hwy 22 & Harbor Blvd       CGS   Data: Acceleration              
Chan  1:  Up                                                                    
Rcrd of Fri Sep 18, 2020 23:38:29.0 PDT    Fri Sep 18, 2020 23:38:29.0 PDT      
Hypocenter:  To be determined.               ML:  To be determined.             
Instr Period =  .0049 sec,  Damping =  .700,  Sensitivity = 1.25 v/g            
                        Record Length = 62.000 sec.                             
                                     Uncor Max  =  -.010 g, at   25.490 sec.    
RMS accel of (uncor) record  =        .   Chn. metadata effective date: 03/20/18
Accelerogram bandpass filtered with 3 dB pts at   .30 and 40.00 cyc/sec         
                 instrument- and base-line correcte                             
                                                                                
                                                                                
                                                                                
                                                                                
                                                                                
Rcrd of Fri Sep 18, 2020 23:38:29.0 PDT    Fri Sep 18, 2020 23:38:29.0 PDT      
                                                                                
13884-O0529-20263.08      Garden Grove - Hwy 22 & Harbor Blvd   Chan  1:  Up    
                                                                                
13884-O0529-20263.08      Garden Grove - Hwy 22 & Harbor Blvd   Chan  1:  Up    
                                                                                
Units for spectra are inches and sec, except Sa is in fraction of g.            
                                                                                
    1  100    1    3    3  200    1    3    1   24   32  529    013884   11    0
    6   38   29    0  263    9   19 2020   10    3  50012400   39   35   74  360
12400    1  100    3  529    1    8  620    2 -999 -999 -999 -999 -999 -999 -999
 -999 -999    3 -99912400    1  202    0   24   20 -999 -999    3    1 -99912400
    312400    4   78    1    3    5    0    0 -999    0    0    1    3    1    2
    2    2    4    0   32   67    0    5 -999    0    0    1    0    0    0  222
    1    0    2    0
      .005      .700    62.000      .001     1.000  1252.000     -.010    25.490
   206.000      .596      .476  -999.000     5.000  -999.000     4.000  -999.000
     5.000   -11.527     5.000  -999.000    30.000    30.000  -999.000      .001
      .005      .005     2.000    15.000    33.767  -117.918      .079      .187
     2.381     -.012      .022    28.000    31.000    32.900    13.300    96.800
     1.000    11.003    -8.000  -999.000  -999.000  -999.000  -999.000  -999.000
     6.900     2.000     6.800   980.665      .005    62.000    32.786      .000
  -999.000    40.000  -999.000    62.000      .005      .300  -999.000  -999.000
    25.490    -9.762    25.185      .214    50.655      .012      .000      .300
    40.000      .005      .005      .000      .005      .008  -999.000  -999.000
      .055      .075      .012      .010      .001      .000  -999.000  -999.000
  -999.000  -999.000  -999.000  -999.000  -999.000  -999.000  -999.000  -999.000
  -999.000  -999.000  -999.000  -999.000
      .050
      .040      .042      .044      .046      .048      .050      .055      .060
      .065      .070      .075      .080      .085      .090      .095      .100
      .110      .120      .130      .140      .150      .160      .170      .180
      .190      .200      .220      .240      .260      .280      .300      .320
      .340      .360      .380      .400      .420      .440      .460      .480
      .500      .550      .600      .650      .700      .750      .800      .850
      .900      .950     1.000     1.100     1.200     1.300     1.400     1.500
     1.600     1.700     1.800     1.900     2.000     2.200     2.400     2.600
     2.800     3.000     3.200     3.400     3.600     3.800     4.000     4.200
     4.400     4.600     4.800     5.000     5.500     6.000      .000      .000
      .000      .000      .000      .000      .000      .000      .000      .000
      .000      .000      .000      .000      .000      .000      .000      .000
      .000      .000      .000      .000
Fourier amplitude spectra in in/sec.
  .000E+00  .000E+00  .000E+00  .000E+00  .000E+00  .000E+00  .000E+00  .000E+00
  .000E+00  .000E+00  .000E+00  .000E+00  .000E+00  .000E+00  .000E+00  .000E+00
  .000E+00  .000E+00  .000E+00  .000E+00  .000E+00  .000E+00  .000E+00  .000E+00
  .000E+00  .000E+00  .000E+00  .000E+00  .000E+00  .000E+00  .000E+00  .000E+00
  .000E+00  .000E+00  .000E+00  .000E+00  .000E+00  .000E+00  .000E+00  .000E+00
  .000E+00  .000E+00  .000E+00  .000E+00  .000E+00  .000E+00  .000E+00  .000E+00
  .000E+00  .000E+00  .000E+00  .000E+00  .000E+00  .000E+00  .000E+00  .000E+00
  .000E+00  .000E+00  .000E+00  .000E+00  .000E+00  .000E+00  .000E+00  .000E+00
  .000E+00  .000E+00  .000E+00  .000E+00  .000E+00  .000E+00  .000E+00  .000E+00
  .000E+00  .000E+00  .000E+00  .000E+00  .000E+00  .000E+00  .000E+00  .000E+00
  .000E+00  .000E+00  .000E+00  .000E+00  .000E+00  .000E+00  .000E+00  .000E+00
  .000E+00  .000E+00  .000E+00  .000E+00  .000E+00  .000E+00  .000E+00  .000E+00
  .000E+00  .000E+00  .000E+00  .000E+00
Damping =  .05. Data of Sd,Sv,Sa,Pssv,ttSd,ttSv,ttSa :
  .270E-03  .287E-03  .300E-03  .357E-03  .400E-03  .449E-03  .624E-03  .941E-03
  .151E-02  .242E-02  .299E-02  .318E-02  .350E-02  .385E-02  .364E-02  .368E-02
  .321E-02  .371E-02  .349E-02  .371E-02  .423E-02  .422E-02  .428E-02  .411E-02
  .457E-02  .481E-02  .560E-02  .699E-02  .790E-02  .903E-02  .901E-02  .871E-02
  .862E-02  .809E-02  .732E-02  .655E-02  .620E-02  .583E-02  .540E-02  .499E-02
  .526E-02  .646E-02  .504E-02  .542E-02  .579E-02  .792E-02  .620E-02  .518E-02
  .467E-02  .405E-02  .484E-02  .719E-02  .121E-01  .118E-01  .113E-01  .137E-01
  .182E-01  .184E-01  .168E-01  .167E-01  .145E-01  .106E-01  .897E-02  .814E-02
  .792E-02  .798E-02  .753E-02  .916E-02  .884E-02  .804E-02  .676E-02  .654E-02
  .621E-02  .585E-02  .551E-02  .514E-02  .507E-02  .535E-02  .000E+00  .000E+00
  .000E+00  .000E+00  .000E+00  .000E+00  .000E+00  .000E+00  .000E+00  .000E+00
  .000E+00  .000E+00  .000E+00  .000E+00  .000E+00  .000E+00  .000E+00  .000E+00
  .000E+00  .000E+00  .000E+00  .000E+00
  .239E-01  .287E-01  .314E-01  .345E-01  .354E-01  .388E-01  .507E-01  .774E-01
  .127E+00  .200E+00  .238E+00  .241E+00  .247E+00  .271E+00  .248E+00  .244E+00
  .186E+00  .226E+00  .185E+00  .177E+00  .188E+00  .183E+00  .162E+00  .161E+00
  .159E+00  .176E+00  .191E+00  .209E+00  .223E+00  .230E+00  .205E+00  .217E+00
  .207E+00  .184E+00  .182E+00  .177E+00  .168E+00  .157E+00  .145E+00  .134E+00
  .123E+00  .103E+00  .919E-01  .851E-01  .829E-01  .829E-01  .840E-01  .856E-01
  .872E-01  .888E-01  .900E-01  .921E-01  .933E-01  .939E-01  .941E-01  .939E-01
  .934E-01  .929E-01  .924E-01  .919E-01  .914E-01  .903E-01  .891E-01  .882E-01
  .877E-01  .870E-01  .863E-01  .859E-01  .855E-01  .852E-01  .850E-01  .848E-01
  .847E-01  .846E-01  .845E-01  .843E-01  .841E-01  .840E-01  .000E+00  .000E+00
  .000E+00  .000E+00  .000E+00  .000E+00  .000E+00  .000E+00  .000E+00  .000E+00
  .000E+00  .000E+00  .000E+00  .000E+00  .000E+00  .000E+00  .000E+00  .000E+00
  .000E+00  .000E+00  .000E+00  .000E+00
  .173E-01  .167E-01  .158E-01  .173E-01  .178E-01  .185E-01  .210E-01  .270E-01
  .370E-01  .505E-01  .547E-01  .506E-01  .501E-01  .484E-01  .415E-01  .378E-01
  .274E-01  .266E-01  .211E-01  .196E-01  .193E-01  .169E-01  .153E-01  .130E-01
  .130E-01  .124E-01  .119E-01  .125E-01  .120E-01  .119E-01  .103E-01  .879E-02
  .771E-02  .643E-02  .521E-02  .420E-02  .364E-02  .312E-02  .265E-02  .222E-02
  .216E-02  .221E-02  .144E-02  .132E-02  .121E-02  .146E-02  .996E-03  .737E-03
  .595E-03  .463E-03  .518E-03  .612E-03  .867E-03  .717E-03  .594E-03  .629E-03
  .735E-03  .652E-03  .534E-03  .476E-03  .377E-03  .226E-03  .161E-03  .126E-03
  .106E-03  .939E-04  .781E-04  .840E-04  .732E-04  .604E-04  .466E-04  .392E-04
  .359E-04  .338E-04  .319E-04  .301E-04  .263E-04  .232E-04  .000E+00  .000E+00
  .000E+00  .000E+00  .000E+00  .000E+00  .000E+00  .000E+00  .000E+00  .000E+00
  .000E+00  .000E+00  .000E+00  .000E+00  .000E+00  .000E+00  .000E+00  .000E+00
  .000E+00  .000E+00  .000E+00  .000E+00
  .423E-01  .429E-01  .428E-01  .487E-01  .524E-01  .564E-01  .713E-01  .986E-01
  .146E+00  .218E+00  .250E+00  .250E+00  .258E+00  .269E+00  .241E+00  .231E+00
  .184E+00  .194E+00  .169E+00  .167E+00  .177E+00  .166E+00  .158E+00  .144E+00
  .151E+00  .151E+00  .160E+00  .183E+00  .191E+00  .203E+00  .189E+00  .171E+00
  .159E+00  .141E+00  .121E+00  .103E+00  .928E-01  .833E-01  .738E-01  .653E-01
  .661E-01  .738E-01  .528E-01  .524E-01  .520E-01  .664E-01  .487E-01  .383E-01
  .326E-01  .268E-01  .304E-01  .411E-01  .635E-01  .570E-01  .506E-01  .575E-01
  .716E-01  .679E-01  .585E-01  .552E-01  .457E-01  .303E-01  .235E-01  .197E-01
  .178E-01  .167E-01  .148E-01  .169E-01  .154E-01  .133E-01  .106E-01  .978E-02
  .887E-02  .799E-02  .721E-02  .646E-02  .580E-02  .560E-02  .000E+00  .000E+00
  .000E+00  .000E+00  .000E+00  .000E+00  .000E+00  .000E+00  .000E+00  .000E+00
  .000E+00  .000E+00  .000E+00  .000E+00  .000E+00  .000E+00  .000E+00  .000E+00
  .000E+00  .000E+00  .000E+00  .000E+00
  .255E+02  .255E+02  .255E+02  .255E+02  .255E+02  .255E+02  .255E+02  .255E+02
  .255E+02  .256E+02  .256E+02  .253E+02  .252E+02  .256E+02  .256E+02  .256E+02
  .252E+02  .256E+02  .302E+02  .302E+02  .302E+02  .300E+02  .292E+02  .292E+02
  .314E+02  .254E+02  .254E+02  .255E+02  .253E+02  .253E+02  .253E+02  .252E+02
  .252E+02  .252E+02  .252E+02  .253E+02  .251E+02  .251E+02  .251E+02  .251E+02
  .562E+02  .339E+02  .569E+02  .350E+02  .358E+02  .374E+02  .372E+02  .519E+02
  .519E+02  .519E+02  .341E+02  .514E+02  .534E+02  .549E+02  .530E+02  .531E+02
  .517E+02  .518E+02  .511E+02  .512E+02  .513E+02  .478E+02  .480E+02  .512E+02
  .512E+02  .512E+02  .512E+02  .513E+02  .513E+02  .513E+02  .513E+02  .506E+02
  .506E+02  .506E+02  .506E+02  .506E+02  .506E+02  .506E+02  .000E+00  .000E+00
  .000E+00  .000E+00  .000E+00  .000E+00  .000E+00  .000E+00  .000E+00  .000E+00
  .000E+00  .000E+00  .000E+00  .000E+00  .000E+00  .000E+00  .000E+00  .000E+00
  .000E+00  .000E+00  .000E+00  .000E+00
  .255E+02  .255E+02  .255E+02  .255E+02  .255E+02  .255E+02  .291E+02  .255E+02
  .255E+02  .256E+02  .256E+02  .254E+02  .252E+02  .257E+02  .256E+02  .256E+02
  .252E+02  .255E+02  .255E+02  .302E+02  .302E+02  .301E+02  .292E+02  .292E+02
  .327E+02  .326E+02  .255E+02  .253E+02  .255E+02  .255E+02  .253E+02  .253E+02
  .253E+02  .253E+02  .252E+02  .252E+02  .252E+02  .252E+02  .252E+02  .252E+02
  .252E+02  .252E+02  .250E+02  .252E+02  .252E+02  .252E+02  .252E+02  .252E+02
  .252E+02  .252E+02  .252E+02  .252E+02  .252E+02  .252E+02  .252E+02  .252E+02
  .252E+02  .252E+02  .252E+02  .252E+02  .252E+02  .252E+02  .252E+02  .252E+02
  .252E+02  .252E+02  .252E+02  .252E+02  .252E+02  .252E+02  .252E+02  .252E+02
  .252E+02  .252E+02  .252E+02  .252E+02  .252E+02  .252E+02  .000E+00  .000E+00
  .000E+00  .000E+00  .000E+00  .000E+00  .000E+00  .000E+00  .000E+00  .000E+00
  .000E+00  .000E+00  .000E+00  .000E+00  .000E+00  .000E+00  .000E+00  .000E+00
  .000E+00  .000E+00  .000E+00  .000E+00
  .255E+02  .255E+02  .255E+02  .255E+02  .255E+02  .255E+02  .255E+02  .255E+02
  .255E+02  .256E+02  .256E+02  .253E+02  .252E+02  .256E+02  .256E+02  .256E+02
  .252E+02  .256E+02  .302E+02  .302E+02  .301E+02  .300E+02  .292E+02  .292E+02
  .314E+02  .254E+02  .254E+02  .255E+02  .253E+02  .253E+02  .253E+02  .252E+02
  .252E+02  .252E+02  .252E+02  .251E+02  .251E+02  .251E+02  .251E+02  .251E+02
  .562E+02  .339E+02  .569E+02  .350E+02  .358E+02  .374E+02  .372E+02  .518E+02
  .519E+02  .519E+02  .341E+02  .514E+02  .533E+02  .548E+02  .530E+02  .530E+02
  .516E+02  .518E+02  .511E+02  .512E+02  .512E+02  .487E+02  .480E+02  .512E+02
  .512E+02  .512E+02  .512E+02  .512E+02  .512E+02  .512E+02  .512E+02  .505E+02
  .251E+02  .251E+02  .251E+02  .251E+02  .251E+02  .251E+02  .000E+00  .000E+00
  .000E+00  .000E+00  .000E+00  .000E+00  .000E+00  .000E+00  .000E+00  .000E+00
  .000E+00  .000E+00  .000E+00  .000E+00  .000E+00  .000E+00  .000E+00  .000E+00
  .000E+00  .000E+00  .000E+00  .000E+00
/&   ----------  End of spectral data for channel  1  ----------
Response and Fourier amplitude spectra (78 periods,  .04 -  6.0 sec)   for      
Corrected accelerogram   13884-O0529-20263.08       Chan  2: 360 Deg     from   
Uncorrected Accelerogram Data             Processed: 09/19/20, CGS  ce13884h    
Rcrd of Fri Sep 18, 2020 23:38:29.0 PDT               (Avol1 v2.0, 4/18 CSMIP)  
CSMIP Preliminary Processing            (Origin:  To be determined)             
13884-O0529-20263.08                 Start time:  9/19/20, 06:38:29.0 UTC (GPS) 
Station No. 13884   33.767N, 117.918W    Obsidn  s/n  529  (3 Chns of  3 at Sta)
Garden Grove - Hwy 22 & Harbor Blvd       CGS   Data: Acceleration              
Chan  2: 360 Deg                                                                
Rcrd of Fri Sep 18, 2020 23:38:29.0 PDT    Fri Sep 18, 2020 23:38:29.0 PDT      
Hypocenter:  To be determined.               ML:  To be determined.             
Instr Period =  .0048 sec,  Damping =  .700,  Sensitivity = 1.25 v/g            
                        Record Length = 62.000 sec.                             
                                     Uncor Max  =   .023 g, at   30.940 sec.    
RMS accel of (uncor) record  =        .   Chn. metadata effective date: 03/20/18
Accelerogram bandpass filtered with 3 dB pts at   .30 and 40.00 cyc/sec         
                 instrument- and base-line correcte                             
                                                                                
                                                                                
                                                                                
                                                                                
                                                                                
Rcrd of Fri Sep 18, 2020 23:38:29.0 PDT    Fri Sep 18, 2020 23:38:29.0 PDT      
                                                                                
13884-O0529-20263.08      Garden Grove - Hwy 22 & Harbor Blvd   Chan  2: 360 Deg
                                                                                
13884-O0529-20263.08      Garden Grove - Hwy 22 & Harbor Blvd   Chan  2: 360 Deg
                                                                                
Units for spectra are inches and sec, except Sa is in fraction of g.            
                                                                                
    2  100    2    3    3  200    1    3    1   24   32  529    013884   11    0
    6   38   29    0  263    9   19 2020   10    3  36012400   39   35   74  360
12400    1  100    3  529    1    8  620    2 -999 -999 -999 -999 -999 -999 -999
 -999 -999    3 -99912400    1  202    0   24   20 -999 -999    3    1 -99912400
    312400    4   78    1    3    5    0    0 -999    0    0    1    3    1    2
    2    2    4    0   32   67    0    5 -999    0    0    1    0    0    0  222
    1    0    2    0
      .005      .700    62.000      .002     1.000  1252.000      .023    30.940
   208.000      .596      .476  -999.000     5.000  -999.000     4.000  -999.000
     5.000    18.419     5.000  -999.000    30.000    30.000  -999.000     -.003
      .014      .017     2.000    15.000    33.767  -117.918      .015      .455
    30.369     -.016      .050    28.000    31.000    32.900    13.300    96.800
     1.000    11.003    -8.000  -999.000  -999.000  -999.000  -999.000  -999.000
     6.900     2.000     6.800   980.665      .005    62.000    33.104      .000
  -999.000    40.000  -999.000    62.000      .005      .300  -999.000  -999.000
    30.940    22.095    30.895     -.677    31.235      .038      .000      .300
    40.000      .005      .005      .000      .005      .020  -999.000  -999.000
      .086      .110      .073      .025      .003      .000  -999.000  -999.000
  -999.000  -999.000  -999.000  -999.000  -999.000  -999.000  -999.000  -999.000
  -999.000  -999.000  -999.000  -999.000
      .050
      .040      .042      .044      .046      .048      .050      .055      .060
      .065      .070      .075      .080      .085      .090      .095      .100
      .110      .120      .130      .140      .150      .160      .170      .180
      .190      .200      .220      .240      .260      .280      .300      .320
      .340      .360      .380      .400      .420      .440      .460      .480
      .500      .550      .600      .650      .700      .750      .800      .850
      .900      .950     1.000     1.100     1.200     1.300     1.400     1.500
     1.600     1.700     1.800     1.900     2.000     2.200     2.400     2.600
     2.800     3.000     3.200     3.400     3.600     3.800     4.000     4.200
     4.400     4.600     4.800     5.000     5.500     6.000      .000      .000
      .000      .000      .000      .000      .000      .000      .000      .000
      .000      .000      .000      .000      .000      .000      .000      .000
      .000      .000      .000      .000
Fourier amplitude spectra in in/sec.
  .000E+00  .000E+00  .000E+00  .000E+00  .000E+00  .000E+00  .000E+00  .000E+00
  .000E+00  .000E+00  .000E+00  .000E+00  .000E+00  .000E+00  .000E+00  .000E+00
  .000E+00  .000E+00  .000E+00  .000E+00  .000E+00  .000E+00  .000E+00  .000E+00
  .000E+00  .000E+00  .000E+00  .000E+00  .000E+00  .000E+00  .000E+00  .000E+00
  .000E+00  .000E+00  .000E+00  .000E+00  .000E+00  .000E+00  .000E+00  .000E+00
  .000E+00  .000E+00  .000E+00  .000E+00  .000E+00  .000E+00  .000E+00  .000E+00
  .000E+00  .000E+00  .000E+00  .000E+00  .000E+00  .000E+00  .000E+00  .000E+00
  .000E+00  .000E+00  .000E+00  .000E+00  .000E+00  .000E+00  .000E+00  .000E+00
  .000E+00  .000E+00  .000E+00  .000E+00  .000E+00  .000E+00  .000E+00  .000E+00
  .000E+00  .000E+00  .000E+00  .000E+00  .000E+00  .000E+00  .000E+00  .000E+00
  .000E+00  .000E+00  .000E+00  .000E+00  .000E+00  .000E+00  .000E+00  .000E+00
  .000E+00  .000E+00  .000E+00  .000E+00  .000E+00  .000E+00  .000E+00  .000E+00
  .000E+00  .000E+00  .000E+00  .000E+00
Damping =  .05. Data of Sd,Sv,Sa,Pssv,ttSd,ttSv,ttSa :
  .386E-03  .439E-03  .493E-03  .548E-03  .596E-03  .641E-03  .786E-03  .105E-02
  .146E-02  .164E-02  .201E-02  .251E-02  .338E-02  .429E-02  .481E-02  .584E-02
  .101E-01  .955E-02  .104E-01  .120E-01  .120E-01  .155E-01  .157E-01  .176E-01
  .217E-01  .311E-01  .359E-01  .240E-01  .199E-01  .180E-01  .222E-01  .259E-01
  .322E-01  .256E-01  .279E-01  .324E-01  .350E-01  .353E-01  .349E-01  .378E-01
