Response and Fourier amplitude spectra (78 periods,  .04 -  6.0 sec)   for      
Corrected accelerogram   13441-T970B-20262.03       Chan  1:  Up         from   
Uncorrected Accelerogram Data             Processed: 09/18/20, CGS  ce13441c    
Rcrd of Fri Sep 18, 2020 23:38:32.0 PDT               (Avol1 v2.0, 4/18 CSMIP)  
CSMIP Preliminary Processing            (Origin:  To be determined)             
13441-T970B-20262.03                 Start time:  9/19/20, 06:38:32.0 UTC (GPS) 
Station No. 13441   33.660N, 117.775W    130-SM  s/n 970B  (3 Chns of  3 at Sta)
Irvine - Alton & Sand Canyon              CGS   Data: Acceleration              
Chan  1:  Up                                                                    
Rcrd of Fri Sep 18, 2020 23:38:32.0 PDT    Fri Sep 18, 2020 23:38:32.0 PDT      
Hypocenter:  To be determined.               ML:  To be determined.             
Instr Period =  .0011 sec,  Damping =  .100,  Sensitivity = 2.29 v/g            
                        Record Length = 64.240 sec.                             
                                     Uncor Max  =   .006 g, at   32.430 sec.    
RMS accel of (uncor) record  =        .   Chn. metadata effective date: 06/17/13
Accelerogram bandpass filtered with 3 dB pts at   .30 and 40.00 cyc/sec         
                 instrument- and base-line correcte                             
                                                                                
                                                                                
                                                                                
                                                                                
                                                                                
Rcrd of Fri Sep 18, 2020 23:38:32.0 PDT    Fri Sep 18, 2020 23:38:32.0 PDT      
                                                                                
13441-T970B-20262.03      Irvine - Alton & Sand Canyon    Chan  1:  Up          
                                                                                
13441-T970B-20262.03      Irvine - Alton & Sand Canyon    Chan  1:  Up          
                                                                                
Units for spectra are inches and sec, except Sa is in fraction of g.            
                                                                                
    1  100    1    3    3  200    1    3    1   32  702 -999    013441   21    0
    6   38   32    0  263    9   19 2020   10    3  50012848   39   28   74  360
12848    1  100    3 -999    1    3 -999 -999 -999 -999 -999 -999 -999 -999 -999
 -999 -999 -999 -99912848    1  200    0   24  256 -999 -999    3    1 -99912848
    312848    4   78    1    3    5    0    0 -999    0    0 -999 -999    1    2
    2    2    4    0   32   67    9    3 -999    0    0    1    0 -999    0  222
    1 -999    0 -999
      .001      .100    64.240      .001     1.000  2292.000      .006    32.430
   900.000     1.587      .692  -999.000     5.000  -999.000     3.500  -999.000
    10.000  1163.732    10.000  -999.000    30.915    29.995  -999.000      .005
     -.005     -.009     2.000    15.000    33.660  -117.775      .011      .077
     7.309     -.015     -.003    51.000    30.914    34.240    13.400  -999.000
     1.000  -999.000    -8.000  -999.000  -999.000  -999.000  -999.000   120.000
     7.500     2.000     6.800   980.665      .005    64.240   143.239      .000
  -999.000    40.000  -999.000    64.240      .005      .300  -999.000  -999.000
    32.430     6.204    32.510     -.110    39.225     -.004      .000      .300
    40.000      .005      .005      .000      .005      .004  -999.000  -999.000
      .029      .100      .006      .003      .000      .000  -999.000  -999.000
  -999.000  -999.000  -999.000  -999.000  -999.000  -999.000  -999.000  -999.000
  -999.000  -999.000  -999.000  -999.000
      .050
      .040      .042      .044      .046      .048      .050      .055      .060
      .065      .070      .075      .080      .085      .090      .095      .100
      .110      .120      .130      .140      .150      .160      .170      .180
      .190      .200      .220      .240      .260      .280      .300      .320
      .340      .360      .380      .400      .420      .440      .460      .480
      .500      .550      .600      .650      .700      .750      .800      .850
      .900      .950     1.000     1.100     1.200     1.300     1.400     1.500
     1.600     1.700     1.800     1.900     2.000     2.200     2.400     2.600
     2.800     3.000     3.200     3.400     3.600     3.800     4.000     4.200
     4.400     4.600     4.800     5.000     5.500     6.000      .000      .000
      .000      .000      .000      .000      .000      .000      .000      .000
      .000      .000      .000      .000      .000      .000      .000      .000
      .000      .000      .000      .000
Fourier amplitude spectra in in/sec.
  .000E+00  .000E+00  .000E+00  .000E+00  .000E+00  .000E+00  .000E+00  .000E+00
  .000E+00  .000E+00  .000E+00  .000E+00  .000E+00  .000E+00  .000E+00  .000E+00
  .000E+00  .000E+00  .000E+00  .000E+00  .000E+00  .000E+00  .000E+00  .000E+00
  .000E+00  .000E+00  .000E+00  .000E+00  .000E+00  .000E+00  .000E+00  .000E+00
  .000E+00  .000E+00  .000E+00  .000E+00  .000E+00  .000E+00  .000E+00  .000E+00
  .000E+00  .000E+00  .000E+00  .000E+00  .000E+00  .000E+00  .000E+00  .000E+00
  .000E+00  .000E+00  .000E+00  .000E+00  .000E+00  .000E+00  .000E+00  .000E+00
  .000E+00  .000E+00  .000E+00  .000E+00  .000E+00  .000E+00  .000E+00  .000E+00
  .000E+00  .000E+00  .000E+00  .000E+00  .000E+00  .000E+00  .000E+00  .000E+00
  .000E+00  .000E+00  .000E+00  .000E+00  .000E+00  .000E+00  .000E+00  .000E+00
  .000E+00  .000E+00  .000E+00  .000E+00  .000E+00  .000E+00  .000E+00  .000E+00
  .000E+00  .000E+00  .000E+00  .000E+00  .000E+00  .000E+00  .000E+00  .000E+00
  .000E+00  .000E+00  .000E+00  .000E+00
Damping =  .05. Data of Sd,Sv,Sa,Pssv,ttSd,ttSv,ttSa :
  .176E-03  .184E-03  .190E-03  .233E-03  .262E-03  .278E-03  .350E-03  .572E-03
  .686E-03  .836E-03  .118E-02  .126E-02  .182E-02  .212E-02  .243E-02  .282E-02
  .295E-02  .291E-02  .282E-02  .227E-02  .242E-02  .255E-02  .272E-02  .214E-02
  .229E-02  .220E-02  .223E-02  .274E-02  .287E-02  .245E-02  .265E-02  .259E-02
  .256E-02  .271E-02  .270E-02  .278E-02  .278E-02  .268E-02  .249E-02  .224E-02
  .208E-02  .228E-02  .218E-02  .283E-02  .252E-02  .186E-02  .171E-02  .164E-02
  .197E-02  .199E-02  .207E-02  .245E-02  .209E-02  .220E-02  .220E-02  .288E-02
  .354E-02  .486E-02  .533E-02  .550E-02  .485E-02  .473E-02  .461E-02  .504E-02
  .408E-02  .372E-02  .319E-02  .247E-02  .262E-02  .249E-02  .223E-02  .234E-02
  .223E-02  .197E-02  .179E-02  .175E-02  .188E-02  .197E-02  .000E+00  .000E+00
  .000E+00  .000E+00  .000E+00  .000E+00  .000E+00  .000E+00  .000E+00  .000E+00
  .000E+00  .000E+00  .000E+00  .000E+00  .000E+00  .000E+00  .000E+00  .000E+00
  .000E+00  .000E+00  .000E+00  .000E+00
  .182E-01  .223E-01  .218E-01  .229E-01  .259E-01  .275E-01  .346E-01  .505E-01
  .585E-01  .697E-01  .896E-01  .868E-01  .125E+00  .137E+00  .149E+00  .169E+00
  .168E+00  .157E+00  .140E+00  .107E+00  .113E+00  .111E+00  .112E+00  .979E-01
  .834E-01  .877E-01  .764E-01  .824E-01  .845E-01  .639E-01  .626E-01  .623E-01
  .697E-01  .697E-01  .666E-01  .571E-01  .579E-01  .532E-01  .535E-01  .498E-01
  .506E-01  .455E-01  .471E-01  .473E-01  .444E-01  .447E-01  .455E-01  .438E-01
  .441E-01  .461E-01  .473E-01  .483E-01  .468E-01  .489E-01  .471E-01  .449E-01
  .446E-01  .436E-01  .442E-01  .446E-01  .433E-01  .431E-01  .458E-01  .449E-01
  .440E-01  .442E-01  .448E-01  .446E-01  .441E-01  .433E-01  .428E-01  .424E-01
  .422E-01  .422E-01  .423E-01  .424E-01  .427E-01  .428E-01  .000E+00  .000E+00
  .000E+00  .000E+00  .000E+00  .000E+00  .000E+00  .000E+00  .000E+00  .000E+00
  .000E+00  .000E+00  .000E+00  .000E+00  .000E+00  .000E+00  .000E+00  .000E+00
  .000E+00  .000E+00  .000E+00  .000E+00
  .113E-01  .107E-01  .101E-01  .113E-01  .117E-01  .113E-01  .118E-01  .162E-01
  .166E-01  .174E-01  .213E-01  .201E-01  .258E-01  .270E-01  .276E-01  .292E-01
  .253E-01  .208E-01  .171E-01  .119E-01  .111E-01  .103E-01  .967E-02  .684E-02
  .654E-02  .565E-02  .473E-02  .488E-02  .436E-02  .323E-02  .305E-02  .262E-02
  .230E-02  .215E-02  .193E-02  .180E-02  .164E-02  .144E-02  .122E-02  .102E-02
  .868E-03  .782E-03  .624E-03  .696E-03  .532E-03  .346E-03  .296E-03  .243E-03
  .273E-03  .249E-03  .232E-03  .211E-03  .159E-03  .146E-03  .116E-03  .135E-03
  .144E-03  .175E-03  .173E-03  .162E-03  .128E-03  .101E-03  .862E-04  .779E-04
  .557E-04  .453E-04  .338E-04  .281E-04  .257E-04  .240E-04  .215E-04  .195E-04
  .179E-04  .161E-04  .143E-04  .140E-04  .129E-04  .118E-04  .000E+00  .000E+00
  .000E+00  .000E+00  .000E+00  .000E+00  .000E+00  .000E+00  .000E+00  .000E+00
  .000E+00  .000E+00  .000E+00  .000E+00  .000E+00  .000E+00  .000E+00  .000E+00
  .000E+00  .000E+00  .000E+00  .000E+00
  .277E-01  .276E-01  .271E-01  .318E-01  .343E-01  .350E-01  .399E-01  .599E-01
  .664E-01  .751E-01  .989E-01  .987E-01  .134E+00  .148E+00  .161E+00  .177E+00
  .169E+00  .152E+00  .136E+00  .102E+00  .101E+00  .100E+00  .101E+00  .749E-01
  .757E-01  .691E-01  .637E-01  .716E-01  .693E-01  .551E-01  .555E-01  .508E-01
  .473E-01  .472E-01  .447E-01  .436E-01  .416E-01  .383E-01  .340E-01  .293E-01
  .261E-01  .260E-01  .228E-01  .273E-01  .226E-01  .156E-01  .134E-01  .121E-01
  .138E-01  .132E-01  .130E-01  .140E-01  .110E-01  .106E-01  .987E-02  .121E-01
  .139E-01  .180E-01  .186E-01  .182E-01  .152E-01  .135E-01  .121E-01  .122E-01
  .914E-02  .779E-02  .626E-02  .457E-02  .457E-02  .412E-02  .350E-02  .350E-02
  .318E-02  .270E-02  .234E-02  .219E-02  .215E-02  .206E-02  .000E+00  .000E+00
  .000E+00  .000E+00  .000E+00  .000E+00  .000E+00  .000E+00  .000E+00  .000E+00
  .000E+00  .000E+00  .000E+00  .000E+00  .000E+00  .000E+00  .000E+00  .000E+00
  .000E+00  .000E+00  .000E+00  .000E+00
  .324E+02  .324E+02  .324E+02  .324E+02  .307E+02  .307E+02  .244E+02  .311E+02
  .309E+02  .310E+02  .312E+02  .325E+02  .325E+02  .325E+02  .325E+02  .329E+02
  .315E+02  .326E+02  .326E+02  .315E+02  .315E+02  .315E+02  .314E+02  .314E+02
  .339E+02  .339E+02  .332E+02  .338E+02  .330E+02  .329E+02  .329E+02  .311E+02
  .329E+02  .242E+02  .242E+02  .241E+02  .241E+02  .241E+02  .241E+02  .241E+02
  .239E+02  .353E+02  .354E+02  .351E+02  .424E+02  .424E+02  .325E+02  .429E+02
  .325E+02  .325E+02  .400E+02  .382E+02  .363E+02  .363E+02  .454E+02  .382E+02
  .403E+02  .404E+02  .406E+02  .406E+02  .407E+02  .419E+02  .398E+02  .399E+02
  .390E+02  .390E+02  .392E+02  .380E+02  .340E+02  .340E+02  .390E+02  .392E+02
  .392E+02  .392E+02  .392E+02  .392E+02  .392E+02  .392E+02  .000E+00  .000E+00
  .000E+00  .000E+00  .000E+00  .000E+00  .000E+00  .000E+00  .000E+00  .000E+00
  .000E+00  .000E+00  .000E+00  .000E+00  .000E+00  .000E+00  .000E+00  .000E+00
  .000E+00  .000E+00  .000E+00  .000E+00
  .316E+02  .281E+02  .282E+02  .307E+02  .307E+02  .254E+02  .245E+02  .311E+02
  .309E+02  .309E+02  .312E+02  .274E+02  .336E+02  .325E+02  .325E+02  .329E+02
  .315E+02  .326E+02  .326E+02  .315E+02  .315E+02  .314E+02  .315E+02  .314E+02
  .324E+02  .325E+02  .344E+02  .341E+02  .335E+02  .335E+02  .311E+02  .309E+02
  .329E+02  .329E+02  .326E+02  .311E+02  .313E+02  .326E+02  .326E+02  .326E+02
  .326E+02  .238E+02  .326E+02  .326E+02  .325E+02  .325E+02  .325E+02  .325E+02
  .325E+02  .325E+02  .325E+02  .325E+02  .325E+02  .325E+02  .325E+02  .325E+02
  .325E+02  .325E+02  .325E+02  .325E+02  .325E+02  .325E+02  .325E+02  .325E+02
  .325E+02  .325E+02  .325E+02  .325E+02  .325E+02  .325E+02  .325E+02  .325E+02
  .325E+02  .325E+02  .325E+02  .325E+02  .325E+02  .325E+02  .000E+00  .000E+00
  .000E+00  .000E+00  .000E+00  .000E+00  .000E+00  .000E+00  .000E+00  .000E+00
  .000E+00  .000E+00  .000E+00  .000E+00  .000E+00  .000E+00  .000E+00  .000E+00
  .000E+00  .000E+00  .000E+00  .000E+00
  .324E+02  .324E+02  .324E+02  .324E+02  .307E+02  .307E+02  .244E+02  .311E+02
  .309E+02  .325E+02  .312E+02  .325E+02  .325E+02  .325E+02  .325E+02  .329E+02
  .315E+02  .326E+02  .326E+02  .315E+02  .315E+02  .315E+02  .314E+02  .314E+02
  .339E+02  .339E+02  .331E+02  .338E+02  .330E+02  .329E+02  .329E+02  .311E+02
  .329E+02  .242E+02  .242E+02  .241E+02  .241E+02  .241E+02  .241E+02  .241E+02
  .239E+02  .353E+02  .350E+02  .351E+02  .424E+02  .325E+02  .325E+02  .325E+02
  .325E+02  .325E+02  .325E+02  .382E+02  .363E+02  .363E+02  .454E+02  .382E+02
  .403E+02  .403E+02  .406E+02  .406E+02  .406E+02  .418E+02  .398E+02  .398E+02
  .389E+02  .389E+02  .380E+02  .337E+02  .337E+02  .325E+02  .325E+02  .329E+02
  .329E+02  .329E+02  .329E+02  .325E+02  .325E+02  .325E+02  .000E+00  .000E+00
  .000E+00  .000E+00  .000E+00  .000E+00  .000E+00  .000E+00  .000E+00  .000E+00
  .000E+00  .000E+00  .000E+00  .000E+00  .000E+00  .000E+00  .000E+00  .000E+00
  .000E+00  .000E+00  .000E+00  .000E+00
/&   ----------  End of spectral data for channel  1  ----------
Response and Fourier amplitude spectra (78 periods,  .04 -  6.0 sec)   for      
Corrected accelerogram   13441-T970B-20262.03       Chan  2: 360 Deg     from   
Uncorrected Accelerogram Data             Processed: 09/18/20, CGS  ce13441c    
Rcrd of Fri Sep 18, 2020 23:38:32.0 PDT               (Avol1 v2.0, 4/18 CSMIP)  
CSMIP Preliminary Processing            (Origin:  To be determined)             
13441-T970B-20262.03                 Start time:  9/19/20, 06:38:32.0 UTC (GPS) 
Station No. 13441   33.660N, 117.775W    130-SM  s/n 970B  (3 Chns of  3 at Sta)
Irvine - Alton & Sand Canyon              CGS   Data: Acceleration              
Chan  2: 360 Deg                                                                
Rcrd of Fri Sep 18, 2020 23:38:32.0 PDT    Fri Sep 18, 2020 23:38:32.0 PDT      
Hypocenter:  To be determined.               ML:  To be determined.             
Instr Period =  .0011 sec,  Damping =  .100,  Sensitivity = 2.41 v/g            
                        Record Length = 64.240 sec.                             
                                     Uncor Max  =   .013 g, at   33.310 sec.    
RMS accel of (uncor) record  =        .   Chn. metadata effective date: 06/17/13
Accelerogram bandpass filtered with 3 dB pts at   .30 and 40.00 cyc/sec         
                 instrument- and base-line correcte                             
                                                                                
                                                                                
                                                                                
                                                                                
                                                                                
Rcrd of Fri Sep 18, 2020 23:38:32.0 PDT    Fri Sep 18, 2020 23:38:32.0 PDT      
                                                                                
13441-T970B-20262.03      Irvine - Alton & Sand Canyon    Chan  2: 360 Deg      
                                                                                
13441-T970B-20262.03      Irvine - Alton & Sand Canyon    Chan  2: 360 Deg      
                                                                                
Units for spectra are inches and sec, except Sa is in fraction of g.            
                                                                                
    2  100    2    3    3  200    1    3    1   32  702 -999    013441   21    0
    6   38   32    0  263    9   19 2020   10    3  36012848   39   28   74  360
12848    1  100    3 -999    1    3 -999 -999 -999 -999 -999 -999 -999 -999 -999
 -999 -999 -999 -99912848    1  200    0   24  256 -999 -999    3    1 -99912848
    312848    4   78    1    3    5    0    0 -999    0    0 -999 -999    1    2
    2    2    4    0   32   67    9    3 -999    0    0    1    0 -999    0  222
    1 -999    0 -999
      .001      .100    64.240      .001     1.000  2414.000      .013    33.310
   900.000     1.587      .657  -999.000     5.000  -999.000     3.500  -999.000
    10.000     7.328    10.000  -999.000    30.915    29.995  -999.000     -.001
      .000      .001     2.000    15.000    33.660  -117.775      .044      .158
     3.615     -.012      .013    51.000    30.914    34.240    13.400  -999.000
     1.000  -999.000    -8.000  -999.000  -999.000  -999.000  -999.000   120.000
     7.500     2.000     6.800   980.665      .005    64.240   143.239      .000
  -999.000    40.000  -999.000    64.240      .005      .300  -999.000  -999.000
    33.310    12.602    33.340      .333    33.175      .014      .000      .300
    40.000      .005      .005      .000      .005      .010  -999.000  -999.000
      .051      .190      .042      .022      .001      .000  -999.000  -999.000
  -999.000  -999.000  -999.000  -999.000  -999.000  -999.000  -999.000  -999.000
  -999.000  -999.000  -999.000  -999.000
      .050
      .040      .042      .044      .046      .048      .050      .055      .060
      .065      .070      .075      .080      .085      .090      .095      .100
      .110      .120      .130      .140      .150      .160      .170      .180
      .190      .200      .220      .240      .260      .280      .300      .320
      .340      .360      .380      .400      .420      .440      .460      .480
      .500      .550      .600      .650      .700      .750      .800      .850
      .900      .950     1.000     1.100     1.200     1.300     1.400     1.500
     1.600     1.700     1.800     1.900     2.000     2.200     2.400     2.600
     2.800     3.000     3.200     3.400     3.600     3.800     4.000     4.200
     4.400     4.600     4.800     5.000     5.500     6.000      .000      .000
      .000      .000      .000      .000      .000      .000      .000      .000
      .000      .000      .000      .000      .000      .000      .000      .000
      .000      .000      .000      .000
Fourier amplitude spectra in in/sec.
  .000E+00  .000E+00  .000E+00  .000E+00  .000E+00  .000E+00  .000E+00  .000E+00
  .000E+00  .000E+00  .000E+00  .000E+00  .000E+00  .000E+00  .000E+00  .000E+00
  .000E+00  .000E+00  .000E+00  .000E+00  .000E+00  .000E+00  .000E+00  .000E+00
  .000E+00  .000E+00  .000E+00  .000E+00  .000E+00  .000E+00  .000E+00  .000E+00
  .000E+00  .000E+00  .000E+00  .000E+00  .000E+00  .000E+00  .000E+00  .000E+00
  .000E+00  .000E+00  .000E+00  .000E+00  .000E+00  .000E+00  .000E+00  .000E+00
  .000E+00  .000E+00  .000E+00  .000E+00  .000E+00  .000E+00  .000E+00  .000E+00
  .000E+00  .000E+00  .000E+00  .000E+00  .000E+00  .000E+00  .000E+00  .000E+00
  .000E+00  .000E+00  .000E+00  .000E+00  .000E+00  .000E+00  .000E+00  .000E+00
  .000E+00  .000E+00  .000E+00  .000E+00  .000E+00  .000E+00  .000E+00  .000E+00
  .000E+00  .000E+00  .000E+00  .000E+00  .000E+00  .000E+00  .000E+00  .000E+00
  .000E+00  .000E+00  .000E+00  .000E+00  .000E+00  .000E+00  .000E+00  .000E+00
  .000E+00  .000E+00  .000E+00  .000E+00
Damping =  .05. Data of Sd,Sv,Sa,Pssv,ttSd,ttSv,ttSa :
  .223E-03  .239E-03  .244E-03  .267E-03  .317E-03  .373E-03  .481E-03  .572E-03
  .764E-03  .104E-02  .144E-02  .211E-02  .265E-02  .274E-02  .264E-02  .299E-02
  .380E-02  .446E-02  .533E-02  .514E-02  .584E-02  .719E-02  .111E-01  .131E-01
  .177E-01  .176E-01  .149E-01  .135E-01  .127E-01  .190E-01  .193E-01  .174E-01
  .135E-01  .112E-01  .105E-01  .101E-01  .121E-01  .119E-01  .140E-01  .167E-01
