Response and Fourier amplitude spectra (91 periods,  .04 - 15.0 sec)   for      
Corrected accelerogram   13888-L1359-20263.11       Chan  1: 360 Deg     from   
Uncorrected Accelerogram Data             Processed: 09/19/20, CGS  888bn011    
Rcrd of Fri Sep 18, 2020 23:38:29.0 PDT               (Avol1 v2.0, 4/18 CSMIP)  
CSMIP Preliminary Processing            (Origin:  To be determined)             
13888-L1359-20263.11                 Start time:  9/19/20, 06:38:29.0 UTC (GPS) 
Station No. 13888   33.819N, 117.850W    Etna    s/n 1359  (3 Chns of  3 at Sta)
Orange - Shaffer & Taft                   CGS   Data: Acceleration              
Chan  1: 360 Deg                                                                
Rcrd of Fri Sep 18, 2020 23:38:29.0 PDT    Fri Sep 18, 2020 23:38:29.0 PDT      
Hypocenter:  To be determined.               ML:  To be determined.             
Instr Period =  .0109 sec,  Damping =  .640,  Sensitivity =  .63 v/g            
                        Record Length = 60.000 sec.                             
                                     Uncor Max  =   .009 g, at   31.945 sec.    
RMS accel of (uncor) record  =        .   Chn. metadata effective date: 01/08/03
Accelerogram bandpass filtered with 3 dB pts at   .30 and 23.00 cyc/sec         
                 instrument- and base-line correcte                             
                                                                                
                                                                                
                                                                                
                                                                                
                                                                                
Rcrd of Fri Sep 18, 2020 23:38:29.0 PDT    Fri Sep 18, 2020 23:38:29.0 PDT      
                                                                                
13888-L1359-20263.11      Orange - Shaffer & Taft   Chan  1: 360 Deg            
                                                                                
13888-L1359-20263.11      Orange - Shaffer & Taft   Chan  1: 360 Deg            
                                                                                
Units for spectra are inches and sec, except Sa is in fraction of g.            
                                                                                
    1  100    1    3    3  200    1    3    1   24   12 1359    013888   11    0
    6   38   29    0  263    9   19 2020   10    3  36012200   39   23   74  360
12200    1  100    3 1359    1   11  610    2 -999 -999 -999 -999 -999 -999 -999
 -999 -999    3 -99912000    1  202    0   18    4 -999 -999    3    1 -99912000
    312000    4   91    1    3    5    0    0 -999    0    0    1    3    1    2
    2    2    4    0   32   67    0    5 -999    0    0    1    0    0    0  222
    0    0    0    0
      .011      .640    61.000      .001     1.000   625.000      .009    31.945
    91.700      .298      .477  -999.000     5.000  -999.000     4.000  -999.000
     2.500    17.472     2.500  -999.000    30.000    30.000  -999.000      .000
      .000      .001     2.000    15.000    33.819  -117.850      .013      .179
    13.446     -.013      .014    61.000    30.400    30.400    13.400    76.460
     1.000    11.003    -8.000  -999.000  -999.000  -999.000  -999.000  -999.000
     6.900     2.000     6.800   980.665      .005    60.000    14.595      .000
  -999.000    23.000  -999.000    60.000      .005      .303  -999.000  -999.000
    31.945     8.353    30.090     -.247    30.335      .019      .000      .303
    23.000      .005      .005      .000      .005      .009  -999.000  -999.000
      .033      .090      .023      .011      .001      .000  -999.000  -999.000
  -999.000  -999.000  -999.000  -999.000  -999.000  -999.000  -999.000  -999.000
  -999.000  -999.000  -999.000  -999.000
      .050
      .040      .042      .044      .046      .048      .050      .055      .060
      .065      .070      .075      .080      .085      .090      .095      .100
      .110      .120      .130      .140      .150      .160      .170      .180
      .190      .200      .220      .240      .260      .280      .300      .320
      .340      .360      .380      .400      .420      .440      .460      .480
      .500      .550      .600      .650      .700      .750      .800      .850
      .900      .950     1.000     1.100     1.200     1.300     1.400     1.500
     1.600     1.700     1.800     1.900     2.000     2.200     2.400     2.600
     2.800     3.000     3.200     3.400     3.600     3.800     4.000     4.200
     4.400     4.600     4.800     5.000     5.500     6.000     6.500     7.000
     7.500     8.000     8.500     9.000     9.500    10.000    11.000    12.000
    13.000    14.000    15.000      .000      .000      .000      .000      .000
      .000      .000      .000      .000
Fourier amplitude spectra in in/sec.
  .000E+00  .000E+00  .000E+00  .000E+00  .000E+00  .000E+00  .000E+00  .000E+00
  .000E+00  .000E+00  .000E+00  .000E+00  .000E+00  .000E+00  .000E+00  .000E+00
  .000E+00  .000E+00  .000E+00  .000E+00  .000E+00  .000E+00  .000E+00  .000E+00
  .000E+00  .000E+00  .000E+00  .000E+00  .000E+00  .000E+00  .000E+00  .000E+00
  .000E+00  .000E+00  .000E+00  .000E+00  .000E+00  .000E+00  .000E+00  .000E+00
  .000E+00  .000E+00  .000E+00  .000E+00  .000E+00  .000E+00  .000E+00  .000E+00
  .000E+00  .000E+00  .000E+00  .000E+00  .000E+00  .000E+00  .000E+00  .000E+00
  .000E+00  .000E+00  .000E+00  .000E+00  .000E+00  .000E+00  .000E+00  .000E+00
  .000E+00  .000E+00  .000E+00  .000E+00  .000E+00  .000E+00  .000E+00  .000E+00
  .000E+00  .000E+00  .000E+00  .000E+00  .000E+00  .000E+00  .000E+00  .000E+00
  .000E+00  .000E+00  .000E+00  .000E+00  .000E+00  .000E+00  .000E+00  .000E+00
  .000E+00  .000E+00  .000E+00  .000E+00  .000E+00  .000E+00  .000E+00  .000E+00
  .000E+00  .000E+00  .000E+00  .000E+00
Damping =  .05. Data of Sd,Sv,Sa,Pssv,ttSd,ttSv,ttSa :
  .154E-03  .176E-03  .187E-03  .181E-03  .220E-03  .253E-03  .429E-03  .597E-03
  .802E-03  .969E-03  .119E-02  .146E-02  .195E-02  .257E-02  .272E-02  .285E-02
  .323E-02  .410E-02  .371E-02  .446E-02  .499E-02  .545E-02  .671E-02  .774E-02
  .880E-02  .973E-02  .837E-02  .732E-02  .877E-02  .832E-02  .816E-02  .119E-01
  .129E-01  .162E-01  .172E-01  .160E-01  .158E-01  .178E-01  .163E-01  .156E-01
  .153E-01  .159E-01  .162E-01  .183E-01  .139E-01  .134E-01  .151E-01  .125E-01
  .115E-01  .142E-01  .143E-01  .155E-01  .187E-01  .169E-01  .187E-01  .192E-01
  .174E-01  .197E-01  .175E-01  .165E-01  .164E-01  .161E-01  .158E-01  .145E-01
  .130E-01  .119E-01  .108E-01  .101E-01  .101E-01  .110E-01  .111E-01  .106E-01
  .994E-02  .983E-02  .967E-02  .950E-02  .927E-02  .901E-02  .868E-02  .859E-02
  .852E-02  .834E-02  .816E-02  .805E-02  .800E-02  .797E-02  .793E-02  .790E-02
  .787E-02  .782E-02  .780E-02  .000E+00  .000E+00  .000E+00  .000E+00  .000E+00
  .000E+00  .000E+00  .000E+00  .000E+00
  .911E-02  .105E-01  .121E-01  .151E-01  .171E-01  .214E-01  .362E-01  .475E-01
  .598E-01  .759E-01  .856E-01  .976E-01  .125E+00  .166E+00  .171E+00  .173E+00
  .178E+00  .214E+00  .179E+00  .212E+00  .218E+00  .189E+00  .226E+00  .247E+00
  .267E+00  .285E+00  .264E+00  .225E+00  .214E+00  .208E+00  .184E+00  .234E+00
  .219E+00  .279E+00  .289E+00  .269E+00  .247E+00  .274E+00  .258E+00  .244E+00
  .213E+00  .211E+00  .200E+00  .227E+00  .153E+00  .158E+00  .161E+00  .160E+00
  .156E+00  .157E+00  .159E+00  .154E+00  .143E+00  .136E+00  .134E+00  .156E+00
  .135E+00  .124E+00  .122E+00  .125E+00  .121E+00  .119E+00  .108E+00  .105E+00
  .102E+00  .101E+00  .999E-01  .994E-01  .989E-01  .984E-01  .980E-01  .976E-01
  .971E-01  .968E-01  .967E-01  .966E-01  .966E-01  .964E-01  .965E-01  .967E-01
  .966E-01  .966E-01  .967E-01  .968E-01  .969E-01  .969E-01  .970E-01  .970E-01
  .970E-01  .970E-01  .970E-01  .000E+00  .000E+00  .000E+00  .000E+00  .000E+00
  .000E+00  .000E+00  .000E+00  .000E+00
  .984E-02  .102E-01  .987E-02  .873E-02  .977E-02  .104E-01  .147E-01  .169E-01
  .195E-01  .204E-01  .219E-01  .236E-01  .279E-01  .327E-01  .313E-01  .293E-01
  .275E-01  .293E-01  .225E-01  .234E-01  .228E-01  .218E-01  .238E-01  .245E-01
  .251E-01  .250E-01  .178E-01  .131E-01  .133E-01  .109E-01  .932E-02  .119E-01
  .115E-01  .128E-01  .122E-01  .103E-01  .918E-02  .948E-02  .795E-02  .698E-02
  .632E-02  .541E-02  .464E-02  .447E-02  .295E-02  .249E-02  .244E-02  .180E-02
  .147E-02  .163E-02  .148E-02  .132E-02  .135E-02  .104E-02  .990E-03  .883E-03
  .702E-03  .730E-03  .586E-03  .481E-03  .435E-03  .345E-03  .293E-03  .229E-03
  .180E-03  .154E-03  .131E-03  .106E-03  .889E-04  .873E-04  .808E-04  .712E-04
  .617E-04  .566E-04  .520E-04  .478E-04  .401E-04  .341E-04  .306E-04  .282E-04
  .261E-04  .240E-04  .221E-04  .206E-04  .193E-04  .182E-04  .162E-04  .146E-04
  .133E-04  .122E-04  .112E-04  .000E+00  .000E+00  .000E+00  .000E+00  .000E+00
  .000E+00  .000E+00  .000E+00  .000E+00
  .241E-01  .264E-01  .266E-01  .247E-01  .288E-01  .318E-01  .490E-01  .625E-01
  .775E-01  .870E-01  .993E-01  .115E+00  .144E+00  .179E+00  .180E+00  .179E+00
  .184E+00  .215E+00  .179E+00  .200E+00  .209E+00  .214E+00  .248E+00  .270E+00
  .291E+00  .306E+00  .239E+00  .192E+00  .212E+00  .187E+00  .171E+00  .233E+00
  .239E+00  .282E+00  .285E+00  .252E+00  .236E+00  .255E+00  .223E+00  .204E+00
  .193E+00  .182E+00  .169E+00  .177E+00  .125E+00  .112E+00  .119E+00  .925E-01
  .806E-01  .942E-01  .902E-01  .883E-01  .982E-01  .818E-01  .837E-01  .806E-01
  .685E-01  .727E-01  .612E-01  .547E-01  .516E-01  .459E-01  .414E-01  .351E-01
  .293E-01  .249E-01  .213E-01  .186E-01  .176E-01  .182E-01  .174E-01  .158E-01
  .142E-01  .134E-01  .127E-01  .119E-01  .106E-01  .943E-02  .839E-02  .771E-02
  .713E-02  .655E-02  .603E-02  .562E-02  .529E-02  .501E-02  .453E-02  .413E-02
  .380E-02  .351E-02  .327E-02  .000E+00  .000E+00  .000E+00  .000E+00  .000E+00
  .000E+00  .000E+00  .000E+00  .000E+00
  .319E+02  .319E+02  .319E+02  .319E+02  .319E+02  .319E+02  .306E+02  .307E+02
  .307E+02  .307E+02  .308E+02  .308E+02  .308E+02  .308E+02  .308E+02  .336E+02
  .320E+02  .320E+02  .320E+02  .320E+02  .320E+02  .301E+02  .302E+02  .302E+02
  .302E+02  .302E+02  .308E+02  .305E+02  .316E+02  .316E+02  .348E+02  .348E+02
  .304E+02  .324E+02  .348E+02  .349E+02  .349E+02  .349E+02  .345E+02  .305E+02
  .305E+02  .381E+02  .345E+02  .346E+02  .301E+02  .301E+02  .344E+02  .344E+02
  .366E+02  .366E+02  .366E+02  .366E+02  .363E+02  .364E+02  .358E+02  .360E+02
  .348E+02  .341E+02  .342E+02  .327E+02  .327E+02  .310E+02  .355E+02  .310E+02
  .310E+02  .310E+02  .310E+02  .310E+02  .355E+02  .355E+02  .355E+02  .355E+02
  .303E+02  .303E+02  .303E+02  .303E+02  .303E+02  .303E+02  .303E+02  .303E+02
  .303E+02  .303E+02  .303E+02  .303E+02  .303E+02  .303E+02  .303E+02  .303E+02
  .303E+02  .303E+02  .303E+02  .000E+00  .000E+00  .000E+00  .000E+00  .000E+00
  .000E+00  .000E+00  .000E+00  .000E+00
  .306E+02  .308E+02  .308E+02  .319E+02  .306E+02  .306E+02  .306E+02  .307E+02
  .307E+02  .307E+02  .307E+02  .307E+02  .308E+02  .308E+02  .309E+02  .336E+02
  .320E+02  .320E+02  .320E+02  .320E+02  .320E+02  .302E+02  .302E+02  .302E+02
  .302E+02  .309E+02  .308E+02  .304E+02  .315E+02  .315E+02  .304E+02  .347E+02
  .308E+02  .323E+02  .349E+02  .307E+02  .348E+02  .348E+02  .306E+02  .306E+02
  .302E+02  .390E+02  .346E+02  .345E+02  .319E+02  .301E+02  .301E+02  .301E+02
  .301E+02  .301E+02  .301E+02  .301E+02  .301E+02  .301E+02  .356E+02  .356E+02
  .356E+02  .301E+02  .322E+02  .341E+02  .322E+02  .356E+02  .301E+02  .301E+02
  .301E+02  .301E+02  .301E+02  .301E+02  .301E+02  .301E+02  .301E+02  .301E+02
  .301E+02  .301E+02  .301E+02  .301E+02  .301E+02  .301E+02  .301E+02  .301E+02
  .301E+02  .301E+02  .301E+02  .301E+02  .301E+02  .301E+02  .301E+02  .301E+02
  .301E+02  .301E+02  .301E+02  .000E+00  .000E+00  .000E+00  .000E+00  .000E+00
  .000E+00  .000E+00  .000E+00  .000E+00
  .319E+02  .319E+02  .319E+02  .319E+02  .319E+02  .319E+02  .306E+02  .307E+02
  .307E+02  .307E+02  .308E+02  .308E+02  .308E+02  .308E+02  .308E+02  .336E+02
  .320E+02  .320E+02  .320E+02  .320E+02  .320E+02  .301E+02  .302E+02  .302E+02
  .302E+02  .302E+02  .307E+02  .305E+02  .316E+02  .316E+02  .347E+02  .348E+02
  .304E+02  .324E+02  .348E+02  .349E+02  .349E+02  .349E+02  .345E+02  .305E+02
  .305E+02  .381E+02  .345E+02  .346E+02  .301E+02  .301E+02  .344E+02  .344E+02
  .365E+02  .366E+02  .366E+02  .366E+02  .363E+02  .363E+02  .358E+02  .359E+02
  .347E+02  .341E+02  .341E+02  .327E+02  .327E+02  .310E+02  .355E+02  .310E+02
  .310E+02  .341E+02  .341E+02  .341E+02  .355E+02  .355E+02  .355E+02  .355E+02
  .303E+02  .303E+02  .303E+02  .303E+02  .303E+02  .303E+02  .341E+02  .341E+02
  .341E+02  .341E+02  .341E+02  .341E+02  .341E+02  .341E+02  .341E+02  .341E+02
  .341E+02  .341E+02  .341E+02  .000E+00  .000E+00  .000E+00  .000E+00  .000E+00
  .000E+00  .000E+00  .000E+00  .000E+00
/&   ----------  End of spectral data for channel  1  ----------
Response and Fourier amplitude spectra (91 periods,  .04 - 15.0 sec)   for      
Corrected accelerogram   13888-L1359-20263.11       Chan  2:  Up         from   
Uncorrected Accelerogram Data             Processed: 09/19/20, CGS  888bn011    
Rcrd of Fri Sep 18, 2020 23:38:29.0 PDT               (Avol1 v2.0, 4/18 CSMIP)  
CSMIP Preliminary Processing            (Origin:  To be determined)             
13888-L1359-20263.11                 Start time:  9/19/20, 06:38:29.0 UTC (GPS) 
Station No. 13888   33.819N, 117.850W    Etna    s/n 1359  (3 Chns of  3 at Sta)
Orange - Shaffer & Taft                   CGS   Data: Acceleration              
Chan  2:  Up                                                                    
Rcrd of Fri Sep 18, 2020 23:38:29.0 PDT    Fri Sep 18, 2020 23:38:29.0 PDT      
Hypocenter:  To be determined.               ML:  To be determined.             
Instr Period =  .0108 sec,  Damping =  .670,  Sensitivity =  .63 v/g            
                        Record Length = 60.000 sec.                             
                                     Uncor Max  =  -.006 g, at   25.655 sec.    
RMS accel of (uncor) record  =        .   Chn. metadata effective date: 01/08/03
Accelerogram bandpass filtered with 3 dB pts at   .30 and 23.00 cyc/sec         
                 instrument- and base-line correcte                             
                                                                                
                                                                                
                                                                                
                                                                                
                                                                                
Rcrd of Fri Sep 18, 2020 23:38:29.0 PDT    Fri Sep 18, 2020 23:38:29.0 PDT      
                                                                                
13888-L1359-20263.11      Orange - Shaffer & Taft   Chan  2:  Up                
                                                                                
13888-L1359-20263.11      Orange - Shaffer & Taft   Chan  2:  Up                
                                                                                
Units for spectra are inches and sec, except Sa is in fraction of g.            
                                                                                
    2  100    2    3    3  200    1    3    1   24   12 1359    013888   11    0
    6   38   29    0  263    9   19 2020   10    3  50012200   39   23   74  360
12200    1  100    3 1359    1   11  610    2 -999 -999 -999 -999 -999 -999 -999
 -999 -999    3 -99912000    1  202    0   18    4 -999 -999    3    1 -99912000
    312000    4   91    1    3    5    0    0 -999    0    0    1    3    1    2
    2    2    4    0   32   67    0    5 -999    0    0    1    0    0    0  222
    0    0    0    0
      .011      .670    61.000      .001     1.000   626.000     -.006    25.655
    92.900      .298      .476  -999.000     5.000  -999.000     4.000  -999.000
     2.500    45.001     2.500  -999.000    30.000    30.000  -999.000     -.002
      .001      .003     2.000    15.000    33.819  -117.850      .015      .106
     7.184     -.005      .011    61.000    30.400    30.400    13.400    76.460
     1.000    11.003    -8.000  -999.000  -999.000  -999.000  -999.000  -999.000
     6.900     2.000     6.800   980.665      .005    60.000    14.785      .000
  -999.000    23.000  -999.000    60.000      .005      .303  -999.000  -999.000
    25.655    -5.845    32.640     -.162    38.105     -.008      .000      .303
    23.000      .005      .005      .000      .005      .007  -999.000  -999.000
      .026      .070      .013      .006      .001      .000  -999.000  -999.000
  -999.000  -999.000  -999.000  -999.000  -999.000  -999.000  -999.000  -999.000
  -999.000  -999.000  -999.000  -999.000
      .050
      .040      .042      .044      .046      .048      .050      .055      .060
      .065      .070      .075      .080      .085      .090      .095      .100
      .110      .120      .130      .140      .150      .160      .170      .180
      .190      .200      .220      .240      .260      .280      .300      .320
      .340      .360      .380      .400      .420      .440      .460      .480
      .500      .550      .600      .650      .700      .750      .800      .850
      .900      .950     1.000     1.100     1.200     1.300     1.400     1.500
     1.600     1.700     1.800     1.900     2.000     2.200     2.400     2.600
     2.800     3.000     3.200     3.400     3.600     3.800     4.000     4.200
     4.400     4.600     4.800     5.000     5.500     6.000     6.500     7.000
     7.500     8.000     8.500     9.000     9.500    10.000    11.000    12.000
    13.000    14.000    15.000      .000      .000      .000      .000      .000
      .000      .000      .000      .000
Fourier amplitude spectra in in/sec.
  .000E+00  .000E+00  .000E+00  .000E+00  .000E+00  .000E+00  .000E+00  .000E+00
  .000E+00  .000E+00  .000E+00  .000E+00  .000E+00  .000E+00  .000E+00  .000E+00
  .000E+00  .000E+00  .000E+00  .000E+00  .000E+00  .000E+00  .000E+00  .000E+00
  .000E+00  .000E+00  .000E+00  .000E+00  .000E+00  .000E+00  .000E+00  .000E+00
  .000E+00  .000E+00  .000E+00  .000E+00  .000E+00  .000E+00  .000E+00  .000E+00
  .000E+00  .000E+00  .000E+00  .000E+00  .000E+00  .000E+00  .000E+00  .000E+00
  .000E+00  .000E+00  .000E+00  .000E+00  .000E+00  .000E+00  .000E+00  .000E+00
  .000E+00  .000E+00  .000E+00  .000E+00  .000E+00  .000E+00  .000E+00  .000E+00
  .000E+00  .000E+00  .000E+00  .000E+00  .000E+00  .000E+00  .000E+00  .000E+00
  .000E+00  .000E+00  .000E+00  .000E+00  .000E+00  .000E+00  .000E+00  .000E+00
  .000E+00  .000E+00  .000E+00  .000E+00  .000E+00  .000E+00  .000E+00  .000E+00
  .000E+00  .000E+00  .000E+00  .000E+00  .000E+00  .000E+00  .000E+00  .000E+00
  .000E+00  .000E+00  .000E+00  .000E+00
Damping =  .05. Data of Sd,Sv,Sa,Pssv,ttSd,ttSv,ttSa :
  .139E-03  .180E-03  .204E-03  .239E-03  .274E-03  .346E-03  .507E-03  .748E-03
  .967E-03  .126E-02  .139E-02  .131E-02  .151E-02  .171E-02  .202E-02  .229E-02
  .210E-02  .277E-02  .306E-02  .358E-02  .369E-02  .357E-02  .363E-02  .403E-02
  .481E-02  .504E-02  .627E-02  .672E-02  .452E-02  .501E-02  .578E-02  .576E-02
  .786E-02  .950E-02  .973E-02  .968E-02  .762E-02  .654E-02  .674E-02  .739E-02
