Response and Fourier amplitude spectra (78 periods,  .04 -  6.0 sec)   for      
Corrected accelerogram   13921-O0193-20263.20       Chan  1:  Up         from   
Uncorrected Accelerogram Data             Processed: 09/18/20, CGS  ce13921t    
Rcrd of Fri Sep 18, 2020 23:38:33.0 PDT               (Avol1 v2.0, 4/18 CSMIP)  
CSMIP Preliminary Processing            (Origin:  To be determined)             
13921-O0193-20263.20                 Start time:  9/19/20, 06:38:33.0 UTC (GPS) 
Station No. 13921   33.975N, 117.487W    Obsidn  s/n  193  (3 Chns of  3 at Sta)
Riverside - Limonite & Downey             CGS   Data: Acceleration              
Chan  1:  Up                                                                    
Rcrd of Fri Sep 18, 2020 23:38:33.0 PDT    Fri Sep 18, 2020 23:38:33.0 PDT      
Hypocenter:  To be determined.               ML:  To be determined.             
Instr Period =  .0049 sec,  Damping =  .700,  Sensitivity = 1.25 v/g            
                        Record Length = 64.000 sec.                             
                                     Uncor Max  =  -.010 g, at   31.470 sec.    
RMS accel of (uncor) record  =        .   Chn. metadata effective date: 08/03/16
Accelerogram bandpass filtered with 3 dB pts at   .30 and 40.00 cyc/sec         
                 instrument- and base-line correcte                             
                                                                                
                                                                                
                                                                                
                                                                                
                                                                                
Rcrd of Fri Sep 18, 2020 23:38:33.0 PDT    Fri Sep 18, 2020 23:38:33.0 PDT      
                                                                                
13921-O0193-20263.20      Riverside - Limonite & Downey   Chan  1:  Up          
                                                                                
13921-O0193-20263.20      Riverside - Limonite & Downey   Chan  1:  Up          
                                                                                
Units for spectra are inches and sec, except Sa is in fraction of g.            
                                                                                
    1  100    1    3    3  200    1    3    1   24   32  193    013921   11    0
    6   38   33    0  263    9   19 2020   10    3  50012800   39   29   74  360
12800    1  100    3  193    1   20  640    2 -999 -999 -999 -999 -999 -999 -999
 -999 -999    3 -99912800    1  202    0   24   20 -999 -999    3    1 -99912800
    312800    4   78    1    3    5    0    0 -999    0    0    1    3    1    2
    2    2    4    0   32   67    0    5 -999    0    0    1    0    0    0  222
    1    0    2    0
      .005      .700    64.000      .001     1.000  1251.000     -.010    31.470
   204.000      .596      .476  -999.000     5.000  -999.000     4.000  -999.000
     5.000   -21.622     5.000   371.000    30.000    30.000  -999.000     -.001
     -.001      .000     2.000    15.000    33.975  -117.487      .089      .123
     1.384     -.015      .014   213.000    30.000    34.900    13.400    92.660
     1.000    11.003    -8.000  -999.000  -999.000  -999.000  -999.000  -999.000
     6.900     2.000     6.800   980.665      .005    64.000    32.468      .000
  -999.000    40.000  -999.000    64.000      .005      .300  -999.000  -999.000
    31.470   -10.290    32.740     -.198    30.425     -.005      .000      .300
    40.000      .005      .005      .000      .005      .005  -999.000  -999.000
      .040      .060      .015      .006      .000      .000  -999.000  -999.000
  -999.000  -999.000  -999.000  -999.000  -999.000  -999.000  -999.000  -999.000
  -999.000  -999.000  -999.000  -999.000
      .050
      .040      .042      .044      .046      .048      .050      .055      .060
      .065      .070      .075      .080      .085      .090      .095      .100
      .110      .120      .130      .140      .150      .160      .170      .180
      .190      .200      .220      .240      .260      .280      .300      .320
      .340      .360      .380      .400      .420      .440      .460      .480
      .500      .550      .600      .650      .700      .750      .800      .850
      .900      .950     1.000     1.100     1.200     1.300     1.400     1.500
     1.600     1.700     1.800     1.900     2.000     2.200     2.400     2.600
     2.800     3.000     3.200     3.400     3.600     3.800     4.000     4.200
     4.400     4.600     4.800     5.000     5.500     6.000      .000      .000
      .000      .000      .000      .000      .000      .000      .000      .000
      .000      .000      .000      .000      .000      .000      .000      .000
      .000      .000      .000      .000
Fourier amplitude spectra in in/sec.
  .000E+00  .000E+00  .000E+00  .000E+00  .000E+00  .000E+00  .000E+00  .000E+00
  .000E+00  .000E+00  .000E+00  .000E+00  .000E+00  .000E+00  .000E+00  .000E+00
  .000E+00  .000E+00  .000E+00  .000E+00  .000E+00  .000E+00  .000E+00  .000E+00
  .000E+00  .000E+00  .000E+00  .000E+00  .000E+00  .000E+00  .000E+00  .000E+00
  .000E+00  .000E+00  .000E+00  .000E+00  .000E+00  .000E+00  .000E+00  .000E+00
  .000E+00  .000E+00  .000E+00  .000E+00  .000E+00  .000E+00  .000E+00  .000E+00
  .000E+00  .000E+00  .000E+00  .000E+00  .000E+00  .000E+00  .000E+00  .000E+00
  .000E+00  .000E+00  .000E+00  .000E+00  .000E+00  .000E+00  .000E+00  .000E+00
  .000E+00  .000E+00  .000E+00  .000E+00  .000E+00  .000E+00  .000E+00  .000E+00
  .000E+00  .000E+00  .000E+00  .000E+00  .000E+00  .000E+00  .000E+00  .000E+00
  .000E+00  .000E+00  .000E+00  .000E+00  .000E+00  .000E+00  .000E+00  .000E+00
  .000E+00  .000E+00  .000E+00  .000E+00  .000E+00  .000E+00  .000E+00  .000E+00
  .000E+00  .000E+00  .000E+00  .000E+00
Damping =  .05. Data of Sd,Sv,Sa,Pssv,ttSd,ttSv,ttSa :
  .320E-03  .393E-03  .437E-03  .519E-03  .644E-03  .787E-03  .107E-02  .140E-02
  .121E-02  .141E-02  .152E-02  .158E-02  .234E-02  .300E-02  .328E-02  .339E-02
  .380E-02  .432E-02  .468E-02  .464E-02  .480E-02  .522E-02  .556E-02  .566E-02
  .566E-02  .612E-02  .591E-02  .671E-02  .574E-02  .611E-02  .568E-02  .450E-02
  .435E-02  .415E-02  .355E-02  .379E-02  .429E-02  .474E-02  .572E-02  .634E-02
  .609E-02  .504E-02  .480E-02  .379E-02  .380E-02  .346E-02  .341E-02  .298E-02
  .285E-02  .268E-02  .260E-02  .293E-02  .309E-02  .281E-02  .279E-02  .266E-02
  .254E-02  .260E-02  .266E-02  .263E-02  .251E-02  .234E-02  .229E-02  .228E-02
  .223E-02  .220E-02  .217E-02  .214E-02  .213E-02  .211E-02  .211E-02  .210E-02
  .211E-02  .213E-02  .216E-02  .218E-02  .215E-02  .215E-02  .000E+00  .000E+00
  .000E+00  .000E+00  .000E+00  .000E+00  .000E+00  .000E+00  .000E+00  .000E+00
  .000E+00  .000E+00  .000E+00  .000E+00  .000E+00  .000E+00  .000E+00  .000E+00
  .000E+00  .000E+00  .000E+00  .000E+00
  .427E-01  .548E-01  .534E-01  .640E-01  .788E-01  .926E-01  .119E+00  .145E+00
  .114E+00  .119E+00  .119E+00  .123E+00  .169E+00  .204E+00  .218E+00  .232E+00
  .227E+00  .235E+00  .241E+00  .215E+00  .207E+00  .213E+00  .215E+00  .214E+00
  .220E+00  .211E+00  .211E+00  .183E+00  .159E+00  .161E+00  .173E+00  .154E+00
  .118E+00  .115E+00  .107E+00  .117E+00  .115E+00  .971E-01  .923E-01  .935E-01
  .104E+00  .109E+00  .834E-01  .921E-01  .894E-01  .739E-01  .691E-01  .707E-01
  .750E-01  .777E-01  .794E-01  .777E-01  .792E-01  .784E-01  .772E-01  .759E-01
  .758E-01  .760E-01  .760E-01  .766E-01  .775E-01  .783E-01  .785E-01  .784E-01
  .781E-01  .779E-01  .776E-01  .775E-01  .774E-01  .774E-01  .774E-01  .774E-01
  .774E-01  .774E-01  .774E-01  .774E-01  .774E-01  .774E-01  .000E+00  .000E+00
  .000E+00  .000E+00  .000E+00  .000E+00  .000E+00  .000E+00  .000E+00  .000E+00
  .000E+00  .000E+00  .000E+00  .000E+00  .000E+00  .000E+00  .000E+00  .000E+00
  .000E+00  .000E+00  .000E+00  .000E+00
  .204E-01  .227E-01  .231E-01  .253E-01  .289E-01  .323E-01  .358E-01  .398E-01
  .290E-01  .299E-01  .277E-01  .255E-01  .332E-01  .382E-01  .371E-01  .352E-01
  .321E-01  .311E-01  .283E-01  .244E-01  .220E-01  .210E-01  .198E-01  .179E-01
  .162E-01  .157E-01  .126E-01  .120E-01  .869E-02  .803E-02  .653E-02  .454E-02
  .391E-02  .332E-02  .255E-02  .245E-02  .252E-02  .255E-02  .283E-02  .288E-02
  .255E-02  .172E-02  .139E-02  .955E-03  .838E-03  .676E-03  .574E-03  .455E-03
  .389E-03  .332E-03  .294E-03  .275E-03  .246E-03  .196E-03  .171E-03  .146E-03
  .125E-03  .115E-03  .107E-03  .968E-04  .887E-04  .731E-04  .616E-04  .534E-04
  .472E-04  .424E-04  .393E-04  .371E-04  .352E-04  .335E-04  .319E-04  .304E-04
  .291E-04  .277E-04  .263E-04  .252E-04  .231E-04  .211E-04  .000E+00  .000E+00
  .000E+00  .000E+00  .000E+00  .000E+00  .000E+00  .000E+00  .000E+00  .000E+00
  .000E+00  .000E+00  .000E+00  .000E+00  .000E+00  .000E+00  .000E+00  .000E+00
  .000E+00  .000E+00  .000E+00  .000E+00
  .503E-01  .588E-01  .624E-01  .710E-01  .843E-01  .989E-01  .122E+00  .146E+00
  .117E+00  .126E+00  .128E+00  .124E+00  .173E+00  .209E+00  .217E+00  .213E+00
  .217E+00  .226E+00  .226E+00  .208E+00  .201E+00  .205E+00  .205E+00  .197E+00
  .187E+00  .192E+00  .169E+00  .176E+00  .139E+00  .137E+00  .119E+00  .884E-01
  .804E-01  .724E-01  .587E-01  .596E-01  .642E-01  .676E-01  .781E-01  .830E-01
  .765E-01  .575E-01  .503E-01  .366E-01  .341E-01  .290E-01  .268E-01  .221E-01
  .199E-01  .177E-01  .163E-01  .168E-01  .162E-01  .136E-01  .125E-01  .112E-01
  .998E-02  .960E-02  .929E-02  .871E-02  .787E-02  .667E-02  .600E-02  .552E-02
  .500E-02  .461E-02  .426E-02  .395E-02  .371E-02  .350E-02  .331E-02  .315E-02
  .301E-02  .291E-02  .283E-02  .274E-02  .246E-02  .225E-02  .000E+00  .000E+00
  .000E+00  .000E+00  .000E+00  .000E+00  .000E+00  .000E+00  .000E+00  .000E+00
  .000E+00  .000E+00  .000E+00  .000E+00  .000E+00  .000E+00  .000E+00  .000E+00
  .000E+00  .000E+00  .000E+00  .000E+00
  .333E+02  .317E+02  .333E+02  .333E+02  .333E+02  .255E+02  .256E+02  .312E+02
  .328E+02  .331E+02  .331E+02  .320E+02  .260E+02  .328E+02  .328E+02  .260E+02
  .304E+02  .330E+02  .306E+02  .306E+02  .306E+02  .305E+02  .305E+02  .305E+02
  .306E+02  .328E+02  .328E+02  .334E+02  .333E+02  .333E+02  .328E+02  .327E+02
  .303E+02  .320E+02  .320E+02  .318E+02  .318E+02  .315E+02  .315E+02  .315E+02
  .315E+02  .311E+02  .311E+02  .311E+02  .327E+02  .327E+02  .329E+02  .329E+02
  .304E+02  .304E+02  .304E+02  .304E+02  .304E+02  .304E+02  .304E+02  .304E+02
  .304E+02  .304E+02  .304E+02  .304E+02  .304E+02  .304E+02  .304E+02  .304E+02
  .304E+02  .304E+02  .304E+02  .304E+02  .304E+02  .304E+02  .304E+02  .304E+02
  .304E+02  .304E+02  .304E+02  .304E+02  .304E+02  .304E+02  .000E+00  .000E+00
  .000E+00  .000E+00  .000E+00  .000E+00  .000E+00  .000E+00  .000E+00  .000E+00
  .000E+00  .000E+00  .000E+00  .000E+00  .000E+00  .000E+00  .000E+00  .000E+00
  .000E+00  .000E+00  .000E+00  .000E+00
  .256E+02  .317E+02  .333E+02  .333E+02  .333E+02  .255E+02  .255E+02  .312E+02
  .312E+02  .331E+02  .331E+02  .260E+02  .260E+02  .260E+02  .260E+02  .260E+02
  .330E+02  .330E+02  .306E+02  .306E+02  .328E+02  .306E+02  .306E+02  .305E+02
  .305E+02  .305E+02  .328E+02  .333E+02  .333E+02  .332E+02  .327E+02  .327E+02
  .327E+02  .303E+02  .327E+02  .327E+02  .327E+02  .319E+02  .303E+02  .311E+02
  .314E+02  .314E+02  .314E+02  .327E+02  .327E+02  .327E+02  .305E+02  .327E+02
  .327E+02  .327E+02  .327E+02  .327E+02  .327E+02  .327E+02  .327E+02  .327E+02
  .327E+02  .327E+02  .327E+02  .327E+02  .327E+02  .327E+02  .327E+02  .327E+02
  .327E+02  .327E+02  .327E+02  .327E+02  .327E+02  .327E+02  .327E+02  .327E+02
  .327E+02  .327E+02  .327E+02  .327E+02  .327E+02  .327E+02  .000E+00  .000E+00
  .000E+00  .000E+00  .000E+00  .000E+00  .000E+00  .000E+00  .000E+00  .000E+00
  .000E+00  .000E+00  .000E+00  .000E+00  .000E+00  .000E+00  .000E+00  .000E+00
  .000E+00  .000E+00  .000E+00  .000E+00
  .333E+02  .317E+02  .333E+02  .333E+02  .333E+02  .255E+02  .255E+02  .312E+02
  .328E+02  .331E+02  .331E+02  .320E+02  .260E+02  .328E+02  .328E+02  .260E+02
  .304E+02  .330E+02  .306E+02  .306E+02  .306E+02  .305E+02  .305E+02  .305E+02
  .306E+02  .328E+02  .328E+02  .334E+02  .333E+02  .333E+02  .328E+02  .327E+02
  .303E+02  .319E+02  .320E+02  .318E+02  .318E+02  .315E+02  .315E+02  .315E+02
  .315E+02  .311E+02  .311E+02  .311E+02  .327E+02  .327E+02  .329E+02  .329E+02
  .304E+02  .304E+02  .315E+02  .304E+02  .304E+02  .304E+02  .304E+02  .304E+02
  .304E+02  .304E+02  .304E+02  .304E+02  .328E+02  .328E+02  .328E+02  .304E+02
  .304E+02  .304E+02  .327E+02  .327E+02  .327E+02  .327E+02  .327E+02  .327E+02
  .327E+02  .327E+02  .327E+02  .327E+02  .327E+02  .327E+02  .000E+00  .000E+00
  .000E+00  .000E+00  .000E+00  .000E+00  .000E+00  .000E+00  .000E+00  .000E+00
  .000E+00  .000E+00  .000E+00  .000E+00  .000E+00  .000E+00  .000E+00  .000E+00
  .000E+00  .000E+00  .000E+00  .000E+00
/&   ----------  End of spectral data for channel  1  ----------
Response and Fourier amplitude spectra (78 periods,  .04 -  6.0 sec)   for      
Corrected accelerogram   13921-O0193-20263.20       Chan  2: 360 Deg     from   
Uncorrected Accelerogram Data             Processed: 09/18/20, CGS  ce13921t    
Rcrd of Fri Sep 18, 2020 23:38:33.0 PDT               (Avol1 v2.0, 4/18 CSMIP)  
CSMIP Preliminary Processing            (Origin:  To be determined)             
13921-O0193-20263.20                 Start time:  9/19/20, 06:38:33.0 UTC (GPS) 
Station No. 13921   33.975N, 117.487W    Obsidn  s/n  193  (3 Chns of  3 at Sta)
Riverside - Limonite & Downey             CGS   Data: Acceleration              
Chan  2: 360 Deg                                                                
Rcrd of Fri Sep 18, 2020 23:38:33.0 PDT    Fri Sep 18, 2020 23:38:33.0 PDT      
Hypocenter:  To be determined.               ML:  To be determined.             
Instr Period =  .0048 sec,  Damping =  .700,  Sensitivity = 1.25 v/g            
                        Record Length = 64.000 sec.                             
                                     Uncor Max  =  -.019 g, at   30.985 sec.    
RMS accel of (uncor) record  =        .   Chn. metadata effective date: 08/03/16
Accelerogram bandpass filtered with 3 dB pts at   .30 and 40.00 cyc/sec         
                 instrument- and base-line correcte                             
                                                                                
                                                                                
                                                                                
                                                                                
                                                                                
Rcrd of Fri Sep 18, 2020 23:38:33.0 PDT    Fri Sep 18, 2020 23:38:33.0 PDT      
                                                                                
13921-O0193-20263.20      Riverside - Limonite & Downey   Chan  2: 360 Deg      
                                                                                
13921-O0193-20263.20      Riverside - Limonite & Downey   Chan  2: 360 Deg      
                                                                                
Units for spectra are inches and sec, except Sa is in fraction of g.            
                                                                                
    2  100    2    3    3  200    1    3    1   24   32  193    013921   11    0
    6   38   33    0  263    9   19 2020   10    3  36012800   39   29   74  360
12800    1  100    3  193    1   20  640    2 -999 -999 -999 -999 -999 -999 -999
 -999 -999    3 -99912800    1  202    0   24   20 -999 -999    3    1 -99912800
    312800    4   78    1    3    5    0    0 -999    0    0    1    3    1    2
    2    2    4    0   32   67    0    5 -999    0    0    1    0    0    0  222
    1    0    2    0
      .005      .700    64.000      .002     1.000  1249.800     -.019    30.985
   210.000      .596      .477  -999.000     5.000  -999.000     4.000  -999.000
     5.000     8.347     5.000   371.000    30.000    30.000  -999.000      .001
     -.001     -.002     2.000    15.000    33.975  -117.487      .016      .163
    10.184     -.014      .010   213.000    30.000    34.900    13.400    92.660
     1.000    11.003    -8.000  -999.000  -999.000  -999.000  -999.000  -999.000
     6.900     2.000     6.800   980.665      .005    64.000    33.423      .000
  -999.000    40.000  -999.000    64.000      .005      .300  -999.000  -999.000
    30.985   -18.964    30.145      .316    33.580     -.012      .000      .300
    40.000      .005      .005      .000      .005      .009  -999.000  -999.000
      .079      .090      .025      .022      .001      .000  -999.000  -999.000
  -999.000  -999.000  -999.000  -999.000  -999.000  -999.000  -999.000  -999.000
  -999.000  -999.000  -999.000  -999.000
      .050
      .040      .042      .044      .046      .048      .050      .055      .060
      .065      .070      .075      .080      .085      .090      .095      .100
      .110      .120      .130      .140      .150      .160      .170      .180
      .190      .200      .220      .240      .260      .280      .300      .320
      .340      .360      .380      .400      .420      .440      .460      .480
      .500      .550      .600      .650      .700      .750      .800      .850
      .900      .950     1.000     1.100     1.200     1.300     1.400     1.500
     1.600     1.700     1.800     1.900     2.000     2.200     2.400     2.600
     2.800     3.000     3.200     3.400     3.600     3.800     4.000     4.200
     4.400     4.600     4.800     5.000     5.500     6.000      .000      .000
      .000      .000      .000      .000      .000      .000      .000      .000
      .000      .000      .000      .000      .000      .000      .000      .000
      .000      .000      .000      .000
Fourier amplitude spectra in in/sec.
  .000E+00  .000E+00  .000E+00  .000E+00  .000E+00  .000E+00  .000E+00  .000E+00
  .000E+00  .000E+00  .000E+00  .000E+00  .000E+00  .000E+00  .000E+00  .000E+00
  .000E+00  .000E+00  .000E+00  .000E+00  .000E+00  .000E+00  .000E+00  .000E+00
  .000E+00  .000E+00  .000E+00  .000E+00  .000E+00  .000E+00  .000E+00  .000E+00
  .000E+00  .000E+00  .000E+00  .000E+00  .000E+00  .000E+00  .000E+00  .000E+00
  .000E+00  .000E+00  .000E+00  .000E+00  .000E+00  .000E+00  .000E+00  .000E+00
  .000E+00  .000E+00  .000E+00  .000E+00  .000E+00  .000E+00  .000E+00  .000E+00
  .000E+00  .000E+00  .000E+00  .000E+00  .000E+00  .000E+00  .000E+00  .000E+00
  .000E+00  .000E+00  .000E+00  .000E+00  .000E+00  .000E+00  .000E+00  .000E+00
  .000E+00  .000E+00  .000E+00  .000E+00  .000E+00  .000E+00  .000E+00  .000E+00
  .000E+00  .000E+00  .000E+00  .000E+00  .000E+00  .000E+00  .000E+00  .000E+00
  .000E+00  .000E+00  .000E+00  .000E+00  .000E+00  .000E+00  .000E+00  .000E+00
  .000E+00  .000E+00  .000E+00  .000E+00
Damping =  .05. Data of Sd,Sv,Sa,Pssv,ttSd,ttSv,ttSa :
  .532E-03  .597E-03  .644E-03  .717E-03  .830E-03  .993E-03  .114E-02  .142E-02
  .165E-02  .196E-02  .251E-02  .340E-02  .461E-02  .623E-02  .541E-02  .583E-02
  .761E-02  .890E-02  .773E-02  .687E-02  .521E-02  .495E-02  .528E-02  .603E-02
  .756E-02  .104E-01  .128E-01  .141E-01  .183E-01  .210E-01  .186E-01  .160E-01
  .120E-01  .117E-01  .109E-01  .970E-02  .103E-01  .109E-01  .115E-01  .106E-01
