Response and Fourier amplitude spectra (78 periods,  .04 -  6.0 sec)   for      
Corrected accelerogram   13577-O0191-20263.11       Chan  1:  Up         from   
Uncorrected Accelerogram Data             Processed: 09/18/20, CGS  ce13577k    
Rcrd of Fri Sep 18, 2020 23:38:26.0 PDT               (Avol1 v2.0, 4/18 CSMIP)  
CSMIP Preliminary Processing            (Origin:  To be determined)             
13577-O0191-20263.11                 Start time:  9/19/20, 06:38:26.0 UTC (GPS) 
Station No. 13577   33.928N, 117.803W    Obsidn  s/n  191  (3 Chns of  3 at Sta)
Olinda - Carbon Canyon Rd A               CGS   Data: Acceleration              
Chan  1:  Up                                                                    
Rcrd of Fri Sep 18, 2020 23:38:26.0 PDT    Fri Sep 18, 2020 23:38:26.0 PDT      
Hypocenter:  To be determined.               ML:  To be determined.             
Instr Period =  .0049 sec,  Damping =  .700,  Sensitivity = 1.25 v/g            
                        Record Length = 63.000 sec.                             
                                     Uncor Max  =   .018 g, at   31.300 sec.    
RMS accel of (uncor) record  =        .   Chn. metadata effective date: 08/02/16
Accelerogram bandpass filtered with 3 dB pts at   .30 and 40.00 cyc/sec         
                 instrument- and base-line correcte                             
                                                                                
                                                                                
                                                                                
                                                                                
                                                                                
Rcrd of Fri Sep 18, 2020 23:38:26.0 PDT    Fri Sep 18, 2020 23:38:26.0 PDT      
                                                                                
13577-O0191-20263.11      Olinda - Carbon Canyon Rd A   Chan  1:  Up            
                                                                                
13577-O0191-20263.11      Olinda - Carbon Canyon Rd A   Chan  1:  Up            
                                                                                
Units for spectra are inches and sec, except Sa is in fraction of g.            
                                                                                
    1  100    1    3    3  200    1    3    1   24   32  191    013577   11    0
    6   38   26    0  263    9   19 2020   10    3  50012600   39   27   74  360
12600    1  100    3  191    1   11  630    2 -999 -999 -999 -999 -999 -999 -999
 -999 -999    3 -99912600    1  202    0   24   20 -999 -999    3    1 -99912600
    312600    4   78    1    3    5    0    0 -999    0    0    1    3    1    2
    2    2    4    0   32   67    0    1 -999    0    0    1    0    0    0  222
    1    0    2    0
      .005      .700    63.000      .001     1.000  1253.600      .018    31.300
   204.000      .596      .475  -999.000     5.000  -999.000     4.000  -999.000
     5.000     -.971     5.000  -999.000    30.000    30.000  -999.000     -.001
      .001      .003     2.000    15.000    33.928  -117.803      .003      .117
    41.525     -.006      .011   227.000    31.000    33.900    13.300   101.480
     1.000    11.003    -8.000  -999.000  -999.000  -999.000  -999.000  -999.000
     6.900     2.000     6.800   980.665      .005    63.000    32.468      .000
  -999.000    40.000  -999.000    63.000      .005      .300  -999.000  -999.000
    31.295    17.319    31.325      .291    32.070      .009      .000      .300
    40.000      .005      .005      .000      .005      .007  -999.000  -999.000
      .086      .110      .027      .012      .001      .000  -999.000  -999.000
  -999.000  -999.000  -999.000  -999.000  -999.000  -999.000  -999.000  -999.000
  -999.000  -999.000  -999.000  -999.000
      .050
      .040      .042      .044      .046      .048      .050      .055      .060
      .065      .070      .075      .080      .085      .090      .095      .100
      .110      .120      .130      .140      .150      .160      .170      .180
      .190      .200      .220      .240      .260      .280      .300      .320
      .340      .360      .380      .400      .420      .440      .460      .480
      .500      .550      .600      .650      .700      .750      .800      .850
      .900      .950     1.000     1.100     1.200     1.300     1.400     1.500
     1.600     1.700     1.800     1.900     2.000     2.200     2.400     2.600
     2.800     3.000     3.200     3.400     3.600     3.800     4.000     4.200
     4.400     4.600     4.800     5.000     5.500     6.000      .000      .000
      .000      .000      .000      .000      .000      .000      .000      .000
      .000      .000      .000      .000      .000      .000      .000      .000
      .000      .000      .000      .000
Fourier amplitude spectra in in/sec.
  .000E+00  .000E+00  .000E+00  .000E+00  .000E+00  .000E+00  .000E+00  .000E+00
  .000E+00  .000E+00  .000E+00  .000E+00  .000E+00  .000E+00  .000E+00  .000E+00
  .000E+00  .000E+00  .000E+00  .000E+00  .000E+00  .000E+00  .000E+00  .000E+00
  .000E+00  .000E+00  .000E+00  .000E+00  .000E+00  .000E+00  .000E+00  .000E+00
  .000E+00  .000E+00  .000E+00  .000E+00  .000E+00  .000E+00  .000E+00  .000E+00
  .000E+00  .000E+00  .000E+00  .000E+00  .000E+00  .000E+00  .000E+00  .000E+00
  .000E+00  .000E+00  .000E+00  .000E+00  .000E+00  .000E+00  .000E+00  .000E+00
  .000E+00  .000E+00  .000E+00  .000E+00  .000E+00  .000E+00  .000E+00  .000E+00
  .000E+00  .000E+00  .000E+00  .000E+00  .000E+00  .000E+00  .000E+00  .000E+00
  .000E+00  .000E+00  .000E+00  .000E+00  .000E+00  .000E+00  .000E+00  .000E+00
  .000E+00  .000E+00  .000E+00  .000E+00  .000E+00  .000E+00  .000E+00  .000E+00
  .000E+00  .000E+00  .000E+00  .000E+00  .000E+00  .000E+00  .000E+00  .000E+00
  .000E+00  .000E+00  .000E+00  .000E+00
Damping =  .05. Data of Sd,Sv,Sa,Pssv,ttSd,ttSv,ttSa :
  .327E-03  .392E-03  .430E-03  .479E-03  .609E-03  .682E-03  .868E-03  .966E-03
  .138E-02  .186E-02  .263E-02  .347E-02  .349E-02  .362E-02  .536E-02  .778E-02
  .100E-01  .108E-01  .841E-02  .686E-02  .643E-02  .916E-02  .978E-02  .869E-02
  .111E-01  .115E-01  .981E-02  .726E-02  .634E-02  .915E-02  .116E-01  .957E-02
  .835E-02  .848E-02  .743E-02  .705E-02  .693E-02  .750E-02  .743E-02  .641E-02
  .624E-02  .777E-02  .831E-02  .612E-02  .542E-02  .463E-02  .446E-02  .463E-02
  .515E-02  .485E-02  .482E-02  .511E-02  .556E-02  .551E-02  .600E-02  .660E-02
  .578E-02  .482E-02  .438E-02  .446E-02  .458E-02  .447E-02  .477E-02  .519E-02
  .540E-02  .522E-02  .472E-02  .451E-02  .454E-02  .446E-02  .434E-02  .420E-02
  .408E-02  .401E-02  .398E-02  .394E-02  .382E-02  .377E-02  .000E+00  .000E+00
  .000E+00  .000E+00  .000E+00  .000E+00  .000E+00  .000E+00  .000E+00  .000E+00
  .000E+00  .000E+00  .000E+00  .000E+00  .000E+00  .000E+00  .000E+00  .000E+00
  .000E+00  .000E+00  .000E+00  .000E+00
  .348E-01  .359E-01  .365E-01  .393E-01  .411E-01  .476E-01  .728E-01  .859E-01
  .102E+00  .122E+00  .183E+00  .234E+00  .235E+00  .229E+00  .321E+00  .460E+00
  .594E+00  .570E+00  .451E+00  .325E+00  .292E+00  .357E+00  .388E+00  .330E+00
  .364E+00  .383E+00  .289E+00  .247E+00  .192E+00  .212E+00  .247E+00  .237E+00
  .186E+00  .180E+00  .181E+00  .187E+00  .177E+00  .166E+00  .172E+00  .173E+00
  .167E+00  .146E+00  .133E+00  .124E+00  .123E+00  .122E+00  .120E+00  .124E+00
  .126E+00  .127E+00  .130E+00  .130E+00  .130E+00  .123E+00  .120E+00  .116E+00
  .115E+00  .115E+00  .114E+00  .113E+00  .111E+00  .112E+00  .112E+00  .112E+00
  .113E+00  .114E+00  .114E+00  .115E+00  .115E+00  .115E+00  .114E+00  .114E+00
  .114E+00  .114E+00  .114E+00  .114E+00  .114E+00  .114E+00  .000E+00  .000E+00
  .000E+00  .000E+00  .000E+00  .000E+00  .000E+00  .000E+00  .000E+00  .000E+00
  .000E+00  .000E+00  .000E+00  .000E+00  .000E+00  .000E+00  .000E+00  .000E+00
  .000E+00  .000E+00  .000E+00  .000E+00
  .209E-01  .228E-01  .228E-01  .232E-01  .272E-01  .280E-01  .297E-01  .278E-01
  .333E-01  .388E-01  .482E-01  .562E-01  .494E-01  .457E-01  .609E-01  .795E-01
  .856E-01  .772E-01  .515E-01  .360E-01  .294E-01  .367E-01  .349E-01  .276E-01
  .316E-01  .297E-01  .208E-01  .130E-01  .965E-02  .120E-01  .133E-01  .962E-02
  .745E-02  .675E-02  .530E-02  .456E-02  .406E-02  .401E-02  .364E-02  .289E-02
  .257E-02  .265E-02  .239E-02  .151E-02  .115E-02  .861E-03  .732E-03  .675E-03
  .670E-03  .558E-03  .556E-03  .499E-03  .465E-03  .368E-03  .333E-03  .322E-03
  .254E-03  .202E-03  .167E-03  .147E-03  .136E-03  .125E-03  .110E-03  .101E-03
  .896E-04  .842E-04  .781E-04  .721E-04  .663E-04  .610E-04  .564E-04  .522E-04
  .486E-04  .457E-04  .431E-04  .408E-04  .358E-04  .321E-04  .000E+00  .000E+00
  .000E+00  .000E+00  .000E+00  .000E+00  .000E+00  .000E+00  .000E+00  .000E+00
  .000E+00  .000E+00  .000E+00  .000E+00  .000E+00  .000E+00  .000E+00  .000E+00
  .000E+00  .000E+00  .000E+00  .000E+00
  .513E-01  .586E-01  .614E-01  .654E-01  .797E-01  .857E-01  .991E-01  .101E+00
  .133E+00  .167E+00  .221E+00  .272E+00  .258E+00  .253E+00  .355E+00  .489E+00
  .573E+00  .566E+00  .407E+00  .308E+00  .269E+00  .360E+00  .361E+00  .303E+00
  .368E+00  .362E+00  .280E+00  .190E+00  .153E+00  .205E+00  .243E+00  .188E+00
  .154E+00  .148E+00  .123E+00  .111E+00  .104E+00  .107E+00  .102E+00  .839E-01
  .784E-01  .888E-01  .870E-01  .592E-01  .486E-01  .388E-01  .350E-01  .342E-01
  .360E-01  .321E-01  .303E-01  .292E-01  .291E-01  .266E-01  .269E-01  .276E-01
  .227E-01  .178E-01  .153E-01  .148E-01  .144E-01  .128E-01  .125E-01  .125E-01
  .121E-01  .109E-01  .927E-02  .834E-02  .792E-02  .737E-02  .682E-02  .628E-02
  .583E-02  .547E-02  .521E-02  .496E-02  .437E-02  .394E-02  .000E+00  .000E+00
  .000E+00  .000E+00  .000E+00  .000E+00  .000E+00  .000E+00  .000E+00  .000E+00
  .000E+00  .000E+00  .000E+00  .000E+00  .000E+00  .000E+00  .000E+00  .000E+00
  .000E+00  .000E+00  .000E+00  .000E+00
  .313E+02  .313E+02  .313E+02  .313E+02  .313E+02  .313E+02  .313E+02  .312E+02
  .316E+02  .313E+02  .313E+02  .314E+02  .314E+02  .314E+02  .316E+02  .316E+02
  .316E+02  .314E+02  .314E+02  .322E+02  .324E+02  .322E+02  .322E+02  .361E+02
  .361E+02  .361E+02  .361E+02  .322E+02  .330E+02  .336E+02  .336E+02  .329E+02
  .325E+02  .356E+02  .348E+02  .325E+02  .325E+02  .324E+02  .324E+02  .324E+02
  .337E+02  .346E+02  .347E+02  .344E+02  .345E+02  .345E+02  .345E+02  .342E+02
  .342E+02  .343E+02  .316E+02  .313E+02  .313E+02  .360E+02  .335E+02  .335E+02
  .336E+02  .345E+02  .345E+02  .345E+02  .345E+02  .345E+02  .345E+02  .360E+02
  .336E+02  .336E+02  .336E+02  .328E+02  .328E+02  .328E+02  .328E+02  .328E+02
  .328E+02  .328E+02  .311E+02  .311E+02  .311E+02  .311E+02  .000E+00  .000E+00
  .000E+00  .000E+00  .000E+00  .000E+00  .000E+00  .000E+00  .000E+00  .000E+00
  .000E+00  .000E+00  .000E+00  .000E+00  .000E+00  .000E+00  .000E+00  .000E+00
  .000E+00  .000E+00  .000E+00  .000E+00
  .315E+02  .315E+02  .315E+02  .320E+02  .320E+02  .308E+02  .313E+02  .324E+02
  .324E+02  .313E+02  .313E+02  .313E+02  .314E+02  .314E+02  .316E+02  .316E+02
  .316E+02  .314E+02  .314E+02  .313E+02  .313E+02  .322E+02  .322E+02  .322E+02
  .361E+02  .361E+02  .361E+02  .316E+02  .322E+02  .329E+02  .338E+02  .328E+02
  .321E+02  .357E+02  .313E+02  .313E+02  .313E+02  .313E+02  .321E+02  .321E+02
  .321E+02  .321E+02  .321E+02  .321E+02  .321E+02  .313E+02  .321E+02  .313E+02
  .313E+02  .313E+02  .313E+02  .313E+02  .321E+02  .321E+02  .321E+02  .321E+02
  .313E+02  .313E+02  .313E+02  .313E+02  .313E+02  .313E+02  .313E+02  .313E+02
  .321E+02  .321E+02  .321E+02  .321E+02  .321E+02  .321E+02  .321E+02  .321E+02
  .321E+02  .321E+02  .321E+02  .313E+02  .313E+02  .313E+02  .000E+00  .000E+00
  .000E+00  .000E+00  .000E+00  .000E+00  .000E+00  .000E+00  .000E+00  .000E+00
  .000E+00  .000E+00  .000E+00  .000E+00  .000E+00  .000E+00  .000E+00  .000E+00
  .000E+00  .000E+00  .000E+00  .000E+00
  .313E+02  .313E+02  .313E+02  .313E+02  .313E+02  .313E+02  .313E+02  .312E+02
  .316E+02  .313E+02  .313E+02  .313E+02  .314E+02  .314E+02  .316E+02  .316E+02
  .316E+02  .314E+02  .314E+02  .322E+02  .324E+02  .322E+02  .322E+02  .361E+02
  .361E+02  .361E+02  .361E+02  .322E+02  .330E+02  .336E+02  .336E+02  .329E+02
  .325E+02  .356E+02  .348E+02  .325E+02  .325E+02  .324E+02  .324E+02  .324E+02
  .337E+02  .346E+02  .347E+02  .344E+02  .345E+02  .345E+02  .345E+02  .342E+02
  .342E+02  .315E+02  .315E+02  .313E+02  .313E+02  .313E+02  .335E+02  .335E+02
  .335E+02  .313E+02  .313E+02  .311E+02  .313E+02  .313E+02  .313E+02  .360E+02
  .311E+02  .311E+02  .311E+02  .311E+02  .311E+02  .311E+02  .311E+02  .311E+02
  .311E+02  .311E+02  .311E+02  .311E+02  .311E+02  .311E+02  .000E+00  .000E+00
  .000E+00  .000E+00  .000E+00  .000E+00  .000E+00  .000E+00  .000E+00  .000E+00
  .000E+00  .000E+00  .000E+00  .000E+00  .000E+00  .000E+00  .000E+00  .000E+00
  .000E+00  .000E+00  .000E+00  .000E+00
/&   ----------  End of spectral data for channel  1  ----------
Response and Fourier amplitude spectra (78 periods,  .04 -  6.0 sec)   for      
Corrected accelerogram   13577-O0191-20263.11       Chan  2: 360 Deg     from   
Uncorrected Accelerogram Data             Processed: 09/18/20, CGS  ce13577k    
Rcrd of Fri Sep 18, 2020 23:38:26.0 PDT               (Avol1 v2.0, 4/18 CSMIP)  
CSMIP Preliminary Processing            (Origin:  To be determined)             
13577-O0191-20263.11                 Start time:  9/19/20, 06:38:26.0 UTC (GPS) 
Station No. 13577   33.928N, 117.803W    Obsidn  s/n  191  (3 Chns of  3 at Sta)
Olinda - Carbon Canyon Rd A               CGS   Data: Acceleration              
Chan  2: 360 Deg                                                                
Rcrd of Fri Sep 18, 2020 23:38:26.0 PDT    Fri Sep 18, 2020 23:38:26.0 PDT      
Hypocenter:  To be determined.               ML:  To be determined.             
Instr Period =  .0051 sec,  Damping =  .700,  Sensitivity = 1.25 v/g            
                        Record Length = 63.000 sec.                             
                                     Uncor Max  =   .015 g, at   31.130 sec.    
RMS accel of (uncor) record  =        .   Chn. metadata effective date: 08/02/16
Accelerogram bandpass filtered with 3 dB pts at   .30 and 40.00 cyc/sec         
                 instrument- and base-line correcte                             
                                                                                
                                                                                
                                                                                
                                                                                
                                                                                
Rcrd of Fri Sep 18, 2020 23:38:26.0 PDT    Fri Sep 18, 2020 23:38:26.0 PDT      
                                                                                
13577-O0191-20263.11      Olinda - Carbon Canyon Rd A   Chan  2: 360 Deg        
                                                                                
13577-O0191-20263.11      Olinda - Carbon Canyon Rd A   Chan  2: 360 Deg        
                                                                                
Units for spectra are inches and sec, except Sa is in fraction of g.            
                                                                                
    2  100    2    3    3  200    1    3    1   24   32  191    013577   11    0
    6   38   26    0  263    9   19 2020   10    3  36012600   39   27   74  360
12600    1  100    3  191    1   11  630    2 -999 -999 -999 -999 -999 -999 -999
 -999 -999    3 -99912600    1  202    0   24   20 -999 -999    3    1 -99912600
    312600    4   78    1    3    5    0    0 -999    0    0    1    3    1    2
    2    2    4    0   32   67    0    1 -999    0    0    1    0    0    0  222
    1    0    2    0
      .005      .700    63.000      .001     1.000  1250.000      .015    31.130
   198.000      .596      .477  -999.000     5.000  -999.000     4.000  -999.000
     5.000    12.283     5.000  -999.000    30.000    30.000  -999.000      .001
     -.002     -.003     2.000    15.000    33.928  -117.803      .003      .229
    90.505     -.020      .013   227.000    31.000    33.900    13.300   101.480
     1.000    11.003    -8.000  -999.000  -999.000  -999.000  -999.000  -999.000
     6.900     2.000     6.800   980.665      .005    63.000    31.513      .000
  -999.000    40.000  -999.000    63.000      .005      .300  -999.000  -999.000
    31.125    15.165    31.945     -.419    33.110      .019      .000      .300
    40.000      .005      .005      .000      .005      .013  -999.000  -999.000
      .066      .170      .034      .027      .001      .000  -999.000  -999.000
  -999.000  -999.000  -999.000  -999.000  -999.000  -999.000  -999.000  -999.000
  -999.000  -999.000  -999.000  -999.000
      .050
      .040      .042      .044      .046      .048      .050      .055      .060
      .065      .070      .075      .080      .085      .090      .095      .100
      .110      .120      .130      .140      .150      .160      .170      .180
      .190      .200      .220      .240      .260      .280      .300      .320
      .340      .360      .380      .400      .420      .440      .460      .480
      .500      .550      .600      .650      .700      .750      .800      .850
      .900      .950     1.000     1.100     1.200     1.300     1.400     1.500
     1.600     1.700     1.800     1.900     2.000     2.200     2.400     2.600
     2.800     3.000     3.200     3.400     3.600     3.800     4.000     4.200
     4.400     4.600     4.800     5.000     5.500     6.000      .000      .000
      .000      .000      .000      .000      .000      .000      .000      .000
      .000      .000      .000      .000      .000      .000      .000      .000
      .000      .000      .000      .000
Fourier amplitude spectra in in/sec.
  .000E+00  .000E+00  .000E+00  .000E+00  .000E+00  .000E+00  .000E+00  .000E+00
  .000E+00  .000E+00  .000E+00  .000E+00  .000E+00  .000E+00  .000E+00  .000E+00
  .000E+00  .000E+00  .000E+00  .000E+00  .000E+00  .000E+00  .000E+00  .000E+00
  .000E+00  .000E+00  .000E+00  .000E+00  .000E+00  .000E+00  .000E+00  .000E+00
  .000E+00  .000E+00  .000E+00  .000E+00  .000E+00  .000E+00  .000E+00  .000E+00
  .000E+00  .000E+00  .000E+00  .000E+00  .000E+00  .000E+00  .000E+00  .000E+00
  .000E+00  .000E+00  .000E+00  .000E+00  .000E+00  .000E+00  .000E+00  .000E+00
  .000E+00  .000E+00  .000E+00  .000E+00  .000E+00  .000E+00  .000E+00  .000E+00
  .000E+00  .000E+00  .000E+00  .000E+00  .000E+00  .000E+00  .000E+00  .000E+00
  .000E+00  .000E+00  .000E+00  .000E+00  .000E+00  .000E+00  .000E+00  .000E+00
  .000E+00  .000E+00  .000E+00  .000E+00  .000E+00  .000E+00  .000E+00  .000E+00
  .000E+00  .000E+00  .000E+00  .000E+00  .000E+00  .000E+00  .000E+00  .000E+00
  .000E+00  .000E+00  .000E+00  .000E+00
Damping =  .05. Data of Sd,Sv,Sa,Pssv,ttSd,ttSv,ttSa :
  .311E-03  .346E-03  .380E-03  .421E-03  .494E-03  .585E-03  .722E-03  .808E-03
  .104E-02  .120E-02  .146E-02  .198E-02  .257E-02  .285E-02  .311E-02  .347E-02
  .544E-02  .762E-02  .940E-02  .112E-01  .137E-01  .162E-01  .184E-01  .151E-01
  .132E-01  .121E-01  .153E-01  .190E-01  .196E-01  .218E-01  .220E-01  .271E-01
  .256E-01  .287E-01  .333E-01  .375E-01  .325E-01  .268E-01  .255E-01  .267E-01
