Response and Fourier amplitude spectra (91 periods,  .04 - 15.0 sec)   for      
Corrected accelerogram   13893-L3531-20263.21       Chan  1:  90 Deg     from   
Uncorrected Accelerogram Data             Processed: 09/19/20, CGS  893aw021    
Rcrd of Fri Sep 18, 2020 23:38:29.0 PDT               (Avol1 v2.0, 4/18 CSMIP)  
CSMIP Preliminary Processing            (Origin:  To be determined)             
13893-L3531-20263.21                 Start time:  9/19/20, 06:38:29.0 UTC (GPS) 
Station No. 13893   33.785N, 117.890W    Etna    s/n 3531  (3 Chns of  3 at Sta)
Orange - I5 & Chapman                     CGS   Data: Acceleration              
Chan  1:  90 Deg                                                                
Rcrd of Fri Sep 18, 2020 23:38:29.0 PDT    Fri Sep 18, 2020 23:38:29.0 PDT      
Hypocenter:  To be determined.               ML:  To be determined.             
Instr Period =  .0048 sec,  Damping =  .700,  Sensitivity =  .63 v/g            
                        Record Length = 60.000 sec.                             
                                     Uncor Max  =  -.009 g, at   31.020 sec.    
RMS accel of (uncor) record  =        .   Chn. metadata effective date: 01/07/05
Accelerogram bandpass filtered with 3 dB pts at   .30 and 23.00 cyc/sec         
                 instrument- and base-line correcte                             
                                                                                
                                                                                
                                                                                
                                                                                
                                                                                
Rcrd of Fri Sep 18, 2020 23:38:29.0 PDT    Fri Sep 18, 2020 23:38:29.0 PDT      
                                                                                
13893-L3531-20263.21      Orange - I5 & Chapman   Chan  1:  90 Deg              
                                                                                
13893-L3531-20263.21      Orange - I5 & Chapman   Chan  1:  90 Deg              
                                                                                
Units for spectra are inches and sec, except Sa is in fraction of g.            
                                                                                
    1  100    1    3    3  200    1    3    1   24   12 3531    013893   11    0
    6   38   29    0  263    9   19 2020   10    3   9012400   39   21   74  360
12400    1  100    3 3531    1   21  620    2 -999 -999 -999 -999 -999 -999 -999
 -999 -999    3 -99912000    1  202    0   18   20 -999 -999    3    1 -99912000
    312000    4   91    1    3    5    0    0 -999    0    0    1    3    1    2
    2    2    4    0   32   67    0    5 -999    0   32    1    0    0    0  222
    0    0    4    0
      .005      .700    62.000      .001     1.000   627.000     -.009    31.020
   210.000      .298      .475  -999.000     5.000  -999.000     4.000  -999.000
     2.500    -3.751     2.500  -999.000    30.000    30.000  -999.000     -.029
      .027      .056     2.000    15.000    33.785  -117.890      .015      .250
    17.210      .037      .074    39.000    30.900    31.400    13.400    90.860
     1.000    11.003    -8.000  -999.000  -999.000  -999.000  -999.000  -999.000
     6.900     2.000     6.800   980.665      .005    60.000    33.423     -.001
  -999.000    23.000  -999.000    60.000      .005      .303  -999.000  -999.000
    31.015    -9.095    30.655     -.329    30.570      .021     -.001      .303
    23.000      .005      .005     -.001      .005      .011  -999.000  -999.000
      .033      .130      .023      .016      .001      .000  -999.000  -999.000
  -999.000  -999.000  -999.000  -999.000  -999.000  -999.000  -999.000  -999.000
  -999.000  -999.000  -999.000  -999.000
      .050
      .040      .042      .044      .046      .048      .050      .055      .060
      .065      .070      .075      .080      .085      .090      .095      .100
      .110      .120      .130      .140      .150      .160      .170      .180
      .190      .200      .220      .240      .260      .280      .300      .320
      .340      .360      .380      .400      .420      .440      .460      .480
      .500      .550      .600      .650      .700      .750      .800      .850
      .900      .950     1.000     1.100     1.200     1.300     1.400     1.500
     1.600     1.700     1.800     1.900     2.000     2.200     2.400     2.600
     2.800     3.000     3.200     3.400     3.600     3.800     4.000     4.200
     4.400     4.600     4.800     5.000     5.500     6.000     6.500     7.000
     7.500     8.000     8.500     9.000     9.500    10.000    11.000    12.000
    13.000    14.000    15.000      .000      .000      .000      .000      .000
      .000      .000      .000      .000
Fourier amplitude spectra in in/sec.
  .000E+00  .000E+00  .000E+00  .000E+00  .000E+00  .000E+00  .000E+00  .000E+00
  .000E+00  .000E+00  .000E+00  .000E+00  .000E+00  .000E+00  .000E+00  .000E+00
  .000E+00  .000E+00  .000E+00  .000E+00  .000E+00  .000E+00  .000E+00  .000E+00
  .000E+00  .000E+00  .000E+00  .000E+00  .000E+00  .000E+00  .000E+00  .000E+00
  .000E+00  .000E+00  .000E+00  .000E+00  .000E+00  .000E+00  .000E+00  .000E+00
  .000E+00  .000E+00  .000E+00  .000E+00  .000E+00  .000E+00  .000E+00  .000E+00
  .000E+00  .000E+00  .000E+00  .000E+00  .000E+00  .000E+00  .000E+00  .000E+00
  .000E+00  .000E+00  .000E+00  .000E+00  .000E+00  .000E+00  .000E+00  .000E+00
  .000E+00  .000E+00  .000E+00  .000E+00  .000E+00  .000E+00  .000E+00  .000E+00
  .000E+00  .000E+00  .000E+00  .000E+00  .000E+00  .000E+00  .000E+00  .000E+00
  .000E+00  .000E+00  .000E+00  .000E+00  .000E+00  .000E+00  .000E+00  .000E+00
  .000E+00  .000E+00  .000E+00  .000E+00  .000E+00  .000E+00  .000E+00  .000E+00
  .000E+00  .000E+00  .000E+00  .000E+00
Damping =  .05. Data of Sd,Sv,Sa,Pssv,ttSd,ttSv,ttSa :
  .148E-03  .160E-03  .182E-03  .203E-03  .221E-03  .259E-03  .363E-03  .425E-03
  .471E-03  .729E-03  .967E-03  .117E-02  .125E-02  .123E-02  .138E-02  .175E-02
  .277E-02  .416E-02  .551E-02  .592E-02  .584E-02  .523E-02  .483E-02  .521E-02
  .665E-02  .844E-02  .139E-01  .174E-01  .153E-01  .131E-01  .137E-01  .145E-01
  .166E-01  .187E-01  .205E-01  .210E-01  .220E-01  .246E-01  .262E-01  .275E-01
  .277E-01  .246E-01  .220E-01  .224E-01  .214E-01  .196E-01  .177E-01  .162E-01
  .145E-01  .127E-01  .117E-01  .111E-01  .110E-01  .135E-01  .130E-01  .181E-01
  .165E-01  .163E-01  .124E-01  .140E-01  .148E-01  .140E-01  .145E-01  .125E-01
  .117E-01  .100E-01  .924E-02  .864E-02  .841E-02  .810E-02  .825E-02  .843E-02
  .857E-02  .876E-02  .865E-02  .852E-02  .862E-02  .824E-02  .812E-02  .817E-02
  .842E-02  .823E-02  .814E-02  .834E-02  .855E-02  .854E-02  .818E-02  .813E-02
  .844E-02  .864E-02  .858E-02  .000E+00  .000E+00  .000E+00  .000E+00  .000E+00
  .000E+00  .000E+00  .000E+00  .000E+00
  .731E-02  .869E-02  .965E-02  .111E-01  .135E-01  .143E-01  .165E-01  .243E-01
  .299E-01  .411E-01  .478E-01  .538E-01  .551E-01  .612E-01  .794E-01  .819E-01
  .113E+00  .175E+00  .231E+00  .247E+00  .225E+00  .195E+00  .171E+00  .172E+00
  .203E+00  .248E+00  .376E+00  .451E+00  .360E+00  .300E+00  .316E+00  .326E+00
  .335E+00  .336E+00  .378E+00  .400E+00  .409E+00  .411E+00  .391E+00  .364E+00
  .383E+00  .381E+00  .341E+00  .296E+00  .247E+00  .205E+00  .176E+00  .173E+00
  .172E+00  .171E+00  .167E+00  .159E+00  .156E+00  .152E+00  .149E+00  .150E+00
  .152E+00  .152E+00  .151E+00  .147E+00  .144E+00  .141E+00  .141E+00  .140E+00
  .139E+00  .137E+00  .135E+00  .133E+00  .133E+00  .133E+00  .133E+00  .132E+00
  .132E+00  .132E+00  .132E+00  .131E+00  .132E+00  .131E+00  .131E+00  .131E+00
  .131E+00  .130E+00  .130E+00  .130E+00  .130E+00  .130E+00  .130E+00  .130E+00
  .130E+00  .130E+00  .130E+00  .000E+00  .000E+00  .000E+00  .000E+00  .000E+00
  .000E+00  .000E+00  .000E+00  .000E+00
  .948E-02  .927E-02  .965E-02  .983E-02  .983E-02  .106E-01  .123E-01  .121E-01
  .115E-01  .152E-01  .176E-01  .188E-01  .178E-01  .155E-01  .158E-01  .179E-01
  .234E-01  .296E-01  .335E-01  .311E-01  .267E-01  .209E-01  .171E-01  .166E-01
  .189E-01  .217E-01  .296E-01  .311E-01  .232E-01  .171E-01  .156E-01  .146E-01
  .148E-01  .149E-01  .146E-01  .135E-01  .128E-01  .131E-01  .127E-01  .123E-01
  .114E-01  .839E-02  .630E-02  .549E-02  .453E-02  .362E-02  .289E-02  .235E-02
  .188E-02  .149E-02  .122E-02  .958E-03  .807E-03  .825E-03  .685E-03  .835E-03
  .670E-03  .583E-03  .398E-03  .401E-03  .384E-03  .305E-03  .271E-03  .196E-03
  .160E-03  .118E-03  .107E-03  .979E-04  .890E-04  .813E-04  .743E-04  .703E-04
  .655E-04  .613E-04  .586E-04  .558E-04  .480E-04  .440E-04  .388E-04  .356E-04
  .333E-04  .306E-04  .281E-04  .264E-04  .250E-04  .236E-04  .207E-04  .186E-04
  .170E-04  .158E-04  .146E-04  .000E+00  .000E+00  .000E+00  .000E+00  .000E+00
  .000E+00  .000E+00  .000E+00  .000E+00
  .233E-01  .239E-01  .260E-01  .278E-01  .290E-01  .325E-01  .415E-01  .445E-01
  .455E-01  .654E-01  .810E-01  .922E-01  .925E-01  .856E-01  .915E-01  .110E+00
  .158E+00  .218E+00  .266E+00  .266E+00  .245E+00  .205E+00  .179E+00  .182E+00
  .220E+00  .265E+00  .398E+00  .456E+00  .369E+00  .293E+00  .286E+00  .285E+00
  .307E+00  .326E+00  .338E+00  .330E+00  .329E+00  .351E+00  .358E+00  .360E+00
  .349E+00  .281E+00  .230E+00  .217E+00  .192E+00  .164E+00  .139E+00  .120E+00
  .101E+00  .837E-01  .734E-01  .632E-01  .578E-01  .653E-01  .584E-01  .760E-01
  .649E-01  .603E-01  .433E-01  .463E-01  .464E-01  .401E-01  .380E-01  .303E-01
  .263E-01  .210E-01  .181E-01  .160E-01  .147E-01  .134E-01  .130E-01  .126E-01
  .122E-01  .120E-01  .113E-01  .107E-01  .984E-02  .863E-02  .785E-02  .733E-02
  .705E-02  .646E-02  .602E-02  .582E-02  .565E-02  .537E-02  .467E-02  .426E-02
  .408E-02  .388E-02  .360E-02  .000E+00  .000E+00  .000E+00  .000E+00  .000E+00
  .000E+00  .000E+00  .000E+00  .000E+00
  .310E+02  .310E+02  .310E+02  .310E+02  .310E+02  .310E+02  .310E+02  .310E+02
  .308E+02  .310E+02  .310E+02  .310E+02  .310E+02  .308E+02  .322E+02  .310E+02
  .310E+02  .310E+02  .310E+02  .311E+02  .312E+02  .309E+02  .313E+02  .313E+02
  .313E+02  .313E+02  .313E+02  .314E+02  .315E+02  .315E+02  .315E+02  .314E+02
  .312E+02  .312E+02  .313E+02  .313E+02  .311E+02  .311E+02  .311E+02  .311E+02
  .311E+02  .312E+02  .310E+02  .310E+02  .310E+02  .310E+02  .310E+02  .310E+02
  .310E+02  .310E+02  .308E+02  .308E+02  .308E+02  .500E+02  .496E+02  .421E+02
  .446E+02  .497E+02  .507E+02  .477E+02  .477E+02  .441E+02  .388E+02  .417E+02
  .382E+02  .371E+02  .306E+02  .306E+02  .306E+02  .306E+02  .337E+02  .337E+02
  .337E+02  .337E+02  .337E+02  .337E+02  .337E+02  .306E+02  .337E+02  .306E+02
  .306E+02  .306E+02  .306E+02  .306E+02  .306E+02  .306E+02  .306E+02  .306E+02
  .306E+02  .306E+02  .306E+02  .000E+00  .000E+00  .000E+00  .000E+00  .000E+00
  .000E+00  .000E+00  .000E+00  .000E+00
  .308E+02  .308E+02  .308E+02  .308E+02  .308E+02  .310E+02  .310E+02  .308E+02
  .308E+02  .310E+02  .310E+02  .310E+02  .308E+02  .308E+02  .321E+02  .321E+02
  .311E+02  .311E+02  .311E+02  .311E+02  .309E+02  .308E+02  .328E+02  .328E+02
  .313E+02  .313E+02  .313E+02  .315E+02  .314E+02  .314E+02  .314E+02  .314E+02
  .313E+02  .312E+02  .312E+02  .312E+02  .312E+02  .312E+02  .312E+02  .310E+02
  .311E+02  .311E+02  .311E+02  .311E+02  .311E+02  .311E+02  .309E+02  .310E+02
  .310E+02  .306E+02  .306E+02  .306E+02  .306E+02  .306E+02  .306E+02  .306E+02
  .306E+02  .306E+02  .306E+02  .306E+02  .306E+02  .306E+02  .306E+02  .306E+02
  .306E+02  .306E+02  .306E+02  .306E+02  .306E+02  .306E+02  .306E+02  .306E+02
  .306E+02  .306E+02  .306E+02  .306E+02  .306E+02  .306E+02  .306E+02  .306E+02
  .306E+02  .306E+02  .306E+02  .306E+02  .306E+02  .306E+02  .306E+02  .306E+02
  .306E+02  .306E+02  .306E+02  .000E+00  .000E+00  .000E+00  .000E+00  .000E+00
  .000E+00  .000E+00  .000E+00  .000E+00
  .310E+02  .310E+02  .310E+02  .310E+02  .310E+02  .310E+02  .310E+02  .310E+02
  .308E+02  .310E+02  .310E+02  .310E+02  .310E+02  .308E+02  .322E+02  .310E+02
  .310E+02  .310E+02  .310E+02  .311E+02  .312E+02  .309E+02  .313E+02  .313E+02
  .313E+02  .313E+02  .313E+02  .314E+02  .315E+02  .315E+02  .315E+02  .314E+02
  .312E+02  .312E+02  .312E+02  .313E+02  .311E+02  .311E+02  .311E+02  .311E+02
  .311E+02  .312E+02  .310E+02  .310E+02  .310E+02  .310E+02  .310E+02  .310E+02
  .310E+02  .310E+02  .308E+02  .308E+02  .308E+02  .500E+02  .496E+02  .421E+02
  .445E+02  .497E+02  .507E+02  .476E+02  .477E+02  .440E+02  .387E+02  .388E+02
  .382E+02  .370E+02  .310E+02  .310E+02  .310E+02  .310E+02  .310E+02  .310E+02
  .310E+02  .310E+02  .310E+02  .310E+02  .310E+02  .310E+02  .310E+02  .310E+02
  .310E+02  .310E+02  .310E+02  .310E+02  .310E+02  .310E+02  .310E+02  .310E+02
  .310E+02  .310E+02  .310E+02  .000E+00  .000E+00  .000E+00  .000E+00  .000E+00
  .000E+00  .000E+00  .000E+00  .000E+00
/&   ----------  End of spectral data for channel  1  ----------
Response and Fourier amplitude spectra (91 periods,  .04 - 15.0 sec)   for      
Corrected accelerogram   13893-L3531-20263.21       Chan  2: 360 Deg     from   
Uncorrected Accelerogram Data             Processed: 09/19/20, CGS  893aw021    
Rcrd of Fri Sep 18, 2020 23:38:29.0 PDT               (Avol1 v2.0, 4/18 CSMIP)  
CSMIP Preliminary Processing            (Origin:  To be determined)             
13893-L3531-20263.21                 Start time:  9/19/20, 06:38:29.0 UTC (GPS) 
Station No. 13893   33.785N, 117.890W    Etna    s/n 3531  (3 Chns of  3 at Sta)
Orange - I5 & Chapman                     CGS   Data: Acceleration              
Chan  2: 360 Deg                                                                
Rcrd of Fri Sep 18, 2020 23:38:29.0 PDT    Fri Sep 18, 2020 23:38:29.0 PDT      
Hypocenter:  To be determined.               ML:  To be determined.             
Instr Period =  .0046 sec,  Damping =  .700,  Sensitivity =  .63 v/g            
                        Record Length = 60.000 sec.                             
                                     Uncor Max  =  -.008 g, at   36.370 sec.    
RMS accel of (uncor) record  =        .   Chn. metadata effective date: 01/07/05
Accelerogram bandpass filtered with 3 dB pts at   .30 and 23.00 cyc/sec         
                 instrument- and base-line correcte                             
                                                                                
                                                                                
                                                                                
                                                                                
                                                                                
Rcrd of Fri Sep 18, 2020 23:38:29.0 PDT    Fri Sep 18, 2020 23:38:29.0 PDT      
                                                                                
13893-L3531-20263.21      Orange - I5 & Chapman   Chan  2: 360 Deg              
                                                                                
13893-L3531-20263.21      Orange - I5 & Chapman   Chan  2: 360 Deg              
                                                                                
Units for spectra are inches and sec, except Sa is in fraction of g.            
                                                                                
    2  100    2    3    3  200    1    3    1   24   12 3531    013893   11    0
    6   38   29    0  263    9   19 2020   10    3  36012400   39   21   74  360
12400    1  100    3 3531    1   21  620    2 -999 -999 -999 -999 -999 -999 -999
 -999 -999    3 -99912000    1  202    0   18   20 -999 -999    3    1 -99912000
    312000    4   91    1    3    5    0    0 -999    0    0    1    3    1    2
    2    2    4    0   32   67    0    5 -999    0   32    1    0    0    0  222
    0    0    4    0
      .005      .700    62.000      .001     1.000   626.000     -.008    36.370
   218.000      .298      .476  -999.000     5.000  -999.000     4.000  -999.000
     2.500   -33.733     2.500  -999.000    30.000    30.000  -999.000      .000
      .000      .000     2.000    15.000    33.785  -117.890      .015      .334
    22.699     -.024      .025    39.000    30.900    31.400    13.400    90.860
     1.000    11.003    -8.000  -999.000  -999.000  -999.000  -999.000  -999.000
     6.900     2.000     6.800   980.665      .005    60.000    34.696      .001
  -999.000    23.000  -999.000    60.000      .005      .303  -999.000  -999.000
    36.370    -7.708    31.050     -.372    36.715     -.034      .000      .303
    23.000      .005      .005      .000      .005      .017  -999.000  -999.000
      .038      .220      .031      .022      .002      .000  -999.000  -999.000
  -999.000  -999.000  -999.000  -999.000  -999.000  -999.000  -999.000  -999.000
  -999.000  -999.000  -999.000  -999.000
      .050
      .040      .042      .044      .046      .048      .050      .055      .060
      .065      .070      .075      .080      .085      .090      .095      .100
      .110      .120      .130      .140      .150      .160      .170      .180
      .190      .200      .220      .240      .260      .280      .300      .320
      .340      .360      .380      .400      .420      .440      .460      .480
      .500      .550      .600      .650      .700      .750      .800      .850
      .900      .950     1.000     1.100     1.200     1.300     1.400     1.500
     1.600     1.700     1.800     1.900     2.000     2.200     2.400     2.600
     2.800     3.000     3.200     3.400     3.600     3.800     4.000     4.200
     4.400     4.600     4.800     5.000     5.500     6.000     6.500     7.000
     7.500     8.000     8.500     9.000     9.500    10.000    11.000    12.000
    13.000    14.000    15.000      .000      .000      .000      .000      .000
      .000      .000      .000      .000
Fourier amplitude spectra in in/sec.
  .000E+00  .000E+00  .000E+00  .000E+00  .000E+00  .000E+00  .000E+00  .000E+00
  .000E+00  .000E+00  .000E+00  .000E+00  .000E+00  .000E+00  .000E+00  .000E+00
  .000E+00  .000E+00  .000E+00  .000E+00  .000E+00  .000E+00  .000E+00  .000E+00
  .000E+00  .000E+00  .000E+00  .000E+00  .000E+00  .000E+00  .000E+00  .000E+00
  .000E+00  .000E+00  .000E+00  .000E+00  .000E+00  .000E+00  .000E+00  .000E+00
  .000E+00  .000E+00  .000E+00  .000E+00  .000E+00  .000E+00  .000E+00  .000E+00
  .000E+00  .000E+00  .000E+00  .000E+00  .000E+00  .000E+00  .000E+00  .000E+00
  .000E+00  .000E+00  .000E+00  .000E+00  .000E+00  .000E+00  .000E+00  .000E+00
  .000E+00  .000E+00  .000E+00  .000E+00  .000E+00  .000E+00  .000E+00  .000E+00
  .000E+00  .000E+00  .000E+00  .000E+00  .000E+00  .000E+00  .000E+00  .000E+00
  .000E+00  .000E+00  .000E+00  .000E+00  .000E+00  .000E+00  .000E+00  .000E+00
  .000E+00  .000E+00  .000E+00  .000E+00  .000E+00  .000E+00  .000E+00  .000E+00
  .000E+00  .000E+00  .000E+00  .000E+00
Damping =  .05. Data of Sd,Sv,Sa,Pssv,ttSd,ttSv,ttSa :
  .130E-03  .143E-03  .156E-03  .177E-03  .199E-03  .230E-03  .282E-03  .357E-03
  .551E-03  .793E-03  .807E-03  .963E-03  .109E-02  .128E-02  .131E-02  .160E-02
  .210E-02  .257E-02  .298E-02  .363E-02  .381E-02  .402E-02  .532E-02  .661E-02
  .944E-02  .111E-01  .180E-01  .147E-01  .132E-01  .171E-01  .227E-01  .183E-01
  .190E-01  .242E-01  .232E-01  .254E-01  .267E-01  .252E-01  .204E-01  .237E-01
