Response and Fourier amplitude spectra (78 periods,  .04 -  6.0 sec)   for      
Corrected accelerogram   14182-N2598-20263.02       Chan  1: 180 Deg     from   
Uncorrected Accelerogram Data             Processed: 09/18/20, CGS  ce14182b    
Rcrd of Fri Sep 18, 2020 23:38:21.0 PDT               (Avol1 v2.0, 4/18 CSMIP)  
CSMIP Preliminary Processing            (Origin:  To be determined)             
14182-N2598-20263.02                 Start time:  9/19/20, 06:38:21.0 UTC (GPS) 
Station No. 14182   33.971N, 118.038W    Etna2   s/n 2598  (3 Chns of  3 at Sta)
Whittier - Greenleaf & Walnut             CGS   Data: Acceleration              
Chan  1: 180 Deg                                                                
Rcrd of Fri Sep 18, 2020 23:38:21.0 PDT    Fri Sep 18, 2020 23:38:21.0 PDT      
Hypocenter:  To be determined.               ML:  To be determined.             
Instr Period =  .0049 sec,  Damping =  .700,  Sensitivity =  .63 v/g            
                        Record Length = 69.000 sec.                             
                                     Uncor Max  =  -.193 g, at   33.070 sec.    
RMS accel of (uncor) record  =        .   Chn. metadata effective date: 05/06/20
Accelerogram bandpass filtered with 3 dB pts at   .30 and 40.00 cyc/sec         
                 instrument- and base-line correcte                             
                                                                                
                                                                                
                                                                                
                                                                                
                                                                                
Rcrd of Fri Sep 18, 2020 23:38:21.0 PDT    Fri Sep 18, 2020 23:38:21.0 PDT      
                                                                                
14182-N2598-20263.02      Whittier - Greenleaf & Walnut   Chan  1: 180 Deg      
                                                                                
14182-N2598-20263.02      Whittier - Greenleaf & Walnut   Chan  1: 180 Deg      
                                                                                
Units for spectra are inches and sec, except Sa is in fraction of g.            
                                                                                
    1  100    1    3    3  200    1    3    1   24   22 2598    014182   11    0
    6   38   21    0  263    9   19 2020   10    3  18013800   39   29   74  360
13800    1  100    3 2598    1    2  690    2 -999 -999 -999 -999 -999 -999 -999
 -999 -999    3 -999 6900    2  202    0   24   20 -999 -999    3    1 -999 6900
    3 6900    4   78    1    3    5    0    0 -999    0    0    1    3    1    2
    2    2    4    0   32   67    9    1 -999    0    0    1    0    0    4  222
    1    0    0    0
      .005      .700    69.000      .008     1.000   626.000     -.193    33.070
   206.000      .298      .476  -999.000     5.000  -999.000     4.000  -999.000
     2.500    -7.255     2.500  -999.000    30.000    30.000  -999.000     -.009
      .007      .015     2.000    15.000    33.971  -118.038      .006      .313
    49.706     -.006      .037    79.000    31.000    39.900    13.600   109.040
     1.000    11.003    -8.000  -999.000  -999.000  -999.000  -999.000  -999.000
     6.900     2.000     6.800   980.665      .010    69.000    32.786      .000
  -999.000    40.000  -999.000    69.000      .010      .300  -999.000  -999.000
    33.070  -187.064    33.030     3.996    32.950     -.191      .000      .300
    40.000      .010      .010      .000     1.140      .041  -999.000  -999.000
      .644      .110      .306      .144      .009      .001  -999.000  -999.000
  -999.000  -999.000  -999.000  -999.000  -999.000  -999.000  -999.000  -999.000
  -999.000  -999.000  -999.000  -999.000
      .050
      .040      .042      .044      .046      .048      .050      .055      .060
      .065      .070      .075      .080      .085      .090      .095      .100
      .110      .120      .130      .140      .150      .160      .170      .180
      .190      .200      .220      .240      .260      .280      .300      .320
      .340      .360      .380      .400      .420      .440      .460      .480
      .500      .550      .600      .650      .700      .750      .800      .850
      .900      .950     1.000     1.100     1.200     1.300     1.400     1.500
     1.600     1.700     1.800     1.900     2.000     2.200     2.400     2.600
     2.800     3.000     3.200     3.400     3.600     3.800     4.000     4.200
     4.400     4.600     4.800     5.000     5.500     6.000      .000      .000
      .000      .000      .000      .000      .000      .000      .000      .000
      .000      .000      .000      .000      .000      .000      .000      .000
      .000      .000      .000      .000
Fourier amplitude spectra in in/sec.
  .000E+00  .000E+00  .000E+00  .000E+00  .000E+00  .000E+00  .000E+00  .000E+00
  .000E+00  .000E+00  .000E+00  .000E+00  .000E+00  .000E+00  .000E+00  .000E+00
  .000E+00  .000E+00  .000E+00  .000E+00  .000E+00  .000E+00  .000E+00  .000E+00
  .000E+00  .000E+00  .000E+00  .000E+00  .000E+00  .000E+00  .000E+00  .000E+00
  .000E+00  .000E+00  .000E+00  .000E+00  .000E+00  .000E+00  .000E+00  .000E+00
  .000E+00  .000E+00  .000E+00  .000E+00  .000E+00  .000E+00  .000E+00  .000E+00
  .000E+00  .000E+00  .000E+00  .000E+00  .000E+00  .000E+00  .000E+00  .000E+00
  .000E+00  .000E+00  .000E+00  .000E+00  .000E+00  .000E+00  .000E+00  .000E+00
  .000E+00  .000E+00  .000E+00  .000E+00  .000E+00  .000E+00  .000E+00  .000E+00
  .000E+00  .000E+00  .000E+00  .000E+00  .000E+00  .000E+00  .000E+00  .000E+00
  .000E+00  .000E+00  .000E+00  .000E+00  .000E+00  .000E+00  .000E+00  .000E+00
  .000E+00  .000E+00  .000E+00  .000E+00  .000E+00  .000E+00  .000E+00  .000E+00
  .000E+00  .000E+00  .000E+00  .000E+00
Damping =  .05. Data of Sd,Sv,Sa,Pssv,ttSd,ttSv,ttSa :
  .337E-02  .374E-02  .402E-02  .429E-02  .465E-02  .517E-02  .694E-02  .876E-02
  .121E-01  .152E-01  .185E-01  .224E-01  .268E-01  .346E-01  .465E-01  .497E-01
  .766E-01  .834E-01  .772E-01  .972E-01  .896E-01  .955E-01  .121E+00  .143E+00
  .131E+00  .112E+00  .119E+00  .157E+00  .175E+00  .148E+00  .117E+00  .102E+00
  .106E+00  .114E+00  .136E+00  .161E+00  .179E+00  .190E+00  .190E+00  .184E+00
  .171E+00  .140E+00  .144E+00  .134E+00  .117E+00  .100E+00  .901E-01  .886E-01
  .861E-01  .831E-01  .803E-01  .821E-01  .844E-01  .870E-01  .912E-01  .915E-01
  .908E-01  .912E-01  .910E-01  .904E-01  .927E-01  .969E-01  .953E-01  .909E-01
  .844E-01  .849E-01  .877E-01  .895E-01  .905E-01  .908E-01  .906E-01  .902E-01
  .894E-01  .886E-01  .877E-01  .868E-01  .846E-01  .828E-01  .000E+00  .000E+00
  .000E+00  .000E+00  .000E+00  .000E+00  .000E+00  .000E+00  .000E+00  .000E+00
  .000E+00  .000E+00  .000E+00  .000E+00  .000E+00  .000E+00  .000E+00  .000E+00
  .000E+00  .000E+00  .000E+00  .000E+00
  .156E+00  .188E+00  .231E+00  .264E+00  .287E+00  .305E+00  .401E+00  .433E+00
  .599E+00  .875E+00  .109E+01  .123E+01  .149E+01  .189E+01  .262E+01  .280E+01
  .403E+01  .428E+01  .373E+01  .432E+01  .392E+01  .387E+01  .484E+01  .516E+01
  .477E+01  .401E+01  .399E+01  .469E+01  .460E+01  .445E+01  .386E+01  .346E+01
  .342E+01  .366E+01  .385E+01  .382E+01  .359E+01  .320E+01  .273E+01  .289E+01
  .297E+01  .294E+01  .273E+01  .235E+01  .201E+01  .177E+01  .162E+01  .157E+01
  .165E+01  .170E+01  .172E+01  .171E+01  .166E+01  .160E+01  .162E+01  .166E+01
  .169E+01  .171E+01  .172E+01  .173E+01  .173E+01  .171E+01  .170E+01  .168E+01
  .167E+01  .165E+01  .164E+01  .162E+01  .161E+01  .160E+01  .159E+01  .159E+01
  .158E+01  .158E+01  .157E+01  .157E+01  .157E+01  .156E+01  .000E+00  .000E+00
  .000E+00  .000E+00  .000E+00  .000E+00  .000E+00  .000E+00  .000E+00  .000E+00
  .000E+00  .000E+00  .000E+00  .000E+00  .000E+00  .000E+00  .000E+00  .000E+00
  .000E+00  .000E+00  .000E+00  .000E+00
  .216E+00  .217E+00  .213E+00  .208E+00  .206E+00  .211E+00  .234E+00  .250E+00
  .292E+00  .319E+00  .334E+00  .361E+00  .377E+00  .435E+00  .524E+00  .516E+00
  .644E+00  .601E+00  .471E+00  .510E+00  .415E+00  .378E+00  .430E+00  .453E+00
  .376E+00  .287E+00  .256E+00  .277E+00  .264E+00  .193E+00  .135E+00  .104E+00
  .954E-01  .907E-01  .978E-01  .104E+00  .105E+00  .101E+00  .931E-01  .829E-01
  .711E-01  .478E-01  .415E-01  .328E-01  .247E-01  .185E-01  .146E-01  .127E-01
  .110E-01  .955E-02  .863E-02  .738E-02  .643E-02  .608E-02  .555E-02  .494E-02
  .431E-02  .371E-02  .327E-02  .296E-02  .268E-02  .224E-02  .191E-02  .165E-02
  .144E-02  .127E-02  .112E-02  .103E-02  .951E-03  .875E-03  .807E-03  .747E-03
  .693E-03  .645E-03  .603E-03  .572E-03  .509E-03  .459E-03  .000E+00  .000E+00
  .000E+00  .000E+00  .000E+00  .000E+00  .000E+00  .000E+00  .000E+00  .000E+00
  .000E+00  .000E+00  .000E+00  .000E+00  .000E+00  .000E+00  .000E+00  .000E+00
  .000E+00  .000E+00  .000E+00  .000E+00
  .529E+00  .560E+00  .573E+00  .586E+00  .609E+00  .650E+00  .793E+00  .917E+00
  .117E+01  .136E+01  .155E+01  .176E+01  .198E+01  .242E+01  .307E+01  .312E+01
  .437E+01  .437E+01  .373E+01  .436E+01  .375E+01  .375E+01  .447E+01  .498E+01
  .432E+01  .352E+01  .341E+01  .411E+01  .422E+01  .333E+01  .245E+01  .201E+01
  .195E+01  .200E+01  .226E+01  .253E+01  .267E+01  .271E+01  .259E+01  .240E+01
  .215E+01  .160E+01  .151E+01  .130E+01  .105E+01  .839E+00  .708E+00  .655E+00
  .601E+00  .550E+00  .504E+00  .469E+00  .442E+00  .421E+00  .409E+00  .383E+00
  .357E+00  .337E+00  .318E+00  .299E+00  .291E+00  .277E+00  .250E+00  .220E+00
  .189E+00  .178E+00  .172E+00  .165E+00  .158E+00  .150E+00  .142E+00  .135E+00
  .128E+00  .121E+00  .115E+00  .109E+00  .967E-01  .867E-01  .000E+00  .000E+00
  .000E+00  .000E+00  .000E+00  .000E+00  .000E+00  .000E+00  .000E+00  .000E+00
  .000E+00  .000E+00  .000E+00  .000E+00  .000E+00  .000E+00  .000E+00  .000E+00
  .000E+00  .000E+00  .000E+00  .000E+00
  .331E+02  .331E+02  .331E+02  .331E+02  .331E+02  .331E+02  .331E+02  .331E+02
  .331E+02  .331E+02  .331E+02  .331E+02  .331E+02  .331E+02  .331E+02  .331E+02
  .331E+02  .332E+02  .332E+02  .332E+02  .332E+02  .332E+02  .332E+02  .332E+02
  .332E+02  .332E+02  .332E+02  .331E+02  .331E+02  .331E+02  .331E+02  .331E+02
  .331E+02  .331E+02  .330E+02  .330E+02  .330E+02  .330E+02  .330E+02  .331E+02
  .331E+02  .329E+02  .329E+02  .329E+02  .329E+02  .330E+02  .327E+02  .327E+02
  .327E+02  .328E+02  .328E+02  .324E+02  .324E+02  .331E+02  .331E+02  .331E+02
  .324E+02  .324E+02  .324E+02  .324E+02  .335E+02  .335E+02  .335E+02  .335E+02
  .335E+02  .329E+02  .329E+02  .329E+02  .329E+02  .329E+02  .329E+02  .329E+02
  .329E+02  .329E+02  .329E+02  .329E+02  .329E+02  .329E+02  .000E+00  .000E+00
  .000E+00  .000E+00  .000E+00  .000E+00  .000E+00  .000E+00  .000E+00  .000E+00
  .000E+00  .000E+00  .000E+00  .000E+00  .000E+00  .000E+00  .000E+00  .000E+00
  .000E+00  .000E+00  .000E+00  .000E+00
  .331E+02  .331E+02  .331E+02  .331E+02  .331E+02  .331E+02  .330E+02  .325E+02
  .331E+02  .331E+02  .331E+02  .331E+02  .332E+02  .332E+02  .332E+02  .332E+02
  .332E+02  .332E+02  .333E+02  .333E+02  .332E+02  .332E+02  .332E+02  .332E+02
  .331E+02  .331E+02  .331E+02  .331E+02  .331E+02  .331E+02  .331E+02  .331E+02
  .331E+02  .331E+02  .331E+02  .331E+02  .331E+02  .331E+02  .331E+02  .330E+02
  .330E+02  .330E+02  .330E+02  .330E+02  .330E+02  .330E+02  .329E+02  .331E+02
  .331E+02  .331E+02  .331E+02  .331E+02  .331E+02  .331E+02  .330E+02  .330E+02
  .330E+02  .330E+02  .330E+02  .330E+02  .330E+02  .330E+02  .330E+02  .330E+02
  .330E+02  .330E+02  .330E+02  .330E+02  .330E+02  .330E+02  .330E+02  .330E+02
  .330E+02  .330E+02  .330E+02  .330E+02  .330E+02  .330E+02  .000E+00  .000E+00
  .000E+00  .000E+00  .000E+00  .000E+00  .000E+00  .000E+00  .000E+00  .000E+00
  .000E+00  .000E+00  .000E+00  .000E+00  .000E+00  .000E+00  .000E+00  .000E+00
  .000E+00  .000E+00  .000E+00  .000E+00
  .331E+02  .331E+02  .331E+02  .331E+02  .331E+02  .331E+02  .331E+02  .331E+02
  .331E+02  .331E+02  .331E+02  .331E+02  .331E+02  .331E+02  .331E+02  .331E+02
  .331E+02  .332E+02  .334E+02  .332E+02  .332E+02  .332E+02  .332E+02  .332E+02
  .332E+02  .332E+02  .332E+02  .331E+02  .331E+02  .331E+02  .331E+02  .331E+02
  .331E+02  .331E+02  .330E+02  .330E+02  .330E+02  .330E+02  .330E+02  .330E+02
  .330E+02  .329E+02  .329E+02  .329E+02  .329E+02  .329E+02  .327E+02  .327E+02
  .327E+02  .327E+02  .324E+02  .324E+02  .324E+02  .330E+02  .330E+02  .330E+02
  .330E+02  .330E+02  .324E+02  .324E+02  .324E+02  .324E+02  .324E+02  .324E+02
  .324E+02  .324E+02  .324E+02  .329E+02  .329E+02  .329E+02  .329E+02  .329E+02
  .329E+02  .329E+02  .329E+02  .331E+02  .331E+02  .331E+02  .000E+00  .000E+00
  .000E+00  .000E+00  .000E+00  .000E+00  .000E+00  .000E+00  .000E+00  .000E+00
  .000E+00  .000E+00  .000E+00  .000E+00  .000E+00  .000E+00  .000E+00  .000E+00
  .000E+00  .000E+00  .000E+00  .000E+00
/&   ----------  End of spectral data for channel  1  ----------
Response and Fourier amplitude spectra (78 periods,  .04 -  6.0 sec)   for      
Corrected accelerogram   14182-N2598-20263.02       Chan  2:  90 Deg     from   
Uncorrected Accelerogram Data             Processed: 09/18/20, CGS  ce14182b    
Rcrd of Fri Sep 18, 2020 23:38:21.0 PDT               (Avol1 v2.0, 4/18 CSMIP)  
CSMIP Preliminary Processing            (Origin:  To be determined)             
14182-N2598-20263.02                 Start time:  9/19/20, 06:38:21.0 UTC (GPS) 
Station No. 14182   33.971N, 118.038W    Etna2   s/n 2598  (3 Chns of  3 at Sta)
Whittier - Greenleaf & Walnut             CGS   Data: Acceleration              
Chan  2:  90 Deg                                                                
Rcrd of Fri Sep 18, 2020 23:38:21.0 PDT    Fri Sep 18, 2020 23:38:21.0 PDT      
Hypocenter:  To be determined.               ML:  To be determined.             
Instr Period =  .0050 sec,  Damping =  .700,  Sensitivity =  .63 v/g            
                        Record Length = 69.000 sec.                             
                                     Uncor Max  =   .158 g, at   33.110 sec.    
RMS accel of (uncor) record  =        .   Chn. metadata effective date: 05/06/20
Accelerogram bandpass filtered with 3 dB pts at   .30 and 40.00 cyc/sec         
                 instrument- and base-line correcte                             
                                                                                
                                                                                
                                                                                
                                                                                
                                                                                
Rcrd of Fri Sep 18, 2020 23:38:21.0 PDT    Fri Sep 18, 2020 23:38:21.0 PDT      
                                                                                
14182-N2598-20263.02      Whittier - Greenleaf & Walnut   Chan  2:  90 Deg      
                                                                                
14182-N2598-20263.02      Whittier - Greenleaf & Walnut   Chan  2:  90 Deg      
                                                                                
Units for spectra are inches and sec, except Sa is in fraction of g.            
                                                                                
    2  100    2    3    3  200    1    3    1   24   22 2598    014182   11    0
    6   38   21    0  263    9   19 2020   10    3   9013800   39   29   74  360
13800    1  100    3 2598    1    2  690    2 -999 -999 -999 -999 -999 -999 -999
 -999 -999    3 -999 6900    2  202    0   24   20 -999 -999    3    1 -999 6900
    3 6900    4   78    1    3    5    0    0 -999    0    0    1    3    1    2
    2    2    4    0   32   67    9    1 -999    0    0    1    0    0    4  222
    1    0    0    0
      .005      .700    69.000      .008     1.000   625.000      .158    33.110
   202.000      .298      .477  -999.000     5.000  -999.000     4.000  -999.000
     2.500    14.640     2.500  -999.000    30.000    30.000  -999.000      .030
     -.032     -.062     2.000    15.000    33.971  -118.038      .014      .279
    20.525     -.081     -.042    79.000    31.000    39.900    13.600   109.040
     1.000    11.003    -8.000  -999.000  -999.000  -999.000  -999.000  -999.000
     6.900     2.000     6.800   980.665      .010    69.000    32.149      .000
  -999.000    40.000  -999.000    69.000      .010      .300  -999.000  -999.000
    33.110   153.696    33.080    -3.217    32.960     -.096      .000      .300
    40.000      .010      .010      .000     1.260      .036  -999.000  -999.000
      .612      .080      .199      .089      .005      .001  -999.000  -999.000
  -999.000  -999.000  -999.000  -999.000  -999.000  -999.000  -999.000  -999.000
  -999.000  -999.000  -999.000  -999.000
      .050
      .040      .042      .044      .046      .048      .050      .055      .060
      .065      .070      .075      .080      .085      .090      .095      .100
      .110      .120      .130      .140      .150      .160      .170      .180
      .190      .200      .220      .240      .260      .280      .300      .320
      .340      .360      .380      .400      .420      .440      .460      .480
      .500      .550      .600      .650      .700      .750      .800      .850
      .900      .950     1.000     1.100     1.200     1.300     1.400     1.500
     1.600     1.700     1.800     1.900     2.000     2.200     2.400     2.600
     2.800     3.000     3.200     3.400     3.600     3.800     4.000     4.200
     4.400     4.600     4.800     5.000     5.500     6.000      .000      .000
      .000      .000      .000      .000      .000      .000      .000      .000
      .000      .000      .000      .000      .000      .000      .000      .000
      .000      .000      .000      .000
Fourier amplitude spectra in in/sec.
  .000E+00  .000E+00  .000E+00  .000E+00  .000E+00  .000E+00  .000E+00  .000E+00
  .000E+00  .000E+00  .000E+00  .000E+00  .000E+00  .000E+00  .000E+00  .000E+00
  .000E+00  .000E+00  .000E+00  .000E+00  .000E+00  .000E+00  .000E+00  .000E+00
  .000E+00  .000E+00  .000E+00  .000E+00  .000E+00  .000E+00  .000E+00  .000E+00
  .000E+00  .000E+00  .000E+00  .000E+00  .000E+00  .000E+00  .000E+00  .000E+00
  .000E+00  .000E+00  .000E+00  .000E+00  .000E+00  .000E+00  .000E+00  .000E+00
  .000E+00  .000E+00  .000E+00  .000E+00  .000E+00  .000E+00  .000E+00  .000E+00
  .000E+00  .000E+00  .000E+00  .000E+00  .000E+00  .000E+00  .000E+00  .000E+00
  .000E+00  .000E+00  .000E+00  .000E+00  .000E+00  .000E+00  .000E+00  .000E+00
  .000E+00  .000E+00  .000E+00  .000E+00  .000E+00  .000E+00  .000E+00  .000E+00
  .000E+00  .000E+00  .000E+00  .000E+00  .000E+00  .000E+00  .000E+00  .000E+00
  .000E+00  .000E+00  .000E+00  .000E+00  .000E+00  .000E+00  .000E+00  .000E+00
  .000E+00  .000E+00  .000E+00  .000E+00
Damping =  .05. Data of Sd,Sv,Sa,Pssv,ttSd,ttSv,ttSa :
  .303E-02  .329E-02  .385E-02  .442E-02  .509E-02  .572E-02  .839E-02  .111E-01
  .151E-01  .230E-01  .321E-01  .386E-01  .431E-01  .424E-01  .380E-01  .425E-01
  .573E-01  .593E-01  .699E-01  .678E-01  .616E-01  .698E-01  .822E-01  .762E-01
  .715E-01  .724E-01  .995E-01  .110E+00  .102E+00  .834E-01  .753E-01  .712E-01
  .721E-01  .830E-01  .867E-01  .904E-01  .876E-01  .823E-01  .811E-01  .816E-01
