Response and Fourier amplitude spectra (78 periods,  .04 -  6.0 sec)   for      
Corrected accelerogram   14834-B2332-20263.06       Chan  1:  Up         from   
Uncorrected Accelerogram Data             Processed: 09/18/20, CGS  ce14834f    
Rcrd of Fri Sep 18, 2020 23:38:32.0 PDT               (Avol1 v2.0, 4/18 CSMIP)  
CSMIP Preliminary Processing            (Origin:  To be determined)             
14834-B2332-20263.06                 Start time:  9/19/20, 06:38:32.0 UTC (GPS) 
Station No. 14834   33.922N, 118.327W    Basalt  s/n 2332  (3 Chns of  3 at Sta)
Hawthorne - Crenshaw & El Segundo         CGS   Data: Acceleration              
Chan  1:  Up                                                                    
Rcrd of Fri Sep 18, 2020 23:38:32.0 PDT    Fri Sep 18, 2020 23:38:32.0 PDT      
Hypocenter:  To be determined.               ML:  To be determined.             
Instr Period =  .0049 sec,  Damping =  .700,  Sensitivity = 1.25 v/g            
                        Record Length = 61.000 sec.                             
                                     Uncor Max  =   .013 g, at   21.350 sec.    
RMS accel of (uncor) record  =        .   Chn. metadata effective date: 08/13/15
Accelerogram bandpass filtered with 3 dB pts at   .30 and 40.00 cyc/sec         
                 instrument- and base-line correcte                             
                                                                                
                                                                                
                                                                                
                                                                                
                                                                                
Rcrd of Fri Sep 18, 2020 23:38:32.0 PDT    Fri Sep 18, 2020 23:38:32.0 PDT      
                                                                                
14834-B2332-20263.06      Hawthorne - Crenshaw & El Segundo   Chan  1:  Up      
                                                                                
14834-B2332-20263.06      Hawthorne - Crenshaw & El Segundo   Chan  1:  Up      
                                                                                
Units for spectra are inches and sec, except Sa is in fraction of g.            
                                                                                
    1  100    1    3    3  200    1    3    1   24   31 2332    014834   11    0
    6   38   32    0  263    9   19 2020   10    3  50012200   39   33   74  360
12200    1  100    3 2332    1    6  610    2 -999 -999 -999 -999 -999 -999 -999
 -999 -999    3 -99912200    1  202    0   24   20 -999 -999    3    1 -99912200
    312200    4   78    1    3    5    0    0 -999    0    0    1    3    1    2
    2    2    4    0   32   67    0    5 -999    0    0    1    0    0    0  222
    1    0    0    0
      .005      .700    61.000      .001     1.000  1255.000      .013    21.350
   206.000      .596      .475  -999.000     5.000  -999.000     4.000  -999.000
     5.000    -4.324     5.000  -999.000    25.000    30.000  -999.000      .000
      .003      .003     2.000    15.000    33.922  -118.327      .098      .189
     1.938     -.016      .021    17.000    26.000    31.900    13.600    80.960
     1.000    11.003    -8.000  -999.000  -999.000  -999.000  -999.000  -999.000
     6.900     2.000     6.800   980.665      .005    61.000    32.786      .000
  -999.000    40.000  -999.000    61.000      .005      .300  -999.000  -999.000
    21.350    12.721    26.915      .217    28.005      .010      .000      .300
    40.000      .005      .005      .000      .005      .011  -999.000  -999.000
      .055      .095      .016      .009      .001      .000  -999.000  -999.000
  -999.000  -999.000  -999.000  -999.000  -999.000  -999.000  -999.000  -999.000
  -999.000  -999.000  -999.000  -999.000
      .050
      .040      .042      .044      .046      .048      .050      .055      .060
      .065      .070      .075      .080      .085      .090      .095      .100
      .110      .120      .130      .140      .150      .160      .170      .180
      .190      .200      .220      .240      .260      .280      .300      .320
      .340      .360      .380      .400      .420      .440      .460      .480
      .500      .550      .600      .650      .700      .750      .800      .850
      .900      .950     1.000     1.100     1.200     1.300     1.400     1.500
     1.600     1.700     1.800     1.900     2.000     2.200     2.400     2.600
     2.800     3.000     3.200     3.400     3.600     3.800     4.000     4.200
     4.400     4.600     4.800     5.000     5.500     6.000      .000      .000
      .000      .000      .000      .000      .000      .000      .000      .000
      .000      .000      .000      .000      .000      .000      .000      .000
      .000      .000      .000      .000
Fourier amplitude spectra in in/sec.
  .000E+00  .000E+00  .000E+00  .000E+00  .000E+00  .000E+00  .000E+00  .000E+00
  .000E+00  .000E+00  .000E+00  .000E+00  .000E+00  .000E+00  .000E+00  .000E+00
  .000E+00  .000E+00  .000E+00  .000E+00  .000E+00  .000E+00  .000E+00  .000E+00
  .000E+00  .000E+00  .000E+00  .000E+00  .000E+00  .000E+00  .000E+00  .000E+00
  .000E+00  .000E+00  .000E+00  .000E+00  .000E+00  .000E+00  .000E+00  .000E+00
  .000E+00  .000E+00  .000E+00  .000E+00  .000E+00  .000E+00  .000E+00  .000E+00
  .000E+00  .000E+00  .000E+00  .000E+00  .000E+00  .000E+00  .000E+00  .000E+00
  .000E+00  .000E+00  .000E+00  .000E+00  .000E+00  .000E+00  .000E+00  .000E+00
  .000E+00  .000E+00  .000E+00  .000E+00  .000E+00  .000E+00  .000E+00  .000E+00
  .000E+00  .000E+00  .000E+00  .000E+00  .000E+00  .000E+00  .000E+00  .000E+00
  .000E+00  .000E+00  .000E+00  .000E+00  .000E+00  .000E+00  .000E+00  .000E+00
  .000E+00  .000E+00  .000E+00  .000E+00  .000E+00  .000E+00  .000E+00  .000E+00
  .000E+00  .000E+00  .000E+00  .000E+00
Damping =  .05. Data of Sd,Sv,Sa,Pssv,ttSd,ttSv,ttSa :
  .304E-03  .311E-03  .343E-03  .384E-03  .422E-03  .456E-03  .638E-03  .848E-03
  .113E-02  .147E-02  .162E-02  .230E-02  .297E-02  .384E-02  .483E-02  .523E-02
  .391E-02  .447E-02  .489E-02  .532E-02  .488E-02  .562E-02  .575E-02  .572E-02
  .584E-02  .628E-02  .694E-02  .797E-02  .839E-02  .704E-02  .715E-02  .913E-02
  .814E-02  .830E-02  .745E-02  .918E-02  .105E-01  .105E-01  .113E-01  .115E-01
  .120E-01  .114E-01  .897E-02  .781E-02  .827E-02  .810E-02  .819E-02  .688E-02
  .721E-02  .101E-01  .102E-01  .118E-01  .130E-01  .103E-01  .111E-01  .127E-01
  .144E-01  .111E-01  .113E-01  .106E-01  .105E-01  .839E-02  .725E-02  .712E-02
  .798E-02  .753E-02  .808E-02  .704E-02  .604E-02  .607E-02  .670E-02  .662E-02
  .604E-02  .532E-02  .471E-02  .436E-02  .429E-02  .421E-02  .000E+00  .000E+00
  .000E+00  .000E+00  .000E+00  .000E+00  .000E+00  .000E+00  .000E+00  .000E+00
  .000E+00  .000E+00  .000E+00  .000E+00  .000E+00  .000E+00  .000E+00  .000E+00
  .000E+00  .000E+00  .000E+00  .000E+00
  .325E-01  .324E-01  .315E-01  .368E-01  .427E-01  .473E-01  .610E-01  .725E-01
  .871E-01  .103E+00  .121E+00  .156E+00  .204E+00  .246E+00  .299E+00  .318E+00
  .230E+00  .249E+00  .237E+00  .254E+00  .224E+00  .215E+00  .221E+00  .233E+00
  .211E+00  .204E+00  .186E+00  .226E+00  .202E+00  .162E+00  .158E+00  .203E+00
  .151E+00  .153E+00  .129E+00  .158E+00  .188E+00  .161E+00  .177E+00  .166E+00
  .159E+00  .135E+00  .114E+00  .116E+00  .109E+00  .106E+00  .101E+00  .975E-01
  .862E-01  .857E-01  .918E-01  .988E-01  .102E+00  .942E-01  .902E-01  .977E-01
  .850E-01  .838E-01  .832E-01  .827E-01  .823E-01  .817E-01  .811E-01  .809E-01
  .809E-01  .813E-01  .821E-01  .826E-01  .830E-01  .833E-01  .836E-01  .838E-01
  .840E-01  .842E-01  .843E-01  .844E-01  .845E-01  .846E-01  .000E+00  .000E+00
  .000E+00  .000E+00  .000E+00  .000E+00  .000E+00  .000E+00  .000E+00  .000E+00
  .000E+00  .000E+00  .000E+00  .000E+00  .000E+00  .000E+00  .000E+00  .000E+00
  .000E+00  .000E+00  .000E+00  .000E+00
  .196E-01  .181E-01  .181E-01  .186E-01  .188E-01  .185E-01  .215E-01  .242E-01
  .276E-01  .309E-01  .293E-01  .369E-01  .422E-01  .487E-01  .546E-01  .535E-01
  .329E-01  .321E-01  .295E-01  .280E-01  .222E-01  .225E-01  .205E-01  .182E-01
  .166E-01  .161E-01  .147E-01  .142E-01  .128E-01  .923E-02  .817E-02  .916E-02
  .724E-02  .658E-02  .532E-02  .592E-02  .610E-02  .560E-02  .548E-02  .513E-02
  .492E-02  .386E-02  .257E-02  .191E-02  .174E-02  .148E-02  .132E-02  .980E-03
  .921E-03  .115E-02  .105E-02  .100E-02  .926E-03  .626E-03  .597E-03  .589E-03
  .587E-03  .399E-03  .368E-03  .315E-03  .276E-03  .192E-03  .130E-03  .111E-03
  .106E-03  .878E-04  .819E-04  .633E-04  .577E-04  .536E-04  .500E-04  .468E-04
  .439E-04  .414E-04  .390E-04  .369E-04  .323E-04  .289E-04  .000E+00  .000E+00
  .000E+00  .000E+00  .000E+00  .000E+00  .000E+00  .000E+00  .000E+00  .000E+00
  .000E+00  .000E+00  .000E+00  .000E+00  .000E+00  .000E+00  .000E+00  .000E+00
  .000E+00  .000E+00  .000E+00  .000E+00
  .478E-01  .466E-01  .490E-01  .524E-01  .553E-01  .573E-01  .729E-01  .888E-01
  .110E+00  .132E+00  .136E+00  .180E+00  .219E+00  .268E+00  .319E+00  .329E+00
  .224E+00  .234E+00  .236E+00  .239E+00  .205E+00  .221E+00  .212E+00  .200E+00
  .193E+00  .197E+00  .198E+00  .209E+00  .203E+00  .158E+00  .150E+00  .179E+00
  .151E+00  .145E+00  .123E+00  .144E+00  .156E+00  .150E+00  .154E+00  .151E+00
  .150E+00  .130E+00  .939E-01  .755E-01  .742E-01  .679E-01  .643E-01  .509E-01
  .503E-01  .665E-01  .641E-01  .674E-01  .678E-01  .497E-01  .496E-01  .533E-01
  .565E-01  .408E-01  .396E-01  .352E-01  .331E-01  .240E-01  .190E-01  .172E-01
  .179E-01  .158E-01  .159E-01  .130E-01  .105E-01  .100E-01  .105E-01  .990E-02
  .863E-02  .726E-02  .616E-02  .548E-02  .490E-02  .441E-02  .000E+00  .000E+00
  .000E+00  .000E+00  .000E+00  .000E+00  .000E+00  .000E+00  .000E+00  .000E+00
  .000E+00  .000E+00  .000E+00  .000E+00  .000E+00  .000E+00  .000E+00  .000E+00
  .000E+00  .000E+00  .000E+00  .000E+00
  .214E+02  .214E+02  .244E+02  .214E+02  .214E+02  .232E+02  .263E+02  .214E+02
  .214E+02  .269E+02  .215E+02  .215E+02  .216E+02  .216E+02  .218E+02  .218E+02
  .218E+02  .214E+02  .214E+02  .249E+02  .251E+02  .270E+02  .216E+02  .216E+02
  .218E+02  .218E+02  .326E+02  .327E+02  .327E+02  .327E+02  .327E+02  .301E+02
  .337E+02  .338E+02  .302E+02  .302E+02  .328E+02  .282E+02  .283E+02  .281E+02
  .349E+02  .350E+02  .337E+02  .337E+02  .550E+02  .562E+02  .567E+02  .540E+02
  .364E+02  .316E+02  .316E+02  .537E+02  .533E+02  .553E+02  .320E+02  .314E+02
  .348E+02  .333E+02  .280E+02  .280E+02  .333E+02  .325E+02  .511E+02  .489E+02
  .561E+02  .561E+02  .578E+02  .551E+02  .551E+02  .489E+02  .489E+02  .489E+02
  .490E+02  .490E+02  .490E+02  .348E+02  .319E+02  .319E+02  .000E+00  .000E+00
  .000E+00  .000E+00  .000E+00  .000E+00  .000E+00  .000E+00  .000E+00  .000E+00
  .000E+00  .000E+00  .000E+00  .000E+00  .000E+00  .000E+00  .000E+00  .000E+00
  .000E+00  .000E+00  .000E+00  .000E+00
  .214E+02  .214E+02  .244E+02  .214E+02  .214E+02  .232E+02  .263E+02  .214E+02
  .214E+02  .265E+02  .215E+02  .270E+02  .216E+02  .216E+02  .217E+02  .218E+02
  .219E+02  .215E+02  .214E+02  .249E+02  .251E+02  .270E+02  .216E+02  .216E+02
  .216E+02  .218E+02  .326E+02  .270E+02  .328E+02  .328E+02  .328E+02  .302E+02
  .302E+02  .337E+02  .269E+02  .260E+02  .327E+02  .325E+02  .282E+02  .282E+02
  .350E+02  .348E+02  .269E+02  .269E+02  .269E+02  .269E+02  .269E+02  .269E+02
  .269E+02  .269E+02  .269E+02  .269E+02  .269E+02  .269E+02  .269E+02  .326E+02
  .269E+02  .217E+02  .217E+02  .217E+02  .217E+02  .217E+02  .217E+02  .217E+02
  .217E+02  .269E+02  .269E+02  .269E+02  .269E+02  .269E+02  .269E+02  .269E+02
  .269E+02  .269E+02  .269E+02  .269E+02  .269E+02  .269E+02  .000E+00  .000E+00
  .000E+00  .000E+00  .000E+00  .000E+00  .000E+00  .000E+00  .000E+00  .000E+00
  .000E+00  .000E+00  .000E+00  .000E+00  .000E+00  .000E+00  .000E+00  .000E+00
  .000E+00  .000E+00  .000E+00  .000E+00
  .214E+02  .214E+02  .244E+02  .214E+02  .214E+02  .232E+02  .263E+02  .214E+02
  .214E+02  .269E+02  .215E+02  .215E+02  .216E+02  .216E+02  .218E+02  .218E+02
  .218E+02  .214E+02  .214E+02  .249E+02  .251E+02  .270E+02  .216E+02  .216E+02
  .218E+02  .218E+02  .326E+02  .327E+02  .327E+02  .327E+02  .327E+02  .301E+02
  .337E+02  .338E+02  .302E+02  .302E+02  .326E+02  .282E+02  .283E+02  .281E+02
  .349E+02  .349E+02  .336E+02  .337E+02  .549E+02  .562E+02  .567E+02  .540E+02
  .364E+02  .316E+02  .316E+02  .536E+02  .533E+02  .552E+02  .320E+02  .314E+02
  .347E+02  .332E+02  .280E+02  .280E+02  .333E+02  .325E+02  .510E+02  .489E+02
  .560E+02  .560E+02  .578E+02  .550E+02  .269E+02  .269E+02  .269E+02  .269E+02
  .269E+02  .269E+02  .269E+02  .269E+02  .269E+02  .269E+02  .000E+00  .000E+00
  .000E+00  .000E+00  .000E+00  .000E+00  .000E+00  .000E+00  .000E+00  .000E+00
  .000E+00  .000E+00  .000E+00  .000E+00  .000E+00  .000E+00  .000E+00  .000E+00
  .000E+00  .000E+00  .000E+00  .000E+00
/&   ----------  End of spectral data for channel  1  ----------
Response and Fourier amplitude spectra (78 periods,  .04 -  6.0 sec)   for      
Corrected accelerogram   14834-B2332-20263.06       Chan  2: 360 Deg     from   
Uncorrected Accelerogram Data             Processed: 09/18/20, CGS  ce14834f    
Rcrd of Fri Sep 18, 2020 23:38:32.0 PDT               (Avol1 v2.0, 4/18 CSMIP)  
CSMIP Preliminary Processing            (Origin:  To be determined)             
14834-B2332-20263.06                 Start time:  9/19/20, 06:38:32.0 UTC (GPS) 
Station No. 14834   33.922N, 118.327W    Basalt  s/n 2332  (3 Chns of  3 at Sta)
Hawthorne - Crenshaw & El Segundo         CGS   Data: Acceleration              
Chan  2: 360 Deg                                                                
Rcrd of Fri Sep 18, 2020 23:38:32.0 PDT    Fri Sep 18, 2020 23:38:32.0 PDT      
Hypocenter:  To be determined.               ML:  To be determined.             
Instr Period =  .0049 sec,  Damping =  .700,  Sensitivity = 1.25 v/g            
                        Record Length = 61.000 sec.                             
                                     Uncor Max  =   .020 g, at   26.430 sec.    
RMS accel of (uncor) record  =        .   Chn. metadata effective date: 08/13/15
Accelerogram bandpass filtered with 3 dB pts at   .30 and 40.00 cyc/sec         
                 instrument- and base-line correcte                             
                                                                                
                                                                                
                                                                                
                                                                                
                                                                                
Rcrd of Fri Sep 18, 2020 23:38:32.0 PDT    Fri Sep 18, 2020 23:38:32.0 PDT      
                                                                                
14834-B2332-20263.06      Hawthorne - Crenshaw & El Segundo   Chan  2: 360 Deg  
                                                                                
14834-B2332-20263.06      Hawthorne - Crenshaw & El Segundo   Chan  2: 360 Deg  
                                                                                
Units for spectra are inches and sec, except Sa is in fraction of g.            
                                                                                
    2  100    2    3    3  200    1    3    1   24   31 2332    014834   11    0
    6   38   32    0  263    9   19 2020   10    3  36012200   39   33   74  360
12200    1  100    3 2332    1    6  610    2 -999 -999 -999 -999 -999 -999 -999
 -999 -999    3 -99912200    1  202    0   24   20 -999 -999    3    1 -99912200
    312200    4   78    1    3    5    0    0 -999    0    0    1    3    1    2
    2    2    4    0   32   67    0    5 -999    0    0    1    0    0    0  222
    1    0    0    0
      .005      .700    61.000      .002     1.000  1249.600      .020    26.430
   204.000      .596      .477  -999.000     5.000  -999.000     4.000  -999.000
     5.000    12.946     5.000  -999.000    25.000    30.000  -999.000      .000
      .000      .000     2.000    15.000    33.922  -118.327      .018      .301
    16.384     -.022      .022    17.000    26.000    31.900    13.600    80.960
     1.000    11.003    -8.000  -999.000  -999.000  -999.000  -999.000  -999.000
     6.900     2.000     6.800   980.665      .005    61.000    32.468      .000
  -999.000    40.000  -999.000    61.000      .005      .300  -999.000  -999.000
    26.425    19.543    26.380     -.776    33.590      .065      .000      .300
    40.000      .005      .005      .000      .005      .022  -999.000  -999.000
      .068      .080      .046      .033      .004      .000  -999.000  -999.000
  -999.000  -999.000  -999.000  -999.000  -999.000  -999.000  -999.000  -999.000
  -999.000  -999.000  -999.000  -999.000
      .050
      .040      .042      .044      .046      .048      .050      .055      .060
      .065      .070      .075      .080      .085      .090      .095      .100
      .110      .120      .130      .140      .150      .160      .170      .180
      .190      .200      .220      .240      .260      .280      .300      .320
      .340      .360      .380      .400      .420      .440      .460      .480
      .500      .550      .600      .650      .700      .750      .800      .850
      .900      .950     1.000     1.100     1.200     1.300     1.400     1.500
     1.600     1.700     1.800     1.900     2.000     2.200     2.400     2.600
     2.800     3.000     3.200     3.400     3.600     3.800     4.000     4.200
     4.400     4.600     4.800     5.000     5.500     6.000      .000      .000
      .000      .000      .000      .000      .000      .000      .000      .000
      .000      .000      .000      .000      .000      .000      .000      .000
      .000      .000      .000      .000
Fourier amplitude spectra in in/sec.
  .000E+00  .000E+00  .000E+00  .000E+00  .000E+00  .000E+00  .000E+00  .000E+00
  .000E+00  .000E+00  .000E+00  .000E+00  .000E+00  .000E+00  .000E+00  .000E+00
  .000E+00  .000E+00  .000E+00  .000E+00  .000E+00  .000E+00  .000E+00  .000E+00
  .000E+00  .000E+00  .000E+00  .000E+00  .000E+00  .000E+00  .000E+00  .000E+00
  .000E+00  .000E+00  .000E+00  .000E+00  .000E+00  .000E+00  .000E+00  .000E+00
  .000E+00  .000E+00  .000E+00  .000E+00  .000E+00  .000E+00  .000E+00  .000E+00
  .000E+00  .000E+00  .000E+00  .000E+00  .000E+00  .000E+00  .000E+00  .000E+00
  .000E+00  .000E+00  .000E+00  .000E+00  .000E+00  .000E+00  .000E+00  .000E+00
  .000E+00  .000E+00  .000E+00  .000E+00  .000E+00  .000E+00  .000E+00  .000E+00
  .000E+00  .000E+00  .000E+00  .000E+00  .000E+00  .000E+00  .000E+00  .000E+00
  .000E+00  .000E+00  .000E+00  .000E+00  .000E+00  .000E+00  .000E+00  .000E+00
  .000E+00  .000E+00  .000E+00  .000E+00  .000E+00  .000E+00  .000E+00  .000E+00
  .000E+00  .000E+00  .000E+00  .000E+00
Damping =  .05. Data of Sd,Sv,Sa,Pssv,ttSd,ttSv,ttSa :
  .406E-03  .438E-03  .504E-03  .544E-03  .638E-03  .789E-03  .110E-02  .141E-02
  .192E-02  .224E-02  .336E-02  .429E-02  .393E-02  .346E-02  .385E-02  .444E-02
  .601E-02  .642E-02  .635E-02  .704E-02  .826E-02  .969E-02  .120E-01  .152E-01
  .167E-01  .164E-01  .229E-01  .307E-01  .329E-01  .318E-01  .277E-01  .247E-01
  .319E-01  .487E-01  .528E-01  .622E-01  .724E-01  .832E-01  .776E-01  .665E-01
