Response and Fourier amplitude spectra (91 periods,  .04 - 15.0 sec)   for      
Corrected accelerogram   14868-L1344-20263.04       Chan  1: 360 Deg     from   
Uncorrected Accelerogram Data             Processed: 09/19/20, CGS  868at004    
Rcrd of Fri Sep 18, 2020 23:38:28.0 PDT               (Avol1 v2.0, 4/18 CSMIP)  
CSMIP Preliminary Processing            (Origin:  To be determined)             
14868-L1344-20263.04                 Start time:  9/19/20, 06:38:28.0 UTC (GPS) 
Station No. 14868   33.806N, 118.164W    Etna    s/n 1344  (3 Chns of  3 at Sta)
Long Beach - Willow & Cherry              CGS   Data: Acceleration              
Chan  1: 360 Deg                                                                
Rcrd of Fri Sep 18, 2020 23:38:28.0 PDT    Fri Sep 18, 2020 23:38:28.0 PDT      
Hypocenter:  To be determined.               ML:  To be determined.             
Instr Period =  .0106 sec,  Damping =  .660,  Sensitivity =  .63 v/g            
                        Record Length = 60.000 sec.                             
                                     Uncor Max  =  -.025 g, at   32.090 sec.    
RMS accel of (uncor) record  =        .   Chn. metadata effective date: 03/05/03
Accelerogram bandpass filtered with 3 dB pts at   .30 and 23.00 cyc/sec         
                 instrument- and base-line correcte                             
                                                                                
                                                                                
                                                                                
                                                                                
                                                                                
Rcrd of Fri Sep 18, 2020 23:38:28.0 PDT    Fri Sep 18, 2020 23:38:28.0 PDT      
                                                                                
14868-L1344-20263.04      Long Beach - Willow & Cherry    Chan  1: 360 Deg      
                                                                                
14868-L1344-20263.04      Long Beach - Willow & Cherry    Chan  1: 360 Deg      
                                                                                
Units for spectra are inches and sec, except Sa is in fraction of g.            
                                                                                
    1  100    1    3    3  200    1    3    1   24   12 1344    014868   11    0
    6   38   28    0  263    9   19 2020   10    3  36013600   39   28   74  360
13600    1  100    3 1344    1    4  680    2 -999 -999 -999 -999 -999 -999 -999
 -999 -999    3 -99912000    1  202    0   18    4 -999 -999    3    1 -99912000
    312000    4   91    1    3    5    0    0 -999    0    0    1    3    1    2
    2    2    4    0   32   67    0    5 -999    0    0    1    0    0    0  222
    0    0    0    0
      .011      .660    68.000      .002     1.000   627.000     -.025    32.090
    94.000      .298      .475  -999.000     5.000  -999.000     4.000  -999.000
     2.500     2.626     2.500  -999.000    30.000    30.000  -999.000      .001
     -.003     -.004     2.000    15.000    33.806  -118.164      .014      .279
    19.623     -.024      .016    34.000    30.500    37.500    13.300    80.060
     1.000    11.003    -8.000  -999.000  -999.000  -999.000  -999.000  -999.000
     6.900     2.000     6.800   980.665      .005    60.000    14.961      .000
  -999.000    23.000  -999.000    60.000      .005      .303  -999.000  -999.000
    32.085   -24.686    32.125     -.697    37.250     -.044      .000      .303
    23.000      .005      .005      .000      .005      .020  -999.000  -999.000
      .135      .160      .047      .022      .002      .000  -999.000  -999.000
  -999.000  -999.000  -999.000  -999.000  -999.000  -999.000  -999.000  -999.000
  -999.000  -999.000  -999.000  -999.000
      .050
      .040      .042      .044      .046      .048      .050      .055      .060
      .065      .070      .075      .080      .085      .090      .095      .100
      .110      .120      .130      .140      .150      .160      .170      .180
      .190      .200      .220      .240      .260      .280      .300      .320
      .340      .360      .380      .400      .420      .440      .460      .480
      .500      .550      .600      .650      .700      .750      .800      .850
      .900      .950     1.000     1.100     1.200     1.300     1.400     1.500
     1.600     1.700     1.800     1.900     2.000     2.200     2.400     2.600
     2.800     3.000     3.200     3.400     3.600     3.800     4.000     4.200
     4.400     4.600     4.800     5.000     5.500     6.000     6.500     7.000
     7.500     8.000     8.500     9.000     9.500    10.000    11.000    12.000
    13.000    14.000    15.000      .000      .000      .000      .000      .000
      .000      .000      .000      .000
Fourier amplitude spectra in in/sec.
  .000E+00  .000E+00  .000E+00  .000E+00  .000E+00  .000E+00  .000E+00  .000E+00
  .000E+00  .000E+00  .000E+00  .000E+00  .000E+00  .000E+00  .000E+00  .000E+00
  .000E+00  .000E+00  .000E+00  .000E+00  .000E+00  .000E+00  .000E+00  .000E+00
  .000E+00  .000E+00  .000E+00  .000E+00  .000E+00  .000E+00  .000E+00  .000E+00
  .000E+00  .000E+00  .000E+00  .000E+00  .000E+00  .000E+00  .000E+00  .000E+00
  .000E+00  .000E+00  .000E+00  .000E+00  .000E+00  .000E+00  .000E+00  .000E+00
  .000E+00  .000E+00  .000E+00  .000E+00  .000E+00  .000E+00  .000E+00  .000E+00
  .000E+00  .000E+00  .000E+00  .000E+00  .000E+00  .000E+00  .000E+00  .000E+00
  .000E+00  .000E+00  .000E+00  .000E+00  .000E+00  .000E+00  .000E+00  .000E+00
  .000E+00  .000E+00  .000E+00  .000E+00  .000E+00  .000E+00  .000E+00  .000E+00
  .000E+00  .000E+00  .000E+00  .000E+00  .000E+00  .000E+00  .000E+00  .000E+00
  .000E+00  .000E+00  .000E+00  .000E+00  .000E+00  .000E+00  .000E+00  .000E+00
  .000E+00  .000E+00  .000E+00  .000E+00
Damping =  .05. Data of Sd,Sv,Sa,Pssv,ttSd,ttSv,ttSa :
  .429E-03  .474E-03  .522E-03  .563E-03  .627E-03  .752E-03  .978E-03  .119E-02
  .142E-02  .201E-02  .248E-02  .349E-02  .430E-02  .442E-02  .520E-02  .646E-02
  .113E-01  .107E-01  .137E-01  .158E-01  .251E-01  .337E-01  .256E-01  .207E-01
  .178E-01  .200E-01  .188E-01  .212E-01  .217E-01  .203E-01  .189E-01  .169E-01
  .190E-01  .226E-01  .259E-01  .232E-01  .181E-01  .222E-01  .297E-01  .343E-01
  .421E-01  .391E-01  .392E-01  .420E-01  .341E-01  .329E-01  .281E-01  .233E-01
  .209E-01  .216E-01  .192E-01  .205E-01  .200E-01  .184E-01  .218E-01  .235E-01
  .183E-01  .186E-01  .202E-01  .255E-01  .241E-01  .190E-01  .172E-01  .179E-01
  .224E-01  .252E-01  .252E-01  .233E-01  .212E-01  .199E-01  .192E-01  .193E-01
  .197E-01  .199E-01  .200E-01  .200E-01  .198E-01  .196E-01  .192E-01  .190E-01
  .187E-01  .184E-01  .182E-01  .181E-01  .179E-01  .178E-01  .177E-01  .176E-01
  .176E-01  .175E-01  .175E-01  .000E+00  .000E+00  .000E+00  .000E+00  .000E+00
  .000E+00  .000E+00  .000E+00  .000E+00
  .222E-01  .254E-01  .293E-01  .341E-01  .423E-01  .486E-01  .625E-01  .695E-01
  .803E-01  .115E+00  .154E+00  .226E+00  .290E+00  .281E+00  .315E+00  .380E+00
  .635E+00  .497E+00  .618E+00  .646E+00  .993E+00  .130E+01  .980E+00  .794E+00
  .648E+00  .691E+00  .625E+00  .588E+00  .633E+00  .540E+00  .505E+00  .405E+00
  .424E+00  .414E+00  .453E+00  .484E+00  .446E+00  .430E+00  .430E+00  .421E+00
  .511E+00  .470E+00  .447E+00  .450E+00  .364E+00  .346E+00  .293E+00  .311E+00
  .306E+00  .287E+00  .268E+00  .249E+00  .241E+00  .261E+00  .289E+00  .315E+00
  .330E+00  .331E+00  .324E+00  .315E+00  .307E+00  .291E+00  .278E+00  .272E+00
  .270E+00  .269E+00  .268E+00  .268E+00  .269E+00  .270E+00  .271E+00  .271E+00
  .272E+00  .273E+00  .273E+00  .273E+00  .274E+00  .274E+00  .274E+00  .274E+00
  .274E+00  .274E+00  .274E+00  .274E+00  .274E+00  .274E+00  .274E+00  .274E+00
  .274E+00  .274E+00  .274E+00  .000E+00  .000E+00  .000E+00  .000E+00  .000E+00
  .000E+00  .000E+00  .000E+00  .000E+00
  .275E-01  .275E-01  .276E-01  .272E-01  .279E-01  .310E-01  .332E-01  .337E-01
  .346E-01  .419E-01  .452E-01  .558E-01  .611E-01  .564E-01  .595E-01  .660E-01
  .960E-01  .756E-01  .832E-01  .831E-01  .114E+00  .135E+00  .909E-01  .654E-01
  .507E-01  .515E-01  .400E-01  .380E-01  .330E-01  .267E-01  .217E-01  .170E-01
  .169E-01  .180E-01  .185E-01  .150E-01  .105E-01  .118E-01  .144E-01  .153E-01
  .173E-01  .133E-01  .112E-01  .102E-01  .716E-02  .602E-02  .454E-02  .334E-02
  .268E-02  .249E-02  .198E-02  .175E-02  .143E-02  .121E-02  .124E-02  .108E-02
  .795E-03  .691E-03  .647E-03  .739E-03  .636E-03  .467E-03  .385E-03  .303E-03
  .320E-03  .314E-03  .279E-03  .233E-03  .195E-03  .167E-03  .149E-03  .138E-03
  .129E-03  .121E-03  .114E-03  .107E-03  .907E-04  .785E-04  .695E-04  .641E-04
  .598E-04  .560E-04  .527E-04  .497E-04  .470E-04  .446E-04  .405E-04  .371E-04
  .342E-04  .317E-04  .296E-04  .000E+00  .000E+00  .000E+00  .000E+00  .000E+00
  .000E+00  .000E+00  .000E+00  .000E+00
  .674E-01  .709E-01  .746E-01  .769E-01  .821E-01  .945E-01  .112E+00  .124E+00
  .137E+00  .180E+00  .208E+00  .274E+00  .318E+00  .308E+00  .344E+00  .406E+00
  .646E+00  .558E+00  .661E+00  .708E+00  .105E+01  .132E+01  .946E+00  .721E+00
  .587E+00  .628E+00  .538E+00  .556E+00  .524E+00  .456E+00  .396E+00  .331E+00
  .351E+00  .395E+00  .429E+00  .365E+00  .270E+00  .317E+00  .405E+00  .449E+00
  .529E+00  .447E+00  .410E+00  .406E+00  .306E+00  .276E+00  .220E+00  .172E+00
  .146E+00  .143E+00  .121E+00  .117E+00  .105E+00  .887E-01  .977E-01  .983E-01
  .718E-01  .687E-01  .706E-01  .845E-01  .757E-01  .542E-01  .451E-01  .433E-01
  .503E-01  .528E-01  .495E-01  .430E-01  .371E-01  .328E-01  .301E-01  .289E-01
  .281E-01  .272E-01  .262E-01  .252E-01  .226E-01  .205E-01  .186E-01  .170E-01
  .157E-01  .145E-01  .135E-01  .126E-01  .119E-01  .112E-01  .101E-01  .923E-02
  .851E-02  .787E-02  .734E-02  .000E+00  .000E+00  .000E+00  .000E+00  .000E+00
  .000E+00  .000E+00  .000E+00  .000E+00
  .321E+02  .321E+02  .321E+02  .321E+02  .309E+02  .309E+02  .313E+02  .313E+02
  .309E+02  .313E+02  .309E+02  .309E+02  .310E+02  .303E+02  .303E+02  .308E+02
  .310E+02  .314E+02  .322E+02  .322E+02  .322E+02  .322E+02  .315E+02  .314E+02
  .322E+02  .322E+02  .315E+02  .322E+02  .323E+02  .322E+02  .325E+02  .314E+02
  .325E+02  .327E+02  .327E+02  .327E+02  .375E+02  .375E+02  .376E+02  .376E+02
  .376E+02  .377E+02  .377E+02  .375E+02  .375E+02  .375E+02  .372E+02  .372E+02
  .372E+02  .372E+02  .370E+02  .370E+02  .367E+02  .322E+02  .322E+02  .375E+02
  .316E+02  .326E+02  .375E+02  .375E+02  .376E+02  .372E+02  .321E+02  .372E+02
  .372E+02  .372E+02  .372E+02  .372E+02  .372E+02  .372E+02  .372E+02  .372E+02
  .372E+02  .372E+02  .372E+02  .372E+02  .372E+02  .372E+02  .372E+02  .372E+02
  .372E+02  .372E+02  .372E+02  .372E+02  .372E+02  .372E+02  .372E+02  .372E+02
  .372E+02  .372E+02  .372E+02  .000E+00  .000E+00  .000E+00  .000E+00  .000E+00
  .000E+00  .000E+00  .000E+00  .000E+00
  .309E+02  .309E+02  .309E+02  .309E+02  .309E+02  .309E+02  .313E+02  .310E+02
  .310E+02  .310E+02  .310E+02  .310E+02  .310E+02  .308E+02  .303E+02  .303E+02
  .310E+02  .306E+02  .316E+02  .322E+02  .322E+02  .322E+02  .315E+02  .315E+02
  .315E+02  .315E+02  .314E+02  .322E+02  .322E+02  .321E+02  .321E+02  .314E+02
  .313E+02  .324E+02  .324E+02  .321E+02  .321E+02  .313E+02  .313E+02  .377E+02
  .375E+02  .378E+02  .376E+02  .376E+02  .373E+02  .373E+02  .321E+02  .321E+02
  .321E+02  .321E+02  .321E+02  .320E+02  .321E+02  .321E+02  .321E+02  .321E+02
  .321E+02  .321E+02  .321E+02  .321E+02  .321E+02  .321E+02  .321E+02  .321E+02
  .321E+02  .321E+02  .321E+02  .321E+02  .321E+02  .321E+02  .321E+02  .321E+02
  .321E+02  .321E+02  .321E+02  .321E+02  .321E+02  .321E+02  .321E+02  .321E+02
  .321E+02  .321E+02  .321E+02  .321E+02  .321E+02  .321E+02  .321E+02  .321E+02
  .321E+02  .321E+02  .321E+02  .000E+00  .000E+00  .000E+00  .000E+00  .000E+00
  .000E+00  .000E+00  .000E+00  .000E+00
  .321E+02  .321E+02  .321E+02  .321E+02  .309E+02  .309E+02  .313E+02  .313E+02
  .309E+02  .313E+02  .309E+02  .309E+02  .310E+02  .303E+02  .303E+02  .308E+02
  .310E+02  .314E+02  .322E+02  .322E+02  .322E+02  .322E+02  .315E+02  .314E+02
  .322E+02  .322E+02  .315E+02  .322E+02  .323E+02  .322E+02  .325E+02  .314E+02
  .325E+02  .327E+02  .327E+02  .327E+02  .375E+02  .375E+02  .376E+02  .376E+02
  .376E+02  .376E+02  .377E+02  .374E+02  .375E+02  .375E+02  .372E+02  .372E+02
  .372E+02  .372E+02  .370E+02  .370E+02  .367E+02  .321E+02  .321E+02  .375E+02
  .321E+02  .326E+02  .375E+02  .375E+02  .375E+02  .321E+02  .321E+02  .321E+02
  .372E+02  .372E+02  .372E+02  .372E+02  .372E+02  .372E+02  .372E+02  .372E+02
  .372E+02  .372E+02  .372E+02  .372E+02  .372E+02  .372E+02  .321E+02  .321E+02
  .321E+02  .321E+02  .321E+02  .321E+02  .321E+02  .321E+02  .321E+02  .321E+02
  .321E+02  .321E+02  .321E+02  .000E+00  .000E+00  .000E+00  .000E+00  .000E+00
  .000E+00  .000E+00  .000E+00  .000E+00
/&   ----------  End of spectral data for channel  1  ----------
Response and Fourier amplitude spectra (91 periods,  .04 - 15.0 sec)   for      
Corrected accelerogram   14868-L1344-20263.04       Chan  2:  Up         from   
Uncorrected Accelerogram Data             Processed: 09/19/20, CGS  868at004    
Rcrd of Fri Sep 18, 2020 23:38:28.0 PDT               (Avol1 v2.0, 4/18 CSMIP)  
CSMIP Preliminary Processing            (Origin:  To be determined)             
14868-L1344-20263.04                 Start time:  9/19/20, 06:38:28.0 UTC (GPS) 
Station No. 14868   33.806N, 118.164W    Etna    s/n 1344  (3 Chns of  3 at Sta)
Long Beach - Willow & Cherry              CGS   Data: Acceleration              
Chan  2:  Up                                                                    
Rcrd of Fri Sep 18, 2020 23:38:28.0 PDT    Fri Sep 18, 2020 23:38:28.0 PDT      
Hypocenter:  To be determined.               ML:  To be determined.             
Instr Period =  .0102 sec,  Damping =  .660,  Sensitivity =  .63 v/g            
                        Record Length = 60.000 sec.                             
                                     Uncor Max  =   .018 g, at   27.760 sec.    
RMS accel of (uncor) record  =        .   Chn. metadata effective date: 03/05/03
Accelerogram bandpass filtered with 3 dB pts at   .30 and 23.00 cyc/sec         
                 instrument- and base-line correcte                             
                                                                                
                                                                                
                                                                                
                                                                                
                                                                                
Rcrd of Fri Sep 18, 2020 23:38:28.0 PDT    Fri Sep 18, 2020 23:38:28.0 PDT      
                                                                                
14868-L1344-20263.04      Long Beach - Willow & Cherry    Chan  2:  Up          
                                                                                
14868-L1344-20263.04      Long Beach - Willow & Cherry    Chan  2:  Up          
                                                                                
Units for spectra are inches and sec, except Sa is in fraction of g.            
                                                                                
    2  100    2    3    3  200    1    3    1   24   12 1344    014868   11    0
    6   38   28    0  263    9   19 2020   10    3  50013600   39   28   74  360
13600    1  100    3 1344    1    4  680    2 -999 -999 -999 -999 -999 -999 -999
 -999 -999    3 -99912000    1  202    0   18    4 -999 -999    3    1 -99912000
    312000    4   91    1    3    5    0    0 -999    0    0    1    3    1    2
    2    2    4    0   32   67    0    5 -999    0    0    1    0    0    0  222
    0    0    0    0
      .010      .660    68.000      .002     1.000   627.000      .018    27.760
    97.900      .298      .475  -999.000     5.000  -999.000     4.000  -999.000
     2.500    50.860     2.500  -999.000    30.000    30.000  -999.000      .000
     -.001     -.001     2.000    15.000    33.806  -118.164      .044      .216
     4.958     -.017      .015    34.000    30.500    37.500    13.300    80.060
     1.000    11.003    -8.000  -999.000  -999.000  -999.000  -999.000  -999.000
     6.900     2.000     6.800   980.665      .005    60.000    15.581      .000
  -999.000    23.000  -999.000    60.000      .005      .303  -999.000  -999.000
    27.755    17.320    27.730     -.376    27.760     -.017      .000      .303
    23.000      .005      .005      .000      .005      .014  -999.000  -999.000
      .080      .110      .027      .015      .001      .000  -999.000  -999.000
  -999.000  -999.000  -999.000  -999.000  -999.000  -999.000  -999.000  -999.000
  -999.000  -999.000  -999.000  -999.000
      .050
      .040      .042      .044      .046      .048      .050      .055      .060
      .065      .070      .075      .080      .085      .090      .095      .100
      .110      .120      .130      .140      .150      .160      .170      .180
      .190      .200      .220      .240      .260      .280      .300      .320
      .340      .360      .380      .400      .420      .440      .460      .480
      .500      .550      .600      .650      .700      .750      .800      .850
      .900      .950     1.000     1.100     1.200     1.300     1.400     1.500
     1.600     1.700     1.800     1.900     2.000     2.200     2.400     2.600
     2.800     3.000     3.200     3.400     3.600     3.800     4.000     4.200
     4.400     4.600     4.800     5.000     5.500     6.000     6.500     7.000
     7.500     8.000     8.500     9.000     9.500    10.000    11.000    12.000
    13.000    14.000    15.000      .000      .000      .000      .000      .000
      .000      .000      .000      .000
Fourier amplitude spectra in in/sec.
  .000E+00  .000E+00  .000E+00  .000E+00  .000E+00  .000E+00  .000E+00  .000E+00
  .000E+00  .000E+00  .000E+00  .000E+00  .000E+00  .000E+00  .000E+00  .000E+00
  .000E+00  .000E+00  .000E+00  .000E+00  .000E+00  .000E+00  .000E+00  .000E+00
  .000E+00  .000E+00  .000E+00  .000E+00  .000E+00  .000E+00  .000E+00  .000E+00
  .000E+00  .000E+00  .000E+00  .000E+00  .000E+00  .000E+00  .000E+00  .000E+00
  .000E+00  .000E+00  .000E+00  .000E+00  .000E+00  .000E+00  .000E+00  .000E+00
  .000E+00  .000E+00  .000E+00  .000E+00  .000E+00  .000E+00  .000E+00  .000E+00
  .000E+00  .000E+00  .000E+00  .000E+00  .000E+00  .000E+00  .000E+00  .000E+00
  .000E+00  .000E+00  .000E+00  .000E+00  .000E+00  .000E+00  .000E+00  .000E+00
  .000E+00  .000E+00  .000E+00  .000E+00  .000E+00  .000E+00  .000E+00  .000E+00
  .000E+00  .000E+00  .000E+00  .000E+00  .000E+00  .000E+00  .000E+00  .000E+00
  .000E+00  .000E+00  .000E+00  .000E+00  .000E+00  .000E+00  .000E+00  .000E+00
  .000E+00  .000E+00  .000E+00  .000E+00
Damping =  .05. Data of Sd,Sv,Sa,Pssv,ttSd,ttSv,ttSa :
  .317E-03  .357E-03  .410E-03  .467E-03  .510E-03  .589E-03  .729E-03  .119E-02
  .122E-02  .153E-02  .188E-02  .249E-02  .307E-02  .411E-02  .511E-02  .588E-02
  .939E-02  .110E-01  .101E-01  .954E-02  .126E-01  .142E-01  .117E-01  .983E-02
  .102E-01  .106E-01  .110E-01  .103E-01  .992E-02  .108E-01  .126E-01  .154E-01
  .169E-01  .222E-01  .235E-01  .190E-01  .140E-01  .165E-01  .190E-01  .204E-01
