Response and Fourier amplitude spectra (91 periods,  .04 - 15.0 sec)   for      
Corrected accelerogram   14844-L2498-20262.03       Chan  1: 360 Deg     from   
Uncorrected Accelerogram Data             Processed: 09/18/20, CGS  844bo003    
Rcrd of Fri Sep 18, 2020 23:38:21.0 PDT               (Avol1 v2.0, 4/18 CSMIP)  
CSMIP Preliminary Processing            (Origin:  To be determined)             
14844-L2498-20262.03                 Start time:  9/19/20, 06:38:21.0 UTC (GPS) 
Station No. 14844   33.969N, 118.149W    Etna    s/n 2498  (3 Chns of  3 at Sta)
Bell Gardens - Garfield & Florence        CGS   Data: Acceleration              
Chan  1: 360 Deg                                                                
Rcrd of Fri Sep 18, 2020 23:38:21.0 PDT    Fri Sep 18, 2020 23:38:21.0 PDT      
Hypocenter:  To be determined.               ML:  To be determined.             
Instr Period =  .0108 sec,  Damping =  .670,  Sensitivity =  .63 v/g            
                        Record Length = 60.000 sec.                             
                                     Uncor Max  =  -.083 g, at   33.385 sec.    
RMS accel of (uncor) record  =        .   Chn. metadata effective date: 01/07/03
Accelerogram bandpass filtered with 3 dB pts at   .30 and 23.00 cyc/sec         
                 instrument- and base-line correcte                             
                                                                                
                                                                                
                                                                                
                                                                                
                                                                                
Rcrd of Fri Sep 18, 2020 23:38:21.0 PDT    Fri Sep 18, 2020 23:38:21.0 PDT      
                                                                                
14844-L2498-20262.03      Bell Gardens - Garfield & Florence    Chan  1: 360 Deg
                                                                                
14844-L2498-20262.03      Bell Gardens - Garfield & Florence    Chan  1: 360 Deg
                                                                                
Units for spectra are inches and sec, except Sa is in fraction of g.            
                                                                                
    1  100    1    3    3  200    1    3    1   24   12 2498    014844   11    0
    6   38   21    0  263    9   19 2020   10    3  36014800   39   34   74  360
14800    1  100    3 2498    1    3  740    2 -999 -999 -999 -999 -999 -999 -999
 -999 -999    3 -99912000    1  202    0   18    4 -999 -999    3    1 -99912000
    312000    4   91    1    3    5    0    0 -999    0    0    1    3    1    2
    2    2    4    0   32   67    0    5 -999    0    0    1    0    0    0  222
    0    0    0    0
      .011      .670    74.000      .004     1.000   628.000     -.083    33.385
    92.800      .298      .475  -999.000     5.000  -999.000     4.000  -999.000
     2.500    36.196     2.500  -999.000    30.000    30.000  -999.000      .005
     -.005     -.010     2.000    15.000    33.969  -118.149      .044      .285
     6.446     -.030      .010    37.000    30.600    42.900    13.300    92.660
     1.000    11.003    -8.000  -999.000  -999.000  -999.000  -999.000  -999.000
     6.900     2.000     6.800   980.665      .005    60.000    14.770      .000
  -999.000    23.000  -999.000    60.000      .005      .303  -999.000  -999.000
    33.385   -81.067    33.315     2.547    33.385      .244      .000      .303
    23.000      .005      .005      .000      .040      .036  -999.000  -999.000
      .183      .110      .142      .087      .009      .002  -999.000  -999.000
  -999.000  -999.000  -999.000  -999.000  -999.000  -999.000  -999.000  -999.000
  -999.000  -999.000  -999.000  -999.000
      .050
      .040      .042      .044      .046      .048      .050      .055      .060
      .065      .070      .075      .080      .085      .090      .095      .100
      .110      .120      .130      .140      .150      .160      .170      .180
      .190      .200      .220      .240      .260      .280      .300      .320
      .340      .360      .380      .400      .420      .440      .460      .480
      .500      .550      .600      .650      .700      .750      .800      .850
      .900      .950     1.000     1.100     1.200     1.300     1.400     1.500
     1.600     1.700     1.800     1.900     2.000     2.200     2.400     2.600
     2.800     3.000     3.200     3.400     3.600     3.800     4.000     4.200
     4.400     4.600     4.800     5.000     5.500     6.000     6.500     7.000
     7.500     8.000     8.500     9.000     9.500    10.000    11.000    12.000
    13.000    14.000    15.000      .000      .000      .000      .000      .000
      .000      .000      .000      .000
Fourier amplitude spectra in in/sec.
  .000E+00  .000E+00  .000E+00  .000E+00  .000E+00  .000E+00  .000E+00  .000E+00
  .000E+00  .000E+00  .000E+00  .000E+00  .000E+00  .000E+00  .000E+00  .000E+00
  .000E+00  .000E+00  .000E+00  .000E+00  .000E+00  .000E+00  .000E+00  .000E+00
  .000E+00  .000E+00  .000E+00  .000E+00  .000E+00  .000E+00  .000E+00  .000E+00
  .000E+00  .000E+00  .000E+00  .000E+00  .000E+00  .000E+00  .000E+00  .000E+00
  .000E+00  .000E+00  .000E+00  .000E+00  .000E+00  .000E+00  .000E+00  .000E+00
  .000E+00  .000E+00  .000E+00  .000E+00  .000E+00  .000E+00  .000E+00  .000E+00
  .000E+00  .000E+00  .000E+00  .000E+00  .000E+00  .000E+00  .000E+00  .000E+00
  .000E+00  .000E+00  .000E+00  .000E+00  .000E+00  .000E+00  .000E+00  .000E+00
  .000E+00  .000E+00  .000E+00  .000E+00  .000E+00  .000E+00  .000E+00  .000E+00
  .000E+00  .000E+00  .000E+00  .000E+00  .000E+00  .000E+00  .000E+00  .000E+00
  .000E+00  .000E+00  .000E+00  .000E+00  .000E+00  .000E+00  .000E+00  .000E+00
  .000E+00  .000E+00  .000E+00  .000E+00
Damping =  .05. Data of Sd,Sv,Sa,Pssv,ttSd,ttSv,ttSa :
  .142E-02  .161E-02  .182E-02  .197E-02  .213E-02  .240E-02  .318E-02  .407E-02
  .628E-02  .665E-02  .837E-02  .954E-02  .112E-01  .122E-01  .152E-01  .177E-01
  .217E-01  .227E-01  .220E-01  .272E-01  .348E-01  .412E-01  .480E-01  .503E-01
  .489E-01  .534E-01  .705E-01  .849E-01  .850E-01  .768E-01  .715E-01  .781E-01
  .985E-01  .124E+00  .149E+00  .167E+00  .182E+00  .191E+00  .194E+00  .190E+00
  .182E+00  .170E+00  .167E+00  .153E+00  .136E+00  .118E+00  .101E+00  .913E-01
  .885E-01  .862E-01  .838E-01  .850E-01  .903E-01  .838E-01  .912E-01  .976E-01
  .994E-01  .103E+00  .107E+00  .108E+00  .107E+00  .100E+00  .964E-01  .102E+00
  .106E+00  .110E+00  .112E+00  .114E+00  .114E+00  .114E+00  .113E+00  .112E+00
  .111E+00  .110E+00  .109E+00  .108E+00  .106E+00  .104E+00  .102E+00  .101E+00
  .100E+00  .997E-01  .992E-01  .989E-01  .986E-01  .982E-01  .977E-01  .976E-01
  .974E-01  .967E-01  .967E-01  .000E+00  .000E+00  .000E+00  .000E+00  .000E+00
  .000E+00  .000E+00  .000E+00  .000E+00
  .545E-01  .644E-01  .745E-01  .886E-01  .107E+00  .133E+00  .197E+00  .353E+00
  .513E+00  .524E+00  .468E+00  .605E+00  .747E+00  .745E+00  .882E+00  .103E+01
  .116E+01  .105E+01  .973E+00  .103E+01  .138E+01  .158E+01  .186E+01  .175E+01
  .159E+01  .162E+01  .223E+01  .236E+01  .210E+01  .192E+01  .176E+01  .183E+01
  .211E+01  .242E+01  .261E+01  .260E+01  .278E+01  .295E+01  .301E+01  .297E+01
  .285E+01  .244E+01  .199E+01  .178E+01  .171E+01  .162E+01  .153E+01  .143E+01
  .135E+01  .127E+01  .120E+01  .108E+01  .982E+00  .926E+00  .895E+00  .878E+00
  .872E+00  .879E+00  .881E+00  .878E+00  .872E+00  .886E+00  .906E+00  .924E+00
  .938E+00  .951E+00  .962E+00  .972E+00  .979E+00  .986E+00  .991E+00  .994E+00
  .997E+00  .999E+00  .100E+01  .100E+01  .100E+01  .100E+01  .100E+01  .100E+01
  .100E+01  .100E+01  .100E+01  .100E+01  .100E+01  .100E+01  .100E+01  .100E+01
  .100E+01  .100E+01  .100E+01  .000E+00  .000E+00  .000E+00  .000E+00  .000E+00
  .000E+00  .000E+00  .000E+00  .000E+00
  .907E-01  .931E-01  .960E-01  .956E-01  .945E-01  .980E-01  .108E+00  .116E+00
  .152E+00  .139E+00  .152E+00  .153E+00  .158E+00  .154E+00  .174E+00  .182E+00
  .183E+00  .162E+00  .133E+00  .142E+00  .159E+00  .166E+00  .171E+00  .159E+00
  .140E+00  .137E+00  .150E+00  .152E+00  .130E+00  .101E+00  .818E-01  .784E-01
  .877E-01  .982E-01  .106E+00  .107E+00  .106E+00  .102E+00  .943E-01  .849E-01
  .748E-01  .577E-01  .481E-01  .377E-01  .290E-01  .220E-01  .166E-01  .130E-01
  .113E-01  .986E-02  .863E-02  .739E-02  .663E-02  .524E-02  .488E-02  .459E-02
  .411E-02  .370E-02  .344E-02  .314E-02  .283E-02  .223E-02  .200E-02  .183E-02
  .167E-02  .152E-02  .139E-02  .126E-02  .115E-02  .105E-02  .964E-03  .885E-03
  .816E-03  .755E-03  .701E-03  .653E-03  .557E-03  .483E-03  .425E-03  .380E-03
  .343E-03  .312E-03  .286E-03  .264E-03  .245E-03  .229E-03  .201E-03  .180E-03
  .162E-03  .148E-03  .136E-03  .000E+00  .000E+00  .000E+00  .000E+00  .000E+00
  .000E+00  .000E+00  .000E+00  .000E+00
  .223E+00  .240E+00  .259E+00  .270E+00  .279E+00  .302E+00  .364E+00  .427E+00
  .608E+00  .597E+00  .701E+00  .749E+00  .829E+00  .849E+00  .100E+01  .111E+01
  .124E+01  .119E+01  .106E+01  .122E+01  .146E+01  .162E+01  .177E+01  .176E+01
  .162E+01  .168E+01  .201E+01  .222E+01  .205E+01  .172E+01  .150E+01  .153E+01
  .182E+01  .216E+01  .246E+01  .263E+01  .272E+01  .273E+01  .265E+01  .249E+01
  .228E+01  .194E+01  .175E+01  .148E+01  .122E+01  .991E+00  .794E+00  .675E+00
  .618E+00  .570E+00  .526E+00  .486E+00  .473E+00  .405E+00  .409E+00  .409E+00
  .390E+00  .382E+00  .373E+00  .357E+00  .336E+00  .286E+00  .252E+00  .247E+00
  .239E+00  .230E+00  .220E+00  .210E+00  .199E+00  .188E+00  .178E+00  .168E+00
  .159E+00  .151E+00  .143E+00  .136E+00  .121E+00  .109E+00  .989E-01  .909E-01
  .842E-01  .783E-01  .734E-01  .691E-01  .652E-01  .617E-01  .558E-01  .511E-01
  .471E-01  .434E-01  .405E-01  .000E+00  .000E+00  .000E+00  .000E+00  .000E+00
  .000E+00  .000E+00  .000E+00  .000E+00
  .334E+02  .334E+02  .334E+02  .334E+02  .334E+02  .334E+02  .334E+02  .334E+02
  .338E+02  .334E+02  .334E+02  .334E+02  .336E+02  .331E+02  .331E+02  .331E+02
  .331E+02  .333E+02  .333E+02  .334E+02  .334E+02  .334E+02  .341E+02  .341E+02
  .336E+02  .336E+02  .335E+02  .336E+02  .336E+02  .336E+02  .336E+02  .334E+02
  .334E+02  .335E+02  .335E+02  .335E+02  .335E+02  .335E+02  .335E+02  .335E+02
  .335E+02  .339E+02  .334E+02  .334E+02  .334E+02  .334E+02  .334E+02  .332E+02
  .332E+02  .332E+02  .332E+02  .341E+02  .341E+02  .342E+02  .337E+02  .344E+02
  .337E+02  .338E+02  .338E+02  .338E+02  .338E+02  .338E+02  .334E+02  .334E+02
  .334E+02  .334E+02  .334E+02  .334E+02  .334E+02  .334E+02  .334E+02  .334E+02
  .334E+02  .334E+02  .334E+02  .334E+02  .334E+02  .334E+02  .334E+02  .334E+02
  .334E+02  .334E+02  .334E+02  .334E+02  .334E+02  .334E+02  .334E+02  .334E+02
  .334E+02  .334E+02  .334E+02  .000E+00  .000E+00  .000E+00  .000E+00  .000E+00
  .000E+00  .000E+00  .000E+00  .000E+00
  .336E+02  .336E+02  .336E+02  .336E+02  .337E+02  .337E+02  .338E+02  .338E+02
  .338E+02  .339E+02  .334E+02  .335E+02  .335E+02  .337E+02  .331E+02  .337E+02
  .331E+02  .333E+02  .333E+02  .334E+02  .334E+02  .335E+02  .342E+02  .341E+02
  .338E+02  .336E+02  .336E+02  .336E+02  .335E+02  .335E+02  .335E+02  .335E+02
  .335E+02  .335E+02  .335E+02  .335E+02  .334E+02  .334E+02  .334E+02  .334E+02
  .334E+02  .334E+02  .335E+02  .333E+02  .333E+02  .333E+02  .333E+02  .333E+02
  .333E+02  .333E+02  .333E+02  .333E+02  .333E+02  .333E+02  .333E+02  .333E+02
  .334E+02  .334E+02  .334E+02  .334E+02  .334E+02  .333E+02  .333E+02  .333E+02
  .333E+02  .333E+02  .333E+02  .333E+02  .333E+02  .333E+02  .333E+02  .333E+02
  .333E+02  .333E+02  .333E+02  .333E+02  .333E+02  .333E+02  .333E+02  .333E+02
  .333E+02  .333E+02  .333E+02  .333E+02  .333E+02  .333E+02  .333E+02  .333E+02
  .333E+02  .333E+02  .333E+02  .000E+00  .000E+00  .000E+00  .000E+00  .000E+00
  .000E+00  .000E+00  .000E+00  .000E+00
  .334E+02  .334E+02  .334E+02  .334E+02  .334E+02  .334E+02  .334E+02  .338E+02
  .338E+02  .334E+02  .334E+02  .334E+02  .336E+02  .331E+02  .331E+02  .331E+02
  .331E+02  .333E+02  .333E+02  .334E+02  .334E+02  .334E+02  .341E+02  .341E+02
  .336E+02  .336E+02  .336E+02  .335E+02  .336E+02  .336E+02  .336E+02  .334E+02
  .334E+02  .334E+02  .335E+02  .335E+02  .335E+02  .335E+02  .335E+02  .335E+02
  .335E+02  .339E+02  .334E+02  .334E+02  .334E+02  .334E+02  .334E+02  .332E+02
  .332E+02  .332E+02  .332E+02  .341E+02  .341E+02  .341E+02  .337E+02  .344E+02
  .337E+02  .337E+02  .338E+02  .338E+02  .338E+02  .338E+02  .333E+02  .333E+02
  .333E+02  .333E+02  .333E+02  .333E+02  .333E+02  .333E+02  .333E+02  .333E+02
  .333E+02  .333E+02  .333E+02  .333E+02  .333E+02  .333E+02  .333E+02  .333E+02
  .333E+02  .333E+02  .333E+02  .333E+02  .333E+02  .333E+02  .333E+02  .333E+02
  .333E+02  .333E+02  .333E+02  .000E+00  .000E+00  .000E+00  .000E+00  .000E+00
  .000E+00  .000E+00  .000E+00  .000E+00
/&   ----------  End of spectral data for channel  1  ----------
Response and Fourier amplitude spectra (91 periods,  .04 - 15.0 sec)   for      
Corrected accelerogram   14844-L2498-20262.03       Chan  2:  Up         from   
Uncorrected Accelerogram Data             Processed: 09/18/20, CGS  844bo003    
Rcrd of Fri Sep 18, 2020 23:38:21.0 PDT               (Avol1 v2.0, 4/18 CSMIP)  
CSMIP Preliminary Processing            (Origin:  To be determined)             
14844-L2498-20262.03                 Start time:  9/19/20, 06:38:21.0 UTC (GPS) 
Station No. 14844   33.969N, 118.149W    Etna    s/n 2498  (3 Chns of  3 at Sta)
Bell Gardens - Garfield & Florence        CGS   Data: Acceleration              
Chan  2:  Up                                                                    
Rcrd of Fri Sep 18, 2020 23:38:21.0 PDT    Fri Sep 18, 2020 23:38:21.0 PDT      
Hypocenter:  To be determined.               ML:  To be determined.             
Instr Period =  .0105 sec,  Damping =  .660,  Sensitivity =  .63 v/g            
                        Record Length = 60.000 sec.                             
                                     Uncor Max  =  -.040 g, at   33.655 sec.    
RMS accel of (uncor) record  =        .   Chn. metadata effective date: 01/07/03
Accelerogram bandpass filtered with 3 dB pts at   .30 and 23.00 cyc/sec         
                 instrument- and base-line correcte                             
                                                                                
                                                                                
                                                                                
                                                                                
                                                                                
Rcrd of Fri Sep 18, 2020 23:38:21.0 PDT    Fri Sep 18, 2020 23:38:21.0 PDT      
                                                                                
14844-L2498-20262.03      Bell Gardens - Garfield & Florence    Chan  2:  Up    
                                                                                
14844-L2498-20262.03      Bell Gardens - Garfield & Florence    Chan  2:  Up    
                                                                                
Units for spectra are inches and sec, except Sa is in fraction of g.            
                                                                                
    2  100    2    3    3  200    1    3    1   24   12 2498    014844   11    0
    6   38   21    0  263    9   19 2020   10    3  50014800   39   34   74  360
14800    1  100    3 2498    1    3  740    2 -999 -999 -999 -999 -999 -999 -999
 -999 -999    3 -99912000    1  202    0   18    4 -999 -999    3    1 -99912000
    312000    4   91    1    3    5    0    0 -999    0    0    1    3    1    2
    2    2    4    0   32   67    0    5 -999    0    0    1    0    0    0  222
    0    0    0    0
      .010      .660    74.000      .004     1.000   628.000     -.040    33.655
    95.500      .298      .475  -999.000     5.000  -999.000     4.000  -999.000
     2.500    30.352     2.500  -999.000    30.000    30.000  -999.000     -.001
      .003      .005     2.000    15.000    33.969  -118.149      .044      .163
     3.746     -.007      .017    37.000    30.600    42.900    13.300    92.660
     1.000    11.003    -8.000  -999.000  -999.000  -999.000  -999.000  -999.000
     6.900     2.000     6.800   980.665      .005    60.000    15.199     -.001
  -999.000    23.000  -999.000    60.000      .005      .303  -999.000  -999.000
    33.170   -37.225    34.030     -.701    30.170      .036      .000      .303
    23.000      .005      .005      .000      .005      .019  -999.000  -999.000
      .191      .070      .059      .021      .001      .000  -999.000  -999.000
  -999.000  -999.000  -999.000  -999.000  -999.000  -999.000  -999.000  -999.000
  -999.000  -999.000  -999.000  -999.000
      .050
      .040      .042      .044      .046      .048      .050      .055      .060
      .065      .070      .075      .080      .085      .090      .095      .100
      .110      .120      .130      .140      .150      .160      .170      .180
      .190      .200      .220      .240      .260      .280      .300      .320
      .340      .360      .380      .400      .420      .440      .460      .480
      .500      .550      .600      .650      .700      .750      .800      .850
      .900      .950     1.000     1.100     1.200     1.300     1.400     1.500
     1.600     1.700     1.800     1.900     2.000     2.200     2.400     2.600
     2.800     3.000     3.200     3.400     3.600     3.800     4.000     4.200
     4.400     4.600     4.800     5.000     5.500     6.000     6.500     7.000
     7.500     8.000     8.500     9.000     9.500    10.000    11.000    12.000
    13.000    14.000    15.000      .000      .000      .000      .000      .000
      .000      .000      .000      .000
Fourier amplitude spectra in in/sec.
  .000E+00  .000E+00  .000E+00  .000E+00  .000E+00  .000E+00  .000E+00  .000E+00
  .000E+00  .000E+00  .000E+00  .000E+00  .000E+00  .000E+00  .000E+00  .000E+00
  .000E+00  .000E+00  .000E+00  .000E+00  .000E+00  .000E+00  .000E+00  .000E+00
  .000E+00  .000E+00  .000E+00  .000E+00  .000E+00  .000E+00  .000E+00  .000E+00
  .000E+00  .000E+00  .000E+00  .000E+00  .000E+00  .000E+00  .000E+00  .000E+00
  .000E+00  .000E+00  .000E+00  .000E+00  .000E+00  .000E+00  .000E+00  .000E+00
  .000E+00  .000E+00  .000E+00  .000E+00  .000E+00  .000E+00  .000E+00  .000E+00
  .000E+00  .000E+00  .000E+00  .000E+00  .000E+00  .000E+00  .000E+00  .000E+00
  .000E+00  .000E+00  .000E+00  .000E+00  .000E+00  .000E+00  .000E+00  .000E+00
  .000E+00  .000E+00  .000E+00  .000E+00  .000E+00  .000E+00  .000E+00  .000E+00
  .000E+00  .000E+00  .000E+00  .000E+00  .000E+00  .000E+00  .000E+00  .000E+00
  .000E+00  .000E+00  .000E+00  .000E+00  .000E+00  .000E+00  .000E+00  .000E+00
  .000E+00  .000E+00  .000E+00  .000E+00
Damping =  .05. Data of Sd,Sv,Sa,Pssv,ttSd,ttSv,ttSa :
  .998E-03  .129E-02  .168E-02  .203E-02  .231E-02  .247E-02  .274E-02  .407E-02
  .706E-02  .916E-02  .104E-01  .914E-02  .108E-01  .112E-01  .123E-01  .129E-01
  .114E-01  .108E-01  .130E-01  .170E-01  .186E-01  .290E-01  .321E-01  .245E-01
  .237E-01  .249E-01  .217E-01  .195E-01  .165E-01  .178E-01  .173E-01  .196E-01
  .214E-01  .221E-01  .217E-01  .203E-01  .187E-01  .233E-01  .195E-01  .182E-01
