Response and Fourier amplitude spectra (91 periods,  .04 - 15.0 sec)   for      
Corrected accelerogram   14820-L3482-20263.12       Chan  1:  90 Deg     from   
Uncorrected Accelerogram Data             Processed: 09/19/20, CGS  820dd012    
Rcrd of Fri Sep 18, 2020 23:38:27.0 PDT               (Avol1 v2.0, 4/18 CSMIP)  
CSMIP Preliminary Processing            (Origin:  To be determined)             
14820-L3482-20263.12                 Start time:  9/19/20, 06:38:27.0 UTC (GPS) 
Station No. 14820   33.993N, 118.342W    Etna    s/n 3482  (3 Chns of  3 at Sta)
Los Angeles - 54th & Crenshaw             CGS   Data: Acceleration              
Chan  1:  90 Deg                                                                
Rcrd of Fri Sep 18, 2020 23:38:27.0 PDT    Fri Sep 18, 2020 23:38:27.0 PDT      
Hypocenter:  To be determined.               ML:  To be determined.             
Instr Period =  .0050 sec,  Damping =  .700,  Sensitivity =  .63 v/g            
                        Record Length = 60.000 sec.                             
                                     Uncor Max  =  -.043 g, at   30.780 sec.    
RMS accel of (uncor) record  =        .   Chn. metadata effective date: 11/06/12
Accelerogram bandpass filtered with 3 dB pts at   .30 and 23.00 cyc/sec         
                 instrument- and base-line correcte                             
                                                                                
                                                                                
                                                                                
                                                                                
                                                                                
Rcrd of Fri Sep 18, 2020 23:38:27.0 PDT    Fri Sep 18, 2020 23:38:27.0 PDT      
                                                                                
14820-L3482-20263.12      Los Angeles - 54th & Crenshaw   Chan  1:  90 Deg      
                                                                                
14820-L3482-20263.12      Los Angeles - 54th & Crenshaw   Chan  1:  90 Deg      
                                                                                
Units for spectra are inches and sec, except Sa is in fraction of g.            
                                                                                
    1  100    1    3    3  200    1    3    1   24   12 3482    014820   11    0
    6   38   27    0  263    9   19 2020   10    3   9013400   39   29   74  360
13400    1  100    3 3482    1   12  670    2 -999 -999 -999 -999 -999 -999 -999
 -999 -999    3 -99912000    1  202    0   18   20 -999 -999    3    1 -99912000
    312000    4   91    1    3    5    0    0 -999    0    0    1    3    1    2
    2    2    4    0   32   67    0    5 -999    0    0    1    0    0    0  222
    0    0    0    0
      .005      .700    67.000      .002     1.000   626.000     -.043    30.780
   202.000      .298      .476  -999.000     5.000  -999.000     4.000  -999.000
     2.500    -2.266     2.500  -999.000    30.000    30.000  -999.000      .002
      .004      .002     2.000    15.000    33.993  -118.342      .021      .284
    13.204     -.018      .022    85.000    30.500    36.800    13.300    95.360
     1.000    11.003    -8.000  -999.000  -999.000  -999.000  -999.000  -999.000
     6.900     2.000     6.800   980.665      .005    60.000    32.149     -.001
  -999.000    23.000  -999.000    60.000      .005      .303  -999.000  -999.000
    30.780   -38.355    30.805     -.709    30.775      .048      .000      .303
    23.000      .005      .005      .000      .005      .024  -999.000  -999.000
      .131      .110      .055      .027      .005      .000  -999.000  -999.000
  -999.000  -999.000  -999.000  -999.000  -999.000  -999.000  -999.000  -999.000
  -999.000  -999.000  -999.000  -999.000
      .050
      .040      .042      .044      .046      .048      .050      .055      .060
      .065      .070      .075      .080      .085      .090      .095      .100
      .110      .120      .130      .140      .150      .160      .170      .180
      .190      .200      .220      .240      .260      .280      .300      .320
      .340      .360      .380      .400      .420      .440      .460      .480
      .500      .550      .600      .650      .700      .750      .800      .850
      .900      .950     1.000     1.100     1.200     1.300     1.400     1.500
     1.600     1.700     1.800     1.900     2.000     2.200     2.400     2.600
     2.800     3.000     3.200     3.400     3.600     3.800     4.000     4.200
     4.400     4.600     4.800     5.000     5.500     6.000     6.500     7.000
     7.500     8.000     8.500     9.000     9.500    10.000    11.000    12.000
    13.000    14.000    15.000      .000      .000      .000      .000      .000
      .000      .000      .000      .000
Fourier amplitude spectra in in/sec.
  .000E+00  .000E+00  .000E+00  .000E+00  .000E+00  .000E+00  .000E+00  .000E+00
  .000E+00  .000E+00  .000E+00  .000E+00  .000E+00  .000E+00  .000E+00  .000E+00
  .000E+00  .000E+00  .000E+00  .000E+00  .000E+00  .000E+00  .000E+00  .000E+00
  .000E+00  .000E+00  .000E+00  .000E+00  .000E+00  .000E+00  .000E+00  .000E+00
  .000E+00  .000E+00  .000E+00  .000E+00  .000E+00  .000E+00  .000E+00  .000E+00
  .000E+00  .000E+00  .000E+00  .000E+00  .000E+00  .000E+00  .000E+00  .000E+00
  .000E+00  .000E+00  .000E+00  .000E+00  .000E+00  .000E+00  .000E+00  .000E+00
  .000E+00  .000E+00  .000E+00  .000E+00  .000E+00  .000E+00  .000E+00  .000E+00
  .000E+00  .000E+00  .000E+00  .000E+00  .000E+00  .000E+00  .000E+00  .000E+00
  .000E+00  .000E+00  .000E+00  .000E+00  .000E+00  .000E+00  .000E+00  .000E+00
  .000E+00  .000E+00  .000E+00  .000E+00  .000E+00  .000E+00  .000E+00  .000E+00
  .000E+00  .000E+00  .000E+00  .000E+00  .000E+00  .000E+00  .000E+00  .000E+00
  .000E+00  .000E+00  .000E+00  .000E+00
Damping =  .05. Data of Sd,Sv,Sa,Pssv,ttSd,ttSv,ttSa :
  .889E-03  .101E-02  .110E-02  .126E-02  .154E-02  .186E-02  .302E-02  .352E-02
  .338E-02  .475E-02  .558E-02  .598E-02  .611E-02  .749E-02  .945E-02  .119E-01
  .153E-01  .155E-01  .154E-01  .150E-01  .175E-01  .226E-01  .254E-01  .252E-01
  .224E-01  .204E-01  .227E-01  .185E-01  .188E-01  .236E-01  .205E-01  .248E-01
  .255E-01  .241E-01  .243E-01  .269E-01  .259E-01  .214E-01  .213E-01  .231E-01
  .242E-01  .251E-01  .267E-01  .358E-01  .426E-01  .400E-01  .417E-01  .509E-01
  .431E-01  .443E-01  .585E-01  .477E-01  .428E-01  .485E-01  .469E-01  .447E-01
  .444E-01  .377E-01  .350E-01  .345E-01  .405E-01  .390E-01  .359E-01  .293E-01
  .321E-01  .253E-01  .249E-01  .273E-01  .286E-01  .286E-01  .277E-01  .266E-01
  .254E-01  .242E-01  .231E-01  .222E-01  .209E-01  .204E-01  .202E-01  .200E-01
  .198E-01  .196E-01  .195E-01  .194E-01  .194E-01  .193E-01  .193E-01  .193E-01
  .192E-01  .189E-01  .190E-01  .000E+00  .000E+00  .000E+00  .000E+00  .000E+00
  .000E+00  .000E+00  .000E+00  .000E+00
  .700E-01  .833E-01  .924E-01  .102E+00  .129E+00  .163E+00  .266E+00  .307E+00
  .284E+00  .393E+00  .416E+00  .436E+00  .431E+00  .463E+00  .554E+00  .659E+00
  .778E+00  .751E+00  .709E+00  .642E+00  .700E+00  .890E+00  .952E+00  .854E+00
  .770E+00  .682E+00  .703E+00  .556E+00  .530E+00  .510E+00  .448E+00  .525E+00
  .538E+00  .493E+00  .466E+00  .443E+00  .465E+00  .407E+00  .414E+00  .421E+00
  .404E+00  .352E+00  .385E+00  .339E+00  .396E+00  .368E+00  .353E+00  .380E+00
  .374E+00  .375E+00  .405E+00  .374E+00  .366E+00  .362E+00  .360E+00  .355E+00
  .350E+00  .345E+00  .339E+00  .333E+00  .328E+00  .320E+00  .311E+00  .304E+00
  .298E+00  .293E+00  .289E+00  .287E+00  .285E+00  .284E+00  .283E+00  .282E+00
  .282E+00  .281E+00  .281E+00  .281E+00  .280E+00  .280E+00  .279E+00  .279E+00
  .279E+00  .279E+00  .279E+00  .279E+00  .279E+00  .279E+00  .279E+00  .278E+00
  .278E+00  .278E+00  .278E+00  .000E+00  .000E+00  .000E+00  .000E+00  .000E+00
  .000E+00  .000E+00  .000E+00  .000E+00
  .569E-01  .586E-01  .586E-01  .614E-01  .689E-01  .760E-01  .102E+00  .997E-01
  .829E-01  .992E-01  .103E+00  .954E-01  .876E-01  .943E-01  .108E+00  .122E+00
  .131E+00  .111E+00  .941E-01  .787E-01  .795E-01  .912E-01  .909E-01  .800E-01
  .639E-01  .523E-01  .481E-01  .330E-01  .286E-01  .310E-01  .235E-01  .250E-01
  .227E-01  .191E-01  .173E-01  .173E-01  .151E-01  .114E-01  .104E-01  .104E-01
  .998E-02  .859E-02  .766E-02  .871E-02  .894E-02  .731E-02  .670E-02  .725E-02
  .547E-02  .504E-02  .601E-02  .405E-02  .307E-02  .295E-02  .246E-02  .206E-02
  .181E-02  .135E-02  .112E-02  .986E-03  .105E-02  .828E-03  .659E-03  .454E-03
  .424E-03  .341E-03  .299E-03  .263E-03  .247E-03  .225E-03  .199E-03  .179E-03
  .167E-03  .155E-03  .145E-03  .137E-03  .119E-03  .105E-03  .938E-04  .848E-04
  .772E-04  .709E-04  .656E-04  .610E-04  .569E-04  .534E-04  .476E-04  .428E-04
  .389E-04  .356E-04  .329E-04  .000E+00  .000E+00  .000E+00  .000E+00  .000E+00
  .000E+00  .000E+00  .000E+00  .000E+00
  .140E+00  .150E+00  .158E+00  .173E+00  .202E+00  .233E+00  .344E+00  .368E+00
  .327E+00  .426E+00  .467E+00  .470E+00  .452E+00  .523E+00  .625E+00  .745E+00
  .873E+00  .813E+00  .747E+00  .671E+00  .733E+00  .889E+00  .940E+00  .881E+00
  .742E+00  .641E+00  .649E+00  .485E+00  .455E+00  .530E+00  .430E+00  .487E+00
  .472E+00  .421E+00  .402E+00  .422E+00  .388E+00  .306E+00  .291E+00  .302E+00
  .304E+00  .287E+00  .280E+00  .346E+00  .383E+00  .335E+00  .327E+00  .376E+00
  .301E+00  .293E+00  .367E+00  .273E+00  .224E+00  .234E+00  .210E+00  .187E+00
  .174E+00  .139E+00  .122E+00  .114E+00  .127E+00  .111E+00  .939E-01  .709E-01
  .720E-01  .529E-01  .490E-01  .505E-01  .499E-01  .474E-01  .436E-01  .399E-01
  .362E-01  .330E-01  .303E-01  .279E-01  .239E-01  .214E-01  .195E-01  .179E-01
  .166E-01  .154E-01  .144E-01  .136E-01  .128E-01  .121E-01  .110E-01  .101E-01
  .928E-02  .850E-02  .796E-02  .000E+00  .000E+00  .000E+00  .000E+00  .000E+00
  .000E+00  .000E+00  .000E+00  .000E+00
  .308E+02  .308E+02  .308E+02  .308E+02  .308E+02  .308E+02  .309E+02  .309E+02
  .309E+02  .308E+02  .308E+02  .306E+02  .306E+02  .308E+02  .308E+02  .309E+02
  .309E+02  .309E+02  .309E+02  .309E+02  .309E+02  .310E+02  .311E+02  .311E+02
  .311E+02  .311E+02  .320E+02  .330E+02  .330E+02  .330E+02  .319E+02  .330E+02
  .329E+02  .351E+02  .351E+02  .351E+02  .352E+02  .344E+02  .328E+02  .312E+02
  .345E+02  .312E+02  .352E+02  .492E+02  .499E+02  .500E+02  .500E+02  .497E+02
  .493E+02  .493E+02  .494E+02  .449E+02  .446E+02  .425E+02  .421E+02  .401E+02
  .374E+02  .368E+02  .573E+02  .573E+02  .567E+02  .529E+02  .395E+02  .522E+02
  .522E+02  .308E+02  .363E+02  .363E+02  .363E+02  .363E+02  .363E+02  .363E+02
  .363E+02  .363E+02  .363E+02  .363E+02  .308E+02  .308E+02  .308E+02  .308E+02
  .308E+02  .308E+02  .308E+02  .308E+02  .308E+02  .308E+02  .308E+02  .308E+02
  .308E+02  .308E+02  .308E+02  .000E+00  .000E+00  .000E+00  .000E+00  .000E+00
  .000E+00  .000E+00  .000E+00  .000E+00
  .308E+02  .308E+02  .308E+02  .308E+02  .308E+02  .308E+02  .309E+02  .309E+02
  .309E+02  .308E+02  .308E+02  .306E+02  .306E+02  .308E+02  .308E+02  .309E+02
  .309E+02  .309E+02  .309E+02  .309E+02  .309E+02  .309E+02  .309E+02  .310E+02
  .310E+02  .310E+02  .319E+02  .330E+02  .330E+02  .330E+02  .320E+02  .309E+02
  .309E+02  .309E+02  .309E+02  .352E+02  .351E+02  .328E+02  .308E+02  .308E+02
  .308E+02  .308E+02  .351E+02  .308E+02  .498E+02  .363E+02  .308E+02  .495E+02
  .308E+02  .308E+02  .492E+02  .308E+02  .308E+02  .308E+02  .308E+02  .308E+02
  .308E+02  .308E+02  .308E+02  .308E+02  .308E+02  .308E+02  .308E+02  .308E+02
  .308E+02  .308E+02  .308E+02  .308E+02  .308E+02  .308E+02  .308E+02  .308E+02
  .308E+02  .308E+02  .308E+02  .308E+02  .308E+02  .308E+02  .308E+02  .308E+02
  .308E+02  .308E+02  .308E+02  .308E+02  .308E+02  .308E+02  .308E+02  .308E+02
  .308E+02  .308E+02  .308E+02  .000E+00  .000E+00  .000E+00  .000E+00  .000E+00
  .000E+00  .000E+00  .000E+00  .000E+00
  .308E+02  .308E+02  .308E+02  .308E+02  .308E+02  .308E+02  .309E+02  .309E+02
  .309E+02  .308E+02  .308E+02  .306E+02  .306E+02  .308E+02  .308E+02  .309E+02
  .309E+02  .309E+02  .309E+02  .309E+02  .309E+02  .309E+02  .310E+02  .311E+02
  .311E+02  .311E+02  .320E+02  .330E+02  .329E+02  .330E+02  .319E+02  .330E+02
  .328E+02  .351E+02  .351E+02  .351E+02  .352E+02  .344E+02  .328E+02  .312E+02
  .345E+02  .312E+02  .352E+02  .491E+02  .499E+02  .500E+02  .500E+02  .497E+02
  .493E+02  .493E+02  .494E+02  .449E+02  .445E+02  .425E+02  .420E+02  .401E+02
  .374E+02  .367E+02  .573E+02  .573E+02  .567E+02  .529E+02  .395E+02  .363E+02
  .522E+02  .308E+02  .308E+02  .308E+02  .362E+02  .362E+02  .362E+02  .309E+02
  .309E+02  .309E+02  .309E+02  .309E+02  .309E+02  .309E+02  .309E+02  .309E+02
  .309E+02  .309E+02  .309E+02  .309E+02  .309E+02  .309E+02  .309E+02  .309E+02
  .309E+02  .309E+02  .309E+02  .000E+00  .000E+00  .000E+00  .000E+00  .000E+00
  .000E+00  .000E+00  .000E+00  .000E+00
/&   ----------  End of spectral data for channel  1  ----------
Response and Fourier amplitude spectra (91 periods,  .04 - 15.0 sec)   for      
Corrected accelerogram   14820-L3482-20263.12       Chan  2: 360 Deg     from   
Uncorrected Accelerogram Data             Processed: 09/19/20, CGS  820dd012    
Rcrd of Fri Sep 18, 2020 23:38:27.0 PDT               (Avol1 v2.0, 4/18 CSMIP)  
CSMIP Preliminary Processing            (Origin:  To be determined)             
14820-L3482-20263.12                 Start time:  9/19/20, 06:38:27.0 UTC (GPS) 
Station No. 14820   33.993N, 118.342W    Etna    s/n 3482  (3 Chns of  3 at Sta)
Los Angeles - 54th & Crenshaw             CGS   Data: Acceleration              
Chan  2: 360 Deg                                                                
Rcrd of Fri Sep 18, 2020 23:38:27.0 PDT    Fri Sep 18, 2020 23:38:27.0 PDT      
Hypocenter:  To be determined.               ML:  To be determined.             
Instr Period =  .0045 sec,  Damping =  .700,  Sensitivity =  .63 v/g            
                        Record Length = 60.000 sec.                             
                                     Uncor Max  =  -.041 g, at   30.780 sec.    
RMS accel of (uncor) record  =        .   Chn. metadata effective date: 11/06/12
Accelerogram bandpass filtered with 3 dB pts at   .30 and 23.00 cyc/sec         
                 instrument- and base-line correcte                             
                                                                                
                                                                                
                                                                                
                                                                                
                                                                                
Rcrd of Fri Sep 18, 2020 23:38:27.0 PDT    Fri Sep 18, 2020 23:38:27.0 PDT      
                                                                                
14820-L3482-20263.12      Los Angeles - 54th & Crenshaw   Chan  2: 360 Deg      
                                                                                
14820-L3482-20263.12      Los Angeles - 54th & Crenshaw   Chan  2: 360 Deg      
                                                                                
Units for spectra are inches and sec, except Sa is in fraction of g.            
                                                                                
    2  100    2    3    3  200    1    3    1   24   12 3482    014820   11    0
    6   38   27    0  263    9   19 2020   10    3  36013400   39   29   74  360
13400    1  100    3 3482    1   12  670    2 -999 -999 -999 -999 -999 -999 -999
 -999 -999    3 -99912000    1  202    0   18   20 -999 -999    3    1 -99912000
    312000    4   91    1    3    5    0    0 -999    0    0    1    3    1    2
    2    2    4    0   32   67    0    5 -999    0    0    1    0    0    0  222
    0    0    0    0
      .005      .700    67.000      .002     1.000   626.000     -.041    30.780
   220.000      .298      .476  -999.000     5.000  -999.000     4.000  -999.000
     2.500    -8.957     2.500  -999.000    30.000    30.000  -999.000      .001
      .003      .003     2.000    15.000    33.993  -118.342      .020      .305
    15.290     -.019      .024    85.000    30.500    36.800    13.300    95.360
     1.000    11.003    -8.000  -999.000  -999.000  -999.000  -999.000  -999.000
     6.900     2.000     6.800   980.665      .005    60.000    35.014      .002
  -999.000    23.000  -999.000    60.000      .005      .303  -999.000  -999.000
    30.780   -37.767    30.660      .838    30.780      .052      .000      .303
    23.000      .005      .005      .000      .005      .024  -999.000  -999.000
      .156      .095      .049      .031      .004      .000  -999.000  -999.000
  -999.000  -999.000  -999.000  -999.000  -999.000  -999.000  -999.000  -999.000
  -999.000  -999.000  -999.000  -999.000
      .050
      .040      .042      .044      .046      .048      .050      .055      .060
      .065      .070      .075      .080      .085      .090      .095      .100
      .110      .120      .130      .140      .150      .160      .170      .180
      .190      .200      .220      .240      .260      .280      .300      .320
      .340      .360      .380      .400      .420      .440      .460      .480
      .500      .550      .600      .650      .700      .750      .800      .850
      .900      .950     1.000     1.100     1.200     1.300     1.400     1.500
     1.600     1.700     1.800     1.900     2.000     2.200     2.400     2.600
     2.800     3.000     3.200     3.400     3.600     3.800     4.000     4.200
     4.400     4.600     4.800     5.000     5.500     6.000     6.500     7.000
     7.500     8.000     8.500     9.000     9.500    10.000    11.000    12.000
    13.000    14.000    15.000      .000      .000      .000      .000      .000
      .000      .000      .000      .000
Fourier amplitude spectra in in/sec.
  .000E+00  .000E+00  .000E+00  .000E+00  .000E+00  .000E+00  .000E+00  .000E+00
  .000E+00  .000E+00  .000E+00  .000E+00  .000E+00  .000E+00  .000E+00  .000E+00
  .000E+00  .000E+00  .000E+00  .000E+00  .000E+00  .000E+00  .000E+00  .000E+00
  .000E+00  .000E+00  .000E+00  .000E+00  .000E+00  .000E+00  .000E+00  .000E+00
  .000E+00  .000E+00  .000E+00  .000E+00  .000E+00  .000E+00  .000E+00  .000E+00
  .000E+00  .000E+00  .000E+00  .000E+00  .000E+00  .000E+00  .000E+00  .000E+00
  .000E+00  .000E+00  .000E+00  .000E+00  .000E+00  .000E+00  .000E+00  .000E+00
  .000E+00  .000E+00  .000E+00  .000E+00  .000E+00  .000E+00  .000E+00  .000E+00
  .000E+00  .000E+00  .000E+00  .000E+00  .000E+00  .000E+00  .000E+00  .000E+00
  .000E+00  .000E+00  .000E+00  .000E+00  .000E+00  .000E+00  .000E+00  .000E+00
  .000E+00  .000E+00  .000E+00  .000E+00  .000E+00  .000E+00  .000E+00  .000E+00
  .000E+00  .000E+00  .000E+00  .000E+00  .000E+00  .000E+00  .000E+00  .000E+00
  .000E+00  .000E+00  .000E+00  .000E+00
Damping =  .05. Data of Sd,Sv,Sa,Pssv,ttSd,ttSv,ttSa :
  .938E-03  .106E-02  .115E-02  .119E-02  .134E-02  .158E-02  .248E-02  .292E-02
  .276E-02  .448E-02  .492E-02  .509E-02  .820E-02  .113E-01  .136E-01  .150E-01
  .147E-01  .132E-01  .126E-01  .114E-01  .116E-01  .131E-01  .123E-01  .125E-01
  .182E-01  .209E-01  .194E-01  .181E-01  .195E-01  .227E-01  .268E-01  .313E-01
  .345E-01  .332E-01  .382E-01  .355E-01  .329E-01  .336E-01  .340E-01  .344E-01
