Response and Fourier amplitude spectra (91 periods,  .04 - 15.0 sec)   for      
Corrected accelerogram   14026-L1847-20263.05       Chan  1: 360 Deg     from   
Uncorrected Accelerogram Data             Processed: 09/19/20, CGS  026be005    
Rcrd of Fri Sep 18, 2020 23:38:25.0 PDT               (Avol1 v2.0, 4/18 CSMIP)  
CSMIP Preliminary Processing            (Origin:  To be determined)             
14026-L1847-20263.05                 Start time:  9/19/20, 06:38:25.0 UTC (GPS) 
Station No. 14026   33.889N, 118.047W    Etna    s/n 1847  (3 Chns of  3 at Sta)
Santa Fe Springs - Carmenita & Alondra    CGS   Data: Acceleration              
Chan  1: 360 Deg                                                                
Rcrd of Fri Sep 18, 2020 23:38:25.0 PDT    Fri Sep 18, 2020 23:38:25.0 PDT      
Hypocenter:  To be determined.               ML:  To be determined.             
Instr Period =  .0103 sec,  Damping =  .640,  Sensitivity =  .63 v/g            
                        Record Length = 60.000 sec.                             
                                     Uncor Max  =  -.040 g, at   31.300 sec.    
RMS accel of (uncor) record  =        .   Chn. metadata effective date: 02/19/03
Accelerogram bandpass filtered with 3 dB pts at   .30 and 23.00 cyc/sec         
                 instrument- and base-line correcte                             
                                                                                
                                                                                
                                                                                
                                                                                
                                                                                
Rcrd of Fri Sep 18, 2020 23:38:25.0 PDT    Fri Sep 18, 2020 23:38:25.0 PDT      
                                                                                
14026-L1847-20263.05      Santa Fe Springs - Carmenita & Alondra    Chan  1: 360
 Deg                                                                            
14026-L1847-20263.05      Santa Fe Springs - Carmenita & Alondra    Chan  1: 360
 Deg                                                                            
Units for spectra are inches and sec, except Sa is in fraction of g.            
                                                                                
    1  100    1    3    3  200    1    3    1   24   12 1847    014026   11    0
    6   38   25    0  263    9   19 2020   10    3  36013600   39   38   74  360
13600    1  100    3 1847    1    5  680    2 -999 -999 -999 -999 -999 -999 -999
 -999 -999    3 -99912000    1  202    0   18    4 -999 -999    3    1 -99912000
    312000    4   91    1    3    5    0    0 -999    0    0    1    3    1    2
    2    2    4    0   32   67    0    5 -999    0    0    1    0    0    0  222
    0    0    0    0
      .010      .640    68.000      .003     1.000   626.000     -.040    31.300
    96.700      .298      .476  -999.000     5.000  -999.000     4.000  -999.000
     2.500    23.818     2.500  -999.000    30.000    30.000  -999.000     -.004
     -.002      .002     2.000    15.000    33.889  -118.047      .020      .286
    14.123     -.018      .022    18.000    30.700    37.300    13.400    94.460
     1.000    11.003    -8.000  -999.000  -999.000  -999.000  -999.000  -999.000
     6.900     2.000     6.800   980.665      .005    60.000    15.390      .002
  -999.000    23.000  -999.000    60.000      .005      .303  -999.000  -999.000
    31.300   -39.767    30.535     1.250    31.295      .111      .000      .303
    23.000      .005      .005      .000      .005      .029  -999.000  -999.000
      .157      .120      .095      .036      .005      .001  -999.000  -999.000
  -999.000  -999.000  -999.000  -999.000  -999.000  -999.000  -999.000  -999.000
  -999.000  -999.000  -999.000  -999.000
      .050
      .040      .042      .044      .046      .048      .050      .055      .060
      .065      .070      .075      .080      .085      .090      .095      .100
      .110      .120      .130      .140      .150      .160      .170      .180
      .190      .200      .220      .240      .260      .280      .300      .320
      .340      .360      .380      .400      .420      .440      .460      .480
      .500      .550      .600      .650      .700      .750      .800      .850
      .900      .950     1.000     1.100     1.200     1.300     1.400     1.500
     1.600     1.700     1.800     1.900     2.000     2.200     2.400     2.600
     2.800     3.000     3.200     3.400     3.600     3.800     4.000     4.200
     4.400     4.600     4.800     5.000     5.500     6.000     6.500     7.000
     7.500     8.000     8.500     9.000     9.500    10.000    11.000    12.000
    13.000    14.000    15.000      .000      .000      .000      .000      .000
      .000      .000      .000      .000
Fourier amplitude spectra in in/sec.
  .000E+00  .000E+00  .000E+00  .000E+00  .000E+00  .000E+00  .000E+00  .000E+00
  .000E+00  .000E+00  .000E+00  .000E+00  .000E+00  .000E+00  .000E+00  .000E+00
  .000E+00  .000E+00  .000E+00  .000E+00  .000E+00  .000E+00  .000E+00  .000E+00
  .000E+00  .000E+00  .000E+00  .000E+00  .000E+00  .000E+00  .000E+00  .000E+00
  .000E+00  .000E+00  .000E+00  .000E+00  .000E+00  .000E+00  .000E+00  .000E+00
  .000E+00  .000E+00  .000E+00  .000E+00  .000E+00  .000E+00  .000E+00  .000E+00
  .000E+00  .000E+00  .000E+00  .000E+00  .000E+00  .000E+00  .000E+00  .000E+00
  .000E+00  .000E+00  .000E+00  .000E+00  .000E+00  .000E+00  .000E+00  .000E+00
  .000E+00  .000E+00  .000E+00  .000E+00  .000E+00  .000E+00  .000E+00  .000E+00
  .000E+00  .000E+00  .000E+00  .000E+00  .000E+00  .000E+00  .000E+00  .000E+00
  .000E+00  .000E+00  .000E+00  .000E+00  .000E+00  .000E+00  .000E+00  .000E+00
  .000E+00  .000E+00  .000E+00  .000E+00  .000E+00  .000E+00  .000E+00  .000E+00
  .000E+00  .000E+00  .000E+00  .000E+00
Damping =  .05. Data of Sd,Sv,Sa,Pssv,ttSd,ttSv,ttSa :
  .679E-03  .761E-03  .847E-03  .944E-03  .104E-02  .117E-02  .151E-02  .179E-02
  .264E-02  .408E-02  .449E-02  .469E-02  .564E-02  .752E-02  .878E-02  .102E-01
  .166E-01  .221E-01  .216E-01  .218E-01  .193E-01  .209E-01  .305E-01  .383E-01
  .356E-01  .323E-01  .472E-01  .537E-01  .441E-01  .317E-01  .320E-01  .304E-01
  .340E-01  .359E-01  .389E-01  .484E-01  .553E-01  .555E-01  .506E-01  .501E-01
  .536E-01  .669E-01  .713E-01  .787E-01  .740E-01  .617E-01  .606E-01  .556E-01
  .485E-01  .477E-01  .458E-01  .466E-01  .480E-01  .550E-01  .631E-01  .621E-01
  .683E-01  .730E-01  .751E-01  .749E-01  .732E-01  .676E-01  .606E-01  .548E-01
  .507E-01  .467E-01  .487E-01  .506E-01  .516E-01  .521E-01  .520E-01  .517E-01
  .514E-01  .510E-01  .507E-01  .503E-01  .490E-01  .482E-01  .474E-01  .467E-01
  .462E-01  .458E-01  .455E-01  .453E-01  .451E-01  .449E-01  .446E-01  .445E-01
  .444E-01  .442E-01  .442E-01  .000E+00  .000E+00  .000E+00  .000E+00  .000E+00
  .000E+00  .000E+00  .000E+00  .000E+00
  .383E-01  .430E-01  .467E-01  .510E-01  .549E-01  .586E-01  .633E-01  .929E-01
  .145E+00  .224E+00  .292E+00  .260E+00  .309E+00  .420E+00  .489E+00  .570E+00
  .838E+00  .114E+01  .108E+01  .104E+01  .809E+00  .863E+00  .119E+01  .135E+01
  .125E+01  .110E+01  .142E+01  .140E+01  .133E+01  .955E+00  .731E+00  .751E+00
  .800E+00  .817E+00  .773E+00  .862E+00  .875E+00  .961E+00  .944E+00  .905E+00
  .895E+00  .827E+00  .833E+00  .956E+00  .942E+00  .858E+00  .759E+00  .663E+00
  .578E+00  .508E+00  .471E+00  .483E+00  .491E+00  .501E+00  .512E+00  .529E+00
  .555E+00  .574E+00  .585E+00  .590E+00  .591E+00  .584E+00  .574E+00  .561E+00
  .549E+00  .536E+00  .525E+00  .522E+00  .520E+00  .518E+00  .516E+00  .514E+00
  .512E+00  .511E+00  .509E+00  .508E+00  .505E+00  .503E+00  .501E+00  .500E+00
  .498E+00  .498E+00  .497E+00  .496E+00  .496E+00  .495E+00  .495E+00  .494E+00
  .494E+00  .493E+00  .493E+00  .000E+00  .000E+00  .000E+00  .000E+00  .000E+00
  .000E+00  .000E+00  .000E+00  .000E+00
  .433E-01  .441E-01  .448E-01  .457E-01  .463E-01  .478E-01  .514E-01  .508E-01
  .643E-01  .848E-01  .812E-01  .749E-01  .808E-01  .961E-01  .100E+00  .104E+00
  .140E+00  .157E+00  .132E+00  .114E+00  .876E-01  .840E-01  .109E+00  .121E+00
  .101E+00  .830E-01  .100E+00  .959E-01  .673E-01  .416E-01  .367E-01  .306E-01
  .303E-01  .285E-01  .277E-01  .311E-01  .323E-01  .295E-01  .246E-01  .223E-01
  .221E-01  .228E-01  .205E-01  .192E-01  .156E-01  .112E-01  .979E-02  .801E-02
  .620E-02  .547E-02  .482E-02  .411E-02  .358E-02  .337E-02  .333E-02  .289E-02
  .286E-02  .272E-02  .251E-02  .226E-02  .201E-02  .157E-02  .121E-02  .937E-03
  .732E-03  .610E-03  .566E-03  .526E-03  .485E-03  .446E-03  .408E-03  .373E-03
  .344E-03  .317E-03  .294E-03  .273E-03  .229E-03  .197E-03  .171E-03  .151E-03
  .134E-03  .121E-03  .110E-03  .100E-03  .923E-04  .854E-04  .758E-04  .691E-04
  .635E-04  .587E-04  .546E-04  .000E+00  .000E+00  .000E+00  .000E+00  .000E+00
  .000E+00  .000E+00  .000E+00  .000E+00
  .107E+00  .114E+00  .121E+00  .129E+00  .136E+00  .147E+00  .173E+00  .187E+00
  .255E+00  .366E+00  .376E+00  .369E+00  .417E+00  .525E+00  .581E+00  .644E+00
  .947E+00  .115E+01  .104E+01  .980E+00  .807E+00  .822E+00  .113E+01  .134E+01
  .118E+01  .102E+01  .135E+01  .141E+01  .107E+01  .712E+00  .671E+00  .596E+00
  .628E+00  .627E+00  .643E+00  .760E+00  .827E+00  .792E+00  .691E+00  .656E+00
  .674E+00  .765E+00  .746E+00  .761E+00  .664E+00  .517E+00  .476E+00  .411E+00
  .339E+00  .315E+00  .288E+00  .266E+00  .252E+00  .266E+00  .283E+00  .260E+00
  .268E+00  .270E+00  .262E+00  .248E+00  .230E+00  .193E+00  .159E+00  .132E+00
  .114E+00  .977E-01  .957E-01  .935E-01  .901E-01  .861E-01  .816E-01  .773E-01
  .734E-01  .697E-01  .663E-01  .632E-01  .560E-01  .505E-01  .459E-01  .419E-01
  .387E-01  .360E-01  .336E-01  .316E-01  .298E-01  .282E-01  .255E-01  .233E-01
  .215E-01  .198E-01  .185E-01  .000E+00  .000E+00  .000E+00  .000E+00  .000E+00
  .000E+00  .000E+00  .000E+00  .000E+00
  .313E+02  .313E+02  .313E+02  .313E+02  .313E+02  .313E+02  .313E+02  .314E+02
  .313E+02  .313E+02  .313E+02  .314E+02  .314E+02  .314E+02  .314E+02  .314E+02
  .316E+02  .318E+02  .317E+02  .317E+02  .308E+02  .308E+02  .314E+02  .314E+02
  .314E+02  .314E+02  .317E+02  .314E+02  .314E+02  .307E+02  .307E+02  .307E+02
  .307E+02  .307E+02  .312E+02  .312E+02  .312E+02  .312E+02  .312E+02  .310E+02
  .310E+02  .311E+02  .314E+02  .318E+02  .318E+02  .319E+02  .320E+02  .320E+02
  .309E+02  .309E+02  .309E+02  .306E+02  .306E+02  .328E+02  .328E+02  .329E+02
  .316E+02  .324E+02  .316E+02  .316E+02  .316E+02  .316E+02  .316E+02  .319E+02
  .319E+02  .313E+02  .313E+02  .313E+02  .313E+02  .313E+02  .313E+02  .313E+02
  .313E+02  .313E+02  .313E+02  .313E+02  .313E+02  .313E+02  .313E+02  .313E+02
  .313E+02  .313E+02  .313E+02  .313E+02  .313E+02  .313E+02  .313E+02  .313E+02
  .313E+02  .313E+02  .313E+02  .000E+00  .000E+00  .000E+00  .000E+00  .000E+00
  .000E+00  .000E+00  .000E+00  .000E+00
  .313E+02  .313E+02  .313E+02  .313E+02  .313E+02  .313E+02  .316E+02  .313E+02
  .313E+02  .313E+02  .313E+02  .314E+02  .313E+02  .314E+02  .314E+02  .314E+02
  .316E+02  .317E+02  .318E+02  .317E+02  .309E+02  .308E+02  .314E+02  .314E+02
  .314E+02  .314E+02  .314E+02  .314E+02  .313E+02  .313E+02  .306E+02  .313E+02
  .313E+02  .313E+02  .312E+02  .313E+02  .311E+02  .311E+02  .311E+02  .311E+02
  .311E+02  .311E+02  .313E+02  .313E+02  .313E+02  .313E+02  .313E+02  .313E+02
  .313E+02  .313E+02  .305E+02  .305E+02  .305E+02  .305E+02  .305E+02  .313E+02
  .313E+02  .313E+02  .313E+02  .313E+02  .313E+02  .313E+02  .313E+02  .313E+02
  .313E+02  .313E+02  .313E+02  .305E+02  .305E+02  .305E+02  .305E+02  .305E+02
  .305E+02  .305E+02  .305E+02  .305E+02  .305E+02  .305E+02  .305E+02  .305E+02
  .305E+02  .305E+02  .305E+02  .305E+02  .305E+02  .305E+02  .305E+02  .305E+02
  .305E+02  .305E+02  .305E+02  .000E+00  .000E+00  .000E+00  .000E+00  .000E+00
  .000E+00  .000E+00  .000E+00  .000E+00
  .313E+02  .313E+02  .313E+02  .313E+02  .313E+02  .313E+02  .313E+02  .314E+02
  .313E+02  .313E+02  .313E+02  .314E+02  .314E+02  .314E+02  .314E+02  .314E+02
  .316E+02  .317E+02  .318E+02  .317E+02  .308E+02  .308E+02  .314E+02  .314E+02
  .314E+02  .314E+02  .317E+02  .313E+02  .314E+02  .306E+02  .307E+02  .307E+02
  .307E+02  .307E+02  .311E+02  .312E+02  .312E+02  .312E+02  .312E+02  .310E+02
  .310E+02  .311E+02  .314E+02  .318E+02  .318E+02  .319E+02  .320E+02  .320E+02
  .309E+02  .309E+02  .306E+02  .306E+02  .306E+02  .328E+02  .328E+02  .316E+02
  .316E+02  .316E+02  .316E+02  .316E+02  .316E+02  .316E+02  .316E+02  .316E+02
  .316E+02  .313E+02  .313E+02  .313E+02  .313E+02  .313E+02  .313E+02  .313E+02
  .313E+02  .313E+02  .313E+02  .313E+02  .313E+02  .313E+02  .313E+02  .313E+02
  .313E+02  .313E+02  .313E+02  .313E+02  .313E+02  .313E+02  .305E+02  .305E+02
  .305E+02  .305E+02  .305E+02  .000E+00  .000E+00  .000E+00  .000E+00  .000E+00
  .000E+00  .000E+00  .000E+00  .000E+00
/&   ----------  End of spectral data for channel  1  ----------
Response and Fourier amplitude spectra (91 periods,  .04 - 15.0 sec)   for      
Corrected accelerogram   14026-L1847-20263.05       Chan  2:  Up         from   
Uncorrected Accelerogram Data             Processed: 09/19/20, CGS  026be005    
Rcrd of Fri Sep 18, 2020 23:38:25.0 PDT               (Avol1 v2.0, 4/18 CSMIP)  
CSMIP Preliminary Processing            (Origin:  To be determined)             
14026-L1847-20263.05                 Start time:  9/19/20, 06:38:25.0 UTC (GPS) 
Station No. 14026   33.889N, 118.047W    Etna    s/n 1847  (3 Chns of  3 at Sta)
Santa Fe Springs - Carmenita & Alondra    CGS   Data: Acceleration              
Chan  2:  Up                                                                    
Rcrd of Fri Sep 18, 2020 23:38:25.0 PDT    Fri Sep 18, 2020 23:38:25.0 PDT      
Hypocenter:  To be determined.               ML:  To be determined.             
Instr Period =  .0107 sec,  Damping =  .660,  Sensitivity =  .63 v/g            
                        Record Length = 60.000 sec.                             
                                     Uncor Max  =   .022 g, at   30.945 sec.    
RMS accel of (uncor) record  =        .   Chn. metadata effective date: 02/19/03
Accelerogram bandpass filtered with 3 dB pts at   .30 and 23.00 cyc/sec         
                 instrument- and base-line correcte                             
                                                                                
                                                                                
                                                                                
                                                                                
                                                                                
Rcrd of Fri Sep 18, 2020 23:38:25.0 PDT    Fri Sep 18, 2020 23:38:25.0 PDT      
                                                                                
14026-L1847-20263.05      Santa Fe Springs - Carmenita & Alondra    Chan  2:  Up
                                                                                
14026-L1847-20263.05      Santa Fe Springs - Carmenita & Alondra    Chan  2:  Up
                                                                                
Units for spectra are inches and sec, except Sa is in fraction of g.            
                                                                                
    2  100    2    3    3  200    1    3    1   24   12 1847    014026   11    0
    6   38   25    0  263    9   19 2020   10    3  50013600   39   38   74  360
13600    1  100    3 1847    1    5  680    2 -999 -999 -999 -999 -999 -999 -999
 -999 -999    3 -99912000    1  202    0   18    4 -999 -999    3    1 -99912000
    312000    4   91    1    3    5    0    0 -999    0    0    1    3    1    2
    2    2    4    0   32   67    0    5 -999    0    0    1    0    0    0  222
    0    0    0    0
      .011      .660    68.000      .002     1.000   627.000      .022    30.945
    93.800      .298      .475  -999.000     5.000  -999.000     4.000  -999.000
     2.500    65.735     2.500  -999.000    30.000    30.000  -999.000     -.003
      .000      .003     2.000    15.000    33.889  -118.047      .050      .159
     3.172     -.010      .016    18.000    30.700    37.300    13.400    94.460
     1.000    11.003    -8.000  -999.000  -999.000  -999.000  -999.000  -999.000
     6.900     2.000     6.800   980.665      .005    60.000    14.929      .000
  -999.000    23.000  -999.000    60.000      .005      .303  -999.000  -999.000
    30.945    20.621    30.965      .414    45.450     -.015      .000      .303
    23.000      .005      .005      .000      .005      .014  -999.000  -999.000
      .088      .075      .021      .010      .001      .000  -999.000  -999.000
  -999.000  -999.000  -999.000  -999.000  -999.000  -999.000  -999.000  -999.000
  -999.000  -999.000  -999.000  -999.000
      .050
      .040      .042      .044      .046      .048      .050      .055      .060
      .065      .070      .075      .080      .085      .090      .095      .100
      .110      .120      .130      .140      .150      .160      .170      .180
      .190      .200      .220      .240      .260      .280      .300      .320
      .340      .360      .380      .400      .420      .440      .460      .480
      .500      .550      .600      .650      .700      .750      .800      .850
      .900      .950     1.000     1.100     1.200     1.300     1.400     1.500
     1.600     1.700     1.800     1.900     2.000     2.200     2.400     2.600
     2.800     3.000     3.200     3.400     3.600     3.800     4.000     4.200
     4.400     4.600     4.800     5.000     5.500     6.000     6.500     7.000
     7.500     8.000     8.500     9.000     9.500    10.000    11.000    12.000
    13.000    14.000    15.000      .000      .000      .000      .000      .000
      .000      .000      .000      .000
Fourier amplitude spectra in in/sec.
  .000E+00  .000E+00  .000E+00  .000E+00  .000E+00  .000E+00  .000E+00  .000E+00
  .000E+00  .000E+00  .000E+00  .000E+00  .000E+00  .000E+00  .000E+00  .000E+00
  .000E+00  .000E+00  .000E+00  .000E+00  .000E+00  .000E+00  .000E+00  .000E+00
  .000E+00  .000E+00  .000E+00  .000E+00  .000E+00  .000E+00  .000E+00  .000E+00
  .000E+00  .000E+00  .000E+00  .000E+00  .000E+00  .000E+00  .000E+00  .000E+00
  .000E+00  .000E+00  .000E+00  .000E+00  .000E+00  .000E+00  .000E+00  .000E+00
  .000E+00  .000E+00  .000E+00  .000E+00  .000E+00  .000E+00  .000E+00  .000E+00
  .000E+00  .000E+00  .000E+00  .000E+00  .000E+00  .000E+00  .000E+00  .000E+00
  .000E+00  .000E+00  .000E+00  .000E+00  .000E+00  .000E+00  .000E+00  .000E+00
  .000E+00  .000E+00  .000E+00  .000E+00  .000E+00  .000E+00  .000E+00  .000E+00
  .000E+00  .000E+00  .000E+00  .000E+00  .000E+00  .000E+00  .000E+00  .000E+00
  .000E+00  .000E+00  .000E+00  .000E+00  .000E+00  .000E+00  .000E+00  .000E+00
  .000E+00  .000E+00  .000E+00  .000E+00
Damping =  .05. Data of Sd,Sv,Sa,Pssv,ttSd,ttSv,ttSa :
  .447E-03  .509E-03  .610E-03  .725E-03  .825E-03  .972E-03  .157E-02  .216E-02
  .325E-02  .357E-02  .487E-02  .530E-02  .518E-02  .541E-02  .688E-02  .726E-02
  .783E-02  .787E-02  .683E-02  .744E-02  .749E-02  .776E-02  .692E-02  .739E-02
  .684E-02  .771E-02  .117E-01  .110E-01  .105E-01  .975E-02  .873E-02  .846E-02
  .913E-02  .908E-02  .917E-02  .127E-01  .124E-01  .111E-01  .149E-01  .175E-01
