Response and Fourier amplitude spectra (91 periods,  .04 - 15.0 sec)   for      
Corrected accelerogram   14403-L2180-20263.31       Chan  1: 360 Deg     from   
Uncorrected Accelerogram Data             Processed: 09/19/20, CGS  403bz031    
Rcrd of Fri Sep 18, 2020 23:38:26.0 PDT               (Avol1 v2.0, 4/18 CSMIP)  
CSMIP Preliminary Processing            (Origin:  To be determined)             
14403-L2180-20263.31                 Start time:  9/19/20, 06:38:26.0 UTC (GPS) 
Station No. 14403   33.929N, 118.261W    Etna    s/n 2180  (3 Chns of  3 at Sta)
Los Angeles - 116th St. School            CGS   Data: Acceleration              
Chan  1: 360 Deg                                                                
Rcrd of Fri Sep 18, 2020 23:38:26.0 PDT    Fri Sep 18, 2020 23:38:26.0 PDT      
Hypocenter:  To be determined.               ML:  To be determined.             
Instr Period =  .0104 sec,  Damping =  .650,  Sensitivity =  .63 v/g            
                        Record Length = 60.000 sec.                             
                                     Uncor Max  =  -.075 g, at   31.000 sec.    
RMS accel of (uncor) record  =        .   Chn. metadata effective date: 12/12/08
Accelerogram bandpass filtered with 3 dB pts at   .30 and 23.00 cyc/sec         
                 instrument- and base-line correcte                             
                                                                                
                                                                                
                                                                                
                                                                                
                                                                                
Rcrd of Fri Sep 18, 2020 23:38:26.0 PDT    Fri Sep 18, 2020 23:38:26.0 PDT      
                                                                                
14403-L2180-20263.31      Los Angeles - 116th St. School    Chan  1: 360 Deg    
                                                                                
14403-L2180-20263.31      Los Angeles - 116th St. School    Chan  1: 360 Deg    
                                                                                
Units for spectra are inches and sec, except Sa is in fraction of g.            
                                                                                
    1  100    1    3    3  200    1    3    1   24   12 2180    014403   11    0
    6   38   26    0  263    9   19 2020   10    3  36013600   39   30   74  360
13600    1  100    3 2180    1   31  680    2 -999 -999 -999 -999 -999 -999 -999
 -999 -999    3 -99912000    1  202    0   18    4 -999 -999    3    1 -99912000
    312000    4   91    1    3    5    0    0 -999    0    0    1    3    1    2
    2    2    4    0   32   67    9    5 -999    0    0    1    0    0    0  222
    0    0    0    0
      .010      .650    68.000      .003     1.000   625.000     -.075    31.000
    96.200      .298      .477  -999.000     5.000  -999.000     4.000  -999.000
     2.500    19.097     2.500   301.000    30.000    30.000  -999.000     -.002
     -.001      .001     2.000    15.000    33.929  -118.261      .022      .294
    13.209     -.020      .021    26.000    30.600    37.500    12.800    80.960
     1.000    11.003    -8.000  -999.000  -999.000  -999.000  -999.000  -999.000
     6.900     2.000     6.800   980.665      .005    60.000    15.311     -.001
  -999.000    23.000  -999.000    60.000      .005      .303  -999.000  -999.000
    31.000   -75.085    31.040    -2.849    30.985      .168      .000      .303
    23.000      .005      .005      .000      .045      .028  -999.000  -999.000
      .208      .150      .118      .110      .007      .001  -999.000  -999.000
  -999.000  -999.000  -999.000  -999.000  -999.000  -999.000  -999.000  -999.000
  -999.000  -999.000  -999.000  -999.000
      .050
      .040      .042      .044      .046      .048      .050      .055      .060
      .065      .070      .075      .080      .085      .090      .095      .100
      .110      .120      .130      .140      .150      .160      .170      .180
      .190      .200      .220      .240      .260      .280      .300      .320
      .340      .360      .380      .400      .420      .440      .460      .480
      .500      .550      .600      .650      .700      .750      .800      .850
      .900      .950     1.000     1.100     1.200     1.300     1.400     1.500
     1.600     1.700     1.800     1.900     2.000     2.200     2.400     2.600
     2.800     3.000     3.200     3.400     3.600     3.800     4.000     4.200
     4.400     4.600     4.800     5.000     5.500     6.000     6.500     7.000
     7.500     8.000     8.500     9.000     9.500    10.000    11.000    12.000
    13.000    14.000    15.000      .000      .000      .000      .000      .000
      .000      .000      .000      .000
Fourier amplitude spectra in in/sec.
  .000E+00  .000E+00  .000E+00  .000E+00  .000E+00  .000E+00  .000E+00  .000E+00
  .000E+00  .000E+00  .000E+00  .000E+00  .000E+00  .000E+00  .000E+00  .000E+00
  .000E+00  .000E+00  .000E+00  .000E+00  .000E+00  .000E+00  .000E+00  .000E+00
  .000E+00  .000E+00  .000E+00  .000E+00  .000E+00  .000E+00  .000E+00  .000E+00
  .000E+00  .000E+00  .000E+00  .000E+00  .000E+00  .000E+00  .000E+00  .000E+00
  .000E+00  .000E+00  .000E+00  .000E+00  .000E+00  .000E+00  .000E+00  .000E+00
  .000E+00  .000E+00  .000E+00  .000E+00  .000E+00  .000E+00  .000E+00  .000E+00
  .000E+00  .000E+00  .000E+00  .000E+00  .000E+00  .000E+00  .000E+00  .000E+00
  .000E+00  .000E+00  .000E+00  .000E+00  .000E+00  .000E+00  .000E+00  .000E+00
  .000E+00  .000E+00  .000E+00  .000E+00  .000E+00  .000E+00  .000E+00  .000E+00
  .000E+00  .000E+00  .000E+00  .000E+00  .000E+00  .000E+00  .000E+00  .000E+00
  .000E+00  .000E+00  .000E+00  .000E+00  .000E+00  .000E+00  .000E+00  .000E+00
  .000E+00  .000E+00  .000E+00  .000E+00
Damping =  .05. Data of Sd,Sv,Sa,Pssv,ttSd,ttSv,ttSa :
  .132E-02  .149E-02  .168E-02  .197E-02  .226E-02  .240E-02  .336E-02  .443E-02
  .537E-02  .631E-02  .701E-02  .903E-02  .113E-01  .143E-01  .159E-01  .150E-01
  .186E-01  .233E-01  .261E-01  .351E-01  .455E-01  .477E-01  .413E-01  .325E-01
  .323E-01  .448E-01  .693E-01  .820E-01  .813E-01  .868E-01  .967E-01  .106E+00
  .117E+00  .128E+00  .136E+00  .141E+00  .140E+00  .137E+00  .138E+00  .136E+00
  .132E+00  .115E+00  .953E-01  .778E-01  .658E-01  .588E-01  .554E-01  .555E-01
  .576E-01  .606E-01  .639E-01  .697E-01  .725E-01  .730E-01  .722E-01  .708E-01
  .689E-01  .663E-01  .632E-01  .612E-01  .604E-01  .569E-01  .602E-01  .634E-01
  .661E-01  .679E-01  .688E-01  .697E-01  .702E-01  .703E-01  .702E-01  .701E-01
  .700E-01  .700E-01  .699E-01  .697E-01  .689E-01  .684E-01  .681E-01  .679E-01
  .677E-01  .674E-01  .672E-01  .671E-01  .670E-01  .669E-01  .667E-01  .667E-01
  .666E-01  .662E-01  .664E-01  .000E+00  .000E+00  .000E+00  .000E+00  .000E+00
  .000E+00  .000E+00  .000E+00  .000E+00
  .651E-01  .740E-01  .861E-01  .107E+00  .113E+00  .113E+00  .177E+00  .222E+00
  .260E+00  .334E+00  .356E+00  .476E+00  .665E+00  .875E+00  .956E+00  .864E+00
  .882E+00  .102E+01  .112E+01  .137E+01  .172E+01  .170E+01  .153E+01  .120E+01
  .112E+01  .143E+01  .202E+01  .226E+01  .219E+01  .203E+01  .196E+01  .218E+01
  .242E+01  .252E+01  .251E+01  .255E+01  .246E+01  .231E+01  .211E+01  .208E+01
  .209E+01  .199E+01  .182E+01  .164E+01  .149E+01  .137E+01  .130E+01  .126E+01
  .123E+01  .122E+01  .122E+01  .123E+01  .124E+01  .125E+01  .126E+01  .126E+01
  .126E+01  .126E+01  .125E+01  .125E+01  .124E+01  .123E+01  .122E+01  .121E+01
  .120E+01  .118E+01  .118E+01  .117E+01  .116E+01  .116E+01  .115E+01  .115E+01
  .115E+01  .114E+01  .114E+01  .114E+01  .113E+01  .113E+01  .113E+01  .113E+01
  .113E+01  .113E+01  .113E+01  .113E+01  .112E+01  .112E+01  .112E+01  .112E+01
  .112E+01  .112E+01  .112E+01  .000E+00  .000E+00  .000E+00  .000E+00  .000E+00
  .000E+00  .000E+00  .000E+00  .000E+00
  .840E-01  .865E-01  .887E-01  .951E-01  .100E+00  .987E-01  .113E+00  .127E+00
  .130E+00  .132E+00  .127E+00  .145E+00  .160E+00  .180E+00  .180E+00  .156E+00
  .158E+00  .166E+00  .159E+00  .184E+00  .208E+00  .191E+00  .147E+00  .103E+00
  .917E-01  .115E+00  .147E+00  .146E+00  .124E+00  .114E+00  .111E+00  .107E+00
  .104E+00  .101E+00  .969E-01  .906E-01  .814E-01  .731E-01  .671E-01  .607E-01
  .543E-01  .393E-01  .274E-01  .191E-01  .140E-01  .109E-01  .910E-02  .808E-02
  .749E-02  .709E-02  .676E-02  .611E-02  .537E-02  .463E-02  .398E-02  .343E-02
  .296E-02  .255E-02  .219E-02  .191E-02  .172E-02  .137E-02  .119E-02  .108E-02
  .981E-03  .887E-03  .801E-03  .728E-03  .662E-03  .603E-03  .551E-03  .506E-03
  .466E-03  .432E-03  .401E-03  .374E-03  .316E-03  .271E-03  .237E-03  .213E-03
  .201E-03  .190E-03  .181E-03  .173E-03  .165E-03  .158E-03  .145E-03  .134E-03
  .125E-03  .117E-03  .110E-03  .000E+00  .000E+00  .000E+00  .000E+00  .000E+00
  .000E+00  .000E+00  .000E+00  .000E+00
  .207E+00  .223E+00  .240E+00  .269E+00  .295E+00  .301E+00  .384E+00  .464E+00
  .519E+00  .567E+00  .587E+00  .709E+00  .838E+00  .999E+00  .105E+01  .945E+00
  .106E+01  .122E+01  .126E+01  .158E+01  .191E+01  .187E+01  .153E+01  .113E+01
  .107E+01  .141E+01  .198E+01  .215E+01  .196E+01  .195E+01  .202E+01  .208E+01
  .217E+01  .223E+01  .225E+01  .221E+01  .209E+01  .196E+01  .188E+01  .178E+01
  .166E+01  .131E+01  .998E+00  .752E+00  .591E+00  .493E+00  .435E+00  .410E+00
  .402E+00  .401E+00  .402E+00  .398E+00  .380E+00  .353E+00  .324E+00  .297E+00
  .271E+00  .245E+00  .221E+00  .202E+00  .190E+00  .162E+00  .158E+00  .153E+00
  .148E+00  .142E+00  .135E+00  .129E+00  .123E+00  .116E+00  .110E+00  .105E+00
  .100E+00  .956E-01  .915E-01  .876E-01  .787E-01  .716E-01  .658E-01  .610E-01
  .567E-01  .530E-01  .497E-01  .468E-01  .443E-01  .420E-01  .381E-01  .349E-01
  .322E-01  .297E-01  .278E-01  .000E+00  .000E+00  .000E+00  .000E+00  .000E+00
  .000E+00  .000E+00  .000E+00  .000E+00
  .310E+02  .310E+02  .310E+02  .310E+02  .310E+02  .310E+02  .310E+02  .310E+02
  .310E+02  .310E+02  .310E+02  .310E+02  .310E+02  .313E+02  .313E+02  .311E+02
  .311E+02  .311E+02  .311E+02  .311E+02  .311E+02  .311E+02  .311E+02  .311E+02
  .311E+02  .311E+02  .311E+02  .314E+02  .313E+02  .313E+02  .313E+02  .313E+02
  .312E+02  .312E+02  .312E+02  .312E+02  .313E+02  .311E+02  .311E+02  .311E+02
  .311E+02  .311E+02  .311E+02  .311E+02  .310E+02  .310E+02  .311E+02  .311E+02
  .311E+02  .311E+02  .311E+02  .311E+02  .311E+02  .311E+02  .311E+02  .311E+02
  .311E+02  .311E+02  .311E+02  .313E+02  .313E+02  .313E+02  .310E+02  .310E+02
  .310E+02  .310E+02  .310E+02  .310E+02  .310E+02  .310E+02  .310E+02  .310E+02
  .310E+02  .310E+02  .310E+02  .310E+02  .310E+02  .310E+02  .310E+02  .310E+02
  .310E+02  .310E+02  .310E+02  .310E+02  .310E+02  .310E+02  .310E+02  .310E+02
  .310E+02  .310E+02  .310E+02  .000E+00  .000E+00  .000E+00  .000E+00  .000E+00
  .000E+00  .000E+00  .000E+00  .000E+00
  .310E+02  .310E+02  .310E+02  .310E+02  .310E+02  .310E+02  .310E+02  .310E+02
  .310E+02  .310E+02  .310E+02  .310E+02  .313E+02  .313E+02  .314E+02  .314E+02
  .311E+02  .311E+02  .314E+02  .311E+02  .311E+02  .312E+02  .312E+02  .312E+02
  .312E+02  .312E+02  .312E+02  .313E+02  .314E+02  .314E+02  .314E+02  .313E+02
  .313E+02  .313E+02  .311E+02  .311E+02  .312E+02  .312E+02  .312E+02  .310E+02
  .310E+02  .310E+02  .310E+02  .310E+02  .310E+02  .310E+02  .310E+02  .310E+02
  .310E+02  .310E+02  .310E+02  .310E+02  .310E+02  .310E+02  .310E+02  .310E+02
  .310E+02  .310E+02  .310E+02  .310E+02  .310E+02  .310E+02  .310E+02  .310E+02
  .310E+02  .310E+02  .310E+02  .310E+02  .310E+02  .310E+02  .310E+02  .310E+02
  .310E+02  .310E+02  .310E+02  .310E+02  .310E+02  .310E+02  .310E+02  .310E+02
  .310E+02  .310E+02  .310E+02  .310E+02  .310E+02  .310E+02  .310E+02  .310E+02
  .310E+02  .310E+02  .310E+02  .000E+00  .000E+00  .000E+00  .000E+00  .000E+00
  .000E+00  .000E+00  .000E+00  .000E+00
  .310E+02  .310E+02  .310E+02  .310E+02  .310E+02  .310E+02  .310E+02  .310E+02
  .310E+02  .310E+02  .310E+02  .310E+02  .310E+02  .313E+02  .313E+02  .311E+02
  .311E+02  .311E+02  .311E+02  .311E+02  .311E+02  .311E+02  .311E+02  .311E+02
  .311E+02  .311E+02  .311E+02  .314E+02  .313E+02  .313E+02  .313E+02  .313E+02
  .312E+02  .312E+02  .312E+02  .312E+02  .313E+02  .311E+02  .311E+02  .311E+02
  .311E+02  .311E+02  .311E+02  .311E+02  .310E+02  .310E+02  .311E+02  .311E+02
  .311E+02  .311E+02  .311E+02  .311E+02  .311E+02  .311E+02  .311E+02  .311E+02
  .311E+02  .311E+02  .311E+02  .313E+02  .313E+02  .313E+02  .310E+02  .310E+02
  .310E+02  .310E+02  .310E+02  .310E+02  .310E+02  .310E+02  .310E+02  .310E+02
  .310E+02  .310E+02  .310E+02  .310E+02  .310E+02  .310E+02  .310E+02  .310E+02
  .310E+02  .310E+02  .310E+02  .310E+02  .310E+02  .310E+02  .310E+02  .310E+02
  .310E+02  .310E+02  .310E+02  .000E+00  .000E+00  .000E+00  .000E+00  .000E+00
  .000E+00  .000E+00  .000E+00  .000E+00
/&   ----------  End of spectral data for channel  1  ----------
Response and Fourier amplitude spectra (91 periods,  .04 - 15.0 sec)   for      
Corrected accelerogram   14403-L2180-20263.31       Chan  2:  Up         from   
Uncorrected Accelerogram Data             Processed: 09/19/20, CGS  403bz031    
Rcrd of Fri Sep 18, 2020 23:38:26.0 PDT               (Avol1 v2.0, 4/18 CSMIP)  
CSMIP Preliminary Processing            (Origin:  To be determined)             
14403-L2180-20263.31                 Start time:  9/19/20, 06:38:26.0 UTC (GPS) 
Station No. 14403   33.929N, 118.261W    Etna    s/n 2180  (3 Chns of  3 at Sta)
Los Angeles - 116th St. School            CGS   Data: Acceleration              
Chan  2:  Up                                                                    
Rcrd of Fri Sep 18, 2020 23:38:26.0 PDT    Fri Sep 18, 2020 23:38:26.0 PDT      
Hypocenter:  To be determined.               ML:  To be determined.             
Instr Period =  .0107 sec,  Damping =  .660,  Sensitivity =  .63 v/g            
                        Record Length = 60.000 sec.                             
                                     Uncor Max  =  -.019 g, at   26.835 sec.    
RMS accel of (uncor) record  =        .   Chn. metadata effective date: 12/12/08
Accelerogram bandpass filtered with 3 dB pts at   .30 and 23.00 cyc/sec         
                 instrument- and base-line correcte                             
                                                                                
                                                                                
                                                                                
                                                                                
                                                                                
Rcrd of Fri Sep 18, 2020 23:38:26.0 PDT    Fri Sep 18, 2020 23:38:26.0 PDT      
                                                                                
14403-L2180-20263.31      Los Angeles - 116th St. School    Chan  2:  Up        
                                                                                
14403-L2180-20263.31      Los Angeles - 116th St. School    Chan  2:  Up        
                                                                                
Units for spectra are inches and sec, except Sa is in fraction of g.            
                                                                                
    2  100    2    3    3  200    1    3    1   24   12 2180    014403   11    0
    6   38   26    0  263    9   19 2020   10    3  50013600   39   30   74  360
13600    1  100    3 2180    1   31  680    2 -999 -999 -999 -999 -999 -999 -999
 -999 -999    3 -99912000    1  202    0   18    4 -999 -999    3    1 -99912000
    312000    4   91    1    3    5    0    0 -999    0    0    1    3    1    2
    2    2    4    0   32   67    9    5 -999    0    0    1    0    0    0  222
    0    0    0    0
      .011      .660    68.000      .002     1.000   626.000     -.019    26.835
    93.300      .298      .476  -999.000     5.000  -999.000     4.000  -999.000
     2.500    48.279     2.500   301.000    30.000    30.000  -999.000     -.001
      .000      .000     2.000    15.000    33.929  -118.261      .050      .182
     3.666     -.014      .015    26.000    30.600    37.500    12.800    80.960
     1.000    11.003    -8.000  -999.000  -999.000  -999.000  -999.000  -999.000
     6.900     2.000     6.800   980.665      .005    60.000    14.849      .000
  -999.000    23.000  -999.000    60.000      .005      .303  -999.000  -999.000
    26.830   -17.800    26.855     -.352    30.135      .013      .000      .303
    23.000      .005      .005      .000      .005      .013  -999.000  -999.000
      .082      .070      .031      .017      .001      .000  -999.000  -999.000
  -999.000  -999.000  -999.000  -999.000  -999.000  -999.000  -999.000  -999.000
  -999.000  -999.000  -999.000  -999.000
      .050
      .040      .042      .044      .046      .048      .050      .055      .060
      .065      .070      .075      .080      .085      .090      .095      .100
      .110      .120      .130      .140      .150      .160      .170      .180
      .190      .200      .220      .240      .260      .280      .300      .320
      .340      .360      .380      .400      .420      .440      .460      .480
      .500      .550      .600      .650      .700      .750      .800      .850
      .900      .950     1.000     1.100     1.200     1.300     1.400     1.500
     1.600     1.700     1.800     1.900     2.000     2.200     2.400     2.600
     2.800     3.000     3.200     3.400     3.600     3.800     4.000     4.200
     4.400     4.600     4.800     5.000     5.500     6.000     6.500     7.000
     7.500     8.000     8.500     9.000     9.500    10.000    11.000    12.000
    13.000    14.000    15.000      .000      .000      .000      .000      .000
      .000      .000      .000      .000
Fourier amplitude spectra in in/sec.
  .000E+00  .000E+00  .000E+00  .000E+00  .000E+00  .000E+00  .000E+00  .000E+00
  .000E+00  .000E+00  .000E+00  .000E+00  .000E+00  .000E+00  .000E+00  .000E+00
  .000E+00  .000E+00  .000E+00  .000E+00  .000E+00  .000E+00  .000E+00  .000E+00
  .000E+00  .000E+00  .000E+00  .000E+00  .000E+00  .000E+00  .000E+00  .000E+00
  .000E+00  .000E+00  .000E+00  .000E+00  .000E+00  .000E+00  .000E+00  .000E+00
  .000E+00  .000E+00  .000E+00  .000E+00  .000E+00  .000E+00  .000E+00  .000E+00
  .000E+00  .000E+00  .000E+00  .000E+00  .000E+00  .000E+00  .000E+00  .000E+00
  .000E+00  .000E+00  .000E+00  .000E+00  .000E+00  .000E+00  .000E+00  .000E+00
  .000E+00  .000E+00  .000E+00  .000E+00  .000E+00  .000E+00  .000E+00  .000E+00
  .000E+00  .000E+00  .000E+00  .000E+00  .000E+00  .000E+00  .000E+00  .000E+00
  .000E+00  .000E+00  .000E+00  .000E+00  .000E+00  .000E+00  .000E+00  .000E+00
  .000E+00  .000E+00  .000E+00  .000E+00  .000E+00  .000E+00  .000E+00  .000E+00
  .000E+00  .000E+00  .000E+00  .000E+00
Damping =  .05. Data of Sd,Sv,Sa,Pssv,ttSd,ttSv,ttSa :
  .415E-03  .529E-03  .705E-03  .874E-03  .966E-03  .983E-03  .117E-02  .163E-02
  .262E-02  .391E-02  .434E-02  .406E-02  .362E-02  .456E-02  .469E-02  .515E-02
  .375E-02  .508E-02  .800E-02  .921E-02  .864E-02  .112E-01  .128E-01  .126E-01
  .126E-01  .122E-01  .121E-01  .119E-01  .120E-01  .142E-01  .149E-01  .160E-01
  .213E-01  .245E-01  .203E-01  .145E-01  .140E-01  .153E-01  .134E-01  .117E-01
