Response and Fourier amplitude spectra (78 periods,  .04 -  6.0 sec)   for      
Corrected accelerogram   14241-N2594-20263.02       Chan  1: 180 Deg     from   
Uncorrected Accelerogram Data             Processed: 09/18/20, CGS  ce14241b    
Rcrd of Fri Sep 18, 2020 23:38:28.0 PDT               (Avol1 v2.0, 4/18 CSMIP)  
CSMIP Preliminary Processing            (Origin:  To be determined)             
14241-N2594-20263.02                 Start time:  9/19/20, 06:38:28.0 UTC (GPS) 
Station No. 14241   33.777N, 118.133W    Etna2   s/n 2594  (3 Chns of  3 at Sta)
Long Beach - Recreation Park              CGS   Data: Acceleration              
Chan  1: 180 Deg                                                                
Rcrd of Fri Sep 18, 2020 23:38:28.0 PDT    Fri Sep 18, 2020 23:38:28.0 PDT      
Hypocenter:  To be determined.               ML:  To be determined.             
Instr Period =  .0048 sec,  Damping =  .700,  Sensitivity =  .63 v/g            
                        Record Length = 63.000 sec.                             
                                     Uncor Max  =   .009 g, at   34.380 sec.    
RMS accel of (uncor) record  =        .   Chn. metadata effective date: 05/14/20
Accelerogram bandpass filtered with 3 dB pts at   .30 and 40.00 cyc/sec         
                 instrument- and base-line correcte                             
                                                                                
                                                                                
                                                                                
                                                                                
                                                                                
Rcrd of Fri Sep 18, 2020 23:38:28.0 PDT    Fri Sep 18, 2020 23:38:28.0 PDT      
                                                                                
14241-N2594-20263.02      Long Beach - Recreation Park    Chan  1: 180 Deg      
                                                                                
14241-N2594-20263.02      Long Beach - Recreation Park    Chan  1: 180 Deg      
                                                                                
Units for spectra are inches and sec, except Sa is in fraction of g.            
                                                                                
    1  100    1    3    3  200    1    3    1   24   22 2594    014241   21    0
    6   38   28    0  263    9   19 2020   10    3  18012600   39   28   74  360
12600    1  100    3 2594    1    2  630    2 -999 -999 -999 -999 -999 -999 -999
 -999 -999    3 -99912600    1  202    0   24   20 -999 -999    3    1 -99912600
    312600    4   78    1    3    5    0    0 -999    0    0    1    3    1    2
    2    2    4    0   32   67    0    5 -999    0    0    1    0    0    0  222
    1    0    0    0
      .005      .700    63.000      .001     1.000   625.000      .009    34.380
   210.000      .298      .477  -999.000     5.000  -999.000     4.000  -999.000
     2.500    -1.226     2.500   371.000    30.000    30.000  -999.000      .000
      .007      .007     2.000    15.000    33.777  -118.133      .010      .457
    43.621     -.026      .040     5.000    31.000    33.900    13.600    99.680
     1.000    11.003    -8.000  -999.000  -999.000  -999.000  -999.000  -999.000
     6.900     2.000     6.800   980.665      .005    63.000    33.423      .000
  -999.000    40.000  -999.000    63.000      .005      .300  -999.000  -999.000
    34.380     8.681    39.345     -.328    38.210      .032      .000      .300
    40.000      .005      .005      .000      .005      .016  -999.000  -999.000
      .033      .090      .024      .017      .001      .000  -999.000  -999.000
  -999.000  -999.000  -999.000  -999.000  -999.000  -999.000  -999.000  -999.000
  -999.000  -999.000  -999.000  -999.000
      .050
      .040      .042      .044      .046      .048      .050      .055      .060
      .065      .070      .075      .080      .085      .090      .095      .100
      .110      .120      .130      .140      .150      .160      .170      .180
      .190      .200      .220      .240      .260      .280      .300      .320
      .340      .360      .380      .400      .420      .440      .460      .480
      .500      .550      .600      .650      .700      .750      .800      .850
      .900      .950     1.000     1.100     1.200     1.300     1.400     1.500
     1.600     1.700     1.800     1.900     2.000     2.200     2.400     2.600
     2.800     3.000     3.200     3.400     3.600     3.800     4.000     4.200
     4.400     4.600     4.800     5.000     5.500     6.000      .000      .000
      .000      .000      .000      .000      .000      .000      .000      .000
      .000      .000      .000      .000      .000      .000      .000      .000
      .000      .000      .000      .000
Fourier amplitude spectra in in/sec.
  .000E+00  .000E+00  .000E+00  .000E+00  .000E+00  .000E+00  .000E+00  .000E+00
  .000E+00  .000E+00  .000E+00  .000E+00  .000E+00  .000E+00  .000E+00  .000E+00
  .000E+00  .000E+00  .000E+00  .000E+00  .000E+00  .000E+00  .000E+00  .000E+00
  .000E+00  .000E+00  .000E+00  .000E+00  .000E+00  .000E+00  .000E+00  .000E+00
  .000E+00  .000E+00  .000E+00  .000E+00  .000E+00  .000E+00  .000E+00  .000E+00
  .000E+00  .000E+00  .000E+00  .000E+00  .000E+00  .000E+00  .000E+00  .000E+00
  .000E+00  .000E+00  .000E+00  .000E+00  .000E+00  .000E+00  .000E+00  .000E+00
  .000E+00  .000E+00  .000E+00  .000E+00  .000E+00  .000E+00  .000E+00  .000E+00
  .000E+00  .000E+00  .000E+00  .000E+00  .000E+00  .000E+00  .000E+00  .000E+00
  .000E+00  .000E+00  .000E+00  .000E+00  .000E+00  .000E+00  .000E+00  .000E+00
  .000E+00  .000E+00  .000E+00  .000E+00  .000E+00  .000E+00  .000E+00  .000E+00
  .000E+00  .000E+00  .000E+00  .000E+00  .000E+00  .000E+00  .000E+00  .000E+00
  .000E+00  .000E+00  .000E+00  .000E+00
Damping =  .05. Data of Sd,Sv,Sa,Pssv,ttSd,ttSv,ttSa :
  .177E-03  .191E-03  .197E-03  .220E-03  .271E-03  .330E-03  .458E-03  .567E-03
  .861E-03  .108E-02  .110E-02  .159E-02  .207E-02  .263E-02  .266E-02  .308E-02
  .338E-02  .446E-02  .413E-02  .465E-02  .610E-02  .754E-02  .893E-02  .990E-02
  .974E-02  .830E-02  .109E-01  .111E-01  .164E-01  .151E-01  .136E-01  .141E-01
  .124E-01  .134E-01  .156E-01  .190E-01  .204E-01  .198E-01  .193E-01  .205E-01
  .209E-01  .262E-01  .203E-01  .229E-01  .190E-01  .204E-01  .193E-01  .162E-01
  .150E-01  .137E-01  .135E-01  .134E-01  .187E-01  .245E-01  .223E-01  .214E-01
  .271E-01  .280E-01  .220E-01  .234E-01  .287E-01  .276E-01  .235E-01  .277E-01
  .305E-01  .307E-01  .247E-01  .226E-01  .199E-01  .182E-01  .175E-01  .174E-01
  .171E-01  .166E-01  .163E-01  .163E-01  .158E-01  .153E-01  .000E+00  .000E+00
  .000E+00  .000E+00  .000E+00  .000E+00  .000E+00  .000E+00  .000E+00  .000E+00
  .000E+00  .000E+00  .000E+00  .000E+00  .000E+00  .000E+00  .000E+00  .000E+00
  .000E+00  .000E+00  .000E+00  .000E+00
  .151E-01  .155E-01  .161E-01  .166E-01  .210E-01  .272E-01  .356E-01  .463E-01
  .700E-01  .864E-01  .834E-01  .108E+00  .136E+00  .168E+00  .173E+00  .191E+00
  .192E+00  .238E+00  .197E+00  .200E+00  .250E+00  .293E+00  .333E+00  .333E+00
  .329E+00  .274E+00  .308E+00  .328E+00  .404E+00  .335E+00  .273E+00  .279E+00
  .245E+00  .227E+00  .275E+00  .318E+00  .358E+00  .300E+00  .298E+00  .305E+00
  .298E+00  .303E+00  .265E+00  .225E+00  .189E+00  .204E+00  .181E+00  .183E+00
  .176E+00  .185E+00  .207E+00  .191E+00  .200E+00  .181E+00  .163E+00  .165E+00
  .165E+00  .153E+00  .144E+00  .135E+00  .139E+00  .143E+00  .137E+00  .140E+00
  .140E+00  .135E+00  .127E+00  .132E+00  .133E+00  .133E+00  .132E+00  .131E+00
  .130E+00  .131E+00  .131E+00  .131E+00  .131E+00  .131E+00  .000E+00  .000E+00
  .000E+00  .000E+00  .000E+00  .000E+00  .000E+00  .000E+00  .000E+00  .000E+00
  .000E+00  .000E+00  .000E+00  .000E+00  .000E+00  .000E+00  .000E+00  .000E+00
  .000E+00  .000E+00  .000E+00  .000E+00
  .113E-01  .111E-01  .104E-01  .106E-01  .120E-01  .134E-01  .153E-01  .159E-01
  .210E-01  .224E-01  .201E-01  .253E-01  .294E-01  .332E-01  .305E-01  .319E-01
  .288E-01  .318E-01  .252E-01  .243E-01  .278E-01  .303E-01  .317E-01  .314E-01
  .277E-01  .213E-01  .231E-01  .198E-01  .250E-01  .198E-01  .155E-01  .142E-01
  .110E-01  .106E-01  .111E-01  .122E-01  .119E-01  .105E-01  .937E-02  .914E-02
  .862E-02  .890E-02  .581E-02  .558E-02  .400E-02  .373E-02  .310E-02  .232E-02
  .192E-02  .158E-02  .140E-02  .114E-02  .134E-02  .152E-02  .121E-02  .100E-02
  .109E-02  .101E-02  .715E-03  .680E-03  .754E-03  .597E-03  .440E-03  .425E-03
  .406E-03  .361E-03  .275E-03  .227E-03  .185E-03  .156E-03  .139E-03  .127E-03
  .117E-03  .106E-03  .963E-04  .873E-04  .703E-04  .591E-04  .000E+00  .000E+00
  .000E+00  .000E+00  .000E+00  .000E+00  .000E+00  .000E+00  .000E+00  .000E+00
  .000E+00  .000E+00  .000E+00  .000E+00  .000E+00  .000E+00  .000E+00  .000E+00
  .000E+00  .000E+00  .000E+00  .000E+00
  .277E-01  .286E-01  .282E-01  .300E-01  .354E-01  .415E-01  .523E-01  .594E-01
  .832E-01  .965E-01  .925E-01  .125E+00  .153E+00  .184E+00  .176E+00  .194E+00
  .193E+00  .233E+00  .200E+00  .209E+00  .256E+00  .296E+00  .330E+00  .345E+00
  .322E+00  .261E+00  .311E+00  .291E+00  .397E+00  .339E+00  .284E+00  .277E+00
  .229E+00  .233E+00  .259E+00  .298E+00  .305E+00  .283E+00  .263E+00  .268E+00
  .263E+00  .299E+00  .213E+00  .222E+00  .171E+00  .171E+00  .151E+00  .120E+00
  .105E+00  .903E-01  .851E-01  .764E-01  .981E-01  .118E+00  .100E+00  .898E-01
  .106E+00  .104E+00  .769E-01  .774E-01  .902E-01  .788E-01  .614E-01  .668E-01
  .684E-01  .642E-01  .484E-01  .417E-01  .347E-01  .301E-01  .275E-01  .260E-01
  .244E-01  .227E-01  .213E-01  .205E-01  .181E-01  .161E-01  .000E+00  .000E+00
  .000E+00  .000E+00  .000E+00  .000E+00  .000E+00  .000E+00  .000E+00  .000E+00
  .000E+00  .000E+00  .000E+00  .000E+00  .000E+00  .000E+00  .000E+00  .000E+00
  .000E+00  .000E+00  .000E+00  .000E+00
  .319E+02  .319E+02  .344E+02  .344E+02  .343E+02  .343E+02  .328E+02  .328E+02
  .316E+02  .316E+02  .319E+02  .320E+02  .344E+02  .344E+02  .325E+02  .322E+02
  .344E+02  .328E+02  .311E+02  .364E+02  .365E+02  .355E+02  .364E+02  .383E+02
  .383E+02  .384E+02  .395E+02  .384E+02  .395E+02  .395E+02  .395E+02  .395E+02
  .381E+02  .381E+02  .381E+02  .400E+02  .400E+02  .431E+02  .386E+02  .387E+02
  .385E+02  .434E+02  .475E+02  .504E+02  .399E+02  .570E+02  .567E+02  .567E+02
  .567E+02  .394E+02  .390E+02  .506E+02  .501E+02  .393E+02  .393E+02  .453E+02
  .397E+02  .397E+02  .397E+02  .397E+02  .397E+02  .526E+02  .398E+02  .498E+02
  .474E+02  .450E+02  .394E+02  .441E+02  .394E+02  .394E+02  .394E+02  .394E+02
  .394E+02  .394E+02  .382E+02  .382E+02  .382E+02  .382E+02  .000E+00  .000E+00
  .000E+00  .000E+00  .000E+00  .000E+00  .000E+00  .000E+00  .000E+00  .000E+00
  .000E+00  .000E+00  .000E+00  .000E+00  .000E+00  .000E+00  .000E+00  .000E+00
  .000E+00  .000E+00  .000E+00  .000E+00
  .321E+02  .321E+02  .341E+02  .327E+02  .319E+02  .327E+02  .343E+02  .333E+02
  .315E+02  .316E+02  .316E+02  .320E+02  .324E+02  .344E+02  .322E+02  .321E+02
  .344E+02  .328E+02  .312E+02  .364E+02  .365E+02  .355E+02  .365E+02  .384E+02
  .383E+02  .383E+02  .395E+02  .383E+02  .395E+02  .396E+02  .396E+02  .395E+02
  .395E+02  .380E+02  .395E+02  .395E+02  .393E+02  .393E+02  .392E+02  .383E+02
  .383E+02  .430E+02  .382E+02  .503E+02  .437E+02  .568E+02  .383E+02  .393E+02
  .393E+02  .393E+02  .393E+02  .393E+02  .393E+02  .383E+02  .383E+02  .398E+02
  .399E+02  .380E+02  .380E+02  .451E+02  .451E+02  .395E+02  .395E+02  .395E+02
  .383E+02  .383E+02  .380E+02  .380E+02  .380E+02  .380E+02  .380E+02  .380E+02
  .380E+02  .393E+02  .393E+02  .393E+02  .393E+02  .393E+02  .000E+00  .000E+00
  .000E+00  .000E+00  .000E+00  .000E+00  .000E+00  .000E+00  .000E+00  .000E+00
  .000E+00  .000E+00  .000E+00  .000E+00  .000E+00  .000E+00  .000E+00  .000E+00
  .000E+00  .000E+00  .000E+00  .000E+00
  .319E+02  .319E+02  .344E+02  .344E+02  .343E+02  .343E+02  .328E+02  .328E+02
  .316E+02  .316E+02  .319E+02  .320E+02  .344E+02  .344E+02  .325E+02  .322E+02
  .344E+02  .328E+02  .311E+02  .364E+02  .365E+02  .355E+02  .364E+02  .383E+02
  .383E+02  .384E+02  .395E+02  .384E+02  .395E+02  .395E+02  .395E+02  .395E+02
  .381E+02  .381E+02  .381E+02  .400E+02  .400E+02  .430E+02  .386E+02  .387E+02
  .385E+02  .434E+02  .475E+02  .504E+02  .399E+02  .570E+02  .567E+02  .567E+02
  .567E+02  .394E+02  .390E+02  .376E+02  .393E+02  .393E+02  .393E+02  .393E+02
  .396E+02  .397E+02  .397E+02  .397E+02  .397E+02  .397E+02  .397E+02  .498E+02
  .473E+02  .449E+02  .394E+02  .394E+02  .394E+02  .394E+02  .394E+02  .394E+02
  .394E+02  .394E+02  .394E+02  .394E+02  .394E+02  .394E+02  .000E+00  .000E+00
  .000E+00  .000E+00  .000E+00  .000E+00  .000E+00  .000E+00  .000E+00  .000E+00
  .000E+00  .000E+00  .000E+00  .000E+00  .000E+00  .000E+00  .000E+00  .000E+00
  .000E+00  .000E+00  .000E+00  .000E+00
/&   ----------  End of spectral data for channel  1  ----------
Response and Fourier amplitude spectra (78 periods,  .04 -  6.0 sec)   for      
Corrected accelerogram   14241-N2594-20263.02       Chan  2:  90 Deg     from   
Uncorrected Accelerogram Data             Processed: 09/18/20, CGS  ce14241b    
Rcrd of Fri Sep 18, 2020 23:38:28.0 PDT               (Avol1 v2.0, 4/18 CSMIP)  
CSMIP Preliminary Processing            (Origin:  To be determined)             
14241-N2594-20263.02                 Start time:  9/19/20, 06:38:28.0 UTC (GPS) 
Station No. 14241   33.777N, 118.133W    Etna2   s/n 2594  (3 Chns of  3 at Sta)
Long Beach - Recreation Park              CGS   Data: Acceleration              
Chan  2:  90 Deg                                                                
Rcrd of Fri Sep 18, 2020 23:38:28.0 PDT    Fri Sep 18, 2020 23:38:28.0 PDT      
Hypocenter:  To be determined.               ML:  To be determined.             
Instr Period =  .0048 sec,  Damping =  .700,  Sensitivity =  .63 v/g            
                        Record Length = 63.000 sec.                             
                                     Uncor Max  =   .009 g, at   33.635 sec.    
RMS accel of (uncor) record  =        .   Chn. metadata effective date: 05/14/20
Accelerogram bandpass filtered with 3 dB pts at   .30 and 40.00 cyc/sec         
                 instrument- and base-line correcte                             
                                                                                
                                                                                
                                                                                
                                                                                
                                                                                
Rcrd of Fri Sep 18, 2020 23:38:28.0 PDT    Fri Sep 18, 2020 23:38:28.0 PDT      
                                                                                
14241-N2594-20263.02      Long Beach - Recreation Park    Chan  2:  90 Deg      
                                                                                
14241-N2594-20263.02      Long Beach - Recreation Park    Chan  2:  90 Deg      
                                                                                
Units for spectra are inches and sec, except Sa is in fraction of g.            
                                                                                
    2  100    2    3    3  200    1    3    1   24   22 2594    014241   21    0
    6   38   28    0  263    9   19 2020   10    3   9012600   39   28   74  360
12600    1  100    3 2594    1    2  630    2 -999 -999 -999 -999 -999 -999 -999
 -999 -999    3 -99912600    1  202    0   24   20 -999 -999    3    1 -99912600
    312600    4   78    1    3    5    0    0 -999    0    0    1    3    1    2
    2    2    4    0   32   67    0    5 -999    0    0    1    0    0    0  222
    1    0    0    0
      .005      .700    63.000      .001     1.000   627.000      .009    33.635
   210.000      .298      .475  -999.000     5.000  -999.000     4.000  -999.000
     2.500     7.504     2.500   371.000    30.000    30.000  -999.000      .003
     -.012     -.014     2.000    15.000    33.777  -118.133      .009      .441
    49.533     -.046      .018     5.000    31.000    33.900    13.600    99.680
     1.000    11.003    -8.000  -999.000  -999.000  -999.000  -999.000  -999.000
     6.900     2.000     6.800   980.665      .005    63.000    33.423      .000
  -999.000    40.000  -999.000    63.000      .005      .300  -999.000  -999.000
    33.635     8.706    38.185      .202    39.140      .020      .000      .300
    40.000      .005      .005      .000      .005      .015  -999.000  -999.000
      .032      .130      .025      .012      .001      .000  -999.000  -999.000
  -999.000  -999.000  -999.000  -999.000  -999.000  -999.000  -999.000  -999.000
  -999.000  -999.000  -999.000  -999.000
      .050
      .040      .042      .044      .046      .048      .050      .055      .060
      .065      .070      .075      .080      .085      .090      .095      .100
      .110      .120      .130      .140      .150      .160      .170      .180
      .190      .200      .220      .240      .260      .280      .300      .320
      .340      .360      .380      .400      .420      .440      .460      .480
      .500      .550      .600      .650      .700      .750      .800      .850
      .900      .950     1.000     1.100     1.200     1.300     1.400     1.500
     1.600     1.700     1.800     1.900     2.000     2.200     2.400     2.600
     2.800     3.000     3.200     3.400     3.600     3.800     4.000     4.200
     4.400     4.600     4.800     5.000     5.500     6.000      .000      .000
      .000      .000      .000      .000      .000      .000      .000      .000
      .000      .000      .000      .000      .000      .000      .000      .000
      .000      .000      .000      .000
Fourier amplitude spectra in in/sec.
  .000E+00  .000E+00  .000E+00  .000E+00  .000E+00  .000E+00  .000E+00  .000E+00
  .000E+00  .000E+00  .000E+00  .000E+00  .000E+00  .000E+00  .000E+00  .000E+00
  .000E+00  .000E+00  .000E+00  .000E+00  .000E+00  .000E+00  .000E+00  .000E+00
  .000E+00  .000E+00  .000E+00  .000E+00  .000E+00  .000E+00  .000E+00  .000E+00
  .000E+00  .000E+00  .000E+00  .000E+00  .000E+00  .000E+00  .000E+00  .000E+00
  .000E+00  .000E+00  .000E+00  .000E+00  .000E+00  .000E+00  .000E+00  .000E+00
  .000E+00  .000E+00  .000E+00  .000E+00  .000E+00  .000E+00  .000E+00  .000E+00
  .000E+00  .000E+00  .000E+00  .000E+00  .000E+00  .000E+00  .000E+00  .000E+00
  .000E+00  .000E+00  .000E+00  .000E+00  .000E+00  .000E+00  .000E+00  .000E+00
  .000E+00  .000E+00  .000E+00  .000E+00  .000E+00  .000E+00  .000E+00  .000E+00
  .000E+00  .000E+00  .000E+00  .000E+00  .000E+00  .000E+00  .000E+00  .000E+00
  .000E+00  .000E+00  .000E+00  .000E+00  .000E+00  .000E+00  .000E+00  .000E+00
  .000E+00  .000E+00  .000E+00  .000E+00
Damping =  .05. Data of Sd,Sv,Sa,Pssv,ttSd,ttSv,ttSa :
  .187E-03  .219E-03  .250E-03  .291E-03  .376E-03  .428E-03  .534E-03  .644E-03
  .832E-03  .962E-03  .135E-02  .132E-02  .158E-02  .196E-02  .243E-02  .267E-02
  .334E-02  .446E-02  .528E-02  .560E-02  .606E-02  .700E-02  .720E-02  .626E-02
  .859E-02  .111E-01  .107E-01  .114E-01  .111E-01  .106E-01  .100E-01  .107E-01
  .978E-02  .107E-01  .135E-01  .163E-01  .179E-01  .191E-01  .162E-01  .139E-01
