Response and Fourier amplitude spectra (78 periods,  .04 -  6.0 sec)   for      
Corrected accelerogram   14831-O0201-20263.05       Chan  1:  Up         from   
Uncorrected Accelerogram Data             Processed: 09/18/20, CGS  ce14831e    
Rcrd of Fri Sep 18, 2020 23:38:31.0 PDT               (Avol1 v2.0, 4/18 CSMIP)  
CSMIP Preliminary Processing            (Origin:  To be determined)             
14831-O0201-20263.05                 Start time:  9/19/20, 06:38:31.0 UTC (GPS) 
Station No. 14831   33.792N, 118.320W    Obsidn  s/n  201  (3 Chns of  3 at Sta)
Lomita - Narbonne & Pacific Coast Hwy     CGS   Data: Acceleration              
Chan  1:  Up                                                                    
Rcrd of Fri Sep 18, 2020 23:38:31.0 PDT    Fri Sep 18, 2020 23:38:31.0 PDT      
Hypocenter:  To be determined.               ML:  To be determined.             
Instr Period =  .0049 sec,  Damping =  .700,  Sensitivity = 1.25 v/g            
                        Record Length = 62.000 sec.                             
                                     Uncor Max  =  -.005 g, at   27.495 sec.    
RMS accel of (uncor) record  =        .   Chn. metadata effective date: 07/27/16
Accelerogram bandpass filtered with 3 dB pts at   .30 and 40.00 cyc/sec         
                 instrument- and base-line correcte                             
                                                                                
                                                                                
                                                                                
                                                                                
                                                                                
Rcrd of Fri Sep 18, 2020 23:38:31.0 PDT    Fri Sep 18, 2020 23:38:31.0 PDT      
                                                                                
14831-O0201-20263.05      Lomita - Narbonne & Pacific Coast Hwy   Chan  1:  Up  
                                                                                
14831-O0201-20263.05      Lomita - Narbonne & Pacific Coast Hwy   Chan  1:  Up  
                                                                                
Units for spectra are inches and sec, except Sa is in fraction of g.            
                                                                                
    1  100    1    3    3  200    1    3    1   24   32  201    014831   11    0
    6   38   31    0  263    9   19 2020   10    3  50012400   39   37   74  360
12400    1  100    3  201    1    5  620    2 -999 -999 -999 -999 -999 -999 -999
 -999 -999    3 -99912400    1  202    0   24   20 -999 -999    3    1 -99912400
    312400    4   78    1    3    5    0    0 -999    0    0    1    3    1    2
    2    2    4    0   32   67    0    5 -999    0    0    1    0    0    0  222
    1    0    2    0
      .005      .700    62.000      .001     1.000  1252.800     -.005    27.495
   206.000      .596      .476  -999.000     5.000  -999.000     4.000  -999.000
     5.000    -7.570     5.000  -999.000    30.000    30.000  -999.000     -.001
      .003      .003     2.000    15.000    33.792  -118.320      .033      .249
     7.446     -.016      .022    32.000    30.000    32.900    13.400    94.460
     1.000    11.003    -8.000  -999.000  -999.000  -999.000  -999.000  -999.000
     6.900     2.000     6.800   980.665      .005    62.000    32.786      .000
  -999.000    40.000  -999.000    62.000      .005      .300  -999.000  -999.000
    27.495    -5.007    27.475      .125    39.885     -.008      .000      .300
    40.000      .005      .005      .000      .005      .008  -999.000  -999.000
      .017      .075      .009      .007      .001      .000  -999.000  -999.000
  -999.000  -999.000  -999.000  -999.000  -999.000  -999.000  -999.000  -999.000
  -999.000  -999.000  -999.000  -999.000
      .050
      .040      .042      .044      .046      .048      .050      .055      .060
      .065      .070      .075      .080      .085      .090      .095      .100
      .110      .120      .130      .140      .150      .160      .170      .180
      .190      .200      .220      .240      .260      .280      .300      .320
      .340      .360      .380      .400      .420      .440      .460      .480
      .500      .550      .600      .650      .700      .750      .800      .850
      .900      .950     1.000     1.100     1.200     1.300     1.400     1.500
     1.600     1.700     1.800     1.900     2.000     2.200     2.400     2.600
     2.800     3.000     3.200     3.400     3.600     3.800     4.000     4.200
     4.400     4.600     4.800     5.000     5.500     6.000      .000      .000
      .000      .000      .000      .000      .000      .000      .000      .000
      .000      .000      .000      .000      .000      .000      .000      .000
      .000      .000      .000      .000
Fourier amplitude spectra in in/sec.
  .000E+00  .000E+00  .000E+00  .000E+00  .000E+00  .000E+00  .000E+00  .000E+00
  .000E+00  .000E+00  .000E+00  .000E+00  .000E+00  .000E+00  .000E+00  .000E+00
  .000E+00  .000E+00  .000E+00  .000E+00  .000E+00  .000E+00  .000E+00  .000E+00
  .000E+00  .000E+00  .000E+00  .000E+00  .000E+00  .000E+00  .000E+00  .000E+00
  .000E+00  .000E+00  .000E+00  .000E+00  .000E+00  .000E+00  .000E+00  .000E+00
  .000E+00  .000E+00  .000E+00  .000E+00  .000E+00  .000E+00  .000E+00  .000E+00
  .000E+00  .000E+00  .000E+00  .000E+00  .000E+00  .000E+00  .000E+00  .000E+00
  .000E+00  .000E+00  .000E+00  .000E+00  .000E+00  .000E+00  .000E+00  .000E+00
  .000E+00  .000E+00  .000E+00  .000E+00  .000E+00  .000E+00  .000E+00  .000E+00
  .000E+00  .000E+00  .000E+00  .000E+00  .000E+00  .000E+00  .000E+00  .000E+00
  .000E+00  .000E+00  .000E+00  .000E+00  .000E+00  .000E+00  .000E+00  .000E+00
  .000E+00  .000E+00  .000E+00  .000E+00  .000E+00  .000E+00  .000E+00  .000E+00
  .000E+00  .000E+00  .000E+00  .000E+00
Damping =  .05. Data of Sd,Sv,Sa,Pssv,ttSd,ttSv,ttSa :
  .136E-03  .190E-03  .228E-03  .235E-03  .269E-03  .295E-03  .391E-03  .449E-03
  .653E-03  .760E-03  .914E-03  .942E-03  .109E-02  .126E-02  .136E-02  .132E-02
  .123E-02  .157E-02  .192E-02  .240E-02  .252E-02  .292E-02  .238E-02  .276E-02
  .316E-02  .342E-02  .422E-02  .609E-02  .664E-02  .744E-02  .619E-02  .536E-02
  .602E-02  .703E-02  .828E-02  .928E-02  .852E-02  .820E-02  .782E-02  .805E-02
  .876E-02  .946E-02  .679E-02  .838E-02  .861E-02  .809E-02  .566E-02  .543E-02
  .665E-02  .726E-02  .624E-02  .588E-02  .568E-02  .545E-02  .569E-02  .747E-02
  .700E-02  .555E-02  .604E-02  .727E-02  .823E-02  .808E-02  .784E-02  .785E-02
  .698E-02  .551E-02  .615E-02  .613E-02  .687E-02  .657E-02  .621E-02  .542E-02
  .487E-02  .429E-02  .389E-02  .366E-02  .366E-02  .366E-02  .000E+00  .000E+00
  .000E+00  .000E+00  .000E+00  .000E+00  .000E+00  .000E+00  .000E+00  .000E+00
  .000E+00  .000E+00  .000E+00  .000E+00  .000E+00  .000E+00  .000E+00  .000E+00
  .000E+00  .000E+00  .000E+00  .000E+00
  .180E-01  .209E-01  .274E-01  .279E-01  .289E-01  .303E-01  .420E-01  .441E-01
  .552E-01  .630E-01  .729E-01  .742E-01  .829E-01  .817E-01  .852E-01  .851E-01
  .689E-01  .769E-01  .896E-01  .959E-01  .985E-01  .125E+00  .928E-01  .951E-01
  .104E+00  .102E+00  .120E+00  .165E+00  .147E+00  .171E+00  .143E+00  .110E+00
  .121E+00  .131E+00  .136E+00  .162E+00  .139E+00  .132E+00  .121E+00  .114E+00
  .131E+00  .110E+00  .943E-01  .977E-01  .890E-01  .868E-01  .692E-01  .561E-01
  .524E-01  .554E-01  .580E-01  .509E-01  .478E-01  .484E-01  .468E-01  .467E-01
  .531E-01  .503E-01  .496E-01  .540E-01  .502E-01  .492E-01  .506E-01  .483E-01
  .490E-01  .486E-01  .498E-01  .508E-01  .512E-01  .513E-01  .512E-01  .508E-01
  .506E-01  .503E-01  .501E-01  .499E-01  .495E-01  .493E-01  .000E+00  .000E+00
  .000E+00  .000E+00  .000E+00  .000E+00  .000E+00  .000E+00  .000E+00  .000E+00
  .000E+00  .000E+00  .000E+00  .000E+00  .000E+00  .000E+00  .000E+00  .000E+00
  .000E+00  .000E+00  .000E+00  .000E+00
  .870E-02  .110E-01  .121E-01  .115E-01  .121E-01  .121E-01  .134E-01  .129E-01
  .160E-01  .159E-01  .166E-01  .152E-01  .154E-01  .160E-01  .155E-01  .135E-01
  .105E-01  .113E-01  .118E-01  .125E-01  .115E-01  .117E-01  .847E-02  .872E-02
  .902E-02  .878E-02  .899E-02  .109E-01  .101E-01  .975E-02  .707E-02  .539E-02
  .537E-02  .557E-02  .590E-02  .597E-02  .497E-02  .436E-02  .380E-02  .360E-02
  .360E-02  .322E-02  .194E-02  .205E-02  .181E-02  .149E-02  .915E-03  .772E-03
  .847E-03  .831E-03  .644E-03  .508E-03  .410E-03  .331E-03  .299E-03  .342E-03
  .286E-03  .200E-03  .194E-03  .210E-03  .212E-03  .172E-03  .142E-03  .122E-03
  .933E-04  .649E-04  .643E-04  .574E-04  .575E-04  .477E-04  .428E-04  .348E-04
  .297E-04  .246E-04  .216E-04  .203E-04  .175E-04  .157E-04  .000E+00  .000E+00
  .000E+00  .000E+00  .000E+00  .000E+00  .000E+00  .000E+00  .000E+00  .000E+00
  .000E+00  .000E+00  .000E+00  .000E+00  .000E+00  .000E+00  .000E+00  .000E+00
  .000E+00  .000E+00  .000E+00  .000E+00
  .214E-01  .284E-01  .325E-01  .320E-01  .353E-01  .370E-01  .446E-01  .470E-01
  .631E-01  .682E-01  .765E-01  .740E-01  .809E-01  .876E-01  .899E-01  .829E-01
  .704E-01  .824E-01  .929E-01  .108E+00  .106E+00  .115E+00  .878E-01  .962E-01
  .105E+00  .108E+00  .120E+00  .159E+00  .161E+00  .167E+00  .130E+00  .105E+00
  .111E+00  .123E+00  .137E+00  .146E+00  .127E+00  .117E+00  .107E+00  .105E+00
  .110E+00  .108E+00  .711E-01  .810E-01  .773E-01  .678E-01  .445E-01  .401E-01
  .464E-01  .480E-01  .392E-01  .336E-01  .298E-01  .263E-01  .255E-01  .313E-01
  .275E-01  .205E-01  .211E-01  .240E-01  .259E-01  .231E-01  .205E-01  .190E-01
  .157E-01  .115E-01  .121E-01  .113E-01  .120E-01  .109E-01  .975E-02  .811E-02
  .696E-02  .586E-02  .509E-02  .460E-02  .418E-02  .383E-02  .000E+00  .000E+00
  .000E+00  .000E+00  .000E+00  .000E+00  .000E+00  .000E+00  .000E+00  .000E+00
  .000E+00  .000E+00  .000E+00  .000E+00  .000E+00  .000E+00  .000E+00  .000E+00
  .000E+00  .000E+00  .000E+00  .000E+00
  .275E+02  .275E+02  .275E+02  .267E+02  .261E+02  .261E+02  .274E+02  .271E+02
  .276E+02  .302E+02  .276E+02  .272E+02  .283E+02  .276E+02  .276E+02  .273E+02
  .274E+02  .277E+02  .279E+02  .275E+02  .275E+02  .275E+02  .262E+02  .302E+02
  .302E+02  .278E+02  .278E+02  .277E+02  .280E+02  .280E+02  .282E+02  .282E+02
  .282E+02  .398E+02  .398E+02  .398E+02  .396E+02  .396E+02  .501E+02  .353E+02
  .351E+02  .574E+02  .523E+02  .350E+02  .348E+02  .400E+02  .387E+02  .576E+02
  .560E+02  .560E+02  .560E+02  .400E+02  .456E+02  .589E+02  .590E+02  .585E+02
  .411E+02  .343E+02  .328E+02  .405E+02  .607E+02  .609E+02  .446E+02  .446E+02
  .573E+02  .466E+02  .440E+02  .440E+02  .565E+02  .551E+02  .440E+02  .440E+02
  .426E+02  .426E+02  .426E+02  .399E+02  .399E+02  .399E+02  .000E+00  .000E+00
  .000E+00  .000E+00  .000E+00  .000E+00  .000E+00  .000E+00  .000E+00  .000E+00
  .000E+00  .000E+00  .000E+00  .000E+00  .000E+00  .000E+00  .000E+00  .000E+00
  .000E+00  .000E+00  .000E+00  .000E+00
  .281E+02  .267E+02  .267E+02  .267E+02  .267E+02  .261E+02  .274E+02  .271E+02
  .276E+02  .302E+02  .302E+02  .272E+02  .283E+02  .276E+02  .276E+02  .273E+02
  .273E+02  .276E+02  .279E+02  .275E+02  .275E+02  .275E+02  .275E+02  .303E+02
  .303E+02  .277E+02  .278E+02  .278E+02  .278E+02  .280E+02  .280E+02  .284E+02
  .283E+02  .398E+02  .397E+02  .397E+02  .397E+02  .396E+02  .396E+02  .352E+02
  .353E+02  .573E+02  .331E+02  .349E+02  .349E+02  .396E+02  .396E+02  .396E+02
  .276E+02  .276E+02  .276E+02  .276E+02  .276E+02  .276E+02  .275E+02  .276E+02
  .400E+02  .276E+02  .276E+02  .400E+02  .396E+02  .396E+02  .396E+02  .396E+02
  .396E+02  .275E+02  .275E+02  .275E+02  .275E+02  .275E+02  .275E+02  .275E+02
  .275E+02  .275E+02  .275E+02  .275E+02  .275E+02  .275E+02  .000E+00  .000E+00
  .000E+00  .000E+00  .000E+00  .000E+00  .000E+00  .000E+00  .000E+00  .000E+00
  .000E+00  .000E+00  .000E+00  .000E+00  .000E+00  .000E+00  .000E+00  .000E+00
  .000E+00  .000E+00  .000E+00  .000E+00
  .275E+02  .275E+02  .275E+02  .267E+02  .261E+02  .261E+02  .274E+02  .271E+02
  .276E+02  .302E+02  .276E+02  .284E+02  .283E+02  .276E+02  .276E+02  .273E+02
  .274E+02  .277E+02  .279E+02  .275E+02  .275E+02  .275E+02  .262E+02  .302E+02
  .302E+02  .278E+02  .278E+02  .277E+02  .280E+02  .280E+02  .282E+02  .282E+02
  .282E+02  .397E+02  .398E+02  .398E+02  .396E+02  .396E+02  .501E+02  .353E+02
  .351E+02  .574E+02  .523E+02  .350E+02  .348E+02  .400E+02  .387E+02  .576E+02
  .560E+02  .560E+02  .560E+02  .400E+02  .456E+02  .589E+02  .590E+02  .585E+02
  .410E+02  .343E+02  .328E+02  .405E+02  .607E+02  .609E+02  .446E+02  .446E+02
  .572E+02  .275E+02  .440E+02  .440E+02  .564E+02  .550E+02  .440E+02  .425E+02
  .425E+02  .425E+02  .396E+02  .396E+02  .396E+02  .275E+02  .000E+00  .000E+00
  .000E+00  .000E+00  .000E+00  .000E+00  .000E+00  .000E+00  .000E+00  .000E+00
  .000E+00  .000E+00  .000E+00  .000E+00  .000E+00  .000E+00  .000E+00  .000E+00
  .000E+00  .000E+00  .000E+00  .000E+00
/&   ----------  End of spectral data for channel  1  ----------
Response and Fourier amplitude spectra (78 periods,  .04 -  6.0 sec)   for      
Corrected accelerogram   14831-O0201-20263.05       Chan  2: 360 Deg     from   
Uncorrected Accelerogram Data             Processed: 09/18/20, CGS  ce14831e    
Rcrd of Fri Sep 18, 2020 23:38:31.0 PDT               (Avol1 v2.0, 4/18 CSMIP)  
CSMIP Preliminary Processing            (Origin:  To be determined)             
14831-O0201-20263.05                 Start time:  9/19/20, 06:38:31.0 UTC (GPS) 
Station No. 14831   33.792N, 118.320W    Obsidn  s/n  201  (3 Chns of  3 at Sta)
Lomita - Narbonne & Pacific Coast Hwy     CGS   Data: Acceleration              
Chan  2: 360 Deg                                                                
Rcrd of Fri Sep 18, 2020 23:38:31.0 PDT    Fri Sep 18, 2020 23:38:31.0 PDT      
Hypocenter:  To be determined.               ML:  To be determined.             
Instr Period =  .0049 sec,  Damping =  .700,  Sensitivity = 1.25 v/g            
                        Record Length = 62.000 sec.                             
                                     Uncor Max  =  -.014 g, at   30.255 sec.    
RMS accel of (uncor) record  =        .   Chn. metadata effective date: 07/27/16
Accelerogram bandpass filtered with 3 dB pts at   .30 and 40.00 cyc/sec         
                 instrument- and base-line correcte                             
                                                                                
                                                                                
                                                                                
                                                                                
                                                                                
Rcrd of Fri Sep 18, 2020 23:38:31.0 PDT    Fri Sep 18, 2020 23:38:31.0 PDT      
                                                                                
14831-O0201-20263.05      Lomita - Narbonne & Pacific Coast Hwy   Chan  2: 360 D
eg                                                                              
14831-O0201-20263.05      Lomita - Narbonne & Pacific Coast Hwy   Chan  2: 360 D
eg                                                                              
Units for spectra are inches and sec, except Sa is in fraction of g.            
                                                                                
    2  100    2    3    3  200    1    3    1   24   32  201    014831   11    0
    6   38   31    0  263    9   19 2020   10    3  36012400   39   37   74  360
12400    1  100    3  201    1    5  620    2 -999 -999 -999 -999 -999 -999 -999
 -999 -999    3 -99912400    1  202    0   24   20 -999 -999    3    1 -99912400
    312400    4   78    1    3    5    0    0 -999    0    0    1    3    1    2
    2    2    4    0   32   67    0    5 -999    0    0    1    0    0    0  222
    1    0    2    0
      .005      .700    62.000      .001     1.000  1250.000     -.014    30.255
   204.000      .596      .477  -999.000     5.000  -999.000     4.000  -999.000
     5.000     5.575     5.000  -999.000    30.000    30.000  -999.000     -.002
     -.003     -.001     2.000    15.000    33.792  -118.320      .015      .388
    25.807     -.030      .027    32.000    30.000    32.900    13.400    94.460
     1.000    11.003    -8.000  -999.000  -999.000  -999.000  -999.000  -999.000
     6.900     2.000     6.800   980.665      .005    62.000    32.468      .000
  -999.000    40.000  -999.000    62.000      .005      .300  -999.000  -999.000
    30.255   -13.610    30.225      .267    35.430      .017      .000      .300
    40.000      .005      .005      .000      .005      .014  -999.000  -999.000
      .056      .065      .025      .016      .001      .000  -999.000  -999.000
  -999.000  -999.000  -999.000  -999.000  -999.000  -999.000  -999.000  -999.000
  -999.000  -999.000  -999.000  -999.000
      .050
      .040      .042      .044      .046      .048      .050      .055      .060
      .065      .070      .075      .080      .085      .090      .095      .100
      .110      .120      .130      .140      .150      .160      .170      .180
      .190      .200      .220      .240      .260      .280      .300      .320
      .340      .360      .380      .400      .420      .440      .460      .480
      .500      .550      .600      .650      .700      .750      .800      .850
      .900      .950     1.000     1.100     1.200     1.300     1.400     1.500
     1.600     1.700     1.800     1.900     2.000     2.200     2.400     2.600
     2.800     3.000     3.200     3.400     3.600     3.800     4.000     4.200
     4.400     4.600     4.800     5.000     5.500     6.000      .000      .000
      .000      .000      .000      .000      .000      .000      .000      .000
      .000      .000      .000      .000      .000      .000      .000      .000
      .000      .000      .000      .000
Fourier amplitude spectra in in/sec.
  .000E+00  .000E+00  .000E+00  .000E+00  .000E+00  .000E+00  .000E+00  .000E+00
  .000E+00  .000E+00  .000E+00  .000E+00  .000E+00  .000E+00  .000E+00  .000E+00
  .000E+00  .000E+00  .000E+00  .000E+00  .000E+00  .000E+00  .000E+00  .000E+00
  .000E+00  .000E+00  .000E+00  .000E+00  .000E+00  .000E+00  .000E+00  .000E+00
  .000E+00  .000E+00  .000E+00  .000E+00  .000E+00  .000E+00  .000E+00  .000E+00
  .000E+00  .000E+00  .000E+00  .000E+00  .000E+00  .000E+00  .000E+00  .000E+00
  .000E+00  .000E+00  .000E+00  .000E+00  .000E+00  .000E+00  .000E+00  .000E+00
  .000E+00  .000E+00  .000E+00  .000E+00  .000E+00  .000E+00  .000E+00  .000E+00
  .000E+00  .000E+00  .000E+00  .000E+00  .000E+00  .000E+00  .000E+00  .000E+00
  .000E+00  .000E+00  .000E+00  .000E+00  .000E+00  .000E+00  .000E+00  .000E+00
  .000E+00  .000E+00  .000E+00  .000E+00  .000E+00  .000E+00  .000E+00  .000E+00
  .000E+00  .000E+00  .000E+00  .000E+00  .000E+00  .000E+00  .000E+00  .000E+00
  .000E+00  .000E+00  .000E+00  .000E+00
Damping =  .05. Data of Sd,Sv,Sa,Pssv,ttSd,ttSv,ttSa :
  .372E-03  .402E-03  .438E-03  .440E-03  .543E-03  .649E-03  .939E-03  .173E-02
  .233E-02  .235E-02  .274E-02  .280E-02  .301E-02  .360E-02  .400E-02  .456E-02
  .405E-02  .547E-02  .698E-02  .668E-02  .636E-02  .686E-02  .935E-02  .973E-02
  .998E-02  .102E-01  .997E-02  .732E-02  .830E-02  .122E-01  .136E-01  .156E-01
  .186E-01  .160E-01  .152E-01  .162E-01  .162E-01  .177E-01  .178E-01  .150E-01
