Response and Fourier amplitude spectra (78 periods,  .04 -  6.0 sec)   for      
Corrected accelerogram   14935-O0527-20263.06       Chan  1:  Up         from   
Uncorrected Accelerogram Data             Processed: 09/18/20, CGS  ce14935f    
Rcrd of Fri Sep 18, 2020 23:38:28.0 PDT               (Avol1 v2.0, 4/18 CSMIP)  
CSMIP Preliminary Processing            (Origin:  To be determined)             
14935-O0527-20263.06                 Start time:  9/19/20, 06:38:28.0 UTC (GPS) 
Station No. 14935   33.868N, 118.262W    Obsidn  s/n  527  (3 Chns of  3 at Sta)
Carson - Victoria & Avalon                CGS   Data: Acceleration              
Chan  1:  Up                                                                    
Rcrd of Fri Sep 18, 2020 23:38:28.0 PDT    Fri Sep 18, 2020 23:38:28.0 PDT      
Hypocenter:  To be determined.               ML:  To be determined.             
Instr Period =  .0047 sec,  Damping =  .700,  Sensitivity = 1.25 v/g            
                        Record Length = 61.000 sec.                             
                                     Uncor Max  =  -.012 g, at   29.635 sec.    
RMS accel of (uncor) record  =        .   Chn. metadata effective date: 03/20/18
Accelerogram bandpass filtered with 3 dB pts at   .30 and 40.00 cyc/sec         
                 instrument- and base-line correcte                             
                                                                                
                                                                                
                                                                                
                                                                                
                                                                                
Rcrd of Fri Sep 18, 2020 23:38:28.0 PDT    Fri Sep 18, 2020 23:38:28.0 PDT      
                                                                                
14935-O0527-20263.06      Carson - Victoria & Avalon    Chan  1:  Up            
                                                                                
14935-O0527-20263.06      Carson - Victoria & Avalon    Chan  1:  Up            
                                                                                
Units for spectra are inches and sec, except Sa is in fraction of g.            
                                                                                
    1  100    1    3    3  200    1    3    1   24   32  527    014935   11    0
    6   38   28    0  263    9   19 2020   10    3  50012200   39   26   74  360
12200    1  100    3  527    1    6  610    2 -999 -999 -999 -999 -999 -999 -999
 -999 -999    3 -99912200    1  202    0   24   20 -999 -999    3    1 -99912200
    312200    4   78    1    3    5    0    0 -999    0    0    1    3    1    2
    2    2    4    0   32   67    0    5 -999    0    0    1    0    0    3  222
    1    0    4    0
      .005      .700    61.000      .001     1.000  1254.000     -.012    29.635
   212.000      .596      .475  -999.000     5.000  -999.000     4.000  -999.000
     5.000    -7.872     5.000  -999.000    30.000    30.000  -999.000      .000
     -.004     -.004     2.000    15.000    33.868  -118.262      .051      .236
     4.601     -.023      .015    23.000    30.000    30.900      .000   101.300
     1.000    11.003    -8.000  -999.000  -999.000  -999.000  -999.000  -999.000
     6.900     2.000     6.800   980.665      .005    61.000    33.741      .000
  -999.000    40.000  -999.000    61.000      .005      .300  -999.000  -999.000
    29.635   -11.649    29.675     -.382    29.625      .017      .000      .300
    40.000      .005      .005      .000      .005      .010  -999.000  -999.000
      .032      .200      .030      .014      .001      .000  -999.000  -999.000
  -999.000  -999.000  -999.000  -999.000  -999.000  -999.000  -999.000  -999.000
  -999.000  -999.000  -999.000  -999.000
      .050
      .040      .042      .044      .046      .048      .050      .055      .060
      .065      .070      .075      .080      .085      .090      .095      .100
      .110      .120      .130      .140      .150      .160      .170      .180
      .190      .200      .220      .240      .260      .280      .300      .320
      .340      .360      .380      .400      .420      .440      .460      .480
      .500      .550      .600      .650      .700      .750      .800      .850
      .900      .950     1.000     1.100     1.200     1.300     1.400     1.500
     1.600     1.700     1.800     1.900     2.000     2.200     2.400     2.600
     2.800     3.000     3.200     3.400     3.600     3.800     4.000     4.200
     4.400     4.600     4.800     5.000     5.500     6.000      .000      .000
      .000      .000      .000      .000      .000      .000      .000      .000
      .000      .000      .000      .000      .000      .000      .000      .000
      .000      .000      .000      .000
Fourier amplitude spectra in in/sec.
  .000E+00  .000E+00  .000E+00  .000E+00  .000E+00  .000E+00  .000E+00  .000E+00
  .000E+00  .000E+00  .000E+00  .000E+00  .000E+00  .000E+00  .000E+00  .000E+00
  .000E+00  .000E+00  .000E+00  .000E+00  .000E+00  .000E+00  .000E+00  .000E+00
  .000E+00  .000E+00  .000E+00  .000E+00  .000E+00  .000E+00  .000E+00  .000E+00
  .000E+00  .000E+00  .000E+00  .000E+00  .000E+00  .000E+00  .000E+00  .000E+00
  .000E+00  .000E+00  .000E+00  .000E+00  .000E+00  .000E+00  .000E+00  .000E+00
  .000E+00  .000E+00  .000E+00  .000E+00  .000E+00  .000E+00  .000E+00  .000E+00
  .000E+00  .000E+00  .000E+00  .000E+00  .000E+00  .000E+00  .000E+00  .000E+00
  .000E+00  .000E+00  .000E+00  .000E+00  .000E+00  .000E+00  .000E+00  .000E+00
  .000E+00  .000E+00  .000E+00  .000E+00  .000E+00  .000E+00  .000E+00  .000E+00
  .000E+00  .000E+00  .000E+00  .000E+00  .000E+00  .000E+00  .000E+00  .000E+00
  .000E+00  .000E+00  .000E+00  .000E+00  .000E+00  .000E+00  .000E+00  .000E+00
  .000E+00  .000E+00  .000E+00  .000E+00
Damping =  .05. Data of Sd,Sv,Sa,Pssv,ttSd,ttSv,ttSa :
  .351E-03  .393E-03  .407E-03  .398E-03  .454E-03  .418E-03  .682E-03  .981E-03
  .107E-02  .115E-02  .123E-02  .157E-02  .132E-02  .160E-02  .191E-02  .161E-02
  .309E-02  .438E-02  .476E-02  .487E-02  .622E-02  .697E-02  .737E-02  .931E-02
  .109E-01  .125E-01  .128E-01  .149E-01  .129E-01  .129E-01  .122E-01  .109E-01
  .109E-01  .119E-01  .102E-01  .106E-01  .123E-01  .132E-01  .136E-01  .126E-01
  .110E-01  .759E-02  .793E-02  .755E-02  .732E-02  .727E-02  .841E-02  .783E-02
  .787E-02  .102E-01  .115E-01  .990E-02  .904E-02  .884E-02  .802E-02  .101E-01
  .127E-01  .135E-01  .131E-01  .163E-01  .148E-01  .976E-02  .795E-02  .948E-02
  .110E-01  .851E-02  .725E-02  .728E-02  .735E-02  .730E-02  .717E-02  .697E-02
  .684E-02  .679E-02  .675E-02  .670E-02  .664E-02  .670E-02  .000E+00  .000E+00
  .000E+00  .000E+00  .000E+00  .000E+00  .000E+00  .000E+00  .000E+00  .000E+00
  .000E+00  .000E+00  .000E+00  .000E+00  .000E+00  .000E+00  .000E+00  .000E+00
  .000E+00  .000E+00  .000E+00  .000E+00
  .407E-01  .471E-01  .483E-01  .445E-01  .482E-01  .463E-01  .485E-01  .755E-01
  .859E-01  .953E-01  .986E-01  .114E+00  .983E-01  .105E+00  .125E+00  .110E+00
  .134E+00  .196E+00  .194E+00  .208E+00  .236E+00  .268E+00  .280E+00  .343E+00
  .375E+00  .403E+00  .364E+00  .387E+00  .333E+00  .341E+00  .317E+00  .269E+00
  .261E+00  .222E+00  .216E+00  .239E+00  .243E+00  .219E+00  .191E+00  .176E+00
  .193E+00  .171E+00  .146E+00  .148E+00  .157E+00  .152E+00  .158E+00  .160E+00
  .151E+00  .155E+00  .172E+00  .176E+00  .171E+00  .178E+00  .175E+00  .168E+00
  .165E+00  .166E+00  .166E+00  .163E+00  .159E+00  .153E+00  .152E+00  .154E+00
  .156E+00  .156E+00  .155E+00  .154E+00  .153E+00  .153E+00  .152E+00  .152E+00
  .152E+00  .152E+00  .151E+00  .151E+00  .151E+00  .151E+00  .000E+00  .000E+00
  .000E+00  .000E+00  .000E+00  .000E+00  .000E+00  .000E+00  .000E+00  .000E+00
  .000E+00  .000E+00  .000E+00  .000E+00  .000E+00  .000E+00  .000E+00  .000E+00
  .000E+00  .000E+00  .000E+00  .000E+00
  .227E-01  .229E-01  .214E-01  .193E-01  .201E-01  .173E-01  .230E-01  .280E-01
  .260E-01  .239E-01  .222E-01  .250E-01  .189E-01  .203E-01  .216E-01  .165E-01
  .262E-01  .314E-01  .288E-01  .256E-01  .283E-01  .281E-01  .263E-01  .296E-01
  .311E-01  .321E-01  .272E-01  .266E-01  .197E-01  .169E-01  .140E-01  .110E-01
  .970E-02  .944E-02  .728E-02  .685E-02  .718E-02  .701E-02  .660E-02  .562E-02
  .452E-02  .258E-02  .227E-02  .184E-02  .157E-02  .136E-02  .138E-02  .115E-02
  .103E-02  .119E-02  .122E-02  .875E-03  .676E-03  .571E-03  .426E-03  .461E-03
  .514E-03  .481E-03  .417E-03  .467E-03  .383E-03  .210E-03  .150E-03  .146E-03
  .146E-03  .100E-03  .924E-04  .867E-04  .797E-04  .730E-04  .668E-04  .611E-04
  .566E-04  .529E-04  .497E-04  .467E-04  .409E-04  .370E-04  .000E+00  .000E+00
  .000E+00  .000E+00  .000E+00  .000E+00  .000E+00  .000E+00  .000E+00  .000E+00
  .000E+00  .000E+00  .000E+00  .000E+00  .000E+00  .000E+00  .000E+00  .000E+00
  .000E+00  .000E+00  .000E+00  .000E+00
  .552E-01  .588E-01  .581E-01  .543E-01  .594E-01  .525E-01  .779E-01  .103E+00
  .103E+00  .103E+00  .103E+00  .123E+00  .979E-01  .112E+00  .126E+00  .101E+00
  .177E+00  .229E+00  .230E+00  .218E+00  .260E+00  .274E+00  .272E+00  .325E+00
  .362E+00  .393E+00  .367E+00  .390E+00  .313E+00  .289E+00  .257E+00  .214E+00
  .201E+00  .207E+00  .169E+00  .167E+00  .184E+00  .188E+00  .185E+00  .165E+00
  .138E+00  .867E-01  .831E-01  .729E-01  .657E-01  .609E-01  .661E-01  .579E-01
  .549E-01  .675E-01  .724E-01  .566E-01  .473E-01  .427E-01  .360E-01  .421E-01
  .499E-01  .500E-01  .457E-01  .539E-01  .465E-01  .279E-01  .208E-01  .229E-01
  .246E-01  .178E-01  .142E-01  .135E-01  .128E-01  .121E-01  .113E-01  .104E-01
  .977E-02  .928E-02  .884E-02  .842E-02  .759E-02  .702E-02  .000E+00  .000E+00
  .000E+00  .000E+00  .000E+00  .000E+00  .000E+00  .000E+00  .000E+00  .000E+00
  .000E+00  .000E+00  .000E+00  .000E+00  .000E+00  .000E+00  .000E+00  .000E+00
  .000E+00  .000E+00  .000E+00  .000E+00
  .308E+02  .296E+02  .294E+02  .296E+02  .296E+02  .296E+02  .296E+02  .296E+02
  .296E+02  .297E+02  .322E+02  .309E+02  .305E+02  .314E+02  .314E+02  .296E+02
  .296E+02  .297E+02  .297E+02  .349E+02  .297E+02  .298E+02  .302E+02  .301E+02
  .299E+02  .298E+02  .298E+02  .298E+02  .298E+02  .298E+02  .297E+02  .297E+02
  .309E+02  .315E+02  .313E+02  .297E+02  .451E+02  .452E+02  .450E+02  .448E+02
  .444E+02  .440E+02  .435E+02  .446E+02  .297E+02  .297E+02  .297E+02  .297E+02
  .297E+02  .297E+02  .297E+02  .308E+02  .377E+02  .297E+02  .467E+02  .524E+02
  .543E+02  .562E+02  .555E+02  .555E+02  .539E+02  .540E+02  .396E+02  .522E+02
  .513E+02  .504E+02  .504E+02  .296E+02  .296E+02  .296E+02  .296E+02  .296E+02
  .296E+02  .296E+02  .296E+02  .296E+02  .296E+02  .296E+02  .000E+00  .000E+00
  .000E+00  .000E+00  .000E+00  .000E+00  .000E+00  .000E+00  .000E+00  .000E+00
  .000E+00  .000E+00  .000E+00  .000E+00  .000E+00  .000E+00  .000E+00  .000E+00
  .000E+00  .000E+00  .000E+00  .000E+00
  .309E+02  .294E+02  .294E+02  .314E+02  .314E+02  .314E+02  .295E+02  .297E+02
  .297E+02  .296E+02  .322E+02  .309E+02  .307E+02  .314E+02  .314E+02  .314E+02
  .297E+02  .297E+02  .297E+02  .350E+02  .298E+02  .298E+02  .301E+02  .302E+02
  .298E+02  .298E+02  .298E+02  .298E+02  .298E+02  .298E+02  .298E+02  .298E+02
  .297E+02  .314E+02  .297E+02  .297E+02  .297E+02  .297E+02  .451E+02  .449E+02
  .297E+02  .297E+02  .297E+02  .297E+02  .297E+02  .297E+02  .297E+02  .297E+02
  .297E+02  .297E+02  .297E+02  .297E+02  .297E+02  .297E+02  .297E+02  .297E+02
  .297E+02  .297E+02  .297E+02  .297E+02  .297E+02  .297E+02  .297E+02  .297E+02
  .297E+02  .297E+02  .297E+02  .297E+02  .297E+02  .297E+02  .297E+02  .297E+02
  .297E+02  .297E+02  .297E+02  .297E+02  .297E+02  .297E+02  .000E+00  .000E+00
  .000E+00  .000E+00  .000E+00  .000E+00  .000E+00  .000E+00  .000E+00  .000E+00
  .000E+00  .000E+00  .000E+00  .000E+00  .000E+00  .000E+00  .000E+00  .000E+00
  .000E+00  .000E+00  .000E+00  .000E+00
  .308E+02  .296E+02  .294E+02  .296E+02  .296E+02  .296E+02  .296E+02  .296E+02
  .296E+02  .297E+02  .322E+02  .309E+02  .305E+02  .314E+02  .314E+02  .296E+02
  .296E+02  .297E+02  .297E+02  .349E+02  .297E+02  .298E+02  .302E+02  .301E+02
  .298E+02  .298E+02  .298E+02  .298E+02  .298E+02  .298E+02  .297E+02  .297E+02
  .309E+02  .315E+02  .313E+02  .297E+02  .451E+02  .452E+02  .450E+02  .448E+02
  .444E+02  .440E+02  .435E+02  .446E+02  .297E+02  .297E+02  .297E+02  .297E+02
  .297E+02  .297E+02  .297E+02  .308E+02  .297E+02  .297E+02  .467E+02  .524E+02
  .542E+02  .562E+02  .554E+02  .555E+02  .539E+02  .539E+02  .396E+02  .521E+02
  .513E+02  .503E+02  .296E+02  .296E+02  .296E+02  .296E+02  .296E+02  .296E+02
  .296E+02  .296E+02  .296E+02  .296E+02  .296E+02  .297E+02  .000E+00  .000E+00
  .000E+00  .000E+00  .000E+00  .000E+00  .000E+00  .000E+00  .000E+00  .000E+00
  .000E+00  .000E+00  .000E+00  .000E+00  .000E+00  .000E+00  .000E+00  .000E+00
  .000E+00  .000E+00  .000E+00  .000E+00
/&   ----------  End of spectral data for channel  1  ----------
Response and Fourier amplitude spectra (78 periods,  .04 -  6.0 sec)   for      
Corrected accelerogram   14935-O0527-20263.06       Chan  2: 360 Deg     from   
Uncorrected Accelerogram Data             Processed: 09/18/20, CGS  ce14935f    
Rcrd of Fri Sep 18, 2020 23:38:28.0 PDT               (Avol1 v2.0, 4/18 CSMIP)  
CSMIP Preliminary Processing            (Origin:  To be determined)             
14935-O0527-20263.06                 Start time:  9/19/20, 06:38:28.0 UTC (GPS) 
Station No. 14935   33.868N, 118.262W    Obsidn  s/n  527  (3 Chns of  3 at Sta)
Carson - Victoria & Avalon                CGS   Data: Acceleration              
Chan  2: 360 Deg                                                                
Rcrd of Fri Sep 18, 2020 23:38:28.0 PDT    Fri Sep 18, 2020 23:38:28.0 PDT      
Hypocenter:  To be determined.               ML:  To be determined.             
Instr Period =  .0049 sec,  Damping =  .700,  Sensitivity = 1.25 v/g            
                        Record Length = 61.000 sec.                             
                                     Uncor Max  =  -.009 g, at   31.060 sec.    
RMS accel of (uncor) record  =        .   Chn. metadata effective date: 03/20/18
Accelerogram bandpass filtered with 3 dB pts at   .30 and 40.00 cyc/sec         
                 instrument- and base-line correcte                             
                                                                                
                                                                                
                                                                                
                                                                                
                                                                                
Rcrd of Fri Sep 18, 2020 23:38:28.0 PDT    Fri Sep 18, 2020 23:38:28.0 PDT      
                                                                                
14935-O0527-20263.06      Carson - Victoria & Avalon    Chan  2: 360 Deg        
                                                                                
14935-O0527-20263.06      Carson - Victoria & Avalon    Chan  2: 360 Deg        
                                                                                
Units for spectra are inches and sec, except Sa is in fraction of g.            
                                                                                
    2  100    2    3    3  200    1    3    1   24   32  527    014935   11    0
    6   38   28    0  263    9   19 2020   10    3  36012200   39   26   74  360
12200    1  100    3  527    1    6  610    2 -999 -999 -999 -999 -999 -999 -999
 -999 -999    3 -99912200    1  202    0   24   20 -999 -999    3    1 -99912200
    312200    4   78    1    3    5    0    0 -999    0    0    1    3    1    2
    2    2    4    0   32   67    0    5 -999    0    0    1    0    0    3  222
    1    0    4    0
      .005      .700    61.000      .001     1.000  1251.000     -.009    31.060
   204.000      .596      .476  -999.000     5.000  -999.000     4.000  -999.000
     5.000    12.080     5.000  -999.000    30.000    30.000  -999.000     -.002
      .008      .010     2.000    15.000    33.868  -118.262      .010      .383
    37.926     -.018      .038    23.000    30.000    30.900      .000   101.300
     1.000    11.003    -8.000  -999.000  -999.000  -999.000  -999.000  -999.000
     6.900     2.000     6.800   980.665      .005    61.000    32.468      .000
  -999.000    40.000  -999.000    61.000      .005      .300  -999.000  -999.000
    32.140    -8.683    38.290     -.441    38.160      .043      .000      .300
    40.000      .005      .005      .000      .005      .017  -999.000  -999.000
      .032      .100      .023      .021      .002      .000  -999.000  -999.000
  -999.000  -999.000  -999.000  -999.000  -999.000  -999.000  -999.000  -999.000
  -999.000  -999.000  -999.000  -999.000
      .050
      .040      .042      .044      .046      .048      .050      .055      .060
      .065      .070      .075      .080      .085      .090      .095      .100
      .110      .120      .130      .140      .150      .160      .170      .180
      .190      .200      .220      .240      .260      .280      .300      .320
      .340      .360      .380      .400      .420      .440      .460      .480
      .500      .550      .600      .650      .700      .750      .800      .850
      .900      .950     1.000     1.100     1.200     1.300     1.400     1.500
     1.600     1.700     1.800     1.900     2.000     2.200     2.400     2.600
     2.800     3.000     3.200     3.400     3.600     3.800     4.000     4.200
     4.400     4.600     4.800     5.000     5.500     6.000      .000      .000
      .000      .000      .000      .000      .000      .000      .000      .000
      .000      .000      .000      .000      .000      .000      .000      .000
      .000      .000      .000      .000
Fourier amplitude spectra in in/sec.
  .000E+00  .000E+00  .000E+00  .000E+00  .000E+00  .000E+00  .000E+00  .000E+00
  .000E+00  .000E+00  .000E+00  .000E+00  .000E+00  .000E+00  .000E+00  .000E+00
  .000E+00  .000E+00  .000E+00  .000E+00  .000E+00  .000E+00  .000E+00  .000E+00
  .000E+00  .000E+00  .000E+00  .000E+00  .000E+00  .000E+00  .000E+00  .000E+00
  .000E+00  .000E+00  .000E+00  .000E+00  .000E+00  .000E+00  .000E+00  .000E+00
  .000E+00  .000E+00  .000E+00  .000E+00  .000E+00  .000E+00  .000E+00  .000E+00
  .000E+00  .000E+00  .000E+00  .000E+00  .000E+00  .000E+00  .000E+00  .000E+00
  .000E+00  .000E+00  .000E+00  .000E+00  .000E+00  .000E+00  .000E+00  .000E+00
  .000E+00  .000E+00  .000E+00  .000E+00  .000E+00  .000E+00  .000E+00  .000E+00
  .000E+00  .000E+00  .000E+00  .000E+00  .000E+00  .000E+00  .000E+00  .000E+00
  .000E+00  .000E+00  .000E+00  .000E+00  .000E+00  .000E+00  .000E+00  .000E+00
  .000E+00  .000E+00  .000E+00  .000E+00  .000E+00  .000E+00  .000E+00  .000E+00
  .000E+00  .000E+00  .000E+00  .000E+00
Damping =  .05. Data of Sd,Sv,Sa,Pssv,ttSd,ttSv,ttSa :
  .176E-03  .219E-03  .247E-03  .283E-03  .364E-03  .457E-03  .635E-03  .858E-03
  .946E-03  .102E-02  .127E-02  .172E-02  .220E-02  .243E-02  .269E-02  .308E-02
  .365E-02  .429E-02  .466E-02  .438E-02  .453E-02  .575E-02  .590E-02  .582E-02
  .761E-02  .945E-02  .115E-01  .105E-01  .131E-01  .140E-01  .186E-01  .222E-01
  .240E-01  .251E-01  .248E-01  .268E-01  .320E-01  .374E-01  .403E-01  .380E-01
