Response and Fourier amplitude spectra (91 periods,  .04 - 15.0 sec)   for      
Corrected accelerogram   14221-L2909-20262.08       Chan  1: 360 Deg     from   
Uncorrected Accelerogram Data             Processed: 09/18/20, CGS  221be008    
Rcrd of Fri Sep 18, 2020 23:38:33.0 PDT               (Avol1 v2.0, 4/18 CSMIP)  
CSMIP Preliminary Processing            (Origin:  To be determined)             
14221-L2909-20262.08                 Start time:  9/19/20, 06:38:33.0 UTC (GPS) 
Station No. 14221   33.888N, 118.410W    Etna    s/n 2909  (3 Chns of  3 at Sta)
Manhattan Beach - Civic Center            CGS   Data: Acceleration              
Chan  1: 360 Deg                                                                
Rcrd of Fri Sep 18, 2020 23:38:33.0 PDT    Fri Sep 18, 2020 23:38:33.0 PDT      
Hypocenter:  To be determined.               ML:  To be determined.             
Instr Period =  .0108 sec,  Damping =  .670,  Sensitivity =  .63 v/g            
                        Record Length = 60.000 sec.                             
                                     Uncor Max  =  -.007 g, at   29.975 sec.    
RMS accel of (uncor) record  =        .   Chn. metadata effective date: 02/13/14
Accelerogram bandpass filtered with 3 dB pts at   .30 and 23.00 cyc/sec         
                 instrument- and base-line correcte                             
                                                                                
                                                                                
                                                                                
                                                                                
                                                                                
Rcrd of Fri Sep 18, 2020 23:38:33.0 PDT    Fri Sep 18, 2020 23:38:33.0 PDT      
                                                                                
14221-L2909-20262.08      Manhattan Beach - Civic Center    Chan  1: 360 Deg    
                                                                                
14221-L2909-20262.08      Manhattan Beach - Civic Center    Chan  1: 360 Deg    
                                                                                
Units for spectra are inches and sec, except Sa is in fraction of g.            
                                                                                
    1  100    1    3    3  200    1    3    1   24   12 2909    014221   11    0
    6   38   33    0  263    9   19 2020   10    3  36014000   39   30   74  360
14000    1  100    3 2909    1    8  700    2 -999 -999 -999 -999 -999 -999 -999
 -999 -999    3 -99912000    1  202    0   18    4 -999 -999    3    1 -99912000
    312000    4   91    1    3    5    0    0 -999    0    0    1    3    1    2
    2    2    4    0   32   67    0    5 -999    0    0    1    0    0    0  222
    0    0    0    0
      .011      .670    70.000      .001     1.000   628.000     -.007    29.975
    92.800      .298      .475  -999.000     5.000  -999.000     4.000  -999.000
     2.500   -13.738     2.500  -999.000    30.000    30.000  -999.000     -.007
     -.008     -.001     2.000    15.000    33.888  -118.410      .016      .257
    16.293     -.019      .017    33.000    30.200    39.500    13.500    86.360
     1.000    11.003    -8.000  -999.000  -999.000  -999.000  -999.000  -999.000
     6.900     2.000     6.800   980.665      .005    60.000    14.770      .000
  -999.000    23.000  -999.000    60.000      .005      .303  -999.000  -999.000
    29.970    -6.318    39.140      .351    39.230      .032      .000      .303
    23.000      .005      .005      .000      .005      .018  -999.000  -999.000
      .026      .180      .021      .021      .003      .000  -999.000  -999.000
  -999.000  -999.000  -999.000  -999.000  -999.000  -999.000  -999.000  -999.000
  -999.000  -999.000  -999.000  -999.000
      .050
      .040      .042      .044      .046      .048      .050      .055      .060
      .065      .070      .075      .080      .085      .090      .095      .100
      .110      .120      .130      .140      .150      .160      .170      .180
      .190      .200      .220      .240      .260      .280      .300      .320
      .340      .360      .380      .400      .420      .440      .460      .480
      .500      .550      .600      .650      .700      .750      .800      .850
      .900      .950     1.000     1.100     1.200     1.300     1.400     1.500
     1.600     1.700     1.800     1.900     2.000     2.200     2.400     2.600
     2.800     3.000     3.200     3.400     3.600     3.800     4.000     4.200
     4.400     4.600     4.800     5.000     5.500     6.000     6.500     7.000
     7.500     8.000     8.500     9.000     9.500    10.000    11.000    12.000
    13.000    14.000    15.000      .000      .000      .000      .000      .000
      .000      .000      .000      .000
Fourier amplitude spectra in in/sec.
  .000E+00  .000E+00  .000E+00  .000E+00  .000E+00  .000E+00  .000E+00  .000E+00
  .000E+00  .000E+00  .000E+00  .000E+00  .000E+00  .000E+00  .000E+00  .000E+00
  .000E+00  .000E+00  .000E+00  .000E+00  .000E+00  .000E+00  .000E+00  .000E+00
  .000E+00  .000E+00  .000E+00  .000E+00  .000E+00  .000E+00  .000E+00  .000E+00
  .000E+00  .000E+00  .000E+00  .000E+00  .000E+00  .000E+00  .000E+00  .000E+00
  .000E+00  .000E+00  .000E+00  .000E+00  .000E+00  .000E+00  .000E+00  .000E+00
  .000E+00  .000E+00  .000E+00  .000E+00  .000E+00  .000E+00  .000E+00  .000E+00
  .000E+00  .000E+00  .000E+00  .000E+00  .000E+00  .000E+00  .000E+00  .000E+00
  .000E+00  .000E+00  .000E+00  .000E+00  .000E+00  .000E+00  .000E+00  .000E+00
  .000E+00  .000E+00  .000E+00  .000E+00  .000E+00  .000E+00  .000E+00  .000E+00
  .000E+00  .000E+00  .000E+00  .000E+00  .000E+00  .000E+00  .000E+00  .000E+00
  .000E+00  .000E+00  .000E+00  .000E+00  .000E+00  .000E+00  .000E+00  .000E+00
  .000E+00  .000E+00  .000E+00  .000E+00
Damping =  .05. Data of Sd,Sv,Sa,Pssv,ttSd,ttSv,ttSa :
  .116E-03  .135E-03  .162E-03  .192E-03  .223E-03  .266E-03  .428E-03  .480E-03
  .755E-03  .812E-03  .971E-03  .128E-02  .128E-02  .131E-02  .144E-02  .150E-02
  .166E-02  .235E-02  .354E-02  .347E-02  .407E-02  .442E-02  .597E-02  .826E-02
  .788E-02  .790E-02  .943E-02  .102E-01  .114E-01  .172E-01  .211E-01  .162E-01
  .202E-01  .261E-01  .240E-01  .192E-01  .184E-01  .214E-01  .265E-01  .294E-01
  .280E-01  .267E-01  .229E-01  .180E-01  .163E-01  .171E-01  .179E-01  .190E-01
  .225E-01  .279E-01  .320E-01  .367E-01  .337E-01  .411E-01  .401E-01  .381E-01
  .337E-01  .302E-01  .260E-01  .212E-01  .194E-01  .176E-01  .178E-01  .207E-01
  .247E-01  .239E-01  .241E-01  .175E-01  .176E-01  .155E-01  .152E-01  .142E-01
  .141E-01  .139E-01  .135E-01  .131E-01  .125E-01  .128E-01  .132E-01  .132E-01
  .132E-01  .130E-01  .129E-01  .128E-01  .128E-01  .128E-01  .126E-01  .127E-01
  .127E-01  .126E-01  .126E-01  .000E+00  .000E+00  .000E+00  .000E+00  .000E+00
  .000E+00  .000E+00  .000E+00  .000E+00
  .905E-02  .107E-01  .120E-01  .132E-01  .161E-01  .208E-01  .388E-01  .451E-01
  .602E-01  .587E-01  .730E-01  .926E-01  .826E-01  .841E-01  .869E-01  .779E-01
  .857E-01  .109E+00  .158E+00  .145E+00  .172E+00  .145E+00  .215E+00  .292E+00
  .263E+00  .249E+00  .275E+00  .256E+00  .246E+00  .366E+00  .439E+00  .320E+00
  .372E+00  .438E+00  .405E+00  .318E+00  .305E+00  .321E+00  .379E+00  .406E+00
  .365E+00  .351E+00  .301E+00  .254E+00  .218E+00  .222E+00  .222E+00  .242E+00
  .211E+00  .207E+00  .237E+00  .198E+00  .186E+00  .219E+00  .217E+00  .187E+00
  .154E+00  .161E+00  .155E+00  .166E+00  .159E+00  .139E+00  .137E+00  .156E+00
  .158E+00  .142E+00  .133E+00  .133E+00  .134E+00  .134E+00  .134E+00  .135E+00
  .137E+00  .138E+00  .138E+00  .138E+00  .138E+00  .137E+00  .138E+00  .138E+00
  .138E+00  .138E+00  .138E+00  .138E+00  .138E+00  .138E+00  .138E+00  .138E+00
  .138E+00  .138E+00  .138E+00  .000E+00  .000E+00  .000E+00  .000E+00  .000E+00
  .000E+00  .000E+00  .000E+00  .000E+00
  .740E-02  .784E-02  .856E-02  .931E-02  .987E-02  .108E-01  .143E-01  .136E-01
  .185E-01  .169E-01  .179E-01  .206E-01  .183E-01  .168E-01  .165E-01  .154E-01
  .140E-01  .169E-01  .216E-01  .181E-01  .186E-01  .177E-01  .213E-01  .262E-01
  .224E-01  .203E-01  .200E-01  .181E-01  .173E-01  .226E-01  .241E-01  .162E-01
  .179E-01  .207E-01  .171E-01  .123E-01  .107E-01  .113E-01  .128E-01  .131E-01
  .115E-01  .908E-02  .655E-02  .440E-02  .342E-02  .314E-02  .288E-02  .273E-02
  .286E-02  .318E-02  .329E-02  .312E-02  .241E-02  .250E-02  .211E-02  .175E-02
  .136E-02  .108E-02  .824E-03  .605E-03  .503E-03  .378E-03  .344E-03  .335E-03
  .327E-03  .280E-03  .246E-03  .160E-03  .142E-03  .113E-03  .105E-03  .104E-03
  .988E-04  .914E-04  .839E-04  .772E-04  .648E-04  .581E-04  .527E-04  .477E-04
  .434E-04  .394E-04  .362E-04  .335E-04  .313E-04  .292E-04  .259E-04  .233E-04
  .211E-04  .193E-04  .177E-04  .000E+00  .000E+00  .000E+00  .000E+00  .000E+00
  .000E+00  .000E+00  .000E+00  .000E+00
  .182E-01  .202E-01  .231E-01  .262E-01  .291E-01  .334E-01  .488E-01  .502E-01
  .730E-01  .729E-01  .814E-01  .100E+00  .949E-01  .913E-01  .954E-01  .943E-01
  .947E-01  .123E+00  .171E+00  .156E+00  .170E+00  .174E+00  .221E+00  .288E+00
  .260E+00  .248E+00  .269E+00  .266E+00  .275E+00  .386E+00  .443E+00  .317E+00
  .373E+00  .456E+00  .397E+00  .301E+00  .275E+00  .305E+00  .361E+00  .385E+00
  .351E+00  .305E+00  .240E+00  .174E+00  .146E+00  .144E+00  .141E+00  .141E+00
  .157E+00  .184E+00  .201E+00  .209E+00  .176E+00  .199E+00  .180E+00  .160E+00
  .132E+00  .112E+00  .908E-01  .700E-01  .610E-01  .503E-01  .467E-01  .499E-01
  .555E-01  .500E-01  .473E-01  .324E-01  .308E-01  .256E-01  .238E-01  .212E-01
  .201E-01  .190E-01  .177E-01  .165E-01  .143E-01  .135E-01  .127E-01  .119E-01
  .111E-01  .102E-01  .950E-02  .897E-02  .849E-02  .801E-02  .722E-02  .666E-02
  .615E-02  .566E-02  .526E-02  .000E+00  .000E+00  .000E+00  .000E+00  .000E+00
  .000E+00  .000E+00  .000E+00  .000E+00
  .276E+02  .297E+02  .300E+02  .300E+02  .300E+02  .295E+02  .297E+02  .300E+02
  .286E+02  .286E+02  .276E+02  .278E+02  .278E+02  .276E+02  .277E+02  .295E+02
  .286E+02  .303E+02  .297E+02  .336E+02  .310E+02  .298E+02  .301E+02  .301E+02
  .301E+02  .301E+02  .302E+02  .392E+02  .393E+02  .394E+02  .394E+02  .395E+02
  .348E+02  .348E+02  .348E+02  .350E+02  .395E+02  .395E+02  .395E+02  .393E+02
  .393E+02  .394E+02  .394E+02  .394E+02  .394E+02  .394E+02  .394E+02  .392E+02
  .475E+02  .475E+02  .481E+02  .487E+02  .500E+02  .502E+02  .478E+02  .478E+02
  .472E+02  .473E+02  .545E+02  .546E+02  .352E+02  .473E+02  .392E+02  .345E+02
  .539E+02  .473E+02  .473E+02  .473E+02  .540E+02  .540E+02  .532E+02  .532E+02
  .392E+02  .392E+02  .392E+02  .392E+02  .392E+02  .392E+02  .392E+02  .392E+02
  .392E+02  .392E+02  .392E+02  .392E+02  .392E+02  .392E+02  .392E+02  .392E+02
  .392E+02  .392E+02  .392E+02  .000E+00  .000E+00  .000E+00  .000E+00  .000E+00
  .000E+00  .000E+00  .000E+00  .000E+00
  .276E+02  .285E+02  .296E+02  .296E+02  .295E+02  .296E+02  .298E+02  .300E+02
  .286E+02  .296E+02  .278E+02  .278E+02  .278E+02  .277E+02  .277E+02  .295E+02
  .286E+02  .304E+02  .303E+02  .310E+02  .310E+02  .297E+02  .300E+02  .300E+02
  .300E+02  .304E+02  .303E+02  .300E+02  .393E+02  .393E+02  .394E+02  .295E+02
  .299E+02  .349E+02  .347E+02  .347E+02  .283E+02  .405E+02  .394E+02  .394E+02
  .395E+02  .393E+02  .393E+02  .393E+02  .393E+02  .393E+02  .393E+02  .393E+02
  .393E+02  .488E+02  .488E+02  .496E+02  .391E+02  .486E+02  .481E+02  .475E+02
  .475E+02  .471E+02  .391E+02  .391E+02  .346E+02  .346E+02  .346E+02  .391E+02
  .391E+02  .391E+02  .391E+02  .391E+02  .391E+02  .391E+02  .391E+02  .391E+02
  .391E+02  .391E+02  .391E+02  .391E+02  .391E+02  .391E+02  .391E+02  .391E+02
  .391E+02  .391E+02  .391E+02  .391E+02  .391E+02  .391E+02  .391E+02  .391E+02
  .391E+02  .391E+02  .391E+02  .000E+00  .000E+00  .000E+00  .000E+00  .000E+00
  .000E+00  .000E+00  .000E+00  .000E+00
  .276E+02  .297E+02  .300E+02  .300E+02  .300E+02  .295E+02  .297E+02  .286E+02
  .286E+02  .286E+02  .276E+02  .278E+02  .278E+02  .276E+02  .276E+02  .295E+02
  .286E+02  .303E+02  .297E+02  .336E+02  .310E+02  .298E+02  .301E+02  .301E+02
  .301E+02  .301E+02  .302E+02  .392E+02  .392E+02  .394E+02  .394E+02  .395E+02
  .348E+02  .348E+02  .348E+02  .350E+02  .395E+02  .395E+02  .395E+02  .393E+02
  .393E+02  .394E+02  .394E+02  .394E+02  .394E+02  .394E+02  .394E+02  .392E+02
  .475E+02  .475E+02  .481E+02  .487E+02  .500E+02  .501E+02  .478E+02  .478E+02
  .472E+02  .473E+02  .545E+02  .546E+02  .352E+02  .473E+02  .392E+02  .345E+02
  .538E+02  .472E+02  .473E+02  .473E+02  .540E+02  .469E+02  .392E+02  .392E+02
  .392E+02  .392E+02  .392E+02  .392E+02  .392E+02  .392E+02  .392E+02  .392E+02
  .392E+02  .392E+02  .392E+02  .391E+02  .391E+02  .391E+02  .391E+02  .391E+02
  .391E+02  .391E+02  .391E+02  .000E+00  .000E+00  .000E+00  .000E+00  .000E+00
  .000E+00  .000E+00  .000E+00  .000E+00
/&   ----------  End of spectral data for channel  1  ----------
Response and Fourier amplitude spectra (91 periods,  .04 - 15.0 sec)   for      
Corrected accelerogram   14221-L2909-20262.08       Chan  2:  Up         from   
Uncorrected Accelerogram Data             Processed: 09/18/20, CGS  221be008    
Rcrd of Fri Sep 18, 2020 23:38:33.0 PDT               (Avol1 v2.0, 4/18 CSMIP)  
CSMIP Preliminary Processing            (Origin:  To be determined)             
14221-L2909-20262.08                 Start time:  9/19/20, 06:38:33.0 UTC (GPS) 
Station No. 14221   33.888N, 118.410W    Etna    s/n 2909  (3 Chns of  3 at Sta)
Manhattan Beach - Civic Center            CGS   Data: Acceleration              
Chan  2:  Up                                                                    
Rcrd of Fri Sep 18, 2020 23:38:33.0 PDT    Fri Sep 18, 2020 23:38:33.0 PDT      
Hypocenter:  To be determined.               ML:  To be determined.             
Instr Period =  .0102 sec,  Damping =  .670,  Sensitivity =  .63 v/g            
                        Record Length = 60.000 sec.                             
                                     Uncor Max  =   .008 g, at   25.520 sec.    
RMS accel of (uncor) record  =        .   Chn. metadata effective date: 02/13/14
Accelerogram bandpass filtered with 3 dB pts at   .30 and 23.00 cyc/sec         
                 instrument- and base-line correcte                             
                                                                                
                                                                                
                                                                                
                                                                                
                                                                                
Rcrd of Fri Sep 18, 2020 23:38:33.0 PDT    Fri Sep 18, 2020 23:38:33.0 PDT      
                                                                                
14221-L2909-20262.08      Manhattan Beach - Civic Center    Chan  2:  Up        
                                                                                
14221-L2909-20262.08      Manhattan Beach - Civic Center    Chan  2:  Up        
                                                                                
Units for spectra are inches and sec, except Sa is in fraction of g.            
                                                                                
    2  100    2    3    3  200    1    3    1   24   12 2909    014221   11    0
    6   38   33    0  263    9   19 2020   10    3  50014000   39   30   74  360
14000    1  100    3 2909    1    8  700    2 -999 -999 -999 -999 -999 -999 -999
 -999 -999    3 -99912000    1  202    0   18    4 -999 -999    3    1 -99912000
    312000    4   91    1    3    5    0    0 -999    0    0    1    3    1    2
    2    2    4    0   32   67    0    5 -999    0    0    1    0    0    0  222
    0    0    0    0
      .010      .670    70.000      .001     1.000   627.000      .008    25.520
    98.100      .298      .475  -999.000     5.000  -999.000     4.000  -999.000
     2.500    26.870     2.500  -999.000    30.000    30.000  -999.000     -.005
      .001      .006     2.000    15.000    33.888  -118.410      .026      .171
     6.551     -.006      .018    33.000    30.200    39.500    13.500    86.360
     1.000    11.003    -8.000  -999.000  -999.000  -999.000  -999.000  -999.000
     6.900     2.000     6.800   980.665      .005    60.000    15.613      .001
  -999.000    23.000  -999.000    60.000      .005      .303  -999.000  -999.000
    25.520     7.251    25.495     -.168    32.830     -.009      .000      .303
    23.000      .005      .005      .000      .005      .010  -999.000  -999.000
      .036      .080      .016      .008      .001      .000  -999.000  -999.000
  -999.000  -999.000  -999.000  -999.000  -999.000  -999.000  -999.000  -999.000
  -999.000  -999.000  -999.000  -999.000
      .050
      .040      .042      .044      .046      .048      .050      .055      .060
      .065      .070      .075      .080      .085      .090      .095      .100
      .110      .120      .130      .140      .150      .160      .170      .180
      .190      .200      .220      .240      .260      .280      .300      .320
      .340      .360      .380      .400      .420      .440      .460      .480
      .500      .550      .600      .650      .700      .750      .800      .850
      .900      .950     1.000     1.100     1.200     1.300     1.400     1.500
     1.600     1.700     1.800     1.900     2.000     2.200     2.400     2.600
     2.800     3.000     3.200     3.400     3.600     3.800     4.000     4.200
     4.400     4.600     4.800     5.000     5.500     6.000     6.500     7.000
     7.500     8.000     8.500     9.000     9.500    10.000    11.000    12.000
    13.000    14.000    15.000      .000      .000      .000      .000      .000
      .000      .000      .000      .000
Fourier amplitude spectra in in/sec.
  .000E+00  .000E+00  .000E+00  .000E+00  .000E+00  .000E+00  .000E+00  .000E+00
  .000E+00  .000E+00  .000E+00  .000E+00  .000E+00  .000E+00  .000E+00  .000E+00
  .000E+00  .000E+00  .000E+00  .000E+00  .000E+00  .000E+00  .000E+00  .000E+00
  .000E+00  .000E+00  .000E+00  .000E+00  .000E+00  .000E+00  .000E+00  .000E+00
  .000E+00  .000E+00  .000E+00  .000E+00  .000E+00  .000E+00  .000E+00  .000E+00
  .000E+00  .000E+00  .000E+00  .000E+00  .000E+00  .000E+00  .000E+00  .000E+00
  .000E+00  .000E+00  .000E+00  .000E+00  .000E+00  .000E+00  .000E+00  .000E+00
  .000E+00  .000E+00  .000E+00  .000E+00  .000E+00  .000E+00  .000E+00  .000E+00
  .000E+00  .000E+00  .000E+00  .000E+00  .000E+00  .000E+00  .000E+00  .000E+00
  .000E+00  .000E+00  .000E+00  .000E+00  .000E+00  .000E+00  .000E+00  .000E+00
  .000E+00  .000E+00  .000E+00  .000E+00  .000E+00  .000E+00  .000E+00  .000E+00
  .000E+00  .000E+00  .000E+00  .000E+00  .000E+00  .000E+00  .000E+00  .000E+00
  .000E+00  .000E+00  .000E+00  .000E+00
Damping =  .05. Data of Sd,Sv,Sa,Pssv,ttSd,ttSv,ttSa :
  .164E-03  .192E-03  .238E-03  .301E-03  .342E-03  .358E-03  .513E-03  .820E-03
  .108E-02  .141E-02  .174E-02  .221E-02  .237E-02  .183E-02  .161E-02  .151E-02
  .150E-02  .229E-02  .304E-02  .351E-02  .335E-02  .400E-02  .483E-02  .559E-02
  .602E-02  .633E-02  .627E-02  .715E-02  .683E-02  .671E-02  .594E-02  .806E-02
  .849E-02  .777E-02  .815E-02  .992E-02  .941E-02  .839E-02  .857E-02  .926E-02
