Response and Fourier amplitude spectra (91 periods,  .04 - 15.0 sec)   for      
Corrected accelerogram   14059-L1835-20263.08       Chan  1: 360 Deg     from   
Uncorrected Accelerogram Data             Processed: 09/19/20, CGS  059bs008    
Rcrd of Fri Sep 18, 2020 23:38:27.0 PDT               (Avol1 v2.0, 4/18 CSMIP)  
CSMIP Preliminary Processing            (Origin:  To be determined)             
14059-L1835-20263.08                 Start time:  9/19/20, 06:38:27.0 UTC (GPS) 
Station No. 14059   33.876N, 118.240W    Etna    s/n 1835  (3 Chns of  3 at Sta)
Compton - Hwy 91 & Wilmington             CGS   Data: Acceleration              
Chan  1: 360 Deg                                                                
Rcrd of Fri Sep 18, 2020 23:38:27.0 PDT    Fri Sep 18, 2020 23:38:27.0 PDT      
Hypocenter:  To be determined.               ML:  To be determined.             
Instr Period =  .0104 sec,  Damping =  .660,  Sensitivity =  .63 v/g            
                        Record Length = 60.000 sec.                             
                                     Uncor Max  =   .043 g, at   30.330 sec.    
RMS accel of (uncor) record  =        .   Chn. metadata effective date: 06/29/17
Accelerogram bandpass filtered with 3 dB pts at   .30 and 23.00 cyc/sec         
                 instrument- and base-line correcte                             
                                                                                
                                                                                
                                                                                
                                                                                
                                                                                
Rcrd of Fri Sep 18, 2020 23:38:27.0 PDT    Fri Sep 18, 2020 23:38:27.0 PDT      
                                                                                
14059-L1835-20263.08      Compton - Hwy 91 & Wilmington   Chan  1: 360 Deg      
                                                                                
14059-L1835-20263.08      Compton - Hwy 91 & Wilmington   Chan  1: 360 Deg      
                                                                                
Units for spectra are inches and sec, except Sa is in fraction of g.            
                                                                                
    1  100    1    3    3  200    1    3    1   24   12 1835    014059   11    0
    6   38   27    0  263    9   19 2020   10    3  36013200   39   29   74  360
13200    1  100    3 1835    1    8  660    2 -999 -999 -999 -999 -999 -999 -999
 -999 -999    3 -99912000    1  202    0   18    4 -999 -999    3    1 -99912000
    312000    4   91    1    3    5    0    0 -999    0    0    1    3    1    2
    2    2    4    0   32   67    0    5 -999    0    0    1    0    0    0  222
    0    0    0    0
      .010      .660    66.000      .003     1.000   625.000      .043    30.330
    96.500      .298      .477  -999.000     5.000  -999.000     4.000  -999.000
     2.500    40.795     2.500  -999.000    30.000    30.000  -999.000      .001
     -.002     -.002     2.000    15.000    33.876  -118.240      .020      .299
    14.999     -.023      .019    32.000    30.400    35.300    13.400    80.060
     1.000    11.003    -8.000  -999.000  -999.000  -999.000  -999.000  -999.000
     6.900     2.000     6.800   980.665      .005    60.000    15.358     -.001
  -999.000    23.000  -999.000    60.000      .005      .303  -999.000  -999.000
    30.330    42.457    30.355      .818    30.490      .057      .000      .303
    23.000      .005      .005      .000      .005      .021  -999.000  -999.000
      .224      .100      .059      .032      .003      .000  -999.000  -999.000
  -999.000  -999.000  -999.000  -999.000  -999.000  -999.000  -999.000  -999.000
  -999.000  -999.000  -999.000  -999.000
      .050
      .040      .042      .044      .046      .048      .050      .055      .060
      .065      .070      .075      .080      .085      .090      .095      .100
      .110      .120      .130      .140      .150      .160      .170      .180
      .190      .200      .220      .240      .260      .280      .300      .320
      .340      .360      .380      .400      .420      .440      .460      .480
      .500      .550      .600      .650      .700      .750      .800      .850
      .900      .950     1.000     1.100     1.200     1.300     1.400     1.500
     1.600     1.700     1.800     1.900     2.000     2.200     2.400     2.600
     2.800     3.000     3.200     3.400     3.600     3.800     4.000     4.200
     4.400     4.600     4.800     5.000     5.500     6.000     6.500     7.000
     7.500     8.000     8.500     9.000     9.500    10.000    11.000    12.000
    13.000    14.000    15.000      .000      .000      .000      .000      .000
      .000      .000      .000      .000
Fourier amplitude spectra in in/sec.
  .000E+00  .000E+00  .000E+00  .000E+00  .000E+00  .000E+00  .000E+00  .000E+00
  .000E+00  .000E+00  .000E+00  .000E+00  .000E+00  .000E+00  .000E+00  .000E+00
  .000E+00  .000E+00  .000E+00  .000E+00  .000E+00  .000E+00  .000E+00  .000E+00
  .000E+00  .000E+00  .000E+00  .000E+00  .000E+00  .000E+00  .000E+00  .000E+00
  .000E+00  .000E+00  .000E+00  .000E+00  .000E+00  .000E+00  .000E+00  .000E+00
  .000E+00  .000E+00  .000E+00  .000E+00  .000E+00  .000E+00  .000E+00  .000E+00
  .000E+00  .000E+00  .000E+00  .000E+00  .000E+00  .000E+00  .000E+00  .000E+00
  .000E+00  .000E+00  .000E+00  .000E+00  .000E+00  .000E+00  .000E+00  .000E+00
  .000E+00  .000E+00  .000E+00  .000E+00  .000E+00  .000E+00  .000E+00  .000E+00
  .000E+00  .000E+00  .000E+00  .000E+00  .000E+00  .000E+00  .000E+00  .000E+00
  .000E+00  .000E+00  .000E+00  .000E+00  .000E+00  .000E+00  .000E+00  .000E+00
  .000E+00  .000E+00  .000E+00  .000E+00  .000E+00  .000E+00  .000E+00  .000E+00
  .000E+00  .000E+00  .000E+00  .000E+00
Damping =  .05. Data of Sd,Sv,Sa,Pssv,ttSd,ttSv,ttSa :
  .770E-03  .905E-03  .102E-02  .113E-02  .125E-02  .137E-02  .197E-02  .252E-02
  .320E-02  .408E-02  .522E-02  .748E-02  .109E-01  .148E-01  .186E-01  .219E-01
  .253E-01  .239E-01  .201E-01  .165E-01  .152E-01  .157E-01  .194E-01  .219E-01
  .233E-01  .231E-01  .240E-01  .319E-01  .318E-01  .297E-01  .286E-01  .242E-01
  .200E-01  .198E-01  .213E-01  .232E-01  .232E-01  .245E-01  .250E-01  .232E-01
  .244E-01  .317E-01  .306E-01  .304E-01  .295E-01  .279E-01  .289E-01  .284E-01
  .276E-01  .288E-01  .310E-01  .364E-01  .400E-01  .410E-01  .419E-01  .406E-01
  .366E-01  .361E-01  .388E-01  .409E-01  .422E-01  .429E-01  .408E-01  .374E-01
  .334E-01  .310E-01  .285E-01  .272E-01  .271E-01  .270E-01  .269E-01  .265E-01
  .263E-01  .262E-01  .260E-01  .259E-01  .257E-01  .250E-01  .243E-01  .241E-01
  .239E-01  .236E-01  .234E-01  .234E-01  .233E-01  .232E-01  .231E-01  .230E-01
  .230E-01  .228E-01  .228E-01  .000E+00  .000E+00  .000E+00  .000E+00  .000E+00
  .000E+00  .000E+00  .000E+00  .000E+00
  .554E-01  .617E-01  .694E-01  .736E-01  .790E-01  .907E-01  .126E+00  .167E+00
  .210E+00  .273E+00  .354E+00  .500E+00  .731E+00  .948E+00  .115E+01  .128E+01
  .140E+01  .122E+01  .958E+00  .838E+00  .817E+00  .694E+00  .670E+00  .722E+00
  .721E+00  .714E+00  .778E+00  .779E+00  .854E+00  .796E+00  .645E+00  .596E+00
  .521E+00  .427E+00  .413E+00  .425E+00  .461E+00  .469E+00  .463E+00  .452E+00
  .439E+00  .407E+00  .373E+00  .375E+00  .358E+00  .357E+00  .359E+00  .356E+00
  .346E+00  .338E+00  .336E+00  .326E+00  .310E+00  .316E+00  .322E+00  .329E+00
  .334E+00  .331E+00  .326E+00  .324E+00  .322E+00  .317E+00  .308E+00  .307E+00
  .309E+00  .309E+00  .312E+00  .314E+00  .316E+00  .317E+00  .318E+00  .318E+00
  .319E+00  .319E+00  .319E+00  .320E+00  .320E+00  .321E+00  .321E+00  .320E+00
  .320E+00  .320E+00  .320E+00  .320E+00  .320E+00  .320E+00  .320E+00  .320E+00
  .320E+00  .320E+00  .320E+00  .000E+00  .000E+00  .000E+00  .000E+00  .000E+00
  .000E+00  .000E+00  .000E+00  .000E+00
  .494E-01  .524E-01  .539E-01  .547E-01  .557E-01  .563E-01  .664E-01  .719E-01
  .773E-01  .856E-01  .960E-01  .121E+00  .154E+00  .187E+00  .211E+00  .224E+00
  .216E+00  .171E+00  .122E+00  .868E-01  .697E-01  .627E-01  .689E-01  .694E-01
  .663E-01  .594E-01  .509E-01  .569E-01  .485E-01  .390E-01  .328E-01  .244E-01
  .178E-01  .157E-01  .151E-01  .149E-01  .136E-01  .130E-01  .122E-01  .104E-01
  .100E-01  .108E-01  .873E-02  .740E-02  .625E-02  .510E-02  .466E-02  .409E-02
  .356E-02  .335E-02  .326E-02  .316E-02  .291E-02  .250E-02  .220E-02  .188E-02
  .151E-02  .137E-02  .132E-02  .125E-02  .118E-02  .101E-02  .821E-03  .662E-03
  .529E-03  .443E-03  .373E-03  .329E-03  .299E-03  .274E-03  .252E-03  .232E-03
  .214E-03  .200E-03  .187E-03  .175E-03  .152E-03  .132E-03  .116E-03  .105E-03
  .947E-04  .864E-04  .794E-04  .735E-04  .684E-04  .640E-04  .565E-04  .506E-04
  .458E-04  .420E-04  .389E-04  .000E+00  .000E+00  .000E+00  .000E+00  .000E+00
  .000E+00  .000E+00  .000E+00  .000E+00
  .121E+00  .135E+00  .145E+00  .155E+00  .164E+00  .172E+00  .225E+00  .263E+00
  .310E+00  .366E+00  .437E+00  .588E+00  .806E+00  .104E+01  .123E+01  .137E+01
  .145E+01  .125E+01  .971E+00  .742E+00  .638E+00  .615E+00  .717E+00  .764E+00
  .769E+00  .725E+00  .686E+00  .835E+00  .769E+00  .666E+00  .600E+00  .475E+00
  .369E+00  .346E+00  .352E+00  .364E+00  .347E+00  .350E+00  .342E+00  .304E+00
  .306E+00  .362E+00  .320E+00  .294E+00  .265E+00  .233E+00  .227E+00  .210E+00
  .192E+00  .191E+00  .195E+00  .208E+00  .209E+00  .198E+00  .188E+00  .170E+00
  .144E+00  .134E+00  .135E+00  .135E+00  .133E+00  .123E+00  .107E+00  .904E-01
  .750E-01  .649E-01  .560E-01  .503E-01  .473E-01  .446E-01  .422E-01  .397E-01
  .375E-01  .358E-01  .341E-01  .325E-01  .294E-01  .262E-01  .235E-01  .216E-01
  .200E-01  .186E-01  .173E-01  .163E-01  .154E-01  .146E-01  .132E-01  .121E-01
  .111E-01  .102E-01  .954E-02  .000E+00  .000E+00  .000E+00  .000E+00  .000E+00
  .000E+00  .000E+00  .000E+00  .000E+00
  .304E+02  .304E+02  .304E+02  .303E+02  .303E+02  .303E+02  .303E+02  .303E+02
  .304E+02  .304E+02  .304E+02  .304E+02  .304E+02  .304E+02  .305E+02  .305E+02
  .305E+02  .306E+02  .306E+02  .304E+02  .304E+02  .307E+02  .307E+02  .307E+02
  .308E+02  .308E+02  .309E+02  .311E+02  .311E+02  .310E+02  .311E+02  .311E+02
  .318E+02  .365E+02  .366E+02  .366E+02  .366E+02  .315E+02  .315E+02  .320E+02
  .400E+02  .407E+02  .407E+02  .405E+02  .319E+02  .320E+02  .317E+02  .317E+02
  .313E+02  .318E+02  .318E+02  .314E+02  .314E+02  .314E+02  .315E+02  .315E+02
  .315E+02  .311E+02  .311E+02  .311E+02  .311E+02  .311E+02  .311E+02  .311E+02
  .311E+02  .311E+02  .311E+02  .305E+02  .305E+02  .305E+02  .305E+02  .305E+02
  .305E+02  .305E+02  .305E+02  .305E+02  .305E+02  .305E+02  .305E+02  .305E+02
  .305E+02  .305E+02  .305E+02  .305E+02  .305E+02  .305E+02  .305E+02  .305E+02
  .305E+02  .305E+02  .305E+02  .000E+00  .000E+00  .000E+00  .000E+00  .000E+00
  .000E+00  .000E+00  .000E+00  .000E+00
  .304E+02  .303E+02  .303E+02  .303E+02  .303E+02  .303E+02  .303E+02  .303E+02
  .304E+02  .304E+02  .304E+02  .304E+02  .304E+02  .304E+02  .305E+02  .305E+02
  .305E+02  .306E+02  .304E+02  .303E+02  .303E+02  .303E+02  .307E+02  .307E+02
  .308E+02  .308E+02  .309E+02  .311E+02  .311E+02  .311E+02  .311E+02  .310E+02
  .310E+02  .310E+02  .318E+02  .318E+02  .305E+02  .305E+02  .305E+02  .305E+02
  .305E+02  .305E+02  .303E+02  .320E+02  .303E+02  .318E+02  .318E+02  .315E+02
  .315E+02  .315E+02  .315E+02  .315E+02  .305E+02  .305E+02  .305E+02  .313E+02
  .313E+02  .313E+02  .305E+02  .305E+02  .305E+02  .305E+02  .305E+02  .310E+02
  .310E+02  .303E+02  .303E+02  .303E+02  .303E+02  .303E+02  .303E+02  .303E+02
  .303E+02  .303E+02  .303E+02  .303E+02  .303E+02  .303E+02  .303E+02  .303E+02
  .303E+02  .303E+02  .303E+02  .303E+02  .303E+02  .303E+02  .303E+02  .303E+02
  .303E+02  .303E+02  .303E+02  .000E+00  .000E+00  .000E+00  .000E+00  .000E+00
  .000E+00  .000E+00  .000E+00  .000E+00
  .304E+02  .304E+02  .304E+02  .303E+02  .303E+02  .303E+02  .303E+02  .303E+02
  .304E+02  .304E+02  .304E+02  .304E+02  .304E+02  .304E+02  .305E+02  .305E+02
  .305E+02  .306E+02  .306E+02  .304E+02  .304E+02  .307E+02  .307E+02  .307E+02
  .308E+02  .308E+02  .308E+02  .311E+02  .311E+02  .310E+02  .311E+02  .311E+02
  .318E+02  .365E+02  .366E+02  .366E+02  .366E+02  .315E+02  .315E+02  .320E+02
  .400E+02  .407E+02  .407E+02  .405E+02  .319E+02  .315E+02  .316E+02  .317E+02
  .313E+02  .318E+02  .318E+02  .313E+02  .313E+02  .313E+02  .314E+02  .315E+02
  .315E+02  .310E+02  .310E+02  .310E+02  .310E+02  .310E+02  .310E+02  .310E+02
  .310E+02  .310E+02  .310E+02  .305E+02  .305E+02  .305E+02  .305E+02  .305E+02
  .305E+02  .305E+02  .305E+02  .305E+02  .305E+02  .305E+02  .305E+02  .305E+02
  .305E+02  .305E+02  .305E+02  .305E+02  .305E+02  .305E+02  .305E+02  .305E+02
  .305E+02  .303E+02  .303E+02  .000E+00  .000E+00  .000E+00  .000E+00  .000E+00
  .000E+00  .000E+00  .000E+00  .000E+00
/&   ----------  End of spectral data for channel  1  ----------
Response and Fourier amplitude spectra (91 periods,  .04 - 15.0 sec)   for      
Corrected accelerogram   14059-L1835-20263.08       Chan  2:  Up         from   
Uncorrected Accelerogram Data             Processed: 09/19/20, CGS  059bs008    
Rcrd of Fri Sep 18, 2020 23:38:27.0 PDT               (Avol1 v2.0, 4/18 CSMIP)  
CSMIP Preliminary Processing            (Origin:  To be determined)             
14059-L1835-20263.08                 Start time:  9/19/20, 06:38:27.0 UTC (GPS) 
Station No. 14059   33.876N, 118.240W    Etna    s/n 1835  (3 Chns of  3 at Sta)
Compton - Hwy 91 & Wilmington             CGS   Data: Acceleration              
Chan  2:  Up                                                                    
Rcrd of Fri Sep 18, 2020 23:38:27.0 PDT    Fri Sep 18, 2020 23:38:27.0 PDT      
Hypocenter:  To be determined.               ML:  To be determined.             
Instr Period =  .0103 sec,  Damping =  .670,  Sensitivity =  .63 v/g            
                        Record Length = 60.000 sec.                             
                                     Uncor Max  =  -.015 g, at   31.555 sec.    
RMS accel of (uncor) record  =        .   Chn. metadata effective date: 06/29/17
Accelerogram bandpass filtered with 3 dB pts at   .30 and 23.00 cyc/sec         
                 instrument- and base-line correcte                             
                                                                                
                                                                                
                                                                                
                                                                                
                                                                                
Rcrd of Fri Sep 18, 2020 23:38:27.0 PDT    Fri Sep 18, 2020 23:38:27.0 PDT      
                                                                                
14059-L1835-20263.08      Compton - Hwy 91 & Wilmington   Chan  2:  Up          
                                                                                
14059-L1835-20263.08      Compton - Hwy 91 & Wilmington   Chan  2:  Up          
                                                                                
Units for spectra are inches and sec, except Sa is in fraction of g.            
                                                                                
    2  100    2    3    3  200    1    3    1   24   12 1835    014059   11    0
    6   38   27    0  263    9   19 2020   10    3  50013200   39   29   74  360
13200    1  100    3 1835    1    8  660    2 -999 -999 -999 -999 -999 -999 -999
 -999 -999    3 -99912000    1  202    0   18    4 -999 -999    3    1 -99912000
    312000    4   91    1    3    5    0    0 -999    0    0    1    3    1    2
    2    2    4    0   32   67    0    5 -999    0    0    1    0    0    0  222
    0    0    0    0
      .010      .670    66.000      .001     1.000   627.000     -.015    31.555
    97.000      .298      .475  -999.000     5.000  -999.000     4.000  -999.000
     2.500   -16.239     2.500  -999.000    30.000    30.000  -999.000      .000
     -.002     -.002     2.000    15.000    33.876  -118.240      .065      .207
     3.169     -.019      .015    32.000    30.400    35.300    13.400    80.060
     1.000    11.003    -8.000  -999.000  -999.000  -999.000  -999.000  -999.000
     6.900     2.000     6.800   980.665      .005    60.000    15.438     -.001
  -999.000    23.000  -999.000    60.000      .005      .303  -999.000  -999.000
    31.550   -14.275    30.870      .294    30.830     -.014      .000      .303
    23.000      .005      .005      .000      .005      .013  -999.000  -999.000
      .052      .100      .027      .017      .001      .000  -999.000  -999.000
  -999.000  -999.000  -999.000  -999.000  -999.000  -999.000  -999.000  -999.000
  -999.000  -999.000  -999.000  -999.000
      .050
      .040      .042      .044      .046      .048      .050      .055      .060
      .065      .070      .075      .080      .085      .090      .095      .100
      .110      .120      .130      .140      .150      .160      .170      .180
      .190      .200      .220      .240      .260      .280      .300      .320
      .340      .360      .380      .400      .420      .440      .460      .480
      .500      .550      .600      .650      .700      .750      .800      .850
      .900      .950     1.000     1.100     1.200     1.300     1.400     1.500
     1.600     1.700     1.800     1.900     2.000     2.200     2.400     2.600
     2.800     3.000     3.200     3.400     3.600     3.800     4.000     4.200
     4.400     4.600     4.800     5.000     5.500     6.000     6.500     7.000
     7.500     8.000     8.500     9.000     9.500    10.000    11.000    12.000
    13.000    14.000    15.000      .000      .000      .000      .000      .000
      .000      .000      .000      .000
Fourier amplitude spectra in in/sec.
  .000E+00  .000E+00  .000E+00  .000E+00  .000E+00  .000E+00  .000E+00  .000E+00
  .000E+00  .000E+00  .000E+00  .000E+00  .000E+00  .000E+00  .000E+00  .000E+00
  .000E+00  .000E+00  .000E+00  .000E+00  .000E+00  .000E+00  .000E+00  .000E+00
  .000E+00  .000E+00  .000E+00  .000E+00  .000E+00  .000E+00  .000E+00  .000E+00
  .000E+00  .000E+00  .000E+00  .000E+00  .000E+00  .000E+00  .000E+00  .000E+00
  .000E+00  .000E+00  .000E+00  .000E+00  .000E+00  .000E+00  .000E+00  .000E+00
  .000E+00  .000E+00  .000E+00  .000E+00  .000E+00  .000E+00  .000E+00  .000E+00
  .000E+00  .000E+00  .000E+00  .000E+00  .000E+00  .000E+00  .000E+00  .000E+00
  .000E+00  .000E+00  .000E+00  .000E+00  .000E+00  .000E+00  .000E+00  .000E+00
  .000E+00  .000E+00  .000E+00  .000E+00  .000E+00  .000E+00  .000E+00  .000E+00
  .000E+00  .000E+00  .000E+00  .000E+00  .000E+00  .000E+00  .000E+00  .000E+00
  .000E+00  .000E+00  .000E+00  .000E+00  .000E+00  .000E+00  .000E+00  .000E+00
  .000E+00  .000E+00  .000E+00  .000E+00
Damping =  .05. Data of Sd,Sv,Sa,Pssv,ttSd,ttSv,ttSa :
  .287E-03  .339E-03  .381E-03  .396E-03  .460E-03  .534E-03  .675E-03  .967E-03
  .158E-02  .211E-02  .206E-02  .200E-02  .247E-02  .304E-02  .422E-02  .502E-02
  .551E-02  .714E-02  .832E-02  .660E-02  .599E-02  .671E-02  .681E-02  .655E-02
  .931E-02  .111E-01  .123E-01  .125E-01  .116E-01  .145E-01  .152E-01  .160E-01
  .167E-01  .177E-01  .200E-01  .157E-01  .121E-01  .116E-01  .126E-01  .117E-01
