Response and Fourier amplitude spectra (78 periods,  .04 -  6.0 sec)   for      
Corrected accelerogram   23173-O0188-20263.13       Chan  1:  Up         from   
Uncorrected Accelerogram Data             Processed: 09/19/20, CGS  ce23173m    
Rcrd of Fri Sep 18, 2020 23:38:31.0 PDT               (Avol1 v2.0, 4/18 CSMIP)  
CSMIP Preliminary Processing            (Origin:  To be determined)             
23173-O0188-20263.13                 Start time:  9/19/20, 06:38:31.0 UTC (GPS) 
Station No. 23173   34.002N, 117.814W    Obsidn  s/n  188  (3 Chns of  3 at Sta)
Diamond Bar - Grand & Diamond Bar Blvd    CGS   Data: Acceleration              
Chan  1:  Up                                                                    
Rcrd of Fri Sep 18, 2020 23:38:31.0 PDT    Fri Sep 18, 2020 23:38:31.0 PDT      
Hypocenter:  To be determined.               ML:  To be determined.             
Instr Period =  .0049 sec,  Damping =  .700,  Sensitivity = 1.25 v/g            
                        Record Length = 56.000 sec.                             
                                     Uncor Max  =   .007 g, at   25.370 sec.    
RMS accel of (uncor) record  =        .   Chn. metadata effective date: 09/16/15
Accelerogram bandpass filtered with 3 dB pts at   .30 and 40.00 cyc/sec         
                 instrument- and base-line correcte                             
                                                                                
                                                                                
                                                                                
                                                                                
                                                                                
Rcrd of Fri Sep 18, 2020 23:38:31.0 PDT    Fri Sep 18, 2020 23:38:31.0 PDT      
                                                                                
23173-O0188-20263.13      Diamond Bar - Grand & Diamond Bar Blvd    Chan  1:  Up
                                                                                
23173-O0188-20263.13      Diamond Bar - Grand & Diamond Bar Blvd    Chan  1:  Up
                                                                                
Units for spectra are inches and sec, except Sa is in fraction of g.            
                                                                                
    1  100    1    3    3  200    1    3    1   24   32  188    023173   11    0
    6   38   31    0  263    9   19 2020   10    3  50011200   39   38   74  360
11200    1  100    3  188    1   13  560    2 -999 -999 -999 -999 -999 -999 -999
 -999 -999    3 -99911200    1  202    0   24   20 -999 -999    3    1 -99911200
    311200    4   78    1    3    5    0    0 -999    0    0    1    3    1    2
    2    2    4    0   32   67    0    5 -999    0    0    1    0    0    0  222
    1    0    2    0
      .005      .700    56.000      .001     1.000  1253.800      .007    25.370
   206.000      .596      .475  -999.000     5.000  -999.000     4.000  -999.000
     5.000   -14.444     5.000  -999.000    25.000    30.000  -999.000      .001
      .001      .000     2.000    15.000    34.002  -117.814      .012      .095
     8.180     -.007      .008   279.000    25.000    25.900    13.300   103.460
     1.000    11.003    -8.000  -999.000  -999.000  -999.000  -999.000  -999.000
     6.900     2.000     6.800   980.665      .005    56.000    32.786      .000
  -999.000    40.000  -999.000    56.000      .005      .300  -999.000  -999.000
    25.410    -6.774    25.060      .124    30.200      .007      .000      .300
    40.000      .005      .005      .000      .005      .005  -999.000  -999.000
      .029      .110      .008      .005      .000      .000  -999.000  -999.000
  -999.000  -999.000  -999.000  -999.000  -999.000  -999.000  -999.000  -999.000
  -999.000  -999.000  -999.000  -999.000
      .050
      .040      .042      .044      .046      .048      .050      .055      .060
      .065      .070      .075      .080      .085      .090      .095      .100
      .110      .120      .130      .140      .150      .160      .170      .180
      .190      .200      .220      .240      .260      .280      .300      .320
      .340      .360      .380      .400      .420      .440      .460      .480
      .500      .550      .600      .650      .700      .750      .800      .850
      .900      .950     1.000     1.100     1.200     1.300     1.400     1.500
     1.600     1.700     1.800     1.900     2.000     2.200     2.400     2.600
     2.800     3.000     3.200     3.400     3.600     3.800     4.000     4.200
     4.400     4.600     4.800     5.000     5.500     6.000      .000      .000
      .000      .000      .000      .000      .000      .000      .000      .000
      .000      .000      .000      .000      .000      .000      .000      .000
      .000      .000      .000      .000
Fourier amplitude spectra in in/sec.
  .000E+00  .000E+00  .000E+00  .000E+00  .000E+00  .000E+00  .000E+00  .000E+00
  .000E+00  .000E+00  .000E+00  .000E+00  .000E+00  .000E+00  .000E+00  .000E+00
  .000E+00  .000E+00  .000E+00  .000E+00  .000E+00  .000E+00  .000E+00  .000E+00
  .000E+00  .000E+00  .000E+00  .000E+00  .000E+00  .000E+00  .000E+00  .000E+00
  .000E+00  .000E+00  .000E+00  .000E+00  .000E+00  .000E+00  .000E+00  .000E+00
  .000E+00  .000E+00  .000E+00  .000E+00  .000E+00  .000E+00  .000E+00  .000E+00
  .000E+00  .000E+00  .000E+00  .000E+00  .000E+00  .000E+00  .000E+00  .000E+00
  .000E+00  .000E+00  .000E+00  .000E+00  .000E+00  .000E+00  .000E+00  .000E+00
  .000E+00  .000E+00  .000E+00  .000E+00  .000E+00  .000E+00  .000E+00  .000E+00
  .000E+00  .000E+00  .000E+00  .000E+00  .000E+00  .000E+00  .000E+00  .000E+00
  .000E+00  .000E+00  .000E+00  .000E+00  .000E+00  .000E+00  .000E+00  .000E+00
  .000E+00  .000E+00  .000E+00  .000E+00  .000E+00  .000E+00  .000E+00  .000E+00
  .000E+00  .000E+00  .000E+00  .000E+00
Damping =  .05. Data of Sd,Sv,Sa,Pssv,ttSd,ttSv,ttSa :
  .231E-03  .307E-03  .371E-03  .366E-03  .423E-03  .437E-03  .688E-03  .940E-03
  .944E-03  .109E-02  .108E-02  .133E-02  .169E-02  .206E-02  .217E-02  .264E-02
  .342E-02  .238E-02  .187E-02  .268E-02  .283E-02  .354E-02  .351E-02  .346E-02
  .328E-02  .295E-02  .302E-02  .431E-02  .382E-02  .408E-02  .457E-02  .554E-02
  .383E-02  .422E-02  .403E-02  .525E-02  .529E-02  .504E-02  .534E-02  .567E-02
  .693E-02  .676E-02  .562E-02  .560E-02  .491E-02  .447E-02  .473E-02  .431E-02
  .414E-02  .463E-02  .477E-02  .440E-02  .366E-02  .363E-02  .363E-02  .385E-02
  .465E-02  .527E-02  .503E-02  .542E-02  .555E-02  .712E-02  .786E-02  .576E-02
  .495E-02  .461E-02  .383E-02  .368E-02  .370E-02  .368E-02  .337E-02  .303E-02
  .303E-02  .301E-02  .297E-02  .294E-02  .300E-02  .295E-02  .000E+00  .000E+00
  .000E+00  .000E+00  .000E+00  .000E+00  .000E+00  .000E+00  .000E+00  .000E+00
  .000E+00  .000E+00  .000E+00  .000E+00  .000E+00  .000E+00  .000E+00  .000E+00
  .000E+00  .000E+00  .000E+00  .000E+00
  .292E-01  .386E-01  .432E-01  .445E-01  .502E-01  .490E-01  .632E-01  .854E-01
  .808E-01  .968E-01  .886E-01  .103E+00  .117E+00  .144E+00  .145E+00  .168E+00
  .202E+00  .138E+00  .966E-01  .127E+00  .132E+00  .141E+00  .139E+00  .129E+00
  .116E+00  .117E+00  .118E+00  .129E+00  .116E+00  .935E-01  .120E+00  .116E+00
  .121E+00  .104E+00  .823E-01  .852E-01  .104E+00  .113E+00  .102E+00  .882E-01
  .108E+00  .965E-01  .851E-01  .715E-01  .678E-01  .608E-01  .558E-01  .565E-01
  .564E-01  .566E-01  .574E-01  .592E-01  .559E-01  .514E-01  .495E-01  .491E-01
  .491E-01  .487E-01  .478E-01  .499E-01  .514E-01  .512E-01  .494E-01  .478E-01
  .474E-01  .475E-01  .478E-01  .479E-01  .480E-01  .481E-01  .483E-01  .484E-01
  .485E-01  .486E-01  .487E-01  .487E-01  .488E-01  .488E-01  .000E+00  .000E+00
  .000E+00  .000E+00  .000E+00  .000E+00  .000E+00  .000E+00  .000E+00  .000E+00
  .000E+00  .000E+00  .000E+00  .000E+00  .000E+00  .000E+00  .000E+00  .000E+00
  .000E+00  .000E+00  .000E+00  .000E+00
  .147E-01  .180E-01  .197E-01  .177E-01  .189E-01  .177E-01  .231E-01  .272E-01
  .228E-01  .230E-01  .198E-01  .213E-01  .239E-01  .260E-01  .245E-01  .271E-01
  .293E-01  .169E-01  .113E-01  .141E-01  .130E-01  .142E-01  .125E-01  .110E-01
  .932E-02  .761E-02  .642E-02  .769E-02  .583E-02  .537E-02  .523E-02  .559E-02
  .341E-02  .337E-02  .287E-02  .338E-02  .308E-02  .269E-02  .262E-02  .254E-02
  .286E-02  .230E-02  .162E-02  .136E-02  .104E-02  .815E-03  .762E-03  .621E-03
  .534E-03  .530E-03  .495E-03  .375E-03  .266E-03  .222E-03  .197E-03  .183E-03
  .194E-03  .190E-03  .166E-03  .161E-03  .147E-03  .153E-03  .145E-03  .935E-04
  .711E-04  .597E-04  .452E-04  .393E-04  .352E-04  .328E-04  .306E-04  .287E-04
  .268E-04  .250E-04  .234E-04  .219E-04  .189E-04  .165E-04  .000E+00  .000E+00
  .000E+00  .000E+00  .000E+00  .000E+00  .000E+00  .000E+00  .000E+00  .000E+00
  .000E+00  .000E+00  .000E+00  .000E+00  .000E+00  .000E+00  .000E+00  .000E+00
  .000E+00  .000E+00  .000E+00  .000E+00
  .363E-01  .459E-01  .530E-01  .500E-01  .554E-01  .549E-01  .786E-01  .984E-01
  .913E-01  .977E-01  .906E-01  .105E+00  .125E+00  .144E+00  .143E+00  .166E+00
  .195E+00  .125E+00  .902E-01  .120E+00  .119E+00  .139E+00  .130E+00  .121E+00
  .108E+00  .926E-01  .863E-01  .113E+00  .923E-01  .915E-01  .957E-01  .109E+00
  .708E-01  .736E-01  .666E-01  .824E-01  .792E-01  .720E-01  .730E-01  .743E-01
  .871E-01  .773E-01  .588E-01  .541E-01  .441E-01  .374E-01  .372E-01  .319E-01
  .289E-01  .306E-01  .300E-01  .251E-01  .192E-01  .175E-01  .163E-01  .161E-01
  .182E-01  .195E-01  .176E-01  .179E-01  .174E-01  .203E-01  .206E-01  .139E-01
  .111E-01  .965E-02  .751E-02  .680E-02  .645E-02  .608E-02  .529E-02  .453E-02
  .433E-02  .411E-02  .388E-02  .369E-02  .343E-02  .309E-02  .000E+00  .000E+00
  .000E+00  .000E+00  .000E+00  .000E+00  .000E+00  .000E+00  .000E+00  .000E+00
  .000E+00  .000E+00  .000E+00  .000E+00  .000E+00  .000E+00  .000E+00  .000E+00
  .000E+00  .000E+00  .000E+00  .000E+00
  .248E+02  .250E+02  .250E+02  .250E+02  .249E+02  .249E+02  .254E+02  .254E+02
  .254E+02  .261E+02  .261E+02  .265E+02  .252E+02  .252E+02  .252E+02  .252E+02
  .254E+02  .255E+02  .264E+02  .249E+02  .247E+02  .264E+02  .264E+02  .264E+02
  .266E+02  .248E+02  .251E+02  .266E+02  .252E+02  .254E+02  .283E+02  .254E+02
  .253E+02  .283E+02  .283E+02  .322E+02  .324E+02  .260E+02  .260E+02  .284E+02
  .284E+02  .282E+02  .267E+02  .282E+02  .282E+02  .280E+02  .321E+02  .321E+02
  .321E+02  .360E+02  .356E+02  .356E+02  .347E+02  .448E+02  .321E+02  .321E+02
  .321E+02  .321E+02  .315E+02  .335E+02  .335E+02  .338E+02  .319E+02  .319E+02
  .302E+02  .302E+02  .278E+02  .278E+02  .319E+02  .319E+02  .319E+02  .282E+02
  .252E+02  .252E+02  .252E+02  .252E+02  .302E+02  .302E+02  .000E+00  .000E+00
  .000E+00  .000E+00  .000E+00  .000E+00  .000E+00  .000E+00  .000E+00  .000E+00
  .000E+00  .000E+00  .000E+00  .000E+00  .000E+00  .000E+00  .000E+00  .000E+00
  .000E+00  .000E+00  .000E+00  .000E+00
  .248E+02  .250E+02  .250E+02  .249E+02  .249E+02  .249E+02  .254E+02  .254E+02
  .254E+02  .283E+02  .261E+02  .265E+02  .252E+02  .252E+02  .252E+02  .252E+02
  .255E+02  .254E+02  .261E+02  .261E+02  .251E+02  .264E+02  .247E+02  .247E+02
  .268E+02  .247E+02  .251E+02  .251E+02  .254E+02  .246E+02  .245E+02  .254E+02
  .254E+02  .254E+02  .302E+02  .264E+02  .263E+02  .263E+02  .263E+02  .283E+02
  .283E+02  .281E+02  .260E+02  .281E+02  .281E+02  .282E+02  .252E+02  .252E+02
  .251E+02  .264E+02  .264E+02  .251E+02  .251E+02  .247E+02  .247E+02  .247E+02
  .247E+02  .247E+02  .247E+02  .263E+02  .263E+02  .263E+02  .263E+02  .263E+02
  .251E+02  .251E+02  .251E+02  .251E+02  .251E+02  .251E+02  .251E+02  .251E+02
  .251E+02  .251E+02  .251E+02  .251E+02  .251E+02  .251E+02  .000E+00  .000E+00
  .000E+00  .000E+00  .000E+00  .000E+00  .000E+00  .000E+00  .000E+00  .000E+00
  .000E+00  .000E+00  .000E+00  .000E+00  .000E+00  .000E+00  .000E+00  .000E+00
  .000E+00  .000E+00  .000E+00  .000E+00
  .248E+02  .250E+02  .250E+02  .250E+02  .249E+02  .249E+02  .254E+02  .254E+02
  .254E+02  .261E+02  .261E+02  .265E+02  .252E+02  .252E+02  .252E+02  .252E+02
  .254E+02  .255E+02  .262E+02  .249E+02  .247E+02  .264E+02  .264E+02  .264E+02
  .266E+02  .248E+02  .251E+02  .265E+02  .251E+02  .254E+02  .283E+02  .254E+02
  .253E+02  .283E+02  .283E+02  .322E+02  .324E+02  .260E+02  .260E+02  .283E+02
  .284E+02  .282E+02  .267E+02  .282E+02  .282E+02  .280E+02  .321E+02  .321E+02
  .321E+02  .360E+02  .356E+02  .356E+02  .347E+02  .448E+02  .321E+02  .321E+02
  .321E+02  .321E+02  .315E+02  .334E+02  .334E+02  .338E+02  .319E+02  .319E+02
  .302E+02  .302E+02  .302E+02  .278E+02  .252E+02  .252E+02  .252E+02  .252E+02
  .252E+02  .252E+02  .252E+02  .252E+02  .252E+02  .252E+02  .000E+00  .000E+00
  .000E+00  .000E+00  .000E+00  .000E+00  .000E+00  .000E+00  .000E+00  .000E+00
  .000E+00  .000E+00  .000E+00  .000E+00  .000E+00  .000E+00  .000E+00  .000E+00
  .000E+00  .000E+00  .000E+00  .000E+00
/&   ----------  End of spectral data for channel  1  ----------
Response and Fourier amplitude spectra (78 periods,  .04 -  6.0 sec)   for      
Corrected accelerogram   23173-O0188-20263.13       Chan  2: 360 Deg     from   
Uncorrected Accelerogram Data             Processed: 09/19/20, CGS  ce23173m    
Rcrd of Fri Sep 18, 2020 23:38:31.0 PDT               (Avol1 v2.0, 4/18 CSMIP)  
CSMIP Preliminary Processing            (Origin:  To be determined)             
23173-O0188-20263.13                 Start time:  9/19/20, 06:38:31.0 UTC (GPS) 
Station No. 23173   34.002N, 117.814W    Obsidn  s/n  188  (3 Chns of  3 at Sta)
Diamond Bar - Grand & Diamond Bar Blvd    CGS   Data: Acceleration              
Chan  2: 360 Deg                                                                
Rcrd of Fri Sep 18, 2020 23:38:31.0 PDT    Fri Sep 18, 2020 23:38:31.0 PDT      
Hypocenter:  To be determined.               ML:  To be determined.             
Instr Period =  .0051 sec,  Damping =  .700,  Sensitivity = 1.25 v/g            
                        Record Length = 56.000 sec.                             
                                     Uncor Max  =   .014 g, at   25.385 sec.    
RMS accel of (uncor) record  =        .   Chn. metadata effective date: 09/16/15
Accelerogram bandpass filtered with 3 dB pts at   .30 and 40.00 cyc/sec         
                 instrument- and base-line correcte                             
                                                                                
                                                                                
                                                                                
                                                                                
                                                                                
Rcrd of Fri Sep 18, 2020 23:38:31.0 PDT    Fri Sep 18, 2020 23:38:31.0 PDT      
                                                                                
23173-O0188-20263.13      Diamond Bar - Grand & Diamond Bar Blvd    Chan  2: 360
 Deg                                                                            
23173-O0188-20263.13      Diamond Bar - Grand & Diamond Bar Blvd    Chan  2: 360
 Deg                                                                            
Units for spectra are inches and sec, except Sa is in fraction of g.            
                                                                                
    2  100    2    3    3  200    1    3    1   24   32  188    023173   11    0
    6   38   31    0  263    9   19 2020   10    3  36011200   39   38   74  360
11200    1  100    3  188    1   13  560    2 -999 -999 -999 -999 -999 -999 -999
 -999 -999    3 -99911200    1  202    0   24   20 -999 -999    3    1 -99911200
    311200    4   78    1    3    5    0    0 -999    0    0    1    3    1    2
    2    2    4    0   32   67    0    5 -999    0    0    1    0    0    0  222
    1    0    2    0
      .005      .700    56.000      .001     1.000  1250.000      .014    25.385
   198.000      .596      .477  -999.000     5.000  -999.000     4.000  -999.000
     5.000     6.459     5.000  -999.000    25.000    30.000  -999.000      .001
      .001      .000     2.000    15.000    34.002  -117.814      .007      .167
    25.207     -.013      .013   279.000    25.000    25.900    13.300   103.460
     1.000    11.003    -8.000  -999.000  -999.000  -999.000  -999.000  -999.000
     6.900     2.000     6.800   980.665      .005    56.000    31.513      .000
  -999.000    40.000  -999.000    56.000      .005      .300  -999.000  -999.000
    25.380    13.430    25.415      .358    25.180      .021      .000      .300
    40.000      .005      .005      .000      .005      .008  -999.000  -999.000
      .045      .140      .017      .020      .001      .000  -999.000  -999.000
  -999.000  -999.000  -999.000  -999.000  -999.000  -999.000  -999.000  -999.000
  -999.000  -999.000  -999.000  -999.000
      .050
      .040      .042      .044      .046      .048      .050      .055      .060
      .065      .070      .075      .080      .085      .090      .095      .100
      .110      .120      .130      .140      .150      .160      .170      .180
      .190      .200      .220      .240      .260      .280      .300      .320
      .340      .360      .380      .400      .420      .440      .460      .480
      .500      .550      .600      .650      .700      .750      .800      .850
      .900      .950     1.000     1.100     1.200     1.300     1.400     1.500
     1.600     1.700     1.800     1.900     2.000     2.200     2.400     2.600
     2.800     3.000     3.200     3.400     3.600     3.800     4.000     4.200
     4.400     4.600     4.800     5.000     5.500     6.000      .000      .000
      .000      .000      .000      .000      .000      .000      .000      .000
      .000      .000      .000      .000      .000      .000      .000      .000
      .000      .000      .000      .000
Fourier amplitude spectra in in/sec.
  .000E+00  .000E+00  .000E+00  .000E+00  .000E+00  .000E+00  .000E+00  .000E+00
  .000E+00  .000E+00  .000E+00  .000E+00  .000E+00  .000E+00  .000E+00  .000E+00
  .000E+00  .000E+00  .000E+00  .000E+00  .000E+00  .000E+00  .000E+00  .000E+00
  .000E+00  .000E+00  .000E+00  .000E+00  .000E+00  .000E+00  .000E+00  .000E+00
  .000E+00  .000E+00  .000E+00  .000E+00  .000E+00  .000E+00  .000E+00  .000E+00
  .000E+00  .000E+00  .000E+00  .000E+00  .000E+00  .000E+00  .000E+00  .000E+00
  .000E+00  .000E+00  .000E+00  .000E+00  .000E+00  .000E+00  .000E+00  .000E+00
  .000E+00  .000E+00  .000E+00  .000E+00  .000E+00  .000E+00  .000E+00  .000E+00
  .000E+00  .000E+00  .000E+00  .000E+00  .000E+00  .000E+00  .000E+00  .000E+00
  .000E+00  .000E+00  .000E+00  .000E+00  .000E+00  .000E+00  .000E+00  .000E+00
  .000E+00  .000E+00  .000E+00  .000E+00  .000E+00  .000E+00  .000E+00  .000E+00
  .000E+00  .000E+00  .000E+00  .000E+00  .000E+00  .000E+00  .000E+00  .000E+00
  .000E+00  .000E+00  .000E+00  .000E+00
Damping =  .05. Data of Sd,Sv,Sa,Pssv,ttSd,ttSv,ttSa :
  .232E-03  .276E-03  .308E-03  .345E-03  .363E-03  .400E-03  .468E-03  .548E-03
  .722E-03  .866E-03  .118E-02  .138E-02  .159E-02  .188E-02  .233E-02  .328E-02
  .433E-02  .483E-02  .640E-02  .856E-02  .947E-02  .872E-02  .799E-02  .697E-02
  .636E-02  .651E-02  .742E-02  .101E-01  .136E-01  .160E-01  .185E-01  .183E-01
  .174E-01  .165E-01  .146E-01  .138E-01  .137E-01  .162E-01  .166E-01  .153E-01
