Response and Fourier amplitude spectra (78 periods,  .04 -  6.0 sec)   for      
Corrected accelerogram   23939-O0189-20263.19       Chan  1:  Up         from   
Uncorrected Accelerogram Data             Processed: 09/19/20, CGS  ce23939s    
Rcrd of Fri Sep 18, 2020 23:38:33.0 PDT               (Avol1 v2.0, 4/18 CSMIP)  
CSMIP Preliminary Processing            (Origin:  To be determined)             
23939-O0189-20263.19                 Start time:  9/19/20, 06:38:33.0 UTC (GPS) 
Station No. 23939   34.121N, 117.738W    Obsidn  s/n  189  (3 Chns of  3 at Sta)
Claremont - Hwy 30 & Towne                CGS   Data: Acceleration              
Chan  1:  Up                                                                    
Rcrd of Fri Sep 18, 2020 23:38:33.0 PDT    Fri Sep 18, 2020 23:38:33.0 PDT      
Hypocenter:  To be determined.               ML:  To be determined.             
Instr Period =  .0050 sec,  Damping =  .700,  Sensitivity = 1.25 v/g            
                        Record Length = 56.000 sec.                             
                                     Uncor Max  =   .005 g, at   25.500 sec.    
RMS accel of (uncor) record  =        .   Chn. metadata effective date: 09/17/15
Accelerogram bandpass filtered with 3 dB pts at   .30 and 40.00 cyc/sec         
                 instrument- and base-line correcte                             
                                                                                
                                                                                
                                                                                
                                                                                
                                                                                
Rcrd of Fri Sep 18, 2020 23:38:33.0 PDT    Fri Sep 18, 2020 23:38:33.0 PDT      
                                                                                
23939-O0189-20263.19      Claremont - Hwy 30 & Towne    Chan  1:  Up            
                                                                                
23939-O0189-20263.19      Claremont - Hwy 30 & Towne    Chan  1:  Up            
                                                                                
Units for spectra are inches and sec, except Sa is in fraction of g.            
                                                                                
    1  100    1    3    3  200    1    3    1   24   32  189    023939   11    0
    6   38   33    0  263    9   19 2020   10    3  50011200   39   26   74  360
11200    1  100    3  189    1   19  560    2 -999 -999 -999 -999 -999 -999 -999
 -999 -999    3 -99911200    1  202    0   24   20 -999 -999    3    1 -99911200
    311200    4   78    1    3    5    0    0 -999    0    0    1    3    1    2
    2    2    4    0   32   67    0    5 -999    0    0    1    0    0    0  222
    1    0    2    0
      .005      .700    56.000      .001     1.000  1254.600      .005    25.500
   202.000      .596      .475  -999.000     5.000  -999.000     4.000  -999.000
     5.000    11.378     5.000  -999.000    25.000    30.000  -999.000      .000
     -.001     -.001     2.000    15.000    34.121  -117.738      .111      .125
     1.127     -.018      .016   392.000    26.000    26.900    13.300   100.760
     1.000    11.003    -8.000  -999.000  -999.000  -999.000  -999.000  -999.000
     6.900     2.000     6.800   980.665      .005    56.000    32.149      .000
  -999.000    40.000  -999.000    56.000      .005      .300  -999.000  -999.000
    25.500     4.470    26.750     -.112    26.815     -.006      .000      .300
    40.000      .005      .005      .000      .005      .005  -999.000  -999.000
      .022      .085      .010      .009      .000      .000  -999.000  -999.000
  -999.000  -999.000  -999.000  -999.000  -999.000  -999.000  -999.000  -999.000
  -999.000  -999.000  -999.000  -999.000
      .050
      .040      .042      .044      .046      .048      .050      .055      .060
      .065      .070      .075      .080      .085      .090      .095      .100
      .110      .120      .130      .140      .150      .160      .170      .180
      .190      .200      .220      .240      .260      .280      .300      .320
      .340      .360      .380      .400      .420      .440      .460      .480
      .500      .550      .600      .650      .700      .750      .800      .850
      .900      .950     1.000     1.100     1.200     1.300     1.400     1.500
     1.600     1.700     1.800     1.900     2.000     2.200     2.400     2.600
     2.800     3.000     3.200     3.400     3.600     3.800     4.000     4.200
     4.400     4.600     4.800     5.000     5.500     6.000      .000      .000
      .000      .000      .000      .000      .000      .000      .000      .000
      .000      .000      .000      .000      .000      .000      .000      .000
      .000      .000      .000      .000
Fourier amplitude spectra in in/sec.
  .000E+00  .000E+00  .000E+00  .000E+00  .000E+00  .000E+00  .000E+00  .000E+00
  .000E+00  .000E+00  .000E+00  .000E+00  .000E+00  .000E+00  .000E+00  .000E+00
  .000E+00  .000E+00  .000E+00  .000E+00  .000E+00  .000E+00  .000E+00  .000E+00
  .000E+00  .000E+00  .000E+00  .000E+00  .000E+00  .000E+00  .000E+00  .000E+00
  .000E+00  .000E+00  .000E+00  .000E+00  .000E+00  .000E+00  .000E+00  .000E+00
  .000E+00  .000E+00  .000E+00  .000E+00  .000E+00  .000E+00  .000E+00  .000E+00
  .000E+00  .000E+00  .000E+00  .000E+00  .000E+00  .000E+00  .000E+00  .000E+00
  .000E+00  .000E+00  .000E+00  .000E+00  .000E+00  .000E+00  .000E+00  .000E+00
  .000E+00  .000E+00  .000E+00  .000E+00  .000E+00  .000E+00  .000E+00  .000E+00
  .000E+00  .000E+00  .000E+00  .000E+00  .000E+00  .000E+00  .000E+00  .000E+00
  .000E+00  .000E+00  .000E+00  .000E+00  .000E+00  .000E+00  .000E+00  .000E+00
  .000E+00  .000E+00  .000E+00  .000E+00  .000E+00  .000E+00  .000E+00  .000E+00
  .000E+00  .000E+00  .000E+00  .000E+00
Damping =  .05. Data of Sd,Sv,Sa,Pssv,ttSd,ttSv,ttSa :
  .138E-03  .172E-03  .210E-03  .213E-03  .214E-03  .199E-03  .308E-03  .489E-03
  .482E-03  .534E-03  .684E-03  .107E-02  .155E-02  .150E-02  .127E-02  .111E-02
  .139E-02  .148E-02  .193E-02  .179E-02  .228E-02  .261E-02  .289E-02  .298E-02
  .300E-02  .354E-02  .519E-02  .674E-02  .892E-02  .902E-02  .751E-02  .763E-02
  .610E-02  .545E-02  .572E-02  .747E-02  .855E-02  .893E-02  .907E-02  .864E-02
  .737E-02  .581E-02  .450E-02  .437E-02  .449E-02  .361E-02  .386E-02  .406E-02
  .397E-02  .450E-02  .415E-02  .425E-02  .496E-02  .483E-02  .459E-02  .483E-02
  .450E-02  .380E-02  .319E-02  .293E-02  .282E-02  .281E-02  .284E-02  .300E-02
  .313E-02  .300E-02  .286E-02  .274E-02  .272E-02  .280E-02  .285E-02  .287E-02
  .288E-02  .288E-02  .286E-02  .282E-02  .270E-02  .265E-02  .000E+00  .000E+00
  .000E+00  .000E+00  .000E+00  .000E+00  .000E+00  .000E+00  .000E+00  .000E+00
  .000E+00  .000E+00  .000E+00  .000E+00  .000E+00  .000E+00  .000E+00  .000E+00
  .000E+00  .000E+00  .000E+00  .000E+00
  .162E-01  .201E-01  .231E-01  .231E-01  .236E-01  .205E-01  .300E-01  .453E-01
  .403E-01  .402E-01  .493E-01  .722E-01  .987E-01  .912E-01  .718E-01  .594E-01
  .700E-01  .827E-01  .874E-01  .752E-01  .852E-01  .973E-01  .116E+00  .988E-01
  .977E-01  .105E+00  .151E+00  .172E+00  .210E+00  .202E+00  .173E+00  .173E+00
  .134E+00  .105E+00  .114E+00  .124E+00  .140E+00  .136E+00  .142E+00  .121E+00
  .112E+00  .918E-01  .718E-01  .700E-01  .640E-01  .569E-01  .549E-01  .517E-01
  .533E-01  .519E-01  .495E-01  .505E-01  .554E-01  .577E-01  .545E-01  .491E-01
  .500E-01  .512E-01  .501E-01  .486E-01  .473E-01  .451E-01  .456E-01  .449E-01
  .445E-01  .440E-01  .437E-01  .434E-01  .434E-01  .435E-01  .436E-01  .438E-01
  .439E-01  .439E-01  .440E-01  .441E-01  .441E-01  .441E-01  .000E+00  .000E+00
  .000E+00  .000E+00  .000E+00  .000E+00  .000E+00  .000E+00  .000E+00  .000E+00
  .000E+00  .000E+00  .000E+00  .000E+00  .000E+00  .000E+00  .000E+00  .000E+00
  .000E+00  .000E+00  .000E+00  .000E+00
  .892E-02  .100E-01  .112E-01  .103E-01  .954E-02  .822E-02  .105E-01  .141E-01
  .115E-01  .113E-01  .124E-01  .171E-01  .219E-01  .189E-01  .143E-01  .114E-01
  .118E-01  .106E-01  .118E-01  .941E-02  .104E-01  .104E-01  .102E-01  .944E-02
  .855E-02  .908E-02  .110E-01  .120E-01  .136E-01  .118E-01  .860E-02  .766E-02
  .544E-02  .433E-02  .407E-02  .480E-02  .500E-02  .475E-02  .441E-02  .387E-02
  .304E-02  .198E-02  .129E-02  .107E-02  .947E-03  .669E-03  .633E-03  .591E-03
  .507E-03  .517E-03  .435E-03  .369E-03  .366E-03  .300E-03  .251E-03  .232E-03
  .190E-03  .146E-03  .118E-03  .100E-03  .878E-04  .711E-04  .572E-04  .559E-04
  .512E-04  .443E-04  .386E-04  .346E-04  .321E-04  .301E-04  .283E-04  .265E-04
  .248E-04  .233E-04  .219E-04  .206E-04  .177E-04  .156E-04  .000E+00  .000E+00
  .000E+00  .000E+00  .000E+00  .000E+00  .000E+00  .000E+00  .000E+00  .000E+00
  .000E+00  .000E+00  .000E+00  .000E+00  .000E+00  .000E+00  .000E+00  .000E+00
  .000E+00  .000E+00  .000E+00  .000E+00
  .217E-01  .258E-01  .300E-01  .292E-01  .280E-01  .250E-01  .352E-01  .512E-01
  .465E-01  .480E-01  .573E-01  .839E-01  .114E+00  .105E+00  .838E-01  .696E-01
  .793E-01  .777E-01  .935E-01  .804E-01  .955E-01  .103E+00  .107E+00  .104E+00
  .991E-01  .111E+00  .148E+00  .177E+00  .216E+00  .202E+00  .157E+00  .150E+00
  .113E+00  .951E-01  .945E-01  .117E+00  .128E+00  .127E+00  .124E+00  .113E+00
  .926E-01  .664E-01  .471E-01  .423E-01  .403E-01  .302E-01  .303E-01  .300E-01
  .277E-01  .297E-01  .261E-01  .243E-01  .260E-01  .233E-01  .206E-01  .202E-01
  .177E-01  .141E-01  .111E-01  .969E-02  .887E-02  .803E-02  .743E-02  .725E-02
  .702E-02  .629E-02  .562E-02  .507E-02  .475E-02  .463E-02  .448E-02  .430E-02
  .412E-02  .393E-02  .374E-02  .354E-02  .309E-02  .278E-02  .000E+00  .000E+00
  .000E+00  .000E+00  .000E+00  .000E+00  .000E+00  .000E+00  .000E+00  .000E+00
  .000E+00  .000E+00  .000E+00  .000E+00  .000E+00  .000E+00  .000E+00  .000E+00
  .000E+00  .000E+00  .000E+00  .000E+00
  .248E+02  .251E+02  .261E+02  .261E+02  .262E+02  .254E+02  .254E+02  .254E+02
  .254E+02  .265E+02  .255E+02  .255E+02  .255E+02  .255E+02  .255E+02  .255E+02
  .267E+02  .243E+02  .224E+02  .256E+02  .275E+02  .265E+02  .266E+02  .257E+02
  .258E+02  .278E+02  .280E+02  .258E+02  .270E+02  .277E+02  .255E+02  .254E+02
  .252E+02  .213E+02  .211E+02  .290E+02  .289E+02  .289E+02  .283E+02  .277E+02
  .277E+02  .327E+02  .322E+02  .250E+02  .361E+02  .275E+02  .250E+02  .250E+02
  .361E+02  .358E+02  .327E+02  .327E+02  .277E+02  .327E+02  .324E+02  .268E+02
  .268E+02  .261E+02  .261E+02  .248E+02  .248E+02  .257E+02  .248E+02  .275E+02
  .275E+02  .275E+02  .275E+02  .275E+02  .268E+02  .268E+02  .268E+02  .268E+02
  .268E+02  .268E+02  .268E+02  .268E+02  .268E+02  .268E+02  .000E+00  .000E+00
  .000E+00  .000E+00  .000E+00  .000E+00  .000E+00  .000E+00  .000E+00  .000E+00
  .000E+00  .000E+00  .000E+00  .000E+00  .000E+00  .000E+00  .000E+00  .000E+00
  .000E+00  .000E+00  .000E+00  .000E+00
  .249E+02  .260E+02  .251E+02  .262E+02  .262E+02  .262E+02  .253E+02  .253E+02
  .254E+02  .266E+02  .266E+02  .255E+02  .255E+02  .255E+02  .255E+02  .255E+02
  .267E+02  .243E+02  .224E+02  .256E+02  .242E+02  .265E+02  .265E+02  .257E+02
  .258E+02  .277E+02  .281E+02  .258E+02  .269E+02  .278E+02  .255E+02  .254E+02
  .265E+02  .212E+02  .291E+02  .291E+02  .290E+02  .277E+02  .288E+02  .277E+02
  .276E+02  .276E+02  .269E+02  .267E+02  .276E+02  .274E+02  .274E+02  .269E+02
  .253E+02  .253E+02  .253E+02  .277E+02  .269E+02  .276E+02  .276E+02  .276E+02
  .267E+02  .267E+02  .267E+02  .267E+02  .267E+02  .267E+02  .276E+02  .276E+02
  .255E+02  .255E+02  .255E+02  .255E+02  .267E+02  .267E+02  .267E+02  .267E+02
  .267E+02  .267E+02  .267E+02  .267E+02  .267E+02  .267E+02  .000E+00  .000E+00
  .000E+00  .000E+00  .000E+00  .000E+00  .000E+00  .000E+00  .000E+00  .000E+00
  .000E+00  .000E+00  .000E+00  .000E+00  .000E+00  .000E+00  .000E+00  .000E+00
  .000E+00  .000E+00  .000E+00  .000E+00
  .248E+02  .251E+02  .261E+02  .261E+02  .262E+02  .254E+02  .254E+02  .254E+02
  .254E+02  .265E+02  .255E+02  .255E+02  .255E+02  .255E+02  .255E+02  .255E+02
  .267E+02  .243E+02  .224E+02  .275E+02  .275E+02  .265E+02  .266E+02  .257E+02
  .258E+02  .278E+02  .280E+02  .258E+02  .270E+02  .277E+02  .255E+02  .254E+02
  .252E+02  .213E+02  .211E+02  .290E+02  .289E+02  .289E+02  .283E+02  .276E+02
  .277E+02  .326E+02  .322E+02  .250E+02  .360E+02  .275E+02  .250E+02  .250E+02
  .250E+02  .358E+02  .326E+02  .326E+02  .276E+02  .327E+02  .268E+02  .268E+02
  .268E+02  .261E+02  .255E+02  .255E+02  .255E+02  .255E+02  .255E+02  .275E+02
  .275E+02  .275E+02  .275E+02  .268E+02  .268E+02  .268E+02  .268E+02  .268E+02
  .268E+02  .268E+02  .268E+02  .268E+02  .268E+02  .268E+02  .000E+00  .000E+00
  .000E+00  .000E+00  .000E+00  .000E+00  .000E+00  .000E+00  .000E+00  .000E+00
  .000E+00  .000E+00  .000E+00  .000E+00  .000E+00  .000E+00  .000E+00  .000E+00
  .000E+00  .000E+00  .000E+00  .000E+00
/&   ----------  End of spectral data for channel  1  ----------
Response and Fourier amplitude spectra (78 periods,  .04 -  6.0 sec)   for      
Corrected accelerogram   23939-O0189-20263.19       Chan  2: 360 Deg     from   
Uncorrected Accelerogram Data             Processed: 09/19/20, CGS  ce23939s    
Rcrd of Fri Sep 18, 2020 23:38:33.0 PDT               (Avol1 v2.0, 4/18 CSMIP)  
CSMIP Preliminary Processing            (Origin:  To be determined)             
23939-O0189-20263.19                 Start time:  9/19/20, 06:38:33.0 UTC (GPS) 
Station No. 23939   34.121N, 117.738W    Obsidn  s/n  189  (3 Chns of  3 at Sta)
Claremont - Hwy 30 & Towne                CGS   Data: Acceleration              
Chan  2: 360 Deg                                                                
Rcrd of Fri Sep 18, 2020 23:38:33.0 PDT    Fri Sep 18, 2020 23:38:33.0 PDT      
Hypocenter:  To be determined.               ML:  To be determined.             
Instr Period =  .0050 sec,  Damping =  .700,  Sensitivity = 1.25 v/g            
                        Record Length = 56.000 sec.                             
                                     Uncor Max  =  -.009 g, at   25.185 sec.    
RMS accel of (uncor) record  =        .   Chn. metadata effective date: 09/17/15
Accelerogram bandpass filtered with 3 dB pts at   .30 and 40.00 cyc/sec         
                 instrument- and base-line correcte                             
                                                                                
                                                                                
                                                                                
                                                                                
                                                                                
Rcrd of Fri Sep 18, 2020 23:38:33.0 PDT    Fri Sep 18, 2020 23:38:33.0 PDT      
                                                                                
23939-O0189-20263.19      Claremont - Hwy 30 & Towne    Chan  2: 360 Deg        
                                                                                
23939-O0189-20263.19      Claremont - Hwy 30 & Towne    Chan  2: 360 Deg        
                                                                                
Units for spectra are inches and sec, except Sa is in fraction of g.            
                                                                                
    2  100    2    3    3  200    1    3    1   24   32  189    023939   11    0
    6   38   33    0  263    9   19 2020   10    3  36011200   39   26   74  360
11200    1  100    3  189    1   19  560    2 -999 -999 -999 -999 -999 -999 -999
 -999 -999    3 -99911200    1  202    0   24   20 -999 -999    3    1 -99911200
    311200    4   78    1    3    5    0    0 -999    0    0    1    3    1    2
    2    2    4    0   32   67    0    5 -999    0    0    1    0    0    0  222
    1    0    2    0
      .005      .700    56.000      .001     1.000  1249.000     -.009    25.185
   200.000      .596      .477  -999.000     5.000  -999.000     4.000  -999.000
     5.000     6.879     5.000  -999.000    25.000    30.000  -999.000      .001
      .000      .000     2.000    15.000    34.121  -117.738      .036      .149
     4.170     -.013      .012   392.000    26.000    26.900    13.300   100.760
     1.000    11.003    -8.000  -999.000  -999.000  -999.000  -999.000  -999.000
     6.900     2.000     6.800   980.665      .005    56.000    31.831      .000
  -999.000    40.000  -999.000    56.000      .005      .300  -999.000  -999.000
    25.185    -8.381    25.235     -.263    24.780     -.019      .000      .300
    40.000      .005      .005      .000      .005      .008  -999.000  -999.000
      .028      .100      .019      .018      .001      .000  -999.000  -999.000
  -999.000  -999.000  -999.000  -999.000  -999.000  -999.000  -999.000  -999.000
  -999.000  -999.000  -999.000  -999.000
      .050
      .040      .042      .044      .046      .048      .050      .055      .060
      .065      .070      .075      .080      .085      .090      .095      .100
      .110      .120      .130      .140      .150      .160      .170      .180
      .190      .200      .220      .240      .260      .280      .300      .320
      .340      .360      .380      .400      .420      .440      .460      .480
      .500      .550      .600      .650      .700      .750      .800      .850
      .900      .950     1.000     1.100     1.200     1.300     1.400     1.500
     1.600     1.700     1.800     1.900     2.000     2.200     2.400     2.600
     2.800     3.000     3.200     3.400     3.600     3.800     4.000     4.200
     4.400     4.600     4.800     5.000     5.500     6.000      .000      .000
      .000      .000      .000      .000      .000      .000      .000      .000
      .000      .000      .000      .000      .000      .000      .000      .000
      .000      .000      .000      .000
Fourier amplitude spectra in in/sec.
  .000E+00  .000E+00  .000E+00  .000E+00  .000E+00  .000E+00  .000E+00  .000E+00
  .000E+00  .000E+00  .000E+00  .000E+00  .000E+00  .000E+00  .000E+00  .000E+00
  .000E+00  .000E+00  .000E+00  .000E+00  .000E+00  .000E+00  .000E+00  .000E+00
  .000E+00  .000E+00  .000E+00  .000E+00  .000E+00  .000E+00  .000E+00  .000E+00
  .000E+00  .000E+00  .000E+00  .000E+00  .000E+00  .000E+00  .000E+00  .000E+00
  .000E+00  .000E+00  .000E+00  .000E+00  .000E+00  .000E+00  .000E+00  .000E+00
  .000E+00  .000E+00  .000E+00  .000E+00  .000E+00  .000E+00  .000E+00  .000E+00
  .000E+00  .000E+00  .000E+00  .000E+00  .000E+00  .000E+00  .000E+00  .000E+00
  .000E+00  .000E+00  .000E+00  .000E+00  .000E+00  .000E+00  .000E+00  .000E+00
  .000E+00  .000E+00  .000E+00  .000E+00  .000E+00  .000E+00  .000E+00  .000E+00
  .000E+00  .000E+00  .000E+00  .000E+00  .000E+00  .000E+00  .000E+00  .000E+00
  .000E+00  .000E+00  .000E+00  .000E+00  .000E+00  .000E+00  .000E+00  .000E+00
  .000E+00  .000E+00  .000E+00  .000E+00
Damping =  .05. Data of Sd,Sv,Sa,Pssv,ttSd,ttSv,ttSa :
  .162E-03  .171E-03  .185E-03  .212E-03  .239E-03  .279E-03  .461E-03  .691E-03
  .896E-03  .116E-02  .141E-02  .161E-02  .147E-02  .183E-02  .215E-02  .277E-02
  .287E-02  .350E-02  .364E-02  .315E-02  .389E-02  .451E-02  .529E-02  .613E-02
  .601E-02  .811E-02  .872E-02  .105E-01  .151E-01  .169E-01  .163E-01  .141E-01
  .126E-01  .106E-01  .106E-01  .983E-02  .964E-02  .102E-01  .970E-02  .943E-02
