Response and Fourier amplitude spectra (78 periods,  .04 -  6.0 sec)   for      
Corrected accelerogram   23163-O0192-20263.15       Chan  1:  Up         from   
Uncorrected Accelerogram Data             Processed: 09/18/20, CGS  ce23163o    
Rcrd of Fri Sep 18, 2020 23:38:32.0 PDT               (Avol1 v2.0, 4/18 CSMIP)  
CSMIP Preliminary Processing            (Origin:  To be determined)             
23163-O0192-20263.15                 Start time:  9/19/20, 06:38:32.0 UTC (GPS) 
Station No. 23163   34.123N, 117.540W    Obsidn  s/n  192  (3 Chns of  3 at Sta)
Rancho Cucamonga - Baseline & Rochester   CGS   Data: Acceleration              
Chan  1:  Up                                                                    
Rcrd of Fri Sep 18, 2020 23:38:32.0 PDT    Fri Sep 18, 2020 23:38:32.0 PDT      
Hypocenter:  To be determined.               ML:  To be determined.             
Instr Period =  .0050 sec,  Damping =  .700,  Sensitivity = 1.25 v/g            
                        Record Length = 61.000 sec.                             
                                     Uncor Max  =   .007 g, at   30.260 sec.    
RMS accel of (uncor) record  =        .   Chn. metadata effective date: 08/03/16
Accelerogram bandpass filtered with 3 dB pts at   .30 and 40.00 cyc/sec         
                 instrument- and base-line correcte                             
                                                                                
                                                                                
                                                                                
                                                                                
                                                                                
Rcrd of Fri Sep 18, 2020 23:38:32.0 PDT    Fri Sep 18, 2020 23:38:32.0 PDT      
                                                                                
23163-O0192-20263.15      Rancho Cucamonga - Baseline & Rochester   Chan  1:  Up
                                                                                
23163-O0192-20263.15      Rancho Cucamonga - Baseline & Rochester   Chan  1:  Up
                                                                                
Units for spectra are inches and sec, except Sa is in fraction of g.            
                                                                                
    1  100    1    3    3  200    1    3    1   24   32  192    023163   11    0
    6   38   32    0  263    9   19 2020   10    3  50012200   39   39   74  360
12200    1  100    3  192    1   15  610    2 -999 -999 -999 -999 -999 -999 -999
 -999 -999    3 -99912200    1  202    0   24   20 -999 -999    3    1 -99912200
    312200    4   78    1    3    5    0    0 -999    0    0    1    3    1    2
    2    2    4    0   32   67    0    5 -999    0    0    1    0    0    0  222
    1    0    2    0
      .005      .700    61.000      .001     1.000  1253.400      .007    30.260
   200.000      .596      .476  -999.000     5.000  -999.000     4.000  -999.000
     5.000     7.421     5.000  -999.000    30.000    30.000  -999.000     -.001
      .003      .004     2.000    15.000    34.123  -117.540      .008      .102
    12.583     -.004      .012   401.000    31.000    31.900    12.800   104.000
     1.000    11.003    -8.000  -999.000  -999.000  -999.000  -999.000  -999.000
     6.900     2.000     6.800   980.665      .005    61.000    31.831      .000
  -999.000    40.000  -999.000    61.000      .005      .300  -999.000  -999.000
    30.260     6.619    32.875      .103    29.915      .005      .000      .300
    40.000      .005      .005      .000      .005      .004  -999.000  -999.000
      .025      .065      .006      .004      .000      .000  -999.000  -999.000
  -999.000  -999.000  -999.000  -999.000  -999.000  -999.000  -999.000  -999.000
  -999.000  -999.000  -999.000  -999.000
      .050
      .040      .042      .044      .046      .048      .050      .055      .060
      .065      .070      .075      .080      .085      .090      .095      .100
      .110      .120      .130      .140      .150      .160      .170      .180
      .190      .200      .220      .240      .260      .280      .300      .320
      .340      .360      .380      .400      .420      .440      .460      .480
      .500      .550      .600      .650      .700      .750      .800      .850
      .900      .950     1.000     1.100     1.200     1.300     1.400     1.500
     1.600     1.700     1.800     1.900     2.000     2.200     2.400     2.600
     2.800     3.000     3.200     3.400     3.600     3.800     4.000     4.200
     4.400     4.600     4.800     5.000     5.500     6.000      .000      .000
      .000      .000      .000      .000      .000      .000      .000      .000
      .000      .000      .000      .000      .000      .000      .000      .000
      .000      .000      .000      .000
Fourier amplitude spectra in in/sec.
  .000E+00  .000E+00  .000E+00  .000E+00  .000E+00  .000E+00  .000E+00  .000E+00
  .000E+00  .000E+00  .000E+00  .000E+00  .000E+00  .000E+00  .000E+00  .000E+00
  .000E+00  .000E+00  .000E+00  .000E+00  .000E+00  .000E+00  .000E+00  .000E+00
  .000E+00  .000E+00  .000E+00  .000E+00  .000E+00  .000E+00  .000E+00  .000E+00
  .000E+00  .000E+00  .000E+00  .000E+00  .000E+00  .000E+00  .000E+00  .000E+00
  .000E+00  .000E+00  .000E+00  .000E+00  .000E+00  .000E+00  .000E+00  .000E+00
  .000E+00  .000E+00  .000E+00  .000E+00  .000E+00  .000E+00  .000E+00  .000E+00
  .000E+00  .000E+00  .000E+00  .000E+00  .000E+00  .000E+00  .000E+00  .000E+00
  .000E+00  .000E+00  .000E+00  .000E+00  .000E+00  .000E+00  .000E+00  .000E+00
  .000E+00  .000E+00  .000E+00  .000E+00  .000E+00  .000E+00  .000E+00  .000E+00
  .000E+00  .000E+00  .000E+00  .000E+00  .000E+00  .000E+00  .000E+00  .000E+00
  .000E+00  .000E+00  .000E+00  .000E+00  .000E+00  .000E+00  .000E+00  .000E+00
  .000E+00  .000E+00  .000E+00  .000E+00
Damping =  .05. Data of Sd,Sv,Sa,Pssv,ttSd,ttSv,ttSa :
  .254E-03  .269E-03  .308E-03  .350E-03  .372E-03  .444E-03  .579E-03  .636E-03
  .999E-03  .104E-02  .116E-02  .132E-02  .141E-02  .151E-02  .149E-02  .168E-02
  .206E-02  .195E-02  .249E-02  .249E-02  .219E-02  .213E-02  .174E-02  .194E-02
  .264E-02  .253E-02  .216E-02  .274E-02  .312E-02  .361E-02  .430E-02  .325E-02
  .355E-02  .339E-02  .432E-02  .408E-02  .411E-02  .395E-02  .379E-02  .322E-02
  .325E-02  .316E-02  .311E-02  .330E-02  .333E-02  .252E-02  .288E-02  .300E-02
  .262E-02  .256E-02  .285E-02  .280E-02  .249E-02  .315E-02  .350E-02  .415E-02
  .355E-02  .374E-02  .324E-02  .269E-02  .254E-02  .244E-02  .222E-02  .222E-02
  .216E-02  .214E-02  .210E-02  .211E-02  .210E-02  .203E-02  .200E-02  .197E-02
  .193E-02  .193E-02  .195E-02  .199E-02  .200E-02  .195E-02  .000E+00  .000E+00
  .000E+00  .000E+00  .000E+00  .000E+00  .000E+00  .000E+00  .000E+00  .000E+00
  .000E+00  .000E+00  .000E+00  .000E+00  .000E+00  .000E+00  .000E+00  .000E+00
  .000E+00  .000E+00  .000E+00  .000E+00
  .353E-01  .366E-01  .415E-01  .464E-01  .463E-01  .477E-01  .644E-01  .635E-01
  .874E-01  .887E-01  .923E-01  .106E+00  .999E-01  .105E+00  .996E-01  .115E+00
  .124E+00  .109E+00  .112E+00  .128E+00  .971E-01  .841E-01  .751E-01  .737E-01
  .920E-01  .884E-01  .705E-01  .848E-01  .950E-01  .862E-01  .997E-01  .792E-01
  .796E-01  .900E-01  .792E-01  .729E-01  .754E-01  .797E-01  .775E-01  .711E-01
  .634E-01  .617E-01  .528E-01  .516E-01  .479E-01  .394E-01  .426E-01  .486E-01
  .437E-01  .418E-01  .438E-01  .476E-01  .455E-01  .379E-01  .390E-01  .427E-01
  .451E-01  .469E-01  .472E-01  .461E-01  .445E-01  .417E-01  .402E-01  .395E-01
  .395E-01  .396E-01  .398E-01  .400E-01  .402E-01  .403E-01  .403E-01  .403E-01
  .403E-01  .404E-01  .404E-01  .404E-01  .404E-01  .403E-01  .000E+00  .000E+00
  .000E+00  .000E+00  .000E+00  .000E+00  .000E+00  .000E+00  .000E+00  .000E+00
  .000E+00  .000E+00  .000E+00  .000E+00  .000E+00  .000E+00  .000E+00  .000E+00
  .000E+00  .000E+00  .000E+00  .000E+00
  .161E-01  .156E-01  .163E-01  .169E-01  .167E-01  .181E-01  .198E-01  .183E-01
  .246E-01  .219E-01  .211E-01  .214E-01  .203E-01  .193E-01  .170E-01  .174E-01
  .174E-01  .138E-01  .150E-01  .130E-01  .998E-02  .862E-02  .617E-02  .613E-02
  .754E-02  .648E-02  .460E-02  .490E-02  .476E-02  .475E-02  .492E-02  .328E-02
  .317E-02  .269E-02  .310E-02  .263E-02  .240E-02  .212E-02  .184E-02  .144E-02
  .134E-02  .108E-02  .897E-03  .812E-03  .710E-03  .474E-03  .475E-03  .441E-03
  .345E-03  .305E-03  .296E-03  .253E-03  .191E-03  .205E-03  .186E-03  .196E-03
  .146E-03  .144E-03  .107E-03  .886E-04  .751E-04  .612E-04  .513E-04  .451E-04
  .393E-04  .350E-04  .312E-04  .285E-04  .261E-04  .235E-04  .216E-04  .199E-04
  .184E-04  .172E-04  .163E-04  .155E-04  .137E-04  .120E-04  .000E+00  .000E+00
  .000E+00  .000E+00  .000E+00  .000E+00  .000E+00  .000E+00  .000E+00  .000E+00
  .000E+00  .000E+00  .000E+00  .000E+00  .000E+00  .000E+00  .000E+00  .000E+00
  .000E+00  .000E+00  .000E+00  .000E+00
  .399E-01  .403E-01  .440E-01  .478E-01  .487E-01  .558E-01  .662E-01  .666E-01
  .966E-01  .931E-01  .970E-01  .103E+00  .104E+00  .105E+00  .984E-01  .106E+00
  .118E+00  .102E+00  .120E+00  .112E+00  .919E-01  .838E-01  .643E-01  .676E-01
  .874E-01  .793E-01  .616E-01  .719E-01  .753E-01  .810E-01  .900E-01  .638E-01
  .656E-01  .592E-01  .714E-01  .640E-01  .615E-01  .565E-01  .517E-01  .422E-01
  .408E-01  .361E-01  .325E-01  .319E-01  .298E-01  .211E-01  .226E-01  .222E-01
  .183E-01  .169E-01  .179E-01  .160E-01  .131E-01  .152E-01  .157E-01  .174E-01
  .139E-01  .138E-01  .113E-01  .890E-02  .799E-02  .696E-02  .581E-02  .537E-02
  .486E-02  .449E-02  .412E-02  .390E-02  .367E-02  .336E-02  .314E-02  .295E-02
  .276E-02  .263E-02  .256E-02  .249E-02  .228E-02  .204E-02  .000E+00  .000E+00
  .000E+00  .000E+00  .000E+00  .000E+00  .000E+00  .000E+00  .000E+00  .000E+00
  .000E+00  .000E+00  .000E+00  .000E+00  .000E+00  .000E+00  .000E+00  .000E+00
  .000E+00  .000E+00  .000E+00  .000E+00
  .310E+02  .327E+02  .295E+02  .325E+02  .325E+02  .325E+02  .257E+02  .325E+02
  .346E+02  .346E+02  .344E+02  .303E+02  .345E+02  .347E+02  .348E+02  .303E+02
  .324E+02  .345E+02  .311E+02  .311E+02  .336E+02  .335E+02  .332E+02  .332E+02
  .331E+02  .331E+02  .335E+02  .306E+02  .315E+02  .331E+02  .330E+02  .318E+02
  .301E+02  .330E+02  .329E+02  .314E+02  .313E+02  .329E+02  .401E+02  .402E+02
  .400E+02  .301E+02  .301E+02  .301E+02  .301E+02  .301E+02  .301E+02  .301E+02
  .299E+02  .299E+02  .400E+02  .341E+02  .299E+02  .299E+02  .410E+02  .398E+02
  .362E+02  .356E+02  .350E+02  .350E+02  .328E+02  .328E+02  .299E+02  .299E+02
  .299E+02  .299E+02  .299E+02  .299E+02  .299E+02  .299E+02  .299E+02  .299E+02
  .299E+02  .299E+02  .299E+02  .299E+02  .299E+02  .299E+02  .000E+00  .000E+00
  .000E+00  .000E+00  .000E+00  .000E+00  .000E+00  .000E+00  .000E+00  .000E+00
  .000E+00  .000E+00  .000E+00  .000E+00  .000E+00  .000E+00  .000E+00  .000E+00
  .000E+00  .000E+00  .000E+00  .000E+00
  .312E+02  .327E+02  .295E+02  .295E+02  .295E+02  .295E+02  .257E+02  .312E+02
  .346E+02  .347E+02  .345E+02  .303E+02  .345E+02  .347E+02  .347E+02  .303E+02
  .324E+02  .346E+02  .311E+02  .310E+02  .336E+02  .332E+02  .332E+02  .332E+02
  .331E+02  .331E+02  .303E+02  .303E+02  .344E+02  .327E+02  .331E+02  .344E+02
  .302E+02  .301E+02  .301E+02  .301E+02  .312E+02  .312E+02  .329E+02  .329E+02
  .329E+02  .301E+02  .301E+02  .312E+02  .312E+02  .312E+02  .329E+02  .329E+02
  .329E+02  .329E+02  .329E+02  .329E+02  .329E+02  .329E+02  .329E+02  .329E+02
  .329E+02  .329E+02  .329E+02  .329E+02  .329E+02  .329E+02  .329E+02  .329E+02
  .329E+02  .329E+02  .329E+02  .329E+02  .329E+02  .329E+02  .329E+02  .329E+02
  .329E+02  .329E+02  .329E+02  .329E+02  .329E+02  .329E+02  .000E+00  .000E+00
  .000E+00  .000E+00  .000E+00  .000E+00  .000E+00  .000E+00  .000E+00  .000E+00
  .000E+00  .000E+00  .000E+00  .000E+00  .000E+00  .000E+00  .000E+00  .000E+00
  .000E+00  .000E+00  .000E+00  .000E+00
  .310E+02  .327E+02  .295E+02  .325E+02  .325E+02  .325E+02  .257E+02  .312E+02
  .346E+02  .346E+02  .344E+02  .303E+02  .345E+02  .347E+02  .348E+02  .303E+02
  .324E+02  .345E+02  .311E+02  .311E+02  .335E+02  .335E+02  .332E+02  .332E+02
  .331E+02  .331E+02  .335E+02  .306E+02  .315E+02  .331E+02  .330E+02  .318E+02
  .301E+02  .330E+02  .329E+02  .314E+02  .313E+02  .329E+02  .401E+02  .402E+02
  .400E+02  .300E+02  .301E+02  .301E+02  .301E+02  .301E+02  .301E+02  .301E+02
  .299E+02  .299E+02  .400E+02  .341E+02  .299E+02  .299E+02  .409E+02  .397E+02
  .361E+02  .356E+02  .349E+02  .324E+02  .299E+02  .299E+02  .299E+02  .299E+02
  .299E+02  .299E+02  .299E+02  .299E+02  .299E+02  .299E+02  .299E+02  .299E+02
  .299E+02  .299E+02  .299E+02  .299E+02  .299E+02  .299E+02  .000E+00  .000E+00
  .000E+00  .000E+00  .000E+00  .000E+00  .000E+00  .000E+00  .000E+00  .000E+00
  .000E+00  .000E+00  .000E+00  .000E+00  .000E+00  .000E+00  .000E+00  .000E+00
  .000E+00  .000E+00  .000E+00  .000E+00
/&   ----------  End of spectral data for channel  1  ----------
Response and Fourier amplitude spectra (78 periods,  .04 -  6.0 sec)   for      
Corrected accelerogram   23163-O0192-20263.15       Chan  2: 360 Deg     from   
Uncorrected Accelerogram Data             Processed: 09/18/20, CGS  ce23163o    
Rcrd of Fri Sep 18, 2020 23:38:32.0 PDT               (Avol1 v2.0, 4/18 CSMIP)  
CSMIP Preliminary Processing            (Origin:  To be determined)             
23163-O0192-20263.15                 Start time:  9/19/20, 06:38:32.0 UTC (GPS) 
Station No. 23163   34.123N, 117.540W    Obsidn  s/n  192  (3 Chns of  3 at Sta)
Rancho Cucamonga - Baseline & Rochester   CGS   Data: Acceleration              
Chan  2: 360 Deg                                                                
Rcrd of Fri Sep 18, 2020 23:38:32.0 PDT    Fri Sep 18, 2020 23:38:32.0 PDT      
Hypocenter:  To be determined.               ML:  To be determined.             
Instr Period =  .0049 sec,  Damping =  .700,  Sensitivity = 1.25 v/g            
                        Record Length = 61.000 sec.                             
                                     Uncor Max  =  -.011 g, at   34.490 sec.    
RMS accel of (uncor) record  =        .   Chn. metadata effective date: 08/03/16
Accelerogram bandpass filtered with 3 dB pts at   .30 and 40.00 cyc/sec         
                 instrument- and base-line correcte                             
                                                                                
                                                                                
                                                                                
                                                                                
                                                                                
Rcrd of Fri Sep 18, 2020 23:38:32.0 PDT    Fri Sep 18, 2020 23:38:32.0 PDT      
                                                                                
23163-O0192-20263.15      Rancho Cucamonga - Baseline & Rochester   Chan  2: 360
 Deg                                                                            
23163-O0192-20263.15      Rancho Cucamonga - Baseline & Rochester   Chan  2: 360
 Deg                                                                            
Units for spectra are inches and sec, except Sa is in fraction of g.            
                                                                                
    2  100    2    3    3  200    1    3    1   24   32  192    023163   11    0
    6   38   32    0  263    9   19 2020   10    3  36012200   39   39   74  360
12200    1  100    3  192    1   15  610    2 -999 -999 -999 -999 -999 -999 -999
 -999 -999    3 -99912200    1  202    0   24   20 -999 -999    3    1 -99912200
    312200    4   78    1    3    5    0    0 -999    0    0    1    3    1    2
    2    2    4    0   32   67    0    5 -999    0    0    1    0    0    0  222
    1    0    2    0
      .005      .700    61.000      .001     1.000  1250.400     -.011    34.490
   206.000      .596      .477  -999.000     5.000  -999.000     4.000  -999.000
     5.000     2.532     5.000  -999.000    30.000    30.000  -999.000      .000
     -.001     -.001     2.000    15.000    34.123  -117.540      .004      .164
    40.510     -.013      .011   401.000    31.000    31.900    12.800   104.000
     1.000    11.003    -8.000  -999.000  -999.000  -999.000  -999.000  -999.000
     6.900     2.000     6.800   980.665      .005    61.000    32.786      .000
  -999.000    40.000  -999.000    61.000      .005      .300  -999.000  -999.000
    34.485   -10.744    30.325      .265    30.390      .010      .000      .300
    40.000      .005      .005      .000      .005      .006  -999.000  -999.000
      .040      .060      .020      .012      .001      .000  -999.000  -999.000
  -999.000  -999.000  -999.000  -999.000  -999.000  -999.000  -999.000  -999.000
  -999.000  -999.000  -999.000  -999.000
      .050
      .040      .042      .044      .046      .048      .050      .055      .060
      .065      .070      .075      .080      .085      .090      .095      .100
      .110      .120      .130      .140      .150      .160      .170      .180
      .190      .200      .220      .240      .260      .280      .300      .320
      .340      .360      .380      .400      .420      .440      .460      .480
      .500      .550      .600      .650      .700      .750      .800      .850
      .900      .950     1.000     1.100     1.200     1.300     1.400     1.500
     1.600     1.700     1.800     1.900     2.000     2.200     2.400     2.600
     2.800     3.000     3.200     3.400     3.600     3.800     4.000     4.200
     4.400     4.600     4.800     5.000     5.500     6.000      .000      .000
      .000      .000      .000      .000      .000      .000      .000      .000
      .000      .000      .000      .000      .000      .000      .000      .000
      .000      .000      .000      .000
Fourier amplitude spectra in in/sec.
  .000E+00  .000E+00  .000E+00  .000E+00  .000E+00  .000E+00  .000E+00  .000E+00
  .000E+00  .000E+00  .000E+00  .000E+00  .000E+00  .000E+00  .000E+00  .000E+00
  .000E+00  .000E+00  .000E+00  .000E+00  .000E+00  .000E+00  .000E+00  .000E+00
  .000E+00  .000E+00  .000E+00  .000E+00  .000E+00  .000E+00  .000E+00  .000E+00
  .000E+00  .000E+00  .000E+00  .000E+00  .000E+00  .000E+00  .000E+00  .000E+00
  .000E+00  .000E+00  .000E+00  .000E+00  .000E+00  .000E+00  .000E+00  .000E+00
  .000E+00  .000E+00  .000E+00  .000E+00  .000E+00  .000E+00  .000E+00  .000E+00
  .000E+00  .000E+00  .000E+00  .000E+00  .000E+00  .000E+00  .000E+00  .000E+00
  .000E+00  .000E+00  .000E+00  .000E+00  .000E+00  .000E+00  .000E+00  .000E+00
  .000E+00  .000E+00  .000E+00  .000E+00  .000E+00  .000E+00  .000E+00  .000E+00
  .000E+00  .000E+00  .000E+00  .000E+00  .000E+00  .000E+00  .000E+00  .000E+00
  .000E+00  .000E+00  .000E+00  .000E+00  .000E+00  .000E+00  .000E+00  .000E+00
  .000E+00  .000E+00  .000E+00  .000E+00
Damping =  .05. Data of Sd,Sv,Sa,Pssv,ttSd,ttSv,ttSa :
  .395E-03  .439E-03  .544E-03  .605E-03  .651E-03  .693E-03  .976E-03  .139E-02
  .142E-02  .131E-02  .128E-02  .157E-02  .164E-02  .211E-02  .262E-02  .303E-02
  .360E-02  .349E-02  .328E-02  .314E-02  .366E-02  .453E-02  .556E-02  .657E-02
  .731E-02  .797E-02  .856E-02  .955E-02  .101E-01  .102E-01  .107E-01  .107E-01
  .943E-02  .900E-02  .934E-02  .921E-02  .896E-02  .859E-02  .786E-02  .723E-02
