Response and Fourier amplitude spectra (78 periods,  .04 -  6.0 sec)   for      
Corrected accelerogram   23178-O0202-20263.07       Chan  1:  Up         from   
Uncorrected Accelerogram Data             Processed: 09/19/20, CGS  ce23178g    
Rcrd of Fri Sep 18, 2020 23:38:24.0 PDT               (Avol1 v2.0, 4/18 CSMIP)  
CSMIP Preliminary Processing            (Origin:  To be determined)             
23178-O0202-20263.07                 Start time:  9/19/20, 06:38:24.0 UTC (GPS) 
Station No. 23178   34.132N, 117.911W    Obsidn  s/n  202  (3 Chns of  3 at Sta)
Azusa - Foothill & San Gabriel            CGS   Data: Acceleration              
Chan  1:  Up                                                                    
Rcrd of Fri Sep 18, 2020 23:38:24.0 PDT    Fri Sep 18, 2020 23:38:24.0 PDT      
Hypocenter:  To be determined.               ML:  To be determined.             
Instr Period =  .0049 sec,  Damping =  .700,  Sensitivity = 1.26 v/g            
                        Record Length = 65.000 sec.                             
                                     Uncor Max  =   .019 g, at   31.325 sec.    
RMS accel of (uncor) record  =        .   Chn. metadata effective date: 08/04/16
Accelerogram bandpass filtered with 3 dB pts at   .30 and 40.00 cyc/sec         
                 instrument- and base-line correcte                             
                                                                                
                                                                                
                                                                                
                                                                                
                                                                                
Rcrd of Fri Sep 18, 2020 23:38:24.0 PDT    Fri Sep 18, 2020 23:38:24.0 PDT      
                                                                                
23178-O0202-20263.07      Azusa - Foothill & San Gabriel    Chan  1:  Up        
                                                                                
23178-O0202-20263.07      Azusa - Foothill & San Gabriel    Chan  1:  Up        
                                                                                
Units for spectra are inches and sec, except Sa is in fraction of g.            
                                                                                
    1  100    1    3    3  200    1    3    1   24   32  202    023178   11    0
    6   38   24    0  263    9   19 2020   10    3  50013000   39   30   74  360
13000    1  100    3  202    1    7  650    2 -999 -999 -999 -999 -999 -999 -999
 -999 -999    3 -99913000    1  202    0   24   20 -999 -999    3    1 -99913000
    313000    4   78    1    3    5    0    0 -999    0    0    1    3    1    2
    2    2    4    0   32   67    0    5 -999    0    0    1    0    0    0  222
    1    0    2    0
      .005      .700    65.000      .001     1.000  1255.200      .019    31.325
   204.000      .596      .475  -999.000     5.000  -999.000     4.000  -999.000
     5.000    12.964     5.000  -999.000    30.000    30.000  -999.000      .000
      .001      .001     2.000    15.000    34.132  -117.911      .012      .141
    11.565     -.009      .012   184.000    31.000    34.900    13.300    99.500
     1.000    11.003    -8.000  -999.000  -999.000  -999.000  -999.000  -999.000
     6.900     2.000     6.800   980.665      .005    65.000    32.468      .000
  -999.000    40.000  -999.000    65.000      .005      .300  -999.000  -999.000
    31.325    18.131    31.285     -.321    30.565      .017      .000      .300
    40.000      .005      .005      .000      .005      .012  -999.000  -999.000
      .060      .140      .034      .013      .002      .000  -999.000  -999.000
  -999.000  -999.000  -999.000  -999.000  -999.000  -999.000  -999.000  -999.000
  -999.000  -999.000  -999.000  -999.000
      .050
      .040      .042      .044      .046      .048      .050      .055      .060
      .065      .070      .075      .080      .085      .090      .095      .100
      .110      .120      .130      .140      .150      .160      .170      .180
      .190      .200      .220      .240      .260      .280      .300      .320
      .340      .360      .380      .400      .420      .440      .460      .480
      .500      .550      .600      .650      .700      .750      .800      .850
      .900      .950     1.000     1.100     1.200     1.300     1.400     1.500
     1.600     1.700     1.800     1.900     2.000     2.200     2.400     2.600
     2.800     3.000     3.200     3.400     3.600     3.800     4.000     4.200
     4.400     4.600     4.800     5.000     5.500     6.000      .000      .000
      .000      .000      .000      .000      .000      .000      .000      .000
      .000      .000      .000      .000      .000      .000      .000      .000
      .000      .000      .000      .000
Fourier amplitude spectra in in/sec.
  .000E+00  .000E+00  .000E+00  .000E+00  .000E+00  .000E+00  .000E+00  .000E+00
  .000E+00  .000E+00  .000E+00  .000E+00  .000E+00  .000E+00  .000E+00  .000E+00
  .000E+00  .000E+00  .000E+00  .000E+00  .000E+00  .000E+00  .000E+00  .000E+00
  .000E+00  .000E+00  .000E+00  .000E+00  .000E+00  .000E+00  .000E+00  .000E+00
  .000E+00  .000E+00  .000E+00  .000E+00  .000E+00  .000E+00  .000E+00  .000E+00
  .000E+00  .000E+00  .000E+00  .000E+00  .000E+00  .000E+00  .000E+00  .000E+00
  .000E+00  .000E+00  .000E+00  .000E+00  .000E+00  .000E+00  .000E+00  .000E+00
  .000E+00  .000E+00  .000E+00  .000E+00  .000E+00  .000E+00  .000E+00  .000E+00
  .000E+00  .000E+00  .000E+00  .000E+00  .000E+00  .000E+00  .000E+00  .000E+00
  .000E+00  .000E+00  .000E+00  .000E+00  .000E+00  .000E+00  .000E+00  .000E+00
  .000E+00  .000E+00  .000E+00  .000E+00  .000E+00  .000E+00  .000E+00  .000E+00
  .000E+00  .000E+00  .000E+00  .000E+00  .000E+00  .000E+00  .000E+00  .000E+00
  .000E+00  .000E+00  .000E+00  .000E+00
Damping =  .05. Data of Sd,Sv,Sa,Pssv,ttSd,ttSv,ttSa :
  .382E-03  .461E-03  .483E-03  .601E-03  .720E-03  .882E-03  .109E-02  .138E-02
  .140E-02  .189E-02  .307E-02  .358E-02  .402E-02  .442E-02  .347E-02  .387E-02
  .610E-02  .732E-02  .902E-02  .115E-01  .120E-01  .122E-01  .108E-01  .942E-02
  .104E-01  .133E-01  .173E-01  .178E-01  .155E-01  .124E-01  .102E-01  .980E-02
  .106E-01  .119E-01  .126E-01  .127E-01  .123E-01  .145E-01  .157E-01  .152E-01
  .148E-01  .133E-01  .115E-01  .124E-01  .127E-01  .129E-01  .129E-01  .144E-01
  .164E-01  .168E-01  .161E-01  .209E-01  .156E-01  .122E-01  .125E-01  .125E-01
  .124E-01  .116E-01  .120E-01  .128E-01  .147E-01  .185E-01  .163E-01  .175E-01
  .170E-01  .169E-01  .145E-01  .120E-01  .897E-02  .857E-02  .781E-02  .779E-02
  .772E-02  .766E-02  .762E-02  .757E-02  .741E-02  .730E-02  .000E+00  .000E+00
  .000E+00  .000E+00  .000E+00  .000E+00  .000E+00  .000E+00  .000E+00  .000E+00
  .000E+00  .000E+00  .000E+00  .000E+00  .000E+00  .000E+00  .000E+00  .000E+00
  .000E+00  .000E+00  .000E+00  .000E+00
  .367E-01  .447E-01  .503E-01  .635E-01  .788E-01  .902E-01  .103E+00  .128E+00
  .106E+00  .143E+00  .220E+00  .243E+00  .279E+00  .297E+00  .227E+00  .220E+00
  .341E+00  .366E+00  .406E+00  .540E+00  .527E+00  .485E+00  .420E+00  .355E+00
  .365E+00  .437E+00  .528E+00  .476E+00  .400E+00  .360E+00  .303E+00  .235E+00
  .278E+00  .269E+00  .249E+00  .285E+00  .288E+00  .281E+00  .245E+00  .248E+00
  .262E+00  .179E+00  .174E+00  .197E+00  .182E+00  .172E+00  .166E+00  .179E+00
  .181E+00  .183E+00  .178E+00  .163E+00  .160E+00  .158E+00  .148E+00  .136E+00
  .136E+00  .136E+00  .136E+00  .137E+00  .138E+00  .138E+00  .134E+00  .129E+00
  .125E+00  .122E+00  .125E+00  .126E+00  .127E+00  .128E+00  .128E+00  .128E+00
  .127E+00  .127E+00  .127E+00  .127E+00  .127E+00  .126E+00  .000E+00  .000E+00
  .000E+00  .000E+00  .000E+00  .000E+00  .000E+00  .000E+00  .000E+00  .000E+00
  .000E+00  .000E+00  .000E+00  .000E+00  .000E+00  .000E+00  .000E+00  .000E+00
  .000E+00  .000E+00  .000E+00  .000E+00
  .245E-01  .266E-01  .257E-01  .293E-01  .320E-01  .363E-01  .369E-01  .391E-01
  .338E-01  .394E-01  .555E-01  .574E-01  .567E-01  .561E-01  .399E-01  .397E-01
  .514E-01  .523E-01  .545E-01  .603E-01  .549E-01  .493E-01  .384E-01  .298E-01
  .298E-01  .342E-01  .368E-01  .318E-01  .236E-01  .163E-01  .116E-01  .988E-02
  .945E-02  .944E-02  .904E-02  .819E-02  .718E-02  .777E-02  .771E-02  .685E-02
  .607E-02  .455E-02  .327E-02  .303E-02  .269E-02  .241E-02  .208E-02  .204E-02
  .208E-02  .191E-02  .166E-02  .179E-02  .112E-02  .765E-03  .681E-03  .598E-03
  .503E-03  .429E-03  .383E-03  .367E-03  .377E-03  .393E-03  .292E-03  .266E-03
  .223E-03  .193E-03  .147E-03  .120E-03  .104E-03  .916E-04  .814E-04  .733E-04
  .670E-04  .619E-04  .575E-04  .537E-04  .465E-04  .411E-04  .000E+00  .000E+00
  .000E+00  .000E+00  .000E+00  .000E+00  .000E+00  .000E+00  .000E+00  .000E+00
  .000E+00  .000E+00  .000E+00  .000E+00  .000E+00  .000E+00  .000E+00  .000E+00
  .000E+00  .000E+00  .000E+00  .000E+00
  .600E-01  .689E-01  .690E-01  .820E-01  .943E-01  .111E+00  .125E+00  .145E+00
  .135E+00  .169E+00  .257E+00  .281E+00  .297E+00  .309E+00  .230E+00  .243E+00
  .348E+00  .383E+00  .436E+00  .515E+00  .503E+00  .480E+00  .399E+00  .329E+00
  .345E+00  .417E+00  .494E+00  .467E+00  .374E+00  .277E+00  .213E+00  .192E+00
  .196E+00  .207E+00  .209E+00  .199E+00  .183E+00  .208E+00  .215E+00  .199E+00
  .185E+00  .151E+00  .120E+00  .120E+00  .114E+00  .108E+00  .101E+00  .106E+00
  .114E+00  .111E+00  .101E+00  .119E+00  .817E-01  .588E-01  .559E-01  .525E-01
  .486E-01  .428E-01  .418E-01  .424E-01  .460E-01  .528E-01  .428E-01  .424E-01
  .381E-01  .353E-01  .286E-01  .221E-01  .157E-01  .142E-01  .123E-01  .117E-01
  .110E-01  .105E-01  .997E-02  .951E-02  .846E-02  .765E-02  .000E+00  .000E+00
  .000E+00  .000E+00  .000E+00  .000E+00  .000E+00  .000E+00  .000E+00  .000E+00
  .000E+00  .000E+00  .000E+00  .000E+00  .000E+00  .000E+00  .000E+00  .000E+00
  .000E+00  .000E+00  .000E+00  .000E+00
  .313E+02  .313E+02  .313E+02  .305E+02  .305E+02  .313E+02  .313E+02  .313E+02
  .310E+02  .305E+02  .305E+02  .313E+02  .305E+02  .306E+02  .312E+02  .313E+02
  .315E+02  .315E+02  .315E+02  .319E+02  .317E+02  .317E+02  .317E+02  .314E+02
  .314E+02  .314E+02  .318E+02  .330E+02  .326E+02  .317E+02  .312E+02  .304E+02
  .326E+02  .325E+02  .325E+02  .325E+02  .316E+02  .316E+02  .316E+02  .316E+02
  .365E+02  .310E+02  .345E+02  .365E+02  .340E+02  .324E+02  .382E+02  .383E+02
  .411E+02  .408E+02  .363E+02  .363E+02  .360E+02  .343E+02  .315E+02  .315E+02
  .406E+02  .440E+02  .400E+02  .522E+02  .523E+02  .634E+02  .635E+02  .626E+02
  .627E+02  .604E+02  .605E+02  .594E+02  .584E+02  .585E+02  .306E+02  .306E+02
  .306E+02  .306E+02  .306E+02  .306E+02  .306E+02  .306E+02  .000E+00  .000E+00
  .000E+00  .000E+00  .000E+00  .000E+00  .000E+00  .000E+00  .000E+00  .000E+00
  .000E+00  .000E+00  .000E+00  .000E+00  .000E+00  .000E+00  .000E+00  .000E+00
  .000E+00  .000E+00  .000E+00  .000E+00
  .296E+02  .313E+02  .303E+02  .305E+02  .306E+02  .306E+02  .305E+02  .313E+02
  .311E+02  .305E+02  .305E+02  .305E+02  .305E+02  .306E+02  .311E+02  .311E+02
  .315E+02  .315E+02  .315E+02  .319E+02  .318E+02  .318E+02  .317E+02  .314E+02
  .314E+02  .313E+02  .313E+02  .330E+02  .329E+02  .316E+02  .313E+02  .316E+02
  .325E+02  .325E+02  .325E+02  .316E+02  .316E+02  .317E+02  .317E+02  .316E+02
  .316E+02  .309E+02  .313E+02  .313E+02  .313E+02  .313E+02  .323E+02  .323E+02
  .316E+02  .316E+02  .316E+02  .316E+02  .316E+02  .316E+02  .316E+02  .316E+02
  .313E+02  .313E+02  .313E+02  .313E+02  .313E+02  .313E+02  .313E+02  .313E+02
  .316E+02  .313E+02  .313E+02  .313E+02  .313E+02  .313E+02  .313E+02  .313E+02
  .313E+02  .313E+02  .313E+02  .313E+02  .313E+02  .313E+02  .000E+00  .000E+00
  .000E+00  .000E+00  .000E+00  .000E+00  .000E+00  .000E+00  .000E+00  .000E+00
  .000E+00  .000E+00  .000E+00  .000E+00  .000E+00  .000E+00  .000E+00  .000E+00
  .000E+00  .000E+00  .000E+00  .000E+00
  .313E+02  .313E+02  .313E+02  .305E+02  .305E+02  .313E+02  .313E+02  .313E+02
  .310E+02  .305E+02  .305E+02  .313E+02  .305E+02  .306E+02  .312E+02  .313E+02
  .315E+02  .315E+02  .315E+02  .319E+02  .317E+02  .317E+02  .317E+02  .314E+02
  .314E+02  .314E+02  .318E+02  .330E+02  .326E+02  .317E+02  .312E+02  .304E+02
  .326E+02  .325E+02  .325E+02  .325E+02  .316E+02  .316E+02  .316E+02  .316E+02
  .364E+02  .310E+02  .345E+02  .365E+02  .340E+02  .323E+02  .382E+02  .383E+02
  .411E+02  .408E+02  .363E+02  .363E+02  .360E+02  .343E+02  .315E+02  .315E+02
  .315E+02  .315E+02  .400E+02  .521E+02  .522E+02  .634E+02  .635E+02  .625E+02
  .627E+02  .603E+02  .604E+02  .313E+02  .313E+02  .313E+02  .313E+02  .313E+02
  .313E+02  .313E+02  .313E+02  .313E+02  .313E+02  .313E+02  .000E+00  .000E+00
  .000E+00  .000E+00  .000E+00  .000E+00  .000E+00  .000E+00  .000E+00  .000E+00
  .000E+00  .000E+00  .000E+00  .000E+00  .000E+00  .000E+00  .000E+00  .000E+00
  .000E+00  .000E+00  .000E+00  .000E+00
/&   ----------  End of spectral data for channel  1  ----------
Response and Fourier amplitude spectra (78 periods,  .04 -  6.0 sec)   for      
Corrected accelerogram   23178-O0202-20263.07       Chan  2: 360 Deg     from   
Uncorrected Accelerogram Data             Processed: 09/19/20, CGS  ce23178g    
Rcrd of Fri Sep 18, 2020 23:38:24.0 PDT               (Avol1 v2.0, 4/18 CSMIP)  
CSMIP Preliminary Processing            (Origin:  To be determined)             
23178-O0202-20263.07                 Start time:  9/19/20, 06:38:24.0 UTC (GPS) 
Station No. 23178   34.132N, 117.911W    Obsidn  s/n  202  (3 Chns of  3 at Sta)
Azusa - Foothill & San Gabriel            CGS   Data: Acceleration              
Chan  2: 360 Deg                                                                
Rcrd of Fri Sep 18, 2020 23:38:24.0 PDT    Fri Sep 18, 2020 23:38:24.0 PDT      
Hypocenter:  To be determined.               ML:  To be determined.             
Instr Period =  .0050 sec,  Damping =  .700,  Sensitivity = 1.25 v/g            
                        Record Length = 65.000 sec.                             
                                     Uncor Max  =   .020 g, at   30.930 sec.    
RMS accel of (uncor) record  =        .   Chn. metadata effective date: 08/04/16
Accelerogram bandpass filtered with 3 dB pts at   .30 and 40.00 cyc/sec         
                 instrument- and base-line correcte                             
                                                                                
                                                                                
                                                                                
                                                                                
                                                                                
Rcrd of Fri Sep 18, 2020 23:38:24.0 PDT    Fri Sep 18, 2020 23:38:24.0 PDT      
                                                                                
23178-O0202-20263.07      Azusa - Foothill & San Gabriel    Chan  2: 360 Deg    
                                                                                
23178-O0202-20263.07      Azusa - Foothill & San Gabriel    Chan  2: 360 Deg    
                                                                                
Units for spectra are inches and sec, except Sa is in fraction of g.            
                                                                                
    2  100    2    3    3  200    1    3    1   24   32  202    023178   11    0
    6   38   24    0  263    9   19 2020   10    3  36013000   39   30   74  360
13000    1  100    3  202    1    7  650    2 -999 -999 -999 -999 -999 -999 -999
 -999 -999    3 -99913000    1  202    0   24   20 -999 -999    3    1 -99913000
    313000    4   78    1    3    5    0    0 -999    0    0    1    3    1    2
    2    2    4    0   32   67    0    5 -999    0    0    1    0    0    0  222
    1    0    2    0
      .005      .700    65.000      .002     1.000  1250.600      .020    30.930
   200.000      .596      .477  -999.000     5.000  -999.000     4.000  -999.000
     5.000     -.095     5.000  -999.000    30.000    30.000  -999.000      .000
     -.005     -.005     2.000    15.000    34.132  -117.911      .008      .167
    21.066     -.017      .007   184.000    31.000    34.900    13.300    99.500
     1.000    11.003    -8.000  -999.000  -999.000  -999.000  -999.000  -999.000
     6.900     2.000     6.800   980.665      .005    65.000    31.831      .000
  -999.000    40.000  -999.000    65.000      .005      .300  -999.000  -999.000
    30.930    19.141    30.865     -.822    30.945     -.065      .000      .300
    40.000      .005      .005      .000      .005      .013  -999.000  -999.000
      .078      .110      .038      .034      .004      .000  -999.000  -999.000
  -999.000  -999.000  -999.000  -999.000  -999.000  -999.000  -999.000  -999.000
  -999.000  -999.000  -999.000  -999.000
      .050
      .040      .042      .044      .046      .048      .050      .055      .060
      .065      .070      .075      .080      .085      .090      .095      .100
      .110      .120      .130      .140      .150      .160      .170      .180
      .190      .200      .220      .240      .260      .280      .300      .320
      .340      .360      .380      .400      .420      .440      .460      .480
      .500      .550      .600      .650      .700      .750      .800      .850
      .900      .950     1.000     1.100     1.200     1.300     1.400     1.500
     1.600     1.700     1.800     1.900     2.000     2.200     2.400     2.600
     2.800     3.000     3.200     3.400     3.600     3.800     4.000     4.200
     4.400     4.600     4.800     5.000     5.500     6.000      .000      .000
      .000      .000      .000      .000      .000      .000      .000      .000
      .000      .000      .000      .000      .000      .000      .000      .000
      .000      .000      .000      .000
Fourier amplitude spectra in in/sec.
  .000E+00  .000E+00  .000E+00  .000E+00  .000E+00  .000E+00  .000E+00  .000E+00
  .000E+00  .000E+00  .000E+00  .000E+00  .000E+00  .000E+00  .000E+00  .000E+00
  .000E+00  .000E+00  .000E+00  .000E+00  .000E+00  .000E+00  .000E+00  .000E+00
  .000E+00  .000E+00  .000E+00  .000E+00  .000E+00  .000E+00  .000E+00  .000E+00
  .000E+00  .000E+00  .000E+00  .000E+00  .000E+00  .000E+00  .000E+00  .000E+00
  .000E+00  .000E+00  .000E+00  .000E+00  .000E+00  .000E+00  .000E+00  .000E+00
  .000E+00  .000E+00  .000E+00  .000E+00  .000E+00  .000E+00  .000E+00  .000E+00
  .000E+00  .000E+00  .000E+00  .000E+00  .000E+00  .000E+00  .000E+00  .000E+00
  .000E+00  .000E+00  .000E+00  .000E+00  .000E+00  .000E+00  .000E+00  .000E+00
  .000E+00  .000E+00  .000E+00  .000E+00  .000E+00  .000E+00  .000E+00  .000E+00
  .000E+00  .000E+00  .000E+00  .000E+00  .000E+00  .000E+00  .000E+00  .000E+00
  .000E+00  .000E+00  .000E+00  .000E+00  .000E+00  .000E+00  .000E+00  .000E+00
  .000E+00  .000E+00  .000E+00  .000E+00
Damping =  .05. Data of Sd,Sv,Sa,Pssv,ttSd,ttSv,ttSa :
  .380E-03  .421E-03  .487E-03  .536E-03  .626E-03  .797E-03  .118E-02  .135E-02
  .155E-02  .170E-02  .246E-02  .297E-02  .338E-02  .347E-02  .390E-02  .541E-02
  .909E-02  .102E-01  .872E-02  .839E-02  .122E-01  .157E-01  .156E-01  .126E-01
  .119E-01  .132E-01  .220E-01  .200E-01  .245E-01  .285E-01  .288E-01  .301E-01
  .285E-01  .273E-01  .288E-01  .311E-01  .314E-01  .338E-01  .362E-01  .378E-01
