Response and Fourier amplitude spectra (78 periods,  .04 -  6.0 sec)   for      
Corrected accelerogram   23938-O0187-20263.20       Chan  1:  Up         from   
Uncorrected Accelerogram Data             Processed: 09/19/20, CGS  ce23938t    
Rcrd of Fri Sep 18, 2020 23:38:30.0 PDT               (Avol1 v2.0, 4/18 CSMIP)  
CSMIP Preliminary Processing            (Origin:  To be determined)             
23938-O0187-20263.20                 Start time:  9/19/20, 06:38:30.0 UTC (GPS) 
Station No. 23938   34.021N, 117.866W    Obsidn  s/n  187  (3 Chns of  3 at Sta)
Walnut - La Puente & Lemon                CGS   Data: Acceleration              
Chan  1:  Up                                                                    
Rcrd of Fri Sep 18, 2020 23:38:30.0 PDT    Fri Sep 18, 2020 23:38:30.0 PDT      
Hypocenter:  To be determined.               ML:  To be determined.             
Instr Period =  .0048 sec,  Damping =  .700,  Sensitivity = 1.25 v/g            
                        Record Length = 57.000 sec.                             
                                     Uncor Max  =   .014 g, at   25.560 sec.    
RMS accel of (uncor) record  =        .   Chn. metadata effective date: 09/15/15
Accelerogram bandpass filtered with 3 dB pts at   .30 and 40.00 cyc/sec         
                 instrument- and base-line correcte                             
                                                                                
                                                                                
                                                                                
                                                                                
                                                                                
Rcrd of Fri Sep 18, 2020 23:38:30.0 PDT    Fri Sep 18, 2020 23:38:30.0 PDT      
                                                                                
23938-O0187-20263.20      Walnut - La Puente & Lemon    Chan  1:  Up            
                                                                                
23938-O0187-20263.20      Walnut - La Puente & Lemon    Chan  1:  Up            
                                                                                
Units for spectra are inches and sec, except Sa is in fraction of g.            
                                                                                
    1  100    1    3    3  200    1    3    1   24   32  187    023938   11    0
    6   38   30    0  263    9   19 2020   10    3  50011400   39   26   74  360
11400    1  100    3  187    1   20  570    2 -999 -999 -999 -999 -999 -999 -999
 -999 -999    3 -99911400    1  202    0   24   20 -999 -999    3    1 -99911400
    311400    4   78    1    3    5    0    0 -999    0    0    1    3    1    2
    2    2    4    0   32   67    0    5 -999    0    0    1    0    0    0  222
    1    0    2    0
      .005      .700    57.000      .002     1.000  1252.600      .014    25.560
   210.000      .596      .476  -999.000     5.000  -999.000     4.000  -999.000
     5.000     2.509     5.000  -999.000    25.000    30.000  -999.000      .000
      .002      .002     2.000    15.000    34.021  -117.866      .052      .188
     3.603     -.014      .017   175.000    25.000    27.900    13.300    98.420
     1.000    11.003    -8.000  -999.000  -999.000  -999.000  -999.000  -999.000
     6.900     2.000     6.800   980.665      .005    57.000    33.423      .000
  -999.000    40.000  -999.000    57.000      .005      .300  -999.000  -999.000
    25.560    14.016    25.835     -.350    25.795      .016      .000      .300
    40.000      .005      .005      .000      .005      .011  -999.000  -999.000
      .066      .150      .020      .016      .001      .000  -999.000  -999.000
  -999.000  -999.000  -999.000  -999.000  -999.000  -999.000  -999.000  -999.000
  -999.000  -999.000  -999.000  -999.000
      .050
      .040      .042      .044      .046      .048      .050      .055      .060
      .065      .070      .075      .080      .085      .090      .095      .100
      .110      .120      .130      .140      .150      .160      .170      .180
      .190      .200      .220      .240      .260      .280      .300      .320
      .340      .360      .380      .400      .420      .440      .460      .480
      .500      .550      .600      .650      .700      .750      .800      .850
      .900      .950     1.000     1.100     1.200     1.300     1.400     1.500
     1.600     1.700     1.800     1.900     2.000     2.200     2.400     2.600
     2.800     3.000     3.200     3.400     3.600     3.800     4.000     4.200
     4.400     4.600     4.800     5.000     5.500     6.000      .000      .000
      .000      .000      .000      .000      .000      .000      .000      .000
      .000      .000      .000      .000      .000      .000      .000      .000
      .000      .000      .000      .000
Fourier amplitude spectra in in/sec.
  .000E+00  .000E+00  .000E+00  .000E+00  .000E+00  .000E+00  .000E+00  .000E+00
  .000E+00  .000E+00  .000E+00  .000E+00  .000E+00  .000E+00  .000E+00  .000E+00
  .000E+00  .000E+00  .000E+00  .000E+00  .000E+00  .000E+00  .000E+00  .000E+00
  .000E+00  .000E+00  .000E+00  .000E+00  .000E+00  .000E+00  .000E+00  .000E+00
  .000E+00  .000E+00  .000E+00  .000E+00  .000E+00  .000E+00  .000E+00  .000E+00
  .000E+00  .000E+00  .000E+00  .000E+00  .000E+00  .000E+00  .000E+00  .000E+00
  .000E+00  .000E+00  .000E+00  .000E+00  .000E+00  .000E+00  .000E+00  .000E+00
  .000E+00  .000E+00  .000E+00  .000E+00  .000E+00  .000E+00  .000E+00  .000E+00
  .000E+00  .000E+00  .000E+00  .000E+00  .000E+00  .000E+00  .000E+00  .000E+00
  .000E+00  .000E+00  .000E+00  .000E+00  .000E+00  .000E+00  .000E+00  .000E+00
  .000E+00  .000E+00  .000E+00  .000E+00  .000E+00  .000E+00  .000E+00  .000E+00
  .000E+00  .000E+00  .000E+00  .000E+00  .000E+00  .000E+00  .000E+00  .000E+00
  .000E+00  .000E+00  .000E+00  .000E+00
Damping =  .05. Data of Sd,Sv,Sa,Pssv,ttSd,ttSv,ttSa :
  .386E-03  .374E-03  .432E-03  .536E-03  .609E-03  .662E-03  .955E-03  .104E-02
  .118E-02  .163E-02  .181E-02  .252E-02  .318E-02  .323E-02  .372E-02  .524E-02
  .562E-02  .698E-02  .772E-02  .105E-01  .144E-01  .150E-01  .139E-01  .108E-01
  .822E-02  .741E-02  .829E-02  .104E-01  .103E-01  .126E-01  .147E-01  .147E-01
  .158E-01  .152E-01  .142E-01  .145E-01  .132E-01  .137E-01  .131E-01  .129E-01
  .149E-01  .109E-01  .119E-01  .103E-01  .104E-01  .103E-01  .101E-01  .982E-02
  .106E-01  .110E-01  .106E-01  .884E-02  .788E-02  .852E-02  .122E-01  .152E-01
  .168E-01  .163E-01  .185E-01  .157E-01  .113E-01  .104E-01  .113E-01  .958E-02
  .730E-02  .700E-02  .807E-02  .902E-02  .845E-02  .750E-02  .741E-02  .725E-02
  .704E-02  .684E-02  .667E-02  .651E-02  .653E-02  .654E-02  .000E+00  .000E+00
  .000E+00  .000E+00  .000E+00  .000E+00  .000E+00  .000E+00  .000E+00  .000E+00
  .000E+00  .000E+00  .000E+00  .000E+00  .000E+00  .000E+00  .000E+00  .000E+00
  .000E+00  .000E+00  .000E+00  .000E+00
  .366E-01  .349E-01  .339E-01  .423E-01  .557E-01  .622E-01  .864E-01  .947E-01
  .969E-01  .133E+00  .144E+00  .171E+00  .231E+00  .204E+00  .214E+00  .297E+00
  .301E+00  .355E+00  .348E+00  .471E+00  .618E+00  .572E+00  .530E+00  .394E+00
  .302E+00  .261E+00  .254E+00  .275E+00  .263E+00  .327E+00  .324E+00  .347E+00
  .383E+00  .334E+00  .299E+00  .243E+00  .242E+00  .229E+00  .225E+00  .216E+00
  .207E+00  .184E+00  .184E+00  .161E+00  .154E+00  .145E+00  .154E+00  .167E+00
  .162E+00  .151E+00  .149E+00  .144E+00  .142E+00  .146E+00  .146E+00  .142E+00
  .141E+00  .144E+00  .149E+00  .152E+00  .153E+00  .150E+00  .145E+00  .143E+00
  .142E+00  .142E+00  .143E+00  .143E+00  .143E+00  .143E+00  .142E+00  .142E+00
  .141E+00  .141E+00  .141E+00  .140E+00  .140E+00  .139E+00  .000E+00  .000E+00
  .000E+00  .000E+00  .000E+00  .000E+00  .000E+00  .000E+00  .000E+00  .000E+00
  .000E+00  .000E+00  .000E+00  .000E+00  .000E+00  .000E+00  .000E+00  .000E+00
  .000E+00  .000E+00  .000E+00  .000E+00
  .247E-01  .216E-01  .229E-01  .260E-01  .270E-01  .269E-01  .327E-01  .297E-01
  .288E-01  .342E-01  .334E-01  .406E-01  .451E-01  .412E-01  .427E-01  .538E-01
  .475E-01  .501E-01  .467E-01  .549E-01  .656E-01  .603E-01  .495E-01  .342E-01
  .234E-01  .191E-01  .176E-01  .185E-01  .157E-01  .165E-01  .169E-01  .148E-01
  .141E-01  .121E-01  .101E-01  .933E-02  .769E-02  .729E-02  .639E-02  .579E-02
  .614E-02  .371E-02  .340E-02  .250E-02  .218E-02  .190E-02  .162E-02  .143E-02
  .139E-02  .128E-02  .109E-02  .750E-03  .574E-03  .521E-03  .646E-03  .702E-03
  .676E-03  .580E-03  .594E-03  .453E-03  .293E-03  .227E-03  .205E-03  .150E-03
  .106E-03  .100E-03  .976E-04  .929E-04  .866E-04  .800E-04  .739E-04  .682E-04
  .629E-04  .582E-04  .543E-04  .508E-04  .439E-04  .388E-04  .000E+00  .000E+00
  .000E+00  .000E+00  .000E+00  .000E+00  .000E+00  .000E+00  .000E+00  .000E+00
  .000E+00  .000E+00  .000E+00  .000E+00  .000E+00  .000E+00  .000E+00  .000E+00
  .000E+00  .000E+00  .000E+00  .000E+00
  .607E-01  .559E-01  .617E-01  .733E-01  .797E-01  .831E-01  .109E+00  .109E+00
  .115E+00  .147E+00  .152E+00  .198E+00  .235E+00  .226E+00  .246E+00  .329E+00
  .321E+00  .365E+00  .373E+00  .472E+00  .603E+00  .589E+00  .514E+00  .376E+00
  .272E+00  .233E+00  .237E+00  .272E+00  .250E+00  .283E+00  .308E+00  .289E+00
  .293E+00  .265E+00  .235E+00  .228E+00  .197E+00  .196E+00  .179E+00  .169E+00
  .187E+00  .124E+00  .124E+00  .997E-01  .930E-01  .867E-01  .790E-01  .726E-01
  .743E-01  .725E-01  .668E-01  .505E-01  .412E-01  .412E-01  .548E-01  .638E-01
  .659E-01  .602E-01  .646E-01  .520E-01  .355E-01  .298E-01  .296E-01  .231E-01
  .164E-01  .147E-01  .159E-01  .167E-01  .147E-01  .124E-01  .116E-01  .108E-01
  .101E-01  .934E-02  .873E-02  .818E-02  .746E-02  .685E-02  .000E+00  .000E+00
  .000E+00  .000E+00  .000E+00  .000E+00  .000E+00  .000E+00  .000E+00  .000E+00
  .000E+00  .000E+00  .000E+00  .000E+00  .000E+00  .000E+00  .000E+00  .000E+00
  .000E+00  .000E+00  .000E+00  .000E+00
  .256E+02  .256E+02  .256E+02  .256E+02  .256E+02  .256E+02  .252E+02  .256E+02
  .268E+02  .268E+02  .268E+02  .261E+02  .253E+02  .253E+02  .261E+02  .261E+02
  .262E+02  .266E+02  .256E+02  .260E+02  .259E+02  .259E+02  .262E+02  .262E+02
  .262E+02  .262E+02  .310E+02  .254E+02  .257E+02  .256E+02  .256E+02  .268E+02
  .269E+02  .267E+02  .323E+02  .323E+02  .321E+02  .321E+02  .320E+02  .299E+02
  .299E+02  .268E+02  .298E+02  .348E+02  .343E+02  .320E+02  .320E+02  .318E+02
  .318E+02  .318E+02  .504E+02  .500E+02  .401E+02  .340E+02  .340E+02  .365E+02
  .360E+02  .361E+02  .424E+02  .354E+02  .355E+02  .354E+02  .355E+02  .347E+02
  .298E+02  .355E+02  .347E+02  .347E+02  .350E+02  .266E+02  .266E+02  .266E+02
  .266E+02  .266E+02  .266E+02  .266E+02  .258E+02  .258E+02  .000E+00  .000E+00
  .000E+00  .000E+00  .000E+00  .000E+00  .000E+00  .000E+00  .000E+00  .000E+00
  .000E+00  .000E+00  .000E+00  .000E+00  .000E+00  .000E+00  .000E+00  .000E+00
  .000E+00  .000E+00  .000E+00  .000E+00
  .255E+02  .253E+02  .255E+02  .251E+02  .261E+02  .260E+02  .252E+02  .244E+02
  .260E+02  .268E+02  .268E+02  .260E+02  .250E+02  .253E+02  .261E+02  .261E+02
  .261E+02  .267E+02  .268E+02  .259E+02  .259E+02  .259E+02  .259E+02  .265E+02
  .256E+02  .265E+02  .254E+02  .255E+02  .254E+02  .257E+02  .257E+02  .259E+02
  .268E+02  .268E+02  .265E+02  .262E+02  .262E+02  .258E+02  .258E+02  .258E+02
  .268E+02  .268E+02  .258E+02  .258E+02  .258E+02  .319E+02  .319E+02  .319E+02
  .319E+02  .319E+02  .261E+02  .258E+02  .261E+02  .258E+02  .258E+02  .258E+02
  .258E+02  .258E+02  .258E+02  .258E+02  .258E+02  .258E+02  .258E+02  .258E+02
  .258E+02  .258E+02  .258E+02  .258E+02  .258E+02  .258E+02  .258E+02  .258E+02
  .258E+02  .258E+02  .258E+02  .258E+02  .258E+02  .258E+02  .000E+00  .000E+00
  .000E+00  .000E+00  .000E+00  .000E+00  .000E+00  .000E+00  .000E+00  .000E+00
  .000E+00  .000E+00  .000E+00  .000E+00  .000E+00  .000E+00  .000E+00  .000E+00
  .000E+00  .000E+00  .000E+00  .000E+00
  .256E+02  .256E+02  .256E+02  .256E+02  .256E+02  .256E+02  .252E+02  .256E+02
  .268E+02  .268E+02  .268E+02  .261E+02  .250E+02  .253E+02  .261E+02  .261E+02
  .262E+02  .266E+02  .256E+02  .259E+02  .259E+02  .259E+02  .262E+02  .262E+02
  .262E+02  .262E+02  .310E+02  .254E+02  .257E+02  .256E+02  .256E+02  .268E+02
  .268E+02  .267E+02  .323E+02  .323E+02  .321E+02  .321E+02  .320E+02  .299E+02
  .299E+02  .267E+02  .297E+02  .348E+02  .343E+02  .320E+02  .320E+02  .317E+02
  .318E+02  .318E+02  .504E+02  .500E+02  .318E+02  .340E+02  .340E+02  .365E+02
  .359E+02  .360E+02  .424E+02  .354E+02  .354E+02  .354E+02  .354E+02  .346E+02
  .298E+02  .265E+02  .265E+02  .265E+02  .265E+02  .265E+02  .265E+02  .265E+02
  .265E+02  .265E+02  .265E+02  .265E+02  .265E+02  .265E+02  .000E+00  .000E+00
  .000E+00  .000E+00  .000E+00  .000E+00  .000E+00  .000E+00  .000E+00  .000E+00
  .000E+00  .000E+00  .000E+00  .000E+00  .000E+00  .000E+00  .000E+00  .000E+00
  .000E+00  .000E+00  .000E+00  .000E+00
/&   ----------  End of spectral data for channel  1  ----------
Response and Fourier amplitude spectra (78 periods,  .04 -  6.0 sec)   for      
Corrected accelerogram   23938-O0187-20263.20       Chan  2: 360 Deg     from   
Uncorrected Accelerogram Data             Processed: 09/19/20, CGS  ce23938t    
Rcrd of Fri Sep 18, 2020 23:38:30.0 PDT               (Avol1 v2.0, 4/18 CSMIP)  
CSMIP Preliminary Processing            (Origin:  To be determined)             
23938-O0187-20263.20                 Start time:  9/19/20, 06:38:30.0 UTC (GPS) 
Station No. 23938   34.021N, 117.866W    Obsidn  s/n  187  (3 Chns of  3 at Sta)
Walnut - La Puente & Lemon                CGS   Data: Acceleration              
Chan  2: 360 Deg                                                                
Rcrd of Fri Sep 18, 2020 23:38:30.0 PDT    Fri Sep 18, 2020 23:38:30.0 PDT      
Hypocenter:  To be determined.               ML:  To be determined.             
Instr Period =  .0049 sec,  Damping =  .700,  Sensitivity = 1.25 v/g            
                        Record Length = 57.000 sec.                             
                                     Uncor Max  =  -.037 g, at   25.610 sec.    
RMS accel of (uncor) record  =        .   Chn. metadata effective date: 09/15/15
Accelerogram bandpass filtered with 3 dB pts at   .30 and 40.00 cyc/sec         
                 instrument- and base-line correcte                             
                                                                                
                                                                                
                                                                                
                                                                                
                                                                                
Rcrd of Fri Sep 18, 2020 23:38:30.0 PDT    Fri Sep 18, 2020 23:38:30.0 PDT      
                                                                                
23938-O0187-20263.20      Walnut - La Puente & Lemon    Chan  2: 360 Deg        
                                                                                
23938-O0187-20263.20      Walnut - La Puente & Lemon    Chan  2: 360 Deg        
                                                                                
Units for spectra are inches and sec, except Sa is in fraction of g.            
                                                                                
    2  100    2    3    3  200    1    3    1   24   32  187    023938   11    0
    6   38   30    0  263    9   19 2020   10    3  36011400   39   26   74  360
11400    1  100    3  187    1   20  570    2 -999 -999 -999 -999 -999 -999 -999
 -999 -999    3 -99911400    1  202    0   24   20 -999 -999    3    1 -99911400
    311400    4   78    1    3    5    0    0 -999    0    0    1    3    1    2
    2    2    4    0   32   67    0    5 -999    0    0    1    0    0    0  222
    1    0    2    0
      .005      .700    57.000      .002     1.000  1249.200     -.037    25.610
   206.000      .596      .477  -999.000     5.000  -999.000     4.000  -999.000
     5.000    14.100     5.000  -999.000    25.000    30.000  -999.000      .001
     -.006     -.008     2.000    15.000    34.021  -117.866      .013      .386
    30.331     -.037      .022   175.000    25.000    27.900    13.300    98.420
     1.000    11.003    -8.000  -999.000  -999.000  -999.000  -999.000  -999.000
     6.900     2.000     6.800   980.665      .005    57.000    32.786      .000
  -999.000    40.000  -999.000    57.000      .005      .300  -999.000  -999.000
    25.610   -36.267    25.640    -1.024    25.280      .047      .000      .300
    40.000      .005      .005      .000      .005      .021  -999.000  -999.000
      .113      .160      .051      .064      .002      .000  -999.000  -999.000
  -999.000  -999.000  -999.000  -999.000  -999.000  -999.000  -999.000  -999.000
  -999.000  -999.000  -999.000  -999.000
      .050
      .040      .042      .044      .046      .048      .050      .055      .060
      .065      .070      .075      .080      .085      .090      .095      .100
      .110      .120      .130      .140      .150      .160      .170      .180
      .190      .200      .220      .240      .260      .280      .300      .320
      .340      .360      .380      .400      .420      .440      .460      .480
      .500      .550      .600      .650      .700      .750      .800      .850
      .900      .950     1.000     1.100     1.200     1.300     1.400     1.500
     1.600     1.700     1.800     1.900     2.000     2.200     2.400     2.600
     2.800     3.000     3.200     3.400     3.600     3.800     4.000     4.200
     4.400     4.600     4.800     5.000     5.500     6.000      .000      .000
      .000      .000      .000      .000      .000      .000      .000      .000
      .000      .000      .000      .000      .000      .000      .000      .000
      .000      .000      .000      .000
Fourier amplitude spectra in in/sec.
  .000E+00  .000E+00  .000E+00  .000E+00  .000E+00  .000E+00  .000E+00  .000E+00
  .000E+00  .000E+00  .000E+00  .000E+00  .000E+00  .000E+00  .000E+00  .000E+00
  .000E+00  .000E+00  .000E+00  .000E+00  .000E+00  .000E+00  .000E+00  .000E+00
  .000E+00  .000E+00  .000E+00  .000E+00  .000E+00  .000E+00  .000E+00  .000E+00
  .000E+00  .000E+00  .000E+00  .000E+00  .000E+00  .000E+00  .000E+00  .000E+00
  .000E+00  .000E+00  .000E+00  .000E+00  .000E+00  .000E+00  .000E+00  .000E+00
  .000E+00  .000E+00  .000E+00  .000E+00  .000E+00  .000E+00  .000E+00  .000E+00
  .000E+00  .000E+00  .000E+00  .000E+00  .000E+00  .000E+00  .000E+00  .000E+00
  .000E+00  .000E+00  .000E+00  .000E+00  .000E+00  .000E+00  .000E+00  .000E+00
  .000E+00  .000E+00  .000E+00  .000E+00  .000E+00  .000E+00  .000E+00  .000E+00
  .000E+00  .000E+00  .000E+00  .000E+00  .000E+00  .000E+00  .000E+00  .000E+00
  .000E+00  .000E+00  .000E+00  .000E+00  .000E+00  .000E+00  .000E+00  .000E+00
  .000E+00  .000E+00  .000E+00  .000E+00
Damping =  .05. Data of Sd,Sv,Sa,Pssv,ttSd,ttSv,ttSa :
  .637E-03  .718E-03  .801E-03  .916E-03  .103E-02  .111E-02  .134E-02  .143E-02
  .191E-02  .278E-02  .384E-02  .458E-02  .464E-02  .515E-02  .522E-02  .658E-02
  .978E-02  .130E-01  .138E-01  .163E-01  .229E-01  .281E-01  .282E-01  .257E-01
  .219E-01  .186E-01  .203E-01  .311E-01  .393E-01  .518E-01  .592E-01  .570E-01
  .516E-01  .508E-01  .471E-01  .400E-01  .376E-01  .387E-01  .386E-01  .352E-01
