Response and Fourier amplitude spectra (91 periods,  .04 - 15.0 sec)   for      
Corrected accelerogram   24260-K2419-20263.09       Chan  1:  Up         from   
Uncorrected Accelerogram Data             Processed: 09/19/20, CGS  260ax009    
Rcrd of Fri Sep 18, 2020 23:38:21.0 PDT               (Avol1 v2.0, 4/18 CSMIP)  
CSMIP Preliminary Processing            (Origin:  To be determined)             
24260-K2419-20263.09                 Start time:  9/19/20, 06:38:21.0 UTC (GPS) 
Station No. 24260   34.062N, 118.201W    K2      s/n 2419 (12 Chns of 12 at Sta)
Los Angeles - 9-story Univ Hospital Bldg  CGS   Data: Acceleration              
Chan  1:  Up                        Location: Basement: West Wall               
Rcrd of Fri Sep 18, 2020 23:38:21.0 PDT    Fri Sep 18, 2020 23:38:21.0 PDT      
Hypocenter:  To be determined.               ML:  To be determined.             
Instr Period =  .0107 sec,  Damping =  .690,  Sensitivity =  .63 v/g            
                        Record Length = 60.000 sec.                             
                                     Uncor Max  =  -.026 g, at   33.335 sec.    
RMS accel of (uncor) record  =        .   Chn. metadata effective date: 10/11/05
Accelerogram bandpass filtered with 3 dB pts at   .30 and 23.00 cyc/sec         
                 instrument- and base-line correcte                             
                                                                                
                                                                                
                                                                                
                                                                                
                                                                                
Rcrd of Fri Sep 18, 2020 23:38:21.0 PDT    Fri Sep 18, 2020 23:38:21.0 PDT      
                                                                                
24260-K2419-20263.09      Los Angeles - 9-story Univ Hospital Bldg  CGChan  1:  
Up                                                                              
24260-K2419-20263.09      Los Angeles - 9-story Univ Hospital Bldg  CGChan  1:  
Up                                                                              
Units for spectra are inches and sec, except Sa is in fraction of g.            
                                                                                
    1  100    1   12   12  200    1    3    1   24   11 2419    024260    2    0
    6   38   21    0  263    9   19 2020   10    3  50014400   39   40   74    3
14400    1  100    3 2419    1    9  720    2 -999 -999 -999 -999 -999 -999 -999
 -999 -999    3 -99912000    1  222    1   18    4 -999 -999    3    1 -99912000
    312000    4   91    1   12    5    0    0 -999    0    0    1    3    1    2
    2    2    4    0   72   67    0    3 -999    0    0    1    0    0    0  222
    0    0    0    0
      .011      .690    72.000      .002     1.000   627.000     -.026    33.335
    93.200      .298      .475  -999.000     5.000  -999.000     4.000  -999.000
     2.500    40.729     2.500  -999.000    30.000    30.000  -999.000     -.002
      .000      .002     2.000    15.000    34.062  -118.201      .016      .089
     5.444     -.004      .009  -999.000    30.400    41.200    13.100    83.660
     1.000    11.003    -8.000  -999.000  -999.000  -999.000  -999.000  -999.000
     6.900     2.000     6.800   980.665      .005    60.000    14.833      .000
  -999.000    23.000  -999.000    60.000      .005      .303  -999.000  -999.000
    33.335   -24.305    33.525      .704    33.470     -.042      .000      .303
    23.000      .005      .005      .000      .005      .017  -999.000  -999.000
      .098      .120      .057      .037      .002      .000  -999.000  -999.000
  -999.000  -999.000  -999.000  -999.000  -999.000  -999.000  -999.000  -999.000
  -999.000  -999.000  -999.000  -999.000
      .050
      .040      .042      .044      .046      .048      .050      .055      .060
      .065      .070      .075      .080      .085      .090      .095      .100
      .110      .120      .130      .140      .150      .160      .170      .180
      .190      .200      .220      .240      .260      .280      .300      .320
      .340      .360      .380      .400      .420      .440      .460      .480
      .500      .550      .600      .650      .700      .750      .800      .850
      .900      .950     1.000     1.100     1.200     1.300     1.400     1.500
     1.600     1.700     1.800     1.900     2.000     2.200     2.400     2.600
     2.800     3.000     3.200     3.400     3.600     3.800     4.000     4.200
     4.400     4.600     4.800     5.000     5.500     6.000     6.500     7.000
     7.500     8.000     8.500     9.000     9.500    10.000    11.000    12.000
    13.000    14.000    15.000      .000      .000      .000      .000      .000
      .000      .000      .000      .000
Fourier amplitude spectra in in/sec.
  .000E+00  .000E+00  .000E+00  .000E+00  .000E+00  .000E+00  .000E+00  .000E+00
  .000E+00  .000E+00  .000E+00  .000E+00  .000E+00  .000E+00  .000E+00  .000E+00
  .000E+00  .000E+00  .000E+00  .000E+00  .000E+00  .000E+00  .000E+00  .000E+00
  .000E+00  .000E+00  .000E+00  .000E+00  .000E+00  .000E+00  .000E+00  .000E+00
  .000E+00  .000E+00  .000E+00  .000E+00  .000E+00  .000E+00  .000E+00  .000E+00
  .000E+00  .000E+00  .000E+00  .000E+00  .000E+00  .000E+00  .000E+00  .000E+00
  .000E+00  .000E+00  .000E+00  .000E+00  .000E+00  .000E+00  .000E+00  .000E+00
  .000E+00  .000E+00  .000E+00  .000E+00  .000E+00  .000E+00  .000E+00  .000E+00
  .000E+00  .000E+00  .000E+00  .000E+00  .000E+00  .000E+00  .000E+00  .000E+00
  .000E+00  .000E+00  .000E+00  .000E+00  .000E+00  .000E+00  .000E+00  .000E+00
  .000E+00  .000E+00  .000E+00  .000E+00  .000E+00  .000E+00  .000E+00  .000E+00
  .000E+00  .000E+00  .000E+00  .000E+00  .000E+00  .000E+00  .000E+00  .000E+00
  .000E+00  .000E+00  .000E+00  .000E+00
Damping =  .05. Data of Sd,Sv,Sa,Pssv,ttSd,ttSv,ttSa :
  .509E-03  .596E-03  .661E-03  .763E-03  .896E-03  .111E-02  .167E-02  .187E-02
  .227E-02  .285E-02  .258E-02  .288E-02  .374E-02  .471E-02  .520E-02  .591E-02
  .101E-01  .137E-01  .113E-01  .120E-01  .134E-01  .153E-01  .161E-01  .191E-01
  .220E-01  .235E-01  .228E-01  .192E-01  .226E-01  .258E-01  .312E-01  .412E-01
  .442E-01  .454E-01  .459E-01  .465E-01  .404E-01  .343E-01  .316E-01  .300E-01
  .284E-01  .292E-01  .201E-01  .196E-01  .207E-01  .164E-01  .157E-01  .151E-01
  .178E-01  .198E-01  .223E-01  .196E-01  .200E-01  .170E-01  .236E-01  .324E-01
  .333E-01  .298E-01  .233E-01  .204E-01  .231E-01  .209E-01  .202E-01  .189E-01
  .211E-01  .222E-01  .218E-01  .213E-01  .211E-01  .207E-01  .202E-01  .198E-01
  .196E-01  .193E-01  .190E-01  .188E-01  .187E-01  .183E-01  .179E-01  .176E-01
  .174E-01  .173E-01  .171E-01  .170E-01  .169E-01  .168E-01  .168E-01  .167E-01
  .167E-01  .166E-01  .166E-01  .000E+00  .000E+00  .000E+00  .000E+00  .000E+00
  .000E+00  .000E+00  .000E+00  .000E+00
  .420E-01  .468E-01  .564E-01  .651E-01  .776E-01  .942E-01  .143E+00  .162E+00
  .184E+00  .203E+00  .199E+00  .192E+00  .244E+00  .291E+00  .310E+00  .339E+00
  .520E+00  .680E+00  .515E+00  .517E+00  .560E+00  .618E+00  .631E+00  .693E+00
  .732E+00  .709E+00  .687E+00  .580E+00  .604E+00  .595E+00  .650E+00  .855E+00
  .898E+00  .867E+00  .734E+00  .772E+00  .761E+00  .684E+00  .674E+00  .608E+00
  .516E+00  .460E+00  .370E+00  .404E+00  .364E+00  .327E+00  .308E+00  .299E+00
  .326E+00  .339E+00  .324E+00  .354E+00  .324E+00  .330E+00  .349E+00  .345E+00
  .319E+00  .294E+00  .280E+00  .280E+00  .286E+00  .302E+00  .309E+00  .306E+00
  .300E+00  .294E+00  .289E+00  .286E+00  .284E+00  .282E+00  .281E+00  .280E+00
  .280E+00  .279E+00  .279E+00  .279E+00  .278E+00  .278E+00  .277E+00  .277E+00
  .277E+00  .277E+00  .277E+00  .277E+00  .277E+00  .277E+00  .277E+00  .277E+00
  .277E+00  .277E+00  .277E+00  .000E+00  .000E+00  .000E+00  .000E+00  .000E+00
  .000E+00  .000E+00  .000E+00  .000E+00
  .326E-01  .346E-01  .349E-01  .371E-01  .397E-01  .456E-01  .574E-01  .528E-01
  .556E-01  .591E-01  .470E-01  .462E-01  .533E-01  .596E-01  .589E-01  .611E-01
  .849E-01  .979E-01  .683E-01  .633E-01  .610E-01  .619E-01  .575E-01  .603E-01
  .626E-01  .607E-01  .484E-01  .342E-01  .344E-01  .338E-01  .357E-01  .414E-01
  .394E-01  .360E-01  .328E-01  .300E-01  .236E-01  .183E-01  .154E-01  .134E-01
  .117E-01  .995E-02  .577E-02  .481E-02  .440E-02  .302E-02  .252E-02  .215E-02
  .232E-02  .231E-02  .233E-02  .168E-02  .143E-02  .107E-02  .128E-02  .150E-02
  .134E-02  .106E-02  .750E-03  .593E-03  .609E-03  .481E-03  .375E-03  .319E-03
  .310E-03  .288E-03  .254E-03  .225E-03  .204E-03  .185E-03  .167E-03  .153E-03
  .142E-03  .132E-03  .123E-03  .115E-03  .100E-03  .883E-04  .785E-04  .707E-04
  .645E-04  .594E-04  .550E-04  .512E-04  .480E-04  .451E-04  .404E-04  .366E-04
  .335E-04  .309E-04  .286E-04  .000E+00  .000E+00  .000E+00  .000E+00  .000E+00
  .000E+00  .000E+00  .000E+00  .000E+00
  .800E-01  .892E-01  .944E-01  .104E+00  .117E+00  .140E+00  .190E+00  .196E+00
  .219E+00  .256E+00  .216E+00  .226E+00  .277E+00  .329E+00  .344E+00  .371E+00
  .574E+00  .719E+00  .545E+00  .539E+00  .560E+00  .602E+00  .596E+00  .666E+00
  .729E+00  .740E+00  .651E+00  .501E+00  .546E+00  .578E+00  .654E+00  .809E+00
  .817E+00  .792E+00  .759E+00  .730E+00  .604E+00  .490E+00  .432E+00  .392E+00
  .357E+00  .334E+00  .210E+00  .190E+00  .186E+00  .137E+00  .123E+00  .111E+00
  .124E+00  .131E+00  .140E+00  .112E+00  .105E+00  .822E-01  .106E+00  .136E+00
  .131E+00  .110E+00  .812E-01  .675E-01  .724E-01  .598E-01  .529E-01  .457E-01
  .475E-01  .466E-01  .429E-01  .393E-01  .368E-01  .343E-01  .317E-01  .296E-01
  .279E-01  .264E-01  .249E-01  .236E-01  .214E-01  .192E-01  .173E-01  .158E-01
  .146E-01  .135E-01  .126E-01  .119E-01  .112E-01  .106E-01  .957E-02  .875E-02
  .806E-02  .745E-02  .696E-02  .000E+00  .000E+00  .000E+00  .000E+00  .000E+00
  .000E+00  .000E+00  .000E+00  .000E+00
  .300E+02  .300E+02  .300E+02  .333E+02  .333E+02  .333E+02  .333E+02  .332E+02
  .333E+02  .300E+02  .301E+02  .332E+02  .301E+02  .333E+02  .333E+02  .333E+02
  .333E+02  .338E+02  .334E+02  .334E+02  .335E+02  .302E+02  .302E+02  .336E+02
  .336E+02  .336E+02  .336E+02  .338E+02  .333E+02  .373E+02  .338E+02  .338E+02
  .342E+02  .337E+02  .336E+02  .336E+02  .336E+02  .336E+02  .336E+02  .334E+02
  .370E+02  .369E+02  .369E+02  .369E+02  .335E+02  .395E+02  .425E+02  .468E+02
  .333E+02  .330E+02  .331E+02  .403E+02  .423E+02  .376E+02  .369E+02  .386E+02
  .420E+02  .414E+02  .415E+02  .368E+02  .368E+02  .368E+02  .351E+02  .335E+02
  .335E+02  .335E+02  .335E+02  .335E+02  .335E+02  .335E+02  .335E+02  .335E+02
  .335E+02  .335E+02  .335E+02  .335E+02  .335E+02  .335E+02  .335E+02  .335E+02
  .335E+02  .335E+02  .335E+02  .335E+02  .335E+02  .335E+02  .335E+02  .335E+02
  .335E+02  .335E+02  .335E+02  .000E+00  .000E+00  .000E+00  .000E+00  .000E+00
  .000E+00  .000E+00  .000E+00  .000E+00
  .300E+02  .300E+02  .302E+02  .320E+02  .320E+02  .320E+02  .316E+02  .320E+02
  .334E+02  .302E+02  .334E+02  .301E+02  .301E+02  .332E+02  .332E+02  .332E+02
  .333E+02  .338E+02  .334E+02  .334E+02  .302E+02  .302E+02  .301E+02  .336E+02
  .336E+02  .336E+02  .336E+02  .336E+02  .332E+02  .372E+02  .336E+02  .336E+02
  .338E+02  .338E+02  .338E+02  .335E+02  .335E+02  .335E+02  .335E+02  .335E+02
  .335E+02  .335E+02  .335E+02  .335E+02  .335E+02  .334E+02  .335E+02  .332E+02
  .332E+02  .332E+02  .335E+02  .335E+02  .335E+02  .335E+02  .335E+02  .335E+02
  .335E+02  .335E+02  .335E+02  .335E+02  .335E+02  .335E+02  .335E+02  .335E+02
  .335E+02  .335E+02  .335E+02  .335E+02  .335E+02  .335E+02  .335E+02  .335E+02
  .335E+02  .335E+02  .335E+02  .335E+02  .335E+02  .335E+02  .335E+02  .335E+02
  .335E+02  .335E+02  .335E+02  .335E+02  .335E+02  .335E+02  .335E+02  .335E+02
  .335E+02  .335E+02  .335E+02  .000E+00  .000E+00  .000E+00  .000E+00  .000E+00
  .000E+00  .000E+00  .000E+00  .000E+00
  .300E+02  .300E+02  .300E+02  .333E+02  .333E+02  .333E+02  .333E+02  .332E+02
  .333E+02  .300E+02  .333E+02  .332E+02  .301E+02  .333E+02  .333E+02  .333E+02
  .333E+02  .338E+02  .334E+02  .334E+02  .334E+02  .302E+02  .302E+02  .336E+02
  .336E+02  .336E+02  .336E+02  .338E+02  .333E+02  .373E+02  .338E+02  .338E+02
  .342E+02  .337E+02  .335E+02  .336E+02  .336E+02  .336E+02  .336E+02  .334E+02
  .370E+02  .369E+02  .369E+02  .369E+02  .335E+02  .395E+02  .425E+02  .468E+02
  .333E+02  .330E+02  .330E+02  .403E+02  .423E+02  .369E+02  .369E+02  .386E+02
  .420E+02  .414E+02  .414E+02  .368E+02  .368E+02  .358E+02  .351E+02  .334E+02
  .334E+02  .334E+02  .334E+02  .334E+02  .334E+02  .334E+02  .334E+02  .334E+02
  .334E+02  .334E+02  .334E+02  .334E+02  .334E+02  .334E+02  .334E+02  .334E+02
  .334E+02  .334E+02  .334E+02  .334E+02  .334E+02  .334E+02  .334E+02  .334E+02
  .334E+02  .334E+02  .334E+02  .000E+00  .000E+00  .000E+00  .000E+00  .000E+00
  .000E+00  .000E+00  .000E+00  .000E+00
/&   ----------  End of spectral data for channel  1  ----------
Response and Fourier amplitude spectra (91 periods,  .04 - 15.0 sec)   for      
Corrected accelerogram   24260-K2419-20263.09       Chan  2: 360 Deg     from   
Uncorrected Accelerogram Data             Processed: 09/19/20, CGS  260ax009    
Rcrd of Fri Sep 18, 2020 23:38:21.0 PDT               (Avol1 v2.0, 4/18 CSMIP)  
CSMIP Preliminary Processing            (Origin:  To be determined)             
24260-K2419-20263.09                 Start time:  9/19/20, 06:38:21.0 UTC (GPS) 
Station No. 24260   34.062N, 118.201W    K2      s/n 2419 (12 Chns of 12 at Sta)
Los Angeles - 9-story Univ Hospital Bldg  CGS   Data: Acceleration              
Chan  2: 360 DegR                   Location: Basement: West Wall               
Rcrd of Fri Sep 18, 2020 23:38:21.0 PDT    Fri Sep 18, 2020 23:38:21.0 PDT      
Hypocenter:  To be determined.               ML:  To be determined.             
Instr Period =  .0103 sec,  Damping =  .670,  Sensitivity =  .62 v/g            
                        Record Length = 60.000 sec.                             
                                     Uncor Max  =  -.082 g, at   33.075 sec.    
RMS accel of (uncor) record  =        .   Chn. metadata effective date: 10/11/05
Accelerogram bandpass filtered with 3 dB pts at   .30 and 23.00 cyc/sec         
                 instrument- and base-line correcte                             
                                                                                
                                                                                
                                                                                
                                                                                
                                                                                
Rcrd of Fri Sep 18, 2020 23:38:21.0 PDT    Fri Sep 18, 2020 23:38:21.0 PDT      
                                                                                
24260-K2419-20263.09      Los Angeles - 9-story Univ Hospital Bldg  CGChan  2: 3
60 Deg                                                                          
24260-K2419-20263.09      Los Angeles - 9-story Univ Hospital Bldg  CGChan  2: 3
60 Deg                                                                          
Units for spectra are inches and sec, except Sa is in fraction of g.            
                                                                                
    2  100    2   12   12  200    1    3    1   24   11 2419    024260    2    0
    6   38   21    0  263    9   19 2020   10    3  36014400   39   40   74    3
14400    1  100    3 2419    1    9  720    2 -999 -999 -999 -999 -999 -999 -999
 -999 -999    3 -99912000    1  222    1   18    4 -999 -999    3    1 -99912000
    312000    4   91    1   12    5    0    0 -999    0    0    1    3    1    2
    2    2    4    0   72   67    0    3 -999    0    0    1    0    0    0  222
    0    0    0    0
      .010      .670    72.000      .005     1.000   624.000     -.082    33.075
    97.000      .298      .478  -999.000     5.000  -999.000     4.000  -999.000
     2.500    -9.857     2.500  -999.000    30.000    30.000  -999.000      .000
      .002      .001     2.000    15.000    34.062  -118.201      .011      .179
    16.834     -.011      .014  -999.000    30.400    41.200    13.100    83.660
     1.000    11.003    -8.000  -999.000  -999.000  -999.000  -999.000  -999.000
     6.900     2.000     6.800   980.665      .005    60.000    15.438      .000
  -999.000    23.000  -999.000    60.000      .005      .303  -999.000  -999.000
    33.075   -78.258    33.010     3.730    32.930     -.197      .000      .303
    23.000      .005      .005      .000      .295      .038  -999.000  -999.000
      .273      .280      .206      .257      .011      .001  -999.000  -999.000
  -999.000  -999.000  -999.000  -999.000  -999.000  -999.000  -999.000  -999.000
  -999.000  -999.000  -999.000  -999.000
      .050
      .040      .042      .044      .046      .048      .050      .055      .060
      .065      .070      .075      .080      .085      .090      .095      .100
      .110      .120      .130      .140      .150      .160      .170      .180
      .190      .200      .220      .240      .260      .280      .300      .320
      .340      .360      .380      .400      .420      .440      .460      .480
      .500      .550      .600      .650      .700      .750      .800      .850
      .900      .950     1.000     1.100     1.200     1.300     1.400     1.500
     1.600     1.700     1.800     1.900     2.000     2.200     2.400     2.600
     2.800     3.000     3.200     3.400     3.600     3.800     4.000     4.200
     4.400     4.600     4.800     5.000     5.500     6.000     6.500     7.000
     7.500     8.000     8.500     9.000     9.500    10.000    11.000    12.000
    13.000    14.000    15.000      .000      .000      .000      .000      .000
      .000      .000      .000      .000
Fourier amplitude spectra in in/sec.
  .000E+00  .000E+00  .000E+00  .000E+00  .000E+00  .000E+00  .000E+00  .000E+00
  .000E+00  .000E+00  .000E+00  .000E+00  .000E+00  .000E+00  .000E+00  .000E+00
  .000E+00  .000E+00  .000E+00  .000E+00  .000E+00  .000E+00  .000E+00  .000E+00
  .000E+00  .000E+00  .000E+00  .000E+00  .000E+00  .000E+00  .000E+00  .000E+00
  .000E+00  .000E+00  .000E+00  .000E+00  .000E+00  .000E+00  .000E+00  .000E+00
  .000E+00  .000E+00  .000E+00  .000E+00  .000E+00  .000E+00  .000E+00  .000E+00
  .000E+00  .000E+00  .000E+00  .000E+00  .000E+00  .000E+00  .000E+00  .000E+00
  .000E+00  .000E+00  .000E+00  .000E+00  .000E+00  .000E+00  .000E+00  .000E+00
  .000E+00  .000E+00  .000E+00  .000E+00  .000E+00  .000E+00  .000E+00  .000E+00
  .000E+00  .000E+00  .000E+00  .000E+00  .000E+00  .000E+00  .000E+00  .000E+00
  .000E+00  .000E+00  .000E+00  .000E+00  .000E+00  .000E+00  .000E+00  .000E+00
  .000E+00  .000E+00  .000E+00  .000E+00  .000E+00  .000E+00  .000E+00  .000E+00
  .000E+00  .000E+00  .000E+00  .000E+00
Damping =  .05. Data of Sd,Sv,Sa,Pssv,ttSd,ttSv,ttSa :
  .150E-02  .173E-02  .211E-02  .251E-02  .275E-02  .297E-02  .325E-02  .414E-02
  .536E-02  .531E-02  .535E-02  .602E-02  .774E-02  .935E-02  .113E-01  .126E-01
  .135E-01  .161E-01  .192E-01  .248E-01  .318E-01  .363E-01  .429E-01  .493E-01
  .620E-01  .797E-01  .112E+00  .142E+00  .178E+00  .208E+00  .230E+00  .235E+00
  .240E+00  .231E+00  .211E+00  .186E+00  .173E+00  .162E+00  .152E+00  .142E+00
