Response and Fourier amplitude spectra (78 periods,  .04 -  6.0 sec)   for      
Corrected accelerogram   24042-N2596-20263.02       Chan  1: 180 Deg     from   
Uncorrected Accelerogram Data             Processed: 09/18/20, CGS  ce24042b    
Rcrd of Fri Sep 18, 2020 23:38:23.0 PDT               (Avol1 v2.0, 4/18 CSMIP)  
CSMIP Preliminary Processing            (Origin:  To be determined)             
24042-N2596-20263.02                 Start time:  9/19/20, 06:38:23.0 UTC (GPS) 
Station No. 24042   34.150N, 118.079W    Etna2   s/n 2596  (3 Chns of  3 at Sta)
Pasadena - I210 & Rosemead                CGS   Data: Acceleration              
Chan  1: 180 Deg                                                                
Rcrd of Fri Sep 18, 2020 23:38:23.0 PDT    Fri Sep 18, 2020 23:38:23.0 PDT      
Hypocenter:  To be determined.               ML:  To be determined.             
Instr Period =  .0048 sec,  Damping =  .700,  Sensitivity =  .63 v/g            
                        Record Length = 62.000 sec.                             
                                     Uncor Max  =  -.028 g, at   30.280 sec.    
RMS accel of (uncor) record  =        .   Chn. metadata effective date: 05/05/20
Accelerogram bandpass filtered with 3 dB pts at   .30 and 40.00 cyc/sec         
                 instrument- and base-line correcte                             
                                                                                
                                                                                
                                                                                
                                                                                
                                                                                
Rcrd of Fri Sep 18, 2020 23:38:23.0 PDT    Fri Sep 18, 2020 23:38:23.0 PDT      
                                                                                
24042-N2596-20263.02      Pasadena - I210 & Rosemead    Chan  1: 180 Deg        
                                                                                
24042-N2596-20263.02      Pasadena - I210 & Rosemead    Chan  1: 180 Deg        
                                                                                
Units for spectra are inches and sec, except Sa is in fraction of g.            
                                                                                
    1  100    1    3    3  200    1    3    1   24   22 2596    024042   11    0
    6   38   23    0  263    9   19 2020   10    3  18012400   39   26   74  360
12400    1  100    3 2596    1    2  620    2 -999 -999 -999 -999 -999 -999 -999
 -999 -999    3 -99912400    1  202    0   24   20 -999 -999    3    1 -99912400
    312400    4   78    1    3    5    0    0 -999    0    0    1    3    1    2
    2    2    4    0   32   67    0    5 -999    0    0    1    0    0    4  222
    1    0    0    0
      .005      .700    62.000      .002     1.000   626.000     -.028    30.280
   208.000      .298      .476  -999.000     5.000  -999.000     4.000  -999.000
     2.500    -9.928     2.500  -999.000    30.000    30.000  -999.000     -.001
     -.002     -.002     2.000    15.000    34.150  -118.079      .017      .261
    14.991     -.021      .018   212.000    30.000    32.900    13.500   106.160
     1.000    11.003    -8.000  -999.000  -999.000  -999.000  -999.000  -999.000
     6.900     2.000     6.800   980.665      .005    62.000    33.104      .000
  -999.000    40.000  -999.000    62.000      .005      .300  -999.000  -999.000
    30.280   -27.782    30.240     1.296    30.515      .119      .000      .300
    40.000      .005      .005      .000      .005      .022  -999.000  -999.000
      .078      .110      .055      .045      .010      .001  -999.000  -999.000
  -999.000  -999.000  -999.000  -999.000  -999.000  -999.000  -999.000  -999.000
  -999.000  -999.000  -999.000  -999.000
      .050
      .040      .042      .044      .046      .048      .050      .055      .060
      .065      .070      .075      .080      .085      .090      .095      .100
      .110      .120      .130      .140      .150      .160      .170      .180
      .190      .200      .220      .240      .260      .280      .300      .320
      .340      .360      .380      .400      .420      .440      .460      .480
      .500      .550      .600      .650      .700      .750      .800      .850
      .900      .950     1.000     1.100     1.200     1.300     1.400     1.500
     1.600     1.700     1.800     1.900     2.000     2.200     2.400     2.600
     2.800     3.000     3.200     3.400     3.600     3.800     4.000     4.200
     4.400     4.600     4.800     5.000     5.500     6.000      .000      .000
      .000      .000      .000      .000      .000      .000      .000      .000
      .000      .000      .000      .000      .000      .000      .000      .000
      .000      .000      .000      .000
Fourier amplitude spectra in in/sec.
  .000E+00  .000E+00  .000E+00  .000E+00  .000E+00  .000E+00  .000E+00  .000E+00
  .000E+00  .000E+00  .000E+00  .000E+00  .000E+00  .000E+00  .000E+00  .000E+00
  .000E+00  .000E+00  .000E+00  .000E+00  .000E+00  .000E+00  .000E+00  .000E+00
  .000E+00  .000E+00  .000E+00  .000E+00  .000E+00  .000E+00  .000E+00  .000E+00
  .000E+00  .000E+00  .000E+00  .000E+00  .000E+00  .000E+00  .000E+00  .000E+00
  .000E+00  .000E+00  .000E+00  .000E+00  .000E+00  .000E+00  .000E+00  .000E+00
  .000E+00  .000E+00  .000E+00  .000E+00  .000E+00  .000E+00  .000E+00  .000E+00
  .000E+00  .000E+00  .000E+00  .000E+00  .000E+00  .000E+00  .000E+00  .000E+00
  .000E+00  .000E+00  .000E+00  .000E+00  .000E+00  .000E+00  .000E+00  .000E+00
  .000E+00  .000E+00  .000E+00  .000E+00  .000E+00  .000E+00  .000E+00  .000E+00
  .000E+00  .000E+00  .000E+00  .000E+00  .000E+00  .000E+00  .000E+00  .000E+00
  .000E+00  .000E+00  .000E+00  .000E+00  .000E+00  .000E+00  .000E+00  .000E+00
  .000E+00  .000E+00  .000E+00  .000E+00
Damping =  .05. Data of Sd,Sv,Sa,Pssv,ttSd,ttSv,ttSa :
  .509E-03  .570E-03  .622E-03  .684E-03  .761E-03  .845E-03  .111E-02  .128E-02
  .155E-02  .183E-02  .212E-02  .302E-02  .333E-02  .389E-02  .455E-02  .580E-02
  .918E-02  .916E-02  .971E-02  .110E-01  .116E-01  .119E-01  .124E-01  .140E-01
  .179E-01  .215E-01  .282E-01  .341E-01  .362E-01  .378E-01  .405E-01  .388E-01
  .363E-01  .383E-01  .394E-01  .401E-01  .401E-01  .398E-01  .396E-01  .396E-01
  .392E-01  .389E-01  .473E-01  .515E-01  .622E-01  .708E-01  .769E-01  .861E-01
  .938E-01  .975E-01  .985E-01  .956E-01  .923E-01  .923E-01  .941E-01  .935E-01
  .904E-01  .856E-01  .799E-01  .739E-01  .728E-01  .735E-01  .736E-01  .730E-01
  .720E-01  .706E-01  .689E-01  .671E-01  .653E-01  .635E-01  .619E-01  .604E-01
  .591E-01  .578E-01  .567E-01  .557E-01  .538E-01  .524E-01  .000E+00  .000E+00
  .000E+00  .000E+00  .000E+00  .000E+00  .000E+00  .000E+00  .000E+00  .000E+00
  .000E+00  .000E+00  .000E+00  .000E+00  .000E+00  .000E+00  .000E+00  .000E+00
  .000E+00  .000E+00  .000E+00  .000E+00
  .276E-01  .342E-01  .402E-01  .440E-01  .539E-01  .615E-01  .775E-01  .105E+00
  .114E+00  .140E+00  .171E+00  .197E+00  .210E+00  .238E+00  .265E+00  .322E+00
  .525E+00  .494E+00  .458E+00  .482E+00  .469E+00  .453E+00  .441E+00  .490E+00
  .596E+00  .657E+00  .699E+00  .833E+00  .928E+00  .896E+00  .858E+00  .806E+00
  .725E+00  .734E+00  .748E+00  .758E+00  .750E+00  .735E+00  .721E+00  .708E+00
  .695E+00  .651E+00  .603E+00  .608E+00  .615E+00  .595E+00  .651E+00  .653E+00
  .618E+00  .609E+00  .648E+00  .726E+00  .705E+00  .631E+00  .609E+00  .581E+00
  .564E+00  .566E+00  .568E+00  .568E+00  .568E+00  .566E+00  .564E+00  .562E+00
  .559E+00  .557E+00  .554E+00  .551E+00  .548E+00  .545E+00  .542E+00  .540E+00
  .537E+00  .535E+00  .533E+00  .531E+00  .527E+00  .524E+00  .000E+00  .000E+00
  .000E+00  .000E+00  .000E+00  .000E+00  .000E+00  .000E+00  .000E+00  .000E+00
  .000E+00  .000E+00  .000E+00  .000E+00  .000E+00  .000E+00  .000E+00  .000E+00
  .000E+00  .000E+00  .000E+00  .000E+00
  .326E-01  .331E-01  .328E-01  .331E-01  .337E-01  .347E-01  .375E-01  .368E-01
  .377E-01  .383E-01  .388E-01  .483E-01  .473E-01  .495E-01  .519E-01  .596E-01
  .785E-01  .658E-01  .592E-01  .577E-01  .527E-01  .481E-01  .443E-01  .442E-01
  .509E-01  .551E-01  .600E-01  .610E-01  .551E-01  .495E-01  .463E-01  .389E-01
  .323E-01  .304E-01  .281E-01  .258E-01  .234E-01  .211E-01  .193E-01  .177E-01
  .162E-01  .133E-01  .135E-01  .125E-01  .131E-01  .130E-01  .124E-01  .123E-01
  .119E-01  .111E-01  .101E-01  .815E-02  .658E-02  .563E-02  .495E-02  .429E-02
  .367E-02  .309E-02  .258E-02  .214E-02  .193E-02  .162E-02  .138E-02  .118E-02
  .101E-02  .872E-03  .757E-03  .661E-03  .581E-03  .514E-03  .458E-03  .411E-03
  .371E-03  .337E-03  .308E-03  .283E-03  .233E-03  .197E-03  .000E+00  .000E+00
  .000E+00  .000E+00  .000E+00  .000E+00  .000E+00  .000E+00  .000E+00  .000E+00
  .000E+00  .000E+00  .000E+00  .000E+00  .000E+00  .000E+00  .000E+00  .000E+00
  .000E+00  .000E+00  .000E+00  .000E+00
  .800E-01  .853E-01  .888E-01  .935E-01  .996E-01  .106E+00  .126E+00  .134E+00
  .150E+00  .164E+00  .178E+00  .237E+00  .246E+00  .271E+00  .301E+00  .364E+00
  .525E+00  .480E+00  .469E+00  .493E+00  .485E+00  .469E+00  .458E+00  .487E+00
  .591E+00  .675E+00  .807E+00  .893E+00  .875E+00  .848E+00  .848E+00  .761E+00
  .670E+00  .668E+00  .651E+00  .630E+00  .600E+00  .568E+00  .541E+00  .518E+00
  .493E+00  .445E+00  .495E+00  .498E+00  .558E+00  .593E+00  .604E+00  .636E+00
  .655E+00  .645E+00  .619E+00  .546E+00  .483E+00  .446E+00  .422E+00  .392E+00
  .355E+00  .316E+00  .279E+00  .244E+00  .229E+00  .210E+00  .193E+00  .176E+00
  .161E+00  .148E+00  .135E+00  .124E+00  .114E+00  .105E+00  .972E-01  .904E-01
  .843E-01  .790E-01  .742E-01  .700E-01  .614E-01  .549E-01  .000E+00  .000E+00
  .000E+00  .000E+00  .000E+00  .000E+00  .000E+00  .000E+00  .000E+00  .000E+00
  .000E+00  .000E+00  .000E+00  .000E+00  .000E+00  .000E+00  .000E+00  .000E+00
  .000E+00  .000E+00  .000E+00  .000E+00
  .303E+02  .303E+02  .303E+02  .303E+02  .303E+02  .303E+02  .303E+02  .306E+02
  .303E+02  .303E+02  .303E+02  .307E+02  .307E+02  .307E+02  .307E+02  .307E+02
  .307E+02  .305E+02  .304E+02  .304E+02  .304E+02  .304E+02  .304E+02  .305E+02
  .305E+02  .305E+02  .305E+02  .306E+02  .306E+02  .308E+02  .312E+02  .313E+02
  .304E+02  .304E+02  .304E+02  .304E+02  .304E+02  .304E+02  .304E+02  .304E+02
  .304E+02  .303E+02  .309E+02  .306E+02  .306E+02  .306E+02  .307E+02  .311E+02
  .312E+02  .312E+02  .312E+02  .313E+02  .314E+02  .309E+02  .310E+02  .310E+02
  .310E+02  .310E+02  .310E+02  .310E+02  .305E+02  .305E+02  .305E+02  .305E+02
  .305E+02  .305E+02  .305E+02  .305E+02  .305E+02  .305E+02  .305E+02  .305E+02
  .305E+02  .305E+02  .305E+02  .305E+02  .305E+02  .305E+02  .000E+00  .000E+00
  .000E+00  .000E+00  .000E+00  .000E+00  .000E+00  .000E+00  .000E+00  .000E+00
  .000E+00  .000E+00  .000E+00  .000E+00  .000E+00  .000E+00  .000E+00  .000E+00
  .000E+00  .000E+00  .000E+00  .000E+00
  .306E+02  .306E+02  .306E+02  .308E+02  .309E+02  .309E+02  .306E+02  .306E+02
  .313E+02  .315E+02  .314E+02  .307E+02  .307E+02  .307E+02  .307E+02  .307E+02
  .307E+02  .306E+02  .303E+02  .303E+02  .303E+02  .304E+02  .304E+02  .306E+02
  .306E+02  .306E+02  .306E+02  .305E+02  .305E+02  .305E+02  .312E+02  .312E+02
  .304E+02  .303E+02  .303E+02  .303E+02  .303E+02  .303E+02  .303E+02  .303E+02
  .303E+02  .303E+02  .303E+02  .308E+02  .308E+02  .308E+02  .313E+02  .313E+02
  .314E+02  .305E+02  .311E+02  .311E+02  .311E+02  .311E+02  .306E+02  .306E+02
  .302E+02  .302E+02  .302E+02  .302E+02  .302E+02  .302E+02  .302E+02  .302E+02
  .302E+02  .302E+02  .302E+02  .302E+02  .302E+02  .302E+02  .302E+02  .302E+02
  .302E+02  .302E+02  .302E+02  .302E+02  .302E+02  .302E+02  .000E+00  .000E+00
  .000E+00  .000E+00  .000E+00  .000E+00  .000E+00  .000E+00  .000E+00  .000E+00
  .000E+00  .000E+00  .000E+00  .000E+00  .000E+00  .000E+00  .000E+00  .000E+00
  .000E+00  .000E+00  .000E+00  .000E+00
  .303E+02  .303E+02  .303E+02  .303E+02  .303E+02  .303E+02  .303E+02  .306E+02
  .303E+02  .303E+02  .303E+02  .307E+02  .307E+02  .307E+02  .307E+02  .307E+02
  .307E+02  .305E+02  .304E+02  .304E+02  .304E+02  .304E+02  .304E+02  .305E+02
  .305E+02  .305E+02  .305E+02  .306E+02  .306E+02  .307E+02  .312E+02  .313E+02
  .304E+02  .304E+02  .304E+02  .304E+02  .304E+02  .304E+02  .304E+02  .304E+02
  .304E+02  .303E+02  .308E+02  .306E+02  .306E+02  .306E+02  .306E+02  .311E+02
  .311E+02  .312E+02  .312E+02  .313E+02  .314E+02  .309E+02  .309E+02  .310E+02
  .310E+02  .310E+02  .310E+02  .310E+02  .305E+02  .305E+02  .305E+02  .305E+02
  .305E+02  .305E+02  .305E+02  .305E+02  .305E+02  .305E+02  .305E+02  .305E+02
  .305E+02  .305E+02  .305E+02  .305E+02  .305E+02  .305E+02  .000E+00  .000E+00
  .000E+00  .000E+00  .000E+00  .000E+00  .000E+00  .000E+00  .000E+00  .000E+00
  .000E+00  .000E+00  .000E+00  .000E+00  .000E+00  .000E+00  .000E+00  .000E+00
  .000E+00  .000E+00  .000E+00  .000E+00
/&   ----------  End of spectral data for channel  1  ----------
Response and Fourier amplitude spectra (78 periods,  .04 -  6.0 sec)   for      
Corrected accelerogram   24042-N2596-20263.02       Chan  2:  90 Deg     from   
Uncorrected Accelerogram Data             Processed: 09/18/20, CGS  ce24042b    
Rcrd of Fri Sep 18, 2020 23:38:23.0 PDT               (Avol1 v2.0, 4/18 CSMIP)  
CSMIP Preliminary Processing            (Origin:  To be determined)             
24042-N2596-20263.02                 Start time:  9/19/20, 06:38:23.0 UTC (GPS) 
Station No. 24042   34.150N, 118.079W    Etna2   s/n 2596  (3 Chns of  3 at Sta)
Pasadena - I210 & Rosemead                CGS   Data: Acceleration              
Chan  2:  90 Deg                                                                
Rcrd of Fri Sep 18, 2020 23:38:23.0 PDT    Fri Sep 18, 2020 23:38:23.0 PDT      
Hypocenter:  To be determined.               ML:  To be determined.             
Instr Period =  .0048 sec,  Damping =  .700,  Sensitivity =  .63 v/g            
                        Record Length = 62.000 sec.                             
                                     Uncor Max  =  -.019 g, at   30.615 sec.    
RMS accel of (uncor) record  =        .   Chn. metadata effective date: 05/05/20
Accelerogram bandpass filtered with 3 dB pts at   .30 and 40.00 cyc/sec         
                 instrument- and base-line correcte                             
                                                                                
                                                                                
                                                                                
                                                                                
                                                                                
Rcrd of Fri Sep 18, 2020 23:38:23.0 PDT    Fri Sep 18, 2020 23:38:23.0 PDT      
                                                                                
24042-N2596-20263.02      Pasadena - I210 & Rosemead    Chan  2:  90 Deg        
                                                                                
24042-N2596-20263.02      Pasadena - I210 & Rosemead    Chan  2:  90 Deg        
                                                                                
Units for spectra are inches and sec, except Sa is in fraction of g.            
                                                                                
    2  100    2    3    3  200    1    3    1   24   22 2596    024042   11    0
    6   38   23    0  263    9   19 2020   10    3   9012400   39   26   74  360
12400    1  100    3 2596    1    2  620    2 -999 -999 -999 -999 -999 -999 -999
 -999 -999    3 -99912400    1  202    0   24   20 -999 -999    3    1 -99912400
    312400    4   78    1    3    5    0    0 -999    0    0    1    3    1    2
    2    2    4    0   32   67    0    5 -999    0    0    1    0    0    4  222
    1    0    0    0
      .005      .700    62.000      .001     1.000   626.000     -.019    30.615
   208.000      .298      .476  -999.000     5.000  -999.000     4.000  -999.000
     2.500    -8.344     2.500  -999.000    30.000    30.000  -999.000      .000
      .009      .009     2.000    15.000    34.150  -118.079      .027      .290
    10.597     -.012      .031   212.000    30.000    32.900    13.500   106.160
     1.000    11.003    -8.000  -999.000  -999.000  -999.000  -999.000  -999.000
     6.900     2.000     6.800   980.665      .005    62.000    33.104      .000
  -999.000    40.000  -999.000    62.000      .005      .300  -999.000  -999.000
    30.615   -18.479    32.280      .401    36.695      .039      .000      .300
    40.000      .005      .005      .000      .005      .017  -999.000  -999.000
      .069      .110      .023      .019      .005      .000  -999.000  -999.000
  -999.000  -999.000  -999.000  -999.000  -999.000  -999.000  -999.000  -999.000
  -999.000  -999.000  -999.000  -999.000
      .050
      .040      .042      .044      .046      .048      .050      .055      .060
      .065      .070      .075      .080      .085      .090      .095      .100
      .110      .120      .130      .140      .150      .160      .170      .180
      .190      .200      .220      .240      .260      .280      .300      .320
      .340      .360      .380      .400      .420      .440      .460      .480
      .500      .550      .600      .650      .700      .750      .800      .850
      .900      .950     1.000     1.100     1.200     1.300     1.400     1.500
     1.600     1.700     1.800     1.900     2.000     2.200     2.400     2.600
     2.800     3.000     3.200     3.400     3.600     3.800     4.000     4.200
     4.400     4.600     4.800     5.000     5.500     6.000      .000      .000
      .000      .000      .000      .000      .000      .000      .000      .000
      .000      .000      .000      .000      .000      .000      .000      .000
      .000      .000      .000      .000
Fourier amplitude spectra in in/sec.
  .000E+00  .000E+00  .000E+00  .000E+00  .000E+00  .000E+00  .000E+00  .000E+00
  .000E+00  .000E+00  .000E+00  .000E+00  .000E+00  .000E+00  .000E+00  .000E+00
  .000E+00  .000E+00  .000E+00  .000E+00  .000E+00  .000E+00  .000E+00  .000E+00
  .000E+00  .000E+00  .000E+00  .000E+00  .000E+00  .000E+00  .000E+00  .000E+00
  .000E+00  .000E+00  .000E+00  .000E+00  .000E+00  .000E+00  .000E+00  .000E+00
  .000E+00  .000E+00  .000E+00  .000E+00  .000E+00  .000E+00  .000E+00  .000E+00
  .000E+00  .000E+00  .000E+00  .000E+00  .000E+00  .000E+00  .000E+00  .000E+00
  .000E+00  .000E+00  .000E+00  .000E+00  .000E+00  .000E+00  .000E+00  .000E+00
  .000E+00  .000E+00  .000E+00  .000E+00  .000E+00  .000E+00  .000E+00  .000E+00
  .000E+00  .000E+00  .000E+00  .000E+00  .000E+00  .000E+00  .000E+00  .000E+00
  .000E+00  .000E+00  .000E+00  .000E+00  .000E+00  .000E+00  .000E+00  .000E+00
  .000E+00  .000E+00  .000E+00  .000E+00  .000E+00  .000E+00  .000E+00  .000E+00
  .000E+00  .000E+00  .000E+00  .000E+00
Damping =  .05. Data of Sd,Sv,Sa,Pssv,ttSd,ttSv,ttSa :
  .425E-03  .553E-03  .659E-03  .746E-03  .875E-03  .102E-02  .119E-02  .161E-02
  .184E-02  .194E-02  .277E-02  .334E-02  .446E-02  .513E-02  .518E-02  .582E-02
  .806E-02  .692E-02  .977E-02  .857E-02  .739E-02  .744E-02  .973E-02  .106E-01
  .994E-02  .813E-02  .912E-02  .125E-01  .133E-01  .153E-01  .139E-01  .213E-01
  .233E-01  .190E-01  .183E-01  .190E-01  .202E-01  .184E-01  .158E-01  .160E-01
