Response and Fourier amplitude spectra (78 periods,  .04 -  6.0 sec)   for      
Corrected accelerogram   24040-B1758-20263.49       Chan  1:  Up         from   
Uncorrected Accelerogram Data             Processed: 09/19/20, CGS  ce24040w    
Rcrd of Fri Sep 18, 2020 23:38:23.0 PDT               (Avol1 v2.0, 4/18 CSMIP)  
CSMIP Preliminary Processing            (Origin:  To be determined)             
24040-B1758-20263.49                 Start time:  9/19/20, 06:38:23.0 UTC (GPS) 
Station No. 24040   34.031N, 118.208W    Basalt  s/n 1758  (3 Chns of  3 at Sta)
Los Angeles - Whittier & Euclid           CGS   Data: Acceleration              
Chan  1:  Up                                                                    
Rcrd of Fri Sep 18, 2020 23:38:23.0 PDT    Fri Sep 18, 2020 23:38:23.0 PDT      
Hypocenter:  To be determined.               ML:  To be determined.             
Instr Period =  .0049 sec,  Damping =  .700,  Sensitivity = 1.25 v/g            
                        Record Length = 68.000 sec.                             
                                     Uncor Max  =   .013 g, at   31.630 sec.    
RMS accel of (uncor) record  =        .   Chn. metadata effective date: 08/13/15
Accelerogram bandpass filtered with 3 dB pts at   .30 and 40.00 cyc/sec         
                 instrument- and base-line correcte                             
                                                                                
                                                                                
                                                                                
                                                                                
                                                                                
Rcrd of Fri Sep 18, 2020 23:38:23.0 PDT    Fri Sep 18, 2020 23:38:23.0 PDT      
                                                                                
24040-B1758-20263.49      Los Angeles - Whittier & Euclid   Chan  1:  Up        
                                                                                
24040-B1758-20263.49      Los Angeles - Whittier & Euclid   Chan  1:  Up        
                                                                                
Units for spectra are inches and sec, except Sa is in fraction of g.            
                                                                                
    1  100    1    3    3  200    1    3    1   24   31 1758    024040   11    0
    6   38   23    0  263    9   19 2020   10    3  50013600   39   31   74  360
13600    1  100    3 1758    1   49  680    2 -999 -999 -999 -999 -999 -999 -999
 -999 -999    3 -999 6800    2  202    0   24   20 -999 -999    3    1 -999 6800
    3 6800    4   78    1    3    5    0    0 -999    0    0    1    3    1    2
    2    2    4    0   32   67    0    5 -999    0    0    1    0    0    0  222
    1    0    2    0
      .005      .700    68.000      .001     1.000  1253.200      .013    31.630
   206.000      .596      .476  -999.000     5.000  -999.000     4.000  -999.000
     5.000    -6.878     5.000  -999.000    30.000    30.000  -999.000      .001
      .000     -.001     2.000    15.000    34.031  -118.208      .031      .155
     5.073     -.012      .011    98.000    31.000    38.900    13.400    91.760
     1.000    11.003    -8.000  -999.000  -999.000  -999.000  -999.000  -999.000
     6.900     2.000     6.800   980.665      .010    68.000    32.786      .000
  -999.000    40.000  -999.000    68.000      .010      .300  -999.000  -999.000
    31.630    12.824    28.140      .375    28.200      .029      .000      .300
    40.000      .010      .010      .000      .010      .018  -999.000  -999.000
      .047      .070      .032      .022      .002      .000  -999.000  -999.000
  -999.000  -999.000  -999.000  -999.000  -999.000  -999.000  -999.000  -999.000
  -999.000  -999.000  -999.000  -999.000
      .050
      .040      .042      .044      .046      .048      .050      .055      .060
      .065      .070      .075      .080      .085      .090      .095      .100
      .110      .120      .130      .140      .150      .160      .170      .180
      .190      .200      .220      .240      .260      .280      .300      .320
      .340      .360      .380      .400      .420      .440      .460      .480
      .500      .550      .600      .650      .700      .750      .800      .850
      .900      .950     1.000     1.100     1.200     1.300     1.400     1.500
     1.600     1.700     1.800     1.900     2.000     2.200     2.400     2.600
     2.800     3.000     3.200     3.400     3.600     3.800     4.000     4.200
     4.400     4.600     4.800     5.000     5.500     6.000      .000      .000
      .000      .000      .000      .000      .000      .000      .000      .000
      .000      .000      .000      .000      .000      .000      .000      .000
      .000      .000      .000      .000
Fourier amplitude spectra in in/sec.
  .000E+00  .000E+00  .000E+00  .000E+00  .000E+00  .000E+00  .000E+00  .000E+00
  .000E+00  .000E+00  .000E+00  .000E+00  .000E+00  .000E+00  .000E+00  .000E+00
  .000E+00  .000E+00  .000E+00  .000E+00  .000E+00  .000E+00  .000E+00  .000E+00
  .000E+00  .000E+00  .000E+00  .000E+00  .000E+00  .000E+00  .000E+00  .000E+00
  .000E+00  .000E+00  .000E+00  .000E+00  .000E+00  .000E+00  .000E+00  .000E+00
  .000E+00  .000E+00  .000E+00  .000E+00  .000E+00  .000E+00  .000E+00  .000E+00
  .000E+00  .000E+00  .000E+00  .000E+00  .000E+00  .000E+00  .000E+00  .000E+00
  .000E+00  .000E+00  .000E+00  .000E+00  .000E+00  .000E+00  .000E+00  .000E+00
  .000E+00  .000E+00  .000E+00  .000E+00  .000E+00  .000E+00  .000E+00  .000E+00
  .000E+00  .000E+00  .000E+00  .000E+00  .000E+00  .000E+00  .000E+00  .000E+00
  .000E+00  .000E+00  .000E+00  .000E+00  .000E+00  .000E+00  .000E+00  .000E+00
  .000E+00  .000E+00  .000E+00  .000E+00  .000E+00  .000E+00  .000E+00  .000E+00
  .000E+00  .000E+00  .000E+00  .000E+00
Damping =  .05. Data of Sd,Sv,Sa,Pssv,ttSd,ttSv,ttSa :
  .326E-03  .400E-03  .473E-03  .526E-03  .646E-03  .848E-03  .100E-02  .131E-02
  .175E-02  .228E-02  .207E-02  .174E-02  .218E-02  .239E-02  .243E-02  .259E-02
  .354E-02  .498E-02  .527E-02  .518E-02  .669E-02  .853E-02  .905E-02  .110E-01
  .118E-01  .143E-01  .117E-01  .139E-01  .158E-01  .171E-01  .194E-01  .205E-01
  .224E-01  .237E-01  .226E-01  .312E-01  .337E-01  .296E-01  .245E-01  .211E-01
  .186E-01  .152E-01  .160E-01  .142E-01  .146E-01  .179E-01  .264E-01  .294E-01
  .233E-01  .225E-01  .219E-01  .270E-01  .217E-01  .241E-01  .380E-01  .289E-01
  .273E-01  .216E-01  .208E-01  .228E-01  .261E-01  .190E-01  .181E-01  .169E-01
  .153E-01  .143E-01  .132E-01  .132E-01  .131E-01  .131E-01  .130E-01  .129E-01
  .128E-01  .127E-01  .126E-01  .125E-01  .123E-01  .122E-01  .000E+00  .000E+00
  .000E+00  .000E+00  .000E+00  .000E+00  .000E+00  .000E+00  .000E+00  .000E+00
  .000E+00  .000E+00  .000E+00  .000E+00  .000E+00  .000E+00  .000E+00  .000E+00
  .000E+00  .000E+00  .000E+00  .000E+00
  .383E-01  .430E-01  .548E-01  .644E-01  .692E-01  .845E-01  .102E+00  .129E+00
  .161E+00  .201E+00  .165E+00  .136E+00  .153E+00  .147E+00  .142E+00  .149E+00
  .179E+00  .256E+00  .253E+00  .203E+00  .262E+00  .316E+00  .319E+00  .353E+00
  .388E+00  .438E+00  .328E+00  .378E+00  .416E+00  .380E+00  .416E+00  .429E+00
  .460E+00  .435E+00  .399E+00  .503E+00  .525E+00  .433E+00  .350E+00  .315E+00
  .272E+00  .242E+00  .198E+00  .204E+00  .185E+00  .199E+00  .206E+00  .220E+00
  .182E+00  .182E+00  .161E+00  .186E+00  .189E+00  .165E+00  .184E+00  .176E+00
  .161E+00  .160E+00  .169E+00  .165E+00  .173E+00  .160E+00  .138E+00  .145E+00
  .148E+00  .141E+00  .142E+00  .143E+00  .143E+00  .144E+00  .144E+00  .145E+00
  .145E+00  .145E+00  .145E+00  .145E+00  .145E+00  .145E+00  .000E+00  .000E+00
  .000E+00  .000E+00  .000E+00  .000E+00  .000E+00  .000E+00  .000E+00  .000E+00
  .000E+00  .000E+00  .000E+00  .000E+00  .000E+00  .000E+00  .000E+00  .000E+00
  .000E+00  .000E+00  .000E+00  .000E+00
  .207E-01  .234E-01  .248E-01  .258E-01  .291E-01  .352E-01  .346E-01  .378E-01
  .422E-01  .474E-01  .379E-01  .281E-01  .307E-01  .304E-01  .275E-01  .273E-01
  .302E-01  .360E-01  .319E-01  .268E-01  .304E-01  .344E-01  .324E-01  .347E-01
  .338E-01  .371E-01  .251E-01  .246E-01  .240E-01  .225E-01  .221E-01  .206E-01
  .198E-01  .189E-01  .161E-01  .200E-01  .197E-01  .157E-01  .119E-01  .943E-02
  .765E-02  .518E-02  .457E-02  .345E-02  .307E-02  .327E-02  .424E-02  .419E-02
  .296E-02  .257E-02  .226E-02  .230E-02  .156E-02  .147E-02  .200E-02  .132E-02
  .110E-02  .768E-03  .684E-03  .648E-03  .690E-03  .427E-03  .348E-03  .278E-03
  .208E-03  .184E-03  .165E-03  .149E-03  .136E-03  .124E-03  .113E-03  .104E-03
  .965E-04  .898E-04  .839E-04  .787E-04  .680E-04  .598E-04  .000E+00  .000E+00
  .000E+00  .000E+00  .000E+00  .000E+00  .000E+00  .000E+00  .000E+00  .000E+00
  .000E+00  .000E+00  .000E+00  .000E+00  .000E+00  .000E+00  .000E+00  .000E+00
  .000E+00  .000E+00  .000E+00  .000E+00
  .512E-01  .598E-01  .675E-01  .719E-01  .845E-01  .107E+00  .115E+00  .137E+00
  .169E+00  .205E+00  .174E+00  .137E+00  .161E+00  .167E+00  .161E+00  .163E+00
  .202E+00  .261E+00  .255E+00  .232E+00  .280E+00  .335E+00  .335E+00  .382E+00
  .391E+00  .449E+00  .334E+00  .364E+00  .381E+00  .384E+00  .407E+00  .403E+00
  .413E+00  .414E+00  .373E+00  .490E+00  .505E+00  .423E+00  .335E+00  .276E+00
  .234E+00  .174E+00  .167E+00  .137E+00  .131E+00  .150E+00  .207E+00  .218E+00
  .163E+00  .149E+00  .138E+00  .154E+00  .114E+00  .117E+00  .171E+00  .121E+00
  .107E+00  .798E-01  .726E-01  .752E-01  .820E-01  .544E-01  .473E-01  .409E-01
  .343E-01  .299E-01  .258E-01  .243E-01  .229E-01  .216E-01  .204E-01  .193E-01
  .183E-01  .173E-01  .165E-01  .157E-01  .141E-01  .127E-01  .000E+00  .000E+00
  .000E+00  .000E+00  .000E+00  .000E+00  .000E+00  .000E+00  .000E+00  .000E+00
  .000E+00  .000E+00  .000E+00  .000E+00  .000E+00  .000E+00  .000E+00  .000E+00
  .000E+00  .000E+00  .000E+00  .000E+00
  .311E+02  .321E+02  .313E+02  .313E+02  .321E+02  .321E+02  .321E+02  .307E+02
  .307E+02  .310E+02  .311E+02  .327E+02  .327E+02  .319E+02  .284E+02  .284E+02
  .284E+02  .284E+02  .284E+02  .319E+02  .330E+02  .331E+02  .332E+02  .333E+02
  .361E+02  .365E+02  .282E+02  .369E+02  .382E+02  .362E+02  .323E+02  .323E+02
  .320E+02  .321E+02  .367E+02  .392E+02  .392E+02  .397E+02  .397E+02  .397E+02
  .391E+02  .366E+02  .391E+02  .484E+02  .462E+02  .484E+02  .514E+02  .515E+02
  .453E+02  .454E+02  .520E+02  .521E+02  .337E+02  .450E+02  .451E+02  .451E+02
  .446E+02  .446E+02  .315E+02  .446E+02  .389E+02  .332E+02  .332E+02  .389E+02
  .447E+02  .441E+02  .282E+02  .282E+02  .282E+02  .282E+02  .282E+02  .282E+02
  .282E+02  .282E+02  .282E+02  .282E+02  .282E+02  .282E+02  .000E+00  .000E+00
  .000E+00  .000E+00  .000E+00  .000E+00  .000E+00  .000E+00  .000E+00  .000E+00
  .000E+00  .000E+00  .000E+00  .000E+00  .000E+00  .000E+00  .000E+00  .000E+00
  .000E+00  .000E+00  .000E+00  .000E+00
  .321E+02  .321E+02  .313E+02  .313E+02  .313E+02  .321E+02  .327E+02  .311E+02
  .307E+02  .310E+02  .310E+02  .327E+02  .327E+02  .327E+02  .283E+02  .283E+02
  .283E+02  .283E+02  .284E+02  .319E+02  .330E+02  .332E+02  .332E+02  .333E+02
  .361E+02  .365E+02  .355E+02  .369E+02  .350E+02  .344E+02  .324E+02  .323E+02
  .321E+02  .320E+02  .368E+02  .393E+02  .397E+02  .398E+02  .396E+02  .396E+02
  .392E+02  .365E+02  .392E+02  .316E+02  .316E+02  .381E+02  .515E+02  .521E+02
  .455E+02  .360E+02  .379E+02  .359E+02  .340E+02  .390E+02  .468E+02  .359E+02
  .359E+02  .319E+02  .319E+02  .319E+02  .363E+02  .388E+02  .360E+02  .388E+02
  .388E+02  .281E+02  .281E+02  .281E+02  .281E+02  .281E+02  .281E+02  .281E+02
  .281E+02  .281E+02  .281E+02  .281E+02  .281E+02  .281E+02  .000E+00  .000E+00
  .000E+00  .000E+00  .000E+00  .000E+00  .000E+00  .000E+00  .000E+00  .000E+00
  .000E+00  .000E+00  .000E+00  .000E+00  .000E+00  .000E+00  .000E+00  .000E+00
  .000E+00  .000E+00  .000E+00  .000E+00
  .311E+02  .321E+02  .313E+02  .313E+02  .321E+02  .321E+02  .321E+02  .307E+02
  .307E+02  .311E+02  .311E+02  .327E+02  .327E+02  .319E+02  .284E+02  .284E+02
  .284E+02  .284E+02  .284E+02  .319E+02  .330E+02  .331E+02  .332E+02  .333E+02
  .361E+02  .365E+02  .282E+02  .369E+02  .344E+02  .362E+02  .323E+02  .323E+02
  .320E+02  .321E+02  .367E+02  .392E+02  .392E+02  .397E+02  .397E+02  .397E+02
  .390E+02  .366E+02  .391E+02  .484E+02  .462E+02  .484E+02  .514E+02  .514E+02
  .453E+02  .453E+02  .520E+02  .521E+02  .337E+02  .450E+02  .450E+02  .451E+02
  .445E+02  .446E+02  .315E+02  .446E+02  .389E+02  .332E+02  .332E+02  .389E+02
  .447E+02  .282E+02  .282E+02  .282E+02  .282E+02  .282E+02  .281E+02  .281E+02
  .281E+02  .281E+02  .281E+02  .281E+02  .281E+02  .281E+02  .000E+00  .000E+00
  .000E+00  .000E+00  .000E+00  .000E+00  .000E+00  .000E+00  .000E+00  .000E+00
  .000E+00  .000E+00  .000E+00  .000E+00  .000E+00  .000E+00  .000E+00  .000E+00
  .000E+00  .000E+00  .000E+00  .000E+00
/&   ----------  End of spectral data for channel  1  ----------
Response and Fourier amplitude spectra (78 periods,  .04 -  6.0 sec)   for      
Corrected accelerogram   24040-B1758-20263.49       Chan  2: 360 Deg     from   
Uncorrected Accelerogram Data             Processed: 09/19/20, CGS  ce24040w    
Rcrd of Fri Sep 18, 2020 23:38:23.0 PDT               (Avol1 v2.0, 4/18 CSMIP)  
CSMIP Preliminary Processing            (Origin:  To be determined)             
24040-B1758-20263.49                 Start time:  9/19/20, 06:38:23.0 UTC (GPS) 
Station No. 24040   34.031N, 118.208W    Basalt  s/n 1758  (3 Chns of  3 at Sta)
Los Angeles - Whittier & Euclid           CGS   Data: Acceleration              
Chan  2: 360 Deg                                                                
Rcrd of Fri Sep 18, 2020 23:38:23.0 PDT    Fri Sep 18, 2020 23:38:23.0 PDT      
Hypocenter:  To be determined.               ML:  To be determined.             
Instr Period =  .0047 sec,  Damping =  .700,  Sensitivity = 1.25 v/g            
                        Record Length = 68.000 sec.                             
                                     Uncor Max  =   .025 g, at   31.360 sec.    
RMS accel of (uncor) record  =        .   Chn. metadata effective date: 08/13/15
Accelerogram bandpass filtered with 3 dB pts at   .30 and 40.00 cyc/sec         
                 instrument- and base-line correcte                             
                                                                                
                                                                                
                                                                                
                                                                                
                                                                                
Rcrd of Fri Sep 18, 2020 23:38:23.0 PDT    Fri Sep 18, 2020 23:38:23.0 PDT      
                                                                                
24040-B1758-20263.49      Los Angeles - Whittier & Euclid   Chan  2: 360 Deg    
                                                                                
24040-B1758-20263.49      Los Angeles - Whittier & Euclid   Chan  2: 360 Deg    
                                                                                
Units for spectra are inches and sec, except Sa is in fraction of g.            
                                                                                
    2  100    2    3    3  200    1    3    1   24   31 1758    024040   11    0
    6   38   23    0  263    9   19 2020   10    3  36013600   39   31   74  360
13600    1  100    3 1758    1   49  680    2 -999 -999 -999 -999 -999 -999 -999
 -999 -999    3 -999 6800    2  202    0   24   20 -999 -999    3    1 -999 6800
    3 6800    4   78    1    3    5    0    0 -999    0    0    1    3    1    2
    2    2    4    0   32   67    0    5 -999    0    0    1    0    0    0  222
    1    0    2    0
      .005      .700    68.000      .002     1.000  1251.800      .025    31.360
   214.000      .596      .476  -999.000     5.000  -999.000     4.000  -999.000
     5.000    14.757     5.000  -999.000    30.000    30.000  -999.000      .000
     -.002     -.002     2.000    15.000    34.031  -118.208      .024      .229
     9.677     -.019      .014    98.000    31.000    38.900    13.400    91.760
     1.000    11.003    -8.000  -999.000  -999.000  -999.000  -999.000  -999.000
     6.900     2.000     6.800   980.665      .010    68.000    34.059      .000
  -999.000    40.000  -999.000    68.000      .010      .300  -999.000  -999.000
    31.360    24.332    31.410     1.283    31.340     -.065      .000      .300
    40.000      .010      .010      .000      .010      .023  -999.000  -999.000
      .081      .260      .057      .070      .003      .000  -999.000  -999.000
  -999.000  -999.000  -999.000  -999.000  -999.000  -999.000  -999.000  -999.000
  -999.000  -999.000  -999.000  -999.000
      .050
      .040      .042      .044      .046      .048      .050      .055      .060
      .065      .070      .075      .080      .085      .090      .095      .100
      .110      .120      .130      .140      .150      .160      .170      .180
      .190      .200      .220      .240      .260      .280      .300      .320
      .340      .360      .380      .400      .420      .440      .460      .480
      .500      .550      .600      .650      .700      .750      .800      .850
      .900      .950     1.000     1.100     1.200     1.300     1.400     1.500
     1.600     1.700     1.800     1.900     2.000     2.200     2.400     2.600
     2.800     3.000     3.200     3.400     3.600     3.800     4.000     4.200
     4.400     4.600     4.800     5.000     5.500     6.000      .000      .000
      .000      .000      .000      .000      .000      .000      .000      .000
      .000      .000      .000      .000      .000      .000      .000      .000
      .000      .000      .000      .000
Fourier amplitude spectra in in/sec.
  .000E+00  .000E+00  .000E+00  .000E+00  .000E+00  .000E+00  .000E+00  .000E+00
  .000E+00  .000E+00  .000E+00  .000E+00  .000E+00  .000E+00  .000E+00  .000E+00
  .000E+00  .000E+00  .000E+00  .000E+00  .000E+00  .000E+00  .000E+00  .000E+00
  .000E+00  .000E+00  .000E+00  .000E+00  .000E+00  .000E+00  .000E+00  .000E+00
  .000E+00  .000E+00  .000E+00  .000E+00  .000E+00  .000E+00  .000E+00  .000E+00
  .000E+00  .000E+00  .000E+00  .000E+00  .000E+00  .000E+00  .000E+00  .000E+00
  .000E+00  .000E+00  .000E+00  .000E+00  .000E+00  .000E+00  .000E+00  .000E+00
  .000E+00  .000E+00  .000E+00  .000E+00  .000E+00  .000E+00  .000E+00  .000E+00
  .000E+00  .000E+00  .000E+00  .000E+00  .000E+00  .000E+00  .000E+00  .000E+00
  .000E+00  .000E+00  .000E+00  .000E+00  .000E+00  .000E+00  .000E+00  .000E+00
  .000E+00  .000E+00  .000E+00  .000E+00  .000E+00  .000E+00  .000E+00  .000E+00
  .000E+00  .000E+00  .000E+00  .000E+00  .000E+00  .000E+00  .000E+00  .000E+00
  .000E+00  .000E+00  .000E+00  .000E+00
Damping =  .05. Data of Sd,Sv,Sa,Pssv,ttSd,ttSv,ttSa :
  .446E-03  .537E-03  .646E-03  .760E-03  .899E-03  .106E-02  .128E-02  .163E-02
  .208E-02  .243E-02  .244E-02  .283E-02  .370E-02  .436E-02  .458E-02  .449E-02
  .445E-02  .524E-02  .856E-02  .107E-01  .871E-02  .114E-01  .125E-01  .145E-01
  .173E-01  .217E-01  .314E-01  .450E-01  .538E-01  .579E-01  .623E-01  .640E-01
  .671E-01  .698E-01  .721E-01  .731E-01  .692E-01  .621E-01  .550E-01  .517E-01
