Response and Fourier amplitude spectra (78 periods,  .04 -  6.0 sec)   for      
Corrected accelerogram   24944-O0199-20263.11       Chan  1:  Up         from   
Uncorrected Accelerogram Data             Processed: 09/19/20, CGS  ce24944k    
Rcrd of Fri Sep 18, 2020 23:38:22.0 PDT               (Avol1 v2.0, 4/18 CSMIP)  
CSMIP Preliminary Processing            (Origin:  To be determined)             
24944-O0199-20263.11                 Start time:  9/19/20, 06:38:22.0 UTC (GPS) 
Station No. 24944   34.230N, 118.253W    Obsidn  s/n  199  (3 Chns of  3 at Sta)
Glendale - Foothill Blvd & New York Ave   CGS   Data: Acceleration              
Chan  1:  Up                                                                    
Rcrd of Fri Sep 18, 2020 23:38:22.0 PDT    Fri Sep 18, 2020 23:38:22.0 PDT      
Hypocenter:  To be determined.               ML:  To be determined.             
Instr Period =  .0049 sec,  Damping =  .700,  Sensitivity = 1.25 v/g            
                        Record Length = 66.000 sec.                             
                                     Uncor Max  =   .042 g, at   30.520 sec.    
RMS accel of (uncor) record  =        .   Chn. metadata effective date: 08/04/16
Accelerogram bandpass filtered with 3 dB pts at   .30 and 40.00 cyc/sec         
                 instrument- and base-line correcte                             
                                                                                
                                                                                
                                                                                
                                                                                
                                                                                
Rcrd of Fri Sep 18, 2020 23:38:22.0 PDT    Fri Sep 18, 2020 23:38:22.0 PDT      
                                                                                
24944-O0199-20263.11      Glendale - Foothill Blvd & New York Ave   Chan  1:  Up
                                                                                
24944-O0199-20263.11      Glendale - Foothill Blvd & New York Ave   Chan  1:  Up
                                                                                
Units for spectra are inches and sec, except Sa is in fraction of g.            
                                                                                
    1  100    1    3    3  200    1    3    1   24   32  199    024944   11    0
    6   38   22    0  263    9   19 2020   10    3  50013200   39   39   74  360
13200    1  100    3  199    1   11  660    2 -999 -999 -999 -999 -999 -999 -999
 -999 -999    3 -999 6600    2  202    0   24   20 -999 -999    3    1 -999 6600
    3 6600    4   78    1    3    5    0    0 -999    0    0    1    3    1    2
    2    2    4    0   32   67    0    5 -999    0    0    1    0    0    4  222
    1    0    2    0
      .005      .700    66.000      .002     1.000  1254.200      .042    30.520
   204.000      .596      .475  -999.000     5.000  -999.000     4.000  -999.000
     5.000     5.724     5.000  -999.000    30.000    30.000  -999.000     -.001
     -.001      .000     2.000    15.000    34.230  -118.253      .009      .124
    14.373     -.009      .009   479.000    31.000    36.900    13.000   106.340
     1.000    11.003    -8.000  -999.000  -999.000  -999.000  -999.000  -999.000
     6.900     2.000     6.800   980.665      .010    66.000    32.468      .000
  -999.000    40.000  -999.000    66.000      .010      .300  -999.000  -999.000
    30.520    40.142    30.540      .600    34.180      .052      .000      .300
    40.000      .010      .010      .000      .010      .011  -999.000  -999.000
      .109      .095      .061      .032      .004      .000  -999.000  -999.000
  -999.000  -999.000  -999.000  -999.000  -999.000  -999.000  -999.000  -999.000
  -999.000  -999.000  -999.000  -999.000
      .050
      .040      .042      .044      .046      .048      .050      .055      .060
      .065      .070      .075      .080      .085      .090      .095      .100
      .110      .120      .130      .140      .150      .160      .170      .180
      .190      .200      .220      .240      .260      .280      .300      .320
      .340      .360      .380      .400      .420      .440      .460      .480
      .500      .550      .600      .650      .700      .750      .800      .850
      .900      .950     1.000     1.100     1.200     1.300     1.400     1.500
     1.600     1.700     1.800     1.900     2.000     2.200     2.400     2.600
     2.800     3.000     3.200     3.400     3.600     3.800     4.000     4.200
     4.400     4.600     4.800     5.000     5.500     6.000      .000      .000
      .000      .000      .000      .000      .000      .000      .000      .000
      .000      .000      .000      .000      .000      .000      .000      .000
      .000      .000      .000      .000
Fourier amplitude spectra in in/sec.
  .000E+00  .000E+00  .000E+00  .000E+00  .000E+00  .000E+00  .000E+00  .000E+00
  .000E+00  .000E+00  .000E+00  .000E+00  .000E+00  .000E+00  .000E+00  .000E+00
  .000E+00  .000E+00  .000E+00  .000E+00  .000E+00  .000E+00  .000E+00  .000E+00
  .000E+00  .000E+00  .000E+00  .000E+00  .000E+00  .000E+00  .000E+00  .000E+00
  .000E+00  .000E+00  .000E+00  .000E+00  .000E+00  .000E+00  .000E+00  .000E+00
  .000E+00  .000E+00  .000E+00  .000E+00  .000E+00  .000E+00  .000E+00  .000E+00
  .000E+00  .000E+00  .000E+00  .000E+00  .000E+00  .000E+00  .000E+00  .000E+00
  .000E+00  .000E+00  .000E+00  .000E+00  .000E+00  .000E+00  .000E+00  .000E+00
  .000E+00  .000E+00  .000E+00  .000E+00  .000E+00  .000E+00  .000E+00  .000E+00
  .000E+00  .000E+00  .000E+00  .000E+00  .000E+00  .000E+00  .000E+00  .000E+00
  .000E+00  .000E+00  .000E+00  .000E+00  .000E+00  .000E+00  .000E+00  .000E+00
  .000E+00  .000E+00  .000E+00  .000E+00  .000E+00  .000E+00  .000E+00  .000E+00
  .000E+00  .000E+00  .000E+00  .000E+00
Damping =  .05. Data of Sd,Sv,Sa,Pssv,ttSd,ttSv,ttSa :
  .792E-03  .878E-03  .878E-03  .936E-03  .101E-02  .123E-02  .158E-02  .272E-02
  .334E-02  .386E-02  .477E-02  .538E-02  .623E-02  .767E-02  .948E-02  .105E-01
  .107E-01  .121E-01  .139E-01  .148E-01  .153E-01  .140E-01  .168E-01  .188E-01
  .202E-01  .241E-01  .289E-01  .277E-01  .247E-01  .288E-01  .295E-01  .229E-01
  .225E-01  .213E-01  .252E-01  .307E-01  .339E-01  .338E-01  .338E-01  .315E-01
  .268E-01  .231E-01  .280E-01  .294E-01  .327E-01  .339E-01  .350E-01  .351E-01
  .343E-01  .368E-01  .381E-01  .403E-01  .381E-01  .346E-01  .310E-01  .324E-01
  .332E-01  .322E-01  .305E-01  .291E-01  .281E-01  .270E-01  .255E-01  .240E-01
  .246E-01  .247E-01  .245E-01  .241E-01  .238E-01  .234E-01  .231E-01  .228E-01
  .226E-01  .224E-01  .222E-01  .221E-01  .218E-01  .216E-01  .000E+00  .000E+00
  .000E+00  .000E+00  .000E+00  .000E+00  .000E+00  .000E+00  .000E+00  .000E+00
  .000E+00  .000E+00  .000E+00  .000E+00  .000E+00  .000E+00  .000E+00  .000E+00
  .000E+00  .000E+00  .000E+00  .000E+00
  .102E+00  .109E+00  .101E+00  .103E+00  .117E+00  .127E+00  .145E+00  .233E+00
  .314E+00  .303E+00  .349E+00  .390E+00  .452E+00  .547E+00  .579E+00  .609E+00
  .604E+00  .623E+00  .697E+00  .672E+00  .680E+00  .657E+00  .628E+00  .723E+00
  .699E+00  .751E+00  .820E+00  .850E+00  .775E+00  .747E+00  .640E+00  .520E+00
  .457E+00  .421E+00  .463E+00  .508E+00  .530E+00  .560E+00  .526E+00  .467E+00
  .488E+00  .520E+00  .504E+00  .459E+00  .422E+00  .401E+00  .405E+00  .441E+00
  .441E+00  .407E+00  .370E+00  .339E+00  .327E+00  .310E+00  .303E+00  .300E+00
  .294E+00  .285E+00  .275E+00  .271E+00  .267E+00  .264E+00  .262E+00  .260E+00
  .256E+00  .252E+00  .248E+00  .245E+00  .242E+00  .241E+00  .239E+00  .238E+00
  .237E+00  .236E+00  .236E+00  .235E+00  .234E+00  .233E+00  .000E+00  .000E+00
  .000E+00  .000E+00  .000E+00  .000E+00  .000E+00  .000E+00  .000E+00  .000E+00
  .000E+00  .000E+00  .000E+00  .000E+00  .000E+00  .000E+00  .000E+00  .000E+00
  .000E+00  .000E+00  .000E+00  .000E+00
  .510E-01  .519E-01  .469E-01  .455E-01  .444E-01  .515E-01  .536E-01  .766E-01
  .808E-01  .803E-01  .865E-01  .860E-01  .884E-01  .976E-01  .109E+00  .105E+00
  .932E-01  .860E-01  .836E-01  .777E-01  .687E-01  .554E-01  .594E-01  .595E-01
  .579E-01  .619E-01  .620E-01  .490E-01  .376E-01  .379E-01  .336E-01  .230E-01
  .199E-01  .169E-01  .179E-01  .197E-01  .198E-01  .179E-01  .165E-01  .141E-01
  .110E-01  .788E-02  .801E-02  .720E-02  .690E-02  .622E-02  .562E-02  .499E-02
  .435E-02  .421E-02  .394E-02  .343E-02  .277E-02  .213E-02  .165E-02  .154E-02
  .140E-02  .121E-02  .104E-02  .897E-03  .790E-03  .640E-03  .522E-03  .425E-03
  .381E-03  .340E-03  .302E-03  .269E-03  .241E-03  .218E-03  .198E-03  .181E-03
  .166E-03  .154E-03  .143E-03  .133E-03  .114E-03  .986E-04  .000E+00  .000E+00
  .000E+00  .000E+00  .000E+00  .000E+00  .000E+00  .000E+00  .000E+00  .000E+00
  .000E+00  .000E+00  .000E+00  .000E+00  .000E+00  .000E+00  .000E+00  .000E+00
  .000E+00  .000E+00  .000E+00  .000E+00
  .124E+00  .131E+00  .125E+00  .128E+00  .132E+00  .155E+00  .181E+00  .285E+00
  .323E+00  .346E+00  .400E+00  .423E+00  .460E+00  .536E+00  .627E+00  .662E+00
  .613E+00  .635E+00  .672E+00  .666E+00  .639E+00  .549E+00  .621E+00  .656E+00
  .669E+00  .756E+00  .825E+00  .725E+00  .598E+00  .647E+00  .617E+00  .449E+00
  .415E+00  .371E+00  .417E+00  .483E+00  .508E+00  .482E+00  .461E+00  .412E+00
  .337E+00  .264E+00  .293E+00  .284E+00  .293E+00  .284E+00  .275E+00  .259E+00
  .240E+00  .244E+00  .239E+00  .230E+00  .199E+00  .167E+00  .139E+00  .136E+00
  .130E+00  .119E+00  .107E+00  .962E-01  .882E-01  .770E-01  .669E-01  .580E-01
  .552E-01  .518E-01  .481E-01  .446E-01  .415E-01  .388E-01  .363E-01  .341E-01
  .322E-01  .305E-01  .291E-01  .277E-01  .249E-01  .226E-01  .000E+00  .000E+00
  .000E+00  .000E+00  .000E+00  .000E+00  .000E+00  .000E+00  .000E+00  .000E+00
  .000E+00  .000E+00  .000E+00  .000E+00  .000E+00  .000E+00  .000E+00  .000E+00
  .000E+00  .000E+00  .000E+00  .000E+00
  .308E+02  .308E+02  .342E+02  .342E+02  .312E+02  .305E+02  .305E+02  .309E+02
  .309E+02  .306E+02  .306E+02  .306E+02  .308E+02  .306E+02  .306E+02  .306E+02
  .306E+02  .306E+02  .306E+02  .308E+02  .308E+02  .308E+02  .348E+02  .347E+02
  .347E+02  .345E+02  .345E+02  .345E+02  .345E+02  .358E+02  .357E+02  .347E+02
  .347E+02  .347E+02  .356E+02  .354E+02  .355E+02  .355E+02  .353E+02  .353E+02
  .353E+02  .343E+02  .343E+02  .343E+02  .343E+02  .351E+02  .352E+02  .352E+02
  .349E+02  .349E+02  .349E+02  .350E+02  .350E+02  .357E+02  .358E+02  .346E+02
  .346E+02  .346E+02  .347E+02  .347E+02  .347E+02  .347E+02  .347E+02  .342E+02
  .342E+02  .342E+02  .342E+02  .342E+02  .342E+02  .342E+02  .342E+02  .342E+02
  .342E+02  .342E+02  .342E+02  .342E+02  .342E+02  .342E+02  .000E+00  .000E+00
  .000E+00  .000E+00  .000E+00  .000E+00  .000E+00  .000E+00  .000E+00  .000E+00
  .000E+00  .000E+00  .000E+00  .000E+00  .000E+00  .000E+00  .000E+00  .000E+00
  .000E+00  .000E+00  .000E+00  .000E+00
  .308E+02  .308E+02  .305E+02  .342E+02  .311E+02  .305E+02  .316E+02  .309E+02
  .309E+02  .305E+02  .306E+02  .306E+02  .308E+02  .308E+02  .306E+02  .305E+02
  .306E+02  .306E+02  .306E+02  .308E+02  .307E+02  .307E+02  .347E+02  .348E+02
  .348E+02  .345E+02  .344E+02  .344E+02  .344E+02  .344E+02  .358E+02  .344E+02
  .344E+02  .357E+02  .357E+02  .355E+02  .354E+02  .354E+02  .354E+02  .344E+02
  .344E+02  .344E+02  .344E+02  .344E+02  .344E+02  .353E+02  .350E+02  .350E+02
  .350E+02  .350E+02  .351E+02  .342E+02  .342E+02  .342E+02  .342E+02  .342E+02
  .342E+02  .342E+02  .342E+02  .344E+02  .344E+02  .344E+02  .344E+02  .344E+02
  .344E+02  .344E+02  .344E+02  .344E+02  .344E+02  .344E+02  .344E+02  .344E+02
  .344E+02  .344E+02  .344E+02  .344E+02  .344E+02  .344E+02  .000E+00  .000E+00
  .000E+00  .000E+00  .000E+00  .000E+00  .000E+00  .000E+00  .000E+00  .000E+00
  .000E+00  .000E+00  .000E+00  .000E+00  .000E+00  .000E+00  .000E+00  .000E+00
  .000E+00  .000E+00  .000E+00  .000E+00
  .305E+02  .308E+02  .342E+02  .342E+02  .312E+02  .305E+02  .305E+02  .309E+02
  .309E+02  .306E+02  .306E+02  .306E+02  .306E+02  .306E+02  .306E+02  .306E+02
  .306E+02  .306E+02  .306E+02  .308E+02  .308E+02  .308E+02  .348E+02  .347E+02
  .347E+02  .345E+02  .345E+02  .345E+02  .345E+02  .358E+02  .357E+02  .344E+02
  .347E+02  .347E+02  .356E+02  .354E+02  .354E+02  .355E+02  .353E+02  .353E+02
  .353E+02  .343E+02  .343E+02  .343E+02  .343E+02  .351E+02  .351E+02  .352E+02
  .349E+02  .349E+02  .349E+02  .350E+02  .350E+02  .357E+02  .357E+02  .346E+02
  .346E+02  .346E+02  .346E+02  .346E+02  .346E+02  .346E+02  .346E+02  .341E+02
  .341E+02  .341E+02  .341E+02  .341E+02  .341E+02  .341E+02  .341E+02  .341E+02
  .341E+02  .341E+02  .341E+02  .341E+02  .341E+02  .341E+02  .000E+00  .000E+00
  .000E+00  .000E+00  .000E+00  .000E+00  .000E+00  .000E+00  .000E+00  .000E+00
  .000E+00  .000E+00  .000E+00  .000E+00  .000E+00  .000E+00  .000E+00  .000E+00
  .000E+00  .000E+00  .000E+00  .000E+00
/&   ----------  End of spectral data for channel  1  ----------
Response and Fourier amplitude spectra (78 periods,  .04 -  6.0 sec)   for      
Corrected accelerogram   24944-O0199-20263.11       Chan  2: 360 Deg     from   
Uncorrected Accelerogram Data             Processed: 09/19/20, CGS  ce24944k    
Rcrd of Fri Sep 18, 2020 23:38:22.0 PDT               (Avol1 v2.0, 4/18 CSMIP)  
CSMIP Preliminary Processing            (Origin:  To be determined)             
24944-O0199-20263.11                 Start time:  9/19/20, 06:38:22.0 UTC (GPS) 
Station No. 24944   34.230N, 118.253W    Obsidn  s/n  199  (3 Chns of  3 at Sta)
Glendale - Foothill Blvd & New York Ave   CGS   Data: Acceleration              
Chan  2: 360 Deg                                                                
Rcrd of Fri Sep 18, 2020 23:38:22.0 PDT    Fri Sep 18, 2020 23:38:22.0 PDT      
Hypocenter:  To be determined.               ML:  To be determined.             
Instr Period =  .0050 sec,  Damping =  .700,  Sensitivity = 1.25 v/g            
                        Record Length = 66.000 sec.                             
                                     Uncor Max  =   .072 g, at   34.575 sec.    
RMS accel of (uncor) record  =        .   Chn. metadata effective date: 08/04/16
Accelerogram bandpass filtered with 3 dB pts at   .30 and 40.00 cyc/sec         
                 instrument- and base-line correcte                             
                                                                                
                                                                                
                                                                                
                                                                                
                                                                                
Rcrd of Fri Sep 18, 2020 23:38:22.0 PDT    Fri Sep 18, 2020 23:38:22.0 PDT      
                                                                                
24944-O0199-20263.11      Glendale - Foothill Blvd & New York Ave   Chan  2: 360
 Deg                                                                            
24944-O0199-20263.11      Glendale - Foothill Blvd & New York Ave   Chan  2: 360
 Deg                                                                            
Units for spectra are inches and sec, except Sa is in fraction of g.            
                                                                                
    2  100    2    3    3  200    1    3    1   24   32  199    024944   11    0
    6   38   22    0  263    9   19 2020   10    3  36013200   39   39   74  360
13200    1  100    3  199    1   11  660    2 -999 -999 -999 -999 -999 -999 -999
 -999 -999    3 -999 6600    2  202    0   24   20 -999 -999    3    1 -999 6600
    3 6600    4   78    1    3    5    0    0 -999    0    0    1    3    1    2
    2    2    4    0   32   67    0    5 -999    0    0    1    0    0    4  222
    1    0    2    0
      .005      .700    66.000      .003     1.000  1252.000      .072    34.575
   202.000      .596      .476  -999.000     5.000  -999.000     4.000  -999.000
     5.000    11.325     5.000  -999.000    30.000    30.000  -999.000      .000
      .000     -.001     2.000    15.000    34.230  -118.253      .006      .147
    25.920     -.011      .009   479.000    31.000    36.900    13.000   106.340
     1.000    11.003    -8.000  -999.000  -999.000  -999.000  -999.000  -999.000
     6.900     2.000     6.800   980.665      .010    66.000    32.149      .000
  -999.000    40.000  -999.000    66.000      .010      .300  -999.000  -999.000
    34.570    68.012    34.550    -1.760    34.430      .075      .000      .300
    40.000      .010      .010      .000      .070      .014  -999.000  -999.000
      .263      .095      .061      .041      .006      .000  -999.000  -999.000
  -999.000  -999.000  -999.000  -999.000  -999.000  -999.000  -999.000  -999.000
  -999.000  -999.000  -999.000  -999.000
      .050
      .040      .042      .044      .046      .048      .050      .055      .060
      .065      .070      .075      .080      .085      .090      .095      .100
      .110      .120      .130      .140      .150      .160      .170      .180
      .190      .200      .220      .240      .260      .280      .300      .320
      .340      .360      .380      .400      .420      .440      .460      .480
      .500      .550      .600      .650      .700      .750      .800      .850
      .900      .950     1.000     1.100     1.200     1.300     1.400     1.500
     1.600     1.700     1.800     1.900     2.000     2.200     2.400     2.600
     2.800     3.000     3.200     3.400     3.600     3.800     4.000     4.200
     4.400     4.600     4.800     5.000     5.500     6.000      .000      .000
      .000      .000      .000      .000      .000      .000      .000      .000
      .000      .000      .000      .000      .000      .000      .000      .000
      .000      .000      .000      .000
Fourier amplitude spectra in in/sec.
  .000E+00  .000E+00  .000E+00  .000E+00  .000E+00  .000E+00  .000E+00  .000E+00
  .000E+00  .000E+00  .000E+00  .000E+00  .000E+00  .000E+00  .000E+00  .000E+00
  .000E+00  .000E+00  .000E+00  .000E+00  .000E+00  .000E+00  .000E+00  .000E+00
  .000E+00  .000E+00  .000E+00  .000E+00  .000E+00  .000E+00  .000E+00  .000E+00
  .000E+00  .000E+00  .000E+00  .000E+00  .000E+00  .000E+00  .000E+00  .000E+00
  .000E+00  .000E+00  .000E+00  .000E+00  .000E+00  .000E+00  .000E+00  .000E+00
  .000E+00  .000E+00  .000E+00  .000E+00  .000E+00  .000E+00  .000E+00  .000E+00
  .000E+00  .000E+00  .000E+00  .000E+00  .000E+00  .000E+00  .000E+00  .000E+00
  .000E+00  .000E+00  .000E+00  .000E+00  .000E+00  .000E+00  .000E+00  .000E+00
  .000E+00  .000E+00  .000E+00  .000E+00  .000E+00  .000E+00  .000E+00  .000E+00
  .000E+00  .000E+00  .000E+00  .000E+00  .000E+00  .000E+00  .000E+00  .000E+00
  .000E+00  .000E+00  .000E+00  .000E+00  .000E+00  .000E+00  .000E+00  .000E+00
  .000E+00  .000E+00  .000E+00  .000E+00
Damping =  .05. Data of Sd,Sv,Sa,Pssv,ttSd,ttSv,ttSa :
  .147E-02  .163E-02  .182E-02  .198E-02  .202E-02  .213E-02  .295E-02  .444E-02
  .436E-02  .572E-02  .875E-02  .130E-01  .165E-01  .201E-01  .231E-01  .245E-01
  .220E-01  .181E-01  .210E-01  .231E-01  .215E-01  .234E-01  .277E-01  .303E-01
  .252E-01  .233E-01  .235E-01  .250E-01  .302E-01  .360E-01  .356E-01  .347E-01
  .470E-01  .532E-01  .554E-01  .552E-01  .506E-01  .495E-01  .535E-01  .571E-01
