Response and Fourier amplitude spectra (78 periods,  .04 -  6.0 sec)   for      
Corrected accelerogram   24592-N2622-20263.03       Chan  1: 180 Deg     from   
Uncorrected Accelerogram Data             Processed: 09/18/20, CGS  ce24592c    
Rcrd of Fri Sep 18, 2020 23:38:20.0 PDT               (Avol1 v2.0, 4/18 CSMIP)  
CSMIP Preliminary Processing            (Origin:  To be determined)             
24592-N2622-20263.03                 Start time:  9/19/20, 06:38:20.0 UTC (GPS) 
Station No. 24592   34.053N, 118.172W    Etna2   s/n 2622  (3 Chns of  3 at Sta)
Los Angeles - City Terrace                CGS   Data: Acceleration              
Chan  1: 180 Deg                                                                
Rcrd of Fri Sep 18, 2020 23:38:20.0 PDT    Fri Sep 18, 2020 23:38:20.0 PDT      
Hypocenter:  To be determined.               ML:  To be determined.             
Instr Period =  .0049 sec,  Damping =  .700,  Sensitivity =  .63 v/g            
                        Record Length = 69.000 sec.                             
                                     Uncor Max  =  -.092 g, at   33.670 sec.    
RMS accel of (uncor) record  =        .   Chn. metadata effective date: 05/13/20
Accelerogram bandpass filtered with 3 dB pts at   .30 and 40.00 cyc/sec         
                 instrument- and base-line correcte                             
                                                                                
                                                                                
                                                                                
                                                                                
                                                                                
Rcrd of Fri Sep 18, 2020 23:38:20.0 PDT    Fri Sep 18, 2020 23:38:20.0 PDT      
                                                                                
24592-N2622-20263.03      Los Angeles - City Terrace    Chan  1: 180 Deg        
                                                                                
24592-N2622-20263.03      Los Angeles - City Terrace    Chan  1: 180 Deg        
                                                                                
Units for spectra are inches and sec, except Sa is in fraction of g.            
                                                                                
    1  100    1    3    3  200    1    3    1   24   22 2622    024592   21    0
    6   38   20    0  263    9   19 2020   10    3  18013800   39   26   74  360
13800    1  100    3 2622    1    3  690    2 -999 -999 -999 -999 -999 -999 -999
 -999 -999    3 -999 6900    2  202    0   24   20 -999 -999    3    1 -999 6900
    3 6900    4   78    1    3    5    0    0 -999    0    0    1    3    1    2
    2    2    4    0   32   67    9    1 -999    0    0    1    0    0    0  222
    1    0    0    0
      .005      .700    69.000      .006     1.000   627.000     -.092    33.670
   204.000      .298      .475  -999.000     5.000  -999.000     4.000  -999.000
     2.500   -37.707     2.500   365.000    30.000    30.000  -999.000      .000
      .006      .006     2.000    15.000    34.053  -118.172      .041      .392
     9.437     -.022      .034   184.000    31.000    39.900    13.000   103.280
     1.000    11.003    -8.000  -999.000  -999.000  -999.000  -999.000  -999.000
     6.900     2.000     6.800   980.665      .010    69.000    32.468      .000
  -999.000    40.000  -999.000    69.000      .010      .300  -999.000  -999.000
    33.670   -87.143    33.650     1.456    33.680      .119      .000      .300
    40.000      .010      .010      .000      .370      .045  -999.000  -999.000
      .378      .080      .129      .091      .006      .001  -999.000  -999.000
  -999.000  -999.000  -999.000  -999.000  -999.000  -999.000  -999.000  -999.000
  -999.000  -999.000  -999.000  -999.000
      .050
      .040      .042      .044      .046      .048      .050      .055      .060
      .065      .070      .075      .080      .085      .090      .095      .100
      .110      .120      .130      .140      .150      .160      .170      .180
      .190      .200      .220      .240      .260      .280      .300      .320
      .340      .360      .380      .400      .420      .440      .460      .480
      .500      .550      .600      .650      .700      .750      .800      .850
      .900      .950     1.000     1.100     1.200     1.300     1.400     1.500
     1.600     1.700     1.800     1.900     2.000     2.200     2.400     2.600
     2.800     3.000     3.200     3.400     3.600     3.800     4.000     4.200
     4.400     4.600     4.800     5.000     5.500     6.000      .000      .000
      .000      .000      .000      .000      .000      .000      .000      .000
      .000      .000      .000      .000      .000      .000      .000      .000
      .000      .000      .000      .000
Fourier amplitude spectra in in/sec.
  .000E+00  .000E+00  .000E+00  .000E+00  .000E+00  .000E+00  .000E+00  .000E+00
  .000E+00  .000E+00  .000E+00  .000E+00  .000E+00  .000E+00  .000E+00  .000E+00
  .000E+00  .000E+00  .000E+00  .000E+00  .000E+00  .000E+00  .000E+00  .000E+00
  .000E+00  .000E+00  .000E+00  .000E+00  .000E+00  .000E+00  .000E+00  .000E+00
  .000E+00  .000E+00  .000E+00  .000E+00  .000E+00  .000E+00  .000E+00  .000E+00
  .000E+00  .000E+00  .000E+00  .000E+00  .000E+00  .000E+00  .000E+00  .000E+00
  .000E+00  .000E+00  .000E+00  .000E+00  .000E+00  .000E+00  .000E+00  .000E+00
  .000E+00  .000E+00  .000E+00  .000E+00  .000E+00  .000E+00  .000E+00  .000E+00
  .000E+00  .000E+00  .000E+00  .000E+00  .000E+00  .000E+00  .000E+00  .000E+00
  .000E+00  .000E+00  .000E+00  .000E+00  .000E+00  .000E+00  .000E+00  .000E+00
  .000E+00  .000E+00  .000E+00  .000E+00  .000E+00  .000E+00  .000E+00  .000E+00
  .000E+00  .000E+00  .000E+00  .000E+00  .000E+00  .000E+00  .000E+00  .000E+00
  .000E+00  .000E+00  .000E+00  .000E+00
Damping =  .05. Data of Sd,Sv,Sa,Pssv,ttSd,ttSv,ttSa :
  .416E-02  .484E-02  .556E-02  .595E-02  .608E-02  .720E-02  .791E-02  .857E-02
  .896E-02  .129E-01  .170E-01  .238E-01  .239E-01  .247E-01  .215E-01  .158E-01
  .187E-01  .192E-01  .193E-01  .215E-01  .238E-01  .250E-01  .279E-01  .322E-01
  .451E-01  .490E-01  .621E-01  .806E-01  .674E-01  .675E-01  .765E-01  .960E-01
  .725E-01  .678E-01  .710E-01  .892E-01  .936E-01  .106E+00  .989E-01  .810E-01
  .694E-01  .606E-01  .506E-01  .479E-01  .420E-01  .371E-01  .420E-01  .479E-01
  .603E-01  .615E-01  .523E-01  .615E-01  .692E-01  .704E-01  .734E-01  .792E-01
  .828E-01  .830E-01  .821E-01  .799E-01  .773E-01  .671E-01  .584E-01  .598E-01
  .588E-01  .559E-01  .541E-01  .552E-01  .558E-01  .559E-01  .558E-01  .554E-01
  .549E-01  .543E-01  .538E-01  .532E-01  .520E-01  .510E-01  .000E+00  .000E+00
  .000E+00  .000E+00  .000E+00  .000E+00  .000E+00  .000E+00  .000E+00  .000E+00
  .000E+00  .000E+00  .000E+00  .000E+00  .000E+00  .000E+00  .000E+00  .000E+00
  .000E+00  .000E+00  .000E+00  .000E+00
  .556E+00  .586E+00  .631E+00  .656E+00  .704E+00  .770E+00  .786E+00  .879E+00
  .843E+00  .997E+00  .132E+01  .188E+01  .187E+01  .183E+01  .148E+01  .114E+01
  .106E+01  .107E+01  .992E+00  .922E+00  .923E+00  .989E+00  .100E+01  .106E+01
  .145E+01  .151E+01  .164E+01  .202E+01  .163E+01  .152E+01  .170E+01  .202E+01
  .160E+01  .126E+01  .143E+01  .150E+01  .158E+01  .178E+01  .147E+01  .116E+01
  .105E+01  .110E+01  .910E+00  .713E+00  .664E+00  .673E+00  .700E+00  .700E+00
  .710E+00  .667E+00  .643E+00  .674E+00  .634E+00  .695E+00  .778E+00  .783E+00
  .721E+00  .678E+00  .665E+00  .648E+00  .630E+00  .605E+00  .598E+00  .589E+00
  .579E+00  .569E+00  .559E+00  .550E+00  .543E+00  .536E+00  .530E+00  .527E+00
  .527E+00  .529E+00  .531E+00  .532E+00  .534E+00  .536E+00  .000E+00  .000E+00
  .000E+00  .000E+00  .000E+00  .000E+00  .000E+00  .000E+00  .000E+00  .000E+00
  .000E+00  .000E+00  .000E+00  .000E+00  .000E+00  .000E+00  .000E+00  .000E+00
  .000E+00  .000E+00  .000E+00  .000E+00
  .265E+00  .285E+00  .296E+00  .287E+00  .271E+00  .289E+00  .266E+00  .245E+00
  .214E+00  .272E+00  .313E+00  .378E+00  .344E+00  .318E+00  .247E+00  .159E+00
  .154E+00  .139E+00  .117E+00  .112E+00  .110E+00  .101E+00  .991E-01  .101E+00
  .128E+00  .126E+00  .132E+00  .144E+00  .102E+00  .883E-01  .872E-01  .963E-01
  .646E-01  .539E-01  .504E-01  .573E-01  .547E-01  .561E-01  .481E-01  .363E-01
  .287E-01  .207E-01  .146E-01  .118E-01  .893E-02  .692E-02  .678E-02  .687E-02
  .777E-02  .710E-02  .555E-02  .541E-02  .498E-02  .436E-02  .393E-02  .376E-02
  .340E-02  .309E-02  .276E-02  .236E-02  .205E-02  .145E-02  .115E-02  .963E-03
  .853E-03  .788E-03  .729E-03  .671E-03  .616E-03  .566E-03  .520E-03  .479E-03
  .442E-03  .409E-03  .380E-03  .355E-03  .304E-03  .265E-03  .000E+00  .000E+00
  .000E+00  .000E+00  .000E+00  .000E+00  .000E+00  .000E+00  .000E+00  .000E+00
  .000E+00  .000E+00  .000E+00  .000E+00  .000E+00  .000E+00  .000E+00  .000E+00
  .000E+00  .000E+00  .000E+00  .000E+00
  .653E+00  .724E+00  .794E+00  .813E+00  .795E+00  .905E+00  .904E+00  .897E+00
  .866E+00  .116E+01  .142E+01  .187E+01  .177E+01  .172E+01  .142E+01  .990E+00
  .107E+01  .101E+01  .935E+00  .964E+00  .999E+00  .982E+00  .103E+01  .112E+01
  .149E+01  .154E+01  .177E+01  .211E+01  .163E+01  .151E+01  .160E+01  .189E+01
  .134E+01  .118E+01  .117E+01  .140E+01  .140E+01  .151E+01  .135E+01  .106E+01
  .872E+00  .692E+00  .530E+00  .463E+00  .377E+00  .311E+00  .330E+00  .354E+00
  .421E+00  .406E+00  .328E+00  .352E+00  .362E+00  .340E+00  .330E+00  .332E+00
  .325E+00  .307E+00  .287E+00  .264E+00  .243E+00  .192E+00  .153E+00  .145E+00
  .132E+00  .117E+00  .106E+00  .102E+00  .973E-01  .925E-01  .876E-01  .829E-01
  .784E-01  .742E-01  .704E-01  .669E-01  .593E-01  .534E-01  .000E+00  .000E+00
  .000E+00  .000E+00  .000E+00  .000E+00  .000E+00  .000E+00  .000E+00  .000E+00
  .000E+00  .000E+00  .000E+00  .000E+00  .000E+00  .000E+00  .000E+00  .000E+00
  .000E+00  .000E+00  .000E+00  .000E+00
  .339E+02  .337E+02  .337E+02  .337E+02  .337E+02  .337E+02  .337E+02  .340E+02
  .340E+02  .337E+02  .338E+02  .339E+02  .339E+02  .339E+02  .339E+02  .339E+02
  .336E+02  .354E+02  .364E+02  .361E+02  .361E+02  .359E+02  .354E+02  .366E+02
  .366E+02  .367E+02  .359E+02  .370E+02  .373E+02  .361E+02  .361E+02  .361E+02
  .357E+02  .338E+02  .354E+02  .355E+02  .366E+02  .371E+02  .371E+02  .370E+02
  .370E+02  .359E+02  .357E+02  .368E+02  .368E+02  .365E+02  .348E+02  .348E+02
  .371E+02  .371E+02  .345E+02  .345E+02  .352E+02  .346E+02  .346E+02  .370E+02
  .363E+02  .357E+02  .357E+02  .350E+02  .350E+02  .350E+02  .342E+02  .344E+02
  .344E+02  .344E+02  .337E+02  .337E+02  .337E+02  .337E+02  .337E+02  .337E+02
  .337E+02  .337E+02  .337E+02  .337E+02  .337E+02  .337E+02  .000E+00  .000E+00
  .000E+00  .000E+00  .000E+00  .000E+00  .000E+00  .000E+00  .000E+00  .000E+00
  .000E+00  .000E+00  .000E+00  .000E+00  .000E+00  .000E+00  .000E+00  .000E+00
  .000E+00  .000E+00  .000E+00  .000E+00
  .339E+02  .337E+02  .337E+02  .337E+02  .339E+02  .337E+02  .342E+02  .341E+02
  .339E+02  .337E+02  .337E+02  .339E+02  .339E+02  .339E+02  .339E+02  .339E+02
  .336E+02  .339E+02  .336E+02  .360E+02  .361E+02  .359E+02  .354E+02  .366E+02
  .367E+02  .367E+02  .358E+02  .370E+02  .373E+02  .363E+02  .373E+02  .362E+02
  .358E+02  .355E+02  .355E+02  .355E+02  .365E+02  .372E+02  .372E+02  .371E+02
  .364E+02  .358E+02  .358E+02  .358E+02  .358E+02  .358E+02  .358E+02  .358E+02
  .364E+02  .364E+02  .357E+02  .353E+02  .360E+02  .350E+02  .358E+02  .358E+02
  .358E+02  .345E+02  .345E+02  .345E+02  .345E+02  .338E+02  .338E+02  .338E+02
  .338E+02  .338E+02  .338E+02  .338E+02  .338E+02  .338E+02  .358E+02  .358E+02
  .336E+02  .336E+02  .336E+02  .336E+02  .336E+02  .336E+02  .000E+00  .000E+00
  .000E+00  .000E+00  .000E+00  .000E+00  .000E+00  .000E+00  .000E+00  .000E+00
  .000E+00  .000E+00  .000E+00  .000E+00  .000E+00  .000E+00  .000E+00  .000E+00
  .000E+00  .000E+00  .000E+00  .000E+00
  .339E+02  .337E+02  .337E+02  .337E+02  .337E+02  .337E+02  .337E+02  .340E+02
  .340E+02  .337E+02  .338E+02  .339E+02  .339E+02  .339E+02  .339E+02  .339E+02
  .336E+02  .354E+02  .364E+02  .360E+02  .361E+02  .359E+02  .354E+02  .366E+02
  .366E+02  .367E+02  .359E+02  .370E+02  .373E+02  .361E+02  .361E+02  .361E+02
  .357E+02  .338E+02  .354E+02  .355E+02  .373E+02  .371E+02  .371E+02  .369E+02
  .370E+02  .358E+02  .357E+02  .368E+02  .368E+02  .365E+02  .348E+02  .348E+02
  .371E+02  .371E+02  .345E+02  .345E+02  .352E+02  .371E+02  .346E+02  .369E+02
  .363E+02  .357E+02  .357E+02  .349E+02  .349E+02  .350E+02  .353E+02  .344E+02
  .369E+02  .336E+02  .336E+02  .336E+02  .336E+02  .336E+02  .336E+02  .336E+02
  .336E+02  .336E+02  .336E+02  .336E+02  .336E+02  .336E+02  .000E+00  .000E+00
  .000E+00  .000E+00  .000E+00  .000E+00  .000E+00  .000E+00  .000E+00  .000E+00
  .000E+00  .000E+00  .000E+00  .000E+00  .000E+00  .000E+00  .000E+00  .000E+00
  .000E+00  .000E+00  .000E+00  .000E+00
/&   ----------  End of spectral data for channel  1  ----------
Response and Fourier amplitude spectra (78 periods,  .04 -  6.0 sec)   for      
Corrected accelerogram   24592-N2622-20263.03       Chan  2:  90 Deg     from   
Uncorrected Accelerogram Data             Processed: 09/18/20, CGS  ce24592c    
Rcrd of Fri Sep 18, 2020 23:38:20.0 PDT               (Avol1 v2.0, 4/18 CSMIP)  
CSMIP Preliminary Processing            (Origin:  To be determined)             
24592-N2622-20263.03                 Start time:  9/19/20, 06:38:20.0 UTC (GPS) 
Station No. 24592   34.053N, 118.172W    Etna2   s/n 2622  (3 Chns of  3 at Sta)
Los Angeles - City Terrace                CGS   Data: Acceleration              
Chan  2:  90 Deg                                                                
Rcrd of Fri Sep 18, 2020 23:38:20.0 PDT    Fri Sep 18, 2020 23:38:20.0 PDT      
Hypocenter:  To be determined.               ML:  To be determined.             
Instr Period =  .0050 sec,  Damping =  .700,  Sensitivity =  .63 v/g            
                        Record Length = 69.000 sec.                             
                                     Uncor Max  =   .049 g, at   33.895 sec.    
RMS accel of (uncor) record  =        .   Chn. metadata effective date: 05/13/20
Accelerogram bandpass filtered with 3 dB pts at   .30 and 40.00 cyc/sec         
                 instrument- and base-line correcte                             
                                                                                
                                                                                
                                                                                
                                                                                
                                                                                
Rcrd of Fri Sep 18, 2020 23:38:20.0 PDT    Fri Sep 18, 2020 23:38:20.0 PDT      
                                                                                
24592-N2622-20263.03      Los Angeles - City Terrace    Chan  2:  90 Deg        
                                                                                
24592-N2622-20263.03      Los Angeles - City Terrace    Chan  2:  90 Deg        
                                                                                
Units for spectra are inches and sec, except Sa is in fraction of g.            
                                                                                
    2  100    2    3    3  200    1    3    1   24   22 2622    024592   21    0
    6   38   20    0  263    9   19 2020   10    3   9013800   39   26   74  360
13800    1  100    3 2622    1    3  690    2 -999 -999 -999 -999 -999 -999 -999
 -999 -999    3 -999 6900    2  202    0   24   20 -999 -999    3    1 -999 6900
    3 6900    4   78    1    3    5    0    0 -999    0    0    1    3    1    2
    2    2    4    0   32   67    9    1 -999    0    0    1    0    0    0  222
    1    0    0    0
      .005      .700    69.000      .005     1.000   626.000      .049    33.895
   202.000      .298      .476  -999.000     5.000  -999.000     4.000  -999.000
     2.500     1.484     2.500   365.000    30.000    30.000  -999.000      .000
     -.003     -.003     2.000    15.000    34.053  -118.172      .030      .408
    13.790     -.031      .026   184.000    31.000    39.900    13.000   103.280
     1.000    11.003    -8.000  -999.000  -999.000  -999.000  -999.000  -999.000
     6.900     2.000     6.800   980.665      .010    69.000    32.149      .000
  -999.000    40.000  -999.000    69.000      .010      .300  -999.000  -999.000
    33.680    44.055    33.870    -1.094    33.350      .106      .000      .300
    40.000      .010      .010      .000      .010      .037  -999.000  -999.000
      .228      .075      .118      .099      .008      .001  -999.000  -999.000
  -999.000  -999.000  -999.000  -999.000  -999.000  -999.000  -999.000  -999.000
  -999.000  -999.000  -999.000  -999.000
      .050
      .040      .042      .044      .046      .048      .050      .055      .060
      .065      .070      .075      .080      .085      .090      .095      .100
      .110      .120      .130      .140      .150      .160      .170      .180
      .190      .200      .220      .240      .260      .280      .300      .320
      .340      .360      .380      .400      .420      .440      .460      .480
      .500      .550      .600      .650      .700      .750      .800      .850
      .900      .950     1.000     1.100     1.200     1.300     1.400     1.500
     1.600     1.700     1.800     1.900     2.000     2.200     2.400     2.600
     2.800     3.000     3.200     3.400     3.600     3.800     4.000     4.200
     4.400     4.600     4.800     5.000     5.500     6.000      .000      .000
      .000      .000      .000      .000      .000      .000      .000      .000
      .000      .000      .000      .000      .000      .000      .000      .000
      .000      .000      .000      .000
Fourier amplitude spectra in in/sec.
  .000E+00  .000E+00  .000E+00  .000E+00  .000E+00  .000E+00  .000E+00  .000E+00
  .000E+00  .000E+00  .000E+00  .000E+00  .000E+00  .000E+00  .000E+00  .000E+00
  .000E+00  .000E+00  .000E+00  .000E+00  .000E+00  .000E+00  .000E+00  .000E+00
  .000E+00  .000E+00  .000E+00  .000E+00  .000E+00  .000E+00  .000E+00  .000E+00
  .000E+00  .000E+00  .000E+00  .000E+00  .000E+00  .000E+00  .000E+00  .000E+00
  .000E+00  .000E+00  .000E+00  .000E+00  .000E+00  .000E+00  .000E+00  .000E+00
  .000E+00  .000E+00  .000E+00  .000E+00  .000E+00  .000E+00  .000E+00  .000E+00
  .000E+00  .000E+00  .000E+00  .000E+00  .000E+00  .000E+00  .000E+00  .000E+00
  .000E+00  .000E+00  .000E+00  .000E+00  .000E+00  .000E+00  .000E+00  .000E+00
  .000E+00  .000E+00  .000E+00  .000E+00  .000E+00  .000E+00  .000E+00  .000E+00
  .000E+00  .000E+00  .000E+00  .000E+00  .000E+00  .000E+00  .000E+00  .000E+00
  .000E+00  .000E+00  .000E+00  .000E+00  .000E+00  .000E+00  .000E+00  .000E+00
  .000E+00  .000E+00  .000E+00  .000E+00
Damping =  .05. Data of Sd,Sv,Sa,Pssv,ttSd,ttSv,ttSa :
  .221E-02  .268E-02  .342E-02  .334E-02  .315E-02  .346E-02  .450E-02  .545E-02
  .697E-02  .866E-02  .124E-01  .112E-01  .867E-02  .883E-02  .110E-01  .110E-01
  .114E-01  .120E-01  .155E-01  .186E-01  .267E-01  .301E-01  .326E-01  .402E-01
  .487E-01  .461E-01  .454E-01  .441E-01  .556E-01  .749E-01  .956E-01  .893E-01
  .987E-01  .925E-01  .870E-01  .675E-01  .560E-01  .568E-01  .483E-01  .516E-01
