Response and Fourier amplitude spectra (91 periods,  .04 - 15.0 sec)   for      
Corrected accelerogram   24808-L1128-20263.06       Chan  1: 360 Deg     from   
Uncorrected Accelerogram Data             Processed: 09/19/20, CGS  808gg006    
Rcrd of Fri Sep 18, 2020 23:38:28.0 PDT               (Avol1 v2.0, 4/18 CSMIP)  
CSMIP Preliminary Processing            (Origin:  To be determined)             
24808-L1128-20263.06                 Start time:  9/19/20, 06:38:28.0 UTC (GPS) 
Station No. 24808   34.172N, 118.421W    Etna    s/n 1128  (3 Chns of  3 at Sta)
Van Nuys - Burbank & Fulton               CGS   Data: Acceleration              
Chan  1: 360 Deg                                                                
Rcrd of Fri Sep 18, 2020 23:38:28.0 PDT    Fri Sep 18, 2020 23:38:28.0 PDT      
Hypocenter:  To be determined.               ML:  To be determined.             
Instr Period =  .0109 sec,  Damping =  .670,  Sensitivity =  .63 v/g            
                        Record Length = 60.000 sec.                             
                                     Uncor Max  =  -.008 g, at   32.355 sec.    
RMS accel of (uncor) record  =        .   Chn. metadata effective date: 04/22/03
Accelerogram bandpass filtered with 3 dB pts at   .30 and 23.00 cyc/sec         
                 instrument- and base-line correcte                             
                                                                                
                                                                                
                                                                                
                                                                                
                                                                                
Rcrd of Fri Sep 18, 2020 23:38:28.0 PDT    Fri Sep 18, 2020 23:38:28.0 PDT      
                                                                                
24808-L1128-20263.06      Van Nuys - Burbank & Fulton   Chan  1: 360 Deg        
                                                                                
24808-L1128-20263.06      Van Nuys - Burbank & Fulton   Chan  1: 360 Deg        
                                                                                
Units for spectra are inches and sec, except Sa is in fraction of g.            
                                                                                
    1  100    1    3    3  200    1    3    1   24   12 1128    024808   11    0
    6   38   28    0  263    9   19 2020   10    3  36012800   39   27   74  360
12800    1  100    3 1128    1    6  640    2 -999 -999 -999 -999 -999 -999 -999
 -999 -999    3 -99912000    1  202    0   18    4 -999 -999    3    1 -99912000
    312000    4   91    1    3    5    0    0 -999    0    0    1    3    1    2
    2    2    4    0   32   67    0    5 -999    0    0    1    0    0    0  222
    0    0    0    0
      .011      .670    64.000      .001     1.000   626.000     -.008    32.355
    91.500      .298      .476  -999.000     5.000  -999.000     4.000  -999.000
     2.500    12.372     2.500  -999.000    30.000    30.000  -999.000      .000
      .023      .022     2.000    15.000    34.172  -118.421      .018      .272
    14.722      .003      .042   204.000    30.900    33.200    13.300    81.860
     1.000    11.003    -8.000  -999.000  -999.000  -999.000  -999.000  -999.000
     6.900     2.000     6.800   980.665      .005    60.000    14.563     -.001
  -999.000    23.000  -999.000    60.000      .005      .303  -999.000  -999.000
    32.355    -7.094    31.085      .466    30.945     -.050      .000      .303
    23.000      .005      .005      .000      .005      .021  -999.000  -999.000
      .028      .180      .020      .018      .005      .000  -999.000  -999.000
  -999.000  -999.000  -999.000  -999.000  -999.000  -999.000  -999.000  -999.000
  -999.000  -999.000  -999.000  -999.000
      .050
      .040      .042      .044      .046      .048      .050      .055      .060
      .065      .070      .075      .080      .085      .090      .095      .100
      .110      .120      .130      .140      .150      .160      .170      .180
      .190      .200      .220      .240      .260      .280      .300      .320
      .340      .360      .380      .400      .420      .440      .460      .480
      .500      .550      .600      .650      .700      .750      .800      .850
      .900      .950     1.000     1.100     1.200     1.300     1.400     1.500
     1.600     1.700     1.800     1.900     2.000     2.200     2.400     2.600
     2.800     3.000     3.200     3.400     3.600     3.800     4.000     4.200
     4.400     4.600     4.800     5.000     5.500     6.000     6.500     7.000
     7.500     8.000     8.500     9.000     9.500    10.000    11.000    12.000
    13.000    14.000    15.000      .000      .000      .000      .000      .000
      .000      .000      .000      .000
Fourier amplitude spectra in in/sec.
  .000E+00  .000E+00  .000E+00  .000E+00  .000E+00  .000E+00  .000E+00  .000E+00
  .000E+00  .000E+00  .000E+00  .000E+00  .000E+00  .000E+00  .000E+00  .000E+00
  .000E+00  .000E+00  .000E+00  .000E+00  .000E+00  .000E+00  .000E+00  .000E+00
  .000E+00  .000E+00  .000E+00  .000E+00  .000E+00  .000E+00  .000E+00  .000E+00
  .000E+00  .000E+00  .000E+00  .000E+00  .000E+00  .000E+00  .000E+00  .000E+00
  .000E+00  .000E+00  .000E+00  .000E+00  .000E+00  .000E+00  .000E+00  .000E+00
  .000E+00  .000E+00  .000E+00  .000E+00  .000E+00  .000E+00  .000E+00  .000E+00
  .000E+00  .000E+00  .000E+00  .000E+00  .000E+00  .000E+00  .000E+00  .000E+00
  .000E+00  .000E+00  .000E+00  .000E+00  .000E+00  .000E+00  .000E+00  .000E+00
  .000E+00  .000E+00  .000E+00  .000E+00  .000E+00  .000E+00  .000E+00  .000E+00
  .000E+00  .000E+00  .000E+00  .000E+00  .000E+00  .000E+00  .000E+00  .000E+00
  .000E+00  .000E+00  .000E+00  .000E+00  .000E+00  .000E+00  .000E+00  .000E+00
  .000E+00  .000E+00  .000E+00  .000E+00
Damping =  .05. Data of Sd,Sv,Sa,Pssv,ttSd,ttSv,ttSa :
  .155E-03  .193E-03  .232E-03  .253E-03  .292E-03  .328E-03  .425E-03  .691E-03
  .880E-03  .804E-03  .919E-03  .107E-02  .120E-02  .127E-02  .150E-02  .179E-02
  .242E-02  .284E-02  .278E-02  .391E-02  .376E-02  .441E-02  .633E-02  .867E-02
  .818E-02  .734E-02  .796E-02  .979E-02  .113E-01  .137E-01  .164E-01  .171E-01
  .197E-01  .220E-01  .245E-01  .263E-01  .295E-01  .351E-01  .369E-01  .372E-01
  .388E-01  .367E-01  .369E-01  .335E-01  .344E-01  .328E-01  .418E-01  .379E-01
  .428E-01  .510E-01  .557E-01  .535E-01  .589E-01  .605E-01  .645E-01  .598E-01
  .518E-01  .473E-01  .462E-01  .434E-01  .420E-01  .445E-01  .300E-01  .298E-01
  .321E-01  .309E-01  .275E-01  .259E-01  .219E-01  .221E-01  .220E-01  .218E-01
  .218E-01  .218E-01  .216E-01  .213E-01  .210E-01  .207E-01  .206E-01  .205E-01
  .204E-01  .203E-01  .201E-01  .200E-01  .200E-01  .199E-01  .199E-01  .198E-01
  .198E-01  .197E-01  .197E-01  .000E+00  .000E+00  .000E+00  .000E+00  .000E+00
  .000E+00  .000E+00  .000E+00  .000E+00
  .134E-01  .162E-01  .186E-01  .185E-01  .218E-01  .278E-01  .326E-01  .655E-01
  .748E-01  .642E-01  .671E-01  .729E-01  .893E-01  .749E-01  .846E-01  .844E-01
  .121E+00  .140E+00  .130E+00  .170E+00  .151E+00  .178E+00  .207E+00  .280E+00
  .264E+00  .209E+00  .226E+00  .262E+00  .255E+00  .288E+00  .318E+00  .317E+00
  .342E+00  .362E+00  .398E+00  .404E+00  .421E+00  .462E+00  .498E+00  .514E+00
  .497E+00  .417E+00  .448E+00  .345E+00  .354E+00  .351E+00  .333E+00  .378E+00
  .336E+00  .331E+00  .431E+00  .326E+00  .312E+00  .355E+00  .327E+00  .396E+00
  .331E+00  .279E+00  .241E+00  .237E+00  .235E+00  .228E+00  .222E+00  .217E+00
  .213E+00  .209E+00  .205E+00  .202E+00  .200E+00  .198E+00  .196E+00  .195E+00
  .194E+00  .192E+00  .191E+00  .190E+00  .189E+00  .188E+00  .187E+00  .187E+00
  .186E+00  .186E+00  .185E+00  .185E+00  .185E+00  .185E+00  .185E+00  .184E+00
  .184E+00  .184E+00  .184E+00  .000E+00  .000E+00  .000E+00  .000E+00  .000E+00
  .000E+00  .000E+00  .000E+00  .000E+00
  .992E-02  .112E-01  .123E-01  .122E-01  .130E-01  .136E-01  .144E-01  .198E-01
  .214E-01  .167E-01  .168E-01  .173E-01  .170E-01  .160E-01  .170E-01  .183E-01
  .206E-01  .202E-01  .169E-01  .205E-01  .172E-01  .177E-01  .224E-01  .276E-01
  .233E-01  .188E-01  .169E-01  .174E-01  .171E-01  .179E-01  .187E-01  .172E-01
  .175E-01  .175E-01  .174E-01  .169E-01  .172E-01  .187E-01  .179E-01  .166E-01
  .160E-01  .125E-01  .106E-01  .816E-02  .724E-02  .601E-02  .675E-02  .540E-02
  .545E-02  .582E-02  .574E-02  .455E-02  .422E-02  .370E-02  .340E-02  .273E-02
  .209E-02  .169E-02  .147E-02  .125E-02  .109E-02  .949E-03  .556E-03  .471E-03
  .440E-03  .374E-03  .297E-03  .236E-03  .192E-03  .175E-03  .159E-03  .145E-03
  .133E-03  .123E-03  .113E-03  .104E-03  .872E-04  .744E-04  .648E-04  .572E-04
  .509E-04  .457E-04  .413E-04  .376E-04  .345E-04  .318E-04  .275E-04  .241E-04
  .213E-04  .191E-04  .176E-04  .000E+00  .000E+00  .000E+00  .000E+00  .000E+00
  .000E+00  .000E+00  .000E+00  .000E+00
  .244E-01  .289E-01  .331E-01  .346E-01  .383E-01  .412E-01  .486E-01  .723E-01
  .850E-01  .721E-01  .770E-01  .842E-01  .889E-01  .887E-01  .989E-01  .112E+00
  .138E+00  .149E+00  .134E+00  .175E+00  .157E+00  .173E+00  .234E+00  .303E+00
  .271E+00  .231E+00  .227E+00  .256E+00  .272E+00  .307E+00  .343E+00  .337E+00
  .363E+00  .385E+00  .405E+00  .414E+00  .441E+00  .502E+00  .504E+00  .486E+00
  .488E+00  .420E+00  .387E+00  .323E+00  .309E+00  .275E+00  .328E+00  .280E+00
  .299E+00  .337E+00  .350E+00  .306E+00  .309E+00  .293E+00  .290E+00  .251E+00
  .204E+00  .175E+00  .161E+00  .144E+00  .132E+00  .127E+00  .785E-01  .719E-01
  .719E-01  .648E-01  .539E-01  .478E-01  .382E-01  .365E-01  .346E-01  .326E-01
  .311E-01  .297E-01  .282E-01  .268E-01  .240E-01  .217E-01  .199E-01  .184E-01
  .171E-01  .159E-01  .149E-01  .140E-01  .132E-01  .125E-01  .114E-01  .104E-01
  .955E-02  .884E-02  .825E-02  .000E+00  .000E+00  .000E+00  .000E+00  .000E+00
  .000E+00  .000E+00  .000E+00  .000E+00
  .325E+02  .325E+02  .325E+02  .325E+02  .325E+02  .325E+02  .324E+02  .328E+02
  .328E+02  .321E+02  .324E+02  .332E+02  .321E+02  .324E+02  .333E+02  .325E+02
  .325E+02  .319E+02  .319E+02  .355E+02  .351E+02  .319E+02  .324E+02  .324E+02
  .324E+02  .325E+02  .326E+02  .341E+02  .345E+02  .377E+02  .346E+02  .379E+02
  .348E+02  .348E+02  .371E+02  .371E+02  .371E+02  .372E+02  .372E+02  .377E+02
  .378E+02  .378E+02  .376E+02  .314E+02  .314E+02  .347E+02  .347E+02  .366E+02
  .376E+02  .376E+02  .377E+02  .424E+02  .420E+02  .420E+02  .355E+02  .379E+02
  .374E+02  .416E+02  .417E+02  .417E+02  .411E+02  .529E+02  .375E+02  .374E+02
  .375E+02  .375E+02  .375E+02  .446E+02  .447E+02  .309E+02  .309E+02  .309E+02
  .309E+02  .309E+02  .309E+02  .309E+02  .309E+02  .309E+02  .309E+02  .309E+02
  .309E+02  .309E+02  .309E+02  .309E+02  .309E+02  .309E+02  .309E+02  .309E+02
  .309E+02  .309E+02  .309E+02  .000E+00  .000E+00  .000E+00  .000E+00  .000E+00
  .000E+00  .000E+00  .000E+00  .000E+00
  .325E+02  .325E+02  .325E+02  .325E+02  .326E+02  .326E+02  .326E+02  .328E+02
  .328E+02  .321E+02  .321E+02  .332E+02  .321E+02  .333E+02  .333E+02  .325E+02
  .325E+02  .319E+02  .319E+02  .356E+02  .350E+02  .319E+02  .319E+02  .324E+02
  .324E+02  .326E+02  .326E+02  .330E+02  .342E+02  .376E+02  .328E+02  .378E+02
  .349E+02  .347E+02  .372E+02  .372E+02  .372E+02  .371E+02  .371E+02  .379E+02
  .379E+02  .377E+02  .377E+02  .348E+02  .313E+02  .313E+02  .349E+02  .367E+02
  .378E+02  .375E+02  .375E+02  .426E+02  .422E+02  .418E+02  .394E+02  .375E+02
  .347E+02  .347E+02  .311E+02  .311E+02  .311E+02  .311E+02  .311E+02  .311E+02
  .311E+02  .311E+02  .311E+02  .311E+02  .311E+02  .311E+02  .311E+02  .311E+02
  .311E+02  .311E+02  .311E+02  .311E+02  .311E+02  .311E+02  .311E+02  .311E+02
  .311E+02  .311E+02  .311E+02  .311E+02  .311E+02  .311E+02  .311E+02  .311E+02
  .311E+02  .311E+02  .311E+02  .000E+00  .000E+00  .000E+00  .000E+00  .000E+00
  .000E+00  .000E+00  .000E+00  .000E+00
  .325E+02  .325E+02  .325E+02  .325E+02  .325E+02  .325E+02  .324E+02  .328E+02
  .328E+02  .321E+02  .324E+02  .332E+02  .321E+02  .324E+02  .333E+02  .325E+02
  .325E+02  .319E+02  .319E+02  .355E+02  .351E+02  .319E+02  .324E+02  .324E+02
  .324E+02  .325E+02  .326E+02  .341E+02  .345E+02  .377E+02  .346E+02  .379E+02
  .348E+02  .348E+02  .371E+02  .371E+02  .371E+02  .372E+02  .372E+02  .377E+02
  .378E+02  .378E+02  .376E+02  .314E+02  .314E+02  .347E+02  .347E+02  .365E+02
  .376E+02  .376E+02  .377E+02  .424E+02  .420E+02  .420E+02  .355E+02  .379E+02
  .373E+02  .416E+02  .417E+02  .417E+02  .410E+02  .529E+02  .374E+02  .374E+02
  .374E+02  .374E+02  .374E+02  .374E+02  .374E+02  .309E+02  .309E+02  .309E+02
  .309E+02  .309E+02  .309E+02  .309E+02  .309E+02  .309E+02  .309E+02  .309E+02
  .309E+02  .309E+02  .309E+02  .309E+02  .309E+02  .309E+02  .309E+02  .309E+02
  .309E+02  .309E+02  .311E+02  .000E+00  .000E+00  .000E+00  .000E+00  .000E+00
  .000E+00  .000E+00  .000E+00  .000E+00
/&   ----------  End of spectral data for channel  1  ----------
Response and Fourier amplitude spectra (91 periods,  .04 - 15.0 sec)   for      
Corrected accelerogram   24808-L1128-20263.06       Chan  2:  Up         from   
Uncorrected Accelerogram Data             Processed: 09/19/20, CGS  808gg006    
Rcrd of Fri Sep 18, 2020 23:38:28.0 PDT               (Avol1 v2.0, 4/18 CSMIP)  
CSMIP Preliminary Processing            (Origin:  To be determined)             
24808-L1128-20263.06                 Start time:  9/19/20, 06:38:28.0 UTC (GPS) 
Station No. 24808   34.172N, 118.421W    Etna    s/n 1128  (3 Chns of  3 at Sta)
Van Nuys - Burbank & Fulton               CGS   Data: Acceleration              
Chan  2:  Up                                                                    
Rcrd of Fri Sep 18, 2020 23:38:28.0 PDT    Fri Sep 18, 2020 23:38:28.0 PDT      
Hypocenter:  To be determined.               ML:  To be determined.             
Instr Period =  .0108 sec,  Damping =  .660,  Sensitivity =  .63 v/g            
                        Record Length = 60.000 sec.                             
                                     Uncor Max  =   .026 g, at   30.125 sec.    
RMS accel of (uncor) record  =        .   Chn. metadata effective date: 04/22/03
Accelerogram bandpass filtered with 3 dB pts at   .30 and 23.00 cyc/sec         
                 instrument- and base-line correcte                             
                                                                                
                                                                                
                                                                                
                                                                                
                                                                                
Rcrd of Fri Sep 18, 2020 23:38:28.0 PDT    Fri Sep 18, 2020 23:38:28.0 PDT      
                                                                                
24808-L1128-20263.06      Van Nuys - Burbank & Fulton   Chan  2:  Up            
                                                                                
24808-L1128-20263.06      Van Nuys - Burbank & Fulton   Chan  2:  Up            
                                                                                
Units for spectra are inches and sec, except Sa is in fraction of g.            
                                                                                
    2  100    2    3    3  200    1    3    1   24   12 1128    024808   11    0
    6   38   28    0  263    9   19 2020   10    3  50012800   39   27   74  360
12800    1  100    3 1128    1    6  640    2 -999 -999 -999 -999 -999 -999 -999
 -999 -999    3 -99912000    1  202    0   18    4 -999 -999    3    1 -99912000
    312000    4   91    1    3    5    0    0 -999    0    0    1    3    1    2
    2    2    4    0   32   67    0    5 -999    0    0    1    0    0    0  222
    0    0    0    0
      .011      .660    64.000      .002     1.000   625.000      .026    30.125
    93.000      .298      .477  -999.000     5.000  -999.000     4.000  -999.000
     2.500    49.483     2.500  -999.000    30.000    30.000  -999.000     -.001
      .004      .004     2.000    15.000    34.172  -118.421      .036      .215
     5.913     -.012      .020   204.000    30.900    33.200    13.300    81.860
     1.000    11.003    -8.000  -999.000  -999.000  -999.000  -999.000  -999.000
     6.900     2.000     6.800   980.665      .005    60.000    14.801      .000
  -999.000    23.000  -999.000    60.000      .005      .303  -999.000  -999.000
    30.125    24.267    30.005     -.621    29.970      .030      .000      .303
    23.000      .005      .005      .000      .005      .015  -999.000  -999.000
      .107      .100      .035      .035      .003      .000  -999.000  -999.000
  -999.000  -999.000  -999.000  -999.000  -999.000  -999.000  -999.000  -999.000
  -999.000  -999.000  -999.000  -999.000
      .050
      .040      .042      .044      .046      .048      .050      .055      .060
      .065      .070      .075      .080      .085      .090      .095      .100
      .110      .120      .130      .140      .150      .160      .170      .180
      .190      .200      .220      .240      .260      .280      .300      .320
      .340      .360      .380      .400      .420      .440      .460      .480
      .500      .550      .600      .650      .700      .750      .800      .850
      .900      .950     1.000     1.100     1.200     1.300     1.400     1.500
     1.600     1.700     1.800     1.900     2.000     2.200     2.400     2.600
     2.800     3.000     3.200     3.400     3.600     3.800     4.000     4.200
     4.400     4.600     4.800     5.000     5.500     6.000     6.500     7.000
     7.500     8.000     8.500     9.000     9.500    10.000    11.000    12.000
    13.000    14.000    15.000      .000      .000      .000      .000      .000
      .000      .000      .000      .000
Fourier amplitude spectra in in/sec.
  .000E+00  .000E+00  .000E+00  .000E+00  .000E+00  .000E+00  .000E+00  .000E+00
  .000E+00  .000E+00  .000E+00  .000E+00  .000E+00  .000E+00  .000E+00  .000E+00
  .000E+00  .000E+00  .000E+00  .000E+00  .000E+00  .000E+00  .000E+00  .000E+00
  .000E+00  .000E+00  .000E+00  .000E+00  .000E+00  .000E+00  .000E+00  .000E+00
  .000E+00  .000E+00  .000E+00  .000E+00  .000E+00  .000E+00  .000E+00  .000E+00
  .000E+00  .000E+00  .000E+00  .000E+00  .000E+00  .000E+00  .000E+00  .000E+00
  .000E+00  .000E+00  .000E+00  .000E+00  .000E+00  .000E+00  .000E+00  .000E+00
  .000E+00  .000E+00  .000E+00  .000E+00  .000E+00  .000E+00  .000E+00  .000E+00
  .000E+00  .000E+00  .000E+00  .000E+00  .000E+00  .000E+00  .000E+00  .000E+00
  .000E+00  .000E+00  .000E+00  .000E+00  .000E+00  .000E+00  .000E+00  .000E+00
  .000E+00  .000E+00  .000E+00  .000E+00  .000E+00  .000E+00  .000E+00  .000E+00
  .000E+00  .000E+00  .000E+00  .000E+00  .000E+00  .000E+00  .000E+00  .000E+00
  .000E+00  .000E+00  .000E+00  .000E+00
Damping =  .05. Data of Sd,Sv,Sa,Pssv,ttSd,ttSv,ttSa :
  .475E-03  .522E-03  .596E-03  .745E-03  .876E-03  .103E-02  .133E-02  .136E-02
  .177E-02  .180E-02  .224E-02  .304E-02  .429E-02  .570E-02  .843E-02  .104E-01
  .103E-01  .911E-02  .766E-02  .782E-02  .763E-02  .987E-02  .107E-01  .109E-01
  .120E-01  .129E-01  .176E-01  .219E-01  .262E-01  .289E-01  .308E-01  .304E-01
  .279E-01  .254E-01  .230E-01  .203E-01  .185E-01  .181E-01  .183E-01  .184E-01
