Response and Fourier amplitude spectra (78 periods,  .04 -  6.0 sec)   for      
Corrected accelerogram   24110-B2330-20263.13       Chan  1:  Up         from   
Uncorrected Accelerogram Data             Processed: 09/18/20, CGS  ce24110m    
Rcrd of Fri Sep 18, 2020 23:38:28.0 PDT               (Avol1 v2.0, 4/18 CSMIP)  
CSMIP Preliminary Processing            (Origin:  To be determined)             
24110-B2330-20263.13                 Start time:  9/19/20, 06:38:28.0 UTC (GPS) 
Station No. 24110   34.109N, 118.058W    Basalt  s/n 2330  (3 Chns of  3 at Sta)
Temple City - Las Tunas & Kauffman        CGS   Data: Acceleration              
Chan  1:  Up                                                                    
Rcrd of Fri Sep 18, 2020 23:38:28.0 PDT    Fri Sep 18, 2020 23:38:28.0 PDT      
Hypocenter:  To be determined.               ML:  To be determined.             
Instr Period =  .0048 sec,  Damping =  .700,  Sensitivity = 1.25 v/g            
                        Record Length = 61.000 sec.                             
                                     Uncor Max  =   .033 g, at   24.845 sec.    
RMS accel of (uncor) record  =        .   Chn. metadata effective date: 08/11/15
Accelerogram bandpass filtered with 3 dB pts at   .30 and 40.00 cyc/sec         
                 instrument- and base-line correcte                             
                                                                                
                                                                                
                                                                                
                                                                                
                                                                                
Rcrd of Fri Sep 18, 2020 23:38:28.0 PDT    Fri Sep 18, 2020 23:38:28.0 PDT      
                                                                                
24110-B2330-20263.13      Temple City - Las Tunas & Kauffman    Chan  1:  Up    
                                                                                
24110-B2330-20263.13      Temple City - Las Tunas & Kauffman    Chan  1:  Up    
                                                                                
Units for spectra are inches and sec, except Sa is in fraction of g.            
                                                                                
    1  100    1    3    3  200    1    3    1   24   31 2330    024110   11    0
    6   38   28    0  263    9   19 2020   10    3  50012200   39   34   74  360
12200    1  100    3 2330    1   13  610    2 -999 -999 -999 -999 -999 -999 -999
 -999 -999    3 -99912200    1  202    0   24   20 -999 -999    3    1 -99912200
    312200    4   78    1    3    5    0    0 -999    0    0    1    3    1    2
    2    2    4    0   32   67    0    5 -999    0    0    1    0    0    0  222
    1    0    0    0
      .005      .700    61.000      .003     1.000  1253.000      .033    24.845
   208.000      .596      .476  -999.000     5.000  -999.000     4.000  -999.000
     5.000    -9.610     5.000  -999.000    25.000    30.000  -999.000      .001
      .001      .001     2.000    15.000    34.109  -118.058      .025      .190
     7.708     -.013      .015   123.000    25.000    30.900    13.400    92.300
     1.000    11.003    -8.000  -999.000  -999.000  -999.000  -999.000  -999.000
     6.900     2.000     6.800   980.665      .005    61.000    33.104      .000
  -999.000    40.000  -999.000    61.000      .005      .300  -999.000  -999.000
    24.845    32.045    24.505     -.539    26.395      .022      .000      .300
    40.000      .005      .005      .000      .005      .019  -999.000  -999.000
      .167      .040      .030      .029      .002      .000  -999.000  -999.000
  -999.000  -999.000  -999.000  -999.000  -999.000  -999.000  -999.000  -999.000
  -999.000  -999.000  -999.000  -999.000
      .050
      .040      .042      .044      .046      .048      .050      .055      .060
      .065      .070      .075      .080      .085      .090      .095      .100
      .110      .120      .130      .140      .150      .160      .170      .180
      .190      .200      .220      .240      .260      .280      .300      .320
      .340      .360      .380      .400      .420      .440      .460      .480
      .500      .550      .600      .650      .700      .750      .800      .850
      .900      .950     1.000     1.100     1.200     1.300     1.400     1.500
     1.600     1.700     1.800     1.900     2.000     2.200     2.400     2.600
     2.800     3.000     3.200     3.400     3.600     3.800     4.000     4.200
     4.400     4.600     4.800     5.000     5.500     6.000      .000      .000
      .000      .000      .000      .000      .000      .000      .000      .000
      .000      .000      .000      .000      .000      .000      .000      .000
      .000      .000      .000      .000
Fourier amplitude spectra in in/sec.
  .000E+00  .000E+00  .000E+00  .000E+00  .000E+00  .000E+00  .000E+00  .000E+00
  .000E+00  .000E+00  .000E+00  .000E+00  .000E+00  .000E+00  .000E+00  .000E+00
  .000E+00  .000E+00  .000E+00  .000E+00  .000E+00  .000E+00  .000E+00  .000E+00
  .000E+00  .000E+00  .000E+00  .000E+00  .000E+00  .000E+00  .000E+00  .000E+00
  .000E+00  .000E+00  .000E+00  .000E+00  .000E+00  .000E+00  .000E+00  .000E+00
  .000E+00  .000E+00  .000E+00  .000E+00  .000E+00  .000E+00  .000E+00  .000E+00
  .000E+00  .000E+00  .000E+00  .000E+00  .000E+00  .000E+00  .000E+00  .000E+00
  .000E+00  .000E+00  .000E+00  .000E+00  .000E+00  .000E+00  .000E+00  .000E+00
  .000E+00  .000E+00  .000E+00  .000E+00  .000E+00  .000E+00  .000E+00  .000E+00
  .000E+00  .000E+00  .000E+00  .000E+00  .000E+00  .000E+00  .000E+00  .000E+00
  .000E+00  .000E+00  .000E+00  .000E+00  .000E+00  .000E+00  .000E+00  .000E+00
  .000E+00  .000E+00  .000E+00  .000E+00  .000E+00  .000E+00  .000E+00  .000E+00
  .000E+00  .000E+00  .000E+00  .000E+00
Damping =  .05. Data of Sd,Sv,Sa,Pssv,ttSd,ttSv,ttSa :
  .262E-02  .254E-02  .208E-02  .186E-02  .211E-02  .245E-02  .308E-02  .311E-02
  .340E-02  .443E-02  .403E-02  .431E-02  .450E-02  .555E-02  .601E-02  .696E-02
  .872E-02  .704E-02  .733E-02  .762E-02  .682E-02  .596E-02  .603E-02  .708E-02
  .904E-02  .122E-01  .158E-01  .188E-01  .201E-01  .254E-01  .262E-01  .230E-01
  .207E-01  .197E-01  .206E-01  .205E-01  .164E-01  .171E-01  .209E-01  .220E-01
  .192E-01  .186E-01  .142E-01  .127E-01  .176E-01  .179E-01  .180E-01  .233E-01
  .198E-01  .230E-01  .240E-01  .240E-01  .238E-01  .207E-01  .217E-01  .241E-01
  .256E-01  .288E-01  .320E-01  .294E-01  .286E-01  .208E-01  .190E-01  .201E-01
  .288E-01  .314E-01  .277E-01  .250E-01  .208E-01  .163E-01  .129E-01  .126E-01
  .122E-01  .119E-01  .120E-01  .120E-01  .114E-01  .106E-01  .000E+00  .000E+00
  .000E+00  .000E+00  .000E+00  .000E+00  .000E+00  .000E+00  .000E+00  .000E+00
  .000E+00  .000E+00  .000E+00  .000E+00  .000E+00  .000E+00  .000E+00  .000E+00
  .000E+00  .000E+00  .000E+00  .000E+00
  .383E+00  .351E+00  .273E+00  .249E+00  .246E+00  .293E+00  .357E+00  .336E+00
  .324E+00  .400E+00  .333E+00  .329E+00  .373E+00  .393E+00  .403E+00  .473E+00
  .499E+00  .393E+00  .370E+00  .380E+00  .325E+00  .293E+00  .233E+00  .267E+00
  .338E+00  .428E+00  .462E+00  .528E+00  .525E+00  .574E+00  .572E+00  .501E+00
  .438E+00  .400E+00  .429E+00  .401E+00  .350E+00  .296E+00  .307E+00  .345E+00
  .323E+00  .296E+00  .232E+00  .209E+00  .195E+00  .205E+00  .208E+00  .217E+00
  .217E+00  .199E+00  .228E+00  .205E+00  .198E+00  .219E+00  .233E+00  .233E+00
  .246E+00  .253E+00  .255E+00  .253E+00  .248E+00  .238E+00  .229E+00  .222E+00
  .218E+00  .216E+00  .215E+00  .214E+00  .214E+00  .214E+00  .214E+00  .213E+00
  .213E+00  .213E+00  .213E+00  .212E+00  .212E+00  .211E+00  .000E+00  .000E+00
  .000E+00  .000E+00  .000E+00  .000E+00  .000E+00  .000E+00  .000E+00  .000E+00
  .000E+00  .000E+00  .000E+00  .000E+00  .000E+00  .000E+00  .000E+00  .000E+00
  .000E+00  .000E+00  .000E+00  .000E+00
  .167E+00  .148E+00  .110E+00  .905E-01  .943E-01  .101E+00  .106E+00  .877E-01
  .818E-01  .931E-01  .731E-01  .690E-01  .637E-01  .706E-01  .685E-01  .723E-01
  .746E-01  .506E-01  .443E-01  .401E-01  .312E-01  .240E-01  .214E-01  .224E-01
  .258E-01  .315E-01  .335E-01  .335E-01  .306E-01  .333E-01  .299E-01  .231E-01
  .185E-01  .158E-01  .148E-01  .132E-01  .961E-02  .910E-02  .102E-01  .986E-02
  .793E-02  .636E-02  .412E-02  .310E-02  .369E-02  .328E-02  .289E-02  .332E-02
  .251E-02  .262E-02  .249E-02  .205E-02  .172E-02  .126E-02  .122E-02  .113E-02
  .103E-02  .102E-02  .102E-02  .840E-03  .744E-03  .446E-03  .345E-03  .308E-03
  .381E-03  .362E-03  .283E-03  .225E-03  .170E-03  .121E-03  .107E-03  .982E-04
  .905E-04  .835E-04  .771E-04  .722E-04  .641E-04  .573E-04  .000E+00  .000E+00
  .000E+00  .000E+00  .000E+00  .000E+00  .000E+00  .000E+00  .000E+00  .000E+00
  .000E+00  .000E+00  .000E+00  .000E+00  .000E+00  .000E+00  .000E+00  .000E+00
  .000E+00  .000E+00  .000E+00  .000E+00
  .411E+00  .381E+00  .297E+00  .254E+00  .276E+00  .308E+00  .352E+00  .326E+00
  .329E+00  .398E+00  .338E+00  .339E+00  .333E+00  .387E+00  .397E+00  .438E+00
  .498E+00  .369E+00  .354E+00  .342E+00  .286E+00  .234E+00  .223E+00  .247E+00
  .299E+00  .385E+00  .450E+00  .491E+00  .485E+00  .571E+00  .548E+00  .451E+00
  .383E+00  .345E+00  .340E+00  .322E+00  .246E+00  .244E+00  .285E+00  .288E+00
  .241E+00  .212E+00  .149E+00  .123E+00  .158E+00  .150E+00  .141E+00  .172E+00
  .138E+00  .152E+00  .151E+00  .137E+00  .125E+00  .100E+00  .976E-01  .101E+00
  .101E+00  .106E+00  .112E+00  .972E-01  .900E-01  .595E-01  .498E-01  .485E-01
  .647E-01  .659E-01  .543E-01  .462E-01  .364E-01  .269E-01  .203E-01  .189E-01
  .174E-01  .163E-01  .157E-01  .150E-01  .131E-01  .111E-01  .000E+00  .000E+00
  .000E+00  .000E+00  .000E+00  .000E+00  .000E+00  .000E+00  .000E+00  .000E+00
  .000E+00  .000E+00  .000E+00  .000E+00  .000E+00  .000E+00  .000E+00  .000E+00
  .000E+00  .000E+00  .000E+00  .000E+00
  .246E+02  .246E+02  .246E+02  .244E+02  .246E+02  .246E+02  .249E+02  .246E+02
  .249E+02  .249E+02  .263E+02  .263E+02  .249E+02  .250E+02  .251E+02  .249E+02
  .258E+02  .257E+02  .257E+02  .256E+02  .256E+02  .254E+02  .254E+02  .255E+02
  .255E+02  .254E+02  .264E+02  .265E+02  .256E+02  .301E+02  .301E+02  .302E+02
  .302E+02  .248E+02  .249E+02  .247E+02  .300E+02  .300E+02  .300E+02  .300E+02
  .301E+02  .299E+02  .299E+02  .372E+02  .446E+02  .444E+02  .372E+02  .377E+02
  .315E+02  .378E+02  .311E+02  .370E+02  .370E+02  .396E+02  .246E+02  .438E+02
  .432E+02  .433E+02  .434E+02  .435E+02  .409E+02  .420E+02  .410E+02  .413E+02
  .404E+02  .393E+02  .394E+02  .368E+02  .368E+02  .368E+02  .324E+02  .324E+02
  .324E+02  .310E+02  .310E+02  .310E+02  .310E+02  .310E+02  .000E+00  .000E+00
  .000E+00  .000E+00  .000E+00  .000E+00  .000E+00  .000E+00  .000E+00  .000E+00
  .000E+00  .000E+00  .000E+00  .000E+00  .000E+00  .000E+00  .000E+00  .000E+00
  .000E+00  .000E+00  .000E+00  .000E+00
  .246E+02  .246E+02  .245E+02  .244E+02  .246E+02  .246E+02  .246E+02  .246E+02
  .249E+02  .249E+02  .263E+02  .249E+02  .249E+02  .251E+02  .252E+02  .245E+02
  .258E+02  .260E+02  .257E+02  .257E+02  .256E+02  .255E+02  .254E+02  .254E+02
  .254E+02  .254E+02  .265E+02  .262E+02  .256E+02  .302E+02  .301E+02  .301E+02
  .301E+02  .301E+02  .255E+02  .248E+02  .248E+02  .248E+02  .248E+02  .300E+02
  .300E+02  .300E+02  .298E+02  .245E+02  .242E+02  .241E+02  .241E+02  .247E+02
  .247E+02  .247E+02  .300E+02  .300E+02  .259E+02  .255E+02  .255E+02  .245E+02
  .245E+02  .245E+02  .245E+02  .245E+02  .245E+02  .245E+02  .245E+02  .245E+02
  .245E+02  .245E+02  .245E+02  .245E+02  .245E+02  .245E+02  .245E+02  .245E+02
  .245E+02  .245E+02  .245E+02  .245E+02  .245E+02  .245E+02  .000E+00  .000E+00
  .000E+00  .000E+00  .000E+00  .000E+00  .000E+00  .000E+00  .000E+00  .000E+00
  .000E+00  .000E+00  .000E+00  .000E+00  .000E+00  .000E+00  .000E+00  .000E+00
  .000E+00  .000E+00  .000E+00  .000E+00
  .246E+02  .246E+02  .246E+02  .244E+02  .246E+02  .246E+02  .249E+02  .246E+02
  .249E+02  .249E+02  .263E+02  .263E+02  .249E+02  .250E+02  .251E+02  .249E+02
  .258E+02  .257E+02  .257E+02  .256E+02  .256E+02  .254E+02  .254E+02  .254E+02
  .255E+02  .254E+02  .264E+02  .265E+02  .256E+02  .301E+02  .301E+02  .302E+02
  .302E+02  .248E+02  .248E+02  .247E+02  .300E+02  .300E+02  .300E+02  .300E+02
  .300E+02  .299E+02  .299E+02  .372E+02  .446E+02  .443E+02  .372E+02  .377E+02
  .315E+02  .378E+02  .311E+02  .370E+02  .370E+02  .395E+02  .245E+02  .245E+02
  .432E+02  .433E+02  .434E+02  .434E+02  .409E+02  .410E+02  .410E+02  .299E+02
  .403E+02  .393E+02  .393E+02  .367E+02  .368E+02  .368E+02  .299E+02  .299E+02
  .299E+02  .299E+02  .299E+02  .242E+02  .242E+02  .242E+02  .000E+00  .000E+00
  .000E+00  .000E+00  .000E+00  .000E+00  .000E+00  .000E+00  .000E+00  .000E+00
  .000E+00  .000E+00  .000E+00  .000E+00  .000E+00  .000E+00  .000E+00  .000E+00
  .000E+00  .000E+00  .000E+00  .000E+00
/&   ----------  End of spectral data for channel  1  ----------
Response and Fourier amplitude spectra (78 periods,  .04 -  6.0 sec)   for      
Corrected accelerogram   24110-B2330-20263.13       Chan  2: 360 Deg     from   
Uncorrected Accelerogram Data             Processed: 09/18/20, CGS  ce24110m    
Rcrd of Fri Sep 18, 2020 23:38:28.0 PDT               (Avol1 v2.0, 4/18 CSMIP)  
CSMIP Preliminary Processing            (Origin:  To be determined)             
24110-B2330-20263.13                 Start time:  9/19/20, 06:38:28.0 UTC (GPS) 
Station No. 24110   34.109N, 118.058W    Basalt  s/n 2330  (3 Chns of  3 at Sta)
Temple City - Las Tunas & Kauffman        CGS   Data: Acceleration              
Chan  2: 360 Deg                                                                
Rcrd of Fri Sep 18, 2020 23:38:28.0 PDT    Fri Sep 18, 2020 23:38:28.0 PDT      
Hypocenter:  To be determined.               ML:  To be determined.             
Instr Period =  .0049 sec,  Damping =  .700,  Sensitivity = 1.25 v/g            
                        Record Length = 61.000 sec.                             
                                     Uncor Max  =  -.024 g, at   25.875 sec.    
RMS accel of (uncor) record  =        .   Chn. metadata effective date: 08/11/15
Accelerogram bandpass filtered with 3 dB pts at   .30 and 40.00 cyc/sec         
                 instrument- and base-line correcte                             
                                                                                
                                                                                
                                                                                
                                                                                
                                                                                
Rcrd of Fri Sep 18, 2020 23:38:28.0 PDT    Fri Sep 18, 2020 23:38:28.0 PDT      
                                                                                
24110-B2330-20263.13      Temple City - Las Tunas & Kauffman    Chan  2: 360 Deg
                                                                                
24110-B2330-20263.13      Temple City - Las Tunas & Kauffman    Chan  2: 360 Deg
                                                                                
Units for spectra are inches and sec, except Sa is in fraction of g.            
                                                                                
    2  100    2    3    3  200    1    3    1   24   31 2330    024110   11    0
    6   38   28    0  263    9   19 2020   10    3  36012200   39   34   74  360
12200    1  100    3 2330    1   13  610    2 -999 -999 -999 -999 -999 -999 -999
 -999 -999    3 -99912200    1  202    0   24   20 -999 -999    3    1 -99912200
    312200    4   78    1    3    5    0    0 -999    0    0    1    3    1    2
    2    2    4    0   32   67    0    5 -999    0    0    1    0    0    0  222
    1    0    0    0
      .005      .700    61.000      .002     1.000  1250.400     -.024    25.875
   206.000      .596      .477  -999.000     5.000  -999.000     4.000  -999.000
     5.000     9.132     5.000  -999.000    25.000    30.000  -999.000      .021
     -.008     -.029     2.000    15.000    34.109  -118.058      .021      .281
    13.167     -.050     -.008   123.000    25.000    30.900    13.400    92.300
     1.000    11.003    -8.000  -999.000  -999.000  -999.000  -999.000  -999.000
     6.900     2.000     6.800   980.665      .005    61.000    32.786      .000
  -999.000    40.000  -999.000    61.000      .005      .300  -999.000  -999.000
    25.870   -23.679    25.155    -1.395    25.455     -.137      .000      .300
    40.000      .005      .005      .000      .005      .031  -999.000  -999.000
      .107      .120      .056      .040      .010      .001  -999.000  -999.000
  -999.000  -999.000  -999.000  -999.000  -999.000  -999.000  -999.000  -999.000
  -999.000  -999.000  -999.000  -999.000
      .050
      .040      .042      .044      .046      .048      .050      .055      .060
      .065      .070      .075      .080      .085      .090      .095      .100
      .110      .120      .130      .140      .150      .160      .170      .180
      .190      .200      .220      .240      .260      .280      .300      .320
      .340      .360      .380      .400      .420      .440      .460      .480
      .500      .550      .600      .650      .700      .750      .800      .850
      .900      .950     1.000     1.100     1.200     1.300     1.400     1.500
     1.600     1.700     1.800     1.900     2.000     2.200     2.400     2.600
     2.800     3.000     3.200     3.400     3.600     3.800     4.000     4.200
     4.400     4.600     4.800     5.000     5.500     6.000      .000      .000
      .000      .000      .000      .000      .000      .000      .000      .000
      .000      .000      .000      .000      .000      .000      .000      .000
      .000      .000      .000      .000
Fourier amplitude spectra in in/sec.
  .000E+00  .000E+00  .000E+00  .000E+00  .000E+00  .000E+00  .000E+00  .000E+00
  .000E+00  .000E+00  .000E+00  .000E+00  .000E+00  .000E+00  .000E+00  .000E+00
  .000E+00  .000E+00  .000E+00  .000E+00  .000E+00  .000E+00  .000E+00  .000E+00
  .000E+00  .000E+00  .000E+00  .000E+00  .000E+00  .000E+00  .000E+00  .000E+00
  .000E+00  .000E+00  .000E+00  .000E+00  .000E+00  .000E+00  .000E+00  .000E+00
  .000E+00  .000E+00  .000E+00  .000E+00  .000E+00  .000E+00  .000E+00  .000E+00
  .000E+00  .000E+00  .000E+00  .000E+00  .000E+00  .000E+00  .000E+00  .000E+00
  .000E+00  .000E+00  .000E+00  .000E+00  .000E+00  .000E+00  .000E+00  .000E+00
  .000E+00  .000E+00  .000E+00  .000E+00  .000E+00  .000E+00  .000E+00  .000E+00
  .000E+00  .000E+00  .000E+00  .000E+00  .000E+00  .000E+00  .000E+00  .000E+00
  .000E+00  .000E+00  .000E+00  .000E+00  .000E+00  .000E+00  .000E+00  .000E+00
  .000E+00  .000E+00  .000E+00  .000E+00  .000E+00  .000E+00  .000E+00  .000E+00
  .000E+00  .000E+00  .000E+00  .000E+00
Damping =  .05. Data of Sd,Sv,Sa,Pssv,ttSd,ttSv,ttSa :
  .549E-03  .669E-03  .778E-03  .980E-03  .120E-02  .131E-02  .210E-02  .275E-02
  .305E-02  .330E-02  .268E-02  .288E-02  .392E-02  .488E-02  .514E-02  .573E-02
  .928E-02  .151E-01  .144E-01  .930E-02  .929E-02  .933E-02  .112E-01  .145E-01
  .186E-01  .226E-01  .274E-01  .312E-01  .360E-01  .339E-01  .342E-01  .364E-01
  .389E-01  .456E-01  .416E-01  .430E-01  .466E-01  .509E-01  .540E-01  .553E-01
