Response and Fourier amplitude spectra (91 periods,  .04 - 15.0 sec)   for      
Corrected accelerogram   24008-M0220-20263.03       Chan  1: 360 Deg     from   
Uncorrected Accelerogram Data             Processed: 09/19/20, CGS  008vn003    
Rcrd of Fri Sep 18, 2020 23:38:28.0 PDT               (Avol1 v2.0, 4/18 CSMIP)  
CSMIP Preliminary Processing            (Origin:  To be determined)             
24008-M0220-20263.03                 Start time:  9/19/20, 06:38:28.0 UTC (GPS) 
Station No. 24008   34.058N, 118.245W    MtWtny  s/n  220 (16 Chns of 16 at Sta)
Los Angeles - 1-story Cathedral           CGS   Data: Acceleration              
Chan  1: 360 DegR                   Location: Foundatn: W Side (below isolator) 
Rcrd of Fri Sep 18, 2020 23:38:28.0 PDT    Fri Sep 18, 2020 23:38:28.0 PDT      
Hypocenter:  To be determined.               ML:  To be determined.             
Instr Period =  .0109 sec,  Damping =  .660,  Sensitivity =  .63 v/g            
                        Record Length = 60.000 sec.                             
                                     Uncor Max  =  -.028 g, at   26.590 sec.    
RMS accel of (uncor) record  =        .   Chn. metadata effective date: 05/21/02
Accelerogram bandpass filtered with 3 dB pts at   .30 and 23.00 cyc/sec         
                 instrument- and base-line correcte                             
                                                                                
                                                                                
                                                                                
                                                                                
                                                                                
Rcrd of Fri Sep 18, 2020 23:38:28.0 PDT    Fri Sep 18, 2020 23:38:28.0 PDT      
                                                                                
24008-M0220-20263.03      Los Angeles - 1-story Cathedral   Chan  1: 360 Deg    
                                                                                
24008-M0220-20263.03      Los Angeles - 1-story Cathedral   Chan  1: 360 Deg    
                                                                                
Units for spectra are inches and sec, except Sa is in fraction of g.            
                                                                                
    1  100    1   18   16  200    1    3    1   24   13  220    024008    2    0
    6   38   28    0  263    9   19 2020   10    3  36012400   39   31   74    0
12400    1  100    3  220    1    3  620    2 -999 -999 -999 -999 -999 -999 -999
 -999 -999    3 -99912000    1  222    1   18    4 -999 -999    3    1 -99912000
    312000    4   91    1   16    5    0    0 -999    0    0    1    3    1    2
    2    2    4    0   79   67    0    1 -999    0   32    1    0    0    4  222
    0    0    8    0
      .011      .660    62.000      .002     1.000   625.000     -.028    26.590
    92.000      .298      .477  -999.000     5.000  -999.000     4.000  -999.000
     2.500     3.329     2.500  -999.000    25.000    30.000  -999.000      .002
      .002      .000     2.000    15.000    34.058  -118.245      .013      .180
    13.595     -.013      .014   118.000    25.900    31.400    12.800   105.440
     1.000    11.003    -8.000  -999.000  -999.000  -999.000  -999.000  -999.000
     6.900     2.000     6.800   980.665      .005    60.000    14.642      .000
  -999.000    23.000  -999.000    60.000      .005      .303  -999.000  -999.000
    26.585   -26.920    26.630     -.735    26.585      .031      .000      .303
    23.000      .005      .005      .000      .005      .017  -999.000  -999.000
      .092      .055      .060      .038      .002      .000  -999.000  -999.000
  -999.000  -999.000  -999.000  -999.000  -999.000  -999.000  -999.000  -999.000
  -999.000  -999.000  -999.000  -999.000
      .050
      .040      .042      .044      .046      .048      .050      .055      .060
      .065      .070      .075      .080      .085      .090      .095      .100
      .110      .120      .130      .140      .150      .160      .170      .180
      .190      .200      .220      .240      .260      .280      .300      .320
      .340      .360      .380      .400      .420      .440      .460      .480
      .500      .550      .600      .650      .700      .750      .800      .850
      .900      .950     1.000     1.100     1.200     1.300     1.400     1.500
     1.600     1.700     1.800     1.900     2.000     2.200     2.400     2.600
     2.800     3.000     3.200     3.400     3.600     3.800     4.000     4.200
     4.400     4.600     4.800     5.000     5.500     6.000     6.500     7.000
     7.500     8.000     8.500     9.000     9.500    10.000    11.000    12.000
    13.000    14.000    15.000      .000      .000      .000      .000      .000
      .000      .000      .000      .000
Fourier amplitude spectra in in/sec.
  .000E+00  .000E+00  .000E+00  .000E+00  .000E+00  .000E+00  .000E+00  .000E+00
  .000E+00  .000E+00  .000E+00  .000E+00  .000E+00  .000E+00  .000E+00  .000E+00
  .000E+00  .000E+00  .000E+00  .000E+00  .000E+00  .000E+00  .000E+00  .000E+00
  .000E+00  .000E+00  .000E+00  .000E+00  .000E+00  .000E+00  .000E+00  .000E+00
  .000E+00  .000E+00  .000E+00  .000E+00  .000E+00  .000E+00  .000E+00  .000E+00
  .000E+00  .000E+00  .000E+00  .000E+00  .000E+00  .000E+00  .000E+00  .000E+00
  .000E+00  .000E+00  .000E+00  .000E+00  .000E+00  .000E+00  .000E+00  .000E+00
  .000E+00  .000E+00  .000E+00  .000E+00  .000E+00  .000E+00  .000E+00  .000E+00
  .000E+00  .000E+00  .000E+00  .000E+00  .000E+00  .000E+00  .000E+00  .000E+00
  .000E+00  .000E+00  .000E+00  .000E+00  .000E+00  .000E+00  .000E+00  .000E+00
  .000E+00  .000E+00  .000E+00  .000E+00  .000E+00  .000E+00  .000E+00  .000E+00
  .000E+00  .000E+00  .000E+00  .000E+00  .000E+00  .000E+00  .000E+00  .000E+00
  .000E+00  .000E+00  .000E+00  .000E+00
Damping =  .05. Data of Sd,Sv,Sa,Pssv,ttSd,ttSv,ttSa :
  .662E-03  .819E-03  .103E-02  .123E-02  .151E-02  .189E-02  .276E-02  .308E-02
  .247E-02  .306E-02  .363E-02  .545E-02  .464E-02  .450E-02  .510E-02  .612E-02
  .768E-02  .735E-02  .953E-02  .983E-02  .115E-01  .152E-01  .193E-01  .217E-01
  .236E-01  .246E-01  .240E-01  .228E-01  .336E-01  .346E-01  .339E-01  .285E-01
  .261E-01  .260E-01  .265E-01  .269E-01  .303E-01  .315E-01  .308E-01  .295E-01
  .262E-01  .208E-01  .194E-01  .226E-01  .274E-01  .272E-01  .272E-01  .286E-01
  .234E-01  .243E-01  .264E-01  .221E-01  .226E-01  .198E-01  .216E-01  .219E-01
  .215E-01  .206E-01  .211E-01  .217E-01  .224E-01  .216E-01  .216E-01  .188E-01
  .180E-01  .166E-01  .159E-01  .152E-01  .144E-01  .139E-01  .136E-01  .132E-01
  .129E-01  .124E-01  .122E-01  .123E-01  .124E-01  .123E-01  .122E-01  .122E-01
  .122E-01  .122E-01  .122E-01  .123E-01  .123E-01  .122E-01  .122E-01  .123E-01
  .123E-01  .122E-01  .123E-01  .000E+00  .000E+00  .000E+00  .000E+00  .000E+00
  .000E+00  .000E+00  .000E+00  .000E+00
  .640E-01  .808E-01  .107E+00  .134E+00  .169E+00  .205E+00  .285E+00  .319E+00
  .221E+00  .232E+00  .310E+00  .421E+00  .365E+00  .278E+00  .292E+00  .345E+00
  .390E+00  .340E+00  .467E+00  .445E+00  .402E+00  .522E+00  .683E+00  .752E+00
  .801E+00  .766E+00  .669E+00  .606E+00  .856E+00  .866E+00  .788E+00  .664E+00
  .573E+00  .545E+00  .559E+00  .574E+00  .582E+00  .561E+00  .547E+00  .538E+00
  .509E+00  .412E+00  .390E+00  .381E+00  .360E+00  .341E+00  .338E+00  .348E+00
  .356E+00  .356E+00  .352E+00  .351E+00  .354E+00  .349E+00  .336E+00  .322E+00
  .312E+00  .306E+00  .303E+00  .300E+00  .298E+00  .294E+00  .289E+00  .284E+00
  .283E+00  .283E+00  .283E+00  .283E+00  .283E+00  .284E+00  .284E+00  .285E+00
  .285E+00  .286E+00  .286E+00  .287E+00  .287E+00  .288E+00  .288E+00  .288E+00
  .288E+00  .288E+00  .288E+00  .288E+00  .288E+00  .288E+00  .289E+00  .289E+00
  .289E+00  .289E+00  .289E+00  .000E+00  .000E+00  .000E+00  .000E+00  .000E+00
  .000E+00  .000E+00  .000E+00  .000E+00
  .427E-01  .475E-01  .546E-01  .594E-01  .673E-01  .766E-01  .918E-01  .887E-01
  .605E-01  .635E-01  .666E-01  .873E-01  .660E-01  .574E-01  .576E-01  .630E-01
  .654E-01  .526E-01  .580E-01  .515E-01  .529E-01  .609E-01  .690E-01  .688E-01
  .672E-01  .631E-01  .509E-01  .408E-01  .512E-01  .454E-01  .388E-01  .287E-01
  .233E-01  .207E-01  .190E-01  .173E-01  .176E-01  .167E-01  .150E-01  .132E-01
  .108E-01  .707E-02  .562E-02  .550E-02  .576E-02  .497E-02  .438E-02  .407E-02
  .297E-02  .277E-02  .272E-02  .188E-02  .167E-02  .129E-02  .122E-02  .109E-02
  .951E-03  .823E-03  .732E-03  .661E-03  .618E-03  .513E-03  .438E-03  .363E-03
  .300E-03  .257E-03  .226E-03  .200E-03  .176E-03  .159E-03  .145E-03  .133E-03
  .121E-03  .112E-03  .105E-03  .990E-04  .870E-04  .769E-04  .689E-04  .624E-04
  .570E-04  .537E-04  .507E-04  .481E-04  .458E-04  .436E-04  .399E-04  .367E-04
  .340E-04  .317E-04  .297E-04  .000E+00  .000E+00  .000E+00  .000E+00  .000E+00
  .000E+00  .000E+00  .000E+00  .000E+00
  .104E+00  .123E+00  .147E+00  .168E+00  .197E+00  .238E+00  .315E+00  .322E+00
  .239E+00  .275E+00  .304E+00  .428E+00  .343E+00  .314E+00  .337E+00  .385E+00
  .439E+00  .385E+00  .460E+00  .441E+00  .484E+00  .596E+00  .715E+00  .756E+00
  .782E+00  .774E+00  .686E+00  .598E+00  .813E+00  .776E+00  .710E+00  .560E+00
  .483E+00  .455E+00  .439E+00  .423E+00  .453E+00  .450E+00  .421E+00  .386E+00
  .329E+00  .238E+00  .203E+00  .219E+00  .246E+00  .228E+00  .214E+00  .211E+00
  .163E+00  .161E+00  .166E+00  .126E+00  .119E+00  .956E-01  .969E-01  .919E-01
  .844E-01  .763E-01  .737E-01  .716E-01  .705E-01  .617E-01  .566E-01  .454E-01
  .404E-01  .349E-01  .312E-01  .281E-01  .251E-01  .230E-01  .213E-01  .198E-01
  .184E-01  .169E-01  .160E-01  .154E-01  .142E-01  .129E-01  .118E-01  .110E-01
  .103E-01  .962E-02  .905E-02  .856E-02  .810E-02  .768E-02  .700E-02  .645E-02
  .596E-02  .547E-02  .513E-02  .000E+00  .000E+00  .000E+00  .000E+00  .000E+00
  .000E+00  .000E+00  .000E+00  .000E+00
  .269E+02  .269E+02  .269E+02  .269E+02  .270E+02  .270E+02  .270E+02  .270E+02
  .273E+02  .266E+02  .270E+02  .270E+02  .270E+02  .267E+02  .271E+02  .271E+02
  .273E+02  .274E+02  .274E+02  .274E+02  .267E+02  .267E+02  .267E+02  .267E+02
  .267E+02  .267E+02  .267E+02  .268E+02  .293E+02  .275E+02  .274E+02  .268E+02
  .267E+02  .267E+02  .267E+02  .267E+02  .280E+02  .280E+02  .274E+02  .295E+02
  .306E+02  .334E+02  .273E+02  .350E+02  .350E+02  .358E+02  .355E+02  .348E+02
  .348E+02  .348E+02  .348E+02  .341E+02  .291E+02  .266E+02  .266E+02  .266E+02
  .291E+02  .266E+02  .304E+02  .287E+02  .287E+02  .287E+02  .302E+02  .266E+02
  .294E+02  .283E+02  .283E+02  .266E+02  .266E+02  .266E+02  .266E+02  .274E+02
  .274E+02  .266E+02  .266E+02  .266E+02  .266E+02  .266E+02  .266E+02  .266E+02
  .266E+02  .266E+02  .266E+02  .266E+02  .266E+02  .266E+02  .266E+02  .266E+02
  .266E+02  .266E+02  .266E+02  .000E+00  .000E+00  .000E+00  .000E+00  .000E+00
  .000E+00  .000E+00  .000E+00  .000E+00
  .269E+02  .269E+02  .269E+02  .269E+02  .269E+02  .269E+02  .270E+02  .270E+02
  .270E+02  .268E+02  .270E+02  .270E+02  .270E+02  .267E+02  .272E+02  .272E+02
  .273E+02  .274E+02  .274E+02  .275E+02  .275E+02  .267E+02  .267E+02  .267E+02
  .268E+02  .268E+02  .269E+02  .294E+02  .294E+02  .274E+02  .274E+02  .267E+02
  .267E+02  .266E+02  .266E+02  .266E+02  .266E+02  .266E+02  .266E+02  .266E+02
  .266E+02  .266E+02  .266E+02  .266E+02  .266E+02  .266E+02  .266E+02  .266E+02
  .266E+02  .266E+02  .266E+02  .266E+02  .266E+02  .266E+02  .266E+02  .266E+02
  .266E+02  .266E+02  .266E+02  .266E+02  .266E+02  .266E+02  .266E+02  .266E+02
  .266E+02  .266E+02  .266E+02  .266E+02  .266E+02  .266E+02  .266E+02  .266E+02
  .266E+02  .266E+02  .266E+02  .266E+02  .266E+02  .266E+02  .266E+02  .266E+02
  .266E+02  .266E+02  .266E+02  .266E+02  .266E+02  .266E+02  .266E+02  .266E+02
  .266E+02  .266E+02  .266E+02  .000E+00  .000E+00  .000E+00  .000E+00  .000E+00
  .000E+00  .000E+00  .000E+00  .000E+00
  .269E+02  .269E+02  .269E+02  .269E+02  .270E+02  .270E+02  .270E+02  .270E+02
  .273E+02  .266E+02  .270E+02  .270E+02  .270E+02  .267E+02  .271E+02  .271E+02
  .273E+02  .274E+02  .274E+02  .274E+02  .267E+02  .267E+02  .267E+02  .267E+02
  .267E+02  .267E+02  .267E+02  .268E+02  .293E+02  .275E+02  .274E+02  .268E+02
  .267E+02  .267E+02  .267E+02  .267E+02  .280E+02  .280E+02  .274E+02  .295E+02
  .305E+02  .334E+02  .273E+02  .349E+02  .350E+02  .358E+02  .355E+02  .348E+02
  .348E+02  .348E+02  .348E+02  .341E+02  .291E+02  .266E+02  .266E+02  .266E+02
  .266E+02  .266E+02  .266E+02  .266E+02  .287E+02  .266E+02  .266E+02  .266E+02
  .266E+02  .266E+02  .266E+02  .266E+02  .266E+02  .266E+02  .266E+02  .266E+02
  .266E+02  .266E+02  .266E+02  .266E+02  .266E+02  .266E+02  .266E+02  .266E+02
  .266E+02  .266E+02  .266E+02  .266E+02  .266E+02  .266E+02  .266E+02  .266E+02
  .266E+02  .266E+02  .266E+02  .000E+00  .000E+00  .000E+00  .000E+00  .000E+00
  .000E+00  .000E+00  .000E+00  .000E+00
/&   ----------  End of spectral data for channel  1  ----------
Response and Fourier amplitude spectra (91 periods,  .04 - 15.0 sec)   for      
Corrected accelerogram   24008-M0220-20263.03       Chan  2: 360 Deg     from   
Uncorrected Accelerogram Data             Processed: 09/19/20, CGS  008vn003    
Rcrd of Fri Sep 18, 2020 23:38:28.0 PDT               (Avol1 v2.0, 4/18 CSMIP)  
CSMIP Preliminary Processing            (Origin:  To be determined)             
24008-M0220-20263.03                 Start time:  9/19/20, 06:38:28.0 UTC (GPS) 
Station No. 24008   34.058N, 118.245W    MtWtny  s/n  220 (16 Chns of 16 at Sta)
Los Angeles - 1-story Cathedral           CGS   Data: Acceleration              
Chan  2: 360 DegR                   Location: Foundatn: E Side (below isolator) 
Rcrd of Fri Sep 18, 2020 23:38:28.0 PDT    Fri Sep 18, 2020 23:38:28.0 PDT      
Hypocenter:  To be determined.               ML:  To be determined.             
Instr Period =  .0107 sec,  Damping =  .660,  Sensitivity =  .63 v/g            
                        Record Length = 60.000 sec.                             
                                     Uncor Max  =  -.034 g, at   26.600 sec.    
RMS accel of (uncor) record  =        .   Chn. metadata effective date: 05/21/02
Accelerogram bandpass filtered with 3 dB pts at   .30 and 23.00 cyc/sec         
                 instrument- and base-line correcte                             
                                                                                
                                                                                
                                                                                
                                                                                
                                                                                
Rcrd of Fri Sep 18, 2020 23:38:28.0 PDT    Fri Sep 18, 2020 23:38:28.0 PDT      
                                                                                
24008-M0220-20263.03      Los Angeles - 1-story Cathedral   Chan  2: 360 Deg    
                                                                                
24008-M0220-20263.03      Los Angeles - 1-story Cathedral   Chan  2: 360 Deg    
                                                                                
Units for spectra are inches and sec, except Sa is in fraction of g.            
                                                                                
    2  100    2   18   16  200    1    3    1   24   13  220    024008    2    0
    6   38   28    0  263    9   19 2020   10    3  36012400   39   31   74    0
12400    1  100    3  220    1    3  620    2 -999 -999 -999 -999 -999 -999 -999
 -999 -999    3 -99912000    1  222    1   18    4 -999 -999    3    1 -99912000
    312000    4   91    1   16    5    0    0 -999    0    0    1    3    1    2
    2    2    4    0   79   67    0    1 -999    0   32    1    0    0    4  222
    0    0    8    0
      .011      .660    62.000      .002     1.000   626.000     -.034    26.600
    93.800      .298      .476  -999.000     5.000  -999.000     4.000  -999.000
     2.500    -7.160     2.500  -999.000    25.000    30.000  -999.000      .001
      .001      .000     2.000    15.000    34.058  -118.245      .011      .177
    15.671     -.013      .013   118.000    25.900    31.400    12.800   105.440
     1.000    11.003    -8.000  -999.000  -999.000  -999.000  -999.000  -999.000
     6.900     2.000     6.800   980.665      .005    60.000    14.929      .000
  -999.000    23.000  -999.000    60.000      .005      .303  -999.000  -999.000
    26.595   -32.135    26.625     -.974    26.585      .037      .000      .303
    23.000      .005      .005      .000      .005      .017  -999.000  -999.000
      .097      .100      .080      .048      .002      .000  -999.000  -999.000
  -999.000  -999.000  -999.000  -999.000  -999.000  -999.000  -999.000  -999.000
  -999.000  -999.000  -999.000  -999.000
      .050
      .040      .042      .044      .046      .048      .050      .055      .060
      .065      .070      .075      .080      .085      .090      .095      .100
      .110      .120      .130      .140      .150      .160      .170      .180
      .190      .200      .220      .240      .260      .280      .300      .320
      .340      .360      .380      .400      .420      .440      .460      .480
      .500      .550      .600      .650      .700      .750      .800      .850
      .900      .950     1.000     1.100     1.200     1.300     1.400     1.500
     1.600     1.700     1.800     1.900     2.000     2.200     2.400     2.600
     2.800     3.000     3.200     3.400     3.600     3.800     4.000     4.200
     4.400     4.600     4.800     5.000     5.500     6.000     6.500     7.000
     7.500     8.000     8.500     9.000     9.500    10.000    11.000    12.000
    13.000    14.000    15.000      .000      .000      .000      .000      .000
      .000      .000      .000      .000
Fourier amplitude spectra in in/sec.
  .000E+00  .000E+00  .000E+00  .000E+00  .000E+00  .000E+00  .000E+00  .000E+00
  .000E+00  .000E+00  .000E+00  .000E+00  .000E+00  .000E+00  .000E+00  .000E+00
  .000E+00  .000E+00  .000E+00  .000E+00  .000E+00  .000E+00  .000E+00  .000E+00
  .000E+00  .000E+00  .000E+00  .000E+00  .000E+00  .000E+00  .000E+00  .000E+00
  .000E+00  .000E+00  .000E+00  .000E+00  .000E+00  .000E+00  .000E+00  .000E+00
  .000E+00  .000E+00  .000E+00  .000E+00  .000E+00  .000E+00  .000E+00  .000E+00
  .000E+00  .000E+00  .000E+00  .000E+00  .000E+00  .000E+00  .000E+00  .000E+00
  .000E+00  .000E+00  .000E+00  .000E+00  .000E+00  .000E+00  .000E+00  .000E+00
  .000E+00  .000E+00  .000E+00  .000E+00  .000E+00  .000E+00  .000E+00  .000E+00
  .000E+00  .000E+00  .000E+00  .000E+00  .000E+00  .000E+00  .000E+00  .000E+00
  .000E+00  .000E+00  .000E+00  .000E+00  .000E+00  .000E+00  .000E+00  .000E+00
  .000E+00  .000E+00  .000E+00  .000E+00  .000E+00  .000E+00  .000E+00  .000E+00
  .000E+00  .000E+00  .000E+00  .000E+00
Damping =  .05. Data of Sd,Sv,Sa,Pssv,ttSd,ttSv,ttSa :
  .612E-03  .731E-03  .870E-03  .960E-03  .119E-02  .127E-02  .191E-02  .207E-02
  .275E-02  .389E-02  .487E-02  .565E-02  .654E-02  .700E-02  .808E-02  .947E-02
  .105E-01  .975E-02  .107E-01  .950E-02  .137E-01  .188E-01  .246E-01  .286E-01
  .316E-01  .325E-01  .321E-01  .314E-01  .300E-01  .396E-01  .421E-01  .433E-01
  .390E-01  .323E-01  .328E-01  .346E-01  .419E-01  .416E-01  .359E-01  .308E-01
