Response and Fourier amplitude spectra (91 periods,  .04 - 15.0 sec)   for      
Corrected accelerogram   24216-K1932-20262.05       Chan  1: 360 Deg     from   
Uncorrected Accelerogram Data             Processed: 09/18/20, CGS  216du005    
Rcrd of Fri Sep 18, 2020 23:38:22.0 PDT               (Avol1 v2.0, 4/18 CSMIP)  
CSMIP Preliminary Processing            (Origin:  To be determined)             
24216-K1932-20262.05                 Start time:  9/19/20, 06:38:22.0 UTC (GPS) 
Station No. 24216   34.059N, 118.245W    K2      s/n 1932  (8 Chns of  8 at Sta)
Los Angeles - 156-ft Campanile            CGS   Data: Acceleration              
Chan  1: 360 DegR                   Location: Foundation: NW Corner below isol. 
Rcrd of Fri Sep 18, 2020 23:38:22.0 PDT    Fri Sep 18, 2020 23:38:22.0 PDT      
Hypocenter:  To be determined.               ML:  To be determined.             
Instr Period =  .0104 sec,  Damping =  .680,  Sensitivity =  .63 v/g            
                        Record Length = 60.000 sec.                             
                                     Uncor Max  =  -.035 g, at   32.610 sec.    
RMS accel of (uncor) record  =        .   Chn. metadata effective date: 05/21/02
Accelerogram bandpass filtered with 3 dB pts at   .30 and 23.00 cyc/sec         
                 instrument- and base-line correcte                             
                                                                                
                                                                                
                                                                                
                                                                                
                                                                                
Rcrd of Fri Sep 18, 2020 23:38:22.0 PDT    Fri Sep 18, 2020 23:38:22.0 PDT      
                                                                                
24216-K1932-20262.05      Los Angeles - 156-ft Campanile    Chan  1: 360 Deg    
                                                                                
24216-K1932-20262.05      Los Angeles - 156-ft Campanile    Chan  1: 360 Deg    
                                                                                
Units for spectra are inches and sec, except Sa is in fraction of g.            
                                                                                
    1  100    1   12    8  200    1    3    1   24   11 1932    024216    2    0
    6   38   22    0  263    9   19 2020   10    3  36015000   39   30   74   43
15000    1  100    3 1932    1    5  750    2 -999 -999 -999 -999 -999 -999 -999
 -999 -999    3 -99912000    1  222    1   18    4 -999 -999    3    1 -99912000
    312000    4   91    1    8    5    0    0 -999    0    0    1    3    1    2
    2    2    4    0   83   67    0    1 -999    0    0    1    0    0    4  222
    0    0    0    0
      .010      .680    75.000      .003     1.000   626.000     -.035    32.610
    95.900      .298      .476  -999.000     5.000  -999.000     4.000  -999.000
     2.500     4.276     2.500  -999.000    30.000    30.000  -999.000      .002
     -.001     -.003     2.000    15.000    34.059  -118.245      .018      .174
     9.393     -.015      .009   118.000    30.200    44.700    13.100   104.540
     1.000    11.003    -8.000  -999.000  -999.000  -999.000  -999.000  -999.000
     6.900     2.000     6.800   980.665      .005    60.000    15.263      .000
  -999.000    23.000  -999.000    60.000      .005      .303  -999.000  -999.000
    32.605   -34.247    32.640    -1.035    32.595      .058      .000      .303
    23.000      .005      .005      .000      .005      .022  -999.000  -999.000
      .117      .180      .108      .042      .004      .000  -999.000  -999.000
  -999.000  -999.000  -999.000  -999.000  -999.000  -999.000  -999.000  -999.000
  -999.000  -999.000  -999.000  -999.000
      .050
      .040      .042      .044      .046      .048      .050      .055      .060
      .065      .070      .075      .080      .085      .090      .095      .100
      .110      .120      .130      .140      .150      .160      .170      .180
      .190      .200      .220      .240      .260      .280      .300      .320
      .340      .360      .380      .400      .420      .440      .460      .480
      .500      .550      .600      .650      .700      .750      .800      .850
      .900      .950     1.000     1.100     1.200     1.300     1.400     1.500
     1.600     1.700     1.800     1.900     2.000     2.200     2.400     2.600
     2.800     3.000     3.200     3.400     3.600     3.800     4.000     4.200
     4.400     4.600     4.800     5.000     5.500     6.000     6.500     7.000
     7.500     8.000     8.500     9.000     9.500    10.000    11.000    12.000
    13.000    14.000    15.000      .000      .000      .000      .000      .000
      .000      .000      .000      .000
Fourier amplitude spectra in in/sec.
  .000E+00  .000E+00  .000E+00  .000E+00  .000E+00  .000E+00  .000E+00  .000E+00
  .000E+00  .000E+00  .000E+00  .000E+00  .000E+00  .000E+00  .000E+00  .000E+00
  .000E+00  .000E+00  .000E+00  .000E+00  .000E+00  .000E+00  .000E+00  .000E+00
  .000E+00  .000E+00  .000E+00  .000E+00  .000E+00  .000E+00  .000E+00  .000E+00
  .000E+00  .000E+00  .000E+00  .000E+00  .000E+00  .000E+00  .000E+00  .000E+00
  .000E+00  .000E+00  .000E+00  .000E+00  .000E+00  .000E+00  .000E+00  .000E+00
  .000E+00  .000E+00  .000E+00  .000E+00  .000E+00  .000E+00  .000E+00  .000E+00
  .000E+00  .000E+00  .000E+00  .000E+00  .000E+00  .000E+00  .000E+00  .000E+00
  .000E+00  .000E+00  .000E+00  .000E+00  .000E+00  .000E+00  .000E+00  .000E+00
  .000E+00  .000E+00  .000E+00  .000E+00  .000E+00  .000E+00  .000E+00  .000E+00
  .000E+00  .000E+00  .000E+00  .000E+00  .000E+00  .000E+00  .000E+00  .000E+00
  .000E+00  .000E+00  .000E+00  .000E+00  .000E+00  .000E+00  .000E+00  .000E+00
  .000E+00  .000E+00  .000E+00  .000E+00
Damping =  .05. Data of Sd,Sv,Sa,Pssv,ttSd,ttSv,ttSa :
  .607E-03  .664E-03  .740E-03  .763E-03  .808E-03  .100E-02  .157E-02  .171E-02
  .206E-02  .265E-02  .379E-02  .481E-02  .528E-02  .554E-02  .625E-02  .807E-02
  .987E-02  .997E-02  .122E-01  .182E-01  .251E-01  .268E-01  .325E-01  .369E-01
  .404E-01  .425E-01  .466E-01  .467E-01  .438E-01  .383E-01  .353E-01  .347E-01
  .328E-01  .309E-01  .295E-01  .303E-01  .343E-01  .307E-01  .308E-01  .297E-01
  .254E-01  .234E-01  .244E-01  .249E-01  .288E-01  .266E-01  .273E-01  .276E-01
  .256E-01  .347E-01  .375E-01  .320E-01  .315E-01  .324E-01  .303E-01  .317E-01
  .324E-01  .326E-01  .329E-01  .331E-01  .335E-01  .343E-01  .342E-01  .333E-01
  .323E-01  .312E-01  .301E-01  .287E-01  .279E-01  .274E-01  .270E-01  .267E-01
  .263E-01  .258E-01  .254E-01  .252E-01  .245E-01  .243E-01  .241E-01  .238E-01
  .237E-01  .237E-01  .236E-01  .235E-01  .233E-01  .232E-01  .232E-01  .232E-01
  .232E-01  .230E-01  .231E-01  .000E+00  .000E+00  .000E+00  .000E+00  .000E+00
  .000E+00  .000E+00  .000E+00  .000E+00
  .335E-01  .469E-01  .563E-01  .626E-01  .706E-01  .898E-01  .107E+00  .130E+00
  .133E+00  .176E+00  .235E+00  .273E+00  .264E+00  .282E+00  .329E+00  .446E+00
  .516E+00  .493E+00  .485E+00  .700E+00  .103E+01  .102E+01  .116E+01  .126E+01
  .135E+01  .138E+01  .136E+01  .132E+01  .124E+01  .975E+00  .851E+00  .926E+00
  .738E+00  .720E+00  .696E+00  .752E+00  .723E+00  .701E+00  .678E+00  .666E+00
  .643E+00  .547E+00  .522E+00  .568E+00  .515E+00  .501E+00  .502E+00  .516E+00
  .529E+00  .532E+00  .530E+00  .529E+00  .530E+00  .523E+00  .508E+00  .491E+00
  .477E+00  .466E+00  .458E+00  .451E+00  .446E+00  .435E+00  .425E+00  .418E+00
  .413E+00  .410E+00  .407E+00  .406E+00  .406E+00  .406E+00  .406E+00  .406E+00
  .405E+00  .405E+00  .405E+00  .405E+00  .406E+00  .406E+00  .406E+00  .406E+00
  .406E+00  .406E+00  .406E+00  .406E+00  .406E+00  .406E+00  .406E+00  .406E+00
  .406E+00  .406E+00  .406E+00  .000E+00  .000E+00  .000E+00  .000E+00  .000E+00
  .000E+00  .000E+00  .000E+00  .000E+00
  .388E-01  .385E-01  .391E-01  .369E-01  .359E-01  .412E-01  .534E-01  .484E-01
  .496E-01  .556E-01  .691E-01  .774E-01  .752E-01  .701E-01  .714E-01  .823E-01
  .843E-01  .708E-01  .740E-01  .958E-01  .115E+00  .108E+00  .116E+00  .117E+00
  .115E+00  .109E+00  .992E-01  .836E-01  .667E-01  .503E-01  .404E-01  .350E-01
  .293E-01  .247E-01  .212E-01  .196E-01  .201E-01  .163E-01  .150E-01  .133E-01
  .105E-01  .799E-02  .711E-02  .606E-02  .604E-02  .487E-02  .439E-02  .393E-02
  .335E-02  .407E-02  .397E-02  .281E-02  .233E-02  .204E-02  .167E-02  .154E-02
  .140E-02  .126E-02  .114E-02  .104E-02  .957E-03  .825E-03  .704E-03  .599E-03
  .513E-03  .444E-03  .388E-03  .338E-03  .302E-03  .273E-03  .249E-03  .229E-03
  .211E-03  .195E-03  .181E-03  .170E-03  .146E-03  .128E-03  .114E-03  .103E-03
  .938E-04  .862E-04  .797E-04  .740E-04  .690E-04  .647E-04  .577E-04  .521E-04
  .475E-04  .436E-04  .403E-04  .000E+00  .000E+00  .000E+00  .000E+00  .000E+00
  .000E+00  .000E+00  .000E+00  .000E+00
  .954E-01  .994E-01  .106E+00  .104E+00  .106E+00  .126E+00  .180E+00  .179E+00
  .199E+00  .238E+00  .318E+00  .378E+00  .391E+00  .387E+00  .413E+00  .507E+00
  .564E+00  .522E+00  .587E+00  .818E+00  .105E+01  .105E+01  .120E+01  .129E+01
  .134E+01  .133E+01  .133E+01  .122E+01  .106E+01  .859E+00  .739E+00  .682E+00
  .605E+00  .539E+00  .488E+00  .477E+00  .514E+00  .439E+00  .420E+00  .389E+00
  .320E+00  .267E+00  .256E+00  .240E+00  .258E+00  .223E+00  .215E+00  .204E+00
  .179E+00  .229E+00  .236E+00  .183E+00  .165E+00  .156E+00  .136E+00  .133E+00
  .127E+00  .121E+00  .115E+00  .110E+00  .105E+00  .981E-01  .895E-01  .805E-01
  .724E-01  .654E-01  .592E-01  .530E-01  .487E-01  .453E-01  .423E-01  .400E-01
  .376E-01  .353E-01  .333E-01  .316E-01  .280E-01  .255E-01  .232E-01  .214E-01
  .199E-01  .186E-01  .174E-01  .164E-01  .154E-01  .146E-01  .132E-01  .122E-01
  .112E-01  .103E-01  .966E-02  .000E+00  .000E+00  .000E+00  .000E+00  .000E+00
  .000E+00  .000E+00  .000E+00  .000E+00
  .326E+02  .326E+02  .326E+02  .326E+02  .326E+02  .326E+02  .326E+02  .326E+02
  .326E+02  .327E+02  .327E+02  .327E+02  .327E+02  .327E+02  .327E+02  .330E+02
  .331E+02  .328E+02  .348E+02  .349E+02  .354E+02  .328E+02  .328E+02  .328E+02
  .328E+02  .327E+02  .350E+02  .350E+02  .350E+02  .349E+02  .349E+02  .349E+02
  .327E+02  .327E+02  .327E+02  .327E+02  .348E+02  .347E+02  .334E+02  .334E+02
  .335E+02  .331E+02  .349E+02  .409E+02  .410E+02  .410E+02  .415E+02  .449E+02
  .348E+02  .348E+02  .348E+02  .345E+02  .335E+02  .330E+02  .330E+02  .326E+02
  .326E+02  .326E+02  .326E+02  .326E+02  .326E+02  .326E+02  .326E+02  .326E+02
  .326E+02  .326E+02  .326E+02  .326E+02  .326E+02  .326E+02  .326E+02  .326E+02
  .326E+02  .326E+02  .326E+02  .326E+02  .326E+02  .326E+02  .326E+02  .326E+02
  .326E+02  .326E+02  .326E+02  .326E+02  .326E+02  .326E+02  .326E+02  .326E+02
  .326E+02  .326E+02  .326E+02  .000E+00  .000E+00  .000E+00  .000E+00  .000E+00
  .000E+00  .000E+00  .000E+00  .000E+00
  .330E+02  .330E+02  .330E+02  .338E+02  .338E+02  .328E+02  .329E+02  .329E+02
  .329E+02  .326E+02  .326E+02  .326E+02  .327E+02  .340E+02  .330E+02  .330E+02
  .330E+02  .327E+02  .327E+02  .350E+02  .354E+02  .327E+02  .328E+02  .328E+02
  .328E+02  .328E+02  .350E+02  .350E+02  .350E+02  .349E+02  .350E+02  .349E+02
  .326E+02  .326E+02  .326E+02  .349E+02  .326E+02  .326E+02  .326E+02  .326E+02
  .326E+02  .326E+02  .326E+02  .349E+02  .326E+02  .326E+02  .326E+02  .326E+02
  .326E+02  .326E+02  .326E+02  .326E+02  .326E+02  .326E+02  .326E+02  .326E+02
  .326E+02  .326E+02  .326E+02  .326E+02  .326E+02  .326E+02  .326E+02  .326E+02
  .326E+02  .326E+02  .326E+02  .326E+02  .326E+02  .326E+02  .326E+02  .326E+02
  .326E+02  .326E+02  .326E+02  .326E+02  .326E+02  .326E+02  .326E+02  .326E+02
  .326E+02  .326E+02  .326E+02  .326E+02  .326E+02  .326E+02  .326E+02  .326E+02
  .326E+02  .326E+02  .326E+02  .000E+00  .000E+00  .000E+00  .000E+00  .000E+00
  .000E+00  .000E+00  .000E+00  .000E+00
  .326E+02  .326E+02  .326E+02  .326E+02  .326E+02  .326E+02  .326E+02  .326E+02
  .326E+02  .327E+02  .327E+02  .327E+02  .327E+02  .327E+02  .327E+02  .330E+02
  .331E+02  .328E+02  .348E+02  .349E+02  .354E+02  .328E+02  .328E+02  .328E+02
  .328E+02  .327E+02  .350E+02  .350E+02  .350E+02  .349E+02  .349E+02  .349E+02
  .327E+02  .327E+02  .327E+02  .327E+02  .348E+02  .347E+02  .334E+02  .334E+02
  .335E+02  .331E+02  .349E+02  .409E+02  .409E+02  .410E+02  .414E+02  .448E+02
  .348E+02  .348E+02  .348E+02  .345E+02  .334E+02  .330E+02  .330E+02  .326E+02
  .326E+02  .326E+02  .326E+02  .326E+02  .326E+02  .326E+02  .326E+02  .326E+02
  .326E+02  .326E+02  .326E+02  .326E+02  .326E+02  .326E+02  .326E+02  .326E+02
  .326E+02  .326E+02  .326E+02  .326E+02  .326E+02  .325E+02  .325E+02  .325E+02
  .325E+02  .325E+02  .325E+02  .325E+02  .325E+02  .325E+02  .325E+02  .325E+02
  .325E+02  .325E+02  .325E+02  .000E+00  .000E+00  .000E+00  .000E+00  .000E+00
  .000E+00  .000E+00  .000E+00  .000E+00
/&   ----------  End of spectral data for channel  1  ----------
Response and Fourier amplitude spectra (91 periods,  .04 - 15.0 sec)   for      
Corrected accelerogram   24216-K1932-20262.05       Chan  2:  90 Deg     from   
Uncorrected Accelerogram Data             Processed: 09/18/20, CGS  216du005    
Rcrd of Fri Sep 18, 2020 23:38:22.0 PDT               (Avol1 v2.0, 4/18 CSMIP)  
CSMIP Preliminary Processing            (Origin:  To be determined)             
24216-K1932-20262.05                 Start time:  9/19/20, 06:38:22.0 UTC (GPS) 
Station No. 24216   34.059N, 118.245W    K2      s/n 1932  (8 Chns of  8 at Sta)
Los Angeles - 156-ft Campanile            CGS   Data: Acceleration              
Chan  2:  90 DegR                   Location: Foundation: NW Corner below isol. 
Rcrd of Fri Sep 18, 2020 23:38:22.0 PDT    Fri Sep 18, 2020 23:38:22.0 PDT      
Hypocenter:  To be determined.               ML:  To be determined.             
Instr Period =  .0105 sec,  Damping =  .660,  Sensitivity =  .63 v/g            
                        Record Length = 60.000 sec.                             
                                     Uncor Max  =  -.079 g, at   32.670 sec.    
RMS accel of (uncor) record  =        .   Chn. metadata effective date: 05/21/02
Accelerogram bandpass filtered with 3 dB pts at   .30 and 23.00 cyc/sec         
                 instrument- and base-line correcte                             
                                                                                
                                                                                
                                                                                
                                                                                
                                                                                
Rcrd of Fri Sep 18, 2020 23:38:22.0 PDT    Fri Sep 18, 2020 23:38:22.0 PDT      
                                                                                
24216-K1932-20262.05      Los Angeles - 156-ft Campanile    Chan  2:  90 Deg    
                                                                                
24216-K1932-20262.05      Los Angeles - 156-ft Campanile    Chan  2:  90 Deg    
                                                                                
Units for spectra are inches and sec, except Sa is in fraction of g.            
                                                                                
    2  100    2   12    8  200    1    3    1   24   11 1932    024216    2    0
    6   38   22    0  263    9   19 2020   10    3   9015000   39   30   74   43
15000    1  100    3 1932    1    5  750    2 -999 -999 -999 -999 -999 -999 -999
 -999 -999    3 -99912000    1  222    1   18    4 -999 -999    3    1 -99912000
    312000    4   91    1    8    5    0    0 -999    0    0    1    3    1    2
    2    2    4    0   83   67    0    1 -999    0    0    1    0    0    4  222
    0    0    0    0
      .011      .660    75.000      .004     1.000   627.000     -.079    32.670
    94.900      .298      .475  -999.000     5.000  -999.000     4.000  -999.000
     2.500   -24.808     2.500  -999.000    30.000    30.000  -999.000      .005
      .000     -.005     2.000    15.000    34.059  -118.245      .020      .139
     7.059     -.014      .005   118.000    30.200    44.700    13.100   104.540
     1.000    11.003    -8.000  -999.000  -999.000  -999.000  -999.000  -999.000
     6.900     2.000     6.800   980.665      .005    60.000    15.104     -.001
  -999.000    23.000  -999.000    60.000      .005      .303  -999.000  -999.000
    32.665   -76.878    32.720    -2.650    32.665      .216      .000      .303
    23.000      .005      .005      .000      .130      .031  -999.000  -999.000
      .280      .190      .266      .120      .009      .001  -999.000  -999.000
  -999.000  -999.000  -999.000  -999.000  -999.000  -999.000  -999.000  -999.000
  -999.000  -999.000  -999.000  -999.000
      .050
      .040      .042      .044      .046      .048      .050      .055      .060
      .065      .070      .075      .080      .085      .090      .095      .100
      .110      .120      .130      .140      .150      .160      .170      .180
      .190      .200      .220      .240      .260      .280      .300      .320
      .340      .360      .380      .400      .420      .440      .460      .480
      .500      .550      .600      .650      .700      .750      .800      .850
      .900      .950     1.000     1.100     1.200     1.300     1.400     1.500
     1.600     1.700     1.800     1.900     2.000     2.200     2.400     2.600
     2.800     3.000     3.200     3.400     3.600     3.800     4.000     4.200
     4.400     4.600     4.800     5.000     5.500     6.000     6.500     7.000
     7.500     8.000     8.500     9.000     9.500    10.000    11.000    12.000
    13.000    14.000    15.000      .000      .000      .000      .000      .000
      .000      .000      .000      .000
Fourier amplitude spectra in in/sec.
  .000E+00  .000E+00  .000E+00  .000E+00  .000E+00  .000E+00  .000E+00  .000E+00
  .000E+00  .000E+00  .000E+00  .000E+00  .000E+00  .000E+00  .000E+00  .000E+00
  .000E+00  .000E+00  .000E+00  .000E+00  .000E+00  .000E+00  .000E+00  .000E+00
  .000E+00  .000E+00  .000E+00  .000E+00  .000E+00  .000E+00  .000E+00  .000E+00
  .000E+00  .000E+00  .000E+00  .000E+00  .000E+00  .000E+00  .000E+00  .000E+00
  .000E+00  .000E+00  .000E+00  .000E+00  .000E+00  .000E+00  .000E+00  .000E+00
  .000E+00  .000E+00  .000E+00  .000E+00  .000E+00  .000E+00  .000E+00  .000E+00
  .000E+00  .000E+00  .000E+00  .000E+00  .000E+00  .000E+00  .000E+00  .000E+00
  .000E+00  .000E+00  .000E+00  .000E+00  .000E+00  .000E+00  .000E+00  .000E+00
  .000E+00  .000E+00  .000E+00  .000E+00  .000E+00  .000E+00  .000E+00  .000E+00
  .000E+00  .000E+00  .000E+00  .000E+00  .000E+00  .000E+00  .000E+00  .000E+00
  .000E+00  .000E+00  .000E+00  .000E+00  .000E+00  .000E+00  .000E+00  .000E+00
  .000E+00  .000E+00  .000E+00  .000E+00
Damping =  .05. Data of Sd,Sv,Sa,Pssv,ttSd,ttSv,ttSa :
  .131E-02  .143E-02  .157E-02  .182E-02  .212E-02  .235E-02  .285E-02  .344E-02
  .379E-02  .441E-02  .584E-02  .702E-02  .762E-02  .851E-02  .953E-02  .116E-01
  .157E-01  .200E-01  .254E-01  .298E-01  .339E-01  .456E-01  .648E-01  .836E-01
  .986E-01  .106E+00  .117E+00  .111E+00  .104E+00  .101E+00  .106E+00  .105E+00
  .106E+00  .105E+00  .101E+00  .929E-01  .835E-01  .755E-01  .688E-01  .658E-01
