Response and Fourier amplitude spectra (91 periods,  .04 - 15.0 sec)   for      
Corrected accelerogram   24866-L1338-20263.09       Chan  1: 360 Deg     from   
Uncorrected Accelerogram Data             Processed: 09/19/20, CGS  866ay009    
Rcrd of Fri Sep 18, 2020 23:38:32.0 PDT               (Avol1 v2.0, 4/18 CSMIP)  
CSMIP Preliminary Processing            (Origin:  To be determined)             
24866-L1338-20263.09                 Start time:  9/19/20, 06:38:32.0 UTC (GPS) 
Station No. 24866   34.193N, 118.548W    Etna    s/n 1338  (3 Chns of  3 at Sta)
Reseda - Vanowen & Wilbur                 CGS   Data: Acceleration              
Chan  1: 360 Deg                                                                
Rcrd of Fri Sep 18, 2020 23:38:32.0 PDT    Fri Sep 18, 2020 23:38:32.0 PDT      
Hypocenter:  To be determined.               ML:  To be determined.             
Instr Period =  .0108 sec,  Damping =  .660,  Sensitivity =  .62 v/g            
                        Record Length = 60.000 sec.                             
                                     Uncor Max  =  -.008 g, at   30.785 sec.    
RMS accel of (uncor) record  =        .   Chn. metadata effective date: 02/25/00
Accelerogram bandpass filtered with 3 dB pts at   .30 and 23.00 cyc/sec         
                 instrument- and base-line correcte                             
                                                                                
                                                                                
                                                                                
                                                                                
                                                                                
Rcrd of Fri Sep 18, 2020 23:38:32.0 PDT    Fri Sep 18, 2020 23:38:32.0 PDT      
                                                                                
24866-L1338-20263.09      Reseda - Vanowen & Wilbur   Chan  1: 360 Deg          
                                                                                
24866-L1338-20263.09      Reseda - Vanowen & Wilbur   Chan  1: 360 Deg          
                                                                                
Units for spectra are inches and sec, except Sa is in fraction of g.            
                                                                                
    1  100    1    3    3  200    1    3    1   24   12 1338    024866   11    0
    6   38   32    0  263    9   19 2020   10    3  36012200   39   25   74  360
12200    1  100    3 1338    1    9  610    2 -999 -999 -999 -999 -999 -999 -999
 -999 -999    3 -99912000    1  202    0   18    4 -999 -999    3    1 -99912000
    312000    4   91    1    3    5    0    0 -999    0    0    1    3    1    2
    2    2    4    0   32   67    0    5 -999    0    0    1    0    0   64  222
    0    0    2    0
      .011      .660    61.000      .001     1.000   624.000     -.008    30.785
    92.300      .298      .478  -999.000     5.000  -999.000     4.000  -999.000
     2.500     3.059     2.500  -999.000    30.000    30.000  -999.000     -.001
     -.016     -.015     2.000    15.000    34.193  -118.548      .024      .459
    19.097     -.049      .019   225.000    30.600    30.700    13.000   100.040
     1.000    11.003    -8.000  -999.000  -999.000  -999.000  -999.000  -999.000
     6.900     2.000     6.800   980.665      .005    60.000    14.690      .000
  -999.000    23.000  -999.000    60.000      .005      .303  -999.000  -999.000
    30.785    -7.760    30.445      .365    49.670     -.039      .000      .303
    23.000      .005      .005      .000      .005      .020  -999.000  -999.000
      .038      .150      .017      .019      .006      .000  -999.000  -999.000
  -999.000  -999.000  -999.000  -999.000  -999.000  -999.000  -999.000  -999.000
  -999.000  -999.000  -999.000  -999.000
      .050
      .040      .042      .044      .046      .048      .050      .055      .060
      .065      .070      .075      .080      .085      .090      .095      .100
      .110      .120      .130      .140      .150      .160      .170      .180
      .190      .200      .220      .240      .260      .280      .300      .320
      .340      .360      .380      .400      .420      .440      .460      .480
      .500      .550      .600      .650      .700      .750      .800      .850
      .900      .950     1.000     1.100     1.200     1.300     1.400     1.500
     1.600     1.700     1.800     1.900     2.000     2.200     2.400     2.600
     2.800     3.000     3.200     3.400     3.600     3.800     4.000     4.200
     4.400     4.600     4.800     5.000     5.500     6.000     6.500     7.000
     7.500     8.000     8.500     9.000     9.500    10.000    11.000    12.000
    13.000    14.000    15.000      .000      .000      .000      .000      .000
      .000      .000      .000      .000
Fourier amplitude spectra in in/sec.
  .000E+00  .000E+00  .000E+00  .000E+00  .000E+00  .000E+00  .000E+00  .000E+00
  .000E+00  .000E+00  .000E+00  .000E+00  .000E+00  .000E+00  .000E+00  .000E+00
  .000E+00  .000E+00  .000E+00  .000E+00  .000E+00  .000E+00  .000E+00  .000E+00
  .000E+00  .000E+00  .000E+00  .000E+00  .000E+00  .000E+00  .000E+00  .000E+00
  .000E+00  .000E+00  .000E+00  .000E+00  .000E+00  .000E+00  .000E+00  .000E+00
  .000E+00  .000E+00  .000E+00  .000E+00  .000E+00  .000E+00  .000E+00  .000E+00
  .000E+00  .000E+00  .000E+00  .000E+00  .000E+00  .000E+00  .000E+00  .000E+00
  .000E+00  .000E+00  .000E+00  .000E+00  .000E+00  .000E+00  .000E+00  .000E+00
  .000E+00  .000E+00  .000E+00  .000E+00  .000E+00  .000E+00  .000E+00  .000E+00
  .000E+00  .000E+00  .000E+00  .000E+00  .000E+00  .000E+00  .000E+00  .000E+00
  .000E+00  .000E+00  .000E+00  .000E+00  .000E+00  .000E+00  .000E+00  .000E+00
  .000E+00  .000E+00  .000E+00  .000E+00  .000E+00  .000E+00  .000E+00  .000E+00
  .000E+00  .000E+00  .000E+00  .000E+00
Damping =  .05. Data of Sd,Sv,Sa,Pssv,ttSd,ttSv,ttSa :
  .139E-03  .160E-03  .181E-03  .204E-03  .227E-03  .248E-03  .294E-03  .375E-03
  .465E-03  .622E-03  .832E-03  .886E-03  .887E-03  .113E-02  .115E-02  .148E-02
  .177E-02  .304E-02  .514E-02  .667E-02  .840E-02  .820E-02  .669E-02  .520E-02
  .527E-02  .645E-02  .940E-02  .127E-01  .137E-01  .160E-01  .172E-01  .177E-01
  .177E-01  .168E-01  .162E-01  .180E-01  .210E-01  .206E-01  .174E-01  .166E-01
  .176E-01  .185E-01  .186E-01  .257E-01  .350E-01  .412E-01  .348E-01  .390E-01
  .528E-01  .635E-01  .630E-01  .450E-01  .473E-01  .439E-01  .476E-01  .448E-01
  .414E-01  .384E-01  .315E-01  .303E-01  .266E-01  .240E-01  .264E-01  .196E-01
  .197E-01  .190E-01  .197E-01  .224E-01  .208E-01  .190E-01  .184E-01  .186E-01
  .184E-01  .183E-01  .181E-01  .179E-01  .171E-01  .164E-01  .163E-01  .164E-01
  .163E-01  .161E-01  .160E-01  .160E-01  .159E-01  .159E-01  .158E-01  .157E-01
  .157E-01  .156E-01  .156E-01  .000E+00  .000E+00  .000E+00  .000E+00  .000E+00
  .000E+00  .000E+00  .000E+00  .000E+00
  .546E-02  .619E-02  .678E-02  .855E-02  .106E-01  .120E-01  .188E-01  .226E-01
  .292E-01  .416E-01  .501E-01  .544E-01  .574E-01  .540E-01  .606E-01  .745E-01
  .934E-01  .131E+00  .214E+00  .280E+00  .346E+00  .319E+00  .242E+00  .176E+00
  .184E+00  .204E+00  .274E+00  .290E+00  .308E+00  .355E+00  .342E+00  .394E+00
  .361E+00  .298E+00  .301E+00  .291E+00  .291E+00  .298E+00  .257E+00  .238E+00
  .251E+00  .271E+00  .208E+00  .246E+00  .312E+00  .329E+00  .331E+00  .321E+00
  .348E+00  .424E+00  .407E+00  .376E+00  .268E+00  .237E+00  .226E+00  .229E+00
  .201E+00  .177E+00  .177E+00  .177E+00  .177E+00  .175E+00  .172E+00  .168E+00
  .165E+00  .162E+00  .159E+00  .157E+00  .155E+00  .154E+00  .153E+00  .152E+00
  .151E+00  .150E+00  .149E+00  .148E+00  .147E+00  .147E+00  .146E+00  .146E+00
  .146E+00  .145E+00  .145E+00  .145E+00  .145E+00  .145E+00  .144E+00  .144E+00
  .144E+00  .144E+00  .144E+00  .000E+00  .000E+00  .000E+00  .000E+00  .000E+00
  .000E+00  .000E+00  .000E+00  .000E+00
  .889E-02  .926E-02  .956E-02  .986E-02  .101E-01  .102E-01  .993E-02  .107E-01
  .112E-01  .129E-01  .153E-01  .142E-01  .125E-01  .144E-01  .131E-01  .153E-01
  .151E-01  .217E-01  .311E-01  .349E-01  .384E-01  .330E-01  .238E-01  .165E-01
  .150E-01  .165E-01  .200E-01  .226E-01  .208E-01  .210E-01  .196E-01  .178E-01
  .158E-01  .133E-01  .116E-01  .116E-01  .123E-01  .110E-01  .845E-02  .743E-02
  .726E-02  .630E-02  .531E-02  .624E-02  .734E-02  .754E-02  .560E-02  .555E-02
  .671E-02  .722E-02  .648E-02  .382E-02  .338E-02  .268E-02  .250E-02  .205E-02
  .167E-02  .137E-02  .100E-02  .867E-03  .693E-03  .515E-03  .478E-03  .302E-03
  .263E-03  .231E-03  .202E-03  .203E-03  .169E-03  .140E-03  .126E-03  .116E-03
  .105E-03  .962E-04  .882E-04  .808E-04  .652E-04  .540E-04  .466E-04  .412E-04
  .366E-04  .338E-04  .314E-04  .294E-04  .277E-04  .262E-04  .235E-04  .213E-04
  .195E-04  .180E-04  .167E-04  .000E+00  .000E+00  .000E+00  .000E+00  .000E+00
  .000E+00  .000E+00  .000E+00  .000E+00
  .218E-01  .239E-01  .258E-01  .278E-01  .297E-01  .312E-01  .336E-01  .392E-01
  .450E-01  .558E-01  .697E-01  .696E-01  .656E-01  .790E-01  .762E-01  .933E-01
  .101E+00  .159E+00  .248E+00  .299E+00  .352E+00  .322E+00  .247E+00  .182E+00
  .174E+00  .202E+00  .268E+00  .331E+00  .331E+00  .359E+00  .360E+00  .348E+00
  .327E+00  .293E+00  .268E+00  .282E+00  .315E+00  .295E+00  .237E+00  .217E+00
  .221E+00  .211E+00  .195E+00  .248E+00  .314E+00  .345E+00  .274E+00  .288E+00
  .369E+00  .420E+00  .396E+00  .257E+00  .248E+00  .212E+00  .213E+00  .188E+00
  .163E+00  .142E+00  .110E+00  .100E+00  .837E-01  .684E-01  .692E-01  .473E-01
  .443E-01  .398E-01  .387E-01  .414E-01  .363E-01  .313E-01  .289E-01  .279E-01
  .262E-01  .249E-01  .237E-01  .224E-01  .195E-01  .172E-01  .158E-01  .147E-01
  .137E-01  .127E-01  .119E-01  .112E-01  .105E-01  .997E-02  .902E-02  .822E-02
  .757E-02  .702E-02  .654E-02  .000E+00  .000E+00  .000E+00  .000E+00  .000E+00
  .000E+00  .000E+00  .000E+00  .000E+00
  .308E+02  .308E+02  .308E+02  .308E+02  .308E+02  .308E+02  .311E+02  .305E+02
  .305E+02  .312E+02  .312E+02  .312E+02  .308E+02  .308E+02  .308E+02  .312E+02
  .305E+02  .307E+02  .308E+02  .308E+02  .308E+02  .308E+02  .308E+02  .308E+02
  .315E+02  .319E+02  .319E+02  .303E+02  .304E+02  .305E+02  .305E+02  .309E+02
  .308E+02  .308E+02  .317E+02  .342E+02  .342E+02  .342E+02  .343E+02  .343E+02
  .343E+02  .341E+02  .447E+02  .448E+02  .459E+02  .460E+02  .364E+02  .479E+02
  .498E+02  .504E+02  .505E+02  .342E+02  .483E+02  .506E+02  .507E+02  .508E+02
  .526E+02  .527E+02  .527E+02  .547E+02  .497E+02  .522E+02  .522E+02  .503E+02
  .503E+02  .339E+02  .503E+02  .503E+02  .503E+02  .503E+02  .496E+02  .497E+02
  .497E+02  .497E+02  .497E+02  .497E+02  .497E+02  .497E+02  .497E+02  .497E+02
  .497E+02  .497E+02  .497E+02  .497E+02  .497E+02  .497E+02  .497E+02  .497E+02
  .497E+02  .497E+02  .497E+02  .000E+00  .000E+00  .000E+00  .000E+00  .000E+00
  .000E+00  .000E+00  .000E+00  .000E+00
  .308E+02  .308E+02  .308E+02  .309E+02  .309E+02  .309E+02  .312E+02  .312E+02
  .312E+02  .312E+02  .312E+02  .312E+02  .314E+02  .311E+02  .314E+02  .312E+02
  .313E+02  .307E+02  .308E+02  .308E+02  .309E+02  .309E+02  .308E+02  .308E+02
  .314E+02  .314E+02  .319E+02  .304E+02  .303E+02  .306E+02  .308E+02  .308E+02
  .308E+02  .307E+02  .307E+02  .343E+02  .343E+02  .342E+02  .342E+02  .342E+02
  .342E+02  .342E+02  .340E+02  .449E+02  .461E+02  .459E+02  .362E+02  .355E+02
  .496E+02  .507E+02  .508E+02  .340E+02  .475E+02  .475E+02  .504E+02  .505E+02
  .505E+02  .304E+02  .304E+02  .304E+02  .304E+02  .304E+02  .304E+02  .304E+02
  .304E+02  .304E+02  .304E+02  .304E+02  .304E+02  .304E+02  .304E+02  .304E+02
  .304E+02  .304E+02  .304E+02  .304E+02  .304E+02  .304E+02  .304E+02  .304E+02
  .304E+02  .304E+02  .304E+02  .304E+02  .304E+02  .304E+02  .304E+02  .304E+02
  .304E+02  .304E+02  .304E+02  .000E+00  .000E+00  .000E+00  .000E+00  .000E+00
  .000E+00  .000E+00  .000E+00  .000E+00
  .308E+02  .308E+02  .308E+02  .308E+02  .308E+02  .308E+02  .311E+02  .305E+02
  .305E+02  .312E+02  .312E+02  .312E+02  .308E+02  .308E+02  .308E+02  .312E+02
  .305E+02  .307E+02  .308E+02  .308E+02  .308E+02  .308E+02  .308E+02  .308E+02
  .315E+02  .319E+02  .319E+02  .303E+02  .303E+02  .305E+02  .305E+02  .309E+02
  .308E+02  .308E+02  .317E+02  .342E+02  .342E+02  .342E+02  .343E+02  .343E+02
  .343E+02  .341E+02  .447E+02  .448E+02  .459E+02  .460E+02  .364E+02  .479E+02
  .498E+02  .504E+02  .505E+02  .342E+02  .483E+02  .506E+02  .507E+02  .507E+02
  .526E+02  .526E+02  .527E+02  .547E+02  .496E+02  .521E+02  .522E+02  .502E+02
  .502E+02  .339E+02  .502E+02  .502E+02  .502E+02  .503E+02  .496E+02  .496E+02
  .496E+02  .496E+02  .496E+02  .496E+02  .496E+02  .496E+02  .496E+02  .496E+02
  .305E+02  .305E+02  .304E+02  .304E+02  .304E+02  .304E+02  .304E+02  .304E+02
  .304E+02  .304E+02  .304E+02  .000E+00  .000E+00  .000E+00  .000E+00  .000E+00
  .000E+00  .000E+00  .000E+00  .000E+00
/&   ----------  End of spectral data for channel  1  ----------
Response and Fourier amplitude spectra (91 periods,  .04 - 15.0 sec)   for      
Corrected accelerogram   24866-L1338-20263.09       Chan  2:  Up         from   
Uncorrected Accelerogram Data             Processed: 09/19/20, CGS  866ay009    
Rcrd of Fri Sep 18, 2020 23:38:32.0 PDT               (Avol1 v2.0, 4/18 CSMIP)  
CSMIP Preliminary Processing            (Origin:  To be determined)             
24866-L1338-20263.09                 Start time:  9/19/20, 06:38:32.0 UTC (GPS) 
Station No. 24866   34.193N, 118.548W    Etna    s/n 1338  (3 Chns of  3 at Sta)
Reseda - Vanowen & Wilbur                 CGS   Data: Acceleration              
Chan  2:  Up                                                                    
Rcrd of Fri Sep 18, 2020 23:38:32.0 PDT    Fri Sep 18, 2020 23:38:32.0 PDT      
Hypocenter:  To be determined.               ML:  To be determined.             
Instr Period =  .0102 sec,  Damping =  .670,  Sensitivity =  .62 v/g            
                        Record Length = 60.000 sec.                             
                                     Uncor Max  =   .006 g, at   29.570 sec.    
RMS accel of (uncor) record  =        .   Chn. metadata effective date: 02/25/00
Accelerogram bandpass filtered with 3 dB pts at   .30 and 23.00 cyc/sec         
                 instrument- and base-line correcte                             
                                                                                
                                                                                
                                                                                
                                                                                
                                                                                
Rcrd of Fri Sep 18, 2020 23:38:32.0 PDT    Fri Sep 18, 2020 23:38:32.0 PDT      
                                                                                
24866-L1338-20263.09      Reseda - Vanowen & Wilbur   Chan  2:  Up              
                                                                                
24866-L1338-20263.09      Reseda - Vanowen & Wilbur   Chan  2:  Up              
                                                                                
Units for spectra are inches and sec, except Sa is in fraction of g.            
                                                                                
    2  100    2    3    3  200    1    3    1   24   12 1338    024866   11    0
    6   38   32    0  263    9   19 2020   10    3  50012200   39   25   74  360
12200    1  100    3 1338    1    9  610    2 -999 -999 -999 -999 -999 -999 -999
 -999 -999    3 -99912000    1  202    0   18    4 -999 -999    3    1 -99912000
    312000    4   91    1    3    5    0    0 -999    0    0    1    3    1    2
    2    2    4    0   32   67    0    5 -999    0    0    1    0    0   64  222
    0    0    2    0
      .010      .670    61.000      .001     1.000   624.000      .006    29.570
    98.100      .298      .478  -999.000     5.000  -999.000     4.000  -999.000
     2.500    22.689     2.500  -999.000    30.000    30.000  -999.000     -.001
     -.006     -.005     2.000    15.000    34.193  -118.548      .031      .294
     9.529     -.027      .018   225.000    30.600    30.700    13.000   100.040
     1.000    11.003    -8.000  -999.000  -999.000  -999.000  -999.000  -999.000
     6.900     2.000     6.800   980.665      .005    60.000    15.613      .001
  -999.000    23.000  -999.000    60.000      .005      .303  -999.000  -999.000
    29.565     6.035    36.745     -.133    33.575      .012      .000      .303
    23.000      .005      .005      .000      .005      .009  -999.000  -999.000
      .039      .095      .006      .004      .002      .000  -999.000  -999.000
  -999.000  -999.000  -999.000  -999.000  -999.000  -999.000  -999.000  -999.000
  -999.000  -999.000  -999.000  -999.000
      .050
      .040      .042      .044      .046      .048      .050      .055      .060
      .065      .070      .075      .080      .085      .090      .095      .100
      .110      .120      .130      .140      .150      .160      .170      .180
      .190      .200      .220      .240      .260      .280      .300      .320
      .340      .360      .380      .400      .420      .440      .460      .480
      .500      .550      .600      .650      .700      .750      .800      .850
      .900      .950     1.000     1.100     1.200     1.300     1.400     1.500
     1.600     1.700     1.800     1.900     2.000     2.200     2.400     2.600
     2.800     3.000     3.200     3.400     3.600     3.800     4.000     4.200
     4.400     4.600     4.800     5.000     5.500     6.000     6.500     7.000
     7.500     8.000     8.500     9.000     9.500    10.000    11.000    12.000
    13.000    14.000    15.000      .000      .000      .000      .000      .000
      .000      .000      .000      .000
Fourier amplitude spectra in in/sec.
  .000E+00  .000E+00  .000E+00  .000E+00  .000E+00  .000E+00  .000E+00  .000E+00
  .000E+00  .000E+00  .000E+00  .000E+00  .000E+00  .000E+00  .000E+00  .000E+00
  .000E+00  .000E+00  .000E+00  .000E+00  .000E+00  .000E+00  .000E+00  .000E+00
  .000E+00  .000E+00  .000E+00  .000E+00  .000E+00  .000E+00  .000E+00  .000E+00
  .000E+00  .000E+00  .000E+00  .000E+00  .000E+00  .000E+00  .000E+00  .000E+00
  .000E+00  .000E+00  .000E+00  .000E+00  .000E+00  .000E+00  .000E+00  .000E+00
  .000E+00  .000E+00  .000E+00  .000E+00  .000E+00  .000E+00  .000E+00  .000E+00
  .000E+00  .000E+00  .000E+00  .000E+00  .000E+00  .000E+00  .000E+00  .000E+00
  .000E+00  .000E+00  .000E+00  .000E+00  .000E+00  .000E+00  .000E+00  .000E+00
  .000E+00  .000E+00  .000E+00  .000E+00  .000E+00  .000E+00  .000E+00  .000E+00
  .000E+00  .000E+00  .000E+00  .000E+00  .000E+00  .000E+00  .000E+00  .000E+00
  .000E+00  .000E+00  .000E+00  .000E+00  .000E+00  .000E+00  .000E+00  .000E+00
  .000E+00  .000E+00  .000E+00  .000E+00
Damping =  .05. Data of Sd,Sv,Sa,Pssv,ttSd,ttSv,ttSa :
  .121E-03  .145E-03  .174E-03  .196E-03  .207E-03  .237E-03  .405E-03  .570E-03
  .607E-03  .714E-03  .104E-02  .159E-02  .212E-02  .244E-02  .340E-02  .310E-02
  .281E-02  .213E-02  .187E-02  .254E-02  .258E-02  .278E-02  .268E-02  .254E-02
  .227E-02  .195E-02  .243E-02  .338E-02  .343E-02  .362E-02  .326E-02  .394E-02
  .368E-02  .443E-02  .518E-02  .576E-02  .574E-02  .631E-02  .729E-02  .917E-02
