Response and Fourier amplitude spectra (78 periods,  .04 -  6.0 sec)   for      
Corrected accelerogram   24624-TA183-20262.02       Chan  1:  Up         from   
Uncorrected Accelerogram Data             Processed: 09/18/20, CGS  ce24624b    
Rcrd of Fri Sep 18, 2020 23:38:21.0 PDT               (Avol1 v2.0, 4/18 CSMIP)  
CSMIP Preliminary Processing            (Origin:  To be determined)             
24624-TA183-20262.02                 Start time:  9/19/20, 06:38:21.0 UTC (GPS) 
Station No. 24624   34.148N, 118.154W    130-SM  s/n A183  (3 Chns of  3 at Sta)
Pasadena - Fair Oaks & Walnut A           CGS   Data: Acceleration              
Chan  1:  Up                                                                    
Rcrd of Fri Sep 18, 2020 23:38:21.0 PDT    Fri Sep 18, 2020 23:38:21.0 PDT      
Hypocenter:  To be determined.               ML:  To be determined.             
Instr Period =  .0011 sec,  Damping =  .100,  Sensitivity = 2.52 v/g            
                        Record Length = 69.425 sec.                             
                                     Uncor Max  =  -.042 g, at   32.570 sec.    
RMS accel of (uncor) record  =        .   Chn. metadata effective date: 04/18/16
Accelerogram bandpass filtered with 3 dB pts at   .30 and 40.00 cyc/sec         
                 instrument- and base-line correcte                             
                                                                                
                                                                                
                                                                                
                                                                                
                                                                                
Rcrd of Fri Sep 18, 2020 23:38:21.0 PDT    Fri Sep 18, 2020 23:38:21.0 PDT      
                                                                                
24624-TA183-20262.02      Pasadena - Fair Oaks & Walnut A   Chan  1:  Up        
                                                                                
24624-TA183-20262.02      Pasadena - Fair Oaks & Walnut A   Chan  1:  Up        
                                                                                
Units for spectra are inches and sec, except Sa is in fraction of g.            
                                                                                
    1  100    1    3    3  200    1    3    1   32  702 -999    024624   21    0
    6   38   21    0  263    9   19 2020   10    3  50013885   39   31   74  360
13885    1  100    3 -999    1    2 -999 -999 -999 -999 -999 -999 -999 -999 -999
 -999 -999 -999 -999 6943    2  200    0   24  256 -999 -999    3    1 -999 6943
    3 6943    4   78    1    3    5    0    0 -999    0    0 -999 -999    1    2
    2    2    4    0   32   67    9    1 -999    0    0    1    0 -999    0  222
    1 -999    0 -999
      .001      .100    69.425      .003     1.000  2518.000     -.042    32.570
   900.000     1.586      .630  -999.000     5.000  -999.000     3.500  -999.000
    10.000  1004.807    10.000   431.000    30.255    29.995  -999.000      .005
     -.004     -.008     2.000    15.000    34.148  -118.154      .049      .149
     3.033     -.020      .004   260.000    30.256    39.426    12.900  -999.000
     1.000  -999.000    -8.000  -999.000  -999.000  -999.000  -999.000   120.000
     7.500     2.000     6.800   980.665      .010    69.425   143.239      .000
  -999.000    40.000  -999.000    69.425      .010      .300  -999.000  -999.000
    32.570   -40.544    32.370     -.712    32.330      .033      .000      .300
    40.000      .010      .010      .000      .010      .016  -999.000  -999.000
      .167      .080      .056      .034      .002      .000  -999.000  -999.000
  -999.000  -999.000  -999.000  -999.000  -999.000  -999.000  -999.000  -999.000
  -999.000  -999.000  -999.000  -999.000
      .050
      .040      .042      .044      .046      .048      .050      .055      .060
      .065      .070      .075      .080      .085      .090      .095      .100
      .110      .120      .130      .140      .150      .160      .170      .180
      .190      .200      .220      .240      .260      .280      .300      .320
      .340      .360      .380      .400      .420      .440      .460      .480
      .500      .550      .600      .650      .700      .750      .800      .850
      .900      .950     1.000     1.100     1.200     1.300     1.400     1.500
     1.600     1.700     1.800     1.900     2.000     2.200     2.400     2.600
     2.800     3.000     3.200     3.400     3.600     3.800     4.000     4.200
     4.400     4.600     4.800     5.000     5.500     6.000      .000      .000
      .000      .000      .000      .000      .000      .000      .000      .000
      .000      .000      .000      .000      .000      .000      .000      .000
      .000      .000      .000      .000
Fourier amplitude spectra in in/sec.
  .000E+00  .000E+00  .000E+00  .000E+00  .000E+00  .000E+00  .000E+00  .000E+00
  .000E+00  .000E+00  .000E+00  .000E+00  .000E+00  .000E+00  .000E+00  .000E+00
  .000E+00  .000E+00  .000E+00  .000E+00  .000E+00  .000E+00  .000E+00  .000E+00
  .000E+00  .000E+00  .000E+00  .000E+00  .000E+00  .000E+00  .000E+00  .000E+00
  .000E+00  .000E+00  .000E+00  .000E+00  .000E+00  .000E+00  .000E+00  .000E+00
  .000E+00  .000E+00  .000E+00  .000E+00  .000E+00  .000E+00  .000E+00  .000E+00
  .000E+00  .000E+00  .000E+00  .000E+00  .000E+00  .000E+00  .000E+00  .000E+00
  .000E+00  .000E+00  .000E+00  .000E+00  .000E+00  .000E+00  .000E+00  .000E+00
  .000E+00  .000E+00  .000E+00  .000E+00  .000E+00  .000E+00  .000E+00  .000E+00
  .000E+00  .000E+00  .000E+00  .000E+00  .000E+00  .000E+00  .000E+00  .000E+00
  .000E+00  .000E+00  .000E+00  .000E+00  .000E+00  .000E+00  .000E+00  .000E+00
  .000E+00  .000E+00  .000E+00  .000E+00  .000E+00  .000E+00  .000E+00  .000E+00
  .000E+00  .000E+00  .000E+00  .000E+00
Damping =  .05. Data of Sd,Sv,Sa,Pssv,ttSd,ttSv,ttSa :
  .135E-02  .158E-02  .163E-02  .193E-02  .238E-02  .235E-02  .254E-02  .346E-02
  .526E-02  .519E-02  .726E-02  .105E-01  .109E-01  .822E-02  .980E-02  .104E-01
  .160E-01  .191E-01  .145E-01  .144E-01  .135E-01  .141E-01  .128E-01  .168E-01
  .185E-01  .235E-01  .250E-01  .195E-01  .186E-01  .251E-01  .334E-01  .311E-01
  .293E-01  .352E-01  .396E-01  .370E-01  .409E-01  .461E-01  .473E-01  .471E-01
  .446E-01  .337E-01  .320E-01  .359E-01  .367E-01  .306E-01  .278E-01  .255E-01
  .234E-01  .228E-01  .215E-01  .209E-01  .219E-01  .231E-01  .235E-01  .220E-01
  .221E-01  .233E-01  .233E-01  .223E-01  .206E-01  .169E-01  .150E-01  .156E-01
  .163E-01  .160E-01  .156E-01  .156E-01  .157E-01  .158E-01  .157E-01  .155E-01
  .154E-01  .154E-01  .152E-01  .150E-01  .146E-01  .144E-01  .000E+00  .000E+00
  .000E+00  .000E+00  .000E+00  .000E+00  .000E+00  .000E+00  .000E+00  .000E+00
  .000E+00  .000E+00  .000E+00  .000E+00  .000E+00  .000E+00  .000E+00  .000E+00
  .000E+00  .000E+00  .000E+00  .000E+00
  .191E+00  .204E+00  .212E+00  .242E+00  .296E+00  .284E+00  .257E+00  .331E+00
  .491E+00  .463E+00  .584E+00  .839E+00  .822E+00  .619E+00  .595E+00  .589E+00
  .924E+00  .103E+01  .754E+00  .624E+00  .607E+00  .594E+00  .504E+00  .634E+00
  .618E+00  .763E+00  .757E+00  .605E+00  .593E+00  .728E+00  .704E+00  .592E+00
  .637E+00  .596E+00  .616E+00  .704E+00  .647E+00  .702E+00  .643E+00  .636E+00
  .616E+00  .481E+00  .463E+00  .505E+00  .445E+00  .375E+00  .372E+00  .364E+00
  .358E+00  .354E+00  .348E+00  .333E+00  .323E+00  .310E+00  .314E+00  .316E+00
  .317E+00  .316E+00  .315E+00  .313E+00  .311E+00  .307E+00  .303E+00  .300E+00
  .297E+00  .293E+00  .290E+00  .287E+00  .285E+00  .284E+00  .282E+00  .281E+00
  .280E+00  .280E+00  .279E+00  .278E+00  .278E+00  .277E+00  .000E+00  .000E+00
  .000E+00  .000E+00  .000E+00  .000E+00  .000E+00  .000E+00  .000E+00  .000E+00
  .000E+00  .000E+00  .000E+00  .000E+00  .000E+00  .000E+00  .000E+00  .000E+00
  .000E+00  .000E+00  .000E+00  .000E+00
  .877E-01  .923E-01  .869E-01  .930E-01  .105E+00  .983E-01  .858E-01  .976E-01
  .128E+00  .108E+00  .133E+00  .167E+00  .156E+00  .103E+00  .111E+00  .105E+00
  .137E+00  .134E+00  .877E-01  .750E-01  .616E-01  .561E-01  .463E-01  .527E-01
  .531E-01  .607E-01  .538E-01  .347E-01  .281E-01  .331E-01  .384E-01  .313E-01
  .261E-01  .279E-01  .281E-01  .238E-01  .238E-01  .245E-01  .229E-01  .210E-01
  .184E-01  .115E-01  .919E-02  .879E-02  .767E-02  .561E-02  .454E-02  .370E-02
  .304E-02  .268E-02  .233E-02  .180E-02  .160E-02  .143E-02  .125E-02  .105E-02
  .946E-03  .894E-03  .806E-03  .703E-03  .598E-03  .426E-03  .355E-03  .337E-03
  .311E-03  .277E-03  .244E-03  .217E-03  .195E-03  .176E-03  .159E-03  .146E-03
  .136E-03  .127E-03  .118E-03  .111E-03  .965E-04  .860E-04  .000E+00  .000E+00
  .000E+00  .000E+00  .000E+00  .000E+00  .000E+00  .000E+00  .000E+00  .000E+00
  .000E+00  .000E+00  .000E+00  .000E+00  .000E+00  .000E+00  .000E+00  .000E+00
  .000E+00  .000E+00  .000E+00  .000E+00
  .212E+00  .237E+00  .233E+00  .264E+00  .312E+00  .295E+00  .290E+00  .362E+00
  .509E+00  .466E+00  .608E+00  .828E+00  .803E+00  .574E+00  .648E+00  .654E+00
  .916E+00  .100E+01  .699E+00  .645E+00  .566E+00  .552E+00  .474E+00  .585E+00
  .613E+00  .739E+00  .714E+00  .511E+00  .450E+00  .564E+00  .700E+00  .611E+00
  .541E+00  .615E+00  .655E+00  .581E+00  .612E+00  .658E+00  .645E+00  .616E+00
  .560E+00  .385E+00  .335E+00  .347E+00  .329E+00  .257E+00  .218E+00  .188E+00
  .163E+00  .151E+00  .135E+00  .119E+00  .115E+00  .112E+00  .105E+00  .923E-01
  .867E-01  .860E-01  .814E-01  .737E-01  .648E-01  .483E-01  .393E-01  .377E-01
  .366E-01  .335E-01  .305E-01  .289E-01  .273E-01  .261E-01  .247E-01  .232E-01
  .221E-01  .210E-01  .199E-01  .188E-01  .167E-01  .151E-01  .000E+00  .000E+00
  .000E+00  .000E+00  .000E+00  .000E+00  .000E+00  .000E+00  .000E+00  .000E+00
  .000E+00  .000E+00  .000E+00  .000E+00  .000E+00  .000E+00  .000E+00  .000E+00
  .000E+00  .000E+00  .000E+00  .000E+00
  .311E+02  .303E+02  .303E+02  .303E+02  .310E+02  .310E+02  .311E+02  .311E+02
  .311E+02  .312E+02  .304E+02  .303E+02  .303E+02  .303E+02  .335E+02  .323E+02
  .326E+02  .326E+02  .328E+02  .328E+02  .328E+02  .328E+02  .325E+02  .328E+02
  .328E+02  .333E+02  .332E+02  .330E+02  .326E+02  .326E+02  .325E+02  .326E+02
  .326E+02  .336E+02  .336E+02  .336E+02  .350E+02  .348E+02  .346E+02  .346E+02
  .346E+02  .342E+02  .342E+02  .340E+02  .340E+02  .341E+02  .335E+02  .335E+02
  .327E+02  .327E+02  .327E+02  .357E+02  .325E+02  .338E+02  .338E+02  .325E+02
  .335E+02  .335E+02  .335E+02  .335E+02  .335E+02  .335E+02  .320E+02  .333E+02
  .333E+02  .333E+02  .323E+02  .323E+02  .323E+02  .323E+02  .323E+02  .323E+02
  .323E+02  .323E+02  .323E+02  .323E+02  .323E+02  .323E+02  .000E+00  .000E+00
  .000E+00  .000E+00  .000E+00  .000E+00  .000E+00  .000E+00  .000E+00  .000E+00
  .000E+00  .000E+00  .000E+00  .000E+00  .000E+00  .000E+00  .000E+00  .000E+00
  .000E+00  .000E+00  .000E+00  .000E+00
  .310E+02  .312E+02  .317E+02  .317E+02  .310E+02  .310E+02  .310E+02  .311E+02
  .311E+02  .312E+02  .304E+02  .303E+02  .303E+02  .303E+02  .335E+02  .335E+02
  .326E+02  .326E+02  .328E+02  .329E+02  .328E+02  .328E+02  .328E+02  .328E+02
  .328E+02  .333E+02  .328E+02  .326E+02  .326E+02  .326E+02  .326E+02  .324E+02
  .325E+02  .325E+02  .335E+02  .335E+02  .347E+02  .347E+02  .349E+02  .345E+02
  .345E+02  .344E+02  .341E+02  .341E+02  .341E+02  .325E+02  .325E+02  .325E+02
  .325E+02  .325E+02  .325E+02  .332E+02  .332E+02  .324E+02  .324E+02  .324E+02
  .324E+02  .324E+02  .324E+02  .324E+02  .324E+02  .324E+02  .324E+02  .324E+02
  .324E+02  .324E+02  .324E+02  .324E+02  .324E+02  .324E+02  .324E+02  .324E+02
  .324E+02  .324E+02  .324E+02  .324E+02  .324E+02  .324E+02  .000E+00  .000E+00
  .000E+00  .000E+00  .000E+00  .000E+00  .000E+00  .000E+00  .000E+00  .000E+00
  .000E+00  .000E+00  .000E+00  .000E+00  .000E+00  .000E+00  .000E+00  .000E+00
  .000E+00  .000E+00  .000E+00  .000E+00
  .311E+02  .303E+02  .303E+02  .303E+02  .310E+02  .310E+02  .311E+02  .311E+02
  .311E+02  .312E+02  .304E+02  .303E+02  .303E+02  .303E+02  .335E+02  .323E+02
  .326E+02  .326E+02  .328E+02  .328E+02  .328E+02  .328E+02  .324E+02  .328E+02
  .333E+02  .333E+02  .332E+02  .330E+02  .326E+02  .326E+02  .325E+02  .326E+02
  .326E+02  .336E+02  .336E+02  .336E+02  .350E+02  .348E+02  .346E+02  .346E+02
  .346E+02  .342E+02  .342E+02  .340E+02  .340E+02  .341E+02  .335E+02  .335E+02
  .327E+02  .332E+02  .332E+02  .357E+02  .325E+02  .338E+02  .338E+02  .325E+02
  .335E+02  .335E+02  .335E+02  .335E+02  .335E+02  .335E+02  .332E+02  .332E+02
  .332E+02  .332E+02  .332E+02  .332E+02  .332E+02  .332E+02  .332E+02  .323E+02
  .323E+02  .323E+02  .323E+02  .323E+02  .332E+02  .332E+02  .000E+00  .000E+00
  .000E+00  .000E+00  .000E+00  .000E+00  .000E+00  .000E+00  .000E+00  .000E+00
  .000E+00  .000E+00  .000E+00  .000E+00  .000E+00  .000E+00  .000E+00  .000E+00
  .000E+00  .000E+00  .000E+00  .000E+00
/&   ----------  End of spectral data for channel  1  ----------
Response and Fourier amplitude spectra (78 periods,  .04 -  6.0 sec)   for      
Corrected accelerogram   24624-TA183-20262.02       Chan  2: 360 Deg     from   
Uncorrected Accelerogram Data             Processed: 09/18/20, CGS  ce24624b    
Rcrd of Fri Sep 18, 2020 23:38:21.0 PDT               (Avol1 v2.0, 4/18 CSMIP)  
CSMIP Preliminary Processing            (Origin:  To be determined)             
24624-TA183-20262.02                 Start time:  9/19/20, 06:38:21.0 UTC (GPS) 
Station No. 24624   34.148N, 118.154W    130-SM  s/n A183  (3 Chns of  3 at Sta)
Pasadena - Fair Oaks & Walnut A           CGS   Data: Acceleration              
Chan  2: 360 Deg                                                                
Rcrd of Fri Sep 18, 2020 23:38:21.0 PDT    Fri Sep 18, 2020 23:38:21.0 PDT      
Hypocenter:  To be determined.               ML:  To be determined.             
Instr Period =  .0011 sec,  Damping =  .100,  Sensitivity = 2.48 v/g            
                        Record Length = 69.425 sec.                             
                                     Uncor Max  =  -.084 g, at   32.395 sec.    
RMS accel of (uncor) record  =        .   Chn. metadata effective date: 04/18/16
Accelerogram bandpass filtered with 3 dB pts at   .30 and 40.00 cyc/sec         
                 instrument- and base-line correcte                             
                                                                                
                                                                                
                                                                                
                                                                                
                                                                                
Rcrd of Fri Sep 18, 2020 23:38:21.0 PDT    Fri Sep 18, 2020 23:38:21.0 PDT      
                                                                                
24624-TA183-20262.02      Pasadena - Fair Oaks & Walnut A   Chan  2: 360 Deg    
                                                                                
24624-TA183-20262.02      Pasadena - Fair Oaks & Walnut A   Chan  2: 360 Deg    
                                                                                
Units for spectra are inches and sec, except Sa is in fraction of g.            
                                                                                
    2  100    2    3    3  200    1    3    1   32  702 -999    024624   21    0
    6   38   21    0  263    9   19 2020   10    3  36013885   39   31   74  360
13885    1  100    3 -999    1    2 -999 -999 -999 -999 -999 -999 -999 -999 -999
 -999 -999 -999 -999 6943    2  200    0   24  256 -999 -999    3    1 -999 6943
    3 6943    4   78    1    3    5    0    0 -999    0    0 -999 -999    1    2
    2    2    4    0   32   67    9    1 -999    0    0    1    0 -999    0  222
    1 -999    0 -999
      .001      .100    69.425      .005     1.000  2484.000     -.084    32.395
   900.000     1.585      .638  -999.000     5.000  -999.000     3.500  -999.000
    10.000    -5.907    10.000   431.000    30.255    29.995  -999.000     -.003
      .000      .002     2.000    15.000    34.148  -118.154      .262      .236
      .900     -.035      .040   260.000    30.256    39.426    12.900  -999.000
     1.000  -999.000    -8.000  -999.000  -999.000  -999.000  -999.000   120.000
     7.500     2.000     6.800   980.665      .010    69.425   143.239      .000
  -999.000    40.000  -999.000    69.425      .010      .300  -999.000  -999.000
    32.550    81.335    32.580     2.237    32.320     -.153      .000      .300
    40.000      .010      .010      .000      .470      .028  -999.000  -999.000
      .355      .110      .153      .087      .014      .001  -999.000  -999.000
  -999.000  -999.000  -999.000  -999.000  -999.000  -999.000  -999.000  -999.000
  -999.000  -999.000  -999.000  -999.000
      .050
      .040      .042      .044      .046      .048      .050      .055      .060
      .065      .070      .075      .080      .085      .090      .095      .100
      .110      .120      .130      .140      .150      .160      .170      .180
      .190      .200      .220      .240      .260      .280      .300      .320
      .340      .360      .380      .400      .420      .440      .460      .480
      .500      .550      .600      .650      .700      .750      .800      .850
      .900      .950     1.000     1.100     1.200     1.300     1.400     1.500
     1.600     1.700     1.800     1.900     2.000     2.200     2.400     2.600
     2.800     3.000     3.200     3.400     3.600     3.800     4.000     4.200
     4.400     4.600     4.800     5.000     5.500     6.000      .000      .000
      .000      .000      .000      .000      .000      .000      .000      .000
      .000      .000      .000      .000      .000      .000      .000      .000
      .000      .000      .000      .000
Fourier amplitude spectra in in/sec.
  .000E+00  .000E+00  .000E+00  .000E+00  .000E+00  .000E+00  .000E+00  .000E+00
  .000E+00  .000E+00  .000E+00  .000E+00  .000E+00  .000E+00  .000E+00  .000E+00
  .000E+00  .000E+00  .000E+00  .000E+00  .000E+00  .000E+00  .000E+00  .000E+00
  .000E+00  .000E+00  .000E+00  .000E+00  .000E+00  .000E+00  .000E+00  .000E+00
  .000E+00  .000E+00  .000E+00  .000E+00  .000E+00  .000E+00  .000E+00  .000E+00
  .000E+00  .000E+00  .000E+00  .000E+00  .000E+00  .000E+00  .000E+00  .000E+00
  .000E+00  .000E+00  .000E+00  .000E+00  .000E+00  .000E+00  .000E+00  .000E+00
  .000E+00  .000E+00  .000E+00  .000E+00  .000E+00  .000E+00  .000E+00  .000E+00
  .000E+00  .000E+00  .000E+00  .000E+00  .000E+00  .000E+00  .000E+00  .000E+00
  .000E+00  .000E+00  .000E+00  .000E+00  .000E+00  .000E+00  .000E+00  .000E+00
  .000E+00  .000E+00  .000E+00  .000E+00  .000E+00  .000E+00  .000E+00  .000E+00
  .000E+00  .000E+00  .000E+00  .000E+00  .000E+00  .000E+00  .000E+00  .000E+00
  .000E+00  .000E+00  .000E+00  .000E+00
Damping =  .05. Data of Sd,Sv,Sa,Pssv,ttSd,ttSv,ttSa :
  .201E-02  .259E-02  .313E-02  .365E-02  .454E-02  .504E-02  .680E-02  .901E-02
  .922E-02  .112E-01  .129E-01  .136E-01  .176E-01  .230E-01  .282E-01  .302E-01
  .418E-01  .475E-01  .504E-01  .545E-01  .499E-01  .552E-01  .587E-01  .558E-01
  .552E-01  .602E-01  .695E-01  .735E-01  .795E-01  .803E-01  .722E-01  .729E-01
  .650E-01  .616E-01  .642E-01  .674E-01  .701E-01  .719E-01  .729E-01  .734E-01
