Response and Fourier amplitude spectra (78 periods,  .04 -  6.0 sec)   for      
Corrected accelerogram   24765-B2334-20263.         Chan  1:  Up         from   
Uncorrected Accelerogram Data             Processed: 09/18/20, CGS  ce24765s    
Rcrd of Fri Sep 18, 2020 23:38:27.0 PDT               (Avol1 v2.0, 4/18 CSMIP)  
CSMIP Preliminary Processing            (Origin:  To be determined)             
24765-B2334-20263.                   Start time:  9/19/20, 06:38:27.0 UTC (GPS) 
Station No. 24765   34.220N, 118.430W    Basalt  s/n 2334  (3 Chns of  4 at Sta)
Panorama City - Roscoe & Woodman          CGS   Data: Acceleration              
Chan  1:  Up                                                                    
Rcrd of Fri Sep 18, 2020 23:38:27.0 PDT    Fri Sep 18, 2020 23:38:27.0 PDT      
Hypocenter:  To be determined.               ML:  To be determined.             
Instr Period =  .0047 sec,  Damping =  .700,  Sensitivity = 1.25 v/g            
                        Record Length = 61.000 sec.                             
                                     Uncor Max  =  -.024 g, at   27.750 sec.    
RMS accel of (uncor) record  =        .   Chn. metadata effective date: 08/10/15
Accelerogram bandpass filtered with 3 dB pts at   .30 and 40.00 cyc/sec         
                 instrument- and base-line correcte                             
                                                                                
                                                                                
                                                                                
                                                                                
                                                                                
Rcrd of Fri Sep 18, 2020 23:38:27.0 PDT    Fri Sep 18, 2020 23:38:27.0 PDT      
                                                                                
24765-B2334-20263.        Panorama City - Roscoe & Woodman    Chan  1:  Up      
                                                                                
24765-B2334-20263.        Panorama City - Roscoe & Woodman    Chan  1:  Up      
                                                                                
Units for spectra are inches and sec, except Sa is in fraction of g.            
                                                                                
    1  100    1    3    4  200    1    3    1   24   31 2334    024765   21    0
    6   38   27    0  263    9   19 2020   10    3  50012200   39   32   74  360
12200    1  100    3 2334    1  119  610    2 -999 -999 -999 -999 -999 -999 -999
 -999 -999    3 -99912200    1  202    0   24   20 -999 -999    3    1 -99912200
    312200    4   78    1    3    5    0    0 -999    0    0    1    3    1    2
    2    2    4    0   32   67    0    5 -999    0    0    1    0    0    0  222
    1    0    0    0
      .005      .700    61.000      .002     1.000  1251.600     -.024    27.750
   212.000      .596      .476  -999.000     5.000  -999.000     4.000  -999.000
     5.000    -6.363     5.000  -999.000    30.000    30.000  -999.000      .000
     -.002     -.002     2.000    15.000    34.220  -118.430      .109      .219
     2.007     -.024      .019   241.000    31.000    31.900    13.400    88.700
     1.000    11.003    -8.000  -999.000  -999.000  -999.000  -999.000  -999.000
     6.900     2.000     6.800   980.665      .005    61.000    33.741      .000
  -999.000    40.000  -999.000    61.000      .005      .300  -999.000  -999.000
    27.750   -24.475    27.715      .339    41.725      .038      .000      .300
    40.000      .005      .005      .000      .005      .017  -999.000  -999.000
      .100      .120      .021      .018      .006      .000  -999.000  -999.000
  -999.000  -999.000  -999.000  -999.000  -999.000  -999.000  -999.000  -999.000
  -999.000  -999.000  -999.000  -999.000
      .050
      .040      .042      .044      .046      .048      .050      .055      .060
      .065      .070      .075      .080      .085      .090      .095      .100
      .110      .120      .130      .140      .150      .160      .170      .180
      .190      .200      .220      .240      .260      .280      .300      .320
      .340      .360      .380      .400      .420      .440      .460      .480
      .500      .550      .600      .650      .700      .750      .800      .850
      .900      .950     1.000     1.100     1.200     1.300     1.400     1.500
     1.600     1.700     1.800     1.900     2.000     2.200     2.400     2.600
     2.800     3.000     3.200     3.400     3.600     3.800     4.000     4.200
     4.400     4.600     4.800     5.000     5.500     6.000      .000      .000
      .000      .000      .000      .000      .000      .000      .000      .000
      .000      .000      .000      .000      .000      .000      .000      .000
      .000      .000      .000      .000
Fourier amplitude spectra in in/sec.
  .000E+00  .000E+00  .000E+00  .000E+00  .000E+00  .000E+00  .000E+00  .000E+00
  .000E+00  .000E+00  .000E+00  .000E+00  .000E+00  .000E+00  .000E+00  .000E+00
  .000E+00  .000E+00  .000E+00  .000E+00  .000E+00  .000E+00  .000E+00  .000E+00
  .000E+00  .000E+00  .000E+00  .000E+00  .000E+00  .000E+00  .000E+00  .000E+00
  .000E+00  .000E+00  .000E+00  .000E+00  .000E+00  .000E+00  .000E+00  .000E+00
  .000E+00  .000E+00  .000E+00  .000E+00  .000E+00  .000E+00  .000E+00  .000E+00
  .000E+00  .000E+00  .000E+00  .000E+00  .000E+00  .000E+00  .000E+00  .000E+00
  .000E+00  .000E+00  .000E+00  .000E+00  .000E+00  .000E+00  .000E+00  .000E+00
  .000E+00  .000E+00  .000E+00  .000E+00  .000E+00  .000E+00  .000E+00  .000E+00
  .000E+00  .000E+00  .000E+00  .000E+00  .000E+00  .000E+00  .000E+00  .000E+00
  .000E+00  .000E+00  .000E+00  .000E+00  .000E+00  .000E+00  .000E+00  .000E+00
  .000E+00  .000E+00  .000E+00  .000E+00  .000E+00  .000E+00  .000E+00  .000E+00
  .000E+00  .000E+00  .000E+00  .000E+00
Damping =  .05. Data of Sd,Sv,Sa,Pssv,ttSd,ttSv,ttSa :
  .117E-02  .119E-02  .115E-02  .117E-02  .127E-02  .112E-02  .128E-02  .197E-02
  .193E-02  .232E-02  .327E-02  .479E-02  .519E-02  .524E-02  .579E-02  .689E-02
  .112E-01  .140E-01  .136E-01  .980E-02  .772E-02  .698E-02  .702E-02  .672E-02
  .771E-02  .847E-02  .893E-02  .869E-02  .102E-01  .144E-01  .158E-01  .175E-01
  .137E-01  .119E-01  .117E-01  .136E-01  .135E-01  .129E-01  .140E-01  .169E-01
  .201E-01  .196E-01  .200E-01  .256E-01  .266E-01  .313E-01  .394E-01  .454E-01
  .611E-01  .652E-01  .583E-01  .547E-01  .544E-01  .520E-01  .531E-01  .427E-01
  .438E-01  .393E-01  .342E-01  .350E-01  .363E-01  .328E-01  .278E-01  .248E-01
  .248E-01  .253E-01  .244E-01  .208E-01  .220E-01  .216E-01  .203E-01  .190E-01
  .180E-01  .173E-01  .168E-01  .165E-01  .160E-01  .158E-01  .000E+00  .000E+00
  .000E+00  .000E+00  .000E+00  .000E+00  .000E+00  .000E+00  .000E+00  .000E+00
  .000E+00  .000E+00  .000E+00  .000E+00  .000E+00  .000E+00  .000E+00  .000E+00
  .000E+00  .000E+00  .000E+00  .000E+00
  .153E+00  .149E+00  .133E+00  .136E+00  .145E+00  .129E+00  .139E+00  .182E+00
  .178E+00  .181E+00  .240E+00  .336E+00  .368E+00  .356E+00  .390E+00  .439E+00
  .577E+00  .734E+00  .675E+00  .488E+00  .377E+00  .325E+00  .326E+00  .350E+00
  .342E+00  .305E+00  .276E+00  .277E+00  .263E+00  .308E+00  .362E+00  .344E+00
  .295E+00  .252E+00  .228E+00  .275E+00  .285E+00  .264E+00  .234E+00  .268E+00
  .301E+00  .240E+00  .222E+00  .259E+00  .244E+00  .274E+00  .285E+00  .360E+00
  .431E+00  .451E+00  .380E+00  .367E+00  .317E+00  .290E+00  .274E+00  .244E+00
  .205E+00  .194E+00  .183E+00  .175E+00  .167E+00  .154E+00  .145E+00  .136E+00
  .136E+00  .135E+00  .135E+00  .135E+00  .135E+00  .134E+00  .134E+00  .134E+00
  .134E+00  .134E+00  .134E+00  .134E+00  .134E+00  .134E+00  .000E+00  .000E+00
  .000E+00  .000E+00  .000E+00  .000E+00  .000E+00  .000E+00  .000E+00  .000E+00
  .000E+00  .000E+00  .000E+00  .000E+00  .000E+00  .000E+00  .000E+00  .000E+00
  .000E+00  .000E+00  .000E+00  .000E+00
  .755E-01  .695E-01  .610E-01  .567E-01  .565E-01  .463E-01  .436E-01  .568E-01
  .470E-01  .483E-01  .595E-01  .764E-01  .738E-01  .658E-01  .666E-01  .707E-01
  .941E-01  .100E+00  .828E-01  .512E-01  .353E-01  .283E-01  .252E-01  .213E-01
  .219E-01  .218E-01  .191E-01  .155E-01  .155E-01  .188E-01  .181E-01  .176E-01
  .122E-01  .945E-02  .833E-02  .874E-02  .788E-02  .684E-02  .680E-02  .756E-02
  .828E-02  .669E-02  .574E-02  .624E-02  .557E-02  .571E-02  .633E-02  .645E-02
  .775E-02  .742E-02  .599E-02  .465E-02  .389E-02  .317E-02  .279E-02  .196E-02
  .176E-02  .140E-02  .110E-02  .101E-02  .943E-03  .708E-03  .509E-03  .388E-03
  .335E-03  .299E-03  .253E-03  .196E-03  .181E-03  .159E-03  .135E-03  .115E-03
  .998E-04  .886E-04  .808E-04  .761E-04  .652E-04  .565E-04  .000E+00  .000E+00
  .000E+00  .000E+00  .000E+00  .000E+00  .000E+00  .000E+00  .000E+00  .000E+00
  .000E+00  .000E+00  .000E+00  .000E+00  .000E+00  .000E+00  .000E+00  .000E+00
  .000E+00  .000E+00  .000E+00  .000E+00
  .184E+00  .178E+00  .164E+00  .160E+00  .167E+00  .141E+00  .146E+00  .206E+00
  .186E+00  .208E+00  .274E+00  .376E+00  .384E+00  .366E+00  .383E+00  .433E+00
  .638E+00  .735E+00  .655E+00  .440E+00  .323E+00  .274E+00  .259E+00  .234E+00
  .255E+00  .266E+00  .255E+00  .227E+00  .246E+00  .322E+00  .332E+00  .343E+00
  .253E+00  .208E+00  .193E+00  .214E+00  .202E+00  .184E+00  .191E+00  .221E+00
  .253E+00  .224E+00  .209E+00  .248E+00  .239E+00  .262E+00  .310E+00  .336E+00
  .427E+00  .431E+00  .366E+00  .313E+00  .285E+00  .251E+00  .238E+00  .179E+00
  .172E+00  .145E+00  .119E+00  .116E+00  .114E+00  .938E-01  .729E-01  .599E-01
  .556E-01  .529E-01  .479E-01  .383E-01  .383E-01  .357E-01  .319E-01  .284E-01
  .257E-01  .236E-01  .220E-01  .207E-01  .183E-01  .165E-01  .000E+00  .000E+00
  .000E+00  .000E+00  .000E+00  .000E+00  .000E+00  .000E+00  .000E+00  .000E+00
  .000E+00  .000E+00  .000E+00  .000E+00  .000E+00  .000E+00  .000E+00  .000E+00
  .000E+00  .000E+00  .000E+00  .000E+00
  .280E+02  .278E+02  .278E+02  .280E+02  .280E+02  .280E+02  .280E+02  .280E+02
  .288E+02  .280E+02  .280E+02  .281E+02  .281E+02  .281E+02  .281E+02  .281E+02
  .278E+02  .278E+02  .279E+02  .278E+02  .281E+02  .280E+02  .280E+02  .280E+02
  .280E+02  .278E+02  .278E+02  .348E+02  .348E+02  .335E+02  .335E+02  .347E+02
  .347E+02  .346E+02  .338E+02  .338E+02  .338E+02  .336E+02  .356E+02  .354E+02
  .354E+02  .337E+02  .337E+02  .371E+02  .423E+02  .423E+02  .423E+02  .442E+02
  .443E+02  .439E+02  .435E+02  .436E+02  .432E+02  .427E+02  .422E+02  .422E+02
  .510E+02  .480E+02  .417E+02  .417E+02  .417E+02  .417E+02  .417E+02  .417E+02
  .417E+02  .417E+02  .451E+02  .412E+02  .412E+02  .413E+02  .413E+02  .413E+02
  .413E+02  .413E+02  .413E+02  .413E+02  .413E+02  .413E+02  .000E+00  .000E+00
  .000E+00  .000E+00  .000E+00  .000E+00  .000E+00  .000E+00  .000E+00  .000E+00
  .000E+00  .000E+00  .000E+00  .000E+00  .000E+00  .000E+00  .000E+00  .000E+00
  .000E+00  .000E+00  .000E+00  .000E+00
  .278E+02  .278E+02  .278E+02  .281E+02  .281E+02  .280E+02  .280E+02  .281E+02
  .283E+02  .281E+02  .281E+02  .280E+02  .280E+02  .280E+02  .280E+02  .280E+02
  .280E+02  .279E+02  .278E+02  .278E+02  .276E+02  .276E+02  .280E+02  .280E+02
  .280E+02  .278E+02  .278E+02  .278E+02  .347E+02  .334E+02  .335E+02  .356E+02
  .328E+02  .345E+02  .337E+02  .337E+02  .337E+02  .337E+02  .337E+02  .355E+02
  .355E+02  .353E+02  .381E+02  .379E+02  .377E+02  .336E+02  .421E+02  .444E+02
  .445E+02  .441E+02  .433E+02  .433E+02  .429E+02  .429E+02  .425E+02  .419E+02
  .419E+02  .419E+02  .419E+02  .419E+02  .420E+02  .415E+02  .415E+02  .277E+02
  .277E+02  .277E+02  .277E+02  .277E+02  .277E+02  .277E+02  .277E+02  .277E+02
  .277E+02  .277E+02  .277E+02  .277E+02  .277E+02  .277E+02  .000E+00  .000E+00
  .000E+00  .000E+00  .000E+00  .000E+00  .000E+00  .000E+00  .000E+00  .000E+00
  .000E+00  .000E+00  .000E+00  .000E+00  .000E+00  .000E+00  .000E+00  .000E+00
  .000E+00  .000E+00  .000E+00  .000E+00
  .280E+02  .278E+02  .278E+02  .280E+02  .280E+02  .280E+02  .280E+02  .280E+02
  .288E+02  .280E+02  .280E+02  .281E+02  .281E+02  .281E+02  .281E+02  .281E+02
  .278E+02  .278E+02  .279E+02  .278E+02  .281E+02  .280E+02  .280E+02  .280E+02
  .280E+02  .278E+02  .278E+02  .348E+02  .348E+02  .335E+02  .335E+02  .347E+02
  .347E+02  .346E+02  .338E+02  .338E+02  .338E+02  .336E+02  .356E+02  .354E+02
  .354E+02  .337E+02  .337E+02  .371E+02  .422E+02  .423E+02  .423E+02  .442E+02
  .442E+02  .439E+02  .435E+02  .435E+02  .431E+02  .426E+02  .421E+02  .422E+02
  .510E+02  .480E+02  .416E+02  .417E+02  .417E+02  .417E+02  .417E+02  .417E+02
  .417E+02  .417E+02  .417E+02  .417E+02  .411E+02  .411E+02  .411E+02  .411E+02
  .411E+02  .411E+02  .416E+02  .416E+02  .416E+02  .416E+02  .000E+00  .000E+00
  .000E+00  .000E+00  .000E+00  .000E+00  .000E+00  .000E+00  .000E+00  .000E+00
  .000E+00  .000E+00  .000E+00  .000E+00  .000E+00  .000E+00  .000E+00  .000E+00
  .000E+00  .000E+00  .000E+00  .000E+00
/&   ----------  End of spectral data for channel  1  ----------
Response and Fourier amplitude spectra (78 periods,  .04 -  6.0 sec)   for      
Corrected accelerogram   24765-B2334-20263.         Chan  2: 360 Deg     from   
Uncorrected Accelerogram Data             Processed: 09/18/20, CGS  ce24765s    
Rcrd of Fri Sep 18, 2020 23:38:27.0 PDT               (Avol1 v2.0, 4/18 CSMIP)  
CSMIP Preliminary Processing            (Origin:  To be determined)             
24765-B2334-20263.                   Start time:  9/19/20, 06:38:27.0 UTC (GPS) 
Station No. 24765   34.220N, 118.430W    Basalt  s/n 2334  (3 Chns of  4 at Sta)
Panorama City - Roscoe & Woodman          CGS   Data: Acceleration              
Chan  2: 360 Deg                                                                
Rcrd of Fri Sep 18, 2020 23:38:27.0 PDT    Fri Sep 18, 2020 23:38:27.0 PDT      
Hypocenter:  To be determined.               ML:  To be determined.             
Instr Period =  .0049 sec,  Damping =  .700,  Sensitivity = 1.25 v/g            
                        Record Length = 61.000 sec.                             
                                     Uncor Max  =   .017 g, at   33.170 sec.    
RMS accel of (uncor) record  =        .   Chn. metadata effective date: 08/10/15
Accelerogram bandpass filtered with 3 dB pts at   .30 and 40.00 cyc/sec         
                 instrument- and base-line correcte                             
                                                                                
                                                                                
                                                                                
                                                                                
                                                                                
Rcrd of Fri Sep 18, 2020 23:38:27.0 PDT    Fri Sep 18, 2020 23:38:27.0 PDT      
                                                                                
24765-B2334-20263.        Panorama City - Roscoe & Woodman    Chan  2: 360 Deg  
                                                                                
24765-B2334-20263.        Panorama City - Roscoe & Woodman    Chan  2: 360 Deg  
                                                                                
Units for spectra are inches and sec, except Sa is in fraction of g.            
                                                                                
    2  100    2    3    4  200    1    3    1   24   31 2334    024765   21    0
    6   38   27    0  263    9   19 2020   10    3  36012200   39   32   74  360
12200    1  100    3 2334    1  119  610    2 -999 -999 -999 -999 -999 -999 -999
 -999 -999    3 -99912200    1  202    0   24   20 -999 -999    3    1 -99912200
    312200    4   78    1    3    5    0    0 -999    0    0    1    3    1    2
    2    2    4    0   32   67    0    5 -999    0    0    1    0    0    0  222
    1    0    0    0
      .005      .700    61.000      .001     1.000  1249.800      .017    33.170
   206.000      .596      .477  -999.000     5.000  -999.000     4.000  -999.000
     5.000    11.145     5.000  -999.000    30.000    30.000  -999.000     -.001
     -.004     -.003     2.000    15.000    34.220  -118.430      .112      .323
     2.883     -.031      .025   241.000    31.000    31.900    13.400    88.700
     1.000    11.003    -8.000  -999.000  -999.000  -999.000  -999.000  -999.000
     6.900     2.000     6.800   980.665      .005    61.000    32.786      .000
  -999.000    40.000  -999.000    61.000      .005      .300  -999.000  -999.000
    33.165    16.753    33.235      .957    33.150     -.074      .000      .300
    40.000      .005      .005      .000      .005      .020  -999.000  -999.000
      .048      .100      .043      .031      .006      .000  -999.000  -999.000
  -999.000  -999.000  -999.000  -999.000  -999.000  -999.000  -999.000  -999.000
  -999.000  -999.000  -999.000  -999.000
      .050
      .040      .042      .044      .046      .048      .050      .055      .060
      .065      .070      .075      .080      .085      .090      .095      .100
      .110      .120      .130      .140      .150      .160      .170      .180
      .190      .200      .220      .240      .260      .280      .300      .320
      .340      .360      .380      .400      .420      .440      .460      .480
      .500      .550      .600      .650      .700      .750      .800      .850
      .900      .950     1.000     1.100     1.200     1.300     1.400     1.500
     1.600     1.700     1.800     1.900     2.000     2.200     2.400     2.600
     2.800     3.000     3.200     3.400     3.600     3.800     4.000     4.200
     4.400     4.600     4.800     5.000     5.500     6.000      .000      .000
      .000      .000      .000      .000      .000      .000      .000      .000
      .000      .000      .000      .000      .000      .000      .000      .000
      .000      .000      .000      .000
Fourier amplitude spectra in in/sec.
  .000E+00  .000E+00  .000E+00  .000E+00  .000E+00  .000E+00  .000E+00  .000E+00
  .000E+00  .000E+00  .000E+00  .000E+00  .000E+00  .000E+00  .000E+00  .000E+00
  .000E+00  .000E+00  .000E+00  .000E+00  .000E+00  .000E+00  .000E+00  .000E+00
  .000E+00  .000E+00  .000E+00  .000E+00  .000E+00  .000E+00  .000E+00  .000E+00
  .000E+00  .000E+00  .000E+00  .000E+00  .000E+00  .000E+00  .000E+00  .000E+00
  .000E+00  .000E+00  .000E+00  .000E+00  .000E+00  .000E+00  .000E+00  .000E+00
  .000E+00  .000E+00  .000E+00  .000E+00  .000E+00  .000E+00  .000E+00  .000E+00
  .000E+00  .000E+00  .000E+00  .000E+00  .000E+00  .000E+00  .000E+00  .000E+00
  .000E+00  .000E+00  .000E+00  .000E+00  .000E+00  .000E+00  .000E+00  .000E+00
  .000E+00  .000E+00  .000E+00  .000E+00  .000E+00  .000E+00  .000E+00  .000E+00
  .000E+00  .000E+00  .000E+00  .000E+00  .000E+00  .000E+00  .000E+00  .000E+00
  .000E+00  .000E+00  .000E+00  .000E+00  .000E+00  .000E+00  .000E+00  .000E+00
  .000E+00  .000E+00  .000E+00  .000E+00
Damping =  .05. Data of Sd,Sv,Sa,Pssv,ttSd,ttSv,ttSa :
  .294E-03  .343E-03  .401E-03  .432E-03  .512E-03  .617E-03  .848E-03  .102E-02
  .106E-02  .132E-02  .172E-02  .225E-02  .249E-02  .305E-02  .381E-02  .471E-02
  .549E-02  .518E-02  .470E-02  .625E-02  .643E-02  .691E-02  .101E-01  .134E-01
  .159E-01  .166E-01  .189E-01  .212E-01  .217E-01  .236E-01  .278E-01  .315E-01
  .340E-01  .347E-01  .355E-01  .357E-01  .361E-01  .373E-01  .386E-01  .400E-01
