Response and Fourier amplitude spectra (91 periods,  .04 - 15.0 sec)   for      
Corrected accelerogram   24109-L2564-20262.06       Chan  1: 360 Deg     from   
Uncorrected Accelerogram Data             Processed: 09/18/20, CGS  109bt006    
Rcrd of Fri Sep 18, 2020 23:38:20.0 PDT               (Avol1 v2.0, 4/18 CSMIP)  
CSMIP Preliminary Processing            (Origin:  To be determined)             
24109-L2564-20262.06                 Start time:  9/19/20, 06:38:20.0 UTC (GPS) 
Station No. 24109   34.108N, 118.154W    Etna    s/n 2564  (3 Chns of  3 at Sta)
South Pasadena - Fremont & Oak            CGS   Data: Acceleration              
Chan  1: 360 Deg                                                                
Rcrd of Fri Sep 18, 2020 23:38:20.0 PDT    Fri Sep 18, 2020 23:38:20.0 PDT      
Hypocenter:  To be determined.               ML:  To be determined.             
Instr Period =  .0103 sec,  Damping =  .670,  Sensitivity =  .63 v/g            
                        Record Length = 60.000 sec.                             
                                     Uncor Max  =   .131 g, at   32.850 sec.    
RMS accel of (uncor) record  =        .   Chn. metadata effective date: 08/10/05
Accelerogram bandpass filtered with 3 dB pts at   .30 and 23.00 cyc/sec         
                 instrument- and base-line correcte                             
                                                                                
                                                                                
                                                                                
                                                                                
                                                                                
Rcrd of Fri Sep 18, 2020 23:38:20.0 PDT    Fri Sep 18, 2020 23:38:20.0 PDT      
                                                                                
24109-L2564-20262.06      South Pasadena - Fremont & Oak    Chan  1: 360 Deg    
                                                                                
24109-L2564-20262.06      South Pasadena - Fremont & Oak    Chan  1: 360 Deg    
                                                                                
Units for spectra are inches and sec, except Sa is in fraction of g.            
                                                                                
    1  100    1    3    3  200    1    3    1   24   12 2564    024109   11    0
    6   38   20    0  263    9   19 2020   10    3  36013600   39   30   74  360
13600    1  100    3 2564    1    6  680    2 -999 -999 -999 -999 -999 -999 -999
 -999 -999    3 -99912000    1  202    0   18    4 -999 -999    3    1 -99912000
    312000    4   91    1    3    5    0    0 -999    0    0    1    3    1    2
    2    2    4    0   32   67    0    5 -999    0    0    1    0    0    0  222
    0    0    2    0
      .010      .670    68.000      .006     1.000   627.000      .131    32.850
    97.500      .298      .475  -999.000     5.000  -999.000     4.000  -999.000
     2.500    -2.245     2.500  -999.000    30.000    30.000  -999.000     -.004
      .009      .013     2.000    15.000    34.108  -118.154      .074      .137
     1.839      .000      .027   186.000    30.700    37.100    13.200    88.160
     1.000    11.003    -8.000  -999.000  -999.000  -999.000  -999.000  -999.000
     6.900     2.000     6.800   980.665      .005    60.000    15.518     -.001
  -999.000    23.000  -999.000    60.000      .005      .303  -999.000  -999.000
    32.845   130.180    32.900     3.842    32.845     -.209      .000      .303
    23.000      .005      .005      .000      .695      .031  -999.000  -999.000
      .394      .140      .280      .193      .010      .001  -999.000  -999.000
  -999.000  -999.000  -999.000  -999.000  -999.000  -999.000  -999.000  -999.000
  -999.000  -999.000  -999.000  -999.000
      .050
      .040      .042      .044      .046      .048      .050      .055      .060
      .065      .070      .075      .080      .085      .090      .095      .100
      .110      .120      .130      .140      .150      .160      .170      .180
      .190      .200      .220      .240      .260      .280      .300      .320
      .340      .360      .380      .400      .420      .440      .460      .480
      .500      .550      .600      .650      .700      .750      .800      .850
      .900      .950     1.000     1.100     1.200     1.300     1.400     1.500
     1.600     1.700     1.800     1.900     2.000     2.200     2.400     2.600
     2.800     3.000     3.200     3.400     3.600     3.800     4.000     4.200
     4.400     4.600     4.800     5.000     5.500     6.000     6.500     7.000
     7.500     8.000     8.500     9.000     9.500    10.000    11.000    12.000
    13.000    14.000    15.000      .000      .000      .000      .000      .000
      .000      .000      .000      .000
Fourier amplitude spectra in in/sec.
  .000E+00  .000E+00  .000E+00  .000E+00  .000E+00  .000E+00  .000E+00  .000E+00
  .000E+00  .000E+00  .000E+00  .000E+00  .000E+00  .000E+00  .000E+00  .000E+00
  .000E+00  .000E+00  .000E+00  .000E+00  .000E+00  .000E+00  .000E+00  .000E+00
  .000E+00  .000E+00  .000E+00  .000E+00  .000E+00  .000E+00  .000E+00  .000E+00
  .000E+00  .000E+00  .000E+00  .000E+00  .000E+00  .000E+00  .000E+00  .000E+00
  .000E+00  .000E+00  .000E+00  .000E+00  .000E+00  .000E+00  .000E+00  .000E+00
  .000E+00  .000E+00  .000E+00  .000E+00  .000E+00  .000E+00  .000E+00  .000E+00
  .000E+00  .000E+00  .000E+00  .000E+00  .000E+00  .000E+00  .000E+00  .000E+00
  .000E+00  .000E+00  .000E+00  .000E+00  .000E+00  .000E+00  .000E+00  .000E+00
  .000E+00  .000E+00  .000E+00  .000E+00  .000E+00  .000E+00  .000E+00  .000E+00
  .000E+00  .000E+00  .000E+00  .000E+00  .000E+00  .000E+00  .000E+00  .000E+00
  .000E+00  .000E+00  .000E+00  .000E+00  .000E+00  .000E+00  .000E+00  .000E+00
  .000E+00  .000E+00  .000E+00  .000E+00
Damping =  .05. Data of Sd,Sv,Sa,Pssv,ttSd,ttSv,ttSa :
  .237E-02  .268E-02  .306E-02  .346E-02  .387E-02  .431E-02  .558E-02  .727E-02
  .911E-02  .975E-02  .113E-01  .134E-01  .162E-01  .207E-01  .271E-01  .308E-01
  .385E-01  .467E-01  .607E-01  .753E-01  .859E-01  .941E-01  .102E+00  .106E+00
  .107E+00  .109E+00  .120E+00  .131E+00  .148E+00  .161E+00  .167E+00  .176E+00
  .186E+00  .185E+00  .185E+00  .179E+00  .163E+00  .151E+00  .146E+00  .145E+00
  .146E+00  .144E+00  .137E+00  .127E+00  .118E+00  .112E+00  .108E+00  .101E+00
  .104E+00  .105E+00  .101E+00  .864E-01  .875E-01  .899E-01  .911E-01  .940E-01
  .958E-01  .967E-01  .976E-01  .977E-01  .984E-01  .992E-01  .992E-01  .999E-01
  .991E-01  .999E-01  .991E-01  .978E-01  .968E-01  .959E-01  .944E-01  .931E-01
  .920E-01  .909E-01  .899E-01  .892E-01  .874E-01  .862E-01  .858E-01  .852E-01
  .848E-01  .845E-01  .843E-01  .841E-01  .838E-01  .833E-01  .831E-01  .832E-01
  .831E-01  .823E-01  .825E-01  .000E+00  .000E+00  .000E+00  .000E+00  .000E+00
  .000E+00  .000E+00  .000E+00  .000E+00
  .118E+00  .137E+00  .154E+00  .172E+00  .206E+00  .224E+00  .371E+00  .508E+00
  .549E+00  .664E+00  .646E+00  .762E+00  .862E+00  .126E+01  .168E+01  .178E+01
  .186E+01  .218E+01  .255E+01  .285E+01  .327E+01  .348E+01  .367E+01  .366E+01
  .355E+01  .339E+01  .339E+01  .316E+01  .311E+01  .340E+01  .363E+01  .376E+01
  .369E+01  .344E+01  .332E+01  .326E+01  .313E+01  .292E+01  .271E+01  .255E+01
  .240E+01  .227E+01  .226E+01  .221E+01  .214E+01  .209E+01  .207E+01  .204E+01
  .201E+01  .197E+01  .192E+01  .186E+01  .182E+01  .179E+01  .176E+01  .173E+01
  .170E+01  .168E+01  .166E+01  .164E+01  .163E+01  .160E+01  .159E+01  .157E+01
  .156E+01  .155E+01  .154E+01  .154E+01  .153E+01  .153E+01  .152E+01  .152E+01
  .152E+01  .152E+01  .152E+01  .152E+01  .151E+01  .151E+01  .151E+01  .151E+01
  .151E+01  .151E+01  .151E+01  .151E+01  .151E+01  .151E+01  .151E+01  .151E+01
  .151E+01  .151E+01  .151E+01  .000E+00  .000E+00  .000E+00  .000E+00  .000E+00
  .000E+00  .000E+00  .000E+00  .000E+00
  .151E+00  .155E+00  .162E+00  .167E+00  .172E+00  .177E+00  .188E+00  .206E+00
  .220E+00  .205E+00  .206E+00  .216E+00  .232E+00  .261E+00  .306E+00  .316E+00
  .324E+00  .331E+00  .367E+00  .394E+00  .392E+00  .376E+00  .365E+00  .336E+00
  .304E+00  .279E+00  .255E+00  .234E+00  .225E+00  .212E+00  .190E+00  .177E+00
  .165E+00  .147E+00  .132E+00  .115E+00  .954E-01  .803E-01  .712E-01  .653E-01
  .605E-01  .496E-01  .397E-01  .315E-01  .254E-01  .211E-01  .179E-01  .149E-01
  .133E-01  .121E-01  .105E-01  .750E-02  .658E-02  .578E-02  .521E-02  .472E-02
  .427E-02  .386E-02  .351E-02  .319E-02  .293E-02  .249E-02  .214E-02  .188E-02
  .164E-02  .147E-02  .132E-02  .118E-02  .107E-02  .973E-03  .887E-03  .814E-03
  .751E-03  .696E-03  .647E-03  .605E-03  .518E-03  .452E-03  .402E-03  .361E-03
  .327E-03  .299E-03  .275E-03  .254E-03  .240E-03  .229E-03  .209E-03  .193E-03
  .179E-03  .166E-03  .156E-03  .000E+00  .000E+00  .000E+00  .000E+00  .000E+00
  .000E+00  .000E+00  .000E+00  .000E+00
  .373E+00  .401E+00  .437E+00  .473E+00  .507E+00  .541E+00  .638E+00  .761E+00
  .881E+00  .875E+00  .945E+00  .106E+01  .120E+01  .144E+01  .180E+01  .193E+01
  .220E+01  .244E+01  .293E+01  .338E+01  .360E+01  .370E+01  .379E+01  .370E+01
  .354E+01  .341E+01  .344E+01  .344E+01  .357E+01  .362E+01  .349E+01  .346E+01
  .344E+01  .324E+01  .305E+01  .282E+01  .244E+01  .215E+01  .199E+01  .190E+01
  .183E+01  .165E+01  .144E+01  .123E+01  .106E+01  .942E+00  .845E+00  .747E+00
  .727E+00  .694E+00  .634E+00  .494E+00  .458E+00  .434E+00  .409E+00  .394E+00
  .376E+00  .357E+00  .341E+00  .323E+00  .309E+00  .283E+00  .260E+00  .241E+00
  .222E+00  .209E+00  .195E+00  .181E+00  .169E+00  .159E+00  .148E+00  .139E+00
  .131E+00  .124E+00  .118E+00  .112E+00  .999E-01  .903E-01  .829E-01  .765E-01
  .710E-01  .664E-01  .623E-01  .587E-01  .554E-01  .524E-01  .474E-01  .435E-01
  .402E-01  .369E-01  .346E-01  .000E+00  .000E+00  .000E+00  .000E+00  .000E+00
  .000E+00  .000E+00  .000E+00  .000E+00
  .328E+02  .328E+02  .328E+02  .328E+02  .328E+02  .328E+02  .328E+02  .328E+02
  .328E+02  .328E+02  .328E+02  .328E+02  .328E+02  .333E+02  .333E+02  .335E+02
  .329E+02  .329E+02  .330E+02  .330E+02  .330E+02  .330E+02  .330E+02  .330E+02
  .330E+02  .331E+02  .331E+02  .331E+02  .331E+02  .332E+02  .332E+02  .334E+02
  .334E+02  .334E+02  .333E+02  .333E+02  .333E+02  .331E+02  .329E+02  .329E+02
  .329E+02  .330E+02  .330E+02  .330E+02  .330E+02  .330E+02  .330E+02  .330E+02
  .336E+02  .336E+02  .336E+02  .337E+02  .333E+02  .333E+02  .333E+02  .328E+02
  .328E+02  .328E+02  .328E+02  .328E+02  .328E+02  .328E+02  .328E+02  .328E+02
  .328E+02  .328E+02  .328E+02  .328E+02  .328E+02  .328E+02  .328E+02  .328E+02
  .328E+02  .328E+02  .328E+02  .328E+02  .328E+02  .328E+02  .328E+02  .328E+02
  .328E+02  .328E+02  .328E+02  .328E+02  .328E+02  .328E+02  .328E+02  .328E+02
  .328E+02  .328E+02  .328E+02  .000E+00  .000E+00  .000E+00  .000E+00  .000E+00
  .000E+00  .000E+00  .000E+00  .000E+00
  .328E+02  .328E+02  .328E+02  .332E+02  .332E+02  .332E+02  .333E+02  .333E+02
  .332E+02  .332E+02  .330E+02  .330E+02  .332E+02  .333E+02  .333E+02  .335E+02
  .329E+02  .329E+02  .329E+02  .330E+02  .330E+02  .330E+02  .330E+02  .330E+02
  .330E+02  .331E+02  .332E+02  .332E+02  .331E+02  .331E+02  .331E+02  .334E+02
  .331E+02  .331E+02  .330E+02  .330E+02  .330E+02  .330E+02  .330E+02  .330E+02
  .330E+02  .329E+02  .329E+02  .329E+02  .329E+02  .329E+02  .329E+02  .329E+02
  .329E+02  .329E+02  .329E+02  .329E+02  .329E+02  .329E+02  .329E+02  .329E+02
  .329E+02  .329E+02  .329E+02  .329E+02  .329E+02  .329E+02  .329E+02  .329E+02
  .329E+02  .329E+02  .329E+02  .329E+02  .329E+02  .329E+02  .329E+02  .329E+02
  .329E+02  .329E+02  .329E+02  .329E+02  .329E+02  .329E+02  .329E+02  .329E+02
  .329E+02  .329E+02  .329E+02  .329E+02  .329E+02  .329E+02  .329E+02  .329E+02
  .329E+02  .329E+02  .329E+02  .000E+00  .000E+00  .000E+00  .000E+00  .000E+00
  .000E+00  .000E+00  .000E+00  .000E+00
  .328E+02  .328E+02  .328E+02  .328E+02  .328E+02  .328E+02  .328E+02  .328E+02
  .328E+02  .328E+02  .328E+02  .328E+02  .328E+02  .333E+02  .333E+02  .335E+02
  .329E+02  .329E+02  .329E+02  .330E+02  .330E+02  .330E+02  .330E+02  .330E+02
  .330E+02  .331E+02  .331E+02  .331E+02  .331E+02  .332E+02  .332E+02  .334E+02
  .334E+02  .334E+02  .333E+02  .333E+02  .333E+02  .331E+02  .329E+02  .329E+02
  .329E+02  .329E+02  .329E+02  .329E+02  .329E+02  .329E+02  .329E+02  .329E+02
  .336E+02  .336E+02  .336E+02  .333E+02  .333E+02  .328E+02  .328E+02  .328E+02
  .328E+02  .328E+02  .328E+02  .328E+02  .328E+02  .328E+02  .328E+02  .328E+02
  .328E+02  .328E+02  .328E+02  .328E+02  .328E+02  .328E+02  .328E+02  .328E+02
  .328E+02  .328E+02  .328E+02  .328E+02  .328E+02  .328E+02  .328E+02  .328E+02
  .328E+02  .328E+02  .328E+02  .328E+02  .329E+02  .329E+02  .329E+02  .329E+02
  .329E+02  .329E+02  .329E+02  .000E+00  .000E+00  .000E+00  .000E+00  .000E+00
  .000E+00  .000E+00  .000E+00  .000E+00
/&   ----------  End of spectral data for channel  1  ----------
Response and Fourier amplitude spectra (91 periods,  .04 - 15.0 sec)   for      
Corrected accelerogram   24109-L2564-20262.06       Chan  2:  Up         from   
Uncorrected Accelerogram Data             Processed: 09/18/20, CGS  109bt006    
Rcrd of Fri Sep 18, 2020 23:38:20.0 PDT               (Avol1 v2.0, 4/18 CSMIP)  
CSMIP Preliminary Processing            (Origin:  To be determined)             
24109-L2564-20262.06                 Start time:  9/19/20, 06:38:20.0 UTC (GPS) 
Station No. 24109   34.108N, 118.154W    Etna    s/n 2564  (3 Chns of  3 at Sta)
South Pasadena - Fremont & Oak            CGS   Data: Acceleration              
Chan  2:  Up                                                                    
Rcrd of Fri Sep 18, 2020 23:38:20.0 PDT    Fri Sep 18, 2020 23:38:20.0 PDT      
Hypocenter:  To be determined.               ML:  To be determined.             
Instr Period =  .0103 sec,  Damping =  .680,  Sensitivity =  .63 v/g            
                        Record Length = 60.000 sec.                             
                                     Uncor Max  =   .090 g, at   30.670 sec.    
RMS accel of (uncor) record  =        .   Chn. metadata effective date: 08/10/05
Accelerogram bandpass filtered with 3 dB pts at   .30 and 23.00 cyc/sec         
                 instrument- and base-line correcte                             
                                                                                
                                                                                
                                                                                
                                                                                
                                                                                
Rcrd of Fri Sep 18, 2020 23:38:20.0 PDT    Fri Sep 18, 2020 23:38:20.0 PDT      
                                                                                
24109-L2564-20262.06      South Pasadena - Fremont & Oak    Chan  2:  Up        
                                                                                
24109-L2564-20262.06      South Pasadena - Fremont & Oak    Chan  2:  Up        
                                                                                
Units for spectra are inches and sec, except Sa is in fraction of g.            
                                                                                
    2  100    2    3    3  200    1    3    1   24   12 2564    024109   11    0
    6   38   20    0  263    9   19 2020   10    3  50013600   39   30   74  360
13600    1  100    3 2564    1    6  680    2 -999 -999 -999 -999 -999 -999 -999
 -999 -999    3 -99912000    1  202    0   18    4 -999 -999    3    1 -99912000
    312000    4   91    1    3    5    0    0 -999    0    0    1    3    1    2
    2    2    4    0   32   67    0    5 -999    0    0    1    0    0    0  222
    0    0    2    0
      .010      .680    68.000      .005     1.000   627.000      .090    30.670
    97.200      .298      .475  -999.000     5.000  -999.000     4.000  -999.000
     2.500    10.074     2.500  -999.000    30.000    30.000  -999.000      .001
      .006      .005     2.000    15.000    34.108  -118.154      .073      .120
     1.648     -.007      .018   186.000    30.700    37.100    13.200    88.160
     1.000    11.003    -8.000  -999.000  -999.000  -999.000  -999.000  -999.000
     6.900     2.000     6.800   980.665      .005    60.000    15.470     -.001
  -999.000    23.000  -999.000    60.000      .005      .303  -999.000  -999.000
    30.665    80.600    33.015    -1.647    33.065     -.071      .000      .303
    23.000      .005      .005      .000     2.400      .023  -999.000  -999.000
      .237      .170      .149      .071      .004      .001  -999.000  -999.000
  -999.000  -999.000  -999.000  -999.000  -999.000  -999.000  -999.000  -999.000
  -999.000  -999.000  -999.000  -999.000
      .050
      .040      .042      .044      .046      .048      .050      .055      .060
      .065      .070      .075      .080      .085      .090      .095      .100
      .110      .120      .130      .140      .150      .160      .170      .180
      .190      .200      .220      .240      .260      .280      .300      .320
      .340      .360      .380      .400      .420      .440      .460      .480
      .500      .550      .600      .650      .700      .750      .800      .850
      .900      .950     1.000     1.100     1.200     1.300     1.400     1.500
     1.600     1.700     1.800     1.900     2.000     2.200     2.400     2.600
     2.800     3.000     3.200     3.400     3.600     3.800     4.000     4.200
     4.400     4.600     4.800     5.000     5.500     6.000     6.500     7.000
     7.500     8.000     8.500     9.000     9.500    10.000    11.000    12.000
    13.000    14.000    15.000      .000      .000      .000      .000      .000
      .000      .000      .000      .000
Fourier amplitude spectra in in/sec.
  .000E+00  .000E+00  .000E+00  .000E+00  .000E+00  .000E+00  .000E+00  .000E+00
  .000E+00  .000E+00  .000E+00  .000E+00  .000E+00  .000E+00  .000E+00  .000E+00
  .000E+00  .000E+00  .000E+00  .000E+00  .000E+00  .000E+00  .000E+00  .000E+00
  .000E+00  .000E+00  .000E+00  .000E+00  .000E+00  .000E+00  .000E+00  .000E+00
  .000E+00  .000E+00  .000E+00  .000E+00  .000E+00  .000E+00  .000E+00  .000E+00
  .000E+00  .000E+00  .000E+00  .000E+00  .000E+00  .000E+00  .000E+00  .000E+00
  .000E+00  .000E+00  .000E+00  .000E+00  .000E+00  .000E+00  .000E+00  .000E+00
  .000E+00  .000E+00  .000E+00  .000E+00  .000E+00  .000E+00  .000E+00  .000E+00
  .000E+00  .000E+00  .000E+00  .000E+00  .000E+00  .000E+00  .000E+00  .000E+00
  .000E+00  .000E+00  .000E+00  .000E+00  .000E+00  .000E+00  .000E+00  .000E+00
  .000E+00  .000E+00  .000E+00  .000E+00  .000E+00  .000E+00  .000E+00  .000E+00
  .000E+00  .000E+00  .000E+00  .000E+00  .000E+00  .000E+00  .000E+00  .000E+00
  .000E+00  .000E+00  .000E+00  .000E+00
Damping =  .05. Data of Sd,Sv,Sa,Pssv,ttSd,ttSv,ttSa :
  .214E-02  .271E-02  .362E-02  .439E-02  .472E-02  .484E-02  .627E-02  .728E-02
  .651E-02  .798E-02  .974E-02  .110E-01  .121E-01  .132E-01  .147E-01  .157E-01
  .178E-01  .253E-01  .304E-01  .337E-01  .356E-01  .448E-01  .667E-01  .715E-01
  .653E-01  .617E-01  .478E-01  .460E-01  .468E-01  .582E-01  .576E-01  .696E-01
  .709E-01  .589E-01  .514E-01  .434E-01  .392E-01  .416E-01  .454E-01  .433E-01
