Response and Fourier amplitude spectra (91 periods,  .04 - 15.0 sec)   for      
Corrected accelerogram   24010-L1794-20262.38       Chan  1: 360 Deg     from   
Uncorrected Accelerogram Data             Processed: 09/18/20, CGS  010bp038    
Rcrd of Fri Sep 18, 2020 23:38:22.0 PDT               (Avol1 v2.0, 4/18 CSMIP)  
CSMIP Preliminary Processing            (Origin:  To be determined)             
24010-L1794-20262.38                 Start time:  9/19/20, 06:38:22.0 UTC (GPS) 
Station No. 24010   34.208N, 118.233W    Etna    s/n 1794  (3 Chns of  3 at Sta)
Glendale - Rosemont & Honolulu            CGS   Data: Acceleration              
Chan  1: 360 Deg                                                                
Rcrd of Fri Sep 18, 2020 23:38:22.0 PDT    Fri Sep 18, 2020 23:38:22.0 PDT      
Hypocenter:  To be determined.               ML:  To be determined.             
Instr Period =  .0099 sec,  Damping =  .670,  Sensitivity =  .63 v/g            
                        Record Length = 60.000 sec.                             
                                     Uncor Max  =  -.034 g, at   33.650 sec.    
RMS accel of (uncor) record  =        .   Chn. metadata effective date: 04/08/03
Accelerogram bandpass filtered with 3 dB pts at   .30 and 23.00 cyc/sec         
                 instrument- and base-line correcte                             
                                                                                
                                                                                
                                                                                
                                                                                
                                                                                
Rcrd of Fri Sep 18, 2020 23:38:22.0 PDT    Fri Sep 18, 2020 23:38:22.0 PDT      
                                                                                
24010-L1794-20262.38      Glendale - Rosemont & Honolulu    Chan  1: 360 Deg    
                                                                                
24010-L1794-20262.38      Glendale - Rosemont & Honolulu    Chan  1: 360 Deg    
                                                                                
Units for spectra are inches and sec, except Sa is in fraction of g.            
                                                                                
    1  100    1    3    3  200    1    3    1   24   12 1794    024010   11    0
    6   38   22    0  263    9   19 2020   10    3  36013600   39   30   74  360
13600    1  100    3 1794    1   38  680    2 -999 -999 -999 -999 -999 -999 -999
 -999 -999    3 -99912000    1  202    0   18    4 -999 -999    3    1 -99912000
    312000    4   91    1    3    5    0    0 -999    0    0    1    3    1    2
    2    2    4    0   32   67    0    5 -999    0    0    1    0    0    0  222
    0    0    0    0
      .010      .670    68.000      .002     1.000   625.000     -.034    33.650
   100.700      .298      .477  -999.000     5.000  -999.000     4.000  -999.000
     2.500     4.640     2.500  -999.000    30.000    30.000  -999.000      .000
      .001      .001     2.000    15.000    34.208  -118.233      .015      .220
    14.876     -.015      .016   379.000    30.400    37.400    13.400    82.760
     1.000    11.003    -8.000  -999.000  -999.000  -999.000  -999.000  -999.000
     6.900     2.000     6.800   980.665      .005    60.000    16.027      .000
  -999.000    23.000  -999.000    60.000      .005      .303  -999.000  -999.000
    33.650   -32.367    33.440     1.128    33.645      .096      .000      .303
    23.000      .005      .005      .000      .005      .018  -999.000  -999.000
      .111      .120      .049      .029      .009      .001  -999.000  -999.000
  -999.000  -999.000  -999.000  -999.000  -999.000  -999.000  -999.000  -999.000
  -999.000  -999.000  -999.000  -999.000
      .050
      .040      .042      .044      .046      .048      .050      .055      .060
      .065      .070      .075      .080      .085      .090      .095      .100
      .110      .120      .130      .140      .150      .160      .170      .180
      .190      .200      .220      .240      .260      .280      .300      .320
      .340      .360      .380      .400      .420      .440      .460      .480
      .500      .550      .600      .650      .700      .750      .800      .850
      .900      .950     1.000     1.100     1.200     1.300     1.400     1.500
     1.600     1.700     1.800     1.900     2.000     2.200     2.400     2.600
     2.800     3.000     3.200     3.400     3.600     3.800     4.000     4.200
     4.400     4.600     4.800     5.000     5.500     6.000     6.500     7.000
     7.500     8.000     8.500     9.000     9.500    10.000    11.000    12.000
    13.000    14.000    15.000      .000      .000      .000      .000      .000
      .000      .000      .000      .000
Fourier amplitude spectra in in/sec.
  .000E+00  .000E+00  .000E+00  .000E+00  .000E+00  .000E+00  .000E+00  .000E+00
  .000E+00  .000E+00  .000E+00  .000E+00  .000E+00  .000E+00  .000E+00  .000E+00
  .000E+00  .000E+00  .000E+00  .000E+00  .000E+00  .000E+00  .000E+00  .000E+00
  .000E+00  .000E+00  .000E+00  .000E+00  .000E+00  .000E+00  .000E+00  .000E+00
  .000E+00  .000E+00  .000E+00  .000E+00  .000E+00  .000E+00  .000E+00  .000E+00
  .000E+00  .000E+00  .000E+00  .000E+00  .000E+00  .000E+00  .000E+00  .000E+00
  .000E+00  .000E+00  .000E+00  .000E+00  .000E+00  .000E+00  .000E+00  .000E+00
  .000E+00  .000E+00  .000E+00  .000E+00  .000E+00  .000E+00  .000E+00  .000E+00
  .000E+00  .000E+00  .000E+00  .000E+00  .000E+00  .000E+00  .000E+00  .000E+00
  .000E+00  .000E+00  .000E+00  .000E+00  .000E+00  .000E+00  .000E+00  .000E+00
  .000E+00  .000E+00  .000E+00  .000E+00  .000E+00  .000E+00  .000E+00  .000E+00
  .000E+00  .000E+00  .000E+00  .000E+00  .000E+00  .000E+00  .000E+00  .000E+00
  .000E+00  .000E+00  .000E+00  .000E+00
Damping =  .05. Data of Sd,Sv,Sa,Pssv,ttSd,ttSv,ttSa :
  .801E-03  .961E-03  .116E-02  .143E-02  .162E-02  .196E-02  .243E-02  .321E-02
  .391E-02  .355E-02  .337E-02  .376E-02  .462E-02  .623E-02  .695E-02  .854E-02
  .107E-01  .154E-01  .129E-01  .120E-01  .177E-01  .212E-01  .226E-01  .223E-01
  .195E-01  .207E-01  .180E-01  .188E-01  .203E-01  .229E-01  .264E-01  .275E-01
  .291E-01  .289E-01  .314E-01  .315E-01  .344E-01  .460E-01  .558E-01  .525E-01
  .601E-01  .748E-01  .873E-01  .971E-01  .104E+00  .106E+00  .107E+00  .107E+00
  .103E+00  .970E-01  .905E-01  .845E-01  .833E-01  .805E-01  .774E-01  .749E-01
  .724E-01  .693E-01  .658E-01  .625E-01  .596E-01  .550E-01  .523E-01  .494E-01
  .474E-01  .456E-01  .437E-01  .422E-01  .414E-01  .410E-01  .406E-01  .401E-01
  .397E-01  .393E-01  .389E-01  .386E-01  .387E-01  .385E-01  .384E-01  .384E-01
  .383E-01  .382E-01  .382E-01  .382E-01  .382E-01  .381E-01  .381E-01  .381E-01
  .381E-01  .379E-01  .380E-01  .000E+00  .000E+00  .000E+00  .000E+00  .000E+00
  .000E+00  .000E+00  .000E+00  .000E+00
  .638E-01  .756E-01  .954E-01  .128E+00  .153E+00  .178E+00  .231E+00  .287E+00
  .322E+00  .248E+00  .225E+00  .234E+00  .291E+00  .396E+00  .406E+00  .467E+00
  .567E+00  .760E+00  .613E+00  .531E+00  .719E+00  .821E+00  .841E+00  .757E+00
  .619E+00  .681E+00  .557E+00  .524E+00  .543E+00  .553E+00  .715E+00  .772E+00
  .737E+00  .661E+00  .616E+00  .596E+00  .624E+00  .725E+00  .719E+00  .702E+00
  .689E+00  .870E+00  .965E+00  .106E+01  .102E+01  .996E+00  .972E+00  .973E+00
  .900E+00  .838E+00  .782E+00  .710E+00  .658E+00  .630E+00  .611E+00  .597E+00
  .586E+00  .575E+00  .563E+00  .551E+00  .541E+00  .522E+00  .510E+00  .501E+00
  .492E+00  .486E+00  .481E+00  .475E+00  .471E+00  .468E+00  .465E+00  .463E+00
  .461E+00  .460E+00  .458E+00  .456E+00  .454E+00  .452E+00  .451E+00  .450E+00
  .449E+00  .448E+00  .448E+00  .447E+00  .447E+00  .447E+00  .446E+00  .446E+00
  .445E+00  .445E+00  .445E+00  .000E+00  .000E+00  .000E+00  .000E+00  .000E+00
  .000E+00  .000E+00  .000E+00  .000E+00
  .514E-01  .556E-01  .616E-01  .687E-01  .725E-01  .798E-01  .827E-01  .908E-01
  .963E-01  .737E-01  .622E-01  .596E-01  .658E-01  .800E-01  .790E-01  .876E-01
  .903E-01  .111E+00  .788E-01  .627E-01  .810E-01  .850E-01  .803E-01  .706E-01
  .555E-01  .532E-01  .383E-01  .336E-01  .309E-01  .301E-01  .303E-01  .276E-01
  .259E-01  .230E-01  .223E-01  .203E-01  .201E-01  .244E-01  .271E-01  .234E-01
  .248E-01  .255E-01  .249E-01  .236E-01  .220E-01  .194E-01  .173E-01  .153E-01
  .131E-01  .111E-01  .936E-02  .724E-02  .601E-02  .491E-02  .409E-02  .347E-02
  .297E-02  .253E-02  .216E-02  .185E-02  .160E-02  .124E-02  .999E-03  .813E-03
  .679E-03  .576E-03  .491E-03  .424E-03  .377E-03  .339E-03  .308E-03  .282E-03
  .260E-03  .241E-03  .224E-03  .208E-03  .175E-03  .154E-03  .137E-03  .124E-03
  .112E-03  .103E-03  .948E-04  .880E-04  .821E-04  .768E-04  .681E-04  .611E-04
  .553E-04  .506E-04  .466E-04  .000E+00  .000E+00  .000E+00  .000E+00  .000E+00
  .000E+00  .000E+00  .000E+00  .000E+00
  .126E+00  .144E+00  .166E+00  .195E+00  .213E+00  .247E+00  .278E+00  .336E+00
  .378E+00  .318E+00  .283E+00  .295E+00  .341E+00  .435E+00  .460E+00  .536E+00
  .611E+00  .808E+00  .626E+00  .538E+00  .741E+00  .833E+00  .835E+00  .777E+00
  .644E+00  .651E+00  .514E+00  .492E+00  .490E+00  .514E+00  .553E+00  .540E+00
  .538E+00  .505E+00  .519E+00  .495E+00  .514E+00  .657E+00  .762E+00  .687E+00
  .756E+00  .855E+00  .914E+00  .938E+00  .938E+00  .887E+00  .841E+00  .791E+00
  .720E+00  .642E+00  .569E+00  .483E+00  .436E+00  .389E+00  .347E+00  .314E+00
  .284E+00  .256E+00  .230E+00  .207E+00  .187E+00  .157E+00  .137E+00  .119E+00
  .106E+00  .955E-01  .858E-01  .779E-01  .723E-01  .677E-01  .637E-01  .600E-01
  .567E-01  .537E-01  .509E-01  .486E-01  .442E-01  .403E-01  .372E-01  .345E-01
  .321E-01  .300E-01  .282E-01  .266E-01  .252E-01  .239E-01  .218E-01  .199E-01
  .184E-01  .170E-01  .159E-01  .000E+00  .000E+00  .000E+00  .000E+00  .000E+00
  .000E+00  .000E+00  .000E+00  .000E+00
  .336E+02  .336E+02  .336E+02  .337E+02  .337E+02  .337E+02  .337E+02  .338E+02
  .338E+02  .338E+02  .338E+02  .332E+02  .333E+02  .337E+02  .337E+02  .338E+02
  .334E+02  .338E+02  .351E+02  .344E+02  .339E+02  .339E+02  .339E+02  .339E+02
  .340E+02  .347E+02  .346E+02  .342E+02  .342E+02  .338E+02  .338E+02  .373E+02
  .337E+02  .337E+02  .366E+02  .345E+02  .345E+02  .364E+02  .364E+02  .337E+02
  .337E+02  .337E+02  .341E+02  .341E+02  .345E+02  .346E+02  .339E+02  .339E+02
  .339E+02  .339E+02  .339E+02  .336E+02  .336E+02  .336E+02  .336E+02  .336E+02
  .336E+02  .336E+02  .336E+02  .336E+02  .336E+02  .336E+02  .336E+02  .336E+02
  .336E+02  .336E+02  .336E+02  .336E+02  .336E+02  .336E+02  .336E+02  .336E+02
  .336E+02  .336E+02  .336E+02  .336E+02  .336E+02  .336E+02  .336E+02  .336E+02
  .336E+02  .336E+02  .336E+02  .336E+02  .336E+02  .336E+02  .336E+02  .336E+02
  .336E+02  .336E+02  .336E+02  .000E+00  .000E+00  .000E+00  .000E+00  .000E+00
  .000E+00  .000E+00  .000E+00  .000E+00
  .336E+02  .336E+02  .337E+02  .337E+02  .337E+02  .337E+02  .338E+02  .338E+02
  .338E+02  .338E+02  .338E+02  .332E+02  .333E+02  .337E+02  .337E+02  .338E+02
  .333E+02  .338E+02  .351E+02  .335E+02  .344E+02  .339E+02  .339E+02  .340E+02
  .338E+02  .346E+02  .346E+02  .343E+02  .342E+02  .337E+02  .338E+02  .338E+02
  .338E+02  .338E+02  .346E+02  .338E+02  .338E+02  .365E+02  .365E+02  .338E+02
  .341E+02  .341E+02  .339E+02  .339E+02  .337E+02  .337E+02  .337E+02  .345E+02
  .337E+02  .337E+02  .337E+02  .338E+02  .338E+02  .334E+02  .334E+02  .334E+02
  .334E+02  .334E+02  .334E+02  .334E+02  .334E+02  .334E+02  .334E+02  .334E+02
  .334E+02  .334E+02  .334E+02  .334E+02  .334E+02  .334E+02  .334E+02  .334E+02
  .334E+02  .334E+02  .334E+02  .334E+02  .334E+02  .334E+02  .334E+02  .334E+02
  .334E+02  .334E+02  .334E+02  .334E+02  .334E+02  .334E+02  .334E+02  .334E+02
  .334E+02  .334E+02  .334E+02  .000E+00  .000E+00  .000E+00  .000E+00  .000E+00
  .000E+00  .000E+00  .000E+00  .000E+00
  .336E+02  .336E+02  .336E+02  .337E+02  .337E+02  .337E+02  .337E+02  .338E+02
  .338E+02  .338E+02  .338E+02  .332E+02  .332E+02  .337E+02  .337E+02  .338E+02
  .334E+02  .338E+02  .350E+02  .344E+02  .339E+02  .339E+02  .339E+02  .339E+02
  .340E+02  .347E+02  .346E+02  .342E+02  .342E+02  .338E+02  .338E+02  .373E+02
  .337E+02  .337E+02  .365E+02  .345E+02  .345E+02  .364E+02  .364E+02  .337E+02
  .337E+02  .337E+02  .340E+02  .341E+02  .345E+02  .346E+02  .339E+02  .339E+02
  .339E+02  .339E+02  .339E+02  .336E+02  .336E+02  .336E+02  .336E+02  .336E+02
  .336E+02  .336E+02  .336E+02  .336E+02  .336E+02  .336E+02  .336E+02  .336E+02
  .336E+02  .336E+02  .336E+02  .336E+02  .332E+02  .332E+02  .332E+02  .332E+02
  .332E+02  .332E+02  .332E+02  .332E+02  .335E+02  .335E+02  .335E+02  .335E+02
  .335E+02  .335E+02  .335E+02  .335E+02  .335E+02  .335E+02  .335E+02  .335E+02
  .335E+02  .335E+02  .335E+02  .000E+00  .000E+00  .000E+00  .000E+00  .000E+00
  .000E+00  .000E+00  .000E+00  .000E+00
/&   ----------  End of spectral data for channel  1  ----------
Response and Fourier amplitude spectra (91 periods,  .04 - 15.0 sec)   for      
Corrected accelerogram   24010-L1794-20262.38       Chan  2:  Up         from   
Uncorrected Accelerogram Data             Processed: 09/18/20, CGS  010bp038    
Rcrd of Fri Sep 18, 2020 23:38:22.0 PDT               (Avol1 v2.0, 4/18 CSMIP)  
CSMIP Preliminary Processing            (Origin:  To be determined)             
24010-L1794-20262.38                 Start time:  9/19/20, 06:38:22.0 UTC (GPS) 
Station No. 24010   34.208N, 118.233W    Etna    s/n 1794  (3 Chns of  3 at Sta)
Glendale - Rosemont & Honolulu            CGS   Data: Acceleration              
Chan  2:  Up                                                                    
Rcrd of Fri Sep 18, 2020 23:38:22.0 PDT    Fri Sep 18, 2020 23:38:22.0 PDT      
Hypocenter:  To be determined.               ML:  To be determined.             
Instr Period =  .0110 sec,  Damping =  .640,  Sensitivity =  .63 v/g            
                        Record Length = 60.000 sec.                             
                                     Uncor Max  =   .044 g, at   30.045 sec.    
RMS accel of (uncor) record  =        .   Chn. metadata effective date: 04/08/03
Accelerogram bandpass filtered with 3 dB pts at   .30 and 23.00 cyc/sec         
                 instrument- and base-line correcte                             
                                                                                
                                                                                
                                                                                
                                                                                
                                                                                
Rcrd of Fri Sep 18, 2020 23:38:22.0 PDT    Fri Sep 18, 2020 23:38:22.0 PDT      
                                                                                
24010-L1794-20262.38      Glendale - Rosemont & Honolulu    Chan  2:  Up        
                                                                                
24010-L1794-20262.38      Glendale - Rosemont & Honolulu    Chan  2:  Up        
                                                                                
Units for spectra are inches and sec, except Sa is in fraction of g.            
                                                                                
    2  100    2    3    3  200    1    3    1   24   12 1794    024010   11    0
    6   38   22    0  263    9   19 2020   10    3  50013600   39   30   74  360
13600    1  100    3 1794    1   38  680    2 -999 -999 -999 -999 -999 -999 -999
 -999 -999    3 -99912000    1  202    0   18    4 -999 -999    3    1 -99912000
    312000    4   91    1    3    5    0    0 -999    0    0    1    3    1    2
    2    2    4    0   32   67    0    5 -999    0    0    1    0    0    0  222
    0    0    0    0
      .011      .640    68.000      .002     1.000   626.000      .044    30.045
    91.300      .298      .476  -999.000     5.000  -999.000     4.000  -999.000
     2.500    41.314     2.500  -999.000    30.000    30.000  -999.000     -.003
      .003      .005     2.000    15.000    34.208  -118.233      .033      .156
     4.725     -.006      .017   379.000    30.400    37.400    13.400    82.760
     1.000    11.003    -8.000  -999.000  -999.000  -999.000  -999.000  -999.000
     6.900     2.000     6.800   980.665      .005    60.000    14.531      .000
  -999.000    23.000  -999.000    60.000      .005      .303  -999.000  -999.000
    30.045    35.351    33.330      .716    33.370      .044      .000      .303
    23.000      .005      .005      .000      .005      .012  -999.000  -999.000
      .132      .095      .049      .026      .004      .000  -999.000  -999.000
  -999.000  -999.000  -999.000  -999.000  -999.000  -999.000  -999.000  -999.000
  -999.000  -999.000  -999.000  -999.000
      .050
      .040      .042      .044      .046      .048      .050      .055      .060
      .065      .070      .075      .080      .085      .090      .095      .100
      .110      .120      .130      .140      .150      .160      .170      .180
      .190      .200      .220      .240      .260      .280      .300      .320
      .340      .360      .380      .400      .420      .440      .460      .480
      .500      .550      .600      .650      .700      .750      .800      .850
      .900      .950     1.000     1.100     1.200     1.300     1.400     1.500
     1.600     1.700     1.800     1.900     2.000     2.200     2.400     2.600
     2.800     3.000     3.200     3.400     3.600     3.800     4.000     4.200
     4.400     4.600     4.800     5.000     5.500     6.000     6.500     7.000
     7.500     8.000     8.500     9.000     9.500    10.000    11.000    12.000
    13.000    14.000    15.000      .000      .000      .000      .000      .000
      .000      .000      .000      .000
Fourier amplitude spectra in in/sec.
  .000E+00  .000E+00  .000E+00  .000E+00  .000E+00  .000E+00  .000E+00  .000E+00
  .000E+00  .000E+00  .000E+00  .000E+00  .000E+00  .000E+00  .000E+00  .000E+00
  .000E+00  .000E+00  .000E+00  .000E+00  .000E+00  .000E+00  .000E+00  .000E+00
  .000E+00  .000E+00  .000E+00  .000E+00  .000E+00  .000E+00  .000E+00  .000E+00
  .000E+00  .000E+00  .000E+00  .000E+00  .000E+00  .000E+00  .000E+00  .000E+00
  .000E+00  .000E+00  .000E+00  .000E+00  .000E+00  .000E+00  .000E+00  .000E+00
  .000E+00  .000E+00  .000E+00  .000E+00  .000E+00  .000E+00  .000E+00  .000E+00
  .000E+00  .000E+00  .000E+00  .000E+00  .000E+00  .000E+00  .000E+00  .000E+00
  .000E+00  .000E+00  .000E+00  .000E+00  .000E+00  .000E+00  .000E+00  .000E+00
  .000E+00  .000E+00  .000E+00  .000E+00  .000E+00  .000E+00  .000E+00  .000E+00
  .000E+00  .000E+00  .000E+00  .000E+00  .000E+00  .000E+00  .000E+00  .000E+00
  .000E+00  .000E+00  .000E+00  .000E+00  .000E+00  .000E+00  .000E+00  .000E+00
  .000E+00  .000E+00  .000E+00  .000E+00
Damping =  .05. Data of Sd,Sv,Sa,Pssv,ttSd,ttSv,ttSa :
  .930E-03  .111E-02  .127E-02  .139E-02  .139E-02  .145E-02  .199E-02  .262E-02
  .340E-02  .430E-02  .538E-02  .705E-02  .866E-02  .103E-01  .116E-01  .120E-01
  .106E-01  .130E-01  .127E-01  .151E-01  .176E-01  .176E-01  .144E-01  .147E-01
  .184E-01  .209E-01  .189E-01  .178E-01  .218E-01  .282E-01  .205E-01  .181E-01
  .186E-01  .226E-01  .222E-01  .219E-01  .225E-01  .249E-01  .285E-01  .316E-01
