Response and Fourier amplitude spectra (78 periods,  .04 -  6.0 sec)   for      
Corrected accelerogram   24591-N2629-20263.02       Chan  1: 180 Deg     from   
Uncorrected Accelerogram Data             Processed: 09/18/20, CGS  ce24591b    
Rcrd of Fri Sep 18, 2020 23:38:25.0 PDT               (Avol1 v2.0, 4/18 CSMIP)  
CSMIP Preliminary Processing            (Origin:  To be determined)             
24591-N2629-20263.02                 Start time:  9/19/20, 06:38:25.0 UTC (GPS) 
Station No. 24591   34.024N, 118.286W    Etna2   s/n 2629  (3 Chns of  3 at Sta)
Los Angeles - Jefferson & Hoover A        CGS   Data: Acceleration              
Chan  1: 180 Deg                                                                
Rcrd of Fri Sep 18, 2020 23:38:25.0 PDT    Fri Sep 18, 2020 23:38:25.0 PDT      
Hypocenter:  To be determined.               ML:  To be determined.             
Instr Period =  .0048 sec,  Damping =  .700,  Sensitivity =  .63 v/g            
                        Record Length = 68.000 sec.                             
                                     Uncor Max  =  -.036 g, at   30.985 sec.    
RMS accel of (uncor) record  =        .   Chn. metadata effective date: 05/12/20
Accelerogram bandpass filtered with 3 dB pts at   .30 and 40.00 cyc/sec         
                 instrument- and base-line correcte                             
                                                                                
                                                                                
                                                                                
                                                                                
                                                                                
Rcrd of Fri Sep 18, 2020 23:38:25.0 PDT    Fri Sep 18, 2020 23:38:25.0 PDT      
                                                                                
24591-N2629-20263.02      Los Angeles - Jefferson & Hoover A    Chan  1: 180 Deg
                                                                                
24591-N2629-20263.02      Los Angeles - Jefferson & Hoover A    Chan  1: 180 Deg
                                                                                
Units for spectra are inches and sec, except Sa is in fraction of g.            
                                                                                
    1  100    1    3    3  200    1    3    1   24   22 2629    024591   11    0
    6   38   25    0  263    9   19 2020   10    3  18013600   39   34   74  360
13600    1  100    3 2629    1    2  680    2 -999 -999 -999 -999 -999 -999 -999
 -999 -999    3 -999 6800    2  202    0   24   20 -999 -999    3    1 -999 6800
    3 6800    4   78    1    3    5    0    0 -999    0    0    1    3    1    2
    2    2    4    0   32   67    0    5 -999    0    0    1    0    0   64  222
    1    0    2    0
      .005      .700    68.000      .002     1.000   627.000     -.036    30.985
   208.000      .298      .475  -999.000     5.000  -999.000     4.000  -999.000
     2.500   -23.981     2.500  -999.000    30.000    30.000  -999.000      .000
     -.001      .000     2.000    15.000    34.024  -118.286      .021      .164
     7.839     -.012      .011    56.000    31.000    37.900    13.600    99.680
     1.000    11.003    -8.000  -999.000  -999.000  -999.000  -999.000  -999.000
     6.900     2.000     6.800   980.665      .010    68.000    33.104      .000
  -999.000    40.000  -999.000    68.000      .010      .300  -999.000  -999.000
    30.980   -34.147    30.950      .990    30.900     -.049      .000      .300
    40.000      .010      .010      .000      .010      .020  -999.000  -999.000
      .102      .120      .090      .047      .005      .000  -999.000  -999.000
  -999.000  -999.000  -999.000  -999.000  -999.000  -999.000  -999.000  -999.000
  -999.000  -999.000  -999.000  -999.000
      .050
      .040      .042      .044      .046      .048      .050      .055      .060
      .065      .070      .075      .080      .085      .090      .095      .100
      .110      .120      .130      .140      .150      .160      .170      .180
      .190      .200      .220      .240      .260      .280      .300      .320
      .340      .360      .380      .400      .420      .440      .460      .480
      .500      .550      .600      .650      .700      .750      .800      .850
      .900      .950     1.000     1.100     1.200     1.300     1.400     1.500
     1.600     1.700     1.800     1.900     2.000     2.200     2.400     2.600
     2.800     3.000     3.200     3.400     3.600     3.800     4.000     4.200
     4.400     4.600     4.800     5.000     5.500     6.000      .000      .000
      .000      .000      .000      .000      .000      .000      .000      .000
      .000      .000      .000      .000      .000      .000      .000      .000
      .000      .000      .000      .000
Fourier amplitude spectra in in/sec.
  .000E+00  .000E+00  .000E+00  .000E+00  .000E+00  .000E+00  .000E+00  .000E+00
  .000E+00  .000E+00  .000E+00  .000E+00  .000E+00  .000E+00  .000E+00  .000E+00
  .000E+00  .000E+00  .000E+00  .000E+00  .000E+00  .000E+00  .000E+00  .000E+00
  .000E+00  .000E+00  .000E+00  .000E+00  .000E+00  .000E+00  .000E+00  .000E+00
  .000E+00  .000E+00  .000E+00  .000E+00  .000E+00  .000E+00  .000E+00  .000E+00
  .000E+00  .000E+00  .000E+00  .000E+00  .000E+00  .000E+00  .000E+00  .000E+00
  .000E+00  .000E+00  .000E+00  .000E+00  .000E+00  .000E+00  .000E+00  .000E+00
  .000E+00  .000E+00  .000E+00  .000E+00  .000E+00  .000E+00  .000E+00  .000E+00
  .000E+00  .000E+00  .000E+00  .000E+00  .000E+00  .000E+00  .000E+00  .000E+00
  .000E+00  .000E+00  .000E+00  .000E+00  .000E+00  .000E+00  .000E+00  .000E+00
  .000E+00  .000E+00  .000E+00  .000E+00  .000E+00  .000E+00  .000E+00  .000E+00
  .000E+00  .000E+00  .000E+00  .000E+00  .000E+00  .000E+00  .000E+00  .000E+00
  .000E+00  .000E+00  .000E+00  .000E+00
Damping =  .05. Data of Sd,Sv,Sa,Pssv,ttSd,ttSv,ttSa :
  .675E-03  .794E-03  .956E-03  .114E-02  .131E-02  .187E-02  .213E-02  .258E-02
  .281E-02  .322E-02  .372E-02  .346E-02  .401E-02  .532E-02  .702E-02  .860E-02
  .117E-01  .141E-01  .165E-01  .162E-01  .144E-01  .170E-01  .208E-01  .250E-01
  .285E-01  .358E-01  .446E-01  .450E-01  .421E-01  .403E-01  .403E-01  .402E-01
  .396E-01  .396E-01  .394E-01  .374E-01  .350E-01  .325E-01  .307E-01  .289E-01
  .290E-01  .302E-01  .317E-01  .313E-01  .349E-01  .322E-01  .354E-01  .394E-01
  .372E-01  .397E-01  .484E-01  .499E-01  .385E-01  .384E-01  .382E-01  .428E-01
  .364E-01  .291E-01  .284E-01  .295E-01  .312E-01  .369E-01  .304E-01  .264E-01
  .235E-01  .227E-01  .226E-01  .225E-01  .221E-01  .213E-01  .204E-01  .200E-01
  .198E-01  .196E-01  .195E-01  .194E-01  .192E-01  .191E-01  .000E+00  .000E+00
  .000E+00  .000E+00  .000E+00  .000E+00  .000E+00  .000E+00  .000E+00  .000E+00
  .000E+00  .000E+00  .000E+00  .000E+00  .000E+00  .000E+00  .000E+00  .000E+00
  .000E+00  .000E+00  .000E+00  .000E+00
  .651E-01  .876E-01  .109E+00  .131E+00  .148E+00  .208E+00  .237E+00  .199E+00
  .177E+00  .216E+00  .232E+00  .209E+00  .220E+00  .276E+00  .358E+00  .453E+00
  .588E+00  .657E+00  .737E+00  .704E+00  .557E+00  .595E+00  .721E+00  .882E+00
  .948E+00  .116E+01  .129E+01  .121E+01  .112E+01  .107E+01  .994E+00  .899E+00
  .808E+00  .755E+00  .774E+00  .776E+00  .755E+00  .740E+00  .721E+00  .685E+00
  .650E+00  .597E+00  .549E+00  .515E+00  .504E+00  .501E+00  .496E+00  .490E+00
  .485E+00  .479E+00  .472E+00  .460E+00  .452E+00  .446E+00  .438E+00  .429E+00
  .421E+00  .414E+00  .409E+00  .406E+00  .404E+00  .401E+00  .397E+00  .394E+00
  .391E+00  .389E+00  .388E+00  .387E+00  .387E+00  .386E+00  .386E+00  .386E+00
  .386E+00  .386E+00  .387E+00  .387E+00  .387E+00  .387E+00  .000E+00  .000E+00
  .000E+00  .000E+00  .000E+00  .000E+00  .000E+00  .000E+00  .000E+00  .000E+00
  .000E+00  .000E+00  .000E+00  .000E+00  .000E+00  .000E+00  .000E+00  .000E+00
  .000E+00  .000E+00  .000E+00  .000E+00
  .430E-01  .463E-01  .507E-01  .552E-01  .588E-01  .763E-01  .731E-01  .740E-01
  .688E-01  .671E-01  .675E-01  .555E-01  .569E-01  .677E-01  .800E-01  .885E-01
  .101E+00  .102E+00  .992E-01  .848E-01  .648E-01  .688E-01  .736E-01  .786E-01
  .811E-01  .926E-01  .952E-01  .802E-01  .644E-01  .531E-01  .465E-01  .402E-01
  .356E-01  .316E-01  .280E-01  .243E-01  .205E-01  .173E-01  .149E-01  .129E-01
  .120E-01  .103E-01  .909E-02  .764E-02  .732E-02  .588E-02  .569E-02  .562E-02
  .474E-02  .454E-02  .500E-02  .429E-02  .281E-02  .236E-02  .201E-02  .196E-02
  .146E-02  .108E-02  .941E-03  .879E-03  .841E-03  .790E-03  .587E-03  .444E-03
  .367E-03  .319E-03  .280E-03  .247E-03  .220E-03  .198E-03  .179E-03  .166E-03
  .156E-03  .147E-03  .138E-03  .131E-03  .117E-03  .105E-03  .000E+00  .000E+00
  .000E+00  .000E+00  .000E+00  .000E+00  .000E+00  .000E+00  .000E+00  .000E+00
  .000E+00  .000E+00  .000E+00  .000E+00  .000E+00  .000E+00  .000E+00  .000E+00
  .000E+00  .000E+00  .000E+00  .000E+00
  .106E+00  .119E+00  .137E+00  .155E+00  .171E+00  .235E+00  .243E+00  .270E+00
  .272E+00  .289E+00  .312E+00  .272E+00  .296E+00  .372E+00  .464E+00  .540E+00
  .669E+00  .741E+00  .797E+00  .728E+00  .603E+00  .666E+00  .769E+00  .871E+00
  .943E+00  .112E+01  .127E+01  .118E+01  .102E+01  .904E+00  .844E+00  .788E+00
  .732E+00  .692E+00  .651E+00  .588E+00  .523E+00  .465E+00  .420E+00  .379E+00
  .364E+00  .345E+00  .332E+00  .303E+00  .314E+00  .270E+00  .278E+00  .291E+00
  .260E+00  .262E+00  .304E+00  .285E+00  .202E+00  .186E+00  .171E+00  .179E+00
  .143E+00  .108E+00  .992E-01  .977E-01  .981E-01  .105E+00  .797E-01  .637E-01
  .528E-01  .476E-01  .444E-01  .417E-01  .385E-01  .352E-01  .321E-01  .299E-01
  .282E-01  .268E-01  .255E-01  .243E-01  .219E-01  .200E-01  .000E+00  .000E+00
  .000E+00  .000E+00  .000E+00  .000E+00  .000E+00  .000E+00  .000E+00  .000E+00
  .000E+00  .000E+00  .000E+00  .000E+00  .000E+00  .000E+00  .000E+00  .000E+00
  .000E+00  .000E+00  .000E+00  .000E+00
  .310E+02  .310E+02  .315E+02  .315E+02  .315E+02  .315E+02  .315E+02  .309E+02
  .309E+02  .309E+02  .309E+02  .310E+02  .310E+02  .310E+02  .310E+02  .310E+02
  .310E+02  .310E+02  .311E+02  .311E+02  .308E+02  .308E+02  .309E+02  .309E+02
  .311E+02  .311E+02  .310E+02  .310E+02  .311E+02  .311E+02  .310E+02  .310E+02
  .310E+02  .310E+02  .310E+02  .310E+02  .310E+02  .310E+02  .355E+02  .355E+02
  .355E+02  .355E+02  .355E+02  .355E+02  .356E+02  .356E+02  .356E+02  .353E+02
  .353E+02  .353E+02  .353E+02  .354E+02  .354E+02  .429E+02  .430E+02  .447E+02
  .449E+02  .351E+02  .351E+02  .351E+02  .351E+02  .444E+02  .351E+02  .351E+02
  .351E+02  .309E+02  .351E+02  .351E+02  .351E+02  .351E+02  .351E+02  .309E+02
  .309E+02  .309E+02  .309E+02  .309E+02  .309E+02  .309E+02  .000E+00  .000E+00
  .000E+00  .000E+00  .000E+00  .000E+00  .000E+00  .000E+00  .000E+00  .000E+00
  .000E+00  .000E+00  .000E+00  .000E+00  .000E+00  .000E+00  .000E+00  .000E+00
  .000E+00  .000E+00  .000E+00  .000E+00
  .315E+02  .315E+02  .315E+02  .315E+02  .315E+02  .315E+02  .315E+02  .310E+02
  .309E+02  .319E+02  .320E+02  .334E+02  .334E+02  .309E+02  .310E+02  .310E+02
  .310E+02  .310E+02  .310E+02  .311E+02  .311E+02  .308E+02  .308E+02  .308E+02
  .308E+02  .311E+02  .311E+02  .310E+02  .310E+02  .310E+02  .310E+02  .310E+02
  .310E+02  .309E+02  .309E+02  .309E+02  .309E+02  .309E+02  .309E+02  .309E+02
  .309E+02  .309E+02  .309E+02  .309E+02  .309E+02  .309E+02  .309E+02  .309E+02
  .309E+02  .309E+02  .309E+02  .309E+02  .309E+02  .309E+02  .309E+02  .309E+02
  .309E+02  .309E+02  .309E+02  .309E+02  .309E+02  .309E+02  .309E+02  .309E+02
  .309E+02  .309E+02  .309E+02  .309E+02  .309E+02  .309E+02  .309E+02  .309E+02
  .309E+02  .309E+02  .309E+02  .309E+02  .309E+02  .309E+02  .000E+00  .000E+00
  .000E+00  .000E+00  .000E+00  .000E+00  .000E+00  .000E+00  .000E+00  .000E+00
  .000E+00  .000E+00  .000E+00  .000E+00  .000E+00  .000E+00  .000E+00  .000E+00
  .000E+00  .000E+00  .000E+00  .000E+00
  .310E+02  .310E+02  .315E+02  .315E+02  .315E+02  .315E+02  .315E+02  .309E+02
  .309E+02  .309E+02  .309E+02  .310E+02  .310E+02  .310E+02  .310E+02  .310E+02
  .310E+02  .310E+02  .311E+02  .311E+02  .308E+02  .308E+02  .309E+02  .309E+02
  .311E+02  .311E+02  .310E+02  .310E+02  .311E+02  .311E+02  .310E+02  .310E+02
  .310E+02  .310E+02  .310E+02  .310E+02  .310E+02  .310E+02  .355E+02  .355E+02
  .355E+02  .355E+02  .355E+02  .355E+02  .356E+02  .356E+02  .356E+02  .353E+02
  .353E+02  .353E+02  .353E+02  .354E+02  .354E+02  .354E+02  .430E+02  .446E+02
  .448E+02  .351E+02  .351E+02  .351E+02  .351E+02  .443E+02  .351E+02  .351E+02
  .309E+02  .309E+02  .309E+02  .309E+02  .309E+02  .309E+02  .309E+02  .308E+02
  .308E+02  .308E+02  .308E+02  .308E+02  .308E+02  .308E+02  .000E+00  .000E+00
  .000E+00  .000E+00  .000E+00  .000E+00  .000E+00  .000E+00  .000E+00  .000E+00
  .000E+00  .000E+00  .000E+00  .000E+00  .000E+00  .000E+00  .000E+00  .000E+00
  .000E+00  .000E+00  .000E+00  .000E+00
/&   ----------  End of spectral data for channel  1  ----------
Response and Fourier amplitude spectra (78 periods,  .04 -  6.0 sec)   for      
Corrected accelerogram   24591-N2629-20263.02       Chan  2:  90 Deg     from   
Uncorrected Accelerogram Data             Processed: 09/18/20, CGS  ce24591b    
Rcrd of Fri Sep 18, 2020 23:38:25.0 PDT               (Avol1 v2.0, 4/18 CSMIP)  
CSMIP Preliminary Processing            (Origin:  To be determined)             
24591-N2629-20263.02                 Start time:  9/19/20, 06:38:25.0 UTC (GPS) 
Station No. 24591   34.024N, 118.286W    Etna2   s/n 2629  (3 Chns of  3 at Sta)
Los Angeles - Jefferson & Hoover A        CGS   Data: Acceleration              
Chan  2:  90 Deg                                                                
Rcrd of Fri Sep 18, 2020 23:38:25.0 PDT    Fri Sep 18, 2020 23:38:25.0 PDT      
Hypocenter:  To be determined.               ML:  To be determined.             
Instr Period =  .0049 sec,  Damping =  .700,  Sensitivity =  .63 v/g            
                        Record Length = 68.000 sec.                             
                                     Uncor Max  =   .029 g, at   31.060 sec.    
RMS accel of (uncor) record  =        .   Chn. metadata effective date: 05/12/20
Accelerogram bandpass filtered with 3 dB pts at   .30 and 40.00 cyc/sec         
                 instrument- and base-line correcte                             
                                                                                
                                                                                
                                                                                
                                                                                
                                                                                
Rcrd of Fri Sep 18, 2020 23:38:25.0 PDT    Fri Sep 18, 2020 23:38:25.0 PDT      
                                                                                
24591-N2629-20263.02      Los Angeles - Jefferson & Hoover A    Chan  2:  90 Deg
                                                                                
24591-N2629-20263.02      Los Angeles - Jefferson & Hoover A    Chan  2:  90 Deg
                                                                                
Units for spectra are inches and sec, except Sa is in fraction of g.            
                                                                                
    2  100    2    3    3  200    1    3    1   24   22 2629    024591   11    0
    6   38   25    0  263    9   19 2020   10    3   9013600   39   34   74  360
13600    1  100    3 2629    1    2  680    2 -999 -999 -999 -999 -999 -999 -999
 -999 -999    3 -999 6800    2  202    0   24   20 -999 -999    3    1 -999 6800
    3 6800    4   78    1    3    5    0    0 -999    0    0    1    3    1    2
    2    2    4    0   32   67    0    5 -999    0    0    1    0    0   64  222
    1    0    2    0
      .005      .700    68.000      .002     1.000   627.000      .029    31.060
   204.000      .298      .475  -999.000     5.000  -999.000     4.000  -999.000
     2.500    31.282     2.500  -999.000    30.000    30.000  -999.000      .001
      .001      .001     2.000    15.000    34.024  -118.286      .014      .176
    12.186     -.012      .013    56.000    31.000    37.900    13.600    99.680
     1.000    11.003    -8.000  -999.000  -999.000  -999.000  -999.000  -999.000
     6.900     2.000     6.800   980.665      .010    68.000    32.468      .000
  -999.000    40.000  -999.000    68.000      .010      .300  -999.000  -999.000
    31.060    28.192    34.900    -1.209    34.980     -.085      .000      .300
    40.000      .010      .010      .000      .010      .023  -999.000  -999.000
      .101      .200      .097      .044      .006      .001  -999.000  -999.000
  -999.000  -999.000  -999.000  -999.000  -999.000  -999.000  -999.000  -999.000
  -999.000  -999.000  -999.000  -999.000
      .050
      .040      .042      .044      .046      .048      .050      .055      .060
      .065      .070      .075      .080      .085      .090      .095      .100
      .110      .120      .130      .140      .150      .160      .170      .180
      .190      .200      .220      .240      .260      .280      .300      .320
      .340      .360      .380      .400      .420      .440      .460      .480
      .500      .550      .600      .650      .700      .750      .800      .850
      .900      .950     1.000     1.100     1.200     1.300     1.400     1.500
     1.600     1.700     1.800     1.900     2.000     2.200     2.400     2.600
     2.800     3.000     3.200     3.400     3.600     3.800     4.000     4.200
     4.400     4.600     4.800     5.000     5.500     6.000      .000      .000
      .000      .000      .000      .000      .000      .000      .000      .000
      .000      .000      .000      .000      .000      .000      .000      .000
      .000      .000      .000      .000
Fourier amplitude spectra in in/sec.
  .000E+00  .000E+00  .000E+00  .000E+00  .000E+00  .000E+00  .000E+00  .000E+00
  .000E+00  .000E+00  .000E+00  .000E+00  .000E+00  .000E+00  .000E+00  .000E+00
  .000E+00  .000E+00  .000E+00  .000E+00  .000E+00  .000E+00  .000E+00  .000E+00
  .000E+00  .000E+00  .000E+00  .000E+00  .000E+00  .000E+00  .000E+00  .000E+00
  .000E+00  .000E+00  .000E+00  .000E+00  .000E+00  .000E+00  .000E+00  .000E+00
  .000E+00  .000E+00  .000E+00  .000E+00  .000E+00  .000E+00  .000E+00  .000E+00
  .000E+00  .000E+00  .000E+00  .000E+00  .000E+00  .000E+00  .000E+00  .000E+00
  .000E+00  .000E+00  .000E+00  .000E+00  .000E+00  .000E+00  .000E+00  .000E+00
  .000E+00  .000E+00  .000E+00  .000E+00  .000E+00  .000E+00  .000E+00  .000E+00
  .000E+00  .000E+00  .000E+00  .000E+00  .000E+00  .000E+00  .000E+00  .000E+00
  .000E+00  .000E+00  .000E+00  .000E+00  .000E+00  .000E+00  .000E+00  .000E+00
  .000E+00  .000E+00  .000E+00  .000E+00  .000E+00  .000E+00  .000E+00  .000E+00
  .000E+00  .000E+00  .000E+00  .000E+00
Damping =  .05. Data of Sd,Sv,Sa,Pssv,ttSd,ttSv,ttSa :
  .577E-03  .676E-03  .793E-03  .866E-03  .864E-03  .110E-02  .181E-02  .253E-02
  .241E-02  .292E-02  .357E-02  .365E-02  .405E-02  .474E-02  .615E-02  .718E-02
  .108E-01  .131E-01  .139E-01  .125E-01  .141E-01  .160E-01  .194E-01  .259E-01
  .344E-01  .393E-01  .435E-01  .423E-01  .385E-01  .385E-01  .359E-01  .396E-01
  .484E-01  .539E-01  .480E-01  .482E-01  .464E-01  .451E-01  .441E-01  .447E-01
