Response and Fourier amplitude spectra (91 periods,  .04 - 15.0 sec)   for      
Corrected accelerogram   24029-L3500-20262.01       Chan  1:  90 Deg     from   
Uncorrected Accelerogram Data             Processed: 09/18/20, CGS  029bs001    
Rcrd of Fri Sep 18, 2020 23:38:22.0 PDT               (Avol1 v2.0, 4/18 CSMIP)  
CSMIP Preliminary Processing            (Origin:  To be determined)             
24029-L3500-20262.01                 Start time:  9/19/20, 06:38:22.0 UTC (GPS) 
Station No. 24029   34.104N, 118.100W    Etna    s/n 3500  (3 Chns of  3 at Sta)
San Gabriel - Del Mar & Las Tunas         CGS   Data: Acceleration              
Chan  1:  90 Deg                                                                
Rcrd of Fri Sep 18, 2020 23:38:22.0 PDT    Fri Sep 18, 2020 23:38:22.0 PDT      
Hypocenter:  To be determined.               ML:  To be determined.             
Instr Period =  .0046 sec,  Damping =  .700,  Sensitivity =  .63 v/g            
                        Record Length = 60.000 sec.                             
                                     Uncor Max  =  -.076 g, at   31.340 sec.    
RMS accel of (uncor) record  =        .   Chn. metadata effective date: 01/27/05
Accelerogram bandpass filtered with 3 dB pts at   .30 and 23.00 cyc/sec         
                 instrument- and base-line correcte                             
                                                                                
                                                                                
                                                                                
                                                                                
                                                                                
Rcrd of Fri Sep 18, 2020 23:38:22.0 PDT    Fri Sep 18, 2020 23:38:22.0 PDT      
                                                                                
24029-L3500-20262.01      San Gabriel - Del Mar & Las Tunas   Chan  1:  90 Deg  
                                                                                
24029-L3500-20262.01      San Gabriel - Del Mar & Las Tunas   Chan  1:  90 Deg  
                                                                                
Units for spectra are inches and sec, except Sa is in fraction of g.            
                                                                                
    1  100    1    3    3  200    1    3    1   24   12 3500    024029   11    0
    6   38   22    0  263    9   19 2020   10    3   9014000   39   33   74  360
14000    1  100    3 3500    1    1  700    2 -999 -999 -999 -999 -999 -999 -999
 -999 -999    3 -99912000    1  202    0   18   20 -999 -999    3    1 -99912000
    312000    4   91    1    3    5    0    0 -999    0    0    1    3    1    2
    2    2    4    0   32   67    0    5 -999    0    0    1    0    0    0  222
    0    0    0    0
      .005      .700    70.000      .004     1.000   625.000     -.076    31.340
   218.000      .298      .477  -999.000     5.000  -999.000     4.000  -999.000
     2.500     3.396     2.500  -999.000    30.000    30.000  -999.000      .001
     -.008     -.009     2.000    15.000    34.104  -118.100      .013      .246
    18.271     -.026      .008   136.000    30.100    39.600    14.200   100.040
     1.000    11.003    -8.000  -999.000  -999.000  -999.000  -999.000  -999.000
     6.900     2.000     6.800   980.665      .005    60.000    34.696     -.001
  -999.000    23.000  -999.000    60.000      .005      .303  -999.000  -999.000
    31.340   -74.765    31.245    -1.748    31.130      .065      .000      .303
    23.000      .005      .005      .000      .330      .028  -999.000  -999.000
      .349      .120      .156      .053      .005      .001  -999.000  -999.000
  -999.000  -999.000  -999.000  -999.000  -999.000  -999.000  -999.000  -999.000
  -999.000  -999.000  -999.000  -999.000
      .050
      .040      .042      .044      .046      .048      .050      .055      .060
      .065      .070      .075      .080      .085      .090      .095      .100
      .110      .120      .130      .140      .150      .160      .170      .180
      .190      .200      .220      .240      .260      .280      .300      .320
      .340      .360      .380      .400      .420      .440      .460      .480
      .500      .550      .600      .650      .700      .750      .800      .850
      .900      .950     1.000     1.100     1.200     1.300     1.400     1.500
     1.600     1.700     1.800     1.900     2.000     2.200     2.400     2.600
     2.800     3.000     3.200     3.400     3.600     3.800     4.000     4.200
     4.400     4.600     4.800     5.000     5.500     6.000     6.500     7.000
     7.500     8.000     8.500     9.000     9.500    10.000    11.000    12.000
    13.000    14.000    15.000      .000      .000      .000      .000      .000
      .000      .000      .000      .000
Fourier amplitude spectra in in/sec.
  .000E+00  .000E+00  .000E+00  .000E+00  .000E+00  .000E+00  .000E+00  .000E+00
  .000E+00  .000E+00  .000E+00  .000E+00  .000E+00  .000E+00  .000E+00  .000E+00
  .000E+00  .000E+00  .000E+00  .000E+00  .000E+00  .000E+00  .000E+00  .000E+00
  .000E+00  .000E+00  .000E+00  .000E+00  .000E+00  .000E+00  .000E+00  .000E+00
  .000E+00  .000E+00  .000E+00  .000E+00  .000E+00  .000E+00  .000E+00  .000E+00
  .000E+00  .000E+00  .000E+00  .000E+00  .000E+00  .000E+00  .000E+00  .000E+00
  .000E+00  .000E+00  .000E+00  .000E+00  .000E+00  .000E+00  .000E+00  .000E+00
  .000E+00  .000E+00  .000E+00  .000E+00  .000E+00  .000E+00  .000E+00  .000E+00
  .000E+00  .000E+00  .000E+00  .000E+00  .000E+00  .000E+00  .000E+00  .000E+00
  .000E+00  .000E+00  .000E+00  .000E+00  .000E+00  .000E+00  .000E+00  .000E+00
  .000E+00  .000E+00  .000E+00  .000E+00  .000E+00  .000E+00  .000E+00  .000E+00
  .000E+00  .000E+00  .000E+00  .000E+00  .000E+00  .000E+00  .000E+00  .000E+00
  .000E+00  .000E+00  .000E+00  .000E+00
Damping =  .05. Data of Sd,Sv,Sa,Pssv,ttSd,ttSv,ttSa :
  .142E-02  .163E-02  .186E-02  .212E-02  .240E-02  .270E-02  .344E-02  .427E-02
  .556E-02  .694E-02  .888E-02  .114E-01  .139E-01  .161E-01  .177E-01  .185E-01
  .282E-01  .489E-01  .540E-01  .449E-01  .388E-01  .469E-01  .556E-01  .599E-01
  .609E-01  .618E-01  .631E-01  .708E-01  .666E-01  .531E-01  .428E-01  .399E-01
  .364E-01  .492E-01  .610E-01  .659E-01  .629E-01  .577E-01  .644E-01  .577E-01
  .489E-01  .520E-01  .535E-01  .476E-01  .484E-01  .473E-01  .464E-01  .451E-01
  .440E-01  .434E-01  .435E-01  .443E-01  .438E-01  .418E-01  .400E-01  .379E-01
  .372E-01  .370E-01  .435E-01  .403E-01  .378E-01  .375E-01  .363E-01  .341E-01
  .320E-01  .300E-01  .283E-01  .274E-01  .275E-01  .278E-01  .281E-01  .281E-01
  .279E-01  .276E-01  .274E-01  .273E-01  .268E-01  .266E-01  .263E-01  .261E-01
  .261E-01  .260E-01  .260E-01  .259E-01  .258E-01  .257E-01  .257E-01  .257E-01
  .257E-01  .256E-01  .256E-01  .000E+00  .000E+00  .000E+00  .000E+00  .000E+00
  .000E+00  .000E+00  .000E+00  .000E+00
  .865E-01  .979E-01  .109E+00  .121E+00  .132E+00  .143E+00  .206E+00  .242E+00
  .290E+00  .409E+00  .520E+00  .666E+00  .828E+00  .980E+00  .106E+01  .103E+01
  .149E+01  .244E+01  .252E+01  .203E+01  .169E+01  .188E+01  .212E+01  .219E+01
  .214E+01  .218E+01  .219E+01  .201E+01  .192E+01  .175E+01  .155E+01  .139E+01
  .127E+01  .120E+01  .115E+01  .116E+01  .116E+01  .113E+01  .108E+01  .104E+01
  .101E+01  .976E+00  .924E+00  .863E+00  .808E+00  .761E+00  .735E+00  .731E+00
  .729E+00  .724E+00  .722E+00  .727E+00  .735E+00  .739E+00  .737E+00  .731E+00
  .726E+00  .722E+00  .720E+00  .719E+00  .719E+00  .720E+00  .721E+00  .718E+00
  .715E+00  .712E+00  .708E+00  .705E+00  .702E+00  .700E+00  .698E+00  .696E+00
  .694E+00  .693E+00  .692E+00  .691E+00  .690E+00  .689E+00  .688E+00  .688E+00
  .688E+00  .687E+00  .687E+00  .687E+00  .687E+00  .687E+00  .686E+00  .686E+00
  .686E+00  .686E+00  .686E+00  .000E+00  .000E+00  .000E+00  .000E+00  .000E+00
  .000E+00  .000E+00  .000E+00  .000E+00
  .908E-01  .947E-01  .986E-01  .103E+00  .106E+00  .111E+00  .116E+00  .122E+00
  .136E+00  .146E+00  .163E+00  .183E+00  .195E+00  .205E+00  .201E+00  .190E+00
  .239E+00  .349E+00  .328E+00  .237E+00  .178E+00  .189E+00  .199E+00  .189E+00
  .174E+00  .159E+00  .135E+00  .127E+00  .102E+00  .700E-01  .491E-01  .403E-01
  .326E-01  .391E-01  .434E-01  .423E-01  .367E-01  .307E-01  .313E-01  .258E-01
  .202E-01  .177E-01  .153E-01  .118E-01  .103E-01  .900E-02  .779E-02  .676E-02
  .592E-02  .529E-02  .481E-02  .410E-02  .346E-02  .287E-02  .239E-02  .203E-02
  .178E-02  .159E-02  .145E-02  .132E-02  .121E-02  .101E-02  .849E-03  .716E-03
  .616E-03  .539E-03  .478E-03  .431E-03  .396E-03  .365E-03  .339E-03  .317E-03
  .299E-03  .284E-03  .271E-03  .258E-03  .232E-03  .210E-03  .192E-03  .177E-03
  .164E-03  .152E-03  .142E-03  .134E-03  .126E-03  .119E-03  .108E-03  .984E-04
  .905E-04  .837E-04  .779E-04  .000E+00  .000E+00  .000E+00  .000E+00  .000E+00
  .000E+00  .000E+00  .000E+00  .000E+00
  .223E+00  .244E+00  .266E+00  .289E+00  .314E+00  .339E+00  .393E+00  .447E+00
  .537E+00  .623E+00  .744E+00  .897E+00  .102E+01  .113E+01  .117E+01  .116E+01
  .161E+01  .256E+01  .261E+01  .202E+01  .163E+01  .184E+01  .205E+01  .209E+01
  .201E+01  .194E+01  .180E+01  .185E+01  .161E+01  .119E+01  .896E+00  .783E+00
  .672E+00  .859E+00  .101E+01  .103E+01  .942E+00  .824E+00  .880E+00  .756E+00
  .614E+00  .594E+00  .560E+00  .460E+00  .434E+00  .396E+00  .364E+00  .333E+00
  .307E+00  .287E+00  .273E+00  .253E+00  .229E+00  .202E+00  .179E+00  .159E+00
  .146E+00  .137E+00  .152E+00  .133E+00  .119E+00  .107E+00  .951E-01  .823E-01
  .717E-01  .629E-01  .556E-01  .507E-01  .480E-01  .460E-01  .441E-01  .421E-01
  .399E-01  .378E-01  .359E-01  .343E-01  .306E-01  .278E-01  .254E-01  .234E-01
  .218E-01  .204E-01  .192E-01  .181E-01  .171E-01  .162E-01  .147E-01  .135E-01
  .124E-01  .115E-01  .107E-01  .000E+00  .000E+00  .000E+00  .000E+00  .000E+00
  .000E+00  .000E+00  .000E+00  .000E+00
  .313E+02  .313E+02  .313E+02  .313E+02  .313E+02  .313E+02  .313E+02  .313E+02
  .313E+02  .313E+02  .313E+02  .313E+02  .313E+02  .313E+02  .314E+02  .314E+02
  .314E+02  .314E+02  .314E+02  .315E+02  .315E+02  .315E+02  .315E+02  .315E+02
  .315E+02  .314E+02  .313E+02  .313E+02  .313E+02  .313E+02  .313E+02  .313E+02
  .313E+02  .346E+02  .346E+02  .349E+02  .349E+02  .350E+02  .350E+02  .350E+02
  .320E+02  .320E+02  .318E+02  .318E+02  .344E+02  .313E+02  .313E+02  .313E+02
  .313E+02  .313E+02  .313E+02  .313E+02  .313E+02  .313E+02  .342E+02  .314E+02
  .314E+02  .314E+02  .404E+02  .396E+02  .314E+02  .314E+02  .314E+02  .314E+02
  .314E+02  .314E+02  .314E+02  .311E+02  .311E+02  .311E+02  .311E+02  .311E+02
  .311E+02  .311E+02  .311E+02  .311E+02  .311E+02  .311E+02  .311E+02  .311E+02
  .311E+02  .311E+02  .311E+02  .311E+02  .311E+02  .311E+02  .311E+02  .311E+02
  .311E+02  .311E+02  .311E+02  .000E+00  .000E+00  .000E+00  .000E+00  .000E+00
  .000E+00  .000E+00  .000E+00  .000E+00
  .313E+02  .313E+02  .313E+02  .313E+02  .313E+02  .313E+02  .314E+02  .313E+02
  .313E+02  .313E+02  .313E+02  .314E+02  .314E+02  .314E+02  .314E+02  .314E+02
  .314E+02  .314E+02  .315E+02  .316E+02  .316E+02  .316E+02  .315E+02  .315E+02
  .314E+02  .314E+02  .314E+02  .314E+02  .313E+02  .313E+02  .313E+02  .313E+02
  .313E+02  .313E+02  .313E+02  .313E+02  .313E+02  .313E+02  .313E+02  .313E+02
  .313E+02  .313E+02  .313E+02  .313E+02  .313E+02  .313E+02  .314E+02  .312E+02
  .312E+02  .312E+02  .312E+02  .312E+02  .312E+02  .312E+02  .312E+02  .312E+02
  .312E+02  .312E+02  .312E+02  .312E+02  .312E+02  .312E+02  .312E+02  .312E+02
  .312E+02  .312E+02  .312E+02  .312E+02  .312E+02  .312E+02  .312E+02  .312E+02
  .312E+02  .312E+02  .312E+02  .312E+02  .312E+02  .312E+02  .312E+02  .312E+02
  .312E+02  .312E+02  .312E+02  .312E+02  .312E+02  .312E+02  .312E+02  .312E+02
  .312E+02  .312E+02  .312E+02  .000E+00  .000E+00  .000E+00  .000E+00  .000E+00
  .000E+00  .000E+00  .000E+00  .000E+00
  .313E+02  .313E+02  .313E+02  .313E+02  .313E+02  .313E+02  .313E+02  .313E+02
  .313E+02  .313E+02  .313E+02  .313E+02  .313E+02  .313E+02  .313E+02  .314E+02
  .314E+02  .314E+02  .314E+02  .315E+02  .315E+02  .315E+02  .315E+02  .315E+02
  .315E+02  .314E+02  .313E+02  .313E+02  .313E+02  .313E+02  .313E+02  .313E+02
  .313E+02  .346E+02  .346E+02  .349E+02  .349E+02  .349E+02  .350E+02  .350E+02
  .320E+02  .320E+02  .318E+02  .313E+02  .313E+02  .313E+02  .313E+02  .313E+02
  .313E+02  .313E+02  .313E+02  .313E+02  .313E+02  .313E+02  .313E+02  .313E+02
  .313E+02  .313E+02  .313E+02  .313E+02  .313E+02  .313E+02  .313E+02  .313E+02
  .313E+02  .313E+02  .313E+02  .313E+02  .313E+02  .313E+02  .312E+02  .312E+02
  .312E+02  .312E+02  .312E+02  .312E+02  .312E+02  .312E+02  .312E+02  .312E+02
  .312E+02  .312E+02  .312E+02  .312E+02  .312E+02  .312E+02  .312E+02  .312E+02
  .312E+02  .312E+02  .312E+02  .000E+00  .000E+00  .000E+00  .000E+00  .000E+00
  .000E+00  .000E+00  .000E+00  .000E+00
/&   ----------  End of spectral data for channel  1  ----------
Response and Fourier amplitude spectra (91 periods,  .04 - 15.0 sec)   for      
Corrected accelerogram   24029-L3500-20262.01       Chan  2: 360 Deg     from   
Uncorrected Accelerogram Data             Processed: 09/18/20, CGS  029bs001    
Rcrd of Fri Sep 18, 2020 23:38:22.0 PDT               (Avol1 v2.0, 4/18 CSMIP)  
CSMIP Preliminary Processing            (Origin:  To be determined)             
24029-L3500-20262.01                 Start time:  9/19/20, 06:38:22.0 UTC (GPS) 
Station No. 24029   34.104N, 118.100W    Etna    s/n 3500  (3 Chns of  3 at Sta)
San Gabriel - Del Mar & Las Tunas         CGS   Data: Acceleration              
Chan  2: 360 Deg                                                                
Rcrd of Fri Sep 18, 2020 23:38:22.0 PDT    Fri Sep 18, 2020 23:38:22.0 PDT      
Hypocenter:  To be determined.               ML:  To be determined.             
Instr Period =  .0048 sec,  Damping =  .700,  Sensitivity =  .63 v/g            
                        Record Length = 60.000 sec.                             
                                     Uncor Max  =  -.054 g, at   31.050 sec.    
RMS accel of (uncor) record  =        .   Chn. metadata effective date: 01/27/05
Accelerogram bandpass filtered with 3 dB pts at   .30 and 23.00 cyc/sec         
                 instrument- and base-line correcte                             
                                                                                
                                                                                
                                                                                
                                                                                
                                                                                
Rcrd of Fri Sep 18, 2020 23:38:22.0 PDT    Fri Sep 18, 2020 23:38:22.0 PDT      
                                                                                
24029-L3500-20262.01      San Gabriel - Del Mar & Las Tunas   Chan  2: 360 Deg  
                                                                                
24029-L3500-20262.01      San Gabriel - Del Mar & Las Tunas   Chan  2: 360 Deg  
                                                                                
Units for spectra are inches and sec, except Sa is in fraction of g.            
                                                                                
    2  100    2    3    3  200    1    3    1   24   12 3500    024029   11    0
    6   38   22    0  263    9   19 2020   10    3  36014000   39   33   74  360
14000    1  100    3 3500    1    1  700    2 -999 -999 -999 -999 -999 -999 -999
 -999 -999    3 -99912000    1  202    0   18   20 -999 -999    3    1 -99912000
    312000    4   91    1    3    5    0    0 -999    0    0    1    3    1    2
    2    2    4    0   32   67    0    5 -999    0    0    1    0    0    0  222
    0    0    0    0
      .005      .700    70.000      .004     1.000   626.000     -.054    31.050
   208.000      .298      .476  -999.000     5.000  -999.000     4.000  -999.000
     2.500   -25.658     2.500  -999.000    30.000    30.000  -999.000     -.001
      .001      .002     2.000    15.000    34.104  -118.100      .013      .172
    13.258     -.010      .013   136.000    30.100    39.600    14.200   100.040
     1.000    11.003    -8.000  -999.000  -999.000  -999.000  -999.000  -999.000
     6.900     2.000     6.800   980.665      .005    60.000    33.104      .000
  -999.000    23.000  -999.000    60.000      .005      .303  -999.000  -999.000
    31.045   -51.843    30.865    -1.743    30.920     -.147      .000      .303
    23.000      .005      .005      .000      .020      .031  -999.000  -999.000
      .169      .110      .145      .117      .008      .001  -999.000  -999.000
  -999.000  -999.000  -999.000  -999.000  -999.000  -999.000  -999.000  -999.000
  -999.000  -999.000  -999.000  -999.000
      .050
      .040      .042      .044      .046      .048      .050      .055      .060
      .065      .070      .075      .080      .085      .090      .095      .100
      .110      .120      .130      .140      .150      .160      .170      .180
      .190      .200      .220      .240      .260      .280      .300      .320
      .340      .360      .380      .400      .420      .440      .460      .480
      .500      .550      .600      .650      .700      .750      .800      .850
      .900      .950     1.000     1.100     1.200     1.300     1.400     1.500
     1.600     1.700     1.800     1.900     2.000     2.200     2.400     2.600
     2.800     3.000     3.200     3.400     3.600     3.800     4.000     4.200
     4.400     4.600     4.800     5.000     5.500     6.000     6.500     7.000
     7.500     8.000     8.500     9.000     9.500    10.000    11.000    12.000
    13.000    14.000    15.000      .000      .000      .000      .000      .000
      .000      .000      .000      .000
Fourier amplitude spectra in in/sec.
  .000E+00  .000E+00  .000E+00  .000E+00  .000E+00  .000E+00  .000E+00  .000E+00
  .000E+00  .000E+00  .000E+00  .000E+00  .000E+00  .000E+00  .000E+00  .000E+00
  .000E+00  .000E+00  .000E+00  .000E+00  .000E+00  .000E+00  .000E+00  .000E+00
  .000E+00  .000E+00  .000E+00  .000E+00  .000E+00  .000E+00  .000E+00  .000E+00
  .000E+00  .000E+00  .000E+00  .000E+00  .000E+00  .000E+00  .000E+00  .000E+00
  .000E+00  .000E+00  .000E+00  .000E+00  .000E+00  .000E+00  .000E+00  .000E+00
  .000E+00  .000E+00  .000E+00  .000E+00  .000E+00  .000E+00  .000E+00  .000E+00
  .000E+00  .000E+00  .000E+00  .000E+00  .000E+00  .000E+00  .000E+00  .000E+00
  .000E+00  .000E+00  .000E+00  .000E+00  .000E+00  .000E+00  .000E+00  .000E+00
  .000E+00  .000E+00  .000E+00  .000E+00  .000E+00  .000E+00  .000E+00  .000E+00
  .000E+00  .000E+00  .000E+00  .000E+00  .000E+00  .000E+00  .000E+00  .000E+00
  .000E+00  .000E+00  .000E+00  .000E+00  .000E+00  .000E+00  .000E+00  .000E+00
  .000E+00  .000E+00  .000E+00  .000E+00
Damping =  .05. Data of Sd,Sv,Sa,Pssv,ttSd,ttSv,ttSa :
  .962E-03  .108E-02  .126E-02  .142E-02  .147E-02  .164E-02  .205E-02  .272E-02
  .379E-02  .395E-02  .487E-02  .575E-02  .873E-02  .986E-02  .114E-01  .152E-01
  .198E-01  .160E-01  .191E-01  .191E-01  .222E-01  .271E-01  .340E-01  .405E-01
  .493E-01  .555E-01  .721E-01  .857E-01  .912E-01  .961E-01  .104E+00  .107E+00
  .114E+00  .117E+00  .115E+00  .107E+00  .104E+00  .107E+00  .109E+00  .109E+00
