Response and Fourier amplitude spectra (78 periods,  .04 -  6.0 sec)   for      
Corrected accelerogram   24587-TA157-20262.03       Chan  1:  Up         from   
Uncorrected Accelerogram Data             Processed: 09/18/20, CGS  587e003     
Rcrd of Fri Sep 18, 2020 23:38:23.0 PDT               (Avol1 v2.0, 4/18 CSMIP)  
CSMIP Preliminary Processing            (Origin:  To be determined)             
24587-TA157-20262.03                 Start time:  9/19/20, 06:38:23.0 UTC (GPS) 
Station No. 24587   34.194N, 118.350W    130-SM  s/n A157  (3 Chns of  3 at Sta)
Burbank - N. Hollywood & Airport          CGS   Data: Acceleration              
Chan  1:  Up                                                                    
Rcrd of Fri Sep 18, 2020 23:38:23.0 PDT    Fri Sep 18, 2020 23:38:23.0 PDT      
Hypocenter:  To be determined.               ML:  To be determined.             
Instr Period =  .0011 sec,  Damping =  .100,  Sensitivity = 2.49 v/g            
                        Record Length = 60.000 sec.                             
                                     Uncor Max  =  -.032 g, at   30.290 sec.    
RMS accel of (uncor) record  =        .   Chn. metadata effective date: 08/11/14
Accelerogram bandpass filtered with 3 dB pts at   .30 and 40.00 cyc/sec         
                 instrument- and base-line correcte                             
                                                                                
                                                                                
                                                                                
                                                                                
                                                                                
Rcrd of Fri Sep 18, 2020 23:38:23.0 PDT    Fri Sep 18, 2020 23:38:23.0 PDT      
                                                                                
24587-TA157-20262.03      Burbank - N. Hollywood & Airport    Chan  1:  Up      
                                                                                
24587-TA157-20262.03      Burbank - N. Hollywood & Airport    Chan  1:  Up      
                                                                                
Units for spectra are inches and sec, except Sa is in fraction of g.            
                                                                                
    1  100    1    3    3  200    1    3    1   32  702 -999    024587   21    0
    6   38   23    0  263    9   19 2020   10    3  50013993   39   32   74  360
13993    1  100    3 -999    1    3 -999 -999 -999 -999 -999 -999 -999 -999 -999
 -999 -999 -999 -99912000    1  200    0   24  256 -999 -999    3    1 -99912000
    312000    4   78    1    3    5    0    0 -999    0    0 -999 -999    1    2
    2    2    4    0   32   67    0    1 -999    0    0    1    0 -999    0  222
    1 -999    0 -999
      .001      .100    69.965      .002     1.000  2492.000     -.032    30.290
   900.000     1.586      .636  -999.000     5.000  -999.000     3.500  -999.000
    10.000  1004.741    10.000  -999.000    30.810    29.995  -999.000      .004
     -.001     -.005     2.000    15.000    34.194  -118.350      .032      .130
     4.033     -.015      .005   207.000    30.811    39.965    15.000  -999.000
     1.000  -999.000    -8.000  -999.000  -999.000  -999.000  -999.000   120.000
     7.300     2.000     6.800   980.665      .005    60.000   143.239      .000
  -999.000    40.000  -999.000    60.000      .005      .300  -999.000  -999.000
    30.295   -30.823    30.280      .698    38.155      .045      .000      .300
    40.000      .005      .005      .000      .005      .018  -999.000  -999.000
      .114      .130      .038      .034      .005      .000  -999.000  -999.000
  -999.000  -999.000  -999.000  -999.000  -999.000  -999.000  -999.000  -999.000
  -999.000  -999.000  -999.000  -999.000
      .050
      .040      .042      .044      .046      .048      .050      .055      .060
      .065      .070      .075      .080      .085      .090      .095      .100
      .110      .120      .130      .140      .150      .160      .170      .180
      .190      .200      .220      .240      .260      .280      .300      .320
      .340      .360      .380      .400      .420      .440      .460      .480
      .500      .550      .600      .650      .700      .750      .800      .850
      .900      .950     1.000     1.100     1.200     1.300     1.400     1.500
     1.600     1.700     1.800     1.900     2.000     2.200     2.400     2.600
     2.800     3.000     3.200     3.400     3.600     3.800     4.000     4.200
     4.400     4.600     4.800     5.000     5.500     6.000      .000      .000
      .000      .000      .000      .000      .000      .000      .000      .000
      .000      .000      .000      .000      .000      .000      .000      .000
      .000      .000      .000      .000
Fourier amplitude spectra in in/sec.
  .000E+00  .000E+00  .000E+00  .000E+00  .000E+00  .000E+00  .000E+00  .000E+00
  .000E+00  .000E+00  .000E+00  .000E+00  .000E+00  .000E+00  .000E+00  .000E+00
  .000E+00  .000E+00  .000E+00  .000E+00  .000E+00  .000E+00  .000E+00  .000E+00
  .000E+00  .000E+00  .000E+00  .000E+00  .000E+00  .000E+00  .000E+00  .000E+00
  .000E+00  .000E+00  .000E+00  .000E+00  .000E+00  .000E+00  .000E+00  .000E+00
  .000E+00  .000E+00  .000E+00  .000E+00  .000E+00  .000E+00  .000E+00  .000E+00
  .000E+00  .000E+00  .000E+00  .000E+00  .000E+00  .000E+00  .000E+00  .000E+00
  .000E+00  .000E+00  .000E+00  .000E+00  .000E+00  .000E+00  .000E+00  .000E+00
  .000E+00  .000E+00  .000E+00  .000E+00  .000E+00  .000E+00  .000E+00  .000E+00
  .000E+00  .000E+00  .000E+00  .000E+00  .000E+00  .000E+00  .000E+00  .000E+00
  .000E+00  .000E+00  .000E+00  .000E+00  .000E+00  .000E+00  .000E+00  .000E+00
  .000E+00  .000E+00  .000E+00  .000E+00  .000E+00  .000E+00  .000E+00  .000E+00
  .000E+00  .000E+00  .000E+00  .000E+00
Damping =  .05. Data of Sd,Sv,Sa,Pssv,ttSd,ttSv,ttSa :
  .110E-02  .113E-02  .137E-02  .155E-02  .175E-02  .202E-02  .262E-02  .274E-02
  .324E-02  .360E-02  .395E-02  .485E-02  .654E-02  .851E-02  .986E-02  .105E-01
  .109E-01  .157E-01  .187E-01  .173E-01  .152E-01  .155E-01  .148E-01  .155E-01
  .157E-01  .150E-01  .140E-01  .178E-01  .328E-01  .369E-01  .270E-01  .213E-01
  .215E-01  .202E-01  .195E-01  .203E-01  .224E-01  .224E-01  .241E-01  .255E-01
  .269E-01  .285E-01  .291E-01  .310E-01  .309E-01  .362E-01  .491E-01  .615E-01
  .626E-01  .569E-01  .509E-01  .413E-01  .519E-01  .629E-01  .661E-01  .650E-01
  .531E-01  .500E-01  .446E-01  .402E-01  .364E-01  .312E-01  .276E-01  .232E-01
  .210E-01  .197E-01  .177E-01  .167E-01  .175E-01  .182E-01  .186E-01  .187E-01
  .188E-01  .187E-01  .186E-01  .185E-01  .185E-01  .183E-01  .000E+00  .000E+00
  .000E+00  .000E+00  .000E+00  .000E+00  .000E+00  .000E+00  .000E+00  .000E+00
  .000E+00  .000E+00  .000E+00  .000E+00  .000E+00  .000E+00  .000E+00  .000E+00
  .000E+00  .000E+00  .000E+00  .000E+00
  .139E+00  .135E+00  .152E+00  .168E+00  .192E+00  .224E+00  .266E+00  .236E+00
  .229E+00  .221E+00  .275E+00  .284E+00  .399E+00  .541E+00  .629E+00  .626E+00
  .607E+00  .825E+00  .912E+00  .829E+00  .696E+00  .621E+00  .609E+00  .611E+00
  .621E+00  .608E+00  .498E+00  .471E+00  .802E+00  .866E+00  .664E+00  .605E+00
  .540E+00  .443E+00  .375E+00  .402E+00  .425E+00  .433E+00  .452E+00  .457E+00
  .457E+00  .416E+00  .413E+00  .367E+00  .327E+00  .316E+00  .401E+00  .460E+00
  .467E+00  .438E+00  .358E+00  .263E+00  .313E+00  .359E+00  .346E+00  .306E+00
  .286E+00  .274E+00  .274E+00  .275E+00  .275E+00  .274E+00  .274E+00  .274E+00
  .274E+00  .273E+00  .273E+00  .273E+00  .273E+00  .273E+00  .273E+00  .273E+00
  .273E+00  .273E+00  .273E+00  .273E+00  .273E+00  .272E+00  .000E+00  .000E+00
  .000E+00  .000E+00  .000E+00  .000E+00  .000E+00  .000E+00  .000E+00  .000E+00
  .000E+00  .000E+00  .000E+00  .000E+00  .000E+00  .000E+00  .000E+00  .000E+00
  .000E+00  .000E+00  .000E+00  .000E+00
  .709E-01  .656E-01  .726E-01  .751E-01  .773E-01  .838E-01  .893E-01  .778E-01
  .789E-01  .756E-01  .722E-01  .783E-01  .928E-01  .108E+00  .113E+00  .108E+00
  .923E-01  .112E+00  .114E+00  .906E-01  .699E-01  .624E-01  .529E-01  .493E-01
  .449E-01  .386E-01  .297E-01  .318E-01  .499E-01  .484E-01  .309E-01  .214E-01
  .191E-01  .161E-01  .139E-01  .131E-01  .131E-01  .119E-01  .117E-01  .114E-01
  .111E-01  .978E-02  .832E-02  .756E-02  .649E-02  .662E-02  .790E-02  .875E-02
  .796E-02  .648E-02  .525E-02  .352E-02  .372E-02  .383E-02  .348E-02  .298E-02
  .215E-02  .180E-02  .145E-02  .118E-02  .972E-03  .697E-03  .527E-03  .387E-03
  .284E-03  .239E-03  .204E-03  .176E-03  .166E-03  .156E-03  .145E-03  .134E-03
  .124E-03  .115E-03  .106E-03  .999E-04  .895E-04  .811E-04  .000E+00  .000E+00
  .000E+00  .000E+00  .000E+00  .000E+00  .000E+00  .000E+00  .000E+00  .000E+00
  .000E+00  .000E+00  .000E+00  .000E+00  .000E+00  .000E+00  .000E+00  .000E+00
  .000E+00  .000E+00  .000E+00  .000E+00
  .173E+00  .168E+00  .195E+00  .211E+00  .229E+00  .254E+00  .300E+00  .287E+00
  .313E+00  .323E+00  .331E+00  .381E+00  .483E+00  .594E+00  .652E+00  .660E+00
  .621E+00  .822E+00  .904E+00  .775E+00  .636E+00  .609E+00  .547E+00  .541E+00
  .520E+00  .470E+00  .399E+00  .466E+00  .793E+00  .828E+00  .565E+00  .419E+00
  .397E+00  .352E+00  .322E+00  .319E+00  .335E+00  .320E+00  .329E+00  .334E+00
  .338E+00  .326E+00  .305E+00  .300E+00  .277E+00  .303E+00  .386E+00  .454E+00
  .437E+00  .376E+00  .320E+00  .236E+00  .272E+00  .304E+00  .297E+00  .272E+00
  .209E+00  .185E+00  .156E+00  .133E+00  .115E+00  .891E-01  .723E-01  .561E-01
  .471E-01  .413E-01  .348E-01  .308E-01  .306E-01  .302E-01  .292E-01  .280E-01
  .268E-01  .256E-01  .244E-01  .233E-01  .211E-01  .191E-01  .000E+00  .000E+00
  .000E+00  .000E+00  .000E+00  .000E+00  .000E+00  .000E+00  .000E+00  .000E+00
  .000E+00  .000E+00  .000E+00  .000E+00  .000E+00  .000E+00  .000E+00  .000E+00
  .000E+00  .000E+00  .000E+00  .000E+00
  .303E+02  .302E+02  .302E+02  .302E+02  .302E+02  .302E+02  .303E+02  .302E+02
  .302E+02  .302E+02  .343E+02  .303E+02  .303E+02  .303E+02  .303E+02  .304E+02
  .304E+02  .305E+02  .305E+02  .304E+02  .304E+02  .344E+02  .304E+02  .304E+02
  .304E+02  .304E+02  .303E+02  .355E+02  .355E+02  .355E+02  .347E+02  .342E+02
  .342E+02  .342E+02  .343E+02  .348E+02  .348E+02  .346E+02  .346E+02  .346E+02
  .346E+02  .352E+02  .356E+02  .383E+02  .388E+02  .400E+02  .396E+02  .397E+02
  .398E+02  .394E+02  .394E+02  .395E+02  .395E+02  .390E+02  .386E+02  .386E+02
  .381E+02  .381E+02  .381E+02  .381E+02  .381E+02  .382E+02  .382E+02  .382E+02
  .377E+02  .377E+02  .377E+02  .381E+02  .381E+02  .381E+02  .381E+02  .381E+02
  .381E+02  .381E+02  .381E+02  .381E+02  .381E+02  .381E+02  .000E+00  .000E+00
  .000E+00  .000E+00  .000E+00  .000E+00  .000E+00  .000E+00  .000E+00  .000E+00
  .000E+00  .000E+00  .000E+00  .000E+00  .000E+00  .000E+00  .000E+00  .000E+00
  .000E+00  .000E+00  .000E+00  .000E+00
  .337E+02  .302E+02  .302E+02  .302E+02  .302E+02  .302E+02  .302E+02  .302E+02
  .302E+02  .302E+02  .343E+02  .303E+02  .303E+02  .303E+02  .303E+02  .303E+02
  .305E+02  .305E+02  .305E+02  .304E+02  .304E+02  .344E+02  .304E+02  .304E+02
  .303E+02  .303E+02  .303E+02  .303E+02  .353E+02  .352E+02  .352E+02  .343E+02
  .343E+02  .343E+02  .343E+02  .349E+02  .349E+02  .347E+02  .347E+02  .347E+02
  .352E+02  .345E+02  .346E+02  .346E+02  .346E+02  .398E+02  .398E+02  .395E+02
  .395E+02  .396E+02  .396E+02  .303E+02  .393E+02  .393E+02  .389E+02  .383E+02
  .385E+02  .303E+02  .303E+02  .303E+02  .303E+02  .303E+02  .303E+02  .303E+02
  .303E+02  .303E+02  .303E+02  .303E+02  .303E+02  .303E+02  .303E+02  .303E+02
  .303E+02  .303E+02  .303E+02  .303E+02  .303E+02  .303E+02  .000E+00  .000E+00
  .000E+00  .000E+00  .000E+00  .000E+00  .000E+00  .000E+00  .000E+00  .000E+00
  .000E+00  .000E+00  .000E+00  .000E+00  .000E+00  .000E+00  .000E+00  .000E+00
  .000E+00  .000E+00  .000E+00  .000E+00
  .303E+02  .302E+02  .302E+02  .302E+02  .302E+02  .302E+02  .303E+02  .302E+02
  .302E+02  .302E+02  .343E+02  .303E+02  .303E+02  .303E+02  .303E+02  .304E+02
  .305E+02  .306E+02  .305E+02  .304E+02  .304E+02  .344E+02  .304E+02  .304E+02
  .304E+02  .304E+02  .303E+02  .355E+02  .355E+02  .355E+02  .347E+02  .342E+02
  .342E+02  .342E+02  .342E+02  .347E+02  .348E+02  .346E+02  .346E+02  .346E+02
  .346E+02  .352E+02  .356E+02  .383E+02  .387E+02  .400E+02  .396E+02  .397E+02
  .397E+02  .394E+02  .394E+02  .394E+02  .395E+02  .390E+02  .385E+02  .386E+02
  .386E+02  .381E+02  .381E+02  .381E+02  .381E+02  .381E+02  .381E+02  .381E+02
  .377E+02  .365E+02  .365E+02  .381E+02  .381E+02  .381E+02  .381E+02  .381E+02
  .381E+02  .381E+02  .381E+02  .303E+02  .303E+02  .303E+02  .000E+00  .000E+00
  .000E+00  .000E+00  .000E+00  .000E+00  .000E+00  .000E+00  .000E+00  .000E+00
  .000E+00  .000E+00  .000E+00  .000E+00  .000E+00  .000E+00  .000E+00  .000E+00
  .000E+00  .000E+00  .000E+00  .000E+00
/&   ----------  End of spectral data for channel  1  ----------
Response and Fourier amplitude spectra (78 periods,  .04 -  6.0 sec)   for      
Corrected accelerogram   24587-TA157-20262.03       Chan  2: 360 Deg     from   
Uncorrected Accelerogram Data             Processed: 09/18/20, CGS  587e003     
Rcrd of Fri Sep 18, 2020 23:38:23.0 PDT               (Avol1 v2.0, 4/18 CSMIP)  
CSMIP Preliminary Processing            (Origin:  To be determined)             
24587-TA157-20262.03                 Start time:  9/19/20, 06:38:23.0 UTC (GPS) 
Station No. 24587   34.194N, 118.350W    130-SM  s/n A157  (3 Chns of  3 at Sta)
Burbank - N. Hollywood & Airport          CGS   Data: Acceleration              
Chan  2: 360 Deg                                                                
Rcrd of Fri Sep 18, 2020 23:38:23.0 PDT    Fri Sep 18, 2020 23:38:23.0 PDT      
Hypocenter:  To be determined.               ML:  To be determined.             
Instr Period =  .0011 sec,  Damping =  .100,  Sensitivity = 2.51 v/g            
                        Record Length = 60.000 sec.                             
                                     Uncor Max  =  -.030 g, at   34.255 sec.    
RMS accel of (uncor) record  =        .   Chn. metadata effective date: 08/11/14
Accelerogram bandpass filtered with 3 dB pts at   .30 and 40.00 cyc/sec         
                 instrument- and base-line correcte                             
                                                                                
                                                                                
                                                                                
                                                                                
                                                                                
Rcrd of Fri Sep 18, 2020 23:38:23.0 PDT    Fri Sep 18, 2020 23:38:23.0 PDT      
                                                                                
24587-TA157-20262.03      Burbank - N. Hollywood & Airport    Chan  2: 360 Deg  
                                                                                
24587-TA157-20262.03      Burbank - N. Hollywood & Airport    Chan  2: 360 Deg  
                                                                                
Units for spectra are inches and sec, except Sa is in fraction of g.            
                                                                                
    2  100    2    3    3  200    1    3    1   32  702 -999    024587   21    0
    6   38   23    0  263    9   19 2020   10    3  36013993   39   32   74  360
13993    1  100    3 -999    1    3 -999 -999 -999 -999 -999 -999 -999 -999 -999
 -999 -999 -999 -99912000    1  200    0   24  256 -999 -999    3    1 -99912000
    312000    4   78    1    3    5    0    0 -999    0    0 -999 -999    1    2
    2    2    4    0   32   67    0    1 -999    0    0    1    0 -999    0  222
    1 -999    0 -999
      .001      .100    69.965      .002     1.000  2506.000     -.030    34.255
   900.000     1.586      .633  -999.000     5.000  -999.000     3.500  -999.000
    10.000     1.524    10.000  -999.000    30.810    29.995  -999.000     -.003
      .002      .005     2.000    15.000    34.194  -118.350      .029      .200
     6.870     -.009      .019   207.000    30.811    39.965    15.000  -999.000
     1.000  -999.000    -8.000  -999.000  -999.000  -999.000  -999.000   120.000
     7.300     2.000     6.800   980.665      .005    60.000   143.239      .001
  -999.000    40.000  -999.000    60.000      .005      .300  -999.000  -999.000
    34.255   -29.811    34.450     1.656    34.345     -.124      .000      .300
    40.000      .005      .005      .000      .005      .021  -999.000  -999.000
      .124      .110      .069      .069      .007      .001  -999.000  -999.000
  -999.000  -999.000  -999.000  -999.000  -999.000  -999.000  -999.000  -999.000
  -999.000  -999.000  -999.000  -999.000
      .050
      .040      .042      .044      .046      .048      .050      .055      .060
      .065      .070      .075      .080      .085      .090      .095      .100
      .110      .120      .130      .140      .150      .160      .170      .180
      .190      .200      .220      .240      .260      .280      .300      .320
      .340      .360      .380      .400      .420      .440      .460      .480
      .500      .550      .600      .650      .700      .750      .800      .850
      .900      .950     1.000     1.100     1.200     1.300     1.400     1.500
     1.600     1.700     1.800     1.900     2.000     2.200     2.400     2.600
     2.800     3.000     3.200     3.400     3.600     3.800     4.000     4.200
     4.400     4.600     4.800     5.000     5.500     6.000      .000      .000
      .000      .000      .000      .000      .000      .000      .000      .000
      .000      .000      .000      .000      .000      .000      .000      .000
      .000      .000      .000      .000
Fourier amplitude spectra in in/sec.
  .000E+00  .000E+00  .000E+00  .000E+00  .000E+00  .000E+00  .000E+00  .000E+00
  .000E+00  .000E+00  .000E+00  .000E+00  .000E+00  .000E+00  .000E+00  .000E+00
  .000E+00  .000E+00  .000E+00  .000E+00  .000E+00  .000E+00  .000E+00  .000E+00
  .000E+00  .000E+00  .000E+00  .000E+00  .000E+00  .000E+00  .000E+00  .000E+00
  .000E+00  .000E+00  .000E+00  .000E+00  .000E+00  .000E+00  .000E+00  .000E+00
  .000E+00  .000E+00  .000E+00  .000E+00  .000E+00  .000E+00  .000E+00  .000E+00
  .000E+00  .000E+00  .000E+00  .000E+00  .000E+00  .000E+00  .000E+00  .000E+00
  .000E+00  .000E+00  .000E+00  .000E+00  .000E+00  .000E+00  .000E+00  .000E+00
  .000E+00  .000E+00  .000E+00  .000E+00  .000E+00  .000E+00  .000E+00  .000E+00
  .000E+00  .000E+00  .000E+00  .000E+00  .000E+00  .000E+00  .000E+00  .000E+00
  .000E+00  .000E+00  .000E+00  .000E+00  .000E+00  .000E+00  .000E+00  .000E+00
  .000E+00  .000E+00  .000E+00  .000E+00  .000E+00  .000E+00  .000E+00  .000E+00
  .000E+00  .000E+00  .000E+00  .000E+00
Damping =  .05. Data of Sd,Sv,Sa,Pssv,ttSd,ttSv,ttSa :
  .574E-03  .657E-03  .813E-03  .937E-03  .108E-02  .120E-02  .143E-02  .182E-02
  .260E-02  .333E-02  .359E-02  .361E-02  .455E-02  .530E-02  .701E-02  .964E-02
  .146E-01  .165E-01  .184E-01  .175E-01  .153E-01  .141E-01  .135E-01  .154E-01
  .205E-01  .259E-01  .390E-01  .468E-01  .516E-01  .566E-01  .605E-01  .625E-01
  .630E-01  .625E-01  .610E-01  .593E-01  .584E-01  .586E-01  .595E-01  .607E-01
