Response and Fourier amplitude spectra (78 periods,  .04 -  6.0 sec)   for      
Corrected accelerogram   24088-O1572-20263.04       Chan  1:  Up         from   
Uncorrected Accelerogram Data             Processed: 09/18/20, CGS  ce24088d    
Rcrd of Fri Sep 18, 2020 23:38:25.0 PDT               (Avol1 v2.0, 4/18 CSMIP)  
CSMIP Preliminary Processing            (Origin:  To be determined)             
24088-O1572-20263.04                 Start time:  9/19/20, 06:38:25.0 UTC (GPS) 
Station No. 24088   34.296N, 118.376W    Obsidn  s/n 1572  (3 Chns of  3 at Sta)
Pacoima - Kagel Canyon Fire Sta           CGS   Data: Acceleration              
Chan  1:  Up                                                                    
Rcrd of Fri Sep 18, 2020 23:38:25.0 PDT    Fri Sep 18, 2020 23:38:25.0 PDT      
Hypocenter:  To be determined.               ML:  To be determined.             
Instr Period =  .0047 sec,  Damping =  .700,  Sensitivity = 1.25 v/g            
                        Record Length = 67.000 sec.                             
                                     Uncor Max  =   .019 g, at   29.605 sec.    
RMS accel of (uncor) record  =        .   Chn. metadata effective date: 01/28/20
Accelerogram bandpass filtered with 3 dB pts at   .30 and 40.00 cyc/sec         
                 instrument- and base-line correcte                             
                                                                                
                                                                                
                                                                                
                                                                                
                                                                                
Rcrd of Fri Sep 18, 2020 23:38:25.0 PDT    Fri Sep 18, 2020 23:38:25.0 PDT      
                                                                                
24088-O1572-20263.04      Pacoima - Kagel Canyon Fire Sta   Chan  1:  Up        
                                                                                
24088-O1572-20263.04      Pacoima - Kagel Canyon Fire Sta   Chan  1:  Up        
                                                                                
Units for spectra are inches and sec, except Sa is in fraction of g.            
                                                                                
    1  100    1    3    3  200    1    3    1   24   32 1572    024088   11    0
    6   38   25    0  263    9   19 2020   10    3  50013400   39   31   74  360
13400    1  100    3 1572    1    4  670    2 -999 -999 -999 -999 -999 -999 -999
 -999 -999    3 -999 6700    2  202    0   24   20 -999 -999    3    1 -999 6700
    3 6700    4   78    1    3    5    0    0 -999    0    0    1    3    1    2
    2    2    4    0   32   67    0    5 -999    0    0    1    0    0    0  222
    1    0    2    0
      .005      .700    67.000      .001     1.000  1253.000      .019    29.605
   212.000      .596      .476  -999.000     5.000  -999.000     4.000  -999.000
     5.000   -21.263     5.000   508.000    30.000    30.000  -999.000     -.002
      .002      .004     2.000    15.000    34.296  -118.376      .014      .110
     7.964     -.004      .012   451.000    30.000    37.900    13.300    99.500
     1.000    11.003    -8.000  -999.000  -999.000  -999.000  -999.000  -999.000
     6.900     2.000     6.800   980.665      .010    67.000    33.741      .000
  -999.000    40.000  -999.000    67.000      .010      .300  -999.000  -999.000
    29.610    17.864    29.580     -.285    37.400      .026      .000      .300
    40.000      .010      .010      .000      .010      .011  -999.000  -999.000
      .060      .120      .019      .015      .003      .000  -999.000  -999.000
  -999.000  -999.000  -999.000  -999.000  -999.000  -999.000  -999.000  -999.000
  -999.000  -999.000  -999.000  -999.000
      .050
      .040      .042      .044      .046      .048      .050      .055      .060
      .065      .070      .075      .080      .085      .090      .095      .100
      .110      .120      .130      .140      .150      .160      .170      .180
      .190      .200      .220      .240      .260      .280      .300      .320
      .340      .360      .380      .400      .420      .440      .460      .480
      .500      .550      .600      .650      .700      .750      .800      .850
      .900      .950     1.000     1.100     1.200     1.300     1.400     1.500
     1.600     1.700     1.800     1.900     2.000     2.200     2.400     2.600
     2.800     3.000     3.200     3.400     3.600     3.800     4.000     4.200
     4.400     4.600     4.800     5.000     5.500     6.000      .000      .000
      .000      .000      .000      .000      .000      .000      .000      .000
      .000      .000      .000      .000      .000      .000      .000      .000
      .000      .000      .000      .000
Fourier amplitude spectra in in/sec.
  .000E+00  .000E+00  .000E+00  .000E+00  .000E+00  .000E+00  .000E+00  .000E+00
  .000E+00  .000E+00  .000E+00  .000E+00  .000E+00  .000E+00  .000E+00  .000E+00
  .000E+00  .000E+00  .000E+00  .000E+00  .000E+00  .000E+00  .000E+00  .000E+00
  .000E+00  .000E+00  .000E+00  .000E+00  .000E+00  .000E+00  .000E+00  .000E+00
  .000E+00  .000E+00  .000E+00  .000E+00  .000E+00  .000E+00  .000E+00  .000E+00
  .000E+00  .000E+00  .000E+00  .000E+00  .000E+00  .000E+00  .000E+00  .000E+00
  .000E+00  .000E+00  .000E+00  .000E+00  .000E+00  .000E+00  .000E+00  .000E+00
  .000E+00  .000E+00  .000E+00  .000E+00  .000E+00  .000E+00  .000E+00  .000E+00
  .000E+00  .000E+00  .000E+00  .000E+00  .000E+00  .000E+00  .000E+00  .000E+00
  .000E+00  .000E+00  .000E+00  .000E+00  .000E+00  .000E+00  .000E+00  .000E+00
  .000E+00  .000E+00  .000E+00  .000E+00  .000E+00  .000E+00  .000E+00  .000E+00
  .000E+00  .000E+00  .000E+00  .000E+00  .000E+00  .000E+00  .000E+00  .000E+00
  .000E+00  .000E+00  .000E+00  .000E+00
Damping =  .05. Data of Sd,Sv,Sa,Pssv,ttSd,ttSv,ttSa :
  .315E-03  .363E-03  .415E-03  .461E-03  .508E-03  .574E-03  .768E-03  .907E-03
  .120E-02  .159E-02  .221E-02  .310E-02  .394E-02  .450E-02  .463E-02  .446E-02
  .626E-02  .864E-02  .925E-02  .827E-02  .698E-02  .613E-02  .628E-02  .673E-02
  .690E-02  .733E-02  .873E-02  .774E-02  .118E-01  .131E-01  .133E-01  .137E-01
  .120E-01  .126E-01  .132E-01  .140E-01  .162E-01  .173E-01  .178E-01  .188E-01
  .193E-01  .201E-01  .226E-01  .257E-01  .211E-01  .260E-01  .197E-01  .177E-01
  .208E-01  .224E-01  .246E-01  .320E-01  .326E-01  .335E-01  .324E-01  .346E-01
  .328E-01  .292E-01  .228E-01  .194E-01  .195E-01  .226E-01  .234E-01  .219E-01
  .199E-01  .172E-01  .174E-01  .174E-01  .167E-01  .157E-01  .147E-01  .138E-01
  .132E-01  .127E-01  .124E-01  .121E-01  .117E-01  .114E-01  .000E+00  .000E+00
  .000E+00  .000E+00  .000E+00  .000E+00  .000E+00  .000E+00  .000E+00  .000E+00
  .000E+00  .000E+00  .000E+00  .000E+00  .000E+00  .000E+00  .000E+00  .000E+00
  .000E+00  .000E+00  .000E+00  .000E+00
  .275E-01  .284E-01  .348E-01  .385E-01  .418E-01  .450E-01  .625E-01  .644E-01
  .844E-01  .114E+00  .160E+00  .226E+00  .284E+00  .314E+00  .310E+00  .298E+00
  .352E+00  .459E+00  .487E+00  .392E+00  .332E+00  .285E+00  .280E+00  .296E+00
  .306E+00  .309E+00  .255E+00  .252E+00  .310E+00  .301E+00  .279E+00  .272E+00
  .233E+00  .228E+00  .248E+00  .256E+00  .267E+00  .274E+00  .268E+00  .286E+00
  .303E+00  .282E+00  .283E+00  .259E+00  .224E+00  .228E+00  .196E+00  .166E+00
  .169E+00  .187E+00  .192E+00  .197E+00  .171E+00  .194E+00  .180E+00  .167E+00
  .165E+00  .134E+00  .133E+00  .129E+00  .125E+00  .129E+00  .138E+00  .141E+00
  .141E+00  .139E+00  .136E+00  .131E+00  .127E+00  .123E+00  .120E+00  .118E+00
  .117E+00  .116E+00  .116E+00  .115E+00  .115E+00  .114E+00  .000E+00  .000E+00
  .000E+00  .000E+00  .000E+00  .000E+00  .000E+00  .000E+00  .000E+00  .000E+00
  .000E+00  .000E+00  .000E+00  .000E+00  .000E+00  .000E+00  .000E+00  .000E+00
  .000E+00  .000E+00  .000E+00  .000E+00
  .202E-01  .210E-01  .220E-01  .223E-01  .226E-01  .236E-01  .260E-01  .256E-01
  .288E-01  .333E-01  .407E-01  .498E-01  .560E-01  .570E-01  .528E-01  .465E-01
  .524E-01  .604E-01  .563E-01  .432E-01  .320E-01  .248E-01  .227E-01  .215E-01
  .196E-01  .187E-01  .185E-01  .139E-01  .179E-01  .171E-01  .153E-01  .137E-01
  .107E-01  .100E-01  .942E-02  .899E-02  .948E-02  .918E-02  .868E-02  .836E-02
  .797E-02  .685E-02  .647E-02  .625E-02  .444E-02  .474E-02  .320E-02  .252E-02
  .264E-02  .255E-02  .253E-02  .272E-02  .233E-02  .205E-02  .171E-02  .158E-02
  .132E-02  .104E-02  .728E-03  .555E-03  .504E-03  .483E-03  .424E-03  .339E-03
  .266E-03  .203E-03  .191E-03  .172E-03  .150E-03  .129E-03  .111E-03  .970E-04
  .860E-04  .773E-04  .702E-04  .645E-04  .535E-04  .454E-04  .000E+00  .000E+00
  .000E+00  .000E+00  .000E+00  .000E+00  .000E+00  .000E+00  .000E+00  .000E+00
  .000E+00  .000E+00  .000E+00  .000E+00  .000E+00  .000E+00  .000E+00  .000E+00
  .000E+00  .000E+00  .000E+00  .000E+00
  .495E-01  .543E-01  .593E-01  .630E-01  .665E-01  .722E-01  .878E-01  .950E-01
  .116E+00  .143E+00  .185E+00  .244E+00  .291E+00  .314E+00  .306E+00  .280E+00
  .358E+00  .452E+00  .447E+00  .371E+00  .292E+00  .241E+00  .232E+00  .235E+00
  .228E+00  .230E+00  .249E+00  .203E+00  .285E+00  .294E+00  .279E+00  .268E+00
  .223E+00  .220E+00  .218E+00  .220E+00  .243E+00  .247E+00  .244E+00  .246E+00
  .243E+00  .230E+00  .237E+00  .248E+00  .189E+00  .217E+00  .154E+00  .131E+00
  .145E+00  .148E+00  .155E+00  .183E+00  .171E+00  .162E+00  .146E+00  .145E+00
  .129E+00  .108E+00  .795E-01  .641E-01  .612E-01  .646E-01  .614E-01  .529E-01
  .446E-01  .361E-01  .341E-01  .322E-01  .292E-01  .259E-01  .230E-01  .207E-01
  .188E-01  .174E-01  .162E-01  .152E-01  .134E-01  .119E-01  .000E+00  .000E+00
  .000E+00  .000E+00  .000E+00  .000E+00  .000E+00  .000E+00  .000E+00  .000E+00
  .000E+00  .000E+00  .000E+00  .000E+00  .000E+00  .000E+00  .000E+00  .000E+00
  .000E+00  .000E+00  .000E+00  .000E+00
  .349E+02  .296E+02  .296E+02  .296E+02  .296E+02  .296E+02  .296E+02  .296E+02
  .296E+02  .296E+02  .296E+02  .297E+02  .297E+02  .297E+02  .297E+02  .297E+02
  .297E+02  .297E+02  .352E+02  .296E+02  .301E+02  .296E+02  .296E+02  .296E+02
  .296E+02  .365E+02  .367E+02  .367E+02  .366E+02  .366E+02  .371E+02  .371E+02
  .380E+02  .372E+02  .372E+02  .370E+02  .370E+02  .371E+02  .367E+02  .367E+02
  .365E+02  .365E+02  .397E+02  .404E+02  .401E+02  .395E+02  .359E+02  .385E+02
  .385E+02  .382E+02  .382E+02  .383E+02  .396E+02  .404E+02  .392E+02  .438E+02
  .432E+02  .426E+02  .426E+02  .380E+02  .380E+02  .380E+02  .380E+02  .380E+02
  .380E+02  .380E+02  .374E+02  .374E+02  .374E+02  .374E+02  .374E+02  .374E+02
  .374E+02  .374E+02  .374E+02  .374E+02  .374E+02  .374E+02  .000E+00  .000E+00
  .000E+00  .000E+00  .000E+00  .000E+00  .000E+00  .000E+00  .000E+00  .000E+00
  .000E+00  .000E+00  .000E+00  .000E+00  .000E+00  .000E+00  .000E+00  .000E+00
  .000E+00  .000E+00  .000E+00  .000E+00
  .296E+02  .302E+02  .302E+02  .349E+02  .349E+02  .296E+02  .296E+02  .296E+02
  .296E+02  .299E+02  .297E+02  .297E+02  .297E+02  .297E+02  .297E+02  .297E+02
  .297E+02  .296E+02  .297E+02  .297E+02  .296E+02  .296E+02  .296E+02  .296E+02
  .296E+02  .296E+02  .296E+02  .296E+02  .367E+02  .367E+02  .372E+02  .379E+02
  .378E+02  .378E+02  .371E+02  .371E+02  .371E+02  .370E+02  .370E+02  .366E+02
  .366E+02  .364E+02  .365E+02  .403E+02  .403E+02  .396E+02  .357E+02  .357E+02
  .383E+02  .384E+02  .384E+02  .384E+02  .381E+02  .394E+02  .395E+02  .441E+02
  .428E+02  .378E+02  .378E+02  .378E+02  .378E+02  .378E+02  .378E+02  .378E+02
  .378E+02  .378E+02  .378E+02  .378E+02  .378E+02  .378E+02  .378E+02  .378E+02
  .378E+02  .378E+02  .378E+02  .378E+02  .378E+02  .378E+02  .000E+00  .000E+00
  .000E+00  .000E+00  .000E+00  .000E+00  .000E+00  .000E+00  .000E+00  .000E+00
  .000E+00  .000E+00  .000E+00  .000E+00  .000E+00  .000E+00  .000E+00  .000E+00
  .000E+00  .000E+00  .000E+00  .000E+00
  .349E+02  .296E+02  .296E+02  .296E+02  .296E+02  .296E+02  .296E+02  .296E+02
  .296E+02  .296E+02  .296E+02  .297E+02  .297E+02  .297E+02  .297E+02  .297E+02
  .297E+02  .297E+02  .352E+02  .296E+02  .303E+02  .296E+02  .296E+02  .296E+02
  .296E+02  .296E+02  .367E+02  .367E+02  .366E+02  .366E+02  .371E+02  .371E+02
  .380E+02  .372E+02  .372E+02  .370E+02  .370E+02  .370E+02  .367E+02  .367E+02
  .365E+02  .365E+02  .397E+02  .404E+02  .401E+02  .395E+02  .358E+02  .385E+02
  .385E+02  .382E+02  .382E+02  .382E+02  .396E+02  .404E+02  .392E+02  .438E+02
  .431E+02  .426E+02  .426E+02  .379E+02  .379E+02  .379E+02  .380E+02  .380E+02
  .380E+02  .374E+02  .374E+02  .374E+02  .374E+02  .374E+02  .374E+02  .374E+02
  .374E+02  .374E+02  .374E+02  .374E+02  .374E+02  .374E+02  .000E+00  .000E+00
  .000E+00  .000E+00  .000E+00  .000E+00  .000E+00  .000E+00  .000E+00  .000E+00
  .000E+00  .000E+00  .000E+00  .000E+00  .000E+00  .000E+00  .000E+00  .000E+00
  .000E+00  .000E+00  .000E+00  .000E+00
/&   ----------  End of spectral data for channel  1  ----------
Response and Fourier amplitude spectra (78 periods,  .04 -  6.0 sec)   for      
Corrected accelerogram   24088-O1572-20263.04       Chan  2: 360 Deg     from   
Uncorrected Accelerogram Data             Processed: 09/18/20, CGS  ce24088d    
Rcrd of Fri Sep 18, 2020 23:38:25.0 PDT               (Avol1 v2.0, 4/18 CSMIP)  
CSMIP Preliminary Processing            (Origin:  To be determined)             
24088-O1572-20263.04                 Start time:  9/19/20, 06:38:25.0 UTC (GPS) 
Station No. 24088   34.296N, 118.376W    Obsidn  s/n 1572  (3 Chns of  3 at Sta)
Pacoima - Kagel Canyon Fire Sta           CGS   Data: Acceleration              
Chan  2: 360 Deg                                                                
Rcrd of Fri Sep 18, 2020 23:38:25.0 PDT    Fri Sep 18, 2020 23:38:25.0 PDT      
Hypocenter:  To be determined.               ML:  To be determined.             
Instr Period =  .0050 sec,  Damping =  .700,  Sensitivity = 1.25 v/g            
                        Record Length = 67.000 sec.                             
                                     Uncor Max  =  -.015 g, at   35.335 sec.    
RMS accel of (uncor) record  =        .   Chn. metadata effective date: 01/28/20
Accelerogram bandpass filtered with 3 dB pts at   .30 and 40.00 cyc/sec         
                 instrument- and base-line correcte                             
                                                                                
                                                                                
                                                                                
                                                                                
                                                                                
Rcrd of Fri Sep 18, 2020 23:38:25.0 PDT    Fri Sep 18, 2020 23:38:25.0 PDT      
                                                                                
24088-O1572-20263.04      Pacoima - Kagel Canyon Fire Sta   Chan  2: 360 Deg    
                                                                                
24088-O1572-20263.04      Pacoima - Kagel Canyon Fire Sta   Chan  2: 360 Deg    
                                                                                
Units for spectra are inches and sec, except Sa is in fraction of g.            
                                                                                
    2  100    2    3    3  200    1    3    1   24   32 1572    024088   11    0
    6   38   25    0  263    9   19 2020   10    3  36013400   39   31   74  360
13400    1  100    3 1572    1    4  670    2 -999 -999 -999 -999 -999 -999 -999
 -999 -999    3 -999 6700    2  202    0   24   20 -999 -999    3    1 -999 6700
    3 6700    4   78    1    3    5    0    0 -999    0    0    1    3    1    2
    2    2    4    0   32   67    0    5 -999    0    0    1    0    0    0  222
    1    0    2    0
      .005      .700    67.000      .001     1.000  1251.000     -.015    35.335
   200.000      .596      .476  -999.000     5.000  -999.000     4.000  -999.000
     5.000    -1.175     5.000   508.000    30.000    30.000  -999.000      .000
      .003      .004     2.000    15.000    34.296  -118.376      .009      .166
    17.784     -.008      .015   451.000    30.000    37.900    13.300    99.500
     1.000    11.003    -8.000  -999.000  -999.000  -999.000  -999.000  -999.000
     6.900     2.000     6.800   980.665      .010    67.000    31.831      .000
  -999.000    40.000  -999.000    67.000      .010      .300  -999.000  -999.000
    35.340   -14.886    35.100      .600    35.010     -.042      .000      .300
    40.000      .010      .010      .000      .010      .014  -999.000  -999.000
      .056      .095      .040      .018      .004      .000  -999.000  -999.000
  -999.000  -999.000  -999.000  -999.000  -999.000  -999.000  -999.000  -999.000
  -999.000  -999.000  -999.000  -999.000
      .050
      .040      .042      .044      .046      .048      .050      .055      .060
      .065      .070      .075      .080      .085      .090      .095      .100
      .110      .120      .130      .140      .150      .160      .170      .180
      .190      .200      .220      .240      .260      .280      .300      .320
      .340      .360      .380      .400      .420      .440      .460      .480
      .500      .550      .600      .650      .700      .750      .800      .850
      .900      .950     1.000     1.100     1.200     1.300     1.400     1.500
     1.600     1.700     1.800     1.900     2.000     2.200     2.400     2.600
     2.800     3.000     3.200     3.400     3.600     3.800     4.000     4.200
     4.400     4.600     4.800     5.000     5.500     6.000      .000      .000
      .000      .000      .000      .000      .000      .000      .000      .000
      .000      .000      .000      .000      .000      .000      .000      .000
      .000      .000      .000      .000
Fourier amplitude spectra in in/sec.
  .000E+00  .000E+00  .000E+00  .000E+00  .000E+00  .000E+00  .000E+00  .000E+00
  .000E+00  .000E+00  .000E+00  .000E+00  .000E+00  .000E+00  .000E+00  .000E+00
  .000E+00  .000E+00  .000E+00  .000E+00  .000E+00  .000E+00  .000E+00  .000E+00
  .000E+00  .000E+00  .000E+00  .000E+00  .000E+00  .000E+00  .000E+00  .000E+00
  .000E+00  .000E+00  .000E+00  .000E+00  .000E+00  .000E+00  .000E+00  .000E+00
  .000E+00  .000E+00  .000E+00  .000E+00  .000E+00  .000E+00  .000E+00  .000E+00
  .000E+00  .000E+00  .000E+00  .000E+00  .000E+00  .000E+00  .000E+00  .000E+00
  .000E+00  .000E+00  .000E+00  .000E+00  .000E+00  .000E+00  .000E+00  .000E+00
  .000E+00  .000E+00  .000E+00  .000E+00  .000E+00  .000E+00  .000E+00  .000E+00
  .000E+00  .000E+00  .000E+00  .000E+00  .000E+00  .000E+00  .000E+00  .000E+00
  .000E+00  .000E+00  .000E+00  .000E+00  .000E+00  .000E+00  .000E+00  .000E+00
  .000E+00  .000E+00  .000E+00  .000E+00  .000E+00  .000E+00  .000E+00  .000E+00
  .000E+00  .000E+00  .000E+00  .000E+00
Damping =  .05. Data of Sd,Sv,Sa,Pssv,ttSd,ttSv,ttSa :
  .300E-03  .336E-03  .369E-03  .404E-03  .418E-03  .444E-03  .597E-03  .701E-03
  .990E-03  .134E-02  .197E-02  .263E-02  .329E-02  .397E-02  .494E-02  .480E-02
  .490E-02  .586E-02  .685E-02  .745E-02  .708E-02  .694E-02  .903E-02  .120E-01
  .140E-01  .167E-01  .171E-01  .141E-01  .116E-01  .139E-01  .133E-01  .191E-01
  .275E-01  .315E-01  .279E-01  .227E-01  .225E-01  .279E-01  .342E-01  .369E-01
