Response and Fourier amplitude spectra (78 periods,  .04 -  6.0 sec)   for      
Corrected accelerogram   24602-G0524-20263.16       Chan  1:  Up         from   
Uncorrected Accelerogram Data             Processed: 09/18/20, CGS  ce24602p    
Rcrd of Fri Sep 18, 2020 23:38:25.0 PDT               (Avol1 v2.0, 4/18 CSMIP)  
CSMIP Preliminary Processing            (Origin:  To be determined)             
24602-G0524-20263.16                 Start time:  9/19/20, 06:38:25.0 UTC (Unk) 
Station No. 24602   34.051N, 118.259W    Granit  s/n  524 (18 Chns of 20 at Sta)
Los Angeles - 52-story Office Bldg.       CGS   Data: Acceleration              
Chan  1:  Up                        Location: Bsmt Level E: Center              
Rcrd of Fri Sep 18, 2020 23:38:25.0 PDT    Fri Sep 18, 2020 23:38:25.0 PDT      
Hypocenter:  To be determined.               ML:  To be determined.             
Instr Period =  .0190 sec,  Damping =  .660,  Sensitivity = 1.24 v/g            
                        Record Length = 77.000 sec.                             
                                     Uncor Max  =   .031 g, at   31.060 sec.    
RMS accel of (uncor) record  =        .   Chn. metadata effective date: 03/21/17
Accelerogram bandpass filtered with 3 dB pts at   .30 and 40.00 cyc/sec         
                 instrument- and base-line correcte                             
                                                                                
                                                                                
                                                                                
                                                                                
                                                                                
Rcrd of Fri Sep 18, 2020 23:38:25.0 PDT    Fri Sep 18, 2020 23:38:25.0 PDT      
                                                                                
24602-G0524-20263.16      Los Angeles - 52-story Office Bldg.   Chan  1:  Up    
                                                                                
24602-G0524-20263.16      Los Angeles - 52-story Office Bldg.   Chan  1:  Up    
                                                                                
Units for spectra are inches and sec, except Sa is in fraction of g.            
                                                                                
    1  100    1   18   20  200    1    3    1   24   30  524    024602    2    0
    6   38   25    0  263    9   19 2020    9    5  50015400   39   35   74  355
15400    1  100    3  524    1   16  770    2 -999 -999 -999 -999 -999 -999 -999
 -999 -999    3 -999 7700    2  222    1   24    4 -999 -999    3    1 -999 7700
    3 7700    4   78    1   18    5    0    0 -999    0    0    1    3    1    2
    2    2    4    0   79   67   20    1 -999    0    0    1    0    0    0  222
    1    0    0    0
      .019      .660    77.000      .002     1.000  1244.000      .031    31.060
    52.700      .298      .240  -999.000     5.000  -999.000     2.000  -999.000
     2.500    24.273     2.500  -999.000    30.000    30.000  -999.000      .000
     -.001     -.001     2.000    15.000    34.051  -118.259      .021      .059
     2.849     -.006      .004    89.000    30.000    46.900    13.300    96.260
     1.000    11.003    -8.000  -999.000  -999.000  -999.000  -999.000  -999.000
     6.900     2.000     6.800   980.665      .010    77.000     8.387      .000
  -999.000    40.000  -999.000    77.000      .010      .300  -999.000  -999.000
    30.990   -29.768    31.130     1.024    30.710     -.041      .000      .300
    40.000      .010      .010      .000      .010      .020  -999.000  -999.000
      .194      .190      .150      .046      .002      .000  -999.000  -999.000
  -999.000  -999.000  -999.000  -999.000  -999.000  -999.000  -999.000  -999.000
  -999.000  -999.000  -999.000  -999.000
      .050
      .040      .042      .044      .046      .048      .050      .055      .060
      .065      .070      .075      .080      .085      .090      .095      .100
      .110      .120      .130      .140      .150      .160      .170      .180
      .190      .200      .220      .240      .260      .280      .300      .320
      .340      .360      .380      .400      .420      .440      .460      .480
      .500      .550      .600      .650      .700      .750      .800      .850
      .900      .950     1.000     1.100     1.200     1.300     1.400     1.500
     1.600     1.700     1.800     1.900     2.000     2.200     2.400     2.600
     2.800     3.000     3.200     3.400     3.600     3.800     4.000     4.200
     4.400     4.600     4.800     5.000     5.500     6.000      .000      .000
      .000      .000      .000      .000      .000      .000      .000      .000
      .000      .000      .000      .000      .000      .000      .000      .000
      .000      .000      .000      .000
Fourier amplitude spectra in in/sec.
  .000E+00  .000E+00  .000E+00  .000E+00  .000E+00  .000E+00  .000E+00  .000E+00
  .000E+00  .000E+00  .000E+00  .000E+00  .000E+00  .000E+00  .000E+00  .000E+00
  .000E+00  .000E+00  .000E+00  .000E+00  .000E+00  .000E+00  .000E+00  .000E+00
  .000E+00  .000E+00  .000E+00  .000E+00  .000E+00  .000E+00  .000E+00  .000E+00
  .000E+00  .000E+00  .000E+00  .000E+00  .000E+00  .000E+00  .000E+00  .000E+00
  .000E+00  .000E+00  .000E+00  .000E+00  .000E+00  .000E+00  .000E+00  .000E+00
  .000E+00  .000E+00  .000E+00  .000E+00  .000E+00  .000E+00  .000E+00  .000E+00
  .000E+00  .000E+00  .000E+00  .000E+00  .000E+00  .000E+00  .000E+00  .000E+00
  .000E+00  .000E+00  .000E+00  .000E+00  .000E+00  .000E+00  .000E+00  .000E+00
  .000E+00  .000E+00  .000E+00  .000E+00  .000E+00  .000E+00  .000E+00  .000E+00
  .000E+00  .000E+00  .000E+00  .000E+00  .000E+00  .000E+00  .000E+00  .000E+00
  .000E+00  .000E+00  .000E+00  .000E+00  .000E+00  .000E+00  .000E+00  .000E+00
  .000E+00  .000E+00  .000E+00  .000E+00
Damping =  .05. Data of Sd,Sv,Sa,Pssv,ttSd,ttSv,ttSa :
  .605E-03  .706E-03  .737E-03  .809E-03  .858E-03  .973E-03  .118E-02  .163E-02
  .228E-02  .283E-02  .395E-02  .569E-02  .593E-02  .588E-02  .742E-02  .742E-02
  .738E-02  .961E-02  .114E-01  .164E-01  .190E-01  .260E-01  .424E-01  .604E-01
  .690E-01  .639E-01  .423E-01  .331E-01  .384E-01  .384E-01  .385E-01  .417E-01
  .441E-01  .439E-01  .407E-01  .380E-01  .341E-01  .289E-01  .271E-01  .245E-01
  .224E-01  .207E-01  .228E-01  .262E-01  .285E-01  .243E-01  .211E-01  .195E-01
  .189E-01  .223E-01  .235E-01  .262E-01  .345E-01  .289E-01  .251E-01  .222E-01
  .270E-01  .228E-01  .232E-01  .234E-01  .211E-01  .202E-01  .195E-01  .217E-01
  .215E-01  .200E-01  .183E-01  .183E-01  .187E-01  .187E-01  .186E-01  .184E-01
  .182E-01  .180E-01  .179E-01  .177E-01  .173E-01  .171E-01  .000E+00  .000E+00
  .000E+00  .000E+00  .000E+00  .000E+00  .000E+00  .000E+00  .000E+00  .000E+00
  .000E+00  .000E+00  .000E+00  .000E+00  .000E+00  .000E+00  .000E+00  .000E+00
  .000E+00  .000E+00  .000E+00  .000E+00
  .369E-01  .503E-01  .665E-01  .714E-01  .718E-01  .713E-01  .769E-01  .125E+00
  .135E+00  .167E+00  .267E+00  .353E+00  .308E+00  .271E+00  .347E+00  .321E+00
  .291E+00  .457E+00  .513E+00  .550E+00  .713E+00  .961E+00  .140E+01  .200E+01
  .225E+01  .205E+01  .131E+01  .101E+01  .104E+01  .995E+00  .902E+00  .937E+00
  .102E+01  .101E+01  .849E+00  .782E+00  .761E+00  .706E+00  .639E+00  .583E+00
  .552E+00  .510E+00  .510E+00  .480E+00  .450E+00  .477E+00  .468E+00  .468E+00
  .477E+00  .463E+00  .445E+00  .424E+00  .423E+00  .438E+00  .445E+00  .432E+00
  .423E+00  .420E+00  .417E+00  .411E+00  .403E+00  .397E+00  .395E+00  .402E+00
  .409E+00  .412E+00  .413E+00  .412E+00  .410E+00  .409E+00  .407E+00  .406E+00
  .405E+00  .405E+00  .404E+00  .404E+00  .403E+00  .402E+00  .000E+00  .000E+00
  .000E+00  .000E+00  .000E+00  .000E+00  .000E+00  .000E+00  .000E+00  .000E+00
  .000E+00  .000E+00  .000E+00  .000E+00  .000E+00  .000E+00  .000E+00  .000E+00
  .000E+00  .000E+00  .000E+00  .000E+00
  .388E-01  .411E-01  .390E-01  .394E-01  .383E-01  .397E-01  .399E-01  .464E-01
  .551E-01  .597E-01  .718E-01  .921E-01  .841E-01  .749E-01  .844E-01  .749E-01
  .631E-01  .675E-01  .685E-01  .855E-01  .868E-01  .104E+00  .151E+00  .193E+00
  .194E+00  .165E+00  .894E-01  .593E-01  .586E-01  .503E-01  .442E-01  .421E-01
  .392E-01  .351E-01  .290E-01  .246E-01  .199E-01  .156E-01  .133E-01  .110E-01
  .931E-02  .715E-02  .667E-02  .638E-02  .598E-02  .444E-02  .340E-02  .278E-02
  .253E-02  .255E-02  .242E-02  .222E-02  .247E-02  .190E-02  .140E-02  .106E-02
  .109E-02  .817E-03  .741E-03  .670E-03  .553E-03  .458E-03  .475E-03  .453E-03
  .403E-03  .346E-03  .298E-03  .259E-03  .230E-03  .208E-03  .197E-03  .187E-03
  .176E-03  .167E-03  .158E-03  .150E-03  .133E-03  .120E-03  .000E+00  .000E+00
  .000E+00  .000E+00  .000E+00  .000E+00  .000E+00  .000E+00  .000E+00  .000E+00
  .000E+00  .000E+00  .000E+00  .000E+00  .000E+00  .000E+00  .000E+00  .000E+00
  .000E+00  .000E+00  .000E+00  .000E+00
  .951E-01  .106E+00  .105E+00  .111E+00  .112E+00  .122E+00  .134E+00  .171E+00
  .220E+00  .254E+00  .331E+00  .447E+00  .438E+00  .411E+00  .491E+00  .466E+00
  .421E+00  .503E+00  .551E+00  .738E+00  .794E+00  .102E+01  .157E+01  .211E+01
  .228E+01  .201E+01  .121E+01  .866E+00  .929E+00  .861E+00  .807E+00  .819E+00
  .814E+00  .767E+00  .674E+00  .597E+00  .510E+00  .413E+00  .371E+00  .320E+00
  .281E+00  .236E+00  .239E+00  .253E+00  .256E+00  .203E+00  .166E+00  .144E+00
  .132E+00  .148E+00  .148E+00  .150E+00  .181E+00  .140E+00  .112E+00  .931E-01
  .106E+00  .844E-01  .809E-01  .773E-01  .662E-01  .577E-01  .512E-01  .524E-01
  .483E-01  .419E-01  .359E-01  .339E-01  .326E-01  .309E-01  .292E-01  .275E-01
  .260E-01  .246E-01  .234E-01  .222E-01  .198E-01  .179E-01  .000E+00  .000E+00
  .000E+00  .000E+00  .000E+00  .000E+00  .000E+00  .000E+00  .000E+00  .000E+00
  .000E+00  .000E+00  .000E+00  .000E+00  .000E+00  .000E+00  .000E+00  .000E+00
  .000E+00  .000E+00  .000E+00  .000E+00
  .312E+02  .312E+02  .310E+02  .307E+02  .310E+02  .310E+02  .310E+02  .310E+02
  .306E+02  .306E+02  .310E+02  .310E+02  .311E+02  .311E+02  .311E+02  .311E+02
  .311E+02  .309E+02  .310E+02  .311E+02  .306E+02  .307E+02  .311E+02  .312E+02
  .313E+02  .313E+02  .309E+02  .313E+02  .314E+02  .313E+02  .313E+02  .313E+02
  .313E+02  .311E+02  .312E+02  .312E+02  .312E+02  .310E+02  .310E+02  .310E+02
  .310E+02  .310E+02  .310E+02  .377E+02  .385E+02  .390E+02  .390E+02  .391E+02
  .308E+02  .407E+02  .403E+02  .380E+02  .376E+02  .355E+02  .307E+02  .405E+02
  .400E+02  .401E+02  .372E+02  .373E+02  .373E+02  .373E+02  .312E+02  .312E+02
  .312E+02  .312E+02  .312E+02  .307E+02  .307E+02  .307E+02  .307E+02  .307E+02
  .307E+02  .307E+02  .307E+02  .307E+02  .307E+02  .307E+02  .000E+00  .000E+00
  .000E+00  .000E+00  .000E+00  .000E+00  .000E+00  .000E+00  .000E+00  .000E+00
  .000E+00  .000E+00  .000E+00  .000E+00  .000E+00  .000E+00  .000E+00  .000E+00
  .000E+00  .000E+00  .000E+00  .000E+00
  .297E+02  .310E+02  .310E+02  .310E+02  .310E+02  .302E+02  .308E+02  .308E+02
  .306E+02  .306E+02  .310E+02  .310E+02  .310E+02  .310E+02  .310E+02  .311E+02
  .309E+02  .309E+02  .309E+02  .311E+02  .306E+02  .307E+02  .310E+02  .312E+02
  .313E+02  .313E+02  .308E+02  .308E+02  .313E+02  .313E+02  .313E+02  .312E+02
  .312E+02  .312E+02  .312E+02  .311E+02  .311E+02  .311E+02  .311E+02  .311E+02
  .311E+02  .311E+02  .311E+02  .310E+02  .311E+02  .310E+02  .310E+02  .310E+02
  .310E+02  .310E+02  .310E+02  .310E+02  .307E+02  .311E+02  .311E+02  .311E+02
  .311E+02  .311E+02  .311E+02  .311E+02  .311E+02  .310E+02  .311E+02  .311E+02
  .311E+02  .311E+02  .311E+02  .311E+02  .311E+02  .311E+02  .311E+02  .311E+02
  .311E+02  .311E+02  .311E+02  .311E+02  .311E+02  .311E+02  .000E+00  .000E+00
  .000E+00  .000E+00  .000E+00  .000E+00  .000E+00  .000E+00  .000E+00  .000E+00
  .000E+00  .000E+00  .000E+00  .000E+00  .000E+00  .000E+00  .000E+00  .000E+00
  .000E+00  .000E+00  .000E+00  .000E+00
  .312E+02  .312E+02  .307E+02  .307E+02  .310E+02  .310E+02  .310E+02  .310E+02
  .306E+02  .306E+02  .310E+02  .310E+02  .311E+02  .311E+02  .311E+02  .311E+02
  .311E+02  .309E+02  .310E+02  .311E+02  .306E+02  .307E+02  .311E+02  .312E+02
  .313E+02  .313E+02  .309E+02  .313E+02  .313E+02  .313E+02  .313E+02  .313E+02
  .313E+02  .311E+02  .312E+02  .312E+02  .312E+02  .310E+02  .310E+02  .310E+02
  .310E+02  .310E+02  .310E+02  .377E+02  .385E+02  .390E+02  .390E+02  .391E+02
  .308E+02  .407E+02  .403E+02  .380E+02  .376E+02  .311E+02  .307E+02  .307E+02
  .400E+02  .401E+02  .372E+02  .373E+02  .310E+02  .311E+02  .311E+02  .311E+02
  .311E+02  .311E+02  .311E+02  .311E+02  .311E+02  .310E+02  .310E+02  .310E+02
  .310E+02  .310E+02  .310E+02  .310E+02  .310E+02  .310E+02  .000E+00  .000E+00
  .000E+00  .000E+00  .000E+00  .000E+00  .000E+00  .000E+00  .000E+00  .000E+00
  .000E+00  .000E+00  .000E+00  .000E+00  .000E+00  .000E+00  .000E+00  .000E+00
  .000E+00  .000E+00  .000E+00  .000E+00
/&   ----------  End of spectral data for channel  1  ----------
Response and Fourier amplitude spectra (78 periods,  .04 -  6.0 sec)   for      
Corrected accelerogram   24602-G0524-20263.16       Chan  2:  90 Deg     from   
Uncorrected Accelerogram Data             Processed: 09/18/20, CGS  ce24602p    
Rcrd of Fri Sep 18, 2020 23:38:25.0 PDT               (Avol1 v2.0, 4/18 CSMIP)  
CSMIP Preliminary Processing            (Origin:  To be determined)             
24602-G0524-20263.16                 Start time:  9/19/20, 06:38:25.0 UTC (Unk) 
Station No. 24602   34.051N, 118.259W    Granit  s/n  524 (18 Chns of 20 at Sta)
Los Angeles - 52-story Office Bldg.       CGS   Data: Acceleration              
Chan  2:  90 DegR                   Location: Bsmt Level E: Center              
Rcrd of Fri Sep 18, 2020 23:38:25.0 PDT    Fri Sep 18, 2020 23:38:25.0 PDT      
Hypocenter:  To be determined.               ML:  To be determined.             
Instr Period =  .0186 sec,  Damping =  .640,  Sensitivity = 1.24 v/g            
                        Record Length = 77.000 sec.                             
                                     Uncor Max  =  -.091 g, at   30.445 sec.    
RMS accel of (uncor) record  =        .   Chn. metadata effective date: 03/21/17
Accelerogram bandpass filtered with 3 dB pts at   .30 and 40.00 cyc/sec         
                 instrument- and base-line correcte                             
                                                                                
                                                                                
                                                                                
                                                                                
                                                                                
Rcrd of Fri Sep 18, 2020 23:38:25.0 PDT    Fri Sep 18, 2020 23:38:25.0 PDT      
                                                                                
24602-G0524-20263.16      Los Angeles - 52-story Office Bldg.   Chan  2:  90 Deg
                                                                                
24602-G0524-20263.16      Los Angeles - 52-story Office Bldg.   Chan  2:  90 Deg
                                                                                
Units for spectra are inches and sec, except Sa is in fraction of g.            
                                                                                
    2  100    2   18   20  200    1    3    1   24   30  524    024602    2    0
    6   38   25    0  263    9   19 2020    9    5   9015400   39   35   74  355
15400    1  100    3  524    1   16  770    2 -999 -999 -999 -999 -999 -999 -999
 -999 -999    3 -999 7700    2  222    1   24    4 -999 -999    3    1 -999 7700
    3 7700    4   78    1   18    5    0    0 -999    0    0    1    3    1    2
    2    2    4    0   79   67   20    1 -999    0    0    1    0    0    0  222
    1    0    0    0
      .019      .640    77.000      .004     1.000  1236.000     -.091    30.445
    53.800      .298      .241  -999.000     5.000  -999.000     2.000  -999.000
     2.500     4.420     2.500  -999.000    30.000    30.000  -999.000     -.001
      .004      .005     2.000    15.000    34.051  -118.259      .012      .086
     7.159     -.001      .011    89.000    30.000    46.900    13.300    96.260
     1.000    11.003    -8.000  -999.000  -999.000  -999.000  -999.000  -999.000
     6.900     2.000     6.800   980.665      .010    77.000     8.563      .000
  -999.000    40.000  -999.000    77.000      .010      .300  -999.000  -999.000
    30.440   -88.913    30.480    -3.161    30.430      .141      .000      .300
    40.000      .010      .010      .000      .330      .027  -999.000  -999.000
      .373      .190      .339      .102      .009      .001  -999.000  -999.000
  -999.000  -999.000  -999.000  -999.000  -999.000  -999.000  -999.000  -999.000
  -999.000  -999.000  -999.000  -999.000
      .050
      .040      .042      .044      .046      .048      .050      .055      .060
      .065      .070      .075      .080      .085      .090      .095      .100
      .110      .120      .130      .140      .150      .160      .170      .180
      .190      .200      .220      .240      .260      .280      .300      .320
      .340      .360      .380      .400      .420      .440      .460      .480
      .500      .550      .600      .650      .700      .750      .800      .850
      .900      .950     1.000     1.100     1.200     1.300     1.400     1.500
     1.600     1.700     1.800     1.900     2.000     2.200     2.400     2.600
     2.800     3.000     3.200     3.400     3.600     3.800     4.000     4.200
     4.400     4.600     4.800     5.000     5.500     6.000      .000      .000
      .000      .000      .000      .000      .000      .000      .000      .000
      .000      .000      .000      .000      .000      .000      .000      .000
      .000      .000      .000      .000
Fourier amplitude spectra in in/sec.
  .000E+00  .000E+00  .000E+00  .000E+00  .000E+00  .000E+00  .000E+00  .000E+00
  .000E+00  .000E+00  .000E+00  .000E+00  .000E+00  .000E+00  .000E+00  .000E+00
  .000E+00  .000E+00  .000E+00  .000E+00  .000E+00  .000E+00  .000E+00  .000E+00
  .000E+00  .000E+00  .000E+00  .000E+00  .000E+00  .000E+00  .000E+00  .000E+00
  .000E+00  .000E+00  .000E+00  .000E+00  .000E+00  .000E+00  .000E+00  .000E+00
  .000E+00  .000E+00  .000E+00  .000E+00  .000E+00  .000E+00  .000E+00  .000E+00
  .000E+00  .000E+00  .000E+00  .000E+00  .000E+00  .000E+00  .000E+00  .000E+00
  .000E+00  .000E+00  .000E+00  .000E+00  .000E+00  .000E+00  .000E+00  .000E+00
  .000E+00  .000E+00  .000E+00  .000E+00  .000E+00  .000E+00  .000E+00  .000E+00
  .000E+00  .000E+00  .000E+00  .000E+00  .000E+00  .000E+00  .000E+00  .000E+00
  .000E+00  .000E+00  .000E+00  .000E+00  .000E+00  .000E+00  .000E+00  .000E+00
  .000E+00  .000E+00  .000E+00  .000E+00  .000E+00  .000E+00  .000E+00  .000E+00
  .000E+00  .000E+00  .000E+00  .000E+00
Damping =  .05. Data of Sd,Sv,Sa,Pssv,ttSd,ttSv,ttSa :
  .144E-02  .164E-02  .183E-02  .203E-02  .218E-02  .235E-02  .278E-02  .390E-02
  .464E-02  .536E-02  .680E-02  .875E-02  .115E-01  .131E-01  .140E-01  .142E-01
  .180E-01  .221E-01  .282E-01  .359E-01  .471E-01  .659E-01  .921E-01  .115E+00
  .130E+00  .139E+00  .137E+00  .120E+00  .107E+00  .958E-01  .870E-01  .790E-01
  .734E-01  .651E-01  .579E-01  .544E-01  .504E-01  .474E-01  .453E-01  .431E-01
