Response and Fourier amplitude spectra (78 periods,  .04 -  6.0 sec)   for      
Corrected accelerogram   24455-N2623-20263.02       Chan  1: 180 Deg     from   
Uncorrected Accelerogram Data             Processed: 09/18/20, CGS  ce24455b    
Rcrd of Fri Sep 18, 2020 23:38:22.0 PDT               (Avol1 v2.0, 4/18 CSMIP)  
CSMIP Preliminary Processing            (Origin:  To be determined)             
24455-N2623-20263.02                 Start time:  9/19/20, 06:38:22.0 UTC (GPS) 
Station No. 24455   34.134N, 118.126W    Etna2   s/n 2623  (3 Chns of  3 at Sta)
Pasadena - California & Wilson            CGS   Data: Acceleration              
Chan  1: 180 Deg                                                                
Rcrd of Fri Sep 18, 2020 23:38:22.0 PDT    Fri Sep 18, 2020 23:38:22.0 PDT      
Hypocenter:  To be determined.               ML:  To be determined.             
Instr Period =  .0048 sec,  Damping =  .700,  Sensitivity =  .63 v/g            
                        Record Length = 64.000 sec.                             
                                     Uncor Max  =   .035 g, at   31.600 sec.    
RMS accel of (uncor) record  =        .   Chn. metadata effective date: 05/05/20
Accelerogram bandpass filtered with 3 dB pts at   .30 and 40.00 cyc/sec         
                 instrument- and base-line correcte                             
                                                                                
                                                                                
                                                                                
                                                                                
                                                                                
Rcrd of Fri Sep 18, 2020 23:38:22.0 PDT    Fri Sep 18, 2020 23:38:22.0 PDT      
                                                                                
24455-N2623-20263.02      Pasadena - California & Wilson    Chan  1: 180 Deg    
                                                                                
24455-N2623-20263.02      Pasadena - California & Wilson    Chan  1: 180 Deg    
                                                                                
Units for spectra are inches and sec, except Sa is in fraction of g.            
                                                                                
    1  100    1    3    3  200    1    3    1   24   22 2623    024455   21    0
    6   38   22    0  263    9   19 2020   10    3  18012800   39   30   74  360
12800    1  100    3 2623    1    2  640    2 -999 -999 -999 -999 -999 -999 -999
 -999 -999    3 -99912800    1  202    0   24   20 -999 -999    3    1 -99912800
    312800    4   78    1    3    5    0    0 -999    0    0    1    3    1    2
    2    2    4    0   32   67    9    1 -999    0    0    1    0    0    4  222
    1    0    0    0
      .005      .700    64.000      .003     1.000   626.000      .035    31.600
   210.000      .298      .476  -999.000     5.000  -999.000     4.000  -999.000
     2.500   -31.186     2.500  -999.000    30.000    30.000  -999.000      .001
     -.001     -.002     2.000    15.000    34.134  -118.126      .024      .286
    11.733     -.023      .019   225.000    30.000    34.900    13.100   104.720
     1.000    11.003    -8.000  -999.000  -999.000  -999.000  -999.000  -999.000
     6.900     2.000     6.800   980.665      .005    64.000    33.423      .000
  -999.000    40.000  -999.000    64.000      .005      .300  -999.000  -999.000
    31.595    34.645    31.570    -1.691    31.330      .156      .000      .300
    40.000      .005      .005      .000      .005      .030  -999.000  -999.000
      .147      .200      .139      .070      .012      .001  -999.000  -999.000
  -999.000  -999.000  -999.000  -999.000  -999.000  -999.000  -999.000  -999.000
  -999.000  -999.000  -999.000  -999.000
      .050
      .040      .042      .044      .046      .048      .050      .055      .060
      .065      .070      .075      .080      .085      .090      .095      .100
      .110      .120      .130      .140      .150      .160      .170      .180
      .190      .200      .220      .240      .260      .280      .300      .320
      .340      .360      .380      .400      .420      .440      .460      .480
      .500      .550      .600      .650      .700      .750      .800      .850
      .900      .950     1.000     1.100     1.200     1.300     1.400     1.500
     1.600     1.700     1.800     1.900     2.000     2.200     2.400     2.600
     2.800     3.000     3.200     3.400     3.600     3.800     4.000     4.200
     4.400     4.600     4.800     5.000     5.500     6.000      .000      .000
      .000      .000      .000      .000      .000      .000      .000      .000
      .000      .000      .000      .000      .000      .000      .000      .000
      .000      .000      .000      .000
Fourier amplitude spectra in in/sec.
  .000E+00  .000E+00  .000E+00  .000E+00  .000E+00  .000E+00  .000E+00  .000E+00
  .000E+00  .000E+00  .000E+00  .000E+00  .000E+00  .000E+00  .000E+00  .000E+00
  .000E+00  .000E+00  .000E+00  .000E+00  .000E+00  .000E+00  .000E+00  .000E+00
  .000E+00  .000E+00  .000E+00  .000E+00  .000E+00  .000E+00  .000E+00  .000E+00
  .000E+00  .000E+00  .000E+00  .000E+00  .000E+00  .000E+00  .000E+00  .000E+00
  .000E+00  .000E+00  .000E+00  .000E+00  .000E+00  .000E+00  .000E+00  .000E+00
  .000E+00  .000E+00  .000E+00  .000E+00  .000E+00  .000E+00  .000E+00  .000E+00
  .000E+00  .000E+00  .000E+00  .000E+00  .000E+00  .000E+00  .000E+00  .000E+00
  .000E+00  .000E+00  .000E+00  .000E+00  .000E+00  .000E+00  .000E+00  .000E+00
  .000E+00  .000E+00  .000E+00  .000E+00  .000E+00  .000E+00  .000E+00  .000E+00
  .000E+00  .000E+00  .000E+00  .000E+00  .000E+00  .000E+00  .000E+00  .000E+00
  .000E+00  .000E+00  .000E+00  .000E+00  .000E+00  .000E+00  .000E+00  .000E+00
  .000E+00  .000E+00  .000E+00  .000E+00
Damping =  .05. Data of Sd,Sv,Sa,Pssv,ttSd,ttSv,ttSa :
  .773E-03  .855E-03  .946E-03  .104E-02  .118E-02  .138E-02  .239E-02  .275E-02
  .313E-02  .356E-02  .355E-02  .373E-02  .445E-02  .478E-02  .544E-02  .769E-02
  .117E-01  .148E-01  .184E-01  .183E-01  .210E-01  .260E-01  .314E-01  .411E-01
  .509E-01  .575E-01  .586E-01  .566E-01  .634E-01  .626E-01  .596E-01  .588E-01
  .767E-01  .841E-01  .810E-01  .781E-01  .716E-01  .734E-01  .741E-01  .742E-01
  .737E-01  .704E-01  .649E-01  .672E-01  .914E-01  .107E+00  .114E+00  .113E+00
  .110E+00  .117E+00  .116E+00  .124E+00  .129E+00  .129E+00  .125E+00  .118E+00
  .111E+00  .120E+00  .125E+00  .132E+00  .137E+00  .119E+00  .965E-01  .903E-01
  .821E-01  .810E-01  .799E-01  .795E-01  .788E-01  .778E-01  .767E-01  .756E-01
  .744E-01  .733E-01  .723E-01  .713E-01  .693E-01  .678E-01  .000E+00  .000E+00
  .000E+00  .000E+00  .000E+00  .000E+00  .000E+00  .000E+00  .000E+00  .000E+00
  .000E+00  .000E+00  .000E+00  .000E+00  .000E+00  .000E+00  .000E+00  .000E+00
  .000E+00  .000E+00  .000E+00  .000E+00
  .452E-01  .587E-01  .739E-01  .828E-01  .842E-01  .105E+00  .176E+00  .175E+00
  .194E+00  .219E+00  .207E+00  .200E+00  .266E+00  .286E+00  .297E+00  .361E+00
  .503E+00  .625E+00  .799E+00  .705E+00  .784E+00  .955E+00  .111E+01  .132E+01
  .158E+01  .179E+01  .178E+01  .164E+01  .163E+01  .144E+01  .141E+01  .141E+01
  .142E+01  .158E+01  .155E+01  .138E+01  .121E+01  .103E+01  .106E+01  .108E+01
  .109E+01  .110E+01  .109E+01  .107E+01  .103E+01  .990E+00  .946E+00  .906E+00
  .993E+00  .103E+01  .103E+01  .958E+00  .845E+00  .784E+00  .840E+00  .873E+00
  .888E+00  .890E+00  .885E+00  .876E+00  .866E+00  .845E+00  .824E+00  .805E+00
  .786E+00  .769E+00  .754E+00  .741E+00  .729E+00  .720E+00  .712E+00  .705E+00
  .700E+00  .695E+00  .692E+00  .689E+00  .683E+00  .679E+00  .000E+00  .000E+00
  .000E+00  .000E+00  .000E+00  .000E+00  .000E+00  .000E+00  .000E+00  .000E+00
  .000E+00  .000E+00  .000E+00  .000E+00  .000E+00  .000E+00  .000E+00  .000E+00
  .000E+00  .000E+00  .000E+00  .000E+00
  .495E-01  .497E-01  .499E-01  .503E-01  .527E-01  .560E-01  .802E-01  .781E-01
  .756E-01  .748E-01  .651E-01  .598E-01  .637E-01  .602E-01  .620E-01  .784E-01
  .990E-01  .106E+00  .112E+00  .965E-01  .960E-01  .105E+00  .112E+00  .130E+00
  .145E+00  .147E+00  .125E+00  .101E+00  .965E-01  .822E-01  .682E-01  .591E-01
  .683E-01  .668E-01  .577E-01  .503E-01  .419E-01  .391E-01  .362E-01  .333E-01
  .305E-01  .240E-01  .186E-01  .163E-01  .192E-01  .197E-01  .184E-01  .161E-01
  .139E-01  .134E-01  .119E-01  .107E-01  .935E-02  .796E-02  .664E-02  .546E-02
  .447E-02  .426E-02  .398E-02  .382E-02  .359E-02  .261E-02  .174E-02  .140E-02
  .119E-02  .103E-02  .906E-03  .798E-03  .715E-03  .643E-03  .581E-03  .526E-03
  .480E-03  .439E-03  .404E-03  .373E-03  .313E-03  .271E-03  .000E+00  .000E+00
  .000E+00  .000E+00  .000E+00  .000E+00  .000E+00  .000E+00  .000E+00  .000E+00
  .000E+00  .000E+00  .000E+00  .000E+00  .000E+00  .000E+00  .000E+00  .000E+00
  .000E+00  .000E+00  .000E+00  .000E+00
  .121E+00  .128E+00  .135E+00  .142E+00  .155E+00  .173E+00  .273E+00  .288E+00
  .303E+00  .319E+00  .298E+00  .293E+00  .329E+00  .334E+00  .360E+00  .483E+00
  .671E+00  .777E+00  .888E+00  .823E+00  .878E+00  .102E+01  .116E+01  .143E+01
  .168E+01  .181E+01  .167E+01  .148E+01  .153E+01  .141E+01  .125E+01  .115E+01
  .142E+01  .147E+01  .134E+01  .123E+01  .107E+01  .105E+01  .101E+01  .971E+00
  .926E+00  .804E+00  .679E+00  .649E+00  .820E+00  .898E+00  .895E+00  .835E+00
  .767E+00  .776E+00  .727E+00  .709E+00  .674E+00  .621E+00  .559E+00  .495E+00
  .436E+00  .442E+00  .436E+00  .436E+00  .429E+00  .341E+00  .253E+00  .218E+00
  .184E+00  .170E+00  .157E+00  .147E+00  .137E+00  .129E+00  .121E+00  .113E+00
  .106E+00  .100E+00  .946E-01  .896E-01  .792E-01  .710E-01  .000E+00  .000E+00
  .000E+00  .000E+00  .000E+00  .000E+00  .000E+00  .000E+00  .000E+00  .000E+00
  .000E+00  .000E+00  .000E+00  .000E+00  .000E+00  .000E+00  .000E+00  .000E+00
  .000E+00  .000E+00  .000E+00  .000E+00
  .315E+02  .315E+02  .315E+02  .316E+02  .316E+02  .316E+02  .316E+02  .316E+02
  .316E+02  .316E+02  .316E+02  .318E+02  .318E+02  .322E+02  .315E+02  .315E+02
  .315E+02  .316E+02  .316E+02  .318E+02  .319E+02  .319E+02  .316E+02  .316E+02
  .316E+02  .317E+02  .317E+02  .314E+02  .314E+02  .314E+02  .313E+02  .313E+02
  .322E+02  .321E+02  .319E+02  .320E+02  .312E+02  .312E+02  .312E+02  .312E+02
  .312E+02  .312E+02  .312E+02  .318E+02  .318E+02  .318E+02  .318E+02  .319E+02
  .329E+02  .329E+02  .335E+02  .316E+02  .316E+02  .316E+02  .316E+02  .317E+02
  .317E+02  .345E+02  .354E+02  .339E+02  .339E+02  .339E+02  .332E+02  .332E+02
  .311E+02  .311E+02  .313E+02  .313E+02  .313E+02  .313E+02  .313E+02  .313E+02
  .313E+02  .313E+02  .313E+02  .313E+02  .313E+02  .313E+02  .000E+00  .000E+00
  .000E+00  .000E+00  .000E+00  .000E+00  .000E+00  .000E+00  .000E+00  .000E+00
  .000E+00  .000E+00  .000E+00  .000E+00  .000E+00  .000E+00  .000E+00  .000E+00
  .000E+00  .000E+00  .000E+00  .000E+00
  .315E+02  .316E+02  .316E+02  .316E+02  .316E+02  .316E+02  .316E+02  .316E+02
  .316E+02  .316E+02  .316E+02  .318E+02  .322E+02  .322E+02  .323E+02  .323E+02
  .315E+02  .316E+02  .317E+02  .319E+02  .319E+02  .318E+02  .318E+02  .317E+02
  .316E+02  .316E+02  .316E+02  .316E+02  .315E+02  .314E+02  .312E+02  .313E+02
  .313E+02  .322E+02  .320E+02  .320E+02  .319E+02  .311E+02  .311E+02  .311E+02
  .312E+02  .312E+02  .312E+02  .312E+02  .312E+02  .312E+02  .312E+02  .318E+02
  .318E+02  .318E+02  .318E+02  .318E+02  .318E+02  .316E+02  .316E+02  .316E+02
  .316E+02  .316E+02  .316E+02  .316E+02  .316E+02  .316E+02  .316E+02  .316E+02
  .316E+02  .316E+02  .316E+02  .316E+02  .316E+02  .316E+02  .316E+02  .316E+02
  .316E+02  .316E+02  .316E+02  .316E+02  .316E+02  .316E+02  .000E+00  .000E+00
  .000E+00  .000E+00  .000E+00  .000E+00  .000E+00  .000E+00  .000E+00  .000E+00
  .000E+00  .000E+00  .000E+00  .000E+00  .000E+00  .000E+00  .000E+00  .000E+00
  .000E+00  .000E+00  .000E+00  .000E+00
  .315E+02  .315E+02  .315E+02  .316E+02  .316E+02  .316E+02  .316E+02  .316E+02
  .316E+02  .316E+02  .316E+02  .318E+02  .318E+02  .322E+02  .315E+02  .315E+02
  .315E+02  .316E+02  .316E+02  .318E+02  .319E+02  .319E+02  .316E+02  .316E+02
  .316E+02  .317E+02  .317E+02  .314E+02  .314E+02  .314E+02  .313E+02  .313E+02
  .322E+02  .321E+02  .319E+02  .319E+02  .312E+02  .312E+02  .312E+02  .312E+02
  .312E+02  .312E+02  .312E+02  .318E+02  .318E+02  .318E+02  .318E+02  .318E+02
  .329E+02  .329E+02  .335E+02  .316E+02  .316E+02  .316E+02  .316E+02  .316E+02
  .317E+02  .344E+02  .354E+02  .338E+02  .338E+02  .339E+02  .332E+02  .332E+02
  .311E+02  .311E+02  .311E+02  .311E+02  .313E+02  .313E+02  .313E+02  .313E+02
  .313E+02  .313E+02  .313E+02  .313E+02  .311E+02  .311E+02  .000E+00  .000E+00
  .000E+00  .000E+00  .000E+00  .000E+00  .000E+00  .000E+00  .000E+00  .000E+00
  .000E+00  .000E+00  .000E+00  .000E+00  .000E+00  .000E+00  .000E+00  .000E+00
  .000E+00  .000E+00  .000E+00  .000E+00
/&   ----------  End of spectral data for channel  1  ----------
Response and Fourier amplitude spectra (78 periods,  .04 -  6.0 sec)   for      
Corrected accelerogram   24455-N2623-20263.02       Chan  2:  90 Deg     from   
Uncorrected Accelerogram Data             Processed: 09/18/20, CGS  ce24455b    
Rcrd of Fri Sep 18, 2020 23:38:22.0 PDT               (Avol1 v2.0, 4/18 CSMIP)  
CSMIP Preliminary Processing            (Origin:  To be determined)             
24455-N2623-20263.02                 Start time:  9/19/20, 06:38:22.0 UTC (GPS) 
Station No. 24455   34.134N, 118.126W    Etna2   s/n 2623  (3 Chns of  3 at Sta)
Pasadena - California & Wilson            CGS   Data: Acceleration              
Chan  2:  90 Deg                                                                
Rcrd of Fri Sep 18, 2020 23:38:22.0 PDT    Fri Sep 18, 2020 23:38:22.0 PDT      
Hypocenter:  To be determined.               ML:  To be determined.             
Instr Period =  .0049 sec,  Damping =  .700,  Sensitivity =  .63 v/g            
                        Record Length = 64.000 sec.                             
                                     Uncor Max  =  -.047 g, at   31.210 sec.    
RMS accel of (uncor) record  =        .   Chn. metadata effective date: 05/05/20
Accelerogram bandpass filtered with 3 dB pts at   .30 and 40.00 cyc/sec         
                 instrument- and base-line correcte                             
                                                                                
                                                                                
                                                                                
                                                                                
                                                                                
Rcrd of Fri Sep 18, 2020 23:38:22.0 PDT    Fri Sep 18, 2020 23:38:22.0 PDT      
                                                                                
24455-N2623-20263.02      Pasadena - California & Wilson    Chan  2:  90 Deg    
                                                                                
24455-N2623-20263.02      Pasadena - California & Wilson    Chan  2:  90 Deg    
                                                                                
Units for spectra are inches and sec, except Sa is in fraction of g.            
                                                                                
    2  100    2    3    3  200    1    3    1   24   22 2623    024455   21    0
    6   38   22    0  263    9   19 2020   10    3   9012800   39   30   74  360
12800    1  100    3 2623    1    2  640    2 -999 -999 -999 -999 -999 -999 -999
 -999 -999    3 -99912800    1  202    0   24   20 -999 -999    3    1 -99912800
    312800    4   78    1    3    5    0    0 -999    0    0    1    3    1    2
    2    2    4    0   32   67    9    1 -999    0    0    1    0    0    4  222
    1    0    0    0
      .005      .700    64.000      .002     1.000   626.000     -.047    31.210
   206.000      .298      .476  -999.000     5.000  -999.000     4.000  -999.000
     2.500    -5.280     2.500  -999.000    30.000    30.000  -999.000     -.002
      .009      .010     2.000    15.000    34.134  -118.126      .026      .296
    11.595     -.011      .032   225.000    30.000    34.900    13.100   104.720
     1.000    11.003    -8.000  -999.000  -999.000  -999.000  -999.000  -999.000
     6.900     2.000     6.800   980.665      .005    64.000    32.786      .000
  -999.000    40.000  -999.000    64.000      .005      .300  -999.000  -999.000
    31.210   -46.516    31.245    -1.403    31.200      .098      .000      .300
    40.000      .005      .005      .000      .005      .027  -999.000  -999.000
      .132      .110      .084      .071      .006      .001  -999.000  -999.000
  -999.000  -999.000  -999.000  -999.000  -999.000  -999.000  -999.000  -999.000
  -999.000  -999.000  -999.000  -999.000
      .050
      .040      .042      .044      .046      .048      .050      .055      .060
      .065      .070      .075      .080      .085      .090      .095      .100
      .110      .120      .130      .140      .150      .160      .170      .180
      .190      .200      .220      .240      .260      .280      .300      .320
      .340      .360      .380      .400      .420      .440      .460      .480
      .500      .550      .600      .650      .700      .750      .800      .850
      .900      .950     1.000     1.100     1.200     1.300     1.400     1.500
     1.600     1.700     1.800     1.900     2.000     2.200     2.400     2.600
     2.800     3.000     3.200     3.400     3.600     3.800     4.000     4.200
     4.400     4.600     4.800     5.000     5.500     6.000      .000      .000
      .000      .000      .000      .000      .000      .000      .000      .000
      .000      .000      .000      .000      .000      .000      .000      .000
      .000      .000      .000      .000
Fourier amplitude spectra in in/sec.
  .000E+00  .000E+00  .000E+00  .000E+00  .000E+00  .000E+00  .000E+00  .000E+00
  .000E+00  .000E+00  .000E+00  .000E+00  .000E+00  .000E+00  .000E+00  .000E+00
  .000E+00  .000E+00  .000E+00  .000E+00  .000E+00  .000E+00  .000E+00  .000E+00
  .000E+00  .000E+00  .000E+00  .000E+00  .000E+00  .000E+00  .000E+00  .000E+00
  .000E+00  .000E+00  .000E+00  .000E+00  .000E+00  .000E+00  .000E+00  .000E+00
  .000E+00  .000E+00  .000E+00  .000E+00  .000E+00  .000E+00  .000E+00  .000E+00
  .000E+00  .000E+00  .000E+00  .000E+00  .000E+00  .000E+00  .000E+00  .000E+00
  .000E+00  .000E+00  .000E+00  .000E+00  .000E+00  .000E+00  .000E+00  .000E+00
  .000E+00  .000E+00  .000E+00  .000E+00  .000E+00  .000E+00  .000E+00  .000E+00
  .000E+00  .000E+00  .000E+00  .000E+00  .000E+00  .000E+00  .000E+00  .000E+00
  .000E+00  .000E+00  .000E+00  .000E+00  .000E+00  .000E+00  .000E+00  .000E+00
  .000E+00  .000E+00  .000E+00  .000E+00  .000E+00  .000E+00  .000E+00  .000E+00
  .000E+00  .000E+00  .000E+00  .000E+00
Damping =  .05. Data of Sd,Sv,Sa,Pssv,ttSd,ttSv,ttSa :
  .741E-03  .803E-03  .917E-03  .104E-02  .108E-02  .119E-02  .160E-02  .200E-02
  .222E-02  .282E-02  .317E-02  .438E-02  .604E-02  .770E-02  .830E-02  .922E-02
  .155E-01  .166E-01  .162E-01  .181E-01  .209E-01  .234E-01  .253E-01  .291E-01
  .313E-01  .313E-01  .389E-01  .480E-01  .532E-01  .568E-01  .627E-01  .652E-01
  .659E-01  .678E-01  .705E-01  .719E-01  .716E-01  .704E-01  .690E-01  .672E-01
