Response and Fourier amplitude spectra (78 periods,  .04 -  6.0 sec)   for      
Corrected accelerogram   24020-O0965-20263.20       Chan  1:  Up         from   
Uncorrected Accelerogram Data             Processed: 09/18/20, CGS  ce24020t    
Rcrd of Fri Sep 18, 2020 23:38:20.0 PDT               (Avol1 v2.0, 4/18 CSMIP)  
CSMIP Preliminary Processing            (Origin:  To be determined)             
24020-O0965-20263.20                 Start time:  9/19/20, 06:38:20.0 UTC (GPS) 
Station No. 24020   34.075N, 118.218W    Obsidn  s/n  965  (3 Chns of  3 at Sta)
Los Angeles - I5 & Pasadena Ave           CGS   Data: Acceleration              
Chan  1:  Up                                                                    
Rcrd of Fri Sep 18, 2020 23:38:20.0 PDT    Fri Sep 18, 2020 23:38:20.0 PDT      
Hypocenter:  To be determined.               ML:  To be determined.             
Instr Period =  .0049 sec,  Damping =  .700,  Sensitivity = 1.25 v/g            
                        Record Length = 68.000 sec.                             
                                     Uncor Max  =  -.026 g, at   34.450 sec.    
RMS accel of (uncor) record  =        .   Chn. metadata effective date: 08/12/15
Accelerogram bandpass filtered with 3 dB pts at   .30 and 40.00 cyc/sec         
                 instrument- and base-line correcte                             
                                                                                
                                                                                
                                                                                
                                                                                
                                                                                
Rcrd of Fri Sep 18, 2020 23:38:20.0 PDT    Fri Sep 18, 2020 23:38:20.0 PDT      
                                                                                
24020-O0965-20263.20      Los Angeles - I5 & Pasadena Ave   Chan  1:  Up        
                                                                                
24020-O0965-20263.20      Los Angeles - I5 & Pasadena Ave   Chan  1:  Up        
                                                                                
Units for spectra are inches and sec, except Sa is in fraction of g.            
                                                                                
    1  100    1    3    3  200    1    3    1   24   32  965    024020   11    0
    6   38   20    0  263    9   19 2020   10    3  50013600   39   31   74  360
13600    1  100    3  965    1   20  680    2 -999 -999 -999 -999 -999 -999 -999
 -999 -999    3 -999 6800    2  202    0   24   20 -999 -999    3    1 -999 6800
    3 6800    4   78    1    3    5    0    0 -999    0    0    1    3    1    2
    2    2    4    0   32   67    0    5 -999    0    0    1 4096    0    0  222
    1    0    4    0
      .005      .700    68.000      .002     1.000  1251.600     -.026    34.450
   206.000      .596      .476  -999.000     5.000  -999.000     4.000  -999.000
     5.000    -7.864     5.000  -999.000    30.000    30.000  -999.000     -.003
      .001      .004     2.000    15.000    34.075  -118.218      .041      .151
     3.699     -.008      .016   106.000    31.000    38.900    13.300    97.880
     1.000    11.003    -8.000  -999.000  -999.000  -999.000  -999.000  -999.000
     6.900     2.000     6.800   980.665      .010    68.000    32.786      .000
  -999.000    40.000  -999.000    68.000      .010      .300  -999.000  -999.000
    34.450   -24.366    34.460     -.558    38.800     -.024      .000      .300
    40.000      .010      .010      .000      .010      .017  -999.000  -999.000
      .082      .065      .049      .029      .003      .000  -999.000  -999.000
  -999.000  -999.000  -999.000  -999.000  -999.000  -999.000  -999.000  -999.000
  -999.000  -999.000  -999.000  -999.000
      .050
      .040      .042      .044      .046      .048      .050      .055      .060
      .065      .070      .075      .080      .085      .090      .095      .100
      .110      .120      .130      .140      .150      .160      .170      .180
      .190      .200      .220      .240      .260      .280      .300      .320
      .340      .360      .380      .400      .420      .440      .460      .480
      .500      .550      .600      .650      .700      .750      .800      .850
      .900      .950     1.000     1.100     1.200     1.300     1.400     1.500
     1.600     1.700     1.800     1.900     2.000     2.200     2.400     2.600
     2.800     3.000     3.200     3.400     3.600     3.800     4.000     4.200
     4.400     4.600     4.800     5.000     5.500     6.000      .000      .000
      .000      .000      .000      .000      .000      .000      .000      .000
      .000      .000      .000      .000      .000      .000      .000      .000
      .000      .000      .000      .000
Fourier amplitude spectra in in/sec.
  .000E+00  .000E+00  .000E+00  .000E+00  .000E+00  .000E+00  .000E+00  .000E+00
  .000E+00  .000E+00  .000E+00  .000E+00  .000E+00  .000E+00  .000E+00  .000E+00
  .000E+00  .000E+00  .000E+00  .000E+00  .000E+00  .000E+00  .000E+00  .000E+00
  .000E+00  .000E+00  .000E+00  .000E+00  .000E+00  .000E+00  .000E+00  .000E+00
  .000E+00  .000E+00  .000E+00  .000E+00  .000E+00  .000E+00  .000E+00  .000E+00
  .000E+00  .000E+00  .000E+00  .000E+00  .000E+00  .000E+00  .000E+00  .000E+00
  .000E+00  .000E+00  .000E+00  .000E+00  .000E+00  .000E+00  .000E+00  .000E+00
  .000E+00  .000E+00  .000E+00  .000E+00  .000E+00  .000E+00  .000E+00  .000E+00
  .000E+00  .000E+00  .000E+00  .000E+00  .000E+00  .000E+00  .000E+00  .000E+00
  .000E+00  .000E+00  .000E+00  .000E+00  .000E+00  .000E+00  .000E+00  .000E+00
  .000E+00  .000E+00  .000E+00  .000E+00  .000E+00  .000E+00  .000E+00  .000E+00
  .000E+00  .000E+00  .000E+00  .000E+00  .000E+00  .000E+00  .000E+00  .000E+00
  .000E+00  .000E+00  .000E+00  .000E+00
Damping =  .05. Data of Sd,Sv,Sa,Pssv,ttSd,ttSv,ttSa :
  .882E-03  .975E-03  .118E-02  .137E-02  .146E-02  .184E-02  .181E-02  .244E-02
  .342E-02  .321E-02  .389E-02  .477E-02  .511E-02  .422E-02  .529E-02  .537E-02
  .930E-02  .113E-01  .882E-02  .954E-02  .128E-01  .146E-01  .143E-01  .134E-01
  .152E-01  .191E-01  .265E-01  .364E-01  .406E-01  .299E-01  .226E-01  .223E-01
  .231E-01  .283E-01  .267E-01  .282E-01  .275E-01  .238E-01  .199E-01  .173E-01
  .178E-01  .159E-01  .121E-01  .192E-01  .220E-01  .159E-01  .182E-01  .224E-01
  .229E-01  .227E-01  .262E-01  .253E-01  .216E-01  .223E-01  .210E-01  .203E-01
  .219E-01  .245E-01  .247E-01  .244E-01  .224E-01  .201E-01  .200E-01  .188E-01
  .170E-01  .157E-01  .147E-01  .138E-01  .129E-01  .121E-01  .115E-01  .115E-01
  .116E-01  .114E-01  .112E-01  .109E-01  .102E-01  .998E-02  .000E+00  .000E+00
  .000E+00  .000E+00  .000E+00  .000E+00  .000E+00  .000E+00  .000E+00  .000E+00
  .000E+00  .000E+00  .000E+00  .000E+00  .000E+00  .000E+00  .000E+00  .000E+00
  .000E+00  .000E+00  .000E+00  .000E+00
  .115E+00  .116E+00  .138E+00  .146E+00  .170E+00  .219E+00  .188E+00  .219E+00
  .284E+00  .239E+00  .278E+00  .338E+00  .352E+00  .282E+00  .332E+00  .315E+00
  .500E+00  .567E+00  .425E+00  .429E+00  .568E+00  .613E+00  .589E+00  .543E+00
  .505E+00  .583E+00  .808E+00  .100E+01  .103E+01  .693E+00  .535E+00  .590E+00
  .484E+00  .511E+00  .534E+00  .488E+00  .439E+00  .381E+00  .343E+00  .298E+00
  .292E+00  .262E+00  .255E+00  .259E+00  .259E+00  .243E+00  .239E+00  .212E+00
  .213E+00  .236E+00  .245E+00  .253E+00  .280E+00  .264E+00  .244E+00  .238E+00
  .241E+00  .242E+00  .235E+00  .224E+00  .216E+00  .230E+00  .231E+00  .226E+00
  .219E+00  .213E+00  .208E+00  .205E+00  .206E+00  .208E+00  .209E+00  .210E+00
  .210E+00  .211E+00  .211E+00  .211E+00  .212E+00  .212E+00  .000E+00  .000E+00
  .000E+00  .000E+00  .000E+00  .000E+00  .000E+00  .000E+00  .000E+00  .000E+00
  .000E+00  .000E+00  .000E+00  .000E+00  .000E+00  .000E+00  .000E+00  .000E+00
  .000E+00  .000E+00  .000E+00  .000E+00
  .570E-01  .570E-01  .622E-01  .663E-01  .654E-01  .769E-01  .618E-01  .685E-01
  .824E-01  .668E-01  .713E-01  .769E-01  .724E-01  .540E-01  .602E-01  .546E-01
  .778E-01  .806E-01  .537E-01  .503E-01  .584E-01  .585E-01  .502E-01  .428E-01
  .430E-01  .486E-01  .560E-01  .654E-01  .613E-01  .392E-01  .258E-01  .225E-01
  .205E-01  .226E-01  .191E-01  .181E-01  .160E-01  .126E-01  .966E-02  .771E-02
  .734E-02  .542E-02  .346E-02  .468E-02  .465E-02  .294E-02  .295E-02  .321E-02
  .293E-02  .262E-02  .272E-02  .220E-02  .155E-02  .137E-02  .111E-02  .934E-03
  .884E-03  .903E-03  .822E-03  .715E-03  .587E-03  .449E-03  .386E-03  .318E-03
  .268E-03  .224E-03  .185E-03  .156E-03  .135E-03  .125E-03  .116E-03  .108E-03
  .100E-03  .940E-04  .884E-04  .836E-04  .733E-04  .655E-04  .000E+00  .000E+00
  .000E+00  .000E+00  .000E+00  .000E+00  .000E+00  .000E+00  .000E+00  .000E+00
  .000E+00  .000E+00  .000E+00  .000E+00  .000E+00  .000E+00  .000E+00  .000E+00
  .000E+00  .000E+00  .000E+00  .000E+00
  .138E+00  .146E+00  .169E+00  .187E+00  .191E+00  .231E+00  .207E+00  .256E+00
  .330E+00  .288E+00  .326E+00  .375E+00  .378E+00  .295E+00  .350E+00  .338E+00
  .531E+00  .590E+00  .426E+00  .428E+00  .536E+00  .572E+00  .527E+00  .468E+00
  .502E+00  .601E+00  .756E+00  .952E+00  .980E+00  .672E+00  .474E+00  .439E+00
  .427E+00  .494E+00  .442E+00  .443E+00  .411E+00  .340E+00  .271E+00  .226E+00
  .224E+00  .182E+00  .127E+00  .186E+00  .197E+00  .133E+00  .143E+00  .166E+00
  .160E+00  .150E+00  .165E+00  .145E+00  .113E+00  .108E+00  .943E-01  .848E-01
  .860E-01  .906E-01  .864E-01  .807E-01  .702E-01  .575E-01  .524E-01  .453E-01
  .381E-01  .329E-01  .289E-01  .255E-01  .225E-01  .201E-01  .180E-01  .172E-01
  .165E-01  .156E-01  .146E-01  .137E-01  .117E-01  .104E-01  .000E+00  .000E+00
  .000E+00  .000E+00  .000E+00  .000E+00  .000E+00  .000E+00  .000E+00  .000E+00
  .000E+00  .000E+00  .000E+00  .000E+00  .000E+00  .000E+00  .000E+00  .000E+00
  .000E+00  .000E+00  .000E+00  .000E+00
  .345E+02  .344E+02  .344E+02  .311E+02  .311E+02  .335E+02  .336E+02  .345E+02
  .345E+02  .345E+02  .345E+02  .345E+02  .345E+02  .345E+02  .320E+02  .320E+02
  .312E+02  .312E+02  .312E+02  .308E+02  .313E+02  .312E+02  .311E+02  .311E+02
  .353E+02  .353E+02  .352E+02  .350E+02  .346E+02  .345E+02  .345E+02  .345E+02
  .376E+02  .376E+02  .384E+02  .383E+02  .375E+02  .375E+02  .375E+02  .375E+02
  .375E+02  .376E+02  .375E+02  .376E+02  .383E+02  .389E+02  .389E+02  .389E+02
  .389E+02  .385E+02  .421E+02  .373E+02  .414E+02  .404E+02  .398E+02  .394E+02
  .394E+02  .388E+02  .388E+02  .382E+02  .366E+02  .366E+02  .348E+02  .388E+02
  .353E+02  .340E+02  .340E+02  .340E+02  .340E+02  .340E+02  .340E+02  .388E+02
  .388E+02  .388E+02  .388E+02  .388E+02  .388E+02  .382E+02  .000E+00  .000E+00
  .000E+00  .000E+00  .000E+00  .000E+00  .000E+00  .000E+00  .000E+00  .000E+00
  .000E+00  .000E+00  .000E+00  .000E+00  .000E+00  .000E+00  .000E+00  .000E+00
  .000E+00  .000E+00  .000E+00  .000E+00
  .345E+02  .345E+02  .344E+02  .344E+02  .312E+02  .336E+02  .335E+02  .346E+02
  .345E+02  .345E+02  .345E+02  .345E+02  .345E+02  .312E+02  .320E+02  .312E+02
  .312E+02  .313E+02  .313E+02  .313E+02  .312E+02  .311E+02  .312E+02  .311E+02
  .311E+02  .353E+02  .353E+02  .351E+02  .345E+02  .345E+02  .345E+02  .345E+02
  .345E+02  .385E+02  .383E+02  .384E+02  .376E+02  .343E+02  .343E+02  .343E+02
  .343E+02  .375E+02  .343E+02  .343E+02  .375E+02  .343E+02  .343E+02  .343E+02
  .388E+02  .388E+02  .388E+02  .345E+02  .345E+02  .345E+02  .345E+02  .345E+02
  .345E+02  .345E+02  .345E+02  .345E+02  .343E+02  .343E+02  .343E+02  .343E+02
  .343E+02  .343E+02  .343E+02  .343E+02  .345E+02  .345E+02  .345E+02  .345E+02
  .345E+02  .345E+02  .345E+02  .345E+02  .345E+02  .345E+02  .000E+00  .000E+00
  .000E+00  .000E+00  .000E+00  .000E+00  .000E+00  .000E+00  .000E+00  .000E+00
  .000E+00  .000E+00  .000E+00  .000E+00  .000E+00  .000E+00  .000E+00  .000E+00
  .000E+00  .000E+00  .000E+00  .000E+00
  .345E+02  .345E+02  .344E+02  .311E+02  .311E+02  .335E+02  .336E+02  .345E+02
  .345E+02  .345E+02  .345E+02  .345E+02  .345E+02  .345E+02  .320E+02  .320E+02
  .312E+02  .312E+02  .312E+02  .308E+02  .313E+02  .312E+02  .311E+02  .311E+02
  .353E+02  .353E+02  .352E+02  .350E+02  .346E+02  .345E+02  .345E+02  .345E+02
  .376E+02  .376E+02  .384E+02  .383E+02  .375E+02  .375E+02  .375E+02  .375E+02
  .375E+02  .376E+02  .375E+02  .375E+02  .383E+02  .389E+02  .389E+02  .389E+02
  .389E+02  .385E+02  .421E+02  .373E+02  .413E+02  .404E+02  .398E+02  .393E+02
  .394E+02  .388E+02  .388E+02  .381E+02  .365E+02  .366E+02  .348E+02  .388E+02
  .352E+02  .352E+02  .352E+02  .340E+02  .340E+02  .345E+02  .345E+02  .345E+02
  .345E+02  .345E+02  .345E+02  .345E+02  .345E+02  .345E+02  .000E+00  .000E+00
  .000E+00  .000E+00  .000E+00  .000E+00  .000E+00  .000E+00  .000E+00  .000E+00
  .000E+00  .000E+00  .000E+00  .000E+00  .000E+00  .000E+00  .000E+00  .000E+00
  .000E+00  .000E+00  .000E+00  .000E+00
/&   ----------  End of spectral data for channel  1  ----------
Response and Fourier amplitude spectra (78 periods,  .04 -  6.0 sec)   for      
Corrected accelerogram   24020-O0965-20263.20       Chan  2: 360 Deg     from   
Uncorrected Accelerogram Data             Processed: 09/18/20, CGS  ce24020t    
Rcrd of Fri Sep 18, 2020 23:38:20.0 PDT               (Avol1 v2.0, 4/18 CSMIP)  
CSMIP Preliminary Processing            (Origin:  To be determined)             
24020-O0965-20263.20                 Start time:  9/19/20, 06:38:20.0 UTC (GPS) 
Station No. 24020   34.075N, 118.218W    Obsidn  s/n  965  (3 Chns of  3 at Sta)
Los Angeles - I5 & Pasadena Ave           CGS   Data: Acceleration              
Chan  2: 360 Deg                                                                
Rcrd of Fri Sep 18, 2020 23:38:20.0 PDT    Fri Sep 18, 2020 23:38:20.0 PDT      
Hypocenter:  To be determined.               ML:  To be determined.             
Instr Period =  .0050 sec,  Damping =  .700,  Sensitivity = 1.25 v/g            
                        Record Length = 68.000 sec.                             
                                     Uncor Max  =   .056 g, at   34.040 sec.    
RMS accel of (uncor) record  =        .   Chn. metadata effective date: 08/12/15
Accelerogram bandpass filtered with 3 dB pts at   .30 and 40.00 cyc/sec         
                 instrument- and base-line correcte                             
                                                                                
                                                                                
                                                                                
                                                                                
                                                                                
Rcrd of Fri Sep 18, 2020 23:38:20.0 PDT    Fri Sep 18, 2020 23:38:20.0 PDT      
                                                                                
24020-O0965-20263.20      Los Angeles - I5 & Pasadena Ave   Chan  2: 360 Deg    
                                                                                
24020-O0965-20263.20      Los Angeles - I5 & Pasadena Ave   Chan  2: 360 Deg    
                                                                                
Units for spectra are inches and sec, except Sa is in fraction of g.            
                                                                                
    2  100    2    3    3  200    1    3    1   24   32  965    024020   11    0
    6   38   20    0  263    9   19 2020   10    3  36013600   39   31   74  360
13600    1  100    3  965    1   20  680    2 -999 -999 -999 -999 -999 -999 -999
 -999 -999    3 -999 6800    2  202    0   24   20 -999 -999    3    1 -999 6800
    3 6800    4   78    1    3    5    0    0 -999    0    0    1    3    1    2
    2    2    4    0   32   67    0    5 -999    0    0    1 4096    0    0  222
    1    0    5    0
      .005      .700    68.000      .003     1.000  1249.200      .056    34.040
   202.000      .596      .477  -999.000     5.000  -999.000     4.000  -999.000
     5.000     4.506     5.000  -999.000    30.000    30.000  -999.000     -.002
     -.002     -.001     2.000    15.000    34.075  -118.218      .032      .217
     6.880     -.016      .015   106.000    31.000    38.900    13.300    97.880
     1.000    11.003    -8.000  -999.000  -999.000  -999.000  -999.000  -999.000
     6.900     2.000     6.800   980.665      .010    68.000    32.149      .000
  -999.000    40.000  -999.000    68.000      .010      .300  -999.000  -999.000
    34.040    54.102    34.070     1.259    33.810     -.115      .000      .300
    40.000      .010      .010      .000      .010      .026  -999.000  -999.000
      .181      .050      .135      .079      .006      .001  -999.000  -999.000
  -999.000  -999.000  -999.000  -999.000  -999.000  -999.000  -999.000  -999.000
  -999.000  -999.000  -999.000  -999.000
      .050
      .040      .042      .044      .046      .048      .050      .055      .060
      .065      .070      .075      .080      .085      .090      .095      .100
      .110      .120      .130      .140      .150      .160      .170      .180
      .190      .200      .220      .240      .260      .280      .300      .320
      .340      .360      .380      .400      .420      .440      .460      .480
      .500      .550      .600      .650      .700      .750      .800      .850
      .900      .950     1.000     1.100     1.200     1.300     1.400     1.500
     1.600     1.700     1.800     1.900     2.000     2.200     2.400     2.600
     2.800     3.000     3.200     3.400     3.600     3.800     4.000     4.200
     4.400     4.600     4.800     5.000     5.500     6.000      .000      .000
      .000      .000      .000      .000      .000      .000      .000      .000
      .000      .000      .000      .000      .000      .000      .000      .000
      .000      .000      .000      .000
Fourier amplitude spectra in in/sec.
  .000E+00  .000E+00  .000E+00  .000E+00  .000E+00  .000E+00  .000E+00  .000E+00
  .000E+00  .000E+00  .000E+00  .000E+00  .000E+00  .000E+00  .000E+00  .000E+00
  .000E+00  .000E+00  .000E+00  .000E+00  .000E+00  .000E+00  .000E+00  .000E+00
  .000E+00  .000E+00  .000E+00  .000E+00  .000E+00  .000E+00  .000E+00  .000E+00
  .000E+00  .000E+00  .000E+00  .000E+00  .000E+00  .000E+00  .000E+00  .000E+00
  .000E+00  .000E+00  .000E+00  .000E+00  .000E+00  .000E+00  .000E+00  .000E+00
  .000E+00  .000E+00  .000E+00  .000E+00  .000E+00  .000E+00  .000E+00  .000E+00
  .000E+00  .000E+00  .000E+00  .000E+00  .000E+00  .000E+00  .000E+00  .000E+00
  .000E+00  .000E+00  .000E+00  .000E+00  .000E+00  .000E+00  .000E+00  .000E+00
  .000E+00  .000E+00  .000E+00  .000E+00  .000E+00  .000E+00  .000E+00  .000E+00
  .000E+00  .000E+00  .000E+00  .000E+00  .000E+00  .000E+00  .000E+00  .000E+00
  .000E+00  .000E+00  .000E+00  .000E+00  .000E+00  .000E+00  .000E+00  .000E+00
  .000E+00  .000E+00  .000E+00  .000E+00
Damping =  .05. Data of Sd,Sv,Sa,Pssv,ttSd,ttSv,ttSa :
  .147E-02  .199E-02  .261E-02  .313E-02  .360E-02  .436E-02  .478E-02  .334E-02
  .390E-02  .410E-02  .533E-02  .639E-02  .598E-02  .667E-02  .758E-02  .807E-02
  .136E-01  .166E-01  .200E-01  .277E-01  .268E-01  .288E-01  .400E-01  .452E-01
  .483E-01  .523E-01  .620E-01  .646E-01  .659E-01  .663E-01  .710E-01  .683E-01
  .634E-01  .592E-01  .519E-01  .478E-01  .448E-01  .499E-01  .513E-01  .527E-01
