Response and Fourier amplitude spectra (78 periods,  .04 -  6.0 sec)   for      
Corrected accelerogram   24581-P0673-20263.13       Chan  1:  Up         from   
Uncorrected Accelerogram Data             Processed: 09/18/20, CGS  ce24581m    
Rcrd of Fri Sep 18, 2020 23:38:24.0 PDT               (Avol1 v2.0, 4/18 CSMIP)  
CSMIP Preliminary Processing            (Origin:  To be determined)             
24581-P0673-20263.13                 Start time:  9/19/20, 06:38:24.0 UTC (GPS) 
Station No. 24581   34.049N, 118.259W    ObsdnM  s/n  673 (16 Chns of 16 at Sta)
Los Angeles - 12-story Comm./Office Bldg  CGS   Data: Acceleration              
Chan  1:  Up                        Location: Sub-basement: Near Center         
Rcrd of Fri Sep 18, 2020 23:38:24.0 PDT    Fri Sep 18, 2020 23:38:24.0 PDT      
Hypocenter:  To be determined.               ML:  To be determined.             
Instr Period =  .0190 sec,  Damping =  .670,  Sensitivity = 1.25 v/g            
                        Record Length = 71.000 sec.                             
                                     Uncor Max  =  -.024 g, at   33.140 sec.    
RMS accel of (uncor) record  =        .   Chn. metadata effective date: 05/18/17
Accelerogram bandpass filtered with 3 dB pts at   .30 and 40.00 cyc/sec         
                 instrument- and base-line correcte                             
                                                                                
                                                                                
                                                                                
                                                                                
                                                                                
Rcrd of Fri Sep 18, 2020 23:38:24.0 PDT    Fri Sep 18, 2020 23:38:24.0 PDT      
                                                                                
24581-P0673-20263.13      Los Angeles - 12-story Comm./Office Bldg  CGChan  1:  
Up                                                                              
24581-P0673-20263.13      Los Angeles - 12-story Comm./Office Bldg  CGChan  1:  
Up                                                                              
Units for spectra are inches and sec, except Sa is in fraction of g.            
                                                                                
    1  100    1   16   16  200    1    3    1   24   33  673    024581    2    0
    6   38   24    0  263    9   19 2020   10    3  50014200   39   40   74   40
14200    1  100    3  673    1   13  710    2 -999 -999 -999 -999 -999 -999 -999
 -999 -999    3 -999 7100    2  222    1   24    4 -999 -999    3    1 -999 7100
    3 7100    4   78    1   16    5    0    0 -999    0    0    1    3    1    2
    2    2    4    0   67   45    0    1 -999    0    0    1    0    0    4  222
    1    0    2    0
      .019      .670    71.000      .002     1.000  1254.000     -.024    33.140
    52.700      .298      .238  -999.000     5.000  -999.000     2.000  -999.000
     2.500    45.851     2.500  -999.000    30.000    30.000  -999.000      .000
      .000      .000     2.000    15.000    34.049  -118.259      .046      .117
     2.536     -.010      .010    83.000    31.000    40.900    13.200   112.640
     1.000    11.003    -8.000  -999.000  -999.000  -999.000  -999.000  -999.000
     6.900     2.000     6.800   980.665      .010    71.000     8.387      .000
  -999.000    40.000  -999.000    71.000      .010      .300  -999.000  -999.000
    33.130   -22.958    33.100      .788    31.940     -.028      .000      .300
    40.000      .010      .010      .000      .010      .018  -999.000  -999.000
      .088      .260      .061      .047      .002      .000  -999.000  -999.000
  -999.000  -999.000  -999.000  -999.000  -999.000  -999.000  -999.000  -999.000
  -999.000  -999.000  -999.000  -999.000
      .050
      .040      .042      .044      .046      .048      .050      .055      .060
      .065      .070      .075      .080      .085      .090      .095      .100
      .110      .120      .130      .140      .150      .160      .170      .180
      .190      .200      .220      .240      .260      .280      .300      .320
      .340      .360      .380      .400      .420      .440      .460      .480
      .500      .550      .600      .650      .700      .750      .800      .850
      .900      .950     1.000     1.100     1.200     1.300     1.400     1.500
     1.600     1.700     1.800     1.900     2.000     2.200     2.400     2.600
     2.800     3.000     3.200     3.400     3.600     3.800     4.000     4.200
     4.400     4.600     4.800     5.000     5.500     6.000      .000      .000
      .000      .000      .000      .000      .000      .000      .000      .000
      .000      .000      .000      .000      .000      .000      .000      .000
      .000      .000      .000      .000
Fourier amplitude spectra in in/sec.
  .000E+00  .000E+00  .000E+00  .000E+00  .000E+00  .000E+00  .000E+00  .000E+00
  .000E+00  .000E+00  .000E+00  .000E+00  .000E+00  .000E+00  .000E+00  .000E+00
  .000E+00  .000E+00  .000E+00  .000E+00  .000E+00  .000E+00  .000E+00  .000E+00
  .000E+00  .000E+00  .000E+00  .000E+00  .000E+00  .000E+00  .000E+00  .000E+00
  .000E+00  .000E+00  .000E+00  .000E+00  .000E+00  .000E+00  .000E+00  .000E+00
  .000E+00  .000E+00  .000E+00  .000E+00  .000E+00  .000E+00  .000E+00  .000E+00
  .000E+00  .000E+00  .000E+00  .000E+00  .000E+00  .000E+00  .000E+00  .000E+00
  .000E+00  .000E+00  .000E+00  .000E+00  .000E+00  .000E+00  .000E+00  .000E+00
  .000E+00  .000E+00  .000E+00  .000E+00  .000E+00  .000E+00  .000E+00  .000E+00
  .000E+00  .000E+00  .000E+00  .000E+00  .000E+00  .000E+00  .000E+00  .000E+00
  .000E+00  .000E+00  .000E+00  .000E+00  .000E+00  .000E+00  .000E+00  .000E+00
  .000E+00  .000E+00  .000E+00  .000E+00  .000E+00  .000E+00  .000E+00  .000E+00
  .000E+00  .000E+00  .000E+00  .000E+00
Damping =  .05. Data of Sd,Sv,Sa,Pssv,ttSd,ttSv,ttSa :
  .398E-03  .515E-03  .675E-03  .875E-03  .936E-03  .934E-03  .111E-02  .157E-02
  .192E-02  .215E-02  .193E-02  .242E-02  .310E-02  .434E-02  .491E-02  .522E-02
  .600E-02  .672E-02  .763E-02  .101E-01  .108E-01  .122E-01  .170E-01  .208E-01
  .241E-01  .206E-01  .288E-01  .428E-01  .581E-01  .490E-01  .366E-01  .348E-01
  .344E-01  .368E-01  .317E-01  .249E-01  .221E-01  .235E-01  .251E-01  .270E-01
  .297E-01  .214E-01  .189E-01  .180E-01  .206E-01  .194E-01  .176E-01  .202E-01
  .216E-01  .203E-01  .242E-01  .238E-01  .248E-01  .253E-01  .235E-01  .215E-01
  .212E-01  .191E-01  .200E-01  .192E-01  .161E-01  .156E-01  .159E-01  .142E-01
  .144E-01  .140E-01  .149E-01  .146E-01  .146E-01  .143E-01  .138E-01  .132E-01
  .128E-01  .124E-01  .121E-01  .120E-01  .118E-01  .116E-01  .000E+00  .000E+00
  .000E+00  .000E+00  .000E+00  .000E+00  .000E+00  .000E+00  .000E+00  .000E+00
  .000E+00  .000E+00  .000E+00  .000E+00  .000E+00  .000E+00  .000E+00  .000E+00
  .000E+00  .000E+00  .000E+00  .000E+00
  .449E-01  .469E-01  .582E-01  .801E-01  .862E-01  .943E-01  .111E+00  .145E+00
  .180E+00  .188E+00  .148E+00  .166E+00  .210E+00  .208E+00  .248E+00  .248E+00
  .268E+00  .298E+00  .319E+00  .382E+00  .391E+00  .410E+00  .556E+00  .689E+00
  .760E+00  .635E+00  .793E+00  .116E+01  .140E+01  .121E+01  .834E+00  .758E+00
  .780E+00  .744E+00  .661E+00  .511E+00  .481E+00  .482E+00  .478E+00  .473E+00
  .486E+00  .477E+00  .433E+00  .397E+00  .347E+00  .347E+00  .314E+00  .304E+00
  .288E+00  .278E+00  .288E+00  .312E+00  .363E+00  .359E+00  .324E+00  .314E+00
  .315E+00  .313E+00  .312E+00  .316E+00  .322E+00  .326E+00  .315E+00  .304E+00
  .300E+00  .300E+00  .303E+00  .306E+00  .308E+00  .310E+00  .310E+00  .311E+00
  .311E+00  .311E+00  .310E+00  .310E+00  .310E+00  .309E+00  .000E+00  .000E+00
  .000E+00  .000E+00  .000E+00  .000E+00  .000E+00  .000E+00  .000E+00  .000E+00
  .000E+00  .000E+00  .000E+00  .000E+00  .000E+00  .000E+00  .000E+00  .000E+00
  .000E+00  .000E+00  .000E+00  .000E+00
  .254E-01  .297E-01  .355E-01  .424E-01  .416E-01  .390E-01  .372E-01  .444E-01
  .473E-01  .455E-01  .351E-01  .385E-01  .438E-01  .551E-01  .558E-01  .536E-01
  .508E-01  .485E-01  .464E-01  .520E-01  .490E-01  .491E-01  .610E-01  .654E-01
  .681E-01  .534E-01  .608E-01  .759E-01  .882E-01  .643E-01  .418E-01  .352E-01
  .308E-01  .292E-01  .226E-01  .161E-01  .131E-01  .127E-01  .123E-01  .122E-01
  .123E-01  .739E-02  .545E-02  .441E-02  .433E-02  .356E-02  .283E-02  .288E-02
  .275E-02  .232E-02  .249E-02  .203E-02  .178E-02  .155E-02  .125E-02  .100E-02
  .856E-03  .691E-03  .647E-03  .548E-03  .482E-03  .335E-03  .320E-03  .255E-03
  .234E-03  .230E-03  .228E-03  .216E-03  .200E-03  .183E-03  .168E-03  .155E-03
  .143E-03  .134E-03  .125E-03  .118E-03  .104E-03  .928E-04  .000E+00  .000E+00
  .000E+00  .000E+00  .000E+00  .000E+00  .000E+00  .000E+00  .000E+00  .000E+00
  .000E+00  .000E+00  .000E+00  .000E+00  .000E+00  .000E+00  .000E+00  .000E+00
  .000E+00  .000E+00  .000E+00  .000E+00
  .625E-01  .771E-01  .964E-01  .120E+00  .122E+00  .117E+00  .126E+00  .164E+00
  .186E+00  .193E+00  .162E+00  .190E+00  .229E+00  .303E+00  .325E+00  .328E+00
  .343E+00  .352E+00  .369E+00  .451E+00  .453E+00  .479E+00  .628E+00  .725E+00
  .796E+00  .649E+00  .821E+00  .112E+01  .140E+01  .110E+01  .767E+00  .683E+00
  .636E+00  .642E+00  .524E+00  .391E+00  .331E+00  .336E+00  .342E+00  .354E+00
  .373E+00  .245E+00  .198E+00  .174E+00  .185E+00  .163E+00  .138E+00  .149E+00
  .151E+00  .135E+00  .152E+00  .136E+00  .130E+00  .122E+00  .105E+00  .900E-01
  .833E-01  .704E-01  .697E-01  .634E-01  .507E-01  .445E-01  .417E-01  .344E-01
  .324E-01  .293E-01  .293E-01  .271E-01  .255E-01  .236E-01  .216E-01  .198E-01
  .183E-01  .170E-01  .159E-01  .151E-01  .135E-01  .122E-01  .000E+00  .000E+00
  .000E+00  .000E+00  .000E+00  .000E+00  .000E+00  .000E+00  .000E+00  .000E+00
  .000E+00  .000E+00  .000E+00  .000E+00  .000E+00  .000E+00  .000E+00  .000E+00
  .000E+00  .000E+00  .000E+00  .000E+00
  .317E+02  .319E+02  .319E+02  .319E+02  .319E+02  .318E+02  .317E+02  .323E+02
  .303E+02  .318E+02  .331E+02  .318E+02  .318E+02  .331E+02  .331E+02  .331E+02
  .331E+02  .331E+02  .318E+02  .319E+02  .332E+02  .319E+02  .320E+02  .334E+02
  .334E+02  .334E+02  .334E+02  .334E+02  .333E+02  .332E+02  .326E+02  .325E+02
  .332E+02  .333E+02  .331E+02  .331E+02  .331E+02  .331E+02  .331E+02  .331E+02
  .331E+02  .331E+02  .330E+02  .330E+02  .405E+02  .379E+02  .379E+02  .403E+02
  .435E+02  .395E+02  .395E+02  .393E+02  .393E+02  .373E+02  .368E+02  .368E+02
  .428E+02  .389E+02  .383E+02  .384E+02  .384E+02  .384E+02  .378E+02  .330E+02
  .324E+02  .324E+02  .378E+02  .331E+02  .331E+02  .331E+02  .331E+02  .331E+02
  .331E+02  .331E+02  .331E+02  .319E+02  .319E+02  .319E+02  .000E+00  .000E+00
  .000E+00  .000E+00  .000E+00  .000E+00  .000E+00  .000E+00  .000E+00  .000E+00
  .000E+00  .000E+00  .000E+00  .000E+00  .000E+00  .000E+00  .000E+00  .000E+00
  .000E+00  .000E+00  .000E+00  .000E+00
  .317E+02  .316E+02  .319E+02  .319E+02  .319E+02  .318E+02  .317E+02  .323E+02
  .302E+02  .302E+02  .315E+02  .318E+02  .317E+02  .317E+02  .317E+02  .317E+02
  .332E+02  .313E+02  .319E+02  .320E+02  .332E+02  .320E+02  .320E+02  .325E+02
  .334E+02  .334E+02  .335E+02  .334E+02  .334E+02  .333E+02  .327E+02  .325E+02
  .333E+02  .332E+02  .332E+02  .332E+02  .332E+02  .332E+02  .332E+02  .332E+02
  .331E+02  .331E+02  .331E+02  .331E+02  .331E+02  .331E+02  .331E+02  .331E+02
  .331E+02  .331E+02  .331E+02  .331E+02  .331E+02  .331E+02  .331E+02  .331E+02
  .331E+02  .331E+02  .331E+02  .331E+02  .331E+02  .331E+02  .331E+02  .331E+02
  .331E+02  .331E+02  .331E+02  .331E+02  .331E+02  .331E+02  .331E+02  .331E+02
  .331E+02  .331E+02  .331E+02  .331E+02  .331E+02  .331E+02  .000E+00  .000E+00
  .000E+00  .000E+00  .000E+00  .000E+00  .000E+00  .000E+00  .000E+00  .000E+00
  .000E+00  .000E+00  .000E+00  .000E+00  .000E+00  .000E+00  .000E+00  .000E+00
  .000E+00  .000E+00  .000E+00  .000E+00
  .317E+02  .319E+02  .319E+02  .319E+02  .319E+02  .318E+02  .317E+02  .323E+02
  .303E+02  .318E+02  .331E+02  .318E+02  .318E+02  .331E+02  .331E+02  .331E+02
  .331E+02  .331E+02  .318E+02  .319E+02  .332E+02  .319E+02  .320E+02  .334E+02
  .334E+02  .334E+02  .334E+02  .334E+02  .333E+02  .332E+02  .326E+02  .325E+02
  .332E+02  .333E+02  .331E+02  .331E+02  .331E+02  .331E+02  .331E+02  .331E+02
  .331E+02  .331E+02  .330E+02  .330E+02  .405E+02  .378E+02  .379E+02  .403E+02
  .435E+02  .395E+02  .395E+02  .393E+02  .393E+02  .373E+02  .367E+02  .368E+02
  .428E+02  .389E+02  .383E+02  .383E+02  .331E+02  .384E+02  .330E+02  .330E+02
  .323E+02  .331E+02  .331E+02  .331E+02  .331E+02  .331E+02  .331E+02  .331E+02
  .331E+02  .331E+02  .331E+02  .331E+02  .331E+02  .331E+02  .000E+00  .000E+00
  .000E+00  .000E+00  .000E+00  .000E+00  .000E+00  .000E+00  .000E+00  .000E+00
  .000E+00  .000E+00  .000E+00  .000E+00  .000E+00  .000E+00  .000E+00  .000E+00
  .000E+00  .000E+00  .000E+00  .000E+00
/&   ----------  End of spectral data for channel  1  ----------
Response and Fourier amplitude spectra (78 periods,  .04 -  6.0 sec)   for      
Corrected accelerogram   24581-P0673-20263.13       Chan  2: 360 Deg     from   
Uncorrected Accelerogram Data             Processed: 09/18/20, CGS  ce24581m    
Rcrd of Fri Sep 18, 2020 23:38:24.0 PDT               (Avol1 v2.0, 4/18 CSMIP)  
CSMIP Preliminary Processing            (Origin:  To be determined)             
24581-P0673-20263.13                 Start time:  9/19/20, 06:38:24.0 UTC (GPS) 
Station No. 24581   34.049N, 118.259W    ObsdnM  s/n  673 (16 Chns of 16 at Sta)
Los Angeles - 12-story Comm./Office Bldg  CGS   Data: Acceleration              
Chan  2: 360 DegR                   Location: Sub-basement: Near NW Corner      
Rcrd of Fri Sep 18, 2020 23:38:24.0 PDT    Fri Sep 18, 2020 23:38:24.0 PDT      
Hypocenter:  To be determined.               ML:  To be determined.             
Instr Period =  .0195 sec,  Damping =  .680,  Sensitivity = 1.25 v/g            
                        Record Length = 71.000 sec.                             
                                     Uncor Max  =  -.049 g, at   31.885 sec.    
RMS accel of (uncor) record  =        .   Chn. metadata effective date: 05/18/17
Accelerogram bandpass filtered with 3 dB pts at   .30 and 40.00 cyc/sec         
                 instrument- and base-line correcte                             
                                                                                
                                                                                
                                                                                
                                                                                
                                                                                
Rcrd of Fri Sep 18, 2020 23:38:24.0 PDT    Fri Sep 18, 2020 23:38:24.0 PDT      
                                                                                
24581-P0673-20263.13      Los Angeles - 12-story Comm./Office Bldg  CGChan  2: 3
60 Deg                                                                          
24581-P0673-20263.13      Los Angeles - 12-story Comm./Office Bldg  CGChan  2: 3
60 Deg                                                                          
Units for spectra are inches and sec, except Sa is in fraction of g.            
                                                                                
    2  100    2   16   16  200    1    3    1   24   33  673    024581    2    0
    6   38   24    0  263    9   19 2020   10    3  36014200   39   40   74   40
14200    1  100    3  673    1   13  710    2 -999 -999 -999 -999 -999 -999 -999
 -999 -999    3 -999 7100    2  222    1   24    4 -999 -999    3    1 -999 7100
    3 7100    4   78    1   16    5    0    0 -999    0    0    1    3    1    2
    2    2    4    0   67   45    0    1 -999    0    0    1    0    0    4  222
    1    0    2    0
      .019      .680    71.000      .002     1.000  1253.000     -.049    31.885
    51.300      .298      .238  -999.000     5.000  -999.000     2.000  -999.000
     2.500    22.021     2.500  -999.000    30.000    30.000  -999.000      .001
      .002      .001     2.000    15.000    34.049  -118.259      .017      .145
     8.581     -.009      .011    83.000    31.000    40.900    13.200   112.640
     1.000    11.003    -8.000  -999.000  -999.000  -999.000  -999.000  -999.000
     6.900     2.000     6.800   980.665      .010    71.000     8.165      .000
  -999.000    40.000  -999.000    71.000      .010      .300  -999.000  -999.000
    31.880   -47.669    31.500    -1.049    31.340      .070      .000      .300
    40.000      .010      .010      .000      .010      .022  -999.000  -999.000
      .132      .080      .121      .060      .006      .000  -999.000  -999.000
  -999.000  -999.000  -999.000  -999.000  -999.000  -999.000  -999.000  -999.000
  -999.000  -999.000  -999.000  -999.000
      .050
      .040      .042      .044      .046      .048      .050      .055      .060
      .065      .070      .075      .080      .085      .090      .095      .100
      .110      .120      .130      .140      .150      .160      .170      .180
      .190      .200      .220      .240      .260      .280      .300      .320
      .340      .360      .380      .400      .420      .440      .460      .480
      .500      .550      .600      .650      .700      .750      .800      .850
      .900      .950     1.000     1.100     1.200     1.300     1.400     1.500
     1.600     1.700     1.800     1.900     2.000     2.200     2.400     2.600
     2.800     3.000     3.200     3.400     3.600     3.800     4.000     4.200
     4.400     4.600     4.800     5.000     5.500     6.000      .000      .000
      .000      .000      .000      .000      .000      .000      .000      .000
      .000      .000      .000      .000      .000      .000      .000      .000
      .000      .000      .000      .000
Fourier amplitude spectra in in/sec.
  .000E+00  .000E+00  .000E+00  .000E+00  .000E+00  .000E+00  .000E+00  .000E+00
  .000E+00  .000E+00  .000E+00  .000E+00  .000E+00  .000E+00  .000E+00  .000E+00
  .000E+00  .000E+00  .000E+00  .000E+00  .000E+00  .000E+00  .000E+00  .000E+00
  .000E+00  .000E+00  .000E+00  .000E+00  .000E+00  .000E+00  .000E+00  .000E+00
  .000E+00  .000E+00  .000E+00  .000E+00  .000E+00  .000E+00  .000E+00  .000E+00
  .000E+00  .000E+00  .000E+00  .000E+00  .000E+00  .000E+00  .000E+00  .000E+00
  .000E+00  .000E+00  .000E+00  .000E+00  .000E+00  .000E+00  .000E+00  .000E+00
  .000E+00  .000E+00  .000E+00  .000E+00  .000E+00  .000E+00  .000E+00  .000E+00
  .000E+00  .000E+00  .000E+00  .000E+00  .000E+00  .000E+00  .000E+00  .000E+00
  .000E+00  .000E+00  .000E+00  .000E+00  .000E+00  .000E+00  .000E+00  .000E+00
  .000E+00  .000E+00  .000E+00  .000E+00  .000E+00  .000E+00  .000E+00  .000E+00
  .000E+00  .000E+00  .000E+00  .000E+00  .000E+00  .000E+00  .000E+00  .000E+00
  .000E+00  .000E+00  .000E+00  .000E+00
Damping =  .05. Data of Sd,Sv,Sa,Pssv,ttSd,ttSv,ttSa :
  .116E-02  .146E-02  .169E-02  .187E-02  .184E-02  .163E-02  .277E-02  .341E-02
  .460E-02  .484E-02  .690E-02  .817E-02  .799E-02  .669E-02  .808E-02  .808E-02
  .915E-02  .107E-01  .116E-01  .151E-01  .183E-01  .193E-01  .292E-01  .350E-01
  .414E-01  .460E-01  .607E-01  .612E-01  .599E-01  .568E-01  .516E-01  .454E-01
  .416E-01  .393E-01  .448E-01  .481E-01  .449E-01  .412E-01  .445E-01  .464E-01
