Response and Fourier amplitude spectra (78 periods,  .04 -  6.0 sec)   for      
Corrected accelerogram   24945-B2331-20263.57       Chan  1:  Up         from   
Uncorrected Accelerogram Data             Processed: 09/18/20, CGS  ce24945e    
Rcrd of Fri Sep 18, 2020 23:38:27.0 PDT               (Avol1 v2.0, 4/18 CSMIP)  
CSMIP Preliminary Processing            (Origin:  To be determined)             
24945-B2331-20263.57                 Start time:  9/19/20, 06:38:27.0 UTC (GPS) 
Station No. 24945   34.163N, 118.255W    Basalt  s/n 2331  (3 Chns of  3 at Sta)
Glendale - Brand Blvd & Stocker           CGS   Data: Acceleration              
Chan  1:  Up                                                                    
Rcrd of Fri Sep 18, 2020 23:38:27.0 PDT    Fri Sep 18, 2020 23:38:27.0 PDT      
Hypocenter:  To be determined.               ML:  To be determined.             
Instr Period =  .0048 sec,  Damping =  .700,  Sensitivity = 1.25 v/g            
                        Record Length = 60.000 sec.                             
                                     Uncor Max  =   .041 g, at   25.145 sec.    
RMS accel of (uncor) record  =        .   Chn. metadata effective date: 08/11/15
Accelerogram bandpass filtered with 3 dB pts at   .30 and 40.00 cyc/sec         
                 instrument- and base-line correcte                             
                                                                                
                                                                                
                                                                                
                                                                                
                                                                                
Rcrd of Fri Sep 18, 2020 23:38:27.0 PDT    Fri Sep 18, 2020 23:38:27.0 PDT      
                                                                                
24945-B2331-20263.57      Glendale - Brand Blvd & Stocker   Chan  1:  Up        
                                                                                
24945-B2331-20263.57      Glendale - Brand Blvd & Stocker   Chan  1:  Up        
                                                                                
Units for spectra are inches and sec, except Sa is in fraction of g.            
                                                                                
    1  100    1    3    3  200    1    3    1   24   31 2331    024945   11    0
    6   38   27    0  263    9   19 2020   10    3  50012000   39   31   74  360
12000    1  100    3 2331    1   57  600    2 -999 -999 -999 -999 -999 -999 -999
 -999 -999    3 -99912000    1  202    0   24   20 -999 -999    3    1 -99912000
    312000    4   78    1    3    5    0    0 -999    0    0    1    3    1    2
    2    2    4    0   32   67    0    5 -999    0    0    1    0    0    0  222
    1    0    0    0
      .005      .700    60.000      .003     1.000  1251.400      .041    25.145
   210.000      .596      .476  -999.000     5.000  -999.000     4.000  -999.000
     5.000    -2.203     5.000  -999.000    25.000    30.000  -999.000      .000
      .001      .001     2.000    15.000    34.163  -118.255      .063      .180
     2.881     -.014      .017   174.000    26.000    30.900    13.400    90.860
     1.000    11.003    -8.000  -999.000  -999.000  -999.000  -999.000  -999.000
     6.900     2.000     6.800   980.665      .005    60.000    33.423      .000
  -999.000    40.000  -999.000    60.000      .005      .300  -999.000  -999.000
    25.145    40.771    29.935      .557    30.990     -.020      .000      .300
    40.000      .005      .005      .000      .005      .013  -999.000  -999.000
      .174      .050      .036      .042      .002      .000  -999.000  -999.000
  -999.000  -999.000  -999.000  -999.000  -999.000  -999.000  -999.000  -999.000
  -999.000  -999.000  -999.000  -999.000
      .050
      .040      .042      .044      .046      .048      .050      .055      .060
      .065      .070      .075      .080      .085      .090      .095      .100
      .110      .120      .130      .140      .150      .160      .170      .180
      .190      .200      .220      .240      .260      .280      .300      .320
      .340      .360      .380      .400      .420      .440      .460      .480
      .500      .550      .600      .650      .700      .750      .800      .850
      .900      .950     1.000     1.100     1.200     1.300     1.400     1.500
     1.600     1.700     1.800     1.900     2.000     2.200     2.400     2.600
     2.800     3.000     3.200     3.400     3.600     3.800     4.000     4.200
     4.400     4.600     4.800     5.000     5.500     6.000      .000      .000
      .000      .000      .000      .000      .000      .000      .000      .000
      .000      .000      .000      .000      .000      .000      .000      .000
      .000      .000      .000      .000
Fourier amplitude spectra in in/sec.
  .000E+00  .000E+00  .000E+00  .000E+00  .000E+00  .000E+00  .000E+00  .000E+00
  .000E+00  .000E+00  .000E+00  .000E+00  .000E+00  .000E+00  .000E+00  .000E+00
  .000E+00  .000E+00  .000E+00  .000E+00  .000E+00  .000E+00  .000E+00  .000E+00
  .000E+00  .000E+00  .000E+00  .000E+00  .000E+00  .000E+00  .000E+00  .000E+00
  .000E+00  .000E+00  .000E+00  .000E+00  .000E+00  .000E+00  .000E+00  .000E+00
  .000E+00  .000E+00  .000E+00  .000E+00  .000E+00  .000E+00  .000E+00  .000E+00
  .000E+00  .000E+00  .000E+00  .000E+00  .000E+00  .000E+00  .000E+00  .000E+00
  .000E+00  .000E+00  .000E+00  .000E+00  .000E+00  .000E+00  .000E+00  .000E+00
  .000E+00  .000E+00  .000E+00  .000E+00  .000E+00  .000E+00  .000E+00  .000E+00
  .000E+00  .000E+00  .000E+00  .000E+00  .000E+00  .000E+00  .000E+00  .000E+00
  .000E+00  .000E+00  .000E+00  .000E+00  .000E+00  .000E+00  .000E+00  .000E+00
  .000E+00  .000E+00  .000E+00  .000E+00  .000E+00  .000E+00  .000E+00  .000E+00
  .000E+00  .000E+00  .000E+00  .000E+00
Damping =  .05. Data of Sd,Sv,Sa,Pssv,ttSd,ttSv,ttSa :
  .225E-02  .263E-02  .300E-02  .342E-02  .381E-02  .418E-02  .468E-02  .463E-02
  .506E-02  .512E-02  .489E-02  .467E-02  .430E-02  .461E-02  .533E-02  .581E-02
  .107E-01  .933E-02  .926E-02  .831E-02  .894E-02  .795E-02  .105E-01  .121E-01
  .126E-01  .148E-01  .166E-01  .186E-01  .277E-01  .353E-01  .388E-01  .366E-01
  .289E-01  .226E-01  .223E-01  .207E-01  .194E-01  .191E-01  .188E-01  .183E-01
  .177E-01  .229E-01  .289E-01  .249E-01  .245E-01  .278E-01  .214E-01  .160E-01
  .201E-01  .188E-01  .186E-01  .218E-01  .172E-01  .149E-01  .140E-01  .139E-01
  .138E-01  .136E-01  .154E-01  .164E-01  .158E-01  .150E-01  .141E-01  .131E-01
  .126E-01  .116E-01  .105E-01  .949E-02  .907E-02  .856E-02  .831E-02  .795E-02
  .800E-02  .821E-02  .833E-02  .838E-02  .836E-02  .824E-02  .000E+00  .000E+00
  .000E+00  .000E+00  .000E+00  .000E+00  .000E+00  .000E+00  .000E+00  .000E+00
  .000E+00  .000E+00  .000E+00  .000E+00  .000E+00  .000E+00  .000E+00  .000E+00
  .000E+00  .000E+00  .000E+00  .000E+00
  .310E+00  .340E+00  .375E+00  .429E+00  .475E+00  .509E+00  .532E+00  .494E+00
  .499E+00  .465E+00  .391E+00  .332E+00  .327E+00  .323E+00  .353E+00  .356E+00
  .589E+00  .533E+00  .514E+00  .412E+00  .369E+00  .312E+00  .375E+00  .385E+00
  .439E+00  .423E+00  .491E+00  .488E+00  .616E+00  .796E+00  .812E+00  .731E+00
  .665E+00  .562E+00  .510E+00  .455E+00  .386E+00  .338E+00  .306E+00  .289E+00
  .299E+00  .309E+00  .321E+00  .310E+00  .297E+00  .302E+00  .284E+00  .247E+00
  .287E+00  .310E+00  .304E+00  .260E+00  .230E+00  .223E+00  .219E+00  .225E+00
  .224E+00  .217E+00  .207E+00  .200E+00  .201E+00  .201E+00  .207E+00  .216E+00
  .221E+00  .223E+00  .224E+00  .224E+00  .224E+00  .223E+00  .222E+00  .222E+00
  .221E+00  .221E+00  .220E+00  .220E+00  .219E+00  .219E+00  .000E+00  .000E+00
  .000E+00  .000E+00  .000E+00  .000E+00  .000E+00  .000E+00  .000E+00  .000E+00
  .000E+00  .000E+00  .000E+00  .000E+00  .000E+00  .000E+00  .000E+00  .000E+00
  .000E+00  .000E+00  .000E+00  .000E+00
  .144E+00  .153E+00  .158E+00  .166E+00  .171E+00  .174E+00  .157E+00  .130E+00
  .123E+00  .108E+00  .892E-01  .753E-01  .617E-01  .593E-01  .610E-01  .601E-01
  .909E-01  .669E-01  .561E-01  .434E-01  .408E-01  .320E-01  .376E-01  .384E-01
  .358E-01  .379E-01  .352E-01  .331E-01  .420E-01  .463E-01  .443E-01  .368E-01
  .257E-01  .180E-01  .159E-01  .133E-01  .114E-01  .102E-01  .917E-02  .822E-02
  .731E-02  .783E-02  .824E-02  .605E-02  .516E-02  .509E-02  .346E-02  .235E-02
  .263E-02  .221E-02  .192E-02  .186E-02  .125E-02  .946E-03  .848E-03  .750E-03
  .667E-03  .593E-03  .522E-03  .490E-03  .440E-03  .360E-03  .303E-03  .246E-03
  .207E-03  .175E-03  .149E-03  .129E-03  .115E-03  .103E-03  .931E-04  .848E-04
  .793E-04  .751E-04  .717E-04  .689E-04  .630E-04  .582E-04  .000E+00  .000E+00
  .000E+00  .000E+00  .000E+00  .000E+00  .000E+00  .000E+00  .000E+00  .000E+00
  .000E+00  .000E+00  .000E+00  .000E+00  .000E+00  .000E+00  .000E+00  .000E+00
  .000E+00  .000E+00  .000E+00  .000E+00
  .353E+00  .393E+00  .428E+00  .467E+00  .498E+00  .525E+00  .534E+00  .485E+00
  .489E+00  .460E+00  .410E+00  .367E+00  .318E+00  .322E+00  .353E+00  .365E+00
  .609E+00  .488E+00  .447E+00  .373E+00  .375E+00  .312E+00  .390E+00  .422E+00
  .416E+00  .464E+00  .474E+00  .486E+00  .668E+00  .793E+00  .812E+00  .719E+00
  .533E+00  .395E+00  .369E+00  .324E+00  .291E+00  .272E+00  .256E+00  .240E+00
  .222E+00  .261E+00  .302E+00  .240E+00  .220E+00  .233E+00  .168E+00  .119E+00
  .141E+00  .124E+00  .117E+00  .125E+00  .901E-01  .718E-01  .627E-01  .583E-01
  .543E-01  .502E-01  .536E-01  .541E-01  .495E-01  .428E-01  .370E-01  .316E-01
  .283E-01  .244E-01  .207E-01  .175E-01  .158E-01  .142E-01  .130E-01  .119E-01
  .114E-01  .112E-01  .109E-01  .105E-01  .955E-02  .863E-02  .000E+00  .000E+00
  .000E+00  .000E+00  .000E+00  .000E+00  .000E+00  .000E+00  .000E+00  .000E+00
  .000E+00  .000E+00  .000E+00  .000E+00  .000E+00  .000E+00  .000E+00  .000E+00
  .000E+00  .000E+00  .000E+00  .000E+00
  .248E+02  .248E+02  .248E+02  .248E+02  .248E+02  .248E+02  .248E+02  .252E+02
  .252E+02  .252E+02  .282E+02  .287E+02  .253E+02  .253E+02  .280E+02  .280E+02
  .282E+02  .282E+02  .281E+02  .274E+02  .300E+02  .300E+02  .296E+02  .298E+02
  .294E+02  .300E+02  .288E+02  .300E+02  .300E+02  .302E+02  .303E+02  .303E+02
  .303E+02  .300E+02  .322E+02  .299E+02  .299E+02  .297E+02  .297E+02  .297E+02
  .297E+02  .316E+02  .314E+02  .321E+02  .318E+02  .319E+02  .319E+02  .285E+02
  .296E+02  .296E+02  .312E+02  .310E+02  .306E+02  .339E+02  .280E+02  .280E+02
  .280E+02  .280E+02  .302E+02  .302E+02  .302E+02  .294E+02  .297E+02  .300E+02
  .300E+02  .300E+02  .300E+02  .306E+02  .306E+02  .306E+02  .330E+02  .330E+02
  .302E+02  .302E+02  .302E+02  .302E+02  .302E+02  .302E+02  .000E+00  .000E+00
  .000E+00  .000E+00  .000E+00  .000E+00  .000E+00  .000E+00  .000E+00  .000E+00
  .000E+00  .000E+00  .000E+00  .000E+00  .000E+00  .000E+00  .000E+00  .000E+00
  .000E+00  .000E+00  .000E+00  .000E+00
  .248E+02  .248E+02  .248E+02  .248E+02  .248E+02  .248E+02  .248E+02  .252E+02
  .252E+02  .285E+02  .282E+02  .287E+02  .253E+02  .280E+02  .280E+02  .280E+02
  .281E+02  .282E+02  .281E+02  .279E+02  .288E+02  .288E+02  .296E+02  .296E+02
  .295E+02  .295E+02  .289E+02  .287E+02  .300E+02  .303E+02  .303E+02  .302E+02
  .299E+02  .299E+02  .299E+02  .299E+02  .299E+02  .298E+02  .298E+02  .297E+02
  .297E+02  .302E+02  .315E+02  .299E+02  .320E+02  .310E+02  .310E+02  .284E+02
  .299E+02  .299E+02  .299E+02  .299E+02  .281E+02  .281E+02  .299E+02  .299E+02
  .299E+02  .299E+02  .299E+02  .279E+02  .279E+02  .279E+02  .299E+02  .299E+02
  .299E+02  .299E+02  .299E+02  .299E+02  .299E+02  .299E+02  .299E+02  .299E+02
  .299E+02  .299E+02  .299E+02  .299E+02  .299E+02  .299E+02  .000E+00  .000E+00
  .000E+00  .000E+00  .000E+00  .000E+00  .000E+00  .000E+00  .000E+00  .000E+00
  .000E+00  .000E+00  .000E+00  .000E+00  .000E+00  .000E+00  .000E+00  .000E+00
  .000E+00  .000E+00  .000E+00  .000E+00
  .248E+02  .248E+02  .248E+02  .248E+02  .248E+02  .248E+02  .251E+02  .252E+02
  .252E+02  .252E+02  .282E+02  .287E+02  .253E+02  .253E+02  .280E+02  .282E+02
  .282E+02  .282E+02  .281E+02  .274E+02  .300E+02  .300E+02  .296E+02  .298E+02
  .294E+02  .300E+02  .288E+02  .300E+02  .300E+02  .302E+02  .303E+02  .303E+02
  .303E+02  .300E+02  .322E+02  .299E+02  .299E+02  .297E+02  .297E+02  .297E+02
  .297E+02  .316E+02  .314E+02  .321E+02  .318E+02  .319E+02  .319E+02  .296E+02
  .296E+02  .296E+02  .341E+02  .310E+02  .306E+02  .280E+02  .280E+02  .280E+02
  .280E+02  .280E+02  .280E+02  .302E+02  .294E+02  .294E+02  .297E+02  .297E+02
  .299E+02  .299E+02  .299E+02  .287E+02  .287E+02  .287E+02  .287E+02  .299E+02
  .299E+02  .299E+02  .299E+02  .299E+02  .299E+02  .299E+02  .000E+00  .000E+00
  .000E+00  .000E+00  .000E+00  .000E+00  .000E+00  .000E+00  .000E+00  .000E+00
  .000E+00  .000E+00  .000E+00  .000E+00  .000E+00  .000E+00  .000E+00  .000E+00
  .000E+00  .000E+00  .000E+00  .000E+00
/&   ----------  End of spectral data for channel  1  ----------
Response and Fourier amplitude spectra (78 periods,  .04 -  6.0 sec)   for      
Corrected accelerogram   24945-B2331-20263.57       Chan  2: 360 Deg     from   
Uncorrected Accelerogram Data             Processed: 09/18/20, CGS  ce24945e    
Rcrd of Fri Sep 18, 2020 23:38:27.0 PDT               (Avol1 v2.0, 4/18 CSMIP)  
CSMIP Preliminary Processing            (Origin:  To be determined)             
24945-B2331-20263.57                 Start time:  9/19/20, 06:38:27.0 UTC (GPS) 
Station No. 24945   34.163N, 118.255W    Basalt  s/n 2331  (3 Chns of  3 at Sta)
Glendale - Brand Blvd & Stocker           CGS   Data: Acceleration              
Chan  2: 360 Deg                                                                
Rcrd of Fri Sep 18, 2020 23:38:27.0 PDT    Fri Sep 18, 2020 23:38:27.0 PDT      
Hypocenter:  To be determined.               ML:  To be determined.             
Instr Period =  .0050 sec,  Damping =  .700,  Sensitivity = 1.25 v/g            
                        Record Length = 60.000 sec.                             
                                     Uncor Max  =  -.040 g, at   28.420 sec.    
RMS accel of (uncor) record  =        .   Chn. metadata effective date: 08/11/15
Accelerogram bandpass filtered with 3 dB pts at   .30 and 40.00 cyc/sec         
                 instrument- and base-line correcte                             
                                                                                
                                                                                
                                                                                
                                                                                
                                                                                
Rcrd of Fri Sep 18, 2020 23:38:27.0 PDT    Fri Sep 18, 2020 23:38:27.0 PDT      
                                                                                
24945-B2331-20263.57      Glendale - Brand Blvd & Stocker   Chan  2: 360 Deg    
                                                                                
24945-B2331-20263.57      Glendale - Brand Blvd & Stocker   Chan  2: 360 Deg    
                                                                                
Units for spectra are inches and sec, except Sa is in fraction of g.            
                                                                                
    2  100    2    3    3  200    1    3    1   24   31 2331    024945   11    0
    6   38   27    0  263    9   19 2020   10    3  36012000   39   31   74  360
12000    1  100    3 2331    1   57  600    2 -999 -999 -999 -999 -999 -999 -999
 -999 -999    3 -99912000    1  202    0   24   20 -999 -999    3    1 -99912000
    312000    4   78    1    3    5    0    0 -999    0    0    1    3    1    2
    2    2    4    0   32   67    0    5 -999    0    0    1    0    0    0  222
    1    0    0    0
      .005      .700    60.000      .003     1.000  1252.600     -.040    28.420
   202.000      .596      .476  -999.000     5.000  -999.000     4.000  -999.000
     5.000     8.916     5.000  -999.000    25.000    30.000  -999.000      .002
     -.003     -.005     2.000    15.000    34.163  -118.255      .024      .237
     9.957     -.023      .013   174.000    26.000    30.900    13.400    90.860
     1.000    11.003    -8.000  -999.000  -999.000  -999.000  -999.000  -999.000
     6.900     2.000     6.800   980.665      .005    60.000    32.149      .000
  -999.000    40.000  -999.000    60.000      .005      .300  -999.000  -999.000
    28.415   -39.163    29.605    -1.364    27.940     -.117      .000      .300
    40.000      .005      .005      .000      .005      .025  -999.000  -999.000
      .146      .085      .054      .036      .011      .001  -999.000  -999.000
  -999.000  -999.000  -999.000  -999.000  -999.000  -999.000  -999.000  -999.000
  -999.000  -999.000  -999.000  -999.000
      .050
      .040      .042      .044      .046      .048      .050      .055      .060
      .065      .070      .075      .080      .085      .090      .095      .100
      .110      .120      .130      .140      .150      .160      .170      .180
      .190      .200      .220      .240      .260      .280      .300      .320
      .340      .360      .380      .400      .420      .440      .460      .480
      .500      .550      .600      .650      .700      .750      .800      .850
      .900      .950     1.000     1.100     1.200     1.300     1.400     1.500
     1.600     1.700     1.800     1.900     2.000     2.200     2.400     2.600
     2.800     3.000     3.200     3.400     3.600     3.800     4.000     4.200
     4.400     4.600     4.800     5.000     5.500     6.000      .000      .000
      .000      .000      .000      .000      .000      .000      .000      .000
      .000      .000      .000      .000      .000      .000      .000      .000
      .000      .000      .000      .000
Fourier amplitude spectra in in/sec.
  .000E+00  .000E+00  .000E+00  .000E+00  .000E+00  .000E+00  .000E+00  .000E+00
  .000E+00  .000E+00  .000E+00  .000E+00  .000E+00  .000E+00  .000E+00  .000E+00
  .000E+00  .000E+00  .000E+00  .000E+00  .000E+00  .000E+00  .000E+00  .000E+00
  .000E+00  .000E+00  .000E+00  .000E+00  .000E+00  .000E+00  .000E+00  .000E+00
  .000E+00  .000E+00  .000E+00  .000E+00  .000E+00  .000E+00  .000E+00  .000E+00
  .000E+00  .000E+00  .000E+00  .000E+00  .000E+00  .000E+00  .000E+00  .000E+00
  .000E+00  .000E+00  .000E+00  .000E+00  .000E+00  .000E+00  .000E+00  .000E+00
  .000E+00  .000E+00  .000E+00  .000E+00  .000E+00  .000E+00  .000E+00  .000E+00
  .000E+00  .000E+00  .000E+00  .000E+00  .000E+00  .000E+00  .000E+00  .000E+00
  .000E+00  .000E+00  .000E+00  .000E+00  .000E+00  .000E+00  .000E+00  .000E+00
  .000E+00  .000E+00  .000E+00  .000E+00  .000E+00  .000E+00  .000E+00  .000E+00
  .000E+00  .000E+00  .000E+00  .000E+00  .000E+00  .000E+00  .000E+00  .000E+00
  .000E+00  .000E+00  .000E+00  .000E+00
Damping =  .05. Data of Sd,Sv,Sa,Pssv,ttSd,ttSv,ttSa :
  .869E-03  .112E-02  .147E-02  .172E-02  .177E-02  .170E-02  .241E-02  .263E-02
  .434E-02  .490E-02  .636E-02  .768E-02  .102E-01  .101E-01  .802E-02  .845E-02
  .131E-01  .172E-01  .213E-01  .205E-01  .218E-01  .220E-01  .204E-01  .168E-01
  .214E-01  .223E-01  .207E-01  .224E-01  .202E-01  .243E-01  .315E-01  .412E-01
  .553E-01  .573E-01  .516E-01  .576E-01  .667E-01  .688E-01  .713E-01  .801E-01
