Response and Fourier amplitude spectra (78 periods,  .04 -  6.0 sec)   for      
Corrected accelerogram   24103-O0195-20263.13       Chan  1:  Up         from   
Uncorrected Accelerogram Data             Processed: 09/18/20, CGS  ce24103m    
Rcrd of Fri Sep 18, 2020 23:38:30.0 PDT               (Avol1 v2.0, 4/18 CSMIP)  
CSMIP Preliminary Processing            (Origin:  To be determined)             
24103-O0195-20263.13                 Start time:  9/19/20, 06:38:30.0 UTC (GPS) 
Station No. 24103   34.160N, 118.534W    Obsidn  s/n  195  (3 Chns of  3 at Sta)
Tarzana - Clubhouse                       CGS   Data: Acceleration              
Chan  1:  Up                                                                    
Rcrd of Fri Sep 18, 2020 23:38:30.0 PDT    Fri Sep 18, 2020 23:38:30.0 PDT      
Hypocenter:  To be determined.               ML:  To be determined.             
Instr Period =  .0048 sec,  Damping =  .700,  Sensitivity = 1.25 v/g            
                        Record Length = 62.000 sec.                             
                                     Uncor Max  =   .009 g, at   30.950 sec.    
RMS accel of (uncor) record  =        .   Chn. metadata effective date: 07/26/16
Accelerogram bandpass filtered with 3 dB pts at   .30 and 40.00 cyc/sec         
                 instrument- and base-line correcte                             
                                                                                
                                                                                
                                                                                
                                                                                
                                                                                
Rcrd of Fri Sep 18, 2020 23:38:30.0 PDT    Fri Sep 18, 2020 23:38:30.0 PDT      
                                                                                
24103-O0195-20263.13      Tarzana - Clubhouse   Chan  1:  Up                    
                                                                                
24103-O0195-20263.13      Tarzana - Clubhouse   Chan  1:  Up                    
                                                                                
Units for spectra are inches and sec, except Sa is in fraction of g.            
                                                                                
    1  100    1    3    3  200    1    3    1   24   32  195    024103   11    0
    6   38   30    0  263    9   19 2020   10    3  50012400   39   19   74  360
12400    1  100    3  195    1   13  620    2 -999 -999 -999 -999 -999 -999 -999
 -999 -999    3 -99912400    1  202    0   24   20 -999 -999    3    1 -99912400
    312400    4   78    1    3    5    0    0 -999    0    0    1    3    1    2
    2    2    4    0   32   67    0    1 -999    0    0    1    0    0    0  222
    1    0    2    0
      .005      .700    62.000      .001     1.000  1254.200      .009    30.950
   208.000      .596      .475  -999.000     5.000  -999.000     4.000  -999.000
     5.000    -5.988     5.000  -999.000    30.000    30.000  -999.000     -.002
      .002      .004     2.000    15.000    34.160  -118.534      .018      .167
     9.178     -.009      .016   256.000    31.000    32.900    13.300    99.140
     1.000    11.003    -8.000  -999.000  -999.000  -999.000  -999.000  -999.000
     6.900     2.000     6.800   980.665      .005    62.000    33.104      .000
  -999.000    40.000  -999.000    62.000      .005      .300  -999.000  -999.000
    30.950     8.807    32.900     -.203    31.305     -.011      .000      .300
    40.000      .005      .005      .000      .005      .008  -999.000  -999.000
      .032      .130      .010      .010      .001      .000  -999.000  -999.000
  -999.000  -999.000  -999.000  -999.000  -999.000  -999.000  -999.000  -999.000
  -999.000  -999.000  -999.000  -999.000
      .050
      .040      .042      .044      .046      .048      .050      .055      .060
      .065      .070      .075      .080      .085      .090      .095      .100
      .110      .120      .130      .140      .150      .160      .170      .180
      .190      .200      .220      .240      .260      .280      .300      .320
      .340      .360      .380      .400      .420      .440      .460      .480
      .500      .550      .600      .650      .700      .750      .800      .850
      .900      .950     1.000     1.100     1.200     1.300     1.400     1.500
     1.600     1.700     1.800     1.900     2.000     2.200     2.400     2.600
     2.800     3.000     3.200     3.400     3.600     3.800     4.000     4.200
     4.400     4.600     4.800     5.000     5.500     6.000      .000      .000
      .000      .000      .000      .000      .000      .000      .000      .000
      .000      .000      .000      .000      .000      .000      .000      .000
      .000      .000      .000      .000
Fourier amplitude spectra in in/sec.
  .000E+00  .000E+00  .000E+00  .000E+00  .000E+00  .000E+00  .000E+00  .000E+00
  .000E+00  .000E+00  .000E+00  .000E+00  .000E+00  .000E+00  .000E+00  .000E+00
  .000E+00  .000E+00  .000E+00  .000E+00  .000E+00  .000E+00  .000E+00  .000E+00
  .000E+00  .000E+00  .000E+00  .000E+00  .000E+00  .000E+00  .000E+00  .000E+00
  .000E+00  .000E+00  .000E+00  .000E+00  .000E+00  .000E+00  .000E+00  .000E+00
  .000E+00  .000E+00  .000E+00  .000E+00  .000E+00  .000E+00  .000E+00  .000E+00
  .000E+00  .000E+00  .000E+00  .000E+00  .000E+00  .000E+00  .000E+00  .000E+00
  .000E+00  .000E+00  .000E+00  .000E+00  .000E+00  .000E+00  .000E+00  .000E+00
  .000E+00  .000E+00  .000E+00  .000E+00  .000E+00  .000E+00  .000E+00  .000E+00
  .000E+00  .000E+00  .000E+00  .000E+00  .000E+00  .000E+00  .000E+00  .000E+00
  .000E+00  .000E+00  .000E+00  .000E+00  .000E+00  .000E+00  .000E+00  .000E+00
  .000E+00  .000E+00  .000E+00  .000E+00  .000E+00  .000E+00  .000E+00  .000E+00
  .000E+00  .000E+00  .000E+00  .000E+00
Damping =  .05. Data of Sd,Sv,Sa,Pssv,ttSd,ttSv,ttSa :
  .254E-03  .313E-03  .376E-03  .413E-03  .393E-03  .421E-03  .560E-03  .773E-03
  .967E-03  .115E-02  .143E-02  .141E-02  .149E-02  .160E-02  .159E-02  .169E-02
  .234E-02  .326E-02  .521E-02  .608E-02  .540E-02  .498E-02  .452E-02  .393E-02
  .383E-02  .397E-02  .362E-02  .430E-02  .495E-02  .661E-02  .953E-02  .118E-01
  .133E-01  .141E-01  .134E-01  .109E-01  .948E-02  .835E-02  .816E-02  .938E-02
  .962E-02  .911E-02  .101E-01  .104E-01  .993E-02  .115E-01  .117E-01  .111E-01
  .102E-01  .973E-02  .928E-02  .975E-02  .976E-02  .914E-02  .860E-02  .887E-02
  .832E-02  .740E-02  .710E-02  .721E-02  .738E-02  .690E-02  .590E-02  .543E-02
  .528E-02  .520E-02  .529E-02  .527E-02  .519E-02  .504E-02  .490E-02  .479E-02
  .470E-02  .463E-02  .456E-02  .454E-02  .457E-02  .452E-02  .000E+00  .000E+00
  .000E+00  .000E+00  .000E+00  .000E+00  .000E+00  .000E+00  .000E+00  .000E+00
  .000E+00  .000E+00  .000E+00  .000E+00  .000E+00  .000E+00  .000E+00  .000E+00
  .000E+00  .000E+00  .000E+00  .000E+00
  .312E-01  .414E-01  .481E-01  .469E-01  .452E-01  .445E-01  .534E-01  .720E-01
  .905E-01  .106E+00  .106E+00  .113E+00  .106E+00  .102E+00  .101E+00  .108E+00
  .123E+00  .166E+00  .243E+00  .261E+00  .232E+00  .192E+00  .180E+00  .141E+00
  .141E+00  .140E+00  .110E+00  .110E+00  .150E+00  .164E+00  .197E+00  .222E+00
  .272E+00  .268E+00  .235E+00  .196E+00  .183E+00  .151E+00  .131E+00  .138E+00
  .140E+00  .132E+00  .125E+00  .119E+00  .117E+00  .131E+00  .133E+00  .127E+00
  .125E+00  .123E+00  .127E+00  .129E+00  .114E+00  .950E-01  .811E-01  .762E-01
  .777E-01  .777E-01  .766E-01  .758E-01  .782E-01  .836E-01  .850E-01  .844E-01
  .837E-01  .831E-01  .825E-01  .816E-01  .809E-01  .805E-01  .803E-01  .802E-01
  .802E-01  .801E-01  .801E-01  .800E-01  .798E-01  .797E-01  .000E+00  .000E+00
  .000E+00  .000E+00  .000E+00  .000E+00  .000E+00  .000E+00  .000E+00  .000E+00
  .000E+00  .000E+00  .000E+00  .000E+00  .000E+00  .000E+00  .000E+00  .000E+00
  .000E+00  .000E+00  .000E+00  .000E+00
  .163E-01  .183E-01  .200E-01  .200E-01  .174E-01  .173E-01  .189E-01  .221E-01
  .235E-01  .242E-01  .259E-01  .224E-01  .214E-01  .201E-01  .181E-01  .174E-01
  .199E-01  .232E-01  .319E-01  .318E-01  .246E-01  .200E-01  .161E-01  .125E-01
  .109E-01  .102E-01  .773E-02  .769E-02  .751E-02  .866E-02  .109E-01  .118E-01
  .118E-01  .112E-01  .958E-02  .699E-02  .556E-02  .445E-02  .396E-02  .419E-02
  .396E-02  .310E-02  .289E-02  .254E-02  .210E-02  .211E-02  .188E-02  .159E-02
  .131E-02  .112E-02  .959E-03  .829E-03  .708E-03  .567E-03  .458E-03  .415E-03
  .346E-03  .278E-03  .241E-03  .221E-03  .205E-03  .162E-03  .121E-03  .961E-04
  .826E-04  .725E-04  .660E-04  .596E-04  .536E-04  .482E-04  .435E-04  .399E-04
  .373E-04  .350E-04  .331E-04  .314E-04  .281E-04  .252E-04  .000E+00  .000E+00
  .000E+00  .000E+00  .000E+00  .000E+00  .000E+00  .000E+00  .000E+00  .000E+00
  .000E+00  .000E+00  .000E+00  .000E+00  .000E+00  .000E+00  .000E+00  .000E+00
  .000E+00  .000E+00  .000E+00  .000E+00
  .398E-01  .469E-01  .537E-01  .564E-01  .514E-01  .529E-01  .640E-01  .809E-01
  .935E-01  .103E+00  .120E+00  .110E+00  .110E+00  .112E+00  .105E+00  .106E+00
  .133E+00  .171E+00  .252E+00  .273E+00  .226E+00  .196E+00  .167E+00  .137E+00
  .127E+00  .125E+00  .103E+00  .113E+00  .120E+00  .148E+00  .200E+00  .231E+00
  .245E+00  .247E+00  .222E+00  .171E+00  .142E+00  .119E+00  .111E+00  .123E+00
  .121E+00  .104E+00  .106E+00  .100E+00  .892E-01  .961E-01  .919E-01  .824E-01
  .715E-01  .643E-01  .583E-01  .557E-01  .511E-01  .442E-01  .386E-01  .372E-01
  .327E-01  .273E-01  .248E-01  .238E-01  .232E-01  .197E-01  .154E-01  .131E-01
  .119E-01  .109E-01  .104E-01  .974E-02  .906E-02  .834E-02  .770E-02  .716E-02
  .671E-02  .632E-02  .598E-02  .570E-02  .522E-02  .474E-02  .000E+00  .000E+00
  .000E+00  .000E+00  .000E+00  .000E+00  .000E+00  .000E+00  .000E+00  .000E+00
  .000E+00  .000E+00  .000E+00  .000E+00  .000E+00  .000E+00  .000E+00  .000E+00
  .000E+00  .000E+00  .000E+00  .000E+00
  .309E+02  .309E+02  .309E+02  .310E+02  .254E+02  .316E+02  .316E+02  .316E+02
  .252E+02  .252E+02  .316E+02  .312E+02  .309E+02  .307E+02  .314E+02  .329E+02
  .318E+02  .310E+02  .310E+02  .310E+02  .310E+02  .319E+02  .317E+02  .311E+02
  .311E+02  .317E+02  .308E+02  .357E+02  .313E+02  .313E+02  .317E+02  .317E+02
  .319E+02  .319E+02  .325E+02  .325E+02  .316E+02  .313E+02  .331E+02  .331E+02
  .331E+02  .352E+02  .338E+02  .339E+02  .336E+02  .336E+02  .337E+02  .334E+02
  .334E+02  .335E+02  .583E+02  .585E+02  .328E+02  .328E+02  .324E+02  .324E+02
  .324E+02  .324E+02  .318E+02  .318E+02  .318E+02  .318E+02  .318E+02  .313E+02
  .313E+02  .313E+02  .313E+02  .313E+02  .313E+02  .313E+02  .313E+02  .313E+02
  .313E+02  .313E+02  .313E+02  .313E+02  .313E+02  .313E+02  .000E+00  .000E+00
  .000E+00  .000E+00  .000E+00  .000E+00  .000E+00  .000E+00  .000E+00  .000E+00
  .000E+00  .000E+00  .000E+00  .000E+00  .000E+00  .000E+00  .000E+00  .000E+00
  .000E+00  .000E+00  .000E+00  .000E+00
  .254E+02  .254E+02  .254E+02  .254E+02  .254E+02  .254E+02  .256E+02  .257E+02
  .252E+02  .252E+02  .317E+02  .257E+02  .308E+02  .306E+02  .314E+02  .326E+02
  .318E+02  .310E+02  .310E+02  .310E+02  .310E+02  .320E+02  .317E+02  .317E+02
  .311E+02  .317E+02  .308E+02  .356E+02  .314E+02  .314E+02  .317E+02  .320E+02
  .320E+02  .317E+02  .317E+02  .315E+02  .315E+02  .313E+02  .312E+02  .330E+02
  .330E+02  .356E+02  .340E+02  .338E+02  .338E+02  .335E+02  .335E+02  .329E+02
  .329E+02  .329E+02  .329E+02  .329E+02  .329E+02  .329E+02  .329E+02  .309E+02
  .309E+02  .309E+02  .309E+02  .329E+02  .329E+02  .329E+02  .329E+02  .329E+02
  .329E+02  .329E+02  .329E+02  .329E+02  .329E+02  .329E+02  .329E+02  .329E+02
  .329E+02  .329E+02  .329E+02  .329E+02  .329E+02  .329E+02  .000E+00  .000E+00
  .000E+00  .000E+00  .000E+00  .000E+00  .000E+00  .000E+00  .000E+00  .000E+00
  .000E+00  .000E+00  .000E+00  .000E+00  .000E+00  .000E+00  .000E+00  .000E+00
  .000E+00  .000E+00  .000E+00  .000E+00
  .309E+02  .309E+02  .309E+02  .310E+02  .254E+02  .316E+02  .316E+02  .316E+02
  .252E+02  .252E+02  .316E+02  .312E+02  .309E+02  .307E+02  .314E+02  .326E+02
  .318E+02  .310E+02  .310E+02  .310E+02  .310E+02  .319E+02  .317E+02  .311E+02
  .311E+02  .317E+02  .308E+02  .357E+02  .313E+02  .313E+02  .317E+02  .317E+02
  .319E+02  .319E+02  .325E+02  .316E+02  .316E+02  .313E+02  .331E+02  .331E+02
  .331E+02  .352E+02  .338E+02  .339E+02  .336E+02  .336E+02  .337E+02  .330E+02
  .334E+02  .334E+02  .334E+02  .585E+02  .327E+02  .328E+02  .324E+02  .324E+02
  .324E+02  .318E+02  .318E+02  .318E+02  .318E+02  .318E+02  .318E+02  .313E+02
  .313E+02  .313E+02  .313E+02  .313E+02  .313E+02  .313E+02  .313E+02  .309E+02
  .309E+02  .309E+02  .309E+02  .309E+02  .309E+02  .309E+02  .000E+00  .000E+00
  .000E+00  .000E+00  .000E+00  .000E+00  .000E+00  .000E+00  .000E+00  .000E+00
  .000E+00  .000E+00  .000E+00  .000E+00  .000E+00  .000E+00  .000E+00  .000E+00
  .000E+00  .000E+00  .000E+00  .000E+00
/&   ----------  End of spectral data for channel  1  ----------
Response and Fourier amplitude spectra (78 periods,  .04 -  6.0 sec)   for      
Corrected accelerogram   24103-O0195-20263.13       Chan  2: 360 Deg     from   
Uncorrected Accelerogram Data             Processed: 09/18/20, CGS  ce24103m    
Rcrd of Fri Sep 18, 2020 23:38:30.0 PDT               (Avol1 v2.0, 4/18 CSMIP)  
CSMIP Preliminary Processing            (Origin:  To be determined)             
24103-O0195-20263.13                 Start time:  9/19/20, 06:38:30.0 UTC (GPS) 
Station No. 24103   34.160N, 118.534W    Obsidn  s/n  195  (3 Chns of  3 at Sta)
Tarzana - Clubhouse                       CGS   Data: Acceleration              
Chan  2: 360 Deg                                                                
Rcrd of Fri Sep 18, 2020 23:38:30.0 PDT    Fri Sep 18, 2020 23:38:30.0 PDT      
Hypocenter:  To be determined.               ML:  To be determined.             
Instr Period =  .0051 sec,  Damping =  .700,  Sensitivity = 1.25 v/g            
                        Record Length = 62.000 sec.                             
                                     Uncor Max  =  -.012 g, at   31.125 sec.    
RMS accel of (uncor) record  =        .   Chn. metadata effective date: 07/26/16
Accelerogram bandpass filtered with 3 dB pts at   .30 and 40.00 cyc/sec         
                 instrument- and base-line correcte                             
                                                                                
                                                                                
                                                                                
                                                                                
                                                                                
Rcrd of Fri Sep 18, 2020 23:38:30.0 PDT    Fri Sep 18, 2020 23:38:30.0 PDT      
                                                                                
24103-O0195-20263.13      Tarzana - Clubhouse   Chan  2: 360 Deg                
                                                                                
24103-O0195-20263.13      Tarzana - Clubhouse   Chan  2: 360 Deg                
                                                                                
Units for spectra are inches and sec, except Sa is in fraction of g.            
                                                                                
    2  100    2    3    3  200    1    3    1   24   32  195    024103   11    0
    6   38   30    0  263    9   19 2020   10    3  36012400   39   19   74  360
12400    1  100    3  195    1   13  620    2 -999 -999 -999 -999 -999 -999 -999
 -999 -999    3 -99912400    1  202    0   24   20 -999 -999    3    1 -99912400
    312400    4   78    1    3    5    0    0 -999    0    0    1    3    1    2
    2    2    4    0   32   67    0    1 -999    0    0    1    0    0    0  222
    1    0    2    0
      .005      .700    62.000      .001     1.000  1249.200     -.012    31.125
   198.000      .596      .477  -999.000     5.000  -999.000     4.000  -999.000
     5.000     9.849     5.000  -999.000    30.000    30.000  -999.000      .000
      .003      .003     2.000    15.000    34.160  -118.534      .014      .245
    17.652     -.015      .021   256.000    31.000    32.900    13.300    99.140
     1.000    11.003    -8.000  -999.000  -999.000  -999.000  -999.000  -999.000
     6.900     2.000     6.800   980.665      .005    62.000    31.513      .000
  -999.000    40.000  -999.000    62.000      .005      .300  -999.000  -999.000
    31.120   -11.716    31.090      .422    31.140      .032      .000      .300
    40.000      .005      .005      .000      .005      .012  -999.000  -999.000
      .056      .160      .031      .022      .003      .000  -999.000  -999.000
  -999.000  -999.000  -999.000  -999.000  -999.000  -999.000  -999.000  -999.000
  -999.000  -999.000  -999.000  -999.000
      .050
      .040      .042      .044      .046      .048      .050      .055      .060
      .065      .070      .075      .080      .085      .090      .095      .100
      .110      .120      .130      .140      .150      .160      .170      .180
      .190      .200      .220      .240      .260      .280      .300      .320
      .340      .360      .380      .400      .420      .440      .460      .480
      .500      .550      .600      .650      .700      .750      .800      .850
      .900      .950     1.000     1.100     1.200     1.300     1.400     1.500
     1.600     1.700     1.800     1.900     2.000     2.200     2.400     2.600
     2.800     3.000     3.200     3.400     3.600     3.800     4.000     4.200
     4.400     4.600     4.800     5.000     5.500     6.000      .000      .000
      .000      .000      .000      .000      .000      .000      .000      .000
      .000      .000      .000      .000      .000      .000      .000      .000
      .000      .000      .000      .000
Fourier amplitude spectra in in/sec.
  .000E+00  .000E+00  .000E+00  .000E+00  .000E+00  .000E+00  .000E+00  .000E+00
  .000E+00  .000E+00  .000E+00  .000E+00  .000E+00  .000E+00  .000E+00  .000E+00
  .000E+00  .000E+00  .000E+00  .000E+00  .000E+00  .000E+00  .000E+00  .000E+00
  .000E+00  .000E+00  .000E+00  .000E+00  .000E+00  .000E+00  .000E+00  .000E+00
  .000E+00  .000E+00  .000E+00  .000E+00  .000E+00  .000E+00  .000E+00  .000E+00
  .000E+00  .000E+00  .000E+00  .000E+00  .000E+00  .000E+00  .000E+00  .000E+00
  .000E+00  .000E+00  .000E+00  .000E+00  .000E+00  .000E+00  .000E+00  .000E+00
  .000E+00  .000E+00  .000E+00  .000E+00  .000E+00  .000E+00  .000E+00  .000E+00
  .000E+00  .000E+00  .000E+00  .000E+00  .000E+00  .000E+00  .000E+00  .000E+00
  .000E+00  .000E+00  .000E+00  .000E+00  .000E+00  .000E+00  .000E+00  .000E+00
  .000E+00  .000E+00  .000E+00  .000E+00  .000E+00  .000E+00  .000E+00  .000E+00
  .000E+00  .000E+00  .000E+00  .000E+00  .000E+00  .000E+00  .000E+00  .000E+00
  .000E+00  .000E+00  .000E+00  .000E+00
Damping =  .05. Data of Sd,Sv,Sa,Pssv,ttSd,ttSv,ttSa :
  .229E-03  .248E-03  .292E-03  .366E-03  .422E-03  .481E-03  .602E-03  .842E-03
  .107E-02  .119E-02  .140E-02  .137E-02  .138E-02  .196E-02  .208E-02  .263E-02
  .283E-02  .439E-02  .771E-02  .976E-02  .116E-01  .139E-01  .137E-01  .126E-01
  .126E-01  .129E-01  .119E-01  .117E-01  .115E-01  .141E-01  .206E-01  .234E-01
  .250E-01  .248E-01  .230E-01  .219E-01  .199E-01  .193E-01  .174E-01  .170E-01
