Response and Fourier amplitude spectra (78 periods,  .04 -  6.0 sec)   for      
Corrected accelerogram   24833-B2272-20263.13       Chan  1:  Up         from   
Uncorrected Accelerogram Data             Processed: 09/18/20, CGS  ce24833m    
Rcrd of Fri Sep 18, 2020 23:38:30.0 PDT               (Avol1 v2.0, 4/18 CSMIP)  
CSMIP Preliminary Processing            (Origin:  To be determined)             
24833-B2272-20263.13                 Start time:  9/19/20, 06:38:30.0 UTC (GPS) 
Station No. 24833   34.063N, 118.316W    Basalt  s/n 2272  (3 Chns of  3 at Sta)
Los Angeles - Wilshire & Western LADOT    CGS   Data: Acceleration              
Chan  1:  Up                                                                    
Rcrd of Fri Sep 18, 2020 23:38:30.0 PDT    Fri Sep 18, 2020 23:38:30.0 PDT      
Hypocenter:  To be determined.               ML:  To be determined.             
Instr Period =  .0050 sec,  Damping =  .700,  Sensitivity = 1.25 v/g            
                        Record Length = 60.000 sec.                             
                                     Uncor Max  =   .008 g, at   26.560 sec.    
RMS accel of (uncor) record  =        .   Chn. metadata effective date: 08/12/15
Accelerogram bandpass filtered with 3 dB pts at   .30 and 40.00 cyc/sec         
                 instrument- and base-line correcte                             
                                                                                
                                                                                
                                                                                
                                                                                
                                                                                
Rcrd of Fri Sep 18, 2020 23:38:30.0 PDT    Fri Sep 18, 2020 23:38:30.0 PDT      
                                                                                
24833-B2272-20263.13      Los Angeles - Wilshire & Western LADOT    Chan  1:  Up
                                                                                
24833-B2272-20263.13      Los Angeles - Wilshire & Western LADOT    Chan  1:  Up
                                                                                
Units for spectra are inches and sec, except Sa is in fraction of g.            
                                                                                
    1  100    1    3    3  200    1    3    1   24   31 2272    024833   11    0
    6   38   30    0  263    9   19 2020   10    3  50012000   39   38   74  360
12000    1  100    3 2272    1   13  600    2 -999 -999 -999 -999 -999 -999 -999
 -999 -999    3 -99912000    1  202    0   24   20 -999 -999    3    1 -99912000
    312000    4   78    1    3    5    0    0 -999    0    0    1    3    1    2
    2    2    4    0   32   67    0    5 -999    0    0    1    0    0    0  222
    1    0    0    0
      .005      .700    60.000      .001     1.000  1252.600      .008    26.560
   202.000      .596      .476  -999.000     5.000  -999.000     4.000  -999.000
     5.000     -.939     5.000  -999.000    25.000    30.000  -999.000     -.001
      .002      .003     2.000    15.000    34.063  -118.316      .021      .122
     5.866     -.006      .012    60.000    26.000    30.900    13.400    88.700
     1.000    11.003    -8.000  -999.000  -999.000  -999.000  -999.000  -999.000
     6.900     2.000     6.800   980.665      .005    60.000    32.149      .000
  -999.000    40.000  -999.000    60.000      .005      .300  -999.000  -999.000
    26.560     7.463    31.125      .362    31.270      .046      .000      .300
    40.000      .005      .005      .000      .005      .014  -999.000  -999.000
      .032      .048      .017      .014      .006      .000  -999.000  -999.000
  -999.000  -999.000  -999.000  -999.000  -999.000  -999.000  -999.000  -999.000
  -999.000  -999.000  -999.000  -999.000
      .050
      .040      .042      .044      .046      .048      .050      .055      .060
      .065      .070      .075      .080      .085      .090      .095      .100
      .110      .120      .130      .140      .150      .160      .170      .180
      .190      .200      .220      .240      .260      .280      .300      .320
      .340      .360      .380      .400      .420      .440      .460      .480
      .500      .550      .600      .650      .700      .750      .800      .850
      .900      .950     1.000     1.100     1.200     1.300     1.400     1.500
     1.600     1.700     1.800     1.900     2.000     2.200     2.400     2.600
     2.800     3.000     3.200     3.400     3.600     3.800     4.000     4.200
     4.400     4.600     4.800     5.000     5.500     6.000      .000      .000
      .000      .000      .000      .000      .000      .000      .000      .000
      .000      .000      .000      .000      .000      .000      .000      .000
      .000      .000      .000      .000
Fourier amplitude spectra in in/sec.
  .000E+00  .000E+00  .000E+00  .000E+00  .000E+00  .000E+00  .000E+00  .000E+00
  .000E+00  .000E+00  .000E+00  .000E+00  .000E+00  .000E+00  .000E+00  .000E+00
  .000E+00  .000E+00  .000E+00  .000E+00  .000E+00  .000E+00  .000E+00  .000E+00
  .000E+00  .000E+00  .000E+00  .000E+00  .000E+00  .000E+00  .000E+00  .000E+00
  .000E+00  .000E+00  .000E+00  .000E+00  .000E+00  .000E+00  .000E+00  .000E+00
  .000E+00  .000E+00  .000E+00  .000E+00  .000E+00  .000E+00  .000E+00  .000E+00
  .000E+00  .000E+00  .000E+00  .000E+00  .000E+00  .000E+00  .000E+00  .000E+00
  .000E+00  .000E+00  .000E+00  .000E+00  .000E+00  .000E+00  .000E+00  .000E+00
  .000E+00  .000E+00  .000E+00  .000E+00  .000E+00  .000E+00  .000E+00  .000E+00
  .000E+00  .000E+00  .000E+00  .000E+00  .000E+00  .000E+00  .000E+00  .000E+00
  .000E+00  .000E+00  .000E+00  .000E+00  .000E+00  .000E+00  .000E+00  .000E+00
  .000E+00  .000E+00  .000E+00  .000E+00  .000E+00  .000E+00  .000E+00  .000E+00
  .000E+00  .000E+00  .000E+00  .000E+00
Damping =  .05. Data of Sd,Sv,Sa,Pssv,ttSd,ttSv,ttSa :
  .354E-03  .407E-03  .446E-03  .583E-03  .707E-03  .732E-03  .846E-03  .827E-03
  .837E-03  .678E-03  .721E-03  .917E-03  .100E-02  .130E-02  .167E-02  .186E-02
  .185E-02  .206E-02  .251E-02  .325E-02  .415E-02  .530E-02  .658E-02  .647E-02
  .625E-02  .710E-02  .729E-02  .747E-02  .945E-02  .116E-01  .126E-01  .136E-01
  .176E-01  .234E-01  .253E-01  .206E-01  .158E-01  .136E-01  .118E-01  .114E-01
  .120E-01  .168E-01  .231E-01  .304E-01  .321E-01  .297E-01  .375E-01  .363E-01
  .387E-01  .462E-01  .588E-01  .645E-01  .470E-01  .531E-01  .534E-01  .509E-01
  .551E-01  .521E-01  .435E-01  .363E-01  .323E-01  .311E-01  .279E-01  .232E-01
  .219E-01  .199E-01  .201E-01  .212E-01  .213E-01  .208E-01  .200E-01  .194E-01
  .189E-01  .186E-01  .185E-01  .185E-01  .186E-01  .187E-01  .000E+00  .000E+00
  .000E+00  .000E+00  .000E+00  .000E+00  .000E+00  .000E+00  .000E+00  .000E+00
  .000E+00  .000E+00  .000E+00  .000E+00  .000E+00  .000E+00  .000E+00  .000E+00
  .000E+00  .000E+00  .000E+00  .000E+00
  .452E-01  .521E-01  .580E-01  .753E-01  .910E-01  .874E-01  .948E-01  .896E-01
  .882E-01  .632E-01  .576E-01  .718E-01  .718E-01  .802E-01  .101E+00  .108E+00
  .948E-01  .103E+00  .116E+00  .133E+00  .169E+00  .218E+00  .242E+00  .236E+00
  .219E+00  .221E+00  .207E+00  .208E+00  .245E+00  .234E+00  .265E+00  .271E+00
  .323E+00  .385E+00  .386E+00  .333E+00  .252E+00  .216E+00  .191E+00  .170E+00
  .146E+00  .175E+00  .236E+00  .292E+00  .265E+00  .264E+00  .330E+00  .266E+00
  .290E+00  .303E+00  .371E+00  .411E+00  .301E+00  .273E+00  .246E+00  .238E+00
  .243E+00  .212E+00  .212E+00  .202E+00  .187E+00  .183E+00  .181E+00  .174E+00
  .163E+00  .155E+00  .152E+00  .152E+00  .152E+00  .152E+00  .152E+00  .151E+00
  .149E+00  .148E+00  .148E+00  .147E+00  .146E+00  .145E+00  .000E+00  .000E+00
  .000E+00  .000E+00  .000E+00  .000E+00  .000E+00  .000E+00  .000E+00  .000E+00
  .000E+00  .000E+00  .000E+00  .000E+00  .000E+00  .000E+00  .000E+00  .000E+00
  .000E+00  .000E+00  .000E+00  .000E+00
  .226E-01  .236E-01  .239E-01  .284E-01  .318E-01  .302E-01  .289E-01  .235E-01
  .201E-01  .143E-01  .134E-01  .149E-01  .144E-01  .163E-01  .190E-01  .193E-01
  .156E-01  .147E-01  .153E-01  .169E-01  .190E-01  .213E-01  .234E-01  .206E-01
  .179E-01  .183E-01  .155E-01  .133E-01  .144E-01  .152E-01  .143E-01  .136E-01
  .156E-01  .185E-01  .180E-01  .133E-01  .919E-02  .723E-02  .572E-02  .506E-02
  .495E-02  .570E-02  .661E-02  .739E-02  .673E-02  .542E-02  .602E-02  .517E-02
  .491E-02  .527E-02  .605E-02  .548E-02  .337E-02  .324E-02  .281E-02  .233E-02
  .222E-02  .186E-02  .139E-02  .104E-02  .855E-03  .685E-03  .523E-03  .371E-03
  .292E-03  .238E-03  .225E-03  .211E-03  .191E-03  .170E-03  .150E-03  .134E-03
  .121E-03  .111E-03  .103E-03  .958E-04  .819E-04  .714E-04  .000E+00  .000E+00
  .000E+00  .000E+00  .000E+00  .000E+00  .000E+00  .000E+00  .000E+00  .000E+00
  .000E+00  .000E+00  .000E+00  .000E+00  .000E+00  .000E+00  .000E+00  .000E+00
  .000E+00  .000E+00  .000E+00  .000E+00
  .556E-01  .608E-01  .637E-01  .796E-01  .925E-01  .920E-01  .966E-01  .866E-01
  .809E-01  .608E-01  .604E-01  .720E-01  .742E-01  .904E-01  .111E+00  .117E+00
  .106E+00  .108E+00  .121E+00  .146E+00  .174E+00  .208E+00  .243E+00  .226E+00
  .207E+00  .223E+00  .208E+00  .195E+00  .228E+00  .261E+00  .263E+00  .266E+00
  .325E+00  .408E+00  .418E+00  .324E+00  .236E+00  .194E+00  .161E+00  .149E+00
  .151E+00  .192E+00  .242E+00  .294E+00  .288E+00  .249E+00  .295E+00  .268E+00
  .270E+00  .306E+00  .369E+00  .368E+00  .246E+00  .257E+00  .240E+00  .213E+00
  .216E+00  .193E+00  .152E+00  .120E+00  .101E+00  .887E-01  .729E-01  .562E-01
  .492E-01  .417E-01  .395E-01  .391E-01  .372E-01  .343E-01  .314E-01  .290E-01
  .270E-01  .254E-01  .242E-01  .232E-01  .212E-01  .195E-01  .000E+00  .000E+00
  .000E+00  .000E+00  .000E+00  .000E+00  .000E+00  .000E+00  .000E+00  .000E+00
  .000E+00  .000E+00  .000E+00  .000E+00  .000E+00  .000E+00  .000E+00  .000E+00
  .000E+00  .000E+00  .000E+00  .000E+00
  .266E+02  .266E+02  .260E+02  .260E+02  .260E+02  .266E+02  .238E+02  .253E+02
  .253E+02  .266E+02  .231E+02  .232E+02  .232E+02  .274E+02  .274E+02  .274E+02
  .277E+02  .278E+02  .279E+02  .262E+02  .269E+02  .269E+02  .284E+02  .285E+02
  .264E+02  .294E+02  .263E+02  .263E+02  .262E+02  .313E+02  .313E+02  .313E+02
  .313E+02  .313E+02  .313E+02  .314E+02  .314E+02  .314E+02  .309E+02  .309E+02
  .314E+02  .345E+02  .353E+02  .335E+02  .339E+02  .340E+02  .378E+02  .319E+02
  .320E+02  .351E+02  .351E+02  .348E+02  .322E+02  .317E+02  .318E+02  .349E+02
  .344E+02  .344E+02  .345E+02  .345E+02  .338E+02  .313E+02  .313E+02  .307E+02
  .340E+02  .340E+02  .313E+02  .313E+02  .313E+02  .313E+02  .313E+02  .313E+02
  .313E+02  .313E+02  .313E+02  .313E+02  .313E+02  .313E+02  .000E+00  .000E+00
  .000E+00  .000E+00  .000E+00  .000E+00  .000E+00  .000E+00  .000E+00  .000E+00
  .000E+00  .000E+00  .000E+00  .000E+00  .000E+00  .000E+00  .000E+00  .000E+00
  .000E+00  .000E+00  .000E+00  .000E+00
  .266E+02  .266E+02  .261E+02  .261E+02  .261E+02  .261E+02  .239E+02  .253E+02
  .253E+02  .253E+02  .231E+02  .232E+02  .232E+02  .274E+02  .274E+02  .274E+02
  .278E+02  .278E+02  .275E+02  .263E+02  .270E+02  .269E+02  .286E+02  .286E+02
  .263E+02  .294E+02  .262E+02  .262E+02  .262E+02  .313E+02  .314E+02  .314E+02
  .314E+02  .314E+02  .313E+02  .313E+02  .313E+02  .313E+02  .310E+02  .310E+02
  .313E+02  .347E+02  .354E+02  .333E+02  .334E+02  .338E+02  .352E+02  .352E+02
  .322E+02  .322E+02  .349E+02  .350E+02  .319E+02  .319E+02  .314E+02  .346E+02
  .346E+02  .342E+02  .342E+02  .342E+02  .342E+02  .311E+02  .311E+02  .311E+02
  .311E+02  .311E+02  .311E+02  .311E+02  .311E+02  .311E+02  .311E+02  .311E+02
  .311E+02  .311E+02  .311E+02  .311E+02  .311E+02  .311E+02  .000E+00  .000E+00
  .000E+00  .000E+00  .000E+00  .000E+00  .000E+00  .000E+00  .000E+00  .000E+00
  .000E+00  .000E+00  .000E+00  .000E+00  .000E+00  .000E+00  .000E+00  .000E+00
  .000E+00  .000E+00  .000E+00  .000E+00
  .266E+02  .266E+02  .260E+02  .260E+02  .260E+02  .266E+02  .238E+02  .253E+02
  .253E+02  .266E+02  .231E+02  .232E+02  .232E+02  .274E+02  .274E+02  .274E+02
  .277E+02  .278E+02  .279E+02  .262E+02  .269E+02  .269E+02  .284E+02  .285E+02
  .264E+02  .294E+02  .263E+02  .263E+02  .262E+02  .313E+02  .313E+02  .313E+02
  .313E+02  .313E+02  .313E+02  .314E+02  .314E+02  .314E+02  .309E+02  .309E+02
  .314E+02  .345E+02  .352E+02  .335E+02  .339E+02  .340E+02  .378E+02  .319E+02
  .319E+02  .351E+02  .351E+02  .348E+02  .322E+02  .317E+02  .317E+02  .349E+02
  .343E+02  .344E+02  .344E+02  .344E+02  .312E+02  .312E+02  .312E+02  .312E+02
  .307E+02  .312E+02  .312E+02  .312E+02  .312E+02  .312E+02  .312E+02  .312E+02
  .312E+02  .312E+02  .312E+02  .312E+02  .312E+02  .312E+02  .000E+00  .000E+00
  .000E+00  .000E+00  .000E+00  .000E+00  .000E+00  .000E+00  .000E+00  .000E+00
  .000E+00  .000E+00  .000E+00  .000E+00  .000E+00  .000E+00  .000E+00  .000E+00
  .000E+00  .000E+00  .000E+00  .000E+00
/&   ----------  End of spectral data for channel  1  ----------
Response and Fourier amplitude spectra (78 periods,  .04 -  6.0 sec)   for      
Corrected accelerogram   24833-B2272-20263.13       Chan  2: 360 Deg     from   
Uncorrected Accelerogram Data             Processed: 09/18/20, CGS  ce24833m    
Rcrd of Fri Sep 18, 2020 23:38:30.0 PDT               (Avol1 v2.0, 4/18 CSMIP)  
CSMIP Preliminary Processing            (Origin:  To be determined)             
24833-B2272-20263.13                 Start time:  9/19/20, 06:38:30.0 UTC (GPS) 
Station No. 24833   34.063N, 118.316W    Basalt  s/n 2272  (3 Chns of  3 at Sta)
Los Angeles - Wilshire & Western LADOT    CGS   Data: Acceleration              
Chan  2: 360 Deg                                                                
Rcrd of Fri Sep 18, 2020 23:38:30.0 PDT    Fri Sep 18, 2020 23:38:30.0 PDT      
Hypocenter:  To be determined.               ML:  To be determined.             
Instr Period =  .0048 sec,  Damping =  .700,  Sensitivity = 1.25 v/g            
                        Record Length = 60.000 sec.                             
                                     Uncor Max  =  -.020 g, at   26.950 sec.    
RMS accel of (uncor) record  =        .   Chn. metadata effective date: 08/12/15
Accelerogram bandpass filtered with 3 dB pts at   .30 and 40.00 cyc/sec         
                 instrument- and base-line correcte                             
                                                                                
                                                                                
                                                                                
                                                                                
                                                                                
Rcrd of Fri Sep 18, 2020 23:38:30.0 PDT    Fri Sep 18, 2020 23:38:30.0 PDT      
                                                                                
24833-B2272-20263.13      Los Angeles - Wilshire & Western LADOT    Chan  2: 360
 Deg                                                                            
24833-B2272-20263.13      Los Angeles - Wilshire & Western LADOT    Chan  2: 360
 Deg                                                                            
Units for spectra are inches and sec, except Sa is in fraction of g.            
                                                                                
    2  100    2    3    3  200    1    3    1   24   31 2272    024833   11    0
    6   38   30    0  263    9   19 2020   10    3  36012000   39   38   74  360
12000    1  100    3 2272    1   13  600    2 -999 -999 -999 -999 -999 -999 -999
 -999 -999    3 -99912000    1  202    0   24   20 -999 -999    3    1 -99912000
    312000    4   78    1    3    5    0    0 -999    0    0    1    3    1    2
    2    2    4    0   32   67    0    5 -999    0    0    1    0    0    0  222
    1    0    0    0
      .005      .700    60.000      .002     1.000  1252.000     -.020    26.950
   208.000      .596      .476  -999.000     5.000  -999.000     4.000  -999.000
     5.000    16.403     5.000  -999.000    25.000    30.000  -999.000      .001
     -.002     -.003     2.000    15.000    34.063  -118.316      .049      .285
     5.869     -.025      .019    60.000    26.000    30.900    13.400    88.700
     1.000    11.003    -8.000  -999.000  -999.000  -999.000  -999.000  -999.000
     6.900     2.000     6.800   980.665      .005    60.000    33.104      .000
  -999.000    40.000  -999.000    60.000      .005      .300  -999.000  -999.000
    26.950   -19.304    31.255     -.647    31.500     -.068      .000      .300
    40.000      .005      .005      .000      .005      .025  -999.000  -999.000
      .067      .150      .046      .033      .008      .000  -999.000  -999.000
  -999.000  -999.000  -999.000  -999.000  -999.000  -999.000  -999.000  -999.000
  -999.000  -999.000  -999.000  -999.000
      .050
      .040      .042      .044      .046      .048      .050      .055      .060
      .065      .070      .075      .080      .085      .090      .095      .100
      .110      .120      .130      .140      .150      .160      .170      .180
      .190      .200      .220      .240      .260      .280      .300      .320
      .340      .360      .380      .400      .420      .440      .460      .480
      .500      .550      .600      .650      .700      .750      .800      .850
      .900      .950     1.000     1.100     1.200     1.300     1.400     1.500
     1.600     1.700     1.800     1.900     2.000     2.200     2.400     2.600
     2.800     3.000     3.200     3.400     3.600     3.800     4.000     4.200
     4.400     4.600     4.800     5.000     5.500     6.000      .000      .000
      .000      .000      .000      .000      .000      .000      .000      .000
      .000      .000      .000      .000      .000      .000      .000      .000
      .000      .000      .000      .000
Fourier amplitude spectra in in/sec.
  .000E+00  .000E+00  .000E+00  .000E+00  .000E+00  .000E+00  .000E+00  .000E+00
  .000E+00  .000E+00  .000E+00  .000E+00  .000E+00  .000E+00  .000E+00  .000E+00
  .000E+00  .000E+00  .000E+00  .000E+00  .000E+00  .000E+00  .000E+00  .000E+00
  .000E+00  .000E+00  .000E+00  .000E+00  .000E+00  .000E+00  .000E+00  .000E+00
  .000E+00  .000E+00  .000E+00  .000E+00  .000E+00  .000E+00  .000E+00  .000E+00
  .000E+00  .000E+00  .000E+00  .000E+00  .000E+00  .000E+00  .000E+00  .000E+00
  .000E+00  .000E+00  .000E+00  .000E+00  .000E+00  .000E+00  .000E+00  .000E+00
  .000E+00  .000E+00  .000E+00  .000E+00  .000E+00  .000E+00  .000E+00  .000E+00
  .000E+00  .000E+00  .000E+00  .000E+00  .000E+00  .000E+00  .000E+00  .000E+00
  .000E+00  .000E+00  .000E+00  .000E+00  .000E+00  .000E+00  .000E+00  .000E+00
  .000E+00  .000E+00  .000E+00  .000E+00  .000E+00  .000E+00  .000E+00  .000E+00
  .000E+00  .000E+00  .000E+00  .000E+00  .000E+00  .000E+00  .000E+00  .000E+00
  .000E+00  .000E+00  .000E+00  .000E+00
Damping =  .05. Data of Sd,Sv,Sa,Pssv,ttSd,ttSv,ttSa :
  .466E-03  .617E-03  .656E-03  .866E-03  .104E-02  .104E-02  .128E-02  .156E-02
  .200E-02  .229E-02  .312E-02  .296E-02  .316E-02  .373E-02  .405E-02  .435E-02
  .568E-02  .759E-02  .959E-02  .120E-01  .145E-01  .152E-01  .129E-01  .176E-01
  .174E-01  .186E-01  .188E-01  .174E-01  .243E-01  .291E-01  .261E-01  .295E-01
  .309E-01  .318E-01  .341E-01  .303E-01  .279E-01  .242E-01  .225E-01  .270E-01
