Response and Fourier amplitude spectra (78 periods,  .04 -  6.0 sec)   for      
Corrected accelerogram   24181-T970D-20262.06       Chan  1:  Up         from   
Uncorrected Accelerogram Data             Processed: 09/18/20, CGS  181e006     
Rcrd of Fri Sep 18, 2020 23:38:28.0 PDT               (Avol1 v2.0, 4/18 CSMIP)  
CSMIP Preliminary Processing            (Origin:  To be determined)             
24181-T970D-20262.06                 Start time:  9/19/20, 06:38:28.0 UTC (GPS) 
Station No. 24181   34.188N, 118.133W    130-SM  s/n 970D  (3 Chns of  3 at Sta)
Altadena - Altadena & Lake                CGS   Data: Acceleration              
Chan  1:  Up                                                                    
Rcrd of Fri Sep 18, 2020 23:38:28.0 PDT    Fri Sep 18, 2020 23:38:28.0 PDT      
Hypocenter:  To be determined.               ML:  To be determined.             
Instr Period =  .0011 sec,  Damping =  .100,  Sensitivity = 2.35 v/g            
                        Record Length = 60.000 sec.                             
                                     Uncor Max  =   .010 g, at   26.400 sec.    
RMS accel of (uncor) record  =        .   Chn. metadata effective date: 08/13/14
Accelerogram bandpass filtered with 3 dB pts at   .30 and 40.00 cyc/sec         
                 instrument- and base-line correcte                             
                                                                                
                                                                                
                                                                                
                                                                                
                                                                                
Rcrd of Fri Sep 18, 2020 23:38:28.0 PDT    Fri Sep 18, 2020 23:38:28.0 PDT      
                                                                                
24181-T970D-20262.06      Altadena - Altadena & Lake    Chan  1:  Up            
                                                                                
24181-T970D-20262.06      Altadena - Altadena & Lake    Chan  1:  Up            
                                                                                
Units for spectra are inches and sec, except Sa is in fraction of g.            
                                                                                
    1  100    1    3    3  200    1    3    1   32  702 -999    024181   11    0
    6   38   28    0  263    9   19 2020   10    3  50012474   39   26   74  360
12474    1  100    3 -999    1    6 -999 -999 -999 -999 -999 -999 -999 -999 -999
 -999 -999 -999 -99912000    1  200    0   24  256 -999 -999    3    1 -99912000
    312000    4   78    1    3    5    0    0 -999    0    0 -999 -999    1    2
    2    2    4    0   32   67    0    1 -999    0    0    1    0 -999    1  222
    1 -999    2 -999
      .001      .100    62.370      .001     1.000  2346.000      .010    26.400
   900.000     1.588      .677  -999.000     5.000  -999.000     3.500  -999.000
    10.000   999.057    10.000  -999.000    25.950    29.995  -999.000      .000
     -.001     -.001     2.000    15.000    34.188  -118.133      .016      .126
     7.710     -.010      .009   401.000    25.949    32.369    15.500  -999.000
     1.000  -999.000    -8.000  -999.000  -999.000  -999.000  -999.000   120.000
     7.300     2.000     6.800   980.665      .005    60.000   143.239      .000
  -999.000    40.000  -999.000    60.000      .005      .300  -999.000  -999.000
    26.400     9.954    28.695     -.324    32.890      .027      .000      .300
    40.000      .005      .005      .000      .005      .016  -999.000  -999.000
      .050      .048      .022      .014      .005      .000  -999.000  -999.000
  -999.000  -999.000  -999.000  -999.000  -999.000  -999.000  -999.000  -999.000
  -999.000  -999.000  -999.000  -999.000
      .050
      .040      .042      .044      .046      .048      .050      .055      .060
      .065      .070      .075      .080      .085      .090      .095      .100
      .110      .120      .130      .140      .150      .160      .170      .180
      .190      .200      .220      .240      .260      .280      .300      .320
      .340      .360      .380      .400      .420      .440      .460      .480
      .500      .550      .600      .650      .700      .750      .800      .850
      .900      .950     1.000     1.100     1.200     1.300     1.400     1.500
     1.600     1.700     1.800     1.900     2.000     2.200     2.400     2.600
     2.800     3.000     3.200     3.400     3.600     3.800     4.000     4.200
     4.400     4.600     4.800     5.000     5.500     6.000      .000      .000
      .000      .000      .000      .000      .000      .000      .000      .000
      .000      .000      .000      .000      .000      .000      .000      .000
      .000      .000      .000      .000
Fourier amplitude spectra in in/sec.
  .000E+00  .000E+00  .000E+00  .000E+00  .000E+00  .000E+00  .000E+00  .000E+00
  .000E+00  .000E+00  .000E+00  .000E+00  .000E+00  .000E+00  .000E+00  .000E+00
  .000E+00  .000E+00  .000E+00  .000E+00  .000E+00  .000E+00  .000E+00  .000E+00
  .000E+00  .000E+00  .000E+00  .000E+00  .000E+00  .000E+00  .000E+00  .000E+00
  .000E+00  .000E+00  .000E+00  .000E+00  .000E+00  .000E+00  .000E+00  .000E+00
  .000E+00  .000E+00  .000E+00  .000E+00  .000E+00  .000E+00  .000E+00  .000E+00
  .000E+00  .000E+00  .000E+00  .000E+00  .000E+00  .000E+00  .000E+00  .000E+00
  .000E+00  .000E+00  .000E+00  .000E+00  .000E+00  .000E+00  .000E+00  .000E+00
  .000E+00  .000E+00  .000E+00  .000E+00  .000E+00  .000E+00  .000E+00  .000E+00
  .000E+00  .000E+00  .000E+00  .000E+00  .000E+00  .000E+00  .000E+00  .000E+00
  .000E+00  .000E+00  .000E+00  .000E+00  .000E+00  .000E+00  .000E+00  .000E+00
  .000E+00  .000E+00  .000E+00  .000E+00  .000E+00  .000E+00  .000E+00  .000E+00
  .000E+00  .000E+00  .000E+00  .000E+00
Damping =  .05. Data of Sd,Sv,Sa,Pssv,ttSd,ttSv,ttSa :
  .412E-03  .504E-03  .685E-03  .850E-03  .111E-02  .110E-02  .876E-03  .109E-02
  .131E-02  .122E-02  .153E-02  .204E-02  .226E-02  .264E-02  .276E-02  .294E-02
  .392E-02  .505E-02  .662E-02  .547E-02  .473E-02  .696E-02  .794E-02  .768E-02
  .737E-02  .962E-02  .947E-02  .849E-02  .728E-02  .982E-02  .130E-01  .136E-01
  .127E-01  .118E-01  .131E-01  .143E-01  .147E-01  .169E-01  .164E-01  .182E-01
  .169E-01  .242E-01  .341E-01  .355E-01  .348E-01  .404E-01  .514E-01  .550E-01
  .669E-01  .550E-01  .495E-01  .360E-01  .251E-01  .217E-01  .219E-01  .208E-01
  .219E-01  .210E-01  .209E-01  .223E-01  .223E-01  .198E-01  .160E-01  .152E-01
  .152E-01  .155E-01  .152E-01  .162E-01  .162E-01  .158E-01  .145E-01  .137E-01
  .126E-01  .116E-01  .110E-01  .109E-01  .113E-01  .111E-01  .000E+00  .000E+00
  .000E+00  .000E+00  .000E+00  .000E+00  .000E+00  .000E+00  .000E+00  .000E+00
  .000E+00  .000E+00  .000E+00  .000E+00  .000E+00  .000E+00  .000E+00  .000E+00
  .000E+00  .000E+00  .000E+00  .000E+00
  .572E-01  .696E-01  .885E-01  .106E+00  .133E+00  .136E+00  .967E-01  .114E+00
  .122E+00  .114E+00  .128E+00  .157E+00  .162E+00  .191E+00  .171E+00  .189E+00
  .211E+00  .239E+00  .314E+00  .238E+00  .200E+00  .269E+00  .303E+00  .286E+00
  .252E+00  .322E+00  .277E+00  .243E+00  .199E+00  .257E+00  .262E+00  .260E+00
  .239E+00  .251E+00  .243E+00  .255E+00  .243E+00  .247E+00  .242E+00  .242E+00
  .225E+00  .255E+00  .345E+00  .360E+00  .347E+00  .358E+00  .452E+00  .453E+00
  .486E+00  .387E+00  .333E+00  .272E+00  .198E+00  .199E+00  .195E+00  .193E+00
  .185E+00  .167E+00  .155E+00  .143E+00  .131E+00  .142E+00  .151E+00  .149E+00
  .144E+00  .137E+00  .134E+00  .135E+00  .134E+00  .133E+00  .131E+00  .129E+00
  .128E+00  .127E+00  .126E+00  .126E+00  .127E+00  .128E+00  .000E+00  .000E+00
  .000E+00  .000E+00  .000E+00  .000E+00  .000E+00  .000E+00  .000E+00  .000E+00
  .000E+00  .000E+00  .000E+00  .000E+00  .000E+00  .000E+00  .000E+00  .000E+00
  .000E+00  .000E+00  .000E+00  .000E+00
  .265E-01  .295E-01  .366E-01  .409E-01  .498E-01  .464E-01  .291E-01  .317E-01
  .324E-01  .253E-01  .280E-01  .326E-01  .320E-01  .336E-01  .317E-01  .299E-01
  .333E-01  .360E-01  .402E-01  .286E-01  .217E-01  .279E-01  .282E-01  .243E-01
  .210E-01  .248E-01  .202E-01  .152E-01  .111E-01  .129E-01  .148E-01  .136E-01
  .113E-01  .937E-02  .934E-02  .917E-02  .859E-02  .900E-02  .799E-02  .813E-02
  .695E-02  .823E-02  .975E-02  .862E-02  .731E-02  .740E-02  .826E-02  .785E-02
  .849E-02  .627E-02  .510E-02  .307E-02  .180E-02  .134E-02  .115E-02  .964E-03
  .904E-03  .778E-03  .676E-03  .651E-03  .586E-03  .434E-03  .299E-03  .264E-03
  .231E-03  .202E-03  .175E-03  .154E-03  .137E-03  .121E-03  .108E-03  .953E-04
  .837E-04  .751E-04  .719E-04  .687E-04  .608E-04  .530E-04  .000E+00  .000E+00
  .000E+00  .000E+00  .000E+00  .000E+00  .000E+00  .000E+00  .000E+00  .000E+00
  .000E+00  .000E+00  .000E+00  .000E+00  .000E+00  .000E+00  .000E+00  .000E+00
  .000E+00  .000E+00  .000E+00  .000E+00
  .647E-01  .754E-01  .978E-01  .116E+00  .145E+00  .138E+00  .100E+00  .114E+00
  .127E+00  .110E+00  .128E+00  .160E+00  .167E+00  .184E+00  .183E+00  .185E+00
  .224E+00  .265E+00  .320E+00  .246E+00  .198E+00  .273E+00  .294E+00  .268E+00
  .244E+00  .302E+00  .270E+00  .222E+00  .176E+00  .220E+00  .272E+00  .267E+00
  .235E+00  .206E+00  .217E+00  .224E+00  .221E+00  .242E+00  .225E+00  .238E+00
  .212E+00  .277E+00  .357E+00  .343E+00  .312E+00  .338E+00  .404E+00  .407E+00
  .467E+00  .364E+00  .311E+00  .206E+00  .132E+00  .105E+00  .984E-01  .872E-01
  .861E-01  .777E-01  .730E-01  .737E-01  .700E-01  .565E-01  .419E-01  .367E-01
  .341E-01  .324E-01  .298E-01  .300E-01  .282E-01  .261E-01  .228E-01  .205E-01
  .180E-01  .158E-01  .145E-01  .137E-01  .130E-01  .116E-01  .000E+00  .000E+00
  .000E+00  .000E+00  .000E+00  .000E+00  .000E+00  .000E+00  .000E+00  .000E+00
  .000E+00  .000E+00  .000E+00  .000E+00  .000E+00  .000E+00  .000E+00  .000E+00
  .000E+00  .000E+00  .000E+00  .000E+00
  .238E+02  .265E+02  .266E+02  .267E+02  .267E+02  .267E+02  .267E+02  .267E+02
  .276E+02  .276E+02  .248E+02  .248E+02  .248E+02  .280E+02  .282E+02  .248E+02
  .272E+02  .272E+02  .272E+02  .272E+02  .272E+02  .294E+02  .294E+02  .297E+02
  .297E+02  .294E+02  .294E+02  .294E+02  .261E+02  .269E+02  .268E+02  .329E+02
  .329E+02  .298E+02  .298E+02  .298E+02  .296E+02  .297E+02  .323E+02  .321E+02
  .321E+02  .330E+02  .333E+02  .338E+02  .319E+02  .289E+02  .290E+02  .320E+02
  .349E+02  .350E+02  .346E+02  .346E+02  .333E+02  .284E+02  .284E+02  .285E+02
  .280E+02  .280E+02  .275E+02  .275E+02  .275E+02  .275E+02  .276E+02  .271E+02
  .272E+02  .272E+02  .272E+02  .342E+02  .329E+02  .329E+02  .314E+02  .314E+02
  .314E+02  .314E+02  .260E+02  .260E+02  .342E+02  .342E+02  .000E+00  .000E+00
  .000E+00  .000E+00  .000E+00  .000E+00  .000E+00  .000E+00  .000E+00  .000E+00
  .000E+00  .000E+00  .000E+00  .000E+00  .000E+00  .000E+00  .000E+00  .000E+00
  .000E+00  .000E+00  .000E+00  .000E+00
  .253E+02  .264E+02  .266E+02  .266E+02  .267E+02  .267E+02  .265E+02  .267E+02
  .276E+02  .266E+02  .248E+02  .248E+02  .248E+02  .280E+02  .257E+02  .248E+02
  .272E+02  .272E+02  .273E+02  .272E+02  .272E+02  .295E+02  .294E+02  .294E+02
  .294E+02  .294E+02  .293E+02  .293E+02  .260E+02  .268E+02  .268E+02  .328E+02
  .298E+02  .298E+02  .297E+02  .297E+02  .297E+02  .293E+02  .293E+02  .322E+02
  .322E+02  .331E+02  .329E+02  .320E+02  .321E+02  .279E+02  .288E+02  .319E+02
  .351E+02  .347E+02  .348E+02  .339E+02  .335E+02  .287E+02  .287E+02  .282E+02
  .282E+02  .282E+02  .277E+02  .277E+02  .273E+02  .287E+02  .287E+02  .287E+02
  .287E+02  .287E+02  .282E+02  .282E+02  .282E+02  .282E+02  .282E+02  .282E+02
  .282E+02  .282E+02  .287E+02  .287E+02  .287E+02  .287E+02  .000E+00  .000E+00
  .000E+00  .000E+00  .000E+00  .000E+00  .000E+00  .000E+00  .000E+00  .000E+00
  .000E+00  .000E+00  .000E+00  .000E+00  .000E+00  .000E+00  .000E+00  .000E+00
  .000E+00  .000E+00  .000E+00  .000E+00
  .238E+02  .265E+02  .266E+02  .267E+02  .267E+02  .267E+02  .267E+02  .267E+02
  .276E+02  .276E+02  .248E+02  .248E+02  .248E+02  .280E+02  .282E+02  .248E+02
  .272E+02  .272E+02  .272E+02  .272E+02  .272E+02  .294E+02  .294E+02  .297E+02
  .297E+02  .294E+02  .294E+02  .294E+02  .261E+02  .269E+02  .268E+02  .329E+02
  .329E+02  .298E+02  .298E+02  .298E+02  .296E+02  .296E+02  .323E+02  .321E+02
  .321E+02  .330E+02  .333E+02  .338E+02  .319E+02  .289E+02  .289E+02  .320E+02
  .349E+02  .349E+02  .345E+02  .346E+02  .333E+02  .283E+02  .284E+02  .284E+02
  .279E+02  .279E+02  .275E+02  .275E+02  .275E+02  .275E+02  .275E+02  .270E+02
  .270E+02  .270E+02  .270E+02  .270E+02  .328E+02  .328E+02  .293E+02  .293E+02
  .293E+02  .287E+02  .287E+02  .287E+02  .287E+02  .287E+02  .000E+00  .000E+00
  .000E+00  .000E+00  .000E+00  .000E+00  .000E+00  .000E+00  .000E+00  .000E+00
  .000E+00  .000E+00  .000E+00  .000E+00  .000E+00  .000E+00  .000E+00  .000E+00
  .000E+00  .000E+00  .000E+00  .000E+00
/&   ----------  End of spectral data for channel  1  ----------
Response and Fourier amplitude spectra (78 periods,  .04 -  6.0 sec)   for      
Corrected accelerogram   24181-T970D-20262.06       Chan  2: 360 Deg     from   
Uncorrected Accelerogram Data             Processed: 09/18/20, CGS  181e006     
Rcrd of Fri Sep 18, 2020 23:38:28.0 PDT               (Avol1 v2.0, 4/18 CSMIP)  
CSMIP Preliminary Processing            (Origin:  To be determined)             
24181-T970D-20262.06                 Start time:  9/19/20, 06:38:28.0 UTC (GPS) 
Station No. 24181   34.188N, 118.133W    130-SM  s/n 970D  (3 Chns of  3 at Sta)
Altadena - Altadena & Lake                CGS   Data: Acceleration              
Chan  2: 360 Deg                                                                
Rcrd of Fri Sep 18, 2020 23:38:28.0 PDT    Fri Sep 18, 2020 23:38:28.0 PDT      
Hypocenter:  To be determined.               ML:  To be determined.             
Instr Period =  .0011 sec,  Damping =  .100,  Sensitivity = 2.31 v/g            
                        Record Length = 60.000 sec.                             
                                     Uncor Max  =   .024 g, at   26.560 sec.    
RMS accel of (uncor) record  =        .   Chn. metadata effective date: 08/13/14
Accelerogram bandpass filtered with 3 dB pts at   .30 and 40.00 cyc/sec         
                 instrument- and base-line correcte                             
                                                                                
                                                                                
                                                                                
                                                                                
                                                                                
Rcrd of Fri Sep 18, 2020 23:38:28.0 PDT    Fri Sep 18, 2020 23:38:28.0 PDT      
                                                                                
24181-T970D-20262.06      Altadena - Altadena & Lake    Chan  2: 360 Deg        
                                                                                
24181-T970D-20262.06      Altadena - Altadena & Lake    Chan  2: 360 Deg        
                                                                                
Units for spectra are inches and sec, except Sa is in fraction of g.            
                                                                                
    2  100    2    3    3  200    1    3    1   32  702 -999    024181   11    0
    6   38   28    0  263    9   19 2020   10    3  36012474   39   26   74  360
12474    1  100    3 -999    1    6 -999 -999 -999 -999 -999 -999 -999 -999 -999
 -999 -999 -999 -99912000    1  200    0   24  256 -999 -999    3    1 -99912000
    312000    4   78    1    3    5    0    0 -999    0    0 -999 -999    1    2
    2    2    4    0   32   67    0    1 -999    0    0    1    0 -999    1  222
    1 -999    2 -999
      .001      .100    62.370      .002     1.000  2308.000      .024    26.560
   900.000     1.587      .688  -999.000     5.000  -999.000     3.500  -999.000
    10.000   -18.152    10.000  -999.000    25.950    29.995  -999.000      .001
      .005      .004     2.000    15.000    34.188  -118.133      .007      .207
    29.257     -.011      .019   401.000    25.949    32.369    15.500  -999.000
     1.000  -999.000    -8.000  -999.000  -999.000  -999.000  -999.000   120.000
     7.300     2.000     6.800   980.665      .005    60.000   143.239      .000
  -999.000    40.000  -999.000    60.000      .005      .300  -999.000  -999.000
    26.300   -23.353    26.045     1.154    26.290      .108      .000      .300
    40.000      .005      .005      .000      .005      .022  -999.000  -999.000
      .097      .100      .063      .031      .009      .001  -999.000  -999.000
  -999.000  -999.000  -999.000  -999.000  -999.000  -999.000  -999.000  -999.000
  -999.000  -999.000  -999.000  -999.000
      .050
      .040      .042      .044      .046      .048      .050      .055      .060
      .065      .070      .075      .080      .085      .090      .095      .100
      .110      .120      .130      .140      .150      .160      .170      .180
      .190      .200      .220      .240      .260      .280      .300      .320
      .340      .360      .380      .400      .420      .440      .460      .480
      .500      .550      .600      .650      .700      .750      .800      .850
      .900      .950     1.000     1.100     1.200     1.300     1.400     1.500
     1.600     1.700     1.800     1.900     2.000     2.200     2.400     2.600
     2.800     3.000     3.200     3.400     3.600     3.800     4.000     4.200
     4.400     4.600     4.800     5.000     5.500     6.000      .000      .000
      .000      .000      .000      .000      .000      .000      .000      .000
      .000      .000      .000      .000      .000      .000      .000      .000
      .000      .000      .000      .000
Fourier amplitude spectra in in/sec.
  .000E+00  .000E+00  .000E+00  .000E+00  .000E+00  .000E+00  .000E+00  .000E+00
  .000E+00  .000E+00  .000E+00  .000E+00  .000E+00  .000E+00  .000E+00  .000E+00
  .000E+00  .000E+00  .000E+00  .000E+00  .000E+00  .000E+00  .000E+00  .000E+00
  .000E+00  .000E+00  .000E+00  .000E+00  .000E+00  .000E+00  .000E+00  .000E+00
  .000E+00  .000E+00  .000E+00  .000E+00  .000E+00  .000E+00  .000E+00  .000E+00
  .000E+00  .000E+00  .000E+00  .000E+00  .000E+00  .000E+00  .000E+00  .000E+00
  .000E+00  .000E+00  .000E+00  .000E+00  .000E+00  .000E+00  .000E+00  .000E+00
  .000E+00  .000E+00  .000E+00  .000E+00  .000E+00  .000E+00  .000E+00  .000E+00
  .000E+00  .000E+00  .000E+00  .000E+00  .000E+00  .000E+00  .000E+00  .000E+00
  .000E+00  .000E+00  .000E+00  .000E+00  .000E+00  .000E+00  .000E+00  .000E+00
  .000E+00  .000E+00  .000E+00  .000E+00  .000E+00  .000E+00  .000E+00  .000E+00
  .000E+00  .000E+00  .000E+00  .000E+00  .000E+00  .000E+00  .000E+00  .000E+00
  .000E+00  .000E+00  .000E+00  .000E+00
Damping =  .05. Data of Sd,Sv,Sa,Pssv,ttSd,ttSv,ttSa :
  .620E-03  .724E-03  .827E-03  .866E-03  .875E-03  .815E-03  .137E-02  .168E-02
  .187E-02  .212E-02  .287E-02  .368E-02  .416E-02  .509E-02  .698E-02  .943E-02
  .103E-01  .830E-02  .831E-02  .976E-02  .103E-01  .134E-01  .182E-01  .232E-01
  .252E-01  .255E-01  .235E-01  .232E-01  .210E-01  .236E-01  .274E-01  .301E-01
  .328E-01  .355E-01  .384E-01  .408E-01  .420E-01  .431E-01  .440E-01  .447E-01
