Response and Fourier amplitude spectra (78 periods,  .04 -  6.0 sec)   for      
Corrected accelerogram   24648-VE211-20262.20       Chan  1:   0 Deg     from   
Uncorrected Accelerogram Data             Processed: 09/18/20, CGS  ce24648t    
Rcrd of Fri Sep 18, 2020 23:38:30.0 PDT               (Avol1 v2.0, 4/18 CSMIP)  
CSMIP Preliminary Processing            (Origin:  To be determined)             
24648-VE211-20262.20                 Start time:  9/19/20, 06:38:30.0 UTC (GPS) 
Station No. 24648   34.157N, 118.487W    130-MC  s/n E211 (12 Chns of 12 at Sta)
Encino - 4-story Hospital                 CGS   Data: Acceleration              
Chan  1:   0 Deg                    Location:  *****                            
Rcrd of Fri Sep 18, 2020 23:38:30.0 PDT    Fri Sep 18, 2020 23:38:30.0 PDT      
Hypocenter:  To be determined.               ML:  To be determined.             
Instr Period =  .0067 sec,  Damping =  .700,  Sensitivity = 2.50 v/g            
                        Record Length = 80.450 sec.                             
                                     Uncor Max  =   .006 g, at   30.695 sec.    
RMS accel of (uncor) record  =        .   Chn. metadata effective date: 06/19/18
Accelerogram bandpass filtered with 3 dB pts at   .30 and 40.00 cyc/sec         
                 instrument- and base-line correcte                             
                                                                                
                                                                                
                                                                                
                                                                                
                                                                                
Rcrd of Fri Sep 18, 2020 23:38:30.0 PDT    Fri Sep 18, 2020 23:38:30.0 PDT      
                                                                                
24648-VE211-20262.20      Encino - 4-story Hospital   Chan  1:   0 Deg          
                                                                                
24648-VE211-20262.20      Encino - 4-story Hospital   Chan  1:   0 Deg          
                                                                                
Units for spectra are inches and sec, except Sa is in fraction of g.            
                                                                                
    1  100    1   12   12  200    1    3    1   32  706 -999    024648    2    0
    6   38   30    0  263    9   19 2020   10    3    016090   39   25   74   -1
16090    0  100    3 -999    1   20 -999 -999 -999 -999 -999 -999 -999 -999 -999
 -999 -999 -999 -999 8045    2  200    0   24  258 -999 -999    3    1 -999 8045
    3 8045    4   78    1   12    5    0    0 -999    0    0 -999 -999    1    2
    2    2    4    0   72   67    0    3 -999    0    0    1  128 -999    0  222
    1 -999    2 -999
      .007      .700    80.450      .001     1.000  2501.000      .006    30.695
   150.000     1.589      .635  -999.000     5.000  -999.000     4.000  -999.000
    10.000    58.350    10.000  -999.000    30.725    29.995  -999.000      .001
      .001      .000     2.000    15.000    34.157  -118.487      .183      .172
      .942     -.026      .026   227.000    30.725    50.449    13.300  -999.000
     1.000  -999.000    -8.000  -999.000  -999.000  -999.000  -999.000   120.000
     7.500     2.000     6.800   980.665      .010    80.450    23.873      .000
  -999.000    40.000  -999.000    80.450      .010      .300  -999.000  -999.000
    30.690     5.676    30.730      .208    32.830      .016      .000      .300
    40.000      .010      .010      .000      .010      .012  -999.000  -999.000
      .025      .120      .011      .016      .001      .000  -999.000  -999.000
  -999.000  -999.000  -999.000  -999.000  -999.000  -999.000  -999.000  -999.000
  -999.000  -999.000  -999.000  -999.000
      .050
      .040      .042      .044      .046      .048      .050      .055      .060
      .065      .070      .075      .080      .085      .090      .095      .100
      .110      .120      .130      .140      .150      .160      .170      .180
      .190      .200      .220      .240      .260      .280      .300      .320
      .340      .360      .380      .400      .420      .440      .460      .480
      .500      .550      .600      .650      .700      .750      .800      .850
      .900      .950     1.000     1.100     1.200     1.300     1.400     1.500
     1.600     1.700     1.800     1.900     2.000     2.200     2.400     2.600
     2.800     3.000     3.200     3.400     3.600     3.800     4.000     4.200
     4.400     4.600     4.800     5.000     5.500     6.000      .000      .000
      .000      .000      .000      .000      .000      .000      .000      .000
      .000      .000      .000      .000      .000      .000      .000      .000
      .000      .000      .000      .000
Fourier amplitude spectra in in/sec.
  .000E+00  .000E+00  .000E+00  .000E+00  .000E+00  .000E+00  .000E+00  .000E+00
  .000E+00  .000E+00  .000E+00  .000E+00  .000E+00  .000E+00  .000E+00  .000E+00
  .000E+00  .000E+00  .000E+00  .000E+00  .000E+00  .000E+00  .000E+00  .000E+00
  .000E+00  .000E+00  .000E+00  .000E+00  .000E+00  .000E+00  .000E+00  .000E+00
  .000E+00  .000E+00  .000E+00  .000E+00  .000E+00  .000E+00  .000E+00  .000E+00
  .000E+00  .000E+00  .000E+00  .000E+00  .000E+00  .000E+00  .000E+00  .000E+00
  .000E+00  .000E+00  .000E+00  .000E+00  .000E+00  .000E+00  .000E+00  .000E+00
  .000E+00  .000E+00  .000E+00  .000E+00  .000E+00  .000E+00  .000E+00  .000E+00
  .000E+00  .000E+00  .000E+00  .000E+00  .000E+00  .000E+00  .000E+00  .000E+00
  .000E+00  .000E+00  .000E+00  .000E+00  .000E+00  .000E+00  .000E+00  .000E+00
  .000E+00  .000E+00  .000E+00  .000E+00  .000E+00  .000E+00  .000E+00  .000E+00
  .000E+00  .000E+00  .000E+00  .000E+00  .000E+00  .000E+00  .000E+00  .000E+00
  .000E+00  .000E+00  .000E+00  .000E+00
Damping =  .05. Data of Sd,Sv,Sa,Pssv,ttSd,ttSv,ttSa :
  .113E-03  .127E-03  .144E-03  .182E-03  .214E-03  .269E-03  .361E-03  .334E-03
  .440E-03  .564E-03  .567E-03  .701E-03  .886E-03  .101E-02  .132E-02  .156E-02
  .236E-02  .345E-02  .367E-02  .423E-02  .516E-02  .492E-02  .489E-02  .438E-02
  .455E-02  .395E-02  .461E-02  .761E-02  .115E-01  .121E-01  .132E-01  .180E-01
  .196E-01  .142E-01  .115E-01  .105E-01  .113E-01  .115E-01  .114E-01  .104E-01
  .102E-01  .107E-01  .120E-01  .168E-01  .172E-01  .204E-01  .201E-01  .190E-01
  .149E-01  .125E-01  .116E-01  .112E-01  .111E-01  .103E-01  .125E-01  .119E-01
  .113E-01  .872E-02  .833E-02  .850E-02  .866E-02  .803E-02  .736E-02  .691E-02
  .657E-02  .646E-02  .657E-02  .676E-02  .689E-02  .691E-02  .684E-02  .678E-02
  .673E-02  .665E-02  .658E-02  .652E-02  .647E-02  .643E-02  .000E+00  .000E+00
  .000E+00  .000E+00  .000E+00  .000E+00  .000E+00  .000E+00  .000E+00  .000E+00
  .000E+00  .000E+00  .000E+00  .000E+00  .000E+00  .000E+00  .000E+00  .000E+00
  .000E+00  .000E+00  .000E+00  .000E+00
  .131E-01  .134E-01  .138E-01  .182E-01  .216E-01  .297E-01  .389E-01  .321E-01
  .321E-01  .390E-01  .320E-01  .342E-01  .484E-01  .638E-01  .842E-01  .100E+00
  .123E+00  .166E+00  .172E+00  .183E+00  .211E+00  .203E+00  .192E+00  .168E+00
  .139E+00  .111E+00  .130E+00  .177E+00  .251E+00  .258E+00  .267E+00  .384E+00
  .375E+00  .281E+00  .203E+00  .189E+00  .202E+00  .201E+00  .185E+00  .155E+00
  .165E+00  .172E+00  .173E+00  .177E+00  .189E+00  .182E+00  .200E+00  .170E+00
  .127E+00  .115E+00  .113E+00  .103E+00  .963E-01  .949E-01  .906E-01  .880E-01
  .859E-01  .834E-01  .819E-01  .821E-01  .830E-01  .842E-01  .839E-01  .837E-01
  .837E-01  .835E-01  .832E-01  .828E-01  .824E-01  .820E-01  .818E-01  .817E-01
  .816E-01  .816E-01  .815E-01  .815E-01  .815E-01  .814E-01  .000E+00  .000E+00
  .000E+00  .000E+00  .000E+00  .000E+00  .000E+00  .000E+00  .000E+00  .000E+00
  .000E+00  .000E+00  .000E+00  .000E+00  .000E+00  .000E+00  .000E+00  .000E+00
  .000E+00  .000E+00  .000E+00  .000E+00
  .724E-02  .743E-02  .763E-02  .884E-02  .960E-02  .110E-01  .121E-01  .951E-02
  .106E-01  .117E-01  .103E-01  .112E-01  .127E-01  .128E-01  .149E-01  .164E-01
  .203E-01  .251E-01  .227E-01  .218E-01  .236E-01  .200E-01  .175E-01  .138E-01
  .129E-01  .101E-01  .986E-02  .135E-01  .175E-01  .159E-01  .152E-01  .181E-01
  .174E-01  .113E-01  .819E-02  .674E-02  .662E-02  .609E-02  .555E-02  .466E-02
  .424E-02  .363E-02  .343E-02  .408E-02  .361E-02  .373E-02  .324E-02  .272E-02
  .190E-02  .143E-02  .119E-02  .954E-03  .796E-03  .638E-03  .658E-03  .548E-03
  .457E-03  .325E-03  .279E-03  .257E-03  .237E-03  .185E-03  .146E-03  .119E-03
  .100E-03  .876E-04  .795E-04  .733E-04  .675E-04  .619E-04  .565E-04  .519E-04
  .479E-04  .443E-04  .411E-04  .383E-04  .329E-04  .288E-04  .000E+00  .000E+00
  .000E+00  .000E+00  .000E+00  .000E+00  .000E+00  .000E+00  .000E+00  .000E+00
  .000E+00  .000E+00  .000E+00  .000E+00  .000E+00  .000E+00  .000E+00  .000E+00
  .000E+00  .000E+00  .000E+00  .000E+00
  .178E-01  .190E-01  .206E-01  .249E-01  .280E-01  .338E-01  .412E-01  .350E-01
  .425E-01  .506E-01  .475E-01  .551E-01  .655E-01  .705E-01  .873E-01  .978E-01
  .135E+00  .181E+00  .177E+00  .190E+00  .216E+00  .193E+00  .181E+00  .153E+00
  .150E+00  .124E+00  .132E+00  .199E+00  .278E+00  .272E+00  .277E+00  .354E+00
  .363E+00  .248E+00  .190E+00  .165E+00  .170E+00  .164E+00  .155E+00  .137E+00
  .129E+00  .122E+00  .125E+00  .162E+00  .155E+00  .171E+00  .158E+00  .141E+00
  .104E+00  .828E-01  .729E-01  .640E-01  .583E-01  .496E-01  .560E-01  .500E-01
  .445E-01  .322E-01  .291E-01  .281E-01  .272E-01  .229E-01  .193E-01  .167E-01
  .147E-01  .135E-01  .129E-01  .125E-01  .120E-01  .114E-01  .107E-01  .101E-01
  .961E-02  .908E-02  .861E-02  .820E-02  .740E-02  .674E-02  .000E+00  .000E+00
  .000E+00  .000E+00  .000E+00  .000E+00  .000E+00  .000E+00  .000E+00  .000E+00
  .000E+00  .000E+00  .000E+00  .000E+00  .000E+00  .000E+00  .000E+00  .000E+00
  .000E+00  .000E+00  .000E+00  .000E+00
  .309E+02  .309E+02  .248E+02  .248E+02  .248E+02  .253E+02  .257E+02  .301E+02
  .301E+02  .301E+02  .297E+02  .309E+02  .310E+02  .318E+02  .312E+02  .248E+02
  .301E+02  .303E+02  .303E+02  .304E+02  .304E+02  .302E+02  .301E+02  .317E+02
  .317E+02  .320E+02  .320E+02  .320E+02  .322E+02  .326E+02  .327E+02  .324E+02
  .324E+02  .338E+02  .309E+02  .332E+02  .325E+02  .325E+02  .323E+02  .361E+02
  .310E+02  .520E+02  .308E+02  .347E+02  .348E+02  .359E+02  .342E+02  .335E+02
  .335E+02  .335E+02  .336E+02  .630E+02  .626E+02  .345E+02  .546E+02  .555E+02
  .542E+02  .328E+02  .328E+02  .328E+02  .328E+02  .328E+02  .328E+02  .328E+02
  .328E+02  .328E+02  .328E+02  .328E+02  .328E+02  .328E+02  .328E+02  .328E+02
  .328E+02  .328E+02  .328E+02  .328E+02  .328E+02  .328E+02  .000E+00  .000E+00
  .000E+00  .000E+00  .000E+00  .000E+00  .000E+00  .000E+00  .000E+00  .000E+00
  .000E+00  .000E+00  .000E+00  .000E+00  .000E+00  .000E+00  .000E+00  .000E+00
  .000E+00  .000E+00  .000E+00  .000E+00
  .251E+02  .253E+02  .272E+02  .272E+02  .264E+02  .253E+02  .257E+02  .251E+02
  .251E+02  .302E+02  .296E+02  .309E+02  .247E+02  .248E+02  .249E+02  .249E+02
  .302E+02  .302E+02  .304E+02  .304E+02  .304E+02  .302E+02  .301E+02  .301E+02
  .316E+02  .310E+02  .310E+02  .319E+02  .321E+02  .327E+02  .310E+02  .326E+02
  .323E+02  .324E+02  .339E+02  .323E+02  .324E+02  .324E+02  .324E+02  .322E+02
  .309E+02  .309E+02  .309E+02  .307E+02  .307E+02  .343E+02  .336E+02  .336E+02
  .330E+02  .334E+02  .334E+02  .334E+02  .334E+02  .334E+02  .307E+02  .307E+02
  .307E+02  .307E+02  .307E+02  .307E+02  .307E+02  .307E+02  .307E+02  .307E+02
  .307E+02  .307E+02  .307E+02  .307E+02  .307E+02  .307E+02  .307E+02  .307E+02
  .307E+02  .307E+02  .307E+02  .307E+02  .307E+02  .307E+02  .000E+00  .000E+00
  .000E+00  .000E+00  .000E+00  .000E+00  .000E+00  .000E+00  .000E+00  .000E+00
  .000E+00  .000E+00  .000E+00  .000E+00  .000E+00  .000E+00  .000E+00  .000E+00
  .000E+00  .000E+00  .000E+00  .000E+00
  .309E+02  .309E+02  .248E+02  .248E+02  .248E+02  .264E+02  .257E+02  .301E+02
  .301E+02  .301E+02  .297E+02  .309E+02  .310E+02  .318E+02  .312E+02  .248E+02
  .301E+02  .303E+02  .303E+02  .304E+02  .304E+02  .302E+02  .301E+02  .317E+02
  .317E+02  .320E+02  .320E+02  .320E+02  .322E+02  .326E+02  .327E+02  .324E+02
  .324E+02  .338E+02  .309E+02  .332E+02  .325E+02  .325E+02  .323E+02  .360E+02
  .309E+02  .520E+02  .308E+02  .347E+02  .348E+02  .359E+02  .342E+02  .335E+02
  .335E+02  .335E+02  .335E+02  .630E+02  .626E+02  .345E+02  .546E+02  .555E+02
  .541E+02  .328E+02  .328E+02  .328E+02  .328E+02  .328E+02  .328E+02  .328E+02
  .328E+02  .328E+02  .328E+02  .328E+02  .328E+02  .328E+02  .328E+02  .328E+02
  .328E+02  .328E+02  .328E+02  .328E+02  .328E+02  .328E+02  .000E+00  .000E+00
  .000E+00  .000E+00  .000E+00  .000E+00  .000E+00  .000E+00  .000E+00  .000E+00
  .000E+00  .000E+00  .000E+00  .000E+00  .000E+00  .000E+00  .000E+00  .000E+00
  .000E+00  .000E+00  .000E+00  .000E+00
/&   ----------  End of spectral data for channel  1  ----------
Response and Fourier amplitude spectra (78 periods,  .04 -  6.0 sec)   for      
Corrected accelerogram   24648-VE211-20262.20       Chan  2:   0 Deg     from   
Uncorrected Accelerogram Data             Processed: 09/18/20, CGS  ce24648t    
Rcrd of Fri Sep 18, 2020 23:38:30.0 PDT               (Avol1 v2.0, 4/18 CSMIP)  
CSMIP Preliminary Processing            (Origin:  To be determined)             
24648-VE211-20262.20                 Start time:  9/19/20, 06:38:30.0 UTC (GPS) 
Station No. 24648   34.157N, 118.487W    130-MC  s/n E211 (12 Chns of 12 at Sta)
Encino - 4-story Hospital                 CGS   Data: Acceleration              
Chan  2:   0 Deg                    Location:  *****                            
Rcrd of Fri Sep 18, 2020 23:38:30.0 PDT    Fri Sep 18, 2020 23:38:30.0 PDT      
Hypocenter:  To be determined.               ML:  To be determined.             
Instr Period =  .0067 sec,  Damping =  .700,  Sensitivity = 2.50 v/g            
                        Record Length = 80.450 sec.                             
                                     Uncor Max  =  -.010 g, at   30.420 sec.    
RMS accel of (uncor) record  =        .   Chn. metadata effective date: 06/19/18
Accelerogram bandpass filtered with 3 dB pts at   .30 and 40.00 cyc/sec         
                 instrument- and base-line correcte                             
                                                                                
                                                                                
                                                                                
                                                                                
                                                                                
Rcrd of Fri Sep 18, 2020 23:38:30.0 PDT    Fri Sep 18, 2020 23:38:30.0 PDT      
                                                                                
24648-VE211-20262.20      Encino - 4-story Hospital   Chan  2:   0 Deg          
                                                                                
24648-VE211-20262.20      Encino - 4-story Hospital   Chan  2:   0 Deg          
                                                                                
Units for spectra are inches and sec, except Sa is in fraction of g.            
                                                                                
    2  100    2   12   12  200    1    3    1   32  706 -999    024648    2    0
    6   38   30    0  263    9   19 2020   10    3    016090   39   25   74   -1
16090    0  100    3 -999    1   20 -999 -999 -999 -999 -999 -999 -999 -999 -999
 -999 -999 -999 -999 8045    2  200    0   24  258 -999 -999    3    1 -999 8045
    3 8045    4   78    1   12    5    0    0 -999    0    0 -999 -999    1    2
    2    2    4    0   72   67    0    3 -999    0    0    1  128 -999    0  222
    1 -999    2 -999
      .007      .700    80.450      .001     1.000  2502.000     -.010    30.420
   150.000     1.586      .634  -999.000     5.000  -999.000     4.000  -999.000
    10.000    59.510    10.000  -999.000    30.725    29.995  -999.000      .000
      .006      .006     2.000    15.000    34.157  -118.487      .049      .110
     2.220     -.003      .016   227.000    30.725    50.449    13.300  -999.000
     1.000  -999.000    -8.000  -999.000  -999.000  -999.000  -999.000   120.000
     7.500     2.000     6.800   980.665      .010    80.450    23.873      .000
  -999.000    40.000  -999.000    80.450      .010      .300  -999.000  -999.000
    30.420    -9.483    29.570      .400    29.650      .043      .000      .300
    40.000      .010      .010      .000      .010      .021  -999.000  -999.000
      .030      .240      .020      .017      .004      .000  -999.000  -999.000
  -999.000  -999.000  -999.000  -999.000  -999.000  -999.000  -999.000  -999.000
  -999.000  -999.000  -999.000  -999.000
      .050
      .040      .042      .044      .046      .048      .050      .055      .060
      .065      .070      .075      .080      .085      .090      .095      .100
      .110      .120      .130      .140      .150      .160      .170      .180
      .190      .200      .220      .240      .260      .280      .300      .320
      .340      .360      .380      .400      .420      .440      .460      .480
      .500      .550      .600      .650      .700      .750      .800      .850
      .900      .950     1.000     1.100     1.200     1.300     1.400     1.500
     1.600     1.700     1.800     1.900     2.000     2.200     2.400     2.600
     2.800     3.000     3.200     3.400     3.600     3.800     4.000     4.200
     4.400     4.600     4.800     5.000     5.500     6.000      .000      .000
      .000      .000      .000      .000      .000      .000      .000      .000
      .000      .000      .000      .000      .000      .000      .000      .000
      .000      .000      .000      .000
Fourier amplitude spectra in in/sec.
  .000E+00  .000E+00  .000E+00  .000E+00  .000E+00  .000E+00  .000E+00  .000E+00
  .000E+00  .000E+00  .000E+00  .000E+00  .000E+00  .000E+00  .000E+00  .000E+00
  .000E+00  .000E+00  .000E+00  .000E+00  .000E+00  .000E+00  .000E+00  .000E+00
  .000E+00  .000E+00  .000E+00  .000E+00  .000E+00  .000E+00  .000E+00  .000E+00
  .000E+00  .000E+00  .000E+00  .000E+00  .000E+00  .000E+00  .000E+00  .000E+00
  .000E+00  .000E+00  .000E+00  .000E+00  .000E+00  .000E+00  .000E+00  .000E+00
  .000E+00  .000E+00  .000E+00  .000E+00  .000E+00  .000E+00  .000E+00  .000E+00
  .000E+00  .000E+00  .000E+00  .000E+00  .000E+00  .000E+00  .000E+00  .000E+00
  .000E+00  .000E+00  .000E+00  .000E+00  .000E+00  .000E+00  .000E+00  .000E+00
  .000E+00  .000E+00  .000E+00  .000E+00  .000E+00  .000E+00  .000E+00  .000E+00
  .000E+00  .000E+00  .000E+00  .000E+00  .000E+00  .000E+00  .000E+00  .000E+00
  .000E+00  .000E+00  .000E+00  .000E+00  .000E+00  .000E+00  .000E+00  .000E+00
  .000E+00  .000E+00  .000E+00  .000E+00
Damping =  .05. Data of Sd,Sv,Sa,Pssv,ttSd,ttSv,ttSa :
  .173E-03  .195E-03  .209E-03  .208E-03  .246E-03  .295E-03  .450E-03  .556E-03
  .583E-03  .752E-03  .910E-03  .105E-02  .128E-02  .127E-02  .139E-02  .196E-02
  .225E-02  .238E-02  .347E-02  .426E-02  .599E-02  .681E-02  .581E-02  .612E-02
  .713E-02  .713E-02  .962E-02  .167E-01  .191E-01  .158E-01  .135E-01  .144E-01
  .153E-01  .182E-01  .177E-01  .151E-01  .153E-01  .154E-01  .154E-01  .160E-01
