Response and Fourier amplitude spectra (78 periods,  .04 -  6.0 sec)   for      
Corrected accelerogram   24465-N2621-20263.02       Chan  1: 183 Deg     from   
Uncorrected Accelerogram Data             Processed: 09/18/20, CGS  ce24465b    
Rcrd of Fri Sep 18, 2020 23:38:22.0 PDT               (Avol1 v2.0, 4/18 CSMIP)  
CSMIP Preliminary Processing            (Origin:  To be determined)             
24465-N2621-20263.02                 Start time:  9/19/20, 06:38:22.0 UTC (GPS) 
Station No. 24465   34.140N, 118.125W    Etna2   s/n 2621  (3 Chns of  3 at Sta)
Pasadena - Chester & Del Mar [Annenberg   CGS   Data: Acceleration              
Chan  1: 183 Deg                                                                
Rcrd of Fri Sep 18, 2020 23:38:22.0 PDT    Fri Sep 18, 2020 23:38:22.0 PDT      
Hypocenter:  To be determined.               ML:  To be determined.             
Instr Period =  .0050 sec,  Damping =  .700,  Sensitivity =  .63 v/g            
                        Record Length = 63.000 sec.                             
                                     Uncor Max  =  -.030 g, at   31.080 sec.    
RMS accel of (uncor) record  =        .   Chn. metadata effective date: 05/04/20
Accelerogram bandpass filtered with 3 dB pts at   .30 and 40.00 cyc/sec         
                 instrument- and base-line correcte                             
                                                                                
                                                                                
                                                                                
                                                                                
                                                                                
Rcrd of Fri Sep 18, 2020 23:38:22.0 PDT    Fri Sep 18, 2020 23:38:22.0 PDT      
                                                                                
24465-N2621-20263.02      Pasadena - Chester & Del Mar [Annenberg   Chan  1: 183
 Deg                                                                            
24465-N2621-20263.02      Pasadena - Chester & Del Mar [Annenberg   Chan  1: 183
 Deg                                                                            
Units for spectra are inches and sec, except Sa is in fraction of g.            
                                                                                
    1  100    1    3    3  200    1    3    1   24   22 2621    024465   21    0
    6   38   22    0  263    9   19 2020   10    3  18312600   39   39   74    3
12600    1  100    3 2621    1    2  630    2 -999 -999 -999 -999 -999 -999 -999
 -999 -999    3 -99912600    1  202    0   24   20 -999 -999    3    1 -99912600
    312600    4   78    1    3    5    0    0 -999    0    0    1    3    1    2
    2    2    4    0   32   67    9    1 -999    0    0    1    0    0    4  222
    1    0    0    0
      .005      .700    63.000      .002     1.000   626.000     -.030    31.080
   202.000      .298      .476  -999.000     5.000  -999.000     4.000  -999.000
     2.500   -13.430     2.500  -999.000    30.000    30.000  -999.000      .001
      .006      .005     2.000    15.000    34.140  -118.125      .047      .193
     4.074     -.010      .021   237.000    31.000    33.900    13.100   104.720
     1.000    11.003    -8.000  -999.000  -999.000  -999.000  -999.000  -999.000
     6.900     2.000     6.800   980.665      .005    63.000    32.149      .000
  -999.000    40.000  -999.000    63.000      .005      .300  -999.000  -999.000
    31.080   -29.138    30.970     1.136    31.350      .122      .000      .300
    40.000      .005      .005      .000      .005      .024  -999.000  -999.000
      .091      .090      .072      .062      .009      .001  -999.000  -999.000
  -999.000  -999.000  -999.000  -999.000  -999.000  -999.000  -999.000  -999.000
  -999.000  -999.000  -999.000  -999.000
      .050
      .040      .042      .044      .046      .048      .050      .055      .060
      .065      .070      .075      .080      .085      .090      .095      .100
      .110      .120      .130      .140      .150      .160      .170      .180
      .190      .200      .220      .240      .260      .280      .300      .320
      .340      .360      .380      .400      .420      .440      .460      .480
      .500      .550      .600      .650      .700      .750      .800      .850
      .900      .950     1.000     1.100     1.200     1.300     1.400     1.500
     1.600     1.700     1.800     1.900     2.000     2.200     2.400     2.600
     2.800     3.000     3.200     3.400     3.600     3.800     4.000     4.200
     4.400     4.600     4.800     5.000     5.500     6.000      .000      .000
      .000      .000      .000      .000      .000      .000      .000      .000
      .000      .000      .000      .000      .000      .000      .000      .000
      .000      .000      .000      .000
Fourier amplitude spectra in in/sec.
  .000E+00  .000E+00  .000E+00  .000E+00  .000E+00  .000E+00  .000E+00  .000E+00
  .000E+00  .000E+00  .000E+00  .000E+00  .000E+00  .000E+00  .000E+00  .000E+00
  .000E+00  .000E+00  .000E+00  .000E+00  .000E+00  .000E+00  .000E+00  .000E+00
  .000E+00  .000E+00  .000E+00  .000E+00  .000E+00  .000E+00  .000E+00  .000E+00
  .000E+00  .000E+00  .000E+00  .000E+00  .000E+00  .000E+00  .000E+00  .000E+00
  .000E+00  .000E+00  .000E+00  .000E+00  .000E+00  .000E+00  .000E+00  .000E+00
  .000E+00  .000E+00  .000E+00  .000E+00  .000E+00  .000E+00  .000E+00  .000E+00
  .000E+00  .000E+00  .000E+00  .000E+00  .000E+00  .000E+00  .000E+00  .000E+00
  .000E+00  .000E+00  .000E+00  .000E+00  .000E+00  .000E+00  .000E+00  .000E+00
  .000E+00  .000E+00  .000E+00  .000E+00  .000E+00  .000E+00  .000E+00  .000E+00
  .000E+00  .000E+00  .000E+00  .000E+00  .000E+00  .000E+00  .000E+00  .000E+00
  .000E+00  .000E+00  .000E+00  .000E+00  .000E+00  .000E+00  .000E+00  .000E+00
  .000E+00  .000E+00  .000E+00  .000E+00
Damping =  .05. Data of Sd,Sv,Sa,Pssv,ttSd,ttSv,ttSa :
  .495E-03  .581E-03  .693E-03  .815E-03  .933E-03  .100E-02  .112E-02  .152E-02
  .202E-02  .301E-02  .397E-02  .455E-02  .540E-02  .710E-02  .680E-02  .653E-02
  .799E-02  .112E-01  .141E-01  .151E-01  .166E-01  .197E-01  .226E-01  .253E-01
  .267E-01  .279E-01  .324E-01  .385E-01  .439E-01  .513E-01  .549E-01  .572E-01
  .634E-01  .624E-01  .573E-01  .626E-01  .618E-01  .635E-01  .641E-01  .640E-01
  .635E-01  .604E-01  .550E-01  .498E-01  .677E-01  .780E-01  .762E-01  .801E-01
  .800E-01  .847E-01  .884E-01  .926E-01  .967E-01  .970E-01  .922E-01  .906E-01
  .971E-01  .958E-01  .904E-01  .822E-01  .723E-01  .656E-01  .646E-01  .635E-01
  .630E-01  .633E-01  .634E-01  .631E-01  .624E-01  .616E-01  .606E-01  .596E-01
  .586E-01  .577E-01  .568E-01  .560E-01  .544E-01  .531E-01  .000E+00  .000E+00
  .000E+00  .000E+00  .000E+00  .000E+00  .000E+00  .000E+00  .000E+00  .000E+00
  .000E+00  .000E+00  .000E+00  .000E+00  .000E+00  .000E+00  .000E+00  .000E+00
  .000E+00  .000E+00  .000E+00  .000E+00
  .390E-01  .482E-01  .594E-01  .703E-01  .769E-01  .859E-01  .889E-01  .120E+00
  .158E+00  .204E+00  .317E+00  .356E+00  .381E+00  .488E+00  .454E+00  .382E+00
  .339E+00  .445E+00  .547E+00  .590E+00  .671E+00  .726E+00  .737E+00  .809E+00
  .849E+00  .876E+00  .989E+00  .106E+01  .101E+01  .102E+01  .110E+01  .110E+01
  .115E+01  .113E+01  .112E+01  .110E+01  .105E+01  .980E+00  .951E+00  .977E+00
  .994E+00  .101E+01  .993E+00  .958E+00  .919E+00  .876E+00  .833E+00  .789E+00
  .746E+00  .705E+00  .669E+00  .610E+00  .576E+00  .578E+00  .572E+00  .571E+00
  .565E+00  .554E+00  .539E+00  .524E+00  .510E+00  .490E+00  .488E+00  .487E+00
  .485E+00  .484E+00  .483E+00  .481E+00  .480E+00  .478E+00  .476E+00  .474E+00
  .472E+00  .470E+00  .468E+00  .467E+00  .463E+00  .461E+00  .000E+00  .000E+00
  .000E+00  .000E+00  .000E+00  .000E+00  .000E+00  .000E+00  .000E+00  .000E+00
  .000E+00  .000E+00  .000E+00  .000E+00  .000E+00  .000E+00  .000E+00  .000E+00
  .000E+00  .000E+00  .000E+00  .000E+00
  .317E-01  .337E-01  .367E-01  .394E-01  .414E-01  .410E-01  .375E-01  .435E-01
  .491E-01  .632E-01  .717E-01  .735E-01  .766E-01  .911E-01  .783E-01  .675E-01
  .676E-01  .801E-01  .855E-01  .793E-01  .756E-01  .795E-01  .802E-01  .806E-01
  .759E-01  .716E-01  .687E-01  .685E-01  .668E-01  .674E-01  .627E-01  .574E-01
  .565E-01  .496E-01  .407E-01  .402E-01  .362E-01  .338E-01  .312E-01  .287E-01
  .262E-01  .206E-01  .158E-01  .121E-01  .142E-01  .143E-01  .122E-01  .114E-01
  .102E-01  .970E-02  .913E-02  .791E-02  .692E-02  .594E-02  .483E-02  .416E-02
  .395E-02  .346E-02  .289E-02  .237E-02  .190E-02  .152E-02  .128E-02  .109E-02
  .939E-03  .815E-03  .715E-03  .635E-03  .566E-03  .507E-03  .457E-03  .413E-03
  .376E-03  .343E-03  .315E-03  .291E-03  .243E-03  .209E-03  .000E+00  .000E+00
  .000E+00  .000E+00  .000E+00  .000E+00  .000E+00  .000E+00  .000E+00  .000E+00
  .000E+00  .000E+00  .000E+00  .000E+00  .000E+00  .000E+00  .000E+00  .000E+00
  .000E+00  .000E+00  .000E+00  .000E+00
  .777E-01  .869E-01  .990E-01  .111E+00  .122E+00  .126E+00  .128E+00  .160E+00
  .195E+00  .270E+00  .333E+00  .358E+00  .399E+00  .495E+00  .450E+00  .411E+00
  .456E+00  .588E+00  .681E+00  .680E+00  .695E+00  .775E+00  .836E+00  .885E+00
  .881E+00  .877E+00  .926E+00  .101E+01  .106E+01  .115E+01  .115E+01  .112E+01
  .117E+01  .109E+01  .948E+00  .983E+00  .925E+00  .907E+00  .875E+00  .838E+00
  .798E+00  .690E+00  .576E+00  .481E+00  .608E+00  .654E+00  .598E+00  .592E+00
  .559E+00  .560E+00  .556E+00  .529E+00  .506E+00  .469E+00  .414E+00  .379E+00
  .381E+00  .354E+00  .315E+00  .272E+00  .227E+00  .187E+00  .169E+00  .154E+00
  .141E+00  .133E+00  .125E+00  .117E+00  .109E+00  .102E+00  .952E-01  .892E-01
  .837E-01  .788E-01  .744E-01  .704E-01  .621E-01  .556E-01  .000E+00  .000E+00
  .000E+00  .000E+00  .000E+00  .000E+00  .000E+00  .000E+00  .000E+00  .000E+00
  .000E+00  .000E+00  .000E+00  .000E+00  .000E+00  .000E+00  .000E+00  .000E+00
  .000E+00  .000E+00  .000E+00  .000E+00
  .311E+02  .311E+02  .311E+02  .311E+02  .311E+02  .311E+02  .316E+02  .316E+02
  .312E+02  .314E+02  .314E+02  .315E+02  .317E+02  .317E+02  .317E+02  .315E+02
  .312E+02  .312E+02  .312E+02  .312E+02  .312E+02  .313E+02  .313E+02  .313E+02
  .313E+02  .313E+02  .313E+02  .314E+02  .314E+02  .314E+02  .314E+02  .316E+02
  .316E+02  .316E+02  .317E+02  .327E+02  .312E+02  .312E+02  .312E+02  .312E+02
  .312E+02  .312E+02  .312E+02  .327E+02  .328E+02  .344E+02  .318E+02  .319E+02
  .319E+02  .315E+02  .315E+02  .316E+02  .334E+02  .330E+02  .331E+02  .326E+02
  .326E+02  .326E+02  .326E+02  .326E+02  .326E+02  .311E+02  .311E+02  .311E+02
  .313E+02  .313E+02  .313E+02  .313E+02  .313E+02  .313E+02  .313E+02  .313E+02
  .313E+02  .313E+02  .313E+02  .313E+02  .313E+02  .313E+02  .000E+00  .000E+00
  .000E+00  .000E+00  .000E+00  .000E+00  .000E+00  .000E+00  .000E+00  .000E+00
  .000E+00  .000E+00  .000E+00  .000E+00  .000E+00  .000E+00  .000E+00  .000E+00
  .000E+00  .000E+00  .000E+00  .000E+00
  .316E+02  .315E+02  .315E+02  .315E+02  .315E+02  .315E+02  .316E+02  .316E+02
  .316E+02  .317E+02  .314E+02  .314E+02  .314E+02  .317E+02  .317E+02  .315E+02
  .311E+02  .311E+02  .317E+02  .314E+02  .313E+02  .313E+02  .313E+02  .313E+02
  .313E+02  .313E+02  .313E+02  .313E+02  .313E+02  .313E+02  .317E+02  .314E+02
  .314E+02  .312E+02  .312E+02  .312E+02  .312E+02  .313E+02  .311E+02  .311E+02
  .311E+02  .311E+02  .311E+02  .311E+02  .311E+02  .311E+02  .311E+02  .311E+02
  .311E+02  .311E+02  .311E+02  .311E+02  .314E+02  .327E+02  .327E+02  .315E+02
  .315E+02  .315E+02  .315E+02  .315E+02  .315E+02  .310E+02  .310E+02  .310E+02
  .310E+02  .310E+02  .310E+02  .310E+02  .310E+02  .310E+02  .310E+02  .310E+02
  .310E+02  .310E+02  .310E+02  .310E+02  .310E+02  .310E+02  .000E+00  .000E+00
  .000E+00  .000E+00  .000E+00  .000E+00  .000E+00  .000E+00  .000E+00  .000E+00
  .000E+00  .000E+00  .000E+00  .000E+00  .000E+00  .000E+00  .000E+00  .000E+00
  .000E+00  .000E+00  .000E+00  .000E+00
  .311E+02  .311E+02  .311E+02  .311E+02  .311E+02  .311E+02  .316E+02  .316E+02
  .312E+02  .314E+02  .314E+02  .315E+02  .317E+02  .317E+02  .317E+02  .315E+02
  .312E+02  .312E+02  .312E+02  .312E+02  .312E+02  .313E+02  .313E+02  .313E+02
  .313E+02  .313E+02  .313E+02  .314E+02  .314E+02  .314E+02  .314E+02  .316E+02
  .316E+02  .316E+02  .317E+02  .327E+02  .312E+02  .312E+02  .312E+02  .312E+02
  .312E+02  .312E+02  .312E+02  .327E+02  .328E+02  .344E+02  .318E+02  .318E+02
  .319E+02  .315E+02  .315E+02  .315E+02  .334E+02  .329E+02  .330E+02  .325E+02
  .326E+02  .326E+02  .326E+02  .326E+02  .326E+02  .311E+02  .311E+02  .311E+02
  .311E+02  .311E+02  .313E+02  .313E+02  .313E+02  .313E+02  .313E+02  .313E+02
  .313E+02  .313E+02  .313E+02  .313E+02  .313E+02  .310E+02  .000E+00  .000E+00
  .000E+00  .000E+00  .000E+00  .000E+00  .000E+00  .000E+00  .000E+00  .000E+00
  .000E+00  .000E+00  .000E+00  .000E+00  .000E+00  .000E+00  .000E+00  .000E+00
  .000E+00  .000E+00  .000E+00  .000E+00
/&   ----------  End of spectral data for channel  1  ----------
Response and Fourier amplitude spectra (78 periods,  .04 -  6.0 sec)   for      
Corrected accelerogram   24465-N2621-20263.02       Chan  2:  93 Deg     from   
Uncorrected Accelerogram Data             Processed: 09/18/20, CGS  ce24465b    
Rcrd of Fri Sep 18, 2020 23:38:22.0 PDT               (Avol1 v2.0, 4/18 CSMIP)  
CSMIP Preliminary Processing            (Origin:  To be determined)             
24465-N2621-20263.02                 Start time:  9/19/20, 06:38:22.0 UTC (GPS) 
Station No. 24465   34.140N, 118.125W    Etna2   s/n 2621  (3 Chns of  3 at Sta)
Pasadena - Chester & Del Mar [Annenberg   CGS   Data: Acceleration              
Chan  2:  93 Deg                                                                
Rcrd of Fri Sep 18, 2020 23:38:22.0 PDT    Fri Sep 18, 2020 23:38:22.0 PDT      
Hypocenter:  To be determined.               ML:  To be determined.             
Instr Period =  .0050 sec,  Damping =  .700,  Sensitivity =  .63 v/g            
                        Record Length = 63.000 sec.                             
                                     Uncor Max  =   .020 g, at   31.360 sec.    
RMS accel of (uncor) record  =        .   Chn. metadata effective date: 05/04/20
Accelerogram bandpass filtered with 3 dB pts at   .30 and 40.00 cyc/sec         
                 instrument- and base-line correcte                             
                                                                                
                                                                                
                                                                                
                                                                                
                                                                                
Rcrd of Fri Sep 18, 2020 23:38:22.0 PDT    Fri Sep 18, 2020 23:38:22.0 PDT      
                                                                                
24465-N2621-20263.02      Pasadena - Chester & Del Mar [Annenberg   Chan  2:  93
 Deg                                                                            
24465-N2621-20263.02      Pasadena - Chester & Del Mar [Annenberg   Chan  2:  93
 Deg                                                                            
Units for spectra are inches and sec, except Sa is in fraction of g.            
                                                                                
    2  100    2    3    3  200    1    3    1   24   22 2621    024465   21    0
    6   38   22    0  263    9   19 2020   10    3   9312600   39   39   74    3
12600    1  100    3 2621    1    2  630    2 -999 -999 -999 -999 -999 -999 -999
 -999 -999    3 -99912600    1  202    0   24   20 -999 -999    3    1 -99912600
    312600    4   78    1    3    5    0    0 -999    0    0    1    3    1    2
    2    2    4    0   32   67    9    1 -999    0    0    1    0    0    4  222
    1    0    0    0
      .005      .700    63.000      .002     1.000   625.000      .020    31.360
   202.000      .298      .477  -999.000     5.000  -999.000     4.000  -999.000
     2.500     3.171     2.500  -999.000    30.000    30.000  -999.000      .002
     -.006     -.008     2.000    15.000    34.140  -118.125      .049      .228
     4.610     -.026      .010   237.000    31.000    33.900    13.100   104.720
     1.000    11.003    -8.000  -999.000  -999.000  -999.000  -999.000  -999.000
     6.900     2.000     6.800   980.665      .005    63.000    32.149      .000
  -999.000    40.000  -999.000    63.000      .005      .300  -999.000  -999.000
    31.355    19.037    31.330     -.647    34.790     -.035      .000      .300
    40.000      .005      .005      .000      .005      .020  -999.000  -999.000
      .070      .150      .037      .026      .005      .000  -999.000  -999.000
  -999.000  -999.000  -999.000  -999.000  -999.000  -999.000  -999.000  -999.000
  -999.000  -999.000  -999.000  -999.000
      .050
      .040      .042      .044      .046      .048      .050      .055      .060
      .065      .070      .075      .080      .085      .090      .095      .100
      .110      .120      .130      .140      .150      .160      .170      .180
      .190      .200      .220      .240      .260      .280      .300      .320
      .340      .360      .380      .400      .420      .440      .460      .480
      .500      .550      .600      .650      .700      .750      .800      .850
      .900      .950     1.000     1.100     1.200     1.300     1.400     1.500
     1.600     1.700     1.800     1.900     2.000     2.200     2.400     2.600
     2.800     3.000     3.200     3.400     3.600     3.800     4.000     4.200
     4.400     4.600     4.800     5.000     5.500     6.000      .000      .000
      .000      .000      .000      .000      .000      .000      .000      .000
      .000      .000      .000      .000      .000      .000      .000      .000
      .000      .000      .000      .000
Fourier amplitude spectra in in/sec.
  .000E+00  .000E+00  .000E+00  .000E+00  .000E+00  .000E+00  .000E+00  .000E+00
  .000E+00  .000E+00  .000E+00  .000E+00  .000E+00  .000E+00  .000E+00  .000E+00
  .000E+00  .000E+00  .000E+00  .000E+00  .000E+00  .000E+00  .000E+00  .000E+00
  .000E+00  .000E+00  .000E+00  .000E+00  .000E+00  .000E+00  .000E+00  .000E+00
  .000E+00  .000E+00  .000E+00  .000E+00  .000E+00  .000E+00  .000E+00  .000E+00
  .000E+00  .000E+00  .000E+00  .000E+00  .000E+00  .000E+00  .000E+00  .000E+00
  .000E+00  .000E+00  .000E+00  .000E+00  .000E+00  .000E+00  .000E+00  .000E+00
  .000E+00  .000E+00  .000E+00  .000E+00  .000E+00  .000E+00  .000E+00  .000E+00
  .000E+00  .000E+00  .000E+00  .000E+00  .000E+00  .000E+00  .000E+00  .000E+00
  .000E+00  .000E+00  .000E+00  .000E+00  .000E+00  .000E+00  .000E+00  .000E+00
  .000E+00  .000E+00  .000E+00  .000E+00  .000E+00  .000E+00  .000E+00  .000E+00
  .000E+00  .000E+00  .000E+00  .000E+00  .000E+00  .000E+00  .000E+00  .000E+00
  .000E+00  .000E+00  .000E+00  .000E+00
Damping =  .05. Data of Sd,Sv,Sa,Pssv,ttSd,ttSv,ttSa :
  .415E-03  .500E-03  .620E-03  .714E-03  .831E-03  .989E-03  .157E-02  .175E-02
  .214E-02  .261E-02  .296E-02  .342E-02  .380E-02  .496E-02  .457E-02  .511E-02
  .712E-02  .890E-02  .767E-02  .120E-01  .153E-01  .158E-01  .155E-01  .151E-01
  .150E-01  .157E-01  .132E-01  .138E-01  .158E-01  .173E-01  .246E-01  .269E-01
  .262E-01  .257E-01  .241E-01  .239E-01  .249E-01  .265E-01  .309E-01  .293E-01
