Response and Fourier amplitude spectra (78 periods,  .04 -  6.0 sec)   for      
Corrected accelerogram   38695658.CI.ADO.--.HN      Chan  1:  85 Deg     from   
Uncorrected Accelerogram Data             Processed: 09/19/20, CGS  ciado--r    
Rcrd of Fri Sep 18, 2020 23:38:37.0 PDT               (Avol1 v2.0, 4/18 CSMIP)  
                                        (Origin:  To be determined)             
38695658.CI.ADO.--.HN                Start time:  9/19/20, 06:38:37.0 UTC (GPS) 
Station Id. ADO     34.550N, 117.434W    ObsMMS  s/n 4175  (3 Chns of  6 at Sta)
Adelanto, on Hwy 395                     SCSN   Data: Acceleration              
Chan  1:  85 Deg                                                                
Rcrd of Fri Sep 18, 2020 23:38:37.0 PDT    Fri Sep 18, 2020 23:38:37.0 PDT      
Hypocenter:  To be determined.               ML:  To be determined.             
Instr Period =  .0050 sec,  Damping =  .707,  Sensitivity = 5.00 v/g  (Nominal) 
                        Record Length =301.000 sec.                             
                                     Uncor Max  =  -.004 g, at   35.140 sec.    
RMS accel of (uncor) record  =        .   Chn. metadata effective date:         
Accelerogram bandpass filtered with 3 dB pts at   .30 and 23.00 cyc/sec         
                 instrument- and base-line correcte                             
                                                                                
                                                                                
                                                                                
                                                                                
                                                                                
Rcrd of Fri Sep 18, 2020 23:38:37.0 PDT    Fri Sep 18, 2020 23:38:37.0 PDT      
                                                                                
38695658.CI.ADO.--.HN     Adelanto, on Hwy 395    Chan  1:  85 Deg              
                                                                                
38695658.CI.ADO.--.HN     Adelanto, on Hwy 395    Chan  1:  85 Deg              
                                                                                
Units for spectra are inches and sec, except Sa is in fraction of g.            
                                                                                
    1  100    1    6    6  100 -999    3    1    0   15 4175    050586   41    0
    6   38   37    8  263    9   19 2020   10    3   8535600   39   20   74 -999
35600 -999  100    6 -999 -999 -999 -999 -999 -999 -999 -999 -999 -999 -999 -999
 -999 -999 -999 -99915050    2 -999    0 -999   20 -999 -999    3    1 -99915050
    315050    4   78    1    3    5    0    0 -999    0 -999 -999    6 -999    2
    2    2    4 -999 -999 -999 -999 -999 -999 -999 -999    1 -999 -999 -999  111
    1    1 -999 -999
      .005      .707   356.000      .000     1.000  4996.058     -.004    35.140
   200.000     2.384      .477  -999.000    10.000  -999.000     4.000  -999.000
    20.000    -4.237      .000  -999.000  -999.000  -999.000  -999.000     -.001
      .001      .002     2.000    15.000    34.550  -117.434      .010      .009
      .897      .000      .004   908.000  -999.000  -999.000  -999.000  -999.000
     1.000  -999.000    -8.000  -999.000  -999.000  -999.000  -999.000   120.000
     -.900     2.000     6.800   980.665      .020   301.000    31.831      .000
  -999.000    23.000  -999.000   301.000      .020      .300  -999.000  -999.000
    35.140    -3.746    34.740     -.119    41.020      .013      .000      .300
    23.000      .020      .020      .000      .020      .010  -999.000  -999.000
      .015      .110      .010      .009      .001      .000  -999.000  -999.000
  -999.000  -999.000  -999.000  -999.000  -999.000  -999.000  -999.000  -999.000
  -999.000  -999.000  -999.000  -999.000
      .050
      .040      .042      .044      .046      .048      .050      .055      .060
      .065      .070      .075      .080      .085      .090      .095      .100
      .110      .120      .130      .140      .150      .160      .170      .180
      .190      .200      .220      .240      .260      .280      .300      .320
      .340      .360      .380      .400      .420      .440      .460      .480
      .500      .550      .600      .650      .700      .750      .800      .850
      .900      .950     1.000     1.100     1.200     1.300     1.400     1.500
     1.600     1.700     1.800     1.900     2.000     2.200     2.400     2.600
     2.800     3.000     3.200     3.400     3.600     3.800     4.000     4.200
     4.400     4.600     4.800     5.000     5.500     6.000      .000      .000
      .000      .000      .000      .000      .000      .000      .000      .000
      .000      .000      .000      .000      .000      .000      .000      .000
      .000      .000      .000      .000
Fourier amplitude spectra in in/sec.
  .000E+00  .000E+00  .000E+00  .000E+00  .000E+00  .000E+00  .000E+00  .000E+00
  .000E+00  .000E+00  .000E+00  .000E+00  .000E+00  .000E+00  .000E+00  .000E+00
  .000E+00  .000E+00  .000E+00  .000E+00  .000E+00  .000E+00  .000E+00  .000E+00
  .000E+00  .000E+00  .000E+00  .000E+00  .000E+00  .000E+00  .000E+00  .000E+00
  .000E+00  .000E+00  .000E+00  .000E+00  .000E+00  .000E+00  .000E+00  .000E+00
  .000E+00  .000E+00  .000E+00  .000E+00  .000E+00  .000E+00  .000E+00  .000E+00
  .000E+00  .000E+00  .000E+00  .000E+00  .000E+00  .000E+00  .000E+00  .000E+00
  .000E+00  .000E+00  .000E+00  .000E+00  .000E+00  .000E+00  .000E+00  .000E+00
  .000E+00  .000E+00  .000E+00  .000E+00  .000E+00  .000E+00  .000E+00  .000E+00
  .000E+00  .000E+00  .000E+00  .000E+00  .000E+00  .000E+00  .000E+00  .000E+00
  .000E+00  .000E+00  .000E+00  .000E+00  .000E+00  .000E+00  .000E+00  .000E+00
  .000E+00  .000E+00  .000E+00  .000E+00  .000E+00  .000E+00  .000E+00  .000E+00
  .000E+00  .000E+00  .000E+00  .000E+00
Damping =  .05. Data of Sd,Sv,Sa,Pssv,ttSd,ttSv,ttSa :
  .665E-04  .754E-04  .858E-04  .947E-04  .105E-03  .113E-03  .158E-03  .206E-03
  .320E-03  .392E-03  .569E-03  .797E-03  .828E-03  .781E-03  .935E-03  .113E-02
  .170E-02  .145E-02  .167E-02  .193E-02  .221E-02  .246E-02  .245E-02  .269E-02
  .313E-02  .377E-02  .601E-02  .659E-02  .526E-02  .622E-02  .831E-02  .826E-02
  .714E-02  .835E-02  .874E-02  .825E-02  .104E-01  .120E-01  .113E-01  .880E-02
  .774E-02  .770E-02  .861E-02  .811E-02  .764E-02  .637E-02  .630E-02  .723E-02
  .853E-02  .968E-02  .120E-01  .135E-01  .145E-01  .144E-01  .120E-01  .131E-01
  .150E-01  .175E-01  .180E-01  .175E-01  .177E-01  .153E-01  .112E-01  .918E-02
  .768E-02  .732E-02  .725E-02  .690E-02  .634E-02  .634E-02  .614E-02  .584E-02
  .556E-02  .543E-02  .550E-02  .554E-02  .553E-02  .553E-02  .000E+00  .000E+00
  .000E+00  .000E+00  .000E+00  .000E+00  .000E+00  .000E+00  .000E+00  .000E+00
  .000E+00  .000E+00  .000E+00  .000E+00  .000E+00  .000E+00  .000E+00  .000E+00
  .000E+00  .000E+00  .000E+00  .000E+00
  .367E-02  .404E-02  .463E-02  .519E-02  .614E-02  .683E-02  .925E-02  .151E-01
  .265E-01  .264E-01  .392E-01  .578E-01  .580E-01  .492E-01  .553E-01  .665E-01
  .844E-01  .736E-01  .762E-01  .878E-01  .819E-01  .874E-01  .808E-01  .820E-01
  .883E-01  .106E+00  .165E+00  .169E+00  .126E+00  .129E+00  .163E+00  .168E+00
  .142E+00  .154E+00  .161E+00  .152E+00  .156E+00  .184E+00  .159E+00  .127E+00
  .110E+00  .105E+00  .111E+00  .940E-01  .726E-01  .755E-01  .688E-01  .728E-01
  .848E-01  .924E-01  .975E-01  .111E+00  .110E+00  .815E-01  .698E-01  .667E-01
  .670E-01  .698E-01  .713E-01  .680E-01  .661E-01  .607E-01  .559E-01  .525E-01
  .512E-01  .491E-01  .480E-01  .479E-01  .481E-01  .482E-01  .480E-01  .476E-01
  .471E-01  .467E-01  .464E-01  .461E-01  .457E-01  .454E-01  .000E+00  .000E+00
  .000E+00  .000E+00  .000E+00  .000E+00  .000E+00  .000E+00  .000E+00  .000E+00
  .000E+00  .000E+00  .000E+00  .000E+00  .000E+00  .000E+00  .000E+00  .000E+00
  .000E+00  .000E+00  .000E+00  .000E+00
  .426E-02  .438E-02  .456E-02  .460E-02  .466E-02  .463E-02  .533E-02  .590E-02
  .776E-02  .830E-02  .104E-01  .130E-01  .120E-01  .100E-01  .105E-01  .117E-01
  .146E-01  .104E-01  .102E-01  .103E-01  .999E-02  .980E-02  .880E-02  .843E-02
  .891E-02  .976E-02  .128E-01  .120E-01  .800E-02  .826E-02  .940E-02  .822E-02
  .631E-02  .664E-02  .616E-02  .531E-02  .611E-02  .641E-02  .548E-02  .396E-02
  .316E-02  .260E-02  .247E-02  .198E-02  .162E-02  .118E-02  .101E-02  .103E-02
  .109E-02  .111E-02  .125E-02  .115E-02  .103E-02  .884E-03  .643E-03  .600E-03
  .605E-03  .623E-03  .571E-03  .500E-03  .457E-03  .329E-03  .205E-03  .145E-03
  .106E-03  .892E-04  .782E-04  .666E-04  .554E-04  .499E-04  .442E-04  .387E-04
  .342E-04  .316E-04  .297E-04  .279E-04  .237E-04  .205E-04  .000E+00  .000E+00
  .000E+00  .000E+00  .000E+00  .000E+00  .000E+00  .000E+00  .000E+00  .000E+00
  .000E+00  .000E+00  .000E+00  .000E+00  .000E+00  .000E+00  .000E+00  .000E+00
  .000E+00  .000E+00  .000E+00  .000E+00
  .104E-01  .113E-01  .123E-01  .129E-01  .138E-01  .142E-01  .180E-01  .216E-01
  .310E-01  .351E-01  .477E-01  .626E-01  .612E-01  .545E-01  .619E-01  .713E-01
  .971E-01  .760E-01  .808E-01  .867E-01  .926E-01  .967E-01  .905E-01  .939E-01
  .104E+00  .119E+00  .172E+00  .173E+00  .127E+00  .140E+00  .174E+00  .162E+00
  .132E+00  .146E+00  .145E+00  .130E+00  .156E+00  .171E+00  .154E+00  .115E+00
  .973E-01  .880E-01  .902E-01  .784E-01  .685E-01  .534E-01  .495E-01  .535E-01
  .596E-01  .640E-01  .756E-01  .771E-01  .757E-01  .696E-01  .541E-01  .550E-01
  .590E-01  .646E-01  .628E-01  .580E-01  .558E-01  .437E-01  .293E-01  .222E-01
  .172E-01  .153E-01  .142E-01  .127E-01  .111E-01  .105E-01  .965E-02  .873E-02
  .794E-02  .742E-02  .720E-02  .696E-02  .632E-02  .579E-02  .000E+00  .000E+00
  .000E+00  .000E+00  .000E+00  .000E+00  .000E+00  .000E+00  .000E+00  .000E+00
  .000E+00  .000E+00  .000E+00  .000E+00  .000E+00  .000E+00  .000E+00  .000E+00
  .000E+00  .000E+00  .000E+00  .000E+00
  .354E+02  .354E+02  .354E+02  .354E+02  .354E+02  .351E+02  .354E+02  .354E+02
  .362E+02  .373E+02  .364E+02  .365E+02  .374E+02  .366E+02  .374E+02  .374E+02
  .378E+02  .378E+02  .370E+02  .370E+02  .353E+02  .353E+02  .353E+02  .353E+02
  .353E+02  .354E+02  .354E+02  .354E+02  .356E+02  .386E+02  .387E+02  .387E+02
  .356E+02  .355E+02  .355E+02  .355E+02  .411E+02  .405E+02  .405E+02  .406E+02
  .390E+02  .390E+02  .388E+02  .374E+02  .378E+02  .379E+02  .471E+02  .496E+02
  .471E+02  .386E+02  .386E+02  .387E+02  .412E+02  .384E+02  .384E+02  .567E+02
  .439E+02  .432E+02  .433E+02  .434E+02  .427E+02  .428E+02  .410E+02  .410E+02
  .410E+02  .410E+02  .410E+02  .410E+02  .404E+02  .404E+02  .404E+02  .404E+02
  .404E+02  .410E+02  .410E+02  .410E+02  .410E+02  .410E+02  .000E+00  .000E+00
  .000E+00  .000E+00  .000E+00  .000E+00  .000E+00  .000E+00  .000E+00  .000E+00
  .000E+00  .000E+00  .000E+00  .000E+00  .000E+00  .000E+00  .000E+00  .000E+00
  .000E+00  .000E+00  .000E+00  .000E+00
  .373E+02  .373E+02  .373E+02  .373E+02  .373E+02  .373E+02  .361E+02  .361E+02
  .362E+02  .373E+02  .364E+02  .365E+02  .366E+02  .366E+02  .374E+02  .374E+02
  .377E+02  .374E+02  .370E+02  .370E+02  .374E+02  .353E+02  .353E+02  .353E+02
  .353E+02  .354E+02  .355E+02  .354E+02  .354E+02  .386E+02  .388E+02  .388E+02
  .355E+02  .356E+02  .354E+02  .354E+02  .410E+02  .406E+02  .406E+02  .398E+02
  .398E+02  .389E+02  .387E+02  .385E+02  .373E+02  .378E+02  .378E+02  .378E+02
  .378E+02  .378E+02  .378E+02  .385E+02  .385E+02  .385E+02  .376E+02  .377E+02
  .435E+02  .411E+02  .429E+02  .430E+02  .411E+02  .405E+02  .405E+02  .398E+02
  .398E+02  .398E+02  .398E+02  .398E+02  .398E+02  .398E+02  .398E+02  .398E+02
  .398E+02  .398E+02  .398E+02  .398E+02  .398E+02  .398E+02  .000E+00  .000E+00
  .000E+00  .000E+00  .000E+00  .000E+00  .000E+00  .000E+00  .000E+00  .000E+00
  .000E+00  .000E+00  .000E+00  .000E+00  .000E+00  .000E+00  .000E+00  .000E+00
  .000E+00  .000E+00  .000E+00  .000E+00
  .354E+02  .354E+02  .354E+02  .354E+02  .354E+02  .351E+02  .354E+02  .354E+02
  .362E+02  .373E+02  .364E+02  .365E+02  .374E+02  .366E+02  .374E+02  .374E+02
  .378E+02  .378E+02  .370E+02  .370E+02  .352E+02  .353E+02  .353E+02  .353E+02
  .353E+02  .353E+02  .354E+02  .354E+02  .356E+02  .386E+02  .387E+02  .387E+02
  .354E+02  .355E+02  .355E+02  .353E+02  .411E+02  .405E+02  .405E+02  .406E+02
  .390E+02  .390E+02  .388E+02  .374E+02  .378E+02  .379E+02  .470E+02  .496E+02
  .471E+02  .386E+02  .386E+02  .386E+02  .412E+02  .384E+02  .384E+02  .567E+02
  .439E+02  .432E+02  .433E+02  .434E+02  .427E+02  .427E+02  .409E+02  .409E+02
  .409E+02  .409E+02  .409E+02  .409E+02  .409E+02  .403E+02  .403E+02  .403E+02
  .403E+02  .409E+02  .409E+02  .409E+02  .409E+02  .409E+02  .000E+00  .000E+00
  .000E+00  .000E+00  .000E+00  .000E+00  .000E+00  .000E+00  .000E+00  .000E+00
  .000E+00  .000E+00  .000E+00  .000E+00  .000E+00  .000E+00  .000E+00  .000E+00
  .000E+00  .000E+00  .000E+00  .000E+00
/&   ----------  End of spectral data for channel  1  ----------
Response and Fourier amplitude spectra (78 periods,  .04 -  6.0 sec)   for      
Corrected accelerogram   38695658.CI.ADO.--.HN      Chan  2: 355 Deg     from   
Uncorrected Accelerogram Data             Processed: 09/19/20, CGS  ciado--r    
Rcrd of Fri Sep 18, 2020 23:38:37.0 PDT               (Avol1 v2.0, 4/18 CSMIP)  
                                        (Origin:  To be determined)             
38695658.CI.ADO.--.HN                Start time:  9/19/20, 06:38:37.0 UTC (GPS) 
Station Id. ADO     34.550N, 117.434W    ObsMMS  s/n 4175  (3 Chns of  6 at Sta)
Adelanto, on Hwy 395                     SCSN   Data: Acceleration              
Chan  2: 355 Deg                                                                
Rcrd of Fri Sep 18, 2020 23:38:37.0 PDT    Fri Sep 18, 2020 23:38:37.0 PDT      
Hypocenter:  To be determined.               ML:  To be determined.             
Instr Period =  .0050 sec,  Damping =  .707,  Sensitivity = 5.00 v/g  (Nominal) 
                        Record Length =301.000 sec.                             
                                     Uncor Max  =  -.005 g, at   35.010 sec.    
RMS accel of (uncor) record  =        .   Chn. metadata effective date:         
Accelerogram bandpass filtered with 3 dB pts at   .30 and 23.00 cyc/sec         
                 instrument- and base-line correcte                             
                                                                                
                                                                                
                                                                                
                                                                                
                                                                                
Rcrd of Fri Sep 18, 2020 23:38:37.0 PDT    Fri Sep 18, 2020 23:38:37.0 PDT      
                                                                                
38695658.CI.ADO.--.HN     Adelanto, on Hwy 395    Chan  2: 355 Deg              
                                                                                
38695658.CI.ADO.--.HN     Adelanto, on Hwy 395    Chan  2: 355 Deg              
                                                                                
Units for spectra are inches and sec, except Sa is in fraction of g.            
                                                                                
    2  100    2    6    6  100 -999    3    1    0   15 4175    050586   41    0
    6   38   37    8  263    9   19 2020   10    3  35535455   39   20   74 -999
35455 -999  100    6 -999 -999 -999 -999 -999 -999 -999 -999 -999 -999 -999 -999
 -999 -999 -999 -99915050    2 -999    0 -999   20 -999 -999    3    1 -99915050
    315050    4   78    1    3    5    0    0 -999    0 -999 -999    6 -999    2
    2    2    4 -999 -999 -999 -999 -999 -999 -999 -999    1 -999 -999 -999  111
    1    1 -999 -999
      .005      .707   354.550      .000     1.000  4996.856     -.005    35.010
   200.000     2.384      .477  -999.000    10.000  -999.000     4.000  -999.000
    20.000    -9.598      .000  -999.000  -999.000  -999.000  -999.000      .000
      .000      .000     2.000    15.000    34.550  -117.434      .009      .011
     1.226     -.002      .002   908.000  -999.000  -999.000  -999.000  -999.000
     1.000  -999.000  -999.000  -999.000  -999.000  -999.000  -999.000   120.000
     -.900     2.000     6.800   980.665      .020   301.000    31.831      .000
  -999.000    23.000  -999.000   301.000      .020      .300  -999.000  -999.000
    35.300     4.733    35.340      .165    34.780     -.015      .000      .300
    23.000      .020      .020      .000      .020      .011  -999.000  -999.000
      .016      .160      .014      .007      .001      .000  -999.000  -999.000
  -999.000  -999.000  -999.000  -999.000  -999.000  -999.000  -999.000  -999.000
  -999.000  -999.000  -999.000  -999.000
      .050
      .040      .042      .044      .046      .048      .050      .055      .060
      .065      .070      .075      .080      .085      .090      .095      .100
      .110      .120      .130      .140      .150      .160      .170      .180
      .190      .200      .220      .240      .260      .280      .300      .320
      .340      .360      .380      .400      .420      .440      .460      .480
      .500      .550      .600      .650      .700      .750      .800      .850
      .900      .950     1.000     1.100     1.200     1.300     1.400     1.500
     1.600     1.700     1.800     1.900     2.000     2.200     2.400     2.600
     2.800     3.000     3.200     3.400     3.600     3.800     4.000     4.200
     4.400     4.600     4.800     5.000     5.500     6.000      .000      .000
      .000      .000      .000      .000      .000      .000      .000      .000
      .000      .000      .000      .000      .000      .000      .000      .000
      .000      .000      .000      .000
Fourier amplitude spectra in in/sec.
  .000E+00  .000E+00  .000E+00  .000E+00  .000E+00  .000E+00  .000E+00  .000E+00
  .000E+00  .000E+00  .000E+00  .000E+00  .000E+00  .000E+00  .000E+00  .000E+00
  .000E+00  .000E+00  .000E+00  .000E+00  .000E+00  .000E+00  .000E+00  .000E+00
  .000E+00  .000E+00  .000E+00  .000E+00  .000E+00  .000E+00  .000E+00  .000E+00
  .000E+00  .000E+00  .000E+00  .000E+00  .000E+00  .000E+00  .000E+00  .000E+00
  .000E+00  .000E+00  .000E+00  .000E+00  .000E+00  .000E+00  .000E+00  .000E+00
  .000E+00  .000E+00  .000E+00  .000E+00  .000E+00  .000E+00  .000E+00  .000E+00
  .000E+00  .000E+00  .000E+00  .000E+00  .000E+00  .000E+00  .000E+00  .000E+00
  .000E+00  .000E+00  .000E+00  .000E+00  .000E+00  .000E+00  .000E+00  .000E+00
  .000E+00  .000E+00  .000E+00  .000E+00  .000E+00  .000E+00  .000E+00  .000E+00
  .000E+00  .000E+00  .000E+00  .000E+00  .000E+00  .000E+00  .000E+00  .000E+00
  .000E+00  .000E+00  .000E+00  .000E+00  .000E+00  .000E+00  .000E+00  .000E+00
  .000E+00  .000E+00  .000E+00  .000E+00
Damping =  .05. Data of Sd,Sv,Sa,Pssv,ttSd,ttSv,ttSa :
  .826E-04  .935E-04  .107E-03  .122E-03  .137E-03  .152E-03  .204E-03  .249E-03
  .324E-03  .464E-03  .725E-03  .938E-03  .112E-02  .975E-03  .896E-03  .931E-03
  .139E-02  .153E-02  .195E-02  .249E-02  .335E-02  .398E-02  .410E-02  .442E-02
  .485E-02  .529E-02  .658E-02  .622E-02  .552E-02  .510E-02  .626E-02  .743E-02
  .753E-02  .864E-02  .828E-02  .912E-02  .112E-01  .126E-01  .138E-01  .143E-01
