Response and Fourier amplitude spectra (78 periods,  .04 -  6.0 sec)   for      
Corrected accelerogram   38695658.CI.AGO.--.HN      Chan  1:  90 Deg     from   
Uncorrected Accelerogram Data             Processed: 09/19/20, CGS  ciago--o    
Rcrd of Fri Sep 18, 2020 23:38:33.0 PDT               (Avol1 v2.0, 4/18 CSMIP)  
                                        (Origin:  To be determined)             
38695658.CI.AGO.--.HN                Start time:  9/19/20, 06:38:33.0 UTC (GPS) 
Station Id. AGO     34.146N, 118.767W    ObsMMS  s/n 1859  (3 Chns of  6 at Sta)
Agoura, Hwy 101 E of Kanan Rd.           SCSN   Data: Acceleration              
Chan  1:  90 Deg                                                                
Rcrd of Fri Sep 18, 2020 23:38:33.0 PDT    Fri Sep 18, 2020 23:38:33.0 PDT      
Hypocenter:  To be determined.               ML:  To be determined.             
Instr Period =  .0050 sec,  Damping =  .707,  Sensitivity = 4.97 v/g  (Nominal) 
                        Record Length =301.000 sec.                             
                                     Uncor Max  =   .004 g, at   35.670 sec.    
RMS accel of (uncor) record  =        .   Chn. metadata effective date:         
Accelerogram bandpass filtered with 3 dB pts at   .30 and 23.00 cyc/sec         
                 instrument- and base-line correcte                             
                                                                                
                                                                                
                                                                                
                                                                                
                                                                                
Rcrd of Fri Sep 18, 2020 23:38:33.0 PDT    Fri Sep 18, 2020 23:38:33.0 PDT      
                                                                                
38695658.CI.AGO.--.HN     Agoura, Hwy 101 E of Kanan Rd.    Chan  1:  90 Deg    
                                                                                
38695658.CI.AGO.--.HN     Agoura, Hwy 101 E of Kanan Rd.    Chan  1:  90 Deg    
                                                                                
Units for spectra are inches and sec, except Sa is in fraction of g.            
                                                                                
    1  100    1    6    6  100 -999    3    1    0   15 1859    050588   41    0
    6   38   33    0  263    9   19 2020   10    3   9036027   39   30   74 -999
36027 -999  100    6 -999 -999 -999 -999 -999 -999 -999 -999 -999 -999 -999 -999
 -999 -999 -999 -99915050    2 -999    0 -999   20 -999 -999    3    1 -99915050
    315050    4   78    1    3    5    0    0 -999    0 -999 -999    6 -999    2
    2    2    4 -999 -999 -999 -999 -999 -999 -999 -999    1 -999 -999 -999  111
    1    1 -999 -999
      .005      .707   360.270      .000     1.000  4971.525      .004    35.670
   200.000     2.384      .480  -999.000    10.000  -999.000     4.000  -999.000
    20.000   -10.665      .000  -999.000  -999.000  -999.000  -999.000      .003
     -.004     -.007     2.000    15.000    34.146  -118.767      .010      .010
      .986     -.009     -.005   259.000  -999.000  -999.000  -999.000  -999.000
     1.000  -999.000    -8.000  -999.000  -999.000  -999.000  -999.000   120.000
     -.900     2.000     6.800   980.665      .020   301.000    31.831      .001
  -999.000    23.000  -999.000   301.000      .020      .300  -999.000  -999.000
    35.660     4.244    35.020     -.146    34.960      .011      .000      .300
    23.000      .020      .020      .000      .020      .008  -999.000  -999.000
      .017      .280      .009      .013      .001      .000  -999.000  -999.000
  -999.000  -999.000  -999.000  -999.000  -999.000  -999.000  -999.000  -999.000
  -999.000  -999.000  -999.000  -999.000
      .050
      .040      .042      .044      .046      .048      .050      .055      .060
      .065      .070      .075      .080      .085      .090      .095      .100
      .110      .120      .130      .140      .150      .160      .170      .180
      .190      .200      .220      .240      .260      .280      .300      .320
      .340      .360      .380      .400      .420      .440      .460      .480
      .500      .550      .600      .650      .700      .750      .800      .850
      .900      .950     1.000     1.100     1.200     1.300     1.400     1.500
     1.600     1.700     1.800     1.900     2.000     2.200     2.400     2.600
     2.800     3.000     3.200     3.400     3.600     3.800     4.000     4.200
     4.400     4.600     4.800     5.000     5.500     6.000      .000      .000
      .000      .000      .000      .000      .000      .000      .000      .000
      .000      .000      .000      .000      .000      .000      .000      .000
      .000      .000      .000      .000
Fourier amplitude spectra in in/sec.
  .000E+00  .000E+00  .000E+00  .000E+00  .000E+00  .000E+00  .000E+00  .000E+00
  .000E+00  .000E+00  .000E+00  .000E+00  .000E+00  .000E+00  .000E+00  .000E+00
  .000E+00  .000E+00  .000E+00  .000E+00  .000E+00  .000E+00  .000E+00  .000E+00
  .000E+00  .000E+00  .000E+00  .000E+00  .000E+00  .000E+00  .000E+00  .000E+00
  .000E+00  .000E+00  .000E+00  .000E+00  .000E+00  .000E+00  .000E+00  .000E+00
  .000E+00  .000E+00  .000E+00  .000E+00  .000E+00  .000E+00  .000E+00  .000E+00
  .000E+00  .000E+00  .000E+00  .000E+00  .000E+00  .000E+00  .000E+00  .000E+00
  .000E+00  .000E+00  .000E+00  .000E+00  .000E+00  .000E+00  .000E+00  .000E+00
  .000E+00  .000E+00  .000E+00  .000E+00  .000E+00  .000E+00  .000E+00  .000E+00
  .000E+00  .000E+00  .000E+00  .000E+00  .000E+00  .000E+00  .000E+00  .000E+00
  .000E+00  .000E+00  .000E+00  .000E+00  .000E+00  .000E+00  .000E+00  .000E+00
  .000E+00  .000E+00  .000E+00  .000E+00  .000E+00  .000E+00  .000E+00  .000E+00
  .000E+00  .000E+00  .000E+00  .000E+00
Damping =  .05. Data of Sd,Sv,Sa,Pssv,ttSd,ttSv,ttSa :
  .705E-04  .779E-04  .849E-04  .920E-04  .981E-04  .110E-03  .140E-03  .194E-03
  .225E-03  .321E-03  .346E-03  .358E-03  .456E-03  .624E-03  .679E-03  .755E-03
  .108E-02  .144E-02  .205E-02  .276E-02  .326E-02  .327E-02  .282E-02  .257E-02
  .273E-02  .312E-02  .466E-02  .757E-02  .914E-02  .129E-01  .112E-01  .100E-01
  .957E-02  .104E-01  .107E-01  .123E-01  .107E-01  .111E-01  .115E-01  .113E-01
  .118E-01  .116E-01  .969E-02  .911E-02  .113E-01  .951E-02  .997E-02  .100E-01
  .103E-01  .950E-02  .877E-02  .867E-02  .723E-02  .734E-02  .636E-02  .632E-02
  .572E-02  .535E-02  .527E-02  .515E-02  .494E-02  .453E-02  .408E-02  .425E-02
  .443E-02  .443E-02  .437E-02  .427E-02  .421E-02  .421E-02  .420E-02  .424E-02
  .427E-02  .424E-02  .423E-02  .423E-02  .415E-02  .416E-02  .000E+00  .000E+00
  .000E+00  .000E+00  .000E+00  .000E+00  .000E+00  .000E+00  .000E+00  .000E+00
  .000E+00  .000E+00  .000E+00  .000E+00  .000E+00  .000E+00  .000E+00  .000E+00
  .000E+00  .000E+00  .000E+00  .000E+00
  .240E-02  .272E-02  .303E-02  .339E-02  .395E-02  .467E-02  .644E-02  .104E-01
  .125E-01  .150E-01  .159E-01  .219E-01  .254E-01  .298E-01  .394E-01  .396E-01
  .502E-01  .576E-01  .770E-01  .104E+00  .125E+00  .124E+00  .102E+00  .819E-01
  .811E-01  .903E-01  .122E+00  .188E+00  .214E+00  .300E+00  .261E+00  .210E+00
  .199E+00  .201E+00  .182E+00  .212E+00  .169E+00  .157E+00  .168E+00  .161E+00
  .166E+00  .178E+00  .136E+00  .108E+00  .114E+00  .109E+00  .107E+00  .113E+00
  .114E+00  .104E+00  .940E-01  .769E-01  .709E-01  .715E-01  .707E-01  .699E-01
  .679E-01  .651E-01  .631E-01  .641E-01  .646E-01  .631E-01  .621E-01  .610E-01
  .599E-01  .590E-01  .584E-01  .580E-01  .579E-01  .577E-01  .576E-01  .575E-01
  .574E-01  .572E-01  .571E-01  .570E-01  .569E-01  .568E-01  .000E+00  .000E+00
  .000E+00  .000E+00  .000E+00  .000E+00  .000E+00  .000E+00  .000E+00  .000E+00
  .000E+00  .000E+00  .000E+00  .000E+00  .000E+00  .000E+00  .000E+00  .000E+00
  .000E+00  .000E+00  .000E+00  .000E+00
  .450E-02  .452E-02  .449E-02  .446E-02  .435E-02  .451E-02  .471E-02  .548E-02
  .549E-02  .677E-02  .634E-02  .575E-02  .651E-02  .794E-02  .780E-02  .766E-02
  .920E-02  .104E-01  .125E-01  .146E-01  .148E-01  .131E-01  .994E-02  .807E-02
  .775E-02  .811E-02  .969E-02  .136E-01  .137E-01  .172E-01  .128E-01  .102E-01
  .844E-02  .825E-02  .757E-02  .793E-02  .617E-02  .590E-02  .556E-02  .507E-02
  .487E-02  .398E-02  .277E-02  .224E-02  .238E-02  .174E-02  .160E-02  .143E-02
  .132E-02  .109E-02  .918E-03  .754E-03  .525E-03  .451E-03  .336E-03  .290E-03
  .237E-03  .198E-03  .169E-03  .150E-03  .133E-03  .102E-03  .834E-04  .767E-04
  .704E-04  .629E-04  .562E-04  .501E-04  .454E-04  .418E-04  .385E-04  .360E-04
  .338E-04  .315E-04  .295E-04  .278E-04  .240E-04  .212E-04  .000E+00  .000E+00
  .000E+00  .000E+00  .000E+00  .000E+00  .000E+00  .000E+00  .000E+00  .000E+00
  .000E+00  .000E+00  .000E+00  .000E+00  .000E+00  .000E+00  .000E+00  .000E+00
  .000E+00  .000E+00  .000E+00  .000E+00
  .111E-01  .116E-01  .121E-01  .126E-01  .128E-01  .138E-01  .159E-01  .203E-01
  .218E-01  .288E-01  .290E-01  .281E-01  .337E-01  .435E-01  .449E-01  .475E-01
  .618E-01  .756E-01  .992E-01  .124E+00  .137E+00  .128E+00  .104E+00  .896E-01
  .902E-01  .981E-01  .133E+00  .198E+00  .221E+00  .289E+00  .234E+00  .197E+00
  .177E+00  .182E+00  .176E+00  .193E+00  .160E+00  .158E+00  .157E+00  .148E+00
  .148E+00  .133E+00  .102E+00  .881E-01  .102E+00  .797E-01  .783E-01  .740E-01
  .721E-01  .628E-01  .551E-01  .495E-01  .379E-01  .355E-01  .285E-01  .265E-01
  .225E-01  .198E-01  .184E-01  .170E-01  .155E-01  .129E-01  .107E-01  .103E-01
  .995E-02  .928E-02  .858E-02  .789E-02  .734E-02  .696E-02  .659E-02  .634E-02
  .610E-02  .580E-02  .553E-02  .531E-02  .474E-02  .435E-02  .000E+00  .000E+00
  .000E+00  .000E+00  .000E+00  .000E+00  .000E+00  .000E+00  .000E+00  .000E+00
  .000E+00  .000E+00  .000E+00  .000E+00  .000E+00  .000E+00  .000E+00  .000E+00
  .000E+00  .000E+00  .000E+00  .000E+00
  .357E+02  .357E+02  .357E+02  .357E+02  .357E+02  .349E+02  .350E+02  .353E+02
  .356E+02  .357E+02  .357E+02  .375E+02  .357E+02  .357E+02  .347E+02  .348E+02
  .349E+02  .350E+02  .350E+02  .350E+02  .350E+02  .350E+02  .351E+02  .351E+02
  .351E+02  .351E+02  .355E+02  .358E+02  .360E+02  .358E+02  .359E+02  .353E+02
  .354E+02  .352E+02  .352E+02  .379E+02  .379E+02  .379E+02  .379E+02  .346E+02
  .346E+02  .353E+02  .356E+02  .338E+02  .458E+02  .351E+02  .351E+02  .351E+02
  .424E+02  .424E+02  .349E+02  .349E+02  .399E+02  .425E+02  .421E+02  .422E+02
  .373E+02  .374E+02  .422E+02  .416E+02  .351E+02  .395E+02  .343E+02  .349E+02
  .349E+02  .349E+02  .349E+02  .349E+02  .349E+02  .349E+02  .349E+02  .349E+02
  .349E+02  .349E+02  .349E+02  .349E+02  .349E+02  .349E+02  .000E+00  .000E+00
  .000E+00  .000E+00  .000E+00  .000E+00  .000E+00  .000E+00  .000E+00  .000E+00
  .000E+00  .000E+00  .000E+00  .000E+00  .000E+00  .000E+00  .000E+00  .000E+00
  .000E+00  .000E+00  .000E+00  .000E+00
  .356E+02  .356E+02  .356E+02  .356E+02  .356E+02  .350E+02  .350E+02  .353E+02
  .353E+02  .362E+02  .347E+02  .375E+02  .347E+02  .362E+02  .362E+02  .348E+02
  .349E+02  .349E+02  .349E+02  .350E+02  .350E+02  .350E+02  .350E+02  .351E+02
  .351E+02  .351E+02  .355E+02  .360E+02  .360E+02  .359E+02  .357E+02  .353E+02
  .353E+02  .353E+02  .353E+02  .379E+02  .358E+02  .347E+02  .347E+02  .378E+02
  .378E+02  .357E+02  .352E+02  .339E+02  .352E+02  .352E+02  .350E+02  .350E+02
  .350E+02  .350E+02  .350E+02  .357E+02  .344E+02  .344E+02  .344E+02  .344E+02
  .344E+02  .344E+02  .344E+02  .357E+02  .357E+02  .357E+02  .350E+02  .350E+02
  .350E+02  .350E+02  .350E+02  .350E+02  .350E+02  .350E+02  .350E+02  .350E+02
  .350E+02  .350E+02  .350E+02  .350E+02  .350E+02  .350E+02  .000E+00  .000E+00
  .000E+00  .000E+00  .000E+00  .000E+00  .000E+00  .000E+00  .000E+00  .000E+00
  .000E+00  .000E+00  .000E+00  .000E+00  .000E+00  .000E+00  .000E+00  .000E+00
  .000E+00  .000E+00  .000E+00  .000E+00
  .357E+02  .357E+02  .357E+02  .357E+02  .357E+02  .349E+02  .350E+02  .353E+02
  .356E+02  .357E+02  .357E+02  .375E+02  .357E+02  .357E+02  .347E+02  .348E+02
  .349E+02  .350E+02  .350E+02  .350E+02  .350E+02  .350E+02  .351E+02  .351E+02
  .351E+02  .351E+02  .355E+02  .358E+02  .360E+02  .358E+02  .359E+02  .353E+02
  .354E+02  .352E+02  .352E+02  .378E+02  .379E+02  .379E+02  .379E+02  .346E+02
  .346E+02  .353E+02  .356E+02  .338E+02  .458E+02  .351E+02  .351E+02  .351E+02
  .424E+02  .424E+02  .349E+02  .349E+02  .349E+02  .424E+02  .421E+02  .422E+02
  .373E+02  .373E+02  .422E+02  .416E+02  .351E+02  .351E+02  .356E+02  .349E+02
  .349E+02  .349E+02  .349E+02  .349E+02  .349E+02  .349E+02  .349E+02  .349E+02
  .349E+02  .349E+02  .349E+02  .349E+02  .349E+02  .349E+02  .000E+00  .000E+00
  .000E+00  .000E+00  .000E+00  .000E+00  .000E+00  .000E+00  .000E+00  .000E+00
  .000E+00  .000E+00  .000E+00  .000E+00  .000E+00  .000E+00  .000E+00  .000E+00
  .000E+00  .000E+00  .000E+00  .000E+00
/&   ----------  End of spectral data for channel  1  ----------
Response and Fourier amplitude spectra (78 periods,  .04 -  6.0 sec)   for      
Corrected accelerogram   38695658.CI.AGO.--.HN      Chan  2: 360 Deg     from   
Uncorrected Accelerogram Data             Processed: 09/19/20, CGS  ciago--o    
Rcrd of Fri Sep 18, 2020 23:38:33.0 PDT               (Avol1 v2.0, 4/18 CSMIP)  
                                        (Origin:  To be determined)             
38695658.CI.AGO.--.HN                Start time:  9/19/20, 06:38:33.0 UTC (GPS) 
Station Id. AGO     34.146N, 118.767W    ObsMMS  s/n 1859  (3 Chns of  6 at Sta)
Agoura, Hwy 101 E of Kanan Rd.           SCSN   Data: Acceleration              
Chan  2: 360 Deg                                                                
Rcrd of Fri Sep 18, 2020 23:38:33.0 PDT    Fri Sep 18, 2020 23:38:33.0 PDT      
Hypocenter:  To be determined.               ML:  To be determined.             
Instr Period =  .0050 sec,  Damping =  .707,  Sensitivity = 4.99 v/g  (Nominal) 
                        Record Length =301.000 sec.                             
                                     Uncor Max  =   .003 g, at   35.150 sec.    
RMS accel of (uncor) record  =        .   Chn. metadata effective date:         
Accelerogram bandpass filtered with 3 dB pts at   .30 and 23.00 cyc/sec         
                 instrument- and base-line correcte                             
                                                                                
                                                                                
                                                                                
                                                                                
                                                                                
Rcrd of Fri Sep 18, 2020 23:38:33.0 PDT    Fri Sep 18, 2020 23:38:33.0 PDT      
                                                                                
38695658.CI.AGO.--.HN     Agoura, Hwy 101 E of Kanan Rd.    Chan  2: 360 Deg    
                                                                                
38695658.CI.AGO.--.HN     Agoura, Hwy 101 E of Kanan Rd.    Chan  2: 360 Deg    
                                                                                
Units for spectra are inches and sec, except Sa is in fraction of g.            
                                                                                
    2  100    2    6    6  100 -999    3    1    0   15 1859    050588   41    0
    6   38   33    0  263    9   19 2020   10    3  36035737   39   30   74 -999
35737 -999  100    6 -999 -999 -999 -999 -999 -999 -999 -999 -999 -999 -999 -999
 -999 -999 -999 -99915050    2 -999    0 -999   20 -999 -999    3    1 -99915050
    315050    4   78    1    3    5    0    0 -999    0 -999 -999    6 -999    2
    2    2    4 -999 -999 -999 -999 -999 -999 -999 -999    1 -999 -999 -999  111
    1    1 -999 -999
      .005      .707   357.370      .000     1.000  4986.484      .003    35.150
   200.000     2.384      .478  -999.000    10.000  -999.000     4.000  -999.000
    20.000    -8.160      .000  -999.000  -999.000  -999.000  -999.000     -.001
      .001      .002     2.000    15.000    34.146  -118.767      .017      .019
     1.066     -.002      .005   259.000  -999.000  -999.000  -999.000  -999.000
     1.000  -999.000  -999.000  -999.000  -999.000  -999.000  -999.000   120.000
     -.900     2.000     6.800   980.665      .020   301.000    31.831      .000
  -999.000    23.000  -999.000   301.000      .020      .300  -999.000  -999.000
    35.160     3.163    35.260      .155    35.140     -.015      .000      .300
    23.000      .020      .020      .000      .020      .008  -999.000  -999.000
      .013      .120      .007      .007      .001      .000  -999.000  -999.000
  -999.000  -999.000  -999.000  -999.000  -999.000  -999.000  -999.000  -999.000
  -999.000  -999.000  -999.000  -999.000
      .050
      .040      .042      .044      .046      .048      .050      .055      .060
      .065      .070      .075      .080      .085      .090      .095      .100
      .110      .120      .130      .140      .150      .160      .170      .180
      .190      .200      .220      .240      .260      .280      .300      .320
      .340      .360      .380      .400      .420      .440      .460      .480
      .500      .550      .600      .650      .700      .750      .800      .850
      .900      .950     1.000     1.100     1.200     1.300     1.400     1.500
     1.600     1.700     1.800     1.900     2.000     2.200     2.400     2.600
     2.800     3.000     3.200     3.400     3.600     3.800     4.000     4.200
     4.400     4.600     4.800     5.000     5.500     6.000      .000      .000
      .000      .000      .000      .000      .000      .000      .000      .000
      .000      .000      .000      .000      .000      .000      .000      .000
      .000      .000      .000      .000
Fourier amplitude spectra in in/sec.
  .000E+00  .000E+00  .000E+00  .000E+00  .000E+00  .000E+00  .000E+00  .000E+00
  .000E+00  .000E+00  .000E+00  .000E+00  .000E+00  .000E+00  .000E+00  .000E+00
  .000E+00  .000E+00  .000E+00  .000E+00  .000E+00  .000E+00  .000E+00  .000E+00
  .000E+00  .000E+00  .000E+00  .000E+00  .000E+00  .000E+00  .000E+00  .000E+00
  .000E+00  .000E+00  .000E+00  .000E+00  .000E+00  .000E+00  .000E+00  .000E+00
  .000E+00  .000E+00  .000E+00  .000E+00  .000E+00  .000E+00  .000E+00  .000E+00
  .000E+00  .000E+00  .000E+00  .000E+00  .000E+00  .000E+00  .000E+00  .000E+00
  .000E+00  .000E+00  .000E+00  .000E+00  .000E+00  .000E+00  .000E+00  .000E+00
  .000E+00  .000E+00  .000E+00  .000E+00  .000E+00  .000E+00  .000E+00  .000E+00
  .000E+00  .000E+00  .000E+00  .000E+00  .000E+00  .000E+00  .000E+00  .000E+00
  .000E+00  .000E+00  .000E+00  .000E+00  .000E+00  .000E+00  .000E+00  .000E+00
  .000E+00  .000E+00  .000E+00  .000E+00  .000E+00  .000E+00  .000E+00  .000E+00
  .000E+00  .000E+00  .000E+00  .000E+00
Damping =  .05. Data of Sd,Sv,Sa,Pssv,ttSd,ttSv,ttSa :
  .529E-04  .587E-04  .654E-04  .722E-04  .806E-04  .904E-04  .115E-03  .159E-03
  .201E-03  .267E-03  .375E-03  .398E-03  .474E-03  .576E-03  .773E-03  .833E-03
  .140E-02  .176E-02  .173E-02  .197E-02  .201E-02  .221E-02  .187E-02  .187E-02
  .209E-02  .257E-02  .390E-02  .572E-02  .492E-02  .615E-02  .611E-02  .672E-02
  .772E-02  .798E-02  .768E-02  .770E-02  .948E-02  .113E-01  .141E-01  .165E-01
