Response and Fourier amplitude spectra (78 periods,  .04 -  6.0 sec)   for      
Corrected accelerogram   38695658.CI.ALP.--.HN      Chan  1:  76 Deg     from   
Uncorrected Accelerogram Data             Processed: 09/19/20, CGS  cialp--z    
Rcrd of Fri Sep 18, 2020 23:38:35.0 PDT               (Avol1 v2.0, 4/18 CSMIP)  
                                        (Origin:  To be determined)             
38695658.CI.ALP.--.HN                Start time:  9/19/20, 06:38:35.0 UTC (GPS) 
Station Id. ALP     34.687N, 118.299W    Q330    s/n 3935  (3 Chns of  3 at Sta)
Lancaster, West Ave J and 90th           SCSN   Data: Acceleration              
Chan  1:  76 Deg                                                                
Rcrd of Fri Sep 18, 2020 23:38:35.0 PDT    Fri Sep 18, 2020 23:38:35.0 PDT      
Hypocenter:  To be determined.               ML:  To be determined.             
Instr Period =  .0050 sec,  Damping =  .707,  Sensitivity = 4.99 v/g  (Nominal) 
                        Record Length =301.000 sec.                             
                                     Uncor Max  =   .002 g, at   35.730 sec.    
RMS accel of (uncor) record  =        .   Chn. metadata effective date:         
Accelerogram bandpass filtered with 3 dB pts at   .30 and 23.00 cyc/sec         
                 instrument- and base-line correcte                             
                                                                                
                                                                                
                                                                                
                                                                                
                                                                                
Rcrd of Fri Sep 18, 2020 23:38:35.0 PDT    Fri Sep 18, 2020 23:38:35.0 PDT      
                                                                                
38695658.CI.ALP.--.HN     Lancaster, West Ave J and 90th    Chan  1:  76 Deg    
                                                                                
38695658.CI.ALP.--.HN     Lancaster, West Ave J and 90th    Chan  1:  76 Deg    
                                                                                
Units for spectra are inches and sec, except Sa is in fraction of g.            
                                                                                
    1  100    1    3    3  100 -999    3    1    0  605 3935    050529   41    0
    6   38   35    8  263    9   19 2020   10    3   7635571   39   30   74 -999
35571 -999  100    6 -999 -999 -999 -999 -999 -999 -999 -999 -999 -999 -999 -999
 -999 -999 -999 -99915050    2 -999    0 -999   20 -999 -999    3    1 -99915050
    315050    4   78    1    3    5    0    0 -999    0 -999 -999    6 -999    2
    2    2    4 -999 -999 -999 -999 -999 -999 -999 -999    1 -999 -999 -999  111
    1    1 -999 -999
      .005      .707   355.710      .000     1.000  4985.686      .002    35.730
   200.000     2.384      .478  -999.000    10.000  -999.000     4.000  -999.000
    20.000     8.207      .000  -999.000  -999.000  -999.000  -999.000     -.001
      .000      .001     2.000    15.000    34.687  -118.299      .002      .002
      .912      .001      .001   753.000  -999.000  -999.000  -999.000  -999.000
     1.000  -999.000    -8.000  -999.000  -999.000  -999.000  -999.000   120.000
     -.900     2.000     6.800   980.665      .020   301.000    31.831      .000
  -999.000    23.000  -999.000   301.000      .020      .300  -999.000  -999.000
    35.740     2.224    36.080      .077    42.400      .008      .000      .300
    23.000      .020      .020      .000      .020      .006  -999.000  -999.000
      .006      .080      .004      .005      .001      .000  -999.000  -999.000
  -999.000  -999.000  -999.000  -999.000  -999.000  -999.000  -999.000  -999.000
  -999.000  -999.000  -999.000  -999.000
      .050
      .040      .042      .044      .046      .048      .050      .055      .060
      .065      .070      .075      .080      .085      .090      .095      .100
      .110      .120      .130      .140      .150      .160      .170      .180
      .190      .200      .220      .240      .260      .280      .300      .320
      .340      .360      .380      .400      .420      .440      .460      .480
      .500      .550      .600      .650      .700      .750      .800      .850
      .900      .950     1.000     1.100     1.200     1.300     1.400     1.500
     1.600     1.700     1.800     1.900     2.000     2.200     2.400     2.600
     2.800     3.000     3.200     3.400     3.600     3.800     4.000     4.200
     4.400     4.600     4.800     5.000     5.500     6.000      .000      .000
      .000      .000      .000      .000      .000      .000      .000      .000
      .000      .000      .000      .000      .000      .000      .000      .000
      .000      .000      .000      .000
Fourier amplitude spectra in in/sec.
  .000E+00  .000E+00  .000E+00  .000E+00  .000E+00  .000E+00  .000E+00  .000E+00
  .000E+00  .000E+00  .000E+00  .000E+00  .000E+00  .000E+00  .000E+00  .000E+00
  .000E+00  .000E+00  .000E+00  .000E+00  .000E+00  .000E+00  .000E+00  .000E+00
  .000E+00  .000E+00  .000E+00  .000E+00  .000E+00  .000E+00  .000E+00  .000E+00
  .000E+00  .000E+00  .000E+00  .000E+00  .000E+00  .000E+00  .000E+00  .000E+00
  .000E+00  .000E+00  .000E+00  .000E+00  .000E+00  .000E+00  .000E+00  .000E+00
  .000E+00  .000E+00  .000E+00  .000E+00  .000E+00  .000E+00  .000E+00  .000E+00
  .000E+00  .000E+00  .000E+00  .000E+00  .000E+00  .000E+00  .000E+00  .000E+00
  .000E+00  .000E+00  .000E+00  .000E+00  .000E+00  .000E+00  .000E+00  .000E+00
  .000E+00  .000E+00  .000E+00  .000E+00  .000E+00  .000E+00  .000E+00  .000E+00
  .000E+00  .000E+00  .000E+00  .000E+00  .000E+00  .000E+00  .000E+00  .000E+00
  .000E+00  .000E+00  .000E+00  .000E+00  .000E+00  .000E+00  .000E+00  .000E+00
  .000E+00  .000E+00  .000E+00  .000E+00
Damping =  .05. Data of Sd,Sv,Sa,Pssv,ttSd,ttSv,ttSa :
  .399E-04  .446E-04  .503E-04  .574E-04  .659E-04  .717E-04  .806E-04  .127E-03
  .188E-03  .194E-03  .307E-03  .378E-03  .368E-03  .344E-03  .380E-03  .412E-03
  .462E-03  .619E-03  .677E-03  .102E-02  .123E-02  .128E-02  .132E-02  .108E-02
  .128E-02  .166E-02  .206E-02  .264E-02  .317E-02  .388E-02  .422E-02  .424E-02
  .398E-02  .426E-02  .410E-02  .332E-02  .300E-02  .305E-02  .327E-02  .373E-02
  .417E-02  .440E-02  .388E-02  .373E-02  .380E-02  .542E-02  .568E-02  .628E-02
  .630E-02  .656E-02  .681E-02  .881E-02  .960E-02  .100E-01  .117E-01  .115E-01
  .110E-01  .947E-02  .908E-02  .789E-02  .603E-02  .509E-02  .534E-02  .598E-02
  .615E-02  .547E-02  .463E-02  .410E-02  .389E-02  .378E-02  .364E-02  .349E-02
  .338E-02  .332E-02  .330E-02  .330E-02  .333E-02  .332E-02  .000E+00  .000E+00
  .000E+00  .000E+00  .000E+00  .000E+00  .000E+00  .000E+00  .000E+00  .000E+00
  .000E+00  .000E+00  .000E+00  .000E+00  .000E+00  .000E+00  .000E+00  .000E+00
  .000E+00  .000E+00  .000E+00  .000E+00
  .237E-02  .264E-02  .292E-02  .336E-02  .424E-02  .528E-02  .651E-02  .106E-01
  .150E-01  .148E-01  .220E-01  .260E-01  .240E-01  .208E-01  .212E-01  .226E-01
  .256E-01  .323E-01  .294E-01  .413E-01  .483E-01  .474E-01  .468E-01  .387E-01
  .443E-01  .515E-01  .632E-01  .668E-01  .723E-01  .899E-01  .960E-01  .883E-01
  .803E-01  .798E-01  .764E-01  .574E-01  .573E-01  .616E-01  .607E-01  .613E-01
  .596E-01  .724E-01  .628E-01  .530E-01  .386E-01  .393E-01  .432E-01  .470E-01
  .475E-01  .450E-01  .473E-01  .548E-01  .547E-01  .525E-01  .571E-01  .492E-01
  .455E-01  .411E-01  .402E-01  .393E-01  .374E-01  .331E-01  .336E-01  .342E-01
  .331E-01  .319E-01  .312E-01  .306E-01  .301E-01  .298E-01  .296E-01  .295E-01
  .295E-01  .295E-01  .294E-01  .294E-01  .294E-01  .294E-01  .000E+00  .000E+00
  .000E+00  .000E+00  .000E+00  .000E+00  .000E+00  .000E+00  .000E+00  .000E+00
  .000E+00  .000E+00  .000E+00  .000E+00  .000E+00  .000E+00  .000E+00  .000E+00
  .000E+00  .000E+00  .000E+00  .000E+00
  .255E-02  .260E-02  .267E-02  .277E-02  .293E-02  .293E-02  .274E-02  .366E-02
  .458E-02  .401E-02  .564E-02  .615E-02  .525E-02  .436E-02  .428E-02  .419E-02
  .389E-02  .440E-02  .414E-02  .539E-02  .556E-02  .510E-02  .471E-02  .342E-02
  .364E-02  .420E-02  .446E-02  .477E-02  .481E-02  .509E-02  .482E-02  .430E-02
  .359E-02  .335E-02  .293E-02  .211E-02  .174E-02  .163E-02  .160E-02  .167E-02
  .171E-02  .151E-02  .111E-02  .902E-03  .801E-03  .989E-03  .915E-03  .893E-03
  .800E-03  .748E-03  .701E-03  .748E-03  .685E-03  .611E-03  .613E-03  .525E-03
  .442E-03  .338E-03  .289E-03  .226E-03  .156E-03  .109E-03  .970E-04  .926E-04
  .821E-04  .641E-04  .483E-04  .382E-04  .325E-04  .285E-04  .250E-04  .219E-04
  .195E-04  .177E-04  .162E-04  .151E-04  .128E-04  .109E-04  .000E+00  .000E+00
  .000E+00  .000E+00  .000E+00  .000E+00  .000E+00  .000E+00  .000E+00  .000E+00
  .000E+00  .000E+00  .000E+00  .000E+00  .000E+00  .000E+00  .000E+00  .000E+00
  .000E+00  .000E+00  .000E+00  .000E+00
  .627E-02  .668E-02  .719E-02  .784E-02  .863E-02  .901E-02  .921E-02  .133E-01
  .181E-01  .175E-01  .258E-01  .297E-01  .272E-01  .240E-01  .251E-01  .259E-01
  .264E-01  .324E-01  .327E-01  .457E-01  .516E-01  .502E-01  .486E-01  .378E-01
  .422E-01  .522E-01  .589E-01  .692E-01  .767E-01  .870E-01  .883E-01  .833E-01
  .735E-01  .743E-01  .677E-01  .522E-01  .449E-01  .435E-01  .446E-01  .488E-01
  .524E-01  .502E-01  .406E-01  .360E-01  .341E-01  .454E-01  .446E-01  .464E-01
  .440E-01  .434E-01  .428E-01  .503E-01  .503E-01  .485E-01  .524E-01  .480E-01
  .432E-01  .350E-01  .317E-01  .261E-01  .189E-01  .145E-01  .140E-01  .145E-01
  .138E-01  .115E-01  .909E-02  .758E-02  .679E-02  .625E-02  .572E-02  .522E-02
  .483E-02  .453E-02  .431E-02  .414E-02  .380E-02  .347E-02  .000E+00  .000E+00
  .000E+00  .000E+00  .000E+00  .000E+00  .000E+00  .000E+00  .000E+00  .000E+00
  .000E+00  .000E+00  .000E+00  .000E+00  .000E+00  .000E+00  .000E+00  .000E+00
  .000E+00  .000E+00  .000E+00  .000E+00
  .357E+02  .357E+02  .357E+02  .357E+02  .357E+02  .357E+02  .357E+02  .360E+02
  .361E+02  .361E+02  .361E+02  .361E+02  .360E+02  .360E+02  .358E+02  .368E+02
  .384E+02  .378E+02  .361E+02  .361E+02  .369E+02  .361E+02  .362E+02  .362E+02
  .367E+02  .358E+02  .358E+02  .359E+02  .362E+02  .365E+02  .362E+02  .362E+02
  .362E+02  .383E+02  .381E+02  .376E+02  .361E+02  .361E+02  .358E+02  .358E+02
  .358E+02  .358E+02  .382E+02  .380E+02  .371E+02  .521E+02  .522E+02  .527E+02
  .503E+02  .503E+02  .504E+02  .500E+02  .496E+02  .496E+02  .491E+02  .443E+02
  .444E+02  .454E+02  .519E+02  .520E+02  .424E+02  .520E+02  .439E+02  .432E+02
  .424E+02  .424E+02  .424E+02  .424E+02  .424E+02  .424E+02  .424E+02  .424E+02
  .424E+02  .424E+02  .424E+02  .424E+02  .424E+02  .424E+02  .000E+00  .000E+00
  .000E+00  .000E+00  .000E+00  .000E+00  .000E+00  .000E+00  .000E+00  .000E+00
  .000E+00  .000E+00  .000E+00  .000E+00  .000E+00  .000E+00  .000E+00  .000E+00
  .000E+00  .000E+00  .000E+00  .000E+00
  .358E+02  .358E+02  .358E+02  .358E+02  .358E+02  .358E+02  .358E+02  .361E+02
  .361E+02  .363E+02  .361E+02  .361E+02  .360E+02  .360E+02  .358E+02  .350E+02
  .384E+02  .377E+02  .377E+02  .361E+02  .369E+02  .367E+02  .362E+02  .359E+02
  .367E+02  .359E+02  .359E+02  .359E+02  .365E+02  .364E+02  .364E+02  .363E+02
  .362E+02  .384E+02  .382E+02  .382E+02  .360E+02  .361E+02  .361E+02  .376E+02
  .376E+02  .357E+02  .357E+02  .381E+02  .357E+02  .357E+02  .524E+02  .520E+02
  .381E+02  .501E+02  .501E+02  .502E+02  .498E+02  .499E+02  .494E+02  .484E+02
  .440E+02  .457E+02  .523E+02  .361E+02  .361E+02  .361E+02  .361E+02  .361E+02
  .361E+02  .361E+02  .361E+02  .361E+02  .361E+02  .361E+02  .361E+02  .361E+02
  .361E+02  .361E+02  .361E+02  .361E+02  .361E+02  .361E+02  .000E+00  .000E+00
  .000E+00  .000E+00  .000E+00  .000E+00  .000E+00  .000E+00  .000E+00  .000E+00
  .000E+00  .000E+00  .000E+00  .000E+00  .000E+00  .000E+00  .000E+00  .000E+00
  .000E+00  .000E+00  .000E+00  .000E+00
  .357E+02  .357E+02  .357E+02  .357E+02  .357E+02  .357E+02  .360E+02  .360E+02
  .361E+02  .361E+02  .361E+02  .361E+02  .360E+02  .360E+02  .358E+02  .368E+02
  .384E+02  .378E+02  .361E+02  .361E+02  .369E+02  .361E+02  .362E+02  .362E+02
  .367E+02  .358E+02  .358E+02  .359E+02  .362E+02  .365E+02  .362E+02  .362E+02
  .362E+02  .383E+02  .383E+02  .376E+02  .376E+02  .361E+02  .358E+02  .358E+02
  .358E+02  .358E+02  .382E+02  .380E+02  .371E+02  .521E+02  .522E+02  .527E+02
  .503E+02  .503E+02  .503E+02  .500E+02  .495E+02  .496E+02  .497E+02  .443E+02
  .444E+02  .454E+02  .519E+02  .520E+02  .423E+02  .520E+02  .439E+02  .431E+02
  .423E+02  .423E+02  .424E+02  .424E+02  .423E+02  .423E+02  .423E+02  .423E+02
  .423E+02  .423E+02  .423E+02  .423E+02  .423E+02  .423E+02  .000E+00  .000E+00
  .000E+00  .000E+00  .000E+00  .000E+00  .000E+00  .000E+00  .000E+00  .000E+00
  .000E+00  .000E+00  .000E+00  .000E+00  .000E+00  .000E+00  .000E+00  .000E+00
  .000E+00  .000E+00  .000E+00  .000E+00
/&   ----------  End of spectral data for channel  1  ----------
Response and Fourier amplitude spectra (78 periods,  .04 -  6.0 sec)   for      
Corrected accelerogram   38695658.CI.ALP.--.HN      Chan  2: 346 Deg     from   
Uncorrected Accelerogram Data             Processed: 09/19/20, CGS  cialp--z    
Rcrd of Fri Sep 18, 2020 23:38:35.0 PDT               (Avol1 v2.0, 4/18 CSMIP)  
                                        (Origin:  To be determined)             
38695658.CI.ALP.--.HN                Start time:  9/19/20, 06:38:35.0 UTC (GPS) 
Station Id. ALP     34.687N, 118.299W    Q330    s/n 3935  (3 Chns of  3 at Sta)
Lancaster, West Ave J and 90th           SCSN   Data: Acceleration              
Chan  2: 346 Deg                                                                
Rcrd of Fri Sep 18, 2020 23:38:35.0 PDT    Fri Sep 18, 2020 23:38:35.0 PDT      
Hypocenter:  To be determined.               ML:  To be determined.             
Instr Period =  .0050 sec,  Damping =  .707,  Sensitivity = 4.99 v/g  (Nominal) 
                        Record Length =301.000 sec.                             
                                     Uncor Max  =  -.002 g, at   37.880 sec.    
RMS accel of (uncor) record  =        .   Chn. metadata effective date:         
Accelerogram bandpass filtered with 3 dB pts at   .30 and 23.00 cyc/sec         
                 instrument- and base-line correcte                             
                                                                                
                                                                                
                                                                                
                                                                                
                                                                                
Rcrd of Fri Sep 18, 2020 23:38:35.0 PDT    Fri Sep 18, 2020 23:38:35.0 PDT      
                                                                                
38695658.CI.ALP.--.HN     Lancaster, West Ave J and 90th    Chan  2: 346 Deg    
                                                                                
38695658.CI.ALP.--.HN     Lancaster, West Ave J and 90th    Chan  2: 346 Deg    
                                                                                
Units for spectra are inches and sec, except Sa is in fraction of g.            
                                                                                
    2  100    2    3    3  100 -999    3    1    0  605 3935    050529   41    0
    6   38   35    8  263    9   19 2020   10    3  34636008   39   30   74 -999
36008 -999  100    6 -999 -999 -999 -999 -999 -999 -999 -999 -999 -999 -999 -999
 -999 -999 -999 -99915050    2 -999    0 -999   20 -999 -999    3    1 -99915050
    315050    4   78    1    3    5    0    0 -999    0 -999 -999    6 -999    2
    2    2    4 -999 -999 -999 -999 -999 -999 -999 -999    1 -999 -999 -999  111
    1    1 -999 -999
      .005      .707   360.080      .000     1.000  4994.462     -.002    37.880
   200.000     2.384      .477  -999.000    10.000  -999.000     4.000  -999.000
    20.000    -2.574      .000  -999.000  -999.000  -999.000  -999.000     -.001
      .001      .002     2.000    15.000    34.687  -118.299      .003      .002
      .615      .001      .003   753.000  -999.000  -999.000  -999.000  -999.000
     1.000  -999.000  -999.000  -999.000  -999.000  -999.000  -999.000   120.000
     -.900     2.000     6.800   980.665      .020   301.000    31.831      .000
  -999.000    23.000  -999.000   301.000      .020      .300  -999.000  -999.000
    37.880    -2.020    43.580     -.059    42.120     -.010      .000      .300
    23.000      .020      .020      .000      .020      .006  -999.000  -999.000
      .006      .080      .003      .003      .001      .000  -999.000  -999.000
  -999.000  -999.000  -999.000  -999.000  -999.000  -999.000  -999.000  -999.000
  -999.000  -999.000  -999.000  -999.000
      .050
      .040      .042      .044      .046      .048      .050      .055      .060
      .065      .070      .075      .080      .085      .090      .095      .100
      .110      .120      .130      .140      .150      .160      .170      .180
      .190      .200      .220      .240      .260      .280      .300      .320
      .340      .360      .380      .400      .420      .440      .460      .480
      .500      .550      .600      .650      .700      .750      .800      .850
      .900      .950     1.000     1.100     1.200     1.300     1.400     1.500
     1.600     1.700     1.800     1.900     2.000     2.200     2.400     2.600
     2.800     3.000     3.200     3.400     3.600     3.800     4.000     4.200
     4.400     4.600     4.800     5.000     5.500     6.000      .000      .000
      .000      .000      .000      .000      .000      .000      .000      .000
      .000      .000      .000      .000      .000      .000      .000      .000
      .000      .000      .000      .000
Fourier amplitude spectra in in/sec.
  .000E+00  .000E+00  .000E+00  .000E+00  .000E+00  .000E+00  .000E+00  .000E+00
  .000E+00  .000E+00  .000E+00  .000E+00  .000E+00  .000E+00  .000E+00  .000E+00
  .000E+00  .000E+00  .000E+00  .000E+00  .000E+00  .000E+00  .000E+00  .000E+00
  .000E+00  .000E+00  .000E+00  .000E+00  .000E+00  .000E+00  .000E+00  .000E+00
  .000E+00  .000E+00  .000E+00  .000E+00  .000E+00  .000E+00  .000E+00  .000E+00
  .000E+00  .000E+00  .000E+00  .000E+00  .000E+00  .000E+00  .000E+00  .000E+00
  .000E+00  .000E+00  .000E+00  .000E+00  .000E+00  .000E+00  .000E+00  .000E+00
  .000E+00  .000E+00  .000E+00  .000E+00  .000E+00  .000E+00  .000E+00  .000E+00
  .000E+00  .000E+00  .000E+00  .000E+00  .000E+00  .000E+00  .000E+00  .000E+00
  .000E+00  .000E+00  .000E+00  .000E+00  .000E+00  .000E+00  .000E+00  .000E+00
  .000E+00  .000E+00  .000E+00  .000E+00  .000E+00  .000E+00  .000E+00  .000E+00
  .000E+00  .000E+00  .000E+00  .000E+00  .000E+00  .000E+00  .000E+00  .000E+00
  .000E+00  .000E+00  .000E+00  .000E+00
Damping =  .05. Data of Sd,Sv,Sa,Pssv,ttSd,ttSv,ttSa :
  .369E-04  .413E-04  .472E-04  .546E-04  .617E-04  .661E-04  .883E-04  .111E-03
  .164E-03  .221E-03  .249E-03  .362E-03  .339E-03  .386E-03  .364E-03  .408E-03
  .571E-03  .605E-03  .683E-03  .759E-03  .101E-02  .965E-03  .900E-03  .101E-02
  .114E-02  .131E-02  .121E-02  .144E-02  .164E-02  .226E-02  .307E-02  .297E-02
  .242E-02  .196E-02  .191E-02  .206E-02  .173E-02  .202E-02  .223E-02  .219E-02
