Response and Fourier amplitude spectra (78 periods,  .04 -  6.0 sec)   for      
Corrected accelerogram   38695658.CI.BAR.--.HN      Chan  1:  83 Deg     from   
Uncorrected Accelerogram Data             Processed: 09/19/20, CGS  cibar--y    
Rcrd of Fri Sep 18, 2020 23:38:50.0 PDT               (Avol1 v2.0, 4/18 CSMIP)  
                                        (Origin:  To be determined)             
38695658.CI.BAR.--.HN                Start time:  9/19/20, 06:38:50.0 UTC (GPS) 
Station Id. BAR     32.680N, 116.672W    ObsMMS  s/n 4200  (3 Chns of  6 at Sta)
Barrett, San Diego County                SCSN   Data: Acceleration              
Chan  1:  83 Deg                                                                
Rcrd of Fri Sep 18, 2020 23:38:50.0 PDT    Fri Sep 18, 2020 23:38:50.0 PDT      
Hypocenter:  To be determined.               ML:  To be determined.             
Instr Period =  .0050 sec,  Damping =  .707,  Sensitivity = 5.00 v/g  (Nominal) 
                        Record Length =301.000 sec.                             
                                     Uncor Max  =   .001 g, at   53.040 sec.    
RMS accel of (uncor) record  =        .   Chn. metadata effective date:         
Accelerogram bandpass filtered with 3 dB pts at   .30 and 23.00 cyc/sec         
                 instrument- and base-line correcte                             
                                                                                
                                                                                
                                                                                
                                                                                
                                                                                
Rcrd of Fri Sep 18, 2020 23:38:50.0 PDT    Fri Sep 18, 2020 23:38:50.0 PDT      
                                                                                
38695658.CI.BAR.--.HN     Barrett, San Diego County   Chan  1:  83 Deg          
                                                                                
38695658.CI.BAR.--.HN     Barrett, San Diego County   Chan  1:  83 Deg          
                                                                                
Units for spectra are inches and sec, except Sa is in fraction of g.            
                                                                                
    1  100    1    6    6  100 -999    3    1    0   15 4200    050589   41    0
    6   38   50    8  263    9   19 2020   10    3   8336180   39   25   74 -999
36180 -999  100    6 -999 -999 -999 -999 -999 -999 -999 -999 -999 -999 -999 -999
 -999 -999 -999 -99915050    2 -999    0 -999   20 -999 -999    3    1 -99915050
    315050    4   78    1    3    5    0    0 -999    0 -999 -999    6 -999    2
    2    2    4 -999 -999 -999 -999 -999 -999 -999 -999    1 -999 -999 -999  111
    1    1 -999 -999
      .005      .707   361.800      .000     1.000  4996.856      .001    53.040
   200.000     2.384      .477  -999.000    10.000  -999.000     4.000  -999.000
    20.000   -14.328      .000  -999.000  -999.000  -999.000  -999.000      .001
     -.001     -.002     2.000    15.000    32.680  -116.672      .001      .001
     1.054     -.002     -.002   529.000  -999.000  -999.000  -999.000  -999.000
     1.000  -999.000    -8.000  -999.000  -999.000  -999.000  -999.000   120.000
     -.900     2.000     6.800   980.665      .020   301.000    31.831      .000
  -999.000    23.000  -999.000   301.000      .020      .300  -999.000  -999.000
    53.040     1.005    53.060      .028    51.380      .001      .000      .300
    23.000      .020      .020      .000      .020      .001  -999.000  -999.000
      .003      .140      .002      .002      .000      .000  -999.000  -999.000
  -999.000  -999.000  -999.000  -999.000  -999.000  -999.000  -999.000  -999.000
  -999.000  -999.000  -999.000  -999.000
      .050
      .040      .042      .044      .046      .048      .050      .055      .060
      .065      .070      .075      .080      .085      .090      .095      .100
      .110      .120      .130      .140      .150      .160      .170      .180
      .190      .200      .220      .240      .260      .280      .300      .320
      .340      .360      .380      .400      .420      .440      .460      .480
      .500      .550      .600      .650      .700      .750      .800      .850
      .900      .950     1.000     1.100     1.200     1.300     1.400     1.500
     1.600     1.700     1.800     1.900     2.000     2.200     2.400     2.600
     2.800     3.000     3.200     3.400     3.600     3.800     4.000     4.200
     4.400     4.600     4.800     5.000     5.500     6.000      .000      .000
      .000      .000      .000      .000      .000      .000      .000      .000
      .000      .000      .000      .000      .000      .000      .000      .000
      .000      .000      .000      .000
Fourier amplitude spectra in in/sec.
  .000E+00  .000E+00  .000E+00  .000E+00  .000E+00  .000E+00  .000E+00  .000E+00
  .000E+00  .000E+00  .000E+00  .000E+00  .000E+00  .000E+00  .000E+00  .000E+00
  .000E+00  .000E+00  .000E+00  .000E+00  .000E+00  .000E+00  .000E+00  .000E+00
  .000E+00  .000E+00  .000E+00  .000E+00  .000E+00  .000E+00  .000E+00  .000E+00
  .000E+00  .000E+00  .000E+00  .000E+00  .000E+00  .000E+00  .000E+00  .000E+00
  .000E+00  .000E+00  .000E+00  .000E+00  .000E+00  .000E+00  .000E+00  .000E+00
  .000E+00  .000E+00  .000E+00  .000E+00  .000E+00  .000E+00  .000E+00  .000E+00
  .000E+00  .000E+00  .000E+00  .000E+00  .000E+00  .000E+00  .000E+00  .000E+00
  .000E+00  .000E+00  .000E+00  .000E+00  .000E+00  .000E+00  .000E+00  .000E+00
  .000E+00  .000E+00  .000E+00  .000E+00  .000E+00  .000E+00  .000E+00  .000E+00
  .000E+00  .000E+00  .000E+00  .000E+00  .000E+00  .000E+00  .000E+00  .000E+00
  .000E+00  .000E+00  .000E+00  .000E+00  .000E+00  .000E+00  .000E+00  .000E+00
  .000E+00  .000E+00  .000E+00  .000E+00
Damping =  .05. Data of Sd,Sv,Sa,Pssv,ttSd,ttSv,ttSa :
  .175E-04  .195E-04  .223E-04  .256E-04  .281E-04  .296E-04  .347E-04  .523E-04
  .626E-04  .823E-04  .108E-03  .121E-03  .131E-03  .169E-03  .215E-03  .252E-03
  .318E-03  .410E-03  .455E-03  .574E-03  .509E-03  .517E-03  .606E-03  .700E-03
  .667E-03  .624E-03  .803E-03  .111E-02  .140E-02  .137E-02  .139E-02  .122E-02
  .130E-02  .120E-02  .107E-02  .119E-02  .131E-02  .124E-02  .114E-02  .901E-03
  .887E-03  .775E-03  .884E-03  .732E-03  .708E-03  .677E-03  .642E-03  .654E-03
  .697E-03  .709E-03  .668E-03  .810E-03  .801E-03  .871E-03  .110E-02  .114E-02
  .106E-02  .100E-02  .101E-02  .116E-02  .120E-02  .121E-02  .116E-02  .875E-03
  .791E-03  .779E-03  .685E-03  .588E-03  .527E-03  .509E-03  .472E-03  .474E-03
  .493E-03  .488E-03  .479E-03  .470E-03  .445E-03  .433E-03  .000E+00  .000E+00
  .000E+00  .000E+00  .000E+00  .000E+00  .000E+00  .000E+00  .000E+00  .000E+00
  .000E+00  .000E+00  .000E+00  .000E+00  .000E+00  .000E+00  .000E+00  .000E+00
  .000E+00  .000E+00  .000E+00  .000E+00
  .122E-02  .137E-02  .161E-02  .181E-02  .193E-02  .213E-02  .262E-02  .341E-02
  .507E-02  .629E-02  .814E-02  .812E-02  .846E-02  .105E-01  .123E-01  .131E-01
  .174E-01  .211E-01  .201E-01  .235E-01  .220E-01  .220E-01  .209E-01  .239E-01
  .216E-01  .190E-01  .234E-01  .284E-01  .343E-01  .318E-01  .316E-01  .248E-01
  .291E-01  .266E-01  .216E-01  .239E-01  .242E-01  .222E-01  .181E-01  .195E-01
  .193E-01  .134E-01  .133E-01  .109E-01  .102E-01  .109E-01  .111E-01  .110E-01
  .113E-01  .112E-01  .114E-01  .129E-01  .118E-01  .104E-01  .103E-01  .106E-01
  .115E-01  .117E-01  .110E-01  .104E-01  .110E-01  .114E-01  .107E-01  .103E-01
  .101E-01  .102E-01  .103E-01  .103E-01  .104E-01  .104E-01  .103E-01  .103E-01
  .104E-01  .104E-01  .104E-01  .104E-01  .104E-01  .104E-01  .000E+00  .000E+00
  .000E+00  .000E+00  .000E+00  .000E+00  .000E+00  .000E+00  .000E+00  .000E+00
  .000E+00  .000E+00  .000E+00  .000E+00  .000E+00  .000E+00  .000E+00  .000E+00
  .000E+00  .000E+00  .000E+00  .000E+00
  .112E-02  .113E-02  .117E-02  .124E-02  .125E-02  .120E-02  .116E-02  .148E-02
  .152E-02  .173E-02  .196E-02  .196E-02  .188E-02  .212E-02  .241E-02  .257E-02
  .268E-02  .297E-02  .278E-02  .301E-02  .232E-02  .204E-02  .217E-02  .220E-02
  .188E-02  .159E-02  .174E-02  .198E-02  .214E-02  .182E-02  .157E-02  .122E-02
  .117E-02  .958E-03  .774E-03  .772E-03  .774E-03  .660E-03  .558E-03  .401E-03
  .369E-03  .266E-03  .251E-03  .182E-03  .153E-03  .127E-03  .107E-03  .953E-04
  .895E-04  .818E-04  .718E-04  .721E-04  .579E-04  .555E-04  .608E-04  .544E-04
  .445E-04  .373E-04  .337E-04  .334E-04  .315E-04  .262E-04  .214E-04  .144E-04
  .115E-04  .985E-05  .753E-05  .697E-05  .640E-05  .569E-05  .538E-05  .519E-05
  .498E-05  .467E-05  .438E-05  .412E-05  .356E-05  .315E-05  .000E+00  .000E+00
  .000E+00  .000E+00  .000E+00  .000E+00  .000E+00  .000E+00  .000E+00  .000E+00
  .000E+00  .000E+00  .000E+00  .000E+00  .000E+00  .000E+00  .000E+00  .000E+00
  .000E+00  .000E+00  .000E+00  .000E+00
  .276E-02  .291E-02  .318E-02  .350E-02  .368E-02  .371E-02  .397E-02  .548E-02
  .605E-02  .739E-02  .909E-02  .948E-02  .971E-02  .118E-01  .142E-01  .158E-01
  .181E-01  .215E-01  .220E-01  .258E-01  .213E-01  .203E-01  .224E-01  .244E-01
  .221E-01  .196E-01  .229E-01  .290E-01  .338E-01  .307E-01  .291E-01  .239E-01
  .240E-01  .210E-01  .177E-01  .186E-01  .197E-01  .177E-01  .155E-01  .118E-01
  .111E-01  .885E-02  .926E-02  .708E-02  .635E-02  .568E-02  .504E-02  .483E-02
  .486E-02  .469E-02  .420E-02  .463E-02  .419E-02  .421E-02  .496E-02  .476E-02
  .414E-02  .370E-02  .351E-02  .382E-02  .377E-02  .347E-02  .305E-02  .211E-02
  .177E-02  .163E-02  .134E-02  .109E-02  .919E-03  .842E-03  .741E-03  .709E-03
  .704E-03  .667E-03  .627E-03  .591E-03  .508E-03  .454E-03  .000E+00  .000E+00
  .000E+00  .000E+00  .000E+00  .000E+00  .000E+00  .000E+00  .000E+00  .000E+00
  .000E+00  .000E+00  .000E+00  .000E+00  .000E+00  .000E+00  .000E+00  .000E+00
  .000E+00  .000E+00  .000E+00  .000E+00
  .530E+02  .530E+02  .530E+02  .530E+02  .530E+02  .530E+02  .531E+02  .535E+02
  .545E+02  .530E+02  .535E+02  .535E+02  .531E+02  .545E+02  .531E+02  .531E+02
  .545E+02  .546E+02  .533E+02  .533E+02  .531E+02  .545E+02  .535E+02  .531E+02
  .532E+02  .501E+02  .532E+02  .536E+02  .536E+02  .536E+02  .535E+02  .516E+02
  .535E+02  .534E+02  .515E+02  .534E+02  .534E+02  .533E+02  .533E+02  .533E+02
  .552E+02  .525E+02  .550E+02  .533E+02  .533E+02  .533E+02  .551E+02  .551E+02
  .588E+02  .588E+02  .515E+02  .515E+02  .524E+02  .524E+02  .533E+02  .533E+02
  .551E+02  .521E+02  .521E+02  .614E+02  .625E+02  .695E+02  .609E+02  .599E+02
  .599E+02  .602E+02  .602E+02  .590E+02  .590E+02  .590E+02  .591E+02  .531E+02
  .531E+02  .531E+02  .531E+02  .531E+02  .531E+02  .582E+02  .000E+00  .000E+00
  .000E+00  .000E+00  .000E+00  .000E+00  .000E+00  .000E+00  .000E+00  .000E+00
  .000E+00  .000E+00  .000E+00  .000E+00  .000E+00  .000E+00  .000E+00  .000E+00
  .000E+00  .000E+00  .000E+00  .000E+00
  .545E+02  .545E+02  .545E+02  .545E+02  .545E+02  .531E+02  .531E+02  .558E+02
  .527E+02  .541E+02  .535E+02  .535E+02  .545E+02  .545E+02  .545E+02  .531E+02
  .545E+02  .545E+02  .546E+02  .533E+02  .545E+02  .544E+02  .535E+02  .531E+02
  .531E+02  .531E+02  .531E+02  .535E+02  .535E+02  .536E+02  .535E+02  .515E+02
  .535E+02  .535E+02  .535E+02  .535E+02  .533E+02  .533E+02  .534E+02  .530E+02
  .530E+02  .524E+02  .533E+02  .534E+02  .515E+02  .532E+02  .530E+02  .530E+02
  .530E+02  .530E+02  .530E+02  .530E+02  .530E+02  .515E+02  .515E+02  .532E+02
  .532E+02  .532E+02  .532E+02  .530E+02  .530E+02  .530E+02  .530E+02  .530E+02
  .530E+02  .530E+02  .530E+02  .530E+02  .530E+02  .530E+02  .530E+02  .530E+02
  .530E+02  .530E+02  .530E+02  .530E+02  .530E+02  .530E+02  .000E+00  .000E+00
  .000E+00  .000E+00  .000E+00  .000E+00  .000E+00  .000E+00  .000E+00  .000E+00
  .000E+00  .000E+00  .000E+00  .000E+00  .000E+00  .000E+00  .000E+00  .000E+00
  .000E+00  .000E+00  .000E+00  .000E+00
  .530E+02  .530E+02  .530E+02  .530E+02  .530E+02  .530E+02  .531E+02  .535E+02
  .535E+02  .530E+02  .535E+02  .535E+02  .545E+02  .545E+02  .531E+02  .531E+02
  .545E+02  .546E+02  .533E+02  .533E+02  .533E+02  .545E+02  .535E+02  .531E+02
  .532E+02  .501E+02  .532E+02  .536E+02  .536E+02  .536E+02  .535E+02  .516E+02
  .535E+02  .534E+02  .515E+02  .534E+02  .534E+02  .533E+02  .533E+02  .531E+02
  .552E+02  .525E+02  .550E+02  .533E+02  .533E+02  .533E+02  .550E+02  .550E+02
  .588E+02  .588E+02  .515E+02  .515E+02  .524E+02  .524E+02  .533E+02  .533E+02
  .550E+02  .521E+02  .521E+02  .622E+02  .625E+02  .695E+02  .609E+02  .599E+02
  .599E+02  .599E+02  .531E+02  .531E+02  .531E+02  .531E+02  .531E+02  .531E+02
  .531E+02  .531E+02  .531E+02  .531E+02  .531E+02  .531E+02  .000E+00  .000E+00
  .000E+00  .000E+00  .000E+00  .000E+00  .000E+00  .000E+00  .000E+00  .000E+00
  .000E+00  .000E+00  .000E+00  .000E+00  .000E+00  .000E+00  .000E+00  .000E+00
  .000E+00  .000E+00  .000E+00  .000E+00
/&   ----------  End of spectral data for channel  1  ----------
Response and Fourier amplitude spectra (78 periods,  .04 -  6.0 sec)   for      
Corrected accelerogram   38695658.CI.BAR.--.HN      Chan  2: 353 Deg     from   
Uncorrected Accelerogram Data             Processed: 09/19/20, CGS  cibar--y    
Rcrd of Fri Sep 18, 2020 23:38:50.0 PDT               (Avol1 v2.0, 4/18 CSMIP)  
                                        (Origin:  To be determined)             
38695658.CI.BAR.--.HN                Start time:  9/19/20, 06:38:50.0 UTC (GPS) 
Station Id. BAR     32.680N, 116.672W    ObsMMS  s/n 4200  (3 Chns of  6 at Sta)
Barrett, San Diego County                SCSN   Data: Acceleration              
Chan  2: 353 Deg                                                                
Rcrd of Fri Sep 18, 2020 23:38:50.0 PDT    Fri Sep 18, 2020 23:38:50.0 PDT      
Hypocenter:  To be determined.               ML:  To be determined.             
Instr Period =  .0050 sec,  Damping =  .707,  Sensitivity = 5.00 v/g  (Nominal) 
                        Record Length =301.000 sec.                             
                                     Uncor Max  =  -.001 g, at   53.440 sec.    
RMS accel of (uncor) record  =        .   Chn. metadata effective date:         
Accelerogram bandpass filtered with 3 dB pts at   .30 and 23.00 cyc/sec         
                 instrument- and base-line correcte                             
                                                                                
                                                                                
                                                                                
                                                                                
                                                                                
Rcrd of Fri Sep 18, 2020 23:38:50.0 PDT    Fri Sep 18, 2020 23:38:50.0 PDT      
                                                                                
38695658.CI.BAR.--.HN     Barrett, San Diego County   Chan  2: 353 Deg          
                                                                                
38695658.CI.BAR.--.HN     Barrett, San Diego County   Chan  2: 353 Deg          
                                                                                
Units for spectra are inches and sec, except Sa is in fraction of g.            
                                                                                
    2  100    2    6    6  100 -999    3    1    0   15 4200    050589   41    0
    6   38   50    8  263    9   19 2020   10    3  35336387   39   25   74 -999
36387 -999  100    6 -999 -999 -999 -999 -999 -999 -999 -999 -999 -999 -999 -999
 -999 -999 -999 -99915050    2 -999    0 -999   20 -999 -999    3    1 -99915050
    315050    4   78    1    3    5    0    0 -999    0 -999 -999    6 -999    2
    2    2    4 -999 -999 -999 -999 -999 -999 -999 -999    1 -999 -999 -999  111
    1    1 -999 -999
      .005      .707   363.870      .000     1.000  4996.856     -.001    53.440
   200.000     2.384      .477  -999.000    10.000  -999.000     4.000  -999.000
    20.000   -24.188      .000  -999.000  -999.000  -999.000  -999.000      .000
      .000      .000     2.000    15.000    32.680  -116.672      .001      .001
     1.332     -.001      .000   529.000  -999.000  -999.000  -999.000  -999.000
     1.000  -999.000  -999.000  -999.000  -999.000  -999.000  -999.000   120.000
     -.900     2.000     6.800   980.665      .020   301.000    31.831      .000
  -999.000    23.000  -999.000   301.000      .020      .300  -999.000  -999.000
    53.440     -.980    52.740      .026    52.800      .001      .000      .300
    23.000      .020      .020      .000      .020      .001  -999.000  -999.000
      .003      .170      .002      .001      .000      .000  -999.000  -999.000
  -999.000  -999.000  -999.000  -999.000  -999.000  -999.000  -999.000  -999.000
  -999.000  -999.000  -999.000  -999.000
      .050
      .040      .042      .044      .046      .048      .050      .055      .060
      .065      .070      .075      .080      .085      .090      .095      .100
      .110      .120      .130      .140      .150      .160      .170      .180
      .190      .200      .220      .240      .260      .280      .300      .320
      .340      .360      .380      .400      .420      .440      .460      .480
      .500      .550      .600      .650      .700      .750      .800      .850
      .900      .950     1.000     1.100     1.200     1.300     1.400     1.500
     1.600     1.700     1.800     1.900     2.000     2.200     2.400     2.600
     2.800     3.000     3.200     3.400     3.600     3.800     4.000     4.200
     4.400     4.600     4.800     5.000     5.500     6.000      .000      .000
      .000      .000      .000      .000      .000      .000      .000      .000
      .000      .000      .000      .000      .000      .000      .000      .000
      .000      .000      .000      .000
Fourier amplitude spectra in in/sec.
  .000E+00  .000E+00  .000E+00  .000E+00  .000E+00  .000E+00  .000E+00  .000E+00
  .000E+00  .000E+00  .000E+00  .000E+00  .000E+00  .000E+00  .000E+00  .000E+00
  .000E+00  .000E+00  .000E+00  .000E+00  .000E+00  .000E+00  .000E+00  .000E+00
  .000E+00  .000E+00  .000E+00  .000E+00  .000E+00  .000E+00  .000E+00  .000E+00
  .000E+00  .000E+00  .000E+00  .000E+00  .000E+00  .000E+00  .000E+00  .000E+00
  .000E+00  .000E+00  .000E+00  .000E+00  .000E+00  .000E+00  .000E+00  .000E+00
  .000E+00  .000E+00  .000E+00  .000E+00  .000E+00  .000E+00  .000E+00  .000E+00
  .000E+00  .000E+00  .000E+00  .000E+00  .000E+00  .000E+00  .000E+00  .000E+00
  .000E+00  .000E+00  .000E+00  .000E+00  .000E+00  .000E+00  .000E+00  .000E+00
  .000E+00  .000E+00  .000E+00  .000E+00  .000E+00  .000E+00  .000E+00  .000E+00
  .000E+00  .000E+00  .000E+00  .000E+00  .000E+00  .000E+00  .000E+00  .000E+00
  .000E+00  .000E+00  .000E+00  .000E+00  .000E+00  .000E+00  .000E+00  .000E+00
  .000E+00  .000E+00  .000E+00  .000E+00
Damping =  .05. Data of Sd,Sv,Sa,Pssv,ttSd,ttSv,ttSa :
  .157E-04  .186E-04  .220E-04  .247E-04  .265E-04  .293E-04  .375E-04  .585E-04
  .638E-04  .767E-04  .115E-03  .149E-03  .189E-03  .195E-03  .223E-03  .251E-03
  .317E-03  .453E-03  .511E-03  .384E-03  .466E-03  .771E-03  .919E-03  .861E-03
  .801E-03  .790E-03  .104E-02  .147E-02  .147E-02  .127E-02  .982E-03  .137E-02
  .143E-02  .146E-02  .135E-02  .108E-02  .109E-02  .115E-02  .116E-02  .102E-02
