Response and Fourier amplitude spectra (78 periods,  .04 -  6.0 sec)   for      
Corrected accelerogram   38695658.CI.BAC.--.HN      Chan  1:  90 Deg     from   
Uncorrected Accelerogram Data             Processed: 09/19/20, CGS  cibac--l    
Rcrd of Fri Sep 18, 2020 23:38:38.0 PDT               (Avol1 v2.0, 4/18 CSMIP)  
                                        (Origin:  To be determined)             
38695658.CI.BAC.--.HN                Start time:  9/19/20, 06:38:38.0 UTC (GPS) 
Station Id. BAC     33.612N, 117.041W    ObsMMS  s/n 1121  (3 Chns of  6 at Sta)
Bachelor Mountain                        SCSN   Data: Acceleration              
Chan  1:  90 Deg                                                                
Rcrd of Fri Sep 18, 2020 23:38:38.0 PDT    Fri Sep 18, 2020 23:38:38.0 PDT      
Hypocenter:  To be determined.               ML:  To be determined.             
Instr Period =  .0050 sec,  Damping =  .707,  Sensitivity = 5.00 v/g  (Nominal) 
                        Record Length =301.000 sec.                             
                                     Uncor Max  =  -.008 g, at   40.250 sec.    
RMS accel of (uncor) record  =        .   Chn. metadata effective date:         
Accelerogram bandpass filtered with 3 dB pts at   .30 and 23.00 cyc/sec         
                 instrument- and base-line correcte                             
                                                                                
                                                                                
                                                                                
                                                                                
                                                                                
Rcrd of Fri Sep 18, 2020 23:38:38.0 PDT    Fri Sep 18, 2020 23:38:38.0 PDT      
                                                                                
38695658.CI.BAC.--.HN     Bachelor Mountain   Chan  1:  90 Deg                  
                                                                                
38695658.CI.BAC.--.HN     Bachelor Mountain   Chan  1:  90 Deg                  
                                                                                
Units for spectra are inches and sec, except Sa is in fraction of g.            
                                                                                
    1  100    1    6    6  100 -999    3    1    0   15 1121    050748   41    0
    6   38   38   10  263    9   19 2020   10    3   9036341   39   17   74 -999
36341 -999  100    6 -999 -999 -999 -999 -999 -999 -999 -999 -999 -999 -999 -999
 -999 -999 -999 -99915050    2 -999    0 -999   20 -999 -999    3    1 -99915050
    315050    4   78    1    3    5    0    0 -999    0 -999 -999    6 -999    2
    2    2    4 -999 -999 -999 -999 -999 -999 -999 -999    1 -999 -999 -999  111
    1    1 -999 -999
      .005      .707   363.410      .000     1.000  4997.654     -.008    40.250
   200.000     2.384      .477  -999.000    10.000  -999.000     4.000  -999.000
    20.000   -16.229      .000  -999.000  -999.000  -999.000  -999.000     -.001
      .001      .002     2.000    15.000    33.612  -117.041      .001      .001
     1.039      .001      .002   551.000  -999.000  -999.000  -999.000  -999.000
     1.000  -999.000    -8.000  -999.000  -999.000  -999.000  -999.000   120.000
     -.900     2.000     6.800   980.665      .020   301.000    31.831      .000
  -999.000    23.000  -999.000   301.000      .020      .300  -999.000  -999.000
    40.260    -6.996    40.220      .140    40.180     -.004      .000      .300
    23.000      .020      .020      .000      .020      .003  -999.000  -999.000
      .036      .120      .005      .002      .000      .000  -999.000  -999.000
  -999.000  -999.000  -999.000  -999.000  -999.000  -999.000  -999.000  -999.000
  -999.000  -999.000  -999.000  -999.000
      .050
      .040      .042      .044      .046      .048      .050      .055      .060
      .065      .070      .075      .080      .085      .090      .095      .100
      .110      .120      .130      .140      .150      .160      .170      .180
      .190      .200      .220      .240      .260      .280      .300      .320
      .340      .360      .380      .400      .420      .440      .460      .480
      .500      .550      .600      .650      .700      .750      .800      .850
      .900      .950     1.000     1.100     1.200     1.300     1.400     1.500
     1.600     1.700     1.800     1.900     2.000     2.200     2.400     2.600
     2.800     3.000     3.200     3.400     3.600     3.800     4.000     4.200
     4.400     4.600     4.800     5.000     5.500     6.000      .000      .000
      .000      .000      .000      .000      .000      .000      .000      .000
      .000      .000      .000      .000      .000      .000      .000      .000
      .000      .000      .000      .000
Fourier amplitude spectra in in/sec.
  .000E+00  .000E+00  .000E+00  .000E+00  .000E+00  .000E+00  .000E+00  .000E+00
  .000E+00  .000E+00  .000E+00  .000E+00  .000E+00  .000E+00  .000E+00  .000E+00
  .000E+00  .000E+00  .000E+00  .000E+00  .000E+00  .000E+00  .000E+00  .000E+00
  .000E+00  .000E+00  .000E+00  .000E+00  .000E+00  .000E+00  .000E+00  .000E+00
  .000E+00  .000E+00  .000E+00  .000E+00  .000E+00  .000E+00  .000E+00  .000E+00
  .000E+00  .000E+00  .000E+00  .000E+00  .000E+00  .000E+00  .000E+00  .000E+00
  .000E+00  .000E+00  .000E+00  .000E+00  .000E+00  .000E+00  .000E+00  .000E+00
  .000E+00  .000E+00  .000E+00  .000E+00  .000E+00  .000E+00  .000E+00  .000E+00
  .000E+00  .000E+00  .000E+00  .000E+00  .000E+00  .000E+00  .000E+00  .000E+00
  .000E+00  .000E+00  .000E+00  .000E+00  .000E+00  .000E+00  .000E+00  .000E+00
  .000E+00  .000E+00  .000E+00  .000E+00  .000E+00  .000E+00  .000E+00  .000E+00
  .000E+00  .000E+00  .000E+00  .000E+00  .000E+00  .000E+00  .000E+00  .000E+00
  .000E+00  .000E+00  .000E+00  .000E+00
Damping =  .05. Data of Sd,Sv,Sa,Pssv,ttSd,ttSv,ttSa :
  .139E-03  .158E-03  .178E-03  .204E-03  .226E-03  .239E-03  .286E-03  .321E-03
  .449E-03  .534E-03  .616E-03  .736E-03  .909E-03  .118E-02  .157E-02  .198E-02
  .313E-02  .499E-02  .595E-02  .550E-02  .459E-02  .327E-02  .255E-02  .224E-02
  .209E-02  .204E-02  .191E-02  .214E-02  .213E-02  .199E-02  .187E-02  .149E-02
  .142E-02  .149E-02  .159E-02  .156E-02  .131E-02  .125E-02  .119E-02  .138E-02
  .142E-02  .184E-02  .175E-02  .163E-02  .166E-02  .178E-02  .163E-02  .150E-02
  .133E-02  .116E-02  .130E-02  .153E-02  .185E-02  .189E-02  .186E-02  .192E-02
  .211E-02  .212E-02  .205E-02  .212E-02  .224E-02  .221E-02  .259E-02  .262E-02
  .257E-02  .244E-02  .226E-02  .221E-02  .215E-02  .206E-02  .199E-02  .190E-02
  .184E-02  .180E-02  .175E-02  .170E-02  .160E-02  .156E-02  .000E+00  .000E+00
  .000E+00  .000E+00  .000E+00  .000E+00  .000E+00  .000E+00  .000E+00  .000E+00
  .000E+00  .000E+00  .000E+00  .000E+00  .000E+00  .000E+00  .000E+00  .000E+00
  .000E+00  .000E+00  .000E+00  .000E+00
  .841E-02  .899E-02  .103E-01  .132E-01  .177E-01  .204E-01  .211E-01  .220E-01
  .327E-01  .308E-01  .315E-01  .404E-01  .523E-01  .653E-01  .879E-01  .105E+00
  .165E+00  .249E+00  .288E+00  .261E+00  .220E+00  .153E+00  .119E+00  .104E+00
  .883E-01  .958E-01  .900E-01  .895E-01  .835E-01  .855E-01  .749E-01  .655E-01
  .662E-01  .655E-01  .648E-01  .604E-01  .582E-01  .554E-01  .555E-01  .584E-01
  .618E-01  .602E-01  .578E-01  .592E-01  .561E-01  .546E-01  .523E-01  .536E-01
  .541E-01  .530E-01  .520E-01  .518E-01  .532E-01  .547E-01  .559E-01  .567E-01
  .576E-01  .579E-01  .573E-01  .572E-01  .568E-01  .557E-01  .548E-01  .534E-01
  .526E-01  .520E-01  .517E-01  .516E-01  .515E-01  .513E-01  .513E-01  .512E-01
  .512E-01  .512E-01  .512E-01  .512E-01  .513E-01  .514E-01  .000E+00  .000E+00
  .000E+00  .000E+00  .000E+00  .000E+00  .000E+00  .000E+00  .000E+00  .000E+00
  .000E+00  .000E+00  .000E+00  .000E+00  .000E+00  .000E+00  .000E+00  .000E+00
  .000E+00  .000E+00  .000E+00  .000E+00
  .884E-02  .915E-02  .946E-02  .984E-02  .100E-01  .984E-02  .974E-02  .911E-02
  .109E-01  .112E-01  .111E-01  .117E-01  .128E-01  .150E-01  .179E-01  .202E-01
  .269E-01  .363E-01  .360E-01  .290E-01  .209E-01  .130E-01  .899E-02  .722E-02
  .587E-02  .527E-02  .407E-02  .400E-02  .339E-02  .253E-02  .221E-02  .158E-02
  .132E-02  .124E-02  .119E-02  .108E-02  .842E-03  .666E-03  .641E-03  .680E-03
  .627E-03  .672E-03  .559E-03  .409E-03  .346E-03  .330E-03  .296E-03  .259E-03
  .211E-03  .173E-03  .165E-03  .161E-03  .166E-03  .147E-03  .128E-03  .113E-03
  .969E-04  .862E-04  .746E-04  .706E-04  .699E-04  .658E-04  .655E-04  .588E-04
  .523E-04  .460E-04  .403E-04  .367E-04  .335E-04  .306E-04  .281E-04  .260E-04
  .242E-04  .227E-04  .213E-04  .201E-04  .176E-04  .158E-04  .000E+00  .000E+00
  .000E+00  .000E+00  .000E+00  .000E+00  .000E+00  .000E+00  .000E+00  .000E+00
  .000E+00  .000E+00  .000E+00  .000E+00  .000E+00  .000E+00  .000E+00  .000E+00
  .000E+00  .000E+00  .000E+00  .000E+00
  .218E-01  .236E-01  .255E-01  .279E-01  .295E-01  .300E-01  .327E-01  .336E-01
  .434E-01  .480E-01  .516E-01  .578E-01  .672E-01  .824E-01  .104E+00  .125E+00
  .179E+00  .261E+00  .288E+00  .247E+00  .192E+00  .128E+00  .942E-01  .783E-01
  .690E-01  .640E-01  .546E-01  .560E-01  .515E-01  .447E-01  .391E-01  .292E-01
  .262E-01  .259E-01  .262E-01  .246E-01  .195E-01  .178E-01  .163E-01  .181E-01
  .179E-01  .211E-01  .183E-01  .157E-01  .149E-01  .149E-01  .128E-01  .111E-01
  .931E-02  .770E-02  .815E-02  .873E-02  .970E-02  .916E-02  .835E-02  .803E-02
  .830E-02  .783E-02  .717E-02  .700E-02  .705E-02  .631E-02  .679E-02  .633E-02
  .577E-02  .510E-02  .445E-02  .408E-02  .375E-02  .341E-02  .312E-02  .284E-02
  .263E-02  .246E-02  .229E-02  .213E-02  .183E-02  .163E-02  .000E+00  .000E+00
  .000E+00  .000E+00  .000E+00  .000E+00  .000E+00  .000E+00  .000E+00  .000E+00
  .000E+00  .000E+00  .000E+00  .000E+00  .000E+00  .000E+00  .000E+00  .000E+00
  .000E+00  .000E+00  .000E+00  .000E+00
  .402E+02  .402E+02  .402E+02  .403E+02  .403E+02  .402E+02  .401E+02  .403E+02
  .403E+02  .402E+02  .402E+02  .402E+02  .402E+02  .402E+02  .403E+02  .403E+02
  .403E+02  .403E+02  .403E+02  .403E+02  .402E+02  .402E+02  .401E+02  .400E+02
  .400E+02  .403E+02  .403E+02  .402E+02  .402E+02  .402E+02  .402E+02  .402E+02
  .402E+02  .402E+02  .402E+02  .402E+02  .402E+02  .401E+02  .401E+02  .402E+02
  .402E+02  .402E+02  .402E+02  .400E+02  .401E+02  .401E+02  .401E+02  .402E+02
  .402E+02  .402E+02  .401E+02  .401E+02  .402E+02  .402E+02  .402E+02  .405E+02
  .405E+02  .406E+02  .406E+02  .399E+02  .399E+02  .399E+02  .402E+02  .402E+02
  .402E+02  .402E+02  .402E+02  .402E+02  .402E+02  .402E+02  .402E+02  .402E+02
  .402E+02  .402E+02  .402E+02  .402E+02  .402E+02  .402E+02  .000E+00  .000E+00
  .000E+00  .000E+00  .000E+00  .000E+00  .000E+00  .000E+00  .000E+00  .000E+00
  .000E+00  .000E+00  .000E+00  .000E+00  .000E+00  .000E+00  .000E+00  .000E+00
  .000E+00  .000E+00  .000E+00  .000E+00
  .406E+02  .401E+02  .401E+02  .401E+02  .403E+02  .403E+02  .412E+02  .403E+02
  .403E+02  .402E+02  .403E+02  .413E+02  .413E+02  .406E+02  .403E+02  .403E+02
  .403E+02  .403E+02  .403E+02  .403E+02  .403E+02  .403E+02  .401E+02  .401E+02
  .401E+02  .403E+02  .403E+02  .403E+02  .402E+02  .402E+02  .402E+02  .402E+02
  .402E+02  .402E+02  .402E+02  .402E+02  .401E+02  .401E+02  .402E+02  .402E+02
  .402E+02  .402E+02  .401E+02  .401E+02  .401E+02  .403E+02  .403E+02  .402E+02
  .402E+02  .402E+02  .402E+02  .402E+02  .402E+02  .402E+02  .402E+02  .402E+02
  .402E+02  .402E+02  .402E+02  .402E+02  .402E+02  .402E+02  .402E+02  .402E+02
  .402E+02  .402E+02  .402E+02  .402E+02  .402E+02  .402E+02  .402E+02  .402E+02
  .402E+02  .402E+02  .402E+02  .402E+02  .402E+02  .402E+02  .000E+00  .000E+00
  .000E+00  .000E+00  .000E+00  .000E+00  .000E+00  .000E+00  .000E+00  .000E+00
  .000E+00  .000E+00  .000E+00  .000E+00  .000E+00  .000E+00  .000E+00  .000E+00
  .000E+00  .000E+00  .000E+00  .000E+00
  .402E+02  .402E+02  .402E+02  .403E+02  .402E+02  .402E+02  .401E+02  .403E+02
  .403E+02  .402E+02  .402E+02  .402E+02  .402E+02  .402E+02  .403E+02  .403E+02
  .403E+02  .403E+02  .403E+02  .403E+02  .402E+02  .402E+02  .401E+02  .400E+02
  .400E+02  .403E+02  .402E+02  .402E+02  .402E+02  .402E+02  .402E+02  .402E+02
  .402E+02  .402E+02  .402E+02  .402E+02  .402E+02  .401E+02  .402E+02  .402E+02
  .402E+02  .402E+02  .402E+02  .403E+02  .401E+02  .401E+02  .402E+02  .402E+02
  .402E+02  .402E+02  .402E+02  .402E+02  .402E+02  .402E+02  .402E+02  .402E+02
  .405E+02  .405E+02  .406E+02  .399E+02  .401E+02  .401E+02  .401E+02  .401E+02
  .401E+02  .401E+02  .401E+02  .401E+02  .401E+02  .401E+02  .401E+02  .401E+02
  .401E+02  .401E+02  .401E+02  .401E+02  .401E+02  .401E+02  .000E+00  .000E+00
  .000E+00  .000E+00  .000E+00  .000E+00  .000E+00  .000E+00  .000E+00  .000E+00
  .000E+00  .000E+00  .000E+00  .000E+00  .000E+00  .000E+00  .000E+00  .000E+00
  .000E+00  .000E+00  .000E+00  .000E+00
/&   ----------  End of spectral data for channel  1  ----------
Response and Fourier amplitude spectra (78 periods,  .04 -  6.0 sec)   for      
Corrected accelerogram   38695658.CI.BAC.--.HN      Chan  2: 360 Deg     from   
Uncorrected Accelerogram Data             Processed: 09/19/20, CGS  cibac--l    
Rcrd of Fri Sep 18, 2020 23:38:38.0 PDT               (Avol1 v2.0, 4/18 CSMIP)  
                                        (Origin:  To be determined)             
38695658.CI.BAC.--.HN                Start time:  9/19/20, 06:38:38.0 UTC (GPS) 
Station Id. BAC     33.612N, 117.041W    ObsMMS  s/n 1121  (3 Chns of  6 at Sta)
Bachelor Mountain                        SCSN   Data: Acceleration              
Chan  2: 360 Deg                                                                
Rcrd of Fri Sep 18, 2020 23:38:38.0 PDT    Fri Sep 18, 2020 23:38:38.0 PDT      
Hypocenter:  To be determined.               ML:  To be determined.             
Instr Period =  .0050 sec,  Damping =  .707,  Sensitivity = 4.98 v/g  (Nominal) 
                        Record Length =301.000 sec.                             
                                     Uncor Max  =   .007 g, at   40.350 sec.    
RMS accel of (uncor) record  =        .   Chn. metadata effective date:         
Accelerogram bandpass filtered with 3 dB pts at   .30 and 23.00 cyc/sec         
                 instrument- and base-line correcte                             
                                                                                
                                                                                
                                                                                
                                                                                
                                                                                
Rcrd of Fri Sep 18, 2020 23:38:38.0 PDT    Fri Sep 18, 2020 23:38:38.0 PDT      
                                                                                
38695658.CI.BAC.--.HN     Bachelor Mountain   Chan  2: 360 Deg                  
                                                                                
38695658.CI.BAC.--.HN     Bachelor Mountain   Chan  2: 360 Deg                  
                                                                                
Units for spectra are inches and sec, except Sa is in fraction of g.            
                                                                                
    2  100    2    6    6  100 -999    3    1    0   15 1121    050748   41    0
    6   38   38   10  263    9   19 2020   10    3  36036093   39   17   74 -999
36093 -999  100    6 -999 -999 -999 -999 -999 -999 -999 -999 -999 -999 -999 -999
 -999 -999 -999 -99915050    2 -999    0 -999   20 -999 -999    3    1 -99915050
    315050    4   78    1    3    5    0    0 -999    0 -999 -999    6 -999    2
    2    2    4 -999 -999 -999 -999 -999 -999 -999 -999    1 -999 -999 -999  111
    1    1 -999 -999
      .005      .707   360.930      .000     1.000  4981.697      .007    40.350
   200.000     2.384      .479  -999.000    10.000  -999.000     4.000  -999.000
    20.000   -30.421      .000  -999.000  -999.000  -999.000  -999.000     -.001
      .001      .002     2.000    15.000    33.612  -117.041      .001      .002
     1.333      .001      .002   551.000  -999.000  -999.000  -999.000  -999.000
     1.000  -999.000  -999.000  -999.000  -999.000  -999.000  -999.000   120.000
     -.900     2.000     6.800   980.665      .020   301.000    31.831      .000
  -999.000    23.000  -999.000   301.000      .020      .300  -999.000  -999.000
    40.300    -7.385    40.320     -.145    40.120     -.005      .000      .300
    23.000      .020      .020      .000      .020      .003  -999.000  -999.000
      .036      .120      .007      .003      .000      .000  -999.000  -999.000
  -999.000  -999.000  -999.000  -999.000  -999.000  -999.000  -999.000  -999.000
  -999.000  -999.000  -999.000  -999.000
      .050
      .040      .042      .044      .046      .048      .050      .055      .060
      .065      .070      .075      .080      .085      .090      .095      .100
      .110      .120      .130      .140      .150      .160      .170      .180
      .190      .200      .220      .240      .260      .280      .300      .320
      .340      .360      .380      .400      .420      .440      .460      .480
      .500      .550      .600      .650      .700      .750      .800      .850
      .900      .950     1.000     1.100     1.200     1.300     1.400     1.500
     1.600     1.700     1.800     1.900     2.000     2.200     2.400     2.600
     2.800     3.000     3.200     3.400     3.600     3.800     4.000     4.200
     4.400     4.600     4.800     5.000     5.500     6.000      .000      .000
      .000      .000      .000      .000      .000      .000      .000      .000
      .000      .000      .000      .000      .000      .000      .000      .000
      .000      .000      .000      .000
Fourier amplitude spectra in in/sec.
  .000E+00  .000E+00  .000E+00  .000E+00  .000E+00  .000E+00  .000E+00  .000E+00
  .000E+00  .000E+00  .000E+00  .000E+00  .000E+00  .000E+00  .000E+00  .000E+00
  .000E+00  .000E+00  .000E+00  .000E+00  .000E+00  .000E+00  .000E+00  .000E+00
  .000E+00  .000E+00  .000E+00  .000E+00  .000E+00  .000E+00  .000E+00  .000E+00
  .000E+00  .000E+00  .000E+00  .000E+00  .000E+00  .000E+00  .000E+00  .000E+00
  .000E+00  .000E+00  .000E+00  .000E+00  .000E+00  .000E+00  .000E+00  .000E+00
  .000E+00  .000E+00  .000E+00  .000E+00  .000E+00  .000E+00  .000E+00  .000E+00
  .000E+00  .000E+00  .000E+00  .000E+00  .000E+00  .000E+00  .000E+00  .000E+00
  .000E+00  .000E+00  .000E+00  .000E+00  .000E+00  .000E+00  .000E+00  .000E+00
  .000E+00  .000E+00  .000E+00  .000E+00  .000E+00  .000E+00  .000E+00  .000E+00
  .000E+00  .000E+00  .000E+00  .000E+00  .000E+00  .000E+00  .000E+00  .000E+00
  .000E+00  .000E+00  .000E+00  .000E+00  .000E+00  .000E+00  .000E+00  .000E+00
  .000E+00  .000E+00  .000E+00  .000E+00
Damping =  .05. Data of Sd,Sv,Sa,Pssv,ttSd,ttSv,ttSa :
  .136E-03  .151E-03  .167E-03  .189E-03  .223E-03  .256E-03  .330E-03  .452E-03
  .736E-03  .932E-03  .109E-02  .120E-02  .139E-02  .153E-02  .209E-02  .268E-02
  .401E-02  .519E-02  .422E-02  .321E-02  .308E-02  .238E-02  .232E-02  .247E-02
  .243E-02  .261E-02  .348E-02  .455E-02  .359E-02  .314E-02  .283E-02  .242E-02
  .245E-02  .243E-02  .239E-02  .236E-02  .251E-02  .254E-02  .256E-02  .261E-02
