Response and Fourier amplitude spectra (78 periods,  .04 -  6.0 sec)   for      
Corrected accelerogram   38695658.CI.BBR.--.HN      Chan  1:  90 Deg     from   
Uncorrected Accelerogram Data             Processed: 09/19/20, CGS  cibbr--v    
Rcrd of Fri Sep 18, 2020 23:38:42.0 PDT               (Avol1 v2.0, 4/18 CSMIP)  
                                        (Origin:  To be determined)             
38695658.CI.BBR.--.HN                Start time:  9/19/20, 06:38:42.0 UTC (GPS) 
Station Id. BBR     34.262N, 116.921W    ObsMMS  s/n 4874  (3 Chns of  6 at Sta)
Fawnskin, Big Bear Lake                  SCSN   Data: Acceleration              
Chan  1:  90 Deg                                                                
Rcrd of Fri Sep 18, 2020 23:38:42.0 PDT    Fri Sep 18, 2020 23:38:42.0 PDT      
Hypocenter:  To be determined.               ML:  To be determined.             
Instr Period =  .0050 sec,  Damping =  .707,  Sensitivity = 4.99 v/g  (Nominal) 
                        Record Length =301.000 sec.                             
                                     Uncor Max  =  -.001 g, at   41.110 sec.    
RMS accel of (uncor) record  =        .   Chn. metadata effective date:         
Accelerogram bandpass filtered with 3 dB pts at   .30 and 23.00 cyc/sec         
                 instrument- and base-line correcte                             
                                                                                
                                                                                
                                                                                
                                                                                
                                                                                
Rcrd of Fri Sep 18, 2020 23:38:42.0 PDT    Fri Sep 18, 2020 23:38:42.0 PDT      
                                                                                
38695658.CI.BBR.--.HN     Fawnskin, Big Bear Lake   Chan  1:  90 Deg            
                                                                                
38695658.CI.BBR.--.HN     Fawnskin, Big Bear Lake   Chan  1:  90 Deg            
                                                                                
Units for spectra are inches and sec, except Sa is in fraction of g.            
                                                                                
    1  100    1    6    6  100 -999    3    1    0   15 4874    050590   41    0
    6   38   42    8  263    9   19 2020   10    3   9035541   39   23   74 -999
35541 -999  100    6 -999 -999 -999 -999 -999 -999 -999 -999 -999 -999 -999 -999
 -999 -999 -999 -99915050    2 -999    0 -999   20 -999 -999    3    1 -99915050
    315050    4   78    1    3    5    0    0 -999    0 -999 -999    6 -999    2
    2    2    4 -999 -999 -999 -999 -999 -999 -999 -999    1 -999 -999 -999  111
    1    1 -999 -999
      .005      .707   355.410      .000     1.000  4985.686     -.001    41.110
   200.000     2.384      .478  -999.000    10.000  -999.000     4.000  -999.000
    20.000   -24.460      .000  -999.000  -999.000  -999.000  -999.000      .000
      .000      .000     2.000    15.000    34.262  -116.921      .001      .002
     1.799      .000      .000  2069.000  -999.000  -999.000  -999.000  -999.000
     1.000  -999.000    -8.000  -999.000  -999.000  -999.000  -999.000   120.000
     -.900     2.000     6.800   980.665      .020   301.000    31.831      .000
  -999.000    23.000  -999.000   301.000      .020      .300  -999.000  -999.000
    39.420     1.340    39.460      .057    37.740      .005      .000      .300
    23.000      .020      .020      .000      .020      .004  -999.000  -999.000
      .006      .260      .005      .003      .000      .000  -999.000  -999.000
  -999.000  -999.000  -999.000  -999.000  -999.000  -999.000  -999.000  -999.000
  -999.000  -999.000  -999.000  -999.000
      .050
      .040      .042      .044      .046      .048      .050      .055      .060
      .065      .070      .075      .080      .085      .090      .095      .100
      .110      .120      .130      .140      .150      .160      .170      .180
      .190      .200      .220      .240      .260      .280      .300      .320
      .340      .360      .380      .400      .420      .440      .460      .480
      .500      .550      .600      .650      .700      .750      .800      .850
      .900      .950     1.000     1.100     1.200     1.300     1.400     1.500
     1.600     1.700     1.800     1.900     2.000     2.200     2.400     2.600
     2.800     3.000     3.200     3.400     3.600     3.800     4.000     4.200
     4.400     4.600     4.800     5.000     5.500     6.000      .000      .000
      .000      .000      .000      .000      .000      .000      .000      .000
      .000      .000      .000      .000      .000      .000      .000      .000
      .000      .000      .000      .000
Fourier amplitude spectra in in/sec.
  .000E+00  .000E+00  .000E+00  .000E+00  .000E+00  .000E+00  .000E+00  .000E+00
  .000E+00  .000E+00  .000E+00  .000E+00  .000E+00  .000E+00  .000E+00  .000E+00
  .000E+00  .000E+00  .000E+00  .000E+00  .000E+00  .000E+00  .000E+00  .000E+00
  .000E+00  .000E+00  .000E+00  .000E+00  .000E+00  .000E+00  .000E+00  .000E+00
  .000E+00  .000E+00  .000E+00  .000E+00  .000E+00  .000E+00  .000E+00  .000E+00
  .000E+00  .000E+00  .000E+00  .000E+00  .000E+00  .000E+00  .000E+00  .000E+00
  .000E+00  .000E+00  .000E+00  .000E+00  .000E+00  .000E+00  .000E+00  .000E+00
  .000E+00  .000E+00  .000E+00  .000E+00  .000E+00  .000E+00  .000E+00  .000E+00
  .000E+00  .000E+00  .000E+00  .000E+00  .000E+00  .000E+00  .000E+00  .000E+00
  .000E+00  .000E+00  .000E+00  .000E+00  .000E+00  .000E+00  .000E+00  .000E+00
  .000E+00  .000E+00  .000E+00  .000E+00  .000E+00  .000E+00  .000E+00  .000E+00
  .000E+00  .000E+00  .000E+00  .000E+00  .000E+00  .000E+00  .000E+00  .000E+00
  .000E+00  .000E+00  .000E+00  .000E+00
Damping =  .05. Data of Sd,Sv,Sa,Pssv,ttSd,ttSv,ttSa :
  .238E-04  .272E-04  .311E-04  .362E-04  .394E-04  .437E-04  .682E-04  .830E-04
  .958E-04  .128E-03  .176E-03  .228E-03  .272E-03  .310E-03  .383E-03  .455E-03
  .578E-03  .661E-03  .729E-03  .773E-03  .100E-02  .114E-02  .139E-02  .156E-02
  .181E-02  .194E-02  .178E-02  .257E-02  .388E-02  .305E-02  .240E-02  .318E-02
  .345E-02  .319E-02  .236E-02  .248E-02  .247E-02  .316E-02  .394E-02  .445E-02
  .405E-02  .372E-02  .287E-02  .278E-02  .309E-02  .295E-02  .286E-02  .361E-02
  .363E-02  .449E-02  .500E-02  .370E-02  .410E-02  .467E-02  .471E-02  .400E-02
  .360E-02  .329E-02  .350E-02  .298E-02  .290E-02  .332E-02  .311E-02  .264E-02
  .233E-02  .224E-02  .215E-02  .207E-02  .210E-02  .213E-02  .213E-02  .209E-02
  .203E-02  .198E-02  .194E-02  .192E-02  .191E-02  .191E-02  .000E+00  .000E+00
  .000E+00  .000E+00  .000E+00  .000E+00  .000E+00  .000E+00  .000E+00  .000E+00
  .000E+00  .000E+00  .000E+00  .000E+00  .000E+00  .000E+00  .000E+00  .000E+00
  .000E+00  .000E+00  .000E+00  .000E+00
  .127E-02  .140E-02  .161E-02  .186E-02  .220E-02  .227E-02  .428E-02  .531E-02
  .625E-02  .880E-02  .107E-01  .150E-01  .170E-01  .173E-01  .206E-01  .249E-01
  .301E-01  .328E-01  .301E-01  .302E-01  .371E-01  .409E-01  .456E-01  .494E-01
  .555E-01  .594E-01  .511E-01  .611E-01  .951E-01  .741E-01  .538E-01  .613E-01
  .685E-01  .596E-01  .476E-01  .459E-01  .415E-01  .464E-01  .576E-01  .629E-01
  .579E-01  .510E-01  .429E-01  .397E-01  .383E-01  .405E-01  .377E-01  .344E-01
  .328E-01  .307E-01  .320E-01  .367E-01  .352E-01  .345E-01  .278E-01  .253E-01
  .247E-01  .233E-01  .229E-01  .223E-01  .225E-01  .230E-01  .239E-01  .237E-01
  .237E-01  .236E-01  .232E-01  .231E-01  .230E-01  .228E-01  .226E-01  .224E-01
  .223E-01  .223E-01  .223E-01  .223E-01  .222E-01  .222E-01  .000E+00  .000E+00
  .000E+00  .000E+00  .000E+00  .000E+00  .000E+00  .000E+00  .000E+00  .000E+00
  .000E+00  .000E+00  .000E+00  .000E+00  .000E+00  .000E+00  .000E+00  .000E+00
  .000E+00  .000E+00  .000E+00  .000E+00
  .153E-02  .158E-02  .164E-02  .175E-02  .175E-02  .180E-02  .232E-02  .237E-02
  .232E-02  .270E-02  .321E-02  .370E-02  .390E-02  .394E-02  .431E-02  .477E-02
  .499E-02  .466E-02  .440E-02  .401E-02  .456E-02  .459E-02  .493E-02  .497E-02
  .517E-02  .507E-02  .380E-02  .453E-02  .600E-02  .405E-02  .271E-02  .322E-02
  .303E-02  .251E-02  .170E-02  .161E-02  .144E-02  .168E-02  .190E-02  .200E-02
  .165E-02  .127E-02  .820E-03  .674E-03  .648E-03  .538E-03  .462E-03  .517E-03
  .460E-03  .512E-03  .518E-03  .315E-03  .294E-03  .284E-03  .247E-03  .183E-03
  .145E-03  .117E-03  .112E-03  .856E-04  .769E-04  .730E-04  .578E-04  .426E-04
  .330E-04  .292E-04  .252E-04  .220E-04  .202E-04  .187E-04  .172E-04  .156E-04
  .142E-04  .130E-04  .119E-04  .111E-04  .950E-05  .832E-05  .000E+00  .000E+00
  .000E+00  .000E+00  .000E+00  .000E+00  .000E+00  .000E+00  .000E+00  .000E+00
  .000E+00  .000E+00  .000E+00  .000E+00  .000E+00  .000E+00  .000E+00  .000E+00
  .000E+00  .000E+00  .000E+00  .000E+00
  .374E-02  .407E-02  .445E-02  .494E-02  .516E-02  .550E-02  .779E-02  .869E-02
  .926E-02  .115E-01  .147E-01  .179E-01  .201E-01  .216E-01  .253E-01  .286E-01
  .330E-01  .346E-01  .352E-01  .347E-01  .420E-01  .447E-01  .513E-01  .545E-01
  .597E-01  .611E-01  .507E-01  .674E-01  .938E-01  .685E-01  .502E-01  .624E-01
  .637E-01  .557E-01  .390E-01  .389E-01  .369E-01  .451E-01  .538E-01  .582E-01
  .508E-01  .425E-01  .300E-01  .269E-01  .277E-01  .247E-01  .225E-01  .267E-01
  .253E-01  .297E-01  .314E-01  .211E-01  .214E-01  .225E-01  .211E-01  .168E-01
  .141E-01  .121E-01  .122E-01  .984E-02  .913E-02  .948E-02  .813E-02  .639E-02
  .523E-02  .468E-02  .422E-02  .382E-02  .366E-02  .353E-02  .335E-02  .313E-02
  .290E-02  .271E-02  .255E-02  .241E-02  .218E-02  .200E-02  .000E+00  .000E+00
  .000E+00  .000E+00  .000E+00  .000E+00  .000E+00  .000E+00  .000E+00  .000E+00
  .000E+00  .000E+00  .000E+00  .000E+00  .000E+00  .000E+00  .000E+00  .000E+00
  .000E+00  .000E+00  .000E+00  .000E+00
  .379E+02  .379E+02  .380E+02  .380E+02  .380E+02  .390E+02  .389E+02  .389E+02
  .389E+02  .390E+02  .390E+02  .390E+02  .391E+02  .391E+02  .391E+02  .391E+02
  .391E+02  .392E+02  .395E+02  .395E+02  .378E+02  .379E+02  .381E+02  .381E+02
  .381E+02  .381E+02  .381E+02  .397E+02  .397E+02  .397E+02  .409E+02  .409E+02
  .408E+02  .408E+02  .416E+02  .415E+02  .477E+02  .401E+02  .408E+02  .413E+02
  .414E+02  .407E+02  .405E+02  .395E+02  .468E+02  .468E+02  .404E+02  .439E+02
  .445E+02  .474E+02  .475E+02  .482E+02  .410E+02  .535E+02  .599E+02  .573E+02
  .530E+02  .473E+02  .466E+02  .469E+02  .423E+02  .407E+02  .407E+02  .407E+02
  .407E+02  .377E+02  .377E+02  .377E+02  .377E+02  .377E+02  .377E+02  .377E+02
  .377E+02  .377E+02  .377E+02  .377E+02  .377E+02  .377E+02  .000E+00  .000E+00
  .000E+00  .000E+00  .000E+00  .000E+00  .000E+00  .000E+00  .000E+00  .000E+00
  .000E+00  .000E+00  .000E+00  .000E+00  .000E+00  .000E+00  .000E+00  .000E+00
  .000E+00  .000E+00  .000E+00  .000E+00
  .389E+02  .379E+02  .379E+02  .379E+02  .380E+02  .386E+02  .389E+02  .389E+02
  .389E+02  .389E+02  .389E+02  .390E+02  .391E+02  .412E+02  .391E+02  .392E+02
  .392E+02  .392E+02  .395E+02  .395E+02  .378E+02  .379E+02  .380E+02  .380E+02
  .380E+02  .380E+02  .382E+02  .396E+02  .396E+02  .397E+02  .410E+02  .409E+02
  .409E+02  .409E+02  .416E+02  .416E+02  .416E+02  .402E+02  .414E+02  .415E+02
  .408E+02  .406E+02  .396E+02  .394E+02  .394E+02  .389E+02  .389E+02  .411E+02
  .396E+02  .467E+02  .483E+02  .394E+02  .394E+02  .408E+02  .408E+02  .378E+02
  .380E+02  .380E+02  .380E+02  .380E+02  .380E+02  .394E+02  .394E+02  .394E+02
  .394E+02  .394E+02  .394E+02  .394E+02  .394E+02  .394E+02  .394E+02  .394E+02
  .394E+02  .394E+02  .394E+02  .394E+02  .394E+02  .394E+02  .000E+00  .000E+00
  .000E+00  .000E+00  .000E+00  .000E+00  .000E+00  .000E+00  .000E+00  .000E+00
  .000E+00  .000E+00  .000E+00  .000E+00  .000E+00  .000E+00  .000E+00  .000E+00
  .000E+00  .000E+00  .000E+00  .000E+00
  .379E+02  .379E+02  .379E+02  .380E+02  .380E+02  .390E+02  .389E+02  .389E+02
  .389E+02  .390E+02  .390E+02  .390E+02  .391E+02  .391E+02  .391E+02  .391E+02
  .391E+02  .391E+02  .395E+02  .395E+02  .378E+02  .380E+02  .381E+02  .381E+02
  .381E+02  .381E+02  .381E+02  .397E+02  .397E+02  .397E+02  .409E+02  .409E+02
  .408E+02  .408E+02  .416E+02  .415E+02  .398E+02  .401E+02  .408E+02  .413E+02
  .414E+02  .407E+02  .395E+02  .395E+02  .468E+02  .468E+02  .412E+02  .439E+02
  .444E+02  .474E+02  .475E+02  .482E+02  .410E+02  .535E+02  .599E+02  .573E+02
  .530E+02  .473E+02  .466E+02  .423E+02  .423E+02  .407E+02  .407E+02  .407E+02
  .407E+02  .377E+02  .377E+02  .377E+02  .377E+02  .377E+02  .377E+02  .377E+02
  .377E+02  .377E+02  .377E+02  .377E+02  .377E+02  .377E+02  .000E+00  .000E+00
  .000E+00  .000E+00  .000E+00  .000E+00  .000E+00  .000E+00  .000E+00  .000E+00
  .000E+00  .000E+00  .000E+00  .000E+00  .000E+00  .000E+00  .000E+00  .000E+00
  .000E+00  .000E+00  .000E+00  .000E+00
/&   ----------  End of spectral data for channel  1  ----------
Response and Fourier amplitude spectra (78 periods,  .04 -  6.0 sec)   for      
Corrected accelerogram   38695658.CI.BBR.--.HN      Chan  2: 360 Deg     from   
Uncorrected Accelerogram Data             Processed: 09/19/20, CGS  cibbr--v    
Rcrd of Fri Sep 18, 2020 23:38:42.0 PDT               (Avol1 v2.0, 4/18 CSMIP)  
                                        (Origin:  To be determined)             
38695658.CI.BBR.--.HN                Start time:  9/19/20, 06:38:42.0 UTC (GPS) 
Station Id. BBR     34.262N, 116.921W    ObsMMS  s/n 4874  (3 Chns of  6 at Sta)
Fawnskin, Big Bear Lake                  SCSN   Data: Acceleration              
Chan  2: 360 Deg                                                                
Rcrd of Fri Sep 18, 2020 23:38:42.0 PDT    Fri Sep 18, 2020 23:38:42.0 PDT      
Hypocenter:  To be determined.               ML:  To be determined.             
Instr Period =  .0050 sec,  Damping =  .707,  Sensitivity = 4.98 v/g  (Nominal) 
                        Record Length =301.000 sec.                             
                                     Uncor Max  =   .002 g, at   38.760 sec.    
RMS accel of (uncor) record  =        .   Chn. metadata effective date:         
Accelerogram bandpass filtered with 3 dB pts at   .30 and 23.00 cyc/sec         
                 instrument- and base-line correcte                             
                                                                                
                                                                                
                                                                                
                                                                                
                                                                                
Rcrd of Fri Sep 18, 2020 23:38:42.0 PDT    Fri Sep 18, 2020 23:38:42.0 PDT      
                                                                                
38695658.CI.BBR.--.HN     Fawnskin, Big Bear Lake   Chan  2: 360 Deg            
                                                                                
38695658.CI.BBR.--.HN     Fawnskin, Big Bear Lake   Chan  2: 360 Deg            
                                                                                
Units for spectra are inches and sec, except Sa is in fraction of g.            
                                                                                
    2  100    2    6    6  100 -999    3    1    0   15 4874    050590   41    0
    6   38   42    8  263    9   19 2020   10    3  36035896   39   23   74 -999
35896 -999  100    6 -999 -999 -999 -999 -999 -999 -999 -999 -999 -999 -999 -999
 -999 -999 -999 -99915050    2 -999    0 -999   20 -999 -999    3    1 -99915050
    315050    4   78    1    3    5    0    0 -999    0 -999 -999    6 -999    2
    2    2    4 -999 -999 -999 -999 -999 -999 -999 -999    1 -999 -999 -999  111
    1    1 -999 -999
      .005      .707   358.960      .000     1.000  4984.889      .002    38.760
   200.000     2.384      .478  -999.000    10.000  -999.000     4.000  -999.000
    20.000   -15.782      .000  -999.000  -999.000  -999.000  -999.000     -.001
      .000      .001     2.000    15.000    34.262  -116.921      .001      .002
     2.096      .000      .001  2069.000  -999.000  -999.000  -999.000  -999.000
     1.000  -999.000  -999.000  -999.000  -999.000  -999.000  -999.000   120.000
     -.900     2.000     6.800   980.665      .020   301.000    31.831      .000
  -999.000    23.000  -999.000   301.000      .020      .300  -999.000  -999.000
    38.760     1.733    39.960     -.054    40.840      .005      .000      .300
    23.000      .020      .020      .000      .020      .004  -999.000  -999.000
      .009      .130      .004      .002      .000      .000  -999.000  -999.000
  -999.000  -999.000  -999.000  -999.000  -999.000  -999.000  -999.000  -999.000
  -999.000  -999.000  -999.000  -999.000
      .050
      .040      .042      .044      .046      .048      .050      .055      .060
      .065      .070      .075      .080      .085      .090      .095      .100
      .110      .120      .130      .140      .150      .160      .170      .180
      .190      .200      .220      .240      .260      .280      .300      .320
      .340      .360      .380      .400      .420      .440      .460      .480
      .500      .550      .600      .650      .700      .750      .800      .850
      .900      .950     1.000     1.100     1.200     1.300     1.400     1.500
     1.600     1.700     1.800     1.900     2.000     2.200     2.400     2.600
     2.800     3.000     3.200     3.400     3.600     3.800     4.000     4.200
     4.400     4.600     4.800     5.000     5.500     6.000      .000      .000
      .000      .000      .000      .000      .000      .000      .000      .000
      .000      .000      .000      .000      .000      .000      .000      .000
      .000      .000      .000      .000
Fourier amplitude spectra in in/sec.
  .000E+00  .000E+00  .000E+00  .000E+00  .000E+00  .000E+00  .000E+00  .000E+00
  .000E+00  .000E+00  .000E+00  .000E+00  .000E+00  .000E+00  .000E+00  .000E+00
  .000E+00  .000E+00  .000E+00  .000E+00  .000E+00  .000E+00  .000E+00  .000E+00
  .000E+00  .000E+00  .000E+00  .000E+00  .000E+00  .000E+00  .000E+00  .000E+00
  .000E+00  .000E+00  .000E+00  .000E+00  .000E+00  .000E+00  .000E+00  .000E+00
  .000E+00  .000E+00  .000E+00  .000E+00  .000E+00  .000E+00  .000E+00  .000E+00
  .000E+00  .000E+00  .000E+00  .000E+00  .000E+00  .000E+00  .000E+00  .000E+00
  .000E+00  .000E+00  .000E+00  .000E+00  .000E+00  .000E+00  .000E+00  .000E+00
  .000E+00  .000E+00  .000E+00  .000E+00  .000E+00  .000E+00  .000E+00  .000E+00
  .000E+00  .000E+00  .000E+00  .000E+00  .000E+00  .000E+00  .000E+00  .000E+00
  .000E+00  .000E+00  .000E+00  .000E+00  .000E+00  .000E+00  .000E+00  .000E+00
  .000E+00  .000E+00  .000E+00  .000E+00  .000E+00  .000E+00  .000E+00  .000E+00
  .000E+00  .000E+00  .000E+00  .000E+00
Damping =  .05. Data of Sd,Sv,Sa,Pssv,ttSd,ttSv,ttSa :
  .281E-04  .314E-04  .355E-04  .397E-04  .435E-04  .512E-04  .660E-04  .927E-04
  .120E-03  .148E-03  .199E-03  .264E-03  .318E-03  .362E-03  .415E-03  .446E-03
  .643E-03  .103E-02  .152E-02  .135E-02  .124E-02  .137E-02  .126E-02  .135E-02
  .134E-02  .127E-02  .182E-02  .200E-02  .261E-02  .179E-02  .187E-02  .140E-02
  .148E-02  .186E-02  .250E-02  .280E-02  .296E-02  .353E-02  .412E-02  .423E-02
