Response and Fourier amplitude spectra (78 periods,  .04 -  6.0 sec)   for      
Corrected accelerogram   38695658.CI.BBS.--.HN      Chan  1:  90 Deg     from   
Uncorrected Accelerogram Data             Processed: 09/19/20, CGS  cibbs--m    
Rcrd of Fri Sep 18, 2020 23:38:39.0 PDT               (Avol1 v2.0, 4/18 CSMIP)  
                                        (Origin:  To be determined)             
38695658.CI.BBS.--.HN                Start time:  9/19/20, 06:38:39.0 UTC (GPS) 
Station Id. BBS     33.921N, 116.981W    Q330    s/n 3933  (3 Chns of  6 at Sta)
Beaumont, I-10 at 79                     SCSN   Data: Acceleration              
Chan  1:  90 Deg                                                                
Rcrd of Fri Sep 18, 2020 23:38:39.0 PDT    Fri Sep 18, 2020 23:38:39.0 PDT      
Hypocenter:  To be determined.               ML:  To be determined.             
Instr Period =  .0050 sec,  Damping =  .707,  Sensitivity = 4.99 v/g  (Nominal) 
                        Record Length =301.000 sec.                             
                                     Uncor Max  =   .003 g, at   39.320 sec.    
RMS accel of (uncor) record  =        .   Chn. metadata effective date:         
Accelerogram bandpass filtered with 3 dB pts at   .30 and 23.00 cyc/sec         
                 instrument- and base-line correcte                             
                                                                                
                                                                                
                                                                                
                                                                                
                                                                                
Rcrd of Fri Sep 18, 2020 23:38:39.0 PDT    Fri Sep 18, 2020 23:38:39.0 PDT      
                                                                                
38695658.CI.BBS.--.HN     Beaumont, I-10 at 79    Chan  1:  90 Deg              
                                                                                
38695658.CI.BBS.--.HN     Beaumont, I-10 at 79    Chan  1:  90 Deg              
                                                                                
Units for spectra are inches and sec, except Sa is in fraction of g.            
                                                                                
    1  100    1    6    6  100 -999    3    1    0  605 3933    050591   41    0
    6   38   39    8  263    9   19 2020   10    3   9035915   39   20   74 -999
35915 -999  100    6 -999 -999 -999 -999 -999 -999 -999 -999 -999 -999 -999 -999
 -999 -999 -999 -99915050    2 -999    0 -999   20 -999 -999    3    1 -99915050
    315050    4   78    1    3    5    0    0 -999    0 -999 -999    6 -999    2
    2    2    4 -999 -999 -999 -999 -999 -999 -999 -999    1 -999 -999 -999  111
    1    1 -999 -999
      .005      .707   359.150      .000     1.000  4988.878      .003    39.320
   200.000     2.384      .478  -999.000    10.000  -999.000     4.000  -999.000
    20.000   -12.536      .000  -999.000  -999.000  -999.000  -999.000     -.002
      .002      .004     2.000    15.000    33.921  -116.981      .003      .006
     1.843      .003      .005   785.000  -999.000  -999.000  -999.000  -999.000
     1.000  -999.000    -8.000  -999.000  -999.000  -999.000  -999.000   120.000
     -.900     2.000     6.800   980.665      .020   301.000    31.831      .000
  -999.000    23.000  -999.000   301.000      .020      .300  -999.000  -999.000
    39.320     3.043    39.280     -.095    38.800     -.007      .000      .300
    23.000      .020      .020      .000      .020      .006  -999.000  -999.000
      .012      .170      .010      .007      .001      .000  -999.000  -999.000
  -999.000  -999.000  -999.000  -999.000  -999.000  -999.000  -999.000  -999.000
  -999.000  -999.000  -999.000  -999.000
      .050
      .040      .042      .044      .046      .048      .050      .055      .060
      .065      .070      .075      .080      .085      .090      .095      .100
      .110      .120      .130      .140      .150      .160      .170      .180
      .190      .200      .220      .240      .260      .280      .300      .320
      .340      .360      .380      .400      .420      .440      .460      .480
      .500      .550      .600      .650      .700      .750      .800      .850
      .900      .950     1.000     1.100     1.200     1.300     1.400     1.500
     1.600     1.700     1.800     1.900     2.000     2.200     2.400     2.600
     2.800     3.000     3.200     3.400     3.600     3.800     4.000     4.200
     4.400     4.600     4.800     5.000     5.500     6.000      .000      .000
      .000      .000      .000      .000      .000      .000      .000      .000
      .000      .000      .000      .000      .000      .000      .000      .000
      .000      .000      .000      .000
Fourier amplitude spectra in in/sec.
  .000E+00  .000E+00  .000E+00  .000E+00  .000E+00  .000E+00  .000E+00  .000E+00
  .000E+00  .000E+00  .000E+00  .000E+00  .000E+00  .000E+00  .000E+00  .000E+00
  .000E+00  .000E+00  .000E+00  .000E+00  .000E+00  .000E+00  .000E+00  .000E+00
  .000E+00  .000E+00  .000E+00  .000E+00  .000E+00  .000E+00  .000E+00  .000E+00
  .000E+00  .000E+00  .000E+00  .000E+00  .000E+00  .000E+00  .000E+00  .000E+00
  .000E+00  .000E+00  .000E+00  .000E+00  .000E+00  .000E+00  .000E+00  .000E+00
  .000E+00  .000E+00  .000E+00  .000E+00  .000E+00  .000E+00  .000E+00  .000E+00
  .000E+00  .000E+00  .000E+00  .000E+00  .000E+00  .000E+00  .000E+00  .000E+00
  .000E+00  .000E+00  .000E+00  .000E+00  .000E+00  .000E+00  .000E+00  .000E+00
  .000E+00  .000E+00  .000E+00  .000E+00  .000E+00  .000E+00  .000E+00  .000E+00
  .000E+00  .000E+00  .000E+00  .000E+00  .000E+00  .000E+00  .000E+00  .000E+00
  .000E+00  .000E+00  .000E+00  .000E+00  .000E+00  .000E+00  .000E+00  .000E+00
  .000E+00  .000E+00  .000E+00  .000E+00
Damping =  .05. Data of Sd,Sv,Sa,Pssv,ttSd,ttSv,ttSa :
  .497E-04  .551E-04  .606E-04  .664E-04  .721E-04  .791E-04  .102E-03  .130E-03
  .148E-03  .182E-03  .218E-03  .288E-03  .414E-03  .512E-03  .513E-03  .611E-03
  .715E-03  .922E-03  .116E-02  .126E-02  .181E-02  .284E-02  .337E-02  .340E-02
  .342E-02  .393E-02  .423E-02  .478E-02  .604E-02  .645E-02  .629E-02  .585E-02
  .570E-02  .503E-02  .407E-02  .446E-02  .435E-02  .422E-02  .460E-02  .484E-02
  .543E-02  .594E-02  .682E-02  .671E-02  .563E-02  .445E-02  .460E-02  .519E-02
  .536E-02  .590E-02  .630E-02  .789E-02  .767E-02  .713E-02  .777E-02  .701E-02
  .657E-02  .591E-02  .626E-02  .630E-02  .596E-02  .522E-02  .465E-02  .479E-02
  .468E-02  .424E-02  .416E-02  .394E-02  .374E-02  .362E-02  .353E-02  .345E-02
  .337E-02  .327E-02  .320E-02  .313E-02  .304E-02  .301E-02  .000E+00  .000E+00
  .000E+00  .000E+00  .000E+00  .000E+00  .000E+00  .000E+00  .000E+00  .000E+00
  .000E+00  .000E+00  .000E+00  .000E+00  .000E+00  .000E+00  .000E+00  .000E+00
  .000E+00  .000E+00  .000E+00  .000E+00
  .212E-02  .235E-02  .263E-02  .295E-02  .330E-02  .355E-02  .405E-02  .601E-02
  .742E-02  .824E-02  .103E-01  .153E-01  .210E-01  .227E-01  .281E-01  .312E-01
  .309E-01  .449E-01  .492E-01  .494E-01  .660E-01  .993E-01  .115E+00  .112E+00
  .111E+00  .117E+00  .116E+00  .123E+00  .147E+00  .145E+00  .146E+00  .131E+00
  .124E+00  .105E+00  .905E-01  .763E-01  .768E-01  .740E-01  .803E-01  .852E-01
  .888E-01  .766E-01  .754E-01  .674E-01  .596E-01  .609E-01  .626E-01  .626E-01
  .613E-01  .600E-01  .650E-01  .699E-01  .646E-01  .568E-01  .584E-01  .547E-01
  .497E-01  .458E-01  .422E-01  .419E-01  .414E-01  .394E-01  .381E-01  .366E-01
  .361E-01  .359E-01  .353E-01  .346E-01  .341E-01  .343E-01  .346E-01  .348E-01
  .350E-01  .351E-01  .352E-01  .353E-01  .353E-01  .353E-01  .000E+00  .000E+00
  .000E+00  .000E+00  .000E+00  .000E+00  .000E+00  .000E+00  .000E+00  .000E+00
  .000E+00  .000E+00  .000E+00  .000E+00  .000E+00  .000E+00  .000E+00  .000E+00
  .000E+00  .000E+00  .000E+00  .000E+00
  .317E-02  .319E-02  .320E-02  .320E-02  .320E-02  .324E-02  .344E-02  .369E-02
  .358E-02  .380E-02  .400E-02  .462E-02  .583E-02  .651E-02  .582E-02  .626E-02
  .599E-02  .653E-02  .697E-02  .662E-02  .823E-02  .113E-01  .119E-01  .107E-01
  .984E-02  .100E-01  .885E-02  .850E-02  .912E-02  .847E-02  .720E-02  .581E-02
  .508E-02  .393E-02  .294E-02  .291E-02  .252E-02  .225E-02  .227E-02  .215E-02
  .223E-02  .204E-02  .195E-02  .164E-02  .119E-02  .814E-03  .749E-03  .746E-03
  .702E-03  .673E-03  .648E-03  .673E-03  .551E-03  .443E-03  .413E-03  .324E-03
  .264E-03  .213E-03  .202E-03  .184E-03  .158E-03  .116E-03  .882E-04  .740E-04
  .615E-04  .521E-04  .455E-04  .388E-04  .333E-04  .294E-04  .263E-04  .236E-04
  .213E-04  .193E-04  .176E-04  .161E-04  .134E-04  .115E-04  .000E+00  .000E+00
  .000E+00  .000E+00  .000E+00  .000E+00  .000E+00  .000E+00  .000E+00  .000E+00
  .000E+00  .000E+00  .000E+00  .000E+00  .000E+00  .000E+00  .000E+00  .000E+00
  .000E+00  .000E+00  .000E+00  .000E+00
  .781E-02  .824E-02  .866E-02  .907E-02  .944E-02  .994E-02  .116E-01  .136E-01
  .143E-01  .164E-01  .183E-01  .226E-01  .306E-01  .358E-01  .339E-01  .384E-01
  .408E-01  .483E-01  .559E-01  .567E-01  .759E-01  .112E+00  .125E+00  .119E+00
  .113E+00  .124E+00  .121E+00  .125E+00  .146E+00  .145E+00  .132E+00  .115E+00
  .105E+00  .877E-01  .673E-01  .700E-01  .650E-01  .603E-01  .628E-01  .634E-01
  .682E-01  .679E-01  .715E-01  .648E-01  .506E-01  .373E-01  .361E-01  .384E-01
  .374E-01  .390E-01  .396E-01  .451E-01  .401E-01  .344E-01  .349E-01  .294E-01
  .258E-01  .219E-01  .218E-01  .208E-01  .187E-01  .149E-01  .122E-01  .116E-01
  .105E-01  .888E-02  .817E-02  .728E-02  .652E-02  .599E-02  .555E-02  .516E-02
  .481E-02  .447E-02  .418E-02  .393E-02  .348E-02  .315E-02  .000E+00  .000E+00
  .000E+00  .000E+00  .000E+00  .000E+00  .000E+00  .000E+00  .000E+00  .000E+00
  .000E+00  .000E+00  .000E+00  .000E+00  .000E+00  .000E+00  .000E+00  .000E+00
  .000E+00  .000E+00  .000E+00  .000E+00
  .392E+02  .392E+02  .392E+02  .392E+02  .392E+02  .392E+02  .392E+02  .392E+02
  .393E+02  .393E+02  .392E+02  .393E+02  .393E+02  .393E+02  .397E+02  .393E+02
  .393E+02  .398E+02  .398E+02  .391E+02  .393E+02  .393E+02  .393E+02  .394E+02
  .394E+02  .394E+02  .394E+02  .394E+02  .395E+02  .400E+02  .397E+02  .398E+02
  .392E+02  .392E+02  .391E+02  .398E+02  .398E+02  .398E+02  .398E+02  .398E+02
  .396E+02  .397E+02  .403E+02  .403E+02  .411E+02  .395E+02  .393E+02  .393E+02
  .393E+02  .389E+02  .390E+02  .401E+02  .402E+02  .397E+02  .399E+02  .399E+02
  .621E+02  .395E+02  .395E+02  .395E+02  .395E+02  .395E+02  .388E+02  .546E+02
  .577E+02  .388E+02  .388E+02  .388E+02  .388E+02  .388E+02  .388E+02  .388E+02
  .388E+02  .388E+02  .388E+02  .388E+02  .388E+02  .388E+02  .000E+00  .000E+00
  .000E+00  .000E+00  .000E+00  .000E+00  .000E+00  .000E+00  .000E+00  .000E+00
  .000E+00  .000E+00  .000E+00  .000E+00  .000E+00  .000E+00  .000E+00  .000E+00
  .000E+00  .000E+00  .000E+00  .000E+00
  .393E+02  .393E+02  .393E+02  .393E+02  .393E+02  .393E+02  .393E+02  .393E+02
  .393E+02  .393E+02  .393E+02  .393E+02  .393E+02  .397E+02  .397E+02  .397E+02
  .397E+02  .398E+02  .398E+02  .396E+02  .396E+02  .394E+02  .394E+02  .394E+02
  .394E+02  .394E+02  .394E+02  .394E+02  .393E+02  .399E+02  .398E+02  .393E+02
  .393E+02  .391E+02  .392E+02  .397E+02  .397E+02  .397E+02  .397E+02  .397E+02
  .397E+02  .395E+02  .404E+02  .396E+02  .394E+02  .394E+02  .391E+02  .391E+02
  .391E+02  .391E+02  .393E+02  .393E+02  .393E+02  .393E+02  .396E+02  .396E+02
  .396E+02  .396E+02  .396E+02  .392E+02  .392E+02  .392E+02  .392E+02  .394E+02
  .394E+02  .394E+02  .394E+02  .394E+02  .394E+02  .393E+02  .393E+02  .393E+02
  .393E+02  .393E+02  .393E+02  .393E+02  .393E+02  .393E+02  .000E+00  .000E+00
  .000E+00  .000E+00  .000E+00  .000E+00  .000E+00  .000E+00  .000E+00  .000E+00
  .000E+00  .000E+00  .000E+00  .000E+00  .000E+00  .000E+00  .000E+00  .000E+00
  .000E+00  .000E+00  .000E+00  .000E+00
  .392E+02  .392E+02  .392E+02  .392E+02  .392E+02  .392E+02  .392E+02  .392E+02
  .393E+02  .393E+02  .392E+02  .393E+02  .393E+02  .393E+02  .397E+02  .393E+02
  .393E+02  .398E+02  .398E+02  .391E+02  .393E+02  .393E+02  .393E+02  .394E+02
  .394E+02  .394E+02  .394E+02  .394E+02  .395E+02  .400E+02  .397E+02  .398E+02
  .392E+02  .392E+02  .391E+02  .398E+02  .398E+02  .398E+02  .398E+02  .398E+02
  .396E+02  .396E+02  .403E+02  .403E+02  .411E+02  .395E+02  .393E+02  .393E+02
  .393E+02  .389E+02  .389E+02  .401E+02  .402E+02  .397E+02  .398E+02  .399E+02
  .621E+02  .395E+02  .395E+02  .395E+02  .395E+02  .395E+02  .395E+02  .546E+02
  .576E+02  .387E+02  .387E+02  .387E+02  .387E+02  .387E+02  .387E+02  .387E+02
  .387E+02  .387E+02  .387E+02  .387E+02  .387E+02  .387E+02  .000E+00  .000E+00
  .000E+00  .000E+00  .000E+00  .000E+00  .000E+00  .000E+00  .000E+00  .000E+00
  .000E+00  .000E+00  .000E+00  .000E+00  .000E+00  .000E+00  .000E+00  .000E+00
  .000E+00  .000E+00  .000E+00  .000E+00
/&   ----------  End of spectral data for channel  1  ----------
Response and Fourier amplitude spectra (78 periods,  .04 -  6.0 sec)   for      
Corrected accelerogram   38695658.CI.BBS.--.HN      Chan  2: 360 Deg     from   
Uncorrected Accelerogram Data             Processed: 09/19/20, CGS  cibbs--m    
Rcrd of Fri Sep 18, 2020 23:38:39.0 PDT               (Avol1 v2.0, 4/18 CSMIP)  
                                        (Origin:  To be determined)             
38695658.CI.BBS.--.HN                Start time:  9/19/20, 06:38:39.0 UTC (GPS) 
Station Id. BBS     33.921N, 116.981W    Q330    s/n 3933  (3 Chns of  6 at Sta)
Beaumont, I-10 at 79                     SCSN   Data: Acceleration              
Chan  2: 360 Deg                                                                
Rcrd of Fri Sep 18, 2020 23:38:39.0 PDT    Fri Sep 18, 2020 23:38:39.0 PDT      
Hypocenter:  To be determined.               ML:  To be determined.             
Instr Period =  .0050 sec,  Damping =  .707,  Sensitivity = 5.00 v/g  (Nominal) 
                        Record Length =301.000 sec.                             
                                     Uncor Max  =  -.003 g, at   38.340 sec.    
RMS accel of (uncor) record  =        .   Chn. metadata effective date:         
Accelerogram bandpass filtered with 3 dB pts at   .30 and 23.00 cyc/sec         
                 instrument- and base-line correcte                             
                                                                                
                                                                                
                                                                                
                                                                                
                                                                                
Rcrd of Fri Sep 18, 2020 23:38:39.0 PDT    Fri Sep 18, 2020 23:38:39.0 PDT      
                                                                                
38695658.CI.BBS.--.HN     Beaumont, I-10 at 79    Chan  2: 360 Deg              
                                                                                
38695658.CI.BBS.--.HN     Beaumont, I-10 at 79    Chan  2: 360 Deg              
                                                                                
Units for spectra are inches and sec, except Sa is in fraction of g.            
                                                                                
    2  100    2    6    6  100 -999    3    1    0  605 3933    050591   41    0
    6   38   39    8  263    9   19 2020   10    3  36035651   39   20   74 -999
35651 -999  100    6 -999 -999 -999 -999 -999 -999 -999 -999 -999 -999 -999 -999
 -999 -999 -999 -99915050    2 -999    0 -999   20 -999 -999    3    1 -99915050
    315050    4   78    1    3    5    0    0 -999    0 -999 -999    6 -999    2
    2    2    4 -999 -999 -999 -999 -999 -999 -999 -999    1 -999 -999 -999  111
    1    1 -999 -999
      .005      .707   356.510      .000     1.000  4998.452     -.003    38.340
   200.000     2.384      .477  -999.000    10.000  -999.000     4.000  -999.000
    20.000    -2.599      .000  -999.000  -999.000  -999.000  -999.000      .000
      .001      .001     2.000    15.000    33.921  -116.981      .003      .006
     1.952      .000      .002   785.000  -999.000  -999.000  -999.000  -999.000
     1.000  -999.000  -999.000  -999.000  -999.000  -999.000  -999.000   120.000
     -.900     2.000     6.800   980.665      .020   301.000    31.831      .000
  -999.000    23.000  -999.000   301.000      .020      .300  -999.000  -999.000
    38.340    -2.829    38.400     -.123    38.320      .009      .000      .300
    23.000      .020      .020      .000      .020      .006  -999.000  -999.000
      .012      .280      .006      .010      .000      .000  -999.000  -999.000
  -999.000  -999.000  -999.000  -999.000  -999.000  -999.000  -999.000  -999.000
  -999.000  -999.000  -999.000  -999.000
      .050
      .040      .042      .044      .046      .048      .050      .055      .060
      .065      .070      .075      .080      .085      .090      .095      .100
      .110      .120      .130      .140      .150      .160      .170      .180
      .190      .200      .220      .240      .260      .280      .300      .320
      .340      .360      .380      .400      .420      .440      .460      .480
      .500      .550      .600      .650      .700      .750      .800      .850
      .900      .950     1.000     1.100     1.200     1.300     1.400     1.500
     1.600     1.700     1.800     1.900     2.000     2.200     2.400     2.600
     2.800     3.000     3.200     3.400     3.600     3.800     4.000     4.200
     4.400     4.600     4.800     5.000     5.500     6.000      .000      .000
      .000      .000      .000      .000      .000      .000      .000      .000
      .000      .000      .000      .000      .000      .000      .000      .000
      .000      .000      .000      .000
Fourier amplitude spectra in in/sec.
  .000E+00  .000E+00  .000E+00  .000E+00  .000E+00  .000E+00  .000E+00  .000E+00
  .000E+00  .000E+00  .000E+00  .000E+00  .000E+00  .000E+00  .000E+00  .000E+00
  .000E+00  .000E+00  .000E+00  .000E+00  .000E+00  .000E+00  .000E+00  .000E+00
  .000E+00  .000E+00  .000E+00  .000E+00  .000E+00  .000E+00  .000E+00  .000E+00
  .000E+00  .000E+00  .000E+00  .000E+00  .000E+00  .000E+00  .000E+00  .000E+00
  .000E+00  .000E+00  .000E+00  .000E+00  .000E+00  .000E+00  .000E+00  .000E+00
  .000E+00  .000E+00  .000E+00  .000E+00  .000E+00  .000E+00  .000E+00  .000E+00
  .000E+00  .000E+00  .000E+00  .000E+00  .000E+00  .000E+00  .000E+00  .000E+00
  .000E+00  .000E+00  .000E+00  .000E+00  .000E+00  .000E+00  .000E+00  .000E+00
  .000E+00  .000E+00  .000E+00  .000E+00  .000E+00  .000E+00  .000E+00  .000E+00
  .000E+00  .000E+00  .000E+00  .000E+00  .000E+00  .000E+00  .000E+00  .000E+00
  .000E+00  .000E+00  .000E+00  .000E+00  .000E+00  .000E+00  .000E+00  .000E+00
  .000E+00  .000E+00  .000E+00  .000E+00
Damping =  .05. Data of Sd,Sv,Sa,Pssv,ttSd,ttSv,ttSa :
  .455E-04  .506E-04  .562E-04  .623E-04  .702E-04  .774E-04  .966E-04  .120E-03
  .149E-03  .162E-03  .186E-03  .250E-03  .291E-03  .343E-03  .384E-03  .425E-03
  .467E-03  .653E-03  .725E-03  .875E-03  .122E-02  .167E-02  .203E-02  .198E-02
  .193E-02  .219E-02  .281E-02  .465E-02  .729E-02  .898E-02  .940E-02  .817E-02
  .779E-02  .723E-02  .690E-02  .630E-02  .626E-02  .648E-02  .662E-02  .618E-02
