Response and Fourier amplitude spectra (78 periods,  .04 -  6.0 sec)   for      
Corrected accelerogram   38695658.CI.BCW.--.HN      Chan  1:  90 Deg     from   
Uncorrected Accelerogram Data             Processed: 09/19/20, CGS  cibcw--c    
Rcrd of Fri Sep 18, 2020 23:38:46.0 PDT               (Avol1 v2.0, 4/18 CSMIP)  
                                        (Origin:  To be determined)             
38695658.CI.BCW.--.HN                Start time:  9/19/20, 06:38:46.0 UTC (GPS) 
Station Id. BCW     34.940N, 119.413W    Q330    s/n 3061  (3 Chns of  6 at Sta)
Bitter Creek Wildlife                    SCSN   Data: Acceleration              
Chan  1:  90 Deg                                                                
Rcrd of Fri Sep 18, 2020 23:38:46.0 PDT    Fri Sep 18, 2020 23:38:46.0 PDT      
Hypocenter:  To be determined.               ML:  To be determined.             
Instr Period =  .0050 sec,  Damping =  .707,  Sensitivity = 4.99 v/g  (Nominal) 
                        Record Length =301.000 sec.                             
                                     Uncor Max  =   .001 g, at   47.000 sec.    
RMS accel of (uncor) record  =        .   Chn. metadata effective date:         
Accelerogram bandpass filtered with 3 dB pts at   .30 and 23.00 cyc/sec         
                 instrument- and base-line correcte                             
                                                                                
                                                                                
                                                                                
                                                                                
                                                                                
Rcrd of Fri Sep 18, 2020 23:38:46.0 PDT    Fri Sep 18, 2020 23:38:46.0 PDT      
                                                                                
38695658.CI.BCW.--.HN     Bitter Creek Wildlife   Chan  1:  90 Deg              
                                                                                
38695658.CI.BCW.--.HN     Bitter Creek Wildlife   Chan  1:  90 Deg              
                                                                                
Units for spectra are inches and sec, except Sa is in fraction of g.            
                                                                                
    1  100    1    6    6  100 -999    3    1   24  605 3061    0    0   41    0
    6   38   46    8  263    9   19 2020   10    3   9036038   39   21   74 -999
36038 -999  100    6 -999 -999 -999 -999 -999 -999 -999 -999 -999 -999 -999 -999
 -999 -999 -999 -99915050    2 -999    0 -999   20 -999 -999    3    1 -99915050
    315050    4   78    1    3    5    0    0 -999    0 -999 -999    6 -999    2
    2    2    4 -999 -999 -999 -999 -999 -999 -999 -999    1 -999 -999 -999  111
    1    1 -999 -999
      .005      .707   360.380      .000     1.000  4992.069      .001    47.000
   200.000     2.384      .478  -999.000    10.000  -999.000     4.000  -999.000
    20.000   -14.269    20.000  -999.000  -999.000  -999.000  -999.000     -.001
      .000      .002     2.000    15.000    34.940  -119.413      .001      .001
     1.263      .001      .002  1101.000  -999.000  -999.000  -999.000  -999.000
     1.000  -999.000    -8.000  -999.000  -999.000  -999.000  -999.000   120.000
     -.900     2.000     6.800   980.665      .020   301.000    31.831      .000
  -999.000    23.000  -999.000   301.000      .020      .300  -999.000  -999.000
    47.000     1.031    46.900     -.135    46.660      .026      .000      .300
    23.000      .020      .020      .000      .020      .006  -999.000  -999.000
      .004      .500      .002      .002      .002      .000  -999.000  -999.000
  -999.000  -999.000  -999.000  -999.000  -999.000  -999.000  -999.000  -999.000
  -999.000  -999.000  -999.000  -999.000
      .050
      .040      .042      .044      .046      .048      .050      .055      .060
      .065      .070      .075      .080      .085      .090      .095      .100
      .110      .120      .130      .140      .150      .160      .170      .180
      .190      .200      .220      .240      .260      .280      .300      .320
      .340      .360      .380      .400      .420      .440      .460      .480
      .500      .550      .600      .650      .700      .750      .800      .850
      .900      .950     1.000     1.100     1.200     1.300     1.400     1.500
     1.600     1.700     1.800     1.900     2.000     2.200     2.400     2.600
     2.800     3.000     3.200     3.400     3.600     3.800     4.000     4.200
     4.400     4.600     4.800     5.000     5.500     6.000      .000      .000
      .000      .000      .000      .000      .000      .000      .000      .000
      .000      .000      .000      .000      .000      .000      .000      .000
      .000      .000      .000      .000
Fourier amplitude spectra in in/sec.
  .000E+00  .000E+00  .000E+00  .000E+00  .000E+00  .000E+00  .000E+00  .000E+00
  .000E+00  .000E+00  .000E+00  .000E+00  .000E+00  .000E+00  .000E+00  .000E+00
  .000E+00  .000E+00  .000E+00  .000E+00  .000E+00  .000E+00  .000E+00  .000E+00
  .000E+00  .000E+00  .000E+00  .000E+00  .000E+00  .000E+00  .000E+00  .000E+00
  .000E+00  .000E+00  .000E+00  .000E+00  .000E+00  .000E+00  .000E+00  .000E+00
  .000E+00  .000E+00  .000E+00  .000E+00  .000E+00  .000E+00  .000E+00  .000E+00
  .000E+00  .000E+00  .000E+00  .000E+00  .000E+00  .000E+00  .000E+00  .000E+00
  .000E+00  .000E+00  .000E+00  .000E+00  .000E+00  .000E+00  .000E+00  .000E+00
  .000E+00  .000E+00  .000E+00  .000E+00  .000E+00  .000E+00  .000E+00  .000E+00
  .000E+00  .000E+00  .000E+00  .000E+00  .000E+00  .000E+00  .000E+00  .000E+00
  .000E+00  .000E+00  .000E+00  .000E+00  .000E+00  .000E+00  .000E+00  .000E+00
  .000E+00  .000E+00  .000E+00  .000E+00  .000E+00  .000E+00  .000E+00  .000E+00
  .000E+00  .000E+00  .000E+00  .000E+00
Damping =  .05. Data of Sd,Sv,Sa,Pssv,ttSd,ttSv,ttSa :
  .166E-04  .183E-04  .201E-04  .220E-04  .240E-04  .261E-04  .318E-04  .380E-04
  .448E-04  .521E-04  .601E-04  .692E-04  .788E-04  .887E-04  .102E-03  .115E-03
  .137E-03  .175E-03  .221E-03  .270E-03  .310E-03  .341E-03  .376E-03  .417E-03
  .483E-03  .584E-03  .790E-03  .121E-02  .168E-02  .167E-02  .164E-02  .188E-02
  .225E-02  .290E-02  .348E-02  .383E-02  .366E-02  .390E-02  .503E-02  .651E-02
  .868E-02  .977E-02  .109E-01  .130E-01  .146E-01  .153E-01  .154E-01  .164E-01
  .181E-01  .192E-01  .199E-01  .209E-01  .214E-01  .236E-01  .245E-01  .250E-01
  .243E-01  .226E-01  .224E-01  .221E-01  .201E-01  .181E-01  .169E-01  .166E-01
  .162E-01  .155E-01  .148E-01  .142E-01  .137E-01  .134E-01  .131E-01  .127E-01
  .124E-01  .121E-01  .120E-01  .118E-01  .115E-01  .113E-01  .000E+00  .000E+00
  .000E+00  .000E+00  .000E+00  .000E+00  .000E+00  .000E+00  .000E+00  .000E+00
  .000E+00  .000E+00  .000E+00  .000E+00  .000E+00  .000E+00  .000E+00  .000E+00
  .000E+00  .000E+00  .000E+00  .000E+00
  .254E-03  .281E-03  .310E-03  .339E-03  .369E-03  .403E-03  .489E-03  .593E-03
  .694E-03  .836E-03  .952E-03  .106E-02  .123E-02  .144E-02  .162E-02  .174E-02
  .226E-02  .315E-02  .363E-02  .449E-02  .544E-02  .658E-02  .770E-02  .825E-02
  .972E-02  .110E-01  .150E-01  .238E-01  .361E-01  .365E-01  .342E-01  .370E-01
  .391E-01  .416E-01  .502E-01  .556E-01  .519E-01  .542E-01  .653E-01  .804E-01
  .103E+00  .115E+00  .126E+00  .130E+00  .132E+00  .143E+00  .143E+00  .140E+00
  .138E+00  .127E+00  .130E+00  .141E+00  .136E+00  .131E+00  .116E+00  .115E+00
  .119E+00  .118E+00  .113E+00  .108E+00  .103E+00  .929E-01  .847E-01  .784E-01
  .731E-01  .685E-01  .652E-01  .628E-01  .612E-01  .600E-01  .587E-01  .578E-01
  .572E-01  .567E-01  .563E-01  .560E-01  .554E-01  .550E-01  .000E+00  .000E+00
  .000E+00  .000E+00  .000E+00  .000E+00  .000E+00  .000E+00  .000E+00  .000E+00
  .000E+00  .000E+00  .000E+00  .000E+00  .000E+00  .000E+00  .000E+00  .000E+00
  .000E+00  .000E+00  .000E+00  .000E+00
  .106E-02  .106E-02  .106E-02  .106E-02  .106E-02  .107E-02  .107E-02  .108E-02
  .108E-02  .109E-02  .109E-02  .111E-02  .112E-02  .112E-02  .115E-02  .117E-02
  .116E-02  .125E-02  .134E-02  .141E-02  .142E-02  .136E-02  .133E-02  .131E-02
  .137E-02  .148E-02  .168E-02  .216E-02  .258E-02  .221E-02  .186E-02  .187E-02
  .199E-02  .229E-02  .249E-02  .244E-02  .214E-02  .207E-02  .245E-02  .288E-02
  .357E-02  .330E-02  .313E-02  .317E-02  .306E-02  .279E-02  .248E-02  .234E-02
  .231E-02  .219E-02  .205E-02  .178E-02  .153E-02  .144E-02  .129E-02  .115E-02
  .980E-03  .805E-03  .714E-03  .631E-03  .518E-03  .386E-03  .306E-03  .257E-03
  .217E-03  .182E-03  .154E-03  .131E-03  .114E-03  .100E-03  .888E-04  .788E-04
  .704E-04  .636E-04  .580E-04  .531E-04  .435E-04  .365E-04  .000E+00  .000E+00
  .000E+00  .000E+00  .000E+00  .000E+00  .000E+00  .000E+00  .000E+00  .000E+00
  .000E+00  .000E+00  .000E+00  .000E+00  .000E+00  .000E+00  .000E+00  .000E+00
  .000E+00  .000E+00  .000E+00  .000E+00
  .260E-02  .274E-02  .287E-02  .300E-02  .314E-02  .328E-02  .363E-02  .398E-02
  .433E-02  .468E-02  .504E-02  .543E-02  .582E-02  .619E-02  .673E-02  .720E-02
  .783E-02  .915E-02  .107E-01  .121E-01  .130E-01  .134E-01  .139E-01  .146E-01
  .160E-01  .184E-01  .226E-01  .317E-01  .407E-01  .374E-01  .344E-01  .369E-01
  .416E-01  .505E-01  .575E-01  .601E-01  .548E-01  .557E-01  .687E-01  .852E-01
  .109E+00  .112E+00  .114E+00  .126E+00  .131E+00  .128E+00  .121E+00  .121E+00
  .127E+00  .127E+00  .125E+00  .120E+00  .112E+00  .114E+00  .110E+00  .105E+00
  .955E-01  .834E-01  .781E-01  .730E-01  .632E-01  .518E-01  .443E-01  .401E-01
  .364E-01  .325E-01  .291E-01  .263E-01  .240E-01  .222E-01  .206E-01  .190E-01
  .177E-01  .166E-01  .156E-01  .148E-01  .131E-01  .118E-01  .000E+00  .000E+00
  .000E+00  .000E+00  .000E+00  .000E+00  .000E+00  .000E+00  .000E+00  .000E+00
  .000E+00  .000E+00  .000E+00  .000E+00  .000E+00  .000E+00  .000E+00  .000E+00
  .000E+00  .000E+00  .000E+00  .000E+00
  .470E+02  .470E+02  .470E+02  .470E+02  .470E+02  .470E+02  .470E+02  .470E+02
  .470E+02  .470E+02  .470E+02  .470E+02  .470E+02  .470E+02  .470E+02  .470E+02
  .470E+02  .470E+02  .470E+02  .470E+02  .470E+02  .470E+02  .470E+02  .470E+02
  .470E+02  .470E+02  .474E+02  .475E+02  .475E+02  .476E+02  .476E+02  .476E+02
  .488E+02  .489E+02  .491E+02  .491E+02  .492E+02  .476E+02  .476E+02  .492E+02
  .492E+02  .477E+02  .474E+02  .475E+02  .475E+02  .475E+02  .472E+02  .473E+02
  .473E+02  .473E+02  .473E+02  .474E+02  .469E+02  .470E+02  .470E+02  .470E+02
  .471E+02  .471E+02  .491E+02  .491E+02  .492E+02  .517E+02  .466E+02  .466E+02
  .466E+02  .466E+02  .466E+02  .466E+02  .466E+02  .466E+02  .466E+02  .466E+02
  .466E+02  .466E+02  .466E+02  .466E+02  .466E+02  .466E+02  .000E+00  .000E+00
  .000E+00  .000E+00  .000E+00  .000E+00  .000E+00  .000E+00  .000E+00  .000E+00
  .000E+00  .000E+00  .000E+00  .000E+00  .000E+00  .000E+00  .000E+00  .000E+00
  .000E+00  .000E+00  .000E+00  .000E+00
  .474E+02  .474E+02  .474E+02  .474E+02  .474E+02  .474E+02  .474E+02  .475E+02
  .474E+02  .292E+02  .475E+02  .474E+02  .474E+02  .475E+02  .475E+02  .475E+02
  .490E+02  .295E+02  .509E+02  .483E+02  .474E+02  .515E+02  .515E+02  .490E+02
  .478E+02  .478E+02  .474E+02  .475E+02  .476E+02  .476E+02  .477E+02  .477E+02
  .477E+02  .488E+02  .492E+02  .492E+02  .493E+02  .477E+02  .477E+02  .493E+02
  .493E+02  .476E+02  .476E+02  .476E+02  .474E+02  .474E+02  .474E+02  .474E+02
  .474E+02  .475E+02  .471E+02  .471E+02  .472E+02  .472E+02  .472E+02  .468E+02
  .468E+02  .468E+02  .468E+02  .469E+02  .469E+02  .469E+02  .469E+02  .469E+02
  .469E+02  .469E+02  .469E+02  .469E+02  .469E+02  .469E+02  .469E+02  .469E+02
  .469E+02  .469E+02  .469E+02  .469E+02  .469E+02  .469E+02  .000E+00  .000E+00
  .000E+00  .000E+00  .000E+00  .000E+00  .000E+00  .000E+00  .000E+00  .000E+00
  .000E+00  .000E+00  .000E+00  .000E+00  .000E+00  .000E+00  .000E+00  .000E+00
  .000E+00  .000E+00  .000E+00  .000E+00
  .470E+02  .470E+02  .470E+02  .470E+02  .470E+02  .470E+02  .470E+02  .470E+02
  .470E+02  .470E+02  .470E+02  .470E+02  .470E+02  .470E+02  .470E+02  .470E+02
  .470E+02  .470E+02  .470E+02  .470E+02  .470E+02  .470E+02  .470E+02  .470E+02
  .470E+02  .470E+02  .473E+02  .475E+02  .475E+02  .476E+02  .476E+02  .476E+02
  .488E+02  .488E+02  .491E+02  .491E+02  .491E+02  .476E+02  .476E+02  .491E+02
  .492E+02  .477E+02  .474E+02  .475E+02  .475E+02  .475E+02  .472E+02  .472E+02
  .473E+02  .473E+02  .473E+02  .473E+02  .469E+02  .470E+02  .470E+02  .470E+02
  .470E+02  .471E+02  .490E+02  .491E+02  .492E+02  .517E+02  .466E+02  .466E+02
  .466E+02  .466E+02  .466E+02  .466E+02  .466E+02  .466E+02  .466E+02  .466E+02
  .466E+02  .466E+02  .466E+02  .466E+02  .466E+02  .466E+02  .000E+00  .000E+00
  .000E+00  .000E+00  .000E+00  .000E+00  .000E+00  .000E+00  .000E+00  .000E+00
  .000E+00  .000E+00  .000E+00  .000E+00  .000E+00  .000E+00  .000E+00  .000E+00
  .000E+00  .000E+00  .000E+00  .000E+00
/&   ----------  End of spectral data for channel  1  ----------
Response and Fourier amplitude spectra (78 periods,  .04 -  6.0 sec)   for      
Corrected accelerogram   38695658.CI.BCW.--.HN      Chan  2: 360 Deg     from   
Uncorrected Accelerogram Data             Processed: 09/19/20, CGS  cibcw--c    
Rcrd of Fri Sep 18, 2020 23:38:46.0 PDT               (Avol1 v2.0, 4/18 CSMIP)  
                                        (Origin:  To be determined)             
38695658.CI.BCW.--.HN                Start time:  9/19/20, 06:38:46.0 UTC (GPS) 
Station Id. BCW     34.940N, 119.413W    Q330    s/n 3061  (3 Chns of  6 at Sta)
Bitter Creek Wildlife                    SCSN   Data: Acceleration              
Chan  2: 360 Deg                                                                
Rcrd of Fri Sep 18, 2020 23:38:46.0 PDT    Fri Sep 18, 2020 23:38:46.0 PDT      
Hypocenter:  To be determined.               ML:  To be determined.             
Instr Period =  .0050 sec,  Damping =  .707,  Sensitivity = 5.00 v/g  (Nominal) 
                        Record Length =301.000 sec.                             
                                     Uncor Max  =   .001 g, at   46.970 sec.    
RMS accel of (uncor) record  =        .   Chn. metadata effective date:         
Accelerogram bandpass filtered with 3 dB pts at   .30 and 23.00 cyc/sec         
                 instrument- and base-line correcte                             
                                                                                
                                                                                
                                                                                
                                                                                
                                                                                
Rcrd of Fri Sep 18, 2020 23:38:46.0 PDT    Fri Sep 18, 2020 23:38:46.0 PDT      
                                                                                
38695658.CI.BCW.--.HN     Bitter Creek Wildlife   Chan  2: 360 Deg              
                                                                                
38695658.CI.BCW.--.HN     Bitter Creek Wildlife   Chan  2: 360 Deg              
                                                                                
Units for spectra are inches and sec, except Sa is in fraction of g.            
                                                                                
    2  100    2    6    6  100 -999    3    1   24  605 3061    0    0   41    0
    6   38   46    8  263    9   19 2020   10    3  36035831   39   21   74 -999
35831 -999  100    6 -999 -999 -999 -999 -999 -999 -999 -999 -999 -999 -999 -999
 -999 -999 -999 -99915050    2 -999    0 -999   20 -999 -999    3    1 -99915050
    315050    4   78    1    3    5    0    0 -999    0 -999 -999    6 -999    2
    2    2    4 -999 -999 -999 -999 -999 -999 -999 -999    1 -999 -999 -999  111
    1    1 -999 -999
      .005      .707   358.310      .000     1.000  4997.654      .001    46.970
   200.000     2.384      .477  -999.000    10.000  -999.000     4.000  -999.000
    20.000   -15.164    20.000  -999.000  -999.000  -999.000  -999.000      .001
      .000     -.001     2.000    15.000    34.940  -119.413      .001      .001
     1.304     -.002     -.001  1101.000  -999.000  -999.000  -999.000  -999.000
     1.000  -999.000  -999.000  -999.000  -999.000  -999.000  -999.000   120.000
     -.900     2.000     6.800   980.665      .020   301.000    31.831      .000
  -999.000    23.000  -999.000   301.000      .020      .300  -999.000  -999.000
    46.960      .747    47.080      .062    46.960     -.008      .000      .300
    23.000      .020      .020      .000      .020      .005  -999.000  -999.000
      .002      .500      .002      .001      .001      .000  -999.000  -999.000
  -999.000  -999.000  -999.000  -999.000  -999.000  -999.000  -999.000  -999.000
  -999.000  -999.000  -999.000  -999.000
      .050
      .040      .042      .044      .046      .048      .050      .055      .060
      .065      .070      .075      .080      .085      .090      .095      .100
      .110      .120      .130      .140      .150      .160      .170      .180
      .190      .200      .220      .240      .260      .280      .300      .320
      .340      .360      .380      .400      .420      .440      .460      .480
      .500      .550      .600      .650      .700      .750      .800      .850
      .900      .950     1.000     1.100     1.200     1.300     1.400     1.500
     1.600     1.700     1.800     1.900     2.000     2.200     2.400     2.600
     2.800     3.000     3.200     3.400     3.600     3.800     4.000     4.200
     4.400     4.600     4.800     5.000     5.500     6.000      .000      .000
      .000      .000      .000      .000      .000      .000      .000      .000
      .000      .000      .000      .000      .000      .000      .000      .000
      .000      .000      .000      .000
Fourier amplitude spectra in in/sec.
  .000E+00  .000E+00  .000E+00  .000E+00  .000E+00  .000E+00  .000E+00  .000E+00
  .000E+00  .000E+00  .000E+00  .000E+00  .000E+00  .000E+00  .000E+00  .000E+00
  .000E+00  .000E+00  .000E+00  .000E+00  .000E+00  .000E+00  .000E+00  .000E+00
  .000E+00  .000E+00  .000E+00  .000E+00  .000E+00  .000E+00  .000E+00  .000E+00
  .000E+00  .000E+00  .000E+00  .000E+00  .000E+00  .000E+00  .000E+00  .000E+00
  .000E+00  .000E+00  .000E+00  .000E+00  .000E+00  .000E+00  .000E+00  .000E+00
  .000E+00  .000E+00  .000E+00  .000E+00  .000E+00  .000E+00  .000E+00  .000E+00
  .000E+00  .000E+00  .000E+00  .000E+00  .000E+00  .000E+00  .000E+00  .000E+00
  .000E+00  .000E+00  .000E+00  .000E+00  .000E+00  .000E+00  .000E+00  .000E+00
  .000E+00  .000E+00  .000E+00  .000E+00  .000E+00  .000E+00  .000E+00  .000E+00
  .000E+00  .000E+00  .000E+00  .000E+00  .000E+00  .000E+00  .000E+00  .000E+00
  .000E+00  .000E+00  .000E+00  .000E+00  .000E+00  .000E+00  .000E+00  .000E+00
  .000E+00  .000E+00  .000E+00  .000E+00
Damping =  .05. Data of Sd,Sv,Sa,Pssv,ttSd,ttSv,ttSa :
  .121E-04  .134E-04  .147E-04  .162E-04  .177E-04  .192E-04  .233E-04  .277E-04
  .329E-04  .380E-04  .441E-04  .513E-04  .581E-04  .649E-04  .715E-04  .803E-04
  .104E-03  .130E-03  .164E-03  .201E-03  .249E-03  .268E-03  .295E-03  .388E-03
  .518E-03  .622E-03  .819E-03  .106E-02  .133E-02  .126E-02  .110E-02  .130E-02
  .157E-02  .146E-02  .175E-02  .241E-02  .307E-02  .364E-02  .451E-02  .533E-02
