Response and Fourier amplitude spectra (78 periods,  .04 -  6.0 sec)   for      
Corrected accelerogram   38695658.CI.BFS.--.HN      Chan  1:  90 Deg     from   
Uncorrected Accelerogram Data             Processed: 09/19/20, CGS  cibfs--k    
Rcrd of Fri Sep 18, 2020 23:38:30.0 PDT               (Avol1 v2.0, 4/18 CSMIP)  
                                        (Origin:  To be determined)             
38695658.CI.BFS.--.HN                Start time:  9/19/20, 06:38:30.0 UTC (GPS) 
Station Id. BFS     34.239N, 117.659W    ObsMMS  s/n 5444  (3 Chns of  6 at Sta)
Mt. Baldy Rd., Mt. Baldy, CA, U.S.       SCSN   Data: Acceleration              
Chan  1:  90 Deg                                                                
Rcrd of Fri Sep 18, 2020 23:38:30.0 PDT    Fri Sep 18, 2020 23:38:30.0 PDT      
Hypocenter:  To be determined.               ML:  To be determined.             
Instr Period =  .0050 sec,  Damping =  .707,  Sensitivity = 4.99 v/g  (Nominal) 
                        Record Length =301.000 sec.                             
                                     Uncor Max  =   .007 g, at   31.430 sec.    
RMS accel of (uncor) record  =        .   Chn. metadata effective date:         
Accelerogram bandpass filtered with 3 dB pts at   .30 and 23.00 cyc/sec         
                 instrument- and base-line correcte                             
                                                                                
                                                                                
                                                                                
                                                                                
                                                                                
Rcrd of Fri Sep 18, 2020 23:38:30.0 PDT    Fri Sep 18, 2020 23:38:30.0 PDT      
                                                                                
38695658.CI.BFS.--.HN     Mt. Baldy Rd., Mt. Baldy, CA, U.S.    Chan  1:  90 Deg
                                                                                
38695658.CI.BFS.--.HN     Mt. Baldy Rd., Mt. Baldy, CA, U.S.    Chan  1:  90 Deg
                                                                                
Units for spectra are inches and sec, except Sa is in fraction of g.            
                                                                                
    1  100    1    6    6  100 -999    3    1    0   15 5444    050594   41    0
    6   38   30    8  263    9   19 2020   10    3   9035703   39   34   74 -999
35703 -999  100    6 -999 -999 -999 -999 -999 -999 -999 -999 -999 -999 -999 -999
 -999 -999 -999 -99915050    2 -999    0 -999   20 -999 -999    3    1 -99915050
    315050    4   78    1    3    5    0    0 -999    0 -999 -999    6 -999    2
    2    2    4 -999 -999 -999 -999 -999 -999 -999 -999    1 -999 -999 -999  111
    1    1 -999 -999
      .005      .707   357.030      .000     1.000  4991.271      .007    31.430
   200.000     2.384      .478  -999.000    10.000  -999.000     4.000  -999.000
    20.000   -26.762      .000  -999.000  -999.000  -999.000  -999.000     -.001
      .002      .003     2.000    15.000    34.239  -117.659      .001      .001
      .783      .002      .003  1312.000  -999.000  -999.000  -999.000  -999.000
     1.000  -999.000    -8.000  -999.000  -999.000  -999.000  -999.000   120.000
     -.900     2.000     6.800   980.665      .020   301.000    31.831      .000
  -999.000    23.000  -999.000   301.000      .020      .300  -999.000  -999.000
    30.700    -5.439    30.540     -.093    31.620     -.006      .000      .300
    23.000      .020      .020      .000      .020      .003  -999.000  -999.000
      .016      .100      .009      .005      .000      .000  -999.000  -999.000
  -999.000  -999.000  -999.000  -999.000  -999.000  -999.000  -999.000  -999.000
  -999.000  -999.000  -999.000  -999.000
      .050
      .040      .042      .044      .046      .048      .050      .055      .060
      .065      .070      .075      .080      .085      .090      .095      .100
      .110      .120      .130      .140      .150      .160      .170      .180
      .190      .200      .220      .240      .260      .280      .300      .320
      .340      .360      .380      .400      .420      .440      .460      .480
      .500      .550      .600      .650      .700      .750      .800      .850
      .900      .950     1.000     1.100     1.200     1.300     1.400     1.500
     1.600     1.700     1.800     1.900     2.000     2.200     2.400     2.600
     2.800     3.000     3.200     3.400     3.600     3.800     4.000     4.200
     4.400     4.600     4.800     5.000     5.500     6.000      .000      .000
      .000      .000      .000      .000      .000      .000      .000      .000
      .000      .000      .000      .000      .000      .000      .000      .000
      .000      .000      .000      .000
Fourier amplitude spectra in in/sec.
  .000E+00  .000E+00  .000E+00  .000E+00  .000E+00  .000E+00  .000E+00  .000E+00
  .000E+00  .000E+00  .000E+00  .000E+00  .000E+00  .000E+00  .000E+00  .000E+00
  .000E+00  .000E+00  .000E+00  .000E+00  .000E+00  .000E+00  .000E+00  .000E+00
  .000E+00  .000E+00  .000E+00  .000E+00  .000E+00  .000E+00  .000E+00  .000E+00
  .000E+00  .000E+00  .000E+00  .000E+00  .000E+00  .000E+00  .000E+00  .000E+00
  .000E+00  .000E+00  .000E+00  .000E+00  .000E+00  .000E+00  .000E+00  .000E+00
  .000E+00  .000E+00  .000E+00  .000E+00  .000E+00  .000E+00  .000E+00  .000E+00
  .000E+00  .000E+00  .000E+00  .000E+00  .000E+00  .000E+00  .000E+00  .000E+00
  .000E+00  .000E+00  .000E+00  .000E+00  .000E+00  .000E+00  .000E+00  .000E+00
  .000E+00  .000E+00  .000E+00  .000E+00  .000E+00  .000E+00  .000E+00  .000E+00
  .000E+00  .000E+00  .000E+00  .000E+00  .000E+00  .000E+00  .000E+00  .000E+00
  .000E+00  .000E+00  .000E+00  .000E+00  .000E+00  .000E+00  .000E+00  .000E+00
  .000E+00  .000E+00  .000E+00  .000E+00
Damping =  .05. Data of Sd,Sv,Sa,Pssv,ttSd,ttSv,ttSa :
  .104E-03  .120E-03  .167E-03  .207E-03  .237E-03  .248E-03  .346E-03  .461E-03
  .519E-03  .697E-03  .704E-03  .670E-03  .815E-03  .100E-02  .131E-02  .152E-02
  .144E-02  .165E-02  .200E-02  .238E-02  .302E-02  .332E-02  .314E-02  .322E-02
  .341E-02  .374E-02  .393E-02  .488E-02  .641E-02  .575E-02  .460E-02  .355E-02
  .330E-02  .311E-02  .256E-02  .229E-02  .263E-02  .313E-02  .344E-02  .343E-02
  .362E-02  .347E-02  .262E-02  .277E-02  .216E-02  .222E-02  .256E-02  .264E-02
  .269E-02  .320E-02  .342E-02  .275E-02  .277E-02  .308E-02  .367E-02  .422E-02
  .431E-02  .443E-02  .423E-02  .367E-02  .361E-02  .419E-02  .422E-02  .403E-02
  .380E-02  .360E-02  .342E-02  .327E-02  .313E-02  .303E-02  .293E-02  .285E-02
  .279E-02  .273E-02  .269E-02  .265E-02  .259E-02  .254E-02  .000E+00  .000E+00
  .000E+00  .000E+00  .000E+00  .000E+00  .000E+00  .000E+00  .000E+00  .000E+00
  .000E+00  .000E+00  .000E+00  .000E+00  .000E+00  .000E+00  .000E+00  .000E+00
  .000E+00  .000E+00  .000E+00  .000E+00
  .107E-01  .136E-01  .158E-01  .191E-01  .231E-01  .236E-01  .332E-01  .381E-01
  .457E-01  .593E-01  .600E-01  .454E-01  .501E-01  .647E-01  .825E-01  .878E-01
  .804E-01  .861E-01  .933E-01  .103E+00  .127E+00  .119E+00  .117E+00  .124E+00
  .134E+00  .131E+00  .114E+00  .145E+00  .168E+00  .137E+00  .111E+00  .772E-01
  .690E-01  .677E-01  .629E-01  .562E-01  .563E-01  .581E-01  .624E-01  .653E-01
  .618E-01  .522E-01  .504E-01  .485E-01  .486E-01  .485E-01  .481E-01  .475E-01
  .468E-01  .460E-01  .448E-01  .421E-01  .401E-01  .405E-01  .414E-01  .410E-01
  .399E-01  .392E-01  .388E-01  .385E-01  .385E-01  .384E-01  .375E-01  .364E-01
  .356E-01  .354E-01  .356E-01  .357E-01  .357E-01  .357E-01  .357E-01  .356E-01
  .356E-01  .355E-01  .355E-01  .354E-01  .354E-01  .353E-01  .000E+00  .000E+00
  .000E+00  .000E+00  .000E+00  .000E+00  .000E+00  .000E+00  .000E+00  .000E+00
  .000E+00  .000E+00  .000E+00  .000E+00  .000E+00  .000E+00  .000E+00  .000E+00
  .000E+00  .000E+00  .000E+00  .000E+00
  .672E-02  .694E-02  .880E-02  .991E-02  .106E-01  .100E-01  .117E-01  .132E-01
  .128E-01  .147E-01  .129E-01  .108E-01  .115E-01  .126E-01  .151E-01  .155E-01
  .123E-01  .118E-01  .120E-01  .125E-01  .136E-01  .133E-01  .112E-01  .103E-01
  .960E-02  .970E-02  .812E-02  .871E-02  .989E-02  .742E-02  .526E-02  .347E-02
  .288E-02  .246E-02  .184E-02  .147E-02  .153E-02  .168E-02  .166E-02  .153E-02
  .148E-02  .118E-02  .750E-03  .681E-03  .457E-03  .408E-03  .411E-03  .376E-03
  .343E-03  .364E-03  .351E-03  .245E-03  .202E-03  .192E-03  .195E-03  .197E-03
  .177E-03  .164E-03  .140E-03  .110E-03  .105E-03  .101E-03  .880E-04  .739E-04
  .622E-04  .532E-04  .460E-04  .404E-04  .358E-04  .321E-04  .290E-04  .264E-04
  .243E-04  .224E-04  .208E-04  .195E-04  .167E-04  .146E-04  .000E+00  .000E+00
  .000E+00  .000E+00  .000E+00  .000E+00  .000E+00  .000E+00  .000E+00  .000E+00
  .000E+00  .000E+00  .000E+00  .000E+00  .000E+00  .000E+00  .000E+00  .000E+00
  .000E+00  .000E+00  .000E+00  .000E+00
  .163E-01  .180E-01  .239E-01  .282E-01  .310E-01  .311E-01  .395E-01  .483E-01
  .502E-01  .625E-01  .590E-01  .526E-01  .602E-01  .701E-01  .867E-01  .954E-01
  .822E-01  .864E-01  .966E-01  .107E+00  .127E+00  .130E+00  .116E+00  .112E+00
  .113E+00  .117E+00  .112E+00  .128E+00  .155E+00  .129E+00  .964E-01  .697E-01
  .610E-01  .543E-01  .423E-01  .360E-01  .394E-01  .447E-01  .470E-01  .449E-01
  .455E-01  .396E-01  .274E-01  .268E-01  .194E-01  .186E-01  .201E-01  .195E-01
  .188E-01  .211E-01  .215E-01  .157E-01  .145E-01  .149E-01  .165E-01  .177E-01
  .169E-01  .164E-01  .148E-01  .121E-01  .113E-01  .120E-01  .111E-01  .973E-02
  .852E-02  .754E-02  .672E-02  .604E-02  .547E-02  .501E-02  .460E-02  .427E-02
  .399E-02  .373E-02  .351E-02  .333E-02  .296E-02  .266E-02  .000E+00  .000E+00
  .000E+00  .000E+00  .000E+00  .000E+00  .000E+00  .000E+00  .000E+00  .000E+00
  .000E+00  .000E+00  .000E+00  .000E+00  .000E+00  .000E+00  .000E+00  .000E+00
  .000E+00  .000E+00  .000E+00  .000E+00
  .314E+02  .315E+02  .316E+02  .316E+02  .316E+02  .316E+02  .309E+02  .310E+02
  .310E+02  .311E+02  .341E+02  .316E+02  .316E+02  .308E+02  .308E+02  .308E+02
  .309E+02  .309E+02  .309E+02  .309E+02  .310E+02  .310E+02  .310E+02  .308E+02
  .307E+02  .307E+02  .307E+02  .318E+02  .317E+02  .316E+02  .314E+02  .307E+02
  .307E+02  .307E+02  .307E+02  .317E+02  .317E+02  .317E+02  .317E+02  .317E+02
  .356E+02  .335E+02  .330E+02  .422E+02  .327E+02  .321E+02  .385E+02  .404E+02
  .404E+02  .420E+02  .420E+02  .321E+02  .317E+02  .319E+02  .319E+02  .319E+02
  .327E+02  .329E+02  .347E+02  .331E+02  .316E+02  .316E+02  .316E+02  .316E+02
  .316E+02  .316E+02  .316E+02  .316E+02  .316E+02  .316E+02  .316E+02  .316E+02
  .316E+02  .316E+02  .316E+02  .316E+02  .316E+02  .316E+02  .000E+00  .000E+00
  .000E+00  .000E+00  .000E+00  .000E+00  .000E+00  .000E+00  .000E+00  .000E+00
  .000E+00  .000E+00  .000E+00  .000E+00  .000E+00  .000E+00  .000E+00  .000E+00
  .000E+00  .000E+00  .000E+00  .000E+00
  .315E+02  .315E+02  .315E+02  .316E+02  .316E+02  .316E+02  .309E+02  .310E+02
  .310E+02  .311E+02  .341E+02  .338E+02  .316E+02  .308E+02  .308E+02  .308E+02
  .309E+02  .309E+02  .309E+02  .310E+02  .310E+02  .310E+02  .310E+02  .308E+02
  .308E+02  .308E+02  .318E+02  .318E+02  .316E+02  .315E+02  .314E+02  .307E+02
  .306E+02  .306E+02  .306E+02  .306E+02  .306E+02  .318E+02  .316E+02  .316E+02
  .316E+02  .331E+02  .305E+02  .305E+02  .305E+02  .305E+02  .305E+02  .305E+02
  .305E+02  .305E+02  .305E+02  .305E+02  .305E+02  .305E+02  .305E+02  .305E+02
  .305E+02  .305E+02  .305E+02  .305E+02  .310E+02  .310E+02  .310E+02  .310E+02
  .310E+02  .316E+02  .316E+02  .316E+02  .316E+02  .316E+02  .316E+02  .316E+02
  .316E+02  .316E+02  .316E+02  .316E+02  .316E+02  .316E+02  .000E+00  .000E+00
  .000E+00  .000E+00  .000E+00  .000E+00  .000E+00  .000E+00  .000E+00  .000E+00
  .000E+00  .000E+00  .000E+00  .000E+00  .000E+00  .000E+00  .000E+00  .000E+00
  .000E+00  .000E+00  .000E+00  .000E+00
  .314E+02  .316E+02  .316E+02  .316E+02  .316E+02  .316E+02  .309E+02  .310E+02
  .310E+02  .311E+02  .341E+02  .316E+02  .316E+02  .308E+02  .308E+02  .308E+02
  .309E+02  .309E+02  .309E+02  .309E+02  .310E+02  .310E+02  .310E+02  .308E+02
  .307E+02  .307E+02  .307E+02  .318E+02  .317E+02  .316E+02  .314E+02  .307E+02
  .307E+02  .307E+02  .307E+02  .307E+02  .317E+02  .317E+02  .317E+02  .317E+02
  .356E+02  .335E+02  .330E+02  .355E+02  .327E+02  .321E+02  .385E+02  .403E+02
  .404E+02  .420E+02  .420E+02  .321E+02  .324E+02  .319E+02  .319E+02  .319E+02
  .327E+02  .328E+02  .347E+02  .331E+02  .316E+02  .316E+02  .316E+02  .316E+02
  .316E+02  .316E+02  .316E+02  .316E+02  .316E+02  .316E+02  .316E+02  .316E+02
  .316E+02  .316E+02  .316E+02  .316E+02  .316E+02  .316E+02  .000E+00  .000E+00
  .000E+00  .000E+00  .000E+00  .000E+00  .000E+00  .000E+00  .000E+00  .000E+00
  .000E+00  .000E+00  .000E+00  .000E+00  .000E+00  .000E+00  .000E+00  .000E+00
  .000E+00  .000E+00  .000E+00  .000E+00
/&   ----------  End of spectral data for channel  1  ----------
Response and Fourier amplitude spectra (78 periods,  .04 -  6.0 sec)   for      
Corrected accelerogram   38695658.CI.BFS.--.HN      Chan  2: 360 Deg     from   
Uncorrected Accelerogram Data             Processed: 09/19/20, CGS  cibfs--k    
Rcrd of Fri Sep 18, 2020 23:38:30.0 PDT               (Avol1 v2.0, 4/18 CSMIP)  
                                        (Origin:  To be determined)             
38695658.CI.BFS.--.HN                Start time:  9/19/20, 06:38:30.0 UTC (GPS) 
Station Id. BFS     34.239N, 117.659W    ObsMMS  s/n 5444  (3 Chns of  6 at Sta)
Mt. Baldy Rd., Mt. Baldy, CA, U.S.       SCSN   Data: Acceleration              
Chan  2: 360 Deg                                                                
Rcrd of Fri Sep 18, 2020 23:38:30.0 PDT    Fri Sep 18, 2020 23:38:30.0 PDT      
Hypocenter:  To be determined.               ML:  To be determined.             
Instr Period =  .0050 sec,  Damping =  .707,  Sensitivity = 4.99 v/g  (Nominal) 
                        Record Length =301.000 sec.                             
                                     Uncor Max  =  -.006 g, at   30.800 sec.    
RMS accel of (uncor) record  =        .   Chn. metadata effective date:         
Accelerogram bandpass filtered with 3 dB pts at   .30 and 23.00 cyc/sec         
                 instrument- and base-line correcte                             
                                                                                
                                                                                
                                                                                
                                                                                
                                                                                
Rcrd of Fri Sep 18, 2020 23:38:30.0 PDT    Fri Sep 18, 2020 23:38:30.0 PDT      
                                                                                
38695658.CI.BFS.--.HN     Mt. Baldy Rd., Mt. Baldy, CA, U.S.    Chan  2: 360 Deg
                                                                                
38695658.CI.BFS.--.HN     Mt. Baldy Rd., Mt. Baldy, CA, U.S.    Chan  2: 360 Deg
                                                                                
Units for spectra are inches and sec, except Sa is in fraction of g.            
                                                                                
    2  100    2    6    6  100 -999    3    1    0   15 5444    050594   41    0
    6   38   30    8  263    9   19 2020   10    3  36036130   39   34   74 -999
36130 -999  100    6 -999 -999 -999 -999 -999 -999 -999 -999 -999 -999 -999 -999
 -999 -999 -999 -99915050    2 -999    0 -999   20 -999 -999    3    1 -99915050
    315050    4   78    1    3    5    0    0 -999    0 -999 -999    6 -999    2
    2    2    4 -999 -999 -999 -999 -999 -999 -999 -999    1 -999 -999 -999  111
    1    1 -999 -999
      .005      .707   361.300      .000     1.000  4994.462     -.006    30.800
   200.000     2.384      .477  -999.000    10.000  -999.000     4.000  -999.000
    20.000    -4.990      .000  -999.000  -999.000  -999.000  -999.000     -.001
      .000      .001     2.000    15.000    34.239  -117.659      .001      .001
      .898      .001      .001  1312.000  -999.000  -999.000  -999.000  -999.000
     1.000  -999.000  -999.000  -999.000  -999.000  -999.000  -999.000   120.000
     -.900     2.000     6.800   980.665      .020   301.000    31.831      .000
  -999.000    23.000  -999.000   301.000      .020      .300  -999.000  -999.000
    30.960     5.852    30.780      .108    30.960     -.007      .000      .300
    23.000      .020      .020      .000      .020      .003  -999.000  -999.000
      .021      .110      .007      .004      .000      .000  -999.000  -999.000
  -999.000  -999.000  -999.000  -999.000  -999.000  -999.000  -999.000  -999.000
  -999.000  -999.000  -999.000  -999.000
      .050
      .040      .042      .044      .046      .048      .050      .055      .060
      .065      .070      .075      .080      .085      .090      .095      .100
      .110      .120      .130      .140      .150      .160      .170      .180
      .190      .200      .220      .240      .260      .280      .300      .320
      .340      .360      .380      .400      .420      .440      .460      .480
      .500      .550      .600      .650      .700      .750      .800      .850
      .900      .950     1.000     1.100     1.200     1.300     1.400     1.500
     1.600     1.700     1.800     1.900     2.000     2.200     2.400     2.600
     2.800     3.000     3.200     3.400     3.600     3.800     4.000     4.200
     4.400     4.600     4.800     5.000     5.500     6.000      .000      .000
      .000      .000      .000      .000      .000      .000      .000      .000
      .000      .000      .000      .000      .000      .000      .000      .000
      .000      .000      .000      .000
Fourier amplitude spectra in in/sec.
  .000E+00  .000E+00  .000E+00  .000E+00  .000E+00  .000E+00  .000E+00  .000E+00
  .000E+00  .000E+00  .000E+00  .000E+00  .000E+00  .000E+00  .000E+00  .000E+00
  .000E+00  .000E+00  .000E+00  .000E+00  .000E+00  .000E+00  .000E+00  .000E+00
  .000E+00  .000E+00  .000E+00  .000E+00  .000E+00  .000E+00  .000E+00  .000E+00
  .000E+00  .000E+00  .000E+00  .000E+00  .000E+00  .000E+00  .000E+00  .000E+00
  .000E+00  .000E+00  .000E+00  .000E+00  .000E+00  .000E+00  .000E+00  .000E+00
  .000E+00  .000E+00  .000E+00  .000E+00  .000E+00  .000E+00  .000E+00  .000E+00
  .000E+00  .000E+00  .000E+00  .000E+00  .000E+00  .000E+00  .000E+00  .000E+00
  .000E+00  .000E+00  .000E+00  .000E+00  .000E+00  .000E+00  .000E+00  .000E+00
  .000E+00  .000E+00  .000E+00  .000E+00  .000E+00  .000E+00  .000E+00  .000E+00
  .000E+00  .000E+00  .000E+00  .000E+00  .000E+00  .000E+00  .000E+00  .000E+00
  .000E+00  .000E+00  .000E+00  .000E+00  .000E+00  .000E+00  .000E+00  .000E+00
  .000E+00  .000E+00  .000E+00  .000E+00
Damping =  .05. Data of Sd,Sv,Sa,Pssv,ttSd,ttSv,ttSa :
  .112E-03  .134E-03  .169E-03  .208E-03  .242E-03  .283E-03  .533E-03  .672E-03
  .798E-03  .922E-03  .843E-03  .953E-03  .101E-02  .106E-02  .135E-02  .193E-02
  .245E-02  .206E-02  .214E-02  .187E-02  .231E-02  .279E-02  .264E-02  .223E-02
  .219E-02  .241E-02  .368E-02  .463E-02  .501E-02  .433E-02  .360E-02  .297E-02
  .286E-02  .268E-02  .280E-02  .302E-02  .306E-02  .315E-02  .322E-02  .310E-02
