Response and Fourier amplitude spectra (78 periods,  .04 -  6.0 sec)   for      
Corrected accelerogram   38695658.CI.BHP.--.HN      Chan  1:  90 Deg     from   
Uncorrected Accelerogram Data             Processed: 09/19/20, CGS  cibhp--c    
Rcrd of Fri Sep 18, 2020 23:38:27.0 PDT               (Avol1 v2.0, 4/18 CSMIP)  
                                        (Origin:  To be determined)             
38695658.CI.BHP.--.HN                Start time:  9/19/20, 06:38:27.0 UTC (GPS) 
Station Id. BHP     33.991N, 118.362W    ObsMMS  s/n 3226  (3 Chns of  6 at Sta)
Baldwin Hills                            SCSN   Data: Acceleration              
Chan  1:  90 Deg                                                                
Rcrd of Fri Sep 18, 2020 23:38:27.0 PDT    Fri Sep 18, 2020 23:38:27.0 PDT      
Hypocenter:  To be determined.               ML:  To be determined.             
Instr Period =  .0050 sec,  Damping =  .707,  Sensitivity = 4.99 v/g  (Nominal) 
                        Record Length =301.000 sec.                             
                                     Uncor Max  =  -.019 g, at   34.740 sec.    
RMS accel of (uncor) record  =        .   Chn. metadata effective date:         
Accelerogram bandpass filtered with 3 dB pts at   .30 and 23.00 cyc/sec         
                 instrument- and base-line correcte                             
                                                                                
                                                                                
                                                                                
                                                                                
                                                                                
Rcrd of Fri Sep 18, 2020 23:38:27.0 PDT    Fri Sep 18, 2020 23:38:27.0 PDT      
                                                                                
38695658.CI.BHP.--.HN     Baldwin Hills   Chan  1:  90 Deg                      
                                                                                
38695658.CI.BHP.--.HN     Baldwin Hills   Chan  1:  90 Deg                      
                                                                                
Units for spectra are inches and sec, except Sa is in fraction of g.            
                                                                                
    1  100    1    6    6  100 -999    3    1    0   15 3226    0    0   41    0
    6   38   27    8  263    9   19 2020   10    3   9035829   39   13   74 -999
35829 -999  100    6 -999 -999 -999 -999 -999 -999 -999 -999 -999 -999 -999 -999
 -999 -999 -999 -99915050    2 -999    0 -999   20 -999 -999    3    1 347015050
    315050    4   78    1    3    5    0    0 -999    0 -999 -999    6 -999    2
    2    2    4 -999 -999 -999 -999 -999 -999 -999 -999    1 -999 -999 -999  111
    1    1 -999 -999
      .005      .707   358.290      .001     1.000  4994.462     -.019    34.740
   200.000     2.384      .477  -999.000    10.000  -999.000     4.000  -999.000
    20.000    -9.625      .000  -999.000  -999.000  -999.000  -999.000      .004
      .000     -.004     2.000    15.000    33.991  -118.362      .008      .011
     1.373     -.005     -.002    81.000  -999.000  -999.000  -999.000  -999.000
     1.000  -999.000    -8.000  -999.000  -999.000  -999.000  -999.000   120.000
     -.900     2.000     6.800   980.665      .020   301.000    31.831      .000
  -999.000    23.000  -999.000   301.000      .020      .300  -999.000  -999.000
    34.740   -18.549    34.700      .668    31.160      .042      .000      .300
    23.000      .020      .020      .000      .020      .036  -999.000  -999.000
      .079      .200      .073      .034      .003      .000  -999.000  -999.000
  -999.000  -999.000  -999.000  -999.000  -999.000  -999.000  -999.000  -999.000
  -999.000  -999.000  -999.000  -999.000
      .050
      .040      .042      .044      .046      .048      .050      .055      .060
      .065      .070      .075      .080      .085      .090      .095      .100
      .110      .120      .130      .140      .150      .160      .170      .180
      .190      .200      .220      .240      .260      .280      .300      .320
      .340      .360      .380      .400      .420      .440      .460      .480
      .500      .550      .600      .650      .700      .750      .800      .850
      .900      .950     1.000     1.100     1.200     1.300     1.400     1.500
     1.600     1.700     1.800     1.900     2.000     2.200     2.400     2.600
     2.800     3.000     3.200     3.400     3.600     3.800     4.000     4.200
     4.400     4.600     4.800     5.000     5.500     6.000      .000      .000
      .000      .000      .000      .000      .000      .000      .000      .000
      .000      .000      .000      .000      .000      .000      .000      .000
      .000      .000      .000      .000
Fourier amplitude spectra in in/sec.
  .000E+00  .000E+00  .000E+00  .000E+00  .000E+00  .000E+00  .000E+00  .000E+00
  .000E+00  .000E+00  .000E+00  .000E+00  .000E+00  .000E+00  .000E+00  .000E+00
  .000E+00  .000E+00  .000E+00  .000E+00  .000E+00  .000E+00  .000E+00  .000E+00
  .000E+00  .000E+00  .000E+00  .000E+00  .000E+00  .000E+00  .000E+00  .000E+00
  .000E+00  .000E+00  .000E+00  .000E+00  .000E+00  .000E+00  .000E+00  .000E+00
  .000E+00  .000E+00  .000E+00  .000E+00  .000E+00  .000E+00  .000E+00  .000E+00
  .000E+00  .000E+00  .000E+00  .000E+00  .000E+00  .000E+00  .000E+00  .000E+00
  .000E+00  .000E+00  .000E+00  .000E+00  .000E+00  .000E+00  .000E+00  .000E+00
  .000E+00  .000E+00  .000E+00  .000E+00  .000E+00  .000E+00  .000E+00  .000E+00
  .000E+00  .000E+00  .000E+00  .000E+00  .000E+00  .000E+00  .000E+00  .000E+00
  .000E+00  .000E+00  .000E+00  .000E+00  .000E+00  .000E+00  .000E+00  .000E+00
  .000E+00  .000E+00  .000E+00  .000E+00  .000E+00  .000E+00  .000E+00  .000E+00
  .000E+00  .000E+00  .000E+00  .000E+00
Damping =  .05. Data of Sd,Sv,Sa,Pssv,ttSd,ttSv,ttSa :
  .296E-03  .327E-03  .360E-03  .388E-03  .432E-03  .491E-03  .623E-03  .886E-03
  .943E-03  .123E-02  .146E-02  .192E-02  .247E-02  .314E-02  .377E-02  .414E-02
  .584E-02  .629E-02  .802E-02  .889E-02  .866E-02  .114E-01  .145E-01  .211E-01
  .258E-01  .301E-01  .319E-01  .300E-01  .270E-01  .366E-01  .282E-01  .239E-01
  .236E-01  .267E-01  .269E-01  .236E-01  .240E-01  .224E-01  .223E-01  .233E-01
  .240E-01  .185E-01  .212E-01  .221E-01  .223E-01  .344E-01  .355E-01  .320E-01
  .258E-01  .283E-01  .315E-01  .433E-01  .386E-01  .508E-01  .508E-01  .380E-01
  .264E-01  .250E-01  .255E-01  .238E-01  .243E-01  .257E-01  .274E-01  .239E-01
  .251E-01  .266E-01  .290E-01  .232E-01  .222E-01  .202E-01  .199E-01  .195E-01
  .192E-01  .189E-01  .187E-01  .185E-01  .181E-01  .178E-01  .000E+00  .000E+00
  .000E+00  .000E+00  .000E+00  .000E+00  .000E+00  .000E+00  .000E+00  .000E+00
  .000E+00  .000E+00  .000E+00  .000E+00  .000E+00  .000E+00  .000E+00  .000E+00
  .000E+00  .000E+00  .000E+00  .000E+00
  .132E-01  .144E-01  .162E-01  .191E-01  .251E-01  .307E-01  .420E-01  .555E-01
  .624E-01  .736E-01  .814E-01  .114E+00  .142E+00  .172E+00  .195E+00  .212E+00
  .290E+00  .278E+00  .318E+00  .359E+00  .328E+00  .393E+00  .452E+00  .684E+00
  .818E+00  .943E+00  .943E+00  .818E+00  .682E+00  .880E+00  .694E+00  .542E+00
  .546E+00  .470E+00  .486E+00  .386E+00  .391E+00  .349E+00  .353E+00  .366E+00
  .350E+00  .296E+00  .332E+00  .310E+00  .276E+00  .357E+00  .432E+00  .340E+00
  .327E+00  .311E+00  .283E+00  .306E+00  .254E+00  .268E+00  .301E+00  .289E+00
  .253E+00  .241E+00  .235E+00  .232E+00  .248E+00  .270E+00  .269E+00  .257E+00
  .249E+00  .245E+00  .246E+00  .248E+00  .251E+00  .253E+00  .255E+00  .256E+00
  .256E+00  .256E+00  .256E+00  .256E+00  .255E+00  .255E+00  .000E+00  .000E+00
  .000E+00  .000E+00  .000E+00  .000E+00  .000E+00  .000E+00  .000E+00  .000E+00
  .000E+00  .000E+00  .000E+00  .000E+00  .000E+00  .000E+00  .000E+00  .000E+00
  .000E+00  .000E+00  .000E+00  .000E+00
  .189E-01  .190E-01  .190E-01  .187E-01  .192E-01  .202E-01  .212E-01  .252E-01
  .227E-01  .254E-01  .265E-01  .309E-01  .349E-01  .394E-01  .428E-01  .426E-01
  .503E-01  .453E-01  .489E-01  .463E-01  .393E-01  .457E-01  .512E-01  .670E-01
  .738E-01  .787E-01  .664E-01  .529E-01  .411E-01  .472E-01  .315E-01  .244E-01
  .209E-01  .214E-01  .190E-01  .150E-01  .141E-01  .120E-01  .109E-01  .104E-01
  .987E-02  .628E-02  .604E-02  .537E-02  .467E-02  .629E-02  .571E-02  .454E-02
  .330E-02  .322E-02  .324E-02  .369E-02  .276E-02  .309E-02  .267E-02  .174E-02
  .106E-02  .895E-03  .815E-03  .678E-03  .624E-03  .546E-03  .510E-03  .372E-03
  .331E-03  .311E-03  .297E-03  .220E-03  .195E-03  .175E-03  .158E-03  .143E-03
  .131E-03  .120E-03  .110E-03  .102E-03  .858E-04  .736E-04  .000E+00  .000E+00
  .000E+00  .000E+00  .000E+00  .000E+00  .000E+00  .000E+00  .000E+00  .000E+00
  .000E+00  .000E+00  .000E+00  .000E+00  .000E+00  .000E+00  .000E+00  .000E+00
  .000E+00  .000E+00  .000E+00  .000E+00
  .465E-01  .489E-01  .515E-01  .529E-01  .565E-01  .617E-01  .712E-01  .927E-01
  .912E-01  .110E+00  .122E+00  .151E+00  .182E+00  .219E+00  .250E+00  .260E+00
  .334E+00  .329E+00  .388E+00  .399E+00  .363E+00  .446E+00  .535E+00  .736E+00
  .854E+00  .946E+00  .912E+00  .785E+00  .653E+00  .820E+00  .591E+00  .470E+00
  .436E+00  .467E+00  .444E+00  .370E+00  .358E+00  .320E+00  .304E+00  .305E+00
  .302E+00  .211E+00  .222E+00  .213E+00  .200E+00  .288E+00  .279E+00  .236E+00
  .180E+00  .187E+00  .198E+00  .247E+00  .202E+00  .245E+00  .228E+00  .159E+00
  .104E+00  .926E-01  .892E-01  .786E-01  .763E-01  .734E-01  .717E-01  .577E-01
  .564E-01  .557E-01  .570E-01  .429E-01  .387E-01  .334E-01  .312E-01  .292E-01
  .275E-01  .259E-01  .244E-01  .232E-01  .206E-01  .186E-01  .000E+00  .000E+00
  .000E+00  .000E+00  .000E+00  .000E+00  .000E+00  .000E+00  .000E+00  .000E+00
  .000E+00  .000E+00  .000E+00  .000E+00  .000E+00  .000E+00  .000E+00  .000E+00
  .000E+00  .000E+00  .000E+00  .000E+00
  .347E+02  .347E+02  .347E+02  .347E+02  .347E+02  .347E+02  .347E+02  .347E+02
  .347E+02  .355E+02  .347E+02  .344E+02  .344E+02  .344E+02  .344E+02  .344E+02
  .345E+02  .348E+02  .345E+02  .345E+02  .346E+02  .346E+02  .346E+02  .348E+02
  .349E+02  .349E+02  .349E+02  .349E+02  .360E+02  .348E+02  .347E+02  .314E+02
  .327E+02  .403E+02  .402E+02  .376E+02  .375E+02  .365E+02  .390E+02  .400E+02
  .400E+02  .359E+02  .355E+02  .493E+02  .494E+02  .491E+02  .491E+02  .488E+02
  .317E+02  .470E+02  .488E+02  .489E+02  .485E+02  .589E+02  .590E+02  .585E+02
  .560E+02  .538E+02  .586E+02  .648E+02  .649E+02  .642E+02  .402E+02  .586E+02
  .587E+02  .560E+02  .579E+02  .397E+02  .579E+02  .311E+02  .311E+02  .311E+02
  .311E+02  .311E+02  .311E+02  .311E+02  .311E+02  .311E+02  .000E+00  .000E+00
  .000E+00  .000E+00  .000E+00  .000E+00  .000E+00  .000E+00  .000E+00  .000E+00
  .000E+00  .000E+00  .000E+00  .000E+00  .000E+00  .000E+00  .000E+00  .000E+00
  .000E+00  .000E+00  .000E+00  .000E+00
  .347E+02  .347E+02  .347E+02  .347E+02  .319E+02  .319E+02  .321E+02  .321E+02
  .352E+02  .355E+02  .344E+02  .344E+02  .324E+02  .344E+02  .344E+02  .345E+02
  .345E+02  .348E+02  .345E+02  .346E+02  .317E+02  .317E+02  .346E+02  .348E+02
  .348E+02  .348E+02  .348E+02  .349E+02  .349E+02  .348E+02  .348E+02  .348E+02
  .347E+02  .402E+02  .403E+02  .371E+02  .376E+02  .366E+02  .389E+02  .401E+02
  .401E+02  .347E+02  .348E+02  .347E+02  .348E+02  .347E+02  .347E+02  .347E+02
  .324E+02  .324E+02  .347E+02  .347E+02  .316E+02  .347E+02  .347E+02  .347E+02
  .347E+02  .346E+02  .346E+02  .347E+02  .347E+02  .347E+02  .347E+02  .347E+02
  .347E+02  .347E+02  .347E+02  .347E+02  .347E+02  .347E+02  .347E+02  .347E+02
  .347E+02  .347E+02  .347E+02  .347E+02  .347E+02  .347E+02  .000E+00  .000E+00
  .000E+00  .000E+00  .000E+00  .000E+00  .000E+00  .000E+00  .000E+00  .000E+00
  .000E+00  .000E+00  .000E+00  .000E+00  .000E+00  .000E+00  .000E+00  .000E+00
  .000E+00  .000E+00  .000E+00  .000E+00
  .347E+02  .347E+02  .347E+02  .347E+02  .347E+02  .347E+02  .347E+02  .347E+02
  .347E+02  .355E+02  .347E+02  .344E+02  .324E+02  .344E+02  .344E+02  .344E+02
  .345E+02  .348E+02  .345E+02  .346E+02  .346E+02  .346E+02  .346E+02  .348E+02
  .349E+02  .349E+02  .348E+02  .348E+02  .360E+02  .355E+02  .347E+02  .314E+02
  .327E+02  .403E+02  .402E+02  .376E+02  .375E+02  .365E+02  .390E+02  .402E+02
  .400E+02  .359E+02  .355E+02  .493E+02  .493E+02  .491E+02  .491E+02  .488E+02
  .317E+02  .470E+02  .488E+02  .489E+02  .485E+02  .589E+02  .590E+02  .585E+02
  .560E+02  .538E+02  .585E+02  .648E+02  .649E+02  .641E+02  .402E+02  .393E+02
  .586E+02  .560E+02  .579E+02  .311E+02  .311E+02  .311E+02  .311E+02  .311E+02
  .311E+02  .311E+02  .311E+02  .311E+02  .311E+02  .311E+02  .000E+00  .000E+00
  .000E+00  .000E+00  .000E+00  .000E+00  .000E+00  .000E+00  .000E+00  .000E+00
  .000E+00  .000E+00  .000E+00  .000E+00  .000E+00  .000E+00  .000E+00  .000E+00
  .000E+00  .000E+00  .000E+00  .000E+00
/&   ----------  End of spectral data for channel  1  ----------
Response and Fourier amplitude spectra (78 periods,  .04 -  6.0 sec)   for      
Corrected accelerogram   38695658.CI.BHP.--.HN      Chan  2: 360 Deg     from   
Uncorrected Accelerogram Data             Processed: 09/19/20, CGS  cibhp--c    
Rcrd of Fri Sep 18, 2020 23:38:27.0 PDT               (Avol1 v2.0, 4/18 CSMIP)  
                                        (Origin:  To be determined)             
38695658.CI.BHP.--.HN                Start time:  9/19/20, 06:38:27.0 UTC (GPS) 
Station Id. BHP     33.991N, 118.362W    ObsMMS  s/n 3226  (3 Chns of  6 at Sta)
Baldwin Hills                            SCSN   Data: Acceleration              
Chan  2: 360 Deg                                                                
Rcrd of Fri Sep 18, 2020 23:38:27.0 PDT    Fri Sep 18, 2020 23:38:27.0 PDT      
Hypocenter:  To be determined.               ML:  To be determined.             
Instr Period =  .0050 sec,  Damping =  .707,  Sensitivity = 5.00 v/g  (Nominal) 
                        Record Length =301.000 sec.                             
                                     Uncor Max  =   .014 g, at   34.390 sec.    
RMS accel of (uncor) record  =        .   Chn. metadata effective date:         
Accelerogram bandpass filtered with 3 dB pts at   .30 and 23.00 cyc/sec         
                 instrument- and base-line correcte                             
                                                                                
                                                                                
                                                                                
                                                                                
                                                                                
Rcrd of Fri Sep 18, 2020 23:38:27.0 PDT    Fri Sep 18, 2020 23:38:27.0 PDT      
                                                                                
38695658.CI.BHP.--.HN     Baldwin Hills   Chan  2: 360 Deg                      
                                                                                
38695658.CI.BHP.--.HN     Baldwin Hills   Chan  2: 360 Deg                      
                                                                                
Units for spectra are inches and sec, except Sa is in fraction of g.            
                                                                                
    2  100    2    6    6  100 -999    3    1    0   15 3226    0    0   41    0
    6   38   27    8  263    9   19 2020   10    3  36036065   39   13   74 -999
36065 -999  100    6 -999 -999 -999 -999 -999 -999 -999 -999 -999 -999 -999 -999
 -999 -999 -999 -99915050    2 -999    0 -999   20 -999 -999    3    1 347015050
    315050    4   78    1    3    5    0    0 -999    0 -999 -999    6 -999    2
    2    2    4 -999 -999 -999 -999 -999 -999 -999 -999    1 -999 -999 -999  111
    1    1 -999 -999
      .005      .707   360.650      .001     1.000  4998.452      .014    34.390
   200.000     2.384      .477  -999.000    10.000  -999.000     4.000  -999.000
    20.000   -19.278      .000  -999.000  -999.000  -999.000  -999.000     -.001
      .000      .000     2.000    15.000    33.991  -118.362      .008      .010
     1.157     -.001      .002    81.000  -999.000  -999.000  -999.000  -999.000
     1.000  -999.000  -999.000  -999.000  -999.000  -999.000  -999.000   120.000
     -.900     2.000     6.800   980.665      .020   301.000    31.831      .000
  -999.000    23.000  -999.000   301.000      .020      .300  -999.000  -999.000
    34.380    13.100    34.420      .459    45.200      .033      .000      .300
    23.000      .020      .020      .000      .020      .031  -999.000  -999.000
      .046      .220      .046      .035      .003      .000  -999.000  -999.000
  -999.000  -999.000  -999.000  -999.000  -999.000  -999.000  -999.000  -999.000
  -999.000  -999.000  -999.000  -999.000
      .050
      .040      .042      .044      .046      .048      .050      .055      .060
      .065      .070      .075      .080      .085      .090      .095      .100
      .110      .120      .130      .140      .150      .160      .170      .180
      .190      .200      .220      .240      .260      .280      .300      .320
      .340      .360      .380      .400      .420      .440      .460      .480
      .500      .550      .600      .650      .700      .750      .800      .850
      .900      .950     1.000     1.100     1.200     1.300     1.400     1.500
     1.600     1.700     1.800     1.900     2.000     2.200     2.400     2.600
     2.800     3.000     3.200     3.400     3.600     3.800     4.000     4.200
     4.400     4.600     4.800     5.000     5.500     6.000      .000      .000
      .000      .000      .000      .000      .000      .000      .000      .000
      .000      .000      .000      .000      .000      .000      .000      .000
      .000      .000      .000      .000
Fourier amplitude spectra in in/sec.
  .000E+00  .000E+00  .000E+00  .000E+00  .000E+00  .000E+00  .000E+00  .000E+00
  .000E+00  .000E+00  .000E+00  .000E+00  .000E+00  .000E+00  .000E+00  .000E+00
  .000E+00  .000E+00  .000E+00  .000E+00  .000E+00  .000E+00  .000E+00  .000E+00
  .000E+00  .000E+00  .000E+00  .000E+00  .000E+00  .000E+00  .000E+00  .000E+00
  .000E+00  .000E+00  .000E+00  .000E+00  .000E+00  .000E+00  .000E+00  .000E+00
  .000E+00  .000E+00  .000E+00  .000E+00  .000E+00  .000E+00  .000E+00  .000E+00
  .000E+00  .000E+00  .000E+00  .000E+00  .000E+00  .000E+00  .000E+00  .000E+00
  .000E+00  .000E+00  .000E+00  .000E+00  .000E+00  .000E+00  .000E+00  .000E+00
  .000E+00  .000E+00  .000E+00  .000E+00  .000E+00  .000E+00  .000E+00  .000E+00
  .000E+00  .000E+00  .000E+00  .000E+00  .000E+00  .000E+00  .000E+00  .000E+00
  .000E+00  .000E+00  .000E+00  .000E+00  .000E+00  .000E+00  .000E+00  .000E+00
  .000E+00  .000E+00  .000E+00  .000E+00  .000E+00  .000E+00  .000E+00  .000E+00
  .000E+00  .000E+00  .000E+00  .000E+00
Damping =  .05. Data of Sd,Sv,Sa,Pssv,ttSd,ttSv,ttSa :
  .229E-03  .251E-03  .273E-03  .302E-03  .338E-03  .386E-03  .523E-03  .706E-03
  .880E-03  .133E-02  .163E-02  .196E-02  .243E-02  .269E-02  .278E-02  .293E-02
  .415E-02  .385E-02  .464E-02  .601E-02  .872E-02  .989E-02  .963E-02  .128E-01
  .160E-01  .179E-01  .221E-01  .253E-01  .273E-01  .320E-01  .275E-01  .293E-01
  .288E-01  .283E-01  .290E-01  .334E-01  .293E-01  .328E-01  .338E-01  .306E-01
