Response and Fourier amplitude spectra (78 periods,  .04 -  6.0 sec)   for      
Corrected accelerogram   38695658.CI.BLC.--.HN      Chan  1:  90 Deg     from   
Uncorrected Accelerogram Data             Processed: 09/19/20, CGS  ciblc--g    
Rcrd of Fri Sep 18, 2020 23:38:33.0 PDT               (Avol1 v2.0, 4/18 CSMIP)  
                                        (Origin:  To be determined)             
38695658.CI.BLC.--.HN                Start time:  9/19/20, 06:38:33.0 UTC (GPS) 
Station Id. BLC     34.244N, 118.673W    Q330    s/n 5340  (3 Chns of  6 at Sta)
Black Canyon                             SCSN   Data: Acceleration              
Chan  1:  90 Deg                                                                
Rcrd of Fri Sep 18, 2020 23:38:33.0 PDT    Fri Sep 18, 2020 23:38:33.0 PDT      
Hypocenter:  To be determined.               ML:  To be determined.             
Instr Period =  .0050 sec,  Damping =  .707,  Sensitivity = 4.98 v/g  (Nominal) 
                        Record Length =301.000 sec.                             
                                     Uncor Max  =  -.003 g, at   33.210 sec.    
RMS accel of (uncor) record  =        .   Chn. metadata effective date:         
Accelerogram bandpass filtered with 3 dB pts at   .30 and 23.00 cyc/sec         
                 instrument- and base-line correcte                             
                                                                                
                                                                                
                                                                                
                                                                                
                                                                                
Rcrd of Fri Sep 18, 2020 23:38:33.0 PDT    Fri Sep 18, 2020 23:38:33.0 PDT      
                                                                                
38695658.CI.BLC.--.HN     Black Canyon    Chan  1:  90 Deg                      
                                                                                
38695658.CI.BLC.--.HN     Black Canyon    Chan  1:  90 Deg                      
                                                                                
Units for spectra are inches and sec, except Sa is in fraction of g.            
                                                                                
    1  100    1    6    6  100 -999    3    1    0  605 5340    050752   41    0
    6   38   33    8  263    9   19 2020   10    3   9035810   39   12   74 -999
35810 -999  100    6 -999 -999 -999 -999 -999 -999 -999 -999 -999 -999 -999 -999
 -999 -999 -999 -99915050    2 -999    0 -999   20 -999 -999    3    1 -99915050
    315050    4   78    1    3    5    0    0 -999    0 -999 -999    6 -999    2
    2    2    4 -999 -999 -999 -999 -999 -999 -999 -999    1 -999 -999 -999  111
    1    1 -999 -999
      .005      .707   358.100      .000     1.000  4981.498     -.003    33.210
   200.000     2.384      .479  -999.000    10.000  -999.000     4.000  -999.000
    20.000   -15.477      .000  -999.000  -999.000  -999.000  -999.000     -.001
      .001      .002     2.000    15.000    34.244  -118.673      .001      .001
     1.140      .002      .002   607.000  -999.000  -999.000  -999.000  -999.000
     1.000  -999.000    -8.000  -999.000  -999.000  -999.000  -999.000   120.000
     -.900     2.000     6.800   980.665      .020   301.000    31.831      .000
  -999.000    23.000  -999.000   301.000      .020      .300  -999.000  -999.000
    33.200    -2.566    33.160      .120    33.220      .012      .000      .300
    23.000      .020      .020      .000      .020      .005  -999.000  -999.000
      .007      .150      .004      .005      .001      .000  -999.000  -999.000
  -999.000  -999.000  -999.000  -999.000  -999.000  -999.000  -999.000  -999.000
  -999.000  -999.000  -999.000  -999.000
      .050
      .040      .042      .044      .046      .048      .050      .055      .060
      .065      .070      .075      .080      .085      .090      .095      .100
      .110      .120      .130      .140      .150      .160      .170      .180
      .190      .200      .220      .240      .260      .280      .300      .320
      .340      .360      .380      .400      .420      .440      .460      .480
      .500      .550      .600      .650      .700      .750      .800      .850
      .900      .950     1.000     1.100     1.200     1.300     1.400     1.500
     1.600     1.700     1.800     1.900     2.000     2.200     2.400     2.600
     2.800     3.000     3.200     3.400     3.600     3.800     4.000     4.200
     4.400     4.600     4.800     5.000     5.500     6.000      .000      .000
      .000      .000      .000      .000      .000      .000      .000      .000
      .000      .000      .000      .000      .000      .000      .000      .000
      .000      .000      .000      .000
Fourier amplitude spectra in in/sec.
  .000E+00  .000E+00  .000E+00  .000E+00  .000E+00  .000E+00  .000E+00  .000E+00
  .000E+00  .000E+00  .000E+00  .000E+00  .000E+00  .000E+00  .000E+00  .000E+00
  .000E+00  .000E+00  .000E+00  .000E+00  .000E+00  .000E+00  .000E+00  .000E+00
  .000E+00  .000E+00  .000E+00  .000E+00  .000E+00  .000E+00  .000E+00  .000E+00
  .000E+00  .000E+00  .000E+00  .000E+00  .000E+00  .000E+00  .000E+00  .000E+00
  .000E+00  .000E+00  .000E+00  .000E+00  .000E+00  .000E+00  .000E+00  .000E+00
  .000E+00  .000E+00  .000E+00  .000E+00  .000E+00  .000E+00  .000E+00  .000E+00
  .000E+00  .000E+00  .000E+00  .000E+00  .000E+00  .000E+00  .000E+00  .000E+00
  .000E+00  .000E+00  .000E+00  .000E+00  .000E+00  .000E+00  .000E+00  .000E+00
  .000E+00  .000E+00  .000E+00  .000E+00  .000E+00  .000E+00  .000E+00  .000E+00
  .000E+00  .000E+00  .000E+00  .000E+00  .000E+00  .000E+00  .000E+00  .000E+00
  .000E+00  .000E+00  .000E+00  .000E+00  .000E+00  .000E+00  .000E+00  .000E+00
  .000E+00  .000E+00  .000E+00  .000E+00
Damping =  .05. Data of Sd,Sv,Sa,Pssv,ttSd,ttSv,ttSa :
  .430E-04  .476E-04  .521E-04  .566E-04  .620E-04  .675E-04  .889E-04  .108E-03
  .123E-03  .154E-03  .192E-03  .224E-03  .220E-03  .277E-03  .352E-03  .363E-03
  .480E-03  .676E-03  .768E-03  .128E-02  .146E-02  .153E-02  .155E-02  .148E-02
  .138E-02  .149E-02  .270E-02  .364E-02  .413E-02  .405E-02  .430E-02  .533E-02
  .623E-02  .575E-02  .661E-02  .767E-02  .847E-02  .882E-02  .868E-02  .865E-02
  .841E-02  .645E-02  .655E-02  .695E-02  .767E-02  .753E-02  .101E-01  .110E-01
  .114E-01  .122E-01  .124E-01  .111E-01  .993E-02  .867E-02  .756E-02  .751E-02
  .736E-02  .719E-02  .704E-02  .698E-02  .713E-02  .755E-02  .711E-02  .647E-02
  .609E-02  .584E-02  .563E-02  .544E-02  .531E-02  .527E-02  .523E-02  .520E-02
  .517E-02  .513E-02  .510E-02  .506E-02  .498E-02  .493E-02  .000E+00  .000E+00
  .000E+00  .000E+00  .000E+00  .000E+00  .000E+00  .000E+00  .000E+00  .000E+00
  .000E+00  .000E+00  .000E+00  .000E+00  .000E+00  .000E+00  .000E+00  .000E+00
  .000E+00  .000E+00  .000E+00  .000E+00
  .119E-02  .134E-02  .155E-02  .174E-02  .191E-02  .215E-02  .283E-02  .304E-02
  .348E-02  .488E-02  .619E-02  .823E-02  .107E-01  .995E-02  .109E-01  .145E-01
  .176E-01  .265E-01  .306E-01  .432E-01  .507E-01  .502E-01  .472E-01  .420E-01
  .361E-01  .376E-01  .649E-01  .824E-01  .958E-01  .886E-01  .807E-01  .980E-01
  .112E+00  .103E+00  .116E+00  .130E+00  .131E+00  .123E+00  .118E+00  .116E+00
  .111E+00  .947E-01  .877E-01  .693E-01  .781E-01  .803E-01  .823E-01  .876E-01
  .980E-01  .921E-01  .834E-01  .837E-01  .782E-01  .730E-01  .666E-01  .615E-01
  .573E-01  .541E-01  .518E-01  .504E-01  .495E-01  .464E-01  .485E-01  .487E-01
  .484E-01  .482E-01  .480E-01  .478E-01  .475E-01  .473E-01  .472E-01  .471E-01
  .470E-01  .470E-01  .469E-01  .469E-01  .468E-01  .467E-01  .000E+00  .000E+00
  .000E+00  .000E+00  .000E+00  .000E+00  .000E+00  .000E+00  .000E+00  .000E+00
  .000E+00  .000E+00  .000E+00  .000E+00  .000E+00  .000E+00  .000E+00  .000E+00
  .000E+00  .000E+00  .000E+00  .000E+00
  .275E-02  .276E-02  .275E-02  .274E-02  .275E-02  .276E-02  .301E-02  .306E-02
  .297E-02  .322E-02  .348E-02  .360E-02  .313E-02  .350E-02  .400E-02  .374E-02
  .405E-02  .484E-02  .463E-02  .665E-02  .666E-02  .610E-02  .554E-02  .468E-02
  .391E-02  .377E-02  .571E-02  .662E-02  .634E-02  .541E-02  .496E-02  .540E-02
  .549E-02  .454E-02  .467E-02  .498E-02  .496E-02  .467E-02  .423E-02  .389E-02
  .347E-02  .220E-02  .187E-02  .170E-02  .161E-02  .138E-02  .162E-02  .156E-02
  .145E-02  .139E-02  .128E-02  .941E-03  .714E-03  .532E-03  .407E-03  .355E-03
  .307E-03  .266E-03  .234E-03  .209E-03  .194E-03  .171E-03  .138E-03  .110E-03
  .912E-04  .780E-04  .677E-04  .594E-04  .529E-04  .480E-04  .439E-04  .403E-04
  .372E-04  .345E-04  .321E-04  .299E-04  .255E-04  .222E-04  .000E+00  .000E+00
  .000E+00  .000E+00  .000E+00  .000E+00  .000E+00  .000E+00  .000E+00  .000E+00
  .000E+00  .000E+00  .000E+00  .000E+00  .000E+00  .000E+00  .000E+00  .000E+00
  .000E+00  .000E+00  .000E+00  .000E+00
  .676E-02  .712E-02  .745E-02  .773E-02  .812E-02  .848E-02  .102E-01  .113E-01
  .119E-01  .139E-01  .161E-01  .176E-01  .163E-01  .193E-01  .233E-01  .228E-01
  .274E-01  .354E-01  .371E-01  .573E-01  .613E-01  .601E-01  .571E-01  .518E-01
  .458E-01  .468E-01  .772E-01  .954E-01  .999E-01  .909E-01  .901E-01  .105E+00
  .115E+00  .100E+00  .109E+00  .120E+00  .127E+00  .126E+00  .119E+00  .113E+00
  .106E+00  .737E-01  .686E-01  .672E-01  .688E-01  .631E-01  .793E-01  .811E-01
  .798E-01  .809E-01  .781E-01  .631E-01  .520E-01  .419E-01  .339E-01  .314E-01
  .289E-01  .266E-01  .246E-01  .231E-01  .224E-01  .216E-01  .186E-01  .156E-01
  .137E-01  .122E-01  .111E-01  .101E-01  .927E-02  .871E-02  .822E-02  .778E-02
  .738E-02  .701E-02  .667E-02  .636E-02  .569E-02  .516E-02  .000E+00  .000E+00
  .000E+00  .000E+00  .000E+00  .000E+00  .000E+00  .000E+00  .000E+00  .000E+00
  .000E+00  .000E+00  .000E+00  .000E+00  .000E+00  .000E+00  .000E+00  .000E+00
  .000E+00  .000E+00  .000E+00  .000E+00
  .332E+02  .332E+02  .332E+02  .332E+02  .332E+02  .332E+02  .332E+02  .332E+02
  .332E+02  .332E+02  .332E+02  .332E+02  .332E+02  .332E+02  .332E+02  .332E+02
  .332E+02  .332E+02  .332E+02  .332E+02  .332E+02  .332E+02  .332E+02  .333E+02
  .333E+02  .332E+02  .332E+02  .332E+02  .334E+02  .334E+02  .349E+02  .350E+02
  .350E+02  .335E+02  .335E+02  .333E+02  .333E+02  .333E+02  .334E+02  .336E+02
  .336E+02  .351E+02  .327E+02  .389E+02  .393E+02  .387E+02  .345E+02  .342E+02
  .343E+02  .339E+02  .339E+02  .335E+02  .335E+02  .335E+02  .332E+02  .332E+02
  .332E+02  .332E+02  .332E+02  .332E+02  .332E+02  .332E+02  .332E+02  .332E+02
  .332E+02  .332E+02  .332E+02  .332E+02  .332E+02  .332E+02  .332E+02  .332E+02
  .332E+02  .332E+02  .332E+02  .332E+02  .332E+02  .332E+02  .000E+00  .000E+00
  .000E+00  .000E+00  .000E+00  .000E+00  .000E+00  .000E+00  .000E+00  .000E+00
  .000E+00  .000E+00  .000E+00  .000E+00  .000E+00  .000E+00  .000E+00  .000E+00
  .000E+00  .000E+00  .000E+00  .000E+00
  .332E+02  .332E+02  .332E+02  .332E+02  .332E+02  .332E+02  .332E+02  .327E+02
  .327E+02  .332E+02  .327E+02  .327E+02  .327E+02  .327E+02  .333E+02  .333E+02
  .328E+02  .334E+02  .335E+02  .333E+02  .333E+02  .333E+02  .333E+02  .333E+02
  .333E+02  .333E+02  .333E+02  .333E+02  .335E+02  .334E+02  .349E+02  .349E+02
  .349E+02  .334E+02  .334E+02  .334E+02  .334E+02  .332E+02  .332E+02  .333E+02
  .333E+02  .331E+02  .331E+02  .331E+02  .388E+02  .346E+02  .368E+02  .345E+02
  .345E+02  .341E+02  .341E+02  .333E+02  .333E+02  .333E+02  .333E+02  .333E+02
  .333E+02  .333E+02  .333E+02  .333E+02  .333E+02  .331E+02  .331E+02  .331E+02
  .331E+02  .331E+02  .331E+02  .331E+02  .331E+02  .331E+02  .331E+02  .331E+02
  .331E+02  .331E+02  .331E+02  .331E+02  .331E+02  .331E+02  .000E+00  .000E+00
  .000E+00  .000E+00  .000E+00  .000E+00  .000E+00  .000E+00  .000E+00  .000E+00
  .000E+00  .000E+00  .000E+00  .000E+00  .000E+00  .000E+00  .000E+00  .000E+00
  .000E+00  .000E+00  .000E+00  .000E+00
  .332E+02  .332E+02  .332E+02  .332E+02  .332E+02  .332E+02  .332E+02  .332E+02
  .332E+02  .332E+02  .332E+02  .332E+02  .332E+02  .332E+02  .332E+02  .332E+02
  .332E+02  .332E+02  .332E+02  .332E+02  .332E+02  .332E+02  .332E+02  .333E+02
  .332E+02  .332E+02  .332E+02  .332E+02  .334E+02  .334E+02  .349E+02  .350E+02
  .350E+02  .335E+02  .335E+02  .333E+02  .333E+02  .333E+02  .336E+02  .336E+02
  .336E+02  .351E+02  .327E+02  .389E+02  .393E+02  .387E+02  .345E+02  .342E+02
  .343E+02  .339E+02  .339E+02  .335E+02  .335E+02  .335E+02  .332E+02  .332E+02
  .332E+02  .332E+02  .332E+02  .332E+02  .332E+02  .332E+02  .332E+02  .332E+02
  .332E+02  .332E+02  .332E+02  .332E+02  .332E+02  .332E+02  .332E+02  .332E+02
  .332E+02  .332E+02  .332E+02  .332E+02  .332E+02  .332E+02  .000E+00  .000E+00
  .000E+00  .000E+00  .000E+00  .000E+00  .000E+00  .000E+00  .000E+00  .000E+00
  .000E+00  .000E+00  .000E+00  .000E+00  .000E+00  .000E+00  .000E+00  .000E+00
  .000E+00  .000E+00  .000E+00  .000E+00
/&   ----------  End of spectral data for channel  1  ----------
Response and Fourier amplitude spectra (78 periods,  .04 -  6.0 sec)   for      
Corrected accelerogram   38695658.CI.BLC.--.HN      Chan  2: 360 Deg     from   
Uncorrected Accelerogram Data             Processed: 09/19/20, CGS  ciblc--g    
Rcrd of Fri Sep 18, 2020 23:38:33.0 PDT               (Avol1 v2.0, 4/18 CSMIP)  
                                        (Origin:  To be determined)             
38695658.CI.BLC.--.HN                Start time:  9/19/20, 06:38:33.0 UTC (GPS) 
Station Id. BLC     34.244N, 118.673W    Q330    s/n 5340  (3 Chns of  6 at Sta)
Black Canyon                             SCSN   Data: Acceleration              
Chan  2: 360 Deg                                                                
Rcrd of Fri Sep 18, 2020 23:38:33.0 PDT    Fri Sep 18, 2020 23:38:33.0 PDT      
Hypocenter:  To be determined.               ML:  To be determined.             
Instr Period =  .0050 sec,  Damping =  .707,  Sensitivity = 4.97 v/g  (Nominal) 
                        Record Length =301.000 sec.                             
                                     Uncor Max  =  -.002 g, at   33.040 sec.    
RMS accel of (uncor) record  =        .   Chn. metadata effective date:         
Accelerogram bandpass filtered with 3 dB pts at   .30 and 23.00 cyc/sec         
                 instrument- and base-line correcte                             
                                                                                
                                                                                
                                                                                
                                                                                
                                                                                
Rcrd of Fri Sep 18, 2020 23:38:33.0 PDT    Fri Sep 18, 2020 23:38:33.0 PDT      
                                                                                
38695658.CI.BLC.--.HN     Black Canyon    Chan  2: 360 Deg                      
                                                                                
38695658.CI.BLC.--.HN     Black Canyon    Chan  2: 360 Deg                      
                                                                                
Units for spectra are inches and sec, except Sa is in fraction of g.            
                                                                                
    2  100    2    6    6  100 -999    3    1    0  605 5340    050752   41    0
    6   38   33    8  263    9   19 2020   10    3  36035917   39   12   74 -999
35917 -999  100    6 -999 -999 -999 -999 -999 -999 -999 -999 -999 -999 -999 -999
 -999 -999 -999 -99915050    2 -999    0 -999   20 -999 -999    3    1 -99915050
    315050    4   78    1    3    5    0    0 -999    0 -999 -999    6 -999    2
    2    2    4 -999 -999 -999 -999 -999 -999 -999 -999    1 -999 -999 -999  111
    1    1 -999 -999
      .005      .707   359.170      .000     1.000  4973.519     -.002    33.040
   200.000     2.384      .479  -999.000    10.000  -999.000     4.000  -999.000
    20.000   -16.865      .000  -999.000  -999.000  -999.000  -999.000     -.001
      .000      .001     2.000    15.000    34.244  -118.673      .001      .001
     1.050      .001      .001   607.000  -999.000  -999.000  -999.000  -999.000
     1.000  -999.000  -999.000  -999.000  -999.000  -999.000  -999.000   120.000
     -.900     2.000     6.800   980.665      .020   301.000    31.831      .000
  -999.000    23.000  -999.000   301.000      .020      .300  -999.000  -999.000
    33.040    -2.443    33.100     -.158    33.000      .014      .000      .300
    23.000      .020      .020      .000      .020      .005  -999.000  -999.000
      .008      .150      .005      .005      .001      .000  -999.000  -999.000
  -999.000  -999.000  -999.000  -999.000  -999.000  -999.000  -999.000  -999.000
  -999.000  -999.000  -999.000  -999.000
      .050
      .040      .042      .044      .046      .048      .050      .055      .060
      .065      .070      .075      .080      .085      .090      .095      .100
      .110      .120      .130      .140      .150      .160      .170      .180
      .190      .200      .220      .240      .260      .280      .300      .320
      .340      .360      .380      .400      .420      .440      .460      .480
      .500      .550      .600      .650      .700      .750      .800      .850
      .900      .950     1.000     1.100     1.200     1.300     1.400     1.500
     1.600     1.700     1.800     1.900     2.000     2.200     2.400     2.600
     2.800     3.000     3.200     3.400     3.600     3.800     4.000     4.200
     4.400     4.600     4.800     5.000     5.500     6.000      .000      .000
      .000      .000      .000      .000      .000      .000      .000      .000
      .000      .000      .000      .000      .000      .000      .000      .000
      .000      .000      .000      .000
Fourier amplitude spectra in in/sec.
  .000E+00  .000E+00  .000E+00  .000E+00  .000E+00  .000E+00  .000E+00  .000E+00
  .000E+00  .000E+00  .000E+00  .000E+00  .000E+00  .000E+00  .000E+00  .000E+00
  .000E+00  .000E+00  .000E+00  .000E+00  .000E+00  .000E+00  .000E+00  .000E+00
  .000E+00  .000E+00  .000E+00  .000E+00  .000E+00  .000E+00  .000E+00  .000E+00
  .000E+00  .000E+00  .000E+00  .000E+00  .000E+00  .000E+00  .000E+00  .000E+00
  .000E+00  .000E+00  .000E+00  .000E+00  .000E+00  .000E+00  .000E+00  .000E+00
  .000E+00  .000E+00  .000E+00  .000E+00  .000E+00  .000E+00  .000E+00  .000E+00
  .000E+00  .000E+00  .000E+00  .000E+00  .000E+00  .000E+00  .000E+00  .000E+00
  .000E+00  .000E+00  .000E+00  .000E+00  .000E+00  .000E+00  .000E+00  .000E+00
  .000E+00  .000E+00  .000E+00  .000E+00  .000E+00  .000E+00  .000E+00  .000E+00
  .000E+00  .000E+00  .000E+00  .000E+00  .000E+00  .000E+00  .000E+00  .000E+00
  .000E+00  .000E+00  .000E+00  .000E+00  .000E+00  .000E+00  .000E+00  .000E+00
  .000E+00  .000E+00  .000E+00  .000E+00
Damping =  .05. Data of Sd,Sv,Sa,Pssv,ttSd,ttSv,ttSa :
  .393E-04  .435E-04  .478E-04  .528E-04  .577E-04  .645E-04  .803E-04  .925E-04
  .116E-03  .128E-03  .167E-03  .233E-03  .304E-03  .368E-03  .377E-03  .436E-03
  .610E-03  .902E-03  .102E-02  .152E-02  .180E-02  .195E-02  .195E-02  .186E-02
  .185E-02  .191E-02  .253E-02  .286E-02  .331E-02  .426E-02  .453E-02  .460E-02
  .487E-02  .587E-02  .771E-02  .919E-02  .103E-01  .106E-01  .107E-01  .107E-01
