Response and Fourier amplitude spectra (78 periods,  .04 -  6.0 sec)   for      
Corrected accelerogram   38695658.CI.BRE.--.HN      Chan  1:  90 Deg     from   
Uncorrected Accelerogram Data             Processed: 09/19/20, CGS  cibre--p    
Rcrd of Fri Sep 18, 2020 23:38:28.0 PDT               (Avol1 v2.0, 4/18 CSMIP)  
                                        (Origin:  To be determined)             
38695658.CI.BRE.--.HN                Start time:  9/19/20, 06:38:28.0 UTC (GPS) 
Station Id. BRE     33.808N, 117.981W    Q330    s/n 4340  (3 Chns of  3 at Sta)
8622 Cerritos Ave                        SCSN   Data: Acceleration              
Chan  1:  90 Deg                                                                
Rcrd of Fri Sep 18, 2020 23:38:28.0 PDT    Fri Sep 18, 2020 23:38:28.0 PDT      
Hypocenter:  To be determined.               ML:  To be determined.             
Instr Period =  .0050 sec,  Damping =  .707,  Sensitivity = 4.99 v/g  (Nominal) 
                        Record Length =301.000 sec.                             
                                     Uncor Max  =   .013 g, at   30.910 sec.    
RMS accel of (uncor) record  =        .   Chn. metadata effective date:         
Accelerogram bandpass filtered with 3 dB pts at   .30 and 23.00 cyc/sec         
                 instrument- and base-line correcte                             
                                                                                
                                                                                
                                                                                
                                                                                
                                                                                
Rcrd of Fri Sep 18, 2020 23:38:28.0 PDT    Fri Sep 18, 2020 23:38:28.0 PDT      
                                                                                
38695658.CI.BRE.--.HN     8622 Cerritos Ave   Chan  1:  90 Deg                  
                                                                                
38695658.CI.BRE.--.HN     8622 Cerritos Ave   Chan  1:  90 Deg                  
                                                                                
Units for spectra are inches and sec, except Sa is in fraction of g.            
                                                                                
    1  100    1    3    3  100 -999    3    1    0  605 4340    050597   41    0
    6   38   28    8  263    9   19 2020   10    3   9035955   39   17   74 -999
35955 -999  100    6 -999 -999 -999 -999 -999 -999 -999 -999 -999 -999 -999 -999
 -999 -999 -999 -99915050    2 -999    0 -999   20 -999 -999    3    1 -99915050
    315050    4   78    1    3    5    0    0 -999    0 -999 -999    6 -999    2
    2    2    4 -999 -999 -999 -999 -999 -999 -999 -999    1 -999 -999 -999  111
    1    1 -999 -999
      .005      .707   359.550      .001     1.000  4990.473      .013    30.910
   200.000     2.384      .478  -999.000    10.000  -999.000     4.000  -999.000
    20.000   -13.213      .000  -999.000  -999.000  -999.000  -999.000      .000
      .000      .000     2.000    15.000    33.808  -117.981      .008      .008
     1.002     -.002      .001    24.000  -999.000  -999.000  -999.000  -999.000
     1.000  -999.000    -8.000  -999.000  -999.000  -999.000  -999.000   120.000
     -.900     2.000     6.800   980.665      .020   301.000    31.831      .000
  -999.000    23.000  -999.000   301.000      .020      .300  -999.000  -999.000
    30.900    12.862    30.860     -.399    33.000     -.033      .000      .300
    23.000      .020      .020      .000      .020      .030  -999.000  -999.000
      .041      .170      .028      .019      .002      .000  -999.000  -999.000
  -999.000  -999.000  -999.000  -999.000  -999.000  -999.000  -999.000  -999.000
  -999.000  -999.000  -999.000  -999.000
      .050
      .040      .042      .044      .046      .048      .050      .055      .060
      .065      .070      .075      .080      .085      .090      .095      .100
      .110      .120      .130      .140      .150      .160      .170      .180
      .190      .200      .220      .240      .260      .280      .300      .320
      .340      .360      .380      .400      .420      .440      .460      .480
      .500      .550      .600      .650      .700      .750      .800      .850
      .900      .950     1.000     1.100     1.200     1.300     1.400     1.500
     1.600     1.700     1.800     1.900     2.000     2.200     2.400     2.600
     2.800     3.000     3.200     3.400     3.600     3.800     4.000     4.200
     4.400     4.600     4.800     5.000     5.500     6.000      .000      .000
      .000      .000      .000      .000      .000      .000      .000      .000
      .000      .000      .000      .000      .000      .000      .000      .000
      .000      .000      .000      .000
Fourier amplitude spectra in in/sec.
  .000E+00  .000E+00  .000E+00  .000E+00  .000E+00  .000E+00  .000E+00  .000E+00
  .000E+00  .000E+00  .000E+00  .000E+00  .000E+00  .000E+00  .000E+00  .000E+00
  .000E+00  .000E+00  .000E+00  .000E+00  .000E+00  .000E+00  .000E+00  .000E+00
  .000E+00  .000E+00  .000E+00  .000E+00  .000E+00  .000E+00  .000E+00  .000E+00
  .000E+00  .000E+00  .000E+00  .000E+00  .000E+00  .000E+00  .000E+00  .000E+00
  .000E+00  .000E+00  .000E+00  .000E+00  .000E+00  .000E+00  .000E+00  .000E+00
  .000E+00  .000E+00  .000E+00  .000E+00  .000E+00  .000E+00  .000E+00  .000E+00
  .000E+00  .000E+00  .000E+00  .000E+00  .000E+00  .000E+00  .000E+00  .000E+00
  .000E+00  .000E+00  .000E+00  .000E+00  .000E+00  .000E+00  .000E+00  .000E+00
  .000E+00  .000E+00  .000E+00  .000E+00  .000E+00  .000E+00  .000E+00  .000E+00
  .000E+00  .000E+00  .000E+00  .000E+00  .000E+00  .000E+00  .000E+00  .000E+00
  .000E+00  .000E+00  .000E+00  .000E+00  .000E+00  .000E+00  .000E+00  .000E+00
  .000E+00  .000E+00  .000E+00  .000E+00
Damping =  .05. Data of Sd,Sv,Sa,Pssv,ttSd,ttSv,ttSa :
  .219E-03  .245E-03  .271E-03  .306E-03  .355E-03  .399E-03  .512E-03  .671E-03
  .935E-03  .142E-02  .184E-02  .234E-02  .234E-02  .236E-02  .240E-02  .236E-02
  .294E-02  .492E-02  .588E-02  .698E-02  .803E-02  .939E-02  .116E-01  .119E-01
  .110E-01  .101E-01  .120E-01  .140E-01  .139E-01  .140E-01  .160E-01  .208E-01
  .239E-01  .212E-01  .197E-01  .225E-01  .280E-01  .286E-01  .342E-01  .409E-01
  .450E-01  .440E-01  .417E-01  .351E-01  .264E-01  .253E-01  .260E-01  .232E-01
  .186E-01  .159E-01  .159E-01  .237E-01  .228E-01  .180E-01  .172E-01  .237E-01
  .255E-01  .268E-01  .222E-01  .211E-01  .267E-01  .184E-01  .165E-01  .150E-01
  .169E-01  .143E-01  .150E-01  .137E-01  .128E-01  .133E-01  .129E-01  .130E-01
  .131E-01  .133E-01  .135E-01  .137E-01  .139E-01  .139E-01  .000E+00  .000E+00
  .000E+00  .000E+00  .000E+00  .000E+00  .000E+00  .000E+00  .000E+00  .000E+00
  .000E+00  .000E+00  .000E+00  .000E+00  .000E+00  .000E+00  .000E+00  .000E+00
  .000E+00  .000E+00  .000E+00  .000E+00
  .112E-01  .125E-01  .142E-01  .164E-01  .193E-01  .225E-01  .300E-01  .476E-01
  .718E-01  .107E+00  .136E+00  .167E+00  .163E+00  .147E+00  .135E+00  .139E+00
  .150E+00  .203E+00  .262E+00  .294E+00  .322E+00  .360E+00  .438E+00  .426E+00
  .385E+00  .340E+00  .340E+00  .360E+00  .325E+00  .295E+00  .342E+00  .380E+00
  .455E+00  .402E+00  .424E+00  .436E+00  .452E+00  .414E+00  .443E+00  .535E+00
  .620E+00  .506E+00  .542E+00  .465E+00  .356E+00  .328E+00  .293E+00  .237E+00
  .213E+00  .189E+00  .205E+00  .231E+00  .208E+00  .200E+00  .183E+00  .160E+00
  .168E+00  .183E+00  .190E+00  .188E+00  .180E+00  .164E+00  .162E+00  .160E+00
  .159E+00  .158E+00  .157E+00  .157E+00  .157E+00  .157E+00  .157E+00  .157E+00
  .157E+00  .157E+00  .156E+00  .156E+00  .156E+00  .155E+00  .000E+00  .000E+00
  .000E+00  .000E+00  .000E+00  .000E+00  .000E+00  .000E+00  .000E+00  .000E+00
  .000E+00  .000E+00  .000E+00  .000E+00  .000E+00  .000E+00  .000E+00  .000E+00
  .000E+00  .000E+00  .000E+00  .000E+00
  .140E-01  .142E-01  .143E-01  .148E-01  .157E-01  .163E-01  .173E-01  .189E-01
  .228E-01  .296E-01  .333E-01  .375E-01  .333E-01  .295E-01  .274E-01  .242E-01
  .246E-01  .347E-01  .362E-01  .369E-01  .366E-01  .372E-01  .412E-01  .374E-01
  .309E-01  .263E-01  .259E-01  .247E-01  .208E-01  .181E-01  .185E-01  .210E-01
  .210E-01  .168E-01  .142E-01  .144E-01  .165E-01  .152E-01  .168E-01  .184E-01
  .185E-01  .149E-01  .119E-01  .853E-02  .555E-02  .463E-02  .422E-02  .330E-02
  .237E-02  .183E-02  .164E-02  .203E-02  .165E-02  .112E-02  .923E-03  .109E-02
  .102E-02  .956E-03  .708E-03  .613E-03  .690E-03  .418E-03  .317E-03  .254E-03
  .228E-03  .187E-03  .163E-03  .142E-03  .127E-03  .116E-03  .107E-03  .997E-04
  .941E-04  .892E-04  .847E-04  .805E-04  .708E-04  .625E-04  .000E+00  .000E+00
  .000E+00  .000E+00  .000E+00  .000E+00  .000E+00  .000E+00  .000E+00  .000E+00
  .000E+00  .000E+00  .000E+00  .000E+00  .000E+00  .000E+00  .000E+00  .000E+00
  .000E+00  .000E+00  .000E+00  .000E+00
  .344E-01  .366E-01  .388E-01  .418E-01  .465E-01  .501E-01  .584E-01  .702E-01
  .904E-01  .128E+00  .154E+00  .184E+00  .173E+00  .164E+00  .159E+00  .148E+00
  .168E+00  .257E+00  .284E+00  .313E+00  .336E+00  .369E+00  .430E+00  .416E+00
  .363E+00  .319E+00  .342E+00  .367E+00  .335E+00  .314E+00  .335E+00  .408E+00
  .441E+00  .370E+00  .325E+00  .353E+00  .419E+00  .409E+00  .467E+00  .535E+00
  .566E+00  .502E+00  .436E+00  .339E+00  .237E+00  .212E+00  .204E+00  .171E+00
  .130E+00  .105E+00  .996E-01  .136E+00  .119E+00  .868E-01  .771E-01  .995E-01
  .100E+00  .989E-01  .776E-01  .698E-01  .840E-01  .527E-01  .431E-01  .362E-01
  .379E-01  .299E-01  .295E-01  .253E-01  .223E-01  .220E-01  .203E-01  .195E-01
  .187E-01  .182E-01  .177E-01  .172E-01  .159E-01  .145E-01  .000E+00  .000E+00
  .000E+00  .000E+00  .000E+00  .000E+00  .000E+00  .000E+00  .000E+00  .000E+00
  .000E+00  .000E+00  .000E+00  .000E+00  .000E+00  .000E+00  .000E+00  .000E+00
  .000E+00  .000E+00  .000E+00  .000E+00
  .309E+02  .309E+02  .309E+02  .309E+02  .309E+02  .309E+02  .309E+02  .309E+02
  .305E+02  .305E+02  .305E+02  .306E+02  .306E+02  .309E+02  .309E+02  .306E+02
  .313E+02  .309E+02  .310E+02  .310E+02  .311E+02  .311E+02  .310E+02  .310E+02
  .317E+02  .314E+02  .338E+02  .338E+02  .340E+02  .332E+02  .340E+02  .340E+02
  .344E+02  .336E+02  .310E+02  .335E+02  .335E+02  .335E+02  .335E+02  .336E+02
  .344E+02  .342E+02  .331E+02  .332E+02  .330E+02  .330E+02  .330E+02  .330E+02
  .340E+02  .340E+02  .340E+02  .340E+02  .330E+02  .330E+02  .327E+02  .679E+02
  .666E+02  .666E+02  .676E+02  .511E+02  .574E+02  .330E+02  .580E+02  .330E+02
  .580E+02  .580E+02  .580E+02  .571E+02  .330E+02  .571E+02  .338E+02  .338E+02
  .330E+02  .330E+02  .330E+02  .330E+02  .330E+02  .330E+02  .000E+00  .000E+00
  .000E+00  .000E+00  .000E+00  .000E+00  .000E+00  .000E+00  .000E+00  .000E+00
  .000E+00  .000E+00  .000E+00  .000E+00  .000E+00  .000E+00  .000E+00  .000E+00
  .000E+00  .000E+00  .000E+00  .000E+00
  .306E+02  .305E+02  .305E+02  .306E+02  .305E+02  .305E+02  .305E+02  .309E+02
  .305E+02  .305E+02  .305E+02  .306E+02  .306E+02  .306E+02  .306E+02  .306E+02
  .313E+02  .309E+02  .309E+02  .310E+02  .310E+02  .310E+02  .311E+02  .311E+02
  .317E+02  .314E+02  .312E+02  .310E+02  .339E+02  .331E+02  .331E+02  .331E+02
  .345E+02  .336E+02  .309E+02  .309E+02  .336E+02  .309E+02  .334E+02  .344E+02
  .342E+02  .343E+02  .333E+02  .331E+02  .331E+02  .331E+02  .331E+02  .331E+02
  .329E+02  .331E+02  .331E+02  .331E+02  .339E+02  .329E+02  .329E+02  .329E+02
  .331E+02  .331E+02  .331E+02  .331E+02  .331E+02  .331E+02  .308E+02  .308E+02
  .308E+02  .308E+02  .308E+02  .308E+02  .308E+02  .308E+02  .308E+02  .308E+02
  .308E+02  .308E+02  .308E+02  .308E+02  .308E+02  .308E+02  .000E+00  .000E+00
  .000E+00  .000E+00  .000E+00  .000E+00  .000E+00  .000E+00  .000E+00  .000E+00
  .000E+00  .000E+00  .000E+00  .000E+00  .000E+00  .000E+00  .000E+00  .000E+00
  .000E+00  .000E+00  .000E+00  .000E+00
  .309E+02  .309E+02  .309E+02  .309E+02  .309E+02  .309E+02  .309E+02  .309E+02
  .305E+02  .305E+02  .305E+02  .306E+02  .306E+02  .309E+02  .309E+02  .306E+02
  .313E+02  .309E+02  .310E+02  .310E+02  .311E+02  .311E+02  .311E+02  .310E+02
  .317E+02  .314E+02  .338E+02  .338E+02  .340E+02  .332E+02  .332E+02  .340E+02
  .344E+02  .336E+02  .310E+02  .335E+02  .335E+02  .335E+02  .335E+02  .335E+02
  .343E+02  .342E+02  .331E+02  .332E+02  .329E+02  .329E+02  .330E+02  .330E+02
  .340E+02  .340E+02  .340E+02  .340E+02  .330E+02  .330E+02  .327E+02  .679E+02
  .665E+02  .666E+02  .675E+02  .510E+02  .573E+02  .330E+02  .330E+02  .330E+02
  .580E+02  .329E+02  .329E+02  .329E+02  .329E+02  .329E+02  .337E+02  .329E+02
  .329E+02  .329E+02  .329E+02  .329E+02  .329E+02  .329E+02  .000E+00  .000E+00
  .000E+00  .000E+00  .000E+00  .000E+00  .000E+00  .000E+00  .000E+00  .000E+00
  .000E+00  .000E+00  .000E+00  .000E+00  .000E+00  .000E+00  .000E+00  .000E+00
  .000E+00  .000E+00  .000E+00  .000E+00
/&   ----------  End of spectral data for channel  1  ----------
Response and Fourier amplitude spectra (78 periods,  .04 -  6.0 sec)   for      
Corrected accelerogram   38695658.CI.BRE.--.HN      Chan  2: 360 Deg     from   
Uncorrected Accelerogram Data             Processed: 09/19/20, CGS  cibre--p    
Rcrd of Fri Sep 18, 2020 23:38:28.0 PDT               (Avol1 v2.0, 4/18 CSMIP)  
                                        (Origin:  To be determined)             
38695658.CI.BRE.--.HN                Start time:  9/19/20, 06:38:28.0 UTC (GPS) 
Station Id. BRE     33.808N, 117.981W    Q330    s/n 4340  (3 Chns of  3 at Sta)
8622 Cerritos Ave                        SCSN   Data: Acceleration              
Chan  2: 360 Deg                                                                
Rcrd of Fri Sep 18, 2020 23:38:28.0 PDT    Fri Sep 18, 2020 23:38:28.0 PDT      
Hypocenter:  To be determined.               ML:  To be determined.             
Instr Period =  .0050 sec,  Damping =  .707,  Sensitivity = 4.99 v/g  (Nominal) 
                        Record Length =301.000 sec.                             
                                     Uncor Max  =   .034 g, at   31.040 sec.    
RMS accel of (uncor) record  =        .   Chn. metadata effective date:         
Accelerogram bandpass filtered with 3 dB pts at   .30 and 23.00 cyc/sec         
                 instrument- and base-line correcte                             
                                                                                
                                                                                
                                                                                
                                                                                
                                                                                
Rcrd of Fri Sep 18, 2020 23:38:28.0 PDT    Fri Sep 18, 2020 23:38:28.0 PDT      
                                                                                
38695658.CI.BRE.--.HN     8622 Cerritos Ave   Chan  2: 360 Deg                  
                                                                                
38695658.CI.BRE.--.HN     8622 Cerritos Ave   Chan  2: 360 Deg                  
                                                                                
Units for spectra are inches and sec, except Sa is in fraction of g.            
                                                                                
    2  100    2    3    3  100 -999    3    1    0  605 4340    050597   41    0
    6   38   28    8  263    9   19 2020   10    3  36035811   39   17   74 -999
35811 -999  100    6 -999 -999 -999 -999 -999 -999 -999 -999 -999 -999 -999 -999
 -999 -999 -999 -99915050    2 -999    0 -999   20 -999 -999    3    1 -99915050
    315050    4   78    1    3    5    0    0 -999    0 -999 -999    6 -999    2
    2    2    4 -999 -999 -999 -999 -999 -999 -999 -999    1 -999 -999 -999  111
    1    1 -999 -999
      .005      .707   358.110      .001     1.000  4992.867      .034    31.040
   200.000     2.384      .478  -999.000    10.000  -999.000     4.000  -999.000
    20.000   -38.931      .000  -999.000  -999.000  -999.000  -999.000     -.001
     -.001      .000     2.000    15.000    33.808  -117.981      .008      .007
      .932     -.002      .001    24.000  -999.000  -999.000  -999.000  -999.000
     1.000  -999.000  -999.000  -999.000  -999.000  -999.000  -999.000   120.000
     -.900     2.000     6.800   980.665      .020   301.000    31.831      .000
  -999.000    23.000  -999.000   301.000      .020      .300  -999.000  -999.000
    31.040    33.396    30.980    -1.183    30.700      .092      .000      .300
    23.000      .020      .020      .000      .020      .036  -999.000  -999.000
      .153      .220      .124      .063      .004      .001  -999.000  -999.000
  -999.000  -999.000  -999.000  -999.000  -999.000  -999.000  -999.000  -999.000
  -999.000  -999.000  -999.000  -999.000
      .050
      .040      .042      .044      .046      .048      .050      .055      .060
      .065      .070      .075      .080      .085      .090      .095      .100
      .110      .120      .130      .140      .150      .160      .170      .180
      .190      .200      .220      .240      .260      .280      .300      .320
      .340      .360      .380      .400      .420      .440      .460      .480
      .500      .550      .600      .650      .700      .750      .800      .850
      .900      .950     1.000     1.100     1.200     1.300     1.400     1.500
     1.600     1.700     1.800     1.900     2.000     2.200     2.400     2.600
     2.800     3.000     3.200     3.400     3.600     3.800     4.000     4.200
     4.400     4.600     4.800     5.000     5.500     6.000      .000      .000
      .000      .000      .000      .000      .000      .000      .000      .000
      .000      .000      .000      .000      .000      .000      .000      .000
      .000      .000      .000      .000
Fourier amplitude spectra in in/sec.
  .000E+00  .000E+00  .000E+00  .000E+00  .000E+00  .000E+00  .000E+00  .000E+00
  .000E+00  .000E+00  .000E+00  .000E+00  .000E+00  .000E+00  .000E+00  .000E+00
  .000E+00  .000E+00  .000E+00  .000E+00  .000E+00  .000E+00  .000E+00  .000E+00
  .000E+00  .000E+00  .000E+00  .000E+00  .000E+00  .000E+00  .000E+00  .000E+00
  .000E+00  .000E+00  .000E+00  .000E+00  .000E+00  .000E+00  .000E+00  .000E+00
  .000E+00  .000E+00  .000E+00  .000E+00  .000E+00  .000E+00  .000E+00  .000E+00
  .000E+00  .000E+00  .000E+00  .000E+00  .000E+00  .000E+00  .000E+00  .000E+00
  .000E+00  .000E+00  .000E+00  .000E+00  .000E+00  .000E+00  .000E+00  .000E+00
  .000E+00  .000E+00  .000E+00  .000E+00  .000E+00  .000E+00  .000E+00  .000E+00
  .000E+00  .000E+00  .000E+00  .000E+00  .000E+00  .000E+00  .000E+00  .000E+00
  .000E+00  .000E+00  .000E+00  .000E+00  .000E+00  .000E+00  .000E+00  .000E+00
  .000E+00  .000E+00  .000E+00  .000E+00  .000E+00  .000E+00  .000E+00  .000E+00
  .000E+00  .000E+00  .000E+00  .000E+00
Damping =  .05. Data of Sd,Sv,Sa,Pssv,ttSd,ttSv,ttSa :
  .541E-03  .604E-03  .673E-03  .735E-03  .792E-03  .842E-03  .114E-02  .151E-02
  .188E-02  .196E-02  .229E-02  .270E-02  .344E-02  .418E-02  .455E-02  .497E-02
  .592E-02  .801E-02  .963E-02  .111E-01  .148E-01  .185E-01  .225E-01  .284E-01
  .360E-01  .448E-01  .718E-01  .787E-01  .673E-01  .550E-01  .510E-01  .575E-01
  .639E-01  .697E-01  .755E-01  .830E-01  .911E-01  .928E-01  .931E-01  .890E-01
