Response and Fourier amplitude spectra (78 periods,  .04 -  6.0 sec)   for      
Corrected accelerogram   38695658.CI.CAC.--.HN      Chan  1:  90 Deg     from   
Uncorrected Accelerogram Data             Processed: 09/19/20, CGS  cicac--h    
Rcrd of Fri Sep 18, 2020 23:38:28.0 PDT               (Avol1 v2.0, 4/18 CSMIP)  
                                        (Origin:  To be determined)             
38695658.CI.CAC.--.HN                Start time:  9/19/20, 06:38:28.0 UTC (GPS) 
Station Id. CAC     34.137N, 118.122W    ObsMMS  s/n  653  (3 Chns of  6 at Sta)
Pasadena, Caltech Athenaeum Cellar       SCSN   Data: Acceleration              
Chan  1:  90 Deg                                                                
Rcrd of Fri Sep 18, 2020 23:38:28.0 PDT    Fri Sep 18, 2020 23:38:28.0 PDT      
Hypocenter:  To be determined.               ML:  To be determined.             
Instr Period =  .0050 sec,  Damping =  .707,  Sensitivity = 2.49 v/g  (Nominal) 
                        Record Length =301.000 sec.                             
                                     Uncor Max  =   .018 g, at   25.340 sec.    
RMS accel of (uncor) record  =        .   Chn. metadata effective date:         
Accelerogram bandpass filtered with 3 dB pts at   .30 and 23.00 cyc/sec         
                 instrument- and base-line correcte                             
                                                                                
                                                                                
                                                                                
                                                                                
                                                                                
Rcrd of Fri Sep 18, 2020 23:38:28.0 PDT    Fri Sep 18, 2020 23:38:28.0 PDT      
                                                                                
38695658.CI.CAC.--.HN     Pasadena, Caltech Athenaeum Cellar    Chan  1:  90 Deg
                                                                                
38695658.CI.CAC.--.HN     Pasadena, Caltech Athenaeum Cellar    Chan  1:  90 Deg
                                                                                
Units for spectra are inches and sec, except Sa is in fraction of g.            
                                                                                
    1  100    1    6    6  100 -999    3    1    0   15  653    050705   41    0
    6   38   28   10  263    9   19 2020   10    3   9035598   39   34   74 -999
35598 -999  100    6 -999 -999 -999 -999 -999 -999 -999 -999 -999 -999 -999 -999
 -999 -999 -999 -99915050    2 -999    0 -999    0 -999 -999    3    1  65315050
    315050    4   78    1    3    5    0    0 -999    0 -999 -999    6 -999    2
    2    2    4 -999 -999 -999 -999 -999 -999 -999 -999    1 -999 -999 -999  111
    1    1 -999 -999
      .005      .707   355.980      .001     1.000  2493.331      .018    25.340
   200.000      .596      .239  -999.000    10.000  -999.000     2.000  -999.000
     5.000     9.899      .000  -999.000  -999.000  -999.000  -999.000      .000
      .000      .000     2.000    15.000    34.137  -118.122      .008      .008
      .945     -.002      .002   230.000  -999.000  -999.000  -999.000  -999.000
     1.000  -999.000    -8.000  -999.000  -999.000  -999.000  -999.000   120.000
     -.900     2.000     6.800   980.665      .020   301.000    31.831      .000
  -999.000    23.000  -999.000   301.000      .020      .300  -999.000  -999.000
    25.340    17.988    24.920      .486    28.740     -.052      .000      .300
    23.000      .020      .020      .000      .020      .024  -999.000  -999.000
      .047      .075      .026      .020      .005      .000  -999.000  -999.000
  -999.000  -999.000  -999.000  -999.000  -999.000  -999.000  -999.000  -999.000
  -999.000  -999.000  -999.000  -999.000
      .050
      .040      .042      .044      .046      .048      .050      .055      .060
      .065      .070      .075      .080      .085      .090      .095      .100
      .110      .120      .130      .140      .150      .160      .170      .180
      .190      .200      .220      .240      .260      .280      .300      .320
      .340      .360      .380      .400      .420      .440      .460      .480
      .500      .550      .600      .650      .700      .750      .800      .850
      .900      .950     1.000     1.100     1.200     1.300     1.400     1.500
     1.600     1.700     1.800     1.900     2.000     2.200     2.400     2.600
     2.800     3.000     3.200     3.400     3.600     3.800     4.000     4.200
     4.400     4.600     4.800     5.000     5.500     6.000      .000      .000
      .000      .000      .000      .000      .000      .000      .000      .000
      .000      .000      .000      .000      .000      .000      .000      .000
      .000      .000      .000      .000
Fourier amplitude spectra in in/sec.
  .000E+00  .000E+00  .000E+00  .000E+00  .000E+00  .000E+00  .000E+00  .000E+00
  .000E+00  .000E+00  .000E+00  .000E+00  .000E+00  .000E+00  .000E+00  .000E+00
  .000E+00  .000E+00  .000E+00  .000E+00  .000E+00  .000E+00  .000E+00  .000E+00
  .000E+00  .000E+00  .000E+00  .000E+00  .000E+00  .000E+00  .000E+00  .000E+00
  .000E+00  .000E+00  .000E+00  .000E+00  .000E+00  .000E+00  .000E+00  .000E+00
  .000E+00  .000E+00  .000E+00  .000E+00  .000E+00  .000E+00  .000E+00  .000E+00
  .000E+00  .000E+00  .000E+00  .000E+00  .000E+00  .000E+00  .000E+00  .000E+00
  .000E+00  .000E+00  .000E+00  .000E+00  .000E+00  .000E+00  .000E+00  .000E+00
  .000E+00  .000E+00  .000E+00  .000E+00  .000E+00  .000E+00  .000E+00  .000E+00
  .000E+00  .000E+00  .000E+00  .000E+00  .000E+00  .000E+00  .000E+00  .000E+00
  .000E+00  .000E+00  .000E+00  .000E+00  .000E+00  .000E+00  .000E+00  .000E+00
  .000E+00  .000E+00  .000E+00  .000E+00  .000E+00  .000E+00  .000E+00  .000E+00
  .000E+00  .000E+00  .000E+00  .000E+00
Damping =  .05. Data of Sd,Sv,Sa,Pssv,ttSd,ttSv,ttSa :
  .290E-03  .328E-03  .366E-03  .393E-03  .450E-03  .535E-03  .722E-03  .102E-02
  .138E-02  .194E-02  .254E-02  .270E-02  .311E-02  .342E-02  .309E-02  .331E-02
  .542E-02  .590E-02  .548E-02  .660E-02  .915E-02  .856E-02  .733E-02  .753E-02
  .898E-02  .109E-01  .123E-01  .103E-01  .123E-01  .146E-01  .178E-01  .208E-01
  .250E-01  .232E-01  .283E-01  .308E-01  .271E-01  .267E-01  .306E-01  .332E-01
  .345E-01  .330E-01  .330E-01  .347E-01  .367E-01  .485E-01  .513E-01  .369E-01
  .466E-01  .494E-01  .432E-01  .437E-01  .516E-01  .481E-01  .453E-01  .391E-01
  .360E-01  .375E-01  .404E-01  .463E-01  .479E-01  .462E-01  .469E-01  .453E-01
  .404E-01  .349E-01  .301E-01  .268E-01  .247E-01  .235E-01  .229E-01  .226E-01
  .225E-01  .225E-01  .224E-01  .224E-01  .221E-01  .219E-01  .000E+00  .000E+00
  .000E+00  .000E+00  .000E+00  .000E+00  .000E+00  .000E+00  .000E+00  .000E+00
  .000E+00  .000E+00  .000E+00  .000E+00  .000E+00  .000E+00  .000E+00  .000E+00
  .000E+00  .000E+00  .000E+00  .000E+00
  .249E-01  .277E-01  .308E-01  .340E-01  .373E-01  .432E-01  .533E-01  .764E-01
  .111E+00  .147E+00  .180E+00  .187E+00  .212E+00  .227E+00  .191E+00  .193E+00
  .297E+00  .308E+00  .253E+00  .305E+00  .360E+00  .362E+00  .295E+00  .274E+00
  .282E+00  .333E+00  .350E+00  .270E+00  .282E+00  .319E+00  .394E+00  .417E+00
  .493E+00  .422E+00  .422E+00  .470E+00  .433E+00  .430E+00  .453E+00  .475E+00
  .503E+00  .408E+00  .402E+00  .378E+00  .345E+00  .378E+00  .425E+00  .363E+00
  .324E+00  .377E+00  .352E+00  .270E+00  .350E+00  .279E+00  .300E+00  .279E+00
  .250E+00  .236E+00  .240E+00  .251E+00  .258E+00  .249E+00  .218E+00  .203E+00
  .202E+00  .201E+00  .199E+00  .198E+00  .197E+00  .196E+00  .195E+00  .194E+00
  .194E+00  .193E+00  .192E+00  .192E+00  .191E+00  .190E+00  .000E+00  .000E+00
  .000E+00  .000E+00  .000E+00  .000E+00  .000E+00  .000E+00  .000E+00  .000E+00
  .000E+00  .000E+00  .000E+00  .000E+00  .000E+00  .000E+00  .000E+00  .000E+00
  .000E+00  .000E+00  .000E+00  .000E+00
  .185E-01  .190E-01  .193E-01  .190E-01  .199E-01  .219E-01  .246E-01  .290E-01
  .337E-01  .413E-01  .468E-01  .432E-01  .449E-01  .437E-01  .352E-01  .342E-01
  .465E-01  .420E-01  .328E-01  .344E-01  .416E-01  .348E-01  .266E-01  .238E-01
  .257E-01  .278E-01  .259E-01  .187E-01  .187E-01  .193E-01  .203E-01  .211E-01
  .223E-01  .185E-01  .199E-01  .198E-01  .157E-01  .141E-01  .150E-01  .148E-01
  .142E-01  .113E-01  .947E-02  .847E-02  .771E-02  .885E-02  .824E-02  .523E-02
  .593E-02  .563E-02  .444E-02  .372E-02  .369E-02  .294E-02  .238E-02  .180E-02
  .146E-02  .134E-02  .128E-02  .133E-02  .124E-02  .983E-03  .862E-03  .695E-03
  .542E-03  .411E-03  .315E-03  .250E-03  .207E-03  .179E-03  .157E-03  .142E-03
  .131E-03  .122E-03  .114E-03  .107E-03  .912E-04  .790E-04  .000E+00  .000E+00
  .000E+00  .000E+00  .000E+00  .000E+00  .000E+00  .000E+00  .000E+00  .000E+00
  .000E+00  .000E+00  .000E+00  .000E+00  .000E+00  .000E+00  .000E+00  .000E+00
  .000E+00  .000E+00  .000E+00  .000E+00
  .455E-01  .490E-01  .523E-01  .537E-01  .588E-01  .672E-01  .825E-01  .107E+00
  .134E+00  .174E+00  .213E+00  .212E+00  .230E+00  .239E+00  .204E+00  .208E+00
  .309E+00  .309E+00  .265E+00  .296E+00  .383E+00  .336E+00  .271E+00  .263E+00
  .297E+00  .343E+00  .351E+00  .271E+00  .296E+00  .327E+00  .373E+00  .408E+00
  .462E+00  .405E+00  .467E+00  .484E+00  .406E+00  .381E+00  .418E+00  .434E+00
  .434E+00  .376E+00  .345E+00  .335E+00  .330E+00  .406E+00  .403E+00  .272E+00
  .326E+00  .327E+00  .271E+00  .250E+00  .270E+00  .232E+00  .203E+00  .164E+00
  .141E+00  .139E+00  .141E+00  .153E+00  .150E+00  .132E+00  .123E+00  .109E+00
  .907E-01  .730E-01  .591E-01  .495E-01  .430E-01  .388E-01  .360E-01  .339E-01
  .322E-01  .307E-01  .294E-01  .281E-01  .253E-01  .229E-01  .000E+00  .000E+00
  .000E+00  .000E+00  .000E+00  .000E+00  .000E+00  .000E+00  .000E+00  .000E+00
  .000E+00  .000E+00  .000E+00  .000E+00  .000E+00  .000E+00  .000E+00  .000E+00
  .000E+00  .000E+00  .000E+00  .000E+00
  .253E+02  .253E+02  .253E+02  .253E+02  .253E+02  .253E+02  .253E+02  .253E+02
  .253E+02  .254E+02  .254E+02  .254E+02  .254E+02  .254E+02  .255E+02  .254E+02
  .255E+02  .255E+02  .269E+02  .255E+02  .255E+02  .255E+02  .254E+02  .276E+02
  .269E+02  .269E+02  .286E+02  .302E+02  .322E+02  .283E+02  .260E+02  .283E+02
  .284E+02  .286E+02  .286E+02  .287E+02  .287E+02  .263E+02  .261E+02  .290E+02
  .281E+02  .258E+02  .280E+02  .291E+02  .292E+02  .292E+02  .297E+02  .275E+02
  .349E+02  .345E+02  .342E+02  .311E+02  .342E+02  .339E+02  .291E+02  .291E+02
  .334E+02  .328E+02  .329E+02  .322E+02  .322E+02  .317E+02  .286E+02  .287E+02
  .287E+02  .287E+02  .287E+02  .287E+02  .287E+02  .287E+02  .287E+02  .287E+02
  .287E+02  .287E+02  .287E+02  .287E+02  .287E+02  .287E+02  .000E+00  .000E+00
  .000E+00  .000E+00  .000E+00  .000E+00  .000E+00  .000E+00  .000E+00  .000E+00
  .000E+00  .000E+00  .000E+00  .000E+00  .000E+00  .000E+00  .000E+00  .000E+00
  .000E+00  .000E+00  .000E+00  .000E+00
  .254E+02  .254E+02  .254E+02  .255E+02  .255E+02  .255E+02  .254E+02  .254E+02
  .254E+02  .254E+02  .254E+02  .254E+02  .254E+02  .254E+02  .254E+02  .254E+02
  .254E+02  .255E+02  .255E+02  .255E+02  .255E+02  .255E+02  .253E+02  .254E+02
  .269E+02  .269E+02  .289E+02  .301E+02  .321E+02  .297E+02  .259E+02  .263E+02
  .283E+02  .283E+02  .283E+02  .286E+02  .286E+02  .262E+02  .262E+02  .289E+02
  .280E+02  .253E+02  .257E+02  .257E+02  .255E+02  .294E+02  .291E+02  .277E+02
  .351E+02  .343E+02  .296E+02  .288E+02  .340E+02  .288E+02  .288E+02  .288E+02
  .288E+02  .288E+02  .288E+02  .288E+02  .288E+02  .288E+02  .288E+02  .249E+02
  .249E+02  .249E+02  .249E+02  .249E+02  .249E+02  .249E+02  .249E+02  .249E+02
  .249E+02  .249E+02  .249E+02  .249E+02  .249E+02  .249E+02  .000E+00  .000E+00
  .000E+00  .000E+00  .000E+00  .000E+00  .000E+00  .000E+00  .000E+00  .000E+00
  .000E+00  .000E+00  .000E+00  .000E+00  .000E+00  .000E+00  .000E+00  .000E+00
  .000E+00  .000E+00  .000E+00  .000E+00
  .253E+02  .253E+02  .253E+02  .253E+02  .253E+02  .253E+02  .253E+02  .253E+02
  .253E+02  .254E+02  .254E+02  .254E+02  .254E+02  .254E+02  .255E+02  .254E+02
  .255E+02  .255E+02  .269E+02  .255E+02  .255E+02  .255E+02  .254E+02  .276E+02
  .269E+02  .269E+02  .283E+02  .302E+02  .322E+02  .283E+02  .260E+02  .283E+02
  .284E+02  .284E+02  .286E+02  .287E+02  .287E+02  .263E+02  .261E+02  .281E+02
  .281E+02  .258E+02  .280E+02  .291E+02  .292E+02  .292E+02  .297E+02  .278E+02
  .349E+02  .345E+02  .342E+02  .311E+02  .342E+02  .338E+02  .290E+02  .291E+02
  .334E+02  .328E+02  .329E+02  .322E+02  .322E+02  .317E+02  .286E+02  .287E+02
  .287E+02  .287E+02  .287E+02  .287E+02  .287E+02  .279E+02  .287E+02  .285E+02
  .285E+02  .285E+02  .285E+02  .285E+02  .285E+02  .285E+02  .000E+00  .000E+00
  .000E+00  .000E+00  .000E+00  .000E+00  .000E+00  .000E+00  .000E+00  .000E+00
  .000E+00  .000E+00  .000E+00  .000E+00  .000E+00  .000E+00  .000E+00  .000E+00
  .000E+00  .000E+00  .000E+00  .000E+00
/&   ----------  End of spectral data for channel  1  ----------
Response and Fourier amplitude spectra (78 periods,  .04 -  6.0 sec)   for      
Corrected accelerogram   38695658.CI.CAC.--.HN      Chan  2: 360 Deg     from   
Uncorrected Accelerogram Data             Processed: 09/19/20, CGS  cicac--h    
Rcrd of Fri Sep 18, 2020 23:38:28.0 PDT               (Avol1 v2.0, 4/18 CSMIP)  
                                        (Origin:  To be determined)             
38695658.CI.CAC.--.HN                Start time:  9/19/20, 06:38:28.0 UTC (GPS) 
Station Id. CAC     34.137N, 118.122W    ObsMMS  s/n  653  (3 Chns of  6 at Sta)
Pasadena, Caltech Athenaeum Cellar       SCSN   Data: Acceleration              
Chan  2: 360 Deg                                                                
Rcrd of Fri Sep 18, 2020 23:38:28.0 PDT    Fri Sep 18, 2020 23:38:28.0 PDT      
Hypocenter:  To be determined.               ML:  To be determined.             
Instr Period =  .0050 sec,  Damping =  .707,  Sensitivity = 2.49 v/g  (Nominal) 
                        Record Length =301.000 sec.                             
                                     Uncor Max  =   .037 g, at   25.060 sec.    
RMS accel of (uncor) record  =        .   Chn. metadata effective date:         
Accelerogram bandpass filtered with 3 dB pts at   .30 and 23.00 cyc/sec         
                 instrument- and base-line correcte                             
                                                                                
                                                                                
                                                                                
                                                                                
                                                                                
Rcrd of Fri Sep 18, 2020 23:38:28.0 PDT    Fri Sep 18, 2020 23:38:28.0 PDT      
                                                                                
38695658.CI.CAC.--.HN     Pasadena, Caltech Athenaeum Cellar    Chan  2: 360 Deg
                                                                                
38695658.CI.CAC.--.HN     Pasadena, Caltech Athenaeum Cellar    Chan  2: 360 Deg
                                                                                
Units for spectra are inches and sec, except Sa is in fraction of g.            
                                                                                
    2  100    2    6    6  100 -999    3    1    0   15  653    050705   41    0
    6   38   28    0  263    9   19 2020   10    3  36035645   39   34   74 -999
35645 -999  100    6 -999 -999 -999 -999 -999 -999 -999 -999 -999 -999 -999 -999
 -999 -999 -999 -99915050    2 -999    0 -999    0 -999 -999    3    1  65315050
    315050    4   78    1    3    5    0    0 -999    0 -999 -999    6 -999    2
    2    2    4 -999 -999 -999 -999 -999 -999 -999 -999    1 -999 -999 -999  111
    1    1 -999 -999
      .005      .707   356.450      .001     1.000  2492.334      .037    25.060
   200.000      .596      .239  -999.000    10.000  -999.000     2.000  -999.000
     5.000    24.529      .000  -999.000  -999.000  -999.000  -999.000     -.001
      .000      .001     2.000    15.000    34.137  -118.122      .016      .016
      .977     -.003      .004   230.000  -999.000  -999.000  -999.000  -999.000
     1.000  -999.000  -999.000  -999.000  -999.000  -999.000  -999.000   120.000
     -.900     2.000     6.800   980.665      .020   301.000    31.831      .000
  -999.000    23.000  -999.000   301.000      .020      .300  -999.000  -999.000
    25.060    35.381    25.000    -1.357    25.280     -.139      .000      .300
    23.000      .020      .020      .000      .020      .029  -999.000  -999.000
      .107      .240      .100      .075      .009      .001  -999.000  -999.000
  -999.000  -999.000  -999.000  -999.000  -999.000  -999.000  -999.000  -999.000
  -999.000  -999.000  -999.000  -999.000
      .050
      .040      .042      .044      .046      .048      .050      .055      .060
      .065      .070      .075      .080      .085      .090      .095      .100
      .110      .120      .130      .140      .150      .160      .170      .180
      .190      .200      .220      .240      .260      .280      .300      .320
      .340      .360      .380      .400      .420      .440      .460      .480
      .500      .550      .600      .650      .700      .750      .800      .850
      .900      .950     1.000     1.100     1.200     1.300     1.400     1.500
     1.600     1.700     1.800     1.900     2.000     2.200     2.400     2.600
     2.800     3.000     3.200     3.400     3.600     3.800     4.000     4.200
     4.400     4.600     4.800     5.000     5.500     6.000      .000      .000
      .000      .000      .000      .000      .000      .000      .000      .000
      .000      .000      .000      .000      .000      .000      .000      .000
      .000      .000      .000      .000
Fourier amplitude spectra in in/sec.
  .000E+00  .000E+00  .000E+00  .000E+00  .000E+00  .000E+00  .000E+00  .000E+00
  .000E+00  .000E+00  .000E+00  .000E+00  .000E+00  .000E+00  .000E+00  .000E+00
  .000E+00  .000E+00  .000E+00  .000E+00  .000E+00  .000E+00  .000E+00  .000E+00
  .000E+00  .000E+00  .000E+00  .000E+00  .000E+00  .000E+00  .000E+00  .000E+00
  .000E+00  .000E+00  .000E+00  .000E+00  .000E+00  .000E+00  .000E+00  .000E+00
  .000E+00  .000E+00  .000E+00  .000E+00  .000E+00  .000E+00  .000E+00  .000E+00
  .000E+00  .000E+00  .000E+00  .000E+00  .000E+00  .000E+00  .000E+00  .000E+00
  .000E+00  .000E+00  .000E+00  .000E+00  .000E+00  .000E+00  .000E+00  .000E+00
  .000E+00  .000E+00  .000E+00  .000E+00  .000E+00  .000E+00  .000E+00  .000E+00
  .000E+00  .000E+00  .000E+00  .000E+00  .000E+00  .000E+00  .000E+00  .000E+00
  .000E+00  .000E+00  .000E+00  .000E+00  .000E+00  .000E+00  .000E+00  .000E+00
  .000E+00  .000E+00  .000E+00  .000E+00  .000E+00  .000E+00  .000E+00  .000E+00
  .000E+00  .000E+00  .000E+00  .000E+00
Damping =  .05. Data of Sd,Sv,Sa,Pssv,ttSd,ttSv,ttSa :
  .572E-03  .635E-03  .709E-03  .776E-03  .888E-03  .100E-02  .120E-02  .148E-02
  .162E-02  .177E-02  .222E-02  .262E-02  .332E-02  .407E-02  .521E-02  .623E-02
  .839E-02  .111E-01  .150E-01  .188E-01  .207E-01  .232E-01  .257E-01  .295E-01
  .338E-01  .380E-01  .489E-01  .602E-01  .655E-01  .665E-01  .654E-01  .617E-01
  .625E-01  .610E-01  .568E-01  .597E-01  .616E-01  .620E-01  .627E-01  .627E-01
