Response and Fourier amplitude spectra (78 periods,  .04 -  6.0 sec)   for      
Corrected accelerogram   38695658.CI.CCA.--.HN      Chan  1:  90 Deg     from   
Uncorrected Accelerogram Data             Processed: 09/19/20, CGS  cicca--r    
Rcrd of Fri Sep 18, 2020 23:38:40.0 PDT               (Avol1 v2.0, 4/18 CSMIP)  
                                        (Origin:  To be determined)             
38695658.CI.CCA.--.HN                Start time:  9/19/20, 06:38:40.0 UTC (GPS) 
Station Id. CCA     35.153N, 118.016W    ObsMMS  s/n 5443  (3 Chns of  3 at Sta)
California City Airport                  SCSN   Data: Acceleration              
Chan  1:  90 Deg                                                                
Rcrd of Fri Sep 18, 2020 23:38:40.0 PDT    Fri Sep 18, 2020 23:38:40.0 PDT      
Hypocenter:  To be determined.               ML:  To be determined.             
Instr Period =  .0050 sec,  Damping =  .707,  Sensitivity = 4.98 v/g  (Nominal) 
                        Record Length =301.000 sec.                             
                                     Uncor Max  =  -.001 g, at   43.910 sec.    
RMS accel of (uncor) record  =        .   Chn. metadata effective date:         
Accelerogram bandpass filtered with 3 dB pts at   .30 and 23.00 cyc/sec         
                 instrument- and base-line correcte                             
                                                                                
                                                                                
                                                                                
                                                                                
                                                                                
Rcrd of Fri Sep 18, 2020 23:38:40.0 PDT    Fri Sep 18, 2020 23:38:40.0 PDT      
                                                                                
38695658.CI.CCA.--.HN     California City Airport   Chan  1:  90 Deg            
                                                                                
38695658.CI.CCA.--.HN     California City Airport   Chan  1:  90 Deg            
                                                                                
Units for spectra are inches and sec, except Sa is in fraction of g.            
                                                                                
    1  100    1    3    3  100 -999    3    1    0   15 5443    050757   41    0
    6   38   40    8  263    9   19 2020   10    3   9036203   39   23   74 -999
36203 -999  100    6 -999 -999 -999 -999 -999 -999 -999 -999 -999 -999 -999 -999
 -999 -999 -999 -99915050    2 -999    0 -999   20 -999 -999    3    1 -99915050
    315050    4   78    1    3    5    0    0 -999    0 -999 -999    6 -999    2
    2    2    4 -999 -999 -999 -999 -999 -999 -999 -999    1 -999 -999 -999  111
    1    1 -999 -999
      .005      .707   362.030      .000     1.000  4982.495     -.001    43.910
   200.000     2.384      .479  -999.000    10.000  -999.000     4.000  -999.000
    20.000   -30.272      .000  -999.000  -999.000  -999.000  -999.000     -.001
      .000      .001     2.000    15.000    35.153  -118.017      .001      .001
     1.069      .000      .001   710.000  -999.000  -999.000  -999.000  -999.000
     1.000  -999.000    -8.000  -999.000  -999.000  -999.000  -999.000   120.000
     -.900     2.000     6.800   980.665      .020   301.000    31.831      .000
  -999.000    23.000  -999.000   301.000      .020      .300  -999.000  -999.000
    43.900     -.756    43.540     -.058    54.260      .009      .000      .300
    23.000      .020      .020      .000      .020      .005  -999.000  -999.000
      .003      .240      .003      .002      .001      .000  -999.000  -999.000
  -999.000  -999.000  -999.000  -999.000  -999.000  -999.000  -999.000  -999.000
  -999.000  -999.000  -999.000  -999.000
      .050
      .040      .042      .044      .046      .048      .050      .055      .060
      .065      .070      .075      .080      .085      .090      .095      .100
      .110      .120      .130      .140      .150      .160      .170      .180
      .190      .200      .220      .240      .260      .280      .300      .320
      .340      .360      .380      .400      .420      .440      .460      .480
      .500      .550      .600      .650      .700      .750      .800      .850
      .900      .950     1.000     1.100     1.200     1.300     1.400     1.500
     1.600     1.700     1.800     1.900     2.000     2.200     2.400     2.600
     2.800     3.000     3.200     3.400     3.600     3.800     4.000     4.200
     4.400     4.600     4.800     5.000     5.500     6.000      .000      .000
      .000      .000      .000      .000      .000      .000      .000      .000
      .000      .000      .000      .000      .000      .000      .000      .000
      .000      .000      .000      .000
Fourier amplitude spectra in in/sec.
  .000E+00  .000E+00  .000E+00  .000E+00  .000E+00  .000E+00  .000E+00  .000E+00
  .000E+00  .000E+00  .000E+00  .000E+00  .000E+00  .000E+00  .000E+00  .000E+00
  .000E+00  .000E+00  .000E+00  .000E+00  .000E+00  .000E+00  .000E+00  .000E+00
  .000E+00  .000E+00  .000E+00  .000E+00  .000E+00  .000E+00  .000E+00  .000E+00
  .000E+00  .000E+00  .000E+00  .000E+00  .000E+00  .000E+00  .000E+00  .000E+00
  .000E+00  .000E+00  .000E+00  .000E+00  .000E+00  .000E+00  .000E+00  .000E+00
  .000E+00  .000E+00  .000E+00  .000E+00  .000E+00  .000E+00  .000E+00  .000E+00
  .000E+00  .000E+00  .000E+00  .000E+00  .000E+00  .000E+00  .000E+00  .000E+00
  .000E+00  .000E+00  .000E+00  .000E+00  .000E+00  .000E+00  .000E+00  .000E+00
  .000E+00  .000E+00  .000E+00  .000E+00  .000E+00  .000E+00  .000E+00  .000E+00
  .000E+00  .000E+00  .000E+00  .000E+00  .000E+00  .000E+00  .000E+00  .000E+00
  .000E+00  .000E+00  .000E+00  .000E+00  .000E+00  .000E+00  .000E+00  .000E+00
  .000E+00  .000E+00  .000E+00  .000E+00
Damping =  .05. Data of Sd,Sv,Sa,Pssv,ttSd,ttSv,ttSa :
  .123E-04  .135E-04  .147E-04  .161E-04  .178E-04  .195E-04  .233E-04  .294E-04
  .373E-04  .434E-04  .523E-04  .623E-04  .764E-04  .895E-04  .104E-03  .111E-03
  .143E-03  .170E-03  .251E-03  .400E-03  .535E-03  .638E-03  .741E-03  .721E-03
  .746E-03  .939E-03  .148E-02  .175E-02  .173E-02  .190E-02  .174E-02  .199E-02
  .213E-02  .205E-02  .247E-02  .280E-02  .310E-02  .344E-02  .382E-02  .415E-02
  .407E-02  .508E-02  .371E-02  .271E-02  .287E-02  .379E-02  .505E-02  .568E-02
  .552E-02  .499E-02  .486E-02  .638E-02  .916E-02  .129E-01  .180E-01  .161E-01
  .147E-01  .106E-01  .910E-02  .995E-02  .883E-02  .635E-02  .686E-02  .652E-02
  .479E-02  .431E-02  .463E-02  .459E-02  .444E-02  .423E-02  .423E-02  .428E-02
  .421E-02  .410E-02  .400E-02  .392E-02  .386E-02  .384E-02  .000E+00  .000E+00
  .000E+00  .000E+00  .000E+00  .000E+00  .000E+00  .000E+00  .000E+00  .000E+00
  .000E+00  .000E+00  .000E+00  .000E+00  .000E+00  .000E+00  .000E+00  .000E+00
  .000E+00  .000E+00  .000E+00  .000E+00
  .373E-03  .409E-03  .444E-03  .474E-03  .547E-03  .616E-03  .787E-03  .106E-02
  .133E-02  .143E-02  .154E-02  .195E-02  .229E-02  .258E-02  .318E-02  .336E-02
  .467E-02  .611E-02  .838E-02  .129E-01  .184E-01  .214E-01  .217E-01  .220E-01
  .224E-01  .245E-01  .395E-01  .429E-01  .422E-01  .382E-01  .333E-01  .362E-01
  .379E-01  .359E-01  .383E-01  .425E-01  .476E-01  .531E-01  .570E-01  .571E-01
  .548E-01  .637E-01  .421E-01  .304E-01  .318E-01  .339E-01  .380E-01  .396E-01
  .342E-01  .309E-01  .314E-01  .332E-01  .448E-01  .619E-01  .824E-01  .695E-01
  .613E-01  .476E-01  .410E-01  .418E-01  .393E-01  .297E-01  .307E-01  .259E-01
  .247E-01  .236E-01  .231E-01  .232E-01  .232E-01  .232E-01  .232E-01  .232E-01
  .231E-01  .231E-01  .230E-01  .230E-01  .229E-01  .228E-01  .000E+00  .000E+00
  .000E+00  .000E+00  .000E+00  .000E+00  .000E+00  .000E+00  .000E+00  .000E+00
  .000E+00  .000E+00  .000E+00  .000E+00  .000E+00  .000E+00  .000E+00  .000E+00
  .000E+00  .000E+00  .000E+00  .000E+00
  .783E-03  .782E-03  .779E-03  .779E-03  .789E-03  .796E-03  .788E-03  .835E-03
  .902E-03  .904E-03  .952E-03  .996E-03  .108E-02  .113E-02  .117E-02  .113E-02
  .122E-02  .121E-02  .153E-02  .209E-02  .245E-02  .253E-02  .264E-02  .229E-02
  .212E-02  .239E-02  .311E-02  .316E-02  .261E-02  .246E-02  .197E-02  .201E-02
  .191E-02  .163E-02  .177E-02  .179E-02  .180E-02  .183E-02  .186E-02  .185E-02
  .167E-02  .173E-02  .106E-02  .662E-03  .600E-03  .693E-03  .809E-03  .808E-03
  .699E-03  .568E-03  .500E-03  .541E-03  .654E-03  .783E-03  .944E-03  .737E-03
  .592E-03  .380E-03  .290E-03  .284E-03  .228E-03  .136E-03  .123E-03  .101E-03
  .631E-04  .520E-04  .472E-04  .416E-04  .360E-04  .309E-04  .283E-04  .260E-04
  .234E-04  .211E-04  .190E-04  .175E-04  .145E-04  .124E-04  .000E+00  .000E+00
  .000E+00  .000E+00  .000E+00  .000E+00  .000E+00  .000E+00  .000E+00  .000E+00
  .000E+00  .000E+00  .000E+00  .000E+00  .000E+00  .000E+00  .000E+00  .000E+00
  .000E+00  .000E+00  .000E+00  .000E+00
  .193E-02  .202E-02  .210E-02  .220E-02  .233E-02  .245E-02  .266E-02  .308E-02
  .361E-02  .389E-02  .438E-02  .489E-02  .565E-02  .625E-02  .686E-02  .697E-02
  .819E-02  .891E-02  .122E-01  .180E-01  .224E-01  .250E-01  .274E-01  .252E-01
  .247E-01  .295E-01  .422E-01  .458E-01  .419E-01  .425E-01  .364E-01  .391E-01
  .393E-01  .357E-01  .408E-01  .440E-01  .463E-01  .491E-01  .522E-01  .543E-01
  .512E-01  .581E-01  .389E-01  .262E-01  .257E-01  .318E-01  .396E-01  .420E-01
  .385E-01  .330E-01  .306E-01  .364E-01  .480E-01  .622E-01  .808E-01  .675E-01
  .578E-01  .393E-01  .318E-01  .329E-01  .277E-01  .181E-01  .180E-01  .158E-01
  .107E-01  .904E-02  .910E-02  .848E-02  .775E-02  .699E-02  .665E-02  .640E-02
  .601E-02  .561E-02  .523E-02  .492E-02  .441E-02  .403E-02  .000E+00  .000E+00
  .000E+00  .000E+00  .000E+00  .000E+00  .000E+00  .000E+00  .000E+00  .000E+00
  .000E+00  .000E+00  .000E+00  .000E+00  .000E+00  .000E+00  .000E+00  .000E+00
  .000E+00  .000E+00  .000E+00  .000E+00
  .439E+02  .439E+02  .439E+02  .439E+02  .439E+02  .439E+02  .439E+02  .436E+02
  .436E+02  .439E+02  .439E+02  .439E+02  .439E+02  .439E+02  .439E+02  .439E+02
  .436E+02  .436E+02  .436E+02  .436E+02  .436E+02  .438E+02  .439E+02  .439E+02
  .435E+02  .439E+02  .439E+02  .441E+02  .441E+02  .437E+02  .437E+02  .456E+02
  .456E+02  .450E+02  .441E+02  .442E+02  .442E+02  .442E+02  .440E+02  .440E+02
  .440E+02  .470E+02  .458E+02  .458E+02  .493E+02  .494E+02  .495E+02  .504E+02
  .550E+02  .556E+02  .618E+02  .556E+02  .563E+02  .565E+02  .559E+02  .561E+02
  .554E+02  .555E+02  .555E+02  .548E+02  .549E+02  .453E+02  .549E+02  .542E+02
  .535E+02  .527E+02  .549E+02  .549E+02  .549E+02  .549E+02  .542E+02  .542E+02
  .542E+02  .542E+02  .542E+02  .542E+02  .542E+02  .542E+02  .000E+00  .000E+00
  .000E+00  .000E+00  .000E+00  .000E+00  .000E+00  .000E+00  .000E+00  .000E+00
  .000E+00  .000E+00  .000E+00  .000E+00  .000E+00  .000E+00  .000E+00  .000E+00
  .000E+00  .000E+00  .000E+00  .000E+00
  .439E+02  .439E+02  .439E+02  .435E+02  .435E+02  .435E+02  .435E+02  .432E+02
  .439E+02  .439E+02  .439E+02  .433E+02  .439E+02  .439E+02  .442E+02  .442E+02
  .433E+02  .433E+02  .433E+02  .436E+02  .437E+02  .438E+02  .439E+02  .434E+02
  .434E+02  .440E+02  .440E+02  .440E+02  .442E+02  .437E+02  .436E+02  .455E+02
  .457E+02  .447E+02  .442E+02  .441E+02  .441E+02  .441E+02  .441E+02  .441E+02
  .439E+02  .466E+02  .456E+02  .456E+02  .440E+02  .440E+02  .440E+02  .502E+02
  .440E+02  .503E+02  .438E+02  .622E+02  .566E+02  .561E+02  .563E+02  .557E+02
  .551E+02  .552E+02  .454E+02  .552E+02  .545E+02  .438E+02  .545E+02  .438E+02
  .438E+02  .438E+02  .435E+02  .435E+02  .435E+02  .435E+02  .435E+02  .435E+02
  .435E+02  .435E+02  .435E+02  .435E+02  .435E+02  .435E+02  .000E+00  .000E+00
  .000E+00  .000E+00  .000E+00  .000E+00  .000E+00  .000E+00  .000E+00  .000E+00
  .000E+00  .000E+00  .000E+00  .000E+00  .000E+00  .000E+00  .000E+00  .000E+00
  .000E+00  .000E+00  .000E+00  .000E+00
  .439E+02  .439E+02  .439E+02  .439E+02  .439E+02  .439E+02  .439E+02  .436E+02
  .436E+02  .439E+02  .439E+02  .439E+02  .439E+02  .439E+02  .439E+02  .439E+02
  .436E+02  .436E+02  .436E+02  .436E+02  .436E+02  .438E+02  .439E+02  .439E+02
  .434E+02  .439E+02  .439E+02  .441E+02  .441E+02  .437E+02  .437E+02  .456E+02
  .456E+02  .450E+02  .441E+02  .442E+02  .442E+02  .442E+02  .440E+02  .440E+02
  .440E+02  .470E+02  .457E+02  .458E+02  .493E+02  .494E+02  .494E+02  .504E+02
  .550E+02  .556E+02  .618E+02  .556E+02  .563E+02  .564E+02  .559E+02  .560E+02
  .554E+02  .555E+02  .555E+02  .548E+02  .548E+02  .453E+02  .548E+02  .542E+02
  .535E+02  .436E+02  .548E+02  .548E+02  .548E+02  .548E+02  .542E+02  .542E+02
  .542E+02  .542E+02  .436E+02  .436E+02  .436E+02  .435E+02  .000E+00  .000E+00
  .000E+00  .000E+00  .000E+00  .000E+00  .000E+00  .000E+00  .000E+00  .000E+00
  .000E+00  .000E+00  .000E+00  .000E+00  .000E+00  .000E+00  .000E+00  .000E+00
  .000E+00  .000E+00  .000E+00  .000E+00
/&   ----------  End of spectral data for channel  1  ----------
Response and Fourier amplitude spectra (78 periods,  .04 -  6.0 sec)   for      
Corrected accelerogram   38695658.CI.CCA.--.HN      Chan  2: 360 Deg     from   
Uncorrected Accelerogram Data             Processed: 09/19/20, CGS  cicca--r    
Rcrd of Fri Sep 18, 2020 23:38:40.0 PDT               (Avol1 v2.0, 4/18 CSMIP)  
                                        (Origin:  To be determined)             
38695658.CI.CCA.--.HN                Start time:  9/19/20, 06:38:40.0 UTC (GPS) 
Station Id. CCA     35.153N, 118.016W    ObsMMS  s/n 5443  (3 Chns of  3 at Sta)
California City Airport                  SCSN   Data: Acceleration              
Chan  2: 360 Deg                                                                
Rcrd of Fri Sep 18, 2020 23:38:40.0 PDT    Fri Sep 18, 2020 23:38:40.0 PDT      
Hypocenter:  To be determined.               ML:  To be determined.             
Instr Period =  .0050 sec,  Damping =  .707,  Sensitivity = 4.98 v/g  (Nominal) 
                        Record Length =301.000 sec.                             
                                     Uncor Max  =   .001 g, at   43.430 sec.    
RMS accel of (uncor) record  =        .   Chn. metadata effective date:         
Accelerogram bandpass filtered with 3 dB pts at   .30 and 23.00 cyc/sec         
                 instrument- and base-line correcte                             
                                                                                
                                                                                
                                                                                
                                                                                
                                                                                
Rcrd of Fri Sep 18, 2020 23:38:40.0 PDT    Fri Sep 18, 2020 23:38:40.0 PDT      
                                                                                
38695658.CI.CCA.--.HN     California City Airport   Chan  2: 360 Deg            
                                                                                
38695658.CI.CCA.--.HN     California City Airport   Chan  2: 360 Deg            
                                                                                
Units for spectra are inches and sec, except Sa is in fraction of g.            
                                                                                
    2  100    2    3    3  100 -999    3    1    0   15 5443    050757   41    0
    6   38   40    8  263    9   19 2020   10    3  36036410   39   23   74 -999
36410 -999  100    6 -999 -999 -999 -999 -999 -999 -999 -999 -999 -999 -999 -999
 -999 -999 -999 -99915050    2 -999    0 -999   20 -999 -999    3    1 -99915050
    315050    4   78    1    3    5    0    0 -999    0 -999 -999    6 -999    2
    2    2    4 -999 -999 -999 -999 -999 -999 -999 -999    1 -999 -999 -999  111
    1    1 -999 -999
      .005      .707   364.100      .000     1.000  4977.509      .001    43.430
   200.000     2.384      .479  -999.000    10.000  -999.000     4.000  -999.000
    20.000   -11.862      .000  -999.000  -999.000  -999.000  -999.000      .000
      .001      .001     2.000    15.000    35.153  -118.017      .001      .001
      .939      .001      .002   710.000  -999.000  -999.000  -999.000  -999.000
     1.000  -999.000  -999.000  -999.000  -999.000  -999.000  -999.000   120.000
     -.900     2.000     6.800   980.665      .020   301.000    31.831      .000
  -999.000    23.000  -999.000   301.000      .020      .300  -999.000  -999.000
    43.420     1.017    44.140     -.075    48.040     -.014      .000      .300
    23.000      .020      .020      .000      .020      .006  -999.000  -999.000
      .003      .280      .002      .002      .001      .000  -999.000  -999.000
  -999.000  -999.000  -999.000  -999.000  -999.000  -999.000  -999.000  -999.000
  -999.000  -999.000  -999.000  -999.000
      .050
      .040      .042      .044      .046      .048      .050      .055      .060
      .065      .070      .075      .080      .085      .090      .095      .100
      .110      .120      .130      .140      .150      .160      .170      .180
      .190      .200      .220      .240      .260      .280      .300      .320
      .340      .360      .380      .400      .420      .440      .460      .480
      .500      .550      .600      .650      .700      .750      .800      .850
      .900      .950     1.000     1.100     1.200     1.300     1.400     1.500
     1.600     1.700     1.800     1.900     2.000     2.200     2.400     2.600
     2.800     3.000     3.200     3.400     3.600     3.800     4.000     4.200
     4.400     4.600     4.800     5.000     5.500     6.000      .000      .000
      .000      .000      .000      .000      .000      .000      .000      .000
      .000      .000      .000      .000      .000      .000      .000      .000
      .000      .000      .000      .000
Fourier amplitude spectra in in/sec.
  .000E+00  .000E+00  .000E+00  .000E+00  .000E+00  .000E+00  .000E+00  .000E+00
  .000E+00  .000E+00  .000E+00  .000E+00  .000E+00  .000E+00  .000E+00  .000E+00
  .000E+00  .000E+00  .000E+00  .000E+00  .000E+00  .000E+00  .000E+00  .000E+00
  .000E+00  .000E+00  .000E+00  .000E+00  .000E+00  .000E+00  .000E+00  .000E+00
  .000E+00  .000E+00  .000E+00  .000E+00  .000E+00  .000E+00  .000E+00  .000E+00
  .000E+00  .000E+00  .000E+00  .000E+00  .000E+00  .000E+00  .000E+00  .000E+00
  .000E+00  .000E+00  .000E+00  .000E+00  .000E+00  .000E+00  .000E+00  .000E+00
  .000E+00  .000E+00  .000E+00  .000E+00  .000E+00  .000E+00  .000E+00  .000E+00
  .000E+00  .000E+00  .000E+00  .000E+00  .000E+00  .000E+00  .000E+00  .000E+00
  .000E+00  .000E+00  .000E+00  .000E+00  .000E+00  .000E+00  .000E+00  .000E+00
  .000E+00  .000E+00  .000E+00  .000E+00  .000E+00  .000E+00  .000E+00  .000E+00
  .000E+00  .000E+00  .000E+00  .000E+00  .000E+00  .000E+00  .000E+00  .000E+00
  .000E+00  .000E+00  .000E+00  .000E+00
Damping =  .05. Data of Sd,Sv,Sa,Pssv,ttSd,ttSv,ttSa :
  .167E-04  .185E-04  .203E-04  .223E-04  .242E-04  .264E-04  .323E-04  .387E-04
  .474E-04  .521E-04  .560E-04  .679E-04  .781E-04  .939E-04  .109E-03  .123E-03
  .150E-03  .186E-03  .248E-03  .293E-03  .358E-03  .387E-03  .428E-03  .508E-03
  .577E-03  .690E-03  .934E-03  .122E-02  .161E-02  .201E-02  .218E-02  .222E-02
  .243E-02  .271E-02  .313E-02  .351E-02  .345E-02  .309E-02  .296E-02  .285E-02
