Response and Fourier amplitude spectra (78 periods,  .04 -  6.0 sec)   for      
Corrected accelerogram   38695658.CI.CFT.--.HN      Chan  1:  90 Deg     from   
Uncorrected Accelerogram Data             Processed: 09/19/20, CGS  cicft--c    
Rcrd of Fri Sep 18, 2020 23:38:38.0 PDT               (Avol1 v2.0, 4/18 CSMIP)  
                                        (Origin:  To be determined)             
38695658.CI.CFT.--.HN                Start time:  9/19/20, 06:38:38.0 UTC (GPS) 
Station Id. CFT     34.035N, 117.112W    ObsMMS  s/n 1102  (3 Chns of  6 at Sta)
Crafton Hills                            SCSN   Data: Acceleration              
Chan  1:  90 Deg                                                                
Rcrd of Fri Sep 18, 2020 23:38:38.0 PDT    Fri Sep 18, 2020 23:38:38.0 PDT      
Hypocenter:  To be determined.               ML:  To be determined.             
Instr Period =  .0050 sec,  Damping =  .707,  Sensitivity = 4.99 v/g  (Nominal) 
                        Record Length =301.000 sec.                             
                                     Uncor Max  =   .002 g, at   36.610 sec.    
RMS accel of (uncor) record  =        .   Chn. metadata effective date:         
Accelerogram bandpass filtered with 3 dB pts at   .30 and 23.00 cyc/sec         
                 instrument- and base-line correcte                             
                                                                                
                                                                                
                                                                                
                                                                                
                                                                                
Rcrd of Fri Sep 18, 2020 23:38:38.0 PDT    Fri Sep 18, 2020 23:38:38.0 PDT      
                                                                                
38695658.CI.CFT.--.HN     Crafton Hills   Chan  1:  90 Deg                      
                                                                                
38695658.CI.CFT.--.HN     Crafton Hills   Chan  1:  90 Deg                      
                                                                                
Units for spectra are inches and sec, except Sa is in fraction of g.            
                                                                                
    1  100    1    6    6  100 -999    3    1    0   15 1102    050759   41    0
    6   38   38   10  263    9   19 2020   10    3   9035755   39   13   74 -999
35755 -999  100    6 -999 -999 -999 -999 -999 -999 -999 -999 -999 -999 -999 -999
 -999 -999 -999 -99915050    2 -999    0 -999   20 -999 -999    3    1 -99915050
    315050    4   78    1    3    5    0    0 -999    0 -999 -999    6 -999    2
    2    2    4 -999 -999 -999 -999 -999 -999 -999 -999    1 -999 -999 -999  111
    1    1 -999 -999
      .005      .707   357.550      .000     1.000  4994.462      .002    36.610
   200.000     2.384      .477  -999.000    10.000  -999.000     4.000  -999.000
    20.000   -26.576      .000  -999.000  -999.000  -999.000  -999.000     -.002
      .002      .003     2.000    15.000    34.035  -117.112      .009      .010
     1.130      .001      .005   682.000  -999.000  -999.000  -999.000  -999.000
     1.000  -999.000    -8.000  -999.000  -999.000  -999.000  -999.000   120.000
     -.900     2.000     6.800   980.665      .020   301.000    31.831      .000
  -999.000    23.000  -999.000   301.000      .020      .300  -999.000  -999.000
    36.600     1.905    35.740      .063    35.920      .008      .000      .300
    23.000      .020      .020      .000      .020      .004  -999.000  -999.000
      .006      .150      .004      .004      .001      .000  -999.000  -999.000
  -999.000  -999.000  -999.000  -999.000  -999.000  -999.000  -999.000  -999.000
  -999.000  -999.000  -999.000  -999.000
      .050
      .040      .042      .044      .046      .048      .050      .055      .060
      .065      .070      .075      .080      .085      .090      .095      .100
      .110      .120      .130      .140      .150      .160      .170      .180
      .190      .200      .220      .240      .260      .280      .300      .320
      .340      .360      .380      .400      .420      .440      .460      .480
      .500      .550      .600      .650      .700      .750      .800      .850
      .900      .950     1.000     1.100     1.200     1.300     1.400     1.500
     1.600     1.700     1.800     1.900     2.000     2.200     2.400     2.600
     2.800     3.000     3.200     3.400     3.600     3.800     4.000     4.200
     4.400     4.600     4.800     5.000     5.500     6.000      .000      .000
      .000      .000      .000      .000      .000      .000      .000      .000
      .000      .000      .000      .000      .000      .000      .000      .000
      .000      .000      .000      .000
Fourier amplitude spectra in in/sec.
  .000E+00  .000E+00  .000E+00  .000E+00  .000E+00  .000E+00  .000E+00  .000E+00
  .000E+00  .000E+00  .000E+00  .000E+00  .000E+00  .000E+00  .000E+00  .000E+00
  .000E+00  .000E+00  .000E+00  .000E+00  .000E+00  .000E+00  .000E+00  .000E+00
  .000E+00  .000E+00  .000E+00  .000E+00  .000E+00  .000E+00  .000E+00  .000E+00
  .000E+00  .000E+00  .000E+00  .000E+00  .000E+00  .000E+00  .000E+00  .000E+00
  .000E+00  .000E+00  .000E+00  .000E+00  .000E+00  .000E+00  .000E+00  .000E+00
  .000E+00  .000E+00  .000E+00  .000E+00  .000E+00  .000E+00  .000E+00  .000E+00
  .000E+00  .000E+00  .000E+00  .000E+00  .000E+00  .000E+00  .000E+00  .000E+00
  .000E+00  .000E+00  .000E+00  .000E+00  .000E+00  .000E+00  .000E+00  .000E+00
  .000E+00  .000E+00  .000E+00  .000E+00  .000E+00  .000E+00  .000E+00  .000E+00
  .000E+00  .000E+00  .000E+00  .000E+00  .000E+00  .000E+00  .000E+00  .000E+00
  .000E+00  .000E+00  .000E+00  .000E+00  .000E+00  .000E+00  .000E+00  .000E+00
  .000E+00  .000E+00  .000E+00  .000E+00
Damping =  .05. Data of Sd,Sv,Sa,Pssv,ttSd,ttSv,ttSa :
  .328E-04  .363E-04  .398E-04  .433E-04  .465E-04  .527E-04  .724E-04  .941E-04
  .113E-03  .143E-03  .204E-03  .230E-03  .226E-03  .244E-03  .350E-03  .430E-03
  .545E-03  .574E-03  .919E-03  .123E-02  .143E-02  .127E-02  .144E-02  .138E-02
  .142E-02  .129E-02  .187E-02  .187E-02  .217E-02  .303E-02  .354E-02  .344E-02
  .299E-02  .299E-02  .310E-02  .404E-02  .486E-02  .557E-02  .623E-02  .621E-02
  .601E-02  .606E-02  .640E-02  .672E-02  .649E-02  .654E-02  .607E-02  .609E-02
  .629E-02  .635E-02  .618E-02  .553E-02  .553E-02  .587E-02  .545E-02  .526E-02
  .521E-02  .511E-02  .484E-02  .447E-02  .412E-02  .384E-02  .360E-02  .341E-02
  .346E-02  .348E-02  .343E-02  .328E-02  .320E-02  .317E-02  .316E-02  .317E-02
  .317E-02  .316E-02  .313E-02  .311E-02  .309E-02  .306E-02  .000E+00  .000E+00
  .000E+00  .000E+00  .000E+00  .000E+00  .000E+00  .000E+00  .000E+00  .000E+00
  .000E+00  .000E+00  .000E+00  .000E+00  .000E+00  .000E+00  .000E+00  .000E+00
  .000E+00  .000E+00  .000E+00  .000E+00
  .182E-02  .201E-02  .225E-02  .254E-02  .283E-02  .287E-02  .413E-02  .592E-02
  .646E-02  .917E-02  .138E-01  .162E-01  .156E-01  .141E-01  .193E-01  .230E-01
  .300E-01  .273E-01  .413E-01  .525E-01  .603E-01  .507E-01  .568E-01  .465E-01
  .437E-01  .392E-01  .470E-01  .526E-01  .577E-01  .678E-01  .667E-01  .712E-01
  .628E-01  .473E-01  .511E-01  .611E-01  .725E-01  .836E-01  .930E-01  .882E-01
  .820E-01  .759E-01  .798E-01  .748E-01  .675E-01  .706E-01  .704E-01  .669E-01
  .623E-01  .578E-01  .539E-01  .466E-01  .425E-01  .389E-01  .376E-01  .372E-01
  .372E-01  .357E-01  .337E-01  .315E-01  .297E-01  .280E-01  .270E-01  .262E-01
  .255E-01  .249E-01  .251E-01  .251E-01  .249E-01  .248E-01  .247E-01  .246E-01
  .246E-01  .246E-01  .246E-01  .246E-01  .245E-01  .245E-01  .000E+00  .000E+00
  .000E+00  .000E+00  .000E+00  .000E+00  .000E+00  .000E+00  .000E+00  .000E+00
  .000E+00  .000E+00  .000E+00  .000E+00  .000E+00  .000E+00  .000E+00  .000E+00
  .000E+00  .000E+00  .000E+00  .000E+00
  .210E-02  .211E-02  .211E-02  .210E-02  .207E-02  .216E-02  .244E-02  .268E-02
  .276E-02  .301E-02  .369E-02  .364E-02  .326E-02  .311E-02  .399E-02  .445E-02
  .472E-02  .406E-02  .549E-02  .636E-02  .645E-02  .513E-02  .516E-02  .440E-02
  .399E-02  .335E-02  .393E-02  .329E-02  .332E-02  .399E-02  .410E-02  .345E-02
  .264E-02  .238E-02  .219E-02  .257E-02  .281E-02  .294E-02  .303E-02  .277E-02
  .248E-02  .208E-02  .182E-02  .164E-02  .137E-02  .120E-02  .979E-03  .873E-03
  .800E-03  .723E-03  .636E-03  .471E-03  .399E-03  .360E-03  .289E-03  .243E-03
  .215E-03  .188E-03  .160E-03  .134E-03  .112E-03  .879E-04  .705E-04  .562E-04
  .479E-04  .423E-04  .369E-04  .317E-04  .278E-04  .250E-04  .227E-04  .208E-04
  .191E-04  .175E-04  .162E-04  .149E-04  .126E-04  .109E-04  .000E+00  .000E+00
  .000E+00  .000E+00  .000E+00  .000E+00  .000E+00  .000E+00  .000E+00  .000E+00
  .000E+00  .000E+00  .000E+00  .000E+00  .000E+00  .000E+00  .000E+00  .000E+00
  .000E+00  .000E+00  .000E+00  .000E+00
  .514E-02  .543E-02  .568E-02  .591E-02  .609E-02  .662E-02  .827E-02  .985E-02
  .109E-01  .128E-01  .171E-01  .180E-01  .167E-01  .171E-01  .231E-01  .270E-01
  .312E-01  .300E-01  .444E-01  .552E-01  .599E-01  .500E-01  .532E-01  .482E-01
  .468E-01  .407E-01  .534E-01  .491E-01  .525E-01  .679E-01  .741E-01  .675E-01
  .553E-01  .521E-01  .513E-01  .634E-01  .727E-01  .795E-01  .851E-01  .813E-01
  .756E-01  .692E-01  .670E-01  .650E-01  .583E-01  .548E-01  .477E-01  .450E-01
  .439E-01  .420E-01  .388E-01  .316E-01  .290E-01  .284E-01  .245E-01  .220E-01
  .204E-01  .189E-01  .169E-01  .148E-01  .129E-01  .110E-01  .944E-02  .824E-02
  .776E-02  .730E-02  .673E-02  .607E-02  .558E-02  .524E-02  .497E-02  .474E-02
  .453E-02  .431E-02  .410E-02  .391E-02  .353E-02  .321E-02  .000E+00  .000E+00
  .000E+00  .000E+00  .000E+00  .000E+00  .000E+00  .000E+00  .000E+00  .000E+00
  .000E+00  .000E+00  .000E+00  .000E+00  .000E+00  .000E+00  .000E+00  .000E+00
  .000E+00  .000E+00  .000E+00  .000E+00
  .366E+02  .366E+02  .366E+02  .366E+02  .366E+02  .366E+02  .366E+02  .357E+02
  .357E+02  .367E+02  .367E+02  .367E+02  .367E+02  .363E+02  .366E+02  .357E+02
  .357E+02  .367E+02  .368E+02  .368E+02  .368E+02  .369E+02  .379E+02  .364E+02
  .364E+02  .364E+02  .364E+02  .374E+02  .366E+02  .366E+02  .366E+02  .367E+02
  .369E+02  .360E+02  .360E+02  .369E+02  .369E+02  .369E+02  .370E+02  .370E+02
  .366E+02  .366E+02  .364E+02  .364E+02  .364E+02  .364E+02  .365E+02  .374E+02
  .371E+02  .371E+02  .371E+02  .372E+02  .368E+02  .368E+02  .368E+02  .368E+02
  .363E+02  .363E+02  .363E+02  .363E+02  .363E+02  .363E+02  .363E+02  .359E+02
  .359E+02  .359E+02  .359E+02  .359E+02  .359E+02  .359E+02  .359E+02  .359E+02
  .359E+02  .359E+02  .359E+02  .359E+02  .359E+02  .359E+02  .000E+00  .000E+00
  .000E+00  .000E+00  .000E+00  .000E+00  .000E+00  .000E+00  .000E+00  .000E+00
  .000E+00  .000E+00  .000E+00  .000E+00  .000E+00  .000E+00  .000E+00  .000E+00
  .000E+00  .000E+00  .000E+00  .000E+00
  .366E+02  .366E+02  .366E+02  .366E+02  .366E+02  .366E+02  .362E+02  .366E+02
  .357E+02  .366E+02  .367E+02  .367E+02  .367E+02  .367E+02  .366E+02  .357E+02
  .358E+02  .367E+02  .368E+02  .368E+02  .368E+02  .367E+02  .367E+02  .378E+02
  .365E+02  .357E+02  .364E+02  .367E+02  .367E+02  .367E+02  .366E+02  .366E+02
  .366E+02  .361E+02  .361E+02  .366E+02  .366E+02  .366E+02  .366E+02  .366E+02
  .376E+02  .365E+02  .365E+02  .365E+02  .363E+02  .363E+02  .363E+02  .363E+02
  .363E+02  .363E+02  .363E+02  .363E+02  .363E+02  .363E+02  .366E+02  .366E+02
  .366E+02  .366E+02  .366E+02  .366E+02  .366E+02  .366E+02  .360E+02  .360E+02
  .360E+02  .357E+02  .357E+02  .357E+02  .357E+02  .357E+02  .357E+02  .357E+02
  .357E+02  .357E+02  .357E+02  .357E+02  .357E+02  .357E+02  .000E+00  .000E+00
  .000E+00  .000E+00  .000E+00  .000E+00  .000E+00  .000E+00  .000E+00  .000E+00
  .000E+00  .000E+00  .000E+00  .000E+00  .000E+00  .000E+00  .000E+00  .000E+00
  .000E+00  .000E+00  .000E+00  .000E+00
  .366E+02  .366E+02  .366E+02  .366E+02  .366E+02  .366E+02  .366E+02  .357E+02
  .357E+02  .367E+02  .367E+02  .367E+02  .367E+02  .363E+02  .366E+02  .357E+02
  .357E+02  .367E+02  .368E+02  .368E+02  .368E+02  .369E+02  .379E+02  .364E+02
  .364E+02  .364E+02  .364E+02  .374E+02  .366E+02  .366E+02  .366E+02  .367E+02
  .369E+02  .359E+02  .360E+02  .369E+02  .369E+02  .369E+02  .370E+02  .377E+02
  .366E+02  .366E+02  .364E+02  .364E+02  .364E+02  .364E+02  .365E+02  .374E+02
  .370E+02  .371E+02  .371E+02  .372E+02  .368E+02  .368E+02  .368E+02  .368E+02
  .362E+02  .362E+02  .362E+02  .362E+02  .362E+02  .362E+02  .362E+02  .362E+02
  .359E+02  .359E+02  .359E+02  .359E+02  .359E+02  .359E+02  .359E+02  .359E+02
  .359E+02  .359E+02  .359E+02  .359E+02  .358E+02  .358E+02  .000E+00  .000E+00
  .000E+00  .000E+00  .000E+00  .000E+00  .000E+00  .000E+00  .000E+00  .000E+00
  .000E+00  .000E+00  .000E+00  .000E+00  .000E+00  .000E+00  .000E+00  .000E+00
  .000E+00  .000E+00  .000E+00  .000E+00
/&   ----------  End of spectral data for channel  1  ----------
Response and Fourier amplitude spectra (78 periods,  .04 -  6.0 sec)   for      
Corrected accelerogram   38695658.CI.CFT.--.HN      Chan  2: 360 Deg     from   
Uncorrected Accelerogram Data             Processed: 09/19/20, CGS  cicft--c    
Rcrd of Fri Sep 18, 2020 23:38:38.0 PDT               (Avol1 v2.0, 4/18 CSMIP)  
                                        (Origin:  To be determined)             
38695658.CI.CFT.--.HN                Start time:  9/19/20, 06:38:38.0 UTC (GPS) 
Station Id. CFT     34.035N, 117.112W    ObsMMS  s/n 1102  (3 Chns of  6 at Sta)
Crafton Hills                            SCSN   Data: Acceleration              
Chan  2: 360 Deg                                                                
Rcrd of Fri Sep 18, 2020 23:38:38.0 PDT    Fri Sep 18, 2020 23:38:38.0 PDT      
Hypocenter:  To be determined.               ML:  To be determined.             
Instr Period =  .0050 sec,  Damping =  .707,  Sensitivity = 4.98 v/g  (Nominal) 
                        Record Length =301.000 sec.                             
                                     Uncor Max  =   .003 g, at   36.180 sec.    
RMS accel of (uncor) record  =        .   Chn. metadata effective date:         
Accelerogram bandpass filtered with 3 dB pts at   .30 and 23.00 cyc/sec         
                 instrument- and base-line correcte                             
                                                                                
                                                                                
                                                                                
                                                                                
                                                                                
Rcrd of Fri Sep 18, 2020 23:38:38.0 PDT    Fri Sep 18, 2020 23:38:38.0 PDT      
                                                                                
38695658.CI.CFT.--.HN     Crafton Hills   Chan  2: 360 Deg                      
                                                                                
38695658.CI.CFT.--.HN     Crafton Hills   Chan  2: 360 Deg                      
                                                                                
Units for spectra are inches and sec, except Sa is in fraction of g.            
                                                                                
    2  100    2    6    6  100 -999    3    1    0   15 1102    050759   41    0
    6   38   38   10  263    9   19 2020   10    3  36035635   39   13   74 -999
35635 -999  100    6 -999 -999 -999 -999 -999 -999 -999 -999 -999 -999 -999 -999
 -999 -999 -999 -99915050    2 -999    0 -999   20 -999 -999    3    1 -99915050
    315050    4   78    1    3    5    0    0 -999    0 -999 -999    6 -999    2
    2    2    4 -999 -999 -999 -999 -999 -999 -999 -999    1 -999 -999 -999  111
    1    1 -999 -999
      .005      .707   356.350      .000     1.000  4982.495      .003    36.180
   200.000     2.384      .479  -999.000    10.000  -999.000     4.000  -999.000
    20.000   -35.128      .000  -999.000  -999.000  -999.000  -999.000     -.002
      .002      .004     2.000    15.000    34.035  -117.112      .025      .030
     1.172     -.001      .009   682.000  -999.000  -999.000  -999.000  -999.000
     1.000  -999.000  -999.000  -999.000  -999.000  -999.000  -999.000   120.000
     -.900     2.000     6.800   980.665      .020   301.000    31.831      .000
  -999.000    23.000  -999.000   301.000      .020      .300  -999.000  -999.000
    36.180     2.673    36.320      .107    36.200     -.010      .000      .300
    23.000      .020      .020      .000      .020      .004  -999.000  -999.000
      .010      .260      .005      .006      .001      .000  -999.000  -999.000
  -999.000  -999.000  -999.000  -999.000  -999.000  -999.000  -999.000  -999.000
  -999.000  -999.000  -999.000  -999.000
      .050
      .040      .042      .044      .046      .048      .050      .055      .060
      .065      .070      .075      .080      .085      .090      .095      .100
      .110      .120      .130      .140      .150      .160      .170      .180
      .190      .200      .220      .240      .260      .280      .300      .320
      .340      .360      .380      .400      .420      .440      .460      .480
      .500      .550      .600      .650      .700      .750      .800      .850
      .900      .950     1.000     1.100     1.200     1.300     1.400     1.500
     1.600     1.700     1.800     1.900     2.000     2.200     2.400     2.600
     2.800     3.000     3.200     3.400     3.600     3.800     4.000     4.200
     4.400     4.600     4.800     5.000     5.500     6.000      .000      .000
      .000      .000      .000      .000      .000      .000      .000      .000
      .000      .000      .000      .000      .000      .000      .000      .000
      .000      .000      .000      .000
Fourier amplitude spectra in in/sec.
  .000E+00  .000E+00  .000E+00  .000E+00  .000E+00  .000E+00  .000E+00  .000E+00
  .000E+00  .000E+00  .000E+00  .000E+00  .000E+00  .000E+00  .000E+00  .000E+00
  .000E+00  .000E+00  .000E+00  .000E+00  .000E+00  .000E+00  .000E+00  .000E+00
  .000E+00  .000E+00  .000E+00  .000E+00  .000E+00  .000E+00  .000E+00  .000E+00
  .000E+00  .000E+00  .000E+00  .000E+00  .000E+00  .000E+00  .000E+00  .000E+00
  .000E+00  .000E+00  .000E+00  .000E+00  .000E+00  .000E+00  .000E+00  .000E+00
  .000E+00  .000E+00  .000E+00  .000E+00  .000E+00  .000E+00  .000E+00  .000E+00
  .000E+00  .000E+00  .000E+00  .000E+00  .000E+00  .000E+00  .000E+00  .000E+00
  .000E+00  .000E+00  .000E+00  .000E+00  .000E+00  .000E+00  .000E+00  .000E+00
  .000E+00  .000E+00  .000E+00  .000E+00  .000E+00  .000E+00  .000E+00  .000E+00
  .000E+00  .000E+00  .000E+00  .000E+00  .000E+00  .000E+00  .000E+00  .000E+00
  .000E+00  .000E+00  .000E+00  .000E+00  .000E+00  .000E+00  .000E+00  .000E+00
  .000E+00  .000E+00  .000E+00  .000E+00
Damping =  .05. Data of Sd,Sv,Sa,Pssv,ttSd,ttSv,ttSa :
  .450E-04  .506E-04  .567E-04  .631E-04  .695E-04  .740E-04  .790E-04  .105E-03
  .135E-03  .171E-03  .238E-03  .250E-03  .305E-03  .381E-03  .557E-03  .647E-03
  .964E-03  .125E-02  .121E-02  .157E-02  .148E-02  .163E-02  .145E-02  .137E-02
  .159E-02  .195E-02  .252E-02  .439E-02  .648E-02  .572E-02  .437E-02  .418E-02
  .421E-02  .400E-02  .431E-02  .529E-02  .651E-02  .731E-02  .717E-02  .678E-02
