Response and Fourier amplitude spectra (78 periods,  .04 -  6.0 sec)   for      
Corrected accelerogram   38695658.CI.CFS.00.HN      Chan  1:  90 Deg     from   
Uncorrected Accelerogram Data             Processed: 09/19/20, CGS  cicfs--i    
Rcrd of Fri Sep 18, 2020 23:38:36.0 PDT               (Avol1 v2.0, 4/18 CSMIP)  
                                        (Origin:  To be determined)             
38695658.CI.CFS.00.HN                Start time:  9/19/20, 06:38:36.0 UTC (GPS) 
Station Id. CFS     34.105N, 117.283W    Q330    s/n 2574  (3 Chns of  6 at Sta)
San Bernardino, 3rd St. at S. Waterman   SCSN   Data: Acceleration              
Chan  1:  90 Deg                                                                
Rcrd of Fri Sep 18, 2020 23:38:36.0 PDT    Fri Sep 18, 2020 23:38:36.0 PDT      
Hypocenter:  To be determined.               ML:  To be determined.             
Instr Period =  .0050 sec,  Damping =  .707,  Sensitivity = 4.99 v/g  (Nominal) 
                        Record Length =301.000 sec.                             
                                     Uncor Max  =  -.002 g, at   38.410 sec.    
RMS accel of (uncor) record  =        .   Chn. metadata effective date:         
Accelerogram bandpass filtered with 3 dB pts at   .30 and 23.00 cyc/sec         
                 instrument- and base-line correcte                             
                                                                                
                                                                                
                                                                                
                                                                                
                                                                                
Rcrd of Fri Sep 18, 2020 23:38:36.0 PDT    Fri Sep 18, 2020 23:38:36.0 PDT      
                                                                                
38695658.CI.CFS.00.HN     San Bernardino, 3rd St. at S. Waterman   SChan  1:  90
 Deg                                                                            
38695658.CI.CFS.00.HN     San Bernardino, 3rd St. at S. Waterman   SChan  1:  90
 Deg                                                                            
Units for spectra are inches and sec, except Sa is in fraction of g.            
                                                                                
    1  100    1    6    6  100 -999    3    1   24  605 2574    050695   41    0
    6   38   36    8  263    9   19 2020   10    3   9035511   39   38   74 -999
35511 -999  100    6 -999 -999 -999 -999 -999 -999 -999 -999 -999 -999 -999 -999
 -999 -999 -999 -99915050    2 -999    0 -999   20 -999 -999    3    1 -99915050
    315050    4   78    1    3    5    0    0 -999    0 -999 -999    6 -999    2
    2    2    4 -999 -999 -999 -999 -999 -999 -999 -999    1 -999 -999 -999  111
    1    1 -999 -999
      .005      .707   355.110      .000     1.000  4987.282     -.002    38.410
   200.000     2.384      .478  -999.000    10.000  -999.000     4.000  -999.000
    20.000   -53.264    20.000  -999.000  -999.000  -999.000  -999.000     -.013
      .012      .025     2.000    15.000    34.105  -117.283      .017      .010
      .572      .022      .028   312.000  -999.000  -999.000  -999.000  -999.000
     1.000  -999.000    -8.000  -999.000  -999.000  -999.000  -999.000   120.000
     -.900     2.000     6.800   980.665      .020   301.000    31.831     -.002
  -999.000    23.000  -999.000   301.000      .020      .300  -999.000  -999.000
    38.400    -2.258    40.220      .085    42.940     -.008      .000      .300
    23.000      .020      .020      .000      .020      .009  -999.000  -999.000
      .010      .095      .006      .005      .001      .000  -999.000  -999.000
  -999.000  -999.000  -999.000  -999.000  -999.000  -999.000  -999.000  -999.000
  -999.000  -999.000  -999.000  -999.000
      .050
      .040      .042      .044      .046      .048      .050      .055      .060
      .065      .070      .075      .080      .085      .090      .095      .100
      .110      .120      .130      .140      .150      .160      .170      .180
      .190      .200      .220      .240      .260      .280      .300      .320
      .340      .360      .380      .400      .420      .440      .460      .480
      .500      .550      .600      .650      .700      .750      .800      .850
      .900      .950     1.000     1.100     1.200     1.300     1.400     1.500
     1.600     1.700     1.800     1.900     2.000     2.200     2.400     2.600
     2.800     3.000     3.200     3.400     3.600     3.800     4.000     4.200
     4.400     4.600     4.800     5.000     5.500     6.000      .000      .000
      .000      .000      .000      .000      .000      .000      .000      .000
      .000      .000      .000      .000      .000      .000      .000      .000
      .000      .000      .000      .000
Fourier amplitude spectra in in/sec.
  .000E+00  .000E+00  .000E+00  .000E+00  .000E+00  .000E+00  .000E+00  .000E+00
  .000E+00  .000E+00  .000E+00  .000E+00  .000E+00  .000E+00  .000E+00  .000E+00
  .000E+00  .000E+00  .000E+00  .000E+00  .000E+00  .000E+00  .000E+00  .000E+00
  .000E+00  .000E+00  .000E+00  .000E+00  .000E+00  .000E+00  .000E+00  .000E+00
  .000E+00  .000E+00  .000E+00  .000E+00  .000E+00  .000E+00  .000E+00  .000E+00
  .000E+00  .000E+00  .000E+00  .000E+00  .000E+00  .000E+00  .000E+00  .000E+00
  .000E+00  .000E+00  .000E+00  .000E+00  .000E+00  .000E+00  .000E+00  .000E+00
  .000E+00  .000E+00  .000E+00  .000E+00  .000E+00  .000E+00  .000E+00  .000E+00
  .000E+00  .000E+00  .000E+00  .000E+00  .000E+00  .000E+00  .000E+00  .000E+00
  .000E+00  .000E+00  .000E+00  .000E+00  .000E+00  .000E+00  .000E+00  .000E+00
  .000E+00  .000E+00  .000E+00  .000E+00  .000E+00  .000E+00  .000E+00  .000E+00
  .000E+00  .000E+00  .000E+00  .000E+00  .000E+00  .000E+00  .000E+00  .000E+00
  .000E+00  .000E+00  .000E+00  .000E+00
Damping =  .05. Data of Sd,Sv,Sa,Pssv,ttSd,ttSv,ttSa :
  .363E-04  .407E-04  .493E-04  .584E-04  .615E-04  .730E-04  .997E-04  .139E-03
  .174E-03  .242E-03  .314E-03  .450E-03  .475E-03  .687E-03  .864E-03  .941E-03
  .967E-03  .822E-03  .107E-02  .124E-02  .117E-02  .152E-02  .232E-02  .223E-02
  .230E-02  .242E-02  .303E-02  .491E-02  .418E-02  .451E-02  .449E-02  .440E-02
  .401E-02  .418E-02  .366E-02  .404E-02  .410E-02  .560E-02  .671E-02  .736E-02
  .711E-02  .842E-02  .775E-02  .740E-02  .939E-02  .755E-02  .539E-02  .611E-02
  .613E-02  .686E-02  .677E-02  .612E-02  .708E-02  .648E-02  .836E-02  .701E-02
  .824E-02  .708E-02  .597E-02  .640E-02  .816E-02  .679E-02  .629E-02  .482E-02
  .468E-02  .480E-02  .467E-02  .522E-02  .542E-02  .475E-02  .406E-02  .341E-02
  .340E-02  .348E-02  .358E-02  .360E-02  .353E-02  .337E-02  .000E+00  .000E+00
  .000E+00  .000E+00  .000E+00  .000E+00  .000E+00  .000E+00  .000E+00  .000E+00
  .000E+00  .000E+00  .000E+00  .000E+00  .000E+00  .000E+00  .000E+00  .000E+00
  .000E+00  .000E+00  .000E+00  .000E+00
  .289E-02  .320E-02  .345E-02  .374E-02  .445E-02  .530E-02  .667E-02  .934E-02
  .123E-01  .168E-01  .210E-01  .315E-01  .327E-01  .434E-01  .532E-01  .573E-01
  .508E-01  .397E-01  .496E-01  .518E-01  .472E-01  .573E-01  .822E-01  .722E-01
  .710E-01  .678E-01  .942E-01  .126E+00  .105E+00  .934E-01  .955E-01  .840E-01
  .787E-01  .807E-01  .708E-01  .722E-01  .673E-01  .733E-01  .838E-01  .100E+00
  .947E-01  .101E+00  .977E-01  .765E-01  .860E-01  .864E-01  .575E-01  .519E-01
  .550E-01  .546E-01  .601E-01  .515E-01  .450E-01  .453E-01  .413E-01  .385E-01
  .429E-01  .461E-01  .470E-01  .408E-01  .363E-01  .353E-01  .332E-01  .325E-01
  .333E-01  .332E-01  .334E-01  .340E-01  .342E-01  .339E-01  .335E-01  .332E-01
  .331E-01  .330E-01  .331E-01  .332E-01  .332E-01  .332E-01  .000E+00  .000E+00
  .000E+00  .000E+00  .000E+00  .000E+00  .000E+00  .000E+00  .000E+00  .000E+00
  .000E+00  .000E+00  .000E+00  .000E+00  .000E+00  .000E+00  .000E+00  .000E+00
  .000E+00  .000E+00  .000E+00  .000E+00
  .233E-02  .236E-02  .261E-02  .281E-02  .271E-02  .296E-02  .340E-02  .395E-02
  .424E-02  .512E-02  .572E-02  .714E-02  .671E-02  .865E-02  .981E-02  .950E-02
  .820E-02  .592E-02  .655E-02  .649E-02  .536E-02  .614E-02  .825E-02  .711E-02
  .650E-02  .623E-02  .660E-02  .871E-02  .637E-02  .586E-02  .506E-02  .437E-02
  .360E-02  .332E-02  .261E-02  .258E-02  .237E-02  .299E-02  .324E-02  .331E-02
  .293E-02  .287E-02  .220E-02  .180E-02  .197E-02  .139E-02  .866E-03  .869E-03
  .783E-03  .783E-03  .697E-03  .521E-03  .506E-03  .394E-03  .439E-03  .320E-03
  .332E-03  .254E-03  .191E-03  .183E-03  .210E-03  .145E-03  .112E-03  .740E-04
  .620E-04  .554E-04  .474E-04  .475E-04  .444E-04  .355E-04  .278E-04  .230E-04
  .214E-04  .203E-04  .194E-04  .183E-04  .156E-04  .133E-04  .000E+00  .000E+00
  .000E+00  .000E+00  .000E+00  .000E+00  .000E+00  .000E+00  .000E+00  .000E+00
  .000E+00  .000E+00  .000E+00  .000E+00  .000E+00  .000E+00  .000E+00  .000E+00
  .000E+00  .000E+00  .000E+00  .000E+00
  .571E-02  .609E-02  .703E-02  .798E-02  .805E-02  .918E-02  .114E-01  .146E-01
  .168E-01  .217E-01  .263E-01  .353E-01  .351E-01  .479E-01  .572E-01  .591E-01
  .553E-01  .431E-01  .517E-01  .559E-01  .490E-01  .598E-01  .859E-01  .780E-01
  .760E-01  .759E-01  .866E-01  .129E+00  .101E+00  .101E+00  .941E-01  .864E-01
  .741E-01  .729E-01  .605E-01  .634E-01  .614E-01  .800E-01  .917E-01  .963E-01
  .893E-01  .961E-01  .812E-01  .715E-01  .843E-01  .633E-01  .423E-01  .451E-01
  .428E-01  .454E-01  .425E-01  .350E-01  .370E-01  .313E-01  .375E-01  .294E-01
  .324E-01  .262E-01  .208E-01  .212E-01  .256E-01  .194E-01  .165E-01  .116E-01
  .105E-01  .100E-01  .917E-02  .964E-02  .946E-02  .786E-02  .637E-02  .510E-02
  .486E-02  .476E-02  .468E-02  .452E-02  .403E-02  .353E-02  .000E+00  .000E+00
  .000E+00  .000E+00  .000E+00  .000E+00  .000E+00  .000E+00  .000E+00  .000E+00
  .000E+00  .000E+00  .000E+00  .000E+00  .000E+00  .000E+00  .000E+00  .000E+00
  .000E+00  .000E+00  .000E+00  .000E+00
  .384E+02  .384E+02  .348E+02  .348E+02  .355E+02  .356E+02  .348E+02  .348E+02
  .371E+02  .348E+02  .356E+02  .357E+02  .362E+02  .357E+02  .357E+02  .357E+02
  .359E+02  .393E+02  .377E+02  .384E+02  .378E+02  .384E+02  .385E+02  .386E+02
  .387E+02  .388E+02  .381E+02  .388E+02  .390E+02  .394E+02  .395E+02  .403E+02
  .419E+02  .423E+02  .411E+02  .351E+02  .424E+02  .426E+02  .427E+02  .432E+02
  .430E+02  .430E+02  .431E+02  .405E+02  .402E+02  .403E+02  .449E+02  .454E+02
  .473E+02  .451E+02  .447E+02  .536E+02  .568E+02  .680E+02  .681E+02  .682E+02
  .540E+02  .429E+02  .533E+02  .677E+02  .677E+02  .621E+02  .580E+02  .560E+02
  .561E+02  .562E+02  .535E+02  .528E+02  .528E+02  .528E+02  .528E+02  .528E+02
  .429E+02  .429E+02  .429E+02  .429E+02  .429E+02  .429E+02  .000E+00  .000E+00
  .000E+00  .000E+00  .000E+00  .000E+00  .000E+00  .000E+00  .000E+00  .000E+00
  .000E+00  .000E+00  .000E+00  .000E+00  .000E+00  .000E+00  .000E+00  .000E+00
  .000E+00  .000E+00  .000E+00  .000E+00
  .348E+02  .348E+02  .348E+02  .348E+02  .356E+02  .356E+02  .348E+02  .348E+02
  .371E+02  .348E+02  .357E+02  .357E+02  .353E+02  .357E+02  .357E+02  .357E+02
  .357E+02  .353E+02  .376E+02  .347E+02  .375E+02  .380E+02  .385E+02  .386E+02
  .386E+02  .387E+02  .381E+02  .388E+02  .389E+02  .394E+02  .395E+02  .402E+02
  .386E+02  .412E+02  .384E+02  .385E+02  .383E+02  .427E+02  .431E+02  .431E+02
  .431E+02  .432E+02  .430E+02  .407E+02  .404E+02  .402E+02  .402E+02  .360E+02
  .360E+02  .385E+02  .401E+02  .402E+02  .402E+02  .402E+02  .370E+02  .370E+02
  .430E+02  .383E+02  .402E+02  .402E+02  .402E+02  .402E+02  .402E+02  .402E+02
  .402E+02  .402E+02  .402E+02  .402E+02  .402E+02  .402E+02  .402E+02  .402E+02
  .402E+02  .402E+02  .402E+02  .402E+02  .402E+02  .402E+02  .000E+00  .000E+00
  .000E+00  .000E+00  .000E+00  .000E+00  .000E+00  .000E+00  .000E+00  .000E+00
  .000E+00  .000E+00  .000E+00  .000E+00  .000E+00  .000E+00  .000E+00  .000E+00
  .000E+00  .000E+00  .000E+00  .000E+00
  .384E+02  .384E+02  .348E+02  .348E+02  .355E+02  .356E+02  .348E+02  .348E+02
  .371E+02  .348E+02  .356E+02  .357E+02  .362E+02  .357E+02  .357E+02  .357E+02
  .359E+02  .393E+02  .377E+02  .384E+02  .379E+02  .384E+02  .384E+02  .385E+02
  .387E+02  .388E+02  .381E+02  .388E+02  .388E+02  .394E+02  .395E+02  .403E+02
  .419E+02  .423E+02  .411E+02  .351E+02  .424E+02  .426E+02  .427E+02  .432E+02
  .430E+02  .430E+02  .431E+02  .405E+02  .402E+02  .403E+02  .449E+02  .454E+02
  .473E+02  .451E+02  .447E+02  .536E+02  .568E+02  .680E+02  .681E+02  .682E+02
  .539E+02  .429E+02  .533E+02  .676E+02  .677E+02  .620E+02  .580E+02  .560E+02
  .573E+02  .561E+02  .535E+02  .528E+02  .528E+02  .528E+02  .528E+02  .428E+02
  .428E+02  .428E+02  .428E+02  .428E+02  .428E+02  .428E+02  .000E+00  .000E+00
  .000E+00  .000E+00  .000E+00  .000E+00  .000E+00  .000E+00  .000E+00  .000E+00
  .000E+00  .000E+00  .000E+00  .000E+00  .000E+00  .000E+00  .000E+00  .000E+00
  .000E+00  .000E+00  .000E+00  .000E+00
/&   ----------  End of spectral data for channel  1  ----------
Response and Fourier amplitude spectra (78 periods,  .04 -  6.0 sec)   for      
Corrected accelerogram   38695658.CI.CFS.00.HN      Chan  2: 360 Deg     from   
Uncorrected Accelerogram Data             Processed: 09/19/20, CGS  cicfs--i    
Rcrd of Fri Sep 18, 2020 23:38:36.0 PDT               (Avol1 v2.0, 4/18 CSMIP)  
                                        (Origin:  To be determined)             
38695658.CI.CFS.00.HN                Start time:  9/19/20, 06:38:36.0 UTC (GPS) 
Station Id. CFS     34.105N, 117.283W    Q330    s/n 2574  (3 Chns of  6 at Sta)
San Bernardino, 3rd St. at S. Waterman   SCSN   Data: Acceleration              
Chan  2: 360 Deg                                                                
Rcrd of Fri Sep 18, 2020 23:38:36.0 PDT    Fri Sep 18, 2020 23:38:36.0 PDT      
Hypocenter:  To be determined.               ML:  To be determined.             
Instr Period =  .0050 sec,  Damping =  .707,  Sensitivity = 4.99 v/g  (Nominal) 
                        Record Length =301.000 sec.                             
                                     Uncor Max  =   .003 g, at   36.790 sec.    
RMS accel of (uncor) record  =        .   Chn. metadata effective date:         
Accelerogram bandpass filtered with 3 dB pts at   .30 and 23.00 cyc/sec         
                 instrument- and base-line correcte                             
                                                                                
                                                                                
                                                                                
                                                                                
                                                                                
Rcrd of Fri Sep 18, 2020 23:38:36.0 PDT    Fri Sep 18, 2020 23:38:36.0 PDT      
                                                                                
38695658.CI.CFS.00.HN     San Bernardino, 3rd St. at S. Waterman   SChan  2: 360
 Deg                                                                            
38695658.CI.CFS.00.HN     San Bernardino, 3rd St. at S. Waterman   SChan  2: 360
 Deg                                                                            
Units for spectra are inches and sec, except Sa is in fraction of g.            
                                                                                
    2  100    2    6    6  100 -999    3    1   24  605 2574    050695   41    0
    6   38   36    8  263    9   19 2020   10    3  36035491   39   38   74 -999
35491 -999  100    6 -999 -999 -999 -999 -999 -999 -999 -999 -999 -999 -999 -999
 -999 -999 -999 -99915050    2 -999    0 -999   20 -999 -999    3    1 -99915050
    315050    4   78    1    3    5    0    0 -999    0 -999 -999    6 -999    2
    2    2    4 -999 -999 -999 -999 -999 -999 -999 -999    1 -999 -999 -999  111
    1    1 -999 -999
      .005      .707   354.910      .000     1.000  4988.080      .003    36.790
   200.000     2.384      .478  -999.000    10.000  -999.000     4.000  -999.000
    20.000   -34.878    20.000  -999.000  -999.000  -999.000  -999.000     -.009
      .009      .019     2.000    15.000    34.105  -117.283      .019      .010
      .514      .015      .022   312.000  -999.000  -999.000  -999.000  -999.000
     1.000  -999.000  -999.000  -999.000  -999.000  -999.000  -999.000   120.000
     -.900     2.000     6.800   980.665      .020   301.000    31.831     -.001
  -999.000    23.000  -999.000   301.000      .020      .300  -999.000  -999.000
    34.860     3.122    36.300      .087    60.960      .006      .000      .300
    23.000      .020      .020      .000      .020      .009  -999.000  -999.000
      .015      .100      .005      .006      .001      .000  -999.000  -999.000
  -999.000  -999.000  -999.000  -999.000  -999.000  -999.000  -999.000  -999.000
  -999.000  -999.000  -999.000  -999.000
      .050
      .040      .042      .044      .046      .048      .050      .055      .060
      .065      .070      .075      .080      .085      .090      .095      .100
      .110      .120      .130      .140      .150      .160      .170      .180
      .190      .200      .220      .240      .260      .280      .300      .320
      .340      .360      .380      .400      .420      .440      .460      .480
      .500      .550      .600      .650      .700      .750      .800      .850
      .900      .950     1.000     1.100     1.200     1.300     1.400     1.500
     1.600     1.700     1.800     1.900     2.000     2.200     2.400     2.600
     2.800     3.000     3.200     3.400     3.600     3.800     4.000     4.200
     4.400     4.600     4.800     5.000     5.500     6.000      .000      .000
      .000      .000      .000      .000      .000      .000      .000      .000
      .000      .000      .000      .000      .000      .000      .000      .000
      .000      .000      .000      .000
Fourier amplitude spectra in in/sec.
  .000E+00  .000E+00  .000E+00  .000E+00  .000E+00  .000E+00  .000E+00  .000E+00
  .000E+00  .000E+00  .000E+00  .000E+00  .000E+00  .000E+00  .000E+00  .000E+00
  .000E+00  .000E+00  .000E+00  .000E+00  .000E+00  .000E+00  .000E+00  .000E+00
  .000E+00  .000E+00  .000E+00  .000E+00  .000E+00  .000E+00  .000E+00  .000E+00
  .000E+00  .000E+00  .000E+00  .000E+00  .000E+00  .000E+00  .000E+00  .000E+00
  .000E+00  .000E+00  .000E+00  .000E+00  .000E+00  .000E+00  .000E+00  .000E+00
  .000E+00  .000E+00  .000E+00  .000E+00  .000E+00  .000E+00  .000E+00  .000E+00
  .000E+00  .000E+00  .000E+00  .000E+00  .000E+00  .000E+00  .000E+00  .000E+00
  .000E+00  .000E+00  .000E+00  .000E+00  .000E+00  .000E+00  .000E+00  .000E+00
  .000E+00  .000E+00  .000E+00  .000E+00  .000E+00  .000E+00  .000E+00  .000E+00
  .000E+00  .000E+00  .000E+00  .000E+00  .000E+00  .000E+00  .000E+00  .000E+00
  .000E+00  .000E+00  .000E+00  .000E+00  .000E+00  .000E+00  .000E+00  .000E+00
  .000E+00  .000E+00  .000E+00  .000E+00
Damping =  .05. Data of Sd,Sv,Sa,Pssv,ttSd,ttSv,ttSa :
  .574E-04  .653E-04  .749E-04  .840E-04  .945E-04  .108E-03  .147E-03  .223E-03
  .294E-03  .386E-03  .457E-03  .507E-03  .667E-03  .862E-03  .121E-02  .145E-02
  .163E-02  .148E-02  .164E-02  .248E-02  .214E-02  .180E-02  .208E-02  .188E-02
  .197E-02  .190E-02  .254E-02  .254E-02  .305E-02  .359E-02  .558E-02  .535E-02
  .544E-02  .617E-02  .596E-02  .501E-02  .439E-02  .515E-02  .515E-02  .546E-02
