Response and Fourier amplitude spectra (78 periods,  .04 -  6.0 sec)   for      
Corrected accelerogram   38695658.CI.CFD.--.HN      Chan  1:  90 Deg     from   
Uncorrected Accelerogram Data             Processed: 09/19/20, CGS  cicfd--g    
Rcrd of Fri Sep 18, 2020 23:38:45.0 PDT               (Avol1 v2.0, 4/18 CSMIP)  
                                        (Origin:  To be determined)             
38695658.CI.CFD.--.HN                Start time:  9/19/20, 06:38:45.0 UTC (GPS) 
Station Id. CFD     34.399N, 119.516W    ObsMMS  s/n 1113  (3 Chns of  6 at Sta)
Carpinteria FD                           SCSN   Data: Acceleration              
Chan  1:  90 Deg                                                                
Rcrd of Fri Sep 18, 2020 23:38:45.0 PDT    Fri Sep 18, 2020 23:38:45.0 PDT      
Hypocenter:  To be determined.               ML:  To be determined.             
Instr Period =  .0050 sec,  Damping =  .707,  Sensitivity = 4.98 v/g  (Nominal) 
                        Record Length =301.000 sec.                             
                                     Uncor Max  =  -.003 g, at   49.310 sec.    
RMS accel of (uncor) record  =        .   Chn. metadata effective date:         
Accelerogram bandpass filtered with 3 dB pts at   .30 and 23.00 cyc/sec         
                 instrument- and base-line correcte                             
                                                                                
                                                                                
                                                                                
                                                                                
                                                                                
Rcrd of Fri Sep 18, 2020 23:38:45.0 PDT    Fri Sep 18, 2020 23:38:45.0 PDT      
                                                                                
38695658.CI.CFD.--.HN     Carpinteria FD    Chan  1:  90 Deg                    
                                                                                
38695658.CI.CFD.--.HN     Carpinteria FD    Chan  1:  90 Deg                    
                                                                                
Units for spectra are inches and sec, except Sa is in fraction of g.            
                                                                                
    1  100    1    6    6  100 -999    3    1    0   15 1113    0    0   41    0
    6   38   45   10  263    9   19 2020   10    3   9035988   39   14   74 -999
35988 -999  100    6 -999 -999 -999 -999 -999 -999 -999 -999 -999 -999 -999 -999
 -999 -999 -999 -99915050    2 -999    0 -999   20 -999 -999    3    1 -99915050
    315050    4   78    1    3    5    0    0 -999    0 -999 -999    6 -999    2
    2    2    4 -999 -999 -999 -999 -999 -999 -999 -999    1 -999 -999 -999  111
    1    1 -999 -999
      .005      .707   359.880      .000     1.000  4984.489     -.003    49.310
   200.000     2.384      .478  -999.000    10.000  -999.000     4.000  -999.000
    20.000   -18.207      .000  -999.000  -999.000  -999.000  -999.000      .000
      .000      .000     2.000    15.000    34.399  -119.516      .002      .006
     2.481      .000      .001     8.000  -999.000  -999.000  -999.000  -999.000
     1.000  -999.000    -8.000  -999.000  -999.000  -999.000  -999.000   120.000
     -.900     2.000     6.800   980.665      .020   301.000    31.831      .000
  -999.000    23.000  -999.000   301.000      .020      .300  -999.000  -999.000
    49.300    -2.609    48.140      .219    48.000     -.028      .000      .300
    23.000      .020      .020      .000      .020      .018  -999.000  -999.000
      .009      .550      .004      .006      .004      .000  -999.000  -999.000
  -999.000  -999.000  -999.000  -999.000  -999.000  -999.000  -999.000  -999.000
  -999.000  -999.000  -999.000  -999.000
      .050
      .040      .042      .044      .046      .048      .050      .055      .060
      .065      .070      .075      .080      .085      .090      .095      .100
      .110      .120      .130      .140      .150      .160      .170      .180
      .190      .200      .220      .240      .260      .280      .300      .320
      .340      .360      .380      .400      .420      .440      .460      .480
      .500      .550      .600      .650      .700      .750      .800      .850
      .900      .950     1.000     1.100     1.200     1.300     1.400     1.500
     1.600     1.700     1.800     1.900     2.000     2.200     2.400     2.600
     2.800     3.000     3.200     3.400     3.600     3.800     4.000     4.200
     4.400     4.600     4.800     5.000     5.500     6.000      .000      .000
      .000      .000      .000      .000      .000      .000      .000      .000
      .000      .000      .000      .000      .000      .000      .000      .000
      .000      .000      .000      .000
Fourier amplitude spectra in in/sec.
  .000E+00  .000E+00  .000E+00  .000E+00  .000E+00  .000E+00  .000E+00  .000E+00
  .000E+00  .000E+00  .000E+00  .000E+00  .000E+00  .000E+00  .000E+00  .000E+00
  .000E+00  .000E+00  .000E+00  .000E+00  .000E+00  .000E+00  .000E+00  .000E+00
  .000E+00  .000E+00  .000E+00  .000E+00  .000E+00  .000E+00  .000E+00  .000E+00
  .000E+00  .000E+00  .000E+00  .000E+00  .000E+00  .000E+00  .000E+00  .000E+00
  .000E+00  .000E+00  .000E+00  .000E+00  .000E+00  .000E+00  .000E+00  .000E+00
  .000E+00  .000E+00  .000E+00  .000E+00  .000E+00  .000E+00  .000E+00  .000E+00
  .000E+00  .000E+00  .000E+00  .000E+00  .000E+00  .000E+00  .000E+00  .000E+00
  .000E+00  .000E+00  .000E+00  .000E+00  .000E+00  .000E+00  .000E+00  .000E+00
  .000E+00  .000E+00  .000E+00  .000E+00  .000E+00  .000E+00  .000E+00  .000E+00
  .000E+00  .000E+00  .000E+00  .000E+00  .000E+00  .000E+00  .000E+00  .000E+00
  .000E+00  .000E+00  .000E+00  .000E+00  .000E+00  .000E+00  .000E+00  .000E+00
  .000E+00  .000E+00  .000E+00  .000E+00
Damping =  .05. Data of Sd,Sv,Sa,Pssv,ttSd,ttSv,ttSa :
  .421E-04  .465E-04  .512E-04  .561E-04  .613E-04  .667E-04  .810E-04  .970E-04
  .118E-03  .137E-03  .158E-03  .184E-03  .212E-03  .238E-03  .271E-03  .300E-03
  .363E-03  .423E-03  .549E-03  .629E-03  .765E-03  .851E-03  .112E-02  .113E-02
  .131E-02  .164E-02  .242E-02  .387E-02  .466E-02  .413E-02  .503E-02  .745E-02
  .910E-02  .107E-01  .102E-01  .115E-01  .100E-01  .982E-02  .109E-01  .146E-01
  .198E-01  .265E-01  .297E-01  .322E-01  .321E-01  .284E-01  .244E-01  .286E-01
  .277E-01  .315E-01  .386E-01  .585E-01  .415E-01  .305E-01  .281E-01  .238E-01
  .230E-01  .198E-01  .211E-01  .279E-01  .300E-01  .229E-01  .186E-01  .169E-01
  .168E-01  .171E-01  .178E-01  .166E-01  .152E-01  .143E-01  .135E-01  .127E-01
  .123E-01  .123E-01  .123E-01  .123E-01  .119E-01  .116E-01  .000E+00  .000E+00
  .000E+00  .000E+00  .000E+00  .000E+00  .000E+00  .000E+00  .000E+00  .000E+00
  .000E+00  .000E+00  .000E+00  .000E+00  .000E+00  .000E+00  .000E+00  .000E+00
  .000E+00  .000E+00  .000E+00  .000E+00
  .587E-03  .643E-03  .703E-03  .769E-03  .846E-03  .931E-03  .113E-02  .143E-02
  .179E-02  .246E-02  .325E-02  .409E-02  .503E-02  .698E-02  .738E-02  .836E-02
  .131E-01  .158E-01  .137E-01  .144E-01  .167E-01  .196E-01  .243E-01  .289E-01
  .278E-01  .289E-01  .526E-01  .779E-01  .974E-01  .781E-01  .863E-01  .125E+00
  .155E+00  .176E+00  .161E+00  .170E+00  .128E+00  .133E+00  .137E+00  .167E+00
  .243E+00  .297E+00  .301E+00  .320E+00  .271E+00  .235E+00  .199E+00  .215E+00
  .203E+00  .249E+00  .267E+00  .339E+00  .242E+00  .190E+00  .178E+00  .163E+00
  .134E+00  .112E+00  .112E+00  .124E+00  .134E+00  .132E+00  .116E+00  .108E+00
  .104E+00  .100E+00  .965E-01  .931E-01  .905E-01  .892E-01  .879E-01  .874E-01
  .874E-01  .875E-01  .876E-01  .877E-01  .877E-01  .876E-01  .000E+00  .000E+00
  .000E+00  .000E+00  .000E+00  .000E+00  .000E+00  .000E+00  .000E+00  .000E+00
  .000E+00  .000E+00  .000E+00  .000E+00  .000E+00  .000E+00  .000E+00  .000E+00
  .000E+00  .000E+00  .000E+00  .000E+00
  .269E-02  .270E-02  .270E-02  .271E-02  .272E-02  .273E-02  .274E-02  .276E-02
  .285E-02  .285E-02  .288E-02  .294E-02  .301E-02  .301E-02  .308E-02  .306E-02
  .306E-02  .301E-02  .332E-02  .327E-02  .348E-02  .340E-02  .397E-02  .360E-02
  .371E-02  .421E-02  .509E-02  .695E-02  .708E-02  .543E-02  .574E-02  .749E-02
  .816E-02  .854E-02  .731E-02  .739E-02  .588E-02  .520E-02  .529E-02  .654E-02
  .814E-02  .896E-02  .845E-02  .782E-02  .673E-02  .520E-02  .393E-02  .408E-02
  .352E-02  .359E-02  .397E-02  .497E-02  .297E-02  .186E-02  .148E-02  .109E-02
  .930E-03  .712E-03  .672E-03  .796E-03  .774E-03  .489E-03  .340E-03  .266E-03
  .230E-03  .204E-03  .186E-03  .155E-03  .131E-03  .111E-03  .960E-04  .833E-04
  .735E-04  .670E-04  .623E-04  .577E-04  .477E-04  .404E-04  .000E+00  .000E+00
  .000E+00  .000E+00  .000E+00  .000E+00  .000E+00  .000E+00  .000E+00  .000E+00
  .000E+00  .000E+00  .000E+00  .000E+00  .000E+00  .000E+00  .000E+00  .000E+00
  .000E+00  .000E+00  .000E+00  .000E+00
  .661E-02  .696E-02  .731E-02  .766E-02  .803E-02  .838E-02  .925E-02  .102E-01
  .114E-01  .123E-01  .133E-01  .145E-01  .157E-01  .166E-01  .179E-01  .188E-01
  .208E-01  .222E-01  .266E-01  .282E-01  .320E-01  .334E-01  .415E-01  .396E-01
  .433E-01  .514E-01  .691E-01  .101E+00  .113E+00  .927E-01  .105E+00  .146E+00
  .168E+00  .187E+00  .169E+00  .180E+00  .150E+00  .140E+00  .148E+00  .192E+00
  .249E+00  .302E+00  .312E+00  .311E+00  .288E+00  .238E+00  .192E+00  .212E+00
  .193E+00  .208E+00  .243E+00  .334E+00  .217E+00  .147E+00  .126E+00  .997E-01
  .904E-01  .733E-01  .736E-01  .922E-01  .943E-01  .654E-01  .488E-01  .409E-01
  .377E-01  .357E-01  .350E-01  .306E-01  .266E-01  .236E-01  .211E-01  .190E-01
  .176E-01  .168E-01  .162E-01  .154E-01  .136E-01  .121E-01  .000E+00  .000E+00
  .000E+00  .000E+00  .000E+00  .000E+00  .000E+00  .000E+00  .000E+00  .000E+00
  .000E+00  .000E+00  .000E+00  .000E+00  .000E+00  .000E+00  .000E+00  .000E+00
  .000E+00  .000E+00  .000E+00  .000E+00
  .493E+02  .493E+02  .493E+02  .493E+02  .493E+02  .493E+02  .493E+02  .493E+02
  .493E+02  .493E+02  .493E+02  .493E+02  .493E+02  .493E+02  .493E+02  .493E+02
  .480E+02  .480E+02  .480E+02  .480E+02  .480E+02  .480E+02  .480E+02  .480E+02
  .493E+02  .493E+02  .480E+02  .480E+02  .481E+02  .493E+02  .501E+02  .493E+02
  .493E+02  .496E+02  .496E+02  .496E+02  .483E+02  .483E+02  .528E+02  .483E+02
  .496E+02  .503E+02  .484E+02  .485E+02  .532E+02  .533E+02  .542E+02  .542E+02
  .457E+02  .539E+02  .474E+02  .530E+02  .510E+02  .483E+02  .483E+02  .562E+02
  .511E+02  .505E+02  .563E+02  .563E+02  .564E+02  .558E+02  .501E+02  .480E+02
  .480E+02  .480E+02  .527E+02  .527E+02  .480E+02  .480E+02  .480E+02  .480E+02
  .471E+02  .527E+02  .527E+02  .527E+02  .527E+02  .527E+02  .000E+00  .000E+00
  .000E+00  .000E+00  .000E+00  .000E+00  .000E+00  .000E+00  .000E+00  .000E+00
  .000E+00  .000E+00  .000E+00  .000E+00  .000E+00  .000E+00  .000E+00  .000E+00
  .000E+00  .000E+00  .000E+00  .000E+00
  .476E+02  .476E+02  .476E+02  .492E+02  .492E+02  .492E+02  .492E+02  .492E+02
  .494E+02  .445E+02  .445E+02  .453E+02  .445E+02  .445E+02  .446E+02  .446E+02
  .446E+02  .446E+02  .460E+02  .460E+02  .468E+02  .492E+02  .475E+02  .476E+02
  .476E+02  .492E+02  .476E+02  .481E+02  .481E+02  .462E+02  .501E+02  .501E+02
  .494E+02  .497E+02  .497E+02  .497E+02  .461E+02  .461E+02  .461E+02  .484E+02
  .495E+02  .496E+02  .483E+02  .483E+02  .530E+02  .531E+02  .496E+02  .540E+02
  .540E+02  .475E+02  .476E+02  .528E+02  .529E+02  .492E+02  .481E+02  .481E+02
  .481E+02  .481E+02  .481E+02  .481E+02  .481E+02  .481E+02  .481E+02  .481E+02
  .481E+02  .481E+02  .481E+02  .481E+02  .481E+02  .492E+02  .481E+02  .481E+02
  .481E+02  .481E+02  .481E+02  .481E+02  .481E+02  .481E+02  .000E+00  .000E+00
  .000E+00  .000E+00  .000E+00  .000E+00  .000E+00  .000E+00  .000E+00  .000E+00
  .000E+00  .000E+00  .000E+00  .000E+00  .000E+00  .000E+00  .000E+00  .000E+00
  .000E+00  .000E+00  .000E+00  .000E+00
  .493E+02  .493E+02  .493E+02  .493E+02  .493E+02  .493E+02  .493E+02  .493E+02
  .493E+02  .493E+02  .493E+02  .493E+02  .493E+02  .493E+02  .493E+02  .493E+02
  .480E+02  .480E+02  .480E+02  .480E+02  .480E+02  .480E+02  .480E+02  .480E+02
  .493E+02  .493E+02  .480E+02  .480E+02  .481E+02  .482E+02  .501E+02  .493E+02
  .493E+02  .496E+02  .496E+02  .496E+02  .483E+02  .483E+02  .528E+02  .483E+02
  .496E+02  .503E+02  .484E+02  .485E+02  .532E+02  .541E+02  .541E+02  .542E+02
  .457E+02  .538E+02  .474E+02  .530E+02  .510E+02  .482E+02  .483E+02  .562E+02
  .510E+02  .505E+02  .562E+02  .563E+02  .563E+02  .557E+02  .501E+02  .479E+02
  .479E+02  .479E+02  .527E+02  .527E+02  .479E+02  .479E+02  .479E+02  .479E+02
  .479E+02  .527E+02  .527E+02  .527E+02  .526E+02  .492E+02  .000E+00  .000E+00
  .000E+00  .000E+00  .000E+00  .000E+00  .000E+00  .000E+00  .000E+00  .000E+00
  .000E+00  .000E+00  .000E+00  .000E+00  .000E+00  .000E+00  .000E+00  .000E+00
  .000E+00  .000E+00  .000E+00  .000E+00
/&   ----------  End of spectral data for channel  1  ----------
Response and Fourier amplitude spectra (78 periods,  .04 -  6.0 sec)   for      
Corrected accelerogram   38695658.CI.CFD.--.HN      Chan  2: 360 Deg     from   
Uncorrected Accelerogram Data             Processed: 09/19/20, CGS  cicfd--g    
Rcrd of Fri Sep 18, 2020 23:38:45.0 PDT               (Avol1 v2.0, 4/18 CSMIP)  
                                        (Origin:  To be determined)             
38695658.CI.CFD.--.HN                Start time:  9/19/20, 06:38:45.0 UTC (GPS) 
Station Id. CFD     34.399N, 119.516W    ObsMMS  s/n 1113  (3 Chns of  6 at Sta)
Carpinteria FD                           SCSN   Data: Acceleration              
Chan  2: 360 Deg                                                                
Rcrd of Fri Sep 18, 2020 23:38:45.0 PDT    Fri Sep 18, 2020 23:38:45.0 PDT      
Hypocenter:  To be determined.               ML:  To be determined.             
Instr Period =  .0050 sec,  Damping =  .707,  Sensitivity = 4.99 v/g  (Nominal) 
                        Record Length =301.000 sec.                             
                                     Uncor Max  =   .002 g, at   50.780 sec.    
RMS accel of (uncor) record  =        .   Chn. metadata effective date:         
Accelerogram bandpass filtered with 3 dB pts at   .30 and 23.00 cyc/sec         
                 instrument- and base-line correcte                             
                                                                                
                                                                                
                                                                                
                                                                                
                                                                                
Rcrd of Fri Sep 18, 2020 23:38:45.0 PDT    Fri Sep 18, 2020 23:38:45.0 PDT      
                                                                                
38695658.CI.CFD.--.HN     Carpinteria FD    Chan  2: 360 Deg                    
                                                                                
38695658.CI.CFD.--.HN     Carpinteria FD    Chan  2: 360 Deg                    
                                                                                
Units for spectra are inches and sec, except Sa is in fraction of g.            
                                                                                
    2  100    2    6    6  100 -999    3    1    0   15 1113    0    0   41    0
    6   38   45    0  263    9   19 2020   10    3  36035921   39   14   74 -999
35921 -999  100    6 -999 -999 -999 -999 -999 -999 -999 -999 -999 -999 -999 -999
 -999 -999 -999 -99915050    2 -999    0 -999   20 -999 -999    3    1 -99915050
    315050    4   78    1    3    5    0    0 -999    0 -999 -999    6 -999    2
    2    2    4 -999 -999 -999 -999 -999 -999 -999 -999    1 -999 -999 -999  111
    1    1 -999 -999
      .005      .707   359.210      .000     1.000  4989.476      .002    50.780
   200.000     2.384      .478  -999.000    10.000  -999.000     4.000  -999.000
    20.000   -14.570      .000  -999.000  -999.000  -999.000  -999.000     -.001
      .002      .003     2.000    15.000    34.399  -119.516      .003      .005
     2.165      .002      .003     8.000  -999.000  -999.000  -999.000  -999.000
     1.000  -999.000  -999.000  -999.000  -999.000  -999.000  -999.000   120.000
     -.900     2.000     6.800   980.665      .020   301.000    31.831      .000
  -999.000    23.000  -999.000   301.000      .020      .300  -999.000  -999.000
    50.780     2.130    50.660     -.250    50.820     -.033      .000      .300
    23.000      .020      .020      .000      .020      .019  -999.000  -999.000
      .008      .480      .004      .006      .004      .000  -999.000  -999.000
  -999.000  -999.000  -999.000  -999.000  -999.000  -999.000  -999.000  -999.000
  -999.000  -999.000  -999.000  -999.000
      .050
      .040      .042      .044      .046      .048      .050      .055      .060
      .065      .070      .075      .080      .085      .090      .095      .100
      .110      .120      .130      .140      .150      .160      .170      .180
      .190      .200      .220      .240      .260      .280      .300      .320
      .340      .360      .380      .400      .420      .440      .460      .480
      .500      .550      .600      .650      .700      .750      .800      .850
      .900      .950     1.000     1.100     1.200     1.300     1.400     1.500
     1.600     1.700     1.800     1.900     2.000     2.200     2.400     2.600
     2.800     3.000     3.200     3.400     3.600     3.800     4.000     4.200
     4.400     4.600     4.800     5.000     5.500     6.000      .000      .000
      .000      .000      .000      .000      .000      .000      .000      .000
      .000      .000      .000      .000      .000      .000      .000      .000
      .000      .000      .000      .000
Fourier amplitude spectra in in/sec.
  .000E+00  .000E+00  .000E+00  .000E+00  .000E+00  .000E+00  .000E+00  .000E+00
  .000E+00  .000E+00  .000E+00  .000E+00  .000E+00  .000E+00  .000E+00  .000E+00
  .000E+00  .000E+00  .000E+00  .000E+00  .000E+00  .000E+00  .000E+00  .000E+00
  .000E+00  .000E+00  .000E+00  .000E+00  .000E+00  .000E+00  .000E+00  .000E+00
  .000E+00  .000E+00  .000E+00  .000E+00  .000E+00  .000E+00  .000E+00  .000E+00
  .000E+00  .000E+00  .000E+00  .000E+00  .000E+00  .000E+00  .000E+00  .000E+00
  .000E+00  .000E+00  .000E+00  .000E+00  .000E+00  .000E+00  .000E+00  .000E+00
  .000E+00  .000E+00  .000E+00  .000E+00  .000E+00  .000E+00  .000E+00  .000E+00
  .000E+00  .000E+00  .000E+00  .000E+00  .000E+00  .000E+00  .000E+00  .000E+00
  .000E+00  .000E+00  .000E+00  .000E+00  .000E+00  .000E+00  .000E+00  .000E+00
  .000E+00  .000E+00  .000E+00  .000E+00  .000E+00  .000E+00  .000E+00  .000E+00
  .000E+00  .000E+00  .000E+00  .000E+00  .000E+00  .000E+00  .000E+00  .000E+00
  .000E+00  .000E+00  .000E+00  .000E+00
Damping =  .05. Data of Sd,Sv,Sa,Pssv,ttSd,ttSv,ttSa :
  .341E-04  .376E-04  .413E-04  .452E-04  .493E-04  .537E-04  .653E-04  .791E-04
  .951E-04  .110E-03  .126E-03  .145E-03  .165E-03  .186E-03  .199E-03  .219E-03
  .286E-03  .377E-03  .437E-03  .528E-03  .630E-03  .786E-03  .936E-03  .102E-02
  .113E-02  .137E-02  .186E-02  .309E-02  .337E-02  .458E-02  .577E-02  .654E-02
  .758E-02  .849E-02  .877E-02  .105E-01  .138E-01  .137E-01  .153E-01  .181E-01
