Response and Fourier amplitude spectra (78 periods,  .04 -  6.0 sec)   for      
Corrected accelerogram   38695658.CI.CHK.--.HN      Chan  1:  90 Deg     from   
Uncorrected Accelerogram Data             Processed: 09/19/20, CGS  cichk--k    
Rcrd of Fri Sep 18, 2020 23:38:33.0 PDT               (Avol1 v2.0, 4/18 CSMIP)  
                                        (Origin:  To be determined)             
38695658.CI.CHK.--.HN                Start time:  9/19/20, 06:38:33.0 UTC (GPS) 
Station Id. CHK     34.067N, 118.971W    ObsMMS  s/n  924  (3 Chns of  6 at Sta)
Camp Hess Kramer                         SCSN   Data: Acceleration              
Chan  1:  90 Deg                                                                
Rcrd of Fri Sep 18, 2020 23:38:33.0 PDT    Fri Sep 18, 2020 23:38:33.0 PDT      
Hypocenter:  To be determined.               ML:  To be determined.             
Instr Period =  .0050 sec,  Damping =  .707,  Sensitivity = 4.97 v/g  (Nominal) 
                        Record Length =301.000 sec.                             
                                     Uncor Max  =  -.002 g, at   42.860 sec.    
RMS accel of (uncor) record  =        .   Chn. metadata effective date:         
Accelerogram bandpass filtered with 3 dB pts at   .30 and 23.00 cyc/sec         
                 instrument- and base-line correcte                             
                                                                                
                                                                                
                                                                                
                                                                                
                                                                                
Rcrd of Fri Sep 18, 2020 23:38:33.0 PDT    Fri Sep 18, 2020 23:38:33.0 PDT      
                                                                                
38695658.CI.CHK.--.HN     Camp Hess Kramer    Chan  1:  90 Deg                  
                                                                                
38695658.CI.CHK.--.HN     Camp Hess Kramer    Chan  1:  90 Deg                  
                                                                                
Units for spectra are inches and sec, except Sa is in fraction of g.            
                                                                                
    1  100    1    6    6  100 -999    3    1    0   15  924    0    0   41    0
    6   38   33   10  263    9   19 2020   10    3   9035957   39   16   74 -999
35957 -999  100    6 -999 -999 -999 -999 -999 -999 -999 -999 -999 -999 -999 -999
 -999 -999 -999 -99915050    2 -999    0 -999   20 -999 -999    3    1 414615050
    315050    4   78    1    3    5    0    0 -999    0 -999 -999    6 -999    2
    2    2    4 -999 -999 -999 -999 -999 -999 -999 -999    1 -999 -999 -999  111
    1    1 -999 -999
      .005      .707   359.570      .000     1.000  4973.697     -.002    42.860
   200.000     2.384      .479  -999.000    10.000  -999.000     4.000  -999.000
    20.000   -17.313      .000  -999.000  -999.000  -999.000  -999.000      .002
     -.002     -.003     2.000    15.000    34.067  -118.971      .001      .001
      .895     -.004     -.003   258.000  -999.000  -999.000  -999.000  -999.000
     1.000  -999.000    -8.000  -999.000  -999.000  -999.000  -999.000   120.000
     -.900     2.000     6.800   980.665      .020   301.000    31.831      .000
  -999.000    23.000  -999.000   301.000      .020      .300  -999.000  -999.000
    42.860    -2.431    39.640     -.100    45.440     -.006      .000      .300
    23.000      .020      .020      .000      .020      .006  -999.000  -999.000
      .011      .240      .009      .006      .000      .000  -999.000  -999.000
  -999.000  -999.000  -999.000  -999.000  -999.000  -999.000  -999.000  -999.000
  -999.000  -999.000  -999.000  -999.000
      .050
      .040      .042      .044      .046      .048      .050      .055      .060
      .065      .070      .075      .080      .085      .090      .095      .100
      .110      .120      .130      .140      .150      .160      .170      .180
      .190      .200      .220      .240      .260      .280      .300      .320
      .340      .360      .380      .400      .420      .440      .460      .480
      .500      .550      .600      .650      .700      .750      .800      .850
      .900      .950     1.000     1.100     1.200     1.300     1.400     1.500
     1.600     1.700     1.800     1.900     2.000     2.200     2.400     2.600
     2.800     3.000     3.200     3.400     3.600     3.800     4.000     4.200
     4.400     4.600     4.800     5.000     5.500     6.000      .000      .000
      .000      .000      .000      .000      .000      .000      .000      .000
      .000      .000      .000      .000      .000      .000      .000      .000
      .000      .000      .000      .000
Fourier amplitude spectra in in/sec.
  .000E+00  .000E+00  .000E+00  .000E+00  .000E+00  .000E+00  .000E+00  .000E+00
  .000E+00  .000E+00  .000E+00  .000E+00  .000E+00  .000E+00  .000E+00  .000E+00
  .000E+00  .000E+00  .000E+00  .000E+00  .000E+00  .000E+00  .000E+00  .000E+00
  .000E+00  .000E+00  .000E+00  .000E+00  .000E+00  .000E+00  .000E+00  .000E+00
  .000E+00  .000E+00  .000E+00  .000E+00  .000E+00  .000E+00  .000E+00  .000E+00
  .000E+00  .000E+00  .000E+00  .000E+00  .000E+00  .000E+00  .000E+00  .000E+00
  .000E+00  .000E+00  .000E+00  .000E+00  .000E+00  .000E+00  .000E+00  .000E+00
  .000E+00  .000E+00  .000E+00  .000E+00  .000E+00  .000E+00  .000E+00  .000E+00
  .000E+00  .000E+00  .000E+00  .000E+00  .000E+00  .000E+00  .000E+00  .000E+00
  .000E+00  .000E+00  .000E+00  .000E+00  .000E+00  .000E+00  .000E+00  .000E+00
  .000E+00  .000E+00  .000E+00  .000E+00  .000E+00  .000E+00  .000E+00  .000E+00
  .000E+00  .000E+00  .000E+00  .000E+00  .000E+00  .000E+00  .000E+00  .000E+00
  .000E+00  .000E+00  .000E+00  .000E+00
Damping =  .05. Data of Sd,Sv,Sa,Pssv,ttSd,ttSv,ttSa :
  .395E-04  .449E-04  .512E-04  .586E-04  .672E-04  .761E-04  .100E-03  .134E-03
  .176E-03  .199E-03  .231E-03  .289E-03  .327E-03  .409E-03  .523E-03  .603E-03
  .880E-03  .122E-02  .153E-02  .180E-02  .217E-02  .208E-02  .199E-02  .274E-02
  .331E-02  .330E-02  .399E-02  .627E-02  .591E-02  .486E-02  .534E-02  .541E-02
  .540E-02  .569E-02  .607E-02  .605E-02  .640E-02  .660E-02  .680E-02  .613E-02
  .556E-02  .527E-02  .462E-02  .403E-02  .362E-02  .467E-02  .642E-02  .636E-02
  .483E-02  .518E-02  .519E-02  .395E-02  .356E-02  .398E-02  .460E-02  .415E-02
  .372E-02  .322E-02  .297E-02  .274E-02  .261E-02  .241E-02  .306E-02  .350E-02
  .329E-02  .300E-02  .273E-02  .264E-02  .270E-02  .269E-02  .261E-02  .252E-02
  .246E-02  .244E-02  .244E-02  .247E-02  .254E-02  .255E-02  .000E+00  .000E+00
  .000E+00  .000E+00  .000E+00  .000E+00  .000E+00  .000E+00  .000E+00  .000E+00
  .000E+00  .000E+00  .000E+00  .000E+00  .000E+00  .000E+00  .000E+00  .000E+00
  .000E+00  .000E+00  .000E+00  .000E+00
  .246E-02  .269E-02  .301E-02  .362E-02  .409E-02  .464E-02  .685E-02  .924E-02
  .999E-02  .121E-01  .136E-01  .139E-01  .169E-01  .234E-01  .282E-01  .346E-01
  .383E-01  .576E-01  .677E-01  .743E-01  .880E-01  .800E-01  .671E-01  .820E-01
  .972E-01  .961E-01  .114E+00  .158E+00  .143E+00  .109E+00  .106E+00  .114E+00
  .103E+00  .111E+00  .107E+00  .115E+00  .106E+00  .112E+00  .912E-01  .879E-01
  .848E-01  .730E-01  .690E-01  .575E-01  .576E-01  .631E-01  .630E-01  .618E-01
  .575E-01  .504E-01  .544E-01  .518E-01  .507E-01  .484E-01  .469E-01  .464E-01
  .451E-01  .432E-01  .425E-01  .418E-01  .415E-01  .411E-01  .406E-01  .405E-01
  .400E-01  .397E-01  .396E-01  .394E-01  .391E-01  .389E-01  .387E-01  .386E-01
  .386E-01  .386E-01  .386E-01  .386E-01  .386E-01  .386E-01  .000E+00  .000E+00
  .000E+00  .000E+00  .000E+00  .000E+00  .000E+00  .000E+00  .000E+00  .000E+00
  .000E+00  .000E+00  .000E+00  .000E+00  .000E+00  .000E+00  .000E+00  .000E+00
  .000E+00  .000E+00  .000E+00  .000E+00
  .254E-02  .260E-02  .270E-02  .283E-02  .299E-02  .312E-02  .341E-02  .384E-02
  .430E-02  .421E-02  .417E-02  .461E-02  .460E-02  .523E-02  .595E-02  .618E-02
  .744E-02  .869E-02  .913E-02  .934E-02  .995E-02  .840E-02  .704E-02  .870E-02
  .933E-02  .835E-02  .835E-02  .111E-01  .912E-02  .630E-02  .604E-02  .541E-02
  .486E-02  .451E-02  .436E-02  .387E-02  .372E-02  .356E-02  .332E-02  .276E-02
  .230E-02  .178E-02  .134E-02  .984E-03  .762E-03  .853E-03  .103E-02  .911E-03
  .620E-03  .591E-03  .536E-03  .343E-03  .260E-03  .250E-03  .250E-03  .198E-03
  .158E-03  .123E-03  .103E-03  .865E-04  .756E-04  .602E-04  .633E-04  .617E-04
  .515E-04  .423E-04  .352E-04  .310E-04  .287E-04  .262E-04  .236E-04  .213E-04
  .195E-04  .182E-04  .172E-04  .163E-04  .146E-04  .130E-04  .000E+00  .000E+00
  .000E+00  .000E+00  .000E+00  .000E+00  .000E+00  .000E+00  .000E+00  .000E+00
  .000E+00  .000E+00  .000E+00  .000E+00  .000E+00  .000E+00  .000E+00  .000E+00
  .000E+00  .000E+00  .000E+00  .000E+00
  .621E-02  .672E-02  .731E-02  .800E-02  .880E-02  .956E-02  .114E-01  .140E-01
  .170E-01  .178E-01  .194E-01  .227E-01  .242E-01  .285E-01  .346E-01  .379E-01
  .502E-01  .639E-01  .738E-01  .806E-01  .909E-01  .816E-01  .735E-01  .955E-01
  .109E+00  .104E+00  .114E+00  .164E+00  .143E+00  .109E+00  .112E+00  .106E+00
  .999E-01  .994E-01  .100E+00  .951E-01  .957E-01  .943E-01  .928E-01  .802E-01
  .699E-01  .602E-01  .484E-01  .389E-01  .325E-01  .391E-01  .505E-01  .470E-01
  .337E-01  .342E-01  .326E-01  .226E-01  .186E-01  .192E-01  .207E-01  .174E-01
  .146E-01  .119E-01  .104E-01  .905E-02  .820E-02  .689E-02  .802E-02  .846E-02
  .739E-02  .628E-02  .536E-02  .488E-02  .471E-02  .445E-02  .410E-02  .377E-02
  .351E-02  .333E-02  .320E-02  .310E-02  .291E-02  .267E-02  .000E+00  .000E+00
  .000E+00  .000E+00  .000E+00  .000E+00  .000E+00  .000E+00  .000E+00  .000E+00
  .000E+00  .000E+00  .000E+00  .000E+00  .000E+00  .000E+00  .000E+00  .000E+00
  .000E+00  .000E+00  .000E+00  .000E+00
  .396E+02  .396E+02  .396E+02  .396E+02  .396E+02  .396E+02  .393E+02  .402E+02
  .429E+02  .408E+02  .409E+02  .393E+02  .393E+02  .397E+02  .409E+02  .409E+02
  .429E+02  .393E+02  .394E+02  .394E+02  .395E+02  .395E+02  .450E+02  .397E+02
  .397E+02  .397E+02  .399E+02  .430E+02  .431E+02  .455E+02  .455E+02  .399E+02
  .457E+02  .431E+02  .431E+02  .408E+02  .408E+02  .428E+02  .469E+02  .469E+02
  .470E+02  .461E+02  .461E+02  .444E+02  .449E+02  .442E+02  .459E+02  .456E+02
  .456E+02  .437E+02  .433E+02  .456E+02  .456E+02  .454E+02  .454E+02  .407E+02
  .407E+02  .407E+02  .407E+02  .407E+02  .407E+02  .454E+02  .454E+02  .454E+02
  .454E+02  .454E+02  .454E+02  .454E+02  .454E+02  .454E+02  .454E+02  .454E+02
  .454E+02  .454E+02  .454E+02  .454E+02  .454E+02  .454E+02  .000E+00  .000E+00
  .000E+00  .000E+00  .000E+00  .000E+00  .000E+00  .000E+00  .000E+00  .000E+00
  .000E+00  .000E+00  .000E+00  .000E+00  .000E+00  .000E+00  .000E+00  .000E+00
  .000E+00  .000E+00  .000E+00  .000E+00
  .427E+02  .427E+02  .427E+02  .427E+02  .427E+02  .427E+02  .417E+02  .402E+02
  .402E+02  .408E+02  .428E+02  .393E+02  .393E+02  .391E+02  .409E+02  .409E+02
  .393E+02  .393E+02  .393E+02  .394E+02  .394E+02  .394E+02  .451E+02  .395E+02
  .397E+02  .397E+02  .399E+02  .430E+02  .431E+02  .455E+02  .456E+02  .399E+02
  .399E+02  .424E+02  .430E+02  .409E+02  .429E+02  .429E+02  .470E+02  .468E+02
  .469E+02  .462E+02  .428E+02  .398E+02  .398E+02  .428E+02  .428E+02  .455E+02
  .455E+02  .396E+02  .427E+02  .396E+02  .396E+02  .396E+02  .396E+02  .396E+02
  .396E+02  .396E+02  .396E+02  .396E+02  .396E+02  .396E+02  .396E+02  .396E+02
  .396E+02  .396E+02  .396E+02  .396E+02  .396E+02  .396E+02  .396E+02  .396E+02
  .396E+02  .396E+02  .396E+02  .396E+02  .396E+02  .396E+02  .000E+00  .000E+00
  .000E+00  .000E+00  .000E+00  .000E+00  .000E+00  .000E+00  .000E+00  .000E+00
  .000E+00  .000E+00  .000E+00  .000E+00  .000E+00  .000E+00  .000E+00  .000E+00
  .000E+00  .000E+00  .000E+00  .000E+00
  .396E+02  .396E+02  .396E+02  .396E+02  .396E+02  .396E+02  .393E+02  .402E+02
  .429E+02  .408E+02  .409E+02  .393E+02  .393E+02  .397E+02  .409E+02  .409E+02
  .429E+02  .393E+02  .394E+02  .394E+02  .395E+02  .395E+02  .450E+02  .397E+02
  .397E+02  .397E+02  .399E+02  .430E+02  .431E+02  .399E+02  .456E+02  .399E+02
  .457E+02  .425E+02  .431E+02  .457E+02  .430E+02  .428E+02  .469E+02  .469E+02
  .470E+02  .461E+02  .461E+02  .444E+02  .449E+02  .461E+02  .459E+02  .456E+02
  .456E+02  .437E+02  .432E+02  .456E+02  .456E+02  .454E+02  .454E+02  .407E+02
  .407E+02  .407E+02  .407E+02  .407E+02  .407E+02  .454E+02  .454E+02  .454E+02
  .454E+02  .454E+02  .454E+02  .454E+02  .454E+02  .454E+02  .454E+02  .454E+02
  .454E+02  .454E+02  .454E+02  .454E+02  .454E+02  .454E+02  .000E+00  .000E+00
  .000E+00  .000E+00  .000E+00  .000E+00  .000E+00  .000E+00  .000E+00  .000E+00
  .000E+00  .000E+00  .000E+00  .000E+00  .000E+00  .000E+00  .000E+00  .000E+00
  .000E+00  .000E+00  .000E+00  .000E+00
/&   ----------  End of spectral data for channel  1  ----------
Response and Fourier amplitude spectra (78 periods,  .04 -  6.0 sec)   for      
Corrected accelerogram   38695658.CI.CHK.--.HN      Chan  2: 360 Deg     from   
Uncorrected Accelerogram Data             Processed: 09/19/20, CGS  cichk--k    
Rcrd of Fri Sep 18, 2020 23:38:33.0 PDT               (Avol1 v2.0, 4/18 CSMIP)  
                                        (Origin:  To be determined)             
38695658.CI.CHK.--.HN                Start time:  9/19/20, 06:38:33.0 UTC (GPS) 
Station Id. CHK     34.067N, 118.971W    ObsMMS  s/n  924  (3 Chns of  6 at Sta)
Camp Hess Kramer                         SCSN   Data: Acceleration              
Chan  2: 360 Deg                                                                
Rcrd of Fri Sep 18, 2020 23:38:33.0 PDT    Fri Sep 18, 2020 23:38:33.0 PDT      
Hypocenter:  To be determined.               ML:  To be determined.             
Instr Period =  .0050 sec,  Damping =  .707,  Sensitivity = 4.99 v/g  (Nominal) 
                        Record Length =301.000 sec.                             
                                     Uncor Max  =   .003 g, at   40.100 sec.    
RMS accel of (uncor) record  =        .   Chn. metadata effective date:         
Accelerogram bandpass filtered with 3 dB pts at   .30 and 23.00 cyc/sec         
                 instrument- and base-line correcte                             
                                                                                
                                                                                
                                                                                
                                                                                
                                                                                
Rcrd of Fri Sep 18, 2020 23:38:33.0 PDT    Fri Sep 18, 2020 23:38:33.0 PDT      
                                                                                
38695658.CI.CHK.--.HN     Camp Hess Kramer    Chan  2: 360 Deg                  
                                                                                
38695658.CI.CHK.--.HN     Camp Hess Kramer    Chan  2: 360 Deg                  
                                                                                
Units for spectra are inches and sec, except Sa is in fraction of g.            
                                                                                
    2  100    2    6    6  100 -999    3    1    0   15  924    0    0   41    0
    6   38   33   10  263    9   19 2020   10    3  36036069   39   16   74 -999
36069 -999  100    6 -999 -999 -999 -999 -999 -999 -999 -999 -999 -999 -999 -999
 -999 -999 -999 -99915050    2 -999    0 -999   20 -999 -999    3    1 414615050
    315050    4   78    1    3    5    0    0 -999    0 -999 -999    6 -999    2
    2    2    4 -999 -999 -999 -999 -999 -999 -999 -999    1 -999 -999 -999  111
    1    1 -999 -999
      .005      .707   360.690      .000     1.000  4988.657      .003    40.100
   200.000     2.384      .478  -999.000    10.000  -999.000     4.000  -999.000
    20.000   -17.289      .000  -999.000  -999.000  -999.000  -999.000     -.003
      .002      .005     2.000    15.000    34.067  -118.971      .001      .001
      .882      .005      .005   258.000  -999.000  -999.000  -999.000  -999.000
     1.000  -999.000  -999.000  -999.000  -999.000  -999.000  -999.000   120.000
     -.900     2.000     6.800   980.665      .020   301.000    31.831      .000
  -999.000    23.000  -999.000   301.000      .020      .300  -999.000  -999.000
    40.100     2.984    40.060     -.095    40.000      .004      .000      .300
    23.000      .020      .020      .000      .020      .004  -999.000  -999.000
      .012      .150      .008      .004      .000      .000  -999.000  -999.000
  -999.000  -999.000  -999.000  -999.000  -999.000  -999.000  -999.000  -999.000
  -999.000  -999.000  -999.000  -999.000
      .050
      .040      .042      .044      .046      .048      .050      .055      .060
      .065      .070      .075      .080      .085      .090      .095      .100
      .110      .120      .130      .140      .150      .160      .170      .180
      .190      .200      .220      .240      .260      .280      .300      .320
      .340      .360      .380      .400      .420      .440      .460      .480
      .500      .550      .600      .650      .700      .750      .800      .850
      .900      .950     1.000     1.100     1.200     1.300     1.400     1.500
     1.600     1.700     1.800     1.900     2.000     2.200     2.400     2.600
     2.800     3.000     3.200     3.400     3.600     3.800     4.000     4.200
     4.400     4.600     4.800     5.000     5.500     6.000      .000      .000
      .000      .000      .000      .000      .000      .000      .000      .000
      .000      .000      .000      .000      .000      .000      .000      .000
      .000      .000      .000      .000
Fourier amplitude spectra in in/sec.
  .000E+00  .000E+00  .000E+00  .000E+00  .000E+00  .000E+00  .000E+00  .000E+00
  .000E+00  .000E+00  .000E+00  .000E+00  .000E+00  .000E+00  .000E+00  .000E+00
  .000E+00  .000E+00  .000E+00  .000E+00  .000E+00  .000E+00  .000E+00  .000E+00
  .000E+00  .000E+00  .000E+00  .000E+00  .000E+00  .000E+00  .000E+00  .000E+00
  .000E+00  .000E+00  .000E+00  .000E+00  .000E+00  .000E+00  .000E+00  .000E+00
  .000E+00  .000E+00  .000E+00  .000E+00  .000E+00  .000E+00  .000E+00  .000E+00
  .000E+00  .000E+00  .000E+00  .000E+00  .000E+00  .000E+00  .000E+00  .000E+00
  .000E+00  .000E+00  .000E+00  .000E+00  .000E+00  .000E+00  .000E+00  .000E+00
  .000E+00  .000E+00  .000E+00  .000E+00  .000E+00  .000E+00  .000E+00  .000E+00
  .000E+00  .000E+00  .000E+00  .000E+00  .000E+00  .000E+00  .000E+00  .000E+00
  .000E+00  .000E+00  .000E+00  .000E+00  .000E+00  .000E+00  .000E+00  .000E+00
  .000E+00  .000E+00  .000E+00  .000E+00  .000E+00  .000E+00  .000E+00  .000E+00
  .000E+00  .000E+00  .000E+00  .000E+00
Damping =  .05. Data of Sd,Sv,Sa,Pssv,ttSd,ttSv,ttSa :
  .486E-04  .546E-04  .612E-04  .683E-04  .755E-04  .795E-04  .970E-04  .125E-03
  .162E-03  .210E-03  .266E-03  .350E-03  .444E-03  .593E-03  .697E-03  .726E-03
  .974E-03  .101E-02  .131E-02  .184E-02  .253E-02  .242E-02  .224E-02  .307E-02
  .303E-02  .254E-02  .422E-02  .334E-02  .327E-02  .327E-02  .382E-02  .465E-02
  .420E-02  .332E-02  .237E-02  .281E-02  .297E-02  .328E-02  .337E-02  .316E-02
