Response and Fourier amplitude spectra (78 periods,  .04 -  6.0 sec)   for      
Corrected accelerogram   38695658.CI.CHI.--.HN      Chan  1:  90 Deg     from   
Uncorrected Accelerogram Data             Processed: 09/19/20, CGS  cichi--j    
Rcrd of Fri Sep 18, 2020 23:38:39.0 PDT               (Avol1 v2.0, 4/18 CSMIP)  
                                        (Origin:  To be determined)             
38695658.CI.CHI.--.HN                Start time:  9/19/20, 06:38:39.0 UTC (GPS) 
Station Id. CHI     34.182N, 119.222W    ObsMMS  s/n 1922  (3 Chns of  6 at Sta)
Channel Island                           SCSN   Data: Acceleration              
Chan  1:  90 Deg                                                                
Rcrd of Fri Sep 18, 2020 23:38:39.0 PDT    Fri Sep 18, 2020 23:38:39.0 PDT      
Hypocenter:  To be determined.               ML:  To be determined.             
Instr Period =  .0050 sec,  Damping =  .707,  Sensitivity = 4.98 v/g  (Nominal) 
                        Record Length =301.000 sec.                             
                                     Uncor Max  =   .002 g, at   42.040 sec.    
RMS accel of (uncor) record  =        .   Chn. metadata effective date:         
Accelerogram bandpass filtered with 3 dB pts at   .30 and 23.00 cyc/sec         
                 instrument- and base-line correcte                             
                                                                                
                                                                                
                                                                                
                                                                                
                                                                                
Rcrd of Fri Sep 18, 2020 23:38:39.0 PDT    Fri Sep 18, 2020 23:38:39.0 PDT      
                                                                                
38695658.CI.CHI.--.HN     Channel Island    Chan  1:  90 Deg                    
                                                                                
38695658.CI.CHI.--.HN     Channel Island    Chan  1:  90 Deg                    
                                                                                
Units for spectra are inches and sec, except Sa is in fraction of g.            
                                                                                
    1  100    1    6    6  100 -999    3    1    0   15 1922    0    0   41    0
    6   38   39   10  263    9   19 2020   10    3   9036052   39   14   74 -999
36052 -999  100    6 -999 -999 -999 -999 -999 -999 -999 -999 -999 -999 -999 -999
 -999 -999 -999 -99915050    2 -999    0 -999   20 -999 -999    3    1 -99915050
    315050    4   78    1    3    5    0    0 -999    0 -999 -999    6 -999    2
    2    2    4 -999 -999 -999 -999 -999 -999 -999 -999    1 -999 -999 -999  111
    1    1 -999 -999
      .005      .707   360.520      .000     1.000  4975.514      .002    42.040
   200.000     2.384      .479  -999.000    10.000  -999.000     4.000  -999.000
    20.000   -18.621      .000  -999.000  -999.000  -999.000  -999.000      .004
     -.003     -.007     2.000    15.000    34.182  -119.222      .012      .007
      .622     -.009     -.004     3.000  -999.000  -999.000  -999.000  -999.000
     1.000  -999.000    -8.000  -999.000  -999.000  -999.000  -999.000   120.000
     -.900     2.000     6.800   980.665      .020   301.000    31.831      .001
  -999.000    23.000  -999.000   301.000      .020      .300  -999.000  -999.000
    42.040     2.428    40.620     -.101    40.700     -.014      .000      .300
    23.000      .020      .020      .000      .020      .014  -999.000  -999.000
      .008      .200      .007      .005      .001      .000  -999.000  -999.000
  -999.000  -999.000  -999.000  -999.000  -999.000  -999.000  -999.000  -999.000
  -999.000  -999.000  -999.000  -999.000
      .050
      .040      .042      .044      .046      .048      .050      .055      .060
      .065      .070      .075      .080      .085      .090      .095      .100
      .110      .120      .130      .140      .150      .160      .170      .180
      .190      .200      .220      .240      .260      .280      .300      .320
      .340      .360      .380      .400      .420      .440      .460      .480
      .500      .550      .600      .650      .700      .750      .800      .850
      .900      .950     1.000     1.100     1.200     1.300     1.400     1.500
     1.600     1.700     1.800     1.900     2.000     2.200     2.400     2.600
     2.800     3.000     3.200     3.400     3.600     3.800     4.000     4.200
     4.400     4.600     4.800     5.000     5.500     6.000      .000      .000
      .000      .000      .000      .000      .000      .000      .000      .000
      .000      .000      .000      .000      .000      .000      .000      .000
      .000      .000      .000      .000
Fourier amplitude spectra in in/sec.
  .000E+00  .000E+00  .000E+00  .000E+00  .000E+00  .000E+00  .000E+00  .000E+00
  .000E+00  .000E+00  .000E+00  .000E+00  .000E+00  .000E+00  .000E+00  .000E+00
  .000E+00  .000E+00  .000E+00  .000E+00  .000E+00  .000E+00  .000E+00  .000E+00
  .000E+00  .000E+00  .000E+00  .000E+00  .000E+00  .000E+00  .000E+00  .000E+00
  .000E+00  .000E+00  .000E+00  .000E+00  .000E+00  .000E+00  .000E+00  .000E+00
  .000E+00  .000E+00  .000E+00  .000E+00  .000E+00  .000E+00  .000E+00  .000E+00
  .000E+00  .000E+00  .000E+00  .000E+00  .000E+00  .000E+00  .000E+00  .000E+00
  .000E+00  .000E+00  .000E+00  .000E+00  .000E+00  .000E+00  .000E+00  .000E+00
  .000E+00  .000E+00  .000E+00  .000E+00  .000E+00  .000E+00  .000E+00  .000E+00
  .000E+00  .000E+00  .000E+00  .000E+00  .000E+00  .000E+00  .000E+00  .000E+00
  .000E+00  .000E+00  .000E+00  .000E+00  .000E+00  .000E+00  .000E+00  .000E+00
  .000E+00  .000E+00  .000E+00  .000E+00  .000E+00  .000E+00  .000E+00  .000E+00
  .000E+00  .000E+00  .000E+00  .000E+00
Damping =  .05. Data of Sd,Sv,Sa,Pssv,ttSd,ttSv,ttSa :
  .391E-04  .434E-04  .480E-04  .525E-04  .568E-04  .612E-04  .832E-04  .107E-03
  .119E-03  .150E-03  .189E-03  .210E-03  .290E-03  .331E-03  .367E-03  .435E-03
  .618E-03  .976E-03  .982E-03  .939E-03  .129E-02  .158E-02  .189E-02  .189E-02
  .218E-02  .287E-02  .330E-02  .365E-02  .421E-02  .428E-02  .417E-02  .517E-02
  .530E-02  .494E-02  .482E-02  .475E-02  .483E-02  .548E-02  .580E-02  .549E-02
  .521E-02  .744E-02  .104E-01  .125E-01  .129E-01  .129E-01  .113E-01  .102E-01
  .108E-01  .102E-01  .107E-01  .147E-01  .139E-01  .123E-01  .110E-01  .118E-01
  .108E-01  .111E-01  .108E-01  .116E-01  .997E-02  .107E-01  .103E-01  .101E-01
  .805E-02  .730E-02  .692E-02  .628E-02  .620E-02  .616E-02  .611E-02  .604E-02
  .599E-02  .597E-02  .594E-02  .588E-02  .585E-02  .580E-02  .000E+00  .000E+00
  .000E+00  .000E+00  .000E+00  .000E+00  .000E+00  .000E+00  .000E+00  .000E+00
  .000E+00  .000E+00  .000E+00  .000E+00  .000E+00  .000E+00  .000E+00  .000E+00
  .000E+00  .000E+00  .000E+00  .000E+00
  .162E-02  .178E-02  .193E-02  .214E-02  .240E-02  .268E-02  .329E-02  .485E-02
  .679E-02  .770E-02  .871E-02  .120E-01  .146E-01  .155E-01  .185E-01  .215E-01
  .306E-01  .482E-01  .456E-01  .389E-01  .500E-01  .604E-01  .641E-01  .610E-01
  .673E-01  .880E-01  .981E-01  .964E-01  .993E-01  .978E-01  .862E-01  .105E+00
  .103E+00  .909E-01  .846E-01  .790E-01  .787E-01  .838E-01  .864E-01  .786E-01
  .664E-01  .948E-01  .111E+00  .138E+00  .128E+00  .117E+00  .115E+00  .986E-01
  .776E-01  .745E-01  .746E-01  .862E-01  .736E-01  .732E-01  .606E-01  .581E-01
  .598E-01  .514E-01  .514E-01  .505E-01  .481E-01  .489E-01  .467E-01  .468E-01
  .462E-01  .458E-01  .452E-01  .443E-01  .434E-01  .426E-01  .420E-01  .415E-01
  .412E-01  .409E-01  .406E-01  .403E-01  .399E-01  .395E-01  .000E+00  .000E+00
  .000E+00  .000E+00  .000E+00  .000E+00  .000E+00  .000E+00  .000E+00  .000E+00
  .000E+00  .000E+00  .000E+00  .000E+00  .000E+00  .000E+00  .000E+00  .000E+00
  .000E+00  .000E+00  .000E+00  .000E+00
  .250E-02  .252E-02  .254E-02  .254E-02  .252E-02  .250E-02  .282E-02  .305E-02
  .288E-02  .315E-02  .343E-02  .336E-02  .412E-02  .418E-02  .418E-02  .442E-02
  .517E-02  .691E-02  .599E-02  .494E-02  .595E-02  .630E-02  .669E-02  .604E-02
  .626E-02  .754E-02  .713E-02  .654E-02  .640E-02  .565E-02  .474E-02  .518E-02
  .474E-02  .394E-02  .346E-02  .305E-02  .278E-02  .295E-02  .279E-02  .244E-02
  .216E-02  .254E-02  .296E-02  .304E-02  .270E-02  .236E-02  .181E-02  .145E-02
  .137E-02  .116E-02  .111E-02  .125E-02  .995E-03  .749E-03  .579E-03  .541E-03
  .437E-03  .398E-03  .343E-03  .331E-03  .261E-03  .228E-03  .184E-03  .155E-03
  .106E-03  .836E-04  .765E-04  .617E-04  .560E-04  .506E-04  .459E-04  .418E-04
  .383E-04  .355E-04  .330E-04  .306E-04  .261E-04  .226E-04  .000E+00  .000E+00
  .000E+00  .000E+00  .000E+00  .000E+00  .000E+00  .000E+00  .000E+00  .000E+00
  .000E+00  .000E+00  .000E+00  .000E+00  .000E+00  .000E+00  .000E+00  .000E+00
  .000E+00  .000E+00  .000E+00  .000E+00
  .614E-02  .649E-02  .685E-02  .717E-02  .744E-02  .769E-02  .950E-02  .112E-01
  .115E-01  .135E-01  .158E-01  .165E-01  .214E-01  .231E-01  .243E-01  .273E-01
  .353E-01  .511E-01  .475E-01  .421E-01  .541E-01  .622E-01  .700E-01  .658E-01
  .722E-01  .901E-01  .942E-01  .955E-01  .102E+00  .961E-01  .873E-01  .102E+00
  .980E-01  .863E-01  .798E-01  .747E-01  .723E-01  .783E-01  .792E-01  .719E-01
  .655E-01  .849E-01  .109E+00  .121E+00  .116E+00  .108E+00  .887E-01  .753E-01
  .754E-01  .672E-01  .672E-01  .838E-01  .728E-01  .594E-01  .492E-01  .493E-01
  .425E-01  .411E-01  .376E-01  .383E-01  .313E-01  .307E-01  .270E-01  .245E-01
  .181E-01  .153E-01  .136E-01  .116E-01  .108E-01  .102E-01  .960E-02  .904E-02
  .855E-02  .815E-02  .777E-02  .739E-02  .668E-02  .608E-02  .000E+00  .000E+00
  .000E+00  .000E+00  .000E+00  .000E+00  .000E+00  .000E+00  .000E+00  .000E+00
  .000E+00  .000E+00  .000E+00  .000E+00  .000E+00  .000E+00  .000E+00  .000E+00
  .000E+00  .000E+00  .000E+00  .000E+00
  .420E+02  .420E+02  .420E+02  .420E+02  .420E+02  .420E+02  .420E+02  .420E+02
  .420E+02  .420E+02  .420E+02  .420E+02  .420E+02  .420E+02  .420E+02  .420E+02
  .434E+02  .434E+02  .426E+02  .417E+02  .421E+02  .422E+02  .426E+02  .427E+02
  .427E+02  .432E+02  .436E+02  .493E+02  .411E+02  .428E+02  .525E+02  .480E+02
  .483E+02  .484E+02  .484E+02  .421E+02  .428E+02  .433E+02  .436E+02  .436E+02
  .408E+02  .412E+02  .412E+02  .412E+02  .420E+02  .420E+02  .413E+02  .410E+02
  .560E+02  .561E+02  .527E+02  .558E+02  .705E+02  .706E+02  .499E+02  .658E+02
  .701E+02  .702E+02  .659E+02  .652E+02  .535E+02  .111E+03  .112E+03  .932E+02
  .899E+02  .778E+02  .477E+02  .130E+03  .407E+02  .407E+02  .407E+02  .407E+02
  .407E+02  .407E+02  .407E+02  .407E+02  .407E+02  .407E+02  .000E+00  .000E+00
  .000E+00  .000E+00  .000E+00  .000E+00  .000E+00  .000E+00  .000E+00  .000E+00
  .000E+00  .000E+00  .000E+00  .000E+00  .000E+00  .000E+00  .000E+00  .000E+00
  .000E+00  .000E+00  .000E+00  .000E+00
  .421E+02  .421E+02  .421E+02  .421E+02  .421E+02  .421E+02  .420E+02  .459E+02
  .431E+02  .428E+02  .428E+02  .431E+02  .431E+02  .431E+02  .425E+02  .421E+02
  .434E+02  .434E+02  .434E+02  .416E+02  .421E+02  .421E+02  .426E+02  .427E+02
  .429E+02  .432E+02  .437E+02  .493E+02  .421E+02  .428E+02  .525E+02  .480E+02
  .487E+02  .486E+02  .483E+02  .421E+02  .421E+02  .427E+02  .428E+02  .428E+02
  .413E+02  .413E+02  .413E+02  .421E+02  .421E+02  .411E+02  .411E+02  .412E+02
  .412E+02  .559E+02  .505E+02  .555E+02  .707E+02  .703E+02  .508E+02  .503E+02
  .704E+02  .704E+02  .444E+02  .444E+02  .470E+02  .523E+02  .409E+02  .409E+02
  .409E+02  .409E+02  .409E+02  .409E+02  .409E+02  .409E+02  .409E+02  .409E+02
  .409E+02  .409E+02  .409E+02  .409E+02  .409E+02  .409E+02  .000E+00  .000E+00
  .000E+00  .000E+00  .000E+00  .000E+00  .000E+00  .000E+00  .000E+00  .000E+00
  .000E+00  .000E+00  .000E+00  .000E+00  .000E+00  .000E+00  .000E+00  .000E+00
  .000E+00  .000E+00  .000E+00  .000E+00
  .420E+02  .420E+02  .420E+02  .420E+02  .420E+02  .420E+02  .420E+02  .420E+02
  .420E+02  .420E+02  .420E+02  .420E+02  .420E+02  .420E+02  .420E+02  .420E+02
  .434E+02  .434E+02  .435E+02  .417E+02  .421E+02  .422E+02  .426E+02  .427E+02
  .427E+02  .431E+02  .436E+02  .493E+02  .411E+02  .428E+02  .525E+02  .479E+02
  .480E+02  .484E+02  .484E+02  .421E+02  .428E+02  .433E+02  .435E+02  .436E+02
  .408E+02  .411E+02  .412E+02  .412E+02  .420E+02  .420E+02  .413E+02  .410E+02
  .560E+02  .561E+02  .527E+02  .557E+02  .705E+02  .706E+02  .499E+02  .658E+02
  .701E+02  .701E+02  .658E+02  .652E+02  .535E+02  .111E+03  .112E+03  .932E+02
  .898E+02  .778E+02  .477E+02  .406E+02  .406E+02  .406E+02  .406E+02  .406E+02
  .406E+02  .406E+02  .406E+02  .406E+02  .406E+02  .406E+02  .000E+00  .000E+00
  .000E+00  .000E+00  .000E+00  .000E+00  .000E+00  .000E+00  .000E+00  .000E+00
  .000E+00  .000E+00  .000E+00  .000E+00  .000E+00  .000E+00  .000E+00  .000E+00
  .000E+00  .000E+00  .000E+00  .000E+00
/&   ----------  End of spectral data for channel  1  ----------
Response and Fourier amplitude spectra (78 periods,  .04 -  6.0 sec)   for      
Corrected accelerogram   38695658.CI.CHI.--.HN      Chan  2: 360 Deg     from   
Uncorrected Accelerogram Data             Processed: 09/19/20, CGS  cichi--j    
Rcrd of Fri Sep 18, 2020 23:38:39.0 PDT               (Avol1 v2.0, 4/18 CSMIP)  
                                        (Origin:  To be determined)             
38695658.CI.CHI.--.HN                Start time:  9/19/20, 06:38:39.0 UTC (GPS) 
Station Id. CHI     34.182N, 119.222W    ObsMMS  s/n 1922  (3 Chns of  6 at Sta)
Channel Island                           SCSN   Data: Acceleration              
Chan  2: 360 Deg                                                                
Rcrd of Fri Sep 18, 2020 23:38:39.0 PDT    Fri Sep 18, 2020 23:38:39.0 PDT      
Hypocenter:  To be determined.               ML:  To be determined.             
Instr Period =  .0050 sec,  Damping =  .707,  Sensitivity = 4.97 v/g  (Nominal) 
                        Record Length =301.000 sec.                             
                                     Uncor Max  =  -.002 g, at   42.580 sec.    
RMS accel of (uncor) record  =        .   Chn. metadata effective date:         
Accelerogram bandpass filtered with 3 dB pts at   .30 and 23.00 cyc/sec         
                 instrument- and base-line correcte                             
                                                                                
                                                                                
                                                                                
                                                                                
                                                                                
Rcrd of Fri Sep 18, 2020 23:38:39.0 PDT    Fri Sep 18, 2020 23:38:39.0 PDT      
                                                                                
38695658.CI.CHI.--.HN     Channel Island    Chan  2: 360 Deg                    
                                                                                
38695658.CI.CHI.--.HN     Channel Island    Chan  2: 360 Deg                    
                                                                                
Units for spectra are inches and sec, except Sa is in fraction of g.            
                                                                                
    2  100    2    6    6  100 -999    3    1    0   15 1922    0    0   41    0
    6   38   39   10  263    9   19 2020   10    3  36035963   39   14   74 -999
35963 -999  100    6 -999 -999 -999 -999 -999 -999 -999 -999 -999 -999 -999 -999
 -999 -999 -999 -99915050    2 -999    0 -999   20 -999 -999    3    1 -99915050
    315050    4   78    1    3    5    0    0 -999    0 -999 -999    6 -999    2
    2    2    4 -999 -999 -999 -999 -999 -999 -999 -999    1 -999 -999 -999  111
    1    1 -999 -999
      .005      .707   359.630      .000     1.000  4973.519     -.002    42.580
   200.000     2.384      .479  -999.000    10.000  -999.000     4.000  -999.000
    20.000   -29.630      .000  -999.000  -999.000  -999.000  -999.000      .000
      .001      .001     2.000    15.000    34.182  -119.222      .010      .007
      .677     -.001      .003     3.000  -999.000  -999.000  -999.000  -999.000
     1.000  -999.000  -999.000  -999.000  -999.000  -999.000  -999.000   120.000
     -.900     2.000     6.800   980.665      .020   301.000    31.831      .000
  -999.000    23.000  -999.000   301.000      .020      .300  -999.000  -999.000
    42.580    -1.771    49.280     -.109    40.600     -.013      .000      .300
    23.000      .020      .020      .000      .020      .014  -999.000  -999.000
      .007      .110      .006      .005      .001      .000  -999.000  -999.000
  -999.000  -999.000  -999.000  -999.000  -999.000  -999.000  -999.000  -999.000
  -999.000  -999.000  -999.000  -999.000
      .050
      .040      .042      .044      .046      .048      .050      .055      .060
      .065      .070      .075      .080      .085      .090      .095      .100
      .110      .120      .130      .140      .150      .160      .170      .180
      .190      .200      .220      .240      .260      .280      .300      .320
      .340      .360      .380      .400      .420      .440      .460      .480
      .500      .550      .600      .650      .700      .750      .800      .850
      .900      .950     1.000     1.100     1.200     1.300     1.400     1.500
     1.600     1.700     1.800     1.900     2.000     2.200     2.400     2.600
     2.800     3.000     3.200     3.400     3.600     3.800     4.000     4.200
     4.400     4.600     4.800     5.000     5.500     6.000      .000      .000
      .000      .000      .000      .000      .000      .000      .000      .000
      .000      .000      .000      .000      .000      .000      .000      .000
      .000      .000      .000      .000
Fourier amplitude spectra in in/sec.
  .000E+00  .000E+00  .000E+00  .000E+00  .000E+00  .000E+00  .000E+00  .000E+00
  .000E+00  .000E+00  .000E+00  .000E+00  .000E+00  .000E+00  .000E+00  .000E+00
  .000E+00  .000E+00  .000E+00  .000E+00  .000E+00  .000E+00  .000E+00  .000E+00
  .000E+00  .000E+00  .000E+00  .000E+00  .000E+00  .000E+00  .000E+00  .000E+00
  .000E+00  .000E+00  .000E+00  .000E+00  .000E+00  .000E+00  .000E+00  .000E+00
  .000E+00  .000E+00  .000E+00  .000E+00  .000E+00  .000E+00  .000E+00  .000E+00
  .000E+00  .000E+00  .000E+00  .000E+00  .000E+00  .000E+00  .000E+00  .000E+00
  .000E+00  .000E+00  .000E+00  .000E+00  .000E+00  .000E+00  .000E+00  .000E+00
  .000E+00  .000E+00  .000E+00  .000E+00  .000E+00  .000E+00  .000E+00  .000E+00
  .000E+00  .000E+00  .000E+00  .000E+00  .000E+00  .000E+00  .000E+00  .000E+00
  .000E+00  .000E+00  .000E+00  .000E+00  .000E+00  .000E+00  .000E+00  .000E+00
  .000E+00  .000E+00  .000E+00  .000E+00  .000E+00  .000E+00  .000E+00  .000E+00
  .000E+00  .000E+00  .000E+00  .000E+00
Damping =  .05. Data of Sd,Sv,Sa,Pssv,ttSd,ttSv,ttSa :
  .294E-04  .330E-04  .371E-04  .424E-04  .472E-04  .545E-04  .726E-04  .914E-04
  .113E-03  .129E-03  .163E-03  .203E-03  .270E-03  .338E-03  .415E-03  .501E-03
  .822E-03  .921E-03  .949E-03  .112E-02  .129E-02  .160E-02  .170E-02  .186E-02
  .218E-02  .243E-02  .319E-02  .330E-02  .395E-02  .404E-02  .432E-02  .491E-02
  .487E-02  .510E-02  .468E-02  .514E-02  .496E-02  .578E-02  .804E-02  .928E-02
