Response and Fourier amplitude spectra (78 periods,  .04 -  6.0 sec)   for      
Corrected accelerogram   38695658.CI.CHN.--.HN      Chan  1:  90 Deg     from   
Uncorrected Accelerogram Data             Processed: 09/19/20, CGS  cichn--z    
Rcrd of Fri Sep 18, 2020 23:38:29.0 PDT               (Avol1 v2.0, 4/18 CSMIP)  
                                        (Origin:  To be determined)             
38695658.CI.CHN.--.HN                Start time:  9/19/20, 06:38:29.0 UTC (GPS) 
Station Id. CHN     33.999N, 117.680W    Q330    s/n 4101  (3 Chns of  3 at Sta)
Chino, Benson Ave and Schaefer Ave       SCSN   Data: Acceleration              
Chan  1:  90 Deg                                                                
Rcrd of Fri Sep 18, 2020 23:38:29.0 PDT    Fri Sep 18, 2020 23:38:29.0 PDT      
Hypocenter:  To be determined.               ML:  To be determined.             
Instr Period =  .0050 sec,  Damping =  .707,  Sensitivity = 5.00 v/g  (Nominal) 
                        Record Length =301.000 sec.                             
                                     Uncor Max  =   .008 g, at   30.820 sec.    
RMS accel of (uncor) record  =        .   Chn. metadata effective date:         
Accelerogram bandpass filtered with 3 dB pts at   .30 and 23.00 cyc/sec         
                 instrument- and base-line correcte                             
                                                                                
                                                                                
                                                                                
                                                                                
                                                                                
Rcrd of Fri Sep 18, 2020 23:38:29.0 PDT    Fri Sep 18, 2020 23:38:29.0 PDT      
                                                                                
38695658.CI.CHN.--.HN     Chino, Benson Ave and Schaefer Ave    Chan  1:  90 Deg
                                                                                
38695658.CI.CHN.--.HN     Chino, Benson Ave and Schaefer Ave    Chan  1:  90 Deg
                                                                                
Units for spectra are inches and sec, except Sa is in fraction of g.            
                                                                                
    1  100    1    3    3  100 -999    3    1    0  605 4101    050600   41    0
    6   38   29    8  263    9   19 2020   10    3   9035658   39   34   74 -999
35658 -999  100    6 -999 -999 -999 -999 -999 -999 -999 -999 -999 -999 -999 -999
 -999 -999 -999 -99915050    2 -999    0 -999   20 -999 -999    3    1 -99915050
    315050    4   78    1    3    5    0    0 -999    0 -999 -999    6 -999    2
    2    2    4 -999 -999 -999 -999 -999 -999 -999 -999    1 -999 -999 -999  111
    1    1 -999 -999
      .005      .707   356.580      .000     1.000  4998.452      .008    30.820
   200.000     2.384      .477  -999.000    10.000  -999.000     4.000  -999.000
    20.000   -24.071      .000  -999.000  -999.000  -999.000  -999.000      .000
      .001      .001     2.000    15.000    33.999  -117.680      .006      .008
     1.296      .000      .002   208.000  -999.000  -999.000  -999.000  -999.000
     1.000  -999.000    -8.000  -999.000  -999.000  -999.000  -999.000   120.000
     -.900     2.000     6.800   980.665      .020   301.000    31.831      .000
  -999.000    23.000  -999.000   301.000      .020      .300  -999.000  -999.000
    30.820     7.892    30.400     -.345    32.200     -.019      .000      .300
    23.000      .020      .020      .000      .020      .013  -999.000  -999.000
      .037      .130      .015      .014      .001      .000  -999.000  -999.000
  -999.000  -999.000  -999.000  -999.000  -999.000  -999.000  -999.000  -999.000
  -999.000  -999.000  -999.000  -999.000
      .050
      .040      .042      .044      .046      .048      .050      .055      .060
      .065      .070      .075      .080      .085      .090      .095      .100
      .110      .120      .130      .140      .150      .160      .170      .180
      .190      .200      .220      .240      .260      .280      .300      .320
      .340      .360      .380      .400      .420      .440      .460      .480
      .500      .550      .600      .650      .700      .750      .800      .850
      .900      .950     1.000     1.100     1.200     1.300     1.400     1.500
     1.600     1.700     1.800     1.900     2.000     2.200     2.400     2.600
     2.800     3.000     3.200     3.400     3.600     3.800     4.000     4.200
     4.400     4.600     4.800     5.000     5.500     6.000      .000      .000
      .000      .000      .000      .000      .000      .000      .000      .000
      .000      .000      .000      .000      .000      .000      .000      .000
      .000      .000      .000      .000
Fourier amplitude spectra in in/sec.
  .000E+00  .000E+00  .000E+00  .000E+00  .000E+00  .000E+00  .000E+00  .000E+00
  .000E+00  .000E+00  .000E+00  .000E+00  .000E+00  .000E+00  .000E+00  .000E+00
  .000E+00  .000E+00  .000E+00  .000E+00  .000E+00  .000E+00  .000E+00  .000E+00
  .000E+00  .000E+00  .000E+00  .000E+00  .000E+00  .000E+00  .000E+00  .000E+00
  .000E+00  .000E+00  .000E+00  .000E+00  .000E+00  .000E+00  .000E+00  .000E+00
  .000E+00  .000E+00  .000E+00  .000E+00  .000E+00  .000E+00  .000E+00  .000E+00
  .000E+00  .000E+00  .000E+00  .000E+00  .000E+00  .000E+00  .000E+00  .000E+00
  .000E+00  .000E+00  .000E+00  .000E+00  .000E+00  .000E+00  .000E+00  .000E+00
  .000E+00  .000E+00  .000E+00  .000E+00  .000E+00  .000E+00  .000E+00  .000E+00
  .000E+00  .000E+00  .000E+00  .000E+00  .000E+00  .000E+00  .000E+00  .000E+00
  .000E+00  .000E+00  .000E+00  .000E+00  .000E+00  .000E+00  .000E+00  .000E+00
  .000E+00  .000E+00  .000E+00  .000E+00  .000E+00  .000E+00  .000E+00  .000E+00
  .000E+00  .000E+00  .000E+00  .000E+00
Damping =  .05. Data of Sd,Sv,Sa,Pssv,ttSd,ttSv,ttSa :
  .130E-03  .144E-03  .161E-03  .179E-03  .198E-03  .220E-03  .288E-03  .331E-03
  .444E-03  .619E-03  .734E-03  .866E-03  .107E-02  .137E-02  .184E-02  .207E-02
  .231E-02  .428E-02  .612E-02  .696E-02  .599E-02  .444E-02  .486E-02  .498E-02
  .535E-02  .581E-02  .692E-02  .801E-02  .889E-02  .106E-01  .121E-01  .154E-01
  .200E-01  .215E-01  .213E-01  .184E-01  .177E-01  .157E-01  .141E-01  .135E-01
  .142E-01  .196E-01  .156E-01  .147E-01  .140E-01  .121E-01  .117E-01  .116E-01
  .110E-01  .115E-01  .109E-01  .106E-01  .121E-01  .170E-01  .224E-01  .234E-01
  .210E-01  .163E-01  .148E-01  .145E-01  .140E-01  .126E-01  .111E-01  .985E-02
  .909E-02  .916E-02  .846E-02  .833E-02  .823E-02  .816E-02  .807E-02  .802E-02
  .799E-02  .793E-02  .786E-02  .782E-02  .778E-02  .772E-02  .000E+00  .000E+00
  .000E+00  .000E+00  .000E+00  .000E+00  .000E+00  .000E+00  .000E+00  .000E+00
  .000E+00  .000E+00  .000E+00  .000E+00  .000E+00  .000E+00  .000E+00  .000E+00
  .000E+00  .000E+00  .000E+00  .000E+00
  .685E-02  .759E-02  .840E-02  .922E-02  .102E-01  .117E-01  .145E-01  .171E-01
  .269E-01  .342E-01  .379E-01  .421E-01  .544E-01  .646E-01  .874E-01  .987E-01
  .112E+00  .195E+00  .281E+00  .305E+00  .262E+00  .180E+00  .167E+00  .167E+00
  .186E+00  .189E+00  .178E+00  .208E+00  .221E+00  .233E+00  .251E+00  .297E+00
  .372E+00  .368E+00  .377E+00  .322E+00  .296E+00  .243E+00  .206E+00  .186E+00
  .194E+00  .229E+00  .201E+00  .165E+00  .160E+00  .159E+00  .147E+00  .142E+00
  .137E+00  .134E+00  .131E+00  .129E+00  .132E+00  .133E+00  .134E+00  .136E+00
  .138E+00  .139E+00  .140E+00  .139E+00  .139E+00  .138E+00  .138E+00  .137E+00
  .137E+00  .136E+00  .136E+00  .135E+00  .135E+00  .135E+00  .134E+00  .134E+00
  .134E+00  .134E+00  .133E+00  .133E+00  .133E+00  .133E+00  .000E+00  .000E+00
  .000E+00  .000E+00  .000E+00  .000E+00  .000E+00  .000E+00  .000E+00  .000E+00
  .000E+00  .000E+00  .000E+00  .000E+00  .000E+00  .000E+00  .000E+00  .000E+00
  .000E+00  .000E+00  .000E+00  .000E+00
  .828E-02  .838E-02  .852E-02  .868E-02  .878E-02  .897E-02  .975E-02  .938E-02
  .108E-01  .128E-01  .134E-01  .140E-01  .152E-01  .174E-01  .209E-01  .212E-01
  .197E-01  .310E-01  .366E-01  .366E-01  .277E-01  .180E-01  .172E-01  .159E-01
  .153E-01  .153E-01  .145E-01  .145E-01  .133E-01  .141E-01  .139E-01  .155E-01
  .177E-01  .169E-01  .152E-01  .119E-01  .103E-01  .831E-02  .689E-02  .617E-02
  .582E-02  .671E-02  .449E-02  .363E-02  .298E-02  .221E-02  .190E-02  .166E-02
  .140E-02  .132E-02  .114E-02  .937E-03  .867E-03  .104E-02  .119E-02  .107E-02
  .845E-03  .597E-03  .482E-03  .427E-03  .373E-03  .281E-03  .210E-03  .170E-03
  .147E-03  .128E-03  .113E-03  .102E-03  .921E-04  .842E-04  .776E-04  .719E-04
  .668E-04  .625E-04  .587E-04  .554E-04  .489E-04  .439E-04  .000E+00  .000E+00
  .000E+00  .000E+00  .000E+00  .000E+00  .000E+00  .000E+00  .000E+00  .000E+00
  .000E+00  .000E+00  .000E+00  .000E+00  .000E+00  .000E+00  .000E+00  .000E+00
  .000E+00  .000E+00  .000E+00  .000E+00
  .204E-01  .216E-01  .230E-01  .245E-01  .259E-01  .276E-01  .329E-01  .347E-01
  .429E-01  .556E-01  .615E-01  .680E-01  .788E-01  .957E-01  .121E+00  .130E+00
  .132E+00  .224E+00  .296E+00  .312E+00  .251E+00  .174E+00  .180E+00  .174E+00
  .177E+00  .183E+00  .198E+00  .210E+00  .215E+00  .238E+00  .253E+00  .303E+00
  .370E+00  .376E+00  .352E+00  .290E+00  .265E+00  .225E+00  .192E+00  .177E+00
  .179E+00  .224E+00  .164E+00  .142E+00  .126E+00  .101E+00  .922E-01  .855E-01
  .764E-01  .758E-01  .686E-01  .604E-01  .636E-01  .823E-01  .101E+00  .980E-01
  .825E-01  .604E-01  .516E-01  .478E-01  .440E-01  .360E-01  .289E-01  .238E-01
  .204E-01  .192E-01  .166E-01  .154E-01  .144E-01  .135E-01  .127E-01  .120E-01
  .114E-01  .108E-01  .103E-01  .982E-02  .888E-02  .809E-02  .000E+00  .000E+00
  .000E+00  .000E+00  .000E+00  .000E+00  .000E+00  .000E+00  .000E+00  .000E+00
  .000E+00  .000E+00  .000E+00  .000E+00  .000E+00  .000E+00  .000E+00  .000E+00
  .000E+00  .000E+00  .000E+00  .000E+00
  .308E+02  .308E+02  .308E+02  .308E+02  .308E+02  .308E+02  .308E+02  .308E+02
  .308E+02  .308E+02  .308E+02  .308E+02  .308E+02  .308E+02  .308E+02  .308E+02
  .306E+02  .308E+02  .308E+02  .309E+02  .309E+02  .305E+02  .305E+02  .305E+02
  .305E+02  .305E+02  .305E+02  .305E+02  .307E+02  .307E+02  .336E+02  .314E+02
  .326E+02  .314E+02  .315E+02  .313E+02  .341E+02  .341E+02  .308E+02  .308E+02
  .342E+02  .340E+02  .335E+02  .313E+02  .313E+02  .314E+02  .311E+02  .312E+02
  .312E+02  .335E+02  .335E+02  .304E+02  .344E+02  .352E+02  .354E+02  .341E+02
  .342E+02  .342E+02  .322E+02  .322E+02  .322E+02  .322E+02  .322E+02  .322E+02
  .322E+02  .469E+02  .322E+02  .322E+02  .322E+02  .322E+02  .322E+02  .322E+02
  .322E+02  .322E+02  .322E+02  .322E+02  .322E+02  .322E+02  .000E+00  .000E+00
  .000E+00  .000E+00  .000E+00  .000E+00  .000E+00  .000E+00  .000E+00  .000E+00
  .000E+00  .000E+00  .000E+00  .000E+00  .000E+00  .000E+00  .000E+00  .000E+00
  .000E+00  .000E+00  .000E+00  .000E+00
  .308E+02  .308E+02  .308E+02  .308E+02  .308E+02  .308E+02  .311E+02  .311E+02
  .308E+02  .308E+02  .310E+02  .310E+02  .316E+02  .308E+02  .308E+02  .309E+02
  .306E+02  .309E+02  .309E+02  .309E+02  .309E+02  .309E+02  .305E+02  .309E+02
  .309E+02  .309E+02  .360E+02  .307E+02  .307E+02  .307E+02  .337E+02  .315E+02
  .325E+02  .314E+02  .314E+02  .314E+02  .309E+02  .340E+02  .309E+02  .324E+02
  .340E+02  .336E+02  .334E+02  .321E+02  .312E+02  .313E+02  .313E+02  .306E+02
  .306E+02  .306E+02  .306E+02  .304E+02  .304E+02  .304E+02  .304E+02  .304E+02
  .304E+02  .304E+02  .304E+02  .304E+02  .304E+02  .304E+02  .304E+02  .304E+02
  .304E+02  .304E+02  .304E+02  .304E+02  .304E+02  .304E+02  .304E+02  .304E+02
  .304E+02  .304E+02  .304E+02  .304E+02  .304E+02  .304E+02  .000E+00  .000E+00
  .000E+00  .000E+00  .000E+00  .000E+00  .000E+00  .000E+00  .000E+00  .000E+00
  .000E+00  .000E+00  .000E+00  .000E+00  .000E+00  .000E+00  .000E+00  .000E+00
  .000E+00  .000E+00  .000E+00  .000E+00
  .308E+02  .308E+02  .308E+02  .308E+02  .308E+02  .308E+02  .308E+02  .308E+02
  .308E+02  .308E+02  .308E+02  .308E+02  .308E+02  .308E+02  .308E+02  .308E+02
  .306E+02  .308E+02  .308E+02  .309E+02  .309E+02  .305E+02  .305E+02  .305E+02
  .305E+02  .305E+02  .305E+02  .305E+02  .307E+02  .307E+02  .336E+02  .314E+02
  .326E+02  .314E+02  .315E+02  .313E+02  .341E+02  .341E+02  .308E+02  .308E+02
  .342E+02  .340E+02  .335E+02  .313E+02  .313E+02  .314E+02  .311E+02  .311E+02
  .312E+02  .335E+02  .335E+02  .304E+02  .344E+02  .352E+02  .340E+02  .340E+02
  .341E+02  .334E+02  .321E+02  .321E+02  .321E+02  .321E+02  .321E+02  .304E+02
  .304E+02  .304E+02  .304E+02  .304E+02  .304E+02  .304E+02  .304E+02  .304E+02
  .304E+02  .304E+02  .304E+02  .304E+02  .304E+02  .304E+02  .000E+00  .000E+00
  .000E+00  .000E+00  .000E+00  .000E+00  .000E+00  .000E+00  .000E+00  .000E+00
  .000E+00  .000E+00  .000E+00  .000E+00  .000E+00  .000E+00  .000E+00  .000E+00
  .000E+00  .000E+00  .000E+00  .000E+00
/&   ----------  End of spectral data for channel  1  ----------
Response and Fourier amplitude spectra (78 periods,  .04 -  6.0 sec)   for      
Corrected accelerogram   38695658.CI.CHN.--.HN      Chan  2: 360 Deg     from   
Uncorrected Accelerogram Data             Processed: 09/19/20, CGS  cichn--z    
Rcrd of Fri Sep 18, 2020 23:38:29.0 PDT               (Avol1 v2.0, 4/18 CSMIP)  
                                        (Origin:  To be determined)             
38695658.CI.CHN.--.HN                Start time:  9/19/20, 06:38:29.0 UTC (GPS) 
Station Id. CHN     33.999N, 117.680W    Q330    s/n 4101  (3 Chns of  3 at Sta)
Chino, Benson Ave and Schaefer Ave       SCSN   Data: Acceleration              
Chan  2: 360 Deg                                                                
Rcrd of Fri Sep 18, 2020 23:38:29.0 PDT    Fri Sep 18, 2020 23:38:29.0 PDT      
Hypocenter:  To be determined.               ML:  To be determined.             
Instr Period =  .0050 sec,  Damping =  .707,  Sensitivity = 4.98 v/g  (Nominal) 
                        Record Length =301.000 sec.                             
                                     Uncor Max  =   .012 g, at   30.660 sec.    
RMS accel of (uncor) record  =        .   Chn. metadata effective date:         
Accelerogram bandpass filtered with 3 dB pts at   .30 and 23.00 cyc/sec         
                 instrument- and base-line correcte                             
                                                                                
                                                                                
                                                                                
                                                                                
                                                                                
Rcrd of Fri Sep 18, 2020 23:38:29.0 PDT    Fri Sep 18, 2020 23:38:29.0 PDT      
                                                                                
38695658.CI.CHN.--.HN     Chino, Benson Ave and Schaefer Ave    Chan  2: 360 Deg
                                                                                
38695658.CI.CHN.--.HN     Chino, Benson Ave and Schaefer Ave    Chan  2: 360 Deg
                                                                                
Units for spectra are inches and sec, except Sa is in fraction of g.            
                                                                                
    2  100    2    3    3  100 -999    3    1    0  605 4101    050600   41    0
    6   38   29    8  263    9   19 2020   10    3  36035621   39   34   74 -999
35621 -999  100    6 -999 -999 -999 -999 -999 -999 -999 -999 -999 -999 -999 -999
 -999 -999 -999 -99915050    2 -999    0 -999   20 -999 -999    3    1 -99915050
    315050    4   78    1    3    5    0    0 -999    0 -999 -999    6 -999    2
    2    2    4 -999 -999 -999 -999 -999 -999 -999 -999    1 -999 -999 -999  111
    1    1 -999 -999
      .005      .707   356.210      .000     1.000  4982.495      .012    30.660
   200.000     2.384      .479  -999.000    10.000  -999.000     4.000  -999.000
    20.000    -9.521      .000  -999.000  -999.000  -999.000  -999.000      .001
      .000     -.001     2.000    15.000    33.999  -117.680      .011      .011
     1.045     -.003      .001   208.000  -999.000  -999.000  -999.000  -999.000
     1.000  -999.000  -999.000  -999.000  -999.000  -999.000  -999.000   120.000
     -.900     2.000     6.800   980.665      .020   301.000    31.831      .000
  -999.000    23.000  -999.000   301.000      .020      .300  -999.000  -999.000
    30.660    11.525    31.160     -.343    31.280     -.019      .000      .300
    23.000      .020      .020      .000      .020      .013  -999.000  -999.000
      .047      .130      .015      .031      .001      .000  -999.000  -999.000
  -999.000  -999.000  -999.000  -999.000  -999.000  -999.000  -999.000  -999.000
  -999.000  -999.000  -999.000  -999.000
      .050
      .040      .042      .044      .046      .048      .050      .055      .060
      .065      .070      .075      .080      .085      .090      .095      .100
      .110      .120      .130      .140      .150      .160      .170      .180
      .190      .200      .220      .240      .260      .280      .300      .320
      .340      .360      .380      .400      .420      .440      .460      .480
      .500      .550      .600      .650      .700      .750      .800      .850
      .900      .950     1.000     1.100     1.200     1.300     1.400     1.500
     1.600     1.700     1.800     1.900     2.000     2.200     2.400     2.600
     2.800     3.000     3.200     3.400     3.600     3.800     4.000     4.200
     4.400     4.600     4.800     5.000     5.500     6.000      .000      .000
      .000      .000      .000      .000      .000      .000      .000      .000
      .000      .000      .000      .000      .000      .000      .000      .000
      .000      .000      .000      .000
Fourier amplitude spectra in in/sec.
  .000E+00  .000E+00  .000E+00  .000E+00  .000E+00  .000E+00  .000E+00  .000E+00
  .000E+00  .000E+00  .000E+00  .000E+00  .000E+00  .000E+00  .000E+00  .000E+00
  .000E+00  .000E+00  .000E+00  .000E+00  .000E+00  .000E+00  .000E+00  .000E+00
  .000E+00  .000E+00  .000E+00  .000E+00  .000E+00  .000E+00  .000E+00  .000E+00
  .000E+00  .000E+00  .000E+00  .000E+00  .000E+00  .000E+00  .000E+00  .000E+00
  .000E+00  .000E+00  .000E+00  .000E+00  .000E+00  .000E+00  .000E+00  .000E+00
  .000E+00  .000E+00  .000E+00  .000E+00  .000E+00  .000E+00  .000E+00  .000E+00
  .000E+00  .000E+00  .000E+00  .000E+00  .000E+00  .000E+00  .000E+00  .000E+00
  .000E+00  .000E+00  .000E+00  .000E+00  .000E+00  .000E+00  .000E+00  .000E+00
  .000E+00  .000E+00  .000E+00  .000E+00  .000E+00  .000E+00  .000E+00  .000E+00
  .000E+00  .000E+00  .000E+00  .000E+00  .000E+00  .000E+00  .000E+00  .000E+00
  .000E+00  .000E+00  .000E+00  .000E+00  .000E+00  .000E+00  .000E+00  .000E+00
  .000E+00  .000E+00  .000E+00  .000E+00
Damping =  .05. Data of Sd,Sv,Sa,Pssv,ttSd,ttSv,ttSa :
  .185E-03  .208E-03  .232E-03  .261E-03  .292E-03  .327E-03  .428E-03  .546E-03
  .642E-03  .710E-03  .772E-03  .968E-03  .116E-02  .168E-02  .224E-02  .296E-02
  .435E-02  .597E-02  .774E-02  .742E-02  .628E-02  .543E-02  .446E-02  .474E-02
  .508E-02  .530E-02  .740E-02  .103E-01  .162E-01  .232E-01  .288E-01  .293E-01
  .271E-01  .237E-01  .192E-01  .149E-01  .138E-01  .149E-01  .171E-01  .180E-01
