Response and Fourier amplitude spectra (78 periods,  .04 -  6.0 sec)   for      
Corrected accelerogram   38695658.CI.CIA.--.HN      Chan  1:  90 Deg     from   
Uncorrected Accelerogram Data             Processed: 09/19/20, CGS  cicia--f    
Rcrd of Fri Sep 18, 2020 23:38:34.0 PDT               (Avol1 v2.0, 4/18 CSMIP)  
                                        (Origin:  To be determined)             
38695658.CI.CIA.--.HN                Start time:  9/19/20, 06:38:34.0 UTC (GPS) 
Station Id. CIA     33.402N, 118.415W    ObsMMS  s/n 4190  (3 Chns of  3 at Sta)
Near El Rancho Escondido Rd.             SCSN   Data: Acceleration              
Chan  1:  90 Deg                                                                
Rcrd of Fri Sep 18, 2020 23:38:34.0 PDT    Fri Sep 18, 2020 23:38:34.0 PDT      
Hypocenter:  To be determined.               ML:  To be determined.             
Instr Period =  .0050 sec,  Damping =  .707,  Sensitivity = 4.99 v/g  (Nominal) 
                        Record Length =301.000 sec.                             
                                     Uncor Max  =   .008 g, at   36.860 sec.    
RMS accel of (uncor) record  =        .   Chn. metadata effective date:         
Accelerogram bandpass filtered with 3 dB pts at   .30 and 23.00 cyc/sec         
                 instrument- and base-line correcte                             
                                                                                
                                                                                
                                                                                
                                                                                
                                                                                
Rcrd of Fri Sep 18, 2020 23:38:34.0 PDT    Fri Sep 18, 2020 23:38:34.0 PDT      
                                                                                
38695658.CI.CIA.--.HN     Near El Rancho Escondido Rd.    Chan  1:  90 Deg      
                                                                                
38695658.CI.CIA.--.HN     Near El Rancho Escondido Rd.    Chan  1:  90 Deg      
                                                                                
Units for spectra are inches and sec, except Sa is in fraction of g.            
                                                                                
    1  100    1    3    3  100 -999    3    1    0   15 4190    050534   41    0
    6   38   34    8  263    9   19 2020   10    3   9036352   39   28   74 -999
36352 -999  100    6 -999 -999 -999 -999 -999 -999 -999 -999 -999 -999 -999 -999
 -999 -999 -999 -99915050    2 -999    0 -999   20 -999 -999    3    1 -99915050
    315050    4   78    1    3    5    0    0 -999    0 -999 -999    6 -999    2
    2    2    4 -999 -999 -999 -999 -999 -999 -999 -999    1 -999 -999 -999  111
    1    1 -999 -999
      .005      .707   363.520      .000     1.000  4994.462      .008    36.860
   200.000     2.384      .477  -999.000    10.000  -999.000     4.000  -999.000
    20.000     5.865      .000  -999.000  -999.000  -999.000  -999.000      .000
      .000     -.001     2.000    15.000    33.402  -118.415      .001      .001
      .993     -.001     -.001   477.000  -999.000  -999.000  -999.000  -999.000
     1.000  -999.000    -8.000  -999.000  -999.000  -999.000  -999.000   120.000
     -.900     2.000     6.800   980.665      .020   301.000    31.831      .000
  -999.000    23.000  -999.000   301.000      .020      .300  -999.000  -999.000
    36.860     7.754    36.980     -.156    36.300      .009      .000      .300
    23.000      .020      .020      .000      .020      .004  -999.000  -999.000
      .028      .080      .011      .007      .001      .000  -999.000  -999.000
  -999.000  -999.000  -999.000  -999.000  -999.000  -999.000  -999.000  -999.000
  -999.000  -999.000  -999.000  -999.000
      .050
      .040      .042      .044      .046      .048      .050      .055      .060
      .065      .070      .075      .080      .085      .090      .095      .100
      .110      .120      .130      .140      .150      .160      .170      .180
      .190      .200      .220      .240      .260      .280      .300      .320
      .340      .360      .380      .400      .420      .440      .460      .480
      .500      .550      .600      .650      .700      .750      .800      .850
      .900      .950     1.000     1.100     1.200     1.300     1.400     1.500
     1.600     1.700     1.800     1.900     2.000     2.200     2.400     2.600
     2.800     3.000     3.200     3.400     3.600     3.800     4.000     4.200
     4.400     4.600     4.800     5.000     5.500     6.000      .000      .000
      .000      .000      .000      .000      .000      .000      .000      .000
      .000      .000      .000      .000      .000      .000      .000      .000
      .000      .000      .000      .000
Fourier amplitude spectra in in/sec.
  .000E+00  .000E+00  .000E+00  .000E+00  .000E+00  .000E+00  .000E+00  .000E+00
  .000E+00  .000E+00  .000E+00  .000E+00  .000E+00  .000E+00  .000E+00  .000E+00
  .000E+00  .000E+00  .000E+00  .000E+00  .000E+00  .000E+00  .000E+00  .000E+00
  .000E+00  .000E+00  .000E+00  .000E+00  .000E+00  .000E+00  .000E+00  .000E+00
  .000E+00  .000E+00  .000E+00  .000E+00  .000E+00  .000E+00  .000E+00  .000E+00
  .000E+00  .000E+00  .000E+00  .000E+00  .000E+00  .000E+00  .000E+00  .000E+00
  .000E+00  .000E+00  .000E+00  .000E+00  .000E+00  .000E+00  .000E+00  .000E+00
  .000E+00  .000E+00  .000E+00  .000E+00  .000E+00  .000E+00  .000E+00  .000E+00
  .000E+00  .000E+00  .000E+00  .000E+00  .000E+00  .000E+00  .000E+00  .000E+00
  .000E+00  .000E+00  .000E+00  .000E+00  .000E+00  .000E+00  .000E+00  .000E+00
  .000E+00  .000E+00  .000E+00  .000E+00  .000E+00  .000E+00  .000E+00  .000E+00
  .000E+00  .000E+00  .000E+00  .000E+00  .000E+00  .000E+00  .000E+00  .000E+00
  .000E+00  .000E+00  .000E+00  .000E+00
Damping =  .05. Data of Sd,Sv,Sa,Pssv,ttSd,ttSv,ttSa :
  .127E-03  .146E-03  .174E-03  .225E-03  .293E-03  .370E-03  .529E-03  .647E-03
  .670E-03  .793E-03  .127E-02  .172E-02  .191E-02  .179E-02  .179E-02  .211E-02
  .175E-02  .230E-02  .301E-02  .361E-02  .409E-02  .505E-02  .381E-02  .419E-02
  .404E-02  .424E-02  .501E-02  .556E-02  .577E-02  .585E-02  .608E-02  .651E-02
  .637E-02  .692E-02  .711E-02  .708E-02  .687E-02  .805E-02  .922E-02  .919E-02
  .851E-02  .789E-02  .622E-02  .538E-02  .480E-02  .427E-02  .429E-02  .471E-02
  .503E-02  .528E-02  .552E-02  .629E-02  .731E-02  .758E-02  .779E-02  .746E-02
  .784E-02  .825E-02  .832E-02  .825E-02  .800E-02  .713E-02  .711E-02  .699E-02
  .648E-02  .601E-02  .571E-02  .546E-02  .519E-02  .491E-02  .464E-02  .441E-02
  .426E-02  .417E-02  .409E-02  .403E-02  .391E-02  .383E-02  .000E+00  .000E+00
  .000E+00  .000E+00  .000E+00  .000E+00  .000E+00  .000E+00  .000E+00  .000E+00
  .000E+00  .000E+00  .000E+00  .000E+00  .000E+00  .000E+00  .000E+00  .000E+00
  .000E+00  .000E+00  .000E+00  .000E+00
  .149E-01  .166E-01  .180E-01  .216E-01  .291E-01  .394E-01  .534E-01  .600E-01
  .598E-01  .584E-01  .935E-01  .127E+00  .131E+00  .114E+00  .113E+00  .125E+00
  .101E+00  .120E+00  .135E+00  .154E+00  .160E+00  .195E+00  .163E+00  .154E+00
  .144E+00  .143E+00  .162E+00  .170E+00  .155E+00  .155E+00  .150E+00  .135E+00
  .129E+00  .114E+00  .119E+00  .126E+00  .126E+00  .126E+00  .122E+00  .147E+00
  .156E+00  .132E+00  .105E+00  .944E-01  .820E-01  .725E-01  .691E-01  .641E-01
  .614E-01  .630E-01  .658E-01  .737E-01  .823E-01  .862E-01  .854E-01  .796E-01
  .741E-01  .692E-01  .659E-01  .656E-01  .677E-01  .696E-01  .702E-01  .698E-01
  .681E-01  .665E-01  .653E-01  .643E-01  .634E-01  .626E-01  .620E-01  .615E-01
  .612E-01  .610E-01  .609E-01  .608E-01  .606E-01  .604E-01  .000E+00  .000E+00
  .000E+00  .000E+00  .000E+00  .000E+00  .000E+00  .000E+00  .000E+00  .000E+00
  .000E+00  .000E+00  .000E+00  .000E+00  .000E+00  .000E+00  .000E+00  .000E+00
  .000E+00  .000E+00  .000E+00  .000E+00
  .805E-02  .852E-02  .920E-02  .109E-01  .131E-01  .150E-01  .179E-01  .183E-01
  .161E-01  .164E-01  .231E-01  .276E-01  .271E-01  .225E-01  .204E-01  .214E-01
  .151E-01  .165E-01  .181E-01  .188E-01  .185E-01  .201E-01  .136E-01  .134E-01
  .114E-01  .110E-01  .105E-01  .977E-02  .896E-02  .756E-02  .704E-02  .671E-02
  .575E-02  .541E-02  .505E-02  .463E-02  .396E-02  .431E-02  .452E-02  .409E-02
  .351E-02  .272E-02  .176E-02  .130E-02  .101E-02  .789E-03  .693E-03  .677E-03
  .647E-03  .612E-03  .583E-03  .543E-03  .540E-03  .468E-03  .421E-03  .361E-03
  .337E-03  .317E-03  .286E-03  .251E-03  .219E-03  .164E-03  .139E-03  .119E-03
  .973E-04  .806E-04  .688E-04  .596E-04  .518E-04  .452E-04  .396E-04  .351E-04
  .316E-04  .289E-04  .266E-04  .246E-04  .208E-04  .190E-04  .000E+00  .000E+00
  .000E+00  .000E+00  .000E+00  .000E+00  .000E+00  .000E+00  .000E+00  .000E+00
  .000E+00  .000E+00  .000E+00  .000E+00  .000E+00  .000E+00  .000E+00  .000E+00
  .000E+00  .000E+00  .000E+00  .000E+00
  .199E-01  .219E-01  .249E-01  .308E-01  .383E-01  .465E-01  .604E-01  .677E-01
  .648E-01  .711E-01  .106E+00  .135E+00  .141E+00  .125E+00  .118E+00  .133E+00
  .100E+00  .121E+00  .145E+00  .162E+00  .171E+00  .198E+00  .141E+00  .146E+00
  .134E+00  .133E+00  .143E+00  .146E+00  .139E+00  .131E+00  .127E+00  .128E+00
  .118E+00  .121E+00  .117E+00  .111E+00  .103E+00  .115E+00  .126E+00  .120E+00
  .107E+00  .902E-01  .651E-01  .520E-01  .431E-01  .358E-01  .337E-01  .348E-01
  .351E-01  .349E-01  .347E-01  .359E-01  .383E-01  .366E-01  .350E-01  .313E-01
  .308E-01  .305E-01  .290E-01  .273E-01  .251E-01  .204E-01  .186E-01  .169E-01
  .145E-01  .126E-01  .112E-01  .101E-01  .906E-02  .812E-02  .728E-02  .660E-02
  .609E-02  .569E-02  .536E-02  .506E-02  .446E-02  .402E-02  .000E+00  .000E+00
  .000E+00  .000E+00  .000E+00  .000E+00  .000E+00  .000E+00  .000E+00  .000E+00
  .000E+00  .000E+00  .000E+00  .000E+00  .000E+00  .000E+00  .000E+00  .000E+00
  .000E+00  .000E+00  .000E+00  .000E+00
  .369E+02  .369E+02  .369E+02  .369E+02  .369E+02  .369E+02  .369E+02  .369E+02
  .369E+02  .370E+02  .371E+02  .372E+02  .372E+02  .373E+02  .376E+02  .377E+02
  .372E+02  .372E+02  .365E+02  .365E+02  .366E+02  .370E+02  .371E+02  .374E+02
  .374E+02  .366E+02  .366E+02  .372E+02  .364E+02  .382E+02  .372E+02  .371E+02
  .363E+02  .364E+02  .364E+02  .364E+02  .364E+02  .371E+02  .371E+02  .372E+02
  .372E+02  .370E+02  .371E+02  .365E+02  .365E+02  .365E+02  .365E+02  .365E+02
  .365E+02  .365E+02  .365E+02  .378E+02  .373E+02  .381E+02  .381E+02  .376E+02
  .370E+02  .370E+02  .371E+02  .371E+02  .371E+02  .363E+02  .363E+02  .363E+02
  .363E+02  .363E+02  .363E+02  .363E+02  .363E+02  .363E+02  .363E+02  .363E+02
  .363E+02  .363E+02  .363E+02  .363E+02  .363E+02  .363E+02  .000E+00  .000E+00
  .000E+00  .000E+00  .000E+00  .000E+00  .000E+00  .000E+00  .000E+00  .000E+00
  .000E+00  .000E+00  .000E+00  .000E+00  .000E+00  .000E+00  .000E+00  .000E+00
  .000E+00  .000E+00  .000E+00  .000E+00
  .369E+02  .369E+02  .369E+02  .368E+02  .369E+02  .369E+02  .369E+02  .369E+02
  .369E+02  .370E+02  .371E+02  .371E+02  .371E+02  .373E+02  .376E+02  .377E+02
  .372E+02  .372E+02  .366E+02  .366E+02  .366E+02  .370E+02  .370E+02  .374E+02
  .373E+02  .368E+02  .365E+02  .365E+02  .365E+02  .364E+02  .364E+02  .364E+02
  .364E+02  .364E+02  .363E+02  .363E+02  .363E+02  .363E+02  .377E+02  .371E+02
  .371E+02  .371E+02  .370E+02  .370E+02  .370E+02  .370E+02  .370E+02  .370E+02
  .365E+02  .365E+02  .365E+02  .371E+02  .371E+02  .371E+02  .371E+02  .371E+02
  .371E+02  .371E+02  .365E+02  .370E+02  .370E+02  .370E+02  .370E+02  .370E+02
  .370E+02  .370E+02  .370E+02  .370E+02  .370E+02  .370E+02  .370E+02  .370E+02
  .370E+02  .370E+02  .370E+02  .370E+02  .370E+02  .370E+02  .000E+00  .000E+00
  .000E+00  .000E+00  .000E+00  .000E+00  .000E+00  .000E+00  .000E+00  .000E+00
  .000E+00  .000E+00  .000E+00  .000E+00  .000E+00  .000E+00  .000E+00  .000E+00
  .000E+00  .000E+00  .000E+00  .000E+00
  .369E+02  .369E+02  .369E+02  .369E+02  .369E+02  .369E+02  .369E+02  .369E+02
  .369E+02  .370E+02  .371E+02  .371E+02  .372E+02  .373E+02  .376E+02  .377E+02
  .372E+02  .372E+02  .365E+02  .365E+02  .366E+02  .370E+02  .371E+02  .374E+02
  .374E+02  .367E+02  .366E+02  .372E+02  .364E+02  .382E+02  .372E+02  .371E+02
  .363E+02  .363E+02  .364E+02  .364E+02  .364E+02  .371E+02  .371E+02  .372E+02
  .372E+02  .370E+02  .370E+02  .365E+02  .365E+02  .365E+02  .365E+02  .365E+02
  .365E+02  .365E+02  .365E+02  .378E+02  .373E+02  .381E+02  .381E+02  .370E+02
  .370E+02  .370E+02  .370E+02  .370E+02  .370E+02  .363E+02  .363E+02  .363E+02
  .363E+02  .363E+02  .363E+02  .363E+02  .363E+02  .363E+02  .363E+02  .363E+02
  .363E+02  .363E+02  .363E+02  .363E+02  .370E+02  .370E+02  .000E+00  .000E+00
  .000E+00  .000E+00  .000E+00  .000E+00  .000E+00  .000E+00  .000E+00  .000E+00
  .000E+00  .000E+00  .000E+00  .000E+00  .000E+00  .000E+00  .000E+00  .000E+00
  .000E+00  .000E+00  .000E+00  .000E+00
/&   ----------  End of spectral data for channel  1  ----------
Response and Fourier amplitude spectra (78 periods,  .04 -  6.0 sec)   for      
Corrected accelerogram   38695658.CI.CIA.--.HN      Chan  2: 360 Deg     from   
Uncorrected Accelerogram Data             Processed: 09/19/20, CGS  cicia--f    
Rcrd of Fri Sep 18, 2020 23:38:34.0 PDT               (Avol1 v2.0, 4/18 CSMIP)  
                                        (Origin:  To be determined)             
38695658.CI.CIA.--.HN                Start time:  9/19/20, 06:38:34.0 UTC (GPS) 
Station Id. CIA     33.402N, 118.415W    ObsMMS  s/n 4190  (3 Chns of  3 at Sta)
Near El Rancho Escondido Rd.             SCSN   Data: Acceleration              
Chan  2: 360 Deg                                                                
Rcrd of Fri Sep 18, 2020 23:38:34.0 PDT    Fri Sep 18, 2020 23:38:34.0 PDT      
Hypocenter:  To be determined.               ML:  To be determined.             
Instr Period =  .0050 sec,  Damping =  .707,  Sensitivity = 4.98 v/g  (Nominal) 
                        Record Length =301.000 sec.                             
                                     Uncor Max  =  -.011 g, at   36.830 sec.    
RMS accel of (uncor) record  =        .   Chn. metadata effective date:         
Accelerogram bandpass filtered with 3 dB pts at   .30 and 23.00 cyc/sec         
                 instrument- and base-line correcte                             
                                                                                
                                                                                
                                                                                
                                                                                
                                                                                
Rcrd of Fri Sep 18, 2020 23:38:34.0 PDT    Fri Sep 18, 2020 23:38:34.0 PDT      
                                                                                
38695658.CI.CIA.--.HN     Near El Rancho Escondido Rd.    Chan  2: 360 Deg      
                                                                                
38695658.CI.CIA.--.HN     Near El Rancho Escondido Rd.    Chan  2: 360 Deg      
                                                                                
Units for spectra are inches and sec, except Sa is in fraction of g.            
                                                                                
    2  100    2    3    3  100 -999    3    1    0   15 4190    050534   41    0
    6   38   34    8  263    9   19 2020   10    3  36035723   39   28   74 -999
35723 -999  100    6 -999 -999 -999 -999 -999 -999 -999 -999 -999 -999 -999 -999
 -999 -999 -999 -99915050    2 -999    0 -999   20 -999 -999    3    1 -99915050
    315050    4   78    1    3    5    0    0 -999    0 -999 -999    6 -999    2
    2    2    4 -999 -999 -999 -999 -999 -999 -999 -999    1 -999 -999 -999  111
    1    1 -999 -999
      .005      .707   357.230      .000     1.000  4984.889     -.011    36.830
   200.000     2.384      .478  -999.000    10.000  -999.000     4.000  -999.000
    20.000    -1.054      .000  -999.000  -999.000  -999.000  -999.000      .000
      .000      .000     2.000    15.000    33.402  -118.415      .001      .001
      .939      .000      .000   477.000  -999.000  -999.000  -999.000  -999.000
     1.000  -999.000  -999.000  -999.000  -999.000  -999.000  -999.000   120.000
     -.900     2.000     6.800   980.665      .020   301.000    31.831      .000
  -999.000    23.000  -999.000   301.000      .020      .300  -999.000  -999.000
    36.820    -9.706    37.000      .224    36.820      .012      .000      .300
    23.000      .020      .020      .000      .020      .005  -999.000  -999.000
      .023      .220      .020      .015      .001      .000  -999.000  -999.000
  -999.000  -999.000  -999.000  -999.000  -999.000  -999.000  -999.000  -999.000
  -999.000  -999.000  -999.000  -999.000
      .050
      .040      .042      .044      .046      .048      .050      .055      .060
      .065      .070      .075      .080      .085      .090      .095      .100
      .110      .120      .130      .140      .150      .160      .170      .180
      .190      .200      .220      .240      .260      .280      .300      .320
      .340      .360      .380      .400      .420      .440      .460      .480
      .500      .550      .600      .650      .700      .750      .800      .850
      .900      .950     1.000     1.100     1.200     1.300     1.400     1.500
     1.600     1.700     1.800     1.900     2.000     2.200     2.400     2.600
     2.800     3.000     3.200     3.400     3.600     3.800     4.000     4.200
     4.400     4.600     4.800     5.000     5.500     6.000      .000      .000
      .000      .000      .000      .000      .000      .000      .000      .000
      .000      .000      .000      .000      .000      .000      .000      .000
      .000      .000      .000      .000
Fourier amplitude spectra in in/sec.
  .000E+00  .000E+00  .000E+00  .000E+00  .000E+00  .000E+00  .000E+00  .000E+00
  .000E+00  .000E+00  .000E+00  .000E+00  .000E+00  .000E+00  .000E+00  .000E+00
  .000E+00  .000E+00  .000E+00  .000E+00  .000E+00  .000E+00  .000E+00  .000E+00
  .000E+00  .000E+00  .000E+00  .000E+00  .000E+00  .000E+00  .000E+00  .000E+00
  .000E+00  .000E+00  .000E+00  .000E+00  .000E+00  .000E+00  .000E+00  .000E+00
  .000E+00  .000E+00  .000E+00  .000E+00  .000E+00  .000E+00  .000E+00  .000E+00
  .000E+00  .000E+00  .000E+00  .000E+00  .000E+00  .000E+00  .000E+00  .000E+00
  .000E+00  .000E+00  .000E+00  .000E+00  .000E+00  .000E+00  .000E+00  .000E+00
  .000E+00  .000E+00  .000E+00  .000E+00  .000E+00  .000E+00  .000E+00  .000E+00
  .000E+00  .000E+00  .000E+00  .000E+00  .000E+00  .000E+00  .000E+00  .000E+00
  .000E+00  .000E+00  .000E+00  .000E+00  .000E+00  .000E+00  .000E+00  .000E+00
  .000E+00  .000E+00  .000E+00  .000E+00  .000E+00  .000E+00  .000E+00  .000E+00
  .000E+00  .000E+00  .000E+00  .000E+00
Damping =  .05. Data of Sd,Sv,Sa,Pssv,ttSd,ttSv,ttSa :
  .196E-03  .222E-03  .253E-03  .296E-03  .343E-03  .405E-03  .568E-03  .690E-03
  .850E-03  .901E-03  .909E-03  .107E-02  .149E-02  .155E-02  .165E-02  .189E-02
  .202E-02  .201E-02  .267E-02  .264E-02  .321E-02  .481E-02  .613E-02  .593E-02
  .598E-02  .752E-02  .110E-01  .116E-01  .120E-01  .134E-01  .142E-01  .124E-01
  .111E-01  .110E-01  .113E-01  .110E-01  .100E-01  .955E-02  .994E-02  .980E-02
