Response and Fourier amplitude spectra (78 periods,  .04 -  6.0 sec)   for      
Corrected accelerogram   38695658.CI.CJM.--.HN      Chan  1:  90 Deg     from   
Uncorrected Accelerogram Data             Processed: 09/19/20, CGS  cicjm--v    
Rcrd of Fri Sep 18, 2020 23:38:31.0 PDT               (Avol1 v2.0, 4/18 CSMIP)  
                                        (Origin:  To be determined)             
38695658.CI.CJM.--.HN                Start time:  9/19/20, 06:38:31.0 UTC (GPS) 
Station Id. CJM     34.271N, 117.424W    Q330    s/n  253  (3 Chns of  3 at Sta)
Cajon Mountain                           SCSN   Data: Acceleration              
Chan  1:  90 Deg                                                                
Rcrd of Fri Sep 18, 2020 23:38:31.0 PDT    Fri Sep 18, 2020 23:38:31.0 PDT      
Hypocenter:  To be determined.               ML:  To be determined.             
Instr Period =  .0050 sec,  Damping =  .707,  Sensitivity = 5.00 v/g  (Nominal) 
                        Record Length =301.000 sec.                             
                                     Uncor Max  =   .002 g, at   38.980 sec.    
RMS accel of (uncor) record  =        .   Chn. metadata effective date:         
Accelerogram bandpass filtered with 3 dB pts at   .30 and 23.00 cyc/sec         
                 instrument- and base-line correcte                             
                                                                                
                                                                                
                                                                                
                                                                                
                                                                                
Rcrd of Fri Sep 18, 2020 23:38:31.0 PDT    Fri Sep 18, 2020 23:38:31.0 PDT      
                                                                                
38695658.CI.CJM.--.HN     Cajon Mountain    Chan  1:  90 Deg                    
                                                                                
38695658.CI.CJM.--.HN     Cajon Mountain    Chan  1:  90 Deg                    
                                                                                
Units for spectra are inches and sec, except Sa is in fraction of g.            
                                                                                
    1  100    1    3    3  100 -999    3    1   24  605  253    0    0   41    0
    6   38   31    3  263    9   19 2020   10    3   9035877   39   14   74 -999
35877 -999  100    6 -999 -999 -999 -999 -999 -999 -999 -999 -999 -999 -999 -999
 -999 -999 -999 -99915050    2 -999    0 -999   20 -999 -999    3    1 -99915050
    315050    4   78    1    3    5    0    0 -999    0 -999 -999    6 -999    2
    2    2    4 -999 -999 -999 -999 -999 -999 -999 -999    1 -999 -999 -999  111
    1    1 -999 -999
      .005      .707   358.770      .000     1.000  4997.654      .002    38.980
   200.000     2.384      .477  -999.000    10.000  -999.000     4.000  -999.000
    20.000   -13.415    20.000  -999.000  -999.000  -999.000  -999.000      .000
      .000     -.001     2.000    15.000    34.271  -117.424      .001      .001
     1.176     -.001      .000  1616.000  -999.000  -999.000  -999.000  -999.000
     1.000  -999.000    -8.000  -999.000  -999.000  -999.000  -999.000   120.000
     -.900     2.000     6.800   980.665      .020   301.000    31.831      .000
  -999.000    23.000  -999.000   301.000      .020      .300  -999.000  -999.000
    38.980     2.261    39.500      .091    39.420     -.007      .000      .300
    23.000      .020      .020      .000      .020      .005  -999.000  -999.000
      .009      .130      .005      .004      .001      .000  -999.000  -999.000
  -999.000  -999.000  -999.000  -999.000  -999.000  -999.000  -999.000  -999.000
  -999.000  -999.000  -999.000  -999.000
      .050
      .040      .042      .044      .046      .048      .050      .055      .060
      .065      .070      .075      .080      .085      .090      .095      .100
      .110      .120      .130      .140      .150      .160      .170      .180
      .190      .200      .220      .240      .260      .280      .300      .320
      .340      .360      .380      .400      .420      .440      .460      .480
      .500      .550      .600      .650      .700      .750      .800      .850
      .900      .950     1.000     1.100     1.200     1.300     1.400     1.500
     1.600     1.700     1.800     1.900     2.000     2.200     2.400     2.600
     2.800     3.000     3.200     3.400     3.600     3.800     4.000     4.200
     4.400     4.600     4.800     5.000     5.500     6.000      .000      .000
      .000      .000      .000      .000      .000      .000      .000      .000
      .000      .000      .000      .000      .000      .000      .000      .000
      .000      .000      .000      .000
Fourier amplitude spectra in in/sec.
  .000E+00  .000E+00  .000E+00  .000E+00  .000E+00  .000E+00  .000E+00  .000E+00
  .000E+00  .000E+00  .000E+00  .000E+00  .000E+00  .000E+00  .000E+00  .000E+00
  .000E+00  .000E+00  .000E+00  .000E+00  .000E+00  .000E+00  .000E+00  .000E+00
  .000E+00  .000E+00  .000E+00  .000E+00  .000E+00  .000E+00  .000E+00  .000E+00
  .000E+00  .000E+00  .000E+00  .000E+00  .000E+00  .000E+00  .000E+00  .000E+00
  .000E+00  .000E+00  .000E+00  .000E+00  .000E+00  .000E+00  .000E+00  .000E+00
  .000E+00  .000E+00  .000E+00  .000E+00  .000E+00  .000E+00  .000E+00  .000E+00
  .000E+00  .000E+00  .000E+00  .000E+00  .000E+00  .000E+00  .000E+00  .000E+00
  .000E+00  .000E+00  .000E+00  .000E+00  .000E+00  .000E+00  .000E+00  .000E+00
  .000E+00  .000E+00  .000E+00  .000E+00  .000E+00  .000E+00  .000E+00  .000E+00
  .000E+00  .000E+00  .000E+00  .000E+00  .000E+00  .000E+00  .000E+00  .000E+00
  .000E+00  .000E+00  .000E+00  .000E+00  .000E+00  .000E+00  .000E+00  .000E+00
  .000E+00  .000E+00  .000E+00  .000E+00
Damping =  .05. Data of Sd,Sv,Sa,Pssv,ttSd,ttSv,ttSa :
  .385E-04  .436E-04  .499E-04  .580E-04  .656E-04  .709E-04  .100E-03  .138E-03
  .175E-03  .283E-03  .311E-03  .403E-03  .463E-03  .443E-03  .497E-03  .532E-03
  .835E-03  .121E-02  .155E-02  .132E-02  .112E-02  .124E-02  .125E-02  .135E-02
  .166E-02  .180E-02  .198E-02  .261E-02  .246E-02  .307E-02  .401E-02  .429E-02
  .563E-02  .762E-02  .805E-02  .932E-02  .861E-02  .651E-02  .693E-02  .660E-02
  .597E-02  .553E-02  .492E-02  .460E-02  .418E-02  .414E-02  .370E-02  .387E-02
  .458E-02  .456E-02  .502E-02  .540E-02  .442E-02  .330E-02  .335E-02  .414E-02
  .453E-02  .501E-02  .569E-02  .545E-02  .507E-02  .412E-02  .357E-02  .319E-02
  .308E-02  .291E-02  .276E-02  .283E-02  .289E-02  .291E-02  .292E-02  .291E-02
  .288E-02  .286E-02  .283E-02  .281E-02  .274E-02  .270E-02  .000E+00  .000E+00
  .000E+00  .000E+00  .000E+00  .000E+00  .000E+00  .000E+00  .000E+00  .000E+00
  .000E+00  .000E+00  .000E+00  .000E+00  .000E+00  .000E+00  .000E+00  .000E+00
  .000E+00  .000E+00  .000E+00  .000E+00
  .265E-02  .298E-02  .346E-02  .403E-02  .436E-02  .459E-02  .686E-02  .929E-02
  .123E-01  .188E-01  .210E-01  .266E-01  .303E-01  .281E-01  .290E-01  .289E-01
  .444E-01  .598E-01  .732E-01  .602E-01  .470E-01  .443E-01  .518E-01  .485E-01
  .501E-01  .531E-01  .587E-01  .709E-01  .677E-01  .672E-01  .814E-01  .910E-01
  .110E+00  .135E+00  .146E+00  .153E+00  .126E+00  .924E-01  .982E-01  .101E+00
  .885E-01  .736E-01  .687E-01  .681E-01  .605E-01  .555E-01  .483E-01  .526E-01
  .522E-01  .488E-01  .485E-01  .538E-01  .538E-01  .494E-01  .452E-01  .478E-01
  .518E-01  .515E-01  .471E-01  .427E-01  .397E-01  .359E-01  .349E-01  .353E-01
  .359E-01  .364E-01  .366E-01  .365E-01  .363E-01  .362E-01  .360E-01  .359E-01
  .358E-01  .357E-01  .357E-01  .356E-01  .355E-01  .355E-01  .000E+00  .000E+00
  .000E+00  .000E+00  .000E+00  .000E+00  .000E+00  .000E+00  .000E+00  .000E+00
  .000E+00  .000E+00  .000E+00  .000E+00  .000E+00  .000E+00  .000E+00  .000E+00
  .000E+00  .000E+00  .000E+00  .000E+00
  .247E-02  .253E-02  .264E-02  .280E-02  .291E-02  .292E-02  .342E-02  .394E-02
  .424E-02  .585E-02  .563E-02  .641E-02  .657E-02  .568E-02  .568E-02  .536E-02
  .699E-02  .871E-02  .947E-02  .702E-02  .508E-02  .501E-02  .448E-02  .425E-02
  .467E-02  .462E-02  .429E-02  .464E-02  .374E-02  .404E-02  .463E-02  .430E-02
  .502E-02  .607E-02  .580E-02  .593E-02  .499E-02  .351E-02  .334E-02  .292E-02
  .247E-02  .187E-02  .140E-02  .112E-02  .887E-03  .759E-03  .598E-03  .559E-03
  .587E-03  .524E-03  .521E-03  .464E-03  .318E-03  .204E-03  .176E-03  .190E-03
  .182E-03  .181E-03  .182E-03  .159E-03  .135E-03  .915E-04  .668E-04  .518E-04
  .414E-04  .355E-04  .306E-04  .286E-04  .263E-04  .241E-04  .222E-04  .204E-04
  .188E-04  .174E-04  .162E-04  .152E-04  .131E-04  .115E-04  .000E+00  .000E+00
  .000E+00  .000E+00  .000E+00  .000E+00  .000E+00  .000E+00  .000E+00  .000E+00
  .000E+00  .000E+00  .000E+00  .000E+00  .000E+00  .000E+00  .000E+00  .000E+00
  .000E+00  .000E+00  .000E+00  .000E+00
  .605E-02  .652E-02  .713E-02  .793E-02  .858E-02  .891E-02  .114E-01  .145E-01
  .170E-01  .254E-01  .261E-01  .317E-01  .342E-01  .309E-01  .328E-01  .334E-01
  .477E-01  .632E-01  .751E-01  .593E-01  .470E-01  .489E-01  .463E-01  .470E-01
  .548E-01  .565E-01  .565E-01  .683E-01  .594E-01  .689E-01  .840E-01  .842E-01
  .104E+00  .133E+00  .133E+00  .146E+00  .129E+00  .930E-01  .947E-01  .864E-01
  .750E-01  .632E-01  .515E-01  .444E-01  .375E-01  .347E-01  .290E-01  .286E-01
  .320E-01  .301E-01  .315E-01  .308E-01  .231E-01  .160E-01  .150E-01  .174E-01
  .178E-01  .185E-01  .199E-01  .180E-01  .159E-01  .118E-01  .934E-02  .771E-02
  .691E-02  .609E-02  .542E-02  .523E-02  .505E-02  .482E-02  .458E-02  .435E-02
  .411E-02  .390E-02  .371E-02  .353E-02  .313E-02  .283E-02  .000E+00  .000E+00
  .000E+00  .000E+00  .000E+00  .000E+00  .000E+00  .000E+00  .000E+00  .000E+00
  .000E+00  .000E+00  .000E+00  .000E+00  .000E+00  .000E+00  .000E+00  .000E+00
  .000E+00  .000E+00  .000E+00  .000E+00
  .390E+02  .390E+02  .390E+02  .390E+02  .390E+02  .390E+02  .390E+02  .390E+02
  .390E+02  .390E+02  .390E+02  .390E+02  .390E+02  .391E+02  .385E+02  .290E+02
  .290E+02  .387E+02  .387E+02  .387E+02  .390E+02  .390E+02  .386E+02  .402E+02
  .402E+02  .402E+02  .407E+02  .402E+02  .400E+02  .429E+02  .430E+02  .398E+02
  .398E+02  .398E+02  .398E+02  .397E+02  .397E+02  .397E+02  .397E+02  .396E+02
  .392E+02  .390E+02  .397E+02  .398E+02  .396E+02  .396E+02  .442E+02  .396E+02
  .396E+02  .396E+02  .396E+02  .396E+02  .396E+02  .394E+02  .632E+02  .627E+02
  .509E+02  .394E+02  .503E+02  .394E+02  .394E+02  .394E+02  .388E+02  .388E+02
  .479E+02  .440E+02  .429E+02  .394E+02  .394E+02  .394E+02  .394E+02  .394E+02
  .394E+02  .394E+02  .394E+02  .394E+02  .394E+02  .394E+02  .000E+00  .000E+00
  .000E+00  .000E+00  .000E+00  .000E+00  .000E+00  .000E+00  .000E+00  .000E+00
  .000E+00  .000E+00  .000E+00  .000E+00  .000E+00  .000E+00  .000E+00  .000E+00
  .000E+00  .000E+00  .000E+00  .000E+00
  .390E+02  .390E+02  .390E+02  .390E+02  .390E+02  .390E+02  .390E+02  .386E+02
  .386E+02  .390E+02  .390E+02  .390E+02  .391E+02  .391E+02  .385E+02  .290E+02
  .290E+02  .387E+02  .387E+02  .386E+02  .387E+02  .390E+02  .386E+02  .385E+02
  .401E+02  .402E+02  .407E+02  .402E+02  .401E+02  .401E+02  .429E+02  .399E+02
  .399E+02  .397E+02  .398E+02  .398E+02  .398E+02  .397E+02  .397E+02  .395E+02
  .393E+02  .391E+02  .389E+02  .397E+02  .397E+02  .397E+02  .397E+02  .397E+02
  .397E+02  .397E+02  .397E+02  .395E+02  .395E+02  .395E+02  .395E+02  .395E+02
  .395E+02  .395E+02  .395E+02  .395E+02  .395E+02  .389E+02  .395E+02  .395E+02
  .395E+02  .395E+02  .395E+02  .395E+02  .395E+02  .395E+02  .395E+02  .395E+02
  .395E+02  .395E+02  .395E+02  .395E+02  .395E+02  .395E+02  .000E+00  .000E+00
  .000E+00  .000E+00  .000E+00  .000E+00  .000E+00  .000E+00  .000E+00  .000E+00
  .000E+00  .000E+00  .000E+00  .000E+00  .000E+00  .000E+00  .000E+00  .000E+00
  .000E+00  .000E+00  .000E+00  .000E+00
  .390E+02  .390E+02  .390E+02  .390E+02  .390E+02  .390E+02  .390E+02  .390E+02
  .390E+02  .390E+02  .390E+02  .390E+02  .390E+02  .391E+02  .385E+02  .386E+02
  .290E+02  .386E+02  .387E+02  .387E+02  .390E+02  .390E+02  .386E+02  .402E+02
  .402E+02  .402E+02  .407E+02  .402E+02  .401E+02  .429E+02  .430E+02  .398E+02
  .398E+02  .398E+02  .398E+02  .397E+02  .397E+02  .397E+02  .397E+02  .396E+02
  .392E+02  .390E+02  .397E+02  .398E+02  .395E+02  .395E+02  .442E+02  .395E+02
  .395E+02  .395E+02  .395E+02  .396E+02  .396E+02  .393E+02  .632E+02  .627E+02
  .508E+02  .393E+02  .502E+02  .394E+02  .394E+02  .394E+02  .388E+02  .388E+02
  .479E+02  .429E+02  .394E+02  .394E+02  .393E+02  .393E+02  .393E+02  .393E+02
  .393E+02  .393E+02  .393E+02  .393E+02  .393E+02  .393E+02  .000E+00  .000E+00
  .000E+00  .000E+00  .000E+00  .000E+00  .000E+00  .000E+00  .000E+00  .000E+00
  .000E+00  .000E+00  .000E+00  .000E+00  .000E+00  .000E+00  .000E+00  .000E+00
  .000E+00  .000E+00  .000E+00  .000E+00
/&   ----------  End of spectral data for channel  1  ----------
Response and Fourier amplitude spectra (78 periods,  .04 -  6.0 sec)   for      
Corrected accelerogram   38695658.CI.CJM.--.HN      Chan  2: 360 Deg     from   
Uncorrected Accelerogram Data             Processed: 09/19/20, CGS  cicjm--v    
Rcrd of Fri Sep 18, 2020 23:38:31.0 PDT               (Avol1 v2.0, 4/18 CSMIP)  
                                        (Origin:  To be determined)             
38695658.CI.CJM.--.HN                Start time:  9/19/20, 06:38:31.0 UTC (GPS) 
Station Id. CJM     34.271N, 117.424W    Q330    s/n  253  (3 Chns of  3 at Sta)
Cajon Mountain                           SCSN   Data: Acceleration              
Chan  2: 360 Deg                                                                
Rcrd of Fri Sep 18, 2020 23:38:31.0 PDT    Fri Sep 18, 2020 23:38:31.0 PDT      
Hypocenter:  To be determined.               ML:  To be determined.             
Instr Period =  .0050 sec,  Damping =  .707,  Sensitivity = 4.99 v/g  (Nominal) 
                        Record Length =301.000 sec.                             
                                     Uncor Max  =  -.002 g, at   38.330 sec.    
RMS accel of (uncor) record  =        .   Chn. metadata effective date:         
Accelerogram bandpass filtered with 3 dB pts at   .30 and 23.00 cyc/sec         
                 instrument- and base-line correcte                             
                                                                                
                                                                                
                                                                                
                                                                                
                                                                                
Rcrd of Fri Sep 18, 2020 23:38:31.0 PDT    Fri Sep 18, 2020 23:38:31.0 PDT      
                                                                                
38695658.CI.CJM.--.HN     Cajon Mountain    Chan  2: 360 Deg                    
                                                                                
38695658.CI.CJM.--.HN     Cajon Mountain    Chan  2: 360 Deg                    
                                                                                
Units for spectra are inches and sec, except Sa is in fraction of g.            
                                                                                
    2  100    2    3    3  100 -999    3    1   24  605  253    0    0   41    0
    6   38   31    3  263    9   19 2020   10    3  36036280   39   14   74 -999
36280 -999  100    6 -999 -999 -999 -999 -999 -999 -999 -999 -999 -999 -999 -999
 -999 -999 -999 -99915050    2 -999    0 -999   20 -999 -999    3    1 -99915050
    315050    4   78    1    3    5    0    0 -999    0 -999 -999    6 -999    2
    2    2    4 -999 -999 -999 -999 -999 -999 -999 -999    1 -999 -999 -999  111
    1    1 -999 -999
      .005      .707   362.800      .000     1.000  4992.069     -.002    38.330
   200.000     2.384      .478  -999.000    10.000  -999.000     4.000  -999.000
    20.000   -25.999    20.000  -999.000  -999.000  -999.000  -999.000      .000
      .000      .000     2.000    15.000    34.271  -117.424      .001      .001
     1.267     -.001      .000  1616.000  -999.000  -999.000  -999.000  -999.000
     1.000  -999.000  -999.000  -999.000  -999.000  -999.000  -999.000   120.000
     -.900     2.000     6.800   980.665      .020   301.000    31.831      .000
  -999.000    23.000  -999.000   301.000      .020      .300  -999.000  -999.000
    38.320    -1.999    38.280      .073    38.900      .006      .000      .300
    23.000      .020      .020      .000      .020      .005  -999.000  -999.000
      .009      .130      .005      .005      .000      .000  -999.000  -999.000
  -999.000  -999.000  -999.000  -999.000  -999.000  -999.000  -999.000  -999.000
  -999.000  -999.000  -999.000  -999.000
      .050
      .040      .042      .044      .046      .048      .050      .055      .060
      .065      .070      .075      .080      .085      .090      .095      .100
      .110      .120      .130      .140      .150      .160      .170      .180
      .190      .200      .220      .240      .260      .280      .300      .320
      .340      .360      .380      .400      .420      .440      .460      .480
      .500      .550      .600      .650      .700      .750      .800      .850
      .900      .950     1.000     1.100     1.200     1.300     1.400     1.500
     1.600     1.700     1.800     1.900     2.000     2.200     2.400     2.600
     2.800     3.000     3.200     3.400     3.600     3.800     4.000     4.200
     4.400     4.600     4.800     5.000     5.500     6.000      .000      .000
      .000      .000      .000      .000      .000      .000      .000      .000
      .000      .000      .000      .000      .000      .000      .000      .000
      .000      .000      .000      .000
Fourier amplitude spectra in in/sec.
  .000E+00  .000E+00  .000E+00  .000E+00  .000E+00  .000E+00  .000E+00  .000E+00
  .000E+00  .000E+00  .000E+00  .000E+00  .000E+00  .000E+00  .000E+00  .000E+00
  .000E+00  .000E+00  .000E+00  .000E+00  .000E+00  .000E+00  .000E+00  .000E+00
  .000E+00  .000E+00  .000E+00  .000E+00  .000E+00  .000E+00  .000E+00  .000E+00
  .000E+00  .000E+00  .000E+00  .000E+00  .000E+00  .000E+00  .000E+00  .000E+00
  .000E+00  .000E+00  .000E+00  .000E+00  .000E+00  .000E+00  .000E+00  .000E+00
  .000E+00  .000E+00  .000E+00  .000E+00  .000E+00  .000E+00  .000E+00  .000E+00
  .000E+00  .000E+00  .000E+00  .000E+00  .000E+00  .000E+00  .000E+00  .000E+00
  .000E+00  .000E+00  .000E+00  .000E+00  .000E+00  .000E+00  .000E+00  .000E+00
  .000E+00  .000E+00  .000E+00  .000E+00  .000E+00  .000E+00  .000E+00  .000E+00
  .000E+00  .000E+00  .000E+00  .000E+00  .000E+00  .000E+00  .000E+00  .000E+00
  .000E+00  .000E+00  .000E+00  .000E+00  .000E+00  .000E+00  .000E+00  .000E+00
  .000E+00  .000E+00  .000E+00  .000E+00
Damping =  .05. Data of Sd,Sv,Sa,Pssv,ttSd,ttSv,ttSa :
  .344E-04  .382E-04  .429E-04  .459E-04  .482E-04  .553E-04  .766E-04  .112E-03
  .152E-03  .171E-03  .239E-03  .299E-03  .364E-03  .485E-03  .517E-03  .615E-03
  .823E-03  .118E-02  .153E-02  .131E-02  .189E-02  .152E-02  .149E-02  .151E-02
  .201E-02  .199E-02  .207E-02  .261E-02  .346E-02  .397E-02  .455E-02  .367E-02
  .337E-02  .497E-02  .443E-02  .481E-02  .401E-02  .429E-02  .523E-02  .540E-02
