Response and Fourier amplitude spectra (78 periods,  .04 -  6.0 sec)   for      
Corrected accelerogram   38695658.CI.CJV2.--.H      Chan  1:  90 Deg     from   
Uncorrected Accelerogram Data             Processed: 09/19/20, CGS  cicjv2-c    
Rcrd of Fri Sep 18, 2020 23:38:32.0 PDT               (Avol1 v2.0, 4/18 CSMIP)  
                                        (Origin:  To be determined)             
38695658.CI.CJV2.--.H                Start time:  9/19/20, 06:38:32.0 UTC (GPS) 
Station Id. CJV2    34.530N, 118.145W    Q330    s/n 5456  (3 Chns of  3 at Sta)
Casa Juvan 2                             SCSN   Data: Acceleration              
Chan  1:  90 Deg                                                                
Rcrd of Fri Sep 18, 2020 23:38:32.0 PDT    Fri Sep 18, 2020 23:38:32.0 PDT      
Hypocenter:  To be determined.               ML:  To be determined.             
Instr Period =  .0050 sec,  Damping =  .707,  Sensitivity = 4.99 v/g  (Nominal) 
                        Record Length =301.000 sec.                             
                                     Uncor Max  =   .004 g, at   31.670 sec.    
RMS accel of (uncor) record  =        .   Chn. metadata effective date:         
Accelerogram bandpass filtered with 3 dB pts at   .30 and 23.00 cyc/sec         
                 instrument- and base-line correcte                             
                                                                                
                                                                                
                                                                                
                                                                                
                                                                                
Rcrd of Fri Sep 18, 2020 23:38:32.0 PDT    Fri Sep 18, 2020 23:38:32.0 PDT      
                                                                                
38695658.CI.CJV2.--.H     Casa Juvan 2    Chan  1:  90 Deg                      
                                                                                
38695658.CI.CJV2.--.H     Casa Juvan 2    Chan  1:  90 Deg                      
                                                                                
Units for spectra are inches and sec, except Sa is in fraction of g.            
                                                                                
    1  100    1    3    3  100 -999    3    1    0  605 5456    0    0   41    0
    6   38   32    8  263    9   19 2020   10    3   9035695   39   12   74 -999
35695 -999  100    6 -999 -999 -999 -999 -999 -999 -999 -999 -999 -999 -999 -999
 -999 -999 -999 -99915050    2 -999    0 -999   20 -999 -999    3    1 -99915050
    315050    4   78    1    3    5    0    0 -999    0 -999 -999    6 -999    2
    2    2    4 -999 -999 -999 -999 -999 -999 -999 -999    1 -999 -999 -999  111
    1    1 -999 -999
      .005      .707   356.950      .000     1.000  4986.484      .004    31.670
   200.000     2.384      .478  -999.000    10.000  -999.000     4.000  -999.000
    20.000    -7.064      .000  -999.000  -999.000  -999.000  -999.000      .000
      .000      .001     2.000    15.000    34.530  -118.145      .001      .002
     1.303      .001      .001  1296.000  -999.000  -999.000  -999.000  -999.000
     1.000  -999.000    -8.000  -999.000  -999.000  -999.000  -999.000   120.000
     -.900     2.000     6.800   980.665      .020   301.000    31.831      .000
  -999.000    23.000  -999.000   301.000      .020      .300  -999.000  -999.000
    31.760    -3.701    33.900      .115    33.960      .009      .000      .300
    23.000      .020      .020      .000      .020      .006  -999.000  -999.000
      .015      .130      .009      .005      .001      .000  -999.000  -999.000
  -999.000  -999.000  -999.000  -999.000  -999.000  -999.000  -999.000  -999.000
  -999.000  -999.000  -999.000  -999.000
      .050
      .040      .042      .044      .046      .048      .050      .055      .060
      .065      .070      .075      .080      .085      .090      .095      .100
      .110      .120      .130      .140      .150      .160      .170      .180
      .190      .200      .220      .240      .260      .280      .300      .320
      .340      .360      .380      .400      .420      .440      .460      .480
      .500      .550      .600      .650      .700      .750      .800      .850
      .900      .950     1.000     1.100     1.200     1.300     1.400     1.500
     1.600     1.700     1.800     1.900     2.000     2.200     2.400     2.600
     2.800     3.000     3.200     3.400     3.600     3.800     4.000     4.200
     4.400     4.600     4.800     5.000     5.500     6.000      .000      .000
      .000      .000      .000      .000      .000      .000      .000      .000
      .000      .000      .000      .000      .000      .000      .000      .000
      .000      .000      .000      .000
Fourier amplitude spectra in in/sec.
  .000E+00  .000E+00  .000E+00  .000E+00  .000E+00  .000E+00  .000E+00  .000E+00
  .000E+00  .000E+00  .000E+00  .000E+00  .000E+00  .000E+00  .000E+00  .000E+00
  .000E+00  .000E+00  .000E+00  .000E+00  .000E+00  .000E+00  .000E+00  .000E+00
  .000E+00  .000E+00  .000E+00  .000E+00  .000E+00  .000E+00  .000E+00  .000E+00
  .000E+00  .000E+00  .000E+00  .000E+00  .000E+00  .000E+00  .000E+00  .000E+00
  .000E+00  .000E+00  .000E+00  .000E+00  .000E+00  .000E+00  .000E+00  .000E+00
  .000E+00  .000E+00  .000E+00  .000E+00  .000E+00  .000E+00  .000E+00  .000E+00
  .000E+00  .000E+00  .000E+00  .000E+00  .000E+00  .000E+00  .000E+00  .000E+00
  .000E+00  .000E+00  .000E+00  .000E+00  .000E+00  .000E+00  .000E+00  .000E+00
  .000E+00  .000E+00  .000E+00  .000E+00  .000E+00  .000E+00  .000E+00  .000E+00
  .000E+00  .000E+00  .000E+00  .000E+00  .000E+00  .000E+00  .000E+00  .000E+00
  .000E+00  .000E+00  .000E+00  .000E+00  .000E+00  .000E+00  .000E+00  .000E+00
  .000E+00  .000E+00  .000E+00  .000E+00
Damping =  .05. Data of Sd,Sv,Sa,Pssv,ttSd,ttSv,ttSa :
  .669E-04  .751E-04  .845E-04  .942E-04  .104E-03  .109E-03  .134E-03  .197E-03
  .262E-03  .373E-03  .462E-03  .572E-03  .609E-03  .610E-03  .694E-03  .860E-03
  .119E-02  .162E-02  .254E-02  .280E-02  .250E-02  .310E-02  .279E-02  .321E-02
  .313E-02  .369E-02  .436E-02  .369E-02  .435E-02  .422E-02  .439E-02  .486E-02
  .622E-02  .778E-02  .919E-02  .935E-02  .883E-02  .760E-02  .613E-02  .616E-02
  .625E-02  .518E-02  .592E-02  .513E-02  .484E-02  .578E-02  .524E-02  .576E-02
  .631E-02  .602E-02  .538E-02  .561E-02  .522E-02  .515E-02  .723E-02  .827E-02
  .689E-02  .521E-02  .418E-02  .483E-02  .548E-02  .566E-02  .450E-02  .470E-02
  .471E-02  .459E-02  .433E-02  .407E-02  .388E-02  .372E-02  .361E-02  .356E-02
  .354E-02  .352E-02  .349E-02  .347E-02  .342E-02  .339E-02  .000E+00  .000E+00
  .000E+00  .000E+00  .000E+00  .000E+00  .000E+00  .000E+00  .000E+00  .000E+00
  .000E+00  .000E+00  .000E+00  .000E+00  .000E+00  .000E+00  .000E+00  .000E+00
  .000E+00  .000E+00  .000E+00  .000E+00
  .380E-02  .420E-02  .455E-02  .485E-02  .538E-02  .639E-02  .971E-02  .117E-01
  .162E-01  .225E-01  .252E-01  .333E-01  .363E-01  .361E-01  .421E-01  .474E-01
  .607E-01  .752E-01  .114E+00  .128E+00  .106E+00  .120E+00  .106E+00  .115E+00
  .108E+00  .111E+00  .112E+00  .977E-01  .101E+00  .995E-01  .105E+00  .965E-01
  .127E+00  .132E+00  .144E+00  .154E+00  .154E+00  .124E+00  .965E-01  .907E-01
  .866E-01  .762E-01  .704E-01  .580E-01  .636E-01  .604E-01  .593E-01  .595E-01
  .608E-01  .611E-01  .605E-01  .508E-01  .463E-01  .487E-01  .511E-01  .503E-01
  .495E-01  .487E-01  .463E-01  .436E-01  .416E-01  .396E-01  .400E-01  .418E-01
  .434E-01  .443E-01  .448E-01  .448E-01  .448E-01  .447E-01  .446E-01  .444E-01
  .444E-01  .443E-01  .443E-01  .442E-01  .442E-01  .441E-01  .000E+00  .000E+00
  .000E+00  .000E+00  .000E+00  .000E+00  .000E+00  .000E+00  .000E+00  .000E+00
  .000E+00  .000E+00  .000E+00  .000E+00  .000E+00  .000E+00  .000E+00  .000E+00
  .000E+00  .000E+00  .000E+00  .000E+00
  .429E-02  .437E-02  .448E-02  .458E-02  .460E-02  .447E-02  .453E-02  .563E-02
  .639E-02  .774E-02  .846E-02  .913E-02  .858E-02  .770E-02  .786E-02  .876E-02
  .103E-01  .115E-01  .155E-01  .147E-01  .113E-01  .123E-01  .992E-02  .101E-01
  .897E-02  .965E-02  .916E-02  .658E-02  .656E-02  .546E-02  .507E-02  .481E-02
  .550E-02  .615E-02  .658E-02  .606E-02  .515E-02  .402E-02  .298E-02  .276E-02
  .256E-02  .177E-02  .172E-02  .124E-02  .101E-02  .106E-02  .842E-03  .824E-03
  .808E-03  .692E-03  .555E-03  .475E-03  .382E-03  .322E-03  .382E-03  .380E-03
  .277E-03  .186E-03  .136E-03  .140E-03  .142E-03  .124E-03  .868E-04  .783E-04
  .712E-04  .618E-04  .529E-04  .454E-04  .398E-04  .353E-04  .318E-04  .293E-04
  .274E-04  .256E-04  .240E-04  .226E-04  .197E-04  .175E-04  .000E+00  .000E+00
  .000E+00  .000E+00  .000E+00  .000E+00  .000E+00  .000E+00  .000E+00  .000E+00
  .000E+00  .000E+00  .000E+00  .000E+00  .000E+00  .000E+00  .000E+00  .000E+00
  .000E+00  .000E+00  .000E+00  .000E+00
  .105E-01  .112E-01  .121E-01  .129E-01  .136E-01  .137E-01  .154E-01  .206E-01
  .253E-01  .335E-01  .387E-01  .449E-01  .450E-01  .426E-01  .459E-01  .540E-01
  .682E-01  .849E-01  .123E+00  .126E+00  .105E+00  .122E+00  .103E+00  .112E+00
  .104E+00  .116E+00  .124E+00  .967E-01  .105E+00  .947E-01  .920E-01  .955E-01
  .115E+00  .136E+00  .152E+00  .147E+00  .132E+00  .109E+00  .838E-01  .806E-01
  .786E-01  .592E-01  .620E-01  .496E-01  .434E-01  .484E-01  .412E-01  .426E-01
  .441E-01  .398E-01  .338E-01  .320E-01  .273E-01  .249E-01  .325E-01  .347E-01
  .270E-01  .192E-01  .146E-01  .160E-01  .172E-01  .162E-01  .118E-01  .114E-01
  .106E-01  .960E-02  .851E-02  .752E-02  .677E-02  .616E-02  .568E-02  .532E-02
  .505E-02  .481E-02  .457E-02  .436E-02  .391E-02  .355E-02  .000E+00  .000E+00
  .000E+00  .000E+00  .000E+00  .000E+00  .000E+00  .000E+00  .000E+00  .000E+00
  .000E+00  .000E+00  .000E+00  .000E+00  .000E+00  .000E+00  .000E+00  .000E+00
  .000E+00  .000E+00  .000E+00  .000E+00
  .317E+02  .317E+02  .317E+02  .317E+02  .317E+02  .317E+02  .317E+02  .317E+02
  .317E+02  .317E+02  .317E+02  .317E+02  .317E+02  .257E+02  .257E+02  .339E+02
  .339E+02  .318E+02  .318E+02  .318E+02  .319E+02  .335E+02  .319E+02  .318E+02
  .257E+02  .340E+02  .340E+02  .333E+02  .342E+02  .378E+02  .337E+02  .361E+02
  .336E+02  .342E+02  .346E+02  .347E+02  .347E+02  .345E+02  .345E+02  .345E+02
  .345E+02  .344E+02  .344E+02  .417E+02  .418E+02  .377E+02  .341E+02  .341E+02
  .342E+02  .342E+02  .353E+02  .456E+02  .339E+02  .339E+02  .457E+02  .452E+02
  .453E+02  .453E+02  .416E+02  .411E+02  .411E+02  .447E+02  .440E+02  .440E+02
  .339E+02  .339E+02  .339E+02  .339E+02  .339E+02  .339E+02  .339E+02  .339E+02
  .339E+02  .339E+02  .339E+02  .339E+02  .339E+02  .339E+02  .000E+00  .000E+00
  .000E+00  .000E+00  .000E+00  .000E+00  .000E+00  .000E+00  .000E+00  .000E+00
  .000E+00  .000E+00  .000E+00  .000E+00  .000E+00  .000E+00  .000E+00  .000E+00
  .000E+00  .000E+00  .000E+00  .000E+00
  .318E+02  .318E+02  .318E+02  .318E+02  .250E+02  .247E+02  .316E+02  .316E+02
  .316E+02  .318E+02  .318E+02  .317E+02  .317E+02  .257E+02  .257E+02  .339E+02
  .339E+02  .252E+02  .318E+02  .318E+02  .318E+02  .335E+02  .318E+02  .318E+02
  .257E+02  .340E+02  .341E+02  .347E+02  .341E+02  .377E+02  .336E+02  .337E+02
  .337E+02  .341E+02  .347E+02  .346E+02  .346E+02  .346E+02  .346E+02  .346E+02
  .344E+02  .345E+02  .345E+02  .340E+02  .329E+02  .334E+02  .334E+02  .334E+02
  .334E+02  .340E+02  .340E+02  .340E+02  .339E+02  .339E+02  .339E+02  .339E+02
  .339E+02  .339E+02  .339E+02  .339E+02  .339E+02  .339E+02  .339E+02  .339E+02
  .339E+02  .339E+02  .339E+02  .339E+02  .339E+02  .339E+02  .339E+02  .339E+02
  .339E+02  .339E+02  .339E+02  .339E+02  .339E+02  .339E+02  .000E+00  .000E+00
  .000E+00  .000E+00  .000E+00  .000E+00  .000E+00  .000E+00  .000E+00  .000E+00
  .000E+00  .000E+00  .000E+00  .000E+00  .000E+00  .000E+00  .000E+00  .000E+00
  .000E+00  .000E+00  .000E+00  .000E+00
  .317E+02  .317E+02  .317E+02  .317E+02  .317E+02  .317E+02  .317E+02  .317E+02
  .317E+02  .317E+02  .317E+02  .317E+02  .317E+02  .257E+02  .257E+02  .339E+02
  .339E+02  .318E+02  .318E+02  .318E+02  .319E+02  .335E+02  .319E+02  .318E+02
  .257E+02  .340E+02  .340E+02  .333E+02  .342E+02  .368E+02  .337E+02  .361E+02
  .336E+02  .342E+02  .346E+02  .346E+02  .345E+02  .345E+02  .345E+02  .345E+02
  .345E+02  .343E+02  .344E+02  .417E+02  .417E+02  .377E+02  .341E+02  .341E+02
  .341E+02  .342E+02  .353E+02  .456E+02  .339E+02  .339E+02  .456E+02  .451E+02
  .452E+02  .453E+02  .415E+02  .411E+02  .402E+02  .447E+02  .345E+02  .339E+02
  .339E+02  .339E+02  .339E+02  .339E+02  .339E+02  .339E+02  .339E+02  .339E+02
  .339E+02  .339E+02  .339E+02  .339E+02  .339E+02  .339E+02  .000E+00  .000E+00
  .000E+00  .000E+00  .000E+00  .000E+00  .000E+00  .000E+00  .000E+00  .000E+00
  .000E+00  .000E+00  .000E+00  .000E+00  .000E+00  .000E+00  .000E+00  .000E+00
  .000E+00  .000E+00  .000E+00  .000E+00
/&   ----------  End of spectral data for channel  1  ----------
Response and Fourier amplitude spectra (78 periods,  .04 -  6.0 sec)   for      
Corrected accelerogram   38695658.CI.CJV2.--.H      Chan  2: 360 Deg     from   
Uncorrected Accelerogram Data             Processed: 09/19/20, CGS  cicjv2-c    
Rcrd of Fri Sep 18, 2020 23:38:32.0 PDT               (Avol1 v2.0, 4/18 CSMIP)  
                                        (Origin:  To be determined)             
38695658.CI.CJV2.--.H                Start time:  9/19/20, 06:38:32.0 UTC (GPS) 
Station Id. CJV2    34.530N, 118.145W    Q330    s/n 5456  (3 Chns of  3 at Sta)
Casa Juvan 2                             SCSN   Data: Acceleration              
Chan  2: 360 Deg                                                                
Rcrd of Fri Sep 18, 2020 23:38:32.0 PDT    Fri Sep 18, 2020 23:38:32.0 PDT      
Hypocenter:  To be determined.               ML:  To be determined.             
Instr Period =  .0050 sec,  Damping =  .707,  Sensitivity = 4.99 v/g  (Nominal) 
                        Record Length =301.000 sec.                             
                                     Uncor Max  =   .004 g, at   31.310 sec.    
RMS accel of (uncor) record  =        .   Chn. metadata effective date:         
Accelerogram bandpass filtered with 3 dB pts at   .30 and 23.00 cyc/sec         
                 instrument- and base-line correcte                             
                                                                                
                                                                                
                                                                                
                                                                                
                                                                                
Rcrd of Fri Sep 18, 2020 23:38:32.0 PDT    Fri Sep 18, 2020 23:38:32.0 PDT      
                                                                                
38695658.CI.CJV2.--.H     Casa Juvan 2    Chan  2: 360 Deg                      
                                                                                
38695658.CI.CJV2.--.H     Casa Juvan 2    Chan  2: 360 Deg                      
                                                                                
Units for spectra are inches and sec, except Sa is in fraction of g.            
                                                                                
    2  100    2    3    3  100 -999    3    1    0  605 5456    0    0   41    0
    6   38   32    8  263    9   19 2020   10    3  36035863   39   12   74 -999
35863 -999  100    6 -999 -999 -999 -999 -999 -999 -999 -999 -999 -999 -999 -999
 -999 -999 -999 -99915050    2 -999    0 -999   20 -999 -999    3    1 -99915050
    315050    4   78    1    3    5    0    0 -999    0 -999 -999    6 -999    2
    2    2    4 -999 -999 -999 -999 -999 -999 -999 -999    1 -999 -999 -999  111
    1    1 -999 -999
      .005      .707   358.630      .000     1.000  4987.482      .004    31.310
   200.000     2.384      .478  -999.000    10.000  -999.000     4.000  -999.000
    20.000   -17.243      .000  -999.000  -999.000  -999.000  -999.000      .000
     -.001     -.001     2.000    15.000    34.530  -118.145      .002      .003
     1.426     -.001      .000  1296.000  -999.000  -999.000  -999.000  -999.000
     1.000  -999.000  -999.000  -999.000  -999.000  -999.000  -999.000   120.000
     -.900     2.000     6.800   980.665      .020   301.000    31.831      .000
  -999.000    23.000  -999.000   301.000      .020      .300  -999.000  -999.000
    31.320     4.147    31.620     -.141    34.820      .012      .000      .300
    23.000      .020      .020      .000      .020      .006  -999.000  -999.000
      .016      .130      .011      .007      .001      .000  -999.000  -999.000
  -999.000  -999.000  -999.000  -999.000  -999.000  -999.000  -999.000  -999.000
  -999.000  -999.000  -999.000  -999.000
      .050
      .040      .042      .044      .046      .048      .050      .055      .060
      .065      .070      .075      .080      .085      .090      .095      .100
      .110      .120      .130      .140      .150      .160      .170      .180
      .190      .200      .220      .240      .260      .280      .300      .320
      .340      .360      .380      .400      .420      .440      .460      .480
      .500      .550      .600      .650      .700      .750      .800      .850
      .900      .950     1.000     1.100     1.200     1.300     1.400     1.500
     1.600     1.700     1.800     1.900     2.000     2.200     2.400     2.600
     2.800     3.000     3.200     3.400     3.600     3.800     4.000     4.200
     4.400     4.600     4.800     5.000     5.500     6.000      .000      .000
      .000      .000      .000      .000      .000      .000      .000      .000
      .000      .000      .000      .000      .000      .000      .000      .000
      .000      .000      .000      .000
Fourier amplitude spectra in in/sec.
  .000E+00  .000E+00  .000E+00  .000E+00  .000E+00  .000E+00  .000E+00  .000E+00
  .000E+00  .000E+00  .000E+00  .000E+00  .000E+00  .000E+00  .000E+00  .000E+00
  .000E+00  .000E+00  .000E+00  .000E+00  .000E+00  .000E+00  .000E+00  .000E+00
  .000E+00  .000E+00  .000E+00  .000E+00  .000E+00  .000E+00  .000E+00  .000E+00
  .000E+00  .000E+00  .000E+00  .000E+00  .000E+00  .000E+00  .000E+00  .000E+00
  .000E+00  .000E+00  .000E+00  .000E+00  .000E+00  .000E+00  .000E+00  .000E+00
  .000E+00  .000E+00  .000E+00  .000E+00  .000E+00  .000E+00  .000E+00  .000E+00
  .000E+00  .000E+00  .000E+00  .000E+00  .000E+00  .000E+00  .000E+00  .000E+00
  .000E+00  .000E+00  .000E+00  .000E+00  .000E+00  .000E+00  .000E+00  .000E+00
  .000E+00  .000E+00  .000E+00  .000E+00  .000E+00  .000E+00  .000E+00  .000E+00
  .000E+00  .000E+00  .000E+00  .000E+00  .000E+00  .000E+00  .000E+00  .000E+00
  .000E+00  .000E+00  .000E+00  .000E+00  .000E+00  .000E+00  .000E+00  .000E+00
  .000E+00  .000E+00  .000E+00  .000E+00
Damping =  .05. Data of Sd,Sv,Sa,Pssv,ttSd,ttSv,ttSa :
  .704E-04  .783E-04  .861E-04  .958E-04  .105E-03  .110E-03  .142E-03  .191E-03
  .262E-03  .329E-03  .482E-03  .562E-03  .654E-03  .697E-03  .953E-03  .103E-02
  .129E-02  .196E-02  .257E-02  .270E-02  .299E-02  .328E-02  .374E-02  .439E-02
  .459E-02  .433E-02  .383E-02  .356E-02  .448E-02  .463E-02  .575E-02  .780E-02
  .104E-01  .116E-01  .118E-01  .114E-01  .101E-01  .986E-02  .921E-02  .862E-02
