Response and Fourier amplitude spectra (78 periods,  .04 -  6.0 sec)   for      
Corrected accelerogram   38695658.CI.CLT.--.HN      Chan  1:  90 Deg     from   
Uncorrected Accelerogram Data             Processed: 09/19/20, CGS  ciclt--b    
Rcrd of Fri Sep 18, 2020 23:38:37.0 PDT               (Avol1 v2.0, 4/18 CSMIP)  
                                        (Origin:  To be determined)             
38695658.CI.CLT.--.HN                Start time:  9/19/20, 06:38:37.0 UTC (GPS) 
Station Id. CLT     34.093N, 117.317W    Q330    s/n 4332  (3 Chns of  3 at Sta)
Colton, Grape St. and W. Mill St         SCSN   Data: Acceleration              
Chan  1:  90 Deg                                                                
Rcrd of Fri Sep 18, 2020 23:38:37.0 PDT    Fri Sep 18, 2020 23:38:37.0 PDT      
Hypocenter:  To be determined.               ML:  To be determined.             
Instr Period =  .0050 sec,  Damping =  .707,  Sensitivity = 5.00 v/g  (Nominal) 
                        Record Length =301.000 sec.                             
                                     Uncor Max  =   .007 g, at   35.970 sec.    
RMS accel of (uncor) record  =        .   Chn. metadata effective date:         
Accelerogram bandpass filtered with 3 dB pts at   .30 and 23.00 cyc/sec         
                 instrument- and base-line correcte                             
                                                                                
                                                                                
                                                                                
                                                                                
                                                                                
Rcrd of Fri Sep 18, 2020 23:38:37.0 PDT    Fri Sep 18, 2020 23:38:37.0 PDT      
                                                                                
38695658.CI.CLT.--.HN     Colton, Grape St. and W. Mill St    Chan  1:  90 Deg  
                                                                                
38695658.CI.CLT.--.HN     Colton, Grape St. and W. Mill St    Chan  1:  90 Deg  
                                                                                
Units for spectra are inches and sec, except Sa is in fraction of g.            
                                                                                
    1  100    1    3    3  100 -999    3    1    0  605 4332    050601   41    0
    6   38   37    8  263    9   19 2020   10    3   9035411   39   32   74 -999
35411 -999  100    6 -999 -999 -999 -999 -999 -999 -999 -999 -999 -999 -999 -999
 -999 -999 -999 -99915050    2 -999    0 -999   20 -999 -999    3    1 -99915050
    315050    4   78    1    3    5    0    0 -999    0 -999 -999    6 -999    2
    2    2    4 -999 -999 -999 -999 -999 -999 -999 -999    1 -999 -999 -999  111
    1    1 -999 -999
      .005      .707   354.110      .000     1.000  4995.460      .007    35.970
   200.000     2.384      .477  -999.000    10.000  -999.000     4.000  -999.000
    20.000   -27.411      .000  -999.000  -999.000  -999.000  -999.000      .000
      .001      .001     2.000    15.000    34.093  -117.317      .054      .037
      .685     -.009      .011   325.000  -999.000  -999.000  -999.000  -999.000
     1.000  -999.000    -8.000  -999.000  -999.000  -999.000  -999.000   120.000
     -.900     2.000     6.800   980.665      .020   301.000    31.831      .000
  -999.000    23.000  -999.000   301.000      .020      .300  -999.000  -999.000
    34.480    -6.322    36.200     -.183    35.960     -.009      .000      .300
    23.000      .020      .020      .000      .020      .011  -999.000  -999.000
      .035      .130      .010      .009      .001      .000  -999.000  -999.000
  -999.000  -999.000  -999.000  -999.000  -999.000  -999.000  -999.000  -999.000
  -999.000  -999.000  -999.000  -999.000
      .050
      .040      .042      .044      .046      .048      .050      .055      .060
      .065      .070      .075      .080      .085      .090      .095      .100
      .110      .120      .130      .140      .150      .160      .170      .180
      .190      .200      .220      .240      .260      .280      .300      .320
      .340      .360      .380      .400      .420      .440      .460      .480
      .500      .550      .600      .650      .700      .750      .800      .850
      .900      .950     1.000     1.100     1.200     1.300     1.400     1.500
     1.600     1.700     1.800     1.900     2.000     2.200     2.400     2.600
     2.800     3.000     3.200     3.400     3.600     3.800     4.000     4.200
     4.400     4.600     4.800     5.000     5.500     6.000      .000      .000
      .000      .000      .000      .000      .000      .000      .000      .000
      .000      .000      .000      .000      .000      .000      .000      .000
      .000      .000      .000      .000
Fourier amplitude spectra in in/sec.
  .000E+00  .000E+00  .000E+00  .000E+00  .000E+00  .000E+00  .000E+00  .000E+00
  .000E+00  .000E+00  .000E+00  .000E+00  .000E+00  .000E+00  .000E+00  .000E+00
  .000E+00  .000E+00  .000E+00  .000E+00  .000E+00  .000E+00  .000E+00  .000E+00
  .000E+00  .000E+00  .000E+00  .000E+00  .000E+00  .000E+00  .000E+00  .000E+00
  .000E+00  .000E+00  .000E+00  .000E+00  .000E+00  .000E+00  .000E+00  .000E+00
  .000E+00  .000E+00  .000E+00  .000E+00  .000E+00  .000E+00  .000E+00  .000E+00
  .000E+00  .000E+00  .000E+00  .000E+00  .000E+00  .000E+00  .000E+00  .000E+00
  .000E+00  .000E+00  .000E+00  .000E+00  .000E+00  .000E+00  .000E+00  .000E+00
  .000E+00  .000E+00  .000E+00  .000E+00  .000E+00  .000E+00  .000E+00  .000E+00
  .000E+00  .000E+00  .000E+00  .000E+00  .000E+00  .000E+00  .000E+00  .000E+00
  .000E+00  .000E+00  .000E+00  .000E+00  .000E+00  .000E+00  .000E+00  .000E+00
  .000E+00  .000E+00  .000E+00  .000E+00  .000E+00  .000E+00  .000E+00  .000E+00
  .000E+00  .000E+00  .000E+00  .000E+00
Damping =  .05. Data of Sd,Sv,Sa,Pssv,ttSd,ttSv,ttSa :
  .129E-03  .146E-03  .165E-03  .187E-03  .206E-03  .238E-03  .350E-03  .575E-03
  .844E-03  .867E-03  .991E-03  .111E-02  .138E-02  .147E-02  .135E-02  .139E-02
  .188E-02  .420E-02  .571E-02  .544E-02  .490E-02  .428E-02  .359E-02  .349E-02
  .364E-02  .372E-02  .521E-02  .699E-02  .911E-02  .843E-02  .667E-02  .804E-02
  .910E-02  .883E-02  .825E-02  .887E-02  .875E-02  .790E-02  .753E-02  .667E-02
  .713E-02  .111E-01  .107E-01  .101E-01  .964E-02  .729E-02  .620E-02  .653E-02
  .541E-02  .610E-02  .678E-02  .540E-02  .558E-02  .431E-02  .462E-02  .589E-02
  .544E-02  .517E-02  .494E-02  .488E-02  .454E-02  .450E-02  .534E-02  .462E-02
  .388E-02  .324E-02  .318E-02  .339E-02  .351E-02  .348E-02  .334E-02  .326E-02
  .346E-02  .356E-02  .361E-02  .364E-02  .363E-02  .360E-02  .000E+00  .000E+00
  .000E+00  .000E+00  .000E+00  .000E+00  .000E+00  .000E+00  .000E+00  .000E+00
  .000E+00  .000E+00  .000E+00  .000E+00  .000E+00  .000E+00  .000E+00  .000E+00
  .000E+00  .000E+00  .000E+00  .000E+00
  .110E-01  .119E-01  .132E-01  .146E-01  .166E-01  .179E-01  .266E-01  .480E-01
  .729E-01  .657E-01  .755E-01  .809E-01  .939E-01  .910E-01  .839E-01  .804E-01
  .998E-01  .200E+00  .263E+00  .235E+00  .218E+00  .180E+00  .143E+00  .129E+00
  .130E+00  .120E+00  .174E+00  .194E+00  .222E+00  .218E+00  .172E+00  .165E+00
  .200E+00  .200E+00  .173E+00  .167E+00  .141E+00  .134E+00  .131E+00  .123E+00
  .111E+00  .150E+00  .174E+00  .125E+00  .127E+00  .106E+00  .968E-01  .997E-01
  .945E-01  .849E-01  .830E-01  .743E-01  .784E-01  .764E-01  .754E-01  .724E-01
  .688E-01  .694E-01  .756E-01  .780E-01  .765E-01  .715E-01  .689E-01  .687E-01
  .685E-01  .685E-01  .689E-01  .688E-01  .684E-01  .680E-01  .677E-01  .675E-01
  .675E-01  .676E-01  .678E-01  .679E-01  .681E-01  .682E-01  .000E+00  .000E+00
  .000E+00  .000E+00  .000E+00  .000E+00  .000E+00  .000E+00  .000E+00  .000E+00
  .000E+00  .000E+00  .000E+00  .000E+00  .000E+00  .000E+00  .000E+00  .000E+00
  .000E+00  .000E+00  .000E+00  .000E+00
  .824E-02  .851E-02  .882E-02  .900E-02  .914E-02  .981E-02  .117E-01  .166E-01
  .206E-01  .184E-01  .183E-01  .181E-01  .195E-01  .188E-01  .155E-01  .143E-01
  .160E-01  .300E-01  .351E-01  .282E-01  .227E-01  .174E-01  .126E-01  .111E-01
  .104E-01  .928E-02  .109E-01  .124E-01  .140E-01  .112E-01  .760E-02  .798E-02
  .801E-02  .707E-02  .583E-02  .565E-02  .518E-02  .420E-02  .361E-02  .296E-02
  .296E-02  .377E-02  .306E-02  .248E-02  .203E-02  .134E-02  .102E-02  .953E-03
  .702E-03  .696E-03  .701E-03  .473E-03  .404E-03  .263E-03  .253E-03  .269E-03
  .229E-03  .195E-03  .175E-03  .158E-03  .129E-03  .106E-03  .963E-04  .709E-04
  .538E-04  .493E-04  .435E-04  .382E-04  .357E-04  .323E-04  .288E-04  .275E-04
  .267E-04  .258E-04  .248E-04  .239E-04  .216E-04  .196E-04  .000E+00  .000E+00
  .000E+00  .000E+00  .000E+00  .000E+00  .000E+00  .000E+00  .000E+00  .000E+00
  .000E+00  .000E+00  .000E+00  .000E+00  .000E+00  .000E+00  .000E+00  .000E+00
  .000E+00  .000E+00  .000E+00  .000E+00
  .203E-01  .218E-01  .236E-01  .255E-01  .270E-01  .299E-01  .399E-01  .603E-01
  .816E-01  .778E-01  .830E-01  .869E-01  .102E+00  .103E+00  .894E-01  .875E-01
  .107E+00  .220E+00  .276E+00  .244E+00  .205E+00  .168E+00  .133E+00  .122E+00
  .120E+00  .117E+00  .149E+00  .183E+00  .220E+00  .189E+00  .140E+00  .158E+00
  .168E+00  .154E+00  .136E+00  .139E+00  .131E+00  .113E+00  .103E+00  .873E-01
  .896E-01  .127E+00  .112E+00  .973E-01  .865E-01  .610E-01  .487E-01  .483E-01
  .378E-01  .404E-01  .426E-01  .309E-01  .292E-01  .208E-01  .207E-01  .247E-01
  .213E-01  .191E-01  .172E-01  .161E-01  .143E-01  .128E-01  .140E-01  .112E-01
  .872E-02  .679E-02  .625E-02  .626E-02  .613E-02  .575E-02  .524E-02  .488E-02
  .494E-02  .486E-02  .473E-02  .458E-02  .415E-02  .377E-02  .000E+00  .000E+00
  .000E+00  .000E+00  .000E+00  .000E+00  .000E+00  .000E+00  .000E+00  .000E+00
  .000E+00  .000E+00  .000E+00  .000E+00  .000E+00  .000E+00  .000E+00  .000E+00
  .000E+00  .000E+00  .000E+00  .000E+00
  .343E+02  .343E+02  .344E+02  .344E+02  .344E+02  .343E+02  .344E+02  .344E+02
  .344E+02  .344E+02  .344E+02  .335E+02  .345E+02  .345E+02  .343E+02  .343E+02
  .337E+02  .345E+02  .348E+02  .348E+02  .348E+02  .345E+02  .345E+02  .364E+02
  .364E+02  .367E+02  .342E+02  .351E+02  .365E+02  .344E+02  .339E+02  .363E+02
  .363E+02  .362E+02  .362E+02  .362E+02  .362E+02  .362E+02  .362E+02  .362E+02
  .339E+02  .362E+02  .361E+02  .347E+02  .341E+02  .361E+02  .361E+02  .361E+02
  .361E+02  .420E+02  .416E+02  .341E+02  .398E+02  .595E+02  .359E+02  .564E+02
  .359E+02  .468E+02  .347E+02  .338E+02  .338E+02  .361E+02  .591E+02  .592E+02
  .561E+02  .494E+02  .361E+02  .361E+02  .361E+02  .361E+02  .361E+02  .359E+02
  .359E+02  .359E+02  .359E+02  .359E+02  .359E+02  .359E+02  .000E+00  .000E+00
  .000E+00  .000E+00  .000E+00  .000E+00  .000E+00  .000E+00  .000E+00  .000E+00
  .000E+00  .000E+00  .000E+00  .000E+00  .000E+00  .000E+00  .000E+00  .000E+00
  .000E+00  .000E+00  .000E+00  .000E+00
  .343E+02  .343E+02  .343E+02  .342E+02  .342E+02  .342E+02  .342E+02  .344E+02
  .344E+02  .344E+02  .354E+02  .334E+02  .335E+02  .343E+02  .343E+02  .343E+02
  .343E+02  .345E+02  .347E+02  .348E+02  .348E+02  .346E+02  .346E+02  .363E+02
  .363E+02  .342E+02  .342E+02  .345E+02  .366E+02  .344E+02  .339E+02  .363E+02
  .363E+02  .363E+02  .363E+02  .363E+02  .363E+02  .362E+02  .362E+02  .362E+02
  .344E+02  .362E+02  .362E+02  .342E+02  .337E+02  .360E+02  .360E+02  .360E+02
  .360E+02  .360E+02  .360E+02  .362E+02  .360E+02  .360E+02  .360E+02  .360E+02
  .360E+02  .362E+02  .362E+02  .362E+02  .362E+02  .362E+02  .362E+02  .362E+02
  .362E+02  .362E+02  .362E+02  .362E+02  .362E+02  .362E+02  .362E+02  .362E+02
  .362E+02  .362E+02  .362E+02  .362E+02  .362E+02  .362E+02  .000E+00  .000E+00
  .000E+00  .000E+00  .000E+00  .000E+00  .000E+00  .000E+00  .000E+00  .000E+00
  .000E+00  .000E+00  .000E+00  .000E+00  .000E+00  .000E+00  .000E+00  .000E+00
  .000E+00  .000E+00  .000E+00  .000E+00
  .343E+02  .343E+02  .343E+02  .344E+02  .344E+02  .343E+02  .343E+02  .344E+02
  .344E+02  .344E+02  .344E+02  .335E+02  .345E+02  .345E+02  .343E+02  .343E+02
  .337E+02  .345E+02  .348E+02  .348E+02  .348E+02  .345E+02  .345E+02  .364E+02
  .364E+02  .367E+02  .342E+02  .352E+02  .352E+02  .344E+02  .365E+02  .365E+02
  .363E+02  .362E+02  .362E+02  .362E+02  .362E+02  .362E+02  .362E+02  .362E+02
  .339E+02  .362E+02  .361E+02  .347E+02  .341E+02  .361E+02  .361E+02  .361E+02
  .361E+02  .420E+02  .415E+02  .341E+02  .398E+02  .595E+02  .359E+02  .564E+02
  .359E+02  .359E+02  .346E+02  .346E+02  .346E+02  .361E+02  .591E+02  .592E+02
  .361E+02  .344E+02  .344E+02  .361E+02  .361E+02  .361E+02  .361E+02  .344E+02
  .344E+02  .344E+02  .344E+02  .344E+02  .344E+02  .344E+02  .000E+00  .000E+00
  .000E+00  .000E+00  .000E+00  .000E+00  .000E+00  .000E+00  .000E+00  .000E+00
  .000E+00  .000E+00  .000E+00  .000E+00  .000E+00  .000E+00  .000E+00  .000E+00
  .000E+00  .000E+00  .000E+00  .000E+00
/&   ----------  End of spectral data for channel  1  ----------
Response and Fourier amplitude spectra (78 periods,  .04 -  6.0 sec)   for      
Corrected accelerogram   38695658.CI.CLT.--.HN      Chan  2: 360 Deg     from   
Uncorrected Accelerogram Data             Processed: 09/19/20, CGS  ciclt--b    
Rcrd of Fri Sep 18, 2020 23:38:37.0 PDT               (Avol1 v2.0, 4/18 CSMIP)  
                                        (Origin:  To be determined)             
38695658.CI.CLT.--.HN                Start time:  9/19/20, 06:38:37.0 UTC (GPS) 
Station Id. CLT     34.093N, 117.317W    Q330    s/n 4332  (3 Chns of  3 at Sta)
Colton, Grape St. and W. Mill St         SCSN   Data: Acceleration              
Chan  2: 360 Deg                                                                
Rcrd of Fri Sep 18, 2020 23:38:37.0 PDT    Fri Sep 18, 2020 23:38:37.0 PDT      
Hypocenter:  To be determined.               ML:  To be determined.             
Instr Period =  .0050 sec,  Damping =  .707,  Sensitivity = 4.98 v/g  (Nominal) 
                        Record Length =301.000 sec.                             
                                     Uncor Max  =  -.007 g, at   32.840 sec.    
RMS accel of (uncor) record  =        .   Chn. metadata effective date:         
Accelerogram bandpass filtered with 3 dB pts at   .30 and 23.00 cyc/sec         
                 instrument- and base-line correcte                             
                                                                                
                                                                                
                                                                                
                                                                                
                                                                                
Rcrd of Fri Sep 18, 2020 23:38:37.0 PDT    Fri Sep 18, 2020 23:38:37.0 PDT      
                                                                                
38695658.CI.CLT.--.HN     Colton, Grape St. and W. Mill St    Chan  2: 360 Deg  
                                                                                
38695658.CI.CLT.--.HN     Colton, Grape St. and W. Mill St    Chan  2: 360 Deg  
                                                                                
Units for spectra are inches and sec, except Sa is in fraction of g.            
                                                                                
    2  100    2    3    3  100 -999    3    1    0  605 4332    050601   41    0
    6   38   37    8  263    9   19 2020   10    3  36035330   39   32   74 -999
35330 -999  100    6 -999 -999 -999 -999 -999 -999 -999 -999 -999 -999 -999 -999
 -999 -999 -999 -99915050    2 -999    0 -999   20 -999 -999    3    1 -99915050
    315050    4   78    1    3    5    0    0 -999    0 -999 -999    6 -999    2
    2    2    4 -999 -999 -999 -999 -999 -999 -999 -999    1 -999 -999 -999  111
    1    1 -999 -999
      .005      .707   353.300      .000     1.000  4980.500     -.007    32.840
   200.000     2.384      .479  -999.000    10.000  -999.000     4.000  -999.000
    20.000    -3.580      .000  -999.000  -999.000  -999.000  -999.000      .002
      .000     -.002     2.000    15.000    34.093  -117.317      .047      .036
      .771     -.011      .007   325.000  -999.000  -999.000  -999.000  -999.000
     1.000  -999.000  -999.000  -999.000  -999.000  -999.000  -999.000   120.000
     -.900     2.000     6.800   980.665      .020   301.000    31.831      .000
  -999.000    23.000  -999.000   301.000      .020      .300  -999.000  -999.000
    32.840    -6.904    32.700     -.126    37.720      .007      .000      .300
    23.000      .020      .020      .000      .020      .010  -999.000  -999.000
      .021      .075      .011      .008      .001      .000  -999.000  -999.000
  -999.000  -999.000  -999.000  -999.000  -999.000  -999.000  -999.000  -999.000
  -999.000  -999.000  -999.000  -999.000
      .050
      .040      .042      .044      .046      .048      .050      .055      .060
      .065      .070      .075      .080      .085      .090      .095      .100
      .110      .120      .130      .140      .150      .160      .170      .180
      .190      .200      .220      .240      .260      .280      .300      .320
      .340      .360      .380      .400      .420      .440      .460      .480
      .500      .550      .600      .650      .700      .750      .800      .850
      .900      .950     1.000     1.100     1.200     1.300     1.400     1.500
     1.600     1.700     1.800     1.900     2.000     2.200     2.400     2.600
     2.800     3.000     3.200     3.400     3.600     3.800     4.000     4.200
     4.400     4.600     4.800     5.000     5.500     6.000      .000      .000
      .000      .000      .000      .000      .000      .000      .000      .000
      .000      .000      .000      .000      .000      .000      .000      .000
      .000      .000      .000      .000
Fourier amplitude spectra in in/sec.
  .000E+00  .000E+00  .000E+00  .000E+00  .000E+00  .000E+00  .000E+00  .000E+00
  .000E+00  .000E+00  .000E+00  .000E+00  .000E+00  .000E+00  .000E+00  .000E+00
  .000E+00  .000E+00  .000E+00  .000E+00  .000E+00  .000E+00  .000E+00  .000E+00
  .000E+00  .000E+00  .000E+00  .000E+00  .000E+00  .000E+00  .000E+00  .000E+00
  .000E+00  .000E+00  .000E+00  .000E+00  .000E+00  .000E+00  .000E+00  .000E+00
  .000E+00  .000E+00  .000E+00  .000E+00  .000E+00  .000E+00  .000E+00  .000E+00
  .000E+00  .000E+00  .000E+00  .000E+00  .000E+00  .000E+00  .000E+00  .000E+00
  .000E+00  .000E+00  .000E+00  .000E+00  .000E+00  .000E+00  .000E+00  .000E+00
  .000E+00  .000E+00  .000E+00  .000E+00  .000E+00  .000E+00  .000E+00  .000E+00
  .000E+00  .000E+00  .000E+00  .000E+00  .000E+00  .000E+00  .000E+00  .000E+00
  .000E+00  .000E+00  .000E+00  .000E+00  .000E+00  .000E+00  .000E+00  .000E+00
  .000E+00  .000E+00  .000E+00  .000E+00  .000E+00  .000E+00  .000E+00  .000E+00
  .000E+00  .000E+00  .000E+00  .000E+00
Damping =  .05. Data of Sd,Sv,Sa,Pssv,ttSd,ttSv,ttSa :
  .131E-03  .149E-03  .173E-03  .195E-03  .206E-03  .230E-03  .407E-03  .605E-03
  .700E-03  .852E-03  .115E-02  .121E-02  .142E-02  .113E-02  .123E-02  .127E-02
  .212E-02  .209E-02  .268E-02  .384E-02  .333E-02  .329E-02  .429E-02  .472E-02
  .456E-02  .427E-02  .379E-02  .484E-02  .574E-02  .694E-02  .738E-02  .647E-02
  .672E-02  .689E-02  .681E-02  .760E-02  .704E-02  .709E-02  .665E-02  .551E-02
