Response and Fourier amplitude spectra (78 periods,  .04 -  6.0 sec)   for      
Corrected accelerogram   38695658.CI.CLO.--.HN      Chan  1:  90 Deg     from   
Uncorrected Accelerogram Data             Processed: 09/19/20, CGS  ciclo--r    
Rcrd of Fri Sep 18, 2020 23:38:36.0 PDT               (Avol1 v2.0, 4/18 CSMIP)  
                                        (Origin:  To be determined)             
38695658.CI.CLO.--.HN                Start time:  9/19/20, 06:38:36.0 UTC (GPS) 
Station Id. CLO     34.220N, 119.009W    ObsMMS  s/n 1851  (3 Chns of  6 at Sta)
Camarillo                                SCSN   Data: Acceleration              
Chan  1:  90 Deg                                                                
Rcrd of Fri Sep 18, 2020 23:38:36.0 PDT    Fri Sep 18, 2020 23:38:36.0 PDT      
Hypocenter:  To be determined.               ML:  To be determined.             
Instr Period =  .0050 sec,  Damping =  .707,  Sensitivity = 4.97 v/g  (Nominal) 
                        Record Length =301.000 sec.                             
                                     Uncor Max  =   .005 g, at   38.240 sec.    
RMS accel of (uncor) record  =        .   Chn. metadata effective date:         
Accelerogram bandpass filtered with 3 dB pts at   .30 and 23.00 cyc/sec         
                 instrument- and base-line correcte                             
                                                                                
                                                                                
                                                                                
                                                                                
                                                                                
Rcrd of Fri Sep 18, 2020 23:38:36.0 PDT    Fri Sep 18, 2020 23:38:36.0 PDT      
                                                                                
38695658.CI.CLO.--.HN     Camarillo   Chan  1:  90 Deg                          
                                                                                
38695658.CI.CLO.--.HN     Camarillo   Chan  1:  90 Deg                          
                                                                                
Units for spectra are inches and sec, except Sa is in fraction of g.            
                                                                                
    1  100    1    6    6  100 -999    3    1    0   15 1851    0    0   41    0
    6   38   36   10  263    9   19 2020   10    3   9035964   39    9   74 -999
35964 -999  100    6 -999 -999 -999 -999 -999 -999 -999 -999 -999 -999 -999 -999
 -999 -999 -999 -99915050    2 -999    0 -999   20 -999 -999    3    1 -99915050
    315050    4   78    1    3    5    0    0 -999    0 -999 -999    6 -999    2
    2    2    4 -999 -999 -999 -999 -999 -999 -999 -999    1 -999 -999 -999  111
    1    1 -999 -999
      .005      .707   359.640      .000     1.000  4973.519      .005    38.240
   200.000     2.384      .479  -999.000    10.000  -999.000     4.000  -999.000
    20.000    -7.026      .000  -999.000  -999.000  -999.000  -999.000      .012
     -.011     -.023     2.000    15.000    34.220  -119.009      .004      .004
     1.176     -.024     -.022    48.000  -999.000  -999.000  -999.000  -999.000
     1.000  -999.000    -8.000  -999.000  -999.000  -999.000  -999.000   120.000
     -.900     2.000     6.800   980.665      .020   301.000    31.831      .002
  -999.000    23.000  -999.000   301.000      .020      .300  -999.000  -999.000
    38.240     4.679    38.280      .184    39.900     -.018      .000      .300
    23.000      .020      .020      .000      .020      .016  -999.000  -999.000
      .017      .130      .010      .012      .002      .000  -999.000  -999.000
  -999.000  -999.000  -999.000  -999.000  -999.000  -999.000  -999.000  -999.000
  -999.000  -999.000  -999.000  -999.000
      .050
      .040      .042      .044      .046      .048      .050      .055      .060
      .065      .070      .075      .080      .085      .090      .095      .100
      .110      .120      .130      .140      .150      .160      .170      .180
      .190      .200      .220      .240      .260      .280      .300      .320
      .340      .360      .380      .400      .420      .440      .460      .480
      .500      .550      .600      .650      .700      .750      .800      .850
      .900      .950     1.000     1.100     1.200     1.300     1.400     1.500
     1.600     1.700     1.800     1.900     2.000     2.200     2.400     2.600
     2.800     3.000     3.200     3.400     3.600     3.800     4.000     4.200
     4.400     4.600     4.800     5.000     5.500     6.000      .000      .000
      .000      .000      .000      .000      .000      .000      .000      .000
      .000      .000      .000      .000      .000      .000      .000      .000
      .000      .000      .000      .000
Fourier amplitude spectra in in/sec.
  .000E+00  .000E+00  .000E+00  .000E+00  .000E+00  .000E+00  .000E+00  .000E+00
  .000E+00  .000E+00  .000E+00  .000E+00  .000E+00  .000E+00  .000E+00  .000E+00
  .000E+00  .000E+00  .000E+00  .000E+00  .000E+00  .000E+00  .000E+00  .000E+00
  .000E+00  .000E+00  .000E+00  .000E+00  .000E+00  .000E+00  .000E+00  .000E+00
  .000E+00  .000E+00  .000E+00  .000E+00  .000E+00  .000E+00  .000E+00  .000E+00
  .000E+00  .000E+00  .000E+00  .000E+00  .000E+00  .000E+00  .000E+00  .000E+00
  .000E+00  .000E+00  .000E+00  .000E+00  .000E+00  .000E+00  .000E+00  .000E+00
  .000E+00  .000E+00  .000E+00  .000E+00  .000E+00  .000E+00  .000E+00  .000E+00
  .000E+00  .000E+00  .000E+00  .000E+00  .000E+00  .000E+00  .000E+00  .000E+00
  .000E+00  .000E+00  .000E+00  .000E+00  .000E+00  .000E+00  .000E+00  .000E+00
  .000E+00  .000E+00  .000E+00  .000E+00  .000E+00  .000E+00  .000E+00  .000E+00
  .000E+00  .000E+00  .000E+00  .000E+00  .000E+00  .000E+00  .000E+00  .000E+00
  .000E+00  .000E+00  .000E+00  .000E+00
Damping =  .05. Data of Sd,Sv,Sa,Pssv,ttSd,ttSv,ttSa :
  .753E-04  .847E-04  .955E-04  .107E-03  .118E-03  .130E-03  .170E-03  .216E-03
  .264E-03  .349E-03  .462E-03  .591E-03  .602E-03  .745E-03  .859E-03  .859E-03
  .125E-02  .201E-02  .276E-02  .304E-02  .328E-02  .278E-02  .300E-02  .319E-02
  .321E-02  .400E-02  .556E-02  .765E-02  .109E-01  .116E-01  .890E-02  .939E-02
  .973E-02  .113E-01  .114E-01  .107E-01  .117E-01  .125E-01  .131E-01  .157E-01
  .159E-01  .186E-01  .226E-01  .193E-01  .143E-01  .132E-01  .159E-01  .179E-01
  .161E-01  .172E-01  .159E-01  .139E-01  .109E-01  .131E-01  .150E-01  .140E-01
  .133E-01  .151E-01  .145E-01  .129E-01  .139E-01  .143E-01  .118E-01  .108E-01
  .100E-01  .999E-02  .955E-02  .909E-02  .873E-02  .846E-02  .819E-02  .795E-02
  .774E-02  .760E-02  .748E-02  .737E-02  .726E-02  .721E-02  .000E+00  .000E+00
  .000E+00  .000E+00  .000E+00  .000E+00  .000E+00  .000E+00  .000E+00  .000E+00
  .000E+00  .000E+00  .000E+00  .000E+00  .000E+00  .000E+00  .000E+00  .000E+00
  .000E+00  .000E+00  .000E+00  .000E+00
  .300E-02  .334E-02  .368E-02  .404E-02  .460E-02  .535E-02  .811E-02  .107E-01
  .160E-01  .228E-01  .284E-01  .345E-01  .346E-01  .424E-01  .484E-01  .507E-01
  .603E-01  .944E-01  .119E+00  .127E+00  .131E+00  .107E+00  .109E+00  .111E+00
  .108E+00  .118E+00  .153E+00  .196E+00  .259E+00  .277E+00  .200E+00  .179E+00
  .199E+00  .212E+00  .211E+00  .170E+00  .172E+00  .180E+00  .192E+00  .196E+00
  .214E+00  .237E+00  .269E+00  .229E+00  .169E+00  .146E+00  .144E+00  .167E+00
  .168E+00  .150E+00  .125E+00  .107E+00  .102E+00  .977E-01  .924E-01  .930E-01
  .935E-01  .926E-01  .881E-01  .851E-01  .840E-01  .820E-01  .789E-01  .758E-01
  .738E-01  .742E-01  .742E-01  .738E-01  .734E-01  .732E-01  .730E-01  .728E-01
  .726E-01  .724E-01  .722E-01  .721E-01  .717E-01  .715E-01  .000E+00  .000E+00
  .000E+00  .000E+00  .000E+00  .000E+00  .000E+00  .000E+00  .000E+00  .000E+00
  .000E+00  .000E+00  .000E+00  .000E+00  .000E+00  .000E+00  .000E+00  .000E+00
  .000E+00  .000E+00  .000E+00  .000E+00
  .482E-02  .491E-02  .504E-02  .515E-02  .522E-02  .533E-02  .574E-02  .613E-02
  .638E-02  .731E-02  .837E-02  .945E-02  .863E-02  .946E-02  .971E-02  .880E-02
  .107E-01  .143E-01  .170E-01  .161E-01  .150E-01  .112E-01  .106E-01  .102E-01
  .912E-02  .101E-01  .118E-01  .137E-01  .168E-01  .154E-01  .102E-01  .930E-02
  .859E-02  .905E-02  .810E-02  .693E-02  .689E-02  .671E-02  .635E-02  .700E-02
  .656E-02  .629E-02  .644E-02  .470E-02  .300E-02  .244E-02  .255E-02  .256E-02
  .205E-02  .197E-02  .164E-02  .118E-02  .785E-03  .800E-03  .784E-03  .643E-03
  .537E-03  .537E-03  .461E-03  .369E-03  .359E-03  .305E-03  .221E-03  .172E-03
  .144E-03  .126E-03  .108E-03  .929E-04  .811E-04  .718E-04  .640E-04  .574E-04
  .522E-04  .479E-04  .443E-04  .411E-04  .351E-04  .306E-04  .000E+00  .000E+00
  .000E+00  .000E+00  .000E+00  .000E+00  .000E+00  .000E+00  .000E+00  .000E+00
  .000E+00  .000E+00  .000E+00  .000E+00  .000E+00  .000E+00  .000E+00  .000E+00
  .000E+00  .000E+00  .000E+00  .000E+00
  .118E-01  .127E-01  .136E-01  .146E-01  .154E-01  .164E-01  .194E-01  .226E-01
  .255E-01  .313E-01  .387E-01  .464E-01  .445E-01  .520E-01  .568E-01  .540E-01
  .711E-01  .105E+00  .133E+00  .137E+00  .137E+00  .109E+00  .111E+00  .111E+00
  .106E+00  .126E+00  .159E+00  .200E+00  .263E+00  .261E+00  .186E+00  .184E+00
  .180E+00  .197E+00  .188E+00  .169E+00  .175E+00  .178E+00  .179E+00  .205E+00
  .200E+00  .212E+00  .236E+00  .186E+00  .128E+00  .111E+00  .125E+00  .132E+00
  .112E+00  .114E+00  .100E+00  .791E-01  .573E-01  .636E-01  .671E-01  .585E-01
  .524E-01  .557E-01  .505E-01  .427E-01  .437E-01  .409E-01  .310E-01  .262E-01
  .225E-01  .209E-01  .188E-01  .168E-01  .152E-01  .140E-01  .129E-01  .119E-01
  .110E-01  .104E-01  .979E-02  .926E-02  .830E-02  .755E-02  .000E+00  .000E+00
  .000E+00  .000E+00  .000E+00  .000E+00  .000E+00  .000E+00  .000E+00  .000E+00
  .000E+00  .000E+00  .000E+00  .000E+00  .000E+00  .000E+00  .000E+00  .000E+00
  .000E+00  .000E+00  .000E+00  .000E+00
  .382E+02  .382E+02  .382E+02  .382E+02  .382E+02  .382E+02  .382E+02  .382E+02
  .410E+02  .387E+02  .387E+02  .387E+02  .409E+02  .409E+02  .414E+02  .416E+02
  .418E+02  .391E+02  .391E+02  .405E+02  .406E+02  .404E+02  .425E+02  .421E+02
  .397E+02  .397E+02  .413E+02  .414E+02  .414E+02  .412E+02  .400E+02  .400E+02
  .400E+02  .409E+02  .405E+02  .405E+02  .405E+02  .405E+02  .396E+02  .396E+02
  .396E+02  .406E+02  .410E+02  .404E+02  .408E+02  .408E+02  .408E+02  .408E+02
  .405E+02  .439E+02  .440E+02  .621E+02  .474E+02  .789E+02  .724E+02  .500E+02
  .500E+02  .684E+02  .685E+02  .685E+02  .719E+02  .471E+02  .417E+02  .433E+02
  .399E+02  .399E+02  .399E+02  .399E+02  .399E+02  .399E+02  .399E+02  .399E+02
  .399E+02  .399E+02  .399E+02  .399E+02  .399E+02  .399E+02  .000E+00  .000E+00
  .000E+00  .000E+00  .000E+00  .000E+00  .000E+00  .000E+00  .000E+00  .000E+00
  .000E+00  .000E+00  .000E+00  .000E+00  .000E+00  .000E+00  .000E+00  .000E+00
  .000E+00  .000E+00  .000E+00  .000E+00
  .385E+02  .385E+02  .385E+02  .385E+02  .385E+02  .385E+02  .385E+02  .383E+02
  .387E+02  .387E+02  .387E+02  .387E+02  .388E+02  .409E+02  .409E+02  .416E+02
  .414E+02  .413E+02  .391E+02  .405E+02  .405E+02  .405E+02  .424E+02  .425E+02
  .403E+02  .397E+02  .416E+02  .414E+02  .412E+02  .412E+02  .410E+02  .399E+02
  .410E+02  .409E+02  .407E+02  .406E+02  .406E+02  .405E+02  .396E+02  .395E+02
  .395E+02  .405E+02  .405E+02  .409E+02  .409E+02  .409E+02  .409E+02  .403E+02
  .403E+02  .403E+02  .400E+02  .383E+02  .383E+02  .383E+02  .383E+02  .400E+02
  .400E+02  .400E+02  .400E+02  .400E+02  .400E+02  .400E+02  .400E+02  .400E+02
  .383E+02  .383E+02  .383E+02  .383E+02  .383E+02  .383E+02  .383E+02  .383E+02
  .383E+02  .383E+02  .383E+02  .383E+02  .383E+02  .383E+02  .000E+00  .000E+00
  .000E+00  .000E+00  .000E+00  .000E+00  .000E+00  .000E+00  .000E+00  .000E+00
  .000E+00  .000E+00  .000E+00  .000E+00  .000E+00  .000E+00  .000E+00  .000E+00
  .000E+00  .000E+00  .000E+00  .000E+00
  .382E+02  .382E+02  .382E+02  .382E+02  .382E+02  .382E+02  .382E+02  .382E+02
  .410E+02  .387E+02  .387E+02  .387E+02  .409E+02  .409E+02  .409E+02  .414E+02
  .418E+02  .391E+02  .391E+02  .405E+02  .406E+02  .403E+02  .425E+02  .421E+02
  .397E+02  .397E+02  .413E+02  .414E+02  .414E+02  .412E+02  .399E+02  .400E+02
  .400E+02  .409E+02  .405E+02  .405E+02  .405E+02  .405E+02  .396E+02  .396E+02
  .396E+02  .406E+02  .409E+02  .404E+02  .408E+02  .408E+02  .408E+02  .404E+02
  .404E+02  .439E+02  .440E+02  .621E+02  .474E+02  .789E+02  .723E+02  .500E+02
  .500E+02  .684E+02  .685E+02  .685E+02  .718E+02  .471E+02  .417E+02  .432E+02
  .398E+02  .398E+02  .398E+02  .398E+02  .398E+02  .398E+02  .398E+02  .398E+02
  .398E+02  .398E+02  .398E+02  .398E+02  .398E+02  .398E+02  .000E+00  .000E+00
  .000E+00  .000E+00  .000E+00  .000E+00  .000E+00  .000E+00  .000E+00  .000E+00
  .000E+00  .000E+00  .000E+00  .000E+00  .000E+00  .000E+00  .000E+00  .000E+00
  .000E+00  .000E+00  .000E+00  .000E+00
/&   ----------  End of spectral data for channel  1  ----------
Response and Fourier amplitude spectra (78 periods,  .04 -  6.0 sec)   for      
Corrected accelerogram   38695658.CI.CLO.--.HN      Chan  2: 360 Deg     from   
Uncorrected Accelerogram Data             Processed: 09/19/20, CGS  ciclo--r    
Rcrd of Fri Sep 18, 2020 23:38:36.0 PDT               (Avol1 v2.0, 4/18 CSMIP)  
                                        (Origin:  To be determined)             
38695658.CI.CLO.--.HN                Start time:  9/19/20, 06:38:36.0 UTC (GPS) 
Station Id. CLO     34.220N, 119.009W    ObsMMS  s/n 1851  (3 Chns of  6 at Sta)
Camarillo                                SCSN   Data: Acceleration              
Chan  2: 360 Deg                                                                
Rcrd of Fri Sep 18, 2020 23:38:36.0 PDT    Fri Sep 18, 2020 23:38:36.0 PDT      
Hypocenter:  To be determined.               ML:  To be determined.             
Instr Period =  .0050 sec,  Damping =  .707,  Sensitivity = 4.99 v/g  (Nominal) 
                        Record Length =301.000 sec.                             
                                     Uncor Max  =  -.006 g, at   40.500 sec.    
RMS accel of (uncor) record  =        .   Chn. metadata effective date:         
Accelerogram bandpass filtered with 3 dB pts at   .30 and 23.00 cyc/sec         
                 instrument- and base-line correcte                             
                                                                                
                                                                                
                                                                                
                                                                                
                                                                                
Rcrd of Fri Sep 18, 2020 23:38:36.0 PDT    Fri Sep 18, 2020 23:38:36.0 PDT      
                                                                                
38695658.CI.CLO.--.HN     Camarillo   Chan  2: 360 Deg                          
                                                                                
38695658.CI.CLO.--.HN     Camarillo   Chan  2: 360 Deg                          
                                                                                
Units for spectra are inches and sec, except Sa is in fraction of g.            
                                                                                
    2  100    2    6    6  100 -999    3    1    0   15 1851    0    0   41    0
    6   38   36   10  263    9   19 2020   10    3  36035911   39    9   74 -999
35911 -999  100    6 -999 -999 -999 -999 -999 -999 -999 -999 -999 -999 -999 -999
 -999 -999 -999 -99915050    2 -999    0 -999   20 -999 -999    3    1 -99915050
    315050    4   78    1    3    5    0    0 -999    0 -999 -999    6 -999    2
    2    2    4 -999 -999 -999 -999 -999 -999 -999 -999    1 -999 -999 -999  111
    1    1 -999 -999
      .005      .707   359.110      .000     1.000  4987.482     -.006    40.500
   200.000     2.384      .478  -999.000    10.000  -999.000     4.000  -999.000
    20.000    -2.113      .000  -999.000  -999.000  -999.000  -999.000      .005
     -.005     -.010     2.000    15.000    34.220  -119.009      .003      .004
     1.313     -.010     -.009    48.000  -999.000  -999.000  -999.000  -999.000
     1.000  -999.000  -999.000  -999.000  -999.000  -999.000  -999.000   120.000
     -.900     2.000     6.800   980.665      .020   301.000    31.831      .001
  -999.000    23.000  -999.000   301.000      .020      .300  -999.000  -999.000
    40.500    -6.258    38.060      .223    44.260     -.013      .000      .300
    23.000      .020      .020      .000      .020      .014  -999.000  -999.000
      .024      .130      .014      .013      .001      .000  -999.000  -999.000
  -999.000  -999.000  -999.000  -999.000  -999.000  -999.000  -999.000  -999.000
  -999.000  -999.000  -999.000  -999.000
      .050
      .040      .042      .044      .046      .048      .050      .055      .060
      .065      .070      .075      .080      .085      .090      .095      .100
      .110      .120      .130      .140      .150      .160      .170      .180
      .190      .200      .220      .240      .260      .280      .300      .320
      .340      .360      .380      .400      .420      .440      .460      .480
      .500      .550      .600      .650      .700      .750      .800      .850
      .900      .950     1.000     1.100     1.200     1.300     1.400     1.500
     1.600     1.700     1.800     1.900     2.000     2.200     2.400     2.600
     2.800     3.000     3.200     3.400     3.600     3.800     4.000     4.200
     4.400     4.600     4.800     5.000     5.500     6.000      .000      .000
      .000      .000      .000      .000      .000      .000      .000      .000
      .000      .000      .000      .000      .000      .000      .000      .000
      .000      .000      .000      .000
Fourier amplitude spectra in in/sec.
  .000E+00  .000E+00  .000E+00  .000E+00  .000E+00  .000E+00  .000E+00  .000E+00
  .000E+00  .000E+00  .000E+00  .000E+00  .000E+00  .000E+00  .000E+00  .000E+00
  .000E+00  .000E+00  .000E+00  .000E+00  .000E+00  .000E+00  .000E+00  .000E+00
  .000E+00  .000E+00  .000E+00  .000E+00  .000E+00  .000E+00  .000E+00  .000E+00
  .000E+00  .000E+00  .000E+00  .000E+00  .000E+00  .000E+00  .000E+00  .000E+00
  .000E+00  .000E+00  .000E+00  .000E+00  .000E+00  .000E+00  .000E+00  .000E+00
  .000E+00  .000E+00  .000E+00  .000E+00  .000E+00  .000E+00  .000E+00  .000E+00
  .000E+00  .000E+00  .000E+00  .000E+00  .000E+00  .000E+00  .000E+00  .000E+00
  .000E+00  .000E+00  .000E+00  .000E+00  .000E+00  .000E+00  .000E+00  .000E+00
  .000E+00  .000E+00  .000E+00  .000E+00  .000E+00  .000E+00  .000E+00  .000E+00
  .000E+00  .000E+00  .000E+00  .000E+00  .000E+00  .000E+00  .000E+00  .000E+00
  .000E+00  .000E+00  .000E+00  .000E+00  .000E+00  .000E+00  .000E+00  .000E+00
  .000E+00  .000E+00  .000E+00  .000E+00
Damping =  .05. Data of Sd,Sv,Sa,Pssv,ttSd,ttSv,ttSa :
  .101E-03  .113E-03  .127E-03  .141E-03  .157E-03  .177E-03  .228E-03  .275E-03
  .309E-03  .390E-03  .483E-03  .592E-03  .766E-03  .891E-03  .101E-02  .121E-02
  .164E-02  .265E-02  .393E-02  .434E-02  .420E-02  .424E-02  .366E-02  .351E-02
  .390E-02  .477E-02  .862E-02  .119E-01  .130E-01  .124E-01  .110E-01  .101E-01
  .915E-02  .908E-02  .103E-01  .117E-01  .125E-01  .127E-01  .122E-01  .127E-01
