Response and Fourier amplitude spectra (78 periods,  .04 -  6.0 sec)   for      
Corrected accelerogram   38695658.CI.CPT2.--.H      Chan  1:  90 Deg     from   
Uncorrected Accelerogram Data             Processed: 09/19/20, CGS  cicpt2-f    
Rcrd of Fri Sep 18, 2020 23:38:38.0 PDT               (Avol1 v2.0, 4/18 CSMIP)  
                                        (Origin:  To be determined)             
38695658.CI.CPT2.--.H                Start time:  9/19/20, 06:38:38.0 UTC (GPS) 
Station Id. CPT2    33.342N, 117.325W    ObsMMS  s/n 1933  (3 Chns of  6 at Sta)
Camp Pendleton 2                         SCSN   Data: Acceleration              
Chan  1:  90 Deg                                                                
Rcrd of Fri Sep 18, 2020 23:38:38.0 PDT    Fri Sep 18, 2020 23:38:38.0 PDT      
Hypocenter:  To be determined.               ML:  To be determined.             
Instr Period =  .0050 sec,  Damping =  .707,  Sensitivity = 4.98 v/g  (Nominal) 
                        Record Length =301.000 sec.                             
                                     Uncor Max  =  -.006 g, at   40.820 sec.    
RMS accel of (uncor) record  =        .   Chn. metadata effective date:         
Accelerogram bandpass filtered with 3 dB pts at   .30 and 23.00 cyc/sec         
                 instrument- and base-line correcte                             
                                                                                
                                                                                
                                                                                
                                                                                
                                                                                
Rcrd of Fri Sep 18, 2020 23:38:38.0 PDT    Fri Sep 18, 2020 23:38:38.0 PDT      
                                                                                
38695658.CI.CPT2.--.H     Camp Pendleton 2    Chan  1:  90 Deg                  
                                                                                
38695658.CI.CPT2.--.H     Camp Pendleton 2    Chan  1:  90 Deg                  
                                                                                
Units for spectra are inches and sec, except Sa is in fraction of g.            
                                                                                
    1  100    1    6    6  100 -999    3    1    0   15 1933    0    0   41    0
    6   38   38   10  263    9   19 2020   10    3   9036239   39   16   74 -999
36239 -999  100    6 -999 -999 -999 -999 -999 -999 -999 -999 -999 -999 -999 -999
 -999 -999 -999 -99915050    2 -999    0 -999   20 -999 -999    3    1 753615050
    315050    4   78    1    3    5    0    0 -999    0 -999 -999    6 -999    2
    2    2    4 -999 -999 -999 -999 -999 -999 -999 -999    1 -999 -999 -999  111
    1    1 -999 -999
      .005      .707   362.390      .000     1.000  4980.678     -.006    40.820
   200.000     2.384      .479  -999.000    10.000  -999.000     4.000  -999.000
    20.000    -1.946      .000  -999.000  -999.000  -999.000  -999.000      .001
     -.001     -.002     2.000    15.000    33.342  -117.325      .001      .001
     1.088     -.002     -.001   771.000  -999.000  -999.000  -999.000  -999.000
     1.000  -999.000    -8.000  -999.000  -999.000  -999.000  -999.000   120.000
     -.900     2.000     6.800   980.665      .020   301.000    31.831      .000
  -999.000    23.000  -999.000   301.000      .020      .300  -999.000  -999.000
    40.820    -6.136    40.620     -.195    42.480      .009      .000      .300
    23.000      .020      .020      .000      .020      .009  -999.000  -999.000
      .023      .085      .015      .018      .001      .000  -999.000  -999.000
  -999.000  -999.000  -999.000  -999.000  -999.000  -999.000  -999.000  -999.000
  -999.000  -999.000  -999.000  -999.000
      .050
      .040      .042      .044      .046      .048      .050      .055      .060
      .065      .070      .075      .080      .085      .090      .095      .100
      .110      .120      .130      .140      .150      .160      .170      .180
      .190      .200      .220      .240      .260      .280      .300      .320
      .340      .360      .380      .400      .420      .440      .460      .480
      .500      .550      .600      .650      .700      .750      .800      .850
      .900      .950     1.000     1.100     1.200     1.300     1.400     1.500
     1.600     1.700     1.800     1.900     2.000     2.200     2.400     2.600
     2.800     3.000     3.200     3.400     3.600     3.800     4.000     4.200
     4.400     4.600     4.800     5.000     5.500     6.000      .000      .000
      .000      .000      .000      .000      .000      .000      .000      .000
      .000      .000      .000      .000      .000      .000      .000      .000
      .000      .000      .000      .000
Fourier amplitude spectra in in/sec.
  .000E+00  .000E+00  .000E+00  .000E+00  .000E+00  .000E+00  .000E+00  .000E+00
  .000E+00  .000E+00  .000E+00  .000E+00  .000E+00  .000E+00  .000E+00  .000E+00
  .000E+00  .000E+00  .000E+00  .000E+00  .000E+00  .000E+00  .000E+00  .000E+00
  .000E+00  .000E+00  .000E+00  .000E+00  .000E+00  .000E+00  .000E+00  .000E+00
  .000E+00  .000E+00  .000E+00  .000E+00  .000E+00  .000E+00  .000E+00  .000E+00
  .000E+00  .000E+00  .000E+00  .000E+00  .000E+00  .000E+00  .000E+00  .000E+00
  .000E+00  .000E+00  .000E+00  .000E+00  .000E+00  .000E+00  .000E+00  .000E+00
  .000E+00  .000E+00  .000E+00  .000E+00  .000E+00  .000E+00  .000E+00  .000E+00
  .000E+00  .000E+00  .000E+00  .000E+00  .000E+00  .000E+00  .000E+00  .000E+00
  .000E+00  .000E+00  .000E+00  .000E+00  .000E+00  .000E+00  .000E+00  .000E+00
  .000E+00  .000E+00  .000E+00  .000E+00  .000E+00  .000E+00  .000E+00  .000E+00
  .000E+00  .000E+00  .000E+00  .000E+00  .000E+00  .000E+00  .000E+00  .000E+00
  .000E+00  .000E+00  .000E+00  .000E+00
Damping =  .05. Data of Sd,Sv,Sa,Pssv,ttSd,ttSv,ttSa :
  .101E-03  .113E-03  .127E-03  .144E-03  .166E-03  .186E-03  .242E-03  .316E-03
  .409E-03  .543E-03  .754E-03  .117E-02  .163E-02  .175E-02  .190E-02  .184E-02
  .184E-02  .226E-02  .220E-02  .257E-02  .246E-02  .317E-02  .288E-02  .304E-02
  .377E-02  .516E-02  .970E-02  .131E-01  .129E-01  .164E-01  .160E-01  .145E-01
  .129E-01  .119E-01  .124E-01  .138E-01  .133E-01  .125E-01  .115E-01  .100E-01
  .845E-02  .651E-02  .590E-02  .666E-02  .656E-02  .753E-02  .764E-02  .697E-02
  .606E-02  .577E-02  .583E-02  .604E-02  .560E-02  .553E-02  .511E-02  .472E-02
  .449E-02  .409E-02  .445E-02  .452E-02  .450E-02  .438E-02  .465E-02  .455E-02
  .401E-02  .374E-02  .364E-02  .358E-02  .359E-02  .361E-02  .361E-02  .359E-02
  .358E-02  .358E-02  .359E-02  .361E-02  .358E-02  .353E-02  .000E+00  .000E+00
  .000E+00  .000E+00  .000E+00  .000E+00  .000E+00  .000E+00  .000E+00  .000E+00
  .000E+00  .000E+00  .000E+00  .000E+00  .000E+00  .000E+00  .000E+00  .000E+00
  .000E+00  .000E+00  .000E+00  .000E+00
  .647E-02  .721E-02  .786E-02  .850E-02  .957E-02  .117E-01  .165E-01  .199E-01
  .273E-01  .396E-01  .517E-01  .820E-01  .113E+00  .107E+00  .111E+00  .110E+00
  .864E-01  .108E+00  .935E-01  .110E+00  .998E-01  .110E+00  .103E+00  .100E+00
  .115E+00  .136E+00  .266E+00  .342E+00  .321E+00  .390E+00  .376E+00  .283E+00
  .259E+00  .259E+00  .239E+00  .235E+00  .226E+00  .215E+00  .185E+00  .170E+00
  .152E+00  .126E+00  .110E+00  .111E+00  .120E+00  .117E+00  .102E+00  .997E-01
  .100E+00  .943E-01  .879E-01  .862E-01  .833E-01  .811E-01  .818E-01  .810E-01
  .809E-01  .797E-01  .775E-01  .765E-01  .763E-01  .780E-01  .780E-01  .774E-01
  .765E-01  .759E-01  .754E-01  .751E-01  .748E-01  .745E-01  .743E-01  .741E-01
  .739E-01  .738E-01  .738E-01  .737E-01  .737E-01  .738E-01  .000E+00  .000E+00
  .000E+00  .000E+00  .000E+00  .000E+00  .000E+00  .000E+00  .000E+00  .000E+00
  .000E+00  .000E+00  .000E+00  .000E+00  .000E+00  .000E+00  .000E+00  .000E+00
  .000E+00  .000E+00  .000E+00  .000E+00
  .650E-02  .659E-02  .671E-02  .696E-02  .734E-02  .766E-02  .817E-02  .905E-02
  .100E-01  .115E-01  .138E-01  .186E-01  .235E-01  .224E-01  .214E-01  .187E-01
  .156E-01  .162E-01  .132E-01  .133E-01  .113E-01  .127E-01  .102E-01  .970E-02
  .108E-01  .134E-01  .202E-01  .234E-01  .198E-01  .213E-01  .182E-01  .146E-01
  .115E-01  .940E-02  .893E-02  .890E-02  .774E-02  .666E-02  .560E-02  .448E-02
  .352E-02  .222E-02  .170E-02  .163E-02  .138E-02  .139E-02  .124E-02  .102E-02
  .789E-03  .666E-03  .609E-03  .524E-03  .408E-03  .345E-03  .278E-03  .226E-03
  .194E-03  .163E-03  .158E-03  .145E-03  .132E-03  .107E-03  .975E-04  .837E-04
  .670E-04  .603E-04  .536E-04  .482E-04  .438E-04  .398E-04  .362E-04  .334E-04
  .315E-04  .300E-04  .286E-04  .274E-04  .248E-04  .226E-04  .000E+00  .000E+00
  .000E+00  .000E+00  .000E+00  .000E+00  .000E+00  .000E+00  .000E+00  .000E+00
  .000E+00  .000E+00  .000E+00  .000E+00  .000E+00  .000E+00  .000E+00  .000E+00
  .000E+00  .000E+00  .000E+00  .000E+00
  .159E-01  .169E-01  .181E-01  .197E-01  .217E-01  .234E-01  .277E-01  .331E-01
  .395E-01  .487E-01  .631E-01  .917E-01  .120E+00  .122E+00  .126E+00  .115E+00
  .105E+00  .118E+00  .106E+00  .115E+00  .103E+00  .125E+00  .106E+00  .106E+00
  .125E+00  .162E+00  .277E+00  .342E+00  .312E+00  .367E+00  .335E+00  .285E+00
  .238E+00  .208E+00  .204E+00  .216E+00  .199E+00  .179E+00  .157E+00  .131E+00
  .106E+00  .744E-01  .618E-01  .644E-01  .589E-01  .631E-01  .600E-01  .515E-01
  .423E-01  .382E-01  .366E-01  .345E-01  .293E-01  .267E-01  .229E-01  .198E-01
  .176E-01  .151E-01  .155E-01  .149E-01  .141E-01  .125E-01  .122E-01  .110E-01
  .901E-02  .783E-02  .715E-02  .662E-02  .627E-02  .597E-02  .566E-02  .537E-02
  .511E-02  .488E-02  .470E-02  .454E-02  .410E-02  .370E-02  .000E+00  .000E+00
  .000E+00  .000E+00  .000E+00  .000E+00  .000E+00  .000E+00  .000E+00  .000E+00
  .000E+00  .000E+00  .000E+00  .000E+00  .000E+00  .000E+00  .000E+00  .000E+00
  .000E+00  .000E+00  .000E+00  .000E+00
  .395E+02  .396E+02  .396E+02  .396E+02  .396E+02  .395E+02  .396E+02  .392E+02
  .408E+02  .408E+02  .400E+02  .397E+02  .397E+02  .392E+02  .393E+02  .400E+02
  .406E+02  .409E+02  .390E+02  .390E+02  .397E+02  .398E+02  .399E+02  .399E+02
  .399E+02  .407E+02  .409E+02  .412E+02  .419E+02  .400E+02  .408E+02  .427E+02
  .427E+02  .395E+02  .393E+02  .393E+02  .394E+02  .392E+02  .392E+02  .392E+02
  .390E+02  .389E+02  .387E+02  .398E+02  .398E+02  .392E+02  .392E+02  .392E+02
  .392E+02  .390E+02  .391E+02  .421E+02  .391E+02  .391E+02  .391E+02  .391E+02
  .425E+02  .407E+02  .407E+02  .407E+02  .407E+02  .421E+02  .425E+02  .425E+02
  .425E+02  .392E+02  .392E+02  .392E+02  .382E+02  .382E+02  .382E+02  .382E+02
  .425E+02  .425E+02  .425E+02  .425E+02  .425E+02  .425E+02  .000E+00  .000E+00
  .000E+00  .000E+00  .000E+00  .000E+00  .000E+00  .000E+00  .000E+00  .000E+00
  .000E+00  .000E+00  .000E+00  .000E+00  .000E+00  .000E+00  .000E+00  .000E+00
  .000E+00  .000E+00  .000E+00  .000E+00
  .396E+02  .396E+02  .396E+02  .396E+02  .396E+02  .396E+02  .396E+02  .396E+02
  .396E+02  .400E+02  .400E+02  .397E+02  .397E+02  .392E+02  .401E+02  .401E+02
  .407E+02  .409E+02  .391E+02  .390E+02  .390E+02  .397E+02  .400E+02  .400E+02
  .400E+02  .406E+02  .409E+02  .413E+02  .399E+02  .399E+02  .408E+02  .426E+02
  .397E+02  .396E+02  .394E+02  .394E+02  .393E+02  .393E+02  .393E+02  .398E+02
  .390E+02  .390E+02  .398E+02  .398E+02  .397E+02  .397E+02  .406E+02  .396E+02
  .396E+02  .396E+02  .396E+02  .398E+02  .398E+02  .390E+02  .390E+02  .390E+02
  .390E+02  .390E+02  .390E+02  .390E+02  .406E+02  .406E+02  .406E+02  .406E+02
  .406E+02  .398E+02  .398E+02  .398E+02  .398E+02  .398E+02  .398E+02  .398E+02
  .398E+02  .398E+02  .398E+02  .398E+02  .406E+02  .406E+02  .000E+00  .000E+00
  .000E+00  .000E+00  .000E+00  .000E+00  .000E+00  .000E+00  .000E+00  .000E+00
  .000E+00  .000E+00  .000E+00  .000E+00  .000E+00  .000E+00  .000E+00  .000E+00
  .000E+00  .000E+00  .000E+00  .000E+00
  .395E+02  .408E+02  .395E+02  .395E+02  .396E+02  .395E+02  .396E+02  .392E+02
  .408E+02  .408E+02  .400E+02  .397E+02  .397E+02  .392E+02  .393E+02  .400E+02
  .406E+02  .409E+02  .390E+02  .390E+02  .396E+02  .398E+02  .399E+02  .399E+02
  .399E+02  .407E+02  .409E+02  .413E+02  .399E+02  .398E+02  .408E+02  .427E+02
  .427E+02  .395E+02  .393E+02  .393E+02  .394E+02  .392E+02  .392E+02  .392E+02
  .390E+02  .389E+02  .387E+02  .398E+02  .398E+02  .392E+02  .392E+02  .392E+02
  .392E+02  .390E+02  .390E+02  .421E+02  .390E+02  .390E+02  .390E+02  .390E+02
  .424E+02  .406E+02  .406E+02  .406E+02  .406E+02  .421E+02  .424E+02  .424E+02
  .424E+02  .392E+02  .392E+02  .392E+02  .392E+02  .392E+02  .392E+02  .397E+02
  .406E+02  .406E+02  .406E+02  .406E+02  .406E+02  .406E+02  .000E+00  .000E+00
  .000E+00  .000E+00  .000E+00  .000E+00  .000E+00  .000E+00  .000E+00  .000E+00
  .000E+00  .000E+00  .000E+00  .000E+00  .000E+00  .000E+00  .000E+00  .000E+00
  .000E+00  .000E+00  .000E+00  .000E+00
/&   ----------  End of spectral data for channel  1  ----------
Response and Fourier amplitude spectra (78 periods,  .04 -  6.0 sec)   for      
Corrected accelerogram   38695658.CI.CPT2.--.H      Chan  2: 360 Deg     from   
Uncorrected Accelerogram Data             Processed: 09/19/20, CGS  cicpt2-f    
Rcrd of Fri Sep 18, 2020 23:38:38.0 PDT               (Avol1 v2.0, 4/18 CSMIP)  
                                        (Origin:  To be determined)             
38695658.CI.CPT2.--.H                Start time:  9/19/20, 06:38:38.0 UTC (GPS) 
Station Id. CPT2    33.342N, 117.325W    ObsMMS  s/n 1933  (3 Chns of  6 at Sta)
Camp Pendleton 2                         SCSN   Data: Acceleration              
Chan  2: 360 Deg                                                                
Rcrd of Fri Sep 18, 2020 23:38:38.0 PDT    Fri Sep 18, 2020 23:38:38.0 PDT      
Hypocenter:  To be determined.               ML:  To be determined.             
Instr Period =  .0050 sec,  Damping =  .707,  Sensitivity = 4.98 v/g  (Nominal) 
                        Record Length =301.000 sec.                             
                                     Uncor Max  =  -.016 g, at   39.710 sec.    
RMS accel of (uncor) record  =        .   Chn. metadata effective date:         
Accelerogram bandpass filtered with 3 dB pts at   .30 and 23.00 cyc/sec         
                 instrument- and base-line correcte                             
                                                                                
                                                                                
                                                                                
                                                                                
                                                                                
Rcrd of Fri Sep 18, 2020 23:38:38.0 PDT    Fri Sep 18, 2020 23:38:38.0 PDT      
                                                                                
38695658.CI.CPT2.--.H     Camp Pendleton 2    Chan  2: 360 Deg                  
                                                                                
38695658.CI.CPT2.--.H     Camp Pendleton 2    Chan  2: 360 Deg                  
                                                                                
Units for spectra are inches and sec, except Sa is in fraction of g.            
                                                                                
    2  100    2    6    6  100 -999    3    1    0   15 1933    0    0   41    0
    6   38   38   10  263    9   19 2020   10    3  36035872   39   16   74 -999
35872 -999  100    6 -999 -999 -999 -999 -999 -999 -999 -999 -999 -999 -999 -999
 -999 -999 -999 -99915050    2 -999    0 -999   20 -999 -999    3    1 753615050
    315050    4   78    1    3    5    0    0 -999    0 -999 -999    6 -999    2
    2    2    4 -999 -999 -999 -999 -999 -999 -999 -999    1 -999 -999 -999  111
    1    1 -999 -999
      .005      .707   358.720      .000     1.000  4983.670     -.016    39.710
   200.000     2.384      .478  -999.000    10.000  -999.000     4.000  -999.000
    20.000    -7.321      .000  -999.000  -999.000  -999.000  -999.000     -.017
      .016      .033     2.000    15.000    33.342  -117.325      .001      .001
     1.050      .032      .033   771.000  -999.000  -999.000  -999.000  -999.000
     1.000  -999.000  -999.000  -999.000  -999.000  -999.000  -999.000   120.000
     -.900     2.000     6.800   980.665      .020   301.000    31.831     -.003
  -999.000    23.000  -999.000   301.000      .020      .300  -999.000  -999.000
    39.700   -14.980    39.780     -.445    39.700      .026      .000      .300
    23.000      .020      .020      .000      .020      .010  -999.000  -999.000
      .051      .260      .029      .039      .001      .000  -999.000  -999.000
  -999.000  -999.000  -999.000  -999.000  -999.000  -999.000  -999.000  -999.000
  -999.000  -999.000  -999.000  -999.000
      .050
      .040      .042      .044      .046      .048      .050      .055      .060
      .065      .070      .075      .080      .085      .090      .095      .100
      .110      .120      .130      .140      .150      .160      .170      .180
      .190      .200      .220      .240      .260      .280      .300      .320
      .340      .360      .380      .400      .420      .440      .460      .480
      .500      .550      .600      .650      .700      .750      .800      .850
      .900      .950     1.000     1.100     1.200     1.300     1.400     1.500
     1.600     1.700     1.800     1.900     2.000     2.200     2.400     2.600
     2.800     3.000     3.200     3.400     3.600     3.800     4.000     4.200
     4.400     4.600     4.800     5.000     5.500     6.000      .000      .000
      .000      .000      .000      .000      .000      .000      .000      .000
      .000      .000      .000      .000      .000      .000      .000      .000
      .000      .000      .000      .000
Fourier amplitude spectra in in/sec.
  .000E+00  .000E+00  .000E+00  .000E+00  .000E+00  .000E+00  .000E+00  .000E+00
  .000E+00  .000E+00  .000E+00  .000E+00  .000E+00  .000E+00  .000E+00  .000E+00
  .000E+00  .000E+00  .000E+00  .000E+00  .000E+00  .000E+00  .000E+00  .000E+00
  .000E+00  .000E+00  .000E+00  .000E+00  .000E+00  .000E+00  .000E+00  .000E+00
  .000E+00  .000E+00  .000E+00  .000E+00  .000E+00  .000E+00  .000E+00  .000E+00
  .000E+00  .000E+00  .000E+00  .000E+00  .000E+00  .000E+00  .000E+00  .000E+00
  .000E+00  .000E+00  .000E+00  .000E+00  .000E+00  .000E+00  .000E+00  .000E+00
  .000E+00  .000E+00  .000E+00  .000E+00  .000E+00  .000E+00  .000E+00  .000E+00
  .000E+00  .000E+00  .000E+00  .000E+00  .000E+00  .000E+00  .000E+00  .000E+00
  .000E+00  .000E+00  .000E+00  .000E+00  .000E+00  .000E+00  .000E+00  .000E+00
  .000E+00  .000E+00  .000E+00  .000E+00  .000E+00  .000E+00  .000E+00  .000E+00
  .000E+00  .000E+00  .000E+00  .000E+00  .000E+00  .000E+00  .000E+00  .000E+00
  .000E+00  .000E+00  .000E+00  .000E+00
Damping =  .05. Data of Sd,Sv,Sa,Pssv,ttSd,ttSv,ttSa :
  .265E-03  .298E-03  .333E-03  .371E-03  .405E-03  .443E-03  .573E-03  .724E-03
  .862E-03  .121E-02  .172E-02  .228E-02  .253E-02  .239E-02  .249E-02  .263E-02
  .365E-02  .459E-02  .386E-02  .415E-02  .400E-02  .402E-02  .506E-02  .689E-02
  .968E-02  .116E-01  .141E-01  .212E-01  .340E-01  .377E-01  .308E-01  .307E-01
  .351E-01  .356E-01  .324E-01  .278E-01  .223E-01  .184E-01  .165E-01  .157E-01
