Response and Fourier amplitude spectra (78 periods,  .04 -  6.0 sec)   for      
Corrected accelerogram   38695658.CI.CRF.--.HN      Chan  1:  90 Deg     from   
Uncorrected Accelerogram Data             Processed: 09/19/20, CGS  cicrf--p    
Rcrd of Fri Sep 18, 2020 23:38:27.0 PDT               (Avol1 v2.0, 4/18 CSMIP)  
                                        (Origin:  To be determined)             
38695658.CI.CRF.--.HN                Start time:  9/19/20, 06:38:27.0 UTC (GPS) 
Station Id. CRF     33.874N, 118.039W    ObsMMS  s/n 1112  (3 Chns of  6 at Sta)
Cerritos Fire Station aka LACoFD Station SCSN   Data: Acceleration              
Chan  1:  90 Deg                                                                
Rcrd of Fri Sep 18, 2020 23:38:27.0 PDT    Fri Sep 18, 2020 23:38:27.0 PDT      
Hypocenter:  To be determined.               ML:  To be determined.             
Instr Period =  .0050 sec,  Damping =  .707,  Sensitivity = 4.99 v/g  (Nominal) 
                        Record Length =301.000 sec.                             
                                     Uncor Max  =   .035 g, at   30.060 sec.    
RMS accel of (uncor) record  =        .   Chn. metadata effective date:         
Accelerogram bandpass filtered with 3 dB pts at   .30 and 23.00 cyc/sec         
                 instrument- and base-line correcte                             
                                                                                
                                                                                
                                                                                
                                                                                
                                                                                
Rcrd of Fri Sep 18, 2020 23:38:27.0 PDT    Fri Sep 18, 2020 23:38:27.0 PDT      
                                                                                
38695658.CI.CRF.--.HN     Cerritos Fire Station aka LACoFD Station SCSChan  1:  
90 Deg                                                                          
38695658.CI.CRF.--.HN     Cerritos Fire Station aka LACoFD Station SCSChan  1:  
90 Deg                                                                          
Units for spectra are inches and sec, except Sa is in fraction of g.            
                                                                                
    1  100    1    6    6  100 -999    3    1    0   15 1112    0    0   41    0
    6   38   27    0  263    9   19 2020   10    3   9035537   39   40   74 -999
35537 -999  100    6 -999 -999 -999 -999 -999 -999 -999 -999 -999 -999 -999 -999
 -999 -999 -999 -99915050    2 -999    0 -999   20 -999 -999    3    1 507215050
    315050    4   78    1    3    5    0    0 -999    0 -999 -999    6 -999    2
    2    2    4 -999 -999 -999 -999 -999 -999 -999 -999    1 -999 -999 -999  111
    1    1 -999 -999
      .005      .707   355.370      .001     1.000  4993.665      .035    30.060
   200.000     2.384      .477  -999.000    10.000  -999.000     4.000  -999.000
    20.000    -2.997      .000  -999.000  -999.000  -999.000  -999.000     -.001
      .000      .001     2.000    15.000    33.874  -118.039      .018      .010
      .547     -.002      .005    18.100  -999.000  -999.000  -999.000  -999.000
     1.000  -999.000    -8.000  -999.000  -999.000  -999.000  -999.000   120.000
     -.900     2.000     6.800   980.665      .020   301.000    31.831      .000
  -999.000    23.000  -999.000   301.000      .020      .300  -999.000  -999.000
    30.060    34.813    30.100     1.107    29.200      .045      .000      .300
    23.000      .020      .020      .000      .020      .041  -999.000  -999.000
      .098      .180      .081      .029      .003      .000  -999.000  -999.000
  -999.000  -999.000  -999.000  -999.000  -999.000  -999.000  -999.000  -999.000
  -999.000  -999.000  -999.000  -999.000
      .050
      .040      .042      .044      .046      .048      .050      .055      .060
      .065      .070      .075      .080      .085      .090      .095      .100
      .110      .120      .130      .140      .150      .160      .170      .180
      .190      .200      .220      .240      .260      .280      .300      .320
      .340      .360      .380      .400      .420      .440      .460      .480
      .500      .550      .600      .650      .700      .750      .800      .850
      .900      .950     1.000     1.100     1.200     1.300     1.400     1.500
     1.600     1.700     1.800     1.900     2.000     2.200     2.400     2.600
     2.800     3.000     3.200     3.400     3.600     3.800     4.000     4.200
     4.400     4.600     4.800     5.000     5.500     6.000      .000      .000
      .000      .000      .000      .000      .000      .000      .000      .000
      .000      .000      .000      .000      .000      .000      .000      .000
      .000      .000      .000      .000
Fourier amplitude spectra in in/sec.
  .000E+00  .000E+00  .000E+00  .000E+00  .000E+00  .000E+00  .000E+00  .000E+00
  .000E+00  .000E+00  .000E+00  .000E+00  .000E+00  .000E+00  .000E+00  .000E+00
  .000E+00  .000E+00  .000E+00  .000E+00  .000E+00  .000E+00  .000E+00  .000E+00
  .000E+00  .000E+00  .000E+00  .000E+00  .000E+00  .000E+00  .000E+00  .000E+00
  .000E+00  .000E+00  .000E+00  .000E+00  .000E+00  .000E+00  .000E+00  .000E+00
  .000E+00  .000E+00  .000E+00  .000E+00  .000E+00  .000E+00  .000E+00  .000E+00
  .000E+00  .000E+00  .000E+00  .000E+00  .000E+00  .000E+00  .000E+00  .000E+00
  .000E+00  .000E+00  .000E+00  .000E+00  .000E+00  .000E+00  .000E+00  .000E+00
  .000E+00  .000E+00  .000E+00  .000E+00  .000E+00  .000E+00  .000E+00  .000E+00
  .000E+00  .000E+00  .000E+00  .000E+00  .000E+00  .000E+00  .000E+00  .000E+00
  .000E+00  .000E+00  .000E+00  .000E+00  .000E+00  .000E+00  .000E+00  .000E+00
  .000E+00  .000E+00  .000E+00  .000E+00  .000E+00  .000E+00  .000E+00  .000E+00
  .000E+00  .000E+00  .000E+00  .000E+00
Damping =  .05. Data of Sd,Sv,Sa,Pssv,ttSd,ttSv,ttSa :
  .561E-03  .631E-03  .700E-03  .758E-03  .844E-03  .967E-03  .131E-02  .169E-02
  .228E-02  .299E-02  .382E-02  .472E-02  .616E-02  .702E-02  .683E-02  .800E-02
  .104E-01  .130E-01  .139E-01  .169E-01  .202E-01  .245E-01  .271E-01  .305E-01
  .320E-01  .294E-01  .364E-01  .480E-01  .413E-01  .272E-01  .220E-01  .254E-01
  .296E-01  .270E-01  .361E-01  .430E-01  .448E-01  .496E-01  .562E-01  .578E-01
  .563E-01  .521E-01  .456E-01  .360E-01  .325E-01  .322E-01  .316E-01  .286E-01
  .234E-01  .255E-01  .276E-01  .300E-01  .296E-01  .298E-01  .339E-01  .381E-01
  .431E-01  .402E-01  .350E-01  .303E-01  .302E-01  .270E-01  .217E-01  .252E-01
  .273E-01  .279E-01  .304E-01  .271E-01  .251E-01  .236E-01  .221E-01  .212E-01
  .207E-01  .202E-01  .197E-01  .192E-01  .182E-01  .181E-01  .000E+00  .000E+00
  .000E+00  .000E+00  .000E+00  .000E+00  .000E+00  .000E+00  .000E+00  .000E+00
  .000E+00  .000E+00  .000E+00  .000E+00  .000E+00  .000E+00  .000E+00  .000E+00
  .000E+00  .000E+00  .000E+00  .000E+00
  .277E-01  .298E-01  .313E-01  .352E-01  .435E-01  .533E-01  .664E-01  .104E+00
  .119E+00  .161E+00  .211E+00  .278E+00  .365E+00  .450E+00  .383E+00  .470E+00
  .558E+00  .563E+00  .584E+00  .686E+00  .802E+00  .970E+00  .105E+01  .112E+01
  .110E+01  .101E+01  .120E+01  .135E+01  .109E+01  .775E+00  .599E+00  .566E+00
  .594E+00  .565E+00  .654E+00  .715E+00  .740E+00  .730E+00  .823E+00  .884E+00
  .889E+00  .707E+00  .618E+00  .610E+00  .558E+00  .506E+00  .466E+00  .445E+00
  .436E+00  .436E+00  .441E+00  .460E+00  .472E+00  .476E+00  .477E+00  .475E+00
  .473E+00  .470E+00  .467E+00  .464E+00  .461E+00  .455E+00  .448E+00  .443E+00
  .439E+00  .435E+00  .433E+00  .431E+00  .430E+00  .429E+00  .428E+00  .427E+00
  .427E+00  .427E+00  .427E+00  .426E+00  .426E+00  .426E+00  .000E+00  .000E+00
  .000E+00  .000E+00  .000E+00  .000E+00  .000E+00  .000E+00  .000E+00  .000E+00
  .000E+00  .000E+00  .000E+00  .000E+00  .000E+00  .000E+00  .000E+00  .000E+00
  .000E+00  .000E+00  .000E+00  .000E+00
  .359E-01  .366E-01  .370E-01  .366E-01  .375E-01  .396E-01  .441E-01  .477E-01
  .558E-01  .631E-01  .697E-01  .746E-01  .877E-01  .900E-01  .776E-01  .839E-01
  .886E-01  .925E-01  .834E-01  .893E-01  .931E-01  .970E-01  .956E-01  .976E-01
  .922E-01  .735E-01  .769E-01  .863E-01  .639E-01  .354E-01  .254E-01  .255E-01
  .262E-01  .212E-01  .256E-01  .273E-01  .260E-01  .266E-01  .274E-01  .256E-01
  .231E-01  .177E-01  .133E-01  .878E-02  .682E-02  .591E-02  .510E-02  .407E-02
  .315E-02  .308E-02  .300E-02  .269E-02  .226E-02  .186E-02  .178E-02  .174E-02
  .174E-02  .144E-02  .112E-02  .872E-03  .784E-03  .581E-03  .399E-03  .387E-03
  .363E-03  .325E-03  .309E-03  .248E-03  .218E-03  .198E-03  .187E-03  .178E-03
  .169E-03  .161E-03  .154E-03  .147E-03  .132E-03  .120E-03  .000E+00  .000E+00
  .000E+00  .000E+00  .000E+00  .000E+00  .000E+00  .000E+00  .000E+00  .000E+00
  .000E+00  .000E+00  .000E+00  .000E+00  .000E+00  .000E+00  .000E+00  .000E+00
  .000E+00  .000E+00  .000E+00  .000E+00
  .882E-01  .944E-01  .999E-01  .104E+00  .110E+00  .122E+00  .149E+00  .176E+00
  .221E+00  .269E+00  .320E+00  .370E+00  .456E+00  .490E+00  .451E+00  .503E+00
  .594E+00  .680E+00  .671E+00  .758E+00  .846E+00  .962E+00  .100E+01  .106E+01
  .106E+01  .924E+00  .104E+01  .126E+01  .997E+00  .610E+00  .461E+00  .499E+00
  .547E+00  .471E+00  .597E+00  .675E+00  .671E+00  .708E+00  .767E+00  .756E+00
  .707E+00  .595E+00  .478E+00  .348E+00  .292E+00  .270E+00  .248E+00  .212E+00
  .164E+00  .169E+00  .174E+00  .171E+00  .155E+00  .144E+00  .152E+00  .160E+00
  .169E+00  .149E+00  .122E+00  .100E+00  .949E-01  .772E-01  .569E-01  .610E-01
  .613E-01  .585E-01  .597E-01  .501E-01  .439E-01  .391E-01  .347E-01  .317E-01
  .295E-01  .276E-01  .258E-01  .241E-01  .208E-01  .189E-01  .000E+00  .000E+00
  .000E+00  .000E+00  .000E+00  .000E+00  .000E+00  .000E+00  .000E+00  .000E+00
  .000E+00  .000E+00  .000E+00  .000E+00  .000E+00  .000E+00  .000E+00  .000E+00
  .000E+00  .000E+00  .000E+00  .000E+00
  .301E+02  .301E+02  .301E+02  .301E+02  .301E+02  .300E+02  .301E+02  .301E+02
  .301E+02  .301E+02  .301E+02  .301E+02  .301E+02  .301E+02  .304E+02  .304E+02
  .304E+02  .301E+02  .302E+02  .302E+02  .304E+02  .304E+02  .304E+02  .304E+02
  .304E+02  .304E+02  .303E+02  .302E+02  .302E+02  .302E+02  .302E+02  .311E+02
  .310E+02  .294E+02  .299E+02  .299E+02  .299E+02  .302E+02  .302E+02  .305E+02
  .305E+02  .301E+02  .301E+02  .301E+02  .470E+02  .460E+02  .460E+02  .460E+02
  .301E+02  .301E+02  .301E+02  .301E+02  .301E+02  .442E+02  .548E+02  .549E+02
  .528E+02  .515E+02  .516E+02  .516E+02  .509E+02  .546E+02  .501E+02  .494E+02
  .495E+02  .484E+02  .484E+02  .484E+02  .476E+02  .476E+02  .442E+02  .442E+02
  .442E+02  .442E+02  .442E+02  .442E+02  .292E+02  .292E+02  .000E+00  .000E+00
  .000E+00  .000E+00  .000E+00  .000E+00  .000E+00  .000E+00  .000E+00  .000E+00
  .000E+00  .000E+00  .000E+00  .000E+00  .000E+00  .000E+00  .000E+00  .000E+00
  .000E+00  .000E+00  .000E+00  .000E+00
  .300E+02  .300E+02  .300E+02  .300E+02  .300E+02  .300E+02  .303E+02  .304E+02
  .300E+02  .300E+02  .301E+02  .301E+02  .301E+02  .301E+02  .304E+02  .304E+02
  .304E+02  .302E+02  .302E+02  .302E+02  .304E+02  .304E+02  .304E+02  .304E+02
  .303E+02  .303E+02  .303E+02  .303E+02  .302E+02  .301E+02  .301E+02  .301E+02
  .301E+02  .301E+02  .300E+02  .300E+02  .298E+02  .299E+02  .302E+02  .302E+02
  .302E+02  .302E+02  .301E+02  .301E+02  .301E+02  .301E+02  .301E+02  .301E+02
  .301E+02  .301E+02  .301E+02  .301E+02  .301E+02  .301E+02  .301E+02  .301E+02
  .301E+02  .301E+02  .301E+02  .301E+02  .301E+02  .301E+02  .301E+02  .301E+02
  .301E+02  .301E+02  .301E+02  .301E+02  .301E+02  .301E+02  .301E+02  .301E+02
  .301E+02  .301E+02  .301E+02  .301E+02  .301E+02  .301E+02  .000E+00  .000E+00
  .000E+00  .000E+00  .000E+00  .000E+00  .000E+00  .000E+00  .000E+00  .000E+00
  .000E+00  .000E+00  .000E+00  .000E+00  .000E+00  .000E+00  .000E+00  .000E+00
  .000E+00  .000E+00  .000E+00  .000E+00
  .301E+02  .301E+02  .301E+02  .301E+02  .301E+02  .300E+02  .301E+02  .301E+02
  .301E+02  .301E+02  .301E+02  .301E+02  .301E+02  .301E+02  .304E+02  .304E+02
  .304E+02  .301E+02  .301E+02  .302E+02  .304E+02  .304E+02  .304E+02  .304E+02
  .304E+02  .303E+02  .303E+02  .302E+02  .302E+02  .302E+02  .294E+02  .311E+02
  .310E+02  .299E+02  .299E+02  .299E+02  .299E+02  .302E+02  .302E+02  .305E+02
  .305E+02  .301E+02  .301E+02  .301E+02  .469E+02  .460E+02  .460E+02  .460E+02
  .301E+02  .301E+02  .301E+02  .301E+02  .301E+02  .301E+02  .548E+02  .549E+02
  .528E+02  .515E+02  .515E+02  .516E+02  .509E+02  .545E+02  .501E+02  .494E+02
  .494E+02  .482E+02  .484E+02  .484E+02  .441E+02  .301E+02  .301E+02  .301E+02
  .301E+02  .301E+02  .301E+02  .301E+02  .301E+02  .301E+02  .000E+00  .000E+00
  .000E+00  .000E+00  .000E+00  .000E+00  .000E+00  .000E+00  .000E+00  .000E+00
  .000E+00  .000E+00  .000E+00  .000E+00  .000E+00  .000E+00  .000E+00  .000E+00
  .000E+00  .000E+00  .000E+00  .000E+00
/&   ----------  End of spectral data for channel  1  ----------
Response and Fourier amplitude spectra (78 periods,  .04 -  6.0 sec)   for      
Corrected accelerogram   38695658.CI.CRF.--.HN      Chan  2: 360 Deg     from   
Uncorrected Accelerogram Data             Processed: 09/19/20, CGS  cicrf--p    
Rcrd of Fri Sep 18, 2020 23:38:27.0 PDT               (Avol1 v2.0, 4/18 CSMIP)  
                                        (Origin:  To be determined)             
38695658.CI.CRF.--.HN                Start time:  9/19/20, 06:38:27.0 UTC (GPS) 
Station Id. CRF     33.874N, 118.039W    ObsMMS  s/n 1112  (3 Chns of  6 at Sta)
Cerritos Fire Station aka LACoFD Station SCSN   Data: Acceleration              
Chan  2: 360 Deg                                                                
Rcrd of Fri Sep 18, 2020 23:38:27.0 PDT    Fri Sep 18, 2020 23:38:27.0 PDT      
Hypocenter:  To be determined.               ML:  To be determined.             
Instr Period =  .0050 sec,  Damping =  .707,  Sensitivity = 4.99 v/g  (Nominal) 
                        Record Length =301.000 sec.                             
                                     Uncor Max  =  -.058 g, at   29.230 sec.    
RMS accel of (uncor) record  =        .   Chn. metadata effective date:         
Accelerogram bandpass filtered with 3 dB pts at   .30 and 23.00 cyc/sec         
                 instrument- and base-line correcte                             
                                                                                
                                                                                
                                                                                
                                                                                
                                                                                
Rcrd of Fri Sep 18, 2020 23:38:27.0 PDT    Fri Sep 18, 2020 23:38:27.0 PDT      
                                                                                
38695658.CI.CRF.--.HN     Cerritos Fire Station aka LACoFD Station SCSChan  2: 3
60 Deg                                                                          
38695658.CI.CRF.--.HN     Cerritos Fire Station aka LACoFD Station SCSChan  2: 3
60 Deg                                                                          
Units for spectra are inches and sec, except Sa is in fraction of g.            
                                                                                
    2  100    2    6    6  100 -999    3    1    0   15 1112    0    0   41    0
    6   38   27    0  263    9   19 2020   10    3  36035802   39   40   74 -999
35802 -999  100    6 -999 -999 -999 -999 -999 -999 -999 -999 -999 -999 -999 -999
 -999 -999 -999 -99915050    2 -999    0 -999   20 -999 -999    3    1 507215050
    315050    4   78    1    3    5    0    0 -999    0 -999 -999    6 -999    2
    2    2    4 -999 -999 -999 -999 -999 -999 -999 -999    1 -999 -999 -999  111
    1    1 -999 -999
      .005      .707   358.020      .002     1.000  4992.069     -.058    29.230
   200.000     2.384      .478  -999.000    10.000  -999.000     4.000  -999.000
    20.000   -10.600      .000  -999.000  -999.000  -999.000  -999.000     -.001
      .000      .001     2.000    15.000    33.874  -118.039      .013      .007
      .533     -.002      .003    18.100  -999.000  -999.000  -999.000  -999.000
     1.000  -999.000  -999.000  -999.000  -999.000  -999.000  -999.000   120.000
     -.900     2.000     6.800   980.665      .020   301.000    31.831      .000
  -999.000    23.000  -999.000   301.000      .020      .300  -999.000  -999.000
    29.220   -55.214    29.160     2.267    29.720      .189      .000      .300
    23.000      .020      .020      .000      .040      .053  -999.000  -999.000
      .216      .240      .168      .104      .009      .001  -999.000  -999.000
  -999.000  -999.000  -999.000  -999.000  -999.000  -999.000  -999.000  -999.000
  -999.000  -999.000  -999.000  -999.000
      .050
      .040      .042      .044      .046      .048      .050      .055      .060
      .065      .070      .075      .080      .085      .090      .095      .100
      .110      .120      .130      .140      .150      .160      .170      .180
      .190      .200      .220      .240      .260      .280      .300      .320
      .340      .360      .380      .400      .420      .440      .460      .480
      .500      .550      .600      .650      .700      .750      .800      .850
      .900      .950     1.000     1.100     1.200     1.300     1.400     1.500
     1.600     1.700     1.800     1.900     2.000     2.200     2.400     2.600
     2.800     3.000     3.200     3.400     3.600     3.800     4.000     4.200
     4.400     4.600     4.800     5.000     5.500     6.000      .000      .000
      .000      .000      .000      .000      .000      .000      .000      .000
      .000      .000      .000      .000      .000      .000      .000      .000
      .000      .000      .000      .000
Fourier amplitude spectra in in/sec.
  .000E+00  .000E+00  .000E+00  .000E+00  .000E+00  .000E+00  .000E+00  .000E+00
  .000E+00  .000E+00  .000E+00  .000E+00  .000E+00  .000E+00  .000E+00  .000E+00
  .000E+00  .000E+00  .000E+00  .000E+00  .000E+00  .000E+00  .000E+00  .000E+00
  .000E+00  .000E+00  .000E+00  .000E+00  .000E+00  .000E+00  .000E+00  .000E+00
  .000E+00  .000E+00  .000E+00  .000E+00  .000E+00  .000E+00  .000E+00  .000E+00
  .000E+00  .000E+00  .000E+00  .000E+00  .000E+00  .000E+00  .000E+00  .000E+00
  .000E+00  .000E+00  .000E+00  .000E+00  .000E+00  .000E+00  .000E+00  .000E+00
  .000E+00  .000E+00  .000E+00  .000E+00  .000E+00  .000E+00  .000E+00  .000E+00
  .000E+00  .000E+00  .000E+00  .000E+00  .000E+00  .000E+00  .000E+00  .000E+00
  .000E+00  .000E+00  .000E+00  .000E+00  .000E+00  .000E+00  .000E+00  .000E+00
  .000E+00  .000E+00  .000E+00  .000E+00  .000E+00  .000E+00  .000E+00  .000E+00
  .000E+00  .000E+00  .000E+00  .000E+00  .000E+00  .000E+00  .000E+00  .000E+00
  .000E+00  .000E+00  .000E+00  .000E+00
Damping =  .05. Data of Sd,Sv,Sa,Pssv,ttSd,ttSv,ttSa :
  .935E-03  .104E-02  .116E-02  .131E-02  .145E-02  .159E-02  .206E-02  .258E-02
  .293E-02  .331E-02  .370E-02  .416E-02  .536E-02  .655E-02  .666E-02  .650E-02
  .881E-02  .102E-01  .121E-01  .165E-01  .235E-01  .357E-01  .452E-01  .517E-01
  .532E-01  .595E-01  .926E-01  .120E+00  .108E+00  .902E-01  .900E-01  .926E-01
  .100E+00  .999E-01  .109E+00  .140E+00  .158E+00  .176E+00  .190E+00  .195E+00
