Response and Fourier amplitude spectra (78 periods,  .04 -  6.0 sec)   for      
Corrected accelerogram   38695658.CI.CSL.--.HN      Chan  1:  90 Deg     from   
Uncorrected Accelerogram Data             Processed: 09/19/20, CGS  cicsl--v    
Rcrd of Fri Sep 18, 2020 23:38:36.0 PDT               (Avol1 v2.0, 4/18 CSMIP)  
                                        (Origin:  To be determined)             
38695658.CI.CSL.--.HN                Start time:  9/19/20, 06:38:36.0 UTC (GPS) 
Station Id. CSL     34.497N, 118.616W    ObsMMS  s/n 1132  (3 Chns of  6 at Sta)
Castaic Lake aka  LACoFD Station 149     SCSN   Data: Acceleration              
Chan  1:  90 Deg                                                                
Rcrd of Fri Sep 18, 2020 23:38:36.0 PDT    Fri Sep 18, 2020 23:38:36.0 PDT      
Hypocenter:  To be determined.               ML:  To be determined.             
Instr Period =  .0050 sec,  Damping =  .707,  Sensitivity = 4.99 v/g  (Nominal) 
                        Record Length =301.000 sec.                             
                                     Uncor Max  =   .003 g, at   37.000 sec.    
RMS accel of (uncor) record  =        .   Chn. metadata effective date:         
Accelerogram bandpass filtered with 3 dB pts at   .30 and 23.00 cyc/sec         
                 instrument- and base-line correcte                             
                                                                                
                                                                                
                                                                                
                                                                                
                                                                                
Rcrd of Fri Sep 18, 2020 23:38:36.0 PDT    Fri Sep 18, 2020 23:38:36.0 PDT      
                                                                                
38695658.CI.CSL.--.HN     Castaic Lake aka  LACoFD Station 149    Chan  1:  90 D
eg                                                                              
38695658.CI.CSL.--.HN     Castaic Lake aka  LACoFD Station 149    Chan  1:  90 D
eg                                                                              
Units for spectra are inches and sec, except Sa is in fraction of g.            
                                                                                
    1  100    1    6    6  100 -999    3    1    0   15 1132    0    0   41    0
    6   38   36    0  263    9   19 2020   10    3   9035687   39   36   74 -999
35687 -999  100    6 -999 -999 -999 -999 -999 -999 -999 -999 -999 -999 -999 -999
 -999 -999 -999 -99915050    2 -999    0 -999   20 -999 -999    3    1 508815050
    315050    4   78    1    3    5    0    0 -999    0 -999 -999    6 -999    2
    2    2    4 -999 -999 -999 -999 -999 -999 -999 -999    1 -999 -999 -999  111
    1    1 -999 -999
      .005      .707   356.870      .000     1.000  4986.662      .003    37.000
   200.000     2.384      .478  -999.000    10.000  -999.000     4.000  -999.000
    20.000     3.392      .000  -999.000  -999.000  -999.000  -999.000     -.001
     -.011     -.010     2.000    15.000    34.497  -118.616      .016      .015
      .977     -.013     -.007   353.900  -999.000  -999.000  -999.000  -999.000
     1.000  -999.000    -8.000  -999.000  -999.000  -999.000  -999.000   120.000
     -.900     2.000     6.800   980.665      .020   301.000    31.831      .002
  -999.000    23.000  -999.000   301.000      .020      .300  -999.000  -999.000
    37.000     2.537    33.320      .134    33.180     -.013      .000      .300
    23.000      .020      .020      .000      .020      .010  -999.000  -999.000
      .008      .140      .005      .006      .001      .000  -999.000  -999.000
  -999.000  -999.000  -999.000  -999.000  -999.000  -999.000  -999.000  -999.000
  -999.000  -999.000  -999.000  -999.000
      .050
      .040      .042      .044      .046      .048      .050      .055      .060
      .065      .070      .075      .080      .085      .090      .095      .100
      .110      .120      .130      .140      .150      .160      .170      .180
      .190      .200      .220      .240      .260      .280      .300      .320
      .340      .360      .380      .400      .420      .440      .460      .480
      .500      .550      .600      .650      .700      .750      .800      .850
      .900      .950     1.000     1.100     1.200     1.300     1.400     1.500
     1.600     1.700     1.800     1.900     2.000     2.200     2.400     2.600
     2.800     3.000     3.200     3.400     3.600     3.800     4.000     4.200
     4.400     4.600     4.800     5.000     5.500     6.000      .000      .000
      .000      .000      .000      .000      .000      .000      .000      .000
      .000      .000      .000      .000      .000      .000      .000      .000
      .000      .000      .000      .000
Fourier amplitude spectra in in/sec.
  .000E+00  .000E+00  .000E+00  .000E+00  .000E+00  .000E+00  .000E+00  .000E+00
  .000E+00  .000E+00  .000E+00  .000E+00  .000E+00  .000E+00  .000E+00  .000E+00
  .000E+00  .000E+00  .000E+00  .000E+00  .000E+00  .000E+00  .000E+00  .000E+00
  .000E+00  .000E+00  .000E+00  .000E+00  .000E+00  .000E+00  .000E+00  .000E+00
  .000E+00  .000E+00  .000E+00  .000E+00  .000E+00  .000E+00  .000E+00  .000E+00
  .000E+00  .000E+00  .000E+00  .000E+00  .000E+00  .000E+00  .000E+00  .000E+00
  .000E+00  .000E+00  .000E+00  .000E+00  .000E+00  .000E+00  .000E+00  .000E+00
  .000E+00  .000E+00  .000E+00  .000E+00  .000E+00  .000E+00  .000E+00  .000E+00
  .000E+00  .000E+00  .000E+00  .000E+00  .000E+00  .000E+00  .000E+00  .000E+00
  .000E+00  .000E+00  .000E+00  .000E+00  .000E+00  .000E+00  .000E+00  .000E+00
  .000E+00  .000E+00  .000E+00  .000E+00  .000E+00  .000E+00  .000E+00  .000E+00
  .000E+00  .000E+00  .000E+00  .000E+00  .000E+00  .000E+00  .000E+00  .000E+00
  .000E+00  .000E+00  .000E+00  .000E+00
Damping =  .05. Data of Sd,Sv,Sa,Pssv,ttSd,ttSv,ttSa :
  .405E-04  .443E-04  .486E-04  .539E-04  .598E-04  .642E-04  .880E-04  .108E-03
  .136E-03  .161E-03  .181E-03  .195E-03  .234E-03  .294E-03  .327E-03  .415E-03
  .741E-03  .856E-03  .110E-02  .146E-02  .119E-02  .147E-02  .197E-02  .187E-02
  .181E-02  .199E-02  .236E-02  .344E-02  .365E-02  .464E-02  .527E-02  .478E-02
  .581E-02  .594E-02  .725E-02  .878E-02  .105E-01  .115E-01  .117E-01  .135E-01
  .149E-01  .185E-01  .194E-01  .207E-01  .159E-01  .162E-01  .171E-01  .146E-01
  .149E-01  .136E-01  .150E-01  .102E-01  .136E-01  .101E-01  .992E-02  .845E-02
  .702E-02  .763E-02  .832E-02  .878E-02  .915E-02  .798E-02  .663E-02  .611E-02
  .648E-02  .670E-02  .616E-02  .557E-02  .660E-02  .631E-02  .541E-02  .526E-02
  .519E-02  .548E-02  .552E-02  .541E-02  .508E-02  .533E-02  .000E+00  .000E+00
  .000E+00  .000E+00  .000E+00  .000E+00  .000E+00  .000E+00  .000E+00  .000E+00
  .000E+00  .000E+00  .000E+00  .000E+00  .000E+00  .000E+00  .000E+00  .000E+00
  .000E+00  .000E+00  .000E+00  .000E+00
  .170E-02  .188E-02  .210E-02  .236E-02  .266E-02  .343E-02  .512E-02  .684E-02
  .960E-02  .128E-01  .122E-01  .116E-01  .133E-01  .175E-01  .180E-01  .230E-01
  .401E-01  .400E-01  .529E-01  .661E-01  .515E-01  .542E-01  .582E-01  .583E-01
  .566E-01  .557E-01  .688E-01  .889E-01  .848E-01  .960E-01  .113E+00  .103E+00
  .105E+00  .986E-01  .115E+00  .141E+00  .162E+00  .168E+00  .160E+00  .176E+00
  .183E+00  .233E+00  .210E+00  .214E+00  .173E+00  .161E+00  .149E+00  .134E+00
  .120E+00  .112E+00  .108E+00  .898E-01  .865E-01  .799E-01  .810E-01  .755E-01
  .703E-01  .727E-01  .686E-01  .632E-01  .622E-01  .624E-01  .563E-01  .563E-01
  .569E-01  .558E-01  .535E-01  .546E-01  .547E-01  .526E-01  .521E-01  .527E-01
  .532E-01  .532E-01  .528E-01  .525E-01  .529E-01  .527E-01  .000E+00  .000E+00
  .000E+00  .000E+00  .000E+00  .000E+00  .000E+00  .000E+00  .000E+00  .000E+00
  .000E+00  .000E+00  .000E+00  .000E+00  .000E+00  .000E+00  .000E+00  .000E+00
  .000E+00  .000E+00  .000E+00  .000E+00
  .259E-02  .257E-02  .257E-02  .261E-02  .265E-02  .263E-02  .298E-02  .306E-02
  .329E-02  .338E-02  .330E-02  .312E-02  .331E-02  .373E-02  .368E-02  .430E-02
  .632E-02  .602E-02  .684E-02  .763E-02  .536E-02  .584E-02  .706E-02  .591E-02
  .516E-02  .515E-02  .509E-02  .616E-02  .557E-02  .615E-02  .612E-02  .474E-02
  .514E-02  .470E-02  .513E-02  .560E-02  .613E-02  .617E-02  .568E-02  .602E-02
  .615E-02  .628E-02  .555E-02  .502E-02  .333E-02  .296E-02  .275E-02  .207E-02
  .189E-02  .155E-02  .154E-02  .864E-03  .973E-03  .617E-03  .533E-03  .387E-03
  .284E-03  .278E-03  .273E-03  .252E-03  .235E-03  .178E-03  .128E-03  .102E-03
  .940E-04  .851E-04  .704E-04  .581E-04  .609E-04  .534E-04  .431E-04  .387E-04
  .356E-04  .345E-04  .323E-04  .298E-04  .250E-04  .223E-04  .000E+00  .000E+00
  .000E+00  .000E+00  .000E+00  .000E+00  .000E+00  .000E+00  .000E+00  .000E+00
  .000E+00  .000E+00  .000E+00  .000E+00  .000E+00  .000E+00  .000E+00  .000E+00
  .000E+00  .000E+00  .000E+00  .000E+00
  .636E-02  .663E-02  .695E-02  .736E-02  .782E-02  .807E-02  .101E-01  .113E-01
  .131E-01  .145E-01  .152E-01  .153E-01  .173E-01  .205E-01  .217E-01  .261E-01
  .423E-01  .448E-01  .534E-01  .653E-01  .499E-01  .577E-01  .728E-01  .653E-01
  .598E-01  .624E-01  .673E-01  .901E-01  .882E-01  .104E+00  .110E+00  .939E-01
  .107E+00  .104E+00  .120E+00  .138E+00  .157E+00  .165E+00  .159E+00  .177E+00
  .187E+00  .211E+00  .203E+00  .200E+00  .143E+00  .136E+00  .134E+00  .108E+00
  .104E+00  .902E-01  .942E-01  .581E-01  .713E-01  .489E-01  .445E-01  .354E-01
  .276E-01  .282E-01  .290E-01  .290E-01  .287E-01  .228E-01  .173E-01  .148E-01
  .145E-01  .140E-01  .121E-01  .103E-01  .115E-01  .104E-01  .850E-02  .787E-02
  .742E-02  .748E-02  .722E-02  .679E-02  .580E-02  .559E-02  .000E+00  .000E+00
  .000E+00  .000E+00  .000E+00  .000E+00  .000E+00  .000E+00  .000E+00  .000E+00
  .000E+00  .000E+00  .000E+00  .000E+00  .000E+00  .000E+00  .000E+00  .000E+00
  .000E+00  .000E+00  .000E+00  .000E+00
  .370E+02  .370E+02  .370E+02  .370E+02  .370E+02  .370E+02  .370E+02  .370E+02
  .338E+02  .338E+02  .370E+02  .370E+02  .370E+02  .352E+02  .335E+02  .336E+02
  .336E+02  .370E+02  .355E+02  .355E+02  .352E+02  .373E+02  .373E+02  .373E+02
  .368E+02  .376E+02  .361E+02  .379E+02  .370E+02  .383E+02  .383E+02  .383E+02
  .334E+02  .335E+02  .373E+02  .373E+02  .373E+02  .373E+02  .376E+02  .379E+02
  .379E+02  .377E+02  .377E+02  .378E+02  .375E+02  .372E+02  .370E+02  .363E+02
  .360E+02  .458E+02  .454E+02  .533E+02  .529E+02  .530E+02  .370E+02  .446E+02
  .446E+02  .446E+02  .331E+02  .442E+02  .442E+02  .331E+02  .332E+02  .373E+02
  .373E+02  .331E+02  .332E+02  .331E+02  .331E+02  .332E+02  .332E+02  .373E+02
  .332E+02  .332E+02  .332E+02  .373E+02  .373E+02  .332E+02  .000E+00  .000E+00
  .000E+00  .000E+00  .000E+00  .000E+00  .000E+00  .000E+00  .000E+00  .000E+00
  .000E+00  .000E+00  .000E+00  .000E+00  .000E+00  .000E+00  .000E+00  .000E+00
  .000E+00  .000E+00  .000E+00  .000E+00
  .334E+02  .334E+02  .334E+02  .334E+02  .336E+02  .336E+02  .336E+02  .336E+02
  .338E+02  .338E+02  .338E+02  .338E+02  .279E+02  .353E+02  .353E+02  .336E+02
  .336E+02  .336E+02  .355E+02  .355E+02  .352E+02  .337E+02  .373E+02  .374E+02
  .336E+02  .376E+02  .362E+02  .379E+02  .383E+02  .383E+02  .382E+02  .382E+02
  .335E+02  .341E+02  .374E+02  .374E+02  .374E+02  .375E+02  .375E+02  .380E+02
  .378E+02  .378E+02  .378E+02  .373E+02  .374E+02  .374E+02  .371E+02  .369E+02
  .358E+02  .374E+02  .456E+02  .333E+02  .333E+02  .333E+02  .333E+02  .333E+02
  .333E+02  .333E+02  .333E+02  .333E+02  .333E+02  .333E+02  .374E+02  .333E+02
  .333E+02  .333E+02  .333E+02  .333E+02  .333E+02  .333E+02  .333E+02  .333E+02
  .333E+02  .333E+02  .333E+02  .333E+02  .333E+02  .333E+02  .000E+00  .000E+00
  .000E+00  .000E+00  .000E+00  .000E+00  .000E+00  .000E+00  .000E+00  .000E+00
  .000E+00  .000E+00  .000E+00  .000E+00  .000E+00  .000E+00  .000E+00  .000E+00
  .000E+00  .000E+00  .000E+00  .000E+00
  .370E+02  .370E+02  .370E+02  .370E+02  .370E+02  .370E+02  .370E+02  .370E+02
  .338E+02  .338E+02  .370E+02  .370E+02  .370E+02  .352E+02  .335E+02  .335E+02
  .336E+02  .370E+02  .355E+02  .355E+02  .352E+02  .373E+02  .373E+02  .368E+02
  .368E+02  .376E+02  .361E+02  .379E+02  .370E+02  .383E+02  .383E+02  .383E+02
  .334E+02  .334E+02  .373E+02  .373E+02  .373E+02  .373E+02  .376E+02  .379E+02
  .379E+02  .377E+02  .377E+02  .378E+02  .375E+02  .372E+02  .370E+02  .363E+02
  .360E+02  .458E+02  .454E+02  .533E+02  .529E+02  .530E+02  .370E+02  .446E+02
  .446E+02  .331E+02  .331E+02  .441E+02  .442E+02  .331E+02  .331E+02  .372E+02
  .372E+02  .331E+02  .331E+02  .331E+02  .331E+02  .331E+02  .331E+02  .372E+02
  .331E+02  .331E+02  .331E+02  .372E+02  .369E+02  .372E+02  .000E+00  .000E+00
  .000E+00  .000E+00  .000E+00  .000E+00  .000E+00  .000E+00  .000E+00  .000E+00
  .000E+00  .000E+00  .000E+00  .000E+00  .000E+00  .000E+00  .000E+00  .000E+00
  .000E+00  .000E+00  .000E+00  .000E+00
/&   ----------  End of spectral data for channel  1  ----------
Response and Fourier amplitude spectra (78 periods,  .04 -  6.0 sec)   for      
Corrected accelerogram   38695658.CI.CSL.--.HN      Chan  2: 360 Deg     from   
Uncorrected Accelerogram Data             Processed: 09/19/20, CGS  cicsl--v    
Rcrd of Fri Sep 18, 2020 23:38:36.0 PDT               (Avol1 v2.0, 4/18 CSMIP)  
                                        (Origin:  To be determined)             
38695658.CI.CSL.--.HN                Start time:  9/19/20, 06:38:36.0 UTC (GPS) 
Station Id. CSL     34.497N, 118.616W    ObsMMS  s/n 1132  (3 Chns of  6 at Sta)
Castaic Lake aka  LACoFD Station 149     SCSN   Data: Acceleration              
Chan  2: 360 Deg                                                                
Rcrd of Fri Sep 18, 2020 23:38:36.0 PDT    Fri Sep 18, 2020 23:38:36.0 PDT      
Hypocenter:  To be determined.               ML:  To be determined.             
Instr Period =  .0050 sec,  Damping =  .707,  Sensitivity = 4.99 v/g  (Nominal) 
                        Record Length =301.000 sec.                             
                                     Uncor Max  =  -.003 g, at   34.010 sec.    
RMS accel of (uncor) record  =        .   Chn. metadata effective date:         
Accelerogram bandpass filtered with 3 dB pts at   .30 and 23.00 cyc/sec         
                 instrument- and base-line correcte                             
                                                                                
                                                                                
                                                                                
                                                                                
                                                                                
Rcrd of Fri Sep 18, 2020 23:38:36.0 PDT    Fri Sep 18, 2020 23:38:36.0 PDT      
                                                                                
38695658.CI.CSL.--.HN     Castaic Lake aka  LACoFD Station 149    Chan  2: 360 D
eg                                                                              
38695658.CI.CSL.--.HN     Castaic Lake aka  LACoFD Station 149    Chan  2: 360 D
eg                                                                              
Units for spectra are inches and sec, except Sa is in fraction of g.            
                                                                                
    2  100    2    6    6  100 -999    3    1    0   15 1132    0    0   41    0
    6   38   36    0  263    9   19 2020   10    3  36035696   39   36   74 -999
35696 -999  100    6 -999 -999 -999 -999 -999 -999 -999 -999 -999 -999 -999 -999
 -999 -999 -999 -99915050    2 -999    0 -999   20 -999 -999    3    1 508815050
    315050    4   78    1    3    5    0    0 -999    0 -999 -999    6 -999    2
    2    2    4 -999 -999 -999 -999 -999 -999 -999 -999    1 -999 -999 -999  111
    1    1 -999 -999
      .005      .707   356.960      .000     1.000  4986.662     -.003    34.010
   200.000     2.384      .478  -999.000    10.000  -999.000     4.000  -999.000
    20.000    -1.001      .000  -999.000  -999.000  -999.000  -999.000      .000
      .000      .001     2.000    15.000    34.497  -118.616      .009      .009
     1.008     -.001      .003   353.900  -999.000  -999.000  -999.000  -999.000
     1.000  -999.000  -999.000  -999.000  -999.000  -999.000  -999.000   120.000
     -.900     2.000     6.800   980.665      .020   301.000    31.831      .000
  -999.000    23.000  -999.000   301.000      .020      .300  -999.000  -999.000
    34.020    -3.221    33.340      .185    34.480      .015      .000      .300
    23.000      .020      .020      .000      .020      .011  -999.000  -999.000
      .010      .180      .009      .008      .002      .000  -999.000  -999.000
  -999.000  -999.000  -999.000  -999.000  -999.000  -999.000  -999.000  -999.000
  -999.000  -999.000  -999.000  -999.000
      .050
      .040      .042      .044      .046      .048      .050      .055      .060
      .065      .070      .075      .080      .085      .090      .095      .100
      .110      .120      .130      .140      .150      .160      .170      .180
      .190      .200      .220      .240      .260      .280      .300      .320
      .340      .360      .380      .400      .420      .440      .460      .480
      .500      .550      .600      .650      .700      .750      .800      .850
      .900      .950     1.000     1.100     1.200     1.300     1.400     1.500
     1.600     1.700     1.800     1.900     2.000     2.200     2.400     2.600
     2.800     3.000     3.200     3.400     3.600     3.800     4.000     4.200
     4.400     4.600     4.800     5.000     5.500     6.000      .000      .000
      .000      .000      .000      .000      .000      .000      .000      .000
      .000      .000      .000      .000      .000      .000      .000      .000
      .000      .000      .000      .000
Fourier amplitude spectra in in/sec.
  .000E+00  .000E+00  .000E+00  .000E+00  .000E+00  .000E+00  .000E+00  .000E+00
  .000E+00  .000E+00  .000E+00  .000E+00  .000E+00  .000E+00  .000E+00  .000E+00
  .000E+00  .000E+00  .000E+00  .000E+00  .000E+00  .000E+00  .000E+00  .000E+00
  .000E+00  .000E+00  .000E+00  .000E+00  .000E+00  .000E+00  .000E+00  .000E+00
  .000E+00  .000E+00  .000E+00  .000E+00  .000E+00  .000E+00  .000E+00  .000E+00
  .000E+00  .000E+00  .000E+00  .000E+00  .000E+00  .000E+00  .000E+00  .000E+00
  .000E+00  .000E+00  .000E+00  .000E+00  .000E+00  .000E+00  .000E+00  .000E+00
  .000E+00  .000E+00  .000E+00  .000E+00  .000E+00  .000E+00  .000E+00  .000E+00
  .000E+00  .000E+00  .000E+00  .000E+00  .000E+00  .000E+00  .000E+00  .000E+00
  .000E+00  .000E+00  .000E+00  .000E+00  .000E+00  .000E+00  .000E+00  .000E+00
  .000E+00  .000E+00  .000E+00  .000E+00  .000E+00  .000E+00  .000E+00  .000E+00
  .000E+00  .000E+00  .000E+00  .000E+00  .000E+00  .000E+00  .000E+00  .000E+00
  .000E+00  .000E+00  .000E+00  .000E+00
Damping =  .05. Data of Sd,Sv,Sa,Pssv,ttSd,ttSv,ttSa :
  .558E-04  .618E-04  .686E-04  .745E-04  .785E-04  .845E-04  .112E-03  .140E-03
  .197E-03  .267E-03  .339E-03  .379E-03  .375E-03  .508E-03  .577E-03  .537E-03
  .750E-03  .102E-02  .143E-02  .174E-02  .176E-02  .217E-02  .269E-02  .318E-02
  .301E-02  .343E-02  .396E-02  .564E-02  .660E-02  .683E-02  .756E-02  .705E-02
  .675E-02  .683E-02  .726E-02  .964E-02  .114E-01  .131E-01  .134E-01  .130E-01
