Response and Fourier amplitude spectra (78 periods,  .04 -  6.0 sec)   for      
Corrected accelerogram   38695658.CI.CSH.--.HN      Chan  1:  90 Deg     from   
Uncorrected Accelerogram Data             Processed: 09/19/20, CGS  cicsh--y    
Rcrd of Fri Sep 18, 2020 23:38:47.0 PDT               (Avol1 v2.0, 4/18 CSMIP)  
                                        (Origin:  To be determined)             
38695658.CI.CSH.--.HN                Start time:  9/19/20, 06:38:47.0 UTC (GPS) 
Station Id. CSH     33.644N, 116.596W    ObsMMS  s/n 5771  (3 Chns of  6 at Sta)
Camp Scherman                            SCSN   Data: Acceleration              
Chan  1:  90 Deg                                                                
Rcrd of Fri Sep 18, 2020 23:38:47.0 PDT    Fri Sep 18, 2020 23:38:47.0 PDT      
Hypocenter:  To be determined.               ML:  To be determined.             
Instr Period =  .0050 sec,  Damping =  .707,  Sensitivity = 4.98 v/g  (Nominal) 
                        Record Length =301.000 sec.                             
                                     Uncor Max  =  -.002 g, at   41.660 sec.    
RMS accel of (uncor) record  =        .   Chn. metadata effective date:         
Accelerogram bandpass filtered with 3 dB pts at   .30 and 23.00 cyc/sec         
                 instrument- and base-line correcte                             
                                                                                
                                                                                
                                                                                
                                                                                
                                                                                
Rcrd of Fri Sep 18, 2020 23:38:47.0 PDT    Fri Sep 18, 2020 23:38:47.0 PDT      
                                                                                
38695658.CI.CSH.--.HN     Camp Scherman   Chan  1:  90 Deg                      
                                                                                
38695658.CI.CSH.--.HN     Camp Scherman   Chan  1:  90 Deg                      
                                                                                
Units for spectra are inches and sec, except Sa is in fraction of g.            
                                                                                
    1  100    1    6    6  100 -999    3    1    0   15 5771    0    0   41    0
    6   38   47    3  263    9   19 2020   10    3   9035531   39   13   74 -999
35531 -999  100    6 -999 -999 -999 -999 -999 -999 -999 -999 -999 -999 -999 -999
 -999 -999 -999 -99915050    2 -999    0 -999   20 -999 -999    3    1 714415050
    315050    4   78    1    3    5    0    0 -999    0 -999 -999    6 -999    2
    2    2    4 -999 -999 -999 -999 -999 -999 -999 -999    1 -999 -999 -999  111
    1    1 -999 -999
      .005      .707   355.310      .000     1.000  4978.683     -.002    41.660
   200.000     2.384      .479  -999.000    10.000  -999.000     4.000  -999.000
    20.000     3.697      .000  -999.000  -999.000  -999.000  -999.000     -.003
      .003      .006     2.000    15.000    33.644  -116.596      .001      .001
     1.151      .006      .006  1637.000  -999.000  -999.000  -999.000  -999.000
     1.000  -999.000    -8.000  -999.000  -999.000  -999.000  -999.000   120.000
     -.900     2.000     6.800   980.665      .020   301.000    31.831      .000
  -999.000    23.000  -999.000   301.000      .020      .300  -999.000  -999.000
    41.660    -2.219    41.620      .060    41.660      .002      .000      .300
    23.000      .020      .020      .000      .020      .002  -999.000  -999.000
      .011      .140      .005      .002      .000      .000  -999.000  -999.000
  -999.000  -999.000  -999.000  -999.000  -999.000  -999.000  -999.000  -999.000
  -999.000  -999.000  -999.000  -999.000
      .050
      .040      .042      .044      .046      .048      .050      .055      .060
      .065      .070      .075      .080      .085      .090      .095      .100
      .110      .120      .130      .140      .150      .160      .170      .180
      .190      .200      .220      .240      .260      .280      .300      .320
      .340      .360      .380      .400      .420      .440      .460      .480
      .500      .550      .600      .650      .700      .750      .800      .850
      .900      .950     1.000     1.100     1.200     1.300     1.400     1.500
     1.600     1.700     1.800     1.900     2.000     2.200     2.400     2.600
     2.800     3.000     3.200     3.400     3.600     3.800     4.000     4.200
     4.400     4.600     4.800     5.000     5.500     6.000      .000      .000
      .000      .000      .000      .000      .000      .000      .000      .000
      .000      .000      .000      .000      .000      .000      .000      .000
      .000      .000      .000      .000
Fourier amplitude spectra in in/sec.
  .000E+00  .000E+00  .000E+00  .000E+00  .000E+00  .000E+00  .000E+00  .000E+00
  .000E+00  .000E+00  .000E+00  .000E+00  .000E+00  .000E+00  .000E+00  .000E+00
  .000E+00  .000E+00  .000E+00  .000E+00  .000E+00  .000E+00  .000E+00  .000E+00
  .000E+00  .000E+00  .000E+00  .000E+00  .000E+00  .000E+00  .000E+00  .000E+00
  .000E+00  .000E+00  .000E+00  .000E+00  .000E+00  .000E+00  .000E+00  .000E+00
  .000E+00  .000E+00  .000E+00  .000E+00  .000E+00  .000E+00  .000E+00  .000E+00
  .000E+00  .000E+00  .000E+00  .000E+00  .000E+00  .000E+00  .000E+00  .000E+00
  .000E+00  .000E+00  .000E+00  .000E+00  .000E+00  .000E+00  .000E+00  .000E+00
  .000E+00  .000E+00  .000E+00  .000E+00  .000E+00  .000E+00  .000E+00  .000E+00
  .000E+00  .000E+00  .000E+00  .000E+00  .000E+00  .000E+00  .000E+00  .000E+00
  .000E+00  .000E+00  .000E+00  .000E+00  .000E+00  .000E+00  .000E+00  .000E+00
  .000E+00  .000E+00  .000E+00  .000E+00  .000E+00  .000E+00  .000E+00  .000E+00
  .000E+00  .000E+00  .000E+00  .000E+00
Damping =  .05. Data of Sd,Sv,Sa,Pssv,ttSd,ttSv,ttSa :
  .354E-04  .385E-04  .447E-04  .520E-04  .606E-04  .695E-04  .919E-04  .107E-03
  .150E-03  .180E-03  .271E-03  .349E-03  .493E-03  .501E-03  .579E-03  .609E-03
  .803E-03  .976E-03  .131E-02  .201E-02  .200E-02  .174E-02  .223E-02  .196E-02
  .190E-02  .211E-02  .154E-02  .122E-02  .116E-02  .128E-02  .140E-02  .132E-02
  .135E-02  .128E-02  .130E-02  .140E-02  .131E-02  .123E-02  .107E-02  .104E-02
  .104E-02  .911E-03  .124E-02  .102E-02  .114E-02  .113E-02  .110E-02  .106E-02
  .997E-03  .991E-03  .111E-02  .118E-02  .130E-02  .130E-02  .153E-02  .161E-02
  .177E-02  .186E-02  .202E-02  .196E-02  .206E-02  .207E-02  .184E-02  .159E-02
  .148E-02  .130E-02  .116E-02  .112E-02  .110E-02  .105E-02  .101E-02  .966E-03
  .927E-03  .904E-03  .882E-03  .869E-03  .881E-03  .866E-03  .000E+00  .000E+00
  .000E+00  .000E+00  .000E+00  .000E+00  .000E+00  .000E+00  .000E+00  .000E+00
  .000E+00  .000E+00  .000E+00  .000E+00  .000E+00  .000E+00  .000E+00  .000E+00
  .000E+00  .000E+00  .000E+00  .000E+00
  .215E-02  .244E-02  .272E-02  .309E-02  .373E-02  .443E-02  .571E-02  .631E-02
  .890E-02  .111E-01  .187E-01  .238E-01  .303E-01  .291E-01  .339E-01  .326E-01
  .449E-01  .478E-01  .625E-01  .918E-01  .874E-01  .727E-01  .870E-01  .795E-01
  .701E-01  .743E-01  .518E-01  .371E-01  .365E-01  .326E-01  .340E-01  .348E-01
  .370E-01  .391E-01  .371E-01  .335E-01  .291E-01  .279E-01  .262E-01  .252E-01
  .253E-01  .256E-01  .253E-01  .251E-01  .237E-01  .217E-01  .206E-01  .206E-01
  .203E-01  .200E-01  .203E-01  .208E-01  .202E-01  .195E-01  .196E-01  .194E-01
  .196E-01  .203E-01  .210E-01  .216E-01  .219E-01  .232E-01  .238E-01  .239E-01
  .240E-01  .238E-01  .233E-01  .232E-01  .230E-01  .229E-01  .227E-01  .226E-01
  .226E-01  .225E-01  .225E-01  .224E-01  .224E-01  .224E-01  .000E+00  .000E+00
  .000E+00  .000E+00  .000E+00  .000E+00  .000E+00  .000E+00  .000E+00  .000E+00
  .000E+00  .000E+00  .000E+00  .000E+00  .000E+00  .000E+00  .000E+00  .000E+00
  .000E+00  .000E+00  .000E+00  .000E+00
  .226E-02  .223E-02  .237E-02  .251E-02  .269E-02  .284E-02  .311E-02  .308E-02
  .362E-02  .379E-02  .498E-02  .565E-02  .709E-02  .632E-02  .657E-02  .627E-02
  .688E-02  .701E-02  .803E-02  .107E-01  .903E-02  .699E-02  .796E-02  .618E-02
  .536E-02  .556E-02  .326E-02  .223E-02  .180E-02  .173E-02  .158E-02  .134E-02
  .121E-02  .101E-02  .943E-03  .878E-03  .761E-03  .657E-03  .529E-03  .473E-03
  .437E-03  .324E-03  .350E-03  .255E-03  .239E-03  .209E-03  .180E-03  .156E-03
  .131E-03  .117E-03  .117E-03  .102E-03  .958E-04  .837E-04  .854E-04  .789E-04
  .740E-04  .728E-04  .705E-04  .642E-04  .619E-04  .532E-04  .420E-04  .331E-04
  .269E-04  .208E-04  .179E-04  .161E-04  .143E-04  .130E-04  .120E-04  .112E-04
  .106E-04  .100E-04  .949E-05  .903E-05  .804E-05  .717E-05  .000E+00  .000E+00
  .000E+00  .000E+00  .000E+00  .000E+00  .000E+00  .000E+00  .000E+00  .000E+00
  .000E+00  .000E+00  .000E+00  .000E+00  .000E+00  .000E+00  .000E+00  .000E+00
  .000E+00  .000E+00  .000E+00  .000E+00
  .556E-02  .576E-02  .638E-02  .711E-02  .794E-02  .873E-02  .105E-01  .113E-01
  .145E-01  .161E-01  .227E-01  .274E-01  .364E-01  .350E-01  .383E-01  .383E-01
  .459E-01  .511E-01  .632E-01  .903E-01  .838E-01  .682E-01  .826E-01  .685E-01
  .627E-01  .663E-01  .440E-01  .321E-01  .280E-01  .288E-01  .293E-01  .260E-01
  .249E-01  .223E-01  .215E-01  .220E-01  .196E-01  .175E-01  .146E-01  .136E-01
  .131E-01  .104E-01  .130E-01  .987E-02  .103E-01  .948E-02  .864E-02  .784E-02
  .696E-02  .655E-02  .696E-02  .675E-02  .679E-02  .627E-02  .685E-02  .676E-02
  .694E-02  .687E-02  .707E-02  .649E-02  .647E-02  .592E-02  .482E-02  .385E-02
  .332E-02  .272E-02  .228E-02  .206E-02  .192E-02  .174E-02  .159E-02  .144E-02
  .132E-02  .123E-02  .115E-02  .109E-02  .101E-02  .907E-03  .000E+00  .000E+00
  .000E+00  .000E+00  .000E+00  .000E+00  .000E+00  .000E+00  .000E+00  .000E+00
  .000E+00  .000E+00  .000E+00  .000E+00  .000E+00  .000E+00  .000E+00  .000E+00
  .000E+00  .000E+00  .000E+00  .000E+00
  .417E+02  .417E+02  .416E+02  .417E+02  .417E+02  .417E+02  .416E+02  .416E+02
  .416E+02  .414E+02  .414E+02  .416E+02  .417E+02  .417E+02  .408E+02  .408E+02
  .417E+02  .423E+02  .417E+02  .418E+02  .417E+02  .417E+02  .417E+02  .416E+02
  .416E+02  .415E+02  .414E+02  .445E+02  .445E+02  .421E+02  .417E+02  .419E+02
  .417E+02  .417E+02  .416E+02  .416E+02  .416E+02  .416E+02  .416E+02  .416E+02
  .416E+02  .416E+02  .455E+02  .455E+02  .413E+02  .413E+02  .413E+02  .413E+02
  .413E+02  .413E+02  .413E+02  .453E+02  .422E+02  .422E+02  .422E+02  .422E+02
  .423E+02  .423E+02  .433E+02  .425E+02  .416E+02  .416E+02  .416E+02  .416E+02
  .419E+02  .411E+02  .411E+02  .411E+02  .411E+02  .411E+02  .411E+02  .411E+02
  .411E+02  .411E+02  .411E+02  .416E+02  .416E+02  .416E+02  .000E+00  .000E+00
  .000E+00  .000E+00  .000E+00  .000E+00  .000E+00  .000E+00  .000E+00  .000E+00
  .000E+00  .000E+00  .000E+00  .000E+00  .000E+00  .000E+00  .000E+00  .000E+00
  .000E+00  .000E+00  .000E+00  .000E+00
  .416E+02  .416E+02  .416E+02  .416E+02  .416E+02  .416E+02  .412E+02  .442E+02
  .412E+02  .416E+02  .412E+02  .414E+02  .416E+02  .413E+02  .408E+02  .418E+02
  .418E+02  .420E+02  .418E+02  .417E+02  .417E+02  .417E+02  .417E+02  .416E+02
  .416E+02  .415E+02  .414E+02  .446E+02  .445E+02  .422E+02  .417E+02  .417E+02
  .417E+02  .417E+02  .417E+02  .417E+02  .417E+02  .414E+02  .414E+02  .416E+02
  .416E+02  .416E+02  .416E+02  .414E+02  .414E+02  .414E+02  .414E+02  .417E+02
  .417E+02  .417E+02  .417E+02  .417E+02  .417E+02  .416E+02  .417E+02  .416E+02
  .416E+02  .416E+02  .416E+02  .416E+02  .416E+02  .416E+02  .416E+02  .416E+02
  .416E+02  .416E+02  .416E+02  .416E+02  .416E+02  .416E+02  .416E+02  .416E+02
  .416E+02  .416E+02  .416E+02  .416E+02  .416E+02  .416E+02  .000E+00  .000E+00
  .000E+00  .000E+00  .000E+00  .000E+00  .000E+00  .000E+00  .000E+00  .000E+00
  .000E+00  .000E+00  .000E+00  .000E+00  .000E+00  .000E+00  .000E+00  .000E+00
  .000E+00  .000E+00  .000E+00  .000E+00
  .417E+02  .417E+02  .416E+02  .416E+02  .417E+02  .417E+02  .416E+02  .416E+02
  .416E+02  .414E+02  .414E+02  .416E+02  .417E+02  .417E+02  .408E+02  .408E+02
  .417E+02  .423E+02  .417E+02  .418E+02  .417E+02  .417E+02  .417E+02  .416E+02
  .416E+02  .415E+02  .414E+02  .445E+02  .445E+02  .421E+02  .417E+02  .419E+02
  .417E+02  .417E+02  .416E+02  .416E+02  .416E+02  .416E+02  .416E+02  .416E+02
  .416E+02  .416E+02  .455E+02  .455E+02  .413E+02  .413E+02  .413E+02  .413E+02
  .413E+02  .413E+02  .413E+02  .453E+02  .422E+02  .422E+02  .422E+02  .422E+02
  .416E+02  .416E+02  .416E+02  .416E+02  .416E+02  .416E+02  .416E+02  .416E+02
  .416E+02  .416E+02  .416E+02  .416E+02  .416E+02  .416E+02  .416E+02  .416E+02
  .416E+02  .416E+02  .416E+02  .416E+02  .416E+02  .416E+02  .000E+00  .000E+00
  .000E+00  .000E+00  .000E+00  .000E+00  .000E+00  .000E+00  .000E+00  .000E+00
  .000E+00  .000E+00  .000E+00  .000E+00  .000E+00  .000E+00  .000E+00  .000E+00
  .000E+00  .000E+00  .000E+00  .000E+00
/&   ----------  End of spectral data for channel  1  ----------
Response and Fourier amplitude spectra (78 periods,  .04 -  6.0 sec)   for      
Corrected accelerogram   38695658.CI.CSH.--.HN      Chan  2: 360 Deg     from   
Uncorrected Accelerogram Data             Processed: 09/19/20, CGS  cicsh--y    
Rcrd of Fri Sep 18, 2020 23:38:47.0 PDT               (Avol1 v2.0, 4/18 CSMIP)  
                                        (Origin:  To be determined)             
38695658.CI.CSH.--.HN                Start time:  9/19/20, 06:38:47.0 UTC (GPS) 
Station Id. CSH     33.644N, 116.596W    ObsMMS  s/n 5771  (3 Chns of  6 at Sta)
Camp Scherman                            SCSN   Data: Acceleration              
Chan  2: 360 Deg                                                                
Rcrd of Fri Sep 18, 2020 23:38:47.0 PDT    Fri Sep 18, 2020 23:38:47.0 PDT      
Hypocenter:  To be determined.               ML:  To be determined.             
Instr Period =  .0050 sec,  Damping =  .707,  Sensitivity = 4.98 v/g  (Nominal) 
                        Record Length =301.000 sec.                             
                                     Uncor Max  =   .003 g, at   41.150 sec.    
RMS accel of (uncor) record  =        .   Chn. metadata effective date:         
Accelerogram bandpass filtered with 3 dB pts at   .30 and 23.00 cyc/sec         
                 instrument- and base-line correcte                             
                                                                                
                                                                                
                                                                                
                                                                                
                                                                                
Rcrd of Fri Sep 18, 2020 23:38:47.0 PDT    Fri Sep 18, 2020 23:38:47.0 PDT      
                                                                                
38695658.CI.CSH.--.HN     Camp Scherman   Chan  2: 360 Deg                      
                                                                                
38695658.CI.CSH.--.HN     Camp Scherman   Chan  2: 360 Deg                      
                                                                                
Units for spectra are inches and sec, except Sa is in fraction of g.            
                                                                                
    2  100    2    6    6  100 -999    3    1    0   15 5771    0    0   41    0
    6   38   47    3  263    9   19 2020   10    3  36035596   39   13   74 -999
35596 -999  100    6 -999 -999 -999 -999 -999 -999 -999 -999 -999 -999 -999 -999
 -999 -999 -999 -99915050    2 -999    0 -999   20 -999 -999    3    1 714415050
    315050    4   78    1    3    5    0    0 -999    0 -999 -999    6 -999    2
    2    2    4 -999 -999 -999 -999 -999 -999 -999 -999    1 -999 -999 -999  111
    1    1 -999 -999
      .005      .707   355.960      .000     1.000  4981.676      .003    41.150
   200.000     2.384      .479  -999.000    10.000  -999.000     4.000  -999.000
    20.000   -19.765      .000  -999.000  -999.000  -999.000  -999.000     -.011
      .011      .022     2.000    15.000    33.644  -116.596      .001      .001
     1.104      .022      .022  1637.000  -999.000  -999.000  -999.000  -999.000
     1.000  -999.000  -999.000  -999.000  -999.000  -999.000  -999.000   120.000
     -.900     2.000     6.800   980.665      .020   301.000    31.831     -.002
  -999.000    23.000  -999.000   301.000      .020      .300  -999.000  -999.000
    41.160     2.723    41.180      .056    41.160     -.003      .000      .300
    23.000      .020      .020      .000      .020      .002  -999.000  -999.000
      .014      .130      .005      .002      .000      .000  -999.000  -999.000
  -999.000  -999.000  -999.000  -999.000  -999.000  -999.000  -999.000  -999.000
  -999.000  -999.000  -999.000  -999.000
      .050
      .040      .042      .044      .046      .048      .050      .055      .060
      .065      .070      .075      .080      .085      .090      .095      .100
      .110      .120      .130      .140      .150      .160      .170      .180
      .190      .200      .220      .240      .260      .280      .300      .320
      .340      .360      .380      .400      .420      .440      .460      .480
      .500      .550      .600      .650      .700      .750      .800      .850
      .900      .950     1.000     1.100     1.200     1.300     1.400     1.500
     1.600     1.700     1.800     1.900     2.000     2.200     2.400     2.600
     2.800     3.000     3.200     3.400     3.600     3.800     4.000     4.200
     4.400     4.600     4.800     5.000     5.500     6.000      .000      .000
      .000      .000      .000      .000      .000      .000      .000      .000
      .000      .000      .000      .000      .000      .000      .000      .000
      .000      .000      .000      .000
Fourier amplitude spectra in in/sec.
  .000E+00  .000E+00  .000E+00  .000E+00  .000E+00  .000E+00  .000E+00  .000E+00
  .000E+00  .000E+00  .000E+00  .000E+00  .000E+00  .000E+00  .000E+00  .000E+00
  .000E+00  .000E+00  .000E+00  .000E+00  .000E+00  .000E+00  .000E+00  .000E+00
  .000E+00  .000E+00  .000E+00  .000E+00  .000E+00  .000E+00  .000E+00  .000E+00
  .000E+00  .000E+00  .000E+00  .000E+00  .000E+00  .000E+00  .000E+00  .000E+00
  .000E+00  .000E+00  .000E+00  .000E+00  .000E+00  .000E+00  .000E+00  .000E+00
  .000E+00  .000E+00  .000E+00  .000E+00  .000E+00  .000E+00  .000E+00  .000E+00
  .000E+00  .000E+00  .000E+00  .000E+00  .000E+00  .000E+00  .000E+00  .000E+00
  .000E+00  .000E+00  .000E+00  .000E+00  .000E+00  .000E+00  .000E+00  .000E+00
  .000E+00  .000E+00  .000E+00  .000E+00  .000E+00  .000E+00  .000E+00  .000E+00
  .000E+00  .000E+00  .000E+00  .000E+00  .000E+00  .000E+00  .000E+00  .000E+00
  .000E+00  .000E+00  .000E+00  .000E+00  .000E+00  .000E+00  .000E+00  .000E+00
  .000E+00  .000E+00  .000E+00  .000E+00
Damping =  .05. Data of Sd,Sv,Sa,Pssv,ttSd,ttSv,ttSa :
  .517E-04  .581E-04  .648E-04  .777E-04  .940E-04  .114E-03  .149E-03  .152E-03
  .172E-03  .225E-03  .282E-03  .308E-03  .391E-03  .573E-03  .708E-03  .720E-03
  .907E-03  .153E-02  .227E-02  .214E-02  .188E-02  .201E-02  .180E-02  .197E-02
  .205E-02  .202E-02  .231E-02  .237E-02  .214E-02  .181E-02  .168E-02  .172E-02
  .206E-02  .195E-02  .147E-02  .124E-02  .110E-02  .964E-03  .924E-03  .951E-03
