Response and Fourier amplitude spectra (78 periods,  .04 -  6.0 sec)   for      
Corrected accelerogram   38695658.CI.CWP.--.HN      Chan  1:  90 Deg     from   
Uncorrected Accelerogram Data             Processed: 09/19/20, CGS  cicwp--t    
Rcrd of Fri Sep 18, 2020 23:38:34.0 PDT               (Avol1 v2.0, 4/18 CSMIP)  
                                        (Origin:  To be determined)             
38695658.CI.CWP.--.HN                Start time:  9/19/20, 06:38:34.0 UTC (GPS) 
Station Id. CWP     33.558N, 117.558W    ObsMMS  s/n 6581  (3 Chns of  6 at Sta)
Ronald W. Caspers Wilderness Park        SCSN   Data: Acceleration              
Chan  1:  90 Deg                                                                
Rcrd of Fri Sep 18, 2020 23:38:34.0 PDT    Fri Sep 18, 2020 23:38:34.0 PDT      
Hypocenter:  To be determined.               ML:  To be determined.             
Instr Period =  .0050 sec,  Damping =  .707,  Sensitivity = 4.97 v/g  (Nominal) 
                        Record Length =301.000 sec.                             
                                     Uncor Max  =   .003 g, at   36.650 sec.    
RMS accel of (uncor) record  =        .   Chn. metadata effective date:         
Accelerogram bandpass filtered with 3 dB pts at   .30 and 23.00 cyc/sec         
                 instrument- and base-line correcte                             
                                                                                
                                                                                
                                                                                
                                                                                
                                                                                
Rcrd of Fri Sep 18, 2020 23:38:34.0 PDT    Fri Sep 18, 2020 23:38:34.0 PDT      
                                                                                
38695658.CI.CWP.--.HN     Ronald W. Caspers Wilderness Park   Chan  1:  90 Deg  
                                                                                
38695658.CI.CWP.--.HN     Ronald W. Caspers Wilderness Park   Chan  1:  90 Deg  
                                                                                
Units for spectra are inches and sec, except Sa is in fraction of g.            
                                                                                
    1  100    1    6    6  100 -999    3    1    0   15 6581    0    0   41    0
    6   38   34    3  263    9   19 2020   10    3   9035687   39   33   74 -999
35687 -999  100    6 -999 -999 -999 -999 -999 -999 -999 -999 -999 -999 -999 -999
 -999 -999 -999 -99915050    2 -999    0 -999   20 -999 -999    3    1 -99915050
    315050    4   78    1    3    5    0    0 -999    0 -999 -999    6 -999    2
    2    2    4 -999 -999 -999 -999 -999 -999 -999 -999    1 -999 -999 -999  111
    1    1 -999 -999
      .005      .707   356.870      .000     1.000  4973.697      .003    36.650
   200.000     2.384      .479  -999.000    10.000  -999.000     4.000  -999.000
    20.000   -17.282      .000  -999.000  -999.000  -999.000  -999.000     -.003
      .003      .007     2.000    15.000    33.558  -117.558      .001      .001
     1.143      .007      .007   242.600  -999.000  -999.000  -999.000  -999.000
     1.000  -999.000    -8.000  -999.000  -999.000  -999.000  -999.000   120.000
     -.900     2.000     6.800   980.665      .020   301.000    31.831      .000
  -999.000    23.000  -999.000   301.000      .020      .300  -999.000  -999.000
    36.640     3.079    35.600      .106    35.780     -.006      .000      .300
    23.000      .020      .020      .000      .020      .006  -999.000  -999.000
      .015      .280      .010      .012      .001      .000  -999.000  -999.000
  -999.000  -999.000  -999.000  -999.000  -999.000  -999.000  -999.000  -999.000
  -999.000  -999.000  -999.000  -999.000
      .050
      .040      .042      .044      .046      .048      .050      .055      .060
      .065      .070      .075      .080      .085      .090      .095      .100
      .110      .120      .130      .140      .150      .160      .170      .180
      .190      .200      .220      .240      .260      .280      .300      .320
      .340      .360      .380      .400      .420      .440      .460      .480
      .500      .550      .600      .650      .700      .750      .800      .850
      .900      .950     1.000     1.100     1.200     1.300     1.400     1.500
     1.600     1.700     1.800     1.900     2.000     2.200     2.400     2.600
     2.800     3.000     3.200     3.400     3.600     3.800     4.000     4.200
     4.400     4.600     4.800     5.000     5.500     6.000      .000      .000
      .000      .000      .000      .000      .000      .000      .000      .000
      .000      .000      .000      .000      .000      .000      .000      .000
      .000      .000      .000      .000
Fourier amplitude spectra in in/sec.
  .000E+00  .000E+00  .000E+00  .000E+00  .000E+00  .000E+00  .000E+00  .000E+00
  .000E+00  .000E+00  .000E+00  .000E+00  .000E+00  .000E+00  .000E+00  .000E+00
  .000E+00  .000E+00  .000E+00  .000E+00  .000E+00  .000E+00  .000E+00  .000E+00
  .000E+00  .000E+00  .000E+00  .000E+00  .000E+00  .000E+00  .000E+00  .000E+00
  .000E+00  .000E+00  .000E+00  .000E+00  .000E+00  .000E+00  .000E+00  .000E+00
  .000E+00  .000E+00  .000E+00  .000E+00  .000E+00  .000E+00  .000E+00  .000E+00
  .000E+00  .000E+00  .000E+00  .000E+00  .000E+00  .000E+00  .000E+00  .000E+00
  .000E+00  .000E+00  .000E+00  .000E+00  .000E+00  .000E+00  .000E+00  .000E+00
  .000E+00  .000E+00  .000E+00  .000E+00  .000E+00  .000E+00  .000E+00  .000E+00
  .000E+00  .000E+00  .000E+00  .000E+00  .000E+00  .000E+00  .000E+00  .000E+00
  .000E+00  .000E+00  .000E+00  .000E+00  .000E+00  .000E+00  .000E+00  .000E+00
  .000E+00  .000E+00  .000E+00  .000E+00  .000E+00  .000E+00  .000E+00  .000E+00
  .000E+00  .000E+00  .000E+00  .000E+00
Damping =  .05. Data of Sd,Sv,Sa,Pssv,ttSd,ttSv,ttSa :
  .525E-04  .581E-04  .636E-04  .702E-04  .782E-04  .873E-04  .116E-03  .147E-03
  .208E-03  .213E-03  .283E-03  .330E-03  .346E-03  .421E-03  .471E-03  .586E-03
  .809E-03  .116E-02  .109E-02  .123E-02  .159E-02  .181E-02  .193E-02  .257E-02
  .331E-02  .399E-02  .497E-02  .480E-02  .716E-02  .112E-01  .110E-01  .845E-02
  .706E-02  .770E-02  .810E-02  .695E-02  .613E-02  .597E-02  .599E-02  .535E-02
  .522E-02  .555E-02  .520E-02  .399E-02  .430E-02  .410E-02  .403E-02  .356E-02
  .389E-02  .461E-02  .476E-02  .583E-02  .585E-02  .525E-02  .535E-02  .483E-02
  .422E-02  .475E-02  .522E-02  .456E-02  .458E-02  .418E-02  .388E-02  .405E-02
  .400E-02  .368E-02  .335E-02  .324E-02  .325E-02  .325E-02  .318E-02  .309E-02
  .302E-02  .298E-02  .294E-02  .291E-02  .279E-02  .272E-02  .000E+00  .000E+00
  .000E+00  .000E+00  .000E+00  .000E+00  .000E+00  .000E+00  .000E+00  .000E+00
  .000E+00  .000E+00  .000E+00  .000E+00  .000E+00  .000E+00  .000E+00  .000E+00
  .000E+00  .000E+00  .000E+00  .000E+00
  .213E-02  .236E-02  .275E-02  .319E-02  .350E-02  .397E-02  .512E-02  .622E-02
  .971E-02  .102E-01  .142E-01  .162E-01  .176E-01  .197E-01  .247E-01  .290E-01
  .418E-01  .579E-01  .522E-01  .530E-01  .678E-01  .726E-01  .725E-01  .743E-01
  .101E+00  .118E+00  .134E+00  .127E+00  .176E+00  .247E+00  .247E+00  .173E+00
  .155E+00  .159E+00  .155E+00  .132E+00  .100E+00  .947E-01  .862E-01  .901E-01
  .995E-01  .810E-01  .669E-01  .614E-01  .643E-01  .650E-01  .651E-01  .641E-01
  .639E-01  .640E-01  .621E-01  .628E-01  .611E-01  .570E-01  .537E-01  .517E-01
  .485E-01  .465E-01  .440E-01  .429E-01  .431E-01  .426E-01  .436E-01  .435E-01
  .445E-01  .438E-01  .430E-01  .427E-01  .425E-01  .423E-01  .421E-01  .418E-01
  .416E-01  .415E-01  .413E-01  .412E-01  .410E-01  .409E-01  .000E+00  .000E+00
  .000E+00  .000E+00  .000E+00  .000E+00  .000E+00  .000E+00  .000E+00  .000E+00
  .000E+00  .000E+00  .000E+00  .000E+00  .000E+00  .000E+00  .000E+00  .000E+00
  .000E+00  .000E+00  .000E+00  .000E+00
  .336E-02  .337E-02  .337E-02  .339E-02  .348E-02  .357E-02  .394E-02  .420E-02
  .504E-02  .448E-02  .517E-02  .524E-02  .493E-02  .530E-02  .535E-02  .600E-02
  .692E-02  .818E-02  .662E-02  .640E-02  .720E-02  .734E-02  .685E-02  .814E-02
  .945E-02  .101E-01  .106E-01  .866E-02  .109E-01  .147E-01  .125E-01  .844E-02
  .634E-02  .606E-02  .573E-02  .450E-02  .357E-02  .317E-02  .289E-02  .241E-02
  .212E-02  .187E-02  .148E-02  .967E-03  .908E-03  .766E-03  .663E-03  .529E-03
  .509E-03  .536E-03  .499E-03  .493E-03  .418E-03  .324E-03  .287E-03  .228E-03
  .177E-03  .172E-03  .168E-03  .131E-03  .120E-03  .905E-04  .707E-04  .680E-04
  .613E-04  .518E-04  .431E-04  .380E-04  .348E-04  .321E-04  .293E-04  .268E-04
  .247E-04  .229E-04  .214E-04  .201E-04  .172E-04  .151E-04  .000E+00  .000E+00
  .000E+00  .000E+00  .000E+00  .000E+00  .000E+00  .000E+00  .000E+00  .000E+00
  .000E+00  .000E+00  .000E+00  .000E+00  .000E+00  .000E+00  .000E+00  .000E+00
  .000E+00  .000E+00  .000E+00  .000E+00
  .825E-02  .869E-02  .908E-02  .958E-02  .102E-01  .110E-01  .133E-01  .154E-01
  .201E-01  .191E-01  .237E-01  .259E-01  .256E-01  .294E-01  .311E-01  .368E-01
  .462E-01  .606E-01  .526E-01  .552E-01  .666E-01  .710E-01  .715E-01  .896E-01
  .110E+00  .125E+00  .142E+00  .126E+00  .173E+00  .252E+00  .231E+00  .166E+00
  .130E+00  .134E+00  .134E+00  .109E+00  .916E-01  .853E-01  .818E-01  .700E-01
  .656E-01  .634E-01  .544E-01  .386E-01  .386E-01  .344E-01  .317E-01  .263E-01
  .271E-01  .305E-01  .299E-01  .333E-01  .306E-01  .254E-01  .240E-01  .202E-01
  .166E-01  .176E-01  .182E-01  .151E-01  .144E-01  .119E-01  .102E-01  .978E-02
  .898E-02  .770E-02  .657E-02  .599E-02  .567E-02  .537E-02  .500E-02  .463E-02
  .432E-02  .406E-02  .385E-02  .365E-02  .319E-02  .285E-02  .000E+00  .000E+00
  .000E+00  .000E+00  .000E+00  .000E+00  .000E+00  .000E+00  .000E+00  .000E+00
  .000E+00  .000E+00  .000E+00  .000E+00  .000E+00  .000E+00  .000E+00  .000E+00
  .000E+00  .000E+00  .000E+00  .000E+00
  .366E+02  .366E+02  .357E+02  .366E+02  .366E+02  .366E+02  .366E+02  .366E+02
  .366E+02  .366E+02  .358E+02  .367E+02  .367E+02  .371E+02  .371E+02  .366E+02
  .373E+02  .373E+02  .373E+02  .368E+02  .371E+02  .371E+02  .371E+02  .358E+02
  .358E+02  .359E+02  .368E+02  .359E+02  .358E+02  .367E+02  .366E+02  .366E+02
  .365E+02  .357E+02  .358E+02  .356E+02  .347E+02  .345E+02  .345E+02  .345E+02
  .356E+02  .356E+02  .459E+02  .356E+02  .356E+02  .356E+02  .365E+02  .356E+02
  .364E+02  .364E+02  .364E+02  .415E+02  .423E+02  .355E+02  .355E+02  .355E+02
  .355E+02  .411E+02  .412E+02  .412E+02  .407E+02  .407E+02  .401E+02  .355E+02
  .355E+02  .358E+02  .358E+02  .358E+02  .358E+02  .358E+02  .358E+02  .358E+02
  .358E+02  .358E+02  .358E+02  .358E+02  .358E+02  .358E+02  .000E+00  .000E+00
  .000E+00  .000E+00  .000E+00  .000E+00  .000E+00  .000E+00  .000E+00  .000E+00
  .000E+00  .000E+00  .000E+00  .000E+00  .000E+00  .000E+00  .000E+00  .000E+00
  .000E+00  .000E+00  .000E+00  .000E+00
  .366E+02  .366E+02  .366E+02  .366E+02  .366E+02  .366E+02  .366E+02  .366E+02
  .363E+02  .360E+02  .357E+02  .358E+02  .356E+02  .360E+02  .371E+02  .372E+02
  .373E+02  .373E+02  .373E+02  .373E+02  .373E+02  .371E+02  .371E+02  .358E+02
  .358E+02  .358E+02  .367E+02  .359E+02  .359E+02  .366E+02  .367E+02  .367E+02
  .364E+02  .358E+02  .357E+02  .357E+02  .346E+02  .346E+02  .346E+02  .357E+02
  .357E+02  .356E+02  .356E+02  .356E+02  .356E+02  .356E+02  .356E+02  .356E+02
  .356E+02  .356E+02  .356E+02  .356E+02  .356E+02  .356E+02  .366E+02  .366E+02
  .366E+02  .366E+02  .366E+02  .366E+02  .356E+02  .356E+02  .356E+02  .364E+02
  .364E+02  .364E+02  .364E+02  .364E+02  .364E+02  .364E+02  .364E+02  .364E+02
  .364E+02  .364E+02  .364E+02  .364E+02  .364E+02  .364E+02  .000E+00  .000E+00
  .000E+00  .000E+00  .000E+00  .000E+00  .000E+00  .000E+00  .000E+00  .000E+00
  .000E+00  .000E+00  .000E+00  .000E+00  .000E+00  .000E+00  .000E+00  .000E+00
  .000E+00  .000E+00  .000E+00  .000E+00
  .366E+02  .366E+02  .357E+02  .366E+02  .366E+02  .366E+02  .366E+02  .366E+02
  .366E+02  .366E+02  .358E+02  .366E+02  .367E+02  .371E+02  .371E+02  .366E+02
  .373E+02  .373E+02  .373E+02  .367E+02  .371E+02  .371E+02  .371E+02  .358E+02
  .358E+02  .359E+02  .368E+02  .359E+02  .358E+02  .367E+02  .366E+02  .366E+02
  .363E+02  .357E+02  .358E+02  .356E+02  .347E+02  .345E+02  .345E+02  .345E+02
  .356E+02  .356E+02  .459E+02  .356E+02  .356E+02  .356E+02  .365E+02  .356E+02
  .363E+02  .363E+02  .363E+02  .415E+02  .423E+02  .355E+02  .355E+02  .355E+02
  .355E+02  .411E+02  .411E+02  .412E+02  .407E+02  .407E+02  .401E+02  .355E+02
  .357E+02  .357E+02  .357E+02  .357E+02  .357E+02  .357E+02  .357E+02  .357E+02
  .357E+02  .357E+02  .357E+02  .357E+02  .357E+02  .357E+02  .000E+00  .000E+00
  .000E+00  .000E+00  .000E+00  .000E+00  .000E+00  .000E+00  .000E+00  .000E+00
  .000E+00  .000E+00  .000E+00  .000E+00  .000E+00  .000E+00  .000E+00  .000E+00
  .000E+00  .000E+00  .000E+00  .000E+00
/&   ----------  End of spectral data for channel  1  ----------
Response and Fourier amplitude spectra (78 periods,  .04 -  6.0 sec)   for      
Corrected accelerogram   38695658.CI.CWP.--.HN      Chan  2: 360 Deg     from   
Uncorrected Accelerogram Data             Processed: 09/19/20, CGS  cicwp--t    
Rcrd of Fri Sep 18, 2020 23:38:34.0 PDT               (Avol1 v2.0, 4/18 CSMIP)  
                                        (Origin:  To be determined)             
38695658.CI.CWP.--.HN                Start time:  9/19/20, 06:38:34.0 UTC (GPS) 
Station Id. CWP     33.558N, 117.558W    ObsMMS  s/n 6581  (3 Chns of  6 at Sta)
Ronald W. Caspers Wilderness Park        SCSN   Data: Acceleration              
Chan  2: 360 Deg                                                                
Rcrd of Fri Sep 18, 2020 23:38:34.0 PDT    Fri Sep 18, 2020 23:38:34.0 PDT      
Hypocenter:  To be determined.               ML:  To be determined.             
Instr Period =  .0050 sec,  Damping =  .707,  Sensitivity = 4.98 v/g  (Nominal) 
                        Record Length =301.000 sec.                             
                                     Uncor Max  =   .003 g, at   35.810 sec.    
RMS accel of (uncor) record  =        .   Chn. metadata effective date:         
Accelerogram bandpass filtered with 3 dB pts at   .30 and 23.00 cyc/sec         
                 instrument- and base-line correcte                             
                                                                                
                                                                                
                                                                                
                                                                                
                                                                                
Rcrd of Fri Sep 18, 2020 23:38:34.0 PDT    Fri Sep 18, 2020 23:38:34.0 PDT      
                                                                                
38695658.CI.CWP.--.HN     Ronald W. Caspers Wilderness Park   Chan  2: 360 Deg  
                                                                                
38695658.CI.CWP.--.HN     Ronald W. Caspers Wilderness Park   Chan  2: 360 Deg  
                                                                                
Units for spectra are inches and sec, except Sa is in fraction of g.            
                                                                                
    2  100    2    6    6  100 -999    3    1    0   15 6581    0    0   41    0
    6   38   34    3  263    9   19 2020   10    3  36035866   39   33   74 -999
35866 -999  100    6 -999 -999 -999 -999 -999 -999 -999 -999 -999 -999 -999 -999
 -999 -999 -999 -99915050    2 -999    0 -999   20 -999 -999    3    1 -99915050
    315050    4   78    1    3    5    0    0 -999    0 -999 -999    6 -999    2
    2    2    4 -999 -999 -999 -999 -999 -999 -999 -999    1 -999 -999 -999  111
    1    1 -999 -999
      .005      .707   358.660      .000     1.000  4975.691      .003    35.810
   200.000     2.384      .479  -999.000    10.000  -999.000     4.000  -999.000
    20.000     -.608      .000  -999.000  -999.000  -999.000  -999.000      .001
     -.001     -.001     2.000    15.000    33.558  -117.558      .001      .001
     1.017     -.002     -.001   242.600  -999.000  -999.000  -999.000  -999.000
     1.000  -999.000  -999.000  -999.000  -999.000  -999.000  -999.000   120.000
     -.900     2.000     6.800   980.665      .020   301.000    31.831      .000
  -999.000    23.000  -999.000   301.000      .020      .300  -999.000  -999.000
    35.820     3.032    35.760     -.132    34.180      .008      .000      .300
    23.000      .020      .020      .000      .020      .006  -999.000  -999.000
      .012      .300      .009      .011      .000      .000  -999.000  -999.000
  -999.000  -999.000  -999.000  -999.000  -999.000  -999.000  -999.000  -999.000
  -999.000  -999.000  -999.000  -999.000
      .050
      .040      .042      .044      .046      .048      .050      .055      .060
      .065      .070      .075      .080      .085      .090      .095      .100
      .110      .120      .130      .140      .150      .160      .170      .180
      .190      .200      .220      .240      .260      .280      .300      .320
      .340      .360      .380      .400      .420      .440      .460      .480
      .500      .550      .600      .650      .700      .750      .800      .850
      .900      .950     1.000     1.100     1.200     1.300     1.400     1.500
     1.600     1.700     1.800     1.900     2.000     2.200     2.400     2.600
     2.800     3.000     3.200     3.400     3.600     3.800     4.000     4.200
     4.400     4.600     4.800     5.000     5.500     6.000      .000      .000
      .000      .000      .000      .000      .000      .000      .000      .000
      .000      .000      .000      .000      .000      .000      .000      .000
      .000      .000      .000      .000
Fourier amplitude spectra in in/sec.
  .000E+00  .000E+00  .000E+00  .000E+00  .000E+00  .000E+00  .000E+00  .000E+00
  .000E+00  .000E+00  .000E+00  .000E+00  .000E+00  .000E+00  .000E+00  .000E+00
  .000E+00  .000E+00  .000E+00  .000E+00  .000E+00  .000E+00  .000E+00  .000E+00
  .000E+00  .000E+00  .000E+00  .000E+00  .000E+00  .000E+00  .000E+00  .000E+00
  .000E+00  .000E+00  .000E+00  .000E+00  .000E+00  .000E+00  .000E+00  .000E+00
  .000E+00  .000E+00  .000E+00  .000E+00  .000E+00  .000E+00  .000E+00  .000E+00
  .000E+00  .000E+00  .000E+00  .000E+00  .000E+00  .000E+00  .000E+00  .000E+00
  .000E+00  .000E+00  .000E+00  .000E+00  .000E+00  .000E+00  .000E+00  .000E+00
  .000E+00  .000E+00  .000E+00  .000E+00  .000E+00  .000E+00  .000E+00  .000E+00
  .000E+00  .000E+00  .000E+00  .000E+00  .000E+00  .000E+00  .000E+00  .000E+00
  .000E+00  .000E+00  .000E+00  .000E+00  .000E+00  .000E+00  .000E+00  .000E+00
  .000E+00  .000E+00  .000E+00  .000E+00  .000E+00  .000E+00  .000E+00  .000E+00
  .000E+00  .000E+00  .000E+00  .000E+00
Damping =  .05. Data of Sd,Sv,Sa,Pssv,ttSd,ttSv,ttSa :
  .515E-04  .574E-04  .638E-04  .710E-04  .802E-04  .856E-04  .999E-04  .123E-03
  .150E-03  .187E-03  .267E-03  .292E-03  .338E-03  .417E-03  .488E-03  .544E-03
  .779E-03  .103E-02  .127E-02  .152E-02  .180E-02  .191E-02  .211E-02  .277E-02
  .319E-02  .372E-02  .466E-02  .424E-02  .547E-02  .661E-02  .105E-01  .115E-01
  .921E-02  .837E-02  .794E-02  .644E-02  .687E-02  .792E-02  .850E-02  .978E-02
