Response and Fourier amplitude spectra (78 periods,  .04 -  6.0 sec)   for      
Corrected accelerogram   38695658.CI.CZN.--.HN      Chan  1:  90 Deg     from   
Uncorrected Accelerogram Data             Processed: 09/19/20, CGS  ciczn--k    
Rcrd of Fri Sep 18, 2020 23:38:45.0 PDT               (Avol1 v2.0, 4/18 CSMIP)  
                                        (Origin:  To be determined)             
38695658.CI.CZN.--.HN                Start time:  9/19/20, 06:38:45.0 UTC (GPS) 
Station Id. CZN     33.914N, 116.784W    ObsMMS  s/n 1928  (3 Chns of  6 at Sta)
Cabazon                                  SCSN   Data: Acceleration              
Chan  1:  90 Deg                                                                
Rcrd of Fri Sep 18, 2020 23:38:45.0 PDT    Fri Sep 18, 2020 23:38:45.0 PDT      
Hypocenter:  To be determined.               ML:  To be determined.             
Instr Period =  .0050 sec,  Damping =  .707,  Sensitivity = 4.98 v/g  (Nominal) 
                        Record Length =301.000 sec.                             
                                     Uncor Max  =   .003 g, at   37.090 sec.    
RMS accel of (uncor) record  =        .   Chn. metadata effective date:         
Accelerogram bandpass filtered with 3 dB pts at   .30 and 23.00 cyc/sec         
                 instrument- and base-line correcte                             
                                                                                
                                                                                
                                                                                
                                                                                
                                                                                
Rcrd of Fri Sep 18, 2020 23:38:45.0 PDT    Fri Sep 18, 2020 23:38:45.0 PDT      
                                                                                
38695658.CI.CZN.--.HN     Cabazon   Chan  1:  90 Deg                            
                                                                                
38695658.CI.CZN.--.HN     Cabazon   Chan  1:  90 Deg                            
                                                                                
Units for spectra are inches and sec, except Sa is in fraction of g.            
                                                                                
    1  100    1    6    6  100 -999    3    1    0   15 1928    0    0   41    0
    6   38   45   10  263    9   19 2020   10    3   9035217   39    7   74 -999
35217 -999  100    6 -999 -999 -999 -999 -999 -999 -999 -999 -999 -999 -999 -999
 -999 -999 -999 -99915050    2 -999    0 -999   20 -999 -999    3    1 -99915050
    315050    4   78    1    3    5    0    0 -999    0 -999 -999    6 -999    2
    2    2    4 -999 -999 -999 -999 -999 -999 -999 -999    1 -999 -999 -999  111
    1    1 -999 -999
      .005      .707   352.170      .000     1.000  4983.492      .003    37.090
   200.000     2.384      .478  -999.000    10.000  -999.000     4.000  -999.000
    20.000   -13.333      .000  -999.000  -999.000  -999.000  -999.000      .018
     -.018     -.036     2.000    15.000    33.914  -116.784      .153      .026
      .171     -.064     -.008   538.000  -999.000  -999.000  -999.000  -999.000
     1.000  -999.000    -8.000  -999.000  -999.000  -999.000  -999.000   120.000
     -.900     2.000     6.800   980.665      .020   301.000    31.831      .003
  -999.000    23.000  -999.000   301.000      .020      .300  -999.000  -999.000
    37.080     2.430    37.060     -.055    36.420      .007      .000      .300
    23.000      .020      .020      .000      .020      .006  -999.000  -999.000
      .008      .140      .005      .003      .001      .000  -999.000  -999.000
  -999.000  -999.000  -999.000  -999.000  -999.000  -999.000  -999.000  -999.000
  -999.000  -999.000  -999.000  -999.000
      .050
      .040      .042      .044      .046      .048      .050      .055      .060
      .065      .070      .075      .080      .085      .090      .095      .100
      .110      .120      .130      .140      .150      .160      .170      .180
      .190      .200      .220      .240      .260      .280      .300      .320
      .340      .360      .380      .400      .420      .440      .460      .480
      .500      .550      .600      .650      .700      .750      .800      .850
      .900      .950     1.000     1.100     1.200     1.300     1.400     1.500
     1.600     1.700     1.800     1.900     2.000     2.200     2.400     2.600
     2.800     3.000     3.200     3.400     3.600     3.800     4.000     4.200
     4.400     4.600     4.800     5.000     5.500     6.000      .000      .000
      .000      .000      .000      .000      .000      .000      .000      .000
      .000      .000      .000      .000      .000      .000      .000      .000
      .000      .000      .000      .000
Fourier amplitude spectra in in/sec.
  .000E+00  .000E+00  .000E+00  .000E+00  .000E+00  .000E+00  .000E+00  .000E+00
  .000E+00  .000E+00  .000E+00  .000E+00  .000E+00  .000E+00  .000E+00  .000E+00
  .000E+00  .000E+00  .000E+00  .000E+00  .000E+00  .000E+00  .000E+00  .000E+00
  .000E+00  .000E+00  .000E+00  .000E+00  .000E+00  .000E+00  .000E+00  .000E+00
  .000E+00  .000E+00  .000E+00  .000E+00  .000E+00  .000E+00  .000E+00  .000E+00
  .000E+00  .000E+00  .000E+00  .000E+00  .000E+00  .000E+00  .000E+00  .000E+00
  .000E+00  .000E+00  .000E+00  .000E+00  .000E+00  .000E+00  .000E+00  .000E+00
  .000E+00  .000E+00  .000E+00  .000E+00  .000E+00  .000E+00  .000E+00  .000E+00
  .000E+00  .000E+00  .000E+00  .000E+00  .000E+00  .000E+00  .000E+00  .000E+00
  .000E+00  .000E+00  .000E+00  .000E+00  .000E+00  .000E+00  .000E+00  .000E+00
  .000E+00  .000E+00  .000E+00  .000E+00  .000E+00  .000E+00  .000E+00  .000E+00
  .000E+00  .000E+00  .000E+00  .000E+00  .000E+00  .000E+00  .000E+00  .000E+00
  .000E+00  .000E+00  .000E+00  .000E+00
Damping =  .05. Data of Sd,Sv,Sa,Pssv,ttSd,ttSv,ttSa :
  .485E-04  .551E-04  .649E-04  .742E-04  .808E-04  .892E-04  .119E-03  .152E-03
  .236E-03  .314E-03  .333E-03  .343E-03  .413E-03  .593E-03  .614E-03  .599E-03
  .821E-03  .102E-02  .115E-02  .154E-02  .165E-02  .182E-02  .180E-02  .146E-02
  .177E-02  .190E-02  .243E-02  .275E-02  .329E-02  .314E-02  .237E-02  .207E-02
  .173E-02  .174E-02  .229E-02  .280E-02  .360E-02  .457E-02  .511E-02  .546E-02
  .546E-02  .485E-02  .344E-02  .319E-02  .376E-02  .419E-02  .496E-02  .562E-02
  .535E-02  .531E-02  .541E-02  .519E-02  .468E-02  .446E-02  .527E-02  .572E-02
  .661E-02  .631E-02  .549E-02  .548E-02  .501E-02  .486E-02  .437E-02  .447E-02
  .339E-02  .306E-02  .319E-02  .309E-02  .299E-02  .298E-02  .300E-02  .296E-02
  .294E-02  .291E-02  .286E-02  .286E-02  .283E-02  .283E-02  .000E+00  .000E+00
  .000E+00  .000E+00  .000E+00  .000E+00  .000E+00  .000E+00  .000E+00  .000E+00
  .000E+00  .000E+00  .000E+00  .000E+00  .000E+00  .000E+00  .000E+00  .000E+00
  .000E+00  .000E+00  .000E+00  .000E+00
  .473E-02  .466E-02  .423E-02  .633E-02  .786E-02  .697E-02  .644E-02  .988E-02
  .144E-01  .195E-01  .216E-01  .243E-01  .285E-01  .345E-01  .358E-01  .334E-01
  .423E-01  .515E-01  .538E-01  .668E-01  .654E-01  .666E-01  .618E-01  .561E-01
  .565E-01  .576E-01  .664E-01  .723E-01  .805E-01  .791E-01  .610E-01  .464E-01
  .404E-01  .355E-01  .403E-01  .490E-01  .635E-01  .708E-01  .743E-01  .745E-01
  .754E-01  .634E-01  .509E-01  .506E-01  .459E-01  .448E-01  .532E-01  .537E-01
  .471E-01  .475E-01  .439E-01  .379E-01  .349E-01  .363E-01  .375E-01  .375E-01
  .373E-01  .381E-01  .344E-01  .330E-01  .300E-01  .263E-01  .245E-01  .240E-01
  .238E-01  .225E-01  .217E-01  .215E-01  .214E-01  .212E-01  .212E-01  .212E-01
  .212E-01  .212E-01  .212E-01  .212E-01  .212E-01  .212E-01  .000E+00  .000E+00
  .000E+00  .000E+00  .000E+00  .000E+00  .000E+00  .000E+00  .000E+00  .000E+00
  .000E+00  .000E+00  .000E+00  .000E+00  .000E+00  .000E+00  .000E+00  .000E+00
  .000E+00  .000E+00  .000E+00  .000E+00
  .312E-02  .321E-02  .344E-02  .362E-02  .357E-02  .365E-02  .402E-02  .434E-02
  .569E-02  .653E-02  .608E-02  .559E-02  .597E-02  .752E-02  .702E-02  .609E-02
  .694E-02  .720E-02  .702E-02  .798E-02  .762E-02  .726E-02  .648E-02  .464E-02
  .504E-02  .488E-02  .516E-02  .497E-02  .492E-02  .411E-02  .267E-02  .208E-02
  .155E-02  .137E-02  .161E-02  .183E-02  .208E-02  .243E-02  .249E-02  .247E-02
  .226E-02  .166E-02  .990E-03  .777E-03  .785E-03  .782E-03  .802E-03  .805E-03
  .680E-03  .607E-03  .560E-03  .448E-03  .334E-03  .272E-03  .280E-03  .266E-03
  .266E-03  .225E-03  .180E-03  .163E-03  .133E-03  .104E-03  .786E-04  .689E-04
  .494E-04  .378E-04  .342E-04  .296E-04  .258E-04  .233E-04  .214E-04  .193E-04
  .177E-04  .163E-04  .149E-04  .139E-04  .117E-04  .104E-04  .000E+00  .000E+00
  .000E+00  .000E+00  .000E+00  .000E+00  .000E+00  .000E+00  .000E+00  .000E+00
  .000E+00  .000E+00  .000E+00  .000E+00  .000E+00  .000E+00  .000E+00  .000E+00
  .000E+00  .000E+00  .000E+00  .000E+00
  .761E-02  .824E-02  .927E-02  .101E-01  .106E-01  .112E-01  .136E-01  .159E-01
  .228E-01  .282E-01  .279E-01  .269E-01  .305E-01  .414E-01  .406E-01  .376E-01
  .469E-01  .534E-01  .558E-01  .689E-01  .691E-01  .714E-01  .665E-01  .509E-01
  .584E-01  .597E-01  .695E-01  .721E-01  .794E-01  .704E-01  .497E-01  .407E-01
  .320E-01  .303E-01  .378E-01  .440E-01  .539E-01  .652E-01  .697E-01  .714E-01
  .686E-01  .554E-01  .360E-01  .308E-01  .337E-01  .351E-01  .389E-01  .416E-01
  .373E-01  .351E-01  .340E-01  .297E-01  .245E-01  .215E-01  .236E-01  .239E-01
  .259E-01  .233E-01  .192E-01  .181E-01  .157E-01  .139E-01  .114E-01  .108E-01
  .760E-02  .641E-02  .627E-02  .570E-02  .521E-02  .493E-02  .471E-02  .443E-02
  .419E-02  .397E-02  .374E-02  .359E-02  .323E-02  .296E-02  .000E+00  .000E+00
  .000E+00  .000E+00  .000E+00  .000E+00  .000E+00  .000E+00  .000E+00  .000E+00
  .000E+00  .000E+00  .000E+00  .000E+00  .000E+00  .000E+00  .000E+00  .000E+00
  .000E+00  .000E+00  .000E+00  .000E+00
  .371E+02  .371E+02  .371E+02  .371E+02  .371E+02  .371E+02  .371E+02  .371E+02
  .371E+02  .371E+02  .371E+02  .368E+02  .368E+02  .371E+02  .372E+02  .377E+02
  .375E+02  .372E+02  .372E+02  .372E+02  .388E+02  .388E+02  .388E+02  .378E+02
  .388E+02  .389E+02  .378E+02  .379E+02  .377E+02  .376E+02  .375E+02  .371E+02
  .365E+02  .381E+02  .381E+02  .401E+02  .401E+02  .400E+02  .389E+02  .389E+02
  .389E+02  .387E+02  .464E+02  .370E+02  .373E+02  .385E+02  .383E+02  .383E+02
  .384E+02  .380E+02  .371E+02  .372E+02  .372E+02  .368E+02  .397E+02  .397E+02
  .589E+02  .591E+02  .394E+02  .387E+02  .676E+02  .585E+02  .577E+02  .578E+02
  .380E+02  .364E+02  .364E+02  .364E+02  .364E+02  .364E+02  .364E+02  .364E+02
  .364E+02  .364E+02  .364E+02  .364E+02  .364E+02  .364E+02  .000E+00  .000E+00
  .000E+00  .000E+00  .000E+00  .000E+00  .000E+00  .000E+00  .000E+00  .000E+00
  .000E+00  .000E+00  .000E+00  .000E+00  .000E+00  .000E+00  .000E+00  .000E+00
  .000E+00  .000E+00  .000E+00  .000E+00
  .550E+02  .550E+02  .204E+02  .205E+02  .205E+02  .590E+02  .376E+02  .383E+02
  .371E+02  .371E+02  .371E+02  .368E+02  .368E+02  .371E+02  .371E+02  .386E+02
  .375E+02  .372E+02  .372E+02  .372E+02  .372E+02  .388E+02  .388E+02  .382E+02
  .372E+02  .388E+02  .377E+02  .379E+02  .376E+02  .376E+02  .371E+02  .371E+02
  .370E+02  .382E+02  .382E+02  .389E+02  .400E+02  .401E+02  .399E+02  .388E+02
  .393E+02  .389E+02  .370E+02  .370E+02  .370E+02  .387E+02  .384E+02  .385E+02
  .381E+02  .382E+02  .379E+02  .369E+02  .371E+02  .371E+02  .371E+02  .371E+02
  .389E+02  .389E+02  .382E+02  .382E+02  .382E+02  .382E+02  .382E+02  .387E+02
  .387E+02  .387E+02  .387E+02  .387E+02  .387E+02  .387E+02  .387E+02  .387E+02
  .387E+02  .387E+02  .387E+02  .387E+02  .387E+02  .387E+02  .000E+00  .000E+00
  .000E+00  .000E+00  .000E+00  .000E+00  .000E+00  .000E+00  .000E+00  .000E+00
  .000E+00  .000E+00  .000E+00  .000E+00  .000E+00  .000E+00  .000E+00  .000E+00
  .000E+00  .000E+00  .000E+00  .000E+00
  .371E+02  .371E+02  .371E+02  .371E+02  .371E+02  .371E+02  .371E+02  .371E+02
  .371E+02  .371E+02  .371E+02  .368E+02  .368E+02  .371E+02  .372E+02  .377E+02
  .375E+02  .372E+02  .372E+02  .372E+02  .388E+02  .388E+02  .388E+02  .377E+02
  .388E+02  .389E+02  .378E+02  .379E+02  .377E+02  .376E+02  .416E+02  .371E+02
  .365E+02  .381E+02  .381E+02  .401E+02  .401E+02  .400E+02  .389E+02  .389E+02
  .389E+02  .385E+02  .464E+02  .369E+02  .373E+02  .385E+02  .382E+02  .383E+02
  .383E+02  .380E+02  .371E+02  .371E+02  .372E+02  .368E+02  .397E+02  .397E+02
  .589E+02  .590E+02  .393E+02  .387E+02  .387E+02  .584E+02  .577E+02  .577E+02
  .380E+02  .380E+02  .364E+02  .364E+02  .364E+02  .364E+02  .364E+02  .363E+02
  .363E+02  .363E+02  .363E+02  .363E+02  .363E+02  .387E+02  .000E+00  .000E+00
  .000E+00  .000E+00  .000E+00  .000E+00  .000E+00  .000E+00  .000E+00  .000E+00
  .000E+00  .000E+00  .000E+00  .000E+00  .000E+00  .000E+00  .000E+00  .000E+00
  .000E+00  .000E+00  .000E+00  .000E+00
/&   ----------  End of spectral data for channel  1  ----------
Response and Fourier amplitude spectra (78 periods,  .04 -  6.0 sec)   for      
Corrected accelerogram   38695658.CI.CZN.--.HN      Chan  2: 360 Deg     from   
Uncorrected Accelerogram Data             Processed: 09/19/20, CGS  ciczn--k    
Rcrd of Fri Sep 18, 2020 23:38:45.0 PDT               (Avol1 v2.0, 4/18 CSMIP)  
                                        (Origin:  To be determined)             
38695658.CI.CZN.--.HN                Start time:  9/19/20, 06:38:45.0 UTC (GPS) 
Station Id. CZN     33.914N, 116.784W    ObsMMS  s/n 1928  (3 Chns of  6 at Sta)
Cabazon                                  SCSN   Data: Acceleration              
Chan  2: 360 Deg                                                                
Rcrd of Fri Sep 18, 2020 23:38:45.0 PDT    Fri Sep 18, 2020 23:38:45.0 PDT      
Hypocenter:  To be determined.               ML:  To be determined.             
Instr Period =  .0050 sec,  Damping =  .707,  Sensitivity = 4.97 v/g  (Nominal) 
                        Record Length =301.000 sec.                             
                                     Uncor Max  =   .003 g, at   37.350 sec.    
RMS accel of (uncor) record  =        .   Chn. metadata effective date:         
Accelerogram bandpass filtered with 3 dB pts at   .30 and 23.00 cyc/sec         
                 instrument- and base-line correcte                             
                                                                                
                                                                                
                                                                                
                                                                                
                                                                                
Rcrd of Fri Sep 18, 2020 23:38:45.0 PDT    Fri Sep 18, 2020 23:38:45.0 PDT      
                                                                                
38695658.CI.CZN.--.HN     Cabazon   Chan  2: 360 Deg                            
                                                                                
38695658.CI.CZN.--.HN     Cabazon   Chan  2: 360 Deg                            
                                                                                
Units for spectra are inches and sec, except Sa is in fraction of g.            
                                                                                
    2  100    2    6    6  100 -999    3    1    0   15 1928    0    0   41    0
    6   38   45    0  263    9   19 2020   10    3  36035331   39    7   74 -999
35331 -999  100    6 -999 -999 -999 -999 -999 -999 -999 -999 -999 -999 -999 -999
 -999 -999 -999 -99915050    2 -999    0 -999   20 -999 -999    3    1 -99915050
    315050    4   78    1    3    5    0    0 -999    0 -999 -999    6 -999    2
    2    2    4 -999 -999 -999 -999 -999 -999 -999 -999    1 -999 -999 -999  111
    1    1 -999 -999
      .005      .707   353.310      .000     1.000  4967.535      .003    37.350
   200.000     2.384      .480  -999.000    10.000  -999.000     4.000  -999.000
    20.000    -5.264      .000  -999.000  -999.000  -999.000  -999.000      .008
     -.007     -.015     2.000    15.000    33.914  -116.784      .180      .027
      .148     -.048      .017   538.000  -999.000  -999.000  -999.000  -999.000
     1.000  -999.000  -999.000  -999.000  -999.000  -999.000  -999.000   120.000
     -.900     2.000     6.800   980.665      .020   301.000    31.831      .001
  -999.000    23.000  -999.000   301.000      .020      .300  -999.000  -999.000
    39.020    -3.132    39.060     -.104    38.360      .006      .000      .300
    23.000      .020      .020      .000      .020      .006  -999.000  -999.000
      .009      .130      .007      .006      .001      .000  -999.000  -999.000
  -999.000  -999.000  -999.000  -999.000  -999.000  -999.000  -999.000  -999.000
  -999.000  -999.000  -999.000  -999.000
      .050
      .040      .042      .044      .046      .048      .050      .055      .060
      .065      .070      .075      .080      .085      .090      .095      .100
      .110      .120      .130      .140      .150      .160      .170      .180
      .190      .200      .220      .240      .260      .280      .300      .320
      .340      .360      .380      .400      .420      .440      .460      .480
      .500      .550      .600      .650      .700      .750      .800      .850
      .900      .950     1.000     1.100     1.200     1.300     1.400     1.500
     1.600     1.700     1.800     1.900     2.000     2.200     2.400     2.600
     2.800     3.000     3.200     3.400     3.600     3.800     4.000     4.200
     4.400     4.600     4.800     5.000     5.500     6.000      .000      .000
      .000      .000      .000      .000      .000      .000      .000      .000
      .000      .000      .000      .000      .000      .000      .000      .000
      .000      .000      .000      .000
Fourier amplitude spectra in in/sec.
  .000E+00  .000E+00  .000E+00  .000E+00  .000E+00  .000E+00  .000E+00  .000E+00
  .000E+00  .000E+00  .000E+00  .000E+00  .000E+00  .000E+00  .000E+00  .000E+00
  .000E+00  .000E+00  .000E+00  .000E+00  .000E+00  .000E+00  .000E+00  .000E+00
  .000E+00  .000E+00  .000E+00  .000E+00  .000E+00  .000E+00  .000E+00  .000E+00
  .000E+00  .000E+00  .000E+00  .000E+00  .000E+00  .000E+00  .000E+00  .000E+00
  .000E+00  .000E+00  .000E+00  .000E+00  .000E+00  .000E+00  .000E+00  .000E+00
  .000E+00  .000E+00  .000E+00  .000E+00  .000E+00  .000E+00  .000E+00  .000E+00
  .000E+00  .000E+00  .000E+00  .000E+00  .000E+00  .000E+00  .000E+00  .000E+00
  .000E+00  .000E+00  .000E+00  .000E+00  .000E+00  .000E+00  .000E+00  .000E+00
  .000E+00  .000E+00  .000E+00  .000E+00  .000E+00  .000E+00  .000E+00  .000E+00
  .000E+00  .000E+00  .000E+00  .000E+00  .000E+00  .000E+00  .000E+00  .000E+00
  .000E+00  .000E+00  .000E+00  .000E+00  .000E+00  .000E+00  .000E+00  .000E+00
  .000E+00  .000E+00  .000E+00  .000E+00
Damping =  .05. Data of Sd,Sv,Sa,Pssv,ttSd,ttSv,ttSa :
  .606E-04  .637E-04  .694E-04  .794E-04  .944E-04  .114E-03  .134E-03  .185E-03
  .233E-03  .326E-03  .306E-03  .450E-03  .507E-03  .569E-03  .579E-03  .763E-03
  .796E-03  .108E-02  .152E-02  .153E-02  .126E-02  .162E-02  .165E-02  .176E-02
  .223E-02  .269E-02  .388E-02  .445E-02  .478E-02  .458E-02  .560E-02  .599E-02
  .775E-02  .736E-02  .552E-02  .429E-02  .443E-02  .467E-02  .488E-02  .542E-02
