Response and Fourier amplitude spectra (78 periods,  .04 -  6.0 sec)   for      
Corrected accelerogram   38695658.CI.DEC.--.HN      Chan  1:  90 Deg     from   
Uncorrected Accelerogram Data             Processed: 09/19/20, CGS  cidec--i    
Rcrd of Fri Sep 18, 2020 23:38:29.0 PDT               (Avol1 v2.0, 4/18 CSMIP)  
                                        (Origin:  To be determined)             
38695658.CI.DEC.--.HN                Start time:  9/19/20, 06:38:29.0 UTC (GPS) 
Station Id. DEC     34.254N, 118.334W    Q330    s/n 4331  (3 Chns of  3 at Sta)
Sunland, Green Verdugo Fire Access Rd.   SCSN   Data: Acceleration              
Chan  1:  90 Deg                                                                
Rcrd of Fri Sep 18, 2020 23:38:29.0 PDT    Fri Sep 18, 2020 23:38:29.0 PDT      
Hypocenter:  To be determined.               ML:  To be determined.             
Instr Period =  .0050 sec,  Damping =  .707,  Sensitivity = 4.99 v/g  (Nominal) 
                        Record Length =301.000 sec.                             
                                     Uncor Max  =   .018 g, at   29.160 sec.    
RMS accel of (uncor) record  =        .   Chn. metadata effective date:         
Accelerogram bandpass filtered with 3 dB pts at   .30 and 23.00 cyc/sec         
                 instrument- and base-line correcte                             
                                                                                
                                                                                
                                                                                
                                                                                
                                                                                
Rcrd of Fri Sep 18, 2020 23:38:29.0 PDT    Fri Sep 18, 2020 23:38:29.0 PDT      
                                                                                
38695658.CI.DEC.--.HN     Sunland, Green Verdugo Fire Access Rd.   SChan  1:  90
 Deg                                                                            
38695658.CI.DEC.--.HN     Sunland, Green Verdugo Fire Access Rd.   SChan  1:  90
 Deg                                                                            
Units for spectra are inches and sec, except Sa is in fraction of g.            
                                                                                
    1  100    1    3    3  100 -999    3    1    0  605 4331    050603   41    0
    6   38   29    8  263    9   19 2020   10    3   9035855   39   38   74 -999
35855 -999  100    6 -999 -999 -999 -999 -999 -999 -999 -999 -999 -999 -999 -999
 -999 -999 -999 -99915050    2 -999    0 -999   20 -999 -999    3    1 -99915050
    315050    4   78    1    3    5    0    0 -999    0 -999 -999    6 -999    2
    2    2    4 -999 -999 -999 -999 -999 -999 -999 -999    1 -999 -999 -999  111
    1    1 -999 -999
      .005      .707   358.550      .001     1.000  4985.686      .018    29.160
   200.000     2.384      .478  -999.000    10.000  -999.000     4.000  -999.000
    20.000   -33.666      .000  -999.000  -999.000  -999.000  -999.000     -.001
      .001      .002     2.000    15.000    34.254  -118.334      .003      .004
     1.188      .001      .003   519.000  -999.000  -999.000  -999.000  -999.000
     1.000  -999.000    -8.000  -999.000  -999.000  -999.000  -999.000   120.000
     -.900     2.000     6.800   980.665      .020   301.000    31.831      .000
  -999.000    23.000  -999.000   301.000      .020      .300  -999.000  -999.000
    29.160    18.087    29.120     -.953    29.180     -.085      .000      .300
    23.000      .020      .020      .000      .020      .018  -999.000  -999.000
      .060      .220      .059      .037      .005      .001  -999.000  -999.000
  -999.000  -999.000  -999.000  -999.000  -999.000  -999.000  -999.000  -999.000
  -999.000  -999.000  -999.000  -999.000
      .050
      .040      .042      .044      .046      .048      .050      .055      .060
      .065      .070      .075      .080      .085      .090      .095      .100
      .110      .120      .130      .140      .150      .160      .170      .180
      .190      .200      .220      .240      .260      .280      .300      .320
      .340      .360      .380      .400      .420      .440      .460      .480
      .500      .550      .600      .650      .700      .750      .800      .850
      .900      .950     1.000     1.100     1.200     1.300     1.400     1.500
     1.600     1.700     1.800     1.900     2.000     2.200     2.400     2.600
     2.800     3.000     3.200     3.400     3.600     3.800     4.000     4.200
     4.400     4.600     4.800     5.000     5.500     6.000      .000      .000
      .000      .000      .000      .000      .000      .000      .000      .000
      .000      .000      .000      .000      .000      .000      .000      .000
      .000      .000      .000      .000
Fourier amplitude spectra in in/sec.
  .000E+00  .000E+00  .000E+00  .000E+00  .000E+00  .000E+00  .000E+00  .000E+00
  .000E+00  .000E+00  .000E+00  .000E+00  .000E+00  .000E+00  .000E+00  .000E+00
  .000E+00  .000E+00  .000E+00  .000E+00  .000E+00  .000E+00  .000E+00  .000E+00
  .000E+00  .000E+00  .000E+00  .000E+00  .000E+00  .000E+00  .000E+00  .000E+00
  .000E+00  .000E+00  .000E+00  .000E+00  .000E+00  .000E+00  .000E+00  .000E+00
  .000E+00  .000E+00  .000E+00  .000E+00  .000E+00  .000E+00  .000E+00  .000E+00
  .000E+00  .000E+00  .000E+00  .000E+00  .000E+00  .000E+00  .000E+00  .000E+00
  .000E+00  .000E+00  .000E+00  .000E+00  .000E+00  .000E+00  .000E+00  .000E+00
  .000E+00  .000E+00  .000E+00  .000E+00  .000E+00  .000E+00  .000E+00  .000E+00
  .000E+00  .000E+00  .000E+00  .000E+00  .000E+00  .000E+00  .000E+00  .000E+00
  .000E+00  .000E+00  .000E+00  .000E+00  .000E+00  .000E+00  .000E+00  .000E+00
  .000E+00  .000E+00  .000E+00  .000E+00  .000E+00  .000E+00  .000E+00  .000E+00
  .000E+00  .000E+00  .000E+00  .000E+00
Damping =  .05. Data of Sd,Sv,Sa,Pssv,ttSd,ttSv,ttSa :
  .290E-03  .322E-03  .355E-03  .392E-03  .435E-03  .482E-03  .617E-03  .799E-03
  .905E-03  .114E-02  .137E-02  .159E-02  .195E-02  .221E-02  .270E-02  .308E-02
  .411E-02  .511E-02  .668E-02  .770E-02  .782E-02  .914E-02  .121E-01  .161E-01
  .202E-01  .232E-01  .287E-01  .327E-01  .328E-01  .319E-01  .322E-01  .322E-01
  .399E-01  .454E-01  .470E-01  .448E-01  .370E-01  .384E-01  .411E-01  .435E-01
  .452E-01  .504E-01  .578E-01  .623E-01  .626E-01  .594E-01  .553E-01  .513E-01
  .492E-01  .469E-01  .456E-01  .467E-01  .463E-01  .461E-01  .462E-01  .453E-01
  .441E-01  .433E-01  .430E-01  .428E-01  .423E-01  .405E-01  .390E-01  .384E-01
  .383E-01  .383E-01  .382E-01  .379E-01  .375E-01  .371E-01  .367E-01  .363E-01
  .360E-01  .357E-01  .355E-01  .353E-01  .350E-01  .348E-01  .000E+00  .000E+00
  .000E+00  .000E+00  .000E+00  .000E+00  .000E+00  .000E+00  .000E+00  .000E+00
  .000E+00  .000E+00  .000E+00  .000E+00  .000E+00  .000E+00  .000E+00  .000E+00
  .000E+00  .000E+00  .000E+00  .000E+00
  .115E-01  .129E-01  .144E-01  .161E-01  .186E-01  .222E-01  .357E-01  .577E-01
  .798E-01  .952E-01  .113E+00  .119E+00  .118E+00  .132E+00  .145E+00  .163E+00
  .198E+00  .215E+00  .248E+00  .272E+00  .246E+00  .236E+00  .294E+00  .407E+00
  .524E+00  .593E+00  .814E+00  .873E+00  .824E+00  .714E+00  .640E+00  .620E+00
  .738E+00  .860E+00  .838E+00  .741E+00  .677E+00  .668E+00  .678E+00  .676E+00
  .658E+00  .607E+00  .607E+00  .719E+00  .713E+00  .712E+00  .695E+00  .665E+00
  .627E+00  .593E+00  .569E+00  .525E+00  .482E+00  .454E+00  .430E+00  .407E+00
  .391E+00  .380E+00  .373E+00  .375E+00  .377E+00  .378E+00  .376E+00  .373E+00
  .372E+00  .372E+00  .372E+00  .372E+00  .372E+00  .372E+00  .372E+00  .372E+00
  .371E+00  .371E+00  .371E+00  .370E+00  .370E+00  .369E+00  .000E+00  .000E+00
  .000E+00  .000E+00  .000E+00  .000E+00  .000E+00  .000E+00  .000E+00  .000E+00
  .000E+00  .000E+00  .000E+00  .000E+00  .000E+00  .000E+00  .000E+00  .000E+00
  .000E+00  .000E+00  .000E+00  .000E+00
  .185E-01  .187E-01  .187E-01  .189E-01  .193E-01  .197E-01  .209E-01  .227E-01
  .222E-01  .237E-01  .251E-01  .253E-01  .280E-01  .279E-01  .304E-01  .319E-01
  .347E-01  .367E-01  .406E-01  .402E-01  .359E-01  .367E-01  .431E-01  .506E-01
  .573E-01  .590E-01  .600E-01  .582E-01  .495E-01  .422E-01  .366E-01  .328E-01
  .355E-01  .363E-01  .335E-01  .289E-01  .214E-01  .205E-01  .200E-01  .196E-01
  .188E-01  .170E-01  .166E-01  .152E-01  .131E-01  .109E-01  .892E-02  .727E-02
  .623E-02  .540E-02  .472E-02  .407E-02  .340E-02  .289E-02  .251E-02  .216E-02
  .186E-02  .163E-02  .145E-02  .130E-02  .117E-02  .946E-03  .779E-03  .665E-03
  .584E-03  .520E-03  .466E-03  .419E-03  .379E-03  .344E-03  .314E-03  .289E-03
  .266E-03  .247E-03  .230E-03  .216E-03  .185E-03  .162E-03  .000E+00  .000E+00
  .000E+00  .000E+00  .000E+00  .000E+00  .000E+00  .000E+00  .000E+00  .000E+00
  .000E+00  .000E+00  .000E+00  .000E+00  .000E+00  .000E+00  .000E+00  .000E+00
  .000E+00  .000E+00  .000E+00  .000E+00
  .455E-01  .482E-01  .507E-01  .535E-01  .570E-01  .606E-01  .704E-01  .837E-01
  .874E-01  .102E+00  .115E+00  .125E+00  .144E+00  .154E+00  .179E+00  .193E+00
  .235E+00  .268E+00  .323E+00  .346E+00  .328E+00  .359E+00  .446E+00  .562E+00
  .669E+00  .729E+00  .819E+00  .857E+00  .793E+00  .715E+00  .674E+00  .633E+00
  .737E+00  .792E+00  .778E+00  .703E+00  .553E+00  .548E+00  .561E+00  .569E+00
  .568E+00  .576E+00  .605E+00  .602E+00  .562E+00  .498E+00  .434E+00  .380E+00
  .344E+00  .310E+00  .286E+00  .267E+00  .242E+00  .223E+00  .207E+00  .190E+00
  .173E+00  .160E+00  .150E+00  .141E+00  .133E+00  .116E+00  .102E+00  .927E-01
  .859E-01  .802E-01  .750E-01  .701E-01  .655E-01  .614E-01  .577E-01  .544E-01
  .514E-01  .488E-01  .465E-01  .444E-01  .400E-01  .364E-01  .000E+00  .000E+00
  .000E+00  .000E+00  .000E+00  .000E+00  .000E+00  .000E+00  .000E+00  .000E+00
  .000E+00  .000E+00  .000E+00  .000E+00  .000E+00  .000E+00  .000E+00  .000E+00
  .000E+00  .000E+00  .000E+00  .000E+00
  .292E+02  .292E+02  .292E+02  .292E+02  .292E+02  .292E+02  .292E+02  .292E+02
  .249E+02  .249E+02  .250E+02  .292E+02  .294E+02  .294E+02  .295E+02  .295E+02
  .299E+02  .292E+02  .292E+02  .292E+02  .292E+02  .292E+02  .292E+02  .292E+02
  .292E+02  .292E+02  .293E+02  .294E+02  .294E+02  .294E+02  .294E+02  .294E+02
  .303E+02  .303E+02  .302E+02  .302E+02  .295E+02  .293E+02  .293E+02  .293E+02
  .293E+02  .293E+02  .302E+02  .293E+02  .293E+02  .294E+02  .294E+02  .294E+02
  .295E+02  .295E+02  .295E+02  .292E+02  .292E+02  .292E+02  .292E+02  .292E+02
  .292E+02  .292E+02  .292E+02  .292E+02  .292E+02  .292E+02  .292E+02  .292E+02
  .292E+02  .292E+02  .292E+02  .292E+02  .292E+02  .292E+02  .292E+02  .292E+02
  .292E+02  .292E+02  .292E+02  .292E+02  .292E+02  .292E+02  .000E+00  .000E+00
  .000E+00  .000E+00  .000E+00  .000E+00  .000E+00  .000E+00  .000E+00  .000E+00
  .000E+00  .000E+00  .000E+00  .000E+00  .000E+00  .000E+00  .000E+00  .000E+00
  .000E+00  .000E+00  .000E+00  .000E+00
  .247E+02  .247E+02  .247E+02  .247E+02  .247E+02  .247E+02  .248E+02  .248E+02
  .249E+02  .249E+02  .249E+02  .249E+02  .294E+02  .295E+02  .295E+02  .295E+02
  .299E+02  .299E+02  .298E+02  .296E+02  .296E+02  .296E+02  .291E+02  .291E+02
  .291E+02  .293E+02  .295E+02  .294E+02  .294E+02  .295E+02  .295E+02  .293E+02
  .304E+02  .303E+02  .303E+02  .301E+02  .294E+02  .294E+02  .294E+02  .294E+02
  .294E+02  .297E+02  .307E+02  .302E+02  .292E+02  .292E+02  .292E+02  .292E+02
  .292E+02  .292E+02  .292E+02  .293E+02  .293E+02  .293E+02  .293E+02  .293E+02
  .293E+02  .293E+02  .291E+02  .291E+02  .291E+02  .291E+02  .291E+02  .291E+02
  .291E+02  .291E+02  .291E+02  .291E+02  .291E+02  .291E+02  .291E+02  .291E+02
  .291E+02  .291E+02  .291E+02  .291E+02  .291E+02  .291E+02  .000E+00  .000E+00
  .000E+00  .000E+00  .000E+00  .000E+00  .000E+00  .000E+00  .000E+00  .000E+00
  .000E+00  .000E+00  .000E+00  .000E+00  .000E+00  .000E+00  .000E+00  .000E+00
  .000E+00  .000E+00  .000E+00  .000E+00
  .292E+02  .292E+02  .292E+02  .292E+02  .292E+02  .292E+02  .292E+02  .292E+02
  .249E+02  .249E+02  .249E+02  .292E+02  .294E+02  .295E+02  .295E+02  .295E+02
  .299E+02  .292E+02  .292E+02  .292E+02  .292E+02  .292E+02  .292E+02  .292E+02
  .292E+02  .292E+02  .293E+02  .294E+02  .294E+02  .294E+02  .294E+02  .294E+02
  .303E+02  .303E+02  .302E+02  .302E+02  .295E+02  .297E+02  .293E+02  .293E+02
  .293E+02  .293E+02  .293E+02  .293E+02  .293E+02  .293E+02  .294E+02  .294E+02
  .294E+02  .295E+02  .295E+02  .291E+02  .291E+02  .291E+02  .291E+02  .291E+02
  .291E+02  .291E+02  .291E+02  .291E+02  .291E+02  .291E+02  .291E+02  .291E+02
  .291E+02  .291E+02  .291E+02  .291E+02  .291E+02  .291E+02  .291E+02  .291E+02
  .291E+02  .291E+02  .291E+02  .291E+02  .291E+02  .291E+02  .000E+00  .000E+00
  .000E+00  .000E+00  .000E+00  .000E+00  .000E+00  .000E+00  .000E+00  .000E+00
  .000E+00  .000E+00  .000E+00  .000E+00  .000E+00  .000E+00  .000E+00  .000E+00
  .000E+00  .000E+00  .000E+00  .000E+00
/&   ----------  End of spectral data for channel  1  ----------
Response and Fourier amplitude spectra (78 periods,  .04 -  6.0 sec)   for      
Corrected accelerogram   38695658.CI.DEC.--.HN      Chan  2: 360 Deg     from   
Uncorrected Accelerogram Data             Processed: 09/19/20, CGS  cidec--i    
Rcrd of Fri Sep 18, 2020 23:38:29.0 PDT               (Avol1 v2.0, 4/18 CSMIP)  
                                        (Origin:  To be determined)             
38695658.CI.DEC.--.HN                Start time:  9/19/20, 06:38:29.0 UTC (GPS) 
Station Id. DEC     34.254N, 118.334W    Q330    s/n 4331  (3 Chns of  3 at Sta)
Sunland, Green Verdugo Fire Access Rd.   SCSN   Data: Acceleration              
Chan  2: 360 Deg                                                                
Rcrd of Fri Sep 18, 2020 23:38:29.0 PDT    Fri Sep 18, 2020 23:38:29.0 PDT      
Hypocenter:  To be determined.               ML:  To be determined.             
Instr Period =  .0050 sec,  Damping =  .707,  Sensitivity = 4.98 v/g  (Nominal) 
                        Record Length =301.000 sec.                             
                                     Uncor Max  =   .015 g, at   28.930 sec.    
RMS accel of (uncor) record  =        .   Chn. metadata effective date:         
Accelerogram bandpass filtered with 3 dB pts at   .30 and 23.00 cyc/sec         
                 instrument- and base-line correcte                             
                                                                                
                                                                                
                                                                                
                                                                                
                                                                                
Rcrd of Fri Sep 18, 2020 23:38:29.0 PDT    Fri Sep 18, 2020 23:38:29.0 PDT      
                                                                                
38695658.CI.DEC.--.HN     Sunland, Green Verdugo Fire Access Rd.   SChan  2: 360
 Deg                                                                            
38695658.CI.DEC.--.HN     Sunland, Green Verdugo Fire Access Rd.   SChan  2: 360
 Deg                                                                            
Units for spectra are inches and sec, except Sa is in fraction of g.            
                                                                                
    2  100    2    3    3  100 -999    3    1    0  605 4331    050603   41    0
    6   38   29    8  263    9   19 2020   10    3  36035694   39   38   74 -999
35694 -999  100    6 -999 -999 -999 -999 -999 -999 -999 -999 -999 -999 -999 -999
 -999 -999 -999 -99915050    2 -999    0 -999   20 -999 -999    3    1 -99915050
    315050    4   78    1    3    5    0    0 -999    0 -999 -999    6 -999    2
    2    2    4 -999 -999 -999 -999 -999 -999 -999 -999    1 -999 -999 -999  111
    1    1 -999 -999
      .005      .707   356.940      .000     1.000  4984.889      .015    28.930
   200.000     2.384      .478  -999.000    10.000  -999.000     4.000  -999.000
    20.000   -28.094      .000  -999.000  -999.000  -999.000  -999.000     -.001
      .000      .001     2.000    15.000    34.254  -118.334      .009      .011
     1.168     -.001      .002   519.000  -999.000  -999.000  -999.000  -999.000
     1.000  -999.000  -999.000  -999.000  -999.000  -999.000  -999.000   120.000
     -.900     2.000     6.800   980.665      .020   301.000    31.831      .000
  -999.000    23.000  -999.000   301.000      .020      .300  -999.000  -999.000
    28.940    14.259    28.980      .658    28.920     -.058      .000      .300
    23.000      .020      .020      .000      .020      .017  -999.000  -999.000
      .039      .220      .033      .031      .004      .000  -999.000  -999.000
  -999.000  -999.000  -999.000  -999.000  -999.000  -999.000  -999.000  -999.000
  -999.000  -999.000  -999.000  -999.000
      .050
      .040      .042      .044      .046      .048      .050      .055      .060
      .065      .070      .075      .080      .085      .090      .095      .100
      .110      .120      .130      .140      .150      .160      .170      .180
      .190      .200      .220      .240      .260      .280      .300      .320
      .340      .360      .380      .400      .420      .440      .460      .480
      .500      .550      .600      .650      .700      .750      .800      .850
      .900      .950     1.000     1.100     1.200     1.300     1.400     1.500
     1.600     1.700     1.800     1.900     2.000     2.200     2.400     2.600
     2.800     3.000     3.200     3.400     3.600     3.800     4.000     4.200
     4.400     4.600     4.800     5.000     5.500     6.000      .000      .000
      .000      .000      .000      .000      .000      .000      .000      .000
      .000      .000      .000      .000      .000      .000      .000      .000
      .000      .000      .000      .000
Fourier amplitude spectra in in/sec.
  .000E+00  .000E+00  .000E+00  .000E+00  .000E+00  .000E+00  .000E+00  .000E+00
  .000E+00  .000E+00  .000E+00  .000E+00  .000E+00  .000E+00  .000E+00  .000E+00
  .000E+00  .000E+00  .000E+00  .000E+00  .000E+00  .000E+00  .000E+00  .000E+00
  .000E+00  .000E+00  .000E+00  .000E+00  .000E+00  .000E+00  .000E+00  .000E+00
  .000E+00  .000E+00  .000E+00  .000E+00  .000E+00  .000E+00  .000E+00  .000E+00
  .000E+00  .000E+00  .000E+00  .000E+00  .000E+00  .000E+00  .000E+00  .000E+00
  .000E+00  .000E+00  .000E+00  .000E+00  .000E+00  .000E+00  .000E+00  .000E+00
  .000E+00  .000E+00  .000E+00  .000E+00  .000E+00  .000E+00  .000E+00  .000E+00
  .000E+00  .000E+00  .000E+00  .000E+00  .000E+00  .000E+00  .000E+00  .000E+00
  .000E+00  .000E+00  .000E+00  .000E+00  .000E+00  .000E+00  .000E+00  .000E+00
  .000E+00  .000E+00  .000E+00  .000E+00  .000E+00  .000E+00  .000E+00  .000E+00
  .000E+00  .000E+00  .000E+00  .000E+00  .000E+00  .000E+00  .000E+00  .000E+00
  .000E+00  .000E+00  .000E+00  .000E+00
Damping =  .05. Data of Sd,Sv,Sa,Pssv,ttSd,ttSv,ttSa :
  .241E-03  .269E-03  .300E-03  .331E-03  .354E-03  .375E-03  .492E-03  .733E-03
  .113E-02  .144E-02  .159E-02  .157E-02  .172E-02  .205E-02  .248E-02  .283E-02
  .351E-02  .391E-02  .436E-02  .463E-02  .454E-02  .541E-02  .659E-02  .762E-02
  .992E-02  .130E-01  .183E-01  .172E-01  .218E-01  .246E-01  .256E-01  .301E-01
  .329E-01  .283E-01  .266E-01  .289E-01  .350E-01  .423E-01  .474E-01  .496E-01
