Response and Fourier amplitude spectra (78 periods,  .04 -  6.0 sec)   for      
Corrected accelerogram   38695658.CI.DEV.--.HN      Chan  1:  90 Deg     from   
Uncorrected Accelerogram Data             Processed: 09/19/20, CGS  cidev--x    
Rcrd of Fri Sep 18, 2020 23:38:46.0 PDT               (Avol1 v2.0, 4/18 CSMIP)  
                                        (Origin:  To be determined)             
38695658.CI.DEV.--.HN                Start time:  9/19/20, 06:38:46.0 UTC (GPS) 
Station Id. DEV     33.936N, 116.578W    Q330    s/n 4171  (3 Chns of  3 at Sta)
N. Palm Springs, Power Line & Diablo Rds SCSN   Data: Acceleration              
Chan  1:  90 Deg                                                                
Rcrd of Fri Sep 18, 2020 23:38:46.0 PDT    Fri Sep 18, 2020 23:38:46.0 PDT      
Hypocenter:  To be determined.               ML:  To be determined.             
Instr Period =  .0050 sec,  Damping =  .707,  Sensitivity = 4.99 v/g  (Nominal) 
                        Record Length =301.000 sec.                             
                                     Uncor Max  =  -.001 g, at   42.030 sec.    
RMS accel of (uncor) record  =        .   Chn. metadata effective date:         
Accelerogram bandpass filtered with 3 dB pts at   .30 and 23.00 cyc/sec         
                 instrument- and base-line correcte                             
                                                                                
                                                                                
                                                                                
                                                                                
                                                                                
Rcrd of Fri Sep 18, 2020 23:38:46.0 PDT    Fri Sep 18, 2020 23:38:46.0 PDT      
                                                                                
38695658.CI.DEV.--.HN     N. Palm Springs, Power Line & Diablo Rds SCSChan  1:  
90 Deg                                                                          
38695658.CI.DEV.--.HN     N. Palm Springs, Power Line & Diablo Rds SCSChan  1:  
90 Deg                                                                          
Units for spectra are inches and sec, except Sa is in fraction of g.            
                                                                                
    1  100    1    3    3  100 -999    3    1    0  605 4171    050539   41    0
    6   38   46    8  263    9   19 2020   10    3   9035819   39   40   74 -999
35819 -999  100    6 -999 -999 -999 -999 -999 -999 -999 -999 -999 -999 -999 -999
 -999 -999 -999 -99915050    2 -999    0 -999   20 -999 -999    3    1 -99915050
    315050    4   78    1    3    5    0    0 -999    0 -999 -999    6 -999    2
    2    2    4 -999 -999 -999 -999 -999 -999 -999 -999    1 -999 -999 -999  111
    1    1 -999 -999
      .005      .707   358.190      .000     1.000  4989.676     -.001    42.030
   200.000     2.384      .478  -999.000    10.000  -999.000     4.000  -999.000
    20.000    -2.809      .000  -999.000  -999.000  -999.000  -999.000      .001
     -.001     -.001     2.000    15.000    33.936  -116.578      .008      .007
      .874     -.003      .000   337.000  -999.000  -999.000  -999.000  -999.000
     1.000  -999.000    -8.000  -999.000  -999.000  -999.000  -999.000   120.000
     -.900     2.000     6.800   980.665      .020   301.000    31.831      .000
  -999.000    23.000  -999.000   301.000      .020      .300  -999.000  -999.000
    42.020     -.965    40.860     -.054    40.500      .007      .000      .300
    23.000      .020      .020      .000      .020      .003  -999.000  -999.000
      .003      .095      .002      .002      .001      .000  -999.000  -999.000
  -999.000  -999.000  -999.000  -999.000  -999.000  -999.000  -999.000  -999.000
  -999.000  -999.000  -999.000  -999.000
      .050
      .040      .042      .044      .046      .048      .050      .055      .060
      .065      .070      .075      .080      .085      .090      .095      .100
      .110      .120      .130      .140      .150      .160      .170      .180
      .190      .200      .220      .240      .260      .280      .300      .320
      .340      .360      .380      .400      .420      .440      .460      .480
      .500      .550      .600      .650      .700      .750      .800      .850
      .900      .950     1.000     1.100     1.200     1.300     1.400     1.500
     1.600     1.700     1.800     1.900     2.000     2.200     2.400     2.600
     2.800     3.000     3.200     3.400     3.600     3.800     4.000     4.200
     4.400     4.600     4.800     5.000     5.500     6.000      .000      .000
      .000      .000      .000      .000      .000      .000      .000      .000
      .000      .000      .000      .000      .000      .000      .000      .000
      .000      .000      .000      .000
Fourier amplitude spectra in in/sec.
  .000E+00  .000E+00  .000E+00  .000E+00  .000E+00  .000E+00  .000E+00  .000E+00
  .000E+00  .000E+00  .000E+00  .000E+00  .000E+00  .000E+00  .000E+00  .000E+00
  .000E+00  .000E+00  .000E+00  .000E+00  .000E+00  .000E+00  .000E+00  .000E+00
  .000E+00  .000E+00  .000E+00  .000E+00  .000E+00  .000E+00  .000E+00  .000E+00
  .000E+00  .000E+00  .000E+00  .000E+00  .000E+00  .000E+00  .000E+00  .000E+00
  .000E+00  .000E+00  .000E+00  .000E+00  .000E+00  .000E+00  .000E+00  .000E+00
  .000E+00  .000E+00  .000E+00  .000E+00  .000E+00  .000E+00  .000E+00  .000E+00
  .000E+00  .000E+00  .000E+00  .000E+00  .000E+00  .000E+00  .000E+00  .000E+00
  .000E+00  .000E+00  .000E+00  .000E+00  .000E+00  .000E+00  .000E+00  .000E+00
  .000E+00  .000E+00  .000E+00  .000E+00  .000E+00  .000E+00  .000E+00  .000E+00
  .000E+00  .000E+00  .000E+00  .000E+00  .000E+00  .000E+00  .000E+00  .000E+00
  .000E+00  .000E+00  .000E+00  .000E+00  .000E+00  .000E+00  .000E+00  .000E+00
  .000E+00  .000E+00  .000E+00  .000E+00
Damping =  .05. Data of Sd,Sv,Sa,Pssv,ttSd,ttSv,ttSa :
  .165E-04  .184E-04  .205E-04  .227E-04  .250E-04  .274E-04  .335E-04  .510E-04
  .657E-04  .982E-04  .144E-03  .171E-03  .234E-03  .267E-03  .300E-03  .306E-03
  .366E-03  .335E-03  .433E-03  .506E-03  .520E-03  .621E-03  .666E-03  .757E-03
  .681E-03  .770E-03  .105E-02  .118E-02  .131E-02  .201E-02  .220E-02  .215E-02
  .207E-02  .185E-02  .166E-02  .174E-02  .163E-02  .139E-02  .140E-02  .152E-02
  .173E-02  .224E-02  .225E-02  .318E-02  .374E-02  .485E-02  .583E-02  .646E-02
  .692E-02  .767E-02  .813E-02  .854E-02  .816E-02  .772E-02  .724E-02  .663E-02
  .674E-02  .651E-02  .633E-02  .606E-02  .566E-02  .506E-02  .474E-02  .446E-02
  .402E-02  .374E-02  .357E-02  .352E-02  .347E-02  .339E-02  .333E-02  .330E-02
  .329E-02  .327E-02  .325E-02  .321E-02  .315E-02  .308E-02  .000E+00  .000E+00
  .000E+00  .000E+00  .000E+00  .000E+00  .000E+00  .000E+00  .000E+00  .000E+00
  .000E+00  .000E+00  .000E+00  .000E+00  .000E+00  .000E+00  .000E+00  .000E+00
  .000E+00  .000E+00  .000E+00  .000E+00
  .104E-02  .115E-02  .129E-02  .152E-02  .183E-02  .204E-02  .239E-02  .391E-02
  .505E-02  .735E-02  .929E-02  .105E-01  .138E-01  .153E-01  .170E-01  .174E-01
  .197E-01  .158E-01  .183E-01  .217E-01  .215E-01  .241E-01  .247E-01  .260E-01
  .229E-01  .225E-01  .296E-01  .298E-01  .323E-01  .440E-01  .502E-01  .433E-01
  .412E-01  .332E-01  .320E-01  .301E-01  .316E-01  .275E-01  .219E-01  .199E-01
  .222E-01  .262E-01  .240E-01  .308E-01  .345E-01  .406E-01  .438E-01  .536E-01
  .583E-01  .555E-01  .538E-01  .511E-01  .482E-01  .455E-01  .398E-01  .377E-01
  .369E-01  .343E-01  .320E-01  .293E-01  .285E-01  .271E-01  .266E-01  .261E-01
  .258E-01  .249E-01  .242E-01  .238E-01  .234E-01  .231E-01  .228E-01  .227E-01
  .225E-01  .223E-01  .222E-01  .221E-01  .218E-01  .217E-01  .000E+00  .000E+00
  .000E+00  .000E+00  .000E+00  .000E+00  .000E+00  .000E+00  .000E+00  .000E+00
  .000E+00  .000E+00  .000E+00  .000E+00  .000E+00  .000E+00  .000E+00  .000E+00
  .000E+00  .000E+00  .000E+00  .000E+00
  .105E-02  .106E-02  .108E-02  .109E-02  .111E-02  .112E-02  .114E-02  .145E-02
  .158E-02  .204E-02  .261E-02  .278E-02  .335E-02  .339E-02  .339E-02  .316E-02
  .306E-02  .237E-02  .266E-02  .262E-02  .237E-02  .251E-02  .236E-02  .238E-02
  .192E-02  .196E-02  .227E-02  .210E-02  .203E-02  .261E-02  .254E-02  .214E-02
  .183E-02  .150E-02  .119E-02  .112E-02  .956E-03  .744E-03  .681E-03  .679E-03
  .709E-03  .765E-03  .642E-03  .772E-03  .784E-03  .886E-03  .939E-03  .918E-03
  .877E-03  .872E-03  .835E-03  .726E-03  .583E-03  .470E-03  .381E-03  .304E-03
  .272E-03  .233E-03  .203E-03  .175E-03  .148E-03  .110E-03  .871E-04  .703E-04
  .553E-04  .451E-04  .383E-04  .337E-04  .298E-04  .265E-04  .237E-04  .216E-04
  .198E-04  .182E-04  .168E-04  .155E-04  .129E-04  .109E-04  .000E+00  .000E+00
  .000E+00  .000E+00  .000E+00  .000E+00  .000E+00  .000E+00  .000E+00  .000E+00
  .000E+00  .000E+00  .000E+00  .000E+00  .000E+00  .000E+00  .000E+00  .000E+00
  .000E+00  .000E+00  .000E+00  .000E+00
  .259E-02  .275E-02  .292E-02  .310E-02  .328E-02  .344E-02  .383E-02  .534E-02
  .635E-02  .882E-02  .121E-01  .134E-01  .173E-01  .186E-01  .199E-01  .192E-01
  .209E-01  .175E-01  .209E-01  .227E-01  .218E-01  .244E-01  .246E-01  .264E-01
  .225E-01  .242E-01  .299E-01  .310E-01  .317E-01  .451E-01  .460E-01  .422E-01
  .382E-01  .324E-01  .275E-01  .273E-01  .243E-01  .199E-01  .191E-01  .199E-01
  .218E-01  .256E-01  .235E-01  .308E-01  .336E-01  .407E-01  .458E-01  .478E-01
  .483E-01  .508E-01  .511E-01  .488E-01  .427E-01  .373E-01  .325E-01  .278E-01
  .264E-01  .241E-01  .221E-01  .200E-01  .178E-01  .145E-01  .124E-01  .108E-01
  .903E-02  .782E-02  .702E-02  .651E-02  .605E-02  .560E-02  .523E-02  .494E-02
  .469E-02  .447E-02  .425E-02  .404E-02  .360E-02  .322E-02  .000E+00  .000E+00
  .000E+00  .000E+00  .000E+00  .000E+00  .000E+00  .000E+00  .000E+00  .000E+00
  .000E+00  .000E+00  .000E+00  .000E+00  .000E+00  .000E+00  .000E+00  .000E+00
  .000E+00  .000E+00  .000E+00  .000E+00
  .420E+02  .420E+02  .420E+02  .420E+02  .420E+02  .420E+02  .420E+02  .438E+02
  .438E+02  .420E+02  .420E+02  .420E+02  .420E+02  .420E+02  .420E+02  .420E+02
  .421E+02  .421E+02  .440E+02  .421E+02  .470E+02  .470E+02  .445E+02  .432E+02
  .450E+02  .453E+02  .454E+02  .461E+02  .454E+02  .441E+02  .422E+02  .422E+02
  .467E+02  .468E+02  .423E+02  .423E+02  .421E+02  .420E+02  .540E+02  .541E+02
  .529E+02  .529E+02  .410E+02  .411E+02  .411E+02  .415E+02  .416E+02  .416E+02
  .417E+02  .417E+02  .418E+02  .418E+02  .414E+02  .414E+02  .415E+02  .409E+02
  .410E+02  .410E+02  .410E+02  .410E+02  .410E+02  .410E+02  .410E+02  .410E+02
  .410E+02  .405E+02  .405E+02  .405E+02  .405E+02  .405E+02  .405E+02  .405E+02
  .405E+02  .405E+02  .405E+02  .405E+02  .405E+02  .405E+02  .000E+00  .000E+00
  .000E+00  .000E+00  .000E+00  .000E+00  .000E+00  .000E+00  .000E+00  .000E+00
  .000E+00  .000E+00  .000E+00  .000E+00  .000E+00  .000E+00  .000E+00  .000E+00
  .000E+00  .000E+00  .000E+00  .000E+00
  .438E+02  .438E+02  .438E+02  .438E+02  .438E+02  .438E+02  .438E+02  .438E+02
  .438E+02  .420E+02  .420E+02  .420E+02  .420E+02  .421E+02  .421E+02  .421E+02
  .421E+02  .421E+02  .438E+02  .421E+02  .470E+02  .470E+02  .446E+02  .428E+02
  .428E+02  .452E+02  .454E+02  .454E+02  .454E+02  .453E+02  .437E+02  .422E+02
  .468E+02  .467E+02  .435E+02  .422E+02  .420E+02  .421E+02  .421E+02  .539E+02
  .530E+02  .530E+02  .412E+02  .412E+02  .420E+02  .421E+02  .414E+02  .419E+02
  .419E+02  .415E+02  .415E+02  .426E+02  .417E+02  .417E+02  .418E+02  .413E+02
  .413E+02  .413E+02  .413E+02  .413E+02  .408E+02  .408E+02  .408E+02  .408E+02
  .408E+02  .408E+02  .408E+02  .408E+02  .408E+02  .408E+02  .408E+02  .408E+02
  .408E+02  .408E+02  .408E+02  .408E+02  .408E+02  .408E+02  .000E+00  .000E+00
  .000E+00  .000E+00  .000E+00  .000E+00  .000E+00  .000E+00  .000E+00  .000E+00
  .000E+00  .000E+00  .000E+00  .000E+00  .000E+00  .000E+00  .000E+00  .000E+00
  .000E+00  .000E+00  .000E+00  .000E+00
  .420E+02  .420E+02  .420E+02  .420E+02  .420E+02  .420E+02  .420E+02  .438E+02
  .438E+02  .420E+02  .420E+02  .420E+02  .420E+02  .420E+02  .420E+02  .420E+02
  .421E+02  .421E+02  .440E+02  .421E+02  .470E+02  .470E+02  .445E+02  .432E+02
  .450E+02  .453E+02  .460E+02  .461E+02  .454E+02  .441E+02  .422E+02  .422E+02
  .467E+02  .468E+02  .423E+02  .423E+02  .421E+02  .420E+02  .540E+02  .540E+02
  .529E+02  .529E+02  .410E+02  .411E+02  .411E+02  .415E+02  .415E+02  .416E+02
  .417E+02  .417E+02  .418E+02  .418E+02  .414E+02  .414E+02  .414E+02  .409E+02
  .409E+02  .409E+02  .410E+02  .410E+02  .410E+02  .410E+02  .410E+02  .410E+02
  .410E+02  .404E+02  .404E+02  .404E+02  .404E+02  .404E+02  .404E+02  .404E+02
  .404E+02  .404E+02  .404E+02  .404E+02  .404E+02  .404E+02  .000E+00  .000E+00
  .000E+00  .000E+00  .000E+00  .000E+00  .000E+00  .000E+00  .000E+00  .000E+00
  .000E+00  .000E+00  .000E+00  .000E+00  .000E+00  .000E+00  .000E+00  .000E+00
  .000E+00  .000E+00  .000E+00  .000E+00
/&   ----------  End of spectral data for channel  1  ----------
Response and Fourier amplitude spectra (78 periods,  .04 -  6.0 sec)   for      
Corrected accelerogram   38695658.CI.DEV.--.HN      Chan  2: 360 Deg     from   
Uncorrected Accelerogram Data             Processed: 09/19/20, CGS  cidev--x    
Rcrd of Fri Sep 18, 2020 23:38:46.0 PDT               (Avol1 v2.0, 4/18 CSMIP)  
                                        (Origin:  To be determined)             
38695658.CI.DEV.--.HN                Start time:  9/19/20, 06:38:46.0 UTC (GPS) 
Station Id. DEV     33.936N, 116.578W    Q330    s/n 4171  (3 Chns of  3 at Sta)
N. Palm Springs, Power Line & Diablo Rds SCSN   Data: Acceleration              
Chan  2: 360 Deg                                                                
Rcrd of Fri Sep 18, 2020 23:38:46.0 PDT    Fri Sep 18, 2020 23:38:46.0 PDT      
Hypocenter:  To be determined.               ML:  To be determined.             
Instr Period =  .0050 sec,  Damping =  .707,  Sensitivity = 4.98 v/g  (Nominal) 
                        Record Length =301.000 sec.                             
                                     Uncor Max  =   .001 g, at   42.650 sec.    
RMS accel of (uncor) record  =        .   Chn. metadata effective date:         
Accelerogram bandpass filtered with 3 dB pts at   .30 and 23.00 cyc/sec         
                 instrument- and base-line correcte                             
                                                                                
                                                                                
                                                                                
                                                                                
                                                                                
Rcrd of Fri Sep 18, 2020 23:38:46.0 PDT    Fri Sep 18, 2020 23:38:46.0 PDT      
                                                                                
38695658.CI.DEV.--.HN     N. Palm Springs, Power Line & Diablo Rds SCSChan  2: 3
60 Deg                                                                          
38695658.CI.DEV.--.HN     N. Palm Springs, Power Line & Diablo Rds SCSChan  2: 3
60 Deg                                                                          
Units for spectra are inches and sec, except Sa is in fraction of g.            
                                                                                
    2  100    2    3    3  100 -999    3    1    0  605 4171    050539   41    0
    6   38   46    8  263    9   19 2020   10    3  36035707   39   40   74 -999
35707 -999  100    6 -999 -999 -999 -999 -999 -999 -999 -999 -999 -999 -999 -999
 -999 -999 -999 -99915050    2 -999    0 -999   20 -999 -999    3    1 -99915050
    315050    4   78    1    3    5    0    0 -999    0 -999 -999    6 -999    2
    2    2    4 -999 -999 -999 -999 -999 -999 -999 -999    1 -999 -999 -999  111
    1    1 -999 -999
      .005      .707   357.070      .000     1.000  4984.889      .001    42.650
   200.000     2.384      .478  -999.000    10.000  -999.000     4.000  -999.000
    20.000    -9.009      .000  -999.000  -999.000  -999.000  -999.000     -.002
      .001      .003     2.000    15.000    33.936  -116.578      .005      .005
      .997      .002      .004   337.000  -999.000  -999.000  -999.000  -999.000
     1.000  -999.000  -999.000  -999.000  -999.000  -999.000  -999.000   120.000
     -.900     2.000     6.800   980.665      .020   301.000    31.831      .000
  -999.000    23.000  -999.000   301.000      .020      .300  -999.000  -999.000
    42.640      .970    42.600     -.034    40.520      .004      .000      .300
    23.000      .020      .020      .000      .020      .003  -999.000  -999.000
      .003      .170      .003      .002      .000      .000  -999.000  -999.000
  -999.000  -999.000  -999.000  -999.000  -999.000  -999.000  -999.000  -999.000
  -999.000  -999.000  -999.000  -999.000
      .050
      .040      .042      .044      .046      .048      .050      .055      .060
      .065      .070      .075      .080      .085      .090      .095      .100
      .110      .120      .130      .140      .150      .160      .170      .180
      .190      .200      .220      .240      .260      .280      .300      .320
      .340      .360      .380      .400      .420      .440      .460      .480
      .500      .550      .600      .650      .700      .750      .800      .850
      .900      .950     1.000     1.100     1.200     1.300     1.400     1.500
     1.600     1.700     1.800     1.900     2.000     2.200     2.400     2.600
     2.800     3.000     3.200     3.400     3.600     3.800     4.000     4.200
     4.400     4.600     4.800     5.000     5.500     6.000      .000      .000
      .000      .000      .000      .000      .000      .000      .000      .000
      .000      .000      .000      .000      .000      .000      .000      .000
      .000      .000      .000      .000
Fourier amplitude spectra in in/sec.
  .000E+00  .000E+00  .000E+00  .000E+00  .000E+00  .000E+00  .000E+00  .000E+00
  .000E+00  .000E+00  .000E+00  .000E+00  .000E+00  .000E+00  .000E+00  .000E+00
  .000E+00  .000E+00  .000E+00  .000E+00  .000E+00  .000E+00  .000E+00  .000E+00
  .000E+00  .000E+00  .000E+00  .000E+00  .000E+00  .000E+00  .000E+00  .000E+00
  .000E+00  .000E+00  .000E+00  .000E+00  .000E+00  .000E+00  .000E+00  .000E+00
  .000E+00  .000E+00  .000E+00  .000E+00  .000E+00  .000E+00  .000E+00  .000E+00
  .000E+00  .000E+00  .000E+00  .000E+00  .000E+00  .000E+00  .000E+00  .000E+00
  .000E+00  .000E+00  .000E+00  .000E+00  .000E+00  .000E+00  .000E+00  .000E+00
  .000E+00  .000E+00  .000E+00  .000E+00  .000E+00  .000E+00  .000E+00  .000E+00
  .000E+00  .000E+00  .000E+00  .000E+00  .000E+00  .000E+00  .000E+00  .000E+00
  .000E+00  .000E+00  .000E+00  .000E+00  .000E+00  .000E+00  .000E+00  .000E+00
  .000E+00  .000E+00  .000E+00  .000E+00  .000E+00  .000E+00  .000E+00  .000E+00
  .000E+00  .000E+00  .000E+00  .000E+00
Damping =  .05. Data of Sd,Sv,Sa,Pssv,ttSd,ttSv,ttSa :
  .169E-04  .188E-04  .208E-04  .228E-04  .251E-04  .277E-04  .369E-04  .459E-04
  .504E-04  .637E-04  .823E-04  .917E-04  .135E-03  .157E-03  .147E-03  .183E-03
  .225E-03  .343E-03  .428E-03  .564E-03  .577E-03  .672E-03  .895E-03  .880E-03
  .103E-02  .101E-02  .117E-02  .142E-02  .156E-02  .203E-02  .192E-02  .217E-02
  .182E-02  .204E-02  .239E-02  .244E-02  .230E-02  .174E-02  .170E-02  .169E-02
