Response and Fourier amplitude spectra (78 periods,  .04 -  6.0 sec)   for      
Corrected accelerogram   38695658.CI.DGR.--.HN      Chan  1:  90 Deg     from   
Uncorrected Accelerogram Data             Processed: 09/19/20, CGS  cidgr--p    
Rcrd of Fri Sep 18, 2020 23:38:38.0 PDT               (Avol1 v2.0, 4/18 CSMIP)  
                                        (Origin:  To be determined)             
38695658.CI.DGR.--.HN                Start time:  9/19/20, 06:38:38.0 UTC (GPS) 
Station Id. DGR     33.650N, 117.009W    ObsMMS  s/n 4880  (3 Chns of  6 at Sta)
Winchester, Rawson Rd & Crown Valley Rd  SCSN   Data: Acceleration              
Chan  1:  90 Deg                                                                
Rcrd of Fri Sep 18, 2020 23:38:38.0 PDT    Fri Sep 18, 2020 23:38:38.0 PDT      
Hypocenter:  To be determined.               ML:  To be determined.             
Instr Period =  .0050 sec,  Damping =  .707,  Sensitivity = 4.97 v/g  (Nominal) 
                        Record Length =301.000 sec.                             
                                     Uncor Max  =   .005 g, at   40.290 sec.    
RMS accel of (uncor) record  =        .   Chn. metadata effective date:         
Accelerogram bandpass filtered with 3 dB pts at   .30 and 23.00 cyc/sec         
                 instrument- and base-line correcte                             
                                                                                
                                                                                
                                                                                
                                                                                
                                                                                
Rcrd of Fri Sep 18, 2020 23:38:38.0 PDT    Fri Sep 18, 2020 23:38:38.0 PDT      
                                                                                
38695658.CI.DGR.--.HN     Winchester, Rawson Rd & Crown Valley Rd  SChan  1:  90
 Deg                                                                            
38695658.CI.DGR.--.HN     Winchester, Rawson Rd & Crown Valley Rd  SChan  1:  90
 Deg                                                                            
Units for spectra are inches and sec, except Sa is in fraction of g.            
                                                                                
    1  100    1    6    6  100 -999    3    1    0   15 4880    050540   41    0
    6   38   38    8  263    9   19 2020   10    3   9036366   39   39   74 -999
36366 -999  100    6 -999 -999 -999 -999 -999 -999 -999 -999 -999 -999 -999 -999
 -999 -999 -999 -99915050    2 -999    0 -999   20 -999 -999    3    1 -99915050
    315050    4   78    1    3    5    0    0 -999    0 -999 -999    6 -999    2
    2    2    4 -999 -999 -999 -999 -999 -999 -999 -999    1 -999 -999 -999  111
    1    1 -999 -999
      .005      .707   363.660      .000     1.000  4972.700      .005    40.290
   200.000     2.384      .479  -999.000    10.000  -999.000     4.000  -999.000
    20.000   -15.934      .000  -999.000  -999.000  -999.000  -999.000      .001
      .000     -.002     2.000    15.000    33.650  -117.009      .001      .001
     1.174     -.002     -.001   650.000  -999.000  -999.000  -999.000  -999.000
     1.000  -999.000    -8.000  -999.000  -999.000  -999.000  -999.000   120.000
     -.900     2.000     6.800   980.665      .020   301.000    31.831      .000
  -999.000    23.000  -999.000   301.000      .020      .300  -999.000  -999.000
    40.740     4.183    40.760      .079    39.640      .005      .000      .300
    23.000      .020      .020      .000      .020      .003  -999.000  -999.000
      .018      .065      .005      .003      .000      .000  -999.000  -999.000
  -999.000  -999.000  -999.000  -999.000  -999.000  -999.000  -999.000  -999.000
  -999.000  -999.000  -999.000  -999.000
      .050
      .040      .042      .044      .046      .048      .050      .055      .060
      .065      .070      .075      .080      .085      .090      .095      .100
      .110      .120      .130      .140      .150      .160      .170      .180
      .190      .200      .220      .240      .260      .280      .300      .320
      .340      .360      .380      .400      .420      .440      .460      .480
      .500      .550      .600      .650      .700      .750      .800      .850
      .900      .950     1.000     1.100     1.200     1.300     1.400     1.500
     1.600     1.700     1.800     1.900     2.000     2.200     2.400     2.600
     2.800     3.000     3.200     3.400     3.600     3.800     4.000     4.200
     4.400     4.600     4.800     5.000     5.500     6.000      .000      .000
      .000      .000      .000      .000      .000      .000      .000      .000
      .000      .000      .000      .000      .000      .000      .000      .000
      .000      .000      .000      .000
Fourier amplitude spectra in in/sec.
  .000E+00  .000E+00  .000E+00  .000E+00  .000E+00  .000E+00  .000E+00  .000E+00
  .000E+00  .000E+00  .000E+00  .000E+00  .000E+00  .000E+00  .000E+00  .000E+00
  .000E+00  .000E+00  .000E+00  .000E+00  .000E+00  .000E+00  .000E+00  .000E+00
  .000E+00  .000E+00  .000E+00  .000E+00  .000E+00  .000E+00  .000E+00  .000E+00
  .000E+00  .000E+00  .000E+00  .000E+00  .000E+00  .000E+00  .000E+00  .000E+00
  .000E+00  .000E+00  .000E+00  .000E+00  .000E+00  .000E+00  .000E+00  .000E+00
  .000E+00  .000E+00  .000E+00  .000E+00  .000E+00  .000E+00  .000E+00  .000E+00
  .000E+00  .000E+00  .000E+00  .000E+00  .000E+00  .000E+00  .000E+00  .000E+00
  .000E+00  .000E+00  .000E+00  .000E+00  .000E+00  .000E+00  .000E+00  .000E+00
  .000E+00  .000E+00  .000E+00  .000E+00  .000E+00  .000E+00  .000E+00  .000E+00
  .000E+00  .000E+00  .000E+00  .000E+00  .000E+00  .000E+00  .000E+00  .000E+00
  .000E+00  .000E+00  .000E+00  .000E+00  .000E+00  .000E+00  .000E+00  .000E+00
  .000E+00  .000E+00  .000E+00  .000E+00
Damping =  .05. Data of Sd,Sv,Sa,Pssv,ttSd,ttSv,ttSa :
  .879E-04  .995E-04  .113E-03  .122E-03  .147E-03  .176E-03  .327E-03  .489E-03
  .723E-03  .661E-03  .704E-03  .782E-03  .663E-03  .828E-03  .112E-02  .143E-02
  .167E-02  .202E-02  .199E-02  .221E-02  .227E-02  .158E-02  .144E-02  .154E-02
  .176E-02  .193E-02  .268E-02  .313E-02  .363E-02  .338E-02  .283E-02  .245E-02
  .293E-02  .268E-02  .193E-02  .204E-02  .223E-02  .211E-02  .194E-02  .218E-02
  .257E-02  .274E-02  .219E-02  .227E-02  .204E-02  .185E-02  .163E-02  .154E-02
  .154E-02  .161E-02  .175E-02  .191E-02  .230E-02  .249E-02  .282E-02  .297E-02
  .303E-02  .289E-02  .278E-02  .280E-02  .308E-02  .318E-02  .310E-02  .296E-02
  .276E-02  .247E-02  .223E-02  .217E-02  .215E-02  .217E-02  .217E-02  .217E-02
  .215E-02  .213E-02  .215E-02  .215E-02  .214E-02  .208E-02  .000E+00  .000E+00
  .000E+00  .000E+00  .000E+00  .000E+00  .000E+00  .000E+00  .000E+00  .000E+00
  .000E+00  .000E+00  .000E+00  .000E+00  .000E+00  .000E+00  .000E+00  .000E+00
  .000E+00  .000E+00  .000E+00  .000E+00
  .826E-02  .838E-02  .964E-02  .116E-01  .134E-01  .160E-01  .330E-01  .469E-01
  .664E-01  .566E-01  .559E-01  .620E-01  .503E-01  .526E-01  .640E-01  .866E-01
  .967E-01  .106E+00  .969E-01  .106E+00  .988E-01  .747E-01  .631E-01  .628E-01
  .632E-01  .701E-01  .788E-01  .913E-01  .102E+00  .859E-01  .776E-01  .692E-01
  .637E-01  .499E-01  .488E-01  .480E-01  .485E-01  .426E-01  .426E-01  .454E-01
  .455E-01  .499E-01  .412E-01  .415E-01  .375E-01  .360E-01  .348E-01  .345E-01
  .343E-01  .355E-01  .369E-01  .371E-01  .358E-01  .335E-01  .322E-01  .314E-01
  .308E-01  .301E-01  .309E-01  .315E-01  .323E-01  .323E-01  .324E-01  .314E-01
  .302E-01  .302E-01  .301E-01  .300E-01  .300E-01  .300E-01  .299E-01  .298E-01
  .298E-01  .297E-01  .297E-01  .296E-01  .295E-01  .294E-01  .000E+00  .000E+00
  .000E+00  .000E+00  .000E+00  .000E+00  .000E+00  .000E+00  .000E+00  .000E+00
  .000E+00  .000E+00  .000E+00  .000E+00  .000E+00  .000E+00  .000E+00  .000E+00
  .000E+00  .000E+00  .000E+00  .000E+00
  .558E-02  .579E-02  .593E-02  .585E-02  .650E-02  .720E-02  .110E-01  .140E-01
  .177E-01  .137E-01  .128E-01  .127E-01  .953E-02  .106E-01  .127E-01  .147E-01
  .142E-01  .145E-01  .122E-01  .115E-01  .104E-01  .634E-02  .513E-02  .496E-02
  .496E-02  .495E-02  .580E-02  .552E-02  .554E-02  .446E-02  .320E-02  .251E-02
  .259E-02  .217E-02  .144E-02  .134E-02  .130E-02  .112E-02  .959E-03  .961E-03
  .105E-02  .932E-03  .643E-03  .564E-03  .433E-03  .341E-03  .263E-03  .229E-03
  .206E-03  .195E-03  .193E-03  .172E-03  .170E-03  .162E-03  .158E-03  .144E-03
  .129E-03  .109E-03  .937E-04  .855E-04  .832E-04  .722E-04  .655E-04  .561E-04
  .471E-04  .388E-04  .327E-04  .288E-04  .257E-04  .231E-04  .209E-04  .190E-04
  .175E-04  .163E-04  .151E-04  .141E-04  .121E-04  .107E-04  .000E+00  .000E+00
  .000E+00  .000E+00  .000E+00  .000E+00  .000E+00  .000E+00  .000E+00  .000E+00
  .000E+00  .000E+00  .000E+00  .000E+00  .000E+00  .000E+00  .000E+00  .000E+00
  .000E+00  .000E+00  .000E+00  .000E+00
  .138E-01  .149E-01  .161E-01  .166E-01  .192E-01  .221E-01  .373E-01  .512E-01
  .698E-01  .593E-01  .590E-01  .614E-01  .490E-01  .578E-01  .742E-01  .897E-01
  .951E-01  .106E+00  .963E-01  .990E-01  .951E-01  .620E-01  .533E-01  .538E-01
  .581E-01  .607E-01  .765E-01  .819E-01  .878E-01  .757E-01  .594E-01  .482E-01
  .542E-01  .469E-01  .319E-01  .320E-01  .334E-01  .302E-01  .265E-01  .285E-01
  .324E-01  .314E-01  .230E-01  .220E-01  .183E-01  .155E-01  .128E-01  .114E-01
  .107E-01  .107E-01  .110E-01  .109E-01  .120E-01  .120E-01  .127E-01  .125E-01
  .119E-01  .107E-01  .970E-02  .925E-02  .966E-02  .907E-02  .811E-02  .715E-02
  .619E-02  .518E-02  .438E-02  .401E-02  .375E-02  .358E-02  .341E-02  .325E-02
  .307E-02  .291E-02  .281E-02  .270E-02  .244E-02  .218E-02  .000E+00  .000E+00
  .000E+00  .000E+00  .000E+00  .000E+00  .000E+00  .000E+00  .000E+00  .000E+00
  .000E+00  .000E+00  .000E+00  .000E+00  .000E+00  .000E+00  .000E+00  .000E+00
  .000E+00  .000E+00  .000E+00  .000E+00
  .403E+02  .403E+02  .403E+02  .415E+02  .407E+02  .407E+02  .405E+02  .407E+02
  .408E+02  .415E+02  .400E+02  .408E+02  .410E+02  .401E+02  .403E+02  .403E+02
  .403E+02  .403E+02  .397E+02  .404E+02  .411E+02  .411E+02  .410E+02  .410E+02
  .410E+02  .409E+02  .409E+02  .402E+02  .403E+02  .403E+02  .404E+02  .418E+02
  .414E+02  .414E+02  .414E+02  .423E+02  .424E+02  .428E+02  .399E+02  .397E+02
  .418E+02  .419E+02  .417E+02  .401E+02  .401E+02  .417E+02  .417E+02  .401E+02
  .401E+02  .397E+02  .397E+02  .410E+02  .417E+02  .414E+02  .414E+02  .415E+02
  .408E+02  .408E+02  .418E+02  .418E+02  .412E+02  .412E+02  .412E+02  .403E+02
  .403E+02  .403E+02  .403E+02  .396E+02  .396E+02  .396E+02  .396E+02  .396E+02
  .396E+02  .396E+02  .396E+02  .396E+02  .396E+02  .396E+02  .000E+00  .000E+00
  .000E+00  .000E+00  .000E+00  .000E+00  .000E+00  .000E+00  .000E+00  .000E+00
  .000E+00  .000E+00  .000E+00  .000E+00  .000E+00  .000E+00  .000E+00  .000E+00
  .000E+00  .000E+00  .000E+00  .000E+00
  .418E+02  .418E+02  .407E+02  .403E+02  .407E+02  .404E+02  .404E+02  .407E+02
  .408E+02  .415E+02  .399E+02  .408E+02  .408E+02  .401E+02  .403E+02  .403E+02
  .403E+02  .403E+02  .398E+02  .404E+02  .410E+02  .410E+02  .410E+02  .410E+02
  .410E+02  .410E+02  .409E+02  .408E+02  .404E+02  .403E+02  .403E+02  .403E+02
  .415E+02  .403E+02  .401E+02  .399E+02  .399E+02  .399E+02  .407E+02  .403E+02
  .403E+02  .417E+02  .402E+02  .402E+02  .402E+02  .401E+02  .401E+02  .401E+02
  .401E+02  .401E+02  .401E+02  .401E+02  .401E+02  .401E+02  .403E+02  .403E+02
  .403E+02  .407E+02  .407E+02  .407E+02  .407E+02  .407E+02  .407E+02  .407E+02
  .407E+02  .402E+02  .402E+02  .402E+02  .402E+02  .402E+02  .402E+02  .402E+02
  .402E+02  .402E+02  .402E+02  .402E+02  .402E+02  .402E+02  .000E+00  .000E+00
  .000E+00  .000E+00  .000E+00  .000E+00  .000E+00  .000E+00  .000E+00  .000E+00
  .000E+00  .000E+00  .000E+00  .000E+00  .000E+00  .000E+00  .000E+00  .000E+00
  .000E+00  .000E+00  .000E+00  .000E+00
  .403E+02  .403E+02  .403E+02  .415E+02  .407E+02  .407E+02  .405E+02  .407E+02
  .408E+02  .415E+02  .408E+02  .408E+02  .410E+02  .401E+02  .403E+02  .403E+02
  .403E+02  .403E+02  .397E+02  .404E+02  .411E+02  .411E+02  .410E+02  .410E+02
  .410E+02  .409E+02  .409E+02  .408E+02  .403E+02  .403E+02  .404E+02  .418E+02
  .414E+02  .414E+02  .414E+02  .423E+02  .424E+02  .428E+02  .399E+02  .397E+02
  .418E+02  .418E+02  .403E+02  .401E+02  .401E+02  .417E+02  .417E+02  .401E+02
  .401E+02  .397E+02  .397E+02  .410E+02  .417E+02  .413E+02  .413E+02  .415E+02
  .408E+02  .408E+02  .418E+02  .418E+02  .412E+02  .412E+02  .402E+02  .402E+02
  .402E+02  .402E+02  .402E+02  .402E+02  .402E+02  .402E+02  .402E+02  .402E+02
  .402E+02  .402E+02  .402E+02  .402E+02  .402E+02  .402E+02  .000E+00  .000E+00
  .000E+00  .000E+00  .000E+00  .000E+00  .000E+00  .000E+00  .000E+00  .000E+00
  .000E+00  .000E+00  .000E+00  .000E+00  .000E+00  .000E+00  .000E+00  .000E+00
  .000E+00  .000E+00  .000E+00  .000E+00
/&   ----------  End of spectral data for channel  1  ----------
Response and Fourier amplitude spectra (78 periods,  .04 -  6.0 sec)   for      
Corrected accelerogram   38695658.CI.DGR.--.HN      Chan  2: 360 Deg     from   
Uncorrected Accelerogram Data             Processed: 09/19/20, CGS  cidgr--p    
Rcrd of Fri Sep 18, 2020 23:38:38.0 PDT               (Avol1 v2.0, 4/18 CSMIP)  
                                        (Origin:  To be determined)             
38695658.CI.DGR.--.HN                Start time:  9/19/20, 06:38:38.0 UTC (GPS) 
Station Id. DGR     33.650N, 117.009W    ObsMMS  s/n 4880  (3 Chns of  6 at Sta)
Winchester, Rawson Rd & Crown Valley Rd  SCSN   Data: Acceleration              
Chan  2: 360 Deg                                                                
Rcrd of Fri Sep 18, 2020 23:38:38.0 PDT    Fri Sep 18, 2020 23:38:38.0 PDT      
Hypocenter:  To be determined.               ML:  To be determined.             
Instr Period =  .0050 sec,  Damping =  .707,  Sensitivity = 4.98 v/g  (Nominal) 
                        Record Length =301.000 sec.                             
                                     Uncor Max  =  -.003 g, at   39.730 sec.    
RMS accel of (uncor) record  =        .   Chn. metadata effective date:         
Accelerogram bandpass filtered with 3 dB pts at   .30 and 23.00 cyc/sec         
                 instrument- and base-line correcte                             
                                                                                
                                                                                
                                                                                
                                                                                
                                                                                
Rcrd of Fri Sep 18, 2020 23:38:38.0 PDT    Fri Sep 18, 2020 23:38:38.0 PDT      
                                                                                
38695658.CI.DGR.--.HN     Winchester, Rawson Rd & Crown Valley Rd  SChan  2: 360
 Deg                                                                            
38695658.CI.DGR.--.HN     Winchester, Rawson Rd & Crown Valley Rd  SChan  2: 360
 Deg                                                                            
Units for spectra are inches and sec, except Sa is in fraction of g.            
                                                                                
    2  100    2    6    6  100 -999    3    1    0   15 4880    050540   41    0
    6   38   38    8  263    9   19 2020   10    3  36036387   39   39   74 -999
36387 -999  100    6 -999 -999 -999 -999 -999 -999 -999 -999 -999 -999 -999 -999
 -999 -999 -999 -99915050    2 -999    0 -999   20 -999 -999    3    1 -99915050
    315050    4   78    1    3    5    0    0 -999    0 -999 -999    6 -999    2
    2    2    4 -999 -999 -999 -999 -999 -999 -999 -999    1 -999 -999 -999  111
    1    1 -999 -999
      .005      .707   363.870      .000     1.000  4977.686     -.003    39.730
   200.000     2.384      .479  -999.000    10.000  -999.000     4.000  -999.000
    20.000   -17.763      .000  -999.000  -999.000  -999.000  -999.000     -.001
      .000      .001     2.000    15.000    33.650  -117.009      .001      .001
      .976      .001      .001   650.000  -999.000  -999.000  -999.000  -999.000
     1.000  -999.000  -999.000  -999.000  -999.000  -999.000  -999.000   120.000
     -.900     2.000     6.800   980.665      .020   301.000    31.831      .000
  -999.000    23.000  -999.000   301.000      .020      .300  -999.000  -999.000
    40.260    -2.761    39.900     -.061    40.500     -.005      .000      .300
    23.000      .020      .020      .000      .020      .002  -999.000  -999.000
      .015      .130      .004      .004      .000      .000  -999.000  -999.000
  -999.000  -999.000  -999.000  -999.000  -999.000  -999.000  -999.000  -999.000
  -999.000  -999.000  -999.000  -999.000
      .050
      .040      .042      .044      .046      .048      .050      .055      .060
      .065      .070      .075      .080      .085      .090      .095      .100
      .110      .120      .130      .140      .150      .160      .170      .180
      .190      .200      .220      .240      .260      .280      .300      .320
      .340      .360      .380      .400      .420      .440      .460      .480
      .500      .550      .600      .650      .700      .750      .800      .850
      .900      .950     1.000     1.100     1.200     1.300     1.400     1.500
     1.600     1.700     1.800     1.900     2.000     2.200     2.400     2.600
     2.800     3.000     3.200     3.400     3.600     3.800     4.000     4.200
     4.400     4.600     4.800     5.000     5.500     6.000      .000      .000
      .000      .000      .000      .000      .000      .000      .000      .000
      .000      .000      .000      .000      .000      .000      .000      .000
      .000      .000      .000      .000
Fourier amplitude spectra in in/sec.
  .000E+00  .000E+00  .000E+00  .000E+00  .000E+00  .000E+00  .000E+00  .000E+00
  .000E+00  .000E+00  .000E+00  .000E+00  .000E+00  .000E+00  .000E+00  .000E+00
  .000E+00  .000E+00  .000E+00  .000E+00  .000E+00  .000E+00  .000E+00  .000E+00
  .000E+00  .000E+00  .000E+00  .000E+00  .000E+00  .000E+00  .000E+00  .000E+00
  .000E+00  .000E+00  .000E+00  .000E+00  .000E+00  .000E+00  .000E+00  .000E+00
  .000E+00  .000E+00  .000E+00  .000E+00  .000E+00  .000E+00  .000E+00  .000E+00
  .000E+00  .000E+00  .000E+00  .000E+00  .000E+00  .000E+00  .000E+00  .000E+00
  .000E+00  .000E+00  .000E+00  .000E+00  .000E+00  .000E+00  .000E+00  .000E+00
  .000E+00  .000E+00  .000E+00  .000E+00  .000E+00  .000E+00  .000E+00  .000E+00
  .000E+00  .000E+00  .000E+00  .000E+00  .000E+00  .000E+00  .000E+00  .000E+00
  .000E+00  .000E+00  .000E+00  .000E+00  .000E+00  .000E+00  .000E+00  .000E+00
  .000E+00  .000E+00  .000E+00  .000E+00  .000E+00  .000E+00  .000E+00  .000E+00
  .000E+00  .000E+00  .000E+00  .000E+00
Damping =  .05. Data of Sd,Sv,Sa,Pssv,ttSd,ttSv,ttSa :
  .566E-04  .685E-04  .933E-04  .109E-03  .123E-03  .137E-03  .192E-03  .257E-03
  .280E-03  .335E-03  .412E-03  .537E-03  .465E-03  .608E-03  .758E-03  .849E-03
  .102E-02  .164E-02  .250E-02  .253E-02  .203E-02  .148E-02  .122E-02  .125E-02
  .127E-02  .147E-02  .175E-02  .137E-02  .185E-02  .241E-02  .364E-02  .425E-02
  .402E-02  .300E-02  .239E-02  .216E-02  .247E-02  .286E-02  .308E-02  .311E-02
