Response and Fourier amplitude spectra (78 periods,  .04 -  6.0 sec)   for      
Corrected accelerogram   38695658.CI.DJJB.01.H      Chan  1:  90 Deg     from   
Uncorrected Accelerogram Data             Processed: 09/19/20, CGS  cidjjb-h    
Rcrd of Fri Sep 18, 2020 23:38:28.0 PDT               (Avol1 v2.0, 4/18 CSMIP)  
                                        (Origin:  To be determined)             
38695658.CI.DJJB.01.H                Start time:  9/19/20, 06:38:28.0 UTC (GPS) 
Station Id. DJJB    34.106N, 118.455W    ObsMMS  s/n 1120  (3 Chns of  6 at Sta)
Bel Aire Estates, Stone Canyon           SCSN   Data: Acceleration              
Chan  1:  90 Deg                                                                
Rcrd of Fri Sep 18, 2020 23:38:28.0 PDT    Fri Sep 18, 2020 23:38:28.0 PDT      
Hypocenter:  To be determined.               ML:  To be determined.             
Instr Period =  .0050 sec,  Damping =  .707,  Sensitivity = 9.97 v/g  (Nominal) 
                        Record Length =301.000 sec.                             
                                     Uncor Max  =   .001 g, at   30.510 sec.    
RMS accel of (uncor) record  =        .   Chn. metadata effective date:         
Accelerogram bandpass filtered with 3 dB pts at   .30 and 23.00 cyc/sec         
                 instrument- and base-line correcte                             
                                                                                
                                                                                
                                                                                
                                                                                
                                                                                
Rcrd of Fri Sep 18, 2020 23:38:28.0 PDT    Fri Sep 18, 2020 23:38:28.0 PDT      
                                                                                
38695658.CI.DJJB.01.H     Bel Aire Estates, Stone Canyon    Chan  1:  90 Deg    
                                                                                
38695658.CI.DJJB.01.H     Bel Aire Estates, Stone Canyon    Chan  1:  90 Deg    
                                                                                
Units for spectra are inches and sec, except Sa is in fraction of g.            
                                                                                
    1  100    1    6    6  100 -999    3    1    0   15 1120    050604   41    0
    6   38   28    0  263    9   19 2020   10    3   9036191   39   30   74 -999
36191 -999  100    6 -999 -999 -999 -999 -999 -999 -999 -999 -999 -999 -999 -999
 -999 -999 -999 -99915050    2 -999    0 -999    0 -999 -999    3    1 -99915050
    315050    4   78    1    3    5    0    0 -999    0 -999 -999    6 -999    2
    2    2    4 -999 -999 -999 -999 -999 -999 -999 -999    1 -999 -999 -999  111
    1    1 -999 -999
      .005      .707   361.910      .000     1.000  9969.254      .001    30.510
   200.000     2.384      .239  -999.000    10.000  -999.000     1.000  -999.000
    10.000   -16.140      .000  -999.000  -999.000  -999.000  -999.000      .000
      .000      .001     2.000    15.000    34.106  -118.455      .001      .001
     1.023      .001      .001   268.000  -999.000  -999.000  -999.000  -999.000
     1.000  -999.000    -8.000  -999.000  -999.000  -999.000  -999.000   120.000
     -.900     2.000     6.800   980.665      .020   301.000    31.831      .000
  -999.000    23.000  -999.000   301.000      .020      .300  -999.000  -999.000
    30.500     1.115    30.780      .066    30.120      .007      .000      .300
    23.000      .020      .020      .000      .020      .003  -999.000  -999.000
      .004      .180      .003      .001      .001      .000  -999.000  -999.000
  -999.000  -999.000  -999.000  -999.000  -999.000  -999.000  -999.000  -999.000
  -999.000  -999.000  -999.000  -999.000
      .050
      .040      .042      .044      .046      .048      .050      .055      .060
      .065      .070      .075      .080      .085      .090      .095      .100
      .110      .120      .130      .140      .150      .160      .170      .180
      .190      .200      .220      .240      .260      .280      .300      .320
      .340      .360      .380      .400      .420      .440      .460      .480
      .500      .550      .600      .650      .700      .750      .800      .850
      .900      .950     1.000     1.100     1.200     1.300     1.400     1.500
     1.600     1.700     1.800     1.900     2.000     2.200     2.400     2.600
     2.800     3.000     3.200     3.400     3.600     3.800     4.000     4.200
     4.400     4.600     4.800     5.000     5.500     6.000      .000      .000
      .000      .000      .000      .000      .000      .000      .000      .000
      .000      .000      .000      .000      .000      .000      .000      .000
      .000      .000      .000      .000
Fourier amplitude spectra in in/sec.
  .000E+00  .000E+00  .000E+00  .000E+00  .000E+00  .000E+00  .000E+00  .000E+00
  .000E+00  .000E+00  .000E+00  .000E+00  .000E+00  .000E+00  .000E+00  .000E+00
  .000E+00  .000E+00  .000E+00  .000E+00  .000E+00  .000E+00  .000E+00  .000E+00
  .000E+00  .000E+00  .000E+00  .000E+00  .000E+00  .000E+00  .000E+00  .000E+00
  .000E+00  .000E+00  .000E+00  .000E+00  .000E+00  .000E+00  .000E+00  .000E+00
  .000E+00  .000E+00  .000E+00  .000E+00  .000E+00  .000E+00  .000E+00  .000E+00
  .000E+00  .000E+00  .000E+00  .000E+00  .000E+00  .000E+00  .000E+00  .000E+00
  .000E+00  .000E+00  .000E+00  .000E+00  .000E+00  .000E+00  .000E+00  .000E+00
  .000E+00  .000E+00  .000E+00  .000E+00  .000E+00  .000E+00  .000E+00  .000E+00
  .000E+00  .000E+00  .000E+00  .000E+00  .000E+00  .000E+00  .000E+00  .000E+00
  .000E+00  .000E+00  .000E+00  .000E+00  .000E+00  .000E+00  .000E+00  .000E+00
  .000E+00  .000E+00  .000E+00  .000E+00  .000E+00  .000E+00  .000E+00  .000E+00
  .000E+00  .000E+00  .000E+00  .000E+00
Damping =  .05. Data of Sd,Sv,Sa,Pssv,ttSd,ttSv,ttSa :
  .212E-04  .231E-04  .250E-04  .299E-04  .364E-04  .452E-04  .491E-04  .812E-04
  .102E-03  .143E-03  .142E-03  .167E-03  .174E-03  .193E-03  .244E-03  .338E-03
  .407E-03  .527E-03  .566E-03  .637E-03  .667E-03  .708E-03  .993E-03  .132E-02
  .121E-02  .101E-02  .886E-03  .919E-03  .935E-03  .940E-03  .108E-02  .127E-02
  .139E-02  .163E-02  .178E-02  .181E-02  .245E-02  .284E-02  .290E-02  .273E-02
  .282E-02  .331E-02  .454E-02  .629E-02  .764E-02  .873E-02  .105E-01  .114E-01
  .116E-01  .107E-01  .970E-02  .887E-02  .826E-02  .731E-02  .681E-02  .636E-02
  .592E-02  .563E-02  .545E-02  .616E-02  .531E-02  .415E-02  .391E-02  .358E-02
  .334E-02  .321E-02  .317E-02  .315E-02  .316E-02  .315E-02  .313E-02  .311E-02
  .308E-02  .305E-02  .301E-02  .298E-02  .292E-02  .288E-02  .000E+00  .000E+00
  .000E+00  .000E+00  .000E+00  .000E+00  .000E+00  .000E+00  .000E+00  .000E+00
  .000E+00  .000E+00  .000E+00  .000E+00  .000E+00  .000E+00  .000E+00  .000E+00
  .000E+00  .000E+00  .000E+00  .000E+00
  .172E-02  .179E-02  .197E-02  .246E-02  .330E-02  .429E-02  .459E-02  .661E-02
  .808E-02  .955E-02  .909E-02  .121E-01  .120E-01  .119E-01  .139E-01  .178E-01
  .201E-01  .242E-01  .245E-01  .270E-01  .274E-01  .272E-01  .343E-01  .477E-01
  .426E-01  .357E-01  .260E-01  .256E-01  .216E-01  .198E-01  .221E-01  .261E-01
  .278E-01  .255E-01  .227E-01  .266E-01  .366E-01  .409E-01  .384E-01  .409E-01
  .412E-01  .375E-01  .423E-01  .529E-01  .680E-01  .825E-01  .853E-01  .870E-01
  .887E-01  .811E-01  .775E-01  .626E-01  .560E-01  .543E-01  .502E-01  .451E-01
  .409E-01  .379E-01  .354E-01  .329E-01  .307E-01  .278E-01  .268E-01  .268E-01
  .268E-01  .267E-01  .265E-01  .263E-01  .261E-01  .260E-01  .259E-01  .259E-01
  .259E-01  .259E-01  .259E-01  .259E-01  .258E-01  .258E-01  .000E+00  .000E+00
  .000E+00  .000E+00  .000E+00  .000E+00  .000E+00  .000E+00  .000E+00  .000E+00
  .000E+00  .000E+00  .000E+00  .000E+00  .000E+00  .000E+00  .000E+00  .000E+00
  .000E+00  .000E+00  .000E+00  .000E+00
  .136E-02  .135E-02  .133E-02  .145E-02  .161E-02  .186E-02  .168E-02  .235E-02
  .246E-02  .301E-02  .261E-02  .269E-02  .250E-02  .243E-02  .279E-02  .345E-02
  .341E-02  .379E-02  .343E-02  .337E-02  .303E-02  .287E-02  .350E-02  .420E-02
  .346E-02  .260E-02  .192E-02  .162E-02  .142E-02  .125E-02  .123E-02  .127E-02
  .123E-02  .130E-02  .127E-02  .116E-02  .145E-02  .153E-02  .140E-02  .122E-02
  .116E-02  .113E-02  .130E-02  .153E-02  .161E-02  .159E-02  .168E-02  .162E-02
  .147E-02  .122E-02  .999E-03  .754E-03  .593E-03  .449E-03  .363E-03  .294E-03
  .241E-03  .203E-03  .174E-03  .178E-03  .138E-03  .909E-04  .723E-04  .569E-04
  .463E-04  .390E-04  .345E-04  .305E-04  .272E-04  .245E-04  .222E-04  .201E-04
  .183E-04  .169E-04  .157E-04  .148E-04  .129E-04  .113E-04  .000E+00  .000E+00
  .000E+00  .000E+00  .000E+00  .000E+00  .000E+00  .000E+00  .000E+00  .000E+00
  .000E+00  .000E+00  .000E+00  .000E+00  .000E+00  .000E+00  .000E+00  .000E+00
  .000E+00  .000E+00  .000E+00  .000E+00
  .333E-02  .345E-02  .358E-02  .409E-02  .476E-02  .567E-02  .561E-02  .850E-02
  .982E-02  .129E-01  .119E-01  .131E-01  .128E-01  .135E-01  .161E-01  .212E-01
  .232E-01  .276E-01  .274E-01  .286E-01  .279E-01  .278E-01  .367E-01  .459E-01
  .401E-01  .317E-01  .253E-01  .241E-01  .226E-01  .211E-01  .226E-01  .250E-01
  .256E-01  .285E-01  .295E-01  .285E-01  .367E-01  .406E-01  .396E-01  .357E-01
  .354E-01  .378E-01  .476E-01  .608E-01  .686E-01  .732E-01  .824E-01  .842E-01
  .807E-01  .710E-01  .610E-01  .506E-01  .433E-01  .353E-01  .306E-01  .266E-01
  .233E-01  .208E-01  .190E-01  .204E-01  .167E-01  .119E-01  .102E-01  .864E-02
  .750E-02  .672E-02  .622E-02  .583E-02  .551E-02  .521E-02  .492E-02  .465E-02
  .439E-02  .416E-02  .394E-02  .374E-02  .333E-02  .302E-02  .000E+00  .000E+00
  .000E+00  .000E+00  .000E+00  .000E+00  .000E+00  .000E+00  .000E+00  .000E+00
  .000E+00  .000E+00  .000E+00  .000E+00  .000E+00  .000E+00  .000E+00  .000E+00
  .000E+00  .000E+00  .000E+00  .000E+00
  .305E+02  .305E+02  .305E+02  .310E+02  .318E+02  .318E+02  .314E+02  .311E+02
  .313E+02  .313E+02  .305E+02  .305E+02  .316E+02  .305E+02  .318E+02  .318E+02
  .308E+02  .308E+02  .310E+02  .315E+02  .318E+02  .315E+02  .315E+02  .315E+02
  .314E+02  .315E+02  .312E+02  .309E+02  .306E+02  .312E+02  .312E+02  .316E+02
  .306E+02  .306E+02  .306E+02  .319E+02  .319E+02  .319E+02  .319E+02  .319E+02
  .313E+02  .313E+02  .313E+02  .314E+02  .314E+02  .311E+02  .319E+02  .320E+02
  .330E+02  .321E+02  .318E+02  .309E+02  .309E+02  .310E+02  .305E+02  .305E+02
  .305E+02  .305E+02  .362E+02  .363E+02  .363E+02  .301E+02  .301E+02  .301E+02
  .301E+02  .301E+02  .301E+02  .301E+02  .301E+02  .301E+02  .301E+02  .301E+02
  .301E+02  .301E+02  .301E+02  .301E+02  .301E+02  .301E+02  .000E+00  .000E+00
  .000E+00  .000E+00  .000E+00  .000E+00  .000E+00  .000E+00  .000E+00  .000E+00
  .000E+00  .000E+00  .000E+00  .000E+00  .000E+00  .000E+00  .000E+00  .000E+00
  .000E+00  .000E+00  .000E+00  .000E+00
  .317E+02  .317E+02  .317E+02  .317E+02  .317E+02  .319E+02  .319E+02  .311E+02
  .318E+02  .313E+02  .316E+02  .316E+02  .316E+02  .316E+02  .318E+02  .318E+02
  .308E+02  .308E+02  .309E+02  .315E+02  .319E+02  .319E+02  .314E+02  .314E+02
  .315E+02  .314E+02  .311E+02  .308E+02  .308E+02  .311E+02  .311E+02  .311E+02
  .317E+02  .307E+02  .320E+02  .320E+02  .320E+02  .320E+02  .314E+02  .314E+02
  .314E+02  .314E+02  .311E+02  .312E+02  .313E+02  .313E+02  .313E+02  .318E+02
  .319E+02  .310E+02  .310E+02  .311E+02  .307E+02  .308E+02  .308E+02  .308E+02
  .308E+02  .308E+02  .308E+02  .308E+02  .308E+02  .308E+02  .308E+02  .308E+02
  .308E+02  .308E+02  .308E+02  .308E+02  .308E+02  .308E+02  .308E+02  .308E+02
  .308E+02  .308E+02  .308E+02  .308E+02  .308E+02  .308E+02  .000E+00  .000E+00
  .000E+00  .000E+00  .000E+00  .000E+00  .000E+00  .000E+00  .000E+00  .000E+00
  .000E+00  .000E+00  .000E+00  .000E+00  .000E+00  .000E+00  .000E+00  .000E+00
  .000E+00  .000E+00  .000E+00  .000E+00
  .305E+02  .305E+02  .305E+02  .305E+02  .318E+02  .318E+02  .314E+02  .311E+02
  .313E+02  .313E+02  .305E+02  .305E+02  .316E+02  .305E+02  .318E+02  .318E+02
  .308E+02  .308E+02  .310E+02  .315E+02  .318E+02  .315E+02  .315E+02  .315E+02
  .314E+02  .314E+02  .312E+02  .309E+02  .306E+02  .312E+02  .312E+02  .315E+02
  .306E+02  .306E+02  .306E+02  .319E+02  .319E+02  .319E+02  .319E+02  .319E+02
  .313E+02  .313E+02  .313E+02  .313E+02  .314E+02  .311E+02  .319E+02  .320E+02
  .329E+02  .321E+02  .317E+02  .309E+02  .309E+02  .309E+02  .305E+02  .305E+02
  .305E+02  .305E+02  .362E+02  .362E+02  .363E+02  .318E+02  .301E+02  .301E+02
  .301E+02  .301E+02  .305E+02  .305E+02  .301E+02  .301E+02  .301E+02  .301E+02
  .301E+02  .305E+02  .305E+02  .305E+02  .305E+02  .305E+02  .000E+00  .000E+00
  .000E+00  .000E+00  .000E+00  .000E+00  .000E+00  .000E+00  .000E+00  .000E+00
  .000E+00  .000E+00  .000E+00  .000E+00  .000E+00  .000E+00  .000E+00  .000E+00
  .000E+00  .000E+00  .000E+00  .000E+00
/&   ----------  End of spectral data for channel  1  ----------
Response and Fourier amplitude spectra (78 periods,  .04 -  6.0 sec)   for      
Corrected accelerogram   38695658.CI.DJJB.01.H      Chan  2: 360 Deg     from   
Uncorrected Accelerogram Data             Processed: 09/19/20, CGS  cidjjb-h    
Rcrd of Fri Sep 18, 2020 23:38:28.0 PDT               (Avol1 v2.0, 4/18 CSMIP)  
                                        (Origin:  To be determined)             
38695658.CI.DJJB.01.H                Start time:  9/19/20, 06:38:28.0 UTC (GPS) 
Station Id. DJJB    34.106N, 118.455W    ObsMMS  s/n 1120  (3 Chns of  6 at Sta)
Bel Aire Estates, Stone Canyon           SCSN   Data: Acceleration              
Chan  2: 360 Deg                                                                
Rcrd of Fri Sep 18, 2020 23:38:28.0 PDT    Fri Sep 18, 2020 23:38:28.0 PDT      
Hypocenter:  To be determined.               ML:  To be determined.             
Instr Period =  .0050 sec,  Damping =  .707,  Sensitivity = 9.98 v/g  (Nominal) 
                        Record Length =301.000 sec.                             
                                     Uncor Max  =  -.001 g, at   30.950 sec.    
RMS accel of (uncor) record  =        .   Chn. metadata effective date:         
Accelerogram bandpass filtered with 3 dB pts at   .30 and 23.00 cyc/sec         
                 instrument- and base-line correcte                             
                                                                                
                                                                                
                                                                                
                                                                                
                                                                                
Rcrd of Fri Sep 18, 2020 23:38:28.0 PDT    Fri Sep 18, 2020 23:38:28.0 PDT      
                                                                                
38695658.CI.DJJB.01.H     Bel Aire Estates, Stone Canyon    Chan  2: 360 Deg    
                                                                                
38695658.CI.DJJB.01.H     Bel Aire Estates, Stone Canyon    Chan  2: 360 Deg    
                                                                                
Units for spectra are inches and sec, except Sa is in fraction of g.            
                                                                                
    2  100    2    6    6  100 -999    3    1    0   15 1120    050604   41    0
    6   38   28   10  263    9   19 2020   10    3  36036010   39   30   74 -999
36010 -999  100    6 -999 -999 -999 -999 -999 -999 -999 -999 -999 -999 -999 -999
 -999 -999 -999 -99915050    2 -999    0 -999    0 -999 -999    3    1 -99915050
    315050    4   78    1    3    5    0    0 -999    0 -999 -999    6 -999    2
    2    2    4 -999 -999 -999 -999 -999 -999 -999 -999    1 -999 -999 -999  111
    1    1 -999 -999
      .005      .707   360.100      .000     1.000  9978.056     -.001    30.950
   200.000     2.384      .239  -999.000    10.000  -999.000     1.000  -999.000
    10.000    -1.734      .000  -999.000  -999.000  -999.000  -999.000      .000
      .000      .000     2.000    15.000    34.106  -118.455      .001      .001
      .999      .000      .000   268.000  -999.000  -999.000  -999.000  -999.000
     1.000  -999.000  -999.000  -999.000  -999.000  -999.000  -999.000   120.000
     -.900     2.000     6.800   980.665      .020   301.000    31.831      .000
  -999.000    23.000  -999.000   301.000      .020      .300  -999.000  -999.000
    32.200    -1.260    32.100      .052    32.200      .007      .000      .300
    23.000      .020      .020      .000      .020      .003  -999.000  -999.000
      .004      .090      .002      .002      .001      .000  -999.000  -999.000
  -999.000  -999.000  -999.000  -999.000  -999.000  -999.000  -999.000  -999.000
  -999.000  -999.000  -999.000  -999.000
      .050
      .040      .042      .044      .046      .048      .050      .055      .060
      .065      .070      .075      .080      .085      .090      .095      .100
      .110      .120      .130      .140      .150      .160      .170      .180
      .190      .200      .220      .240      .260      .280      .300      .320
      .340      .360      .380      .400      .420      .440      .460      .480
      .500      .550      .600      .650      .700      .750      .800      .850
      .900      .950     1.000     1.100     1.200     1.300     1.400     1.500
     1.600     1.700     1.800     1.900     2.000     2.200     2.400     2.600
     2.800     3.000     3.200     3.400     3.600     3.800     4.000     4.200
     4.400     4.600     4.800     5.000     5.500     6.000      .000      .000
      .000      .000      .000      .000      .000      .000      .000      .000
      .000      .000      .000      .000      .000      .000      .000      .000
      .000      .000      .000      .000
Fourier amplitude spectra in in/sec.
  .000E+00  .000E+00  .000E+00  .000E+00  .000E+00  .000E+00  .000E+00  .000E+00
  .000E+00  .000E+00  .000E+00  .000E+00  .000E+00  .000E+00  .000E+00  .000E+00
  .000E+00  .000E+00  .000E+00  .000E+00  .000E+00  .000E+00  .000E+00  .000E+00
  .000E+00  .000E+00  .000E+00  .000E+00  .000E+00  .000E+00  .000E+00  .000E+00
  .000E+00  .000E+00  .000E+00  .000E+00  .000E+00  .000E+00  .000E+00  .000E+00
  .000E+00  .000E+00  .000E+00  .000E+00  .000E+00  .000E+00  .000E+00  .000E+00
  .000E+00  .000E+00  .000E+00  .000E+00  .000E+00  .000E+00  .000E+00  .000E+00
  .000E+00  .000E+00  .000E+00  .000E+00  .000E+00  .000E+00  .000E+00  .000E+00
  .000E+00  .000E+00  .000E+00  .000E+00  .000E+00  .000E+00  .000E+00  .000E+00
  .000E+00  .000E+00  .000E+00  .000E+00  .000E+00  .000E+00  .000E+00  .000E+00
  .000E+00  .000E+00  .000E+00  .000E+00  .000E+00  .000E+00  .000E+00  .000E+00
  .000E+00  .000E+00  .000E+00  .000E+00  .000E+00  .000E+00  .000E+00  .000E+00
  .000E+00  .000E+00  .000E+00  .000E+00
Damping =  .05. Data of Sd,Sv,Sa,Pssv,ttSd,ttSv,ttSa :
  .283E-04  .321E-04  .373E-04  .455E-04  .522E-04  .545E-04  .569E-04  .862E-04
  .966E-04  .107E-03  .140E-03  .155E-03  .199E-03  .276E-03  .236E-03  .225E-03
  .282E-03  .321E-03  .471E-03  .589E-03  .709E-03  .766E-03  .700E-03  .680E-03
  .703E-03  .777E-03  .940E-03  .133E-02  .120E-02  .153E-02  .200E-02  .201E-02
  .190E-02  .189E-02  .219E-02  .242E-02  .209E-02  .190E-02  .198E-02  .215E-02
