Response and Fourier amplitude spectra (78 periods,  .04 -  6.0 sec)   for      
Corrected accelerogram   38695658.CI.DJJ.--.HN      Chan  1:  90 Deg     from   
Uncorrected Accelerogram Data             Processed: 09/19/20, CGS  cidjj--u    
Rcrd of Fri Sep 18, 2020 23:38:28.0 PDT               (Avol1 v2.0, 4/18 CSMIP)  
                                        (Origin:  To be determined)             
38695658.CI.DJJ.--.HN                Start time:  9/19/20, 06:38:28.0 UTC (GPS) 
Station Id. DJJ     34.106N, 118.455W    ObsMMS  s/n 4238  (3 Chns of  3 at Sta)
Beverly Hills, Stone Canyon              SCSN   Data: Acceleration              
Chan  1:  90 Deg                                                                
Rcrd of Fri Sep 18, 2020 23:38:28.0 PDT    Fri Sep 18, 2020 23:38:28.0 PDT      
Hypocenter:  To be determined.               ML:  To be determined.             
Instr Period =  .0050 sec,  Damping =  .707,  Sensitivity = 5.00 v/g  (Nominal) 
                        Record Length =301.000 sec.                             
                                     Uncor Max  =  -.004 g, at   30.910 sec.    
RMS accel of (uncor) record  =        .   Chn. metadata effective date:         
Accelerogram bandpass filtered with 3 dB pts at   .30 and 23.00 cyc/sec         
                 instrument- and base-line correcte                             
                                                                                
                                                                                
                                                                                
                                                                                
                                                                                
Rcrd of Fri Sep 18, 2020 23:38:28.0 PDT    Fri Sep 18, 2020 23:38:28.0 PDT      
                                                                                
38695658.CI.DJJ.--.HN     Beverly Hills, Stone Canyon   Chan  1:  90 Deg        
                                                                                
38695658.CI.DJJ.--.HN     Beverly Hills, Stone Canyon   Chan  1:  90 Deg        
                                                                                
Units for spectra are inches and sec, except Sa is in fraction of g.            
                                                                                
    1  100    1    3    3  100 -999    3    1    0   15 4238    050541   41    0
    6   38   28    8  263    9   19 2020   10    3   9035694   39   27   74 -999
35694 -999  100    6 -999 -999 -999 -999 -999 -999 -999 -999 -999 -999 -999 -999
 -999 -999 -999 -99915050    2 -999    0 -999   20 -999 -999    3    1 -99915050
    315050    4   78    1    3    5    0    0 -999    0 -999 -999    6 -999    2
    2    2    4 -999 -999 -999 -999 -999 -999 -999 -999    1 -999 -999 -999  111
    1    1 -999 -999
      .005      .707   356.940      .000     1.000  4997.654     -.004    30.910
   200.000     2.384      .477  -999.000    10.000  -999.000     4.000  -999.000
    20.000   -21.758      .000  -999.000  -999.000  -999.000  -999.000      .000
      .001      .001     2.000    15.000    34.106  -118.455      .001      .001
     1.063      .000      .001   268.000  -999.000  -999.000  -999.000  -999.000
     1.000  -999.000    -8.000  -999.000  -999.000  -999.000  -999.000   120.000
     -.900     2.000     6.800   980.665      .020   301.000    31.831      .000
  -999.000    23.000  -999.000   301.000      .020      .300  -999.000  -999.000
    30.920    -2.872    30.860      .122    30.640     -.010      .000      .300
    23.000      .020      .020      .000      .020      .005  -999.000  -999.000
      .011      .160      .006      .004      .001      .000  -999.000  -999.000
  -999.000  -999.000  -999.000  -999.000  -999.000  -999.000  -999.000  -999.000
  -999.000  -999.000  -999.000  -999.000
      .050
      .040      .042      .044      .046      .048      .050      .055      .060
      .065      .070      .075      .080      .085      .090      .095      .100
      .110      .120      .130      .140      .150      .160      .170      .180
      .190      .200      .220      .240      .260      .280      .300      .320
      .340      .360      .380      .400      .420      .440      .460      .480
      .500      .550      .600      .650      .700      .750      .800      .850
      .900      .950     1.000     1.100     1.200     1.300     1.400     1.500
     1.600     1.700     1.800     1.900     2.000     2.200     2.400     2.600
     2.800     3.000     3.200     3.400     3.600     3.800     4.000     4.200
     4.400     4.600     4.800     5.000     5.500     6.000      .000      .000
      .000      .000      .000      .000      .000      .000      .000      .000
      .000      .000      .000      .000      .000      .000      .000      .000
      .000      .000      .000      .000
Fourier amplitude spectra in in/sec.
  .000E+00  .000E+00  .000E+00  .000E+00  .000E+00  .000E+00  .000E+00  .000E+00
  .000E+00  .000E+00  .000E+00  .000E+00  .000E+00  .000E+00  .000E+00  .000E+00
  .000E+00  .000E+00  .000E+00  .000E+00  .000E+00  .000E+00  .000E+00  .000E+00
  .000E+00  .000E+00  .000E+00  .000E+00  .000E+00  .000E+00  .000E+00  .000E+00
  .000E+00  .000E+00  .000E+00  .000E+00  .000E+00  .000E+00  .000E+00  .000E+00
  .000E+00  .000E+00  .000E+00  .000E+00  .000E+00  .000E+00  .000E+00  .000E+00
  .000E+00  .000E+00  .000E+00  .000E+00  .000E+00  .000E+00  .000E+00  .000E+00
  .000E+00  .000E+00  .000E+00  .000E+00  .000E+00  .000E+00  .000E+00  .000E+00
  .000E+00  .000E+00  .000E+00  .000E+00  .000E+00  .000E+00  .000E+00  .000E+00
  .000E+00  .000E+00  .000E+00  .000E+00  .000E+00  .000E+00  .000E+00  .000E+00
  .000E+00  .000E+00  .000E+00  .000E+00  .000E+00  .000E+00  .000E+00  .000E+00
  .000E+00  .000E+00  .000E+00  .000E+00  .000E+00  .000E+00  .000E+00  .000E+00
  .000E+00  .000E+00  .000E+00  .000E+00
Damping =  .05. Data of Sd,Sv,Sa,Pssv,ttSd,ttSv,ttSa :
  .546E-04  .628E-04  .704E-04  .821E-04  .938E-04  .110E-03  .174E-03  .215E-03
  .194E-03  .316E-03  .400E-03  .452E-03  .558E-03  .549E-03  .647E-03  .637E-03
  .842E-03  .110E-02  .159E-02  .195E-02  .229E-02  .279E-02  .285E-02  .267E-02
  .240E-02  .248E-02  .261E-02  .277E-02  .270E-02  .323E-02  .353E-02  .391E-02
  .461E-02  .510E-02  .562E-02  .614E-02  .632E-02  .754E-02  .764E-02  .651E-02
  .559E-02  .576E-02  .682E-02  .931E-02  .114E-01  .123E-01  .130E-01  .146E-01
  .146E-01  .127E-01  .126E-01  .123E-01  .110E-01  .932E-02  .774E-02  .746E-02
  .710E-02  .687E-02  .670E-02  .686E-02  .619E-02  .544E-02  .486E-02  .464E-02
  .458E-02  .458E-02  .456E-02  .453E-02  .446E-02  .439E-02  .433E-02  .428E-02
  .427E-02  .427E-02  .427E-02  .427E-02  .424E-02  .424E-02  .000E+00  .000E+00
  .000E+00  .000E+00  .000E+00  .000E+00  .000E+00  .000E+00  .000E+00  .000E+00
  .000E+00  .000E+00  .000E+00  .000E+00  .000E+00  .000E+00  .000E+00  .000E+00
  .000E+00  .000E+00  .000E+00  .000E+00
  .413E-02  .474E-02  .572E-02  .662E-02  .713E-02  .852E-02  .139E-01  .177E-01
  .158E-01  .246E-01  .296E-01  .320E-01  .374E-01  .365E-01  .396E-01  .387E-01
  .399E-01  .440E-01  .647E-01  .810E-01  .890E-01  .104E+00  .101E+00  .930E-01
  .829E-01  .801E-01  .734E-01  .695E-01  .756E-01  .734E-01  .920E-01  .941E-01
  .981E-01  .900E-01  .845E-01  .971E-01  .102E+00  .114E+00  .101E+00  .931E-01
  .815E-01  .704E-01  .760E-01  .842E-01  .102E+00  .111E+00  .121E+00  .115E+00
  .116E+00  .103E+00  .986E-01  .889E-01  .839E-01  .774E-01  .700E-01  .662E-01
  .627E-01  .601E-01  .578E-01  .556E-01  .535E-01  .503E-01  .490E-01  .487E-01
  .485E-01  .483E-01  .481E-01  .478E-01  .476E-01  .474E-01  .473E-01  .472E-01
  .472E-01  .472E-01  .471E-01  .471E-01  .470E-01  .469E-01  .000E+00  .000E+00
  .000E+00  .000E+00  .000E+00  .000E+00  .000E+00  .000E+00  .000E+00  .000E+00
  .000E+00  .000E+00  .000E+00  .000E+00  .000E+00  .000E+00  .000E+00  .000E+00
  .000E+00  .000E+00  .000E+00  .000E+00
  .347E-02  .364E-02  .373E-02  .398E-02  .420E-02  .449E-02  .588E-02  .615E-02
  .471E-02  .658E-02  .730E-02  .732E-02  .786E-02  .686E-02  .727E-02  .662E-02
  .714E-02  .786E-02  .971E-02  .103E-01  .104E-01  .111E-01  .101E-01  .841E-02
  .688E-02  .629E-02  .563E-02  .489E-02  .409E-02  .424E-02  .398E-02  .389E-02
  .415E-02  .406E-02  .399E-02  .391E-02  .366E-02  .402E-02  .371E-02  .293E-02
  .231E-02  .197E-02  .194E-02  .227E-02  .239E-02  .226E-02  .209E-02  .207E-02
  .186E-02  .145E-02  .131E-02  .106E-02  .798E-03  .579E-03  .409E-03  .345E-03
  .288E-03  .248E-03  .217E-03  .201E-03  .163E-03  .119E-03  .908E-04  .745E-04
  .638E-04  .560E-04  .495E-04  .440E-04  .392E-04  .353E-04  .329E-04  .308E-04
  .287E-04  .268E-04  .251E-04  .237E-04  .206E-04  .182E-04  .000E+00  .000E+00
  .000E+00  .000E+00  .000E+00  .000E+00  .000E+00  .000E+00  .000E+00  .000E+00
  .000E+00  .000E+00  .000E+00  .000E+00  .000E+00  .000E+00  .000E+00  .000E+00
  .000E+00  .000E+00  .000E+00  .000E+00
  .857E-02  .939E-02  .101E-01  .112E-01  .123E-01  .139E-01  .199E-01  .225E-01
  .187E-01  .283E-01  .335E-01  .355E-01  .412E-01  .383E-01  .428E-01  .400E-01
  .481E-01  .577E-01  .769E-01  .877E-01  .961E-01  .110E+00  .105E+00  .933E-01
  .794E-01  .779E-01  .744E-01  .724E-01  .654E-01  .724E-01  .740E-01  .769E-01
  .851E-01  .891E-01  .929E-01  .964E-01  .945E-01  .108E+00  .104E+00  .852E-01
  .702E-01  .659E-01  .714E-01  .900E-01  .102E+00  .103E+00  .102E+00  .108E+00
  .102E+00  .839E-01  .794E-01  .700E-01  .576E-01  .450E-01  .347E-01  .313E-01
  .279E-01  .254E-01  .234E-01  .227E-01  .194E-01  .155E-01  .127E-01  .112E-01
  .103E-01  .958E-02  .895E-02  .837E-02  .779E-02  .726E-02  .679E-02  .641E-02
  .610E-02  .584E-02  .559E-02  .536E-02  .484E-02  .444E-02  .000E+00  .000E+00
  .000E+00  .000E+00  .000E+00  .000E+00  .000E+00  .000E+00  .000E+00  .000E+00
  .000E+00  .000E+00  .000E+00  .000E+00  .000E+00  .000E+00  .000E+00  .000E+00
  .000E+00  .000E+00  .000E+00  .000E+00
  .335E+02  .335E+02  .335E+02  .335E+02  .335E+02  .335E+02  .335E+02  .335E+02
  .308E+02  .318E+02  .313E+02  .335E+02  .335E+02  .336E+02  .319E+02  .319E+02
  .309E+02  .309E+02  .309E+02  .309E+02  .309E+02  .309E+02  .309E+02  .310E+02
  .310E+02  .310E+02  .310E+02  .310E+02  .334E+02  .308E+02  .308E+02  .307E+02
  .307E+02  .307E+02  .310E+02  .310E+02  .330E+02  .328E+02  .333E+02  .333E+02
  .357E+02  .363E+02  .313E+02  .314E+02  .314E+02  .315E+02  .320E+02  .320E+02
  .321E+02  .312E+02  .309E+02  .309E+02  .309E+02  .309E+02  .306E+02  .306E+02
  .306E+02  .306E+02  .306E+02  .362E+02  .306E+02  .306E+02  .306E+02  .306E+02
  .306E+02  .306E+02  .306E+02  .306E+02  .306E+02  .306E+02  .306E+02  .306E+02
  .306E+02  .306E+02  .306E+02  .306E+02  .306E+02  .306E+02  .000E+00  .000E+00
  .000E+00  .000E+00  .000E+00  .000E+00  .000E+00  .000E+00  .000E+00  .000E+00
  .000E+00  .000E+00  .000E+00  .000E+00  .000E+00  .000E+00  .000E+00  .000E+00
  .000E+00  .000E+00  .000E+00  .000E+00
  .335E+02  .335E+02  .312E+02  .313E+02  .335E+02  .335E+02  .335E+02  .336E+02
  .261E+02  .318E+02  .313E+02  .313E+02  .336E+02  .336E+02  .311E+02  .311E+02
  .319E+02  .309E+02  .311E+02  .311E+02  .311E+02  .311E+02  .310E+02  .310E+02
  .310E+02  .310E+02  .310E+02  .309E+02  .308E+02  .308E+02  .308E+02  .308E+02
  .308E+02  .308E+02  .329E+02  .311E+02  .329E+02  .329E+02  .327E+02  .332E+02
  .324E+02  .362E+02  .333E+02  .315E+02  .313E+02  .309E+02  .321E+02  .310E+02
  .328E+02  .311E+02  .311E+02  .307E+02  .307E+02  .307E+02  .308E+02  .308E+02
  .308E+02  .308E+02  .308E+02  .308E+02  .308E+02  .308E+02  .308E+02  .308E+02
  .308E+02  .308E+02  .308E+02  .308E+02  .308E+02  .308E+02  .308E+02  .308E+02
  .308E+02  .308E+02  .308E+02  .308E+02  .308E+02  .308E+02  .000E+00  .000E+00
  .000E+00  .000E+00  .000E+00  .000E+00  .000E+00  .000E+00  .000E+00  .000E+00
  .000E+00  .000E+00  .000E+00  .000E+00  .000E+00  .000E+00  .000E+00  .000E+00
  .000E+00  .000E+00  .000E+00  .000E+00
  .335E+02  .335E+02  .335E+02  .335E+02  .335E+02  .335E+02  .335E+02  .335E+02
  .308E+02  .318E+02  .313E+02  .335E+02  .335E+02  .336E+02  .319E+02  .319E+02
  .309E+02  .309E+02  .309E+02  .309E+02  .309E+02  .309E+02  .309E+02  .310E+02
  .310E+02  .310E+02  .310E+02  .310E+02  .334E+02  .308E+02  .308E+02  .307E+02
  .307E+02  .307E+02  .310E+02  .310E+02  .330E+02  .328E+02  .333E+02  .333E+02
  .357E+02  .363E+02  .313E+02  .314E+02  .314E+02  .311E+02  .320E+02  .320E+02
  .321E+02  .312E+02  .309E+02  .309E+02  .309E+02  .309E+02  .306E+02  .306E+02
  .306E+02  .306E+02  .306E+02  .362E+02  .306E+02  .306E+02  .306E+02  .306E+02
  .306E+02  .306E+02  .306E+02  .306E+02  .306E+02  .309E+02  .309E+02  .309E+02
  .309E+02  .309E+02  .309E+02  .309E+02  .309E+02  .309E+02  .000E+00  .000E+00
  .000E+00  .000E+00  .000E+00  .000E+00  .000E+00  .000E+00  .000E+00  .000E+00
  .000E+00  .000E+00  .000E+00  .000E+00  .000E+00  .000E+00  .000E+00  .000E+00
  .000E+00  .000E+00  .000E+00  .000E+00
/&   ----------  End of spectral data for channel  1  ----------
Response and Fourier amplitude spectra (78 periods,  .04 -  6.0 sec)   for      
Corrected accelerogram   38695658.CI.DJJ.--.HN      Chan  2: 360 Deg     from   
Uncorrected Accelerogram Data             Processed: 09/19/20, CGS  cidjj--u    
Rcrd of Fri Sep 18, 2020 23:38:28.0 PDT               (Avol1 v2.0, 4/18 CSMIP)  
                                        (Origin:  To be determined)             
38695658.CI.DJJ.--.HN                Start time:  9/19/20, 06:38:28.0 UTC (GPS) 
Station Id. DJJ     34.106N, 118.455W    ObsMMS  s/n 4238  (3 Chns of  3 at Sta)
Beverly Hills, Stone Canyon              SCSN   Data: Acceleration              
Chan  2: 360 Deg                                                                
Rcrd of Fri Sep 18, 2020 23:38:28.0 PDT    Fri Sep 18, 2020 23:38:28.0 PDT      
Hypocenter:  To be determined.               ML:  To be determined.             
Instr Period =  .0050 sec,  Damping =  .707,  Sensitivity = 4.99 v/g  (Nominal) 
                        Record Length =301.000 sec.                             
                                     Uncor Max  =  -.002 g, at   31.580 sec.    
RMS accel of (uncor) record  =        .   Chn. metadata effective date:         
Accelerogram bandpass filtered with 3 dB pts at   .30 and 23.00 cyc/sec         
                 instrument- and base-line correcte                             
                                                                                
                                                                                
                                                                                
                                                                                
                                                                                
Rcrd of Fri Sep 18, 2020 23:38:28.0 PDT    Fri Sep 18, 2020 23:38:28.0 PDT      
                                                                                
38695658.CI.DJJ.--.HN     Beverly Hills, Stone Canyon   Chan  2: 360 Deg        
                                                                                
38695658.CI.DJJ.--.HN     Beverly Hills, Stone Canyon   Chan  2: 360 Deg        
                                                                                
Units for spectra are inches and sec, except Sa is in fraction of g.            
                                                                                
    2  100    2    3    3  100 -999    3    1    0   15 4238    050541   41    0
    6   38   28    8  263    9   19 2020   10    3  36035880   39   27   74 -999
35880 -999  100    6 -999 -999 -999 -999 -999 -999 -999 -999 -999 -999 -999 -999
 -999 -999 -999 -99915050    2 -999    0 -999   20 -999 -999    3    1 -99915050
    315050    4   78    1    3    5    0    0 -999    0 -999 -999    6 -999    2
    2    2    4 -999 -999 -999 -999 -999 -999 -999 -999    1 -999 -999 -999  111
    1    1 -999 -999
      .005      .707   358.800      .000     1.000  4992.069     -.002    31.580
   200.000     2.384      .478  -999.000    10.000  -999.000     4.000  -999.000
    20.000    -6.570      .000  -999.000  -999.000  -999.000  -999.000      .000
      .000      .000     2.000    15.000    34.106  -118.455      .001      .001
     1.084      .000      .000   268.000  -999.000  -999.000  -999.000  -999.000
     1.000  -999.000  -999.000  -999.000  -999.000  -999.000  -999.000   120.000
     -.900     2.000     6.800   980.665      .020   301.000    31.831      .000
  -999.000    23.000  -999.000   301.000      .020      .300  -999.000  -999.000
    31.580    -1.555    31.680     -.052    32.300      .004      .000      .300
    23.000      .020      .020      .000      .020      .003  -999.000  -999.000
      .004      .240      .003      .003      .000      .000  -999.000  -999.000
  -999.000  -999.000  -999.000  -999.000  -999.000  -999.000  -999.000  -999.000
  -999.000  -999.000  -999.000  -999.000
      .050
      .040      .042      .044      .046      .048      .050      .055      .060
      .065      .070      .075      .080      .085      .090      .095      .100
      .110      .120      .130      .140      .150      .160      .170      .180
      .190      .200      .220      .240      .260      .280      .300      .320
      .340      .360      .380      .400      .420      .440      .460      .480
      .500      .550      .600      .650      .700      .750      .800      .850
      .900      .950     1.000     1.100     1.200     1.300     1.400     1.500
     1.600     1.700     1.800     1.900     2.000     2.200     2.400     2.600
     2.800     3.000     3.200     3.400     3.600     3.800     4.000     4.200
     4.400     4.600     4.800     5.000     5.500     6.000      .000      .000
      .000      .000      .000      .000      .000      .000      .000      .000
      .000      .000      .000      .000      .000      .000      .000      .000
      .000      .000      .000      .000
Fourier amplitude spectra in in/sec.
  .000E+00  .000E+00  .000E+00  .000E+00  .000E+00  .000E+00  .000E+00  .000E+00
  .000E+00  .000E+00  .000E+00  .000E+00  .000E+00  .000E+00  .000E+00  .000E+00
  .000E+00  .000E+00  .000E+00  .000E+00  .000E+00  .000E+00  .000E+00  .000E+00
  .000E+00  .000E+00  .000E+00  .000E+00  .000E+00  .000E+00  .000E+00  .000E+00
  .000E+00  .000E+00  .000E+00  .000E+00  .000E+00  .000E+00  .000E+00  .000E+00
  .000E+00  .000E+00  .000E+00  .000E+00  .000E+00  .000E+00  .000E+00  .000E+00
  .000E+00  .000E+00  .000E+00  .000E+00  .000E+00  .000E+00  .000E+00  .000E+00
  .000E+00  .000E+00  .000E+00  .000E+00  .000E+00  .000E+00  .000E+00  .000E+00
  .000E+00  .000E+00  .000E+00  .000E+00  .000E+00  .000E+00  .000E+00  .000E+00
  .000E+00  .000E+00  .000E+00  .000E+00  .000E+00  .000E+00  .000E+00  .000E+00
  .000E+00  .000E+00  .000E+00  .000E+00  .000E+00  .000E+00  .000E+00  .000E+00
  .000E+00  .000E+00  .000E+00  .000E+00  .000E+00  .000E+00  .000E+00  .000E+00
  .000E+00  .000E+00  .000E+00  .000E+00
Damping =  .05. Data of Sd,Sv,Sa,Pssv,ttSd,ttSv,ttSa :
  .296E-04  .345E-04  .394E-04  .408E-04  .495E-04  .613E-04  .996E-04  .109E-03
  .124E-03  .163E-03  .170E-03  .198E-03  .249E-03  .305E-03  .329E-03  .293E-03
  .309E-03  .386E-03  .455E-03  .477E-03  .522E-03  .499E-03  .657E-03  .681E-03
  .702E-03  .913E-03  .160E-02  .233E-02  .207E-02  .248E-02  .241E-02  .247E-02
  .257E-02  .251E-02  .249E-02  .222E-02  .222E-02  .204E-02  .204E-02  .245E-02
