Response and Fourier amplitude spectra (78 periods,  .04 -  6.0 sec)   for      
Corrected accelerogram   38695658.CI.DLA.--.HN      Chan  1:  90 Deg     from   
Uncorrected Accelerogram Data             Processed: 09/19/20, CGS  cidla--s    
Rcrd of Fri Sep 18, 2020 23:38:29.0 PDT               (Avol1 v2.0, 4/18 CSMIP)  
                                        (Origin:  To be determined)             
38695658.CI.DLA.--.HN                Start time:  9/19/20, 06:38:29.0 UTC (GPS) 
Station Id. DLA     33.848N, 118.096W    ObsMMS  s/n 4315  (3 Chns of  6 at Sta)
Cerritos, State Rd and Del Amo Blvd.     SCSN   Data: Acceleration              
Chan  1:  90 Deg                                                                
Rcrd of Fri Sep 18, 2020 23:38:29.0 PDT    Fri Sep 18, 2020 23:38:29.0 PDT      
Hypocenter:  To be determined.               ML:  To be determined.             
Instr Period =  .0050 sec,  Damping =  .707,  Sensitivity = 4.99 v/g  (Nominal) 
                        Record Length =301.000 sec.                             
                                     Uncor Max  =   .095 g, at   28.210 sec.    
RMS accel of (uncor) record  =        .   Chn. metadata effective date:         
Accelerogram bandpass filtered with 3 dB pts at   .30 and 23.00 cyc/sec         
                 instrument- and base-line correcte                             
                                                                                
                                                                                
                                                                                
                                                                                
                                                                                
Rcrd of Fri Sep 18, 2020 23:38:29.0 PDT    Fri Sep 18, 2020 23:38:29.0 PDT      
                                                                                
38695658.CI.DLA.--.HN     Cerritos, State Rd and Del Amo Blvd.    Chan  1:  90 D
eg                                                                              
38695658.CI.DLA.--.HN     Cerritos, State Rd and Del Amo Blvd.    Chan  1:  90 D
eg                                                                              
Units for spectra are inches and sec, except Sa is in fraction of g.            
                                                                                
    1  100    1    6    6  100 -999    3    1    0   15 4315    050605   41    0
    6   38   29    8  263    9   19 2020   10    3   9035594   39   36   74 -999
35594 -999  100    6 -999 -999 -999 -999 -999 -999 -999 -999 -999 -999 -999 -999
 -999 -999 -999 -99915050    2 -999    0 -999   20 -999 -999    3    1 -99915050
    315050    4   78    1    3    5    0    0 -999    0 -999 -999    6 -999    2
    2    2    4 -999 -999 -999 -999 -999 -999 -999 -999    1 -999 -999 -999  111
    1    1 -999 -999
      .005      .707   355.940      .002     1.000  4988.080      .095    28.210
   200.000     2.384      .478  -999.000    10.000  -999.000     4.000  -999.000
    20.000   -12.942      .000  -999.000  -999.000  -999.000  -999.000      .001
      .000     -.001     2.000    15.000    33.848  -118.096      .009      .013
     1.385     -.003      .001    14.000  -999.000  -999.000  -999.000  -999.000
     1.000  -999.000    -8.000  -999.000  -999.000  -999.000  -999.000   120.000
     -.900     2.000     6.800   980.665      .020   301.000    31.831      .000
  -999.000    23.000  -999.000   301.000      .020      .300  -999.000  -999.000
    28.200    84.919    28.820    -1.867    28.880     -.099      .000      .300
    23.000      .020      .020      .000      .820      .048  -999.000  -999.000
      .297      .090      .206      .071      .004      .001  -999.000  -999.000
  -999.000  -999.000  -999.000  -999.000  -999.000  -999.000  -999.000  -999.000
  -999.000  -999.000  -999.000  -999.000
      .050
      .040      .042      .044      .046      .048      .050      .055      .060
      .065      .070      .075      .080      .085      .090      .095      .100
      .110      .120      .130      .140      .150      .160      .170      .180
      .190      .200      .220      .240      .260      .280      .300      .320
      .340      .360      .380      .400      .420      .440      .460      .480
      .500      .550      .600      .650      .700      .750      .800      .850
      .900      .950     1.000     1.100     1.200     1.300     1.400     1.500
     1.600     1.700     1.800     1.900     2.000     2.200     2.400     2.600
     2.800     3.000     3.200     3.400     3.600     3.800     4.000     4.200
     4.400     4.600     4.800     5.000     5.500     6.000      .000      .000
      .000      .000      .000      .000      .000      .000      .000      .000
      .000      .000      .000      .000      .000      .000      .000      .000
      .000      .000      .000      .000
Fourier amplitude spectra in in/sec.
  .000E+00  .000E+00  .000E+00  .000E+00  .000E+00  .000E+00  .000E+00  .000E+00
  .000E+00  .000E+00  .000E+00  .000E+00  .000E+00  .000E+00  .000E+00  .000E+00
  .000E+00  .000E+00  .000E+00  .000E+00  .000E+00  .000E+00  .000E+00  .000E+00
  .000E+00  .000E+00  .000E+00  .000E+00  .000E+00  .000E+00  .000E+00  .000E+00
  .000E+00  .000E+00  .000E+00  .000E+00  .000E+00  .000E+00  .000E+00  .000E+00
  .000E+00  .000E+00  .000E+00  .000E+00  .000E+00  .000E+00  .000E+00  .000E+00
  .000E+00  .000E+00  .000E+00  .000E+00  .000E+00  .000E+00  .000E+00  .000E+00
  .000E+00  .000E+00  .000E+00  .000E+00  .000E+00  .000E+00  .000E+00  .000E+00
  .000E+00  .000E+00  .000E+00  .000E+00  .000E+00  .000E+00  .000E+00  .000E+00
  .000E+00  .000E+00  .000E+00  .000E+00  .000E+00  .000E+00  .000E+00  .000E+00
  .000E+00  .000E+00  .000E+00  .000E+00  .000E+00  .000E+00  .000E+00  .000E+00
  .000E+00  .000E+00  .000E+00  .000E+00  .000E+00  .000E+00  .000E+00  .000E+00
  .000E+00  .000E+00  .000E+00  .000E+00
Damping =  .05. Data of Sd,Sv,Sa,Pssv,ttSd,ttSv,ttSa :
  .163E-02  .181E-02  .198E-02  .218E-02  .241E-02  .263E-02  .348E-02  .417E-02
  .541E-02  .820E-02  .115E-01  .154E-01  .201E-01  .234E-01  .249E-01  .260E-01
  .254E-01  .204E-01  .274E-01  .286E-01  .276E-01  .384E-01  .608E-01  .691E-01
  .656E-01  .731E-01  .115E+00  .120E+00  .965E-01  .779E-01  .571E-01  .479E-01
  .503E-01  .582E-01  .625E-01  .740E-01  .818E-01  .845E-01  .868E-01  .885E-01
  .946E-01  .874E-01  .713E-01  .699E-01  .665E-01  .611E-01  .551E-01  .497E-01
  .451E-01  .413E-01  .381E-01  .371E-01  .399E-01  .414E-01  .413E-01  .406E-01
  .402E-01  .404E-01  .410E-01  .417E-01  .421E-01  .423E-01  .418E-01  .414E-01
  .410E-01  .406E-01  .404E-01  .402E-01  .399E-01  .397E-01  .396E-01  .395E-01
  .394E-01  .393E-01  .392E-01  .392E-01  .391E-01  .390E-01  .000E+00  .000E+00
  .000E+00  .000E+00  .000E+00  .000E+00  .000E+00  .000E+00  .000E+00  .000E+00
  .000E+00  .000E+00  .000E+00  .000E+00  .000E+00  .000E+00  .000E+00  .000E+00
  .000E+00  .000E+00  .000E+00  .000E+00
  .971E-01  .111E+00  .130E+00  .148E+00  .170E+00  .192E+00  .250E+00  .298E+00
  .335E+00  .493E+00  .770E+00  .107E+01  .133E+01  .150E+01  .155E+01  .154E+01
  .140E+01  .109E+01  .109E+01  .115E+01  .107E+01  .136E+01  .214E+01  .241E+01
  .221E+01  .223E+01  .320E+01  .329E+01  .276E+01  .196E+01  .155E+01  .153E+01
  .146E+01  .139E+01  .136E+01  .150E+01  .149E+01  .138E+01  .130E+01  .133E+01
  .137E+01  .143E+01  .138E+01  .119E+01  .991E+00  .878E+00  .866E+00  .845E+00
  .822E+00  .800E+00  .780E+00  .740E+00  .710E+00  .705E+00  .709E+00  .709E+00
  .706E+00  .704E+00  .704E+00  .704E+00  .706E+00  .709E+00  .710E+00  .711E+00
  .710E+00  .710E+00  .710E+00  .710E+00  .709E+00  .709E+00  .709E+00  .708E+00
  .708E+00  .708E+00  .708E+00  .708E+00  .707E+00  .707E+00  .000E+00  .000E+00
  .000E+00  .000E+00  .000E+00  .000E+00  .000E+00  .000E+00  .000E+00  .000E+00
  .000E+00  .000E+00  .000E+00  .000E+00  .000E+00  .000E+00  .000E+00  .000E+00
  .000E+00  .000E+00  .000E+00  .000E+00
  .105E+00  .105E+00  .105E+00  .106E+00  .107E+00  .108E+00  .118E+00  .118E+00
  .132E+00  .173E+00  .209E+00  .249E+00  .288E+00  .297E+00  .279E+00  .270E+00
  .217E+00  .144E+00  .168E+00  .151E+00  .125E+00  .155E+00  .216E+00  .219E+00
  .186E+00  .188E+00  .243E+00  .214E+00  .146E+00  .100E+00  .656E-01  .485E-01
  .452E-01  .466E-01  .457E-01  .469E-01  .479E-01  .455E-01  .418E-01  .399E-01
  .389E-01  .296E-01  .204E-01  .174E-01  .142E-01  .113E-01  .893E-02  .716E-02
  .584E-02  .483E-02  .406E-02  .342E-02  .311E-02  .277E-02  .241E-02  .209E-02
  .185E-02  .166E-02  .152E-02  .140E-02  .129E-02  .110E-02  .938E-03  .823E-03
  .732E-03  .657E-03  .596E-03  .544E-03  .500E-03  .462E-03  .430E-03  .401E-03
  .376E-03  .354E-03  .334E-03  .316E-03  .279E-03  .249E-03  .000E+00  .000E+00
  .000E+00  .000E+00  .000E+00  .000E+00  .000E+00  .000E+00  .000E+00  .000E+00
  .000E+00  .000E+00  .000E+00  .000E+00  .000E+00  .000E+00  .000E+00  .000E+00
  .000E+00  .000E+00  .000E+00  .000E+00
  .256E+00  .270E+00  .283E+00  .298E+00  .315E+00  .330E+00  .397E+00  .437E+00
  .523E+00  .736E+00  .963E+00  .121E+01  .149E+01  .164E+01  .165E+01  .163E+01
  .145E+01  .107E+01  .132E+01  .129E+01  .116E+01  .151E+01  .225E+01  .241E+01
  .217E+01  .230E+01  .327E+01  .315E+01  .233E+01  .175E+01  .120E+01  .940E+00
  .930E+00  .102E+01  .103E+01  .116E+01  .122E+01  .121E+01  .118E+01  .116E+01
  .119E+01  .999E+00  .746E+00  .675E+00  .597E+00  .512E+00  .433E+00  .368E+00
  .315E+00  .273E+00  .239E+00  .212E+00  .209E+00  .200E+00  .185E+00  .170E+00
  .158E+00  .149E+00  .143E+00  .138E+00  .132E+00  .121E+00  .110E+00  .100E+00
  .920E-01  .851E-01  .793E-01  .742E-01  .696E-01  .657E-01  .622E-01  .591E-01
  .562E-01  .536E-01  .513E-01  .493E-01  .447E-01  .409E-01  .000E+00  .000E+00
  .000E+00  .000E+00  .000E+00  .000E+00  .000E+00  .000E+00  .000E+00  .000E+00
  .000E+00  .000E+00  .000E+00  .000E+00  .000E+00  .000E+00  .000E+00  .000E+00
  .000E+00  .000E+00  .000E+00  .000E+00
  .282E+02  .282E+02  .282E+02  .282E+02  .282E+02  .282E+02  .283E+02  .283E+02
  .282E+02  .282E+02  .282E+02  .283E+02  .283E+02  .283E+02  .283E+02  .283E+02
  .283E+02  .283E+02  .289E+02  .290E+02  .287E+02  .289E+02  .290E+02  .290E+02
  .290E+02  .290E+02  .290E+02  .289E+02  .287E+02  .288E+02  .288E+02  .282E+02
  .288E+02  .288E+02  .288E+02  .286E+02  .286E+02  .287E+02  .287E+02  .289E+02
  .290E+02  .290E+02  .285E+02  .285E+02  .285E+02  .285E+02  .285E+02  .285E+02
  .285E+02  .285E+02  .285E+02  .289E+02  .289E+02  .289E+02  .289E+02  .289E+02
  .289E+02  .289E+02  .289E+02  .289E+02  .289E+02  .289E+02  .289E+02  .289E+02
  .289E+02  .289E+02  .289E+02  .289E+02  .289E+02  .289E+02  .289E+02  .289E+02
  .289E+02  .289E+02  .289E+02  .289E+02  .289E+02  .289E+02  .000E+00  .000E+00
  .000E+00  .000E+00  .000E+00  .000E+00  .000E+00  .000E+00  .000E+00  .000E+00
  .000E+00  .000E+00  .000E+00  .000E+00  .000E+00  .000E+00  .000E+00  .000E+00
  .000E+00  .000E+00  .000E+00  .000E+00
  .282E+02  .282E+02  .282E+02  .282E+02  .282E+02  .282E+02  .282E+02  .283E+02
  .283E+02  .282E+02  .282E+02  .283E+02  .283E+02  .283E+02  .283E+02  .283E+02
  .283E+02  .283E+02  .289E+02  .294E+02  .291E+02  .291E+02  .290E+02  .290E+02
  .291E+02  .290E+02  .290E+02  .289E+02  .288E+02  .288E+02  .282E+02  .282E+02
  .282E+02  .282E+02  .287E+02  .287E+02  .287E+02  .287E+02  .290E+02  .286E+02
  .286E+02  .289E+02  .289E+02  .289E+02  .289E+02  .285E+02  .285E+02  .285E+02
  .285E+02  .285E+02  .285E+02  .285E+02  .285E+02  .288E+02  .288E+02  .288E+02
  .288E+02  .288E+02  .288E+02  .288E+02  .288E+02  .288E+02  .288E+02  .288E+02
  .288E+02  .288E+02  .288E+02  .288E+02  .288E+02  .288E+02  .288E+02  .288E+02
  .288E+02  .288E+02  .288E+02  .288E+02  .288E+02  .288E+02  .000E+00  .000E+00
  .000E+00  .000E+00  .000E+00  .000E+00  .000E+00  .000E+00  .000E+00  .000E+00
  .000E+00  .000E+00  .000E+00  .000E+00  .000E+00  .000E+00  .000E+00  .000E+00
  .000E+00  .000E+00  .000E+00  .000E+00
  .282E+02  .282E+02  .282E+02  .282E+02  .282E+02  .282E+02  .283E+02  .283E+02
  .282E+02  .282E+02  .282E+02  .283E+02  .283E+02  .283E+02  .283E+02  .283E+02
  .283E+02  .283E+02  .289E+02  .290E+02  .287E+02  .290E+02  .290E+02  .290E+02
  .290E+02  .290E+02  .290E+02  .289E+02  .287E+02  .288E+02  .288E+02  .282E+02
  .282E+02  .288E+02  .288E+02  .286E+02  .286E+02  .286E+02  .287E+02  .289E+02
  .289E+02  .290E+02  .285E+02  .285E+02  .288E+02  .285E+02  .285E+02  .285E+02
  .285E+02  .285E+02  .285E+02  .288E+02  .288E+02  .288E+02  .288E+02  .288E+02
  .288E+02  .288E+02  .288E+02  .288E+02  .288E+02  .288E+02  .288E+02  .288E+02
  .288E+02  .288E+02  .288E+02  .288E+02  .288E+02  .288E+02  .288E+02  .288E+02
  .288E+02  .288E+02  .288E+02  .288E+02  .288E+02  .288E+02  .000E+00  .000E+00
  .000E+00  .000E+00  .000E+00  .000E+00  .000E+00  .000E+00  .000E+00  .000E+00
  .000E+00  .000E+00  .000E+00  .000E+00  .000E+00  .000E+00  .000E+00  .000E+00
  .000E+00  .000E+00  .000E+00  .000E+00
/&   ----------  End of spectral data for channel  1  ----------
Response and Fourier amplitude spectra (78 periods,  .04 -  6.0 sec)   for      
Corrected accelerogram   38695658.CI.DLA.--.HN      Chan  2: 360 Deg     from   
Uncorrected Accelerogram Data             Processed: 09/19/20, CGS  cidla--s    
Rcrd of Fri Sep 18, 2020 23:38:29.0 PDT               (Avol1 v2.0, 4/18 CSMIP)  
                                        (Origin:  To be determined)             
38695658.CI.DLA.--.HN                Start time:  9/19/20, 06:38:29.0 UTC (GPS) 
Station Id. DLA     33.848N, 118.096W    ObsMMS  s/n 4315  (3 Chns of  6 at Sta)
Cerritos, State Rd and Del Amo Blvd.     SCSN   Data: Acceleration              
Chan  2: 360 Deg                                                                
Rcrd of Fri Sep 18, 2020 23:38:29.0 PDT    Fri Sep 18, 2020 23:38:29.0 PDT      
Hypocenter:  To be determined.               ML:  To be determined.             
Instr Period =  .0050 sec,  Damping =  .707,  Sensitivity = 4.98 v/g  (Nominal) 
                        Record Length =301.000 sec.                             
                                     Uncor Max  =  -.123 g, at   28.750 sec.    
RMS accel of (uncor) record  =        .   Chn. metadata effective date:         
Accelerogram bandpass filtered with 3 dB pts at   .30 and 23.00 cyc/sec         
                 instrument- and base-line correcte                             
                                                                                
                                                                                
                                                                                
                                                                                
                                                                                
Rcrd of Fri Sep 18, 2020 23:38:29.0 PDT    Fri Sep 18, 2020 23:38:29.0 PDT      
                                                                                
38695658.CI.DLA.--.HN     Cerritos, State Rd and Del Amo Blvd.    Chan  2: 360 D
eg                                                                              
38695658.CI.DLA.--.HN     Cerritos, State Rd and Del Amo Blvd.    Chan  2: 360 D
eg                                                                              
Units for spectra are inches and sec, except Sa is in fraction of g.            
                                                                                
    2  100    2    6    6  100 -999    3    1    0   15 4315    050605   41    0
    6   38   29    8  263    9   19 2020   10    3  36035496   39   36   74 -999
35496 -999  100    6 -999 -999 -999 -999 -999 -999 -999 -999 -999 -999 -999 -999
 -999 -999 -999 -99915050    2 -999    0 -999   20 -999 -999    3    1 -99915050
    315050    4   78    1    3    5    0    0 -999    0 -999 -999    6 -999    2
    2    2    4 -999 -999 -999 -999 -999 -999 -999 -999    1 -999 -999 -999  111
    1    1 -999 -999
      .005      .707   354.960      .003     1.000  4983.293     -.123    28.750
   200.000     2.384      .478  -999.000    10.000  -999.000     4.000  -999.000
    20.000   -17.904      .000  -999.000  -999.000  -999.000  -999.000      .001
      .000      .000     2.000    15.000    33.848  -118.096      .010      .013
     1.317     -.002      .002    14.000  -999.000  -999.000  -999.000  -999.000
     1.000  -999.000  -999.000  -999.000  -999.000  -999.000  -999.000   120.000
     -.900     2.000     6.800   980.665      .020   301.000    31.831      .000
  -999.000    23.000  -999.000   301.000      .020      .300  -999.000  -999.000
    28.760  -115.974    28.820    -3.809    28.580      .194      .000      .300
    23.000      .020      .020      .000      .820      .057  -999.000  -999.000
      .486      .170      .370      .135      .009      .001  -999.000  -999.000
  -999.000  -999.000  -999.000  -999.000  -999.000  -999.000  -999.000  -999.000
  -999.000  -999.000  -999.000  -999.000
      .050
      .040      .042      .044      .046      .048      .050      .055      .060
      .065      .070      .075      .080      .085      .090      .095      .100
      .110      .120      .130      .140      .150      .160      .170      .180
      .190      .200      .220      .240      .260      .280      .300      .320
      .340      .360      .380      .400      .420      .440      .460      .480
      .500      .550      .600      .650      .700      .750      .800      .850
      .900      .950     1.000     1.100     1.200     1.300     1.400     1.500
     1.600     1.700     1.800     1.900     2.000     2.200     2.400     2.600
     2.800     3.000     3.200     3.400     3.600     3.800     4.000     4.200
     4.400     4.600     4.800     5.000     5.500     6.000      .000      .000
      .000      .000      .000      .000      .000      .000      .000      .000
      .000      .000      .000      .000      .000      .000      .000      .000
      .000      .000      .000      .000
Fourier amplitude spectra in in/sec.
  .000E+00  .000E+00  .000E+00  .000E+00  .000E+00  .000E+00  .000E+00  .000E+00
  .000E+00  .000E+00  .000E+00  .000E+00  .000E+00  .000E+00  .000E+00  .000E+00
  .000E+00  .000E+00  .000E+00  .000E+00  .000E+00  .000E+00  .000E+00  .000E+00
  .000E+00  .000E+00  .000E+00  .000E+00  .000E+00  .000E+00  .000E+00  .000E+00
  .000E+00  .000E+00  .000E+00  .000E+00  .000E+00  .000E+00  .000E+00  .000E+00
  .000E+00  .000E+00  .000E+00  .000E+00  .000E+00  .000E+00  .000E+00  .000E+00
  .000E+00  .000E+00  .000E+00  .000E+00  .000E+00  .000E+00  .000E+00  .000E+00
  .000E+00  .000E+00  .000E+00  .000E+00  .000E+00  .000E+00  .000E+00  .000E+00
  .000E+00  .000E+00  .000E+00  .000E+00  .000E+00  .000E+00  .000E+00  .000E+00
  .000E+00  .000E+00  .000E+00  .000E+00  .000E+00  .000E+00  .000E+00  .000E+00
  .000E+00  .000E+00  .000E+00  .000E+00  .000E+00  .000E+00  .000E+00  .000E+00
  .000E+00  .000E+00  .000E+00  .000E+00  .000E+00  .000E+00  .000E+00  .000E+00
  .000E+00  .000E+00  .000E+00  .000E+00
Damping =  .05. Data of Sd,Sv,Sa,Pssv,ttSd,ttSv,ttSa :
  .203E-02  .226E-02  .254E-02  .283E-02  .315E-02  .346E-02  .449E-02  .534E-02
  .686E-02  .842E-02  .106E-01  .119E-01  .139E-01  .175E-01  .200E-01  .228E-01
  .346E-01  .376E-01  .607E-01  .658E-01  .716E-01  .109E+00  .138E+00  .136E+00
  .125E+00  .133E+00  .189E+00  .188E+00  .163E+00  .143E+00  .105E+00  .949E-01
  .941E-01  .104E+00  .126E+00  .144E+00  .154E+00  .152E+00  .160E+00  .176E+00
