Response and Fourier amplitude spectra (78 periods,  .04 -  6.0 sec)   for      
Corrected accelerogram   38695658.CI.DNR.--.HN      Chan  1:  90 Deg     from   
Uncorrected Accelerogram Data             Processed: 09/19/20, CGS  cidnr--a    
Rcrd of Fri Sep 18, 2020 23:38:43.0 PDT               (Avol1 v2.0, 4/18 CSMIP)  
                                        (Origin:  To be determined)             
38695658.CI.DNR.--.HN                Start time:  9/19/20, 06:38:43.0 UTC (GPS) 
Station Id. DNR     33.567N, 116.631W    ObsMMS  s/n 3931  (3 Chns of  3 at Sta)
Anza, Mitchell Rd.                       SCSN   Data: Acceleration              
Chan  1:  90 Deg                                                                
Rcrd of Fri Sep 18, 2020 23:38:43.0 PDT    Fri Sep 18, 2020 23:38:43.0 PDT      
Hypocenter:  To be determined.               ML:  To be determined.             
Instr Period =  .0050 sec,  Damping =  .707,  Sensitivity = 4.99 v/g  (Nominal) 
                        Record Length =301.000 sec.                             
                                     Uncor Max  =  -.002 g, at   48.110 sec.    
RMS accel of (uncor) record  =        .   Chn. metadata effective date:         
Accelerogram bandpass filtered with 3 dB pts at   .30 and 23.00 cyc/sec         
                 instrument- and base-line correcte                             
                                                                                
                                                                                
                                                                                
                                                                                
                                                                                
Rcrd of Fri Sep 18, 2020 23:38:43.0 PDT    Fri Sep 18, 2020 23:38:43.0 PDT      
                                                                                
38695658.CI.DNR.--.HN     Anza, Mitchell Rd.    Chan  1:  90 Deg                
                                                                                
38695658.CI.DNR.--.HN     Anza, Mitchell Rd.    Chan  1:  90 Deg                
                                                                                
Units for spectra are inches and sec, except Sa is in fraction of g.            
                                                                                
    1  100    1    3    3  100 -999    3    1    0   15 3931    050678   41    0
    6   38   43    8  263    9   19 2020   10    3   9036187   39   18   74 -999
36187 -999  100    6 -999 -999 -999 -999 -999 -999 -999 -999 -999 -999 -999 -999
 -999 -999 -999 -99915050    2 -999    0 -999   20 -999 -999    3    1 -99915050
    315050    4   78    1    3    5    0    0 -999    0 -999 -999    6 -999    2
    2    2    4 -999 -999 -999 -999 -999 -999 -999 -999    1 -999 -999 -999  111
    1    1 -999 -999
      .005      .707   361.870      .000     1.000  4993.665     -.002    48.110
   200.000     2.384      .477  -999.000    10.000  -999.000     4.000  -999.000
    20.000   -11.510      .000  -999.000  -999.000  -999.000  -999.000     -.001
      .000      .001     2.000    15.000    33.567  -116.631      .001      .002
     1.763      .001      .002  1274.000  -999.000  -999.000  -999.000  -999.000
     1.000  -999.000    -8.000  -999.000  -999.000  -999.000  -999.000   120.000
     -.900     2.000     6.800   980.665      .020   301.000    31.831      .000
  -999.000    23.000  -999.000   301.000      .020      .300  -999.000  -999.000
    46.360    -2.226    46.300      .102    45.720      .008      .000      .300
    23.000      .020      .020      .000      .020      .006  -999.000  -999.000
      .008      .300      .005      .008      .001      .000  -999.000  -999.000
  -999.000  -999.000  -999.000  -999.000  -999.000  -999.000  -999.000  -999.000
  -999.000  -999.000  -999.000  -999.000
      .050
      .040      .042      .044      .046      .048      .050      .055      .060
      .065      .070      .075      .080      .085      .090      .095      .100
      .110      .120      .130      .140      .150      .160      .170      .180
      .190      .200      .220      .240      .260      .280      .300      .320
      .340      .360      .380      .400      .420      .440      .460      .480
      .500      .550      .600      .650      .700      .750      .800      .850
      .900      .950     1.000     1.100     1.200     1.300     1.400     1.500
     1.600     1.700     1.800     1.900     2.000     2.200     2.400     2.600
     2.800     3.000     3.200     3.400     3.600     3.800     4.000     4.200
     4.400     4.600     4.800     5.000     5.500     6.000      .000      .000
      .000      .000      .000      .000      .000      .000      .000      .000
      .000      .000      .000      .000      .000      .000      .000      .000
      .000      .000      .000      .000
Fourier amplitude spectra in in/sec.
  .000E+00  .000E+00  .000E+00  .000E+00  .000E+00  .000E+00  .000E+00  .000E+00
  .000E+00  .000E+00  .000E+00  .000E+00  .000E+00  .000E+00  .000E+00  .000E+00
  .000E+00  .000E+00  .000E+00  .000E+00  .000E+00  .000E+00  .000E+00  .000E+00
  .000E+00  .000E+00  .000E+00  .000E+00  .000E+00  .000E+00  .000E+00  .000E+00
  .000E+00  .000E+00  .000E+00  .000E+00  .000E+00  .000E+00  .000E+00  .000E+00
  .000E+00  .000E+00  .000E+00  .000E+00  .000E+00  .000E+00  .000E+00  .000E+00
  .000E+00  .000E+00  .000E+00  .000E+00  .000E+00  .000E+00  .000E+00  .000E+00
  .000E+00  .000E+00  .000E+00  .000E+00  .000E+00  .000E+00  .000E+00  .000E+00
  .000E+00  .000E+00  .000E+00  .000E+00  .000E+00  .000E+00  .000E+00  .000E+00
  .000E+00  .000E+00  .000E+00  .000E+00  .000E+00  .000E+00  .000E+00  .000E+00
  .000E+00  .000E+00  .000E+00  .000E+00  .000E+00  .000E+00  .000E+00  .000E+00
  .000E+00  .000E+00  .000E+00  .000E+00  .000E+00  .000E+00  .000E+00  .000E+00
  .000E+00  .000E+00  .000E+00  .000E+00
Damping =  .05. Data of Sd,Sv,Sa,Pssv,ttSd,ttSv,ttSa :
  .363E-04  .402E-04  .442E-04  .489E-04  .535E-04  .586E-04  .703E-04  .881E-04
  .104E-03  .134E-03  .166E-03  .198E-03  .249E-03  .283E-03  .384E-03  .549E-03
  .741E-03  .922E-03  .916E-03  .130E-02  .169E-02  .148E-02  .124E-02  .159E-02
  .198E-02  .194E-02  .259E-02  .363E-02  .437E-02  .567E-02  .724E-02  .736E-02
  .733E-02  .672E-02  .620E-02  .732E-02  .823E-02  .772E-02  .860E-02  .872E-02
  .819E-02  .815E-02  .904E-02  .902E-02  .946E-02  .821E-02  .911E-02  .956E-02
  .919E-02  .918E-02  .896E-02  .988E-02  .926E-02  .803E-02  .810E-02  .842E-02
  .800E-02  .710E-02  .706E-02  .693E-02  .673E-02  .601E-02  .555E-02  .505E-02
  .448E-02  .398E-02  .388E-02  .380E-02  .366E-02  .357E-02  .352E-02  .347E-02
  .344E-02  .343E-02  .342E-02  .342E-02  .342E-02  .340E-02  .000E+00  .000E+00
  .000E+00  .000E+00  .000E+00  .000E+00  .000E+00  .000E+00  .000E+00  .000E+00
  .000E+00  .000E+00  .000E+00  .000E+00  .000E+00  .000E+00  .000E+00  .000E+00
  .000E+00  .000E+00  .000E+00  .000E+00
  .164E-02  .184E-02  .208E-02  .234E-02  .254E-02  .279E-02  .349E-02  .481E-02
  .597E-02  .699E-02  .821E-02  .116E-01  .129E-01  .165E-01  .187E-01  .249E-01
  .381E-01  .373E-01  .384E-01  .520E-01  .622E-01  .544E-01  .426E-01  .467E-01
  .586E-01  .555E-01  .732E-01  .970E-01  .993E-01  .122E+00  .146E+00  .152E+00
  .142E+00  .124E+00  .111E+00  .130E+00  .128E+00  .123E+00  .111E+00  .124E+00
  .120E+00  .105E+00  .982E-01  .112E+00  .987E-01  .971E-01  .928E-01  .796E-01
  .662E-01  .657E-01  .700E-01  .777E-01  .804E-01  .754E-01  .689E-01  .601E-01
  .531E-01  .499E-01  .463E-01  .431E-01  .417E-01  .448E-01  .446E-01  .430E-01
  .410E-01  .398E-01  .395E-01  .395E-01  .396E-01  .396E-01  .396E-01  .396E-01
  .396E-01  .395E-01  .395E-01  .394E-01  .394E-01  .394E-01  .000E+00  .000E+00
  .000E+00  .000E+00  .000E+00  .000E+00  .000E+00  .000E+00  .000E+00  .000E+00
  .000E+00  .000E+00  .000E+00  .000E+00  .000E+00  .000E+00  .000E+00  .000E+00
  .000E+00  .000E+00  .000E+00  .000E+00
  .232E-02  .233E-02  .234E-02  .236E-02  .237E-02  .240E-02  .237E-02  .251E-02
  .253E-02  .281E-02  .301E-02  .317E-02  .350E-02  .356E-02  .434E-02  .561E-02
  .619E-02  .657E-02  .550E-02  .691E-02  .774E-02  .596E-02  .444E-02  .503E-02
  .560E-02  .504E-02  .545E-02  .650E-02  .660E-02  .738E-02  .821E-02  .745E-02
  .644E-02  .537E-02  .444E-02  .472E-02  .482E-02  .412E-02  .421E-02  .390E-02
  .337E-02  .276E-02  .260E-02  .221E-02  .201E-02  .150E-02  .147E-02  .137E-02
  .117E-02  .106E-02  .933E-03  .848E-03  .672E-03  .490E-03  .427E-03  .389E-03
  .327E-03  .259E-03  .227E-03  .200E-03  .176E-03  .130E-03  .101E-03  .788E-04
  .607E-04  .479E-04  .420E-04  .371E-04  .326E-04  .296E-04  .270E-04  .250E-04
  .233E-04  .217E-04  .203E-04  .189E-04  .161E-04  .142E-04  .000E+00  .000E+00
  .000E+00  .000E+00  .000E+00  .000E+00  .000E+00  .000E+00  .000E+00  .000E+00
  .000E+00  .000E+00  .000E+00  .000E+00  .000E+00  .000E+00  .000E+00  .000E+00
  .000E+00  .000E+00  .000E+00  .000E+00
  .570E-02  .601E-02  .632E-02  .668E-02  .701E-02  .737E-02  .804E-02  .922E-02
  .101E-01  .120E-01  .139E-01  .156E-01  .184E-01  .197E-01  .254E-01  .345E-01
  .423E-01  .483E-01  .443E-01  .585E-01  .709E-01  .579E-01  .459E-01  .555E-01
  .655E-01  .608E-01  .740E-01  .950E-01  .106E+00  .127E+00  .152E+00  .145E+00
  .135E+00  .117E+00  .103E+00  .115E+00  .123E+00  .110E+00  .117E+00  .114E+00
  .103E+00  .931E-01  .947E-01  .872E-01  .849E-01  .688E-01  .715E-01  .707E-01
  .642E-01  .607E-01  .563E-01  .564E-01  .485E-01  .388E-01  .363E-01  .353E-01
  .314E-01  .262E-01  .246E-01  .229E-01  .211E-01  .172E-01  .145E-01  .122E-01
  .101E-01  .835E-02  .762E-02  .703E-02  .638E-02  .590E-02  .553E-02  .518E-02
  .491E-02  .468E-02  .447E-02  .429E-02  .391E-02  .357E-02  .000E+00  .000E+00
  .000E+00  .000E+00  .000E+00  .000E+00  .000E+00  .000E+00  .000E+00  .000E+00
  .000E+00  .000E+00  .000E+00  .000E+00  .000E+00  .000E+00  .000E+00  .000E+00
  .000E+00  .000E+00  .000E+00  .000E+00
  .481E+02  .481E+02  .481E+02  .481E+02  .489E+02  .489E+02  .481E+02  .481E+02
  .489E+02  .481E+02  .481E+02  .487E+02  .478E+02  .478E+02  .481E+02  .481E+02
  .481E+02  .464E+02  .472E+02  .476E+02  .476E+02  .477E+02  .482E+02  .489E+02
  .490E+02  .497E+02  .482E+02  .482E+02  .465E+02  .469E+02  .469E+02  .469E+02
  .468E+02  .468E+02  .491E+02  .491E+02  .507E+02  .482E+02  .482E+02  .482E+02
  .482E+02  .497E+02  .490E+02  .490E+02  .476E+02  .476E+02  .463E+02  .463E+02
  .463E+02  .463E+02  .464E+02  .476E+02  .489E+02  .473E+02  .461E+02  .462E+02
  .462E+02  .462E+02  .456E+02  .457E+02  .457E+02  .457E+02  .457E+02  .457E+02
  .457E+02  .457E+02  .457E+02  .457E+02  .457E+02  .457E+02  .457E+02  .457E+02
  .457E+02  .457E+02  .457E+02  .457E+02  .457E+02  .457E+02  .000E+00  .000E+00
  .000E+00  .000E+00  .000E+00  .000E+00  .000E+00  .000E+00  .000E+00  .000E+00
  .000E+00  .000E+00  .000E+00  .000E+00  .000E+00  .000E+00  .000E+00  .000E+00
  .000E+00  .000E+00  .000E+00  .000E+00
  .479E+02  .479E+02  .479E+02  .479E+02  .479E+02  .479E+02  .479E+02  .479E+02
  .479E+02  .485E+02  .485E+02  .487E+02  .479E+02  .479E+02  .479E+02  .481E+02
  .482E+02  .464E+02  .480E+02  .480E+02  .479E+02  .477E+02  .483E+02  .489E+02
  .490E+02  .497E+02  .482E+02  .482E+02  .466E+02  .469E+02  .468E+02  .468E+02
  .468E+02  .467E+02  .467E+02  .490E+02  .489E+02  .489E+02  .481E+02  .481E+02
  .481E+02  .496E+02  .491E+02  .489E+02  .477E+02  .464E+02  .464E+02  .464E+02
  .465E+02  .463E+02  .463E+02  .463E+02  .463E+02  .463E+02  .463E+02  .463E+02
  .459E+02  .459E+02  .459E+02  .459E+02  .475E+02  .475E+02  .475E+02  .475E+02
  .475E+02  .475E+02  .475E+02  .463E+02  .463E+02  .463E+02  .463E+02  .463E+02
  .463E+02  .463E+02  .463E+02  .463E+02  .463E+02  .463E+02  .000E+00  .000E+00
  .000E+00  .000E+00  .000E+00  .000E+00  .000E+00  .000E+00  .000E+00  .000E+00
  .000E+00  .000E+00  .000E+00  .000E+00  .000E+00  .000E+00  .000E+00  .000E+00
  .000E+00  .000E+00  .000E+00  .000E+00
  .481E+02  .481E+02  .481E+02  .481E+02  .489E+02  .489E+02  .481E+02  .481E+02
  .489E+02  .481E+02  .481E+02  .487E+02  .478E+02  .478E+02  .481E+02  .481E+02
  .481E+02  .464E+02  .472E+02  .476E+02  .476E+02  .477E+02  .482E+02  .489E+02
  .490E+02  .490E+02  .476E+02  .481E+02  .465E+02  .468E+02  .469E+02  .469E+02
  .468E+02  .468E+02  .491E+02  .491E+02  .506E+02  .482E+02  .482E+02  .482E+02
  .482E+02  .497E+02  .490E+02  .478E+02  .476E+02  .476E+02  .463E+02  .463E+02
  .463E+02  .463E+02  .463E+02  .476E+02  .488E+02  .473E+02  .461E+02  .461E+02
  .462E+02  .462E+02  .456E+02  .456E+02  .456E+02  .456E+02  .456E+02  .456E+02
  .456E+02  .488E+02  .488E+02  .488E+02  .488E+02  .488E+02  .488E+02  .488E+02
  .488E+02  .488E+02  .488E+02  .488E+02  .488E+02  .488E+02  .000E+00  .000E+00
  .000E+00  .000E+00  .000E+00  .000E+00  .000E+00  .000E+00  .000E+00  .000E+00
  .000E+00  .000E+00  .000E+00  .000E+00  .000E+00  .000E+00  .000E+00  .000E+00
  .000E+00  .000E+00  .000E+00  .000E+00
/&   ----------  End of spectral data for channel  1  ----------
Response and Fourier amplitude spectra (78 periods,  .04 -  6.0 sec)   for      
Corrected accelerogram   38695658.CI.DNR.--.HN      Chan  2: 360 Deg     from   
Uncorrected Accelerogram Data             Processed: 09/19/20, CGS  cidnr--a    
Rcrd of Fri Sep 18, 2020 23:38:43.0 PDT               (Avol1 v2.0, 4/18 CSMIP)  
                                        (Origin:  To be determined)             
38695658.CI.DNR.--.HN                Start time:  9/19/20, 06:38:43.0 UTC (GPS) 
Station Id. DNR     33.567N, 116.631W    ObsMMS  s/n 3931  (3 Chns of  3 at Sta)
Anza, Mitchell Rd.                       SCSN   Data: Acceleration              
Chan  2: 360 Deg                                                                
Rcrd of Fri Sep 18, 2020 23:38:43.0 PDT    Fri Sep 18, 2020 23:38:43.0 PDT      
Hypocenter:  To be determined.               ML:  To be determined.             
Instr Period =  .0050 sec,  Damping =  .707,  Sensitivity = 4.99 v/g  (Nominal) 
                        Record Length =301.000 sec.                             
                                     Uncor Max  =  -.004 g, at   46.430 sec.    
RMS accel of (uncor) record  =        .   Chn. metadata effective date:         
Accelerogram bandpass filtered with 3 dB pts at   .30 and 23.00 cyc/sec         
                 instrument- and base-line correcte                             
                                                                                
                                                                                
                                                                                
                                                                                
                                                                                
Rcrd of Fri Sep 18, 2020 23:38:43.0 PDT    Fri Sep 18, 2020 23:38:43.0 PDT      
                                                                                
38695658.CI.DNR.--.HN     Anza, Mitchell Rd.    Chan  2: 360 Deg                
                                                                                
38695658.CI.DNR.--.HN     Anza, Mitchell Rd.    Chan  2: 360 Deg                
                                                                                
Units for spectra are inches and sec, except Sa is in fraction of g.            
                                                                                
    2  100    2    3    3  100 -999    3    1    0   15 3931    050678   41    0
    6   38   43    8  263    9   19 2020   10    3  36036231   39   18   74 -999
36231 -999  100    6 -999 -999 -999 -999 -999 -999 -999 -999 -999 -999 -999 -999
 -999 -999 -999 -99915050    2 -999    0 -999   20 -999 -999    3    1 -99915050
    315050    4   78    1    3    5    0    0 -999    0 -999 -999    6 -999    2
    2    2    4 -999 -999 -999 -999 -999 -999 -999 -999    1 -999 -999 -999  111
    1    1 -999 -999
      .005      .707   362.310      .000     1.000  4994.462     -.004    46.430
   200.000     2.384      .477  -999.000    10.000  -999.000     4.000  -999.000
    20.000    -1.826      .000  -999.000  -999.000  -999.000  -999.000     -.001
     -.001      .000     2.000    15.000    33.567  -116.631      .001      .002
     2.207      .000      .000  1274.000  -999.000  -999.000  -999.000  -999.000
     1.000  -999.000  -999.000  -999.000  -999.000  -999.000  -999.000   120.000
     -.900     2.000     6.800   980.665      .020   301.000    31.831      .000
  -999.000    23.000  -999.000   301.000      .020      .300  -999.000  -999.000
    46.420    -3.452    46.480     -.206    46.400      .014      .000      .300
    23.000      .020      .020      .000      .020      .006  -999.000  -999.000
      .013      .150      .007      .011      .001      .000  -999.000  -999.000
  -999.000  -999.000  -999.000  -999.000  -999.000  -999.000  -999.000  -999.000
  -999.000  -999.000  -999.000  -999.000
      .050
      .040      .042      .044      .046      .048      .050      .055      .060
      .065      .070      .075      .080      .085      .090      .095      .100
      .110      .120      .130      .140      .150      .160      .170      .180
      .190      .200      .220      .240      .260      .280      .300      .320
      .340      .360      .380      .400      .420      .440      .460      .480
      .500      .550      .600      .650      .700      .750      .800      .850
      .900      .950     1.000     1.100     1.200     1.300     1.400     1.500
     1.600     1.700     1.800     1.900     2.000     2.200     2.400     2.600
     2.800     3.000     3.200     3.400     3.600     3.800     4.000     4.200
     4.400     4.600     4.800     5.000     5.500     6.000      .000      .000
      .000      .000      .000      .000      .000      .000      .000      .000
      .000      .000      .000      .000      .000      .000      .000      .000
      .000      .000      .000      .000
Fourier amplitude spectra in in/sec.
  .000E+00  .000E+00  .000E+00  .000E+00  .000E+00  .000E+00  .000E+00  .000E+00
  .000E+00  .000E+00  .000E+00  .000E+00  .000E+00  .000E+00  .000E+00  .000E+00
  .000E+00  .000E+00  .000E+00  .000E+00  .000E+00  .000E+00  .000E+00  .000E+00
  .000E+00  .000E+00  .000E+00  .000E+00  .000E+00  .000E+00  .000E+00  .000E+00
  .000E+00  .000E+00  .000E+00  .000E+00  .000E+00  .000E+00  .000E+00  .000E+00
  .000E+00  .000E+00  .000E+00  .000E+00  .000E+00  .000E+00  .000E+00  .000E+00
  .000E+00  .000E+00  .000E+00  .000E+00  .000E+00  .000E+00  .000E+00  .000E+00
  .000E+00  .000E+00  .000E+00  .000E+00  .000E+00  .000E+00  .000E+00  .000E+00
  .000E+00  .000E+00  .000E+00  .000E+00  .000E+00  .000E+00  .000E+00  .000E+00
  .000E+00  .000E+00  .000E+00  .000E+00  .000E+00  .000E+00  .000E+00  .000E+00
  .000E+00  .000E+00  .000E+00  .000E+00  .000E+00  .000E+00  .000E+00  .000E+00
  .000E+00  .000E+00  .000E+00  .000E+00  .000E+00  .000E+00  .000E+00  .000E+00
  .000E+00  .000E+00  .000E+00  .000E+00
Damping =  .05. Data of Sd,Sv,Sa,Pssv,ttSd,ttSv,ttSa :
  .587E-04  .649E-04  .717E-04  .792E-04  .868E-04  .940E-04  .117E-03  .142E-03
  .167E-03  .194E-03  .213E-03  .293E-03  .371E-03  .439E-03  .475E-03  .545E-03
  .730E-03  .108E-02  .145E-02  .199E-02  .277E-02  .292E-02  .264E-02  .243E-02
  .228E-02  .270E-02  .304E-02  .417E-02  .630E-02  .765E-02  .973E-02  .105E-01
  .112E-01  .120E-01  .125E-01  .134E-01  .148E-01  .160E-01  .177E-01  .176E-01
