Response and Fourier amplitude spectra (78 periods,  .04 -  6.0 sec)   for      
Corrected accelerogram   38695658.CI.DTC.--.HN      Chan  1:  90 Deg     from   
Uncorrected Accelerogram Data             Processed: 09/19/20, CGS  cidtc--w    
Rcrd of Fri Sep 18, 2020 23:38:34.0 PDT               (Avol1 v2.0, 4/18 CSMIP)  
                                        (Origin:  To be determined)             
38695658.CI.DTC.--.HN                Start time:  9/19/20, 06:38:34.0 UTC (GPS) 
Station Id. DTC     34.424N, 118.662W    ObsMMS  s/n 1099  (3 Chns of  6 at Sta)
Del Valle - LACoFD Regional Training Cen SCSN   Data: Acceleration              
Chan  1:  90 Deg                                                                
Rcrd of Fri Sep 18, 2020 23:38:34.0 PDT    Fri Sep 18, 2020 23:38:34.0 PDT      
Hypocenter:  To be determined.               ML:  To be determined.             
Instr Period =  .0050 sec,  Damping =  .707,  Sensitivity = 4.99 v/g  (Nominal) 
                        Record Length =301.000 sec.                             
                                     Uncor Max  =   .003 g, at   38.600 sec.    
RMS accel of (uncor) record  =        .   Chn. metadata effective date:         
Accelerogram bandpass filtered with 3 dB pts at   .30 and 23.00 cyc/sec         
                 instrument- and base-line correcte                             
                                                                                
                                                                                
                                                                                
                                                                                
                                                                                
Rcrd of Fri Sep 18, 2020 23:38:34.0 PDT    Fri Sep 18, 2020 23:38:34.0 PDT      
                                                                                
38695658.CI.DTC.--.HN     Del Valle - LACoFD Regional Training Cen SCSChan  1:  
90 Deg                                                                          
38695658.CI.DTC.--.HN     Del Valle - LACoFD Regional Training Cen SCSChan  1:  
90 Deg                                                                          
Units for spectra are inches and sec, except Sa is in fraction of g.            
                                                                                
    1  100    1    6    6  100 -999    3    1    0   15 1099    0    0   41    0
    6   38   34    0  263    9   19 2020   10    3   9035983   39   40   74 -999
35983 -999  100    6 -999 -999 -999 -999 -999 -999 -999 -999 -999 -999 -999 -999
 -999 -999 -999 -99915050    2 -999    0 -999   20 -999 -999    3    1 -99915050
    315050    4   78    1    3    5    0    0 -999    0 -999 -999    6 -999    2
    2    2    4 -999 -999 -999 -999 -999 -999 -999 -999    1 -999 -999 -999  111
    1    1 -999 -999
      .005      .707   359.830      .000     1.000  4986.484      .003    38.600
   200.000     2.384      .478  -999.000    10.000  -999.000     4.000  -999.000
    20.000    -5.749      .000  -999.000  -999.000  -999.000  -999.000     -.002
      .000      .002     2.000    15.000    34.424  -118.662      .001      .002
     1.288      .002      .002   382.700  -999.000  -999.000  -999.000  -999.000
     1.000  -999.000    -8.000  -999.000  -999.000  -999.000  -999.000   120.000
     -.900     2.000     6.800   980.665      .020   301.000    31.831      .000
  -999.000    23.000  -999.000   301.000      .020      .300  -999.000  -999.000
    38.600     3.304    38.540     -.193    38.620     -.016      .000      .300
    23.000      .020      .020      .000      .020      .016  -999.000  -999.000
      .015      .190      .013      .010      .002      .000  -999.000  -999.000
  -999.000  -999.000  -999.000  -999.000  -999.000  -999.000  -999.000  -999.000
  -999.000  -999.000  -999.000  -999.000
      .050
      .040      .042      .044      .046      .048      .050      .055      .060
      .065      .070      .075      .080      .085      .090      .095      .100
      .110      .120      .130      .140      .150      .160      .170      .180
      .190      .200      .220      .240      .260      .280      .300      .320
      .340      .360      .380      .400      .420      .440      .460      .480
      .500      .550      .600      .650      .700      .750      .800      .850
      .900      .950     1.000     1.100     1.200     1.300     1.400     1.500
     1.600     1.700     1.800     1.900     2.000     2.200     2.400     2.600
     2.800     3.000     3.200     3.400     3.600     3.800     4.000     4.200
     4.400     4.600     4.800     5.000     5.500     6.000      .000      .000
      .000      .000      .000      .000      .000      .000      .000      .000
      .000      .000      .000      .000      .000      .000      .000      .000
      .000      .000      .000      .000
Fourier amplitude spectra in in/sec.
  .000E+00  .000E+00  .000E+00  .000E+00  .000E+00  .000E+00  .000E+00  .000E+00
  .000E+00  .000E+00  .000E+00  .000E+00  .000E+00  .000E+00  .000E+00  .000E+00
  .000E+00  .000E+00  .000E+00  .000E+00  .000E+00  .000E+00  .000E+00  .000E+00
  .000E+00  .000E+00  .000E+00  .000E+00  .000E+00  .000E+00  .000E+00  .000E+00
  .000E+00  .000E+00  .000E+00  .000E+00  .000E+00  .000E+00  .000E+00  .000E+00
  .000E+00  .000E+00  .000E+00  .000E+00  .000E+00  .000E+00  .000E+00  .000E+00
  .000E+00  .000E+00  .000E+00  .000E+00  .000E+00  .000E+00  .000E+00  .000E+00
  .000E+00  .000E+00  .000E+00  .000E+00  .000E+00  .000E+00  .000E+00  .000E+00
  .000E+00  .000E+00  .000E+00  .000E+00  .000E+00  .000E+00  .000E+00  .000E+00
  .000E+00  .000E+00  .000E+00  .000E+00  .000E+00  .000E+00  .000E+00  .000E+00
  .000E+00  .000E+00  .000E+00  .000E+00  .000E+00  .000E+00  .000E+00  .000E+00
  .000E+00  .000E+00  .000E+00  .000E+00  .000E+00  .000E+00  .000E+00  .000E+00
  .000E+00  .000E+00  .000E+00  .000E+00
Damping =  .05. Data of Sd,Sv,Sa,Pssv,ttSd,ttSv,ttSa :
  .528E-04  .583E-04  .642E-04  .703E-04  .765E-04  .837E-04  .103E-03  .122E-03
  .155E-03  .189E-03  .217E-03  .242E-03  .339E-03  .442E-03  .502E-03  .598E-03
  .903E-03  .134E-02  .151E-02  .186E-02  .242E-02  .335E-02  .362E-02  .443E-02
  .511E-02  .502E-02  .488E-02  .643E-02  .721E-02  .960E-02  .873E-02  .805E-02
  .803E-02  .983E-02  .903E-02  .105E-01  .983E-02  .113E-01  .163E-01  .189E-01
  .170E-01  .159E-01  .202E-01  .228E-01  .225E-01  .267E-01  .251E-01  .261E-01
  .207E-01  .186E-01  .189E-01  .140E-01  .172E-01  .174E-01  .161E-01  .180E-01
  .150E-01  .145E-01  .142E-01  .153E-01  .154E-01  .129E-01  .984E-02  .100E-01
  .954E-02  .871E-02  .903E-02  .901E-02  .894E-02  .873E-02  .838E-02  .801E-02
  .767E-02  .741E-02  .723E-02  .709E-02  .680E-02  .662E-02  .000E+00  .000E+00
  .000E+00  .000E+00  .000E+00  .000E+00  .000E+00  .000E+00  .000E+00  .000E+00
  .000E+00  .000E+00  .000E+00  .000E+00  .000E+00  .000E+00  .000E+00  .000E+00
  .000E+00  .000E+00  .000E+00  .000E+00
  .166E-02  .184E-02  .207E-02  .238E-02  .266E-02  .294E-02  .364E-02  .484E-02
  .737E-02  .961E-02  .126E-01  .155E-01  .176E-01  .211E-01  .287E-01  .315E-01
  .483E-01  .606E-01  .666E-01  .753E-01  .891E-01  .117E+00  .111E+00  .128E+00
  .144E+00  .149E+00  .133E+00  .164E+00  .154E+00  .208E+00  .182E+00  .164E+00
  .149E+00  .177E+00  .153E+00  .154E+00  .163E+00  .165E+00  .223E+00  .248E+00
  .237E+00  .201E+00  .229E+00  .220E+00  .218E+00  .232E+00  .225E+00  .211E+00
  .193E+00  .141E+00  .145E+00  .106E+00  .985E-01  .987E-01  .875E-01  .859E-01
  .824E-01  .784E-01  .851E-01  .881E-01  .868E-01  .764E-01  .756E-01  .745E-01
  .739E-01  .715E-01  .729E-01  .742E-01  .752E-01  .759E-01  .764E-01  .765E-01
  .765E-01  .763E-01  .762E-01  .760E-01  .757E-01  .755E-01  .000E+00  .000E+00
  .000E+00  .000E+00  .000E+00  .000E+00  .000E+00  .000E+00  .000E+00  .000E+00
  .000E+00  .000E+00  .000E+00  .000E+00  .000E+00  .000E+00  .000E+00  .000E+00
  .000E+00  .000E+00  .000E+00  .000E+00
  .337E-02  .338E-02  .339E-02  .340E-02  .340E-02  .342E-02  .349E-02  .346E-02
  .377E-02  .396E-02  .392E-02  .386E-02  .479E-02  .558E-02  .572E-02  .623E-02
  .767E-02  .946E-02  .906E-02  .971E-02  .110E-01  .133E-01  .130E-01  .140E-01
  .146E-01  .131E-01  .103E-01  .114E-01  .110E-01  .125E-01  .992E-02  .817E-02
  .721E-02  .784E-02  .641E-02  .671E-02  .568E-02  .596E-02  .785E-02  .841E-02
  .704E-02  .543E-02  .580E-02  .557E-02  .471E-02  .487E-02  .405E-02  .372E-02
  .264E-02  .213E-02  .195E-02  .120E-02  .123E-02  .106E-02  .849E-03  .826E-03
  .608E-03  .518E-03  .452E-03  .436E-03  .397E-03  .274E-03  .184E-03  .155E-03
  .136E-03  .115E-03  .106E-03  .953E-04  .859E-04  .769E-04  .684E-04  .609E-04
  .547E-04  .496E-04  .456E-04  .422E-04  .358E-04  .312E-04  .000E+00  .000E+00
  .000E+00  .000E+00  .000E+00  .000E+00  .000E+00  .000E+00  .000E+00  .000E+00
  .000E+00  .000E+00  .000E+00  .000E+00  .000E+00  .000E+00  .000E+00  .000E+00
  .000E+00  .000E+00  .000E+00  .000E+00
  .829E-02  .872E-02  .917E-02  .960E-02  .100E-01  .105E-01  .118E-01  .127E-01
  .150E-01  .170E-01  .181E-01  .190E-01  .251E-01  .309E-01  .332E-01  .376E-01
  .516E-01  .704E-01  .731E-01  .834E-01  .102E+00  .131E+00  .134E+00  .155E+00
  .169E+00  .158E+00  .139E+00  .168E+00  .174E+00  .215E+00  .183E+00  .158E+00
  .148E+00  .172E+00  .149E+00  .164E+00  .147E+00  .161E+00  .222E+00  .248E+00
  .214E+00  .182E+00  .212E+00  .221E+00  .202E+00  .223E+00  .197E+00  .193E+00
  .145E+00  .123E+00  .119E+00  .802E-01  .900E-01  .843E-01  .725E-01  .754E-01
  .590E-01  .536E-01  .496E-01  .505E-01  .483E-01  .367E-01  .258E-01  .242E-01
  .214E-01  .183E-01  .177E-01  .167E-01  .156E-01  .144E-01  .132E-01  .120E-01
  .109E-01  .101E-01  .947E-02  .891E-02  .777E-02  .693E-02  .000E+00  .000E+00
  .000E+00  .000E+00  .000E+00  .000E+00  .000E+00  .000E+00  .000E+00  .000E+00
  .000E+00  .000E+00  .000E+00  .000E+00  .000E+00  .000E+00  .000E+00  .000E+00
  .000E+00  .000E+00  .000E+00  .000E+00
  .386E+02  .386E+02  .386E+02  .386E+02  .386E+02  .386E+02  .386E+02  .380E+02
  .386E+02  .386E+02  .367E+02  .386E+02  .386E+02  .386E+02  .366E+02  .366E+02
  .267E+02  .383E+02  .383E+02  .386E+02  .372E+02  .372E+02  .386E+02  .386E+02
  .386E+02  .387E+02  .376E+02  .379E+02  .414E+02  .414E+02  .416E+02  .397E+02
  .401E+02  .401E+02  .402E+02  .425E+02  .373E+02  .373E+02  .390E+02  .402E+02
  .390E+02  .396E+02  .394E+02  .394E+02  .410E+02  .415E+02  .427E+02  .424E+02
  .408E+02  .401E+02  .520E+02  .521E+02  .626E+02  .628E+02  .616E+02  .617E+02
  .617E+02  .589E+02  .583E+02  .584E+02  .584E+02  .549E+02  .389E+02  .499E+02
  .409E+02  .386E+02  .386E+02  .386E+02  .386E+02  .386E+02  .386E+02  .386E+02
  .386E+02  .386E+02  .386E+02  .386E+02  .386E+02  .386E+02  .000E+00  .000E+00
  .000E+00  .000E+00  .000E+00  .000E+00  .000E+00  .000E+00  .000E+00  .000E+00
  .000E+00  .000E+00  .000E+00  .000E+00  .000E+00  .000E+00  .000E+00  .000E+00
  .000E+00  .000E+00  .000E+00  .000E+00
  .371E+02  .371E+02  .380E+02  .380E+02  .380E+02  .380E+02  .367E+02  .380E+02
  .367E+02  .367E+02  .264E+02  .271E+02  .272E+02  .364E+02  .366E+02  .366E+02
  .266E+02  .383E+02  .384E+02  .381E+02  .371E+02  .372E+02  .373E+02  .386E+02
  .386E+02  .390E+02  .376E+02  .378E+02  .383E+02  .413E+02  .415E+02  .396E+02
  .396E+02  .402E+02  .402E+02  .426E+02  .411E+02  .374E+02  .391E+02  .401E+02
  .401E+02  .395E+02  .395E+02  .390E+02  .411E+02  .432E+02  .425E+02  .410E+02
  .410E+02  .399E+02  .399E+02  .387E+02  .629E+02  .618E+02  .618E+02  .387E+02
  .387E+02  .387E+02  .385E+02  .385E+02  .385E+02  .385E+02  .371E+02  .387E+02
  .387E+02  .387E+02  .385E+02  .385E+02  .385E+02  .385E+02  .385E+02  .385E+02
  .385E+02  .385E+02  .385E+02  .385E+02  .385E+02  .385E+02  .000E+00  .000E+00
  .000E+00  .000E+00  .000E+00  .000E+00  .000E+00  .000E+00  .000E+00  .000E+00
  .000E+00  .000E+00  .000E+00  .000E+00  .000E+00  .000E+00  .000E+00  .000E+00
  .000E+00  .000E+00  .000E+00  .000E+00
  .386E+02  .386E+02  .386E+02  .386E+02  .386E+02  .386E+02  .386E+02  .380E+02
  .386E+02  .386E+02  .367E+02  .386E+02  .386E+02  .386E+02  .366E+02  .366E+02
  .267E+02  .383E+02  .383E+02  .386E+02  .372E+02  .372E+02  .386E+02  .386E+02
  .386E+02  .386E+02  .376E+02  .378E+02  .414E+02  .414E+02  .387E+02  .397E+02
  .401E+02  .401E+02  .401E+02  .425E+02  .373E+02  .373E+02  .389E+02  .402E+02
  .390E+02  .396E+02  .394E+02  .394E+02  .410E+02  .415E+02  .427E+02  .424E+02
  .408E+02  .400E+02  .520E+02  .521E+02  .626E+02  .627E+02  .616E+02  .616E+02
  .617E+02  .588E+02  .583E+02  .583E+02  .584E+02  .549E+02  .389E+02  .498E+02
  .409E+02  .386E+02  .386E+02  .386E+02  .386E+02  .386E+02  .386E+02  .386E+02
  .386E+02  .386E+02  .386E+02  .385E+02  .385E+02  .385E+02  .000E+00  .000E+00
  .000E+00  .000E+00  .000E+00  .000E+00  .000E+00  .000E+00  .000E+00  .000E+00
  .000E+00  .000E+00  .000E+00  .000E+00  .000E+00  .000E+00  .000E+00  .000E+00
  .000E+00  .000E+00  .000E+00  .000E+00
/&   ----------  End of spectral data for channel  1  ----------
Response and Fourier amplitude spectra (78 periods,  .04 -  6.0 sec)   for      
Corrected accelerogram   38695658.CI.DTC.--.HN      Chan  2: 360 Deg     from   
Uncorrected Accelerogram Data             Processed: 09/19/20, CGS  cidtc--w    
Rcrd of Fri Sep 18, 2020 23:38:34.0 PDT               (Avol1 v2.0, 4/18 CSMIP)  
                                        (Origin:  To be determined)             
38695658.CI.DTC.--.HN                Start time:  9/19/20, 06:38:34.0 UTC (GPS) 
Station Id. DTC     34.424N, 118.662W    ObsMMS  s/n 1099  (3 Chns of  6 at Sta)
Del Valle - LACoFD Regional Training Cen SCSN   Data: Acceleration              
Chan  2: 360 Deg                                                                
Rcrd of Fri Sep 18, 2020 23:38:34.0 PDT    Fri Sep 18, 2020 23:38:34.0 PDT      
Hypocenter:  To be determined.               ML:  To be determined.             
Instr Period =  .0050 sec,  Damping =  .707,  Sensitivity = 4.99 v/g  (Nominal) 
                        Record Length =301.000 sec.                             
                                     Uncor Max  =   .005 g, at   39.620 sec.    
RMS accel of (uncor) record  =        .   Chn. metadata effective date:         
Accelerogram bandpass filtered with 3 dB pts at   .30 and 23.00 cyc/sec         
                 instrument- and base-line correcte                             
                                                                                
                                                                                
                                                                                
                                                                                
                                                                                
Rcrd of Fri Sep 18, 2020 23:38:34.0 PDT    Fri Sep 18, 2020 23:38:34.0 PDT      
                                                                                
38695658.CI.DTC.--.HN     Del Valle - LACoFD Regional Training Cen SCSChan  2: 3
60 Deg                                                                          
38695658.CI.DTC.--.HN     Del Valle - LACoFD Regional Training Cen SCSChan  2: 3
60 Deg                                                                          
Units for spectra are inches and sec, except Sa is in fraction of g.            
                                                                                
    2  100    2    6    6  100 -999    3    1    0   15 1099    0    0   41    0
    6   38   34    0  263    9   19 2020   10    3  36035636   39   40   74 -999
35636 -999  100    6 -999 -999 -999 -999 -999 -999 -999 -999 -999 -999 -999 -999
 -999 -999 -999 -99915050    2 -999    0 -999   20 -999 -999    3    1 -99915050
    315050    4   78    1    3    5    0    0 -999    0 -999 -999    6 -999    2
    2    2    4 -999 -999 -999 -999 -999 -999 -999 -999    1 -999 -999 -999  111
    1    1 -999 -999
      .005      .707   356.360      .000     1.000  4994.462      .005    39.620
   200.000     2.384      .477  -999.000    10.000  -999.000     4.000  -999.000
    20.000     -.162      .000  -999.000  -999.000  -999.000  -999.000     -.001
      .000      .000     2.000    15.000    34.424  -118.662      .001      .002
     1.278      .000      .001   382.700  -999.000  -999.000  -999.000  -999.000
     1.000  -999.000  -999.000  -999.000  -999.000  -999.000  -999.000   120.000
     -.900     2.000     6.800   980.665      .020   301.000    31.831      .000
  -999.000    23.000  -999.000   301.000      .020      .300  -999.000  -999.000
    39.620     4.436    39.700      .232    45.940     -.026      .000      .300
    23.000      .020      .020      .000      .020      .020  -999.000  -999.000
      .014      .280      .009      .013      .003      .000  -999.000  -999.000
  -999.000  -999.000  -999.000  -999.000  -999.000  -999.000  -999.000  -999.000
  -999.000  -999.000  -999.000  -999.000
      .050
      .040      .042      .044      .046      .048      .050      .055      .060
      .065      .070      .075      .080      .085      .090      .095      .100
      .110      .120      .130      .140      .150      .160      .170      .180
      .190      .200      .220      .240      .260      .280      .300      .320
      .340      .360      .380      .400      .420      .440      .460      .480
      .500      .550      .600      .650      .700      .750      .800      .850
      .900      .950     1.000     1.100     1.200     1.300     1.400     1.500
     1.600     1.700     1.800     1.900     2.000     2.200     2.400     2.600
     2.800     3.000     3.200     3.400     3.600     3.800     4.000     4.200
     4.400     4.600     4.800     5.000     5.500     6.000      .000      .000
      .000      .000      .000      .000      .000      .000      .000      .000
      .000      .000      .000      .000      .000      .000      .000      .000
      .000      .000      .000      .000
Fourier amplitude spectra in in/sec.
  .000E+00  .000E+00  .000E+00  .000E+00  .000E+00  .000E+00  .000E+00  .000E+00
  .000E+00  .000E+00  .000E+00  .000E+00  .000E+00  .000E+00  .000E+00  .000E+00
  .000E+00  .000E+00  .000E+00  .000E+00  .000E+00  .000E+00  .000E+00  .000E+00
  .000E+00  .000E+00  .000E+00  .000E+00  .000E+00  .000E+00  .000E+00  .000E+00
  .000E+00  .000E+00  .000E+00  .000E+00  .000E+00  .000E+00  .000E+00  .000E+00
  .000E+00  .000E+00  .000E+00  .000E+00  .000E+00  .000E+00  .000E+00  .000E+00
  .000E+00  .000E+00  .000E+00  .000E+00  .000E+00  .000E+00  .000E+00  .000E+00
  .000E+00  .000E+00  .000E+00  .000E+00  .000E+00  .000E+00  .000E+00  .000E+00
  .000E+00  .000E+00  .000E+00  .000E+00  .000E+00  .000E+00  .000E+00  .000E+00
  .000E+00  .000E+00  .000E+00  .000E+00  .000E+00  .000E+00  .000E+00  .000E+00
  .000E+00  .000E+00  .000E+00  .000E+00  .000E+00  .000E+00  .000E+00  .000E+00
  .000E+00  .000E+00  .000E+00  .000E+00  .000E+00  .000E+00  .000E+00  .000E+00
  .000E+00  .000E+00  .000E+00  .000E+00
Damping =  .05. Data of Sd,Sv,Sa,Pssv,ttSd,ttSv,ttSa :
  .708E-04  .784E-04  .864E-04  .952E-04  .104E-03  .114E-03  .139E-03  .164E-03
  .193E-03  .224E-03  .245E-03  .291E-03  .370E-03  .466E-03  .509E-03  .530E-03
  .691E-03  .110E-02  .152E-02  .198E-02  .200E-02  .188E-02  .183E-02  .214E-02
  .299E-02  .354E-02  .431E-02  .637E-02  .737E-02  .107E-01  .113E-01  .109E-01
  .129E-01  .147E-01  .150E-01  .147E-01  .192E-01  .235E-01  .255E-01  .268E-01
