Response and Fourier amplitude spectra (78 periods,  .04 -  6.0 sec)   for      
Corrected accelerogram   38695658.CI.DZA.--.HN      Chan  1:  90 Deg     from   
Uncorrected Accelerogram Data             Processed: 09/19/20, CGS  cidza--t    
Rcrd of Fri Sep 18, 2020 23:38:51.0 PDT               (Avol1 v2.0, 4/18 CSMIP)  
                                        (Origin:  To be determined)             
38695658.CI.DZA.--.HN                Start time:  9/19/20, 06:38:51.0 UTC (GPS) 
Station Id. DZA     32.607N, 116.775W    ObsMMS  s/n 5768  (3 Chns of  6 at Sta)
Dulzura                                  SCSN   Data: Acceleration              
Chan  1:  90 Deg                                                                
Rcrd of Fri Sep 18, 2020 23:38:51.0 PDT    Fri Sep 18, 2020 23:38:51.0 PDT      
Hypocenter:  To be determined.               ML:  To be determined.             
Instr Period =  .0050 sec,  Damping =  .707,  Sensitivity = 4.98 v/g  (Nominal) 
                        Record Length =301.000 sec.                             
                                     Uncor Max  =  -.001 g, at   55.860 sec.    
RMS accel of (uncor) record  =        .   Chn. metadata effective date:         
Accelerogram bandpass filtered with 3 dB pts at   .30 and 23.00 cyc/sec         
                 instrument- and base-line correcte                             
                                                                                
                                                                                
                                                                                
                                                                                
                                                                                
Rcrd of Fri Sep 18, 2020 23:38:51.0 PDT    Fri Sep 18, 2020 23:38:51.0 PDT      
                                                                                
38695658.CI.DZA.--.HN     Dulzura   Chan  1:  90 Deg                            
                                                                                
38695658.CI.DZA.--.HN     Dulzura   Chan  1:  90 Deg                            
                                                                                
Units for spectra are inches and sec, except Sa is in fraction of g.            
                                                                                
    1  100    1    6    6  100 -999    3    1    0   15 5768    0    0   41    0
    6   38   51    3  263    9   19 2020   10    3   9035759   39    7   74 -999
35759 -999  100    6 -999 -999 -999 -999 -999 -999 -999 -999 -999 -999 -999 -999
 -999 -999 -999 -99915050    2 -999    0 -999   20 -999 -999    3    1 714815050
    315050    4   78    1    3    5    0    0 -999    0 -999 -999    6 -999    2
    2    2    4 -999 -999 -999 -999 -999 -999 -999 -999    1 -999 -999 -999  111
    1    1 -999 -999
      .005      .707   357.590      .000     1.000  4981.676     -.001    55.860
   200.000     2.384      .479  -999.000    10.000  -999.000     4.000  -999.000
    20.000    -5.252      .000  -999.000  -999.000  -999.000  -999.000      .002
     -.002     -.004     2.000    15.000    32.607  -116.775      .001      .001
     1.506     -.005     -.004   554.700  -999.000  -999.000  -999.000  -999.000
     1.000  -999.000    -8.000  -999.000  -999.000  -999.000  -999.000   120.000
     -.900     2.000     6.800   980.665      .020   301.000    31.831      .000
  -999.000    23.000  -999.000   301.000      .020      .300  -999.000  -999.000
    55.860     -.701    50.240      .017    50.100     -.001      .000      .300
    23.000      .020      .020      .000      .020      .001  -999.000  -999.000
      .004      .095      .001      .001      .000      .000  -999.000  -999.000
  -999.000  -999.000  -999.000  -999.000  -999.000  -999.000  -999.000  -999.000
  -999.000  -999.000  -999.000  -999.000
      .050
      .040      .042      .044      .046      .048      .050      .055      .060
      .065      .070      .075      .080      .085      .090      .095      .100
      .110      .120      .130      .140      .150      .160      .170      .180
      .190      .200      .220      .240      .260      .280      .300      .320
      .340      .360      .380      .400      .420      .440      .460      .480
      .500      .550      .600      .650      .700      .750      .800      .850
      .900      .950     1.000     1.100     1.200     1.300     1.400     1.500
     1.600     1.700     1.800     1.900     2.000     2.200     2.400     2.600
     2.800     3.000     3.200     3.400     3.600     3.800     4.000     4.200
     4.400     4.600     4.800     5.000     5.500     6.000      .000      .000
      .000      .000      .000      .000      .000      .000      .000      .000
      .000      .000      .000      .000      .000      .000      .000      .000
      .000      .000      .000      .000
Fourier amplitude spectra in in/sec.
  .000E+00  .000E+00  .000E+00  .000E+00  .000E+00  .000E+00  .000E+00  .000E+00
  .000E+00  .000E+00  .000E+00  .000E+00  .000E+00  .000E+00  .000E+00  .000E+00
  .000E+00  .000E+00  .000E+00  .000E+00  .000E+00  .000E+00  .000E+00  .000E+00
  .000E+00  .000E+00  .000E+00  .000E+00  .000E+00  .000E+00  .000E+00  .000E+00
  .000E+00  .000E+00  .000E+00  .000E+00  .000E+00  .000E+00  .000E+00  .000E+00
  .000E+00  .000E+00  .000E+00  .000E+00  .000E+00  .000E+00  .000E+00  .000E+00
  .000E+00  .000E+00  .000E+00  .000E+00  .000E+00  .000E+00  .000E+00  .000E+00
  .000E+00  .000E+00  .000E+00  .000E+00  .000E+00  .000E+00  .000E+00  .000E+00
  .000E+00  .000E+00  .000E+00  .000E+00  .000E+00  .000E+00  .000E+00  .000E+00
  .000E+00  .000E+00  .000E+00  .000E+00  .000E+00  .000E+00  .000E+00  .000E+00
  .000E+00  .000E+00  .000E+00  .000E+00  .000E+00  .000E+00  .000E+00  .000E+00
  .000E+00  .000E+00  .000E+00  .000E+00  .000E+00  .000E+00  .000E+00  .000E+00
  .000E+00  .000E+00  .000E+00  .000E+00
Damping =  .05. Data of Sd,Sv,Sa,Pssv,ttSd,ttSv,ttSa :
  .130E-04  .146E-04  .159E-04  .181E-04  .226E-04  .271E-04  .433E-04  .522E-04
  .749E-04  .992E-04  .129E-03  .166E-03  .193E-03  .277E-03  .364E-03  .373E-03
  .302E-03  .380E-03  .376E-03  .329E-03  .326E-03  .399E-03  .457E-03  .408E-03
  .463E-03  .495E-03  .538E-03  .764E-03  .869E-03  .107E-02  .102E-02  .904E-03
  .960E-03  .725E-03  .670E-03  .674E-03  .633E-03  .646E-03  .679E-03  .657E-03
  .597E-03  .445E-03  .395E-03  .378E-03  .367E-03  .361E-03  .373E-03  .412E-03
  .457E-03  .503E-03  .714E-03  .799E-03  .722E-03  .869E-03  .897E-03  .873E-03
  .839E-03  .933E-03  .103E-02  .827E-03  .752E-03  .808E-03  .742E-03  .793E-03
  .670E-03  .488E-03  .463E-03  .446E-03  .388E-03  .356E-03  .373E-03  .382E-03
  .380E-03  .370E-03  .364E-03  .356E-03  .334E-03  .330E-03  .000E+00  .000E+00
  .000E+00  .000E+00  .000E+00  .000E+00  .000E+00  .000E+00  .000E+00  .000E+00
  .000E+00  .000E+00  .000E+00  .000E+00  .000E+00  .000E+00  .000E+00  .000E+00
  .000E+00  .000E+00  .000E+00  .000E+00
  .114E-02  .126E-02  .135E-02  .156E-02  .198E-02  .235E-02  .365E-02  .455E-02
  .615E-02  .772E-02  .960E-02  .112E-01  .134E-01  .181E-01  .231E-01  .240E-01
  .168E-01  .207E-01  .184E-01  .155E-01  .147E-01  .170E-01  .186E-01  .164E-01
  .154E-01  .156E-01  .170E-01  .234E-01  .212E-01  .260E-01  .250E-01  .210E-01
  .175E-01  .150E-01  .148E-01  .145E-01  .131E-01  .125E-01  .131E-01  .124E-01
  .105E-01  .837E-02  .749E-02  .698E-02  .687E-02  .692E-02  .695E-02  .652E-02
  .669E-02  .744E-02  .807E-02  .755E-02  .670E-02  .767E-02  .788E-02  .702E-02
  .709E-02  .684E-02  .655E-02  .674E-02  .667E-02  .683E-02  .695E-02  .689E-02
  .695E-02  .675E-02  .665E-02  .654E-02  .641E-02  .638E-02  .641E-02  .640E-02
  .637E-02  .634E-02  .632E-02  .630E-02  .627E-02  .627E-02  .000E+00  .000E+00
  .000E+00  .000E+00  .000E+00  .000E+00  .000E+00  .000E+00  .000E+00  .000E+00
  .000E+00  .000E+00  .000E+00  .000E+00  .000E+00  .000E+00  .000E+00  .000E+00
  .000E+00  .000E+00  .000E+00  .000E+00
  .828E-03  .843E-03  .841E-03  .884E-03  .101E-02  .113E-02  .149E-02  .150E-02
  .181E-02  .206E-02  .234E-02  .268E-02  .278E-02  .348E-02  .414E-02  .374E-02
  .255E-02  .268E-02  .233E-02  .173E-02  .151E-02  .160E-02  .164E-02  .130E-02
  .133E-02  .131E-02  .113E-02  .137E-02  .133E-02  .140E-02  .116E-02  .909E-03
  .840E-03  .582E-03  .475E-03  .434E-03  .369E-03  .345E-03  .338E-03  .295E-03
  .249E-03  .155E-03  .112E-03  .923E-04  .791E-04  .697E-04  .620E-04  .594E-04
  .588E-04  .590E-04  .752E-04  .692E-04  .528E-04  .547E-04  .484E-04  .405E-04
  .340E-04  .340E-04  .337E-04  .244E-04  .199E-04  .176E-04  .137E-04  .126E-04
  .915E-05  .708E-05  .593E-05  .500E-05  .427E-05  .389E-05  .374E-05  .341E-05
  .307E-05  .283E-05  .265E-05  .248E-05  .217E-05  .197E-05  .000E+00  .000E+00
  .000E+00  .000E+00  .000E+00  .000E+00  .000E+00  .000E+00  .000E+00  .000E+00
  .000E+00  .000E+00  .000E+00  .000E+00  .000E+00  .000E+00  .000E+00  .000E+00
  .000E+00  .000E+00  .000E+00  .000E+00
  .205E-02  .218E-02  .228E-02  .247E-02  .296E-02  .341E-02  .495E-02  .546E-02
  .724E-02  .890E-02  .108E-01  .130E-01  .142E-01  .193E-01  .241E-01  .235E-01
  .173E-01  .199E-01  .182E-01  .148E-01  .136E-01  .157E-01  .169E-01  .142E-01
  .153E-01  .156E-01  .154E-01  .200E-01  .210E-01  .240E-01  .214E-01  .178E-01
  .177E-01  .127E-01  .111E-01  .106E-01  .947E-02  .923E-02  .927E-02  .860E-02
  .750E-02  .508E-02  .413E-02  .366E-02  .330E-02  .302E-02  .293E-02  .305E-02
  .319E-02  .333E-02  .449E-02  .457E-02  .378E-02  .420E-02  .402E-02  .366E-02
  .329E-02  .345E-02  .361E-02  .273E-02  .236E-02  .231E-02  .194E-02  .192E-02
  .150E-02  .102E-02  .909E-03  .825E-03  .677E-03  .588E-03  .585E-03  .571E-03
  .543E-03  .506E-03  .476E-03  .448E-03  .381E-03  .346E-03  .000E+00  .000E+00
  .000E+00  .000E+00  .000E+00  .000E+00  .000E+00  .000E+00  .000E+00  .000E+00
  .000E+00  .000E+00  .000E+00  .000E+00  .000E+00  .000E+00  .000E+00  .000E+00
  .000E+00  .000E+00  .000E+00  .000E+00
  .559E+02  .559E+02  .515E+02  .516E+02  .516E+02  .516E+02  .516E+02  .520E+02
  .523E+02  .523E+02  .534E+02  .514E+02  .514E+02  .517E+02  .517E+02  .517E+02
  .503E+02  .543E+02  .510E+02  .570E+02  .515E+02  .515E+02  .514E+02  .514E+02
  .509E+02  .509E+02  .509E+02  .508E+02  .508E+02  .509E+02  .508E+02  .533E+02
  .533E+02  .505E+02  .504E+02  .504E+02  .502E+02  .502E+02  .502E+02  .503E+02
  .508E+02  .508E+02  .508E+02  .508E+02  .529E+02  .501E+02  .534E+02  .508E+02
  .508E+02  .529E+02  .545E+02  .585E+02  .548E+02  .548E+02  .532E+02  .630E+02
  .625E+02  .625E+02  .618E+02  .619E+02  .619E+02  .613E+02  .613E+02  .613E+02
  .604E+02  .508E+02  .498E+02  .498E+02  .498E+02  .508E+02  .508E+02  .498E+02
  .498E+02  .498E+02  .498E+02  .498E+02  .501E+02  .498E+02  .000E+00  .000E+00
  .000E+00  .000E+00  .000E+00  .000E+00  .000E+00  .000E+00  .000E+00  .000E+00
  .000E+00  .000E+00  .000E+00  .000E+00  .000E+00  .000E+00  .000E+00  .000E+00
  .000E+00  .000E+00  .000E+00  .000E+00
  .559E+02  .559E+02  .559E+02  .515E+02  .516E+02  .516E+02  .516E+02  .548E+02
  .523E+02  .523E+02  .534E+02  .513E+02  .545E+02  .516E+02  .517E+02  .517E+02
  .581E+02  .543E+02  .509E+02  .571E+02  .515E+02  .515E+02  .514E+02  .514E+02
  .510E+02  .509E+02  .509E+02  .509E+02  .509E+02  .508E+02  .508E+02  .533E+02
  .532E+02  .505E+02  .505E+02  .505E+02  .516E+02  .516E+02  .508E+02  .508E+02
  .508E+02  .502E+02  .533E+02  .502E+02  .502E+02  .502E+02  .533E+02  .533E+02
  .507E+02  .507E+02  .507E+02  .507E+02  .557E+02  .533E+02  .527E+02  .527E+02
  .531E+02  .531E+02  .502E+02  .502E+02  .502E+02  .502E+02  .502E+02  .502E+02
  .502E+02  .502E+02  .502E+02  .502E+02  .502E+02  .502E+02  .502E+02  .502E+02
  .502E+02  .502E+02  .502E+02  .502E+02  .502E+02  .502E+02  .000E+00  .000E+00
  .000E+00  .000E+00  .000E+00  .000E+00  .000E+00  .000E+00  .000E+00  .000E+00
  .000E+00  .000E+00  .000E+00  .000E+00  .000E+00  .000E+00  .000E+00  .000E+00
  .000E+00  .000E+00  .000E+00  .000E+00
  .559E+02  .559E+02  .515E+02  .516E+02  .516E+02  .516E+02  .516E+02  .520E+02
  .523E+02  .523E+02  .534E+02  .514E+02  .514E+02  .517E+02  .517E+02  .517E+02
  .503E+02  .543E+02  .510E+02  .570E+02  .515E+02  .515E+02  .514E+02  .514E+02
  .509E+02  .509E+02  .509E+02  .508E+02  .508E+02  .509E+02  .508E+02  .532E+02
  .533E+02  .505E+02  .504E+02  .504E+02  .502E+02  .502E+02  .502E+02  .502E+02
  .508E+02  .501E+02  .508E+02  .508E+02  .528E+02  .501E+02  .534E+02  .508E+02
  .508E+02  .508E+02  .545E+02  .552E+02  .548E+02  .548E+02  .532E+02  .532E+02
  .625E+02  .625E+02  .618E+02  .618E+02  .618E+02  .612E+02  .613E+02  .613E+02
  .604E+02  .508E+02  .508E+02  .527E+02  .501E+02  .507E+02  .507E+02  .507E+02
  .507E+02  .507E+02  .501E+02  .501E+02  .507E+02  .507E+02  .000E+00  .000E+00
  .000E+00  .000E+00  .000E+00  .000E+00  .000E+00  .000E+00  .000E+00  .000E+00
  .000E+00  .000E+00  .000E+00  .000E+00  .000E+00  .000E+00  .000E+00  .000E+00
  .000E+00  .000E+00  .000E+00  .000E+00
/&   ----------  End of spectral data for channel  1  ----------
Response and Fourier amplitude spectra (78 periods,  .04 -  6.0 sec)   for      
Corrected accelerogram   38695658.CI.DZA.--.HN      Chan  2: 360 Deg     from   
Uncorrected Accelerogram Data             Processed: 09/19/20, CGS  cidza--t    
Rcrd of Fri Sep 18, 2020 23:38:51.0 PDT               (Avol1 v2.0, 4/18 CSMIP)  
                                        (Origin:  To be determined)             
38695658.CI.DZA.--.HN                Start time:  9/19/20, 06:38:51.0 UTC (GPS) 
Station Id. DZA     32.607N, 116.775W    ObsMMS  s/n 5768  (3 Chns of  6 at Sta)
Dulzura                                  SCSN   Data: Acceleration              
Chan  2: 360 Deg                                                                
Rcrd of Fri Sep 18, 2020 23:38:51.0 PDT    Fri Sep 18, 2020 23:38:51.0 PDT      
Hypocenter:  To be determined.               ML:  To be determined.             
Instr Period =  .0050 sec,  Damping =  .707,  Sensitivity = 4.98 v/g  (Nominal) 
                        Record Length =301.000 sec.                             
                                     Uncor Max  =   .001 g, at   51.770 sec.    
RMS accel of (uncor) record  =        .   Chn. metadata effective date:         
Accelerogram bandpass filtered with 3 dB pts at   .30 and 23.00 cyc/sec         
                 instrument- and base-line correcte                             
                                                                                
                                                                                
                                                                                
                                                                                
                                                                                
Rcrd of Fri Sep 18, 2020 23:38:51.0 PDT    Fri Sep 18, 2020 23:38:51.0 PDT      
                                                                                
38695658.CI.DZA.--.HN     Dulzura   Chan  2: 360 Deg                            
                                                                                
38695658.CI.DZA.--.HN     Dulzura   Chan  2: 360 Deg                            
                                                                                
Units for spectra are inches and sec, except Sa is in fraction of g.            
                                                                                
    2  100    2    6    6  100 -999    3    1    0   15 5768    0    0   41    0
    6   38   51    3  263    9   19 2020   10    3  36035980   39    7   74 -999
35980 -999  100    6 -999 -999 -999 -999 -999 -999 -999 -999 -999 -999 -999 -999
 -999 -999 -999 -99915050    2 -999    0 -999   20 -999 -999    3    1 714815050
    315050    4   78    1    3    5    0    0 -999    0 -999 -999    6 -999    2
    2    2    4 -999 -999 -999 -999 -999 -999 -999 -999    1 -999 -999 -999  111
    1    1 -999 -999
      .005      .707   359.800      .000     1.000  4978.683      .001    51.770
   200.000     2.384      .479  -999.000    10.000  -999.000     4.000  -999.000
    20.000    -2.259      .000  -999.000  -999.000  -999.000  -999.000      .004
     -.004     -.008     2.000    15.000    32.607  -116.775      .001      .001
     1.175     -.008     -.007   554.700  -999.000  -999.000  -999.000  -999.000
     1.000  -999.000  -999.000  -999.000  -999.000  -999.000  -999.000   120.000
     -.900     2.000     6.800   980.665      .020   301.000    31.831      .001
  -999.000    23.000  -999.000   301.000      .020      .300  -999.000  -999.000
    51.760     1.216    51.800      .028    50.300      .001      .000      .300
    23.000      .020      .020      .000      .020      .001  -999.000  -999.000
      .005      .130      .002      .001      .000      .000  -999.000  -999.000
  -999.000  -999.000  -999.000  -999.000  -999.000  -999.000  -999.000  -999.000
  -999.000  -999.000  -999.000  -999.000
      .050
      .040      .042      .044      .046      .048      .050      .055      .060
      .065      .070      .075      .080      .085      .090      .095      .100
      .110      .120      .130      .140      .150      .160      .170      .180
      .190      .200      .220      .240      .260      .280      .300      .320
      .340      .360      .380      .400      .420      .440      .460      .480
      .500      .550      .600      .650      .700      .750      .800      .850
      .900      .950     1.000     1.100     1.200     1.300     1.400     1.500
     1.600     1.700     1.800     1.900     2.000     2.200     2.400     2.600
     2.800     3.000     3.200     3.400     3.600     3.800     4.000     4.200
     4.400     4.600     4.800     5.000     5.500     6.000      .000      .000
      .000      .000      .000      .000      .000      .000      .000      .000
      .000      .000      .000      .000      .000      .000      .000      .000
      .000      .000      .000      .000
Fourier amplitude spectra in in/sec.
  .000E+00  .000E+00  .000E+00  .000E+00  .000E+00  .000E+00  .000E+00  .000E+00
  .000E+00  .000E+00  .000E+00  .000E+00  .000E+00  .000E+00  .000E+00  .000E+00
  .000E+00  .000E+00  .000E+00  .000E+00  .000E+00  .000E+00  .000E+00  .000E+00
  .000E+00  .000E+00  .000E+00  .000E+00  .000E+00  .000E+00  .000E+00  .000E+00
  .000E+00  .000E+00  .000E+00  .000E+00  .000E+00  .000E+00  .000E+00  .000E+00
  .000E+00  .000E+00  .000E+00  .000E+00  .000E+00  .000E+00  .000E+00  .000E+00
  .000E+00  .000E+00  .000E+00  .000E+00  .000E+00  .000E+00  .000E+00  .000E+00
  .000E+00  .000E+00  .000E+00  .000E+00  .000E+00  .000E+00  .000E+00  .000E+00
  .000E+00  .000E+00  .000E+00  .000E+00  .000E+00  .000E+00  .000E+00  .000E+00
  .000E+00  .000E+00  .000E+00  .000E+00  .000E+00  .000E+00  .000E+00  .000E+00
  .000E+00  .000E+00  .000E+00  .000E+00  .000E+00  .000E+00  .000E+00  .000E+00
  .000E+00  .000E+00  .000E+00  .000E+00  .000E+00  .000E+00  .000E+00  .000E+00
  .000E+00  .000E+00  .000E+00  .000E+00
Damping =  .05. Data of Sd,Sv,Sa,Pssv,ttSd,ttSv,ttSa :
  .208E-04  .231E-04  .257E-04  .296E-04  .341E-04  .375E-04  .485E-04  .601E-04
  .848E-04  .127E-03  .193E-03  .240E-03  .215E-03  .245E-03  .276E-03  .319E-03
  .505E-03  .703E-03  .855E-03  .758E-03  .635E-03  .539E-03  .561E-03  .424E-03
  .540E-03  .669E-03  .717E-03  .943E-03  .100E-02  .861E-03  .926E-03  .895E-03
  .893E-03  .669E-03  .638E-03  .616E-03  .546E-03  .553E-03  .633E-03  .559E-03
