Response and Fourier amplitude spectra (78 periods,  .04 -  6.0 sec)   for      
Corrected accelerogram   38695658.CI.EDW2.--.H      Chan  1:  90 Deg     from   
Uncorrected Accelerogram Data             Processed: 09/19/20, CGS  ciedw2-u    
Rcrd of Fri Sep 18, 2020 23:38:39.0 PDT               (Avol1 v2.0, 4/18 CSMIP)  
                                        (Origin:  To be determined)             
38695658.CI.EDW2.--.H                Start time:  9/19/20, 06:38:39.0 UTC (GPS) 
Station Id. EDW2    34.881N, 117.994W    Q330    s/n  653  (3 Chns of  6 at Sta)
Building 5781, in parking lot            SCSN   Data: Acceleration              
Chan  1:  90 Deg                                                                
Rcrd of Fri Sep 18, 2020 23:38:39.0 PDT    Fri Sep 18, 2020 23:38:39.0 PDT      
Hypocenter:  To be determined.               ML:  To be determined.             
Instr Period =  .0050 sec,  Damping =  .707,  Sensitivity = 5.00 v/g  (Nominal) 
                        Record Length =301.000 sec.                             
                                     Uncor Max  =  -.001 g, at   36.870 sec.    
RMS accel of (uncor) record  =        .   Chn. metadata effective date:         
Accelerogram bandpass filtered with 3 dB pts at   .30 and 23.00 cyc/sec         
                 instrument- and base-line correcte                             
                                                                                
                                                                                
                                                                                
                                                                                
                                                                                
Rcrd of Fri Sep 18, 2020 23:38:39.0 PDT    Fri Sep 18, 2020 23:38:39.0 PDT      
                                                                                
38695658.CI.EDW2.--.H     Building 5781, in parking lot   Chan  1:  90 Deg      
                                                                                
38695658.CI.EDW2.--.H     Building 5781, in parking lot   Chan  1:  90 Deg      
                                                                                
Units for spectra are inches and sec, except Sa is in fraction of g.            
                                                                                
    1  100    1    6    6  100 -999    3    1   24  605  653    050714   41    0
    6   38   39    8  263    9   19 2020   10    3   9036003   39   29   74 -999
36003 -999  100    6 -999 -999 -999 -999 -999 -999 -999 -999 -999 -999 -999 -999
 -999 -999 -999 -99915050    2 -999    0 -999   20 -999 -999    3    1 -99915050
    315050    4   78    1    3    5    0    0 -999    0 -999 -999    6 -999    2
    2    2    4 -999 -999 -999 -999 -999 -999 -999 -999    1 -999 -999 -999  111
    1    1 -999 -999
      .005      .707   360.030      .000     1.000  4997.654     -.001    36.870
   200.000     2.384      .477  -999.000    10.000  -999.000     4.000  -999.000
    20.000   -10.633    20.000  -999.000  -999.000  -999.000  -999.000      .000
      .000      .000     2.000    15.000    34.881  -117.994      .001      .001
      .928      .000      .000   772.000  -999.000  -999.000  -999.000  -999.000
     1.000  -999.000    -8.000  -999.000  -999.000  -999.000  -999.000   120.000
     -.900     2.000     6.800   980.665      .020   301.000    31.831      .000
  -999.000    23.000  -999.000   301.000      .020      .300  -999.000  -999.000
    36.860    -1.233    36.780      .052    36.720     -.004      .000      .300
    23.000      .020      .020      .000      .020      .001  -999.000  -999.000
      .004      .160      .003      .002      .000      .000  -999.000  -999.000
  -999.000  -999.000  -999.000  -999.000  -999.000  -999.000  -999.000  -999.000
  -999.000  -999.000  -999.000  -999.000
      .050
      .040      .042      .044      .046      .048      .050      .055      .060
      .065      .070      .075      .080      .085      .090      .095      .100
      .110      .120      .130      .140      .150      .160      .170      .180
      .190      .200      .220      .240      .260      .280      .300      .320
      .340      .360      .380      .400      .420      .440      .460      .480
      .500      .550      .600      .650      .700      .750      .800      .850
      .900      .950     1.000     1.100     1.200     1.300     1.400     1.500
     1.600     1.700     1.800     1.900     2.000     2.200     2.400     2.600
     2.800     3.000     3.200     3.400     3.600     3.800     4.000     4.200
     4.400     4.600     4.800     5.000     5.500     6.000      .000      .000
      .000      .000      .000      .000      .000      .000      .000      .000
      .000      .000      .000      .000      .000      .000      .000      .000
      .000      .000      .000      .000
Fourier amplitude spectra in in/sec.
  .000E+00  .000E+00  .000E+00  .000E+00  .000E+00  .000E+00  .000E+00  .000E+00
  .000E+00  .000E+00  .000E+00  .000E+00  .000E+00  .000E+00  .000E+00  .000E+00
  .000E+00  .000E+00  .000E+00  .000E+00  .000E+00  .000E+00  .000E+00  .000E+00
  .000E+00  .000E+00  .000E+00  .000E+00  .000E+00  .000E+00  .000E+00  .000E+00
  .000E+00  .000E+00  .000E+00  .000E+00  .000E+00  .000E+00  .000E+00  .000E+00
  .000E+00  .000E+00  .000E+00  .000E+00  .000E+00  .000E+00  .000E+00  .000E+00
  .000E+00  .000E+00  .000E+00  .000E+00  .000E+00  .000E+00  .000E+00  .000E+00
  .000E+00  .000E+00  .000E+00  .000E+00  .000E+00  .000E+00  .000E+00  .000E+00
  .000E+00  .000E+00  .000E+00  .000E+00  .000E+00  .000E+00  .000E+00  .000E+00
  .000E+00  .000E+00  .000E+00  .000E+00  .000E+00  .000E+00  .000E+00  .000E+00
  .000E+00  .000E+00  .000E+00  .000E+00  .000E+00  .000E+00  .000E+00  .000E+00
  .000E+00  .000E+00  .000E+00  .000E+00  .000E+00  .000E+00  .000E+00  .000E+00
  .000E+00  .000E+00  .000E+00  .000E+00
Damping =  .05. Data of Sd,Sv,Sa,Pssv,ttSd,ttSv,ttSa :
  .223E-04  .249E-04  .278E-04  .313E-04  .398E-04  .481E-04  .779E-04  .872E-04
  .101E-03  .106E-03  .140E-03  .164E-03  .200E-03  .218E-03  .206E-03  .201E-03
  .265E-03  .317E-03  .384E-03  .505E-03  .750E-03  .102E-02  .999E-03  .981E-03
  .107E-02  .117E-02  .136E-02  .194E-02  .193E-02  .174E-02  .185E-02  .195E-02
  .190E-02  .171E-02  .139E-02  .130E-02  .146E-02  .146E-02  .158E-02  .170E-02
  .175E-02  .191E-02  .179E-02  .174E-02  .153E-02  .193E-02  .235E-02  .279E-02
  .324E-02  .350E-02  .384E-02  .389E-02  .360E-02  .342E-02  .295E-02  .262E-02
  .249E-02  .228E-02  .203E-02  .190E-02  .184E-02  .167E-02  .160E-02  .172E-02
  .176E-02  .177E-02  .176E-02  .178E-02  .180E-02  .176E-02  .170E-02  .165E-02
  .161E-02  .156E-02  .153E-02  .151E-02  .148E-02  .147E-02  .000E+00  .000E+00
  .000E+00  .000E+00  .000E+00  .000E+00  .000E+00  .000E+00  .000E+00  .000E+00
  .000E+00  .000E+00  .000E+00  .000E+00  .000E+00  .000E+00  .000E+00  .000E+00
  .000E+00  .000E+00  .000E+00  .000E+00
  .183E-02  .202E-02  .228E-02  .262E-02  .327E-02  .380E-02  .660E-02  .846E-02
  .967E-02  .903E-02  .947E-02  .128E-01  .150E-01  .158E-01  .143E-01  .126E-01
  .146E-01  .152E-01  .174E-01  .215E-01  .300E-01  .391E-01  .359E-01  .316E-01
  .339E-01  .345E-01  .387E-01  .488E-01  .523E-01  .417E-01  .403E-01  .401E-01
  .391E-01  .363E-01  .298E-01  .262E-01  .230E-01  .248E-01  .256E-01  .249E-01
  .275E-01  .305E-01  .293E-01  .244E-01  .219E-01  .239E-01  .250E-01  .250E-01
  .282E-01  .289E-01  .273E-01  .280E-01  .272E-01  .292E-01  .300E-01  .290E-01
  .284E-01  .275E-01  .266E-01  .256E-01  .248E-01  .235E-01  .231E-01  .227E-01
  .222E-01  .219E-01  .216E-01  .214E-01  .211E-01  .208E-01  .207E-01  .206E-01
  .205E-01  .204E-01  .204E-01  .204E-01  .204E-01  .203E-01  .000E+00  .000E+00
  .000E+00  .000E+00  .000E+00  .000E+00  .000E+00  .000E+00  .000E+00  .000E+00
  .000E+00  .000E+00  .000E+00  .000E+00  .000E+00  .000E+00  .000E+00  .000E+00
  .000E+00  .000E+00  .000E+00  .000E+00
  .143E-02  .145E-02  .147E-02  .151E-02  .177E-02  .199E-02  .269E-02  .251E-02
  .249E-02  .224E-02  .255E-02  .261E-02  .291E-02  .276E-02  .231E-02  .208E-02
  .222E-02  .226E-02  .236E-02  .261E-02  .346E-02  .411E-02  .356E-02  .310E-02
  .303E-02  .298E-02  .292E-02  .347E-02  .298E-02  .226E-02  .211E-02  .195E-02
  .170E-02  .134E-02  .990E-03  .833E-03  .853E-03  .778E-03  .762E-03  .775E-03
  .722E-03  .652E-03  .519E-03  .428E-03  .323E-03  .353E-03  .379E-03  .403E-03
  .411E-03  .399E-03  .396E-03  .332E-03  .260E-03  .214E-03  .160E-03  .120E-03
  .101E-03  .826E-04  .663E-04  .547E-04  .475E-04  .368E-04  .297E-04  .274E-04
  .245E-04  .216E-04  .191E-04  .172E-04  .157E-04  .140E-04  .124E-04  .111E-04
  .991E-05  .895E-05  .813E-05  .748E-05  .623E-05  .530E-05  .000E+00  .000E+00
  .000E+00  .000E+00  .000E+00  .000E+00  .000E+00  .000E+00  .000E+00  .000E+00
  .000E+00  .000E+00  .000E+00  .000E+00  .000E+00  .000E+00  .000E+00  .000E+00
  .000E+00  .000E+00  .000E+00  .000E+00
  .351E-02  .373E-02  .397E-02  .427E-02  .520E-02  .605E-02  .890E-02  .913E-02
  .978E-02  .952E-02  .117E-01  .129E-01  .148E-01  .152E-01  .136E-01  .126E-01
  .151E-01  .166E-01  .186E-01  .226E-01  .314E-01  .399E-01  .369E-01  .343E-01
  .355E-01  .368E-01  .388E-01  .509E-01  .465E-01  .391E-01  .387E-01  .382E-01
  .351E-01  .299E-01  .229E-01  .204E-01  .218E-01  .209E-01  .215E-01  .223E-01
  .219E-01  .218E-01  .188E-01  .169E-01  .138E-01  .162E-01  .185E-01  .206E-01
  .226E-01  .232E-01  .241E-01  .222E-01  .189E-01  .165E-01  .132E-01  .110E-01
  .980E-02  .842E-02  .710E-02  .628E-02  .578E-02  .478E-02  .418E-02  .416E-02
  .396E-02  .371E-02  .345E-02  .328E-02  .314E-02  .291E-02  .267E-02  .247E-02
  .229E-02  .214E-02  .200E-02  .190E-02  .169E-02  .154E-02  .000E+00  .000E+00
  .000E+00  .000E+00  .000E+00  .000E+00  .000E+00  .000E+00  .000E+00  .000E+00
  .000E+00  .000E+00  .000E+00  .000E+00  .000E+00  .000E+00  .000E+00  .000E+00
  .000E+00  .000E+00  .000E+00  .000E+00
  .369E+02  .369E+02  .369E+02  .377E+02  .377E+02  .377E+02  .377E+02  .251E+02
  .252E+02  .367E+02  .367E+02  .377E+02  .252E+02  .251E+02  .251E+02  .262E+02
  .377E+02  .374E+02  .367E+02  .377E+02  .382E+02  .382E+02  .382E+02  .369E+02
  .370E+02  .370E+02  .371E+02  .375E+02  .369E+02  .369E+02  .369E+02  .369E+02
  .369E+02  .370E+02  .370E+02  .376E+02  .387E+02  .385E+02  .376E+02  .377E+02
  .370E+02  .370E+02  .373E+02  .368E+02  .371E+02  .371E+02  .372E+02  .376E+02
  .386E+02  .387E+02  .388E+02  .384E+02  .374E+02  .369E+02  .369E+02  .370E+02
  .371E+02  .371E+02  .371E+02  .365E+02  .365E+02  .367E+02  .367E+02  .367E+02
  .367E+02  .367E+02  .367E+02  .367E+02  .367E+02  .367E+02  .367E+02  .367E+02
  .367E+02  .367E+02  .367E+02  .367E+02  .367E+02  .367E+02  .000E+00  .000E+00
  .000E+00  .000E+00  .000E+00  .000E+00  .000E+00  .000E+00  .000E+00  .000E+00
  .000E+00  .000E+00  .000E+00  .000E+00  .000E+00  .000E+00  .000E+00  .000E+00
  .000E+00  .000E+00  .000E+00  .000E+00
  .251E+02  .251E+02  .251E+02  .251E+02  .376E+02  .376E+02  .377E+02  .251E+02
  .252E+02  .252E+02  .285E+02  .252E+02  .251E+02  .252E+02  .252E+02  .251E+02
  .262E+02  .260E+02  .383E+02  .377E+02  .383E+02  .382E+02  .382E+02  .369E+02
  .369E+02  .369E+02  .372E+02  .374E+02  .375E+02  .370E+02  .370E+02  .370E+02
  .369E+02  .369E+02  .369E+02  .377E+02  .377E+02  .386E+02  .384E+02  .369E+02
  .369E+02  .369E+02  .369E+02  .369E+02  .369E+02  .369E+02  .369E+02  .369E+02
  .384E+02  .384E+02  .380E+02  .376E+02  .368E+02  .368E+02  .368E+02  .368E+02
  .368E+02  .368E+02  .368E+02  .368E+02  .368E+02  .368E+02  .368E+02  .368E+02
  .368E+02  .368E+02  .368E+02  .368E+02  .368E+02  .368E+02  .368E+02  .368E+02
  .368E+02  .368E+02  .368E+02  .368E+02  .368E+02  .368E+02  .000E+00  .000E+00
  .000E+00  .000E+00  .000E+00  .000E+00  .000E+00  .000E+00  .000E+00  .000E+00
  .000E+00  .000E+00  .000E+00  .000E+00  .000E+00  .000E+00  .000E+00  .000E+00
  .000E+00  .000E+00  .000E+00  .000E+00
  .369E+02  .369E+02  .369E+02  .377E+02  .377E+02  .377E+02  .377E+02  .251E+02
  .252E+02  .367E+02  .367E+02  .377E+02  .252E+02  .251E+02  .251E+02  .262E+02
  .377E+02  .374E+02  .367E+02  .377E+02  .382E+02  .382E+02  .382E+02  .369E+02
  .370E+02  .370E+02  .371E+02  .375E+02  .375E+02  .370E+02  .369E+02  .369E+02
  .369E+02  .370E+02  .370E+02  .376E+02  .385E+02  .385E+02  .376E+02  .376E+02
  .370E+02  .370E+02  .373E+02  .368E+02  .371E+02  .371E+02  .371E+02  .376E+02
  .386E+02  .387E+02  .388E+02  .384E+02  .374E+02  .368E+02  .368E+02  .370E+02
  .370E+02  .370E+02  .370E+02  .365E+02  .365E+02  .367E+02  .367E+02  .367E+02
  .367E+02  .367E+02  .367E+02  .367E+02  .367E+02  .367E+02  .367E+02  .367E+02
  .367E+02  .367E+02  .367E+02  .367E+02  .367E+02  .367E+02  .000E+00  .000E+00
  .000E+00  .000E+00  .000E+00  .000E+00  .000E+00  .000E+00  .000E+00  .000E+00
  .000E+00  .000E+00  .000E+00  .000E+00  .000E+00  .000E+00  .000E+00  .000E+00
  .000E+00  .000E+00  .000E+00  .000E+00
/&   ----------  End of spectral data for channel  1  ----------
Response and Fourier amplitude spectra (78 periods,  .04 -  6.0 sec)   for      
Corrected accelerogram   38695658.CI.EDW2.--.H      Chan  2: 360 Deg     from   
Uncorrected Accelerogram Data             Processed: 09/19/20, CGS  ciedw2-u    
Rcrd of Fri Sep 18, 2020 23:38:39.0 PDT               (Avol1 v2.0, 4/18 CSMIP)  
                                        (Origin:  To be determined)             
38695658.CI.EDW2.--.H                Start time:  9/19/20, 06:38:39.0 UTC (GPS) 
Station Id. EDW2    34.881N, 117.994W    Q330    s/n  653  (3 Chns of  6 at Sta)
Building 5781, in parking lot            SCSN   Data: Acceleration              
Chan  2: 360 Deg                                                                
Rcrd of Fri Sep 18, 2020 23:38:39.0 PDT    Fri Sep 18, 2020 23:38:39.0 PDT      
Hypocenter:  To be determined.               ML:  To be determined.             
Instr Period =  .0050 sec,  Damping =  .707,  Sensitivity = 5.00 v/g  (Nominal) 
                        Record Length =301.000 sec.                             
                                     Uncor Max  =   .001 g, at   36.890 sec.    
RMS accel of (uncor) record  =        .   Chn. metadata effective date:         
Accelerogram bandpass filtered with 3 dB pts at   .30 and 23.00 cyc/sec         
                 instrument- and base-line correcte                             
                                                                                
                                                                                
                                                                                
                                                                                
                                                                                
Rcrd of Fri Sep 18, 2020 23:38:39.0 PDT    Fri Sep 18, 2020 23:38:39.0 PDT      
                                                                                
38695658.CI.EDW2.--.H     Building 5781, in parking lot   Chan  2: 360 Deg      
                                                                                
38695658.CI.EDW2.--.H     Building 5781, in parking lot   Chan  2: 360 Deg      
                                                                                
Units for spectra are inches and sec, except Sa is in fraction of g.            
                                                                                
    2  100    2    6    6  100 -999    3    1   24  605  653    050714   41    0
    6   38   39    8  263    9   19 2020   10    3  36035510   39   29   74 -999
35510 -999  100    6 -999 -999 -999 -999 -999 -999 -999 -999 -999 -999 -999 -999
 -999 -999 -999 -99915050    2 -999    0 -999   20 -999 -999    3    1 -99915050
    315050    4   78    1    3    5    0    0 -999    0 -999 -999    6 -999    2
    2    2    4 -999 -999 -999 -999 -999 -999 -999 -999    1 -999 -999 -999  111
    1    1 -999 -999
      .005      .707   355.100      .000     1.000  4997.654      .001    36.890
   200.000     2.384      .477  -999.000    10.000  -999.000     4.000  -999.000
    20.000   -13.899    20.000  -999.000  -999.000  -999.000  -999.000      .000
      .001      .000     2.000    15.000    34.881  -117.994      .001      .001
      .903      .000      .000   772.000  -999.000  -999.000  -999.000  -999.000
     1.000  -999.000  -999.000  -999.000  -999.000  -999.000  -999.000   120.000
     -.900     2.000     6.800   980.665      .020   301.000    31.831      .000
  -999.000    23.000  -999.000   301.000      .020      .300  -999.000  -999.000
    36.880      .771    36.260      .036    36.520      .004      .000      .300
    23.000      .020      .020      .000      .020      .002  -999.000  -999.000
      .003      .240      .002      .002      .000      .000  -999.000  -999.000
  -999.000  -999.000  -999.000  -999.000  -999.000  -999.000  -999.000  -999.000
  -999.000  -999.000  -999.000  -999.000
      .050
      .040      .042      .044      .046      .048      .050      .055      .060
      .065      .070      .075      .080      .085      .090      .095      .100
      .110      .120      .130      .140      .150      .160      .170      .180
      .190      .200      .220      .240      .260      .280      .300      .320
      .340      .360      .380      .400      .420      .440      .460      .480
      .500      .550      .600      .650      .700      .750      .800      .850
      .900      .950     1.000     1.100     1.200     1.300     1.400     1.500
     1.600     1.700     1.800     1.900     2.000     2.200     2.400     2.600
     2.800     3.000     3.200     3.400     3.600     3.800     4.000     4.200
     4.400     4.600     4.800     5.000     5.500     6.000      .000      .000
      .000      .000      .000      .000      .000      .000      .000      .000
      .000      .000      .000      .000      .000      .000      .000      .000
      .000      .000      .000      .000
Fourier amplitude spectra in in/sec.
  .000E+00  .000E+00  .000E+00  .000E+00  .000E+00  .000E+00  .000E+00  .000E+00
  .000E+00  .000E+00  .000E+00  .000E+00  .000E+00  .000E+00  .000E+00  .000E+00
  .000E+00  .000E+00  .000E+00  .000E+00  .000E+00  .000E+00  .000E+00  .000E+00
  .000E+00  .000E+00  .000E+00  .000E+00  .000E+00  .000E+00  .000E+00  .000E+00
  .000E+00  .000E+00  .000E+00  .000E+00  .000E+00  .000E+00  .000E+00  .000E+00
  .000E+00  .000E+00  .000E+00  .000E+00  .000E+00  .000E+00  .000E+00  .000E+00
  .000E+00  .000E+00  .000E+00  .000E+00  .000E+00  .000E+00  .000E+00  .000E+00
  .000E+00  .000E+00  .000E+00  .000E+00  .000E+00  .000E+00  .000E+00  .000E+00
  .000E+00  .000E+00  .000E+00  .000E+00  .000E+00  .000E+00  .000E+00  .000E+00
  .000E+00  .000E+00  .000E+00  .000E+00  .000E+00  .000E+00  .000E+00  .000E+00
  .000E+00  .000E+00  .000E+00  .000E+00  .000E+00  .000E+00  .000E+00  .000E+00
  .000E+00  .000E+00  .000E+00  .000E+00  .000E+00  .000E+00  .000E+00  .000E+00
  .000E+00  .000E+00  .000E+00  .000E+00
Damping =  .05. Data of Sd,Sv,Sa,Pssv,ttSd,ttSv,ttSa :
  .157E-04  .172E-04  .197E-04  .224E-04  .258E-04  .305E-04  .366E-04  .457E-04
  .613E-04  .770E-04  .120E-03  .162E-03  .167E-03  .183E-03  .172E-03  .204E-03
  .250E-03  .343E-03  .424E-03  .412E-03  .416E-03  .454E-03  .469E-03  .633E-03
  .691E-03  .665E-03  .106E-02  .152E-02  .158E-02  .170E-02  .134E-02  .128E-02
  .121E-02  .143E-02  .146E-02  .118E-02  .121E-02  .131E-02  .125E-02  .132E-02
