Response and Fourier amplitude spectra (78 periods,  .04 -  6.0 sec)   for      
Corrected accelerogram   38695658.CI.ESI2.--.H      Chan  1:  90 Deg     from   
Uncorrected Accelerogram Data             Processed: 09/19/20, CGS  ciesi2-n    
Rcrd of Fri Sep 18, 2020 23:38:37.0 PDT               (Avol1 v2.0, 4/18 CSMIP)  
                                        (Origin:  To be determined)             
38695658.CI.ESI2.--.H                Start time:  9/19/20, 06:38:37.0 UTC (GPS) 
Station Id. ESI2    33.675N, 117.326W    ObsMMS  s/n 1935  (3 Chns of  6 at Sta)
Elsinore                                 SCSN   Data: Acceleration              
Chan  1:  90 Deg                                                                
Rcrd of Fri Sep 18, 2020 23:38:37.0 PDT    Fri Sep 18, 2020 23:38:37.0 PDT      
Hypocenter:  To be determined.               ML:  To be determined.             
Instr Period =  .0050 sec,  Damping =  .707,  Sensitivity = 4.98 v/g  (Nominal) 
                        Record Length =301.000 sec.                             
                                     Uncor Max  =  -.006 g, at   34.710 sec.    
RMS accel of (uncor) record  =        .   Chn. metadata effective date:         
Accelerogram bandpass filtered with 3 dB pts at   .30 and 23.00 cyc/sec         
                 instrument- and base-line correcte                             
                                                                                
                                                                                
                                                                                
                                                                                
                                                                                
Rcrd of Fri Sep 18, 2020 23:38:37.0 PDT    Fri Sep 18, 2020 23:38:37.0 PDT      
                                                                                
38695658.CI.ESI2.--.H     Elsinore    Chan  1:  90 Deg                          
                                                                                
38695658.CI.ESI2.--.H     Elsinore    Chan  1:  90 Deg                          
                                                                                
Units for spectra are inches and sec, except Sa is in fraction of g.            
                                                                                
    1  100    1    6    6  100 -999    3    1    0   15 1935    0    0   41    0
    6   38   37    0  263    9   19 2020   10    3   9035607   39    8   74 -999
35607 -999  100    6 -999 -999 -999 -999 -999 -999 -999 -999 -999 -999 -999 -999
 -999 -999 -999 -99915050    2 -999    0 -999   20 -999 -999    3    1 -99915050
    315050    4   78    1    3    5    0    0 -999    0 -999 -999    6 -999    2
    2    2    4 -999 -999 -999 -999 -999 -999 -999 -999    1 -999 -999 -999  111
    1    1 -999 -999
      .005      .707   356.070      .000     1.000  4980.500     -.006    34.710
   200.000     2.384      .479  -999.000    10.000  -999.000     4.000  -999.000
    20.000   -23.721      .000  -999.000  -999.000  -999.000  -999.000     -.009
      .008      .017     2.000    15.000    33.675  -117.326      .013      .020
     1.525      .014      .020   388.000  -999.000  -999.000  -999.000  -999.000
     1.000  -999.000    -8.000  -999.000  -999.000  -999.000  -999.000   120.000
     -.900     2.000     6.800   980.665      .020   301.000    31.831     -.001
  -999.000    23.000  -999.000   301.000      .020      .300  -999.000  -999.000
    35.380     5.779    34.680      .179    34.020      .006      .000      .300
    23.000      .020      .020      .000      .020      .004  -999.000  -999.000
      .025      .150      .011      .007      .000      .000  -999.000  -999.000
  -999.000  -999.000  -999.000  -999.000  -999.000  -999.000  -999.000  -999.000
  -999.000  -999.000  -999.000  -999.000
      .050
      .040      .042      .044      .046      .048      .050      .055      .060
      .065      .070      .075      .080      .085      .090      .095      .100
      .110      .120      .130      .140      .150      .160      .170      .180
      .190      .200      .220      .240      .260      .280      .300      .320
      .340      .360      .380      .400      .420      .440      .460      .480
      .500      .550      .600      .650      .700      .750      .800      .850
      .900      .950     1.000     1.100     1.200     1.300     1.400     1.500
     1.600     1.700     1.800     1.900     2.000     2.200     2.400     2.600
     2.800     3.000     3.200     3.400     3.600     3.800     4.000     4.200
     4.400     4.600     4.800     5.000     5.500     6.000      .000      .000
      .000      .000      .000      .000      .000      .000      .000      .000
      .000      .000      .000      .000      .000      .000      .000      .000
      .000      .000      .000      .000
Fourier amplitude spectra in in/sec.
  .000E+00  .000E+00  .000E+00  .000E+00  .000E+00  .000E+00  .000E+00  .000E+00
  .000E+00  .000E+00  .000E+00  .000E+00  .000E+00  .000E+00  .000E+00  .000E+00
  .000E+00  .000E+00  .000E+00  .000E+00  .000E+00  .000E+00  .000E+00  .000E+00
  .000E+00  .000E+00  .000E+00  .000E+00  .000E+00  .000E+00  .000E+00  .000E+00
  .000E+00  .000E+00  .000E+00  .000E+00  .000E+00  .000E+00  .000E+00  .000E+00
  .000E+00  .000E+00  .000E+00  .000E+00  .000E+00  .000E+00  .000E+00  .000E+00
  .000E+00  .000E+00  .000E+00  .000E+00  .000E+00  .000E+00  .000E+00  .000E+00
  .000E+00  .000E+00  .000E+00  .000E+00  .000E+00  .000E+00  .000E+00  .000E+00
  .000E+00  .000E+00  .000E+00  .000E+00  .000E+00  .000E+00  .000E+00  .000E+00
  .000E+00  .000E+00  .000E+00  .000E+00  .000E+00  .000E+00  .000E+00  .000E+00
  .000E+00  .000E+00  .000E+00  .000E+00  .000E+00  .000E+00  .000E+00  .000E+00
  .000E+00  .000E+00  .000E+00  .000E+00  .000E+00  .000E+00  .000E+00  .000E+00
  .000E+00  .000E+00  .000E+00  .000E+00
Damping =  .05. Data of Sd,Sv,Sa,Pssv,ttSd,ttSv,ttSa :
  .108E-03  .123E-03  .140E-03  .160E-03  .186E-03  .215E-03  .287E-03  .404E-03
  .458E-03  .577E-03  .663E-03  .788E-03  .949E-03  .117E-02  .137E-02  .179E-02
  .255E-02  .276E-02  .347E-02  .440E-02  .540E-02  .521E-02  .418E-02  .470E-02
  .409E-02  .450E-02  .409E-02  .619E-02  .673E-02  .669E-02  .627E-02  .556E-02
  .503E-02  .489E-02  .449E-02  .421E-02  .428E-02  .453E-02  .467E-02  .463E-02
  .428E-02  .338E-02  .236E-02  .264E-02  .341E-02  .355E-02  .393E-02  .432E-02
  .446E-02  .457E-02  .457E-02  .456E-02  .434E-02  .388E-02  .324E-02  .318E-02
  .356E-02  .375E-02  .414E-02  .436E-02  .426E-02  .409E-02  .368E-02  .343E-02
  .336E-02  .337E-02  .325E-02  .305E-02  .288E-02  .280E-02  .274E-02  .270E-02
  .268E-02  .262E-02  .256E-02  .253E-02  .244E-02  .241E-02  .000E+00  .000E+00
  .000E+00  .000E+00  .000E+00  .000E+00  .000E+00  .000E+00  .000E+00  .000E+00
  .000E+00  .000E+00  .000E+00  .000E+00  .000E+00  .000E+00  .000E+00  .000E+00
  .000E+00  .000E+00  .000E+00  .000E+00
  .745E-02  .844E-02  .969E-02  .114E-01  .137E-01  .169E-01  .258E-01  .335E-01
  .333E-01  .420E-01  .433E-01  .494E-01  .574E-01  .682E-01  .708E-01  .857E-01
  .125E+00  .142E+00  .156E+00  .189E+00  .230E+00  .215E+00  .166E+00  .171E+00
  .151E+00  .151E+00  .134E+00  .177E+00  .180E+00  .188E+00  .146E+00  .132E+00
  .113E+00  .114E+00  .115E+00  .112E+00  .111E+00  .104E+00  .954E-01  .847E-01
  .854E-01  .831E-01  .761E-01  .646E-01  .674E-01  .707E-01  .687E-01  .665E-01
  .692E-01  .716E-01  .727E-01  .768E-01  .791E-01  .800E-01  .805E-01  .791E-01
  .784E-01  .772E-01  .763E-01  .743E-01  .723E-01  .694E-01  .669E-01  .662E-01
  .653E-01  .644E-01  .642E-01  .643E-01  .645E-01  .646E-01  .648E-01  .649E-01
  .650E-01  .651E-01  .652E-01  .653E-01  .655E-01  .655E-01  .000E+00  .000E+00
  .000E+00  .000E+00  .000E+00  .000E+00  .000E+00  .000E+00  .000E+00  .000E+00
  .000E+00  .000E+00  .000E+00  .000E+00  .000E+00  .000E+00  .000E+00  .000E+00
  .000E+00  .000E+00  .000E+00  .000E+00
  .688E-02  .710E-02  .740E-02  .771E-02  .829E-02  .879E-02  .980E-02  .114E-01
  .112E-01  .120E-01  .120E-01  .124E-01  .135E-01  .147E-01  .158E-01  .184E-01
  .218E-01  .196E-01  .212E-01  .230E-01  .248E-01  .211E-01  .148E-01  .150E-01
  .117E-01  .115E-01  .887E-02  .112E-01  .103E-01  .891E-02  .728E-02  .555E-02
  .443E-02  .392E-02  .320E-02  .268E-02  .256E-02  .251E-02  .231E-02  .205E-02
  .174E-02  .115E-02  .684E-03  .661E-03  .740E-03  .663E-03  .661E-03  .642E-03
  .591E-03  .545E-03  .494E-03  .413E-03  .337E-03  .264E-03  .189E-03  .156E-03
  .153E-03  .143E-03  .142E-03  .135E-03  .120E-03  .981E-04  .754E-04  .609E-04
  .535E-04  .475E-04  .416E-04  .358E-04  .314E-04  .278E-04  .256E-04  .249E-04
  .243E-04  .236E-04  .227E-04  .219E-04  .201E-04  .183E-04  .000E+00  .000E+00
  .000E+00  .000E+00  .000E+00  .000E+00  .000E+00  .000E+00  .000E+00  .000E+00
  .000E+00  .000E+00  .000E+00  .000E+00  .000E+00  .000E+00  .000E+00  .000E+00
  .000E+00  .000E+00  .000E+00  .000E+00
  .169E-01  .184E-01  .200E-01  .218E-01  .244E-01  .270E-01  .328E-01  .423E-01
  .442E-01  .518E-01  .555E-01  .619E-01  .701E-01  .815E-01  .909E-01  .112E+00
  .145E+00  .144E+00  .168E+00  .198E+00  .226E+00  .205E+00  .155E+00  .164E+00
  .135E+00  .142E+00  .117E+00  .162E+00  .163E+00  .150E+00  .131E+00  .109E+00
  .929E-01  .854E-01  .742E-01  .661E-01  .641E-01  .647E-01  .638E-01  .606E-01
  .538E-01  .386E-01  .247E-01  .255E-01  .306E-01  .297E-01  .309E-01  .320E-01
  .312E-01  .302E-01  .287E-01  .260E-01  .227E-01  .187E-01  .145E-01  .133E-01
  .140E-01  .139E-01  .145E-01  .144E-01  .134E-01  .117E-01  .963E-02  .829E-02
  .754E-02  .706E-02  .639E-02  .563E-02  .503E-02  .463E-02  .430E-02  .404E-02
  .382E-02  .358E-02  .335E-02  .318E-02  .279E-02  .252E-02  .000E+00  .000E+00
  .000E+00  .000E+00  .000E+00  .000E+00  .000E+00  .000E+00  .000E+00  .000E+00
  .000E+00  .000E+00  .000E+00  .000E+00  .000E+00  .000E+00  .000E+00  .000E+00
  .000E+00  .000E+00  .000E+00  .000E+00
  .354E+02  .354E+02  .354E+02  .354E+02  .354E+02  .354E+02  .354E+02  .354E+02
  .354E+02  .353E+02  .354E+02  .354E+02  .354E+02  .354E+02  .347E+02  .347E+02
  .347E+02  .360E+02  .348E+02  .348E+02  .348E+02  .348E+02  .358E+02  .358E+02
  .357E+02  .357E+02  .348E+02  .354E+02  .354E+02  .353E+02  .353E+02  .352E+02
  .351E+02  .350E+02  .350E+02  .348E+02  .347E+02  .347E+02  .347E+02  .347E+02
  .347E+02  .347E+02  .344E+02  .344E+02  .352E+02  .353E+02  .347E+02  .347E+02
  .347E+02  .347E+02  .347E+02  .347E+02  .347E+02  .347E+02  .350E+02  .345E+02
  .345E+02  .345E+02  .345E+02  .345E+02  .345E+02  .345E+02  .346E+02  .360E+02
  .360E+02  .351E+02  .351E+02  .351E+02  .351E+02  .340E+02  .340E+02  .340E+02
  .340E+02  .340E+02  .340E+02  .340E+02  .340E+02  .340E+02  .000E+00  .000E+00
  .000E+00  .000E+00  .000E+00  .000E+00  .000E+00  .000E+00  .000E+00  .000E+00
  .000E+00  .000E+00  .000E+00  .000E+00  .000E+00  .000E+00  .000E+00  .000E+00
  .000E+00  .000E+00  .000E+00  .000E+00
  .354E+02  .354E+02  .354E+02  .354E+02  .354E+02  .354E+02  .354E+02  .357E+02
  .354E+02  .352E+02  .354E+02  .355E+02  .354E+02  .355E+02  .347E+02  .347E+02
  .348E+02  .360E+02  .348E+02  .348E+02  .348E+02  .348E+02  .358E+02  .357E+02
  .357E+02  .357E+02  .348E+02  .355E+02  .354E+02  .354E+02  .354E+02  .353E+02
  .350E+02  .347E+02  .347E+02  .347E+02  .347E+02  .347E+02  .347E+02  .347E+02
  .347E+02  .347E+02  .347E+02  .347E+02  .347E+02  .347E+02  .347E+02  .347E+02
  .347E+02  .347E+02  .347E+02  .347E+02  .347E+02  .347E+02  .347E+02  .347E+02
  .347E+02  .347E+02  .347E+02  .347E+02  .347E+02  .347E+02  .347E+02  .347E+02
  .347E+02  .347E+02  .347E+02  .347E+02  .347E+02  .347E+02  .347E+02  .347E+02
  .347E+02  .347E+02  .347E+02  .347E+02  .347E+02  .347E+02  .000E+00  .000E+00
  .000E+00  .000E+00  .000E+00  .000E+00  .000E+00  .000E+00  .000E+00  .000E+00
  .000E+00  .000E+00  .000E+00  .000E+00  .000E+00  .000E+00  .000E+00  .000E+00
  .000E+00  .000E+00  .000E+00  .000E+00
  .354E+02  .354E+02  .354E+02  .354E+02  .354E+02  .354E+02  .347E+02  .354E+02
  .354E+02  .353E+02  .354E+02  .354E+02  .354E+02  .354E+02  .347E+02  .347E+02
  .347E+02  .359E+02  .348E+02  .348E+02  .348E+02  .348E+02  .358E+02  .358E+02
  .357E+02  .357E+02  .348E+02  .354E+02  .354E+02  .353E+02  .353E+02  .352E+02
  .351E+02  .350E+02  .348E+02  .348E+02  .347E+02  .347E+02  .347E+02  .347E+02
  .347E+02  .347E+02  .344E+02  .344E+02  .352E+02  .352E+02  .347E+02  .347E+02
  .347E+02  .347E+02  .347E+02  .347E+02  .347E+02  .347E+02  .347E+02  .345E+02
  .345E+02  .345E+02  .345E+02  .345E+02  .345E+02  .345E+02  .346E+02  .346E+02
  .362E+02  .351E+02  .351E+02  .351E+02  .351E+02  .351E+02  .347E+02  .347E+02
  .347E+02  .347E+02  .347E+02  .347E+02  .347E+02  .347E+02  .000E+00  .000E+00
  .000E+00  .000E+00  .000E+00  .000E+00  .000E+00  .000E+00  .000E+00  .000E+00
  .000E+00  .000E+00  .000E+00  .000E+00  .000E+00  .000E+00  .000E+00  .000E+00
  .000E+00  .000E+00  .000E+00  .000E+00
/&   ----------  End of spectral data for channel  1  ----------
Response and Fourier amplitude spectra (78 periods,  .04 -  6.0 sec)   for      
Corrected accelerogram   38695658.CI.ESI2.--.H      Chan  2: 360 Deg     from   
Uncorrected Accelerogram Data             Processed: 09/19/20, CGS  ciesi2-n    
Rcrd of Fri Sep 18, 2020 23:38:37.0 PDT               (Avol1 v2.0, 4/18 CSMIP)  
                                        (Origin:  To be determined)             
38695658.CI.ESI2.--.H                Start time:  9/19/20, 06:38:37.0 UTC (GPS) 
Station Id. ESI2    33.675N, 117.326W    ObsMMS  s/n 1935  (3 Chns of  6 at Sta)
Elsinore                                 SCSN   Data: Acceleration              
Chan  2: 360 Deg                                                                
Rcrd of Fri Sep 18, 2020 23:38:37.0 PDT    Fri Sep 18, 2020 23:38:37.0 PDT      
Hypocenter:  To be determined.               ML:  To be determined.             
Instr Period =  .0050 sec,  Damping =  .707,  Sensitivity = 4.99 v/g  (Nominal) 
                        Record Length =301.000 sec.                             
                                     Uncor Max  =  -.007 g, at   34.970 sec.    
RMS accel of (uncor) record  =        .   Chn. metadata effective date:         
Accelerogram bandpass filtered with 3 dB pts at   .30 and 23.00 cyc/sec         
                 instrument- and base-line correcte                             
                                                                                
                                                                                
                                                                                
                                                                                
                                                                                
Rcrd of Fri Sep 18, 2020 23:38:37.0 PDT    Fri Sep 18, 2020 23:38:37.0 PDT      
                                                                                
38695658.CI.ESI2.--.H     Elsinore    Chan  2: 360 Deg                          
                                                                                
38695658.CI.ESI2.--.H     Elsinore    Chan  2: 360 Deg                          
                                                                                
Units for spectra are inches and sec, except Sa is in fraction of g.            
                                                                                
    2  100    2    6    6  100 -999    3    1    0   15 1935    0    0   41    0
    6   38   37    0  263    9   19 2020   10    3  36035648   39    8   74 -999
35648 -999  100    6 -999 -999 -999 -999 -999 -999 -999 -999 -999 -999 -999 -999
 -999 -999 -999 -99915050    2 -999    0 -999   20 -999 -999    3    1 -99915050
    315050    4   78    1    3    5    0    0 -999    0 -999 -999    6 -999    2
    2    2    4 -999 -999 -999 -999 -999 -999 -999 -999    1 -999 -999 -999  111
    1    1 -999 -999
      .005      .707   356.480      .000     1.000  4986.484     -.007    34.970
   200.000     2.384      .478  -999.000    10.000  -999.000     4.000  -999.000
    20.000   -10.756      .000  -999.000  -999.000  -999.000  -999.000      .002
     -.002     -.003     2.000    15.000    33.675  -117.326      .018      .031
     1.671     -.007      .000   388.000  -999.000  -999.000  -999.000  -999.000
     1.000  -999.000  -999.000  -999.000  -999.000  -999.000  -999.000   120.000
     -.900     2.000     6.800   980.665      .020   301.000    31.831      .000
  -999.000    23.000  -999.000   301.000      .020      .300  -999.000  -999.000
    34.980    -5.930    35.000     -.147    34.060      .007      .000      .300
    23.000      .020      .020      .000      .020      .004  -999.000  -999.000
      .028      .130      .015      .006      .000      .000  -999.000  -999.000
  -999.000  -999.000  -999.000  -999.000  -999.000  -999.000  -999.000  -999.000
  -999.000  -999.000  -999.000  -999.000
      .050
      .040      .042      .044      .046      .048      .050      .055      .060
      .065      .070      .075      .080      .085      .090      .095      .100
      .110      .120      .130      .140      .150      .160      .170      .180
      .190      .200      .220      .240      .260      .280      .300      .320
      .340      .360      .380      .400      .420      .440      .460      .480
      .500      .550      .600      .650      .700      .750      .800      .850
      .900      .950     1.000     1.100     1.200     1.300     1.400     1.500
     1.600     1.700     1.800     1.900     2.000     2.200     2.400     2.600
     2.800     3.000     3.200     3.400     3.600     3.800     4.000     4.200
     4.400     4.600     4.800     5.000     5.500     6.000      .000      .000
      .000      .000      .000      .000      .000      .000      .000      .000
      .000      .000      .000      .000      .000      .000      .000      .000
      .000      .000      .000      .000
Fourier amplitude spectra in in/sec.
  .000E+00  .000E+00  .000E+00  .000E+00  .000E+00  .000E+00  .000E+00  .000E+00
  .000E+00  .000E+00  .000E+00  .000E+00  .000E+00  .000E+00  .000E+00  .000E+00
  .000E+00  .000E+00  .000E+00  .000E+00  .000E+00  .000E+00  .000E+00  .000E+00
  .000E+00  .000E+00  .000E+00  .000E+00  .000E+00  .000E+00  .000E+00  .000E+00
  .000E+00  .000E+00  .000E+00  .000E+00  .000E+00  .000E+00  .000E+00  .000E+00
  .000E+00  .000E+00  .000E+00  .000E+00  .000E+00  .000E+00  .000E+00  .000E+00
  .000E+00  .000E+00  .000E+00  .000E+00  .000E+00  .000E+00  .000E+00  .000E+00
  .000E+00  .000E+00  .000E+00  .000E+00  .000E+00  .000E+00  .000E+00  .000E+00
  .000E+00  .000E+00  .000E+00  .000E+00  .000E+00  .000E+00  .000E+00  .000E+00
  .000E+00  .000E+00  .000E+00  .000E+00  .000E+00  .000E+00  .000E+00  .000E+00
  .000E+00  .000E+00  .000E+00  .000E+00  .000E+00  .000E+00  .000E+00  .000E+00
  .000E+00  .000E+00  .000E+00  .000E+00  .000E+00  .000E+00  .000E+00  .000E+00
  .000E+00  .000E+00  .000E+00  .000E+00
Damping =  .05. Data of Sd,Sv,Sa,Pssv,ttSd,ttSv,ttSa :
  .112E-03  .126E-03  .143E-03  .159E-03  .176E-03  .201E-03  .309E-03  .388E-03
  .586E-03  .670E-03  .670E-03  .771E-03  .866E-03  .111E-02  .126E-02  .145E-02
  .210E-02  .294E-02  .464E-02  .501E-02  .556E-02  .514E-02  .513E-02  .501E-02
  .512E-02  .615E-02  .730E-02  .597E-02  .509E-02  .531E-02  .531E-02  .442E-02
  .413E-02  .347E-02  .354E-02  .371E-02  .364E-02  .380E-02  .397E-02  .404E-02
