Response and Fourier amplitude spectra (78 periods,  .04 -  6.0 sec)   for      
Corrected accelerogram   38695658.CI.FMO.--.HN      Chan  1:  90 Deg     from   
Uncorrected Accelerogram Data             Processed: 09/19/20, CGS  cifmo--s    
Rcrd of Fri Sep 18, 2020 23:38:37.0 PDT               (Avol1 v2.0, 4/18 CSMIP)  
                                        (Origin:  To be determined)             
38695658.CI.FMO.--.HN                Start time:  9/19/20, 06:38:37.0 UTC (GPS) 
Station Id. FMO     34.409N, 118.921W    ObsMMS  s/n 1917  (3 Chns of  6 at Sta)
Fillmore                                 SCSN   Data: Acceleration              
Chan  1:  90 Deg                                                                
Rcrd of Fri Sep 18, 2020 23:38:37.0 PDT    Fri Sep 18, 2020 23:38:37.0 PDT      
Hypocenter:  To be determined.               ML:  To be determined.             
Instr Period =  .0050 sec,  Damping =  .707,  Sensitivity = 4.98 v/g  (Nominal) 
                        Record Length =301.000 sec.                             
                                     Uncor Max  =  -.002 g, at   39.800 sec.    
RMS accel of (uncor) record  =        .   Chn. metadata effective date:         
Accelerogram bandpass filtered with 3 dB pts at   .30 and 23.00 cyc/sec         
                 instrument- and base-line correcte                             
                                                                                
                                                                                
                                                                                
                                                                                
                                                                                
Rcrd of Fri Sep 18, 2020 23:38:37.0 PDT    Fri Sep 18, 2020 23:38:37.0 PDT      
                                                                                
38695658.CI.FMO.--.HN     Fillmore    Chan  1:  90 Deg                          
                                                                                
38695658.CI.FMO.--.HN     Fillmore    Chan  1:  90 Deg                          
                                                                                
Units for spectra are inches and sec, except Sa is in fraction of g.            
                                                                                
    1  100    1    6    6  100 -999    3    1    0   15 1917    0    0   41    0
    6   38   37   10  263    9   19 2020   10    3   9035895   39    8   74 -999
35895 -999  100    6 -999 -999 -999 -999 -999 -999 -999 -999 -999 -999 -999 -999
 -999 -999 -999 -99915050    2 -999    0 -999   20 -999 -999    3    1 -99915050
    315050    4   78    1    3    5    0    0 -999    0 -999 -999    6 -999    2
    2    2    4 -999 -999 -999 -999 -999 -999 -999 -999    1 -999 -999 -999  111
    1    1 -999 -999
      .005      .707   358.950      .000     1.000  4984.489     -.002    39.800
   200.000     2.384      .478  -999.000    10.000  -999.000     4.000  -999.000
    20.000   -18.777      .000  -999.000  -999.000  -999.000  -999.000      .000
      .000      .000     2.000    15.000    34.409  -118.921      .002      .004
     1.527      .000      .001   137.000  -999.000  -999.000  -999.000  -999.000
     1.000  -999.000    -8.000  -999.000  -999.000  -999.000  -999.000   120.000
     -.900     2.000     6.800   980.665      .020   301.000    31.831      .000
  -999.000    23.000  -999.000   301.000      .020      .300  -999.000  -999.000
    39.800    -1.709    38.920     -.105    39.780      .019      .000      .300
    23.000      .020      .020      .000      .020      .008  -999.000  -999.000
      .005      .220      .004      .003      .002      .000  -999.000  -999.000
  -999.000  -999.000  -999.000  -999.000  -999.000  -999.000  -999.000  -999.000
  -999.000  -999.000  -999.000  -999.000
      .050
      .040      .042      .044      .046      .048      .050      .055      .060
      .065      .070      .075      .080      .085      .090      .095      .100
      .110      .120      .130      .140      .150      .160      .170      .180
      .190      .200      .220      .240      .260      .280      .300      .320
      .340      .360      .380      .400      .420      .440      .460      .480
      .500      .550      .600      .650      .700      .750      .800      .850
      .900      .950     1.000     1.100     1.200     1.300     1.400     1.500
     1.600     1.700     1.800     1.900     2.000     2.200     2.400     2.600
     2.800     3.000     3.200     3.400     3.600     3.800     4.000     4.200
     4.400     4.600     4.800     5.000     5.500     6.000      .000      .000
      .000      .000      .000      .000      .000      .000      .000      .000
      .000      .000      .000      .000      .000      .000      .000      .000
      .000      .000      .000      .000
Fourier amplitude spectra in in/sec.
  .000E+00  .000E+00  .000E+00  .000E+00  .000E+00  .000E+00  .000E+00  .000E+00
  .000E+00  .000E+00  .000E+00  .000E+00  .000E+00  .000E+00  .000E+00  .000E+00
  .000E+00  .000E+00  .000E+00  .000E+00  .000E+00  .000E+00  .000E+00  .000E+00
  .000E+00  .000E+00  .000E+00  .000E+00  .000E+00  .000E+00  .000E+00  .000E+00
  .000E+00  .000E+00  .000E+00  .000E+00  .000E+00  .000E+00  .000E+00  .000E+00
  .000E+00  .000E+00  .000E+00  .000E+00  .000E+00  .000E+00  .000E+00  .000E+00
  .000E+00  .000E+00  .000E+00  .000E+00  .000E+00  .000E+00  .000E+00  .000E+00
  .000E+00  .000E+00  .000E+00  .000E+00  .000E+00  .000E+00  .000E+00  .000E+00
  .000E+00  .000E+00  .000E+00  .000E+00  .000E+00  .000E+00  .000E+00  .000E+00
  .000E+00  .000E+00  .000E+00  .000E+00  .000E+00  .000E+00  .000E+00  .000E+00
  .000E+00  .000E+00  .000E+00  .000E+00  .000E+00  .000E+00  .000E+00  .000E+00
  .000E+00  .000E+00  .000E+00  .000E+00  .000E+00  .000E+00  .000E+00  .000E+00
  .000E+00  .000E+00  .000E+00  .000E+00
Damping =  .05. Data of Sd,Sv,Sa,Pssv,ttSd,ttSv,ttSa :
  .274E-04  .302E-04  .332E-04  .361E-04  .393E-04  .429E-04  .538E-04  .655E-04
  .813E-04  .105E-03  .125E-03  .131E-03  .158E-03  .224E-03  .274E-03  .291E-03
  .357E-03  .404E-03  .626E-03  .761E-03  .569E-03  .680E-03  .895E-03  .111E-02
  .123E-02  .154E-02  .230E-02  .228E-02  .215E-02  .246E-02  .289E-02  .303E-02
  .321E-02  .408E-02  .468E-02  .506E-02  .635E-02  .708E-02  .679E-02  .789E-02
  .910E-02  .126E-01  .138E-01  .139E-01  .114E-01  .119E-01  .137E-01  .164E-01
  .191E-01  .195E-01  .199E-01  .167E-01  .140E-01  .115E-01  .108E-01  .101E-01
  .117E-01  .126E-01  .119E-01  .900E-02  .853E-02  .866E-02  .109E-01  .134E-01
  .115E-01  .103E-01  .106E-01  .106E-01  .104E-01  .101E-01  .987E-02  .963E-02
  .939E-02  .916E-02  .895E-02  .877E-02  .840E-02  .815E-02  .000E+00  .000E+00
  .000E+00  .000E+00  .000E+00  .000E+00  .000E+00  .000E+00  .000E+00  .000E+00
  .000E+00  .000E+00  .000E+00  .000E+00  .000E+00  .000E+00  .000E+00  .000E+00
  .000E+00  .000E+00  .000E+00  .000E+00
  .750E-03  .803E-03  .907E-03  .103E-02  .116E-02  .127E-02  .162E-02  .201E-02
  .288E-02  .406E-02  .461E-02  .504E-02  .707E-02  .103E-01  .139E-01  .151E-01
  .179E-01  .200E-01  .275E-01  .308E-01  .203E-01  .210E-01  .247E-01  .277E-01
  .275E-01  .354E-01  .596E-01  .579E-01  .468E-01  .475E-01  .558E-01  .554E-01
  .555E-01  .681E-01  .739E-01  .746E-01  .851E-01  .102E+00  .950E-01  .984E-01
  .113E+00  .139E+00  .154E+00  .138E+00  .111E+00  .106E+00  .121E+00  .130E+00
  .146E+00  .158E+00  .141E+00  .111E+00  .938E-01  .773E-01  .716E-01  .625E-01
  .576E-01  .552E-01  .537E-01  .537E-01  .543E-01  .535E-01  .521E-01  .505E-01
  .485E-01  .462E-01  .439E-01  .418E-01  .402E-01  .390E-01  .389E-01  .392E-01
  .394E-01  .396E-01  .398E-01  .400E-01  .403E-01  .404E-01  .000E+00  .000E+00
  .000E+00  .000E+00  .000E+00  .000E+00  .000E+00  .000E+00  .000E+00  .000E+00
  .000E+00  .000E+00  .000E+00  .000E+00  .000E+00  .000E+00  .000E+00  .000E+00
  .000E+00  .000E+00  .000E+00  .000E+00
  .175E-02  .175E-02  .175E-02  .174E-02  .175E-02  .176E-02  .182E-02  .186E-02
  .197E-02  .219E-02  .228E-02  .210E-02  .226E-02  .284E-02  .312E-02  .295E-02
  .309E-02  .286E-02  .380E-02  .404E-02  .258E-02  .270E-02  .320E-02  .351E-02
  .350E-02  .393E-02  .490E-02  .413E-02  .326E-02  .318E-02  .332E-02  .307E-02
  .286E-02  .319E-02  .333E-02  .328E-02  .367E-02  .376E-02  .331E-02  .350E-02
  .377E-02  .428E-02  .395E-02  .338E-02  .238E-02  .218E-02  .220E-02  .234E-02
  .243E-02  .222E-02  .205E-02  .142E-02  .100E-02  .706E-03  .567E-03  .461E-03
  .471E-03  .448E-03  .380E-03  .258E-03  .219E-03  .188E-03  .194E-03  .205E-03
  .152E-03  .123E-03  .112E-03  .997E-04  .881E-04  .778E-04  .691E-04  .617E-04
  .554E-04  .500E-04  .454E-04  .415E-04  .339E-04  .284E-04  .000E+00  .000E+00
  .000E+00  .000E+00  .000E+00  .000E+00  .000E+00  .000E+00  .000E+00  .000E+00
  .000E+00  .000E+00  .000E+00  .000E+00  .000E+00  .000E+00  .000E+00  .000E+00
  .000E+00  .000E+00  .000E+00  .000E+00
  .430E-02  .452E-02  .474E-02  .493E-02  .515E-02  .539E-02  .615E-02  .686E-02
  .786E-02  .942E-02  .105E-01  .103E-01  .117E-01  .156E-01  .181E-01  .183E-01
  .204E-01  .211E-01  .303E-01  .342E-01  .238E-01  .267E-01  .331E-01  .386E-01
  .407E-01  .484E-01  .656E-01  .597E-01  .521E-01  .552E-01  .605E-01  .596E-01
  .593E-01  .711E-01  .774E-01  .795E-01  .949E-01  .101E+00  .927E-01  .103E+00
  .114E+00  .144E+00  .145E+00  .134E+00  .102E+00  .100E+00  .107E+00  .122E+00
  .133E+00  .129E+00  .125E+00  .954E-01  .734E-01  .558E-01  .483E-01  .422E-01
  .459E-01  .464E-01  .416E-01  .298E-01  .268E-01  .247E-01  .284E-01  .323E-01
  .258E-01  .216E-01  .207E-01  .195E-01  .181E-01  .167E-01  .155E-01  .144E-01
  .134E-01  .125E-01  .117E-01  .110E-01  .959E-02  .854E-02  .000E+00  .000E+00
  .000E+00  .000E+00  .000E+00  .000E+00  .000E+00  .000E+00  .000E+00  .000E+00
  .000E+00  .000E+00  .000E+00  .000E+00  .000E+00  .000E+00  .000E+00  .000E+00
  .000E+00  .000E+00  .000E+00  .000E+00
  .398E+02  .398E+02  .398E+02  .398E+02  .398E+02  .398E+02  .398E+02  .398E+02
  .398E+02  .398E+02  .398E+02  .398E+02  .410E+02  .410E+02  .410E+02  .426E+02
  .401E+02  .401E+02  .416E+02  .414E+02  .414E+02  .390E+02  .398E+02  .398E+02
  .398E+02  .398E+02  .398E+02  .398E+02  .408E+02  .408E+02  .398E+02  .399E+02
  .424E+02  .395E+02  .395E+02  .395E+02  .411E+02  .411E+02  .398E+02  .398E+02
  .399E+02  .402E+02  .412E+02  .410E+02  .392E+02  .392E+02  .392E+02  .407E+02
  .408E+02  .404E+02  .405E+02  .401E+02  .401E+02  .401E+02  .401E+02  .540E+02
  .535E+02  .521E+02  .521E+02  .522E+02  .402E+02  .426E+02  .595E+02  .522E+02
  .515E+02  .398E+02  .398E+02  .398E+02  .398E+02  .398E+02  .398E+02  .398E+02
  .398E+02  .398E+02  .398E+02  .398E+02  .398E+02  .398E+02  .000E+00  .000E+00
  .000E+00  .000E+00  .000E+00  .000E+00  .000E+00  .000E+00  .000E+00  .000E+00
  .000E+00  .000E+00  .000E+00  .000E+00  .000E+00  .000E+00  .000E+00  .000E+00
  .000E+00  .000E+00  .000E+00  .000E+00
  .274E+02  .422E+02  .422E+02  .422E+02  .422E+02  .422E+02  .395E+02  .418E+02
  .273E+02  .407E+02  .407E+02  .419E+02  .410E+02  .410E+02  .411E+02  .425E+02
  .412E+02  .412E+02  .415E+02  .414E+02  .414E+02  .395E+02  .397E+02  .397E+02
  .397E+02  .398E+02  .399E+02  .399E+02  .407E+02  .399E+02  .399E+02  .400E+02
  .395E+02  .396E+02  .396E+02  .396E+02  .412E+02  .410E+02  .410E+02  .400E+02
  .400E+02  .400E+02  .410E+02  .408E+02  .409E+02  .391E+02  .391E+02  .409E+02
  .406E+02  .406E+02  .407E+02  .398E+02  .398E+02  .398E+02  .398E+02  .398E+02
  .523E+02  .398E+02  .398E+02  .398E+02  .398E+02  .398E+02  .398E+02  .398E+02
  .398E+02  .398E+02  .398E+02  .398E+02  .398E+02  .398E+02  .389E+02  .389E+02
  .389E+02  .389E+02  .389E+02  .389E+02  .389E+02  .389E+02  .000E+00  .000E+00
  .000E+00  .000E+00  .000E+00  .000E+00  .000E+00  .000E+00  .000E+00  .000E+00
  .000E+00  .000E+00  .000E+00  .000E+00  .000E+00  .000E+00  .000E+00  .000E+00
  .000E+00  .000E+00  .000E+00  .000E+00
  .398E+02  .398E+02  .398E+02  .398E+02  .398E+02  .398E+02  .398E+02  .398E+02
  .398E+02  .398E+02  .398E+02  .398E+02  .410E+02  .410E+02  .410E+02  .426E+02
  .401E+02  .401E+02  .416E+02  .414E+02  .414E+02  .390E+02  .398E+02  .398E+02
  .398E+02  .398E+02  .398E+02  .398E+02  .408E+02  .408E+02  .398E+02  .399E+02
  .424E+02  .395E+02  .395E+02  .395E+02  .411E+02  .411E+02  .398E+02  .398E+02
  .398E+02  .402E+02  .412E+02  .410E+02  .392E+02  .392E+02  .392E+02  .407E+02
  .408E+02  .404E+02  .405E+02  .401E+02  .401E+02  .401E+02  .401E+02  .540E+02
  .535E+02  .521E+02  .521E+02  .521E+02  .402E+02  .426E+02  .595E+02  .522E+02
  .514E+02  .397E+02  .397E+02  .397E+02  .397E+02  .397E+02  .397E+02  .397E+02
  .397E+02  .397E+02  .397E+02  .397E+02  .397E+02  .397E+02  .000E+00  .000E+00
  .000E+00  .000E+00  .000E+00  .000E+00  .000E+00  .000E+00  .000E+00  .000E+00
  .000E+00  .000E+00  .000E+00  .000E+00  .000E+00  .000E+00  .000E+00  .000E+00
  .000E+00  .000E+00  .000E+00  .000E+00
/&   ----------  End of spectral data for channel  1  ----------
Response and Fourier amplitude spectra (78 periods,  .04 -  6.0 sec)   for      
Corrected accelerogram   38695658.CI.FMO.--.HN      Chan  2: 360 Deg     from   
Uncorrected Accelerogram Data             Processed: 09/19/20, CGS  cifmo--s    
Rcrd of Fri Sep 18, 2020 23:38:37.0 PDT               (Avol1 v2.0, 4/18 CSMIP)  
                                        (Origin:  To be determined)             
38695658.CI.FMO.--.HN                Start time:  9/19/20, 06:38:37.0 UTC (GPS) 
Station Id. FMO     34.409N, 118.921W    ObsMMS  s/n 1917  (3 Chns of  6 at Sta)
Fillmore                                 SCSN   Data: Acceleration              
Chan  2: 360 Deg                                                                
Rcrd of Fri Sep 18, 2020 23:38:37.0 PDT    Fri Sep 18, 2020 23:38:37.0 PDT      
Hypocenter:  To be determined.               ML:  To be determined.             
Instr Period =  .0050 sec,  Damping =  .707,  Sensitivity = 4.98 v/g  (Nominal) 
                        Record Length =301.000 sec.                             
                                     Uncor Max  =  -.002 g, at   39.040 sec.    
RMS accel of (uncor) record  =        .   Chn. metadata effective date:         
Accelerogram bandpass filtered with 3 dB pts at   .30 and 23.00 cyc/sec         
                 instrument- and base-line correcte                             
                                                                                
                                                                                
                                                                                
                                                                                
                                                                                
Rcrd of Fri Sep 18, 2020 23:38:37.0 PDT    Fri Sep 18, 2020 23:38:37.0 PDT      
                                                                                
38695658.CI.FMO.--.HN     Fillmore    Chan  2: 360 Deg                          
                                                                                
38695658.CI.FMO.--.HN     Fillmore    Chan  2: 360 Deg                          
                                                                                
Units for spectra are inches and sec, except Sa is in fraction of g.            
                                                                                
    2  100    2    6    6  100 -999    3    1    0   15 1917    0    0   41    0
    6   38   37    0  263    9   19 2020   10    3  36035791   39    8   74 -999
35791 -999  100    6 -999 -999 -999 -999 -999 -999 -999 -999 -999 -999 -999 -999
 -999 -999 -999 -99915050    2 -999    0 -999   20 -999 -999    3    1 -99915050
    315050    4   78    1    3    5    0    0 -999    0 -999 -999    6 -999    2
    2    2    4 -999 -999 -999 -999 -999 -999 -999 -999    1 -999 -999 -999  111
    1    1 -999 -999
      .005      .707   357.910      .000     1.000  4982.495     -.002    39.040
   200.000     2.384      .479  -999.000    10.000  -999.000     4.000  -999.000
    20.000   -35.180      .000  -999.000  -999.000  -999.000  -999.000      .000
      .000     -.001     2.000    15.000    34.409  -118.921      .002      .003
     1.624     -.001      .000   137.000  -999.000  -999.000  -999.000  -999.000
     1.000  -999.000  -999.000  -999.000  -999.000  -999.000  -999.000   120.000
     -.900     2.000     6.800   980.665      .020   301.000    31.831      .000
  -999.000    23.000  -999.000   301.000      .020      .300  -999.000  -999.000
    39.040    -1.479    39.160     -.105    39.040      .016      .000      .300
    23.000      .020      .020      .000      .020      .007  -999.000  -999.000
      .005      .120      .003      .003      .001      .000  -999.000  -999.000
  -999.000  -999.000  -999.000  -999.000  -999.000  -999.000  -999.000  -999.000
  -999.000  -999.000  -999.000  -999.000
      .050
      .040      .042      .044      .046      .048      .050      .055      .060
      .065      .070      .075      .080      .085      .090      .095      .100
      .110      .120      .130      .140      .150      .160      .170      .180
      .190      .200      .220      .240      .260      .280      .300      .320
      .340      .360      .380      .400      .420      .440      .460      .480
      .500      .550      .600      .650      .700      .750      .800      .850
      .900      .950     1.000     1.100     1.200     1.300     1.400     1.500
     1.600     1.700     1.800     1.900     2.000     2.200     2.400     2.600
     2.800     3.000     3.200     3.400     3.600     3.800     4.000     4.200
     4.400     4.600     4.800     5.000     5.500     6.000      .000      .000
      .000      .000      .000      .000      .000      .000      .000      .000
      .000      .000      .000      .000      .000      .000      .000      .000
      .000      .000      .000      .000
Fourier amplitude spectra in in/sec.
  .000E+00  .000E+00  .000E+00  .000E+00  .000E+00  .000E+00  .000E+00  .000E+00
  .000E+00  .000E+00  .000E+00  .000E+00  .000E+00  .000E+00  .000E+00  .000E+00
  .000E+00  .000E+00  .000E+00  .000E+00  .000E+00  .000E+00  .000E+00  .000E+00
  .000E+00  .000E+00  .000E+00  .000E+00  .000E+00  .000E+00  .000E+00  .000E+00
  .000E+00  .000E+00  .000E+00  .000E+00  .000E+00  .000E+00  .000E+00  .000E+00
  .000E+00  .000E+00  .000E+00  .000E+00  .000E+00  .000E+00  .000E+00  .000E+00
  .000E+00  .000E+00  .000E+00  .000E+00  .000E+00  .000E+00  .000E+00  .000E+00
  .000E+00  .000E+00  .000E+00  .000E+00  .000E+00  .000E+00  .000E+00  .000E+00
  .000E+00  .000E+00  .000E+00  .000E+00  .000E+00  .000E+00  .000E+00  .000E+00
  .000E+00  .000E+00  .000E+00  .000E+00  .000E+00  .000E+00  .000E+00  .000E+00
  .000E+00  .000E+00  .000E+00  .000E+00  .000E+00  .000E+00  .000E+00  .000E+00
  .000E+00  .000E+00  .000E+00  .000E+00  .000E+00  .000E+00  .000E+00  .000E+00
  .000E+00  .000E+00  .000E+00  .000E+00
Damping =  .05. Data of Sd,Sv,Sa,Pssv,ttSd,ttSv,ttSa :
  .242E-04  .267E-04  .296E-04  .328E-04  .359E-04  .386E-04  .474E-04  .580E-04
  .773E-04  .916E-04  .112E-03  .146E-03  .186E-03  .257E-03  .332E-03  .376E-03
  .423E-03  .649E-03  .761E-03  .686E-03  .738E-03  .830E-03  .805E-03  .897E-03
  .985E-03  .118E-02  .126E-02  .134E-02  .164E-02  .175E-02  .231E-02  .303E-02
  .362E-02  .425E-02  .518E-02  .615E-02  .705E-02  .824E-02  .864E-02  .871E-02
