Response and Fourier amplitude spectra (78 periods,  .04 -  6.0 sec)   for      
Corrected accelerogram   38695658.CI.FMP.--.HN      Chan  1:  90 Deg     from   
Uncorrected Accelerogram Data             Processed: 09/19/20, CGS  cifmp--n    
Rcrd of Fri Sep 18, 2020 23:38:30.0 PDT               (Avol1 v2.0, 4/18 CSMIP)  
                                        (Origin:  To be determined)             
38695658.CI.FMP.--.HN                Start time:  9/19/20, 06:38:30.0 UTC (GPS) 
Station Id. FMP     33.713N, 118.294W    Q330    s/n 3780  (3 Chns of  6 at Sta)
San Pedro, Ft. Macauthur                 SCSN   Data: Acceleration              
Chan  1:  90 Deg                                                                
Rcrd of Fri Sep 18, 2020 23:38:30.0 PDT    Fri Sep 18, 2020 23:38:30.0 PDT      
Hypocenter:  To be determined.               ML:  To be determined.             
Instr Period =  .0050 sec,  Damping =  .707,  Sensitivity = 4.98 v/g  (Nominal) 
                        Record Length =301.000 sec.                             
                                     Uncor Max  =   .002 g, at   35.300 sec.    
RMS accel of (uncor) record  =        .   Chn. metadata effective date:         
Accelerogram bandpass filtered with 3 dB pts at   .30 and 23.00 cyc/sec         
                 instrument- and base-line correcte                             
                                                                                
                                                                                
                                                                                
                                                                                
                                                                                
Rcrd of Fri Sep 18, 2020 23:38:30.0 PDT    Fri Sep 18, 2020 23:38:30.0 PDT      
                                                                                
38695658.CI.FMP.--.HN     San Pedro, Ft. Macauthur    Chan  1:  90 Deg          
                                                                                
38695658.CI.FMP.--.HN     San Pedro, Ft. Macauthur    Chan  1:  90 Deg          
                                                                                
Units for spectra are inches and sec, except Sa is in fraction of g.            
                                                                                
    1  100    1    6    6  100 -999    3    1    0  605 3780    050611   41    0
    6   38   30    8  263    9   19 2020   10    3   9035773   39   24   74 -999
35773 -999  100    6 -999 -999 -999 -999 -999 -999 -999 -999 -999 -999 -999 -999
 -999 -999 -999 -99915050    2 -999    0 -999   20 -999 -999    3    1 -99915050
    315050    4   78    1    3    5    0    0 -999    0 -999 -999    6 -999    2
    2    2    4 -999 -999 -999 -999 -999 -999 -999 -999    1 -999 -999 -999  111
    1    1 -999 -999
      .005      .707   357.730      .000     1.000  4983.293      .002    35.300
   200.000     2.384      .478  -999.000    10.000  -999.000     4.000  -999.000
    20.000     5.840      .000  -999.000  -999.000  -999.000  -999.000     -.004
      .004      .008     2.000    15.000    33.713  -118.294      .001      .001
      .934      .008      .008    89.000  -999.000  -999.000  -999.000  -999.000
     1.000  -999.000    -8.000  -999.000  -999.000  -999.000  -999.000   120.000
     -.900     2.000     6.800   980.665      .020   301.000    31.831     -.001
  -999.000    23.000  -999.000   301.000      .020      .300  -999.000  -999.000
    35.300     2.263    38.700      .108    38.580     -.013      .000      .300
    23.000      .020      .020      .000      .020      .010  -999.000  -999.000
      .012      .240      .008      .008      .001      .000  -999.000  -999.000
  -999.000  -999.000  -999.000  -999.000  -999.000  -999.000  -999.000  -999.000
  -999.000  -999.000  -999.000  -999.000
      .050
      .040      .042      .044      .046      .048      .050      .055      .060
      .065      .070      .075      .080      .085      .090      .095      .100
      .110      .120      .130      .140      .150      .160      .170      .180
      .190      .200      .220      .240      .260      .280      .300      .320
      .340      .360      .380      .400      .420      .440      .460      .480
      .500      .550      .600      .650      .700      .750      .800      .850
      .900      .950     1.000     1.100     1.200     1.300     1.400     1.500
     1.600     1.700     1.800     1.900     2.000     2.200     2.400     2.600
     2.800     3.000     3.200     3.400     3.600     3.800     4.000     4.200
     4.400     4.600     4.800     5.000     5.500     6.000      .000      .000
      .000      .000      .000      .000      .000      .000      .000      .000
      .000      .000      .000      .000      .000      .000      .000      .000
      .000      .000      .000      .000
Fourier amplitude spectra in in/sec.
  .000E+00  .000E+00  .000E+00  .000E+00  .000E+00  .000E+00  .000E+00  .000E+00
  .000E+00  .000E+00  .000E+00  .000E+00  .000E+00  .000E+00  .000E+00  .000E+00
  .000E+00  .000E+00  .000E+00  .000E+00  .000E+00  .000E+00  .000E+00  .000E+00
  .000E+00  .000E+00  .000E+00  .000E+00  .000E+00  .000E+00  .000E+00  .000E+00
  .000E+00  .000E+00  .000E+00  .000E+00  .000E+00  .000E+00  .000E+00  .000E+00
  .000E+00  .000E+00  .000E+00  .000E+00  .000E+00  .000E+00  .000E+00  .000E+00
  .000E+00  .000E+00  .000E+00  .000E+00  .000E+00  .000E+00  .000E+00  .000E+00
  .000E+00  .000E+00  .000E+00  .000E+00  .000E+00  .000E+00  .000E+00  .000E+00
  .000E+00  .000E+00  .000E+00  .000E+00  .000E+00  .000E+00  .000E+00  .000E+00
  .000E+00  .000E+00  .000E+00  .000E+00  .000E+00  .000E+00  .000E+00  .000E+00
  .000E+00  .000E+00  .000E+00  .000E+00  .000E+00  .000E+00  .000E+00  .000E+00
  .000E+00  .000E+00  .000E+00  .000E+00  .000E+00  .000E+00  .000E+00  .000E+00
  .000E+00  .000E+00  .000E+00  .000E+00
Damping =  .05. Data of Sd,Sv,Sa,Pssv,ttSd,ttSv,ttSa :
  .362E-04  .401E-04  .438E-04  .482E-04  .530E-04  .577E-04  .713E-04  .930E-04
  .123E-03  .142E-03  .173E-03  .213E-03  .226E-03  .227E-03  .295E-03  .325E-03
  .489E-03  .614E-03  .803E-03  .971E-03  .121E-02  .154E-02  .162E-02  .167E-02
  .226E-02  .303E-02  .487E-02  .658E-02  .594E-02  .510E-02  .657E-02  .866E-02
  .839E-02  .771E-02  .792E-02  .884E-02  .825E-02  .859E-02  .911E-02  .825E-02
  .801E-02  .112E-01  .951E-02  .108E-01  .863E-02  .746E-02  .604E-02  .609E-02
  .747E-02  .880E-02  .891E-02  .104E-01  .142E-01  .112E-01  .981E-02  .108E-01
  .111E-01  .110E-01  .103E-01  .102E-01  .852E-02  .840E-02  .846E-02  .650E-02
  .786E-02  .853E-02  .849E-02  .729E-02  .641E-02  .619E-02  .624E-02  .627E-02
  .618E-02  .604E-02  .589E-02  .574E-02  .540E-02  .517E-02  .000E+00  .000E+00
  .000E+00  .000E+00  .000E+00  .000E+00  .000E+00  .000E+00  .000E+00  .000E+00
  .000E+00  .000E+00  .000E+00  .000E+00  .000E+00  .000E+00  .000E+00  .000E+00
  .000E+00  .000E+00  .000E+00  .000E+00
  .127E-02  .144E-02  .168E-02  .190E-02  .214E-02  .227E-02  .300E-02  .373E-02
  .516E-02  .619E-02  .763E-02  .102E-01  .111E-01  .121E-01  .140E-01  .175E-01
  .239E-01  .259E-01  .344E-01  .373E-01  .445E-01  .560E-01  .546E-01  .522E-01
  .655E-01  .832E-01  .131E+00  .167E+00  .135E+00  .117E+00  .132E+00  .166E+00
  .152E+00  .141E+00  .135E+00  .147E+00  .136E+00  .125E+00  .125E+00  .108E+00
  .103E+00  .126E+00  .113E+00  .106E+00  .885E-01  .742E-01  .630E-01  .656E-01
  .659E-01  .713E-01  .702E-01  .739E-01  .780E-01  .842E-01  .720E-01  .737E-01
  .749E-01  .728E-01  .600E-01  .515E-01  .577E-01  .664E-01  .551E-01  .510E-01
  .535E-01  .522E-01  .477E-01  .450E-01  .445E-01  .447E-01  .446E-01  .442E-01
  .438E-01  .435E-01  .432E-01  .430E-01  .428E-01  .428E-01  .000E+00  .000E+00
  .000E+00  .000E+00  .000E+00  .000E+00  .000E+00  .000E+00  .000E+00  .000E+00
  .000E+00  .000E+00  .000E+00  .000E+00  .000E+00  .000E+00  .000E+00  .000E+00
  .000E+00  .000E+00  .000E+00  .000E+00
  .231E-02  .232E-02  .231E-02  .233E-02  .235E-02  .236E-02  .242E-02  .265E-02
  .297E-02  .295E-02  .314E-02  .341E-02  .321E-02  .287E-02  .336E-02  .334E-02
  .417E-02  .440E-02  .496E-02  .511E-02  .547E-02  .624E-02  .570E-02  .530E-02
  .648E-02  .789E-02  .102E-01  .118E-01  .911E-02  .675E-02  .742E-02  .870E-02
  .749E-02  .617E-02  .559E-02  .567E-02  .486E-02  .458E-02  .442E-02  .371E-02
  .329E-02  .381E-02  .270E-02  .264E-02  .181E-02  .136E-02  .982E-03  .866E-03
  .949E-03  .101E-02  .918E-03  .886E-03  .102E-02  .679E-03  .515E-03  .498E-03
  .445E-03  .394E-03  .330E-03  .294E-03  .224E-03  .181E-03  .153E-03  .103E-03
  .108E-03  .992E-04  .874E-04  .674E-04  .534E-04  .464E-04  .424E-04  .389E-04
  .351E-04  .316E-04  .285E-04  .258E-04  .205E-04  .173E-04  .000E+00  .000E+00
  .000E+00  .000E+00  .000E+00  .000E+00  .000E+00  .000E+00  .000E+00  .000E+00
  .000E+00  .000E+00  .000E+00  .000E+00  .000E+00  .000E+00  .000E+00  .000E+00
  .000E+00  .000E+00  .000E+00  .000E+00
  .568E-02  .599E-02  .625E-02  .658E-02  .693E-02  .725E-02  .814E-02  .974E-02
  .119E-01  .128E-01  .145E-01  .168E-01  .167E-01  .159E-01  .195E-01  .204E-01
  .280E-01  .321E-01  .388E-01  .436E-01  .505E-01  .605E-01  .598E-01  .583E-01
  .748E-01  .953E-01  .139E+00  .172E+00  .143E+00  .114E+00  .138E+00  .170E+00
  .155E+00  .135E+00  .131E+00  .139E+00  .123E+00  .123E+00  .124E+00  .108E+00
  .101E+00  .128E+00  .996E-01  .105E+00  .775E-01  .625E-01  .475E-01  .450E-01
  .522E-01  .582E-01  .560E-01  .593E-01  .744E-01  .540E-01  .440E-01  .454E-01
  .435E-01  .406E-01  .358E-01  .337E-01  .268E-01  .240E-01  .222E-01  .157E-01
  .176E-01  .179E-01  .167E-01  .135E-01  .112E-01  .102E-01  .981E-02  .938E-02
  .883E-02  .825E-02  .771E-02  .721E-02  .617E-02  .541E-02  .000E+00  .000E+00
  .000E+00  .000E+00  .000E+00  .000E+00  .000E+00  .000E+00  .000E+00  .000E+00
  .000E+00  .000E+00  .000E+00  .000E+00  .000E+00  .000E+00  .000E+00  .000E+00
  .000E+00  .000E+00  .000E+00  .000E+00
  .353E+02  .353E+02  .353E+02  .353E+02  .353E+02  .353E+02  .315E+02  .353E+02
  .319E+02  .319E+02  .319E+02  .319E+02  .319E+02  .325E+02  .325E+02  .302E+02
  .303E+02  .303E+02  .304E+02  .353E+02  .304E+02  .304E+02  .313E+02  .313E+02
  .365E+02  .365E+02  .319E+02  .367E+02  .376E+02  .355E+02  .355E+02  .355E+02
  .327E+02  .331E+02  .329E+02  .325E+02  .326E+02  .446E+02  .446E+02  .446E+02
  .402E+02  .417E+02  .415E+02  .467E+02  .416E+02  .465E+02  .410E+02  .404E+02
  .391E+02  .387E+02  .465E+02  .445E+02  .388E+02  .388E+02  .396E+02  .404E+02
  .414E+02  .466E+02  .442E+02  .442E+02  .436E+02  .385E+02  .385E+02  .436E+02
  .436E+02  .385E+02  .385E+02  .386E+02  .386E+02  .385E+02  .385E+02  .386E+02
  .386E+02  .386E+02  .386E+02  .386E+02  .386E+02  .386E+02  .000E+00  .000E+00
  .000E+00  .000E+00  .000E+00  .000E+00  .000E+00  .000E+00  .000E+00  .000E+00
  .000E+00  .000E+00  .000E+00  .000E+00  .000E+00  .000E+00  .000E+00  .000E+00
  .000E+00  .000E+00  .000E+00  .000E+00
  .334E+02  .334E+02  .304E+02  .334E+02  .334E+02  .334E+02  .328E+02  .328E+02
  .319E+02  .319E+02  .319E+02  .319E+02  .319E+02  .310E+02  .305E+02  .329E+02
  .303E+02  .303E+02  .304E+02  .316E+02  .304E+02  .304E+02  .312E+02  .313E+02
  .363E+02  .365E+02  .318E+02  .367E+02  .376E+02  .361E+02  .356E+02  .354E+02
  .326E+02  .326E+02  .326E+02  .326E+02  .325E+02  .447E+02  .447E+02  .445E+02
  .401E+02  .413E+02  .417E+02  .466E+02  .466E+02  .411E+02  .318E+02  .318E+02
  .323E+02  .400E+02  .400E+02  .443E+02  .398E+02  .387E+02  .387E+02  .387E+02
  .387E+02  .387E+02  .387E+02  .387E+02  .387E+02  .387E+02  .387E+02  .387E+02
  .387E+02  .387E+02  .387E+02  .387E+02  .387E+02  .387E+02  .387E+02  .387E+02
  .387E+02  .387E+02  .387E+02  .387E+02  .387E+02  .387E+02  .000E+00  .000E+00
  .000E+00  .000E+00  .000E+00  .000E+00  .000E+00  .000E+00  .000E+00  .000E+00
  .000E+00  .000E+00  .000E+00  .000E+00  .000E+00  .000E+00  .000E+00  .000E+00
  .000E+00  .000E+00  .000E+00  .000E+00
  .353E+02  .353E+02  .353E+02  .353E+02  .353E+02  .353E+02  .315E+02  .353E+02
  .319E+02  .319E+02  .319E+02  .319E+02  .319E+02  .325E+02  .325E+02  .325E+02
  .303E+02  .303E+02  .304E+02  .353E+02  .316E+02  .304E+02  .313E+02  .313E+02
  .365E+02  .365E+02  .318E+02  .367E+02  .376E+02  .355E+02  .355E+02  .355E+02
  .327E+02  .327E+02  .329E+02  .325E+02  .326E+02  .446E+02  .446E+02  .446E+02
  .402E+02  .417E+02  .415E+02  .467E+02  .416E+02  .465E+02  .410E+02  .404E+02
  .391E+02  .387E+02  .465E+02  .445E+02  .387E+02  .442E+02  .396E+02  .404E+02
  .413E+02  .465E+02  .442E+02  .442E+02  .436E+02  .401E+02  .385E+02  .435E+02
  .435E+02  .385E+02  .385E+02  .385E+02  .385E+02  .385E+02  .385E+02  .385E+02
  .385E+02  .385E+02  .385E+02  .385E+02  .385E+02  .377E+02  .000E+00  .000E+00
  .000E+00  .000E+00  .000E+00  .000E+00  .000E+00  .000E+00  .000E+00  .000E+00
  .000E+00  .000E+00  .000E+00  .000E+00  .000E+00  .000E+00  .000E+00  .000E+00
  .000E+00  .000E+00  .000E+00  .000E+00
/&   ----------  End of spectral data for channel  1  ----------
Response and Fourier amplitude spectra (78 periods,  .04 -  6.0 sec)   for      
Corrected accelerogram   38695658.CI.FMP.--.HN      Chan  2: 360 Deg     from   
Uncorrected Accelerogram Data             Processed: 09/19/20, CGS  cifmp--n    
Rcrd of Fri Sep 18, 2020 23:38:30.0 PDT               (Avol1 v2.0, 4/18 CSMIP)  
                                        (Origin:  To be determined)             
38695658.CI.FMP.--.HN                Start time:  9/19/20, 06:38:30.0 UTC (GPS) 
Station Id. FMP     33.713N, 118.294W    Q330    s/n 3780  (3 Chns of  6 at Sta)
San Pedro, Ft. Macauthur                 SCSN   Data: Acceleration              
Chan  2: 360 Deg                                                                
Rcrd of Fri Sep 18, 2020 23:38:30.0 PDT    Fri Sep 18, 2020 23:38:30.0 PDT      
Hypocenter:  To be determined.               ML:  To be determined.             
Instr Period =  .0050 sec,  Damping =  .707,  Sensitivity = 4.99 v/g  (Nominal) 
                        Record Length =301.000 sec.                             
                                     Uncor Max  =  -.002 g, at   38.800 sec.    
RMS accel of (uncor) record  =        .   Chn. metadata effective date:         
Accelerogram bandpass filtered with 3 dB pts at   .30 and 23.00 cyc/sec         
                 instrument- and base-line correcte                             
                                                                                
                                                                                
                                                                                
                                                                                
                                                                                
Rcrd of Fri Sep 18, 2020 23:38:30.0 PDT    Fri Sep 18, 2020 23:38:30.0 PDT      
                                                                                
38695658.CI.FMP.--.HN     San Pedro, Ft. Macauthur    Chan  2: 360 Deg          
                                                                                
38695658.CI.FMP.--.HN     San Pedro, Ft. Macauthur    Chan  2: 360 Deg          
                                                                                
Units for spectra are inches and sec, except Sa is in fraction of g.            
                                                                                
    2  100    2    6    6  100 -999    3    1    0  605 3780    050611   41    0
    6   38   30    8  263    9   19 2020   10    3  36035703   39   24   74 -999
35703 -999  100    6 -999 -999 -999 -999 -999 -999 -999 -999 -999 -999 -999 -999
 -999 -999 -999 -99915050    2 -999    0 -999   20 -999 -999    3    1 -99915050
    315050    4   78    1    3    5    0    0 -999    0 -999 -999    6 -999    2
    2    2    4 -999 -999 -999 -999 -999 -999 -999 -999    1 -999 -999 -999  111
    1    1 -999 -999
      .005      .707   357.030      .000     1.000  4987.282     -.002    38.800
   200.000     2.384      .478  -999.000    10.000  -999.000     4.000  -999.000
    20.000    12.706      .000  -999.000  -999.000  -999.000  -999.000     -.002
      .001      .003     2.000    15.000    33.713  -118.294      .001      .001
      .983      .003      .003    89.000  -999.000  -999.000  -999.000  -999.000
     1.000  -999.000  -999.000  -999.000  -999.000  -999.000  -999.000   120.000
     -.900     2.000     6.800   980.665      .020   301.000    31.831      .000
  -999.000    23.000  -999.000   301.000      .020      .300  -999.000  -999.000
    38.800    -1.949    38.720      .129    37.620      .017      .000      .300
    23.000      .020      .020      .000      .020      .010  -999.000  -999.000
      .008      .300      .007      .008      .001      .000  -999.000  -999.000
  -999.000  -999.000  -999.000  -999.000  -999.000  -999.000  -999.000  -999.000
  -999.000  -999.000  -999.000  -999.000
      .050
      .040      .042      .044      .046      .048      .050      .055      .060
      .065      .070      .075      .080      .085      .090      .095      .100
      .110      .120      .130      .140      .150      .160      .170      .180
      .190      .200      .220      .240      .260      .280      .300      .320
      .340      .360      .380      .400      .420      .440      .460      .480
      .500      .550      .600      .650      .700      .750      .800      .850
      .900      .950     1.000     1.100     1.200     1.300     1.400     1.500
     1.600     1.700     1.800     1.900     2.000     2.200     2.400     2.600
     2.800     3.000     3.200     3.400     3.600     3.800     4.000     4.200
     4.400     4.600     4.800     5.000     5.500     6.000      .000      .000
      .000      .000      .000      .000      .000      .000      .000      .000
      .000      .000      .000      .000      .000      .000      .000      .000
      .000      .000      .000      .000
Fourier amplitude spectra in in/sec.
  .000E+00  .000E+00  .000E+00  .000E+00  .000E+00  .000E+00  .000E+00  .000E+00
  .000E+00  .000E+00  .000E+00  .000E+00  .000E+00  .000E+00  .000E+00  .000E+00
  .000E+00  .000E+00  .000E+00  .000E+00  .000E+00  .000E+00  .000E+00  .000E+00
  .000E+00  .000E+00  .000E+00  .000E+00  .000E+00  .000E+00  .000E+00  .000E+00
  .000E+00  .000E+00  .000E+00  .000E+00  .000E+00  .000E+00  .000E+00  .000E+00
  .000E+00  .000E+00  .000E+00  .000E+00  .000E+00  .000E+00  .000E+00  .000E+00
  .000E+00  .000E+00  .000E+00  .000E+00  .000E+00  .000E+00  .000E+00  .000E+00
  .000E+00  .000E+00  .000E+00  .000E+00  .000E+00  .000E+00  .000E+00  .000E+00
  .000E+00  .000E+00  .000E+00  .000E+00  .000E+00  .000E+00  .000E+00  .000E+00
  .000E+00  .000E+00  .000E+00  .000E+00  .000E+00  .000E+00  .000E+00  .000E+00
  .000E+00  .000E+00  .000E+00  .000E+00  .000E+00  .000E+00  .000E+00  .000E+00
  .000E+00  .000E+00  .000E+00  .000E+00  .000E+00  .000E+00  .000E+00  .000E+00
  .000E+00  .000E+00  .000E+00  .000E+00
Damping =  .05. Data of Sd,Sv,Sa,Pssv,ttSd,ttSv,ttSa :
  .315E-04  .346E-04  .381E-04  .418E-04  .459E-04  .521E-04  .622E-04  .794E-04
  .989E-04  .127E-03  .146E-03  .182E-03  .251E-03  .313E-03  .419E-03  .464E-03
  .596E-03  .727E-03  .110E-02  .104E-02  .111E-02  .121E-02  .151E-02  .227E-02
  .263E-02  .239E-02  .316E-02  .385E-02  .460E-02  .577E-02  .672E-02  .752E-02
  .735E-02  .613E-02  .679E-02  .767E-02  .934E-02  .991E-02  .102E-01  .977E-02
