Response and Fourier amplitude spectra (78 periods,  .04 -  6.0 sec)   for      
Corrected accelerogram   38695658.CI.FOX2.--.H      Chan  1:  90 Deg     from   
Uncorrected Accelerogram Data             Processed: 09/19/20, CGS  cifox2-s    
Rcrd of Fri Sep 18, 2020 23:38:35.0 PDT               (Avol1 v2.0, 4/18 CSMIP)  
                                        (Origin:  To be determined)             
38695658.CI.FOX2.--.H                Start time:  9/19/20, 06:38:35.0 UTC (GPS) 
Station Id. FOX2    34.734N, 118.240W    Q330    s/n 5326  (3 Chns of  3 at Sta)
Fox Airport 2                            SCSN   Data: Acceleration              
Chan  1:  90 Deg                                                                
Rcrd of Fri Sep 18, 2020 23:38:35.0 PDT    Fri Sep 18, 2020 23:38:35.0 PDT      
Hypocenter:  To be determined.               ML:  To be determined.             
Instr Period =  .0050 sec,  Damping =  .707,  Sensitivity = 4.99 v/g  (Nominal) 
                        Record Length =301.000 sec.                             
                                     Uncor Max  =  -.002 g, at   37.310 sec.    
RMS accel of (uncor) record  =        .   Chn. metadata effective date:         
Accelerogram bandpass filtered with 3 dB pts at   .30 and 23.00 cyc/sec         
                 instrument- and base-line correcte                             
                                                                                
                                                                                
                                                                                
                                                                                
                                                                                
Rcrd of Fri Sep 18, 2020 23:38:35.0 PDT    Fri Sep 18, 2020 23:38:35.0 PDT      
                                                                                
38695658.CI.FOX2.--.H     Fox Airport 2   Chan  1:  90 Deg                      
                                                                                
38695658.CI.FOX2.--.H     Fox Airport 2   Chan  1:  90 Deg                      
                                                                                
Units for spectra are inches and sec, except Sa is in fraction of g.            
                                                                                
    1  100    1    3    3  100 -999    3    1    0  605 5326    0    0   41    0
    6   38   35    8  263    9   19 2020   10    3   9035894   39   13   74 -999
35894 -999  100    6 -999 -999 -999 -999 -999 -999 -999 -999 -999 -999 -999 -999
 -999 -999 -999 -99915050    2 -999    0 -999   20 -999 -999    3    1 -99915050
    315050    4   78    1    3    5    0    0 -999    0 -999 -999    6 -999    2
    2    2    4 -999 -999 -999 -999 -999 -999 -999 -999    1 -999 -999 -999  111
    1    1 -999 -999
      .005      .707   358.940      .000     1.000  4992.468     -.002    37.310
   200.000     2.384      .478  -999.000    10.000  -999.000     4.000  -999.000
    20.000   -10.784      .000  -999.000  -999.000  -999.000  -999.000      .001
      .001      .000     2.000    15.000    34.734  -118.241      .001      .001
      .848      .000      .000   719.700  -999.000  -999.000  -999.000  -999.000
     1.000  -999.000    -8.000  -999.000  -999.000  -999.000  -999.000   120.000
     -.900     2.000     6.800   980.665      .020   301.000    31.831      .000
  -999.000    23.000  -999.000   301.000      .020      .300  -999.000  -999.000
    37.300    -2.062    37.380     -.114    36.880     -.008      .000      .300
    23.000      .020      .020      .000      .020      .007  -999.000  -999.000
      .006      .320      .005      .006      .001      .000  -999.000  -999.000
  -999.000  -999.000  -999.000  -999.000  -999.000  -999.000  -999.000  -999.000
  -999.000  -999.000  -999.000  -999.000
      .050
      .040      .042      .044      .046      .048      .050      .055      .060
      .065      .070      .075      .080      .085      .090      .095      .100
      .110      .120      .130      .140      .150      .160      .170      .180
      .190      .200      .220      .240      .260      .280      .300      .320
      .340      .360      .380      .400      .420      .440      .460      .480
      .500      .550      .600      .650      .700      .750      .800      .850
      .900      .950     1.000     1.100     1.200     1.300     1.400     1.500
     1.600     1.700     1.800     1.900     2.000     2.200     2.400     2.600
     2.800     3.000     3.200     3.400     3.600     3.800     4.000     4.200
     4.400     4.600     4.800     5.000     5.500     6.000      .000      .000
      .000      .000      .000      .000      .000      .000      .000      .000
      .000      .000      .000      .000      .000      .000      .000      .000
      .000      .000      .000      .000
Fourier amplitude spectra in in/sec.
  .000E+00  .000E+00  .000E+00  .000E+00  .000E+00  .000E+00  .000E+00  .000E+00
  .000E+00  .000E+00  .000E+00  .000E+00  .000E+00  .000E+00  .000E+00  .000E+00
  .000E+00  .000E+00  .000E+00  .000E+00  .000E+00  .000E+00  .000E+00  .000E+00
  .000E+00  .000E+00  .000E+00  .000E+00  .000E+00  .000E+00  .000E+00  .000E+00
  .000E+00  .000E+00  .000E+00  .000E+00  .000E+00  .000E+00  .000E+00  .000E+00
  .000E+00  .000E+00  .000E+00  .000E+00  .000E+00  .000E+00  .000E+00  .000E+00
  .000E+00  .000E+00  .000E+00  .000E+00  .000E+00  .000E+00  .000E+00  .000E+00
  .000E+00  .000E+00  .000E+00  .000E+00  .000E+00  .000E+00  .000E+00  .000E+00
  .000E+00  .000E+00  .000E+00  .000E+00  .000E+00  .000E+00  .000E+00  .000E+00
  .000E+00  .000E+00  .000E+00  .000E+00  .000E+00  .000E+00  .000E+00  .000E+00
  .000E+00  .000E+00  .000E+00  .000E+00  .000E+00  .000E+00  .000E+00  .000E+00
  .000E+00  .000E+00  .000E+00  .000E+00  .000E+00  .000E+00  .000E+00  .000E+00
  .000E+00  .000E+00  .000E+00  .000E+00
Damping =  .05. Data of Sd,Sv,Sa,Pssv,ttSd,ttSv,ttSa :
  .348E-04  .386E-04  .427E-04  .482E-04  .529E-04  .559E-04  .702E-04  .911E-04
  .112E-03  .140E-03  .146E-03  .175E-03  .211E-03  .231E-03  .270E-03  .352E-03
  .419E-03  .600E-03  .701E-03  .720E-03  .985E-03  .122E-02  .164E-02  .187E-02
  .184E-02  .200E-02  .246E-02  .323E-02  .369E-02  .427E-02  .530E-02  .628E-02
  .644E-02  .583E-02  .567E-02  .578E-02  .610E-02  .659E-02  .673E-02  .648E-02
  .638E-02  .738E-02  .847E-02  .100E-01  .842E-02  .779E-02  .886E-02  .850E-02
  .913E-02  .905E-02  .806E-02  .670E-02  .673E-02  .636E-02  .618E-02  .568E-02
  .534E-02  .584E-02  .700E-02  .834E-02  .888E-02  .709E-02  .678E-02  .452E-02
  .469E-02  .395E-02  .365E-02  .355E-02  .346E-02  .335E-02  .328E-02  .328E-02
  .329E-02  .328E-02  .327E-02  .325E-02  .322E-02  .321E-02  .000E+00  .000E+00
  .000E+00  .000E+00  .000E+00  .000E+00  .000E+00  .000E+00  .000E+00  .000E+00
  .000E+00  .000E+00  .000E+00  .000E+00  .000E+00  .000E+00  .000E+00  .000E+00
  .000E+00  .000E+00  .000E+00  .000E+00
  .102E-02  .115E-02  .127E-02  .144E-02  .183E-02  .207E-02  .255E-02  .381E-02
  .554E-02  .684E-02  .946E-02  .907E-02  .936E-02  .100E-01  .134E-01  .174E-01
  .205E-01  .262E-01  .343E-01  .272E-01  .294E-01  .373E-01  .500E-01  .575E-01
  .547E-01  .591E-01  .654E-01  .837E-01  .887E-01  .971E-01  .109E+00  .125E+00
  .128E+00  .111E+00  .981E-01  .930E-01  .943E-01  .962E-01  .916E-01  .817E-01
  .793E-01  .963E-01  .966E-01  .972E-01  .832E-01  .722E-01  .833E-01  .946E-01
  .878E-01  .783E-01  .727E-01  .729E-01  .684E-01  .594E-01  .513E-01  .487E-01
  .474E-01  .458E-01  .444E-01  .434E-01  .432E-01  .449E-01  .439E-01  .431E-01
  .436E-01  .439E-01  .442E-01  .443E-01  .444E-01  .445E-01  .444E-01  .443E-01
  .443E-01  .443E-01  .443E-01  .442E-01  .442E-01  .442E-01  .000E+00  .000E+00
  .000E+00  .000E+00  .000E+00  .000E+00  .000E+00  .000E+00  .000E+00  .000E+00
  .000E+00  .000E+00  .000E+00  .000E+00  .000E+00  .000E+00  .000E+00  .000E+00
  .000E+00  .000E+00  .000E+00  .000E+00
  .223E-02  .224E-02  .226E-02  .233E-02  .234E-02  .229E-02  .237E-02  .258E-02
  .272E-02  .295E-02  .265E-02  .281E-02  .300E-02  .292E-02  .304E-02  .366E-02
  .361E-02  .434E-02  .432E-02  .379E-02  .446E-02  .492E-02  .582E-02  .595E-02
  .518E-02  .517E-02  .514E-02  .584E-02  .556E-02  .566E-02  .600E-02  .622E-02
  .568E-02  .466E-02  .400E-02  .372E-02  .355E-02  .349E-02  .330E-02  .289E-02
  .264E-02  .250E-02  .241E-02  .246E-02  .177E-02  .142E-02  .144E-02  .121E-02
  .116E-02  .103E-02  .829E-03  .572E-03  .485E-03  .394E-03  .328E-03  .260E-03
  .215E-03  .209E-03  .222E-03  .238E-03  .229E-03  .152E-03  .121E-03  .698E-04
  .627E-04  .483E-04  .414E-04  .363E-04  .322E-04  .286E-04  .258E-04  .237E-04
  .220E-04  .204E-04  .189E-04  .176E-04  .150E-04  .130E-04  .000E+00  .000E+00
  .000E+00  .000E+00  .000E+00  .000E+00  .000E+00  .000E+00  .000E+00  .000E+00
  .000E+00  .000E+00  .000E+00  .000E+00  .000E+00  .000E+00  .000E+00  .000E+00
  .000E+00  .000E+00  .000E+00  .000E+00
  .547E-02  .577E-02  .610E-02  .659E-02  .692E-02  .703E-02  .802E-02  .954E-02
  .108E-01  .126E-01  .122E-01  .137E-01  .156E-01  .161E-01  .178E-01  .221E-01
  .240E-01  .314E-01  .339E-01  .323E-01  .412E-01  .479E-01  .605E-01  .654E-01
  .608E-01  .630E-01  .703E-01  .846E-01  .891E-01  .959E-01  .111E+00  .123E+00
  .119E+00  .102E+00  .937E-01  .907E-01  .913E-01  .941E-01  .920E-01  .848E-01
  .802E-01  .843E-01  .887E-01  .968E-01  .756E-01  .653E-01  .696E-01  .629E-01
  .637E-01  .599E-01  .507E-01  .383E-01  .352E-01  .307E-01  .278E-01  .238E-01
  .210E-01  .216E-01  .244E-01  .276E-01  .279E-01  .203E-01  .178E-01  .109E-01
  .105E-01  .827E-02  .717E-02  .656E-02  .603E-02  .554E-02  .516E-02  .490E-02
  .470E-02  .449E-02  .428E-02  .409E-02  .368E-02  .336E-02  .000E+00  .000E+00
  .000E+00  .000E+00  .000E+00  .000E+00  .000E+00  .000E+00  .000E+00  .000E+00
  .000E+00  .000E+00  .000E+00  .000E+00  .000E+00  .000E+00  .000E+00  .000E+00
  .000E+00  .000E+00  .000E+00  .000E+00
  .373E+02  .373E+02  .373E+02  .373E+02  .373E+02  .373E+02  .373E+02  .373E+02
  .374E+02  .374E+02  .390E+02  .374E+02  .374E+02  .374E+02  .390E+02  .390E+02
  .385E+02  .385E+02  .354E+02  .374E+02  .374E+02  .374E+02  .374E+02  .375E+02
  .375E+02  .375E+02  .375E+02  .375E+02  .375E+02  .375E+02  .375E+02  .375E+02
  .375E+02  .374E+02  .369E+02  .369E+02  .369E+02  .370E+02  .370E+02  .370E+02
  .375E+02  .382E+02  .382E+02  .390E+02  .390E+02  .374E+02  .374E+02  .375E+02
  .409E+02  .409E+02  .513E+02  .388E+02  .389E+02  .373E+02  .406E+02  .663E+02
  .538E+02  .531E+02  .532E+02  .525E+02  .576E+02  .472E+02  .570E+02  .608E+02
  .510E+02  .561E+02  .369E+02  .369E+02  .369E+02  .369E+02  .369E+02  .369E+02
  .369E+02  .369E+02  .369E+02  .369E+02  .369E+02  .369E+02  .000E+00  .000E+00
  .000E+00  .000E+00  .000E+00  .000E+00  .000E+00  .000E+00  .000E+00  .000E+00
  .000E+00  .000E+00  .000E+00  .000E+00  .000E+00  .000E+00  .000E+00  .000E+00
  .000E+00  .000E+00  .000E+00  .000E+00
  .374E+02  .374E+02  .374E+02  .353E+02  .374E+02  .353E+02  .374E+02  .374E+02
  .353E+02  .390E+02  .388E+02  .388E+02  .351E+02  .388E+02  .388E+02  .390E+02
  .387E+02  .385E+02  .353E+02  .354E+02  .375E+02  .375E+02  .375E+02  .375E+02
  .375E+02  .375E+02  .375E+02  .378E+02  .375E+02  .376E+02  .376E+02  .374E+02
  .375E+02  .375E+02  .374E+02  .370E+02  .370E+02  .371E+02  .371E+02  .369E+02
  .374E+02  .375E+02  .375E+02  .391E+02  .389E+02  .389E+02  .373E+02  .373E+02
  .374E+02  .374E+02  .374E+02  .374E+02  .374E+02  .374E+02  .374E+02  .374E+02
  .374E+02  .374E+02  .374E+02  .374E+02  .374E+02  .374E+02  .374E+02  .374E+02
  .374E+02  .374E+02  .374E+02  .374E+02  .374E+02  .374E+02  .374E+02  .374E+02
  .374E+02  .374E+02  .374E+02  .374E+02  .374E+02  .374E+02  .000E+00  .000E+00
  .000E+00  .000E+00  .000E+00  .000E+00  .000E+00  .000E+00  .000E+00  .000E+00
  .000E+00  .000E+00  .000E+00  .000E+00  .000E+00  .000E+00  .000E+00  .000E+00
  .000E+00  .000E+00  .000E+00  .000E+00
  .373E+02  .373E+02  .373E+02  .373E+02  .373E+02  .373E+02  .373E+02  .373E+02
  .374E+02  .374E+02  .390E+02  .374E+02  .374E+02  .374E+02  .390E+02  .390E+02
  .385E+02  .385E+02  .354E+02  .374E+02  .374E+02  .374E+02  .374E+02  .375E+02
  .375E+02  .374E+02  .375E+02  .375E+02  .375E+02  .375E+02  .375E+02  .375E+02
  .375E+02  .374E+02  .369E+02  .369E+02  .369E+02  .369E+02  .370E+02  .370E+02
  .375E+02  .382E+02  .382E+02  .390E+02  .390E+02  .374E+02  .374E+02  .374E+02
  .409E+02  .409E+02  .513E+02  .388E+02  .388E+02  .373E+02  .406E+02  .662E+02
  .537E+02  .531E+02  .532E+02  .524E+02  .576E+02  .471E+02  .570E+02  .608E+02
  .510E+02  .368E+02  .368E+02  .368E+02  .368E+02  .368E+02  .368E+02  .368E+02
  .368E+02  .368E+02  .368E+02  .368E+02  .368E+02  .368E+02  .000E+00  .000E+00
  .000E+00  .000E+00  .000E+00  .000E+00  .000E+00  .000E+00  .000E+00  .000E+00
  .000E+00  .000E+00  .000E+00  .000E+00  .000E+00  .000E+00  .000E+00  .000E+00
  .000E+00  .000E+00  .000E+00  .000E+00
/&   ----------  End of spectral data for channel  1  ----------
Response and Fourier amplitude spectra (78 periods,  .04 -  6.0 sec)   for      
Corrected accelerogram   38695658.CI.FOX2.--.H      Chan  2: 360 Deg     from   
Uncorrected Accelerogram Data             Processed: 09/19/20, CGS  cifox2-s    
Rcrd of Fri Sep 18, 2020 23:38:35.0 PDT               (Avol1 v2.0, 4/18 CSMIP)  
                                        (Origin:  To be determined)             
38695658.CI.FOX2.--.H                Start time:  9/19/20, 06:38:35.0 UTC (GPS) 
Station Id. FOX2    34.734N, 118.240W    Q330    s/n 5326  (3 Chns of  3 at Sta)
Fox Airport 2                            SCSN   Data: Acceleration              
Chan  2: 360 Deg                                                                
Rcrd of Fri Sep 18, 2020 23:38:35.0 PDT    Fri Sep 18, 2020 23:38:35.0 PDT      
Hypocenter:  To be determined.               ML:  To be determined.             
Instr Period =  .0050 sec,  Damping =  .707,  Sensitivity = 4.98 v/g  (Nominal) 
                        Record Length =301.000 sec.                             
                                     Uncor Max  =  -.004 g, at   37.180 sec.    
RMS accel of (uncor) record  =        .   Chn. metadata effective date:         
Accelerogram bandpass filtered with 3 dB pts at   .30 and 23.00 cyc/sec         
                 instrument- and base-line correcte                             
                                                                                
                                                                                
                                                                                
                                                                                
                                                                                
Rcrd of Fri Sep 18, 2020 23:38:35.0 PDT    Fri Sep 18, 2020 23:38:35.0 PDT      
                                                                                
38695658.CI.FOX2.--.H     Fox Airport 2   Chan  2: 360 Deg                      
                                                                                
38695658.CI.FOX2.--.H     Fox Airport 2   Chan  2: 360 Deg                      
                                                                                
Units for spectra are inches and sec, except Sa is in fraction of g.            
                                                                                
    2  100    2    3    3  100 -999    3    1    0  605 5326    0    0   41    0
    6   38   35    8  263    9   19 2020   10    3  36035773   39   13   74 -999
35773 -999  100    6 -999 -999 -999 -999 -999 -999 -999 -999 -999 -999 -999 -999
 -999 -999 -999 -99915050    2 -999    0 -999   20 -999 -999    3    1 -99915050
    315050    4   78    1    3    5    0    0 -999    0 -999 -999    6 -999    2
    2    2    4 -999 -999 -999 -999 -999 -999 -999 -999    1 -999 -999 -999  111
    1    1 -999 -999
      .005      .707   357.730      .000     1.000  4981.498     -.004    37.180
   200.000     2.384      .479  -999.000    10.000  -999.000     4.000  -999.000
    20.000    -2.534      .000  -999.000  -999.000  -999.000  -999.000     -.001
      .000      .001     2.000    15.000    34.734  -118.241      .001      .001
      .991      .001      .001   719.700  -999.000  -999.000  -999.000  -999.000
     1.000  -999.000  -999.000  -999.000  -999.000  -999.000  -999.000   120.000
     -.900     2.000     6.800   980.665      .020   301.000    31.831      .000
  -999.000    23.000  -999.000   301.000      .020      .300  -999.000  -999.000
    37.180    -4.055    37.260     -.232    37.180      .014      .000      .300
    23.000      .020      .020      .000      .020      .008  -999.000  -999.000
      .015      .240      .011      .011      .001      .000  -999.000  -999.000
  -999.000  -999.000  -999.000  -999.000  -999.000  -999.000  -999.000  -999.000
  -999.000  -999.000  -999.000  -999.000
      .050
      .040      .042      .044      .046      .048      .050      .055      .060
      .065      .070      .075      .080      .085      .090      .095      .100
      .110      .120      .130      .140      .150      .160      .170      .180
      .190      .200      .220      .240      .260      .280      .300      .320
      .340      .360      .380      .400      .420      .440      .460      .480
      .500      .550      .600      .650      .700      .750      .800      .850
      .900      .950     1.000     1.100     1.200     1.300     1.400     1.500
     1.600     1.700     1.800     1.900     2.000     2.200     2.400     2.600
     2.800     3.000     3.200     3.400     3.600     3.800     4.000     4.200
     4.400     4.600     4.800     5.000     5.500     6.000      .000      .000
      .000      .000      .000      .000      .000      .000      .000      .000
      .000      .000      .000      .000      .000      .000      .000      .000
      .000      .000      .000      .000
Fourier amplitude spectra in in/sec.
  .000E+00  .000E+00  .000E+00  .000E+00  .000E+00  .000E+00  .000E+00  .000E+00
  .000E+00  .000E+00  .000E+00  .000E+00  .000E+00  .000E+00  .000E+00  .000E+00
  .000E+00  .000E+00  .000E+00  .000E+00  .000E+00  .000E+00  .000E+00  .000E+00
  .000E+00  .000E+00  .000E+00  .000E+00  .000E+00  .000E+00  .000E+00  .000E+00
  .000E+00  .000E+00  .000E+00  .000E+00  .000E+00  .000E+00  .000E+00  .000E+00
  .000E+00  .000E+00  .000E+00  .000E+00  .000E+00  .000E+00  .000E+00  .000E+00
  .000E+00  .000E+00  .000E+00  .000E+00  .000E+00  .000E+00  .000E+00  .000E+00
  .000E+00  .000E+00  .000E+00  .000E+00  .000E+00  .000E+00  .000E+00  .000E+00
  .000E+00  .000E+00  .000E+00  .000E+00  .000E+00  .000E+00  .000E+00  .000E+00
  .000E+00  .000E+00  .000E+00  .000E+00  .000E+00  .000E+00  .000E+00  .000E+00
  .000E+00  .000E+00  .000E+00  .000E+00  .000E+00  .000E+00  .000E+00  .000E+00
  .000E+00  .000E+00  .000E+00  .000E+00  .000E+00  .000E+00  .000E+00  .000E+00
  .000E+00  .000E+00  .000E+00  .000E+00
Damping =  .05. Data of Sd,Sv,Sa,Pssv,ttSd,ttSv,ttSa :
  .658E-04  .730E-04  .803E-04  .881E-04  .959E-04  .104E-03  .125E-03  .143E-03
  .183E-03  .214E-03  .233E-03  .291E-03  .344E-03  .375E-03  .407E-03  .484E-03
  .608E-03  .786E-03  .103E-02  .132E-02  .167E-02  .198E-02  .230E-02  .279E-02
  .324E-02  .393E-02  .628E-02  .844E-02  .984E-02  .984E-02  .943E-02  .913E-02
  .860E-02  .816E-02  .836E-02  .858E-02  .836E-02  .820E-02  .861E-02  .856E-02
