Response and Fourier amplitude spectra (78 periods,  .04 -  6.0 sec)   for      
Corrected accelerogram   38695658.CI.FON.--.HN      Chan  1:  90 Deg     from   
Uncorrected Accelerogram Data             Processed: 09/19/20, CGS  cifon--i    
Rcrd of Fri Sep 18, 2020 23:38:34.0 PDT               (Avol1 v2.0, 4/18 CSMIP)  
                                        (Origin:  To be determined)             
38695658.CI.FON.--.HN                Start time:  9/19/20, 06:38:34.0 UTC (GPS) 
Station Id. FON     34.100N, 117.439W    ObsMMS  s/n 1916  (3 Chns of  6 at Sta)
Fontana, Arrow Hwy and Bennett Ave.      SCSN   Data: Acceleration              
Chan  1:  90 Deg                                                                
Rcrd of Fri Sep 18, 2020 23:38:34.0 PDT    Fri Sep 18, 2020 23:38:34.0 PDT      
Hypocenter:  To be determined.               ML:  To be determined.             
Instr Period =  .0050 sec,  Damping =  .707,  Sensitivity = 4.98 v/g  (Nominal) 
                        Record Length =301.000 sec.                             
                                     Uncor Max  =   .005 g, at   33.260 sec.    
RMS accel of (uncor) record  =        .   Chn. metadata effective date:         
Accelerogram bandpass filtered with 3 dB pts at   .30 and 23.00 cyc/sec         
                 instrument- and base-line correcte                             
                                                                                
                                                                                
                                                                                
                                                                                
                                                                                
Rcrd of Fri Sep 18, 2020 23:38:34.0 PDT    Fri Sep 18, 2020 23:38:34.0 PDT      
                                                                                
38695658.CI.FON.--.HN     Fontana, Arrow Hwy and Bennett Ave.   Chan  1:  90 Deg
                                                                                
38695658.CI.FON.--.HN     Fontana, Arrow Hwy and Bennett Ave.   Chan  1:  90 Deg
                                                                                
Units for spectra are inches and sec, except Sa is in fraction of g.            
                                                                                
    1  100    1    6    6  100 -999    3    1    0   15 1916    050502   41    0
    6   38   34   10  263    9   19 2020   10    3   9035668   39   35   74 -999
35668 -999  100    6 -999 -999 -999 -999 -999 -999 -999 -999 -999 -999 -999 -999
 -999 -999 -999 -99915050    2 -999    0 -999   20 -999 -999    3    1 -99915050
    315050    4   78    1    3    5    0    0 -999    0 -999 -999    6 -999    2
    2    2    4 -999 -999 -999 -999 -999 -999 -999 -999    1 -999 -999 -999  111
    1    1 -999 -999
      .005      .707   356.680      .000     1.000  4984.489      .005    33.260
   200.000     2.384      .478  -999.000    10.000  -999.000     4.000  -999.000
    20.000   -11.857      .000  -999.000  -999.000  -999.000  -999.000      .000
      .001      .001     2.000    15.000    34.100  -117.439      .012      .013
     1.071     -.001      .003   388.800  -999.000  -999.000  -999.000  -999.000
     1.000  -999.000    -8.000  -999.000  -999.000  -999.000  -999.000   120.000
     -.900     2.000     6.800   980.665      .020   301.000    31.831      .000
  -999.000    23.000  -999.000   301.000      .020      .300  -999.000  -999.000
    32.700    -4.839    33.220     -.133    33.260     -.007      .000      .300
    23.000      .020      .020      .000      .020      .006  -999.000  -999.000
      .016      .080      .013      .008      .000      .000  -999.000  -999.000
  -999.000  -999.000  -999.000  -999.000  -999.000  -999.000  -999.000  -999.000
  -999.000  -999.000  -999.000  -999.000
      .050
      .040      .042      .044      .046      .048      .050      .055      .060
      .065      .070      .075      .080      .085      .090      .095      .100
      .110      .120      .130      .140      .150      .160      .170      .180
      .190      .200      .220      .240      .260      .280      .300      .320
      .340      .360      .380      .400      .420      .440      .460      .480
      .500      .550      .600      .650      .700      .750      .800      .850
      .900      .950     1.000     1.100     1.200     1.300     1.400     1.500
     1.600     1.700     1.800     1.900     2.000     2.200     2.400     2.600
     2.800     3.000     3.200     3.400     3.600     3.800     4.000     4.200
     4.400     4.600     4.800     5.000     5.500     6.000      .000      .000
      .000      .000      .000      .000      .000      .000      .000      .000
      .000      .000      .000      .000      .000      .000      .000      .000
      .000      .000      .000      .000
Fourier amplitude spectra in in/sec.
  .000E+00  .000E+00  .000E+00  .000E+00  .000E+00  .000E+00  .000E+00  .000E+00
  .000E+00  .000E+00  .000E+00  .000E+00  .000E+00  .000E+00  .000E+00  .000E+00
  .000E+00  .000E+00  .000E+00  .000E+00  .000E+00  .000E+00  .000E+00  .000E+00
  .000E+00  .000E+00  .000E+00  .000E+00  .000E+00  .000E+00  .000E+00  .000E+00
  .000E+00  .000E+00  .000E+00  .000E+00  .000E+00  .000E+00  .000E+00  .000E+00
  .000E+00  .000E+00  .000E+00  .000E+00  .000E+00  .000E+00  .000E+00  .000E+00
  .000E+00  .000E+00  .000E+00  .000E+00  .000E+00  .000E+00  .000E+00  .000E+00
  .000E+00  .000E+00  .000E+00  .000E+00  .000E+00  .000E+00  .000E+00  .000E+00
  .000E+00  .000E+00  .000E+00  .000E+00  .000E+00  .000E+00  .000E+00  .000E+00
  .000E+00  .000E+00  .000E+00  .000E+00  .000E+00  .000E+00  .000E+00  .000E+00
  .000E+00  .000E+00  .000E+00  .000E+00  .000E+00  .000E+00  .000E+00  .000E+00
  .000E+00  .000E+00  .000E+00  .000E+00  .000E+00  .000E+00  .000E+00  .000E+00
  .000E+00  .000E+00  .000E+00  .000E+00
Damping =  .05. Data of Sd,Sv,Sa,Pssv,ttSd,ttSv,ttSa :
  .105E-03  .121E-03  .143E-03  .148E-03  .184E-03  .227E-03  .346E-03  .530E-03
  .619E-03  .747E-03  .822E-03  .953E-03  .107E-02  .908E-03  .829E-03  .989E-03
  .145E-02  .189E-02  .168E-02  .174E-02  .208E-02  .210E-02  .241E-02  .272E-02
  .360E-02  .532E-02  .693E-02  .762E-02  .562E-02  .676E-02  .849E-02  .633E-02
  .578E-02  .479E-02  .352E-02  .344E-02  .350E-02  .438E-02  .425E-02  .355E-02
  .340E-02  .413E-02  .502E-02  .556E-02  .627E-02  .500E-02  .379E-02  .341E-02
  .335E-02  .307E-02  .324E-02  .328E-02  .356E-02  .433E-02  .576E-02  .712E-02
  .721E-02  .621E-02  .536E-02  .629E-02  .638E-02  .519E-02  .370E-02  .363E-02
  .361E-02  .347E-02  .326E-02  .308E-02  .292E-02  .280E-02  .275E-02  .273E-02
  .271E-02  .272E-02  .275E-02  .278E-02  .281E-02  .282E-02  .000E+00  .000E+00
  .000E+00  .000E+00  .000E+00  .000E+00  .000E+00  .000E+00  .000E+00  .000E+00
  .000E+00  .000E+00  .000E+00  .000E+00  .000E+00  .000E+00  .000E+00  .000E+00
  .000E+00  .000E+00  .000E+00  .000E+00
  .880E-02  .104E-01  .134E-01  .155E-01  .180E-01  .212E-01  .292E-01  .491E-01
  .577E-01  .662E-01  .643E-01  .696E-01  .778E-01  .565E-01  .539E-01  .559E-01
  .810E-01  .100E+00  .826E-01  .701E-01  .774E-01  .725E-01  .757E-01  .788E-01
  .100E+00  .155E+00  .186E+00  .220E+00  .142E+00  .159E+00  .169E+00  .149E+00
  .144E+00  .115E+00  .935E-01  .905E-01  .886E-01  .914E-01  .808E-01  .703E-01
  .723E-01  .648E-01  .757E-01  .882E-01  .743E-01  .681E-01  .584E-01  .513E-01
  .541E-01  .552E-01  .537E-01  .511E-01  .492E-01  .509E-01  .543E-01  .508E-01
  .461E-01  .476E-01  .474E-01  .476E-01  .479E-01  .471E-01  .485E-01  .491E-01
  .497E-01  .502E-01  .504E-01  .504E-01  .503E-01  .501E-01  .499E-01  .498E-01
  .497E-01  .497E-01  .496E-01  .496E-01  .496E-01  .496E-01  .000E+00  .000E+00
  .000E+00  .000E+00  .000E+00  .000E+00  .000E+00  .000E+00  .000E+00  .000E+00
  .000E+00  .000E+00  .000E+00  .000E+00  .000E+00  .000E+00  .000E+00  .000E+00
  .000E+00  .000E+00  .000E+00  .000E+00
  .681E-02  .712E-02  .747E-02  .715E-02  .819E-02  .944E-02  .118E-01  .149E-01
  .150E-01  .154E-01  .148E-01  .156E-01  .150E-01  .116E-01  .949E-02  .996E-02
  .124E-01  .135E-01  .102E-01  .925E-02  .945E-02  .839E-02  .853E-02  .872E-02
  .103E-01  .137E-01  .148E-01  .135E-01  .865E-02  .883E-02  .957E-02  .651E-02
  .515E-02  .374E-02  .247E-02  .220E-02  .208E-02  .231E-02  .208E-02  .162E-02
  .140E-02  .140E-02  .145E-02  .136E-02  .131E-02  .913E-03  .612E-03  .489E-03
  .430E-03  .361E-03  .352E-03  .285E-03  .254E-03  .264E-03  .302E-03  .325E-03
  .292E-03  .224E-03  .174E-03  .182E-03  .166E-03  .113E-03  .802E-04  .702E-04
  .620E-04  .537E-04  .463E-04  .404E-04  .357E-04  .323E-04  .298E-04  .278E-04
  .261E-04  .247E-04  .235E-04  .224E-04  .200E-04  .179E-04  .000E+00  .000E+00
  .000E+00  .000E+00  .000E+00  .000E+00  .000E+00  .000E+00  .000E+00  .000E+00
  .000E+00  .000E+00  .000E+00  .000E+00  .000E+00  .000E+00  .000E+00  .000E+00
  .000E+00  .000E+00  .000E+00  .000E+00
  .166E-01  .181E-01  .204E-01  .202E-01  .241E-01  .285E-01  .395E-01  .555E-01
  .598E-01  .670E-01  .688E-01  .748E-01  .789E-01  .634E-01  .548E-01  .621E-01
  .829E-01  .991E-01  .812E-01  .783E-01  .872E-01  .823E-01  .892E-01  .951E-01
  .119E+00  .167E+00  .198E+00  .199E+00  .136E+00  .152E+00  .178E+00  .124E+00
  .107E+00  .835E-01  .582E-01  .541E-01  .523E-01  .626E-01  .581E-01  .464E-01
  .428E-01  .472E-01  .525E-01  .538E-01  .563E-01  .418E-01  .298E-01  .252E-01
  .234E-01  .203E-01  .203E-01  .187E-01  .186E-01  .209E-01  .259E-01  .298E-01
  .283E-01  .230E-01  .187E-01  .208E-01  .200E-01  .148E-01  .969E-02  .877E-02
  .811E-02  .726E-02  .640E-02  .569E-02  .509E-02  .464E-02  .432E-02  .408E-02
  .387E-02  .372E-02  .360E-02  .349E-02  .321E-02  .295E-02  .000E+00  .000E+00
  .000E+00  .000E+00  .000E+00  .000E+00  .000E+00  .000E+00  .000E+00  .000E+00
  .000E+00  .000E+00  .000E+00  .000E+00  .000E+00  .000E+00  .000E+00  .000E+00
  .000E+00  .000E+00  .000E+00  .000E+00
  .329E+02  .329E+02  .329E+02  .329E+02  .327E+02  .327E+02  .327E+02  .330E+02
  .328E+02  .328E+02  .337E+02  .335E+02  .335E+02  .333E+02  .344E+02  .333E+02
  .341E+02  .338E+02  .325E+02  .331E+02  .331E+02  .331E+02  .331E+02  .331E+02
  .331E+02  .333E+02  .335E+02  .336E+02  .337E+02  .335E+02  .335E+02  .335E+02
  .335E+02  .334E+02  .334E+02  .334E+02  .385E+02  .384E+02  .384E+02  .382E+02
  .307E+02  .359E+02  .313E+02  .323E+02  .366E+02  .367E+02  .364E+02  .357E+02
  .334E+02  .334E+02  .332E+02  .420E+02  .428E+02  .430E+02  .496E+02  .491E+02
  .448E+02  .426E+02  .426E+02  .426E+02  .426E+02  .411E+02  .412E+02  .332E+02
  .332E+02  .332E+02  .332E+02  .332E+02  .332E+02  .332E+02  .332E+02  .332E+02
  .332E+02  .332E+02  .332E+02  .332E+02  .332E+02  .332E+02  .000E+00  .000E+00
  .000E+00  .000E+00  .000E+00  .000E+00  .000E+00  .000E+00  .000E+00  .000E+00
  .000E+00  .000E+00  .000E+00  .000E+00  .000E+00  .000E+00  .000E+00  .000E+00
  .000E+00  .000E+00  .000E+00  .000E+00
  .326E+02  .326E+02  .340E+02  .327E+02  .327E+02  .327E+02  .331E+02  .330E+02
  .328E+02  .328E+02  .328E+02  .335E+02  .335E+02  .335E+02  .344E+02  .333E+02
  .341E+02  .340E+02  .325E+02  .331E+02  .332E+02  .332E+02  .332E+02  .332E+02
  .331E+02  .331E+02  .336E+02  .335E+02  .335E+02  .337E+02  .334E+02  .334E+02
  .334E+02  .334E+02  .334E+02  .334E+02  .334E+02  .334E+02  .334E+02  .334E+02
  .334E+02  .333E+02  .324E+02  .334E+02  .333E+02  .333E+02  .363E+02  .333E+02
  .333E+02  .333E+02  .333E+02  .332E+02  .333E+02  .332E+02  .332E+02  .332E+02
  .333E+02  .333E+02  .333E+02  .333E+02  .333E+02  .332E+02  .332E+02  .332E+02
  .332E+02  .332E+02  .332E+02  .332E+02  .332E+02  .332E+02  .332E+02  .332E+02
  .332E+02  .332E+02  .332E+02  .332E+02  .332E+02  .332E+02  .000E+00  .000E+00
  .000E+00  .000E+00  .000E+00  .000E+00  .000E+00  .000E+00  .000E+00  .000E+00
  .000E+00  .000E+00  .000E+00  .000E+00  .000E+00  .000E+00  .000E+00  .000E+00
  .000E+00  .000E+00  .000E+00  .000E+00
  .329E+02  .329E+02  .329E+02  .329E+02  .327E+02  .327E+02  .327E+02  .330E+02
  .327E+02  .328E+02  .337E+02  .335E+02  .335E+02  .333E+02  .344E+02  .333E+02
  .341E+02  .338E+02  .325E+02  .331E+02  .331E+02  .331E+02  .331E+02  .331E+02
  .331E+02  .331E+02  .333E+02  .336E+02  .337E+02  .335E+02  .335E+02  .335E+02
  .334E+02  .334E+02  .334E+02  .334E+02  .385E+02  .384E+02  .384E+02  .382E+02
  .307E+02  .313E+02  .313E+02  .323E+02  .366E+02  .367E+02  .364E+02  .357E+02
  .334E+02  .334E+02  .332E+02  .420E+02  .428E+02  .429E+02  .496E+02  .491E+02
  .448E+02  .425E+02  .425E+02  .425E+02  .426E+02  .411E+02  .332E+02  .332E+02
  .332E+02  .332E+02  .332E+02  .332E+02  .332E+02  .332E+02  .332E+02  .332E+02
  .332E+02  .332E+02  .332E+02  .332E+02  .332E+02  .332E+02  .000E+00  .000E+00
  .000E+00  .000E+00  .000E+00  .000E+00  .000E+00  .000E+00  .000E+00  .000E+00
  .000E+00  .000E+00  .000E+00  .000E+00  .000E+00  .000E+00  .000E+00  .000E+00
  .000E+00  .000E+00  .000E+00  .000E+00
/&   ----------  End of spectral data for channel  1  ----------
Response and Fourier amplitude spectra (78 periods,  .04 -  6.0 sec)   for      
Corrected accelerogram   38695658.CI.FON.--.HN      Chan  2: 360 Deg     from   
Uncorrected Accelerogram Data             Processed: 09/19/20, CGS  cifon--i    
Rcrd of Fri Sep 18, 2020 23:38:34.0 PDT               (Avol1 v2.0, 4/18 CSMIP)  
                                        (Origin:  To be determined)             
38695658.CI.FON.--.HN                Start time:  9/19/20, 06:38:34.0 UTC (GPS) 
Station Id. FON     34.100N, 117.439W    ObsMMS  s/n 1916  (3 Chns of  6 at Sta)
Fontana, Arrow Hwy and Bennett Ave.      SCSN   Data: Acceleration              
Chan  2: 360 Deg                                                                
Rcrd of Fri Sep 18, 2020 23:38:34.0 PDT    Fri Sep 18, 2020 23:38:34.0 PDT      
Hypocenter:  To be determined.               ML:  To be determined.             
Instr Period =  .0050 sec,  Damping =  .707,  Sensitivity = 4.98 v/g  (Nominal) 
                        Record Length =301.000 sec.                             
                                     Uncor Max  =  -.006 g, at   33.150 sec.    
RMS accel of (uncor) record  =        .   Chn. metadata effective date:         
Accelerogram bandpass filtered with 3 dB pts at   .30 and 23.00 cyc/sec         
                 instrument- and base-line correcte                             
                                                                                
                                                                                
                                                                                
                                                                                
                                                                                
Rcrd of Fri Sep 18, 2020 23:38:34.0 PDT    Fri Sep 18, 2020 23:38:34.0 PDT      
                                                                                
38695658.CI.FON.--.HN     Fontana, Arrow Hwy and Bennett Ave.   Chan  2: 360 Deg
                                                                                
38695658.CI.FON.--.HN     Fontana, Arrow Hwy and Bennett Ave.   Chan  2: 360 Deg
                                                                                
Units for spectra are inches and sec, except Sa is in fraction of g.            
                                                                                
    2  100    2    6    6  100 -999    3    1    0   15 1916    050502   41    0
    6   38   34   10  263    9   19 2020   10    3  36035623   39   35   74 -999
35623 -999  100    6 -999 -999 -999 -999 -999 -999 -999 -999 -999 -999 -999 -999
 -999 -999 -999 -99915050    2 -999    0 -999   20 -999 -999    3    1 -99915050
    315050    4   78    1    3    5    0    0 -999    0 -999 -999    6 -999    2
    2    2    4 -999 -999 -999 -999 -999 -999 -999 -999    1 -999 -999 -999  111
    1    1 -999 -999
      .005      .707   356.230      .000     1.000  4980.500     -.006    33.150
   200.000     2.384      .479  -999.000    10.000  -999.000     4.000  -999.000
    20.000   -13.354      .000  -999.000  -999.000  -999.000  -999.000      .000
      .000     -.001     2.000    15.000    34.100  -117.439      .006      .007
     1.114     -.002      .001   388.800  -999.000  -999.000  -999.000  -999.000
     1.000  -999.000  -999.000  -999.000  -999.000  -999.000  -999.000   120.000
     -.900     2.000     6.800   980.665      .020   301.000    31.831      .000
  -999.000    23.000  -999.000   301.000      .020      .300  -999.000  -999.000
    32.060     4.739    33.140      .109    36.520      .005      .000      .300
    23.000      .020      .020      .000      .020      .005  -999.000  -999.000
      .021      .060      .009      .004      .000      .000  -999.000  -999.000
  -999.000  -999.000  -999.000  -999.000  -999.000  -999.000  -999.000  -999.000
  -999.000  -999.000  -999.000  -999.000
      .050
      .040      .042      .044      .046      .048      .050      .055      .060
      .065      .070      .075      .080      .085      .090      .095      .100
      .110      .120      .130      .140      .150      .160      .170      .180
      .190      .200      .220      .240      .260      .280      .300      .320
      .340      .360      .380      .400      .420      .440      .460      .480
      .500      .550      .600      .650      .700      .750      .800      .850
      .900      .950     1.000     1.100     1.200     1.300     1.400     1.500
     1.600     1.700     1.800     1.900     2.000     2.200     2.400     2.600
     2.800     3.000     3.200     3.400     3.600     3.800     4.000     4.200
     4.400     4.600     4.800     5.000     5.500     6.000      .000      .000
      .000      .000      .000      .000      .000      .000      .000      .000
      .000      .000      .000      .000      .000      .000      .000      .000
      .000      .000      .000      .000
Fourier amplitude spectra in in/sec.
  .000E+00  .000E+00  .000E+00  .000E+00  .000E+00  .000E+00  .000E+00  .000E+00
  .000E+00  .000E+00  .000E+00  .000E+00  .000E+00  .000E+00  .000E+00  .000E+00
  .000E+00  .000E+00  .000E+00  .000E+00  .000E+00  .000E+00  .000E+00  .000E+00
  .000E+00  .000E+00  .000E+00  .000E+00  .000E+00  .000E+00  .000E+00  .000E+00
  .000E+00  .000E+00  .000E+00  .000E+00  .000E+00  .000E+00  .000E+00  .000E+00
  .000E+00  .000E+00  .000E+00  .000E+00  .000E+00  .000E+00  .000E+00  .000E+00
  .000E+00  .000E+00  .000E+00  .000E+00  .000E+00  .000E+00  .000E+00  .000E+00
  .000E+00  .000E+00  .000E+00  .000E+00  .000E+00  .000E+00  .000E+00  .000E+00
  .000E+00  .000E+00  .000E+00  .000E+00  .000E+00  .000E+00  .000E+00  .000E+00
  .000E+00  .000E+00  .000E+00  .000E+00  .000E+00  .000E+00  .000E+00  .000E+00
  .000E+00  .000E+00  .000E+00  .000E+00  .000E+00  .000E+00  .000E+00  .000E+00
  .000E+00  .000E+00  .000E+00  .000E+00  .000E+00  .000E+00  .000E+00  .000E+00
  .000E+00  .000E+00  .000E+00  .000E+00
Damping =  .05. Data of Sd,Sv,Sa,Pssv,ttSd,ttSv,ttSa :
  .110E-03  .124E-03  .138E-03  .170E-03  .195E-03  .217E-03  .331E-03  .730E-03
  .804E-03  .734E-03  .755E-03  .792E-03  .699E-03  .910E-03  .749E-03  .759E-03
  .103E-02  .151E-02  .189E-02  .230E-02  .220E-02  .251E-02  .292E-02  .304E-02
  .334E-02  .386E-02  .313E-02  .390E-02  .369E-02  .314E-02  .344E-02  .399E-02
  .424E-02  .434E-02  .409E-02  .411E-02  .487E-02  .516E-02  .489E-02  .436E-02
