Response and Fourier amplitude spectra (78 periods,  .04 -  6.0 sec)   for      
Corrected accelerogram   38695658.CI.FUL.--.HN      Chan  1:  90 Deg     from   
Uncorrected Accelerogram Data             Processed: 09/19/20, CGS  ciful--a    
Rcrd of Fri Sep 18, 2020 23:38:29.0 PDT               (Avol1 v2.0, 4/18 CSMIP)  
                                        (Origin:  To be determined)             
38695658.CI.FUL.--.HN                Start time:  9/19/20, 06:38:29.0 UTC (GPS) 
Station Id. FUL     33.872N, 117.923W    ObsMMS  s/n 1927  (3 Chns of  6 at Sta)
Fullerton, Amerige Ave. and Pomona Ave.  SCSN   Data: Acceleration              
Chan  1:  90 Deg                                                                
Rcrd of Fri Sep 18, 2020 23:38:29.0 PDT    Fri Sep 18, 2020 23:38:29.0 PDT      
Hypocenter:  To be determined.               ML:  To be determined.             
Instr Period =  .0050 sec,  Damping =  .707,  Sensitivity = 5.00 v/g  (Nominal) 
                        Record Length =301.000 sec.                             
                                     Uncor Max  =  -.008 g, at   31.260 sec.    
RMS accel of (uncor) record  =        .   Chn. metadata effective date:         
Accelerogram bandpass filtered with 3 dB pts at   .30 and 23.00 cyc/sec         
                 instrument- and base-line correcte                             
                                                                                
                                                                                
                                                                                
                                                                                
                                                                                
Rcrd of Fri Sep 18, 2020 23:38:29.0 PDT    Fri Sep 18, 2020 23:38:29.0 PDT      
                                                                                
38695658.CI.FUL.--.HN     Fullerton, Amerige Ave. and Pomona Ave.  SChan  1:  90
 Deg                                                                            
38695658.CI.FUL.--.HN     Fullerton, Amerige Ave. and Pomona Ave.  SChan  1:  90
 Deg                                                                            
Units for spectra are inches and sec, except Sa is in fraction of g.            
                                                                                
    1  100    1    6    6  100 -999    3    1    0   15 1927    050503   41    0
    6   38   29   10  263    9   19 2020   10    3   9035717   39   39   74 -999
35717 -999  100    6 -999 -999 -999 -999 -999 -999 -999 -999 -999 -999 -999 -999
 -999 -999 -999 -99915050    2 -999    0 -999   20 -999 -999    3    1 -99915050
    315050    4   78    1    3    5    0    0 -999    0 -999 -999    6 -999    2
    2    2    4 -999 -999 -999 -999 -999 -999 -999 -999    1 -999 -999 -999  111
    1    1 -999 -999
      .005      .707   357.170      .000     1.000  4997.455     -.008    31.260
   200.000     2.384      .477  -999.000    10.000  -999.000     4.000  -999.000
    20.000   -28.678      .000  -999.000  -999.000  -999.000  -999.000      .000
      .000      .000     2.000    15.000    33.872  -117.923      .018      .019
     1.077     -.004      .003    51.000  -999.000  -999.000  -999.000  -999.000
     1.000  -999.000    -8.000  -999.000  -999.000  -999.000  -999.000   120.000
     -.900     2.000     6.800   980.665      .020   301.000    31.831      .000
  -999.000    23.000  -999.000   301.000      .020      .300  -999.000  -999.000
    31.260    -8.366    33.660     -.329    33.560      .027      .000      .300
    23.000      .020      .020      .000      .020      .029  -999.000  -999.000
      .027      .240      .022      .022      .002      .000  -999.000  -999.000
  -999.000  -999.000  -999.000  -999.000  -999.000  -999.000  -999.000  -999.000
  -999.000  -999.000  -999.000  -999.000
      .050
      .040      .042      .044      .046      .048      .050      .055      .060
      .065      .070      .075      .080      .085      .090      .095      .100
      .110      .120      .130      .140      .150      .160      .170      .180
      .190      .200      .220      .240      .260      .280      .300      .320
      .340      .360      .380      .400      .420      .440      .460      .480
      .500      .550      .600      .650      .700      .750      .800      .850
      .900      .950     1.000     1.100     1.200     1.300     1.400     1.500
     1.600     1.700     1.800     1.900     2.000     2.200     2.400     2.600
     2.800     3.000     3.200     3.400     3.600     3.800     4.000     4.200
     4.400     4.600     4.800     5.000     5.500     6.000      .000      .000
      .000      .000      .000      .000      .000      .000      .000      .000
      .000      .000      .000      .000      .000      .000      .000      .000
      .000      .000      .000      .000
Fourier amplitude spectra in in/sec.
  .000E+00  .000E+00  .000E+00  .000E+00  .000E+00  .000E+00  .000E+00  .000E+00
  .000E+00  .000E+00  .000E+00  .000E+00  .000E+00  .000E+00  .000E+00  .000E+00
  .000E+00  .000E+00  .000E+00  .000E+00  .000E+00  .000E+00  .000E+00  .000E+00
  .000E+00  .000E+00  .000E+00  .000E+00  .000E+00  .000E+00  .000E+00  .000E+00
  .000E+00  .000E+00  .000E+00  .000E+00  .000E+00  .000E+00  .000E+00  .000E+00
  .000E+00  .000E+00  .000E+00  .000E+00  .000E+00  .000E+00  .000E+00  .000E+00
  .000E+00  .000E+00  .000E+00  .000E+00  .000E+00  .000E+00  .000E+00  .000E+00
  .000E+00  .000E+00  .000E+00  .000E+00  .000E+00  .000E+00  .000E+00  .000E+00
  .000E+00  .000E+00  .000E+00  .000E+00  .000E+00  .000E+00  .000E+00  .000E+00
  .000E+00  .000E+00  .000E+00  .000E+00  .000E+00  .000E+00  .000E+00  .000E+00
  .000E+00  .000E+00  .000E+00  .000E+00  .000E+00  .000E+00  .000E+00  .000E+00
  .000E+00  .000E+00  .000E+00  .000E+00  .000E+00  .000E+00  .000E+00  .000E+00
  .000E+00  .000E+00  .000E+00  .000E+00
Damping =  .05. Data of Sd,Sv,Sa,Pssv,ttSd,ttSv,ttSa :
  .135E-03  .151E-03  .170E-03  .188E-03  .205E-03  .228E-03  .293E-03  .393E-03
  .461E-03  .602E-03  .743E-03  .797E-03  .905E-03  .110E-02  .122E-02  .128E-02
  .209E-02  .291E-02  .357E-02  .455E-02  .479E-02  .642E-02  .701E-02  .683E-02
  .781E-02  .905E-02  .103E-01  .154E-01  .176E-01  .186E-01  .163E-01  .231E-01
  .222E-01  .186E-01  .201E-01  .183E-01  .230E-01  .217E-01  .235E-01  .243E-01
  .287E-01  .310E-01  .318E-01  .289E-01  .258E-01  .231E-01  .203E-01  .202E-01
  .197E-01  .190E-01  .185E-01  .181E-01  .227E-01  .247E-01  .350E-01  .348E-01
  .370E-01  .338E-01  .341E-01  .305E-01  .288E-01  .271E-01  .262E-01  .262E-01
  .214E-01  .213E-01  .203E-01  .203E-01  .188E-01  .173E-01  .161E-01  .141E-01
  .133E-01  .128E-01  .125E-01  .121E-01  .118E-01  .117E-01  .000E+00  .000E+00
  .000E+00  .000E+00  .000E+00  .000E+00  .000E+00  .000E+00  .000E+00  .000E+00
  .000E+00  .000E+00  .000E+00  .000E+00  .000E+00  .000E+00  .000E+00  .000E+00
  .000E+00  .000E+00  .000E+00  .000E+00
  .638E-02  .712E-02  .805E-02  .927E-02  .102E-01  .113E-01  .190E-01  .244E-01
  .336E-01  .375E-01  .455E-01  .480E-01  .557E-01  .621E-01  .664E-01  .717E-01
  .923E-01  .134E+00  .155E+00  .194E+00  .168E+00  .215E+00  .219E+00  .191E+00
  .217E+00  .273E+00  .296E+00  .391E+00  .444E+00  .427E+00  .380E+00  .467E+00
  .415E+00  .352E+00  .350E+00  .313E+00  .329E+00  .351E+00  .359E+00  .360E+00
  .358E+00  .417E+00  .355E+00  .306E+00  .277E+00  .232E+00  .192E+00  .188E+00
  .172E+00  .163E+00  .174E+00  .232E+00  .190E+00  .196E+00  .203E+00  .198E+00
  .202E+00  .212E+00  .170E+00  .172E+00  .160E+00  .132E+00  .128E+00  .140E+00
  .148E+00  .146E+00  .139E+00  .132E+00  .127E+00  .126E+00  .125E+00  .124E+00
  .123E+00  .124E+00  .125E+00  .125E+00  .126E+00  .126E+00  .000E+00  .000E+00
  .000E+00  .000E+00  .000E+00  .000E+00  .000E+00  .000E+00  .000E+00  .000E+00
  .000E+00  .000E+00  .000E+00  .000E+00  .000E+00  .000E+00  .000E+00  .000E+00
  .000E+00  .000E+00  .000E+00  .000E+00
  .867E-02  .878E-02  .897E-02  .911E-02  .912E-02  .932E-02  .988E-02  .112E-01
  .112E-01  .127E-01  .136E-01  .128E-01  .130E-01  .138E-01  .138E-01  .130E-01
  .175E-01  .210E-01  .214E-01  .242E-01  .219E-01  .259E-01  .251E-01  .217E-01
  .220E-01  .235E-01  .218E-01  .271E-01  .269E-01  .247E-01  .187E-01  .232E-01
  .198E-01  .147E-01  .142E-01  .118E-01  .134E-01  .116E-01  .115E-01  .108E-01
  .117E-01  .105E-01  .905E-02  .708E-02  .547E-02  .424E-02  .327E-02  .289E-02
  .254E-02  .218E-02  .194E-02  .155E-02  .163E-02  .151E-02  .183E-02  .159E-02
  .150E-02  .121E-02  .109E-02  .872E-03  .746E-03  .586E-03  .472E-03  .409E-03
  .300E-03  .263E-03  .229E-03  .206E-03  .174E-03  .144E-03  .120E-03  .102E-03
  .899E-04  .814E-04  .753E-04  .705E-04  .612E-04  .535E-04  .000E+00  .000E+00
  .000E+00  .000E+00  .000E+00  .000E+00  .000E+00  .000E+00  .000E+00  .000E+00
  .000E+00  .000E+00  .000E+00  .000E+00  .000E+00  .000E+00  .000E+00  .000E+00
  .000E+00  .000E+00  .000E+00  .000E+00
  .213E-01  .226E-01  .242E-01  .257E-01  .269E-01  .287E-01  .335E-01  .412E-01
  .446E-01  .540E-01  .622E-01  .626E-01  .669E-01  .767E-01  .809E-01  .804E-01
  .119E+00  .152E+00  .173E+00  .204E+00  .201E+00  .252E+00  .259E+00  .238E+00
  .258E+00  .284E+00  .295E+00  .403E+00  .425E+00  .417E+00  .341E+00  .453E+00
  .411E+00  .324E+00  .332E+00  .288E+00  .344E+00  .310E+00  .321E+00  .318E+00
  .361E+00  .354E+00  .333E+00  .279E+00  .232E+00  .193E+00  .160E+00  .149E+00
  .138E+00  .126E+00  .116E+00  .104E+00  .119E+00  .120E+00  .157E+00  .146E+00
  .145E+00  .125E+00  .119E+00  .101E+00  .906E-01  .773E-01  .685E-01  .634E-01
  .480E-01  .447E-01  .399E-01  .375E-01  .328E-01  .286E-01  .253E-01  .211E-01
  .189E-01  .175E-01  .163E-01  .153E-01  .135E-01  .123E-01  .000E+00  .000E+00
  .000E+00  .000E+00  .000E+00  .000E+00  .000E+00  .000E+00  .000E+00  .000E+00
  .000E+00  .000E+00  .000E+00  .000E+00  .000E+00  .000E+00  .000E+00  .000E+00
  .000E+00  .000E+00  .000E+00  .000E+00
  .313E+02  .313E+02  .313E+02  .313E+02  .313E+02  .313E+02  .313E+02  .313E+02
  .313E+02  .298E+02  .298E+02  .298E+02  .298E+02  .342E+02  .294E+02  .339E+02
  .311E+02  .313E+02  .298E+02  .298E+02  .335E+02  .336E+02  .336E+02  .337E+02
  .337E+02  .341E+02  .343E+02  .339E+02  .338E+02  .328E+02  .339E+02  .338E+02
  .347E+02  .345E+02  .346E+02  .346E+02  .389E+02  .373E+02  .341E+02  .293E+02
  .293E+02  .432E+02  .292E+02  .292E+02  .289E+02  .289E+02  .290E+02  .391E+02
  .423E+02  .354E+02  .337E+02  .388E+02  .354E+02  .355E+02  .438E+02  .446E+02
  .455E+02  .434E+02  .420E+02  .352E+02  .352E+02  .421E+02  .412E+02  .403E+02
  .344E+02  .344E+02  .335E+02  .335E+02  .336E+02  .397E+02  .397E+02  .398E+02
  .287E+02  .287E+02  .287E+02  .287E+02  .335E+02  .335E+02  .000E+00  .000E+00
  .000E+00  .000E+00  .000E+00  .000E+00  .000E+00  .000E+00  .000E+00  .000E+00
  .000E+00  .000E+00  .000E+00  .000E+00  .000E+00  .000E+00  .000E+00  .000E+00
  .000E+00  .000E+00  .000E+00  .000E+00
  .297E+02  .297E+02  .297E+02  .297E+02  .297E+02  .297E+02  .297E+02  .291E+02
  .291E+02  .292E+02  .298E+02  .298E+02  .298E+02  .342E+02  .339E+02  .339E+02
  .310E+02  .313E+02  .298E+02  .298E+02  .335E+02  .335E+02  .335E+02  .336E+02
  .341E+02  .342E+02  .342E+02  .339E+02  .338E+02  .329E+02  .338E+02  .339E+02
  .346E+02  .325E+02  .346E+02  .345E+02  .390E+02  .342E+02  .338E+02  .294E+02
  .294E+02  .292E+02  .293E+02  .291E+02  .291E+02  .291E+02  .291E+02  .424E+02
  .424E+02  .370E+02  .336E+02  .336E+02  .336E+02  .336E+02  .336E+02  .354E+02
  .422E+02  .422E+02  .336E+02  .336E+02  .336E+02  .336E+02  .336E+02  .336E+02
  .336E+02  .336E+02  .336E+02  .336E+02  .336E+02  .335E+02  .335E+02  .335E+02
  .336E+02  .336E+02  .336E+02  .336E+02  .336E+02  .336E+02  .000E+00  .000E+00
  .000E+00  .000E+00  .000E+00  .000E+00  .000E+00  .000E+00  .000E+00  .000E+00
  .000E+00  .000E+00  .000E+00  .000E+00  .000E+00  .000E+00  .000E+00  .000E+00
  .000E+00  .000E+00  .000E+00  .000E+00
  .313E+02  .313E+02  .313E+02  .313E+02  .313E+02  .313E+02  .313E+02  .313E+02
  .313E+02  .298E+02  .298E+02  .298E+02  .298E+02  .342E+02  .294E+02  .339E+02
  .311E+02  .313E+02  .298E+02  .298E+02  .335E+02  .336E+02  .336E+02  .337E+02
  .337E+02  .341E+02  .343E+02  .339E+02  .338E+02  .328E+02  .339E+02  .338E+02
  .347E+02  .345E+02  .346E+02  .346E+02  .389E+02  .373E+02  .341E+02  .293E+02
  .293E+02  .291E+02  .291E+02  .292E+02  .289E+02  .289E+02  .289E+02  .391E+02
  .423E+02  .354E+02  .337E+02  .388E+02  .354E+02  .354E+02  .438E+02  .446E+02
  .455E+02  .434E+02  .420E+02  .352E+02  .352E+02  .420E+02  .412E+02  .403E+02
  .344E+02  .344E+02  .335E+02  .335E+02  .335E+02  .335E+02  .335E+02  .335E+02
  .335E+02  .335E+02  .335E+02  .335E+02  .335E+02  .335E+02  .000E+00  .000E+00
  .000E+00  .000E+00  .000E+00  .000E+00  .000E+00  .000E+00  .000E+00  .000E+00
  .000E+00  .000E+00  .000E+00  .000E+00  .000E+00  .000E+00  .000E+00  .000E+00
  .000E+00  .000E+00  .000E+00  .000E+00
/&   ----------  End of spectral data for channel  1  ----------
Response and Fourier amplitude spectra (78 periods,  .04 -  6.0 sec)   for      
Corrected accelerogram   38695658.CI.FUL.--.HN      Chan  2: 360 Deg     from   
Uncorrected Accelerogram Data             Processed: 09/19/20, CGS  ciful--a    
Rcrd of Fri Sep 18, 2020 23:38:29.0 PDT               (Avol1 v2.0, 4/18 CSMIP)  
                                        (Origin:  To be determined)             
38695658.CI.FUL.--.HN                Start time:  9/19/20, 06:38:29.0 UTC (GPS) 
Station Id. FUL     33.872N, 117.923W    ObsMMS  s/n 1927  (3 Chns of  6 at Sta)
Fullerton, Amerige Ave. and Pomona Ave.  SCSN   Data: Acceleration              
Chan  2: 360 Deg                                                                
Rcrd of Fri Sep 18, 2020 23:38:29.0 PDT    Fri Sep 18, 2020 23:38:29.0 PDT      
Hypocenter:  To be determined.               ML:  To be determined.             
Instr Period =  .0050 sec,  Damping =  .707,  Sensitivity = 4.98 v/g  (Nominal) 
                        Record Length =301.000 sec.                             
                                     Uncor Max  =  -.009 g, at   28.060 sec.    
RMS accel of (uncor) record  =        .   Chn. metadata effective date:         
Accelerogram bandpass filtered with 3 dB pts at   .30 and 23.00 cyc/sec         
                 instrument- and base-line correcte                             
                                                                                
                                                                                
                                                                                
                                                                                
                                                                                
Rcrd of Fri Sep 18, 2020 23:38:29.0 PDT    Fri Sep 18, 2020 23:38:29.0 PDT      
                                                                                
38695658.CI.FUL.--.HN     Fullerton, Amerige Ave. and Pomona Ave.  SChan  2: 360
 Deg                                                                            
38695658.CI.FUL.--.HN     Fullerton, Amerige Ave. and Pomona Ave.  SChan  2: 360
 Deg                                                                            
Units for spectra are inches and sec, except Sa is in fraction of g.            
                                                                                
    2  100    2    6    6  100 -999    3    1    0   15 1927    050503   41    0
    6   38   29    0  263    9   19 2020   10    3  36035441   39   39   74 -999
35441 -999  100    6 -999 -999 -999 -999 -999 -999 -999 -999 -999 -999 -999 -999
 -999 -999 -999 -99915050    2 -999    0 -999   20 -999 -999    3    1 -99915050
    315050    4   78    1    3    5    0    0 -999    0 -999 -999    6 -999    2
    2    2    4 -999 -999 -999 -999 -999 -999 -999 -999    1 -999 -999 -999  111
    1    1 -999 -999
      .005      .707   354.410      .001     1.000  4982.495     -.009    28.060
   200.000     2.384      .479  -999.000    10.000  -999.000     4.000  -999.000
    20.000   -22.021      .000  -999.000  -999.000  -999.000  -999.000      .000
      .000      .000     2.000    15.000    33.872  -117.923      .033      .032
      .957     -.006      .006    51.000  -999.000  -999.000  -999.000  -999.000
     1.000  -999.000  -999.000  -999.000  -999.000  -999.000  -999.000   120.000
     -.900     2.000     6.800   980.665      .020   301.000    31.831      .000
  -999.000    23.000  -999.000   301.000      .020      .300  -999.000  -999.000
    28.060    -9.073    28.020      .656    28.140      .055      .000      .300
    23.000      .020      .020      .000      .020      .030  -999.000  -999.000
      .028      .140      .026      .024      .003      .000  -999.000  -999.000
  -999.000  -999.000  -999.000  -999.000  -999.000  -999.000  -999.000  -999.000
  -999.000  -999.000  -999.000  -999.000
      .050
      .040      .042      .044      .046      .048      .050      .055      .060
      .065      .070      .075      .080      .085      .090      .095      .100
      .110      .120      .130      .140      .150      .160      .170      .180
      .190      .200      .220      .240      .260      .280      .300      .320
      .340      .360      .380      .400      .420      .440      .460      .480
      .500      .550      .600      .650      .700      .750      .800      .850
      .900      .950     1.000     1.100     1.200     1.300     1.400     1.500
     1.600     1.700     1.800     1.900     2.000     2.200     2.400     2.600
     2.800     3.000     3.200     3.400     3.600     3.800     4.000     4.200
     4.400     4.600     4.800     5.000     5.500     6.000      .000      .000
      .000      .000      .000      .000      .000      .000      .000      .000
      .000      .000      .000      .000      .000      .000      .000      .000
      .000      .000      .000      .000
Fourier amplitude spectra in in/sec.
  .000E+00  .000E+00  .000E+00  .000E+00  .000E+00  .000E+00  .000E+00  .000E+00
  .000E+00  .000E+00  .000E+00  .000E+00  .000E+00  .000E+00  .000E+00  .000E+00
  .000E+00  .000E+00  .000E+00  .000E+00  .000E+00  .000E+00  .000E+00  .000E+00
  .000E+00  .000E+00  .000E+00  .000E+00  .000E+00  .000E+00  .000E+00  .000E+00
  .000E+00  .000E+00  .000E+00  .000E+00  .000E+00  .000E+00  .000E+00  .000E+00
  .000E+00  .000E+00  .000E+00  .000E+00  .000E+00  .000E+00  .000E+00  .000E+00
  .000E+00  .000E+00  .000E+00  .000E+00  .000E+00  .000E+00  .000E+00  .000E+00
  .000E+00  .000E+00  .000E+00  .000E+00  .000E+00  .000E+00  .000E+00  .000E+00
  .000E+00  .000E+00  .000E+00  .000E+00  .000E+00  .000E+00  .000E+00  .000E+00
  .000E+00  .000E+00  .000E+00  .000E+00  .000E+00  .000E+00  .000E+00  .000E+00
  .000E+00  .000E+00  .000E+00  .000E+00  .000E+00  .000E+00  .000E+00  .000E+00
  .000E+00  .000E+00  .000E+00  .000E+00  .000E+00  .000E+00  .000E+00  .000E+00
  .000E+00  .000E+00  .000E+00  .000E+00
Damping =  .05. Data of Sd,Sv,Sa,Pssv,ttSd,ttSv,ttSa :
  .152E-03  .169E-03  .187E-03  .210E-03  .236E-03  .259E-03  .338E-03  .496E-03
  .683E-03  .760E-03  .103E-02  .115E-02  .123E-02  .122E-02  .163E-02  .175E-02
  .236E-02  .304E-02  .411E-02  .543E-02  .475E-02  .550E-02  .642E-02  .837E-02
  .884E-02  .103E-01  .132E-01  .158E-01  .161E-01  .186E-01  .199E-01  .237E-01
  .243E-01  .312E-01  .392E-01  .421E-01  .456E-01  .460E-01  .471E-01  .511E-01
