Response and Fourier amplitude spectra (78 periods,  .04 -  6.0 sec)   for      
Corrected accelerogram   38695658.CI.GCC.--.HN      Chan  1:  90 Deg     from   
Uncorrected Accelerogram Data             Processed: 09/19/20, CGS  cigcc--q    
Rcrd of Fri Sep 18, 2020 23:38:28.0 PDT               (Avol1 v2.0, 4/18 CSMIP)  
                                        (Origin:  To be determined)             
38695658.CI.GCC.--.HN                Start time:  9/19/20, 06:38:28.0 UTC (GPS) 
Station Id. GCC     34.328N, 118.319W    ObsMMS  s/n  550  (3 Chns of  6 at Sta)
Gold Creek Center                        SCSN   Data: Acceleration              
Chan  1:  90 Deg                                                                
Rcrd of Fri Sep 18, 2020 23:38:28.0 PDT    Fri Sep 18, 2020 23:38:28.0 PDT      
Hypocenter:  To be determined.               ML:  To be determined.             
Instr Period =  .0050 sec,  Damping =  .707,  Sensitivity = 4.97 v/g  (Nominal) 
                        Record Length =301.000 sec.                             
                                     Uncor Max  =  -.017 g, at   31.820 sec.    
RMS accel of (uncor) record  =        .   Chn. metadata effective date:         
Accelerogram bandpass filtered with 3 dB pts at   .30 and 23.00 cyc/sec         
                 instrument- and base-line correcte                             
                                                                                
                                                                                
                                                                                
                                                                                
                                                                                
Rcrd of Fri Sep 18, 2020 23:38:28.0 PDT    Fri Sep 18, 2020 23:38:28.0 PDT      
                                                                                
38695658.CI.GCC.--.HN     Gold Creek Center   Chan  1:  90 Deg                  
                                                                                
38695658.CI.GCC.--.HN     Gold Creek Center   Chan  1:  90 Deg                  
                                                                                
Units for spectra are inches and sec, except Sa is in fraction of g.            
                                                                                
    1  100    1    6    6  100 -999    3    1    0   15  550    0    0   41    0
    6   38   28   10  263    9   19 2020   10    3   9035863   39   17   74 -999
35863 -999  100    6 -999 -999 -999 -999 -999 -999 -999 -999 -999 -999 -999 -999
 -999 -999 -999 -99915050    2 -999    0 -999   20 -999 -999    3    1 -99915050
    315050    4   78    1    3    5    0    0 -999    0 -999 -999    6 -999    2
    2    2    4 -999 -999 -999 -999 -999 -999 -999 -999    1 -999 -999 -999  111
    1    1 -999 -999
      .005      .707   358.630      .001     1.000  4972.700     -.017    31.820
   200.000     2.384      .479  -999.000    10.000  -999.000     4.000  -999.000
    20.000   -25.423      .000  -999.000  -999.000  -999.000  -999.000      .005
     -.005     -.011     2.000    15.000    34.328  -118.319      .001      .001
     1.152     -.011     -.010   726.600  -999.000  -999.000  -999.000  -999.000
     1.000  -999.000    -8.000  -999.000  -999.000  -999.000  -999.000   120.000
     -.900     2.000     6.800   980.665      .020   301.000    31.831      .001
  -999.000    23.000  -999.000   301.000      .020      .300  -999.000  -999.000
    31.820   -16.054    31.780      .421    31.620     -.026      .000      .300
    23.000      .020      .020      .000      .020      .014  -999.000  -999.000
      .049      .120      .031      .016      .002      .000  -999.000  -999.000
  -999.000  -999.000  -999.000  -999.000  -999.000  -999.000  -999.000  -999.000
  -999.000  -999.000  -999.000  -999.000
      .050
      .040      .042      .044      .046      .048      .050      .055      .060
      .065      .070      .075      .080      .085      .090      .095      .100
      .110      .120      .130      .140      .150      .160      .170      .180
      .190      .200      .220      .240      .260      .280      .300      .320
      .340      .360      .380      .400      .420      .440      .460      .480
      .500      .550      .600      .650      .700      .750      .800      .850
      .900      .950     1.000     1.100     1.200     1.300     1.400     1.500
     1.600     1.700     1.800     1.900     2.000     2.200     2.400     2.600
     2.800     3.000     3.200     3.400     3.600     3.800     4.000     4.200
     4.400     4.600     4.800     5.000     5.500     6.000      .000      .000
      .000      .000      .000      .000      .000      .000      .000      .000
      .000      .000      .000      .000      .000      .000      .000      .000
      .000      .000      .000      .000
Fourier amplitude spectra in in/sec.
  .000E+00  .000E+00  .000E+00  .000E+00  .000E+00  .000E+00  .000E+00  .000E+00
  .000E+00  .000E+00  .000E+00  .000E+00  .000E+00  .000E+00  .000E+00  .000E+00
  .000E+00  .000E+00  .000E+00  .000E+00  .000E+00  .000E+00  .000E+00  .000E+00
  .000E+00  .000E+00  .000E+00  .000E+00  .000E+00  .000E+00  .000E+00  .000E+00
  .000E+00  .000E+00  .000E+00  .000E+00  .000E+00  .000E+00  .000E+00  .000E+00
  .000E+00  .000E+00  .000E+00  .000E+00  .000E+00  .000E+00  .000E+00  .000E+00
  .000E+00  .000E+00  .000E+00  .000E+00  .000E+00  .000E+00  .000E+00  .000E+00
  .000E+00  .000E+00  .000E+00  .000E+00  .000E+00  .000E+00  .000E+00  .000E+00
  .000E+00  .000E+00  .000E+00  .000E+00  .000E+00  .000E+00  .000E+00  .000E+00
  .000E+00  .000E+00  .000E+00  .000E+00  .000E+00  .000E+00  .000E+00  .000E+00
  .000E+00  .000E+00  .000E+00  .000E+00  .000E+00  .000E+00  .000E+00  .000E+00
  .000E+00  .000E+00  .000E+00  .000E+00  .000E+00  .000E+00  .000E+00  .000E+00
  .000E+00  .000E+00  .000E+00  .000E+00
Damping =  .05. Data of Sd,Sv,Sa,Pssv,ttSd,ttSv,ttSa :
  .256E-03  .297E-03  .351E-03  .429E-03  .496E-03  .506E-03  .575E-03  .835E-03
  .133E-02  .155E-02  .192E-02  .229E-02  .260E-02  .369E-02  .368E-02  .372E-02
  .511E-02  .686E-02  .638E-02  .765E-02  .757E-02  .692E-02  .776E-02  .981E-02
  .133E-01  .129E-01  .955E-02  .941E-02  .926E-02  .120E-01  .145E-01  .162E-01
  .189E-01  .231E-01  .256E-01  .270E-01  .287E-01  .291E-01  .305E-01  .312E-01
  .297E-01  .264E-01  .255E-01  .272E-01  .263E-01  .246E-01  .241E-01  .217E-01
  .237E-01  .238E-01  .244E-01  .184E-01  .155E-01  .153E-01  .137E-01  .145E-01
  .161E-01  .157E-01  .138E-01  .139E-01  .121E-01  .112E-01  .112E-01  .112E-01
  .111E-01  .105E-01  .109E-01  .112E-01  .112E-01  .113E-01  .114E-01  .113E-01
  .112E-01  .111E-01  .110E-01  .109E-01  .108E-01  .107E-01  .000E+00  .000E+00
  .000E+00  .000E+00  .000E+00  .000E+00  .000E+00  .000E+00  .000E+00  .000E+00
  .000E+00  .000E+00  .000E+00  .000E+00  .000E+00  .000E+00  .000E+00  .000E+00
  .000E+00  .000E+00  .000E+00  .000E+00
  .156E-01  .175E-01  .206E-01  .229E-01  .294E-01  .330E-01  .394E-01  .589E-01
  .986E-01  .104E+00  .130E+00  .136E+00  .152E+00  .216E+00  .217E+00  .212E+00
  .277E+00  .366E+00  .295E+00  .360E+00  .335E+00  .285E+00  .278E+00  .367E+00
  .461E+00  .442E+00  .270E+00  .219E+00  .230E+00  .254E+00  .294E+00  .338E+00
  .350E+00  .443E+00  .466E+00  .441E+00  .465E+00  .464E+00  .442E+00  .441E+00
  .425E+00  .382E+00  .334E+00  .306E+00  .264E+00  .240E+00  .256E+00  .262E+00
  .245E+00  .235E+00  .231E+00  .217E+00  .214E+00  .201E+00  .190E+00  .187E+00
  .183E+00  .176E+00  .171E+00  .168E+00  .168E+00  .168E+00  .168E+00  .168E+00
  .168E+00  .168E+00  .168E+00  .167E+00  .167E+00  .166E+00  .165E+00  .165E+00
  .164E+00  .164E+00  .164E+00  .163E+00  .163E+00  .163E+00  .000E+00  .000E+00
  .000E+00  .000E+00  .000E+00  .000E+00  .000E+00  .000E+00  .000E+00  .000E+00
  .000E+00  .000E+00  .000E+00  .000E+00  .000E+00  .000E+00  .000E+00  .000E+00
  .000E+00  .000E+00  .000E+00  .000E+00
  .164E-01  .172E-01  .186E-01  .207E-01  .219E-01  .208E-01  .193E-01  .236E-01
  .323E-01  .325E-01  .345E-01  .371E-01  .369E-01  .466E-01  .422E-01  .386E-01
  .435E-01  .490E-01  .381E-01  .405E-01  .344E-01  .276E-01  .279E-01  .315E-01
  .382E-01  .333E-01  .203E-01  .170E-01  .144E-01  .160E-01  .165E-01  .161E-01
  .168E-01  .182E-01  .182E-01  .174E-01  .167E-01  .153E-01  .149E-01  .138E-01
  .121E-01  .899E-02  .735E-02  .657E-02  .561E-02  .462E-02  .395E-02  .308E-02
  .300E-02  .273E-02  .253E-02  .161E-02  .114E-02  .960E-03  .748E-03  .671E-03
  .657E-03  .571E-03  .451E-03  .408E-03  .339E-03  .265E-03  .215E-03  .184E-03
  .163E-03  .153E-03  .143E-03  .132E-03  .120E-03  .108E-03  .973E-04  .881E-04
  .803E-04  .738E-04  .683E-04  .641E-04  .573E-04  .517E-04  .000E+00  .000E+00
  .000E+00  .000E+00  .000E+00  .000E+00  .000E+00  .000E+00  .000E+00  .000E+00
  .000E+00  .000E+00  .000E+00  .000E+00  .000E+00  .000E+00  .000E+00  .000E+00
  .000E+00  .000E+00  .000E+00  .000E+00
  .403E-01  .444E-01  .501E-01  .586E-01  .649E-01  .636E-01  .657E-01  .874E-01
  .128E+00  .139E+00  .161E+00  .180E+00  .192E+00  .257E+00  .243E+00  .234E+00
  .292E+00  .359E+00  .308E+00  .344E+00  .317E+00  .272E+00  .287E+00  .342E+00
  .441E+00  .404E+00  .273E+00  .246E+00  .224E+00  .270E+00  .303E+00  .319E+00
  .349E+00  .403E+00  .424E+00  .424E+00  .429E+00  .415E+00  .416E+00  .409E+00
  .373E+00  .301E+00  .267E+00  .263E+00  .236E+00  .206E+00  .189E+00  .160E+00
  .165E+00  .158E+00  .153E+00  .105E+00  .812E-01  .740E-01  .615E-01  .606E-01
  .631E-01  .579E-01  .480E-01  .461E-01  .379E-01  .320E-01  .294E-01  .270E-01
  .248E-01  .221E-01  .214E-01  .206E-01  .196E-01  .188E-01  .178E-01  .169E-01
  .160E-01  .151E-01  .144E-01  .137E-01  .123E-01  .112E-01  .000E+00  .000E+00
  .000E+00  .000E+00  .000E+00  .000E+00  .000E+00  .000E+00  .000E+00  .000E+00
  .000E+00  .000E+00  .000E+00  .000E+00  .000E+00  .000E+00  .000E+00  .000E+00
  .000E+00  .000E+00  .000E+00  .000E+00
  .318E+02  .318E+02  .318E+02  .318E+02  .318E+02  .318E+02  .322E+02  .322E+02
  .328E+02  .318E+02  .318E+02  .318E+02  .318E+02  .322E+02  .322E+02  .324E+02
  .330E+02  .326E+02  .331E+02  .331E+02  .330E+02  .344E+02  .354E+02  .319E+02
  .325E+02  .325E+02  .320E+02  .316E+02  .356E+02  .320E+02  .320E+02  .320E+02
  .324E+02  .323E+02  .323E+02  .323E+02  .323E+02  .323E+02  .322E+02  .322E+02
  .320E+02  .320E+02  .318E+02  .318E+02  .318E+02  .318E+02  .318E+02  .331E+02
  .355E+02  .352E+02  .343E+02  .343E+02  .316E+02  .316E+02  .316E+02  .341E+02
  .341E+02  .341E+02  .341E+02  .381E+02  .381E+02  .336E+02  .336E+02  .336E+02
  .336E+02  .336E+02  .328E+02  .328E+02  .316E+02  .316E+02  .316E+02  .316E+02
  .316E+02  .316E+02  .316E+02  .316E+02  .316E+02  .316E+02  .000E+00  .000E+00
  .000E+00  .000E+00  .000E+00  .000E+00  .000E+00  .000E+00  .000E+00  .000E+00
  .000E+00  .000E+00  .000E+00  .000E+00  .000E+00  .000E+00  .000E+00  .000E+00
  .000E+00  .000E+00  .000E+00  .000E+00
  .318E+02  .322E+02  .322E+02  .318E+02  .318E+02  .322E+02  .322E+02  .322E+02
  .328E+02  .338E+02  .329E+02  .319E+02  .319E+02  .322E+02  .322E+02  .324E+02
  .330E+02  .326E+02  .330E+02  .330E+02  .330E+02  .329E+02  .326E+02  .326E+02
  .325E+02  .325E+02  .315E+02  .315E+02  .355E+02  .321E+02  .321E+02  .324E+02
  .323E+02  .324E+02  .324E+02  .322E+02  .322E+02  .322E+02  .322E+02  .318E+02
  .318E+02  .319E+02  .319E+02  .319E+02  .319E+02  .318E+02  .318E+02  .318E+02
  .318E+02  .318E+02  .318E+02  .318E+02  .318E+02  .318E+02  .318E+02  .318E+02
  .318E+02  .318E+02  .318E+02  .318E+02  .318E+02  .318E+02  .318E+02  .318E+02
  .318E+02  .318E+02  .318E+02  .318E+02  .318E+02  .318E+02  .318E+02  .318E+02
  .318E+02  .318E+02  .318E+02  .318E+02  .318E+02  .318E+02  .000E+00  .000E+00
  .000E+00  .000E+00  .000E+00  .000E+00  .000E+00  .000E+00  .000E+00  .000E+00
  .000E+00  .000E+00  .000E+00  .000E+00  .000E+00  .000E+00  .000E+00  .000E+00
  .000E+00  .000E+00  .000E+00  .000E+00
  .318E+02  .318E+02  .318E+02  .318E+02  .318E+02  .318E+02  .322E+02  .322E+02
  .328E+02  .318E+02  .318E+02  .318E+02  .318E+02  .322E+02  .322E+02  .324E+02
  .330E+02  .326E+02  .331E+02  .331E+02  .330E+02  .344E+02  .354E+02  .318E+02
  .325E+02  .325E+02  .320E+02  .316E+02  .356E+02  .320E+02  .320E+02  .320E+02
  .324E+02  .323E+02  .323E+02  .323E+02  .323E+02  .323E+02  .322E+02  .322E+02
  .320E+02  .320E+02  .318E+02  .318E+02  .318E+02  .318E+02  .318E+02  .331E+02
  .355E+02  .352E+02  .343E+02  .343E+02  .316E+02  .316E+02  .316E+02  .341E+02
  .341E+02  .341E+02  .341E+02  .380E+02  .353E+02  .353E+02  .335E+02  .335E+02
  .328E+02  .328E+02  .328E+02  .328E+02  .328E+02  .328E+02  .328E+02  .328E+02
  .328E+02  .328E+02  .328E+02  .318E+02  .318E+02  .318E+02  .000E+00  .000E+00
  .000E+00  .000E+00  .000E+00  .000E+00  .000E+00  .000E+00  .000E+00  .000E+00
  .000E+00  .000E+00  .000E+00  .000E+00  .000E+00  .000E+00  .000E+00  .000E+00
  .000E+00  .000E+00  .000E+00  .000E+00
/&   ----------  End of spectral data for channel  1  ----------
Response and Fourier amplitude spectra (78 periods,  .04 -  6.0 sec)   for      
Corrected accelerogram   38695658.CI.GCC.--.HN      Chan  2: 360 Deg     from   
Uncorrected Accelerogram Data             Processed: 09/19/20, CGS  cigcc--q    
Rcrd of Fri Sep 18, 2020 23:38:28.0 PDT               (Avol1 v2.0, 4/18 CSMIP)  
                                        (Origin:  To be determined)             
38695658.CI.GCC.--.HN                Start time:  9/19/20, 06:38:28.0 UTC (GPS) 
Station Id. GCC     34.328N, 118.319W    ObsMMS  s/n  550  (3 Chns of  6 at Sta)
Gold Creek Center                        SCSN   Data: Acceleration              
Chan  2: 360 Deg                                                                
Rcrd of Fri Sep 18, 2020 23:38:28.0 PDT    Fri Sep 18, 2020 23:38:28.0 PDT      
Hypocenter:  To be determined.               ML:  To be determined.             
Instr Period =  .0050 sec,  Damping =  .707,  Sensitivity = 4.98 v/g  (Nominal) 
                        Record Length =301.000 sec.                             
                                     Uncor Max  =  -.015 g, at   31.720 sec.    
RMS accel of (uncor) record  =        .   Chn. metadata effective date:         
Accelerogram bandpass filtered with 3 dB pts at   .30 and 23.00 cyc/sec         
                 instrument- and base-line correcte                             
                                                                                
                                                                                
                                                                                
                                                                                
                                                                                
Rcrd of Fri Sep 18, 2020 23:38:28.0 PDT    Fri Sep 18, 2020 23:38:28.0 PDT      
                                                                                
38695658.CI.GCC.--.HN     Gold Creek Center   Chan  2: 360 Deg                  
                                                                                
38695658.CI.GCC.--.HN     Gold Creek Center   Chan  2: 360 Deg                  
                                                                                
Units for spectra are inches and sec, except Sa is in fraction of g.            
                                                                                
    2  100    2    6    6  100 -999    3    1    0   15  550    0    0   41    0
    6   38   28    0  263    9   19 2020   10    3  36035933   39   17   74 -999
35933 -999  100    6 -999 -999 -999 -999 -999 -999 -999 -999 -999 -999 -999 -999
 -999 -999 -999 -99915050    2 -999    0 -999   20 -999 -999    3    1 -99915050
    315050    4   78    1    3    5    0    0 -999    0 -999 -999    6 -999    2
    2    2    4 -999 -999 -999 -999 -999 -999 -999 -999    1 -999 -999 -999  111
    1    1 -999 -999
      .005      .707   359.330      .001     1.000  4979.681     -.015    31.720
   200.000     2.384      .479  -999.000    10.000  -999.000     4.000  -999.000
    20.000   -14.475      .000  -999.000  -999.000  -999.000  -999.000     -.003
      .002      .005     2.000    15.000    34.328  -118.319      .001      .001
     1.073      .005      .005   726.600  -999.000  -999.000  -999.000  -999.000
     1.000  -999.000  -999.000  -999.000  -999.000  -999.000  -999.000   120.000
     -.900     2.000     6.800   980.665      .020   301.000    31.831      .000
  -999.000    23.000  -999.000   301.000      .020      .300  -999.000  -999.000
    31.720   -14.779    31.680      .439    31.400     -.039      .000      .300
    23.000      .020      .020      .000      .020      .014  -999.000  -999.000
      .063      .140      .043      .013      .003      .000  -999.000  -999.000
  -999.000  -999.000  -999.000  -999.000  -999.000  -999.000  -999.000  -999.000
  -999.000  -999.000  -999.000  -999.000
      .050
      .040      .042      .044      .046      .048      .050      .055      .060
      .065      .070      .075      .080      .085      .090      .095      .100
      .110      .120      .130      .140      .150      .160      .170      .180
      .190      .200      .220      .240      .260      .280      .300      .320
      .340      .360      .380      .400      .420      .440      .460      .480
      .500      .550      .600      .650      .700      .750      .800      .850
      .900      .950     1.000     1.100     1.200     1.300     1.400     1.500
     1.600     1.700     1.800     1.900     2.000     2.200     2.400     2.600
     2.800     3.000     3.200     3.400     3.600     3.800     4.000     4.200
     4.400     4.600     4.800     5.000     5.500     6.000      .000      .000
      .000      .000      .000      .000      .000      .000      .000      .000
      .000      .000      .000      .000      .000      .000      .000      .000
      .000      .000      .000      .000
Fourier amplitude spectra in in/sec.
  .000E+00  .000E+00  .000E+00  .000E+00  .000E+00  .000E+00  .000E+00  .000E+00
  .000E+00  .000E+00  .000E+00  .000E+00  .000E+00  .000E+00  .000E+00  .000E+00
  .000E+00  .000E+00  .000E+00  .000E+00  .000E+00  .000E+00  .000E+00  .000E+00
  .000E+00  .000E+00  .000E+00  .000E+00  .000E+00  .000E+00  .000E+00  .000E+00
  .000E+00  .000E+00  .000E+00  .000E+00  .000E+00  .000E+00  .000E+00  .000E+00
  .000E+00  .000E+00  .000E+00  .000E+00  .000E+00  .000E+00  .000E+00  .000E+00
  .000E+00  .000E+00  .000E+00  .000E+00  .000E+00  .000E+00  .000E+00  .000E+00
  .000E+00  .000E+00  .000E+00  .000E+00  .000E+00  .000E+00  .000E+00  .000E+00
  .000E+00  .000E+00  .000E+00  .000E+00  .000E+00  .000E+00  .000E+00  .000E+00
  .000E+00  .000E+00  .000E+00  .000E+00  .000E+00  .000E+00  .000E+00  .000E+00
  .000E+00  .000E+00  .000E+00  .000E+00  .000E+00  .000E+00  .000E+00  .000E+00
  .000E+00  .000E+00  .000E+00  .000E+00  .000E+00  .000E+00  .000E+00  .000E+00
  .000E+00  .000E+00  .000E+00  .000E+00
Damping =  .05. Data of Sd,Sv,Sa,Pssv,ttSd,ttSv,ttSa :
  .277E-03  .313E-03  .359E-03  .430E-03  .525E-03  .615E-03  .808E-03  .114E-02
  .119E-02  .154E-02  .194E-02  .194E-02  .207E-02  .239E-02  .264E-02  .316E-02
  .547E-02  .517E-02  .819E-02  .120E-01  .104E-01  .834E-02  .843E-02  .104E-01
  .157E-01  .182E-01  .174E-01  .147E-01  .121E-01  .124E-01  .106E-01  .109E-01
  .149E-01  .149E-01  .140E-01  .136E-01  .148E-01  .170E-01  .196E-01  .229E-01
