Response and Fourier amplitude spectra (78 periods,  .04 -  6.0 sec)   for      
Corrected accelerogram   38695658.CI.GMA.--.HN      Chan  1:  90 Deg     from   
Uncorrected Accelerogram Data             Processed: 09/19/20, CGS  cigma--t    
Rcrd of Fri Sep 18, 2020 23:38:45.0 PDT               (Avol1 v2.0, 4/18 CSMIP)  
                                        (Origin:  To be determined)             
38695658.CI.GMA.--.HN                Start time:  9/19/20, 06:38:45.0 UTC (GPS) 
Station Id. GMA     34.291N, 116.383W    Q330    s/n 5325  (3 Chns of  3 at Sta)
Goat Mountain Astronomical Research Stat SCSN   Data: Acceleration              
Chan  1:  90 Deg                                                                
Rcrd of Fri Sep 18, 2020 23:38:45.0 PDT    Fri Sep 18, 2020 23:38:45.0 PDT      
Hypocenter:  To be determined.               ML:  To be determined.             
Instr Period =  .0050 sec,  Damping =  .707,  Sensitivity = 4.99 v/g  (Nominal) 
                        Record Length =301.000 sec.                             
                                     Uncor Max  =   .001 g, at   49.370 sec.    
RMS accel of (uncor) record  =        .   Chn. metadata effective date:         
Accelerogram bandpass filtered with 3 dB pts at   .30 and 23.00 cyc/sec         
                 instrument- and base-line correcte                             
                                                                                
                                                                                
                                                                                
                                                                                
                                                                                
Rcrd of Fri Sep 18, 2020 23:38:45.0 PDT    Fri Sep 18, 2020 23:38:45.0 PDT      
                                                                                
38695658.CI.GMA.--.HN     Goat Mountain Astronomical Research Stat SCSChan  1:  
90 Deg                                                                          
38695658.CI.GMA.--.HN     Goat Mountain Astronomical Research Stat SCSChan  1:  
90 Deg                                                                          
Units for spectra are inches and sec, except Sa is in fraction of g.            
                                                                                
    1  100    1    3    3  100 -999    3    1    0  605 5325    0    0   41    0
    6   38   45    8  263    9   19 2020   10    3   9035893   39   40   74 -999
35893 -999  100    6 -999 -999 -999 -999 -999 -999 -999 -999 -999 -999 -999 -999
 -999 -999 -999 -99915050    2 -999    0 -999   20 -999 -999    3    1 -99915050
    315050    4   78    1    3    5    0    0 -999    0 -999 -999    6 -999    2
    2    2    4 -999 -999 -999 -999 -999 -999 -999 -999    1 -999 -999 -999  111
    1    1 -999 -999
      .005      .707   358.930      .000     1.000  4986.484      .001    49.370
   200.000     2.384      .478  -999.000    10.000  -999.000     4.000  -999.000
    20.000   -17.301      .000  -999.000  -999.000  -999.000  -999.000      .000
      .000      .000     2.000    15.000    34.291  -116.383      .001      .001
     1.000      .000      .001   848.000  -999.000  -999.000  -999.000  -999.000
     1.000  -999.000    -8.000  -999.000  -999.000  -999.000  -999.000   120.000
     -.900     2.000     6.800   980.665      .020   301.000    31.831      .000
  -999.000    23.000  -999.000   301.000      .020      .300  -999.000  -999.000
    49.360      .624    50.380     -.024    49.780      .002      .000      .300
    23.000      .020      .020      .000      .020      .002  -999.000  -999.000
      .002      .160      .002      .002      .000      .000  -999.000  -999.000
  -999.000  -999.000  -999.000  -999.000  -999.000  -999.000  -999.000  -999.000
  -999.000  -999.000  -999.000  -999.000
      .050
      .040      .042      .044      .046      .048      .050      .055      .060
      .065      .070      .075      .080      .085      .090      .095      .100
      .110      .120      .130      .140      .150      .160      .170      .180
      .190      .200      .220      .240      .260      .280      .300      .320
      .340      .360      .380      .400      .420      .440      .460      .480
      .500      .550      .600      .650      .700      .750      .800      .850
      .900      .950     1.000     1.100     1.200     1.300     1.400     1.500
     1.600     1.700     1.800     1.900     2.000     2.200     2.400     2.600
     2.800     3.000     3.200     3.400     3.600     3.800     4.000     4.200
     4.400     4.600     4.800     5.000     5.500     6.000      .000      .000
      .000      .000      .000      .000      .000      .000      .000      .000
      .000      .000      .000      .000      .000      .000      .000      .000
      .000      .000      .000      .000
Fourier amplitude spectra in in/sec.
  .000E+00  .000E+00  .000E+00  .000E+00  .000E+00  .000E+00  .000E+00  .000E+00
  .000E+00  .000E+00  .000E+00  .000E+00  .000E+00  .000E+00  .000E+00  .000E+00
  .000E+00  .000E+00  .000E+00  .000E+00  .000E+00  .000E+00  .000E+00  .000E+00
  .000E+00  .000E+00  .000E+00  .000E+00  .000E+00  .000E+00  .000E+00  .000E+00
  .000E+00  .000E+00  .000E+00  .000E+00  .000E+00  .000E+00  .000E+00  .000E+00
  .000E+00  .000E+00  .000E+00  .000E+00  .000E+00  .000E+00  .000E+00  .000E+00
  .000E+00  .000E+00  .000E+00  .000E+00  .000E+00  .000E+00  .000E+00  .000E+00
  .000E+00  .000E+00  .000E+00  .000E+00  .000E+00  .000E+00  .000E+00  .000E+00
  .000E+00  .000E+00  .000E+00  .000E+00  .000E+00  .000E+00  .000E+00  .000E+00
  .000E+00  .000E+00  .000E+00  .000E+00  .000E+00  .000E+00  .000E+00  .000E+00
  .000E+00  .000E+00  .000E+00  .000E+00  .000E+00  .000E+00  .000E+00  .000E+00
  .000E+00  .000E+00  .000E+00  .000E+00  .000E+00  .000E+00  .000E+00  .000E+00
  .000E+00  .000E+00  .000E+00  .000E+00
Damping =  .05. Data of Sd,Sv,Sa,Pssv,ttSd,ttSv,ttSa :
  .100E-04  .111E-04  .125E-04  .142E-04  .159E-04  .171E-04  .198E-04  .263E-04
  .330E-04  .442E-04  .601E-04  .789E-04  .102E-03  .116E-03  .112E-03  .137E-03
  .172E-03  .217E-03  .283E-03  .383E-03  .431E-03  .508E-03  .511E-03  .546E-03
  .638E-03  .615E-03  .745E-03  .918E-03  .126E-02  .135E-02  .128E-02  .134E-02
  .145E-02  .159E-02  .177E-02  .199E-02  .214E-02  .222E-02  .227E-02  .219E-02
  .238E-02  .198E-02  .198E-02  .173E-02  .176E-02  .171E-02  .144E-02  .122E-02
  .118E-02  .112E-02  .973E-03  .120E-02  .110E-02  .903E-03  .893E-03  .887E-03
  .112E-02  .131E-02  .128E-02  .126E-02  .141E-02  .159E-02  .153E-02  .149E-02
  .129E-02  .115E-02  .104E-02  .982E-03  .856E-03  .773E-03  .718E-03  .675E-03
  .632E-03  .613E-03  .608E-03  .599E-03  .596E-03  .592E-03  .000E+00  .000E+00
  .000E+00  .000E+00  .000E+00  .000E+00  .000E+00  .000E+00  .000E+00  .000E+00
  .000E+00  .000E+00  .000E+00  .000E+00  .000E+00  .000E+00  .000E+00  .000E+00
  .000E+00  .000E+00  .000E+00  .000E+00
  .473E-03  .526E-03  .569E-03  .609E-03  .755E-03  .922E-03  .116E-02  .151E-02
  .191E-02  .242E-02  .355E-02  .515E-02  .710E-02  .787E-02  .742E-02  .829E-02
  .918E-02  .982E-02  .118E-01  .153E-01  .160E-01  .174E-01  .180E-01  .186E-01
  .207E-01  .182E-01  .219E-01  .245E-01  .286E-01  .274E-01  .241E-01  .265E-01
  .260E-01  .293E-01  .312E-01  .321E-01  .338E-01  .346E-01  .334E-01  .329E-01
  .328E-01  .248E-01  .241E-01  .201E-01  .178E-01  .184E-01  .164E-01  .137E-01
  .126E-01  .119E-01  .120E-01  .112E-01  .118E-01  .113E-01  .996E-02  .936E-02
  .979E-02  .109E-01  .119E-01  .124E-01  .124E-01  .118E-01  .118E-01  .115E-01
  .108E-01  .102E-01  .982E-02  .948E-02  .928E-02  .922E-02  .920E-02  .918E-02
  .918E-02  .921E-02  .921E-02  .921E-02  .922E-02  .923E-02  .000E+00  .000E+00
  .000E+00  .000E+00  .000E+00  .000E+00  .000E+00  .000E+00  .000E+00  .000E+00
  .000E+00  .000E+00  .000E+00  .000E+00  .000E+00  .000E+00  .000E+00  .000E+00
  .000E+00  .000E+00  .000E+00  .000E+00
  .643E-03  .645E-03  .664E-03  .684E-03  .706E-03  .699E-03  .670E-03  .746E-03
  .798E-03  .926E-03  .110E-02  .126E-02  .148E-02  .147E-02  .127E-02  .143E-02
  .145E-02  .157E-02  .171E-02  .200E-02  .197E-02  .204E-02  .183E-02  .174E-02
  .181E-02  .157E-02  .160E-02  .168E-02  .191E-02  .180E-02  .149E-02  .136E-02
  .129E-02  .128E-02  .125E-02  .128E-02  .125E-02  .119E-02  .111E-02  .980E-03
  .986E-03  .677E-03  .565E-03  .425E-03  .370E-03  .313E-03  .232E-03  .176E-03
  .150E-03  .128E-03  .100E-03  .104E-03  .802E-04  .564E-04  .479E-04  .425E-04
  .468E-04  .488E-04  .429E-04  .379E-04  .381E-04  .357E-04  .294E-04  .248E-04
  .190E-04  .148E-04  .118E-04  .969E-05  .775E-05  .664E-05  .596E-05  .538E-05
  .492E-05  .463E-05  .436E-05  .407E-05  .353E-05  .310E-05  .000E+00  .000E+00
  .000E+00  .000E+00  .000E+00  .000E+00  .000E+00  .000E+00  .000E+00  .000E+00
  .000E+00  .000E+00  .000E+00  .000E+00  .000E+00  .000E+00  .000E+00  .000E+00
  .000E+00  .000E+00  .000E+00  .000E+00
  .158E-02  .166E-02  .179E-02  .194E-02  .208E-02  .215E-02  .226E-02  .275E-02
  .319E-02  .397E-02  .504E-02  .619E-02  .757E-02  .811E-02  .739E-02  .860E-02
  .985E-02  .114E-01  .137E-01  .172E-01  .180E-01  .200E-01  .189E-01  .191E-01
  .211E-01  .193E-01  .213E-01  .240E-01  .304E-01  .303E-01  .269E-01  .264E-01
  .267E-01  .278E-01  .293E-01  .313E-01  .320E-01  .318E-01  .310E-01  .287E-01
  .299E-01  .226E-01  .208E-01  .167E-01  .158E-01  .143E-01  .113E-01  .901E-02
  .824E-02  .741E-02  .612E-02  .686E-02  .574E-02  .436E-02  .401E-02  .372E-02
  .438E-02  .484E-02  .447E-02  .418E-02  .445E-02  .454E-02  .400E-02  .361E-02
  .290E-02  .240E-02  .204E-02  .181E-02  .149E-02  .128E-02  .113E-02  .101E-02
  .903E-03  .838E-03  .796E-03  .753E-03  .680E-03  .620E-03  .000E+00  .000E+00
  .000E+00  .000E+00  .000E+00  .000E+00  .000E+00  .000E+00  .000E+00  .000E+00
  .000E+00  .000E+00  .000E+00  .000E+00  .000E+00  .000E+00  .000E+00  .000E+00
  .000E+00  .000E+00  .000E+00  .000E+00
  .494E+02  .494E+02  .498E+02  .498E+02  .498E+02  .498E+02  .493E+02  .493E+02
  .500E+02  .500E+02  .500E+02  .500E+02  .501E+02  .501E+02  .502E+02  .504E+02
  .494E+02  .503E+02  .495E+02  .495E+02  .498E+02  .498E+02  .498E+02  .477E+02
  .478E+02  .478E+02  .495E+02  .495E+02  .498E+02  .500E+02  .500E+02  .500E+02
  .519E+02  .519E+02  .511E+02  .566E+02  .565E+02  .508E+02  .508E+02  .506E+02
  .506E+02  .506E+02  .504E+02  .518E+02  .519E+02  .516E+02  .517E+02  .500E+02
  .517E+02  .517E+02  .517E+02  .500E+02  .500E+02  .607E+02  .472E+02  .500E+02
  .500E+02  .500E+02  .500E+02  .504E+02  .505E+02  .497E+02  .498E+02  .498E+02
  .498E+02  .515E+02  .503E+02  .503E+02  .503E+02  .503E+02  .503E+02  .503E+02
  .503E+02  .503E+02  .503E+02  .498E+02  .498E+02  .498E+02  .000E+00  .000E+00
  .000E+00  .000E+00  .000E+00  .000E+00  .000E+00  .000E+00  .000E+00  .000E+00
  .000E+00  .000E+00  .000E+00  .000E+00  .000E+00  .000E+00  .000E+00  .000E+00
  .000E+00  .000E+00  .000E+00  .000E+00
  .494E+02  .494E+02  .494E+02  .483E+02  .483E+02  .483E+02  .483E+02  .484E+02
  .484E+02  .500E+02  .500E+02  .484E+02  .501E+02  .485E+02  .485E+02  .485E+02
  .533E+02  .503E+02  .494E+02  .494E+02  .498E+02  .498E+02  .495E+02  .478E+02
  .478E+02  .477E+02  .495E+02  .495E+02  .495E+02  .501E+02  .568E+02  .520E+02
  .568E+02  .519E+02  .514E+02  .567E+02  .566E+02  .509E+02  .507E+02  .507E+02
  .507E+02  .505E+02  .506E+02  .504E+02  .517E+02  .518E+02  .504E+02  .504E+02
  .499E+02  .504E+02  .504E+02  .501E+02  .499E+02  .499E+02  .504E+02  .499E+02
  .499E+02  .499E+02  .499E+02  .499E+02  .499E+02  .504E+02  .504E+02  .504E+02
  .504E+02  .504E+02  .504E+02  .504E+02  .504E+02  .504E+02  .504E+02  .504E+02
  .504E+02  .504E+02  .504E+02  .504E+02  .504E+02  .504E+02  .000E+00  .000E+00
  .000E+00  .000E+00  .000E+00  .000E+00  .000E+00  .000E+00  .000E+00  .000E+00
  .000E+00  .000E+00  .000E+00  .000E+00  .000E+00  .000E+00  .000E+00  .000E+00
  .000E+00  .000E+00  .000E+00  .000E+00
  .494E+02  .494E+02  .498E+02  .498E+02  .498E+02  .498E+02  .493E+02  .493E+02
  .500E+02  .500E+02  .500E+02  .500E+02  .501E+02  .501E+02  .502E+02  .504E+02
  .494E+02  .503E+02  .495E+02  .495E+02  .498E+02  .498E+02  .498E+02  .477E+02
  .478E+02  .478E+02  .495E+02  .495E+02  .498E+02  .500E+02  .500E+02  .500E+02
  .519E+02  .519E+02  .511E+02  .566E+02  .565E+02  .508E+02  .508E+02  .506E+02
  .506E+02  .506E+02  .504E+02  .518E+02  .518E+02  .516E+02  .516E+02  .499E+02
  .516E+02  .517E+02  .517E+02  .499E+02  .499E+02  .514E+02  .472E+02  .499E+02
  .499E+02  .499E+02  .499E+02  .504E+02  .504E+02  .497E+02  .497E+02  .497E+02
  .497E+02  .497E+02  .497E+02  .502E+02  .502E+02  .497E+02  .497E+02  .497E+02
  .497E+02  .497E+02  .497E+02  .497E+02  .497E+02  .497E+02  .000E+00  .000E+00
  .000E+00  .000E+00  .000E+00  .000E+00  .000E+00  .000E+00  .000E+00  .000E+00
  .000E+00  .000E+00  .000E+00  .000E+00  .000E+00  .000E+00  .000E+00  .000E+00
  .000E+00  .000E+00  .000E+00  .000E+00
/&   ----------  End of spectral data for channel  1  ----------
Response and Fourier amplitude spectra (78 periods,  .04 -  6.0 sec)   for      
Corrected accelerogram   38695658.CI.GMA.--.HN      Chan  2: 360 Deg     from   
Uncorrected Accelerogram Data             Processed: 09/19/20, CGS  cigma--t    
Rcrd of Fri Sep 18, 2020 23:38:45.0 PDT               (Avol1 v2.0, 4/18 CSMIP)  
                                        (Origin:  To be determined)             
38695658.CI.GMA.--.HN                Start time:  9/19/20, 06:38:45.0 UTC (GPS) 
Station Id. GMA     34.291N, 116.383W    Q330    s/n 5325  (3 Chns of  3 at Sta)
Goat Mountain Astronomical Research Stat SCSN   Data: Acceleration              
Chan  2: 360 Deg                                                                
Rcrd of Fri Sep 18, 2020 23:38:45.0 PDT    Fri Sep 18, 2020 23:38:45.0 PDT      
Hypocenter:  To be determined.               ML:  To be determined.             
Instr Period =  .0050 sec,  Damping =  .707,  Sensitivity = 4.98 v/g  (Nominal) 
                        Record Length =301.000 sec.                             
                                     Uncor Max  =  -.001 g, at   48.590 sec.    
RMS accel of (uncor) record  =        .   Chn. metadata effective date:         
Accelerogram bandpass filtered with 3 dB pts at   .30 and 23.00 cyc/sec         
                 instrument- and base-line correcte                             
                                                                                
                                                                                
                                                                                
                                                                                
                                                                                
Rcrd of Fri Sep 18, 2020 23:38:45.0 PDT    Fri Sep 18, 2020 23:38:45.0 PDT      
                                                                                
38695658.CI.GMA.--.HN     Goat Mountain Astronomical Research Stat SCSChan  2: 3
60 Deg                                                                          
38695658.CI.GMA.--.HN     Goat Mountain Astronomical Research Stat SCSChan  2: 3
60 Deg                                                                          
Units for spectra are inches and sec, except Sa is in fraction of g.            
                                                                                
    2  100    2    3    3  100 -999    3    1    0  605 5325    0    0   41    0
    6   38   45    8  263    9   19 2020   10    3  36036058   39   40   74 -999
36058 -999  100    6 -999 -999 -999 -999 -999 -999 -999 -999 -999 -999 -999 -999
 -999 -999 -999 -99915050    2 -999    0 -999   20 -999 -999    3    1 -99915050
    315050    4   78    1    3    5    0    0 -999    0 -999 -999    6 -999    2
    2    2    4 -999 -999 -999 -999 -999 -999 -999 -999    1 -999 -999 -999  111
    1    1 -999 -999
      .005      .707   360.580      .000     1.000  4976.511     -.001    48.590
   200.000     2.384      .479  -999.000    10.000  -999.000     4.000  -999.000
    20.000   -37.968      .000  -999.000  -999.000  -999.000  -999.000      .000
      .000      .000     2.000    15.000    34.291  -116.383      .001      .001
     1.163      .000      .001   848.000  -999.000  -999.000  -999.000  -999.000
     1.000  -999.000  -999.000  -999.000  -999.000  -999.000  -999.000   120.000
     -.900     2.000     6.800   980.665      .020   301.000    31.831      .000
  -999.000    23.000  -999.000   301.000      .020      .300  -999.000  -999.000
    48.600    -1.058    47.780      .037    47.040      .003      .000      .300
    23.000      .020      .020      .000      .020      .002  -999.000  -999.000
      .004      .110      .003      .002      .000      .000  -999.000  -999.000
  -999.000  -999.000  -999.000  -999.000  -999.000  -999.000  -999.000  -999.000
  -999.000  -999.000  -999.000  -999.000
      .050
      .040      .042      .044      .046      .048      .050      .055      .060
      .065      .070      .075      .080      .085      .090      .095      .100
      .110      .120      .130      .140      .150      .160      .170      .180
      .190      .200      .220      .240      .260      .280      .300      .320
      .340      .360      .380      .400      .420      .440      .460      .480
      .500      .550      .600      .650      .700      .750      .800      .850
      .900      .950     1.000     1.100     1.200     1.300     1.400     1.500
     1.600     1.700     1.800     1.900     2.000     2.200     2.400     2.600
     2.800     3.000     3.200     3.400     3.600     3.800     4.000     4.200
     4.400     4.600     4.800     5.000     5.500     6.000      .000      .000
      .000      .000      .000      .000      .000      .000      .000      .000
      .000      .000      .000      .000      .000      .000      .000      .000
      .000      .000      .000      .000
Fourier amplitude spectra in in/sec.
  .000E+00  .000E+00  .000E+00  .000E+00  .000E+00  .000E+00  .000E+00  .000E+00
  .000E+00  .000E+00  .000E+00  .000E+00  .000E+00  .000E+00  .000E+00  .000E+00
  .000E+00  .000E+00  .000E+00  .000E+00  .000E+00  .000E+00  .000E+00  .000E+00
  .000E+00  .000E+00  .000E+00  .000E+00  .000E+00  .000E+00  .000E+00  .000E+00
  .000E+00  .000E+00  .000E+00  .000E+00  .000E+00  .000E+00  .000E+00  .000E+00
  .000E+00  .000E+00  .000E+00  .000E+00  .000E+00  .000E+00  .000E+00  .000E+00
  .000E+00  .000E+00  .000E+00  .000E+00  .000E+00  .000E+00  .000E+00  .000E+00
  .000E+00  .000E+00  .000E+00  .000E+00  .000E+00  .000E+00  .000E+00  .000E+00
  .000E+00  .000E+00  .000E+00  .000E+00  .000E+00  .000E+00  .000E+00  .000E+00
  .000E+00  .000E+00  .000E+00  .000E+00  .000E+00  .000E+00  .000E+00  .000E+00
  .000E+00  .000E+00  .000E+00  .000E+00  .000E+00  .000E+00  .000E+00  .000E+00
  .000E+00  .000E+00  .000E+00  .000E+00  .000E+00  .000E+00  .000E+00  .000E+00
  .000E+00  .000E+00  .000E+00  .000E+00
Damping =  .05. Data of Sd,Sv,Sa,Pssv,ttSd,ttSv,ttSa :
  .185E-04  .206E-04  .227E-04  .248E-04  .269E-04  .284E-04  .359E-04  .473E-04
  .608E-04  .729E-04  .872E-04  .102E-03  .120E-03  .138E-03  .189E-03  .275E-03
  .461E-03  .474E-03  .438E-03  .431E-03  .491E-03  .588E-03  .702E-03  .972E-03
  .131E-02  .142E-02  .127E-02  .968E-03  .971E-03  .128E-02  .129E-02  .164E-02
  .230E-02  .280E-02  .301E-02  .252E-02  .226E-02  .257E-02  .279E-02  .352E-02
