Response and Fourier amplitude spectra (78 periods,  .04 -  6.0 sec)   for      
Corrected accelerogram   38695658.CI.GOU.--.HN      Chan  1:  90 Deg     from   
Uncorrected Accelerogram Data             Processed: 09/19/20, CGS  cigou--e    
Rcrd of Fri Sep 18, 2020 23:38:28.0 PDT               (Avol1 v2.0, 4/18 CSMIP)  
                                        (Origin:  To be determined)             
38695658.CI.GOU.--.HN                Start time:  9/19/20, 06:38:28.0 UTC (GPS) 
Station Id. GOU     34.221N, 118.188W    ObsMMS  s/n 1863  (3 Chns of  6 at Sta)
Gould                                    SCSN   Data: Acceleration              
Chan  1:  90 Deg                                                                
Rcrd of Fri Sep 18, 2020 23:38:28.0 PDT    Fri Sep 18, 2020 23:38:28.0 PDT      
Hypocenter:  To be determined.               ML:  To be determined.             
Instr Period =  .0050 sec,  Damping =  .707,  Sensitivity = 4.99 v/g  (Nominal) 
                        Record Length =301.000 sec.                             
                                     Uncor Max  =   .022 g, at   27.250 sec.    
RMS accel of (uncor) record  =        .   Chn. metadata effective date:         
Accelerogram bandpass filtered with 3 dB pts at   .30 and 23.00 cyc/sec         
                 instrument- and base-line correcte                             
                                                                                
                                                                                
                                                                                
                                                                                
                                                                                
Rcrd of Fri Sep 18, 2020 23:38:28.0 PDT    Fri Sep 18, 2020 23:38:28.0 PDT      
                                                                                
38695658.CI.GOU.--.HN     Gould   Chan  1:  90 Deg                              
                                                                                
38695658.CI.GOU.--.HN     Gould   Chan  1:  90 Deg                              
                                                                                
Units for spectra are inches and sec, except Sa is in fraction of g.            
                                                                                
    1  100    1    6    6  100 -999    3    1    0   15 1863    0    0   41    0
    6   38   28   10  263    9   19 2020   10    3   9035930   39    5   74 -999
35930 -999  100    6 -999 -999 -999 -999 -999 -999 -999 -999 -999 -999 -999 -999
 -999 -999 -999 -99915050    2 -999    0 -999   20 -999 -999    3    1 -99915050
    315050    4   78    1    3    5    0    0 -999    0 -999 -999    6 -999    2
    2    2    4 -999 -999 -999 -999 -999 -999 -999 -999    1 -999 -999 -999  111
    1    1 -999 -999
      .005      .707   359.300      .001     1.000  4990.473      .022    27.250
   200.000     2.384      .478  -999.000    10.000  -999.000     4.000  -999.000
    20.000   -11.054      .000  -999.000  -999.000  -999.000  -999.000      .003
      .000     -.003     2.000    15.000    34.221  -118.188      .003      .003
      .870     -.004     -.002   587.000  -999.000  -999.000  -999.000  -999.000
     1.000  -999.000    -8.000  -999.000  -999.000  -999.000  -999.000   120.000
     -.900     2.000     6.800   980.665      .020   301.000    31.831      .000
  -999.000    23.000  -999.000   301.000      .020      .300  -999.000  -999.000
    27.260    20.201    27.220     -.482    27.160      .023      .000      .300
    23.000      .020      .020      .000      .020      .010  -999.000  -999.000
      .061      .140      .042      .017      .002      .000  -999.000  -999.000
  -999.000  -999.000  -999.000  -999.000  -999.000  -999.000  -999.000  -999.000
  -999.000  -999.000  -999.000  -999.000
      .050
      .040      .042      .044      .046      .048      .050      .055      .060
      .065      .070      .075      .080      .085      .090      .095      .100
      .110      .120      .130      .140      .150      .160      .170      .180
      .190      .200      .220      .240      .260      .280      .300      .320
      .340      .360      .380      .400      .420      .440      .460      .480
      .500      .550      .600      .650      .700      .750      .800      .850
      .900      .950     1.000     1.100     1.200     1.300     1.400     1.500
     1.600     1.700     1.800     1.900     2.000     2.200     2.400     2.600
     2.800     3.000     3.200     3.400     3.600     3.800     4.000     4.200
     4.400     4.600     4.800     5.000     5.500     6.000      .000      .000
      .000      .000      .000      .000      .000      .000      .000      .000
      .000      .000      .000      .000      .000      .000      .000      .000
      .000      .000      .000      .000
Fourier amplitude spectra in in/sec.
  .000E+00  .000E+00  .000E+00  .000E+00  .000E+00  .000E+00  .000E+00  .000E+00
  .000E+00  .000E+00  .000E+00  .000E+00  .000E+00  .000E+00  .000E+00  .000E+00
  .000E+00  .000E+00  .000E+00  .000E+00  .000E+00  .000E+00  .000E+00  .000E+00
  .000E+00  .000E+00  .000E+00  .000E+00  .000E+00  .000E+00  .000E+00  .000E+00
  .000E+00  .000E+00  .000E+00  .000E+00  .000E+00  .000E+00  .000E+00  .000E+00
  .000E+00  .000E+00  .000E+00  .000E+00  .000E+00  .000E+00  .000E+00  .000E+00
  .000E+00  .000E+00  .000E+00  .000E+00  .000E+00  .000E+00  .000E+00  .000E+00
  .000E+00  .000E+00  .000E+00  .000E+00  .000E+00  .000E+00  .000E+00  .000E+00
  .000E+00  .000E+00  .000E+00  .000E+00  .000E+00  .000E+00  .000E+00  .000E+00
  .000E+00  .000E+00  .000E+00  .000E+00  .000E+00  .000E+00  .000E+00  .000E+00
  .000E+00  .000E+00  .000E+00  .000E+00  .000E+00  .000E+00  .000E+00  .000E+00
  .000E+00  .000E+00  .000E+00  .000E+00  .000E+00  .000E+00  .000E+00  .000E+00
  .000E+00  .000E+00  .000E+00  .000E+00
Damping =  .05. Data of Sd,Sv,Sa,Pssv,ttSd,ttSv,ttSa :
  .362E-03  .409E-03  .483E-03  .584E-03  .660E-03  .743E-03  .106E-02  .131E-02
  .164E-02  .202E-02  .240E-02  .247E-02  .300E-02  .380E-02  .472E-02  .538E-02
  .526E-02  .614E-02  .858E-02  .116E-01  .126E-01  .134E-01  .142E-01  .148E-01
  .153E-01  .168E-01  .185E-01  .164E-01  .147E-01  .146E-01  .151E-01  .130E-01
  .111E-01  .914E-02  .887E-02  .895E-02  .101E-01  .103E-01  .102E-01  .100E-01
  .115E-01  .145E-01  .191E-01  .236E-01  .242E-01  .192E-01  .172E-01  .210E-01
  .184E-01  .199E-01  .205E-01  .204E-01  .189E-01  .153E-01  .148E-01  .152E-01
  .143E-01  .158E-01  .138E-01  .127E-01  .125E-01  .118E-01  .113E-01  .111E-01
  .109E-01  .108E-01  .106E-01  .103E-01  .998E-02  .979E-02  .958E-02  .938E-02
  .927E-02  .922E-02  .914E-02  .903E-02  .888E-02  .886E-02  .000E+00  .000E+00
  .000E+00  .000E+00  .000E+00  .000E+00  .000E+00  .000E+00  .000E+00  .000E+00
  .000E+00  .000E+00  .000E+00  .000E+00  .000E+00  .000E+00  .000E+00  .000E+00
  .000E+00  .000E+00  .000E+00  .000E+00
  .166E-01  .214E-01  .286E-01  .353E-01  .381E-01  .439E-01  .677E-01  .119E+00
  .130E+00  .162E+00  .172E+00  .158E+00  .176E+00  .220E+00  .278E+00  .306E+00
  .281E+00  .304E+00  .403E+00  .514E+00  .538E+00  .535E+00  .529E+00  .564E+00
  .588E+00  .591E+00  .551E+00  .545E+00  .464E+00  .390E+00  .333E+00  .288E+00
  .248E+00  .226E+00  .208E+00  .208E+00  .208E+00  .211E+00  .216E+00  .221E+00
  .224E+00  .215E+00  .219E+00  .233E+00  .236E+00  .218E+00  .228E+00  .234E+00
  .235E+00  .234E+00  .234E+00  .232E+00  .224E+00  .218E+00  .216E+00  .214E+00
  .211E+00  .206E+00  .201E+00  .196E+00  .193E+00  .188E+00  .186E+00  .185E+00
  .183E+00  .182E+00  .181E+00  .181E+00  .180E+00  .180E+00  .180E+00  .180E+00
  .180E+00  .180E+00  .180E+00  .180E+00  .180E+00  .180E+00  .000E+00  .000E+00
  .000E+00  .000E+00  .000E+00  .000E+00  .000E+00  .000E+00  .000E+00  .000E+00
  .000E+00  .000E+00  .000E+00  .000E+00  .000E+00  .000E+00  .000E+00  .000E+00
  .000E+00  .000E+00  .000E+00  .000E+00
  .232E-01  .236E-01  .257E-01  .281E-01  .294E-01  .302E-01  .361E-01  .368E-01
  .404E-01  .428E-01  .442E-01  .399E-01  .430E-01  .482E-01  .530E-01  .552E-01
  .443E-01  .445E-01  .518E-01  .608E-01  .579E-01  .542E-01  .503E-01  .469E-01
  .442E-01  .437E-01  .387E-01  .301E-01  .224E-01  .191E-01  .175E-01  .130E-01
  .971E-02  .731E-02  .636E-02  .574E-02  .596E-02  .545E-02  .502E-02  .449E-02
  .472E-02  .497E-02  .550E-02  .575E-02  .512E-02  .354E-02  .277E-02  .299E-02
  .234E-02  .229E-02  .215E-02  .176E-02  .136E-02  .939E-03  .788E-03  .710E-03
  .583E-03  .563E-03  .445E-03  .398E-03  .355E-03  .284E-03  .236E-03  .204E-03
  .178E-03  .158E-03  .141E-03  .125E-03  .112E-03  .102E-03  .926E-04  .849E-04
  .787E-04  .735E-04  .688E-04  .644E-04  .557E-04  .493E-04  .000E+00  .000E+00
  .000E+00  .000E+00  .000E+00  .000E+00  .000E+00  .000E+00  .000E+00  .000E+00
  .000E+00  .000E+00  .000E+00  .000E+00  .000E+00  .000E+00  .000E+00  .000E+00
  .000E+00  .000E+00  .000E+00  .000E+00
  .569E-01  .612E-01  .690E-01  .798E-01  .864E-01  .934E-01  .121E+00  .137E+00
  .159E+00  .181E+00  .201E+00  .194E+00  .222E+00  .266E+00  .312E+00  .338E+00
  .300E+00  .322E+00  .415E+00  .522E+00  .529E+00  .528E+00  .523E+00  .518E+00
  .507E+00  .527E+00  .529E+00  .431E+00  .355E+00  .327E+00  .316E+00  .254E+00
  .205E+00  .160E+00  .147E+00  .141E+00  .151E+00  .147E+00  .140E+00  .131E+00
  .144E+00  .166E+00  .200E+00  .228E+00  .217E+00  .161E+00  .135E+00  .155E+00
  .128E+00  .132E+00  .129E+00  .116E+00  .991E-01  .739E-01  .664E-01  .638E-01
  .563E-01  .582E-01  .483E-01  .420E-01  .391E-01  .336E-01  .295E-01  .268E-01
  .245E-01  .227E-01  .209E-01  .190E-01  .174E-01  .162E-01  .150E-01  .140E-01
  .132E-01  .126E-01  .120E-01  .113E-01  .101E-01  .927E-02  .000E+00  .000E+00
  .000E+00  .000E+00  .000E+00  .000E+00  .000E+00  .000E+00  .000E+00  .000E+00
  .000E+00  .000E+00  .000E+00  .000E+00  .000E+00  .000E+00  .000E+00  .000E+00
  .000E+00  .000E+00  .000E+00  .000E+00
  .272E+02  .272E+02  .272E+02  .272E+02  .272E+02  .273E+02  .273E+02  .276E+02
  .276E+02  .276E+02  .276E+02  .277E+02  .273E+02  .273E+02  .277E+02  .274E+02
  .274E+02  .274E+02  .274E+02  .277E+02  .274E+02  .274E+02  .274E+02  .274E+02
  .274E+02  .273E+02  .273E+02  .273E+02  .272E+02  .284E+02  .284E+02  .282E+02
  .282E+02  .282E+02  .277E+02  .311E+02  .311E+02  .311E+02  .311E+02  .311E+02
  .311E+02  .312E+02  .310E+02  .298E+02  .302E+02  .303E+02  .325E+02  .326E+02
  .323E+02  .294E+02  .290E+02  .290E+02  .310E+02  .287E+02  .283E+02  .283E+02
  .361E+02  .347E+02  .347E+02  .271E+02  .271E+02  .271E+02  .271E+02  .271E+02
  .271E+02  .271E+02  .271E+02  .271E+02  .271E+02  .271E+02  .271E+02  .271E+02
  .271E+02  .271E+02  .271E+02  .271E+02  .271E+02  .271E+02  .000E+00  .000E+00
  .000E+00  .000E+00  .000E+00  .000E+00  .000E+00  .000E+00  .000E+00  .000E+00
  .000E+00  .000E+00  .000E+00  .000E+00  .000E+00  .000E+00  .000E+00  .000E+00
  .000E+00  .000E+00  .000E+00  .000E+00
  .273E+02  .272E+02  .272E+02  .272E+02  .272E+02  .272E+02  .275E+02  .276E+02
  .276E+02  .276E+02  .276E+02  .276E+02  .273E+02  .273E+02  .276E+02  .274E+02
  .274E+02  .274E+02  .274E+02  .277E+02  .275E+02  .274E+02  .273E+02  .273E+02
  .273E+02  .273E+02  .273E+02  .273E+02  .273E+02  .273E+02  .282E+02  .278E+02
  .278E+02  .278E+02  .273E+02  .273E+02  .273E+02  .273E+02  .273E+02  .273E+02
  .273E+02  .311E+02  .311E+02  .303E+02  .291E+02  .272E+02  .272E+02  .272E+02
  .272E+02  .272E+02  .272E+02  .272E+02  .272E+02  .272E+02  .272E+02  .272E+02
  .272E+02  .272E+02  .272E+02  .272E+02  .272E+02  .272E+02  .272E+02  .272E+02
  .272E+02  .272E+02  .272E+02  .272E+02  .272E+02  .272E+02  .272E+02  .272E+02
  .272E+02  .272E+02  .272E+02  .272E+02  .272E+02  .272E+02  .000E+00  .000E+00
  .000E+00  .000E+00  .000E+00  .000E+00  .000E+00  .000E+00  .000E+00  .000E+00
  .000E+00  .000E+00  .000E+00  .000E+00  .000E+00  .000E+00  .000E+00  .000E+00
  .000E+00  .000E+00  .000E+00  .000E+00
  .272E+02  .272E+02  .272E+02  .272E+02  .272E+02  .273E+02  .273E+02  .276E+02
  .276E+02  .276E+02  .276E+02  .277E+02  .273E+02  .273E+02  .277E+02  .274E+02
  .274E+02  .274E+02  .274E+02  .277E+02  .274E+02  .273E+02  .274E+02  .274E+02
  .274E+02  .273E+02  .273E+02  .273E+02  .272E+02  .284E+02  .286E+02  .282E+02
  .282E+02  .282E+02  .277E+02  .311E+02  .311E+02  .311E+02  .311E+02  .311E+02
  .311E+02  .312E+02  .310E+02  .298E+02  .302E+02  .303E+02  .325E+02  .326E+02
  .323E+02  .294E+02  .290E+02  .290E+02  .310E+02  .287E+02  .283E+02  .283E+02
  .283E+02  .346E+02  .347E+02  .271E+02  .271E+02  .271E+02  .271E+02  .271E+02
  .271E+02  .271E+02  .271E+02  .271E+02  .271E+02  .271E+02  .271E+02  .271E+02
  .271E+02  .271E+02  .271E+02  .271E+02  .271E+02  .271E+02  .000E+00  .000E+00
  .000E+00  .000E+00  .000E+00  .000E+00  .000E+00  .000E+00  .000E+00  .000E+00
  .000E+00  .000E+00  .000E+00  .000E+00  .000E+00  .000E+00  .000E+00  .000E+00
  .000E+00  .000E+00  .000E+00  .000E+00
/&   ----------  End of spectral data for channel  1  ----------
Response and Fourier amplitude spectra (78 periods,  .04 -  6.0 sec)   for      
Corrected accelerogram   38695658.CI.GOU.--.HN      Chan  2: 360 Deg     from   
Uncorrected Accelerogram Data             Processed: 09/19/20, CGS  cigou--e    
Rcrd of Fri Sep 18, 2020 23:38:28.0 PDT               (Avol1 v2.0, 4/18 CSMIP)  
                                        (Origin:  To be determined)             
38695658.CI.GOU.--.HN                Start time:  9/19/20, 06:38:28.0 UTC (GPS) 
Station Id. GOU     34.221N, 118.188W    ObsMMS  s/n 1863  (3 Chns of  6 at Sta)
Gould                                    SCSN   Data: Acceleration              
Chan  2: 360 Deg                                                                
Rcrd of Fri Sep 18, 2020 23:38:28.0 PDT    Fri Sep 18, 2020 23:38:28.0 PDT      
Hypocenter:  To be determined.               ML:  To be determined.             
Instr Period =  .0050 sec,  Damping =  .707,  Sensitivity = 4.98 v/g  (Nominal) 
                        Record Length =301.000 sec.                             
                                     Uncor Max  =  -.011 g, at   27.760 sec.    
RMS accel of (uncor) record  =        .   Chn. metadata effective date:         
Accelerogram bandpass filtered with 3 dB pts at   .30 and 23.00 cyc/sec         
                 instrument- and base-line correcte                             
                                                                                
                                                                                
                                                                                
                                                                                
                                                                                
Rcrd of Fri Sep 18, 2020 23:38:28.0 PDT    Fri Sep 18, 2020 23:38:28.0 PDT      
                                                                                
38695658.CI.GOU.--.HN     Gould   Chan  2: 360 Deg                              
                                                                                
38695658.CI.GOU.--.HN     Gould   Chan  2: 360 Deg                              
                                                                                
Units for spectra are inches and sec, except Sa is in fraction of g.            
                                                                                
    2  100    2    6    6  100 -999    3    1    0   15 1863    0    0   41    0
    6   38   28    0  263    9   19 2020   10    3  36035507   39    5   74 -999
35507 -999  100    6 -999 -999 -999 -999 -999 -999 -999 -999 -999 -999 -999 -999
 -999 -999 -999 -99915050    2 -999    0 -999   20 -999 -999    3    1 -99915050
    315050    4   78    1    3    5    0    0 -999    0 -999 -999    6 -999    2
    2    2    4 -999 -999 -999 -999 -999 -999 -999 -999    1 -999 -999 -999  111
    1    1 -999 -999
      .005      .707   355.070      .000     1.000  4977.509     -.011    27.760
   200.000     2.384      .479  -999.000    10.000  -999.000     4.000  -999.000
    20.000   -13.677      .000  -999.000  -999.000  -999.000  -999.000      .000
     -.001     -.001     2.000    15.000    34.221  -118.188      .003      .003
      .962     -.001      .000   587.000  -999.000  -999.000  -999.000  -999.000
     1.000  -999.000  -999.000  -999.000  -999.000  -999.000  -999.000   120.000
     -.900     2.000     6.800   980.665      .020   301.000    31.831      .000
  -999.000    23.000  -999.000   301.000      .020      .300  -999.000  -999.000
    27.760   -10.659    26.920     -.292    27.160     -.037      .000      .300
    23.000      .020      .020      .000      .020      .008  -999.000  -999.000
      .039      .100      .014      .007      .003      .000  -999.000  -999.000
  -999.000  -999.000  -999.000  -999.000  -999.000  -999.000  -999.000  -999.000
  -999.000  -999.000  -999.000  -999.000
      .050
      .040      .042      .044      .046      .048      .050      .055      .060
      .065      .070      .075      .080      .085      .090      .095      .100
      .110      .120      .130      .140      .150      .160      .170      .180
      .190      .200      .220      .240      .260      .280      .300      .320
      .340      .360      .380      .400      .420      .440      .460      .480
      .500      .550      .600      .650      .700      .750      .800      .850
      .900      .950     1.000     1.100     1.200     1.300     1.400     1.500
     1.600     1.700     1.800     1.900     2.000     2.200     2.400     2.600
     2.800     3.000     3.200     3.400     3.600     3.800     4.000     4.200
     4.400     4.600     4.800     5.000     5.500     6.000      .000      .000
      .000      .000      .000      .000      .000      .000      .000      .000
      .000      .000      .000      .000      .000      .000      .000      .000
      .000      .000      .000      .000
Fourier amplitude spectra in in/sec.
  .000E+00  .000E+00  .000E+00  .000E+00  .000E+00  .000E+00  .000E+00  .000E+00
  .000E+00  .000E+00  .000E+00  .000E+00  .000E+00  .000E+00  .000E+00  .000E+00
  .000E+00  .000E+00  .000E+00  .000E+00  .000E+00  .000E+00  .000E+00  .000E+00
  .000E+00  .000E+00  .000E+00  .000E+00  .000E+00  .000E+00  .000E+00  .000E+00
  .000E+00  .000E+00  .000E+00  .000E+00  .000E+00  .000E+00  .000E+00  .000E+00
  .000E+00  .000E+00  .000E+00  .000E+00  .000E+00  .000E+00  .000E+00  .000E+00
  .000E+00  .000E+00  .000E+00  .000E+00  .000E+00  .000E+00  .000E+00  .000E+00
  .000E+00  .000E+00  .000E+00  .000E+00  .000E+00  .000E+00  .000E+00  .000E+00
  .000E+00  .000E+00  .000E+00  .000E+00  .000E+00  .000E+00  .000E+00  .000E+00
  .000E+00  .000E+00  .000E+00  .000E+00  .000E+00  .000E+00  .000E+00  .000E+00
  .000E+00  .000E+00  .000E+00  .000E+00  .000E+00  .000E+00  .000E+00  .000E+00
  .000E+00  .000E+00  .000E+00  .000E+00  .000E+00  .000E+00  .000E+00  .000E+00
  .000E+00  .000E+00  .000E+00  .000E+00
Damping =  .05. Data of Sd,Sv,Sa,Pssv,ttSd,ttSv,ttSa :
  .220E-03  .237E-03  .244E-03  .248E-03  .301E-03  .345E-03  .516E-03  .800E-03
  .775E-03  .119E-02  .148E-02  .182E-02  .214E-02  .246E-02  .302E-02  .368E-02
  .401E-02  .409E-02  .373E-02  .352E-02  .460E-02  .525E-02  .497E-02  .494E-02
  .501E-02  .555E-02  .638E-02  .582E-02  .583E-02  .605E-02  .612E-02  .750E-02
  .734E-02  .652E-02  .707E-02  .728E-02  .777E-02  .846E-02  .928E-02  .100E-01
