Response and Fourier amplitude spectra (78 periods,  .04 -  6.0 sec)   for      
Corrected accelerogram   38695658.CI.GOR.--.HN      Chan  1:  90 Deg     from   
Uncorrected Accelerogram Data             Processed: 09/19/20, CGS  cigor--m    
Rcrd of Fri Sep 18, 2020 23:38:40.0 PDT               (Avol1 v2.0, 4/18 CSMIP)  
                                        (Origin:  To be determined)             
38695658.CI.GOR.--.HN                Start time:  9/19/20, 06:38:40.0 UTC (GPS) 
Station Id. GOR     33.154N, 117.229W    Q330    s/n 3934  (3 Chns of  3 at Sta)
Vista, Green Oak Rd.                     SCSN   Data: Acceleration              
Chan  1:  90 Deg                                                                
Rcrd of Fri Sep 18, 2020 23:38:40.0 PDT    Fri Sep 18, 2020 23:38:40.0 PDT      
Hypocenter:  To be determined.               ML:  To be determined.             
Instr Period =  .0050 sec,  Damping =  .707,  Sensitivity = 4.99 v/g  (Nominal) 
                        Record Length =301.000 sec.                             
                                     Uncor Max  =   .002 g, at   43.520 sec.    
RMS accel of (uncor) record  =        .   Chn. metadata effective date:         
Accelerogram bandpass filtered with 3 dB pts at   .30 and 23.00 cyc/sec         
                 instrument- and base-line correcte                             
                                                                                
                                                                                
                                                                                
                                                                                
                                                                                
Rcrd of Fri Sep 18, 2020 23:38:40.0 PDT    Fri Sep 18, 2020 23:38:40.0 PDT      
                                                                                
38695658.CI.GOR.--.HN     Vista, Green Oak Rd.    Chan  1:  90 Deg              
                                                                                
38695658.CI.GOR.--.HN     Vista, Green Oak Rd.    Chan  1:  90 Deg              
                                                                                
Units for spectra are inches and sec, except Sa is in fraction of g.            
                                                                                
    1  100    1    3    3  100 -999    3    1    0  605 3934    050612   41    0
    6   38   40    8  263    9   19 2020   10    3   9035873   39   20   74 -999
35873 -999  100    6 -999 -999 -999 -999 -999 -999 -999 -999 -999 -999 -999 -999
 -999 -999 -999 -99915050    2 -999    0 -999   20 -999 -999    3    1 -99915050
    315050    4   78    1    3    5    0    0 -999    0 -999 -999    6 -999    2
    2    2    4 -999 -999 -999 -999 -999 -999 -999 -999    1 -999 -999 -999  111
    1    1 -999 -999
      .005      .707   358.730      .000     1.000  4994.462      .002    43.520
   200.000     2.384      .477  -999.000    10.000  -999.000     4.000  -999.000
    20.000    -5.298      .000  -999.000  -999.000  -999.000  -999.000      .000
      .000      .001     2.000    15.000    33.154  -117.229      .001      .001
     1.177      .001      .001   138.000  -999.000  -999.000  -999.000  -999.000
     1.000  -999.000    -8.000  -999.000  -999.000  -999.000  -999.000   120.000
     -.900     2.000     6.800   980.665      .020   301.000    31.831      .000
  -999.000    23.000  -999.000   301.000      .020      .300  -999.000  -999.000
    43.520     1.537    42.700     -.048    41.500      .004      .000      .300
    23.000      .020      .020      .000      .020      .002  -999.000  -999.000
      .006      .100      .004      .001      .000      .000  -999.000  -999.000
  -999.000  -999.000  -999.000  -999.000  -999.000  -999.000  -999.000  -999.000
  -999.000  -999.000  -999.000  -999.000
      .050
      .040      .042      .044      .046      .048      .050      .055      .060
      .065      .070      .075      .080      .085      .090      .095      .100
      .110      .120      .130      .140      .150      .160      .170      .180
      .190      .200      .220      .240      .260      .280      .300      .320
      .340      .360      .380      .400      .420      .440      .460      .480
      .500      .550      .600      .650      .700      .750      .800      .850
      .900      .950     1.000     1.100     1.200     1.300     1.400     1.500
     1.600     1.700     1.800     1.900     2.000     2.200     2.400     2.600
     2.800     3.000     3.200     3.400     3.600     3.800     4.000     4.200
     4.400     4.600     4.800     5.000     5.500     6.000      .000      .000
      .000      .000      .000      .000      .000      .000      .000      .000
      .000      .000      .000      .000      .000      .000      .000      .000
      .000      .000      .000      .000
Fourier amplitude spectra in in/sec.
  .000E+00  .000E+00  .000E+00  .000E+00  .000E+00  .000E+00  .000E+00  .000E+00
  .000E+00  .000E+00  .000E+00  .000E+00  .000E+00  .000E+00  .000E+00  .000E+00
  .000E+00  .000E+00  .000E+00  .000E+00  .000E+00  .000E+00  .000E+00  .000E+00
  .000E+00  .000E+00  .000E+00  .000E+00  .000E+00  .000E+00  .000E+00  .000E+00
  .000E+00  .000E+00  .000E+00  .000E+00  .000E+00  .000E+00  .000E+00  .000E+00
  .000E+00  .000E+00  .000E+00  .000E+00  .000E+00  .000E+00  .000E+00  .000E+00
  .000E+00  .000E+00  .000E+00  .000E+00  .000E+00  .000E+00  .000E+00  .000E+00
  .000E+00  .000E+00  .000E+00  .000E+00  .000E+00  .000E+00  .000E+00  .000E+00
  .000E+00  .000E+00  .000E+00  .000E+00  .000E+00  .000E+00  .000E+00  .000E+00
  .000E+00  .000E+00  .000E+00  .000E+00  .000E+00  .000E+00  .000E+00  .000E+00
  .000E+00  .000E+00  .000E+00  .000E+00  .000E+00  .000E+00  .000E+00  .000E+00
  .000E+00  .000E+00  .000E+00  .000E+00  .000E+00  .000E+00  .000E+00  .000E+00
  .000E+00  .000E+00  .000E+00  .000E+00
Damping =  .05. Data of Sd,Sv,Sa,Pssv,ttSd,ttSv,ttSa :
  .249E-04  .280E-04  .324E-04  .362E-04  .394E-04  .429E-04  .644E-04  .785E-04
  .940E-04  .124E-03  .145E-03  .200E-03  .242E-03  .354E-03  .455E-03  .628E-03
  .683E-03  .550E-03  .717E-03  .117E-02  .138E-02  .146E-02  .131E-02  .153E-02
  .169E-02  .155E-02  .202E-02  .191E-02  .151E-02  .124E-02  .125E-02  .136E-02
  .132E-02  .130E-02  .147E-02  .152E-02  .141E-02  .118E-02  .100E-02  .948E-03
  .104E-02  .112E-02  .101E-02  .105E-02  .111E-02  .145E-02  .177E-02  .210E-02
  .251E-02  .281E-02  .291E-02  .272E-02  .299E-02  .332E-02  .338E-02  .333E-02
  .326E-02  .308E-02  .281E-02  .268E-02  .263E-02  .251E-02  .236E-02  .231E-02
  .217E-02  .192E-02  .182E-02  .185E-02  .181E-02  .177E-02  .174E-02  .173E-02
  .173E-02  .173E-02  .171E-02  .168E-02  .166E-02  .162E-02  .000E+00  .000E+00
  .000E+00  .000E+00  .000E+00  .000E+00  .000E+00  .000E+00  .000E+00  .000E+00
  .000E+00  .000E+00  .000E+00  .000E+00  .000E+00  .000E+00  .000E+00  .000E+00
  .000E+00  .000E+00  .000E+00  .000E+00
  .154E-02  .172E-02  .193E-02  .213E-02  .236E-02  .268E-02  .369E-02  .577E-02
  .612E-02  .853E-02  .993E-02  .141E-01  .152E-01  .217E-01  .267E-01  .358E-01
  .391E-01  .297E-01  .326E-01  .464E-01  .581E-01  .543E-01  .474E-01  .555E-01
  .607E-01  .537E-01  .591E-01  .585E-01  .444E-01  .372E-01  .331E-01  .297E-01
  .301E-01  .293E-01  .356E-01  .326E-01  .250E-01  .228E-01  .208E-01  .182E-01
  .182E-01  .195E-01  .213E-01  .196E-01  .213E-01  .217E-01  .213E-01  .210E-01
  .214E-01  .230E-01  .261E-01  .319E-01  .338E-01  .326E-01  .297E-01  .260E-01
  .219E-01  .196E-01  .172E-01  .171E-01  .173E-01  .170E-01  .163E-01  .158E-01
  .155E-01  .163E-01  .168E-01  .172E-01  .175E-01  .176E-01  .177E-01  .178E-01
  .179E-01  .179E-01  .180E-01  .180E-01  .180E-01  .180E-01  .000E+00  .000E+00
  .000E+00  .000E+00  .000E+00  .000E+00  .000E+00  .000E+00  .000E+00  .000E+00
  .000E+00  .000E+00  .000E+00  .000E+00  .000E+00  .000E+00  .000E+00  .000E+00
  .000E+00  .000E+00  .000E+00  .000E+00
  .159E-02  .162E-02  .171E-02  .175E-02  .175E-02  .175E-02  .218E-02  .221E-02
  .229E-02  .259E-02  .267E-02  .322E-02  .346E-02  .453E-02  .520E-02  .642E-02
  .575E-02  .401E-02  .430E-02  .605E-02  .633E-02  .592E-02  .471E-02  .493E-02
  .479E-02  .394E-02  .418E-02  .351E-02  .233E-02  .165E-02  .141E-02  .136E-02
  .121E-02  .104E-02  .104E-02  .963E-03  .846E-03  .627E-03  .478E-03  .423E-03
  .432E-03  .382E-03  .290E-03  .256E-03  .234E-03  .264E-03  .286E-03  .301E-03
  .327E-03  .325E-03  .304E-03  .233E-03  .214E-03  .205E-03  .181E-03  .156E-03
  .136E-03  .115E-03  .944E-04  .766E-04  .682E-04  .543E-04  .433E-04  .364E-04
  .298E-04  .236E-04  .200E-04  .173E-04  .153E-04  .136E-04  .121E-04  .110E-04
  .102E-04  .935E-05  .855E-05  .784E-05  .655E-05  .549E-05  .000E+00  .000E+00
  .000E+00  .000E+00  .000E+00  .000E+00  .000E+00  .000E+00  .000E+00  .000E+00
  .000E+00  .000E+00  .000E+00  .000E+00  .000E+00  .000E+00  .000E+00  .000E+00
  .000E+00  .000E+00  .000E+00  .000E+00
  .391E-02  .419E-02  .462E-02  .495E-02  .516E-02  .539E-02  .736E-02  .822E-02
  .909E-02  .111E-01  .121E-01  .157E-01  .179E-01  .247E-01  .301E-01  .395E-01
  .390E-01  .288E-01  .347E-01  .525E-01  .578E-01  .574E-01  .484E-01  .536E-01
  .559E-01  .486E-01  .576E-01  .501E-01  .365E-01  .277E-01  .262E-01  .267E-01
  .243E-01  .227E-01  .243E-01  .239E-01  .211E-01  .169E-01  .137E-01  .124E-01
  .130E-01  .127E-01  .105E-01  .102E-01  .994E-02  .121E-01  .139E-01  .155E-01
  .176E-01  .186E-01  .183E-01  .155E-01  .157E-01  .160E-01  .152E-01  .139E-01
  .128E-01  .114E-01  .980E-02  .887E-02  .826E-02  .718E-02  .618E-02  .559E-02
  .486E-02  .403E-02  .357E-02  .341E-02  .315E-02  .292E-02  .273E-02  .259E-02
  .248E-02  .236E-02  .223E-02  .211E-02  .190E-02  .170E-02  .000E+00  .000E+00
  .000E+00  .000E+00  .000E+00  .000E+00  .000E+00  .000E+00  .000E+00  .000E+00
  .000E+00  .000E+00  .000E+00  .000E+00  .000E+00  .000E+00  .000E+00  .000E+00
  .000E+00  .000E+00  .000E+00  .000E+00
  .435E+02  .435E+02  .435E+02  .435E+02  .435E+02  .434E+02  .435E+02  .435E+02
  .436E+02  .427E+02  .296E+02  .297E+02  .438E+02  .438E+02  .438E+02  .438E+02
  .436E+02  .436E+02  .426E+02  .427E+02  .428E+02  .428E+02  .428E+02  .438E+02
  .435E+02  .433E+02  .428E+02  .428E+02  .426E+02  .425E+02  .425E+02  .425E+02
  .426E+02  .436E+02  .432E+02  .435E+02  .435E+02  .435E+02  .435E+02  .431E+02
  .431E+02  .427E+02  .416E+02  .416E+02  .422E+02  .422E+02  .422E+02  .422E+02
  .427E+02  .427E+02  .427E+02  .428E+02  .424E+02  .425E+02  .425E+02  .426E+02
  .426E+02  .426E+02  .426E+02  .420E+02  .421E+02  .421E+02  .421E+02  .421E+02
  .421E+02  .421E+02  .415E+02  .415E+02  .415E+02  .415E+02  .415E+02  .415E+02
  .415E+02  .415E+02  .415E+02  .415E+02  .415E+02  .415E+02  .000E+00  .000E+00
  .000E+00  .000E+00  .000E+00  .000E+00  .000E+00  .000E+00  .000E+00  .000E+00
  .000E+00  .000E+00  .000E+00  .000E+00  .000E+00  .000E+00  .000E+00  .000E+00
  .000E+00  .000E+00  .000E+00  .000E+00
  .433E+02  .433E+02  .433E+02  .433E+02  .433E+02  .433E+02  .434E+02  .435E+02
  .430E+02  .430E+02  .296E+02  .297E+02  .437E+02  .437E+02  .438E+02  .438E+02
  .436E+02  .436E+02  .460E+02  .434E+02  .434E+02  .427E+02  .428E+02  .436E+02
  .436E+02  .433E+02  .427E+02  .427E+02  .427E+02  .426E+02  .426E+02  .426E+02
  .425E+02  .425E+02  .435E+02  .435E+02  .435E+02  .422E+02  .422E+02  .435E+02
  .435E+02  .427E+02  .427E+02  .422E+02  .422E+02  .422E+02  .422E+02  .437E+02
  .425E+02  .425E+02  .427E+02  .427E+02  .427E+02  .427E+02  .427E+02  .427E+02
  .427E+02  .427E+02  .427E+02  .426E+02  .426E+02  .426E+02  .426E+02  .426E+02
  .427E+02  .427E+02  .427E+02  .427E+02  .427E+02  .427E+02  .427E+02  .427E+02
  .427E+02  .427E+02  .427E+02  .427E+02  .427E+02  .427E+02  .000E+00  .000E+00
  .000E+00  .000E+00  .000E+00  .000E+00  .000E+00  .000E+00  .000E+00  .000E+00
  .000E+00  .000E+00  .000E+00  .000E+00  .000E+00  .000E+00  .000E+00  .000E+00
  .000E+00  .000E+00  .000E+00  .000E+00
  .435E+02  .435E+02  .435E+02  .435E+02  .435E+02  .434E+02  .435E+02  .435E+02
  .436E+02  .427E+02  .296E+02  .297E+02  .438E+02  .438E+02  .438E+02  .438E+02
  .436E+02  .436E+02  .426E+02  .427E+02  .428E+02  .428E+02  .428E+02  .438E+02
  .435E+02  .433E+02  .428E+02  .427E+02  .426E+02  .425E+02  .425E+02  .425E+02
  .425E+02  .436E+02  .432E+02  .435E+02  .435E+02  .435E+02  .435E+02  .431E+02
  .431E+02  .427E+02  .416E+02  .416E+02  .421E+02  .421E+02  .422E+02  .422E+02
  .427E+02  .427E+02  .427E+02  .427E+02  .424E+02  .424E+02  .424E+02  .426E+02
  .426E+02  .426E+02  .426E+02  .420E+02  .420E+02  .420E+02  .420E+02  .420E+02
  .420E+02  .422E+02  .422E+02  .414E+02  .414E+02  .414E+02  .414E+02  .414E+02
  .414E+02  .414E+02  .414E+02  .414E+02  .414E+02  .414E+02  .000E+00  .000E+00
  .000E+00  .000E+00  .000E+00  .000E+00  .000E+00  .000E+00  .000E+00  .000E+00
  .000E+00  .000E+00  .000E+00  .000E+00  .000E+00  .000E+00  .000E+00  .000E+00
  .000E+00  .000E+00  .000E+00  .000E+00
/&   ----------  End of spectral data for channel  1  ----------
Response and Fourier amplitude spectra (78 periods,  .04 -  6.0 sec)   for      
Corrected accelerogram   38695658.CI.GOR.--.HN      Chan  2: 360 Deg     from   
Uncorrected Accelerogram Data             Processed: 09/19/20, CGS  cigor--m    
Rcrd of Fri Sep 18, 2020 23:38:40.0 PDT               (Avol1 v2.0, 4/18 CSMIP)  
                                        (Origin:  To be determined)             
38695658.CI.GOR.--.HN                Start time:  9/19/20, 06:38:40.0 UTC (GPS) 
Station Id. GOR     33.154N, 117.229W    Q330    s/n 3934  (3 Chns of  3 at Sta)
Vista, Green Oak Rd.                     SCSN   Data: Acceleration              
Chan  2: 360 Deg                                                                
Rcrd of Fri Sep 18, 2020 23:38:40.0 PDT    Fri Sep 18, 2020 23:38:40.0 PDT      
Hypocenter:  To be determined.               ML:  To be determined.             
Instr Period =  .0050 sec,  Damping =  .707,  Sensitivity = 5.00 v/g  (Nominal) 
                        Record Length =301.000 sec.                             
                                     Uncor Max  =   .002 g, at   43.560 sec.    
RMS accel of (uncor) record  =        .   Chn. metadata effective date:         
Accelerogram bandpass filtered with 3 dB pts at   .30 and 23.00 cyc/sec         
                 instrument- and base-line correcte                             
                                                                                
                                                                                
                                                                                
                                                                                
                                                                                
Rcrd of Fri Sep 18, 2020 23:38:40.0 PDT    Fri Sep 18, 2020 23:38:40.0 PDT      
                                                                                
38695658.CI.GOR.--.HN     Vista, Green Oak Rd.    Chan  2: 360 Deg              
                                                                                
38695658.CI.GOR.--.HN     Vista, Green Oak Rd.    Chan  2: 360 Deg              
                                                                                
Units for spectra are inches and sec, except Sa is in fraction of g.            
                                                                                
    2  100    2    3    3  100 -999    3    1    0  605 3934    050612   41    0
    6   38   40    8  263    9   19 2020   10    3  36036452   39   20   74 -999
36452 -999  100    6 -999 -999 -999 -999 -999 -999 -999 -999 -999 -999 -999 -999
 -999 -999 -999 -99915050    2 -999    0 -999   20 -999 -999    3    1 -99915050
    315050    4   78    1    3    5    0    0 -999    0 -999 -999    6 -999    2
    2    2    4 -999 -999 -999 -999 -999 -999 -999 -999    1 -999 -999 -999  111
    1    1 -999 -999
      .005      .707   364.520      .000     1.000  4995.260      .002    43.560
   200.000     2.384      .477  -999.000    10.000  -999.000     4.000  -999.000
    20.000   -18.997      .000  -999.000  -999.000  -999.000  -999.000      .000
      .000      .001     2.000    15.000    33.154  -117.229      .001      .001
     1.016      .000      .001   138.000  -999.000  -999.000  -999.000  -999.000
     1.000  -999.000  -999.000  -999.000  -999.000  -999.000  -999.000   120.000
     -.900     2.000     6.800   980.665      .020   301.000    31.831      .000
  -999.000    23.000  -999.000   301.000      .020      .300  -999.000  -999.000
    43.560     1.732    43.700     -.049    42.020     -.002      .000      .300
    23.000      .020      .020      .000      .020      .002  -999.000  -999.000
      .007      .095      .004      .002      .000      .000  -999.000  -999.000
  -999.000  -999.000  -999.000  -999.000  -999.000  -999.000  -999.000  -999.000
  -999.000  -999.000  -999.000  -999.000
      .050
      .040      .042      .044      .046      .048      .050      .055      .060
      .065      .070      .075      .080      .085      .090      .095      .100
      .110      .120      .130      .140      .150      .160      .170      .180
      .190      .200      .220      .240      .260      .280      .300      .320
      .340      .360      .380      .400      .420      .440      .460      .480
      .500      .550      .600      .650      .700      .750      .800      .850
      .900      .950     1.000     1.100     1.200     1.300     1.400     1.500
     1.600     1.700     1.800     1.900     2.000     2.200     2.400     2.600
     2.800     3.000     3.200     3.400     3.600     3.800     4.000     4.200
     4.400     4.600     4.800     5.000     5.500     6.000      .000      .000
      .000      .000      .000      .000      .000      .000      .000      .000
      .000      .000      .000      .000      .000      .000      .000      .000
      .000      .000      .000      .000
Fourier amplitude spectra in in/sec.
  .000E+00  .000E+00  .000E+00  .000E+00  .000E+00  .000E+00  .000E+00  .000E+00
  .000E+00  .000E+00  .000E+00  .000E+00  .000E+00  .000E+00  .000E+00  .000E+00
  .000E+00  .000E+00  .000E+00  .000E+00  .000E+00  .000E+00  .000E+00  .000E+00
  .000E+00  .000E+00  .000E+00  .000E+00  .000E+00  .000E+00  .000E+00  .000E+00
  .000E+00  .000E+00  .000E+00  .000E+00  .000E+00  .000E+00  .000E+00  .000E+00
  .000E+00  .000E+00  .000E+00  .000E+00  .000E+00  .000E+00  .000E+00  .000E+00
  .000E+00  .000E+00  .000E+00  .000E+00  .000E+00  .000E+00  .000E+00  .000E+00
  .000E+00  .000E+00  .000E+00  .000E+00  .000E+00  .000E+00  .000E+00  .000E+00
  .000E+00  .000E+00  .000E+00  .000E+00  .000E+00  .000E+00  .000E+00  .000E+00
  .000E+00  .000E+00  .000E+00  .000E+00  .000E+00  .000E+00  .000E+00  .000E+00
  .000E+00  .000E+00  .000E+00  .000E+00  .000E+00  .000E+00  .000E+00  .000E+00
  .000E+00  .000E+00  .000E+00  .000E+00  .000E+00  .000E+00  .000E+00  .000E+00
  .000E+00  .000E+00  .000E+00  .000E+00
Damping =  .05. Data of Sd,Sv,Sa,Pssv,ttSd,ttSv,ttSa :
  .287E-04  .330E-04  .377E-04  .429E-04  .476E-04  .507E-04  .666E-04  .811E-04
  .112E-03  .166E-03  .214E-03  .240E-03  .314E-03  .480E-03  .569E-03  .520E-03
  .454E-03  .744E-03  .939E-03  .110E-02  .118E-02  .118E-02  .109E-02  .103E-02
  .139E-02  .137E-02  .192E-02  .164E-02  .157E-02  .186E-02  .144E-02  .137E-02
  .141E-02  .166E-02  .152E-02  .149E-02  .142E-02  .125E-02  .115E-02  .121E-02
