Response and Fourier amplitude spectra (78 periods,  .04 -  6.0 sec)   for      
Corrected accelerogram   38695658.CI.HDH.--.HN      Chan  1:  90 Deg     from   
Uncorrected Accelerogram Data             Processed: 09/19/20, CGS  cihdh--t    
Rcrd of Fri Sep 18, 2020 23:38:36.0 PDT               (Avol1 v2.0, 4/18 CSMIP)  
                                        (Origin:  To be determined)             
38695658.CI.HDH.--.HN                Start time:  9/19/20, 06:38:36.0 UTC (GPS) 
Station Id. HDH     34.775N, 118.640W    ObsMMS  s/n 5762  (3 Chns of  6 at Sta)
High Desert Hunt Club - Tejon Ranch      SCSN   Data: Acceleration              
Chan  1:  90 Deg                                                                
Rcrd of Fri Sep 18, 2020 23:38:36.0 PDT    Fri Sep 18, 2020 23:38:36.0 PDT      
Hypocenter:  To be determined.               ML:  To be determined.             
Instr Period =  .0050 sec,  Damping =  .707,  Sensitivity = 4.98 v/g  (Nominal) 
                        Record Length =301.000 sec.                             
                                     Uncor Max  =  -.001 g, at   43.540 sec.    
RMS accel of (uncor) record  =        .   Chn. metadata effective date:         
Accelerogram bandpass filtered with 3 dB pts at   .30 and 23.00 cyc/sec         
                 instrument- and base-line correcte                             
                                                                                
                                                                                
                                                                                
                                                                                
                                                                                
Rcrd of Fri Sep 18, 2020 23:38:36.0 PDT    Fri Sep 18, 2020 23:38:36.0 PDT      
                                                                                
38695658.CI.HDH.--.HN     High Desert Hunt Club - Tejon Ranch   Chan  1:  90 Deg
                                                                                
38695658.CI.HDH.--.HN     High Desert Hunt Club - Tejon Ranch   Chan  1:  90 Deg
                                                                                
Units for spectra are inches and sec, except Sa is in fraction of g.            
                                                                                
    1  100    1    6    6  100 -999    3    1    0   15 5762    0    0   41    0
    6   38   36    0  263    9   19 2020   10    3   9036124   39   35   74 -999
36124 -999  100    6 -999 -999 -999 -999 -999 -999 -999 -999 -999 -999 -999 -999
 -999 -999 -999 -99915050    2 -999    0 -999   20 -999 -999    3    1 -99915050
    315050    4   78    1    3    5    0    0 -999    0 -999 -999    6 -999    2
    2    2    4 -999 -999 -999 -999 -999 -999 -999 -999    1 -999 -999 -999  111
    1    1 -999 -999
      .005      .707   361.240      .000     1.000  4975.691     -.001    43.540
   200.000     2.384      .479  -999.000    10.000  -999.000     4.000  -999.000
    20.000    -9.851      .000  -999.000  -999.000  -999.000  -999.000      .000
      .000     -.001     2.000    15.000    34.775  -118.640      .001      .001
      .986     -.001     -.001   964.600  -999.000  -999.000  -999.000  -999.000
     1.000  -999.000    -8.000  -999.000  -999.000  -999.000  -999.000   120.000
     -.900     2.000     6.800   980.665      .020   301.000    31.831      .000
  -999.000    23.000  -999.000   301.000      .020      .300  -999.000  -999.000
    43.540    -1.046    41.180      .062    41.400      .008      .000      .300
    23.000      .020      .020      .000      .020      .004  -999.000  -999.000
      .004      .260      .003      .003      .001      .000  -999.000  -999.000
  -999.000  -999.000  -999.000  -999.000  -999.000  -999.000  -999.000  -999.000
  -999.000  -999.000  -999.000  -999.000
      .050
      .040      .042      .044      .046      .048      .050      .055      .060
      .065      .070      .075      .080      .085      .090      .095      .100
      .110      .120      .130      .140      .150      .160      .170      .180
      .190      .200      .220      .240      .260      .280      .300      .320
      .340      .360      .380      .400      .420      .440      .460      .480
      .500      .550      .600      .650      .700      .750      .800      .850
      .900      .950     1.000     1.100     1.200     1.300     1.400     1.500
     1.600     1.700     1.800     1.900     2.000     2.200     2.400     2.600
     2.800     3.000     3.200     3.400     3.600     3.800     4.000     4.200
     4.400     4.600     4.800     5.000     5.500     6.000      .000      .000
      .000      .000      .000      .000      .000      .000      .000      .000
      .000      .000      .000      .000      .000      .000      .000      .000
      .000      .000      .000      .000
Fourier amplitude spectra in in/sec.
  .000E+00  .000E+00  .000E+00  .000E+00  .000E+00  .000E+00  .000E+00  .000E+00
  .000E+00  .000E+00  .000E+00  .000E+00  .000E+00  .000E+00  .000E+00  .000E+00
  .000E+00  .000E+00  .000E+00  .000E+00  .000E+00  .000E+00  .000E+00  .000E+00
  .000E+00  .000E+00  .000E+00  .000E+00  .000E+00  .000E+00  .000E+00  .000E+00
  .000E+00  .000E+00  .000E+00  .000E+00  .000E+00  .000E+00  .000E+00  .000E+00
  .000E+00  .000E+00  .000E+00  .000E+00  .000E+00  .000E+00  .000E+00  .000E+00
  .000E+00  .000E+00  .000E+00  .000E+00  .000E+00  .000E+00  .000E+00  .000E+00
  .000E+00  .000E+00  .000E+00  .000E+00  .000E+00  .000E+00  .000E+00  .000E+00
  .000E+00  .000E+00  .000E+00  .000E+00  .000E+00  .000E+00  .000E+00  .000E+00
  .000E+00  .000E+00  .000E+00  .000E+00  .000E+00  .000E+00  .000E+00  .000E+00
  .000E+00  .000E+00  .000E+00  .000E+00  .000E+00  .000E+00  .000E+00  .000E+00
  .000E+00  .000E+00  .000E+00  .000E+00  .000E+00  .000E+00  .000E+00  .000E+00
  .000E+00  .000E+00  .000E+00  .000E+00
Damping =  .05. Data of Sd,Sv,Sa,Pssv,ttSd,ttSv,ttSa :
  .168E-04  .185E-04  .205E-04  .226E-04  .249E-04  .273E-04  .325E-04  .378E-04
  .458E-04  .535E-04  .685E-04  .917E-04  .978E-04  .115E-03  .140E-03  .160E-03
  .193E-03  .236E-03  .288E-03  .503E-03  .631E-03  .836E-03  .116E-02  .132E-02
  .139E-02  .127E-02  .141E-02  .240E-02  .284E-02  .269E-02  .266E-02  .266E-02
  .236E-02  .262E-02  .296E-02  .297E-02  .329E-02  .361E-02  .378E-02  .403E-02
  .465E-02  .584E-02  .658E-02  .599E-02  .619E-02  .772E-02  .955E-02  .103E-01
  .949E-02  .872E-02  .820E-02  .711E-02  .627E-02  .577E-02  .547E-02  .516E-02
  .575E-02  .599E-02  .563E-02  .560E-02  .520E-02  .382E-02  .416E-02  .393E-02
  .383E-02  .350E-02  .331E-02  .328E-02  .333E-02  .342E-02  .355E-02  .366E-02
  .373E-02  .376E-02  .373E-02  .368E-02  .352E-02  .342E-02  .000E+00  .000E+00
  .000E+00  .000E+00  .000E+00  .000E+00  .000E+00  .000E+00  .000E+00  .000E+00
  .000E+00  .000E+00  .000E+00  .000E+00  .000E+00  .000E+00  .000E+00  .000E+00
  .000E+00  .000E+00  .000E+00  .000E+00
  .603E-03  .673E-03  .768E-03  .854E-03  .968E-03  .106E-02  .125E-02  .163E-02
  .224E-02  .266E-02  .327E-02  .385E-02  .381E-02  .459E-02  .506E-02  .556E-02
  .771E-02  .885E-02  .115E-01  .179E-01  .213E-01  .265E-01  .360E-01  .420E-01
  .434E-01  .388E-01  .381E-01  .618E-01  .701E-01  .613E-01  .599E-01  .572E-01
  .460E-01  .478E-01  .570E-01  .441E-01  .470E-01  .483E-01  .490E-01  .505E-01
  .579E-01  .716E-01  .805E-01  .704E-01  .708E-01  .765E-01  .733E-01  .715E-01
  .746E-01  .721E-01  .676E-01  .586E-01  .489E-01  .437E-01  .386E-01  .371E-01
  .365E-01  .340E-01  .337E-01  .337E-01  .340E-01  .295E-01  .287E-01  .284E-01
  .278E-01  .272E-01  .265E-01  .260E-01  .256E-01  .254E-01  .253E-01  .253E-01
  .254E-01  .255E-01  .255E-01  .255E-01  .254E-01  .252E-01  .000E+00  .000E+00
  .000E+00  .000E+00  .000E+00  .000E+00  .000E+00  .000E+00  .000E+00  .000E+00
  .000E+00  .000E+00  .000E+00  .000E+00  .000E+00  .000E+00  .000E+00  .000E+00
  .000E+00  .000E+00  .000E+00  .000E+00
  .108E-02  .108E-02  .108E-02  .109E-02  .111E-02  .112E-02  .110E-02  .107E-02
  .111E-02  .111E-02  .125E-02  .147E-02  .139E-02  .146E-02  .159E-02  .163E-02
  .165E-02  .167E-02  .175E-02  .261E-02  .286E-02  .332E-02  .411E-02  .422E-02
  .394E-02  .328E-02  .302E-02  .423E-02  .432E-02  .350E-02  .309E-02  .268E-02
  .209E-02  .210E-02  .212E-02  .190E-02  .190E-02  .190E-02  .184E-02  .180E-02
  .191E-02  .199E-02  .188E-02  .146E-02  .130E-02  .141E-02  .154E-02  .146E-02
  .121E-02  .993E-03  .842E-03  .604E-03  .450E-03  .353E-03  .289E-03  .238E-03
  .233E-03  .216E-03  .182E-03  .162E-03  .137E-03  .841E-04  .772E-04  .627E-04
  .519E-04  .428E-04  .360E-04  .319E-04  .290E-04  .269E-04  .253E-04  .238E-04
  .223E-04  .207E-04  .191E-04  .175E-04  .143E-04  .121E-04  .000E+00  .000E+00
  .000E+00  .000E+00  .000E+00  .000E+00  .000E+00  .000E+00  .000E+00  .000E+00
  .000E+00  .000E+00  .000E+00  .000E+00  .000E+00  .000E+00  .000E+00  .000E+00
  .000E+00  .000E+00  .000E+00  .000E+00
  .264E-02  .277E-02  .292E-02  .309E-02  .326E-02  .343E-02  .371E-02  .396E-02
  .442E-02  .480E-02  .574E-02  .720E-02  .723E-02  .806E-02  .928E-02  .100E-01
  .110E-01  .124E-01  .139E-01  .226E-01  .264E-01  .328E-01  .428E-01  .462E-01
  .460E-01  .398E-01  .403E-01  .627E-01  .687E-01  .604E-01  .556E-01  .522E-01
  .435E-01  .457E-01  .490E-01  .466E-01  .491E-01  .515E-01  .517E-01  .527E-01
  .584E-01  .667E-01  .689E-01  .579E-01  .555E-01  .647E-01  .750E-01  .758E-01
  .663E-01  .577E-01  .515E-01  .406E-01  .328E-01  .279E-01  .246E-01  .216E-01
  .226E-01  .221E-01  .197E-01  .185E-01  .163E-01  .109E-01  .109E-01  .949E-02
  .859E-02  .733E-02  .650E-02  .607E-02  .581E-02  .566E-02  .558E-02  .547E-02
  .533E-02  .514E-02  .489E-02  .462E-02  .402E-02  .358E-02  .000E+00  .000E+00
  .000E+00  .000E+00  .000E+00  .000E+00  .000E+00  .000E+00  .000E+00  .000E+00
  .000E+00  .000E+00  .000E+00  .000E+00  .000E+00  .000E+00  .000E+00  .000E+00
  .000E+00  .000E+00  .000E+00  .000E+00
  .435E+02  .435E+02  .435E+02  .435E+02  .435E+02  .435E+02  .435E+02  .435E+02
  .414E+02  .420E+02  .435E+02  .435E+02  .435E+02  .435E+02  .420E+02  .435E+02
  .420E+02  .435E+02  .438E+02  .434E+02  .435E+02  .435E+02  .435E+02  .436E+02
  .436E+02  .430E+02  .437E+02  .441E+02  .439E+02  .422E+02  .439E+02  .438E+02
  .438E+02  .438E+02  .436E+02  .414E+02  .416E+02  .417E+02  .417E+02  .417E+02
  .417E+02  .417E+02  .421E+02  .422E+02  .422E+02  .419E+02  .420E+02  .420E+02
  .420E+02  .416E+02  .417E+02  .417E+02  .413E+02  .413E+02  .414E+02  .413E+02
  .414E+02  .414E+02  .414E+02  .414E+02  .414E+02  .414E+02  .414E+02  .414E+02
  .842E+02  .414E+02  .414E+02  .414E+02  .414E+02  .414E+02  .414E+02  .414E+02
  .414E+02  .414E+02  .414E+02  .414E+02  .414E+02  .414E+02  .000E+00  .000E+00
  .000E+00  .000E+00  .000E+00  .000E+00  .000E+00  .000E+00  .000E+00  .000E+00
  .000E+00  .000E+00  .000E+00  .000E+00  .000E+00  .000E+00  .000E+00  .000E+00
  .000E+00  .000E+00  .000E+00  .000E+00
  .435E+02  .435E+02  .435E+02  .435E+02  .435E+02  .435E+02  .435E+02  .428E+02
  .435E+02  .435E+02  .403E+02  .435E+02  .403E+02  .420E+02  .420E+02  .415E+02
  .431E+02  .426E+02  .431E+02  .434E+02  .435E+02  .435E+02  .436E+02  .436E+02
  .436E+02  .431E+02  .441E+02  .441E+02  .439E+02  .421E+02  .438E+02  .438E+02
  .439E+02  .437E+02  .437E+02  .420E+02  .417E+02  .418E+02  .416E+02  .416E+02
  .416E+02  .416E+02  .435E+02  .420E+02  .420E+02  .421E+02  .421E+02  .418E+02
  .419E+02  .419E+02  .415E+02  .415E+02  .415E+02  .415E+02  .415E+02  .415E+02
  .415E+02  .412E+02  .412E+02  .412E+02  .412E+02  .412E+02  .412E+02  .412E+02
  .412E+02  .412E+02  .412E+02  .412E+02  .412E+02  .412E+02  .412E+02  .412E+02
  .412E+02  .412E+02  .412E+02  .412E+02  .412E+02  .412E+02  .000E+00  .000E+00
  .000E+00  .000E+00  .000E+00  .000E+00  .000E+00  .000E+00  .000E+00  .000E+00
  .000E+00  .000E+00  .000E+00  .000E+00  .000E+00  .000E+00  .000E+00  .000E+00
  .000E+00  .000E+00  .000E+00  .000E+00
  .435E+02  .435E+02  .435E+02  .435E+02  .435E+02  .435E+02  .435E+02  .435E+02
  .414E+02  .435E+02  .435E+02  .435E+02  .435E+02  .435E+02  .420E+02  .435E+02
  .420E+02  .435E+02  .438E+02  .434E+02  .435E+02  .435E+02  .435E+02  .436E+02
  .436E+02  .430E+02  .440E+02  .441E+02  .439E+02  .420E+02  .439E+02  .438E+02
  .438E+02  .438E+02  .436E+02  .414E+02  .416E+02  .417E+02  .417E+02  .417E+02
  .417E+02  .417E+02  .421E+02  .422E+02  .422E+02  .419E+02  .419E+02  .420E+02
  .420E+02  .416E+02  .417E+02  .417E+02  .413E+02  .413E+02  .413E+02  .413E+02
  .413E+02  .413E+02  .413E+02  .413E+02  .414E+02  .413E+02  .413E+02  .413E+02
  .413E+02  .413E+02  .413E+02  .413E+02  .413E+02  .413E+02  .413E+02  .413E+02
  .413E+02  .413E+02  .413E+02  .413E+02  .413E+02  .413E+02  .000E+00  .000E+00
  .000E+00  .000E+00  .000E+00  .000E+00  .000E+00  .000E+00  .000E+00  .000E+00
  .000E+00  .000E+00  .000E+00  .000E+00  .000E+00  .000E+00  .000E+00  .000E+00
  .000E+00  .000E+00  .000E+00  .000E+00
/&   ----------  End of spectral data for channel  1  ----------
Response and Fourier amplitude spectra (78 periods,  .04 -  6.0 sec)   for      
Corrected accelerogram   38695658.CI.HDH.--.HN      Chan  2: 360 Deg     from   
Uncorrected Accelerogram Data             Processed: 09/19/20, CGS  cihdh--t    
Rcrd of Fri Sep 18, 2020 23:38:36.0 PDT               (Avol1 v2.0, 4/18 CSMIP)  
                                        (Origin:  To be determined)             
38695658.CI.HDH.--.HN                Start time:  9/19/20, 06:38:36.0 UTC (GPS) 
Station Id. HDH     34.775N, 118.640W    ObsMMS  s/n 5762  (3 Chns of  6 at Sta)
High Desert Hunt Club - Tejon Ranch      SCSN   Data: Acceleration              
Chan  2: 360 Deg                                                                
Rcrd of Fri Sep 18, 2020 23:38:36.0 PDT    Fri Sep 18, 2020 23:38:36.0 PDT      
Hypocenter:  To be determined.               ML:  To be determined.             
Instr Period =  .0050 sec,  Damping =  .707,  Sensitivity = 4.98 v/g  (Nominal) 
                        Record Length =301.000 sec.                             
                                     Uncor Max  =  -.001 g, at   43.440 sec.    
RMS accel of (uncor) record  =        .   Chn. metadata effective date:         
Accelerogram bandpass filtered with 3 dB pts at   .30 and 23.00 cyc/sec         
                 instrument- and base-line correcte                             
                                                                                
                                                                                
                                                                                
                                                                                
                                                                                
Rcrd of Fri Sep 18, 2020 23:38:36.0 PDT    Fri Sep 18, 2020 23:38:36.0 PDT      
                                                                                
38695658.CI.HDH.--.HN     High Desert Hunt Club - Tejon Ranch   Chan  2: 360 Deg
                                                                                
38695658.CI.HDH.--.HN     High Desert Hunt Club - Tejon Ranch   Chan  2: 360 Deg
                                                                                
Units for spectra are inches and sec, except Sa is in fraction of g.            
                                                                                
    2  100    2    6    6  100 -999    3    1    0   15 5762    0    0   41    0
    6   38   36   10  263    9   19 2020   10    3  36036323   39   35   74 -999
36323 -999  100    6 -999 -999 -999 -999 -999 -999 -999 -999 -999 -999 -999 -999
 -999 -999 -999 -99915050    2 -999    0 -999   20 -999 -999    3    1 -99915050
    315050    4   78    1    3    5    0    0 -999    0 -999 -999    6 -999    2
    2    2    4 -999 -999 -999 -999 -999 -999 -999 -999    1 -999 -999 -999  111
    1    1 -999 -999
      .005      .707   363.230      .000     1.000  4978.683     -.001    43.440
   200.000     2.384      .479  -999.000    10.000  -999.000     4.000  -999.000
    20.000      .773      .000  -999.000  -999.000  -999.000  -999.000      .001
      .000     -.001     2.000    15.000    34.775  -118.640      .001      .001
      .968     -.001     -.001   964.600  -999.000  -999.000  -999.000  -999.000
     1.000  -999.000  -999.000  -999.000  -999.000  -999.000  -999.000   120.000
     -.900     2.000     6.800   980.665      .020   301.000    31.831      .000
  -999.000    23.000  -999.000   301.000      .020      .300  -999.000  -999.000
    43.440    -1.209    43.500     -.054    42.000     -.004      .000      .300
    23.000      .020      .020      .000      .020      .004  -999.000  -999.000
      .004      .240      .004      .003      .000      .000  -999.000  -999.000
  -999.000  -999.000  -999.000  -999.000  -999.000  -999.000  -999.000  -999.000
  -999.000  -999.000  -999.000  -999.000
      .050
      .040      .042      .044      .046      .048      .050      .055      .060
      .065      .070      .075      .080      .085      .090      .095      .100
      .110      .120      .130      .140      .150      .160      .170      .180
      .190      .200      .220      .240      .260      .280      .300      .320
      .340      .360      .380      .400      .420      .440      .460      .480
      .500      .550      .600      .650      .700      .750      .800      .850
      .900      .950     1.000     1.100     1.200     1.300     1.400     1.500
     1.600     1.700     1.800     1.900     2.000     2.200     2.400     2.600
     2.800     3.000     3.200     3.400     3.600     3.800     4.000     4.200
     4.400     4.600     4.800     5.000     5.500     6.000      .000      .000
      .000      .000      .000      .000      .000      .000      .000      .000
      .000      .000      .000      .000      .000      .000      .000      .000
      .000      .000      .000      .000
Fourier amplitude spectra in in/sec.
  .000E+00  .000E+00  .000E+00  .000E+00  .000E+00  .000E+00  .000E+00  .000E+00
  .000E+00  .000E+00  .000E+00  .000E+00  .000E+00  .000E+00  .000E+00  .000E+00
  .000E+00  .000E+00  .000E+00  .000E+00  .000E+00  .000E+00  .000E+00  .000E+00
  .000E+00  .000E+00  .000E+00  .000E+00  .000E+00  .000E+00  .000E+00  .000E+00
  .000E+00  .000E+00  .000E+00  .000E+00  .000E+00  .000E+00  .000E+00  .000E+00
  .000E+00  .000E+00  .000E+00  .000E+00  .000E+00  .000E+00  .000E+00  .000E+00
  .000E+00  .000E+00  .000E+00  .000E+00  .000E+00  .000E+00  .000E+00  .000E+00
  .000E+00  .000E+00  .000E+00  .000E+00  .000E+00  .000E+00  .000E+00  .000E+00
  .000E+00  .000E+00  .000E+00  .000E+00  .000E+00  .000E+00  .000E+00  .000E+00
  .000E+00  .000E+00  .000E+00  .000E+00  .000E+00  .000E+00  .000E+00  .000E+00
  .000E+00  .000E+00  .000E+00  .000E+00  .000E+00  .000E+00  .000E+00  .000E+00
  .000E+00  .000E+00  .000E+00  .000E+00  .000E+00  .000E+00  .000E+00  .000E+00
  .000E+00  .000E+00  .000E+00  .000E+00
Damping =  .05. Data of Sd,Sv,Sa,Pssv,ttSd,ttSv,ttSa :
  .197E-04  .217E-04  .237E-04  .260E-04  .285E-04  .305E-04  .382E-04  .453E-04
  .547E-04  .720E-04  .872E-04  .947E-04  .103E-03  .111E-03  .130E-03  .170E-03
  .203E-03  .330E-03  .333E-03  .388E-03  .568E-03  .691E-03  .815E-03  .102E-02
  .140E-02  .135E-02  .171E-02  .247E-02  .270E-02  .271E-02  .290E-02  .287E-02
  .275E-02  .219E-02  .238E-02  .235E-02  .232E-02  .224E-02  .234E-02  .274E-02
