Response and Fourier amplitude spectra (78 periods,  .04 -  6.0 sec)   for      
Corrected accelerogram   38695658.CI.HLN.--.HN      Chan  1:  90 Deg     from   
Uncorrected Accelerogram Data             Processed: 09/19/20, CGS  cihln--z    
Rcrd of Fri Sep 18, 2020 23:38:38.0 PDT               (Avol1 v2.0, 4/18 CSMIP)  
                                        (Origin:  To be determined)             
38695658.CI.HLN.--.HN                Start time:  9/19/20, 06:38:38.0 UTC (GPS) 
Station Id. HLN     34.121N, 117.219W    ObsMMS  s/n 1914  (3 Chns of  6 at Sta)
Highland, Baseline and Kensington Ct.    SCSN   Data: Acceleration              
Chan  1:  90 Deg                                                                
Rcrd of Fri Sep 18, 2020 23:38:38.0 PDT    Fri Sep 18, 2020 23:38:38.0 PDT      
Hypocenter:  To be determined.               ML:  To be determined.             
Instr Period =  .0050 sec,  Damping =  .707,  Sensitivity = 4.98 v/g  (Nominal) 
                        Record Length =301.000 sec.                             
                                     Uncor Max  =   .002 g, at   34.470 sec.    
RMS accel of (uncor) record  =        .   Chn. metadata effective date:         
Accelerogram bandpass filtered with 3 dB pts at   .30 and 23.00 cyc/sec         
                 instrument- and base-line correcte                             
                                                                                
                                                                                
                                                                                
                                                                                
                                                                                
Rcrd of Fri Sep 18, 2020 23:38:38.0 PDT    Fri Sep 18, 2020 23:38:38.0 PDT      
                                                                                
38695658.CI.HLN.--.HN     Highland, Baseline and Kensington Ct.   Chan  1:  90 D
eg                                                                              
38695658.CI.HLN.--.HN     Highland, Baseline and Kensington Ct.   Chan  1:  90 D
eg                                                                              
Units for spectra are inches and sec, except Sa is in fraction of g.            
                                                                                
    1  100    1    6    6  100 -999    3    1    0   15 1914    050505   41    0
    6   38   38    0  263    9   19 2020   10    3   9035424   39   37   74 -999
35424 -999  100    6 -999 -999 -999 -999 -999 -999 -999 -999 -999 -999 -999 -999
 -999 -999 -999 -99915050    2 -999    0 -999   20 -999 -999    3    1 -99915050
    315050    4   78    1    3    5    0    0 -999    0 -999 -999    6 -999    2
    2    2    4 -999 -999 -999 -999 -999 -999 -999 -999    1 -999 -999 -999  111
    1    1 -999 -999
      .005      .707   354.240      .000     1.000  4978.506      .002    34.470
   200.000     2.384      .479  -999.000    10.000  -999.000     4.000  -999.000
    20.000   -12.559      .000  -999.000  -999.000  -999.000  -999.000      .000
      .001      .001     2.000    15.000    34.121  -117.219      .014      .015
     1.056     -.002      .004   358.900  -999.000  -999.000  -999.000  -999.000
     1.000  -999.000    -8.000  -999.000  -999.000  -999.000  -999.000   120.000
     -.900     2.000     6.800   980.665      .020   301.000    31.831      .000
  -999.000    23.000  -999.000   301.000      .020      .300  -999.000  -999.000
    34.520    -1.498    34.500      .086    34.360     -.006      .000      .300
    23.000      .020      .020      .000      .020      .005  -999.000  -999.000
      .006      .130      .003      .003      .001      .000  -999.000  -999.000
  -999.000  -999.000  -999.000  -999.000  -999.000  -999.000  -999.000  -999.000
  -999.000  -999.000  -999.000  -999.000
      .050
      .040      .042      .044      .046      .048      .050      .055      .060
      .065      .070      .075      .080      .085      .090      .095      .100
      .110      .120      .130      .140      .150      .160      .170      .180
      .190      .200      .220      .240      .260      .280      .300      .320
      .340      .360      .380      .400      .420      .440      .460      .480
      .500      .550      .600      .650      .700      .750      .800      .850
      .900      .950     1.000     1.100     1.200     1.300     1.400     1.500
     1.600     1.700     1.800     1.900     2.000     2.200     2.400     2.600
     2.800     3.000     3.200     3.400     3.600     3.800     4.000     4.200
     4.400     4.600     4.800     5.000     5.500     6.000      .000      .000
      .000      .000      .000      .000      .000      .000      .000      .000
      .000      .000      .000      .000      .000      .000      .000      .000
      .000      .000      .000      .000
Fourier amplitude spectra in in/sec.
  .000E+00  .000E+00  .000E+00  .000E+00  .000E+00  .000E+00  .000E+00  .000E+00
  .000E+00  .000E+00  .000E+00  .000E+00  .000E+00  .000E+00  .000E+00  .000E+00
  .000E+00  .000E+00  .000E+00  .000E+00  .000E+00  .000E+00  .000E+00  .000E+00
  .000E+00  .000E+00  .000E+00  .000E+00  .000E+00  .000E+00  .000E+00  .000E+00
  .000E+00  .000E+00  .000E+00  .000E+00  .000E+00  .000E+00  .000E+00  .000E+00
  .000E+00  .000E+00  .000E+00  .000E+00  .000E+00  .000E+00  .000E+00  .000E+00
  .000E+00  .000E+00  .000E+00  .000E+00  .000E+00  .000E+00  .000E+00  .000E+00
  .000E+00  .000E+00  .000E+00  .000E+00  .000E+00  .000E+00  .000E+00  .000E+00
  .000E+00  .000E+00  .000E+00  .000E+00  .000E+00  .000E+00  .000E+00  .000E+00
  .000E+00  .000E+00  .000E+00  .000E+00  .000E+00  .000E+00  .000E+00  .000E+00
  .000E+00  .000E+00  .000E+00  .000E+00  .000E+00  .000E+00  .000E+00  .000E+00
  .000E+00  .000E+00  .000E+00  .000E+00  .000E+00  .000E+00  .000E+00  .000E+00
  .000E+00  .000E+00  .000E+00  .000E+00
Damping =  .05. Data of Sd,Sv,Sa,Pssv,ttSd,ttSv,ttSa :
  .288E-04  .315E-04  .346E-04  .377E-04  .426E-04  .514E-04  .728E-04  .999E-04
  .119E-03  .157E-03  .195E-03  .212E-03  .231E-03  .322E-03  .423E-03  .529E-03
  .512E-03  .674E-03  .102E-02  .932E-03  .829E-03  .753E-03  .102E-02  .103E-02
  .951E-03  .936E-03  .127E-02  .168E-02  .178E-02  .194E-02  .184E-02  .310E-02
  .399E-02  .512E-02  .595E-02  .627E-02  .566E-02  .459E-02  .397E-02  .420E-02
  .432E-02  .445E-02  .497E-02  .531E-02  .400E-02  .381E-02  .438E-02  .485E-02
  .473E-02  .487E-02  .526E-02  .643E-02  .584E-02  .621E-02  .632E-02  .548E-02
  .460E-02  .408E-02  .401E-02  .392E-02  .389E-02  .367E-02  .346E-02  .340E-02
  .321E-02  .299E-02  .294E-02  .289E-02  .281E-02  .272E-02  .261E-02  .254E-02
  .248E-02  .242E-02  .241E-02  .238E-02  .235E-02  .234E-02  .000E+00  .000E+00
  .000E+00  .000E+00  .000E+00  .000E+00  .000E+00  .000E+00  .000E+00  .000E+00
  .000E+00  .000E+00  .000E+00  .000E+00  .000E+00  .000E+00  .000E+00  .000E+00
  .000E+00  .000E+00  .000E+00  .000E+00
  .190E-02  .221E-02  .245E-02  .272E-02  .288E-02  .383E-02  .530E-02  .741E-02
  .823E-02  .928E-02  .108E-01  .109E-01  .154E-01  .163E-01  .212E-01  .277E-01
  .260E-01  .334E-01  .483E-01  .405E-01  .324E-01  .265E-01  .336E-01  .345E-01
  .308E-01  .260E-01  .345E-01  .443E-01  .414E-01  .422E-01  .394E-01  .561E-01
  .767E-01  .868E-01  .102E+00  .103E+00  .877E-01  .694E-01  .600E-01  .614E-01
  .615E-01  .571E-01  .601E-01  .629E-01  .442E-01  .400E-01  .414E-01  .469E-01
  .488E-01  .473E-01  .460E-01  .394E-01  .390E-01  .421E-01  .483E-01  .499E-01
  .475E-01  .457E-01  .441E-01  .428E-01  .420E-01  .396E-01  .377E-01  .364E-01
  .353E-01  .348E-01  .345E-01  .341E-01  .338E-01  .336E-01  .334E-01  .333E-01
  .333E-01  .332E-01  .332E-01  .332E-01  .331E-01  .331E-01  .000E+00  .000E+00
  .000E+00  .000E+00  .000E+00  .000E+00  .000E+00  .000E+00  .000E+00  .000E+00
  .000E+00  .000E+00  .000E+00  .000E+00  .000E+00  .000E+00  .000E+00  .000E+00
  .000E+00  .000E+00  .000E+00  .000E+00
  .183E-02  .183E-02  .183E-02  .182E-02  .190E-02  .210E-02  .246E-02  .282E-02
  .290E-02  .328E-02  .354E-02  .335E-02  .329E-02  .405E-02  .479E-02  .533E-02
  .430E-02  .488E-02  .627E-02  .480E-02  .384E-02  .301E-02  .361E-02  .329E-02
  .271E-02  .241E-02  .272E-02  .299E-02  .268E-02  .257E-02  .211E-02  .315E-02
  .354E-02  .404E-02  .420E-02  .399E-02  .330E-02  .244E-02  .191E-02  .187E-02
  .180E-02  .151E-02  .143E-02  .129E-02  .845E-03  .694E-03  .708E-03  .693E-03
  .601E-03  .561E-03  .546E-03  .548E-03  .420E-03  .380E-03  .335E-03  .253E-03
  .187E-03  .150E-03  .132E-03  .117E-03  .105E-03  .809E-04  .651E-04  .550E-04
  .453E-04  .374E-04  .327E-04  .288E-04  .254E-04  .224E-04  .198E-04  .177E-04
  .160E-04  .148E-04  .137E-04  .127E-04  .107E-04  .923E-05  .000E+00  .000E+00
  .000E+00  .000E+00  .000E+00  .000E+00  .000E+00  .000E+00  .000E+00  .000E+00
  .000E+00  .000E+00  .000E+00  .000E+00  .000E+00  .000E+00  .000E+00  .000E+00
  .000E+00  .000E+00  .000E+00  .000E+00
  .452E-02  .472E-02  .495E-02  .515E-02  .557E-02  .646E-02  .832E-02  .105E-01
  .115E-01  .141E-01  .164E-01  .166E-01  .171E-01  .225E-01  .280E-01  .332E-01
  .292E-01  .353E-01  .495E-01  .418E-01  .347E-01  .296E-01  .378E-01  .359E-01
  .315E-01  .294E-01  .363E-01  .440E-01  .430E-01  .436E-01  .386E-01  .609E-01
  .737E-01  .894E-01  .985E-01  .985E-01  .847E-01  .655E-01  .542E-01  .550E-01
  .543E-01  .508E-01  .520E-01  .513E-01  .359E-01  .319E-01  .344E-01  .358E-01
  .330E-01  .322E-01  .331E-01  .367E-01  .306E-01  .300E-01  .284E-01  .229E-01
  .181E-01  .151E-01  .140E-01  .130E-01  .122E-01  .105E-01  .905E-02  .821E-02
  .719E-02  .627E-02  .578E-02  .534E-02  .491E-02  .450E-02  .411E-02  .379E-02
  .354E-02  .331E-02  .315E-02  .300E-02  .268E-02  .245E-02  .000E+00  .000E+00
  .000E+00  .000E+00  .000E+00  .000E+00  .000E+00  .000E+00  .000E+00  .000E+00
  .000E+00  .000E+00  .000E+00  .000E+00  .000E+00  .000E+00  .000E+00  .000E+00
  .000E+00  .000E+00  .000E+00  .000E+00
  .345E+02  .345E+02  .345E+02  .345E+02  .345E+02  .345E+02  .345E+02  .345E+02
  .345E+02  .345E+02  .345E+02  .345E+02  .345E+02  .345E+02  .345E+02  .345E+02
  .347E+02  .347E+02  .346E+02  .346E+02  .346E+02  .334E+02  .334E+02  .334E+02
  .338E+02  .338E+02  .339E+02  .340E+02  .384E+02  .401E+02  .401E+02  .346E+02
  .346E+02  .358E+02  .353E+02  .351E+02  .351E+02  .351E+02  .342E+02  .342E+02
  .342E+02  .352E+02  .350E+02  .348E+02  .348E+02  .439E+02  .348E+02  .348E+02
  .348E+02  .345E+02  .345E+02  .357E+02  .357E+02  .352E+02  .346E+02  .354E+02
  .355E+02  .349E+02  .349E+02  .350E+02  .350E+02  .343E+02  .343E+02  .343E+02
  .343E+02  .343E+02  .343E+02  .343E+02  .343E+02  .343E+02  .343E+02  .343E+02
  .343E+02  .343E+02  .338E+02  .338E+02  .343E+02  .343E+02  .000E+00  .000E+00
  .000E+00  .000E+00  .000E+00  .000E+00  .000E+00  .000E+00  .000E+00  .000E+00
  .000E+00  .000E+00  .000E+00  .000E+00  .000E+00  .000E+00  .000E+00  .000E+00
  .000E+00  .000E+00  .000E+00  .000E+00
  .345E+02  .345E+02  .345E+02  .345E+02  .355E+02  .356E+02  .356E+02  .345E+02
  .358E+02  .345E+02  .345E+02  .346E+02  .339E+02  .339E+02  .345E+02  .346E+02
  .346E+02  .347E+02  .346E+02  .346E+02  .345E+02  .345E+02  .335E+02  .334E+02
  .331E+02  .331E+02  .339E+02  .340E+02  .384E+02  .401E+02  .358E+02  .345E+02
  .345E+02  .353E+02  .353E+02  .352E+02  .352E+02  .350E+02  .343E+02  .341E+02
  .341E+02  .339E+02  .349E+02  .349E+02  .347E+02  .349E+02  .347E+02  .347E+02
  .347E+02  .347E+02  .347E+02  .345E+02  .345E+02  .345E+02  .345E+02  .345E+02
  .345E+02  .345E+02  .345E+02  .345E+02  .345E+02  .345E+02  .345E+02  .345E+02
  .345E+02  .345E+02  .345E+02  .345E+02  .345E+02  .345E+02  .345E+02  .345E+02
  .345E+02  .345E+02  .345E+02  .345E+02  .345E+02  .345E+02  .000E+00  .000E+00
  .000E+00  .000E+00  .000E+00  .000E+00  .000E+00  .000E+00  .000E+00  .000E+00
  .000E+00  .000E+00  .000E+00  .000E+00  .000E+00  .000E+00  .000E+00  .000E+00
  .000E+00  .000E+00  .000E+00  .000E+00
  .345E+02  .345E+02  .345E+02  .345E+02  .345E+02  .345E+02  .345E+02  .345E+02
  .345E+02  .345E+02  .345E+02  .345E+02  .345E+02  .345E+02  .345E+02  .345E+02
  .347E+02  .347E+02  .345E+02  .346E+02  .346E+02  .346E+02  .334E+02  .334E+02
  .330E+02  .338E+02  .339E+02  .340E+02  .384E+02  .401E+02  .357E+02  .346E+02
  .346E+02  .358E+02  .352E+02  .353E+02  .351E+02  .351E+02  .342E+02  .342E+02
  .342E+02  .352E+02  .350E+02  .348E+02  .348E+02  .439E+02  .348E+02  .348E+02
  .348E+02  .345E+02  .345E+02  .356E+02  .357E+02  .352E+02  .346E+02  .354E+02
  .355E+02  .349E+02  .349E+02  .349E+02  .349E+02  .343E+02  .343E+02  .343E+02
  .343E+02  .343E+02  .343E+02  .343E+02  .343E+02  .343E+02  .343E+02  .343E+02
  .343E+02  .338E+02  .338E+02  .338E+02  .338E+02  .338E+02  .000E+00  .000E+00
  .000E+00  .000E+00  .000E+00  .000E+00  .000E+00  .000E+00  .000E+00  .000E+00
  .000E+00  .000E+00  .000E+00  .000E+00  .000E+00  .000E+00  .000E+00  .000E+00
  .000E+00  .000E+00  .000E+00  .000E+00
/&   ----------  End of spectral data for channel  1  ----------
Response and Fourier amplitude spectra (78 periods,  .04 -  6.0 sec)   for      
Corrected accelerogram   38695658.CI.HLN.--.HN      Chan  2: 360 Deg     from   
Uncorrected Accelerogram Data             Processed: 09/19/20, CGS  cihln--z    
Rcrd of Fri Sep 18, 2020 23:38:38.0 PDT               (Avol1 v2.0, 4/18 CSMIP)  
                                        (Origin:  To be determined)             
38695658.CI.HLN.--.HN                Start time:  9/19/20, 06:38:38.0 UTC (GPS) 
Station Id. HLN     34.121N, 117.219W    ObsMMS  s/n 1914  (3 Chns of  6 at Sta)
Highland, Baseline and Kensington Ct.    SCSN   Data: Acceleration              
Chan  2: 360 Deg                                                                
Rcrd of Fri Sep 18, 2020 23:38:38.0 PDT    Fri Sep 18, 2020 23:38:38.0 PDT      
Hypocenter:  To be determined.               ML:  To be determined.             
Instr Period =  .0050 sec,  Damping =  .707,  Sensitivity = 4.99 v/g  (Nominal) 
                        Record Length =301.000 sec.                             
                                     Uncor Max  =  -.002 g, at   34.610 sec.    
RMS accel of (uncor) record  =        .   Chn. metadata effective date:         
Accelerogram bandpass filtered with 3 dB pts at   .30 and 23.00 cyc/sec         
                 instrument- and base-line correcte                             
                                                                                
                                                                                
                                                                                
                                                                                
                                                                                
Rcrd of Fri Sep 18, 2020 23:38:38.0 PDT    Fri Sep 18, 2020 23:38:38.0 PDT      
                                                                                
38695658.CI.HLN.--.HN     Highland, Baseline and Kensington Ct.   Chan  2: 360 D
eg                                                                              
38695658.CI.HLN.--.HN     Highland, Baseline and Kensington Ct.   Chan  2: 360 D
eg                                                                              
Units for spectra are inches and sec, except Sa is in fraction of g.            
                                                                                
    2  100    2    6    6  100 -999    3    1    0   15 1914    050505   41    0
    6   38   38   10  263    9   19 2020   10    3  36035668   39   37   74 -999
35668 -999  100    6 -999 -999 -999 -999 -999 -999 -999 -999 -999 -999 -999 -999
 -999 -999 -999 -99915050    2 -999    0 -999   20 -999 -999    3    1 -99915050
    315050    4   78    1    3    5    0    0 -999    0 -999 -999    6 -999    2
    2    2    4 -999 -999 -999 -999 -999 -999 -999 -999    1 -999 -999 -999  111
    1    1 -999 -999
      .005      .707   356.680      .000     1.000  4985.487     -.002    34.610
   200.000     2.384      .478  -999.000    10.000  -999.000     4.000  -999.000
    20.000    -9.304      .000  -999.000  -999.000  -999.000  -999.000      .001
      .000     -.001     2.000    15.000    34.121  -117.219      .019      .019
      .994     -.005      .003   358.900  -999.000  -999.000  -999.000  -999.000
     1.000  -999.000  -999.000  -999.000  -999.000  -999.000  -999.000   120.000
     -.900     2.000     6.800   980.665      .020   301.000    31.831      .000
  -999.000    23.000  -999.000   301.000      .020      .300  -999.000  -999.000
    33.800    -1.840    33.760      .066    34.100     -.005      .000      .300
    23.000      .020      .020      .000      .020      .005  -999.000  -999.000
      .008      .085      .003      .004      .000      .000  -999.000  -999.000
  -999.000  -999.000  -999.000  -999.000  -999.000  -999.000  -999.000  -999.000
  -999.000  -999.000  -999.000  -999.000
      .050
      .040      .042      .044      .046      .048      .050      .055      .060
      .065      .070      .075      .080      .085      .090      .095      .100
      .110      .120      .130      .140      .150      .160      .170      .180
      .190      .200      .220      .240      .260      .280      .300      .320
      .340      .360      .380      .400      .420      .440      .460      .480
      .500      .550      .600      .650      .700      .750      .800      .850
      .900      .950     1.000     1.100     1.200     1.300     1.400     1.500
     1.600     1.700     1.800     1.900     2.000     2.200     2.400     2.600
     2.800     3.000     3.200     3.400     3.600     3.800     4.000     4.200
     4.400     4.600     4.800     5.000     5.500     6.000      .000      .000
      .000      .000      .000      .000      .000      .000      .000      .000
      .000      .000      .000      .000      .000      .000      .000      .000
      .000      .000      .000      .000
Fourier amplitude spectra in in/sec.
  .000E+00  .000E+00  .000E+00  .000E+00  .000E+00  .000E+00  .000E+00  .000E+00
  .000E+00  .000E+00  .000E+00  .000E+00  .000E+00  .000E+00  .000E+00  .000E+00
  .000E+00  .000E+00  .000E+00  .000E+00  .000E+00  .000E+00  .000E+00  .000E+00
  .000E+00  .000E+00  .000E+00  .000E+00  .000E+00  .000E+00  .000E+00  .000E+00
  .000E+00  .000E+00  .000E+00  .000E+00  .000E+00  .000E+00  .000E+00  .000E+00
  .000E+00  .000E+00  .000E+00  .000E+00  .000E+00  .000E+00  .000E+00  .000E+00
  .000E+00  .000E+00  .000E+00  .000E+00  .000E+00  .000E+00  .000E+00  .000E+00
  .000E+00  .000E+00  .000E+00  .000E+00  .000E+00  .000E+00  .000E+00  .000E+00
  .000E+00  .000E+00  .000E+00  .000E+00  .000E+00  .000E+00  .000E+00  .000E+00
  .000E+00  .000E+00  .000E+00  .000E+00  .000E+00  .000E+00  .000E+00  .000E+00
  .000E+00  .000E+00  .000E+00  .000E+00  .000E+00  .000E+00  .000E+00  .000E+00
  .000E+00  .000E+00  .000E+00  .000E+00  .000E+00  .000E+00  .000E+00  .000E+00
  .000E+00  .000E+00  .000E+00  .000E+00
Damping =  .05. Data of Sd,Sv,Sa,Pssv,ttSd,ttSv,ttSa :
  .360E-04  .411E-04  .471E-04  .519E-04  .639E-04  .758E-04  .108E-03  .139E-03
  .170E-03  .214E-03  .315E-03  .477E-03  .553E-03  .601E-03  .557E-03  .637E-03
  .825E-03  .979E-03  .911E-03  .120E-02  .105E-02  .125E-02  .120E-02  .134E-02
  .124E-02  .127E-02  .133E-02  .179E-02  .221E-02  .256E-02  .330E-02  .392E-02
  .492E-02  .558E-02  .527E-02  .420E-02  .477E-02  .538E-02  .620E-02  .616E-02
