Response and Fourier amplitude spectra (78 periods,  .04 -  6.0 sec)   for      
Corrected accelerogram   38695658.CI.HLL.--.HN      Chan  1:  90 Deg     from   
Uncorrected Accelerogram Data             Processed: 09/19/20, CGS  cihll--j    
Rcrd of Fri Sep 18, 2020 23:38:30.0 PDT               (Avol1 v2.0, 4/18 CSMIP)  
                                        (Origin:  To be determined)             
38695658.CI.HLL.--.HN                Start time:  9/19/20, 06:38:30.0 UTC (GPS) 
Station Id. HLL     34.176N, 118.360W    ObsMMS  s/n 4334  (3 Chns of  6 at Sta)
N Hollywood, Clyburn Ave & Hatteras St   SCSN   Data: Acceleration              
Chan  1:  90 Deg                                                                
Rcrd of Fri Sep 18, 2020 23:38:30.0 PDT    Fri Sep 18, 2020 23:38:30.0 PDT      
Hypocenter:  To be determined.               ML:  To be determined.             
Instr Period =  .0050 sec,  Damping =  .707,  Sensitivity = 4.99 v/g  (Nominal) 
                        Record Length =301.000 sec.                             
                                     Uncor Max  =  -.021 g, at   27.290 sec.    
RMS accel of (uncor) record  =        .   Chn. metadata effective date:         
Accelerogram bandpass filtered with 3 dB pts at   .30 and 23.00 cyc/sec         
                 instrument- and base-line correcte                             
                                                                                
                                                                                
                                                                                
                                                                                
                                                                                
Rcrd of Fri Sep 18, 2020 23:38:30.0 PDT    Fri Sep 18, 2020 23:38:30.0 PDT      
                                                                                
38695658.CI.HLL.--.HN     N Hollywood, Clyburn Ave & Hatteras St   SChan  1:  90
 Deg                                                                            
38695658.CI.HLL.--.HN     N Hollywood, Clyburn Ave & Hatteras St   SChan  1:  90
 Deg                                                                            
Units for spectra are inches and sec, except Sa is in fraction of g.            
                                                                                
    1  100    1    6    6  100 -999    3    1    0   15 4334    050616   41    0
    6   38   30    8  263    9   19 2020   10    3   9035436   39   38   74 -999
35436 -999  100    6 -999 -999 -999 -999 -999 -999 -999 -999 -999 -999 -999 -999
 -999 -999 -999 -99915050    2 -999    0 -999   20 -999 -999    3    1 -99915050
    315050    4   78    1    3    5    0    0 -999    0 -999 -999    6 -999    2
    2    2    4 -999 -999 -999 -999 -999 -999 -999 -999    1 -999 -999 -999  111
    1    1 -999 -999
      .005      .707   354.360      .001     1.000  4988.878     -.021    27.290
   200.000     2.384      .478  -999.000    10.000  -999.000     4.000  -999.000
    20.000   -35.717      .000  -999.000  -999.000  -999.000  -999.000     -.001
      .001      .002     2.000    15.000    34.176  -118.360      .015      .013
      .847     -.001      .005   193.000  -999.000  -999.000  -999.000  -999.000
     1.000  -999.000    -8.000  -999.000  -999.000  -999.000  -999.000   120.000
     -.900     2.000     6.800   980.665      .020   301.000    31.831      .000
  -999.000    23.000  -999.000   301.000      .020      .300  -999.000  -999.000
    27.280   -18.983    27.240      .705    27.300      .057      .000      .300
    23.000      .020      .020      .000      .020      .027  -999.000  -999.000
      .061      .130      .033      .035      .005      .000  -999.000  -999.000
  -999.000  -999.000  -999.000  -999.000  -999.000  -999.000  -999.000  -999.000
  -999.000  -999.000  -999.000  -999.000
      .050
      .040      .042      .044      .046      .048      .050      .055      .060
      .065      .070      .075      .080      .085      .090      .095      .100
      .110      .120      .130      .140      .150      .160      .170      .180
      .190      .200      .220      .240      .260      .280      .300      .320
      .340      .360      .380      .400      .420      .440      .460      .480
      .500      .550      .600      .650      .700      .750      .800      .850
      .900      .950     1.000     1.100     1.200     1.300     1.400     1.500
     1.600     1.700     1.800     1.900     2.000     2.200     2.400     2.600
     2.800     3.000     3.200     3.400     3.600     3.800     4.000     4.200
     4.400     4.600     4.800     5.000     5.500     6.000      .000      .000
      .000      .000      .000      .000      .000      .000      .000      .000
      .000      .000      .000      .000      .000      .000      .000      .000
      .000      .000      .000      .000
Fourier amplitude spectra in in/sec.
  .000E+00  .000E+00  .000E+00  .000E+00  .000E+00  .000E+00  .000E+00  .000E+00
  .000E+00  .000E+00  .000E+00  .000E+00  .000E+00  .000E+00  .000E+00  .000E+00
  .000E+00  .000E+00  .000E+00  .000E+00  .000E+00  .000E+00  .000E+00  .000E+00
  .000E+00  .000E+00  .000E+00  .000E+00  .000E+00  .000E+00  .000E+00  .000E+00
  .000E+00  .000E+00  .000E+00  .000E+00  .000E+00  .000E+00  .000E+00  .000E+00
  .000E+00  .000E+00  .000E+00  .000E+00  .000E+00  .000E+00  .000E+00  .000E+00
  .000E+00  .000E+00  .000E+00  .000E+00  .000E+00  .000E+00  .000E+00  .000E+00
  .000E+00  .000E+00  .000E+00  .000E+00  .000E+00  .000E+00  .000E+00  .000E+00
  .000E+00  .000E+00  .000E+00  .000E+00  .000E+00  .000E+00  .000E+00  .000E+00
  .000E+00  .000E+00  .000E+00  .000E+00  .000E+00  .000E+00  .000E+00  .000E+00
  .000E+00  .000E+00  .000E+00  .000E+00  .000E+00  .000E+00  .000E+00  .000E+00
  .000E+00  .000E+00  .000E+00  .000E+00  .000E+00  .000E+00  .000E+00  .000E+00
  .000E+00  .000E+00  .000E+00  .000E+00
Damping =  .05. Data of Sd,Sv,Sa,Pssv,ttSd,ttSv,ttSa :
  .318E-03  .350E-03  .385E-03  .421E-03  .461E-03  .492E-03  .669E-03  .887E-03
  .109E-02  .127E-02  .141E-02  .180E-02  .216E-02  .278E-02  .360E-02  .463E-02
  .657E-02  .849E-02  .997E-02  .113E-01  .114E-01  .996E-02  .899E-02  .927E-02
  .107E-01  .126E-01  .169E-01  .218E-01  .276E-01  .300E-01  .318E-01  .301E-01
  .257E-01  .218E-01  .195E-01  .203E-01  .214E-01  .241E-01  .225E-01  .248E-01
  .258E-01  .304E-01  .275E-01  .391E-01  .398E-01  .348E-01  .295E-01  .426E-01
  .504E-01  .516E-01  .534E-01  .512E-01  .473E-01  .365E-01  .452E-01  .406E-01
  .578E-01  .606E-01  .546E-01  .530E-01  .480E-01  .368E-01  .276E-01  .255E-01
  .243E-01  .241E-01  .240E-01  .240E-01  .239E-01  .238E-01  .237E-01  .235E-01
  .234E-01  .233E-01  .231E-01  .230E-01  .228E-01  .226E-01  .000E+00  .000E+00
  .000E+00  .000E+00  .000E+00  .000E+00  .000E+00  .000E+00  .000E+00  .000E+00
  .000E+00  .000E+00  .000E+00  .000E+00  .000E+00  .000E+00  .000E+00  .000E+00
  .000E+00  .000E+00  .000E+00  .000E+00
  .133E-01  .150E-01  .171E-01  .192E-01  .215E-01  .256E-01  .371E-01  .428E-01
  .457E-01  .588E-01  .616E-01  .746E-01  .926E-01  .124E+00  .164E+00  .205E+00
  .280E+00  .368E+00  .448E+00  .478E+00  .467E+00  .396E+00  .334E+00  .324E+00
  .357E+00  .389E+00  .494E+00  .579E+00  .664E+00  .738E+00  .693E+00  .601E+00
  .554E+00  .474E+00  .423E+00  .376E+00  .352E+00  .368E+00  .333E+00  .327E+00
  .343E+00  .365E+00  .329E+00  .368E+00  .398E+00  .329E+00  .292E+00  .350E+00
  .365E+00  .403E+00  .408E+00  .318E+00  .301E+00  .288E+00  .266E+00  .284E+00
  .261E+00  .278E+00  .280E+00  .258E+00  .262E+00  .267E+00  .268E+00  .269E+00
  .268E+00  .267E+00  .267E+00  .267E+00  .267E+00  .268E+00  .268E+00  .268E+00
  .268E+00  .268E+00  .268E+00  .268E+00  .268E+00  .268E+00  .000E+00  .000E+00
  .000E+00  .000E+00  .000E+00  .000E+00  .000E+00  .000E+00  .000E+00  .000E+00
  .000E+00  .000E+00  .000E+00  .000E+00  .000E+00  .000E+00  .000E+00  .000E+00
  .000E+00  .000E+00  .000E+00  .000E+00
  .204E-01  .203E-01  .203E-01  .204E-01  .205E-01  .201E-01  .226E-01  .252E-01
  .266E-01  .268E-01  .256E-01  .288E-01  .307E-01  .351E-01  .412E-01  .478E-01
  .558E-01  .603E-01  .608E-01  .588E-01  .521E-01  .401E-01  .319E-01  .292E-01
  .304E-01  .321E-01  .361E-01  .394E-01  .424E-01  .391E-01  .360E-01  .298E-01
  .232E-01  .174E-01  .138E-01  .132E-01  .126E-01  .128E-01  .109E-01  .110E-01
  .107E-01  .103E-01  .788E-02  .954E-02  .834E-02  .637E-02  .473E-02  .606E-02
  .639E-02  .588E-02  .551E-02  .438E-02  .338E-02  .224E-02  .238E-02  .186E-02
  .233E-02  .215E-02  .173E-02  .152E-02  .125E-02  .800E-03  .541E-03  .458E-03
  .396E-03  .351E-03  .316E-03  .286E-03  .262E-03  .240E-03  .221E-03  .204E-03
  .189E-03  .176E-03  .165E-03  .155E-03  .134E-03  .118E-03  .000E+00  .000E+00
  .000E+00  .000E+00  .000E+00  .000E+00  .000E+00  .000E+00  .000E+00  .000E+00
  .000E+00  .000E+00  .000E+00  .000E+00  .000E+00  .000E+00  .000E+00  .000E+00
  .000E+00  .000E+00  .000E+00  .000E+00
  .500E-01  .523E-01  .549E-01  .575E-01  .603E-01  .618E-01  .764E-01  .929E-01
  .106E+00  .114E+00  .118E+00  .141E+00  .160E+00  .194E+00  .238E+00  .291E+00
  .375E+00  .445E+00  .482E+00  .506E+00  .476E+00  .391E+00  .332E+00  .324E+00
  .353E+00  .395E+00  .482E+00  .572E+00  .666E+00  .672E+00  .665E+00  .590E+00
  .475E+00  .380E+00  .322E+00  .319E+00  .320E+00  .344E+00  .307E+00  .325E+00
  .324E+00  .347E+00  .288E+00  .378E+00  .357E+00  .292E+00  .231E+00  .315E+00
  .352E+00  .341E+00  .335E+00  .293E+00  .248E+00  .177E+00  .203E+00  .170E+00
  .227E+00  .224E+00  .190E+00  .175E+00  .151E+00  .105E+00  .723E-01  .616E-01
  .546E-01  .505E-01  .472E-01  .443E-01  .418E-01  .394E-01  .372E-01  .352E-01
  .334E-01  .318E-01  .303E-01  .289E-01  .260E-01  .237E-01  .000E+00  .000E+00
  .000E+00  .000E+00  .000E+00  .000E+00  .000E+00  .000E+00  .000E+00  .000E+00
  .000E+00  .000E+00  .000E+00  .000E+00  .000E+00  .000E+00  .000E+00  .000E+00
  .000E+00  .000E+00  .000E+00  .000E+00
  .273E+02  .273E+02  .273E+02  .273E+02  .273E+02  .273E+02  .273E+02  .273E+02
  .273E+02  .273E+02  .273E+02  .273E+02  .273E+02  .273E+02  .273E+02  .273E+02
  .273E+02  .273E+02  .273E+02  .273E+02  .273E+02  .274E+02  .274E+02  .274E+02
  .274E+02  .273E+02  .273E+02  .276E+02  .276E+02  .275E+02  .275E+02  .275E+02
  .275E+02  .274E+02  .274E+02  .292E+02  .335E+02  .333E+02  .363E+02  .298E+02
  .301E+02  .323E+02  .289E+02  .382E+02  .382E+02  .302E+02  .303E+02  .380E+02
  .380E+02  .300E+02  .300E+02  .297E+02  .436E+02  .288E+02  .319E+02  .320E+02
  .396E+02  .390E+02  .384E+02  .377E+02  .342E+02  .342E+02  .316E+02  .316E+02
  .273E+02  .273E+02  .273E+02  .273E+02  .273E+02  .273E+02  .273E+02  .273E+02
  .273E+02  .273E+02  .273E+02  .273E+02  .273E+02  .273E+02  .000E+00  .000E+00
  .000E+00  .000E+00  .000E+00  .000E+00  .000E+00  .000E+00  .000E+00  .000E+00
  .000E+00  .000E+00  .000E+00  .000E+00  .000E+00  .000E+00  .000E+00  .000E+00
  .000E+00  .000E+00  .000E+00  .000E+00
  .272E+02  .272E+02  .272E+02  .272E+02  .272E+02  .272E+02  .273E+02  .273E+02
  .273E+02  .282E+02  .282E+02  .272E+02  .272E+02  .272E+02  .273E+02  .273E+02
  .273E+02  .273E+02  .276E+02  .273E+02  .274E+02  .274E+02  .274E+02  .274E+02
  .274E+02  .274E+02  .274E+02  .276E+02  .275E+02  .276E+02  .276E+02  .273E+02
  .275E+02  .275E+02  .275E+02  .275E+02  .289E+02  .334E+02  .367E+02  .299E+02
  .302E+02  .322E+02  .288E+02  .316E+02  .381E+02  .301E+02  .273E+02  .381E+02
  .301E+02  .298E+02  .298E+02  .321E+02  .296E+02  .286E+02  .286E+02  .317E+02
  .317E+02  .379E+02  .379E+02  .272E+02  .272E+02  .272E+02  .272E+02  .272E+02
  .272E+02  .272E+02  .272E+02  .272E+02  .272E+02  .272E+02  .272E+02  .272E+02
  .272E+02  .272E+02  .272E+02  .272E+02  .272E+02  .272E+02  .000E+00  .000E+00
  .000E+00  .000E+00  .000E+00  .000E+00  .000E+00  .000E+00  .000E+00  .000E+00
  .000E+00  .000E+00  .000E+00  .000E+00  .000E+00  .000E+00  .000E+00  .000E+00
  .000E+00  .000E+00  .000E+00  .000E+00
  .273E+02  .273E+02  .273E+02  .273E+02  .273E+02  .273E+02  .273E+02  .273E+02
  .273E+02  .273E+02  .273E+02  .273E+02  .273E+02  .273E+02  .273E+02  .273E+02
  .273E+02  .273E+02  .276E+02  .273E+02  .273E+02  .273E+02  .274E+02  .274E+02
  .274E+02  .273E+02  .273E+02  .276E+02  .276E+02  .275E+02  .275E+02  .275E+02
  .275E+02  .274E+02  .274E+02  .292E+02  .335E+02  .335E+02  .363E+02  .298E+02
  .303E+02  .323E+02  .289E+02  .382E+02  .382E+02  .302E+02  .303E+02  .379E+02
  .380E+02  .300E+02  .300E+02  .297E+02  .436E+02  .288E+02  .318E+02  .320E+02
  .396E+02  .390E+02  .383E+02  .376E+02  .342E+02  .342E+02  .272E+02  .272E+02
  .272E+02  .272E+02  .272E+02  .272E+02  .272E+02  .272E+02  .272E+02  .272E+02
  .272E+02  .272E+02  .272E+02  .272E+02  .272E+02  .272E+02  .000E+00  .000E+00
  .000E+00  .000E+00  .000E+00  .000E+00  .000E+00  .000E+00  .000E+00  .000E+00
  .000E+00  .000E+00  .000E+00  .000E+00  .000E+00  .000E+00  .000E+00  .000E+00
  .000E+00  .000E+00  .000E+00  .000E+00
/&   ----------  End of spectral data for channel  1  ----------
Response and Fourier amplitude spectra (78 periods,  .04 -  6.0 sec)   for      
Corrected accelerogram   38695658.CI.HLL.--.HN      Chan  2: 360 Deg     from   
Uncorrected Accelerogram Data             Processed: 09/19/20, CGS  cihll--j    
Rcrd of Fri Sep 18, 2020 23:38:30.0 PDT               (Avol1 v2.0, 4/18 CSMIP)  
                                        (Origin:  To be determined)             
38695658.CI.HLL.--.HN                Start time:  9/19/20, 06:38:30.0 UTC (GPS) 
Station Id. HLL     34.176N, 118.360W    ObsMMS  s/n 4334  (3 Chns of  6 at Sta)
N Hollywood, Clyburn Ave & Hatteras St   SCSN   Data: Acceleration              
Chan  2: 360 Deg                                                                
Rcrd of Fri Sep 18, 2020 23:38:30.0 PDT    Fri Sep 18, 2020 23:38:30.0 PDT      
Hypocenter:  To be determined.               ML:  To be determined.             
Instr Period =  .0050 sec,  Damping =  .707,  Sensitivity = 5.00 v/g  (Nominal) 
                        Record Length =301.000 sec.                             
                                     Uncor Max  =  -.020 g, at   27.750 sec.    
RMS accel of (uncor) record  =        .   Chn. metadata effective date:         
Accelerogram bandpass filtered with 3 dB pts at   .30 and 23.00 cyc/sec         
                 instrument- and base-line correcte                             
                                                                                
                                                                                
                                                                                
                                                                                
                                                                                
Rcrd of Fri Sep 18, 2020 23:38:30.0 PDT    Fri Sep 18, 2020 23:38:30.0 PDT      
                                                                                
38695658.CI.HLL.--.HN     N Hollywood, Clyburn Ave & Hatteras St   SChan  2: 360
 Deg                                                                            
38695658.CI.HLL.--.HN     N Hollywood, Clyburn Ave & Hatteras St   SChan  2: 360
 Deg                                                                            
Units for spectra are inches and sec, except Sa is in fraction of g.            
                                                                                
    2  100    2    6    6  100 -999    3    1    0   15 4334    050616   41    0
    6   38   30    8  263    9   19 2020   10    3  36035680   39   38   74 -999
35680 -999  100    6 -999 -999 -999 -999 -999 -999 -999 -999 -999 -999 -999 -999
 -999 -999 -999 -99915050    2 -999    0 -999   20 -999 -999    3    1 -99915050
    315050    4   78    1    3    5    0    0 -999    0 -999 -999    6 -999    2
    2    2    4 -999 -999 -999 -999 -999 -999 -999 -999    1 -999 -999 -999  111
    1    1 -999 -999
      .005      .707   356.800      .001     1.000  4996.058     -.020    27.750
   200.000     2.384      .477  -999.000    10.000  -999.000     4.000  -999.000
    20.000   -21.182      .000  -999.000  -999.000  -999.000  -999.000     -.002
      .001      .003     2.000    15.000    34.176  -118.360      .016      .013
      .830      .000      .006   193.000  -999.000  -999.000  -999.000  -999.000
     1.000  -999.000  -999.000  -999.000  -999.000  -999.000  -999.000   120.000
     -.900     2.000     6.800   980.665      .020   301.000    31.831      .000
  -999.000    23.000  -999.000   301.000      .020      .300  -999.000  -999.000
    27.480   -18.714    27.440      .861    27.340     -.092      .000      .300
    23.000      .020      .020      .000      .020      .030  -999.000  -999.000
      .068      .260      .043      .052      .009      .001  -999.000  -999.000
  -999.000  -999.000  -999.000  -999.000  -999.000  -999.000  -999.000  -999.000
  -999.000  -999.000  -999.000  -999.000
      .050
      .040      .042      .044      .046      .048      .050      .055      .060
      .065      .070      .075      .080      .085      .090      .095      .100
      .110      .120      .130      .140      .150      .160      .170      .180
      .190      .200      .220      .240      .260      .280      .300      .320
      .340      .360      .380      .400      .420      .440      .460      .480
      .500      .550      .600      .650      .700      .750      .800      .850
      .900      .950     1.000     1.100     1.200     1.300     1.400     1.500
     1.600     1.700     1.800     1.900     2.000     2.200     2.400     2.600
     2.800     3.000     3.200     3.400     3.600     3.800     4.000     4.200
     4.400     4.600     4.800     5.000     5.500     6.000      .000      .000
      .000      .000      .000      .000      .000      .000      .000      .000
      .000      .000      .000      .000      .000      .000      .000      .000
      .000      .000      .000      .000
Fourier amplitude spectra in in/sec.
  .000E+00  .000E+00  .000E+00  .000E+00  .000E+00  .000E+00  .000E+00  .000E+00
  .000E+00  .000E+00  .000E+00  .000E+00  .000E+00  .000E+00  .000E+00  .000E+00
  .000E+00  .000E+00  .000E+00  .000E+00  .000E+00  .000E+00  .000E+00  .000E+00
  .000E+00  .000E+00  .000E+00  .000E+00  .000E+00  .000E+00  .000E+00  .000E+00
  .000E+00  .000E+00  .000E+00  .000E+00  .000E+00  .000E+00  .000E+00  .000E+00
  .000E+00  .000E+00  .000E+00  .000E+00  .000E+00  .000E+00  .000E+00  .000E+00
  .000E+00  .000E+00  .000E+00  .000E+00  .000E+00  .000E+00  .000E+00  .000E+00
  .000E+00  .000E+00  .000E+00  .000E+00  .000E+00  .000E+00  .000E+00  .000E+00
  .000E+00  .000E+00  .000E+00  .000E+00  .000E+00  .000E+00  .000E+00  .000E+00
  .000E+00  .000E+00  .000E+00  .000E+00  .000E+00  .000E+00  .000E+00  .000E+00
  .000E+00  .000E+00  .000E+00  .000E+00  .000E+00  .000E+00  .000E+00  .000E+00
  .000E+00  .000E+00  .000E+00  .000E+00  .000E+00  .000E+00  .000E+00  .000E+00
  .000E+00  .000E+00  .000E+00  .000E+00
Damping =  .05. Data of Sd,Sv,Sa,Pssv,ttSd,ttSv,ttSa :
  .333E-03  .357E-03  .392E-03  .454E-03  .510E-03  .610E-03  .798E-03  .105E-02
  .148E-02  .172E-02  .181E-02  .220E-02  .244E-02  .310E-02  .336E-02  .312E-02
  .349E-02  .593E-02  .777E-02  .926E-02  .103E-01  .105E-01  .111E-01  .112E-01
  .128E-01  .154E-01  .249E-01  .373E-01  .452E-01  .476E-01  .439E-01  .427E-01
  .412E-01  .376E-01  .353E-01  .322E-01  .308E-01  .303E-01  .305E-01  .316E-01
