Response and Fourier amplitude spectra (78 periods,  .04 -  6.0 sec)   for      
Corrected accelerogram   38695658.CI.HMT2.--.H      Chan  1:  90 Deg     from   
Uncorrected Accelerogram Data             Processed: 09/19/20, CGS  cihmt2-h    
Rcrd of Fri Sep 18, 2020 23:38:41.0 PDT               (Avol1 v2.0, 4/18 CSMIP)  
                                        (Origin:  To be determined)             
38695658.CI.HMT2.--.H                Start time:  9/19/20, 06:38:41.0 UTC (GPS) 
Station Id. HMT2    33.708N, 117.002W    Q330    s/n 5341  (3 Chns of  3 at Sta)
Hemet 2                                  SCSN   Data: Acceleration              
Chan  1:  90 Deg                                                                
Rcrd of Fri Sep 18, 2020 23:38:41.0 PDT    Fri Sep 18, 2020 23:38:41.0 PDT      
Hypocenter:  To be determined.               ML:  To be determined.             
Instr Period =  .0050 sec,  Damping =  .707,  Sensitivity = 4.99 v/g  (Nominal) 
                        Record Length =301.000 sec.                             
                                     Uncor Max  =   .006 g, at   36.950 sec.    
RMS accel of (uncor) record  =        .   Chn. metadata effective date:         
Accelerogram bandpass filtered with 3 dB pts at   .30 and 23.00 cyc/sec         
                 instrument- and base-line correcte                             
                                                                                
                                                                                
                                                                                
                                                                                
                                                                                
Rcrd of Fri Sep 18, 2020 23:38:41.0 PDT    Fri Sep 18, 2020 23:38:41.0 PDT      
                                                                                
38695658.CI.HMT2.--.H     Hemet 2   Chan  1:  90 Deg                            
                                                                                
38695658.CI.HMT2.--.H     Hemet 2   Chan  1:  90 Deg                            
                                                                                
Units for spectra are inches and sec, except Sa is in fraction of g.            
                                                                                
    1  100    1    3    3  100 -999    3    1    0  605 5341    0    0   41    0
    6   38   41    8  263    9   19 2020   10    3   9035745   39    7   74 -999
35745 -999  100    6 -999 -999 -999 -999 -999 -999 -999 -999 -999 -999 -999 -999
 -999 -999 -999 -99915050    2 -999    0 -999   20 -999 -999    3    1 -99915050
    315050    4   78    1    3    5    0    0 -999    0 -999 -999    6 -999    2
    2    2    4 -999 -999 -999 -999 -999 -999 -999 -999    1 -999 -999 -999  111
    1    1 -999 -999
      .005      .707   357.450      .000     1.000  4992.468      .006    36.950
   200.000     2.384      .478  -999.000    10.000  -999.000     4.000  -999.000
    20.000    -7.484      .000  -999.000  -999.000  -999.000  -999.000      .001
     -.001     -.001     2.000    15.000    33.708  -117.002      .001      .001
     1.566     -.001     -.001   593.000  -999.000  -999.000  -999.000  -999.000
     1.000  -999.000    -8.000  -999.000  -999.000  -999.000  -999.000   120.000
     -.900     2.000     6.800   980.665      .020   301.000    31.831      .000
  -999.000    23.000  -999.000   301.000      .020      .300  -999.000  -999.000
    36.960     5.262    36.980      .144    36.100      .006      .000      .300
    23.000      .020      .020      .000      .020      .004  -999.000  -999.000
      .027      .110      .008      .005      .000      .000  -999.000  -999.000
  -999.000  -999.000  -999.000  -999.000  -999.000  -999.000  -999.000  -999.000
  -999.000  -999.000  -999.000  -999.000
      .050
      .040      .042      .044      .046      .048      .050      .055      .060
      .065      .070      .075      .080      .085      .090      .095      .100
      .110      .120      .130      .140      .150      .160      .170      .180
      .190      .200      .220      .240      .260      .280      .300      .320
      .340      .360      .380      .400      .420      .440      .460      .480
      .500      .550      .600      .650      .700      .750      .800      .850
      .900      .950     1.000     1.100     1.200     1.300     1.400     1.500
     1.600     1.700     1.800     1.900     2.000     2.200     2.400     2.600
     2.800     3.000     3.200     3.400     3.600     3.800     4.000     4.200
     4.400     4.600     4.800     5.000     5.500     6.000      .000      .000
      .000      .000      .000      .000      .000      .000      .000      .000
      .000      .000      .000      .000      .000      .000      .000      .000
      .000      .000      .000      .000
Fourier amplitude spectra in in/sec.
  .000E+00  .000E+00  .000E+00  .000E+00  .000E+00  .000E+00  .000E+00  .000E+00
  .000E+00  .000E+00  .000E+00  .000E+00  .000E+00  .000E+00  .000E+00  .000E+00
  .000E+00  .000E+00  .000E+00  .000E+00  .000E+00  .000E+00  .000E+00  .000E+00
  .000E+00  .000E+00  .000E+00  .000E+00  .000E+00  .000E+00  .000E+00  .000E+00
  .000E+00  .000E+00  .000E+00  .000E+00  .000E+00  .000E+00  .000E+00  .000E+00
  .000E+00  .000E+00  .000E+00  .000E+00  .000E+00  .000E+00  .000E+00  .000E+00
  .000E+00  .000E+00  .000E+00  .000E+00  .000E+00  .000E+00  .000E+00  .000E+00
  .000E+00  .000E+00  .000E+00  .000E+00  .000E+00  .000E+00  .000E+00  .000E+00
  .000E+00  .000E+00  .000E+00  .000E+00  .000E+00  .000E+00  .000E+00  .000E+00
  .000E+00  .000E+00  .000E+00  .000E+00  .000E+00  .000E+00  .000E+00  .000E+00
  .000E+00  .000E+00  .000E+00  .000E+00  .000E+00  .000E+00  .000E+00  .000E+00
  .000E+00  .000E+00  .000E+00  .000E+00  .000E+00  .000E+00  .000E+00  .000E+00
  .000E+00  .000E+00  .000E+00  .000E+00
Damping =  .05. Data of Sd,Sv,Sa,Pssv,ttSd,ttSv,ttSa :
  .966E-04  .106E-03  .115E-03  .124E-03  .142E-03  .178E-03  .272E-03  .297E-03
  .360E-03  .455E-03  .529E-03  .734E-03  .889E-03  .113E-02  .152E-02  .185E-02
  .330E-02  .360E-02  .341E-02  .338E-02  .274E-02  .269E-02  .250E-02  .256E-02
  .252E-02  .269E-02  .440E-02  .497E-02  .502E-02  .395E-02  .429E-02  .478E-02
  .497E-02  .419E-02  .319E-02  .277E-02  .266E-02  .281E-02  .293E-02  .249E-02
  .259E-02  .275E-02  .277E-02  .251E-02  .229E-02  .234E-02  .282E-02  .283E-02
  .333E-02  .344E-02  .344E-02  .354E-02  .401E-02  .436E-02  .409E-02  .394E-02
  .393E-02  .378E-02  .405E-02  .416E-02  .402E-02  .341E-02  .332E-02  .327E-02
  .305E-02  .281E-02  .266E-02  .258E-02  .259E-02  .259E-02  .257E-02  .253E-02
  .250E-02  .248E-02  .247E-02  .247E-02  .244E-02  .240E-02  .000E+00  .000E+00
  .000E+00  .000E+00  .000E+00  .000E+00  .000E+00  .000E+00  .000E+00  .000E+00
  .000E+00  .000E+00  .000E+00  .000E+00  .000E+00  .000E+00  .000E+00  .000E+00
  .000E+00  .000E+00  .000E+00  .000E+00
  .619E-02  .717E-02  .841E-02  .940E-02  .102E-01  .136E-01  .225E-01  .264E-01
  .285E-01  .337E-01  .405E-01  .519E-01  .619E-01  .729E-01  .969E-01  .100E+00
  .173E+00  .194E+00  .170E+00  .157E+00  .120E+00  .112E+00  .105E+00  .102E+00
  .989E-01  .807E-01  .123E+00  .138E+00  .138E+00  .963E-01  .114E+00  .116E+00
  .109E+00  .100E+00  .866E-01  .720E-01  .671E-01  .710E-01  .752E-01  .761E-01
  .725E-01  .548E-01  .529E-01  .611E-01  .647E-01  .634E-01  .577E-01  .504E-01
  .484E-01  .479E-01  .456E-01  .435E-01  .491E-01  .556E-01  .596E-01  .625E-01
  .633E-01  .634E-01  .630E-01  .626E-01  .617E-01  .594E-01  .570E-01  .551E-01
  .538E-01  .532E-01  .530E-01  .529E-01  .526E-01  .525E-01  .524E-01  .524E-01
  .524E-01  .524E-01  .523E-01  .523E-01  .523E-01  .523E-01  .000E+00  .000E+00
  .000E+00  .000E+00  .000E+00  .000E+00  .000E+00  .000E+00  .000E+00  .000E+00
  .000E+00  .000E+00  .000E+00  .000E+00  .000E+00  .000E+00  .000E+00  .000E+00
  .000E+00  .000E+00  .000E+00  .000E+00
  .616E-02  .618E-02  .607E-02  .598E-02  .631E-02  .735E-02  .916E-02  .843E-02
  .878E-02  .959E-02  .959E-02  .116E-01  .128E-01  .145E-01  .176E-01  .186E-01
  .275E-01  .259E-01  .207E-01  .175E-01  .127E-01  .107E-01  .894E-02  .818E-02
  .715E-02  .686E-02  .926E-02  .871E-02  .773E-02  .506E-02  .487E-02  .475E-02
  .437E-02  .330E-02  .231E-02  .181E-02  .155E-02  .148E-02  .144E-02  .114E-02
  .108E-02  .943E-03  .798E-03  .608E-03  .484E-03  .428E-03  .466E-03  .414E-03
  .434E-03  .401E-03  .361E-03  .308E-03  .311E-03  .289E-03  .238E-03  .193E-03
  .169E-03  .145E-03  .139E-03  .129E-03  .115E-03  .825E-04  .719E-04  .625E-04
  .527E-04  .437E-04  .377E-04  .339E-04  .306E-04  .275E-04  .249E-04  .228E-04
  .211E-04  .197E-04  .184E-04  .172E-04  .148E-04  .130E-04  .000E+00  .000E+00
  .000E+00  .000E+00  .000E+00  .000E+00  .000E+00  .000E+00  .000E+00  .000E+00
  .000E+00  .000E+00  .000E+00  .000E+00  .000E+00  .000E+00  .000E+00  .000E+00
  .000E+00  .000E+00  .000E+00  .000E+00
  .152E-01  .159E-01  .164E-01  .169E-01  .186E-01  .223E-01  .311E-01  .311E-01
  .348E-01  .408E-01  .443E-01  .576E-01  .657E-01  .792E-01  .101E+00  .116E+00
  .189E+00  .189E+00  .165E+00  .152E+00  .115E+00  .105E+00  .923E-01  .895E-01
  .833E-01  .846E-01  .126E+00  .130E+00  .121E+00  .885E-01  .899E-01  .939E-01
  .918E-01  .732E-01  .528E-01  .435E-01  .397E-01  .401E-01  .401E-01  .326E-01
  .326E-01  .314E-01  .290E-01  .243E-01  .206E-01  .196E-01  .221E-01  .209E-01
  .232E-01  .228E-01  .216E-01  .202E-01  .210E-01  .211E-01  .183E-01  .165E-01
  .154E-01  .140E-01  .141E-01  .138E-01  .126E-01  .974E-02  .868E-02  .790E-02
  .685E-02  .588E-02  .522E-02  .477E-02  .453E-02  .429E-02  .403E-02  .378E-02
  .357E-02  .339E-02  .324E-02  .311E-02  .279E-02  .252E-02  .000E+00  .000E+00
  .000E+00  .000E+00  .000E+00  .000E+00  .000E+00  .000E+00  .000E+00  .000E+00
  .000E+00  .000E+00  .000E+00  .000E+00  .000E+00  .000E+00  .000E+00  .000E+00
  .000E+00  .000E+00  .000E+00  .000E+00
  .369E+02  .369E+02  .370E+02  .370E+02  .373E+02  .373E+02  .373E+02  .373E+02
  .368E+02  .370E+02  .374E+02  .374E+02  .374E+02  .383E+02  .383E+02  .370E+02
  .370E+02  .370E+02  .370E+02  .370E+02  .370E+02  .371E+02  .371E+02  .405E+02
  .405E+02  .378E+02  .378E+02  .381E+02  .380E+02  .381E+02  .371E+02  .370E+02
  .377E+02  .376E+02  .376E+02  .362E+02  .362E+02  .374E+02  .384E+02  .384E+02
  .359E+02  .359E+02  .360E+02  .360E+02  .360E+02  .369E+02  .369E+02  .362E+02
  .362E+02  .362E+02  .367E+02  .362E+02  .376E+02  .370E+02  .370E+02  .372E+02
  .372E+02  .374E+02  .374E+02  .374E+02  .374E+02  .366E+02  .369E+02  .369E+02
  .369E+02  .361E+02  .361E+02  .361E+02  .361E+02  .361E+02  .361E+02  .361E+02
  .361E+02  .361E+02  .361E+02  .361E+02  .361E+02  .361E+02  .000E+00  .000E+00
  .000E+00  .000E+00  .000E+00  .000E+00  .000E+00  .000E+00  .000E+00  .000E+00
  .000E+00  .000E+00  .000E+00  .000E+00  .000E+00  .000E+00  .000E+00  .000E+00
  .000E+00  .000E+00  .000E+00  .000E+00
  .373E+02  .370E+02  .370E+02  .370E+02  .370E+02  .373E+02  .373E+02  .373E+02
  .374E+02  .384E+02  .374E+02  .374E+02  .374E+02  .384E+02  .383E+02  .370E+02
  .370E+02  .373E+02  .371E+02  .371E+02  .370E+02  .370E+02  .370E+02  .373E+02
  .373E+02  .379E+02  .378E+02  .381E+02  .381E+02  .377E+02  .370E+02  .370E+02
  .378E+02  .370E+02  .370E+02  .370E+02  .370E+02  .370E+02  .370E+02  .370E+02
  .370E+02  .370E+02  .370E+02  .370E+02  .370E+02  .370E+02  .370E+02  .368E+02
  .368E+02  .369E+02  .369E+02  .372E+02  .372E+02  .370E+02  .370E+02  .370E+02
  .370E+02  .370E+02  .370E+02  .370E+02  .370E+02  .370E+02  .370E+02  .370E+02
  .370E+02  .370E+02  .370E+02  .370E+02  .370E+02  .370E+02  .370E+02  .370E+02
  .370E+02  .370E+02  .370E+02  .370E+02  .370E+02  .370E+02  .000E+00  .000E+00
  .000E+00  .000E+00  .000E+00  .000E+00  .000E+00  .000E+00  .000E+00  .000E+00
  .000E+00  .000E+00  .000E+00  .000E+00  .000E+00  .000E+00  .000E+00  .000E+00
  .000E+00  .000E+00  .000E+00  .000E+00
  .369E+02  .369E+02  .369E+02  .369E+02  .373E+02  .373E+02  .373E+02  .373E+02
  .368E+02  .370E+02  .374E+02  .374E+02  .374E+02  .383E+02  .383E+02  .370E+02
  .370E+02  .370E+02  .371E+02  .370E+02  .370E+02  .370E+02  .371E+02  .405E+02
  .405E+02  .378E+02  .378E+02  .381E+02  .380E+02  .381E+02  .371E+02  .379E+02
  .377E+02  .375E+02  .376E+02  .362E+02  .385E+02  .374E+02  .384E+02  .384E+02
  .359E+02  .359E+02  .359E+02  .360E+02  .360E+02  .369E+02  .369E+02  .362E+02
  .362E+02  .362E+02  .362E+02  .362E+02  .370E+02  .370E+02  .370E+02  .370E+02
  .372E+02  .372E+02  .374E+02  .374E+02  .374E+02  .374E+02  .369E+02  .369E+02
  .369E+02  .369E+02  .369E+02  .369E+02  .369E+02  .369E+02  .369E+02  .369E+02
  .369E+02  .369E+02  .369E+02  .369E+02  .369E+02  .369E+02  .000E+00  .000E+00
  .000E+00  .000E+00  .000E+00  .000E+00  .000E+00  .000E+00  .000E+00  .000E+00
  .000E+00  .000E+00  .000E+00  .000E+00  .000E+00  .000E+00  .000E+00  .000E+00
  .000E+00  .000E+00  .000E+00  .000E+00
/&   ----------  End of spectral data for channel  1  ----------
Response and Fourier amplitude spectra (78 periods,  .04 -  6.0 sec)   for      
Corrected accelerogram   38695658.CI.HMT2.--.H      Chan  2: 360 Deg     from   
Uncorrected Accelerogram Data             Processed: 09/19/20, CGS  cihmt2-h    
Rcrd of Fri Sep 18, 2020 23:38:41.0 PDT               (Avol1 v2.0, 4/18 CSMIP)  
                                        (Origin:  To be determined)             
38695658.CI.HMT2.--.H                Start time:  9/19/20, 06:38:41.0 UTC (GPS) 
Station Id. HMT2    33.708N, 117.002W    Q330    s/n 5341  (3 Chns of  3 at Sta)
Hemet 2                                  SCSN   Data: Acceleration              
Chan  2: 360 Deg                                                                
Rcrd of Fri Sep 18, 2020 23:38:41.0 PDT    Fri Sep 18, 2020 23:38:41.0 PDT      
Hypocenter:  To be determined.               ML:  To be determined.             
Instr Period =  .0050 sec,  Damping =  .707,  Sensitivity = 4.99 v/g  (Nominal) 
                        Record Length =301.000 sec.                             
                                     Uncor Max  =   .004 g, at   36.630 sec.    
RMS accel of (uncor) record  =        .   Chn. metadata effective date:         
Accelerogram bandpass filtered with 3 dB pts at   .30 and 23.00 cyc/sec         
                 instrument- and base-line correcte                             
                                                                                
                                                                                
                                                                                
                                                                                
                                                                                
Rcrd of Fri Sep 18, 2020 23:38:41.0 PDT    Fri Sep 18, 2020 23:38:41.0 PDT      
                                                                                
38695658.CI.HMT2.--.H     Hemet 2   Chan  2: 360 Deg                            
                                                                                
38695658.CI.HMT2.--.H     Hemet 2   Chan  2: 360 Deg                            
                                                                                
Units for spectra are inches and sec, except Sa is in fraction of g.            
                                                                                
    2  100    2    3    3  100 -999    3    1    0  605 5341    0    0   41    0
    6   38   41    8  263    9   19 2020   10    3  36035659   39    7   74 -999
35659 -999  100    6 -999 -999 -999 -999 -999 -999 -999 -999 -999 -999 -999 -999
 -999 -999 -999 -99915050    2 -999    0 -999   20 -999 -999    3    1 -99915050
    315050    4   78    1    3    5    0    0 -999    0 -999 -999    6 -999    2
    2    2    4 -999 -999 -999 -999 -999 -999 -999 -999    1 -999 -999 -999  111
    1    1 -999 -999
      .005      .707   356.590      .000     1.000  4988.479      .004    36.630
   200.000     2.384      .478  -999.000    10.000  -999.000     4.000  -999.000
    20.000    -9.133      .000  -999.000  -999.000  -999.000  -999.000      .000
      .000      .001     2.000    15.000    33.708  -117.002      .001      .001
     1.135      .000      .001   593.000  -999.000  -999.000  -999.000  -999.000
     1.000  -999.000  -999.000  -999.000  -999.000  -999.000  -999.000   120.000
     -.900     2.000     6.800   980.665      .020   301.000    31.831      .000
  -999.000    23.000  -999.000   301.000      .020      .300  -999.000  -999.000
    36.620     3.989    36.660      .101    36.100      .006      .000      .300
    23.000      .020      .020      .000      .020      .003  -999.000  -999.000
      .017      .110      .005      .004      .000      .000  -999.000  -999.000
  -999.000  -999.000  -999.000  -999.000  -999.000  -999.000  -999.000  -999.000
  -999.000  -999.000  -999.000  -999.000
      .050
      .040      .042      .044      .046      .048      .050      .055      .060
      .065      .070      .075      .080      .085      .090      .095      .100
      .110      .120      .130      .140      .150      .160      .170      .180
      .190      .200      .220      .240      .260      .280      .300      .320
      .340      .360      .380      .400      .420      .440      .460      .480
      .500      .550      .600      .650      .700      .750      .800      .850
      .900      .950     1.000     1.100     1.200     1.300     1.400     1.500
     1.600     1.700     1.800     1.900     2.000     2.200     2.400     2.600
     2.800     3.000     3.200     3.400     3.600     3.800     4.000     4.200
     4.400     4.600     4.800     5.000     5.500     6.000      .000      .000
      .000      .000      .000      .000      .000      .000      .000      .000
      .000      .000      .000      .000      .000      .000      .000      .000
      .000      .000      .000      .000
Fourier amplitude spectra in in/sec.
  .000E+00  .000E+00  .000E+00  .000E+00  .000E+00  .000E+00  .000E+00  .000E+00
  .000E+00  .000E+00  .000E+00  .000E+00  .000E+00  .000E+00  .000E+00  .000E+00
  .000E+00  .000E+00  .000E+00  .000E+00  .000E+00  .000E+00  .000E+00  .000E+00
  .000E+00  .000E+00  .000E+00  .000E+00  .000E+00  .000E+00  .000E+00  .000E+00
  .000E+00  .000E+00  .000E+00  .000E+00  .000E+00  .000E+00  .000E+00  .000E+00
  .000E+00  .000E+00  .000E+00  .000E+00  .000E+00  .000E+00  .000E+00  .000E+00
  .000E+00  .000E+00  .000E+00  .000E+00  .000E+00  .000E+00  .000E+00  .000E+00
  .000E+00  .000E+00  .000E+00  .000E+00  .000E+00  .000E+00  .000E+00  .000E+00
  .000E+00  .000E+00  .000E+00  .000E+00  .000E+00  .000E+00  .000E+00  .000E+00
  .000E+00  .000E+00  .000E+00  .000E+00  .000E+00  .000E+00  .000E+00  .000E+00
  .000E+00  .000E+00  .000E+00  .000E+00  .000E+00  .000E+00  .000E+00  .000E+00
  .000E+00  .000E+00  .000E+00  .000E+00  .000E+00  .000E+00  .000E+00  .000E+00
  .000E+00  .000E+00  .000E+00  .000E+00
Damping =  .05. Data of Sd,Sv,Sa,Pssv,ttSd,ttSv,ttSa :
  .697E-04  .786E-04  .949E-04  .109E-03  .115E-03  .130E-03  .174E-03  .214E-03
  .295E-03  .407E-03  .514E-03  .643E-03  .725E-03  .870E-03  .101E-02  .123E-02
  .207E-02  .218E-02  .184E-02  .227E-02  .235E-02  .226E-02  .204E-02  .180E-02
  .190E-02  .222E-02  .233E-02  .326E-02  .310E-02  .323E-02  .347E-02  .368E-02
  .382E-02  .342E-02  .329E-02  .327E-02  .267E-02  .245E-02  .261E-02  .253E-02
