Response and Fourier amplitude spectra (78 periods,  .04 -  6.0 sec)   for      
Corrected accelerogram   38695658.CI.HOL.--.HN      Chan  1:  90 Deg     from   
Uncorrected Accelerogram Data             Processed: 09/19/20, CGS  cihol--o    
Rcrd of Fri Sep 18, 2020 23:38:34.0 PDT               (Avol1 v2.0, 4/18 CSMIP)  
                                        (Origin:  To be determined)             
38695658.CI.HOL.--.HN                Start time:  9/19/20, 06:38:34.0 UTC (GPS) 
Station Id. HOL     34.458N, 117.845W    Q330    s/n 5455  (3 Chns of  3 at Sta)
Holcomb Ridge                            SCSN   Data: Acceleration              
Chan  1:  90 Deg                                                                
Rcrd of Fri Sep 18, 2020 23:38:34.0 PDT    Fri Sep 18, 2020 23:38:34.0 PDT      
Hypocenter:  To be determined.               ML:  To be determined.             
Instr Period =  .0050 sec,  Damping =  .707,  Sensitivity = 4.97 v/g  (Nominal) 
                        Record Length =301.000 sec.                             
                                     Uncor Max  =  -.002 g, at   29.770 sec.    
RMS accel of (uncor) record  =        .   Chn. metadata effective date:         
Accelerogram bandpass filtered with 3 dB pts at   .30 and 23.00 cyc/sec         
                 instrument- and base-line correcte                             
                                                                                
                                                                                
                                                                                
                                                                                
                                                                                
Rcrd of Fri Sep 18, 2020 23:38:34.0 PDT    Fri Sep 18, 2020 23:38:34.0 PDT      
                                                                                
38695658.CI.HOL.--.HN     Holcomb Ridge   Chan  1:  90 Deg                      
                                                                                
38695658.CI.HOL.--.HN     Holcomb Ridge   Chan  1:  90 Deg                      
                                                                                
Units for spectra are inches and sec, except Sa is in fraction of g.            
                                                                                
    1  100    1    3    3  100 -999    3    1    0  605 5455    050787   41    0
    6   38   34    8  263    9   19 2020   10    3   9035910   39   13   74 -999
35910 -999  100    6 -999 -999 -999 -999 -999 -999 -999 -999 -999 -999 -999 -999
 -999 -999 -999 -99915050    2 -999    0 -999   20 -999 -999    3    1 -99915050
    315050    4   78    1    3    5    0    0 -999    0 -999 -999    6 -999    2
    2    2    4 -999 -999 -999 -999 -999 -999 -999 -999    1 -999 -999 -999  111
    1    1 -999 -999
      .005      .707   359.100      .000     1.000  4972.522     -.002    29.770
   200.000     2.384      .479  -999.000    10.000  -999.000     4.000  -999.000
    20.000   -24.535      .000  -999.000  -999.000  -999.000  -999.000     -.001
      .000      .001     2.000    15.000    34.458  -117.845      .001      .001
      .987      .001      .001  1267.000  -999.000  -999.000  -999.000  -999.000
     1.000  -999.000    -8.000  -999.000  -999.000  -999.000  -999.000   120.000
     -.900     2.000     6.800   980.665      .020   301.000    31.831      .000
  -999.000    23.000  -999.000   301.000      .020      .300  -999.000  -999.000
    30.780     2.306    33.400     -.077    31.340     -.008      .000      .300
    23.000      .020      .020      .000      .020      .004  -999.000  -999.000
      .009      .090      .004      .005      .001      .000  -999.000  -999.000
  -999.000  -999.000  -999.000  -999.000  -999.000  -999.000  -999.000  -999.000
  -999.000  -999.000  -999.000  -999.000
      .050
      .040      .042      .044      .046      .048      .050      .055      .060
      .065      .070      .075      .080      .085      .090      .095      .100
      .110      .120      .130      .140      .150      .160      .170      .180
      .190      .200      .220      .240      .260      .280      .300      .320
      .340      .360      .380      .400      .420      .440      .460      .480
      .500      .550      .600      .650      .700      .750      .800      .850
      .900      .950     1.000     1.100     1.200     1.300     1.400     1.500
     1.600     1.700     1.800     1.900     2.000     2.200     2.400     2.600
     2.800     3.000     3.200     3.400     3.600     3.800     4.000     4.200
     4.400     4.600     4.800     5.000     5.500     6.000      .000      .000
      .000      .000      .000      .000      .000      .000      .000      .000
      .000      .000      .000      .000      .000      .000      .000      .000
      .000      .000      .000      .000
Fourier amplitude spectra in in/sec.
  .000E+00  .000E+00  .000E+00  .000E+00  .000E+00  .000E+00  .000E+00  .000E+00
  .000E+00  .000E+00  .000E+00  .000E+00  .000E+00  .000E+00  .000E+00  .000E+00
  .000E+00  .000E+00  .000E+00  .000E+00  .000E+00  .000E+00  .000E+00  .000E+00
  .000E+00  .000E+00  .000E+00  .000E+00  .000E+00  .000E+00  .000E+00  .000E+00
  .000E+00  .000E+00  .000E+00  .000E+00  .000E+00  .000E+00  .000E+00  .000E+00
  .000E+00  .000E+00  .000E+00  .000E+00  .000E+00  .000E+00  .000E+00  .000E+00
  .000E+00  .000E+00  .000E+00  .000E+00  .000E+00  .000E+00  .000E+00  .000E+00
  .000E+00  .000E+00  .000E+00  .000E+00  .000E+00  .000E+00  .000E+00  .000E+00
  .000E+00  .000E+00  .000E+00  .000E+00  .000E+00  .000E+00  .000E+00  .000E+00
  .000E+00  .000E+00  .000E+00  .000E+00  .000E+00  .000E+00  .000E+00  .000E+00
  .000E+00  .000E+00  .000E+00  .000E+00  .000E+00  .000E+00  .000E+00  .000E+00
  .000E+00  .000E+00  .000E+00  .000E+00  .000E+00  .000E+00  .000E+00  .000E+00
  .000E+00  .000E+00  .000E+00  .000E+00
Damping =  .05. Data of Sd,Sv,Sa,Pssv,ttSd,ttSv,ttSa :
  .426E-04  .482E-04  .553E-04  .625E-04  .727E-04  .838E-04  .117E-03  .184E-03
  .248E-03  .332E-03  .394E-03  .477E-03  .643E-03  .720E-03  .716E-03  .754E-03
  .805E-03  .103E-02  .107E-02  .113E-02  .121E-02  .142E-02  .115E-02  .115E-02
  .147E-02  .167E-02  .175E-02  .237E-02  .295E-02  .309E-02  .449E-02  .531E-02
  .578E-02  .534E-02  .645E-02  .649E-02  .496E-02  .430E-02  .451E-02  .488E-02
  .500E-02  .608E-02  .675E-02  .700E-02  .673E-02  .678E-02  .702E-02  .715E-02
  .708E-02  .716E-02  .698E-02  .755E-02  .728E-02  .724E-02  .666E-02  .737E-02
  .674E-02  .800E-02  .835E-02  .820E-02  .796E-02  .836E-02  .638E-02  .525E-02
  .442E-02  .422E-02  .419E-02  .419E-02  .419E-02  .417E-02  .410E-02  .400E-02
  .389E-02  .379E-02  .369E-02  .365E-02  .356E-02  .348E-02  .000E+00  .000E+00
  .000E+00  .000E+00  .000E+00  .000E+00  .000E+00  .000E+00  .000E+00  .000E+00
  .000E+00  .000E+00  .000E+00  .000E+00  .000E+00  .000E+00  .000E+00  .000E+00
  .000E+00  .000E+00  .000E+00  .000E+00
  .339E-02  .351E-02  .366E-02  .431E-02  .501E-02  .569E-02  .107E-01  .143E-01
  .197E-01  .230E-01  .263E-01  .312E-01  .413E-01  .456E-01  .476E-01  .506E-01
  .455E-01  .476E-01  .498E-01  .537E-01  .480E-01  .573E-01  .457E-01  .417E-01
  .505E-01  .514E-01  .504E-01  .645E-01  .716E-01  .689E-01  .931E-01  .103E+00
  .113E+00  .969E-01  .112E+00  .103E+00  .837E-01  .724E-01  .670E-01  .759E-01
  .768E-01  .884E-01  .840E-01  .655E-01  .676E-01  .680E-01  .751E-01  .601E-01
  .594E-01  .694E-01  .689E-01  .551E-01  .591E-01  .472E-01  .401E-01  .433E-01
  .498E-01  .525E-01  .489E-01  .471E-01  .482E-01  .451E-01  .384E-01  .345E-01
  .335E-01  .323E-01  .317E-01  .317E-01  .321E-01  .324E-01  .324E-01  .322E-01
  .318E-01  .314E-01  .311E-01  .309E-01  .305E-01  .303E-01  .000E+00  .000E+00
  .000E+00  .000E+00  .000E+00  .000E+00  .000E+00  .000E+00  .000E+00  .000E+00
  .000E+00  .000E+00  .000E+00  .000E+00  .000E+00  .000E+00  .000E+00  .000E+00
  .000E+00  .000E+00  .000E+00  .000E+00
  .272E-02  .280E-02  .295E-02  .299E-02  .325E-02  .346E-02  .403E-02  .526E-02
  .609E-02  .697E-02  .726E-02  .761E-02  .901E-02  .915E-02  .818E-02  .793E-02
  .679E-02  .745E-02  .653E-02  .601E-02  .548E-02  .575E-02  .406E-02  .360E-02
  .422E-02  .420E-02  .372E-02  .416E-02  .440E-02  .401E-02  .512E-02  .532E-02
  .520E-02  .428E-02  .460E-02  .418E-02  .287E-02  .229E-02  .220E-02  .218E-02
  .206E-02  .206E-02  .194E-02  .170E-02  .142E-02  .124E-02  .113E-02  .102E-02
  .904E-03  .815E-03  .719E-03  .646E-03  .521E-03  .442E-03  .353E-03  .340E-03
  .272E-03  .290E-03  .267E-03  .235E-03  .207E-03  .179E-03  .117E-03  .829E-04
  .610E-04  .524E-04  .462E-04  .413E-04  .372E-04  .335E-04  .301E-04  .271E-04
  .243E-04  .220E-04  .199E-04  .182E-04  .150E-04  .126E-04  .000E+00  .000E+00
  .000E+00  .000E+00  .000E+00  .000E+00  .000E+00  .000E+00  .000E+00  .000E+00
  .000E+00  .000E+00  .000E+00  .000E+00  .000E+00  .000E+00  .000E+00  .000E+00
  .000E+00  .000E+00  .000E+00  .000E+00
  .668E-02  .721E-02  .790E-02  .853E-02  .952E-02  .105E-01  .134E-01  .192E-01
  .240E-01  .298E-01  .330E-01  .375E-01  .475E-01  .502E-01  .474E-01  .474E-01
  .460E-01  .540E-01  .516E-01  .507E-01  .507E-01  .556E-01  .425E-01  .400E-01
  .488E-01  .523E-01  .501E-01  .621E-01  .712E-01  .695E-01  .941E-01  .104E+00
  .107E+00  .933E-01  .107E+00  .102E+00  .742E-01  .614E-01  .616E-01  .638E-01
  .628E-01  .695E-01  .707E-01  .677E-01  .604E-01  .568E-01  .551E-01  .529E-01
  .494E-01  .473E-01  .438E-01  .431E-01  .381E-01  .350E-01  .299E-01  .309E-01
  .265E-01  .296E-01  .292E-01  .271E-01  .250E-01  .239E-01  .167E-01  .127E-01
  .991E-02  .883E-02  .823E-02  .775E-02  .732E-02  .689E-02  .644E-02  .598E-02
  .556E-02  .517E-02  .483E-02  .459E-02  .407E-02  .364E-02  .000E+00  .000E+00
  .000E+00  .000E+00  .000E+00  .000E+00  .000E+00  .000E+00  .000E+00  .000E+00
  .000E+00  .000E+00  .000E+00  .000E+00  .000E+00  .000E+00  .000E+00  .000E+00
  .000E+00  .000E+00  .000E+00  .000E+00
  .298E+02  .298E+02  .295E+02  .295E+02  .300E+02  .300E+02  .295E+02  .295E+02
  .295E+02  .308E+02  .300E+02  .300E+02  .300E+02  .300E+02  .298E+02  .298E+02
  .296E+02  .309E+02  .309E+02  .309E+02  .312E+02  .323E+02  .313E+02  .309E+02
  .309E+02  .309E+02  .350E+02  .350E+02  .350E+02  .323E+02  .322E+02  .324E+02
  .326E+02  .347E+02  .345E+02  .342E+02  .338E+02  .338E+02  .301E+02  .301E+02
  .299E+02  .317E+02  .321E+02  .321E+02  .337E+02  .337E+02  .319E+02  .320E+02
  .295E+02  .296E+02  .306E+02  .319E+02  .320E+02  .379E+02  .348E+02  .335E+02
  .323E+02  .316E+02  .316E+02  .317E+02  .318E+02  .375E+02  .335E+02  .313E+02
  .313E+02  .283E+02  .283E+02  .283E+02  .283E+02  .283E+02  .283E+02  .283E+02
  .283E+02  .283E+02  .283E+02  .313E+02  .313E+02  .313E+02  .000E+00  .000E+00
  .000E+00  .000E+00  .000E+00  .000E+00  .000E+00  .000E+00  .000E+00  .000E+00
  .000E+00  .000E+00  .000E+00  .000E+00  .000E+00  .000E+00  .000E+00  .000E+00
  .000E+00  .000E+00  .000E+00  .000E+00
  .308E+02  .308E+02  .295E+02  .295E+02  .299E+02  .304E+02  .295E+02  .295E+02
  .295E+02  .308E+02  .300E+02  .300E+02  .300E+02  .300E+02  .298E+02  .298E+02
  .295E+02  .309E+02  .331E+02  .330E+02  .322E+02  .322E+02  .330E+02  .309E+02
  .310E+02  .310E+02  .350E+02  .351E+02  .351E+02  .322E+02  .323E+02  .323E+02
  .328E+02  .346E+02  .346E+02  .341E+02  .341E+02  .337E+02  .300E+02  .300E+02
  .300E+02  .338E+02  .322E+02  .320E+02  .338E+02  .336E+02  .321E+02  .314E+02
  .297E+02  .308E+02  .308E+02  .321E+02  .336E+02  .336E+02  .345E+02  .334E+02
  .319E+02  .319E+02  .319E+02  .314E+02  .315E+02  .315E+02  .315E+02  .334E+02
  .334E+02  .334E+02  .334E+02  .334E+02  .334E+02  .334E+02  .334E+02  .334E+02
  .334E+02  .334E+02  .334E+02  .334E+02  .334E+02  .334E+02  .000E+00  .000E+00
  .000E+00  .000E+00  .000E+00  .000E+00  .000E+00  .000E+00  .000E+00  .000E+00
  .000E+00  .000E+00  .000E+00  .000E+00  .000E+00  .000E+00  .000E+00  .000E+00
  .000E+00  .000E+00  .000E+00  .000E+00
  .298E+02  .298E+02  .295E+02  .295E+02  .300E+02  .300E+02  .295E+02  .295E+02
  .295E+02  .308E+02  .300E+02  .300E+02  .300E+02  .300E+02  .298E+02  .298E+02
  .296E+02  .309E+02  .309E+02  .331E+02  .312E+02  .323E+02  .313E+02  .309E+02
  .309E+02  .309E+02  .350E+02  .350E+02  .350E+02  .323E+02  .323E+02  .324E+02
  .326E+02  .347E+02  .345E+02  .342E+02  .338E+02  .338E+02  .301E+02  .301E+02
  .299E+02  .317E+02  .321E+02  .321E+02  .337E+02  .337E+02  .319E+02  .320E+02
  .295E+02  .295E+02  .306E+02  .319E+02  .320E+02  .379E+02  .348E+02  .335E+02
  .323E+02  .315E+02  .316E+02  .317E+02  .318E+02  .375E+02  .335E+02  .313E+02
  .313E+02  .283E+02  .283E+02  .283E+02  .283E+02  .283E+02  .283E+02  .283E+02
  .283E+02  .283E+02  .283E+02  .283E+02  .283E+02  .283E+02  .000E+00  .000E+00
  .000E+00  .000E+00  .000E+00  .000E+00  .000E+00  .000E+00  .000E+00  .000E+00
  .000E+00  .000E+00  .000E+00  .000E+00  .000E+00  .000E+00  .000E+00  .000E+00
  .000E+00  .000E+00  .000E+00  .000E+00
/&   ----------  End of spectral data for channel  1  ----------
Response and Fourier amplitude spectra (78 periods,  .04 -  6.0 sec)   for      
Corrected accelerogram   38695658.CI.HOL.--.HN      Chan  2: 360 Deg     from   
Uncorrected Accelerogram Data             Processed: 09/19/20, CGS  cihol--o    
Rcrd of Fri Sep 18, 2020 23:38:34.0 PDT               (Avol1 v2.0, 4/18 CSMIP)  
                                        (Origin:  To be determined)             
38695658.CI.HOL.--.HN                Start time:  9/19/20, 06:38:34.0 UTC (GPS) 
Station Id. HOL     34.458N, 117.845W    Q330    s/n 5455  (3 Chns of  3 at Sta)
Holcomb Ridge                            SCSN   Data: Acceleration              
Chan  2: 360 Deg                                                                
Rcrd of Fri Sep 18, 2020 23:38:34.0 PDT    Fri Sep 18, 2020 23:38:34.0 PDT      
Hypocenter:  To be determined.               ML:  To be determined.             
Instr Period =  .0050 sec,  Damping =  .707,  Sensitivity = 4.98 v/g  (Nominal) 
                        Record Length =301.000 sec.                             
                                     Uncor Max  =  -.002 g, at   33.290 sec.    
RMS accel of (uncor) record  =        .   Chn. metadata effective date:         
Accelerogram bandpass filtered with 3 dB pts at   .30 and 23.00 cyc/sec         
                 instrument- and base-line correcte                             
                                                                                
                                                                                
                                                                                
                                                                                
                                                                                
Rcrd of Fri Sep 18, 2020 23:38:34.0 PDT    Fri Sep 18, 2020 23:38:34.0 PDT      
                                                                                
38695658.CI.HOL.--.HN     Holcomb Ridge   Chan  2: 360 Deg                      
                                                                                
38695658.CI.HOL.--.HN     Holcomb Ridge   Chan  2: 360 Deg                      
                                                                                
Units for spectra are inches and sec, except Sa is in fraction of g.            
                                                                                
    2  100    2    3    3  100 -999    3    1    0  605 5455    050787   41    0
    6   38   34    8  263    9   19 2020   10    3  36035680   39   13   74 -999
35680 -999  100    6 -999 -999 -999 -999 -999 -999 -999 -999 -999 -999 -999 -999
 -999 -999 -999 -99915050    2 -999    0 -999   20 -999 -999    3    1 -99915050
    315050    4   78    1    3    5    0    0 -999    0 -999 -999    6 -999    2
    2    2    4 -999 -999 -999 -999 -999 -999 -999 -999    1 -999 -999 -999  111
    1    1 -999 -999
      .005      .707   356.800      .000     1.000  4984.489     -.002    33.290
   200.000     2.384      .478  -999.000    10.000  -999.000     4.000  -999.000
    20.000     3.964      .000  -999.000  -999.000  -999.000  -999.000     -.001
      .001      .002     2.000    15.000    34.458  -117.845      .001      .001
      .983      .002      .002  1267.000  -999.000  -999.000  -999.000  -999.000
     1.000  -999.000  -999.000  -999.000  -999.000  -999.000  -999.000   120.000
     -.900     2.000     6.800   980.665      .020   301.000    31.831      .000
  -999.000    23.000  -999.000   301.000      .020      .300  -999.000  -999.000
    33.300    -2.294    33.240      .075    34.100      .006      .000      .300
    23.000      .020      .020      .000      .020      .004  -999.000  -999.000
      .007      .150      .005      .005      .000      .000  -999.000  -999.000
  -999.000  -999.000  -999.000  -999.000  -999.000  -999.000  -999.000  -999.000
  -999.000  -999.000  -999.000  -999.000
      .050
      .040      .042      .044      .046      .048      .050      .055      .060
      .065      .070      .075      .080      .085      .090      .095      .100
      .110      .120      .130      .140      .150      .160      .170      .180
      .190      .200      .220      .240      .260      .280      .300      .320
      .340      .360      .380      .400      .420      .440      .460      .480
      .500      .550      .600      .650      .700      .750      .800      .850
      .900      .950     1.000     1.100     1.200     1.300     1.400     1.500
     1.600     1.700     1.800     1.900     2.000     2.200     2.400     2.600
     2.800     3.000     3.200     3.400     3.600     3.800     4.000     4.200
     4.400     4.600     4.800     5.000     5.500     6.000      .000      .000
      .000      .000      .000      .000      .000      .000      .000      .000
      .000      .000      .000      .000      .000      .000      .000      .000
      .000      .000      .000      .000
Fourier amplitude spectra in in/sec.
  .000E+00  .000E+00  .000E+00  .000E+00  .000E+00  .000E+00  .000E+00  .000E+00
  .000E+00  .000E+00  .000E+00  .000E+00  .000E+00  .000E+00  .000E+00  .000E+00
  .000E+00  .000E+00  .000E+00  .000E+00  .000E+00  .000E+00  .000E+00  .000E+00
  .000E+00  .000E+00  .000E+00  .000E+00  .000E+00  .000E+00  .000E+00  .000E+00
  .000E+00  .000E+00  .000E+00  .000E+00  .000E+00  .000E+00  .000E+00  .000E+00
  .000E+00  .000E+00  .000E+00  .000E+00  .000E+00  .000E+00  .000E+00  .000E+00
  .000E+00  .000E+00  .000E+00  .000E+00  .000E+00  .000E+00  .000E+00  .000E+00
  .000E+00  .000E+00  .000E+00  .000E+00  .000E+00  .000E+00  .000E+00  .000E+00
  .000E+00  .000E+00  .000E+00  .000E+00  .000E+00  .000E+00  .000E+00  .000E+00
  .000E+00  .000E+00  .000E+00  .000E+00  .000E+00  .000E+00  .000E+00  .000E+00
  .000E+00  .000E+00  .000E+00  .000E+00  .000E+00  .000E+00  .000E+00  .000E+00
  .000E+00  .000E+00  .000E+00  .000E+00  .000E+00  .000E+00  .000E+00  .000E+00
  .000E+00  .000E+00  .000E+00  .000E+00
Damping =  .05. Data of Sd,Sv,Sa,Pssv,ttSd,ttSv,ttSa :
  .404E-04  .477E-04  .571E-04  .635E-04  .694E-04  .751E-04  .108E-03  .131E-03
  .236E-03  .280E-03  .274E-03  .366E-03  .418E-03  .510E-03  .507E-03  .592E-03
  .568E-03  .891E-03  .118E-02  .129E-02  .158E-02  .139E-02  .168E-02  .151E-02
  .166E-02  .183E-02  .282E-02  .330E-02  .379E-02  .412E-02  .404E-02  .397E-02
  .449E-02  .622E-02  .765E-02  .830E-02  .752E-02  .572E-02  .521E-02  .512E-02
