Response and Fourier amplitude spectra (78 periods,  .04 -  6.0 sec)   for      
Corrected accelerogram   38695658.CI.HYS.--.HN      Chan  1:  90 Deg     from   
Uncorrected Accelerogram Data             Processed: 09/19/20, CGS  cihys--e    
Rcrd of Fri Sep 18, 2020 23:38:41.0 PDT               (Avol1 v2.0, 4/18 CSMIP)  
                                        (Origin:  To be determined)             
38695658.CI.HYS.--.HN                Start time:  9/19/20, 06:38:41.0 UTC (GPS) 
Station Id. HYS     34.865N, 117.570W    Q330    s/n 4166  (3 Chns of  3 at Sta)
Haystack Butte                           SCSN   Data: Acceleration              
Chan  1:  90 Deg                                                                
Rcrd of Fri Sep 18, 2020 23:38:41.0 PDT    Fri Sep 18, 2020 23:38:41.0 PDT      
Hypocenter:  To be determined.               ML:  To be determined.             
Instr Period =  .0050 sec,  Damping =  .707,  Sensitivity = 4.99 v/g  (Nominal) 
                        Record Length =301.000 sec.                             
                                     Uncor Max  =   .003 g, at   36.550 sec.    
RMS accel of (uncor) record  =        .   Chn. metadata effective date:         
Accelerogram bandpass filtered with 3 dB pts at   .30 and 23.00 cyc/sec         
                 instrument- and base-line correcte                             
                                                                                
                                                                                
                                                                                
                                                                                
                                                                                
Rcrd of Fri Sep 18, 2020 23:38:41.0 PDT    Fri Sep 18, 2020 23:38:41.0 PDT      
                                                                                
38695658.CI.HYS.--.HN     Haystack Butte    Chan  1:  90 Deg                    
                                                                                
38695658.CI.HYS.--.HN     Haystack Butte    Chan  1:  90 Deg                    
                                                                                
Units for spectra are inches and sec, except Sa is in fraction of g.            
                                                                                
    1  100    1    3    3  100 -999    3    1    0  605 4166    050788   41    0
    6   38   41    8  263    9   19 2020   10    3   9035431   39   14   74 -999
35431 -999  100    6 -999 -999 -999 -999 -999 -999 -999 -999 -999 -999 -999 -999
 -999 -999 -999 -99915050    2 -999    0 -999   20 -999 -999    3    1 -99915050
    315050    4   78    1    3    5    0    0 -999    0 -999 -999    6 -999    2
    2    2    4 -999 -999 -999 -999 -999 -999 -999 -999    1 -999 -999 -999  111
    1    1 -999 -999
      .005      .707   354.310      .000     1.000  4992.867      .003    36.550
   200.000     2.384      .478  -999.000    10.000  -999.000     4.000  -999.000
    20.000     7.186      .000  -999.000  -999.000  -999.000  -999.000     -.001
      .000      .001     2.000    15.000    34.865  -117.570      .001      .001
     1.085      .000      .001   833.000  -999.000  -999.000  -999.000  -999.000
     1.000  -999.000    -8.000  -999.000  -999.000  -999.000  -999.000   120.000
     -.900     2.000     6.800   980.665      .020   301.000    31.831      .000
  -999.000    23.000  -999.000   301.000      .020      .300  -999.000  -999.000
    36.540     2.428    36.500     -.101    37.320      .005      .000      .300
    23.000      .020      .020      .000      .020      .002  -999.000  -999.000
      .010      .120      .004      .004      .001      .000  -999.000  -999.000
  -999.000  -999.000  -999.000  -999.000  -999.000  -999.000  -999.000  -999.000
  -999.000  -999.000  -999.000  -999.000
      .050
      .040      .042      .044      .046      .048      .050      .055      .060
      .065      .070      .075      .080      .085      .090      .095      .100
      .110      .120      .130      .140      .150      .160      .170      .180
      .190      .200      .220      .240      .260      .280      .300      .320
      .340      .360      .380      .400      .420      .440      .460      .480
      .500      .550      .600      .650      .700      .750      .800      .850
      .900      .950     1.000     1.100     1.200     1.300     1.400     1.500
     1.600     1.700     1.800     1.900     2.000     2.200     2.400     2.600
     2.800     3.000     3.200     3.400     3.600     3.800     4.000     4.200
     4.400     4.600     4.800     5.000     5.500     6.000      .000      .000
      .000      .000      .000      .000      .000      .000      .000      .000
      .000      .000      .000      .000      .000      .000      .000      .000
      .000      .000      .000      .000
Fourier amplitude spectra in in/sec.
  .000E+00  .000E+00  .000E+00  .000E+00  .000E+00  .000E+00  .000E+00  .000E+00
  .000E+00  .000E+00  .000E+00  .000E+00  .000E+00  .000E+00  .000E+00  .000E+00
  .000E+00  .000E+00  .000E+00  .000E+00  .000E+00  .000E+00  .000E+00  .000E+00
  .000E+00  .000E+00  .000E+00  .000E+00  .000E+00  .000E+00  .000E+00  .000E+00
  .000E+00  .000E+00  .000E+00  .000E+00  .000E+00  .000E+00  .000E+00  .000E+00
  .000E+00  .000E+00  .000E+00  .000E+00  .000E+00  .000E+00  .000E+00  .000E+00
  .000E+00  .000E+00  .000E+00  .000E+00  .000E+00  .000E+00  .000E+00  .000E+00
  .000E+00  .000E+00  .000E+00  .000E+00  .000E+00  .000E+00  .000E+00  .000E+00
  .000E+00  .000E+00  .000E+00  .000E+00  .000E+00  .000E+00  .000E+00  .000E+00
  .000E+00  .000E+00  .000E+00  .000E+00  .000E+00  .000E+00  .000E+00  .000E+00
  .000E+00  .000E+00  .000E+00  .000E+00  .000E+00  .000E+00  .000E+00  .000E+00
  .000E+00  .000E+00  .000E+00  .000E+00  .000E+00  .000E+00  .000E+00  .000E+00
  .000E+00  .000E+00  .000E+00  .000E+00
Damping =  .05. Data of Sd,Sv,Sa,Pssv,ttSd,ttSv,ttSa :
  .422E-04  .474E-04  .522E-04  .570E-04  .621E-04  .677E-04  .896E-04  .986E-04
  .125E-03  .178E-03  .225E-03  .263E-03  .329E-03  .362E-03  .479E-03  .674E-03
  .114E-02  .141E-02  .152E-02  .160E-02  .172E-02  .129E-02  .149E-02  .145E-02
  .160E-02  .160E-02  .220E-02  .284E-02  .326E-02  .353E-02  .400E-02  .405E-02
  .390E-02  .416E-02  .453E-02  .474E-02  .482E-02  .451E-02  .426E-02  .394E-02
  .349E-02  .313E-02  .254E-02  .200E-02  .194E-02  .265E-02  .317E-02  .444E-02
  .546E-02  .562E-02  .525E-02  .510E-02  .474E-02  .449E-02  .397E-02  .394E-02
  .372E-02  .394E-02  .374E-02  .351E-02  .327E-02  .255E-02  .226E-02  .231E-02
  .229E-02  .234E-02  .237E-02  .234E-02  .228E-02  .223E-02  .221E-02  .222E-02
  .222E-02  .222E-02  .219E-02  .216E-02  .205E-02  .206E-02  .000E+00  .000E+00
  .000E+00  .000E+00  .000E+00  .000E+00  .000E+00  .000E+00  .000E+00  .000E+00
  .000E+00  .000E+00  .000E+00  .000E+00  .000E+00  .000E+00  .000E+00  .000E+00
  .000E+00  .000E+00  .000E+00  .000E+00
  .191E-02  .214E-02  .243E-02  .284E-02  .360E-02  .461E-02  .625E-02  .661E-02
  .959E-02  .133E-01  .161E-01  .170E-01  .186E-01  .216E-01  .256E-01  .380E-01
  .573E-01  .674E-01  .679E-01  .689E-01  .708E-01  .523E-01  .559E-01  .511E-01
  .516E-01  .500E-01  .531E-01  .709E-01  .841E-01  .897E-01  .886E-01  .857E-01
  .883E-01  .861E-01  .837E-01  .787E-01  .675E-01  .688E-01  .675E-01  .661E-01
  .635E-01  .563E-01  .505E-01  .440E-01  .399E-01  .440E-01  .459E-01  .462E-01
  .444E-01  .445E-01  .505E-01  .506E-01  .478E-01  .444E-01  .439E-01  .420E-01
  .405E-01  .405E-01  .402E-01  .399E-01  .398E-01  .397E-01  .404E-01  .402E-01
  .400E-01  .399E-01  .397E-01  .395E-01  .394E-01  .393E-01  .392E-01  .392E-01
  .392E-01  .391E-01  .391E-01  .390E-01  .389E-01  .388E-01  .000E+00  .000E+00
  .000E+00  .000E+00  .000E+00  .000E+00  .000E+00  .000E+00  .000E+00  .000E+00
  .000E+00  .000E+00  .000E+00  .000E+00  .000E+00  .000E+00  .000E+00  .000E+00
  .000E+00  .000E+00  .000E+00  .000E+00
  .270E-02  .274E-02  .276E-02  .276E-02  .277E-02  .277E-02  .302E-02  .279E-02
  .302E-02  .374E-02  .418E-02  .419E-02  .468E-02  .453E-02  .542E-02  .687E-02
  .969E-02  .994E-02  .923E-02  .847E-02  .786E-02  .514E-02  .526E-02  .464E-02
  .453E-02  .412E-02  .458E-02  .499E-02  .488E-02  .471E-02  .458E-02  .400E-02
  .353E-02  .326E-02  .323E-02  .309E-02  .279E-02  .243E-02  .207E-02  .175E-02
  .144E-02  .106E-02  .737E-03  .494E-03  .410E-03  .489E-03  .514E-03  .636E-03
  .701E-03  .646E-03  .540E-03  .435E-03  .341E-03  .275E-03  .210E-03  .182E-03
  .153E-03  .141E-03  .120E-03  .102E-03  .846E-04  .576E-04  .482E-04  .394E-04
  .342E-04  .305E-04  .275E-04  .244E-04  .222E-04  .209E-04  .197E-04  .185E-04
  .173E-04  .162E-04  .153E-04  .144E-04  .128E-04  .116E-04  .000E+00  .000E+00
  .000E+00  .000E+00  .000E+00  .000E+00  .000E+00  .000E+00  .000E+00  .000E+00
  .000E+00  .000E+00  .000E+00  .000E+00  .000E+00  .000E+00  .000E+00  .000E+00
  .000E+00  .000E+00  .000E+00  .000E+00
  .663E-02  .709E-02  .746E-02  .778E-02  .813E-02  .851E-02  .102E-01  .103E-01
  .121E-01  .160E-01  .188E-01  .206E-01  .244E-01  .253E-01  .317E-01  .424E-01
  .648E-01  .737E-01  .736E-01  .718E-01  .720E-01  .506E-01  .551E-01  .507E-01
  .528E-01  .502E-01  .628E-01  .743E-01  .787E-01  .793E-01  .837E-01  .796E-01
  .721E-01  .725E-01  .749E-01  .745E-01  .721E-01  .644E-01  .581E-01  .516E-01
  .439E-01  .357E-01  .266E-01  .193E-01  .174E-01  .222E-01  .249E-01  .329E-01
  .381E-01  .372E-01  .330E-01  .291E-01  .248E-01  .217E-01  .178E-01  .165E-01
  .146E-01  .146E-01  .130E-01  .116E-01  .103E-01  .729E-02  .592E-02  .557E-02
  .515E-02  .490E-02  .465E-02  .432E-02  .398E-02  .369E-02  .348E-02  .331E-02
  .317E-02  .303E-02  .287E-02  .271E-02  .234E-02  .215E-02  .000E+00  .000E+00
  .000E+00  .000E+00  .000E+00  .000E+00  .000E+00  .000E+00  .000E+00  .000E+00
  .000E+00  .000E+00  .000E+00  .000E+00  .000E+00  .000E+00  .000E+00  .000E+00
  .000E+00  .000E+00  .000E+00  .000E+00
  .365E+02  .365E+02  .365E+02  .365E+02  .365E+02  .365E+02  .379E+02  .365E+02
  .379E+02  .372E+02  .372E+02  .365E+02  .366E+02  .367E+02  .365E+02  .367E+02
  .367E+02  .367E+02  .368E+02  .381E+02  .382E+02  .374E+02  .380E+02  .380E+02
  .380E+02  .366E+02  .366E+02  .369E+02  .369E+02  .368E+02  .368E+02  .368E+02
  .368E+02  .367E+02  .367E+02  .367E+02  .367E+02  .367E+02  .367E+02  .367E+02
  .365E+02  .365E+02  .365E+02  .365E+02  .367E+02  .369E+02  .369E+02  .379E+02
  .379E+02  .379E+02  .380E+02  .387E+02  .382E+02  .382E+02  .383E+02  .383E+02
  .384E+02  .411E+02  .411E+02  .404E+02  .405E+02  .406E+02  .366E+02  .378E+02
  .378E+02  .378E+02  .378E+02  .378E+02  .378E+02  .378E+02  .378E+02  .378E+02
  .378E+02  .378E+02  .378E+02  .378E+02  .378E+02  .373E+02  .000E+00  .000E+00
  .000E+00  .000E+00  .000E+00  .000E+00  .000E+00  .000E+00  .000E+00  .000E+00
  .000E+00  .000E+00  .000E+00  .000E+00  .000E+00  .000E+00  .000E+00  .000E+00
  .000E+00  .000E+00  .000E+00  .000E+00
  .379E+02  .379E+02  .379E+02  .376E+02  .376E+02  .379E+02  .376E+02  .376E+02
  .376E+02  .372E+02  .372E+02  .371E+02  .367E+02  .384E+02  .367E+02  .367E+02
  .367E+02  .368E+02  .368E+02  .382E+02  .382E+02  .384E+02  .380E+02  .380E+02
  .380E+02  .379E+02  .369E+02  .369E+02  .368E+02  .368E+02  .368E+02  .367E+02
  .367E+02  .367E+02  .368E+02  .368E+02  .366E+02  .366E+02  .366E+02  .367E+02
  .367E+02  .367E+02  .365E+02  .365E+02  .367E+02  .367E+02  .367E+02  .367E+02
  .367E+02  .365E+02  .378E+02  .379E+02  .365E+02  .365E+02  .365E+02  .365E+02
  .365E+02  .365E+02  .365E+02  .365E+02  .365E+02  .365E+02  .365E+02  .365E+02
  .365E+02  .365E+02  .365E+02  .365E+02  .365E+02  .365E+02  .365E+02  .365E+02
  .365E+02  .365E+02  .365E+02  .365E+02  .365E+02  .365E+02  .000E+00  .000E+00
  .000E+00  .000E+00  .000E+00  .000E+00  .000E+00  .000E+00  .000E+00  .000E+00
  .000E+00  .000E+00  .000E+00  .000E+00  .000E+00  .000E+00  .000E+00  .000E+00
  .000E+00  .000E+00  .000E+00  .000E+00
  .365E+02  .365E+02  .365E+02  .365E+02  .365E+02  .365E+02  .379E+02  .365E+02
  .365E+02  .372E+02  .372E+02  .365E+02  .366E+02  .366E+02  .365E+02  .366E+02
  .367E+02  .367E+02  .368E+02  .381E+02  .382E+02  .382E+02  .379E+02  .380E+02
  .380E+02  .366E+02  .366E+02  .369E+02  .369E+02  .368E+02  .368E+02  .368E+02
  .368E+02  .367E+02  .367E+02  .367E+02  .367E+02  .367E+02  .367E+02  .367E+02
  .367E+02  .365E+02  .365E+02  .365E+02  .367E+02  .369E+02  .369E+02  .379E+02
  .379E+02  .379E+02  .380E+02  .387E+02  .382E+02  .382E+02  .383E+02  .383E+02
  .383E+02  .411E+02  .411E+02  .404E+02  .405E+02  .378E+02  .365E+02  .365E+02
  .365E+02  .378E+02  .378E+02  .378E+02  .365E+02  .365E+02  .365E+02  .365E+02
  .365E+02  .365E+02  .365E+02  .365E+02  .365E+02  .365E+02  .000E+00  .000E+00
  .000E+00  .000E+00  .000E+00  .000E+00  .000E+00  .000E+00  .000E+00  .000E+00
  .000E+00  .000E+00  .000E+00  .000E+00  .000E+00  .000E+00  .000E+00  .000E+00
  .000E+00  .000E+00  .000E+00  .000E+00
/&   ----------  End of spectral data for channel  1  ----------
Response and Fourier amplitude spectra (78 periods,  .04 -  6.0 sec)   for      
Corrected accelerogram   38695658.CI.HYS.--.HN      Chan  2: 360 Deg     from   
Uncorrected Accelerogram Data             Processed: 09/19/20, CGS  cihys--e    
Rcrd of Fri Sep 18, 2020 23:38:41.0 PDT               (Avol1 v2.0, 4/18 CSMIP)  
                                        (Origin:  To be determined)             
38695658.CI.HYS.--.HN                Start time:  9/19/20, 06:38:41.0 UTC (GPS) 
Station Id. HYS     34.865N, 117.570W    Q330    s/n 4166  (3 Chns of  3 at Sta)
Haystack Butte                           SCSN   Data: Acceleration              
Chan  2: 360 Deg                                                                
Rcrd of Fri Sep 18, 2020 23:38:41.0 PDT    Fri Sep 18, 2020 23:38:41.0 PDT      
Hypocenter:  To be determined.               ML:  To be determined.             
Instr Period =  .0050 sec,  Damping =  .707,  Sensitivity = 4.99 v/g  (Nominal) 
                        Record Length =301.000 sec.                             
                                     Uncor Max  =  -.003 g, at   36.510 sec.    
RMS accel of (uncor) record  =        .   Chn. metadata effective date:         
Accelerogram bandpass filtered with 3 dB pts at   .30 and 23.00 cyc/sec         
                 instrument- and base-line correcte                             
                                                                                
                                                                                
                                                                                
                                                                                
                                                                                
Rcrd of Fri Sep 18, 2020 23:38:41.0 PDT    Fri Sep 18, 2020 23:38:41.0 PDT      
                                                                                
38695658.CI.HYS.--.HN     Haystack Butte    Chan  2: 360 Deg                    
                                                                                
38695658.CI.HYS.--.HN     Haystack Butte    Chan  2: 360 Deg                    
                                                                                
Units for spectra are inches and sec, except Sa is in fraction of g.            
                                                                                
    2  100    2    3    3  100 -999    3    1    0  605 4166    050788   41    0
    6   38   41    8  263    9   19 2020   10    3  36035694   39   14   74 -999
35694 -999  100    6 -999 -999 -999 -999 -999 -999 -999 -999 -999 -999 -999 -999
 -999 -999 -999 -99915050    2 -999    0 -999   20 -999 -999    3    1 -99915050
    315050    4   78    1    3    5    0    0 -999    0 -999 -999    6 -999    2
    2    2    4 -999 -999 -999 -999 -999 -999 -999 -999    1 -999 -999 -999  111
    1    1 -999 -999
      .005      .707   356.940      .000     1.000  4994.462     -.003    36.510
   200.000     2.384      .477  -999.000    10.000  -999.000     4.000  -999.000
    20.000   -13.750      .000  -999.000  -999.000  -999.000  -999.000      .001
      .000     -.001     2.000    15.000    34.865  -117.570      .001      .001
     1.058     -.001     -.001   833.000  -999.000  -999.000  -999.000  -999.000
     1.000  -999.000  -999.000  -999.000  -999.000  -999.000  -999.000   120.000
     -.900     2.000     6.800   980.665      .020   301.000    31.831      .000
  -999.000    23.000  -999.000   301.000      .020      .300  -999.000  -999.000
    36.500    -2.670    36.460      .089    37.680      .005      .000      .300
    23.000      .020      .020      .000      .020      .002  -999.000  -999.000
      .011      .120      .006      .004      .000      .000  -999.000  -999.000
  -999.000  -999.000  -999.000  -999.000  -999.000  -999.000  -999.000  -999.000
  -999.000  -999.000  -999.000  -999.000
      .050
      .040      .042      .044      .046      .048      .050      .055      .060
      .065      .070      .075      .080      .085      .090      .095      .100
      .110      .120      .130      .140      .150      .160      .170      .180
      .190      .200      .220      .240      .260      .280      .300      .320
      .340      .360      .380      .400      .420      .440      .460      .480
      .500      .550      .600      .650      .700      .750      .800      .850
      .900      .950     1.000     1.100     1.200     1.300     1.400     1.500
     1.600     1.700     1.800     1.900     2.000     2.200     2.400     2.600
     2.800     3.000     3.200     3.400     3.600     3.800     4.000     4.200
     4.400     4.600     4.800     5.000     5.500     6.000      .000      .000
      .000      .000      .000      .000      .000      .000      .000      .000
      .000      .000      .000      .000      .000      .000      .000      .000
      .000      .000      .000      .000
Fourier amplitude spectra in in/sec.
  .000E+00  .000E+00  .000E+00  .000E+00  .000E+00  .000E+00  .000E+00  .000E+00
  .000E+00  .000E+00  .000E+00  .000E+00  .000E+00  .000E+00  .000E+00  .000E+00
  .000E+00  .000E+00  .000E+00  .000E+00  .000E+00  .000E+00  .000E+00  .000E+00
  .000E+00  .000E+00  .000E+00  .000E+00  .000E+00  .000E+00  .000E+00  .000E+00
  .000E+00  .000E+00  .000E+00  .000E+00  .000E+00  .000E+00  .000E+00  .000E+00
  .000E+00  .000E+00  .000E+00  .000E+00  .000E+00  .000E+00  .000E+00  .000E+00
  .000E+00  .000E+00  .000E+00  .000E+00  .000E+00  .000E+00  .000E+00  .000E+00
  .000E+00  .000E+00  .000E+00  .000E+00  .000E+00  .000E+00  .000E+00  .000E+00
  .000E+00  .000E+00  .000E+00  .000E+00  .000E+00  .000E+00  .000E+00  .000E+00
  .000E+00  .000E+00  .000E+00  .000E+00  .000E+00  .000E+00  .000E+00  .000E+00
  .000E+00  .000E+00  .000E+00  .000E+00  .000E+00  .000E+00  .000E+00  .000E+00
  .000E+00  .000E+00  .000E+00  .000E+00  .000E+00  .000E+00  .000E+00  .000E+00
  .000E+00  .000E+00  .000E+00  .000E+00
Damping =  .05. Data of Sd,Sv,Sa,Pssv,ttSd,ttSv,ttSa :
  .462E-04  .513E-04  .569E-04  .629E-04  .683E-04  .795E-04  .103E-03  .148E-03
  .191E-03  .257E-03  .323E-03  .428E-03  .475E-03  .492E-03  .539E-03  .623E-03
  .103E-02  .150E-02  .148E-02  .197E-02  .203E-02  .230E-02  .258E-02  .245E-02
  .249E-02  .227E-02  .223E-02  .224E-02  .322E-02  .430E-02  .349E-02  .337E-02
  .306E-02  .375E-02  .482E-02  .516E-02  .467E-02  .387E-02  .380E-02  .361E-02
