Response and Fourier amplitude spectra (78 periods,  .04 -  6.0 sec)   for      
Corrected accelerogram   38695658.CI.IDY.--.HN      Chan  1:  90 Deg     from   
Uncorrected Accelerogram Data             Processed: 09/19/20, CGS  ciidy--s    
Rcrd of Fri Sep 18, 2020 23:38:43.0 PDT               (Avol1 v2.0, 4/18 CSMIP)  
                                        (Origin:  To be determined)             
38695658.CI.IDY.--.HN                Start time:  9/19/20, 06:38:43.0 UTC (GPS) 
Station Id. IDY     33.746N, 116.715W    ObsMMS  s/n 1862  (3 Chns of  6 at Sta)
Idyllwild                                SCSN   Data: Acceleration              
Chan  1:  90 Deg                                                                
Rcrd of Fri Sep 18, 2020 23:38:43.0 PDT    Fri Sep 18, 2020 23:38:43.0 PDT      
Hypocenter:  To be determined.               ML:  To be determined.             
Instr Period =  .0050 sec,  Damping =  .707,  Sensitivity = 4.99 v/g  (Nominal) 
                        Record Length =301.000 sec.                             
                                     Uncor Max  =   .003 g, at   41.380 sec.    
RMS accel of (uncor) record  =        .   Chn. metadata effective date:         
Accelerogram bandpass filtered with 3 dB pts at   .30 and 23.00 cyc/sec         
                 instrument- and base-line correcte                             
                                                                                
                                                                                
                                                                                
                                                                                
                                                                                
Rcrd of Fri Sep 18, 2020 23:38:43.0 PDT    Fri Sep 18, 2020 23:38:43.0 PDT      
                                                                                
38695658.CI.IDY.--.HN     Idyllwild   Chan  1:  90 Deg                          
                                                                                
38695658.CI.IDY.--.HN     Idyllwild   Chan  1:  90 Deg                          
                                                                                
Units for spectra are inches and sec, except Sa is in fraction of g.            
                                                                                
    1  100    1    6    6  100 -999    3    1    0   15 1862    0    0   41    0
    6   38   43    0  263    9   19 2020   10    3   9035917   39    9   74 -999
35917 -999  100    6 -999 -999 -999 -999 -999 -999 -999 -999 -999 -999 -999 -999
 -999 -999 -999 -99915050    2 -999    0 -999   20 -999 -999    3    1 568915050
    315050    4   78    1    3    5    0    0 -999    0 -999 -999    6 -999    2
    2    2    4 -999 -999 -999 -999 -999 -999 -999 -999    1 -999 -999 -999  111
    1    1 -999 -999
      .005      .707   359.170      .000     1.000  4987.482      .003    41.380
   200.000     2.384      .478  -999.000    10.000  -999.000     4.000  -999.000
    20.000   -14.094      .000  -999.000  -999.000  -999.000  -999.000      .014
     -.013     -.028     2.000    15.000    33.746  -116.715      .004      .009
     2.414     -.029     -.027  1632.000  -999.000  -999.000  -999.000  -999.000
     1.000  -999.000    -8.000  -999.000  -999.000  -999.000  -999.000   120.000
     -.900     2.000     6.800   980.665      .020   301.000    31.831      .002
  -999.000    23.000  -999.000   301.000      .020      .300  -999.000  -999.000
    41.380     2.770    41.320     -.064    42.920      .002      .000      .300
    23.000      .020      .020      .000      .020      .003  -999.000  -999.000
      .011      .130      .006      .003      .000      .000  -999.000  -999.000
  -999.000  -999.000  -999.000  -999.000  -999.000  -999.000  -999.000  -999.000
  -999.000  -999.000  -999.000  -999.000
      .050
      .040      .042      .044      .046      .048      .050      .055      .060
      .065      .070      .075      .080      .085      .090      .095      .100
      .110      .120      .130      .140      .150      .160      .170      .180
      .190      .200      .220      .240      .260      .280      .300      .320
      .340      .360      .380      .400      .420      .440      .460      .480
      .500      .550      .600      .650      .700      .750      .800      .850
      .900      .950     1.000     1.100     1.200     1.300     1.400     1.500
     1.600     1.700     1.800     1.900     2.000     2.200     2.400     2.600
     2.800     3.000     3.200     3.400     3.600     3.800     4.000     4.200
     4.400     4.600     4.800     5.000     5.500     6.000      .000      .000
      .000      .000      .000      .000      .000      .000      .000      .000
      .000      .000      .000      .000      .000      .000      .000      .000
      .000      .000      .000      .000
Fourier amplitude spectra in in/sec.
  .000E+00  .000E+00  .000E+00  .000E+00  .000E+00  .000E+00  .000E+00  .000E+00
  .000E+00  .000E+00  .000E+00  .000E+00  .000E+00  .000E+00  .000E+00  .000E+00
  .000E+00  .000E+00  .000E+00  .000E+00  .000E+00  .000E+00  .000E+00  .000E+00
  .000E+00  .000E+00  .000E+00  .000E+00  .000E+00  .000E+00  .000E+00  .000E+00
  .000E+00  .000E+00  .000E+00  .000E+00  .000E+00  .000E+00  .000E+00  .000E+00
  .000E+00  .000E+00  .000E+00  .000E+00  .000E+00  .000E+00  .000E+00  .000E+00
  .000E+00  .000E+00  .000E+00  .000E+00  .000E+00  .000E+00  .000E+00  .000E+00
  .000E+00  .000E+00  .000E+00  .000E+00  .000E+00  .000E+00  .000E+00  .000E+00
  .000E+00  .000E+00  .000E+00  .000E+00  .000E+00  .000E+00  .000E+00  .000E+00
  .000E+00  .000E+00  .000E+00  .000E+00  .000E+00  .000E+00  .000E+00  .000E+00
  .000E+00  .000E+00  .000E+00  .000E+00  .000E+00  .000E+00  .000E+00  .000E+00
  .000E+00  .000E+00  .000E+00  .000E+00  .000E+00  .000E+00  .000E+00  .000E+00
  .000E+00  .000E+00  .000E+00  .000E+00
Damping =  .05. Data of Sd,Sv,Sa,Pssv,ttSd,ttSv,ttSa :
  .463E-04  .509E-04  .582E-04  .692E-04  .831E-04  .933E-04  .136E-03  .170E-03
  .271E-03  .379E-03  .423E-03  .473E-03  .629E-03  .681E-03  .654E-03  .653E-03
  .958E-03  .114E-02  .176E-02  .197E-02  .196E-02  .210E-02  .238E-02  .254E-02
  .249E-02  .215E-02  .226E-02  .239E-02  .244E-02  .256E-02  .300E-02  .299E-02
  .319E-02  .275E-02  .269E-02  .253E-02  .244E-02  .264E-02  .210E-02  .194E-02
  .173E-02  .170E-02  .138E-02  .129E-02  .112E-02  .134E-02  .145E-02  .162E-02
  .177E-02  .161E-02  .169E-02  .172E-02  .185E-02  .156E-02  .148E-02  .159E-02
  .187E-02  .201E-02  .185E-02  .158E-02  .127E-02  .109E-02  .105E-02  .100E-02
  .980E-03  .105E-02  .113E-02  .108E-02  .102E-02  .988E-03  .964E-03  .944E-03
  .904E-03  .876E-03  .866E-03  .844E-03  .858E-03  .833E-03  .000E+00  .000E+00
  .000E+00  .000E+00  .000E+00  .000E+00  .000E+00  .000E+00  .000E+00  .000E+00
  .000E+00  .000E+00  .000E+00  .000E+00  .000E+00  .000E+00  .000E+00  .000E+00
  .000E+00  .000E+00  .000E+00  .000E+00
  .444E-02  .479E-02  .584E-02  .709E-02  .794E-02  .768E-02  .122E-01  .154E-01
  .199E-01  .288E-01  .320E-01  .350E-01  .449E-01  .443E-01  .371E-01  .355E-01
  .465E-01  .583E-01  .804E-01  .886E-01  .779E-01  .765E-01  .843E-01  .879E-01
  .802E-01  .738E-01  .644E-01  .732E-01  .701E-01  .724E-01  .734E-01  .776E-01
  .631E-01  .619E-01  .552E-01  .444E-01  .435E-01  .450E-01  .455E-01  .387E-01
  .356E-01  .343E-01  .282E-01  .263E-01  .255E-01  .252E-01  .240E-01  .235E-01
  .246E-01  .267E-01  .284E-01  .251E-01  .271E-01  .271E-01  .266E-01  .258E-01
  .251E-01  .247E-01  .241E-01  .238E-01  .233E-01  .231E-01  .231E-01  .233E-01
  .232E-01  .231E-01  .234E-01  .236E-01  .236E-01  .236E-01  .236E-01  .236E-01
  .236E-01  .236E-01  .236E-01  .236E-01  .235E-01  .235E-01  .000E+00  .000E+00
  .000E+00  .000E+00  .000E+00  .000E+00  .000E+00  .000E+00  .000E+00  .000E+00
  .000E+00  .000E+00  .000E+00  .000E+00  .000E+00  .000E+00  .000E+00  .000E+00
  .000E+00  .000E+00  .000E+00  .000E+00
  .297E-02  .296E-02  .308E-02  .336E-02  .368E-02  .385E-02  .462E-02  .485E-02
  .658E-02  .794E-02  .784E-02  .751E-02  .904E-02  .857E-02  .741E-02  .677E-02
  .806E-02  .825E-02  .109E-01  .102E-01  .891E-02  .846E-02  .848E-02  .810E-02
  .701E-02  .569E-02  .484E-02  .427E-02  .367E-02  .328E-02  .350E-02  .302E-02
  .284E-02  .220E-02  .194E-02  .163E-02  .142E-02  .142E-02  .102E-02  .858E-03
  .714E-03  .577E-03  .392E-03  .318E-03  .241E-03  .247E-03  .235E-03  .234E-03
  .228E-03  .190E-03  .179E-03  .149E-03  .136E-03  .990E-04  .820E-04  .780E-04
  .767E-04  .738E-04  .615E-04  .479E-04  .359E-04  .259E-04  .216E-04  .183E-04
  .160E-04  .158E-04  .154E-04  .140E-04  .127E-04  .117E-04  .110E-04  .103E-04
  .974E-05  .910E-05  .863E-05  .816E-05  .735E-05  .655E-05  .000E+00  .000E+00
  .000E+00  .000E+00  .000E+00  .000E+00  .000E+00  .000E+00  .000E+00  .000E+00
  .000E+00  .000E+00  .000E+00  .000E+00  .000E+00  .000E+00  .000E+00  .000E+00
  .000E+00  .000E+00  .000E+00  .000E+00
  .727E-02  .762E-02  .831E-02  .945E-02  .109E-01  .117E-01  .155E-01  .178E-01
  .262E-01  .341E-01  .354E-01  .372E-01  .465E-01  .475E-01  .432E-01  .410E-01
  .547E-01  .596E-01  .851E-01  .886E-01  .820E-01  .824E-01  .878E-01  .887E-01
  .823E-01  .675E-01  .646E-01  .626E-01  .590E-01  .574E-01  .628E-01  .587E-01
  .589E-01  .479E-01  .446E-01  .398E-01  .365E-01  .378E-01  .287E-01  .254E-01
  .218E-01  .195E-01  .144E-01  .125E-01  .100E-01  .112E-01  .114E-01  .120E-01
  .123E-01  .107E-01  .106E-01  .980E-02  .967E-02  .756E-02  .663E-02  .668E-02
  .733E-02  .744E-02  .646E-02  .522E-02  .398E-02  .311E-02  .274E-02  .243E-02
  .220E-02  .220E-02  .222E-02  .200E-02  .178E-02  .163E-02  .151E-02  .141E-02
  .129E-02  .120E-02  .113E-02  .106E-02  .980E-03  .872E-03  .000E+00  .000E+00
  .000E+00  .000E+00  .000E+00  .000E+00  .000E+00  .000E+00  .000E+00  .000E+00
  .000E+00  .000E+00  .000E+00  .000E+00  .000E+00  .000E+00  .000E+00  .000E+00
  .000E+00  .000E+00  .000E+00  .000E+00
  .414E+02  .414E+02  .414E+02  .415E+02  .415E+02  .415E+02  .414E+02  .418E+02
  .415E+02  .415E+02  .415E+02  .416E+02  .416E+02  .416E+02  .416E+02  .413E+02
  .413E+02  .414E+02  .415E+02  .415E+02  .416E+02  .416E+02  .416E+02  .418E+02
  .419E+02  .419E+02  .437E+02  .431E+02  .431E+02  .413E+02  .413E+02  .412E+02
  .413E+02  .410E+02  .410E+02  .410E+02  .430E+02  .430E+02  .429E+02  .409E+02
  .409E+02  .429E+02  .447E+02  .447E+02  .407E+02  .524E+02  .447E+02  .447E+02
  .448E+02  .463E+02  .407E+02  .429E+02  .462E+02  .469E+02  .450E+02  .451E+02
  .446E+02  .446E+02  .446E+02  .446E+02  .446E+02  .405E+02  .405E+02  .440E+02
  .405E+02  .440E+02  .429E+02  .429E+02  .429E+02  .429E+02  .429E+02  .429E+02
  .429E+02  .429E+02  .429E+02  .429E+02  .429E+02  .429E+02  .000E+00  .000E+00
  .000E+00  .000E+00  .000E+00  .000E+00  .000E+00  .000E+00  .000E+00  .000E+00
  .000E+00  .000E+00  .000E+00  .000E+00  .000E+00  .000E+00  .000E+00  .000E+00
  .000E+00  .000E+00  .000E+00  .000E+00
  .414E+02  .414E+02  .420E+02  .420E+02  .420E+02  .414E+02  .421E+02  .418E+02
  .415E+02  .416E+02  .416E+02  .416E+02  .416E+02  .416E+02  .416E+02  .412E+02
  .413E+02  .415E+02  .414E+02  .414E+02  .414E+02  .417E+02  .416E+02  .419E+02
  .418E+02  .418E+02  .416E+02  .414E+02  .414E+02  .414E+02  .413E+02  .413E+02
  .413E+02  .412E+02  .411E+02  .411E+02  .435E+02  .429E+02  .430E+02  .430E+02
  .413E+02  .430E+02  .413E+02  .413E+02  .430E+02  .430E+02  .430E+02  .414E+02
  .414E+02  .430E+02  .430E+02  .413E+02  .413E+02  .413E+02  .413E+02  .413E+02
  .413E+02  .413E+02  .413E+02  .413E+02  .413E+02  .413E+02  .413E+02  .413E+02
  .413E+02  .413E+02  .413E+02  .413E+02  .413E+02  .413E+02  .413E+02  .413E+02
  .413E+02  .413E+02  .413E+02  .413E+02  .413E+02  .413E+02  .000E+00  .000E+00
  .000E+00  .000E+00  .000E+00  .000E+00  .000E+00  .000E+00  .000E+00  .000E+00
  .000E+00  .000E+00  .000E+00  .000E+00  .000E+00  .000E+00  .000E+00  .000E+00
  .000E+00  .000E+00  .000E+00  .000E+00
  .414E+02  .414E+02  .414E+02  .415E+02  .415E+02  .415E+02  .414E+02  .414E+02
  .415E+02  .415E+02  .415E+02  .416E+02  .416E+02  .416E+02  .416E+02  .413E+02
  .413E+02  .414E+02  .414E+02  .415E+02  .416E+02  .416E+02  .416E+02  .418E+02
  .419E+02  .419E+02  .437E+02  .431E+02  .431E+02  .413E+02  .413E+02  .412E+02
  .413E+02  .410E+02  .410E+02  .410E+02  .434E+02  .430E+02  .430E+02  .408E+02
  .409E+02  .429E+02  .447E+02  .447E+02  .407E+02  .524E+02  .447E+02  .447E+02
  .447E+02  .463E+02  .407E+02  .429E+02  .462E+02  .469E+02  .450E+02  .450E+02
  .446E+02  .446E+02  .446E+02  .446E+02  .440E+02  .404E+02  .404E+02  .440E+02
  .428E+02  .428E+02  .413E+02  .413E+02  .413E+02  .413E+02  .413E+02  .413E+02
  .413E+02  .413E+02  .413E+02  .413E+02  .413E+02  .413E+02  .000E+00  .000E+00
  .000E+00  .000E+00  .000E+00  .000E+00  .000E+00  .000E+00  .000E+00  .000E+00
  .000E+00  .000E+00  .000E+00  .000E+00  .000E+00  .000E+00  .000E+00  .000E+00
  .000E+00  .000E+00  .000E+00  .000E+00
/&   ----------  End of spectral data for channel  1  ----------
Response and Fourier amplitude spectra (78 periods,  .04 -  6.0 sec)   for      
Corrected accelerogram   38695658.CI.IDY.--.HN      Chan  2: 360 Deg     from   
Uncorrected Accelerogram Data             Processed: 09/19/20, CGS  ciidy--s    
Rcrd of Fri Sep 18, 2020 23:38:43.0 PDT               (Avol1 v2.0, 4/18 CSMIP)  
                                        (Origin:  To be determined)             
38695658.CI.IDY.--.HN                Start time:  9/19/20, 06:38:43.0 UTC (GPS) 
Station Id. IDY     33.746N, 116.715W    ObsMMS  s/n 1862  (3 Chns of  6 at Sta)
Idyllwild                                SCSN   Data: Acceleration              
Chan  2: 360 Deg                                                                
Rcrd of Fri Sep 18, 2020 23:38:43.0 PDT    Fri Sep 18, 2020 23:38:43.0 PDT      
Hypocenter:  To be determined.               ML:  To be determined.             
Instr Period =  .0050 sec,  Damping =  .707,  Sensitivity = 5.00 v/g  (Nominal) 
                        Record Length =301.000 sec.                             
                                     Uncor Max  =  -.003 g, at   41.620 sec.    
RMS accel of (uncor) record  =        .   Chn. metadata effective date:         
Accelerogram bandpass filtered with 3 dB pts at   .30 and 23.00 cyc/sec         
                 instrument- and base-line correcte                             
                                                                                
                                                                                
                                                                                
                                                                                
                                                                                
Rcrd of Fri Sep 18, 2020 23:38:43.0 PDT    Fri Sep 18, 2020 23:38:43.0 PDT      
                                                                                
38695658.CI.IDY.--.HN     Idyllwild   Chan  2: 360 Deg                          
                                                                                
38695658.CI.IDY.--.HN     Idyllwild   Chan  2: 360 Deg                          
                                                                                
Units for spectra are inches and sec, except Sa is in fraction of g.            
                                                                                
    2  100    2    6    6  100 -999    3    1    0   15 1862    0    0   41    0
    6   38   43   10  263    9   19 2020   10    3  36035852   39    9   74 -999
35852 -999  100    6 -999 -999 -999 -999 -999 -999 -999 -999 -999 -999 -999 -999
 -999 -999 -999 -99915050    2 -999    0 -999   20 -999 -999    3    1 568915050
    315050    4   78    1    3    5    0    0 -999    0 -999 -999    6 -999    2
    2    2    4 -999 -999 -999 -999 -999 -999 -999 -999    1 -999 -999 -999  111
    1    1 -999 -999
      .005      .707   358.520      .000     1.000  5000.446     -.003    41.620
   200.000     2.384      .477  -999.000    10.000  -999.000     4.000  -999.000
    20.000    -4.207      .000  -999.000  -999.000  -999.000  -999.000      .000
      .000      .001     2.000    15.000    33.746  -116.715      .005      .008
     1.648      .000      .002  1632.000  -999.000  -999.000  -999.000  -999.000
     1.000  -999.000  -999.000  -999.000  -999.000  -999.000  -999.000   120.000
     -.900     2.000     6.800   980.665      .020   301.000    31.831      .000
  -999.000    23.000  -999.000   301.000      .020      .300  -999.000  -999.000
    41.620    -3.336    41.420      .073    42.040     -.003      .000      .300
    23.000      .020      .020      .000      .020      .003  -999.000  -999.000
      .015      .170      .009      .003      .000      .000  -999.000  -999.000
  -999.000  -999.000  -999.000  -999.000  -999.000  -999.000  -999.000  -999.000
  -999.000  -999.000  -999.000  -999.000
      .050
      .040      .042      .044      .046      .048      .050      .055      .060
      .065      .070      .075      .080      .085      .090      .095      .100
      .110      .120      .130      .140      .150      .160      .170      .180
      .190      .200      .220      .240      .260      .280      .300      .320
      .340      .360      .380      .400      .420      .440      .460      .480
      .500      .550      .600      .650      .700      .750      .800      .850
      .900      .950     1.000     1.100     1.200     1.300     1.400     1.500
     1.600     1.700     1.800     1.900     2.000     2.200     2.400     2.600
     2.800     3.000     3.200     3.400     3.600     3.800     4.000     4.200
     4.400     4.600     4.800     5.000     5.500     6.000      .000      .000
      .000      .000      .000      .000      .000      .000      .000      .000
      .000      .000      .000      .000      .000      .000      .000      .000
      .000      .000      .000      .000
Fourier amplitude spectra in in/sec.
  .000E+00  .000E+00  .000E+00  .000E+00  .000E+00  .000E+00  .000E+00  .000E+00
  .000E+00  .000E+00  .000E+00  .000E+00  .000E+00  .000E+00  .000E+00  .000E+00
  .000E+00  .000E+00  .000E+00  .000E+00  .000E+00  .000E+00  .000E+00  .000E+00
  .000E+00  .000E+00  .000E+00  .000E+00  .000E+00  .000E+00  .000E+00  .000E+00
  .000E+00  .000E+00  .000E+00  .000E+00  .000E+00  .000E+00  .000E+00  .000E+00
  .000E+00  .000E+00  .000E+00  .000E+00  .000E+00  .000E+00  .000E+00  .000E+00
  .000E+00  .000E+00  .000E+00  .000E+00  .000E+00  .000E+00  .000E+00  .000E+00
  .000E+00  .000E+00  .000E+00  .000E+00  .000E+00  .000E+00  .000E+00  .000E+00
  .000E+00  .000E+00  .000E+00  .000E+00  .000E+00  .000E+00  .000E+00  .000E+00
  .000E+00  .000E+00  .000E+00  .000E+00  .000E+00  .000E+00  .000E+00  .000E+00
  .000E+00  .000E+00  .000E+00  .000E+00  .000E+00  .000E+00  .000E+00  .000E+00
  .000E+00  .000E+00  .000E+00  .000E+00  .000E+00  .000E+00  .000E+00  .000E+00
  .000E+00  .000E+00  .000E+00  .000E+00
Damping =  .05. Data of Sd,Sv,Sa,Pssv,ttSd,ttSv,ttSa :
  .574E-04  .646E-04  .733E-04  .864E-04  .967E-04  .948E-04  .142E-03  .201E-03
  .245E-03  .319E-03  .376E-03  .413E-03  .486E-03  .552E-03  .508E-03  .530E-03
  .738E-03  .112E-02  .155E-02  .208E-02  .266E-02  .358E-02  .427E-02  .414E-02
  .365E-02  .342E-02  .331E-02  .286E-02  .181E-02  .190E-02  .212E-02  .270E-02
  .304E-02  .281E-02  .259E-02  .245E-02  .209E-02  .200E-02  .201E-02  .195E-02
