Response and Fourier amplitude spectra (78 periods,  .04 -  6.0 sec)   for      
Corrected accelerogram   38695658.CI.IDQ.--.HN      Chan  1:  90 Deg     from   
Uncorrected Accelerogram Data             Processed: 09/19/20, CGS  ciidq--p    
Rcrd of Fri Sep 18, 2020 23:38:48.0 PDT               (Avol1 v2.0, 4/18 CSMIP)  
                                        (Origin:  To be determined)             
38695658.CI.IDQ.--.HN                Start time:  9/19/20, 06:38:48.0 UTC (GPS) 
Station Id. IDQ     33.768N, 116.239W    ObsMMS  s/n  266  (3 Chns of  6 at Sta)
Indio Quarry                             SCSN   Data: Acceleration              
Chan  1:  90 Deg                                                                
Rcrd of Fri Sep 18, 2020 23:38:48.0 PDT    Fri Sep 18, 2020 23:38:48.0 PDT      
Hypocenter:  To be determined.               ML:  To be determined.             
Instr Period =  .0050 sec,  Damping =  .707,  Sensitivity = 4.99 v/g  (Nominal) 
                        Record Length =301.000 sec.                             
                                     Uncor Max  =  -.001 g, at   49.120 sec.    
RMS accel of (uncor) record  =        .   Chn. metadata effective date:         
Accelerogram bandpass filtered with 3 dB pts at   .30 and 23.00 cyc/sec         
                 instrument- and base-line correcte                             
                                                                                
                                                                                
                                                                                
                                                                                
                                                                                
Rcrd of Fri Sep 18, 2020 23:38:48.0 PDT    Fri Sep 18, 2020 23:38:48.0 PDT      
                                                                                
38695658.CI.IDQ.--.HN     Indio Quarry    Chan  1:  90 Deg                      
                                                                                
38695658.CI.IDQ.--.HN     Indio Quarry    Chan  1:  90 Deg                      
                                                                                
Units for spectra are inches and sec, except Sa is in fraction of g.            
                                                                                
    1  100    1    6    6  100 -999    3    1    0   15  266    0    0   41    0
    6   38   48    0  263    9   19 2020   10    3   9035853   39   12   74 -999
35853 -999  100    6 -999 -999 -999 -999 -999 -999 -999 -999 -999 -999 -999 -999
 -999 -999 -999 -99915050    2 -999    0 -999   20 -999 -999    3    1 419115050
    315050    4   78    1    3    5    0    0 -999    0 -999 -999    6 -999    2
    2    2    4 -999 -999 -999 -999 -999 -999 -999 -999    1 -999 -999 -999  111
    1    1 -999 -999
      .005      .707   358.530      .000     1.000  4989.676     -.001    49.120
   200.000     2.384      .478  -999.000    10.000  -999.000     4.000  -999.000
    20.000   -45.839      .000  -999.000  -999.000  -999.000  -999.000      .006
     -.006     -.012     2.000    15.000    33.768  -116.239      .005      .005
      .911     -.013     -.011    29.000  -999.000  -999.000  -999.000  -999.000
     1.000  -999.000    -8.000  -999.000  -999.000  -999.000  -999.000   120.000
     -.900     2.000     6.800   980.665      .020   301.000    31.831      .001
  -999.000    23.000  -999.000   301.000      .020      .300  -999.000  -999.000
    49.120    -1.455    49.180     -.071    49.100      .005      .000      .300
    23.000      .020      .020      .000      .020      .005  -999.000  -999.000
      .005      .280      .003      .004      .000      .000  -999.000  -999.000
  -999.000  -999.000  -999.000  -999.000  -999.000  -999.000  -999.000  -999.000
  -999.000  -999.000  -999.000  -999.000
      .050
      .040      .042      .044      .046      .048      .050      .055      .060
      .065      .070      .075      .080      .085      .090      .095      .100
      .110      .120      .130      .140      .150      .160      .170      .180
      .190      .200      .220      .240      .260      .280      .300      .320
      .340      .360      .380      .400      .420      .440      .460      .480
      .500      .550      .600      .650      .700      .750      .800      .850
      .900      .950     1.000     1.100     1.200     1.300     1.400     1.500
     1.600     1.700     1.800     1.900     2.000     2.200     2.400     2.600
     2.800     3.000     3.200     3.400     3.600     3.800     4.000     4.200
     4.400     4.600     4.800     5.000     5.500     6.000      .000      .000
      .000      .000      .000      .000      .000      .000      .000      .000
      .000      .000      .000      .000      .000      .000      .000      .000
      .000      .000      .000      .000
Fourier amplitude spectra in in/sec.
  .000E+00  .000E+00  .000E+00  .000E+00  .000E+00  .000E+00  .000E+00  .000E+00
  .000E+00  .000E+00  .000E+00  .000E+00  .000E+00  .000E+00  .000E+00  .000E+00
  .000E+00  .000E+00  .000E+00  .000E+00  .000E+00  .000E+00  .000E+00  .000E+00
  .000E+00  .000E+00  .000E+00  .000E+00  .000E+00  .000E+00  .000E+00  .000E+00
  .000E+00  .000E+00  .000E+00  .000E+00  .000E+00  .000E+00  .000E+00  .000E+00
  .000E+00  .000E+00  .000E+00  .000E+00  .000E+00  .000E+00  .000E+00  .000E+00
  .000E+00  .000E+00  .000E+00  .000E+00  .000E+00  .000E+00  .000E+00  .000E+00
  .000E+00  .000E+00  .000E+00  .000E+00  .000E+00  .000E+00  .000E+00  .000E+00
  .000E+00  .000E+00  .000E+00  .000E+00  .000E+00  .000E+00  .000E+00  .000E+00
  .000E+00  .000E+00  .000E+00  .000E+00  .000E+00  .000E+00  .000E+00  .000E+00
  .000E+00  .000E+00  .000E+00  .000E+00  .000E+00  .000E+00  .000E+00  .000E+00
  .000E+00  .000E+00  .000E+00  .000E+00  .000E+00  .000E+00  .000E+00  .000E+00
  .000E+00  .000E+00  .000E+00  .000E+00
Damping =  .05. Data of Sd,Sv,Sa,Pssv,ttSd,ttSv,ttSa :
  .233E-04  .259E-04  .287E-04  .317E-04  .350E-04  .382E-04  .462E-04  .544E-04
  .631E-04  .857E-04  .113E-03  .144E-03  .168E-03  .188E-03  .200E-03  .222E-03
  .258E-03  .343E-03  .429E-03  .413E-03  .530E-03  .710E-03  .721E-03  .861E-03
  .102E-02  .124E-02  .166E-02  .224E-02  .282E-02  .360E-02  .385E-02  .326E-02
  .365E-02  .437E-02  .603E-02  .705E-02  .702E-02  .668E-02  .640E-02  .648E-02
  .674E-02  .426E-02  .400E-02  .346E-02  .304E-02  .248E-02  .248E-02  .325E-02
  .346E-02  .419E-02  .401E-02  .332E-02  .366E-02  .305E-02  .354E-02  .498E-02
  .585E-02  .501E-02  .426E-02  .500E-02  .526E-02  .415E-02  .375E-02  .403E-02
  .324E-02  .392E-02  .380E-02  .325E-02  .293E-02  .279E-02  .274E-02  .250E-02
  .219E-02  .196E-02  .184E-02  .182E-02  .180E-02  .176E-02  .000E+00  .000E+00
  .000E+00  .000E+00  .000E+00  .000E+00  .000E+00  .000E+00  .000E+00  .000E+00
  .000E+00  .000E+00  .000E+00  .000E+00  .000E+00  .000E+00  .000E+00  .000E+00
  .000E+00  .000E+00  .000E+00  .000E+00
  .611E-03  .655E-03  .736E-03  .826E-03  .928E-03  .113E-02  .148E-02  .193E-02
  .264E-02  .315E-02  .413E-02  .524E-02  .636E-02  .867E-02  .103E-01  .120E-01
  .123E-01  .165E-01  .191E-01  .159E-01  .180E-01  .230E-01  .253E-01  .283E-01
  .303E-01  .328E-01  .365E-01  .484E-01  .609E-01  .773E-01  .802E-01  .687E-01
  .651E-01  .753E-01  .964E-01  .112E+00  .113E+00  .104E+00  .923E-01  .993E-01
  .917E-01  .639E-01  .557E-01  .495E-01  .436E-01  .373E-01  .321E-01  .331E-01
  .346E-01  .347E-01  .336E-01  .365E-01  .371E-01  .368E-01  .349E-01  .339E-01
  .341E-01  .334E-01  .332E-01  .332E-01  .331E-01  .317E-01  .298E-01  .286E-01
  .275E-01  .268E-01  .268E-01  .268E-01  .270E-01  .272E-01  .272E-01  .273E-01
  .274E-01  .275E-01  .275E-01  .275E-01  .276E-01  .276E-01  .000E+00  .000E+00
  .000E+00  .000E+00  .000E+00  .000E+00  .000E+00  .000E+00  .000E+00  .000E+00
  .000E+00  .000E+00  .000E+00  .000E+00  .000E+00  .000E+00  .000E+00  .000E+00
  .000E+00  .000E+00  .000E+00  .000E+00
  .149E-02  .150E-02  .152E-02  .153E-02  .155E-02  .157E-02  .156E-02  .155E-02
  .153E-02  .178E-02  .206E-02  .232E-02  .238E-02  .238E-02  .228E-02  .228E-02
  .219E-02  .244E-02  .257E-02  .217E-02  .241E-02  .287E-02  .257E-02  .274E-02
  .292E-02  .315E-02  .355E-02  .401E-02  .432E-02  .476E-02  .443E-02  .324E-02
  .326E-02  .344E-02  .424E-02  .451E-02  .412E-02  .359E-02  .311E-02  .292E-02
  .276E-02  .144E-02  .116E-02  .846E-03  .636E-03  .454E-03  .399E-03  .462E-03
  .440E-03  .476E-03  .413E-03  .282E-03  .262E-03  .186E-03  .186E-03  .228E-03
  .235E-03  .178E-03  .137E-03  .143E-03  .137E-03  .883E-04  .675E-04  .617E-04
  .436E-04  .463E-04  .397E-04  .305E-04  .248E-04  .208E-04  .186E-04  .155E-04
  .137E-04  .123E-04  .113E-04  .105E-04  .871E-05  .761E-05  .000E+00  .000E+00
  .000E+00  .000E+00  .000E+00  .000E+00  .000E+00  .000E+00  .000E+00  .000E+00
  .000E+00  .000E+00  .000E+00  .000E+00  .000E+00  .000E+00  .000E+00  .000E+00
  .000E+00  .000E+00  .000E+00  .000E+00
  .366E-02  .387E-02  .410E-02  .433E-02  .458E-02  .481E-02  .528E-02  .570E-02
  .610E-02  .769E-02  .943E-02  .113E-01  .124E-01  .131E-01  .132E-01  .140E-01
  .147E-01  .180E-01  .208E-01  .185E-01  .222E-01  .279E-01  .266E-01  .300E-01
  .338E-01  .390E-01  .473E-01  .587E-01  .682E-01  .807E-01  .806E-01  .640E-01
  .675E-01  .763E-01  .996E-01  .111E+00  .105E+00  .954E-01  .874E-01  .848E-01
  .847E-01  .487E-01  .419E-01  .335E-01  .272E-01  .208E-01  .195E-01  .240E-01
  .242E-01  .277E-01  .252E-01  .189E-01  .192E-01  .148E-01  .159E-01  .209E-01
  .230E-01  .185E-01  .149E-01  .165E-01  .165E-01  .119E-01  .981E-02  .973E-02
  .728E-02  .822E-02  .747E-02  .600E-02  .511E-02  .461E-02  .431E-02  .375E-02
  .313E-02  .267E-02  .241E-02  .228E-02  .205E-02  .185E-02  .000E+00  .000E+00
  .000E+00  .000E+00  .000E+00  .000E+00  .000E+00  .000E+00  .000E+00  .000E+00
  .000E+00  .000E+00  .000E+00  .000E+00  .000E+00  .000E+00  .000E+00  .000E+00
  .000E+00  .000E+00  .000E+00  .000E+00
  .491E+02  .491E+02  .491E+02  .491E+02  .491E+02  .491E+02  .491E+02  .491E+02
  .491E+02  .491E+02  .491E+02  .491E+02  .491E+02  .491E+02  .491E+02  .491E+02
  .538E+02  .539E+02  .539E+02  .494E+02  .492E+02  .493E+02  .542E+02  .554E+02
  .523E+02  .493E+02  .493E+02  .493E+02  .494E+02  .495E+02  .495E+02  .537E+02
  .488E+02  .495E+02  .495E+02  .495E+02  .496E+02  .494E+02  .494E+02  .523E+02
  .524E+02  .492E+02  .492E+02  .513E+02  .524E+02  .641E+02  .627E+02  .628E+02
  .863E+02  .859E+02  .860E+02  .749E+02  .628E+02  .690E+02  .680E+02  .638E+02
  .639E+02  .649E+02  .650E+02  .680E+02  .634E+02  .991E+02  .609E+02  .784E+02
  .657E+02  .634E+02  .635E+02  .635E+02  .635E+02  .625E+02  .625E+02  .625E+02
  .627E+02  .627E+02  .522E+02  .522E+02  .625E+02  .625E+02  .000E+00  .000E+00
  .000E+00  .000E+00  .000E+00  .000E+00  .000E+00  .000E+00  .000E+00  .000E+00
  .000E+00  .000E+00  .000E+00  .000E+00  .000E+00  .000E+00  .000E+00  .000E+00
  .000E+00  .000E+00  .000E+00  .000E+00
  .538E+02  .538E+02  .518E+02  .518E+02  .518E+02  .516E+02  .518E+02  .529E+02
  .529E+02  .491E+02  .491E+02  .491E+02  .491E+02  .520E+02  .520E+02  .520E+02
  .538E+02  .539E+02  .539E+02  .571E+02  .492E+02  .500E+02  .541E+02  .553E+02
  .556E+02  .556E+02  .492E+02  .494E+02  .495E+02  .495E+02  .537E+02  .538E+02
  .488E+02  .496E+02  .496E+02  .494E+02  .495E+02  .495E+02  .495E+02  .524E+02
  .525E+02  .493E+02  .492E+02  .492E+02  .492E+02  .492E+02  .492E+02  .493E+02
  .493E+02  .493E+02  .493E+02  .492E+02  .492E+02  .492E+02  .492E+02  .492E+02
  .492E+02  .492E+02  .492E+02  .492E+02  .492E+02  .492E+02  .492E+02  .492E+02
  .492E+02  .492E+02  .492E+02  .492E+02  .492E+02  .492E+02  .492E+02  .492E+02
  .492E+02  .492E+02  .492E+02  .492E+02  .492E+02  .492E+02  .000E+00  .000E+00
  .000E+00  .000E+00  .000E+00  .000E+00  .000E+00  .000E+00  .000E+00  .000E+00
  .000E+00  .000E+00  .000E+00  .000E+00  .000E+00  .000E+00  .000E+00  .000E+00
  .000E+00  .000E+00  .000E+00  .000E+00
  .491E+02  .491E+02  .491E+02  .491E+02  .491E+02  .491E+02  .491E+02  .491E+02
  .491E+02  .491E+02  .491E+02  .491E+02  .491E+02  .491E+02  .491E+02  .522E+02
  .538E+02  .539E+02  .539E+02  .494E+02  .492E+02  .492E+02  .542E+02  .554E+02
  .523E+02  .492E+02  .493E+02  .493E+02  .494E+02  .495E+02  .538E+02  .537E+02
  .488E+02  .495E+02  .495E+02  .495E+02  .496E+02  .494E+02  .494E+02  .523E+02
  .524E+02  .492E+02  .492E+02  .513E+02  .524E+02  .641E+02  .627E+02  .628E+02
  .863E+02  .859E+02  .860E+02  .749E+02  .628E+02  .690E+02  .679E+02  .638E+02
  .638E+02  .649E+02  .650E+02  .680E+02  .634E+02  .991E+02  .608E+02  .783E+02
  .657E+02  .634E+02  .634E+02  .634E+02  .634E+02  .624E+02  .624E+02  .624E+02
  .522E+02  .522E+02  .522E+02  .522E+02  .522E+02  .492E+02  .000E+00  .000E+00
  .000E+00  .000E+00  .000E+00  .000E+00  .000E+00  .000E+00  .000E+00  .000E+00
  .000E+00  .000E+00  .000E+00  .000E+00  .000E+00  .000E+00  .000E+00  .000E+00
  .000E+00  .000E+00  .000E+00  .000E+00
/&   ----------  End of spectral data for channel  1  ----------
Response and Fourier amplitude spectra (78 periods,  .04 -  6.0 sec)   for      
Corrected accelerogram   38695658.CI.IDQ.--.HN      Chan  2: 360 Deg     from   
Uncorrected Accelerogram Data             Processed: 09/19/20, CGS  ciidq--p    
Rcrd of Fri Sep 18, 2020 23:38:48.0 PDT               (Avol1 v2.0, 4/18 CSMIP)  
                                        (Origin:  To be determined)             
38695658.CI.IDQ.--.HN                Start time:  9/19/20, 06:38:48.0 UTC (GPS) 
Station Id. IDQ     33.768N, 116.239W    ObsMMS  s/n  266  (3 Chns of  6 at Sta)
Indio Quarry                             SCSN   Data: Acceleration              
Chan  2: 360 Deg                                                                
Rcrd of Fri Sep 18, 2020 23:38:48.0 PDT    Fri Sep 18, 2020 23:38:48.0 PDT      
Hypocenter:  To be determined.               ML:  To be determined.             
Instr Period =  .0050 sec,  Damping =  .707,  Sensitivity = 5.00 v/g  (Nominal) 
                        Record Length =301.000 sec.                             
                                     Uncor Max  =   .000 g, at   50.700 sec.    
RMS accel of (uncor) record  =        .   Chn. metadata effective date:         
Accelerogram bandpass filtered with 3 dB pts at   .30 and 23.00 cyc/sec         
                 instrument- and base-line correcte                             
                                                                                
                                                                                
                                                                                
                                                                                
                                                                                
Rcrd of Fri Sep 18, 2020 23:38:48.0 PDT    Fri Sep 18, 2020 23:38:48.0 PDT      
                                                                                
38695658.CI.IDQ.--.HN     Indio Quarry    Chan  2: 360 Deg                      
                                                                                
38695658.CI.IDQ.--.HN     Indio Quarry    Chan  2: 360 Deg                      
                                                                                
Units for spectra are inches and sec, except Sa is in fraction of g.            
                                                                                
    2  100    2    6    6  100 -999    3    1    0   15  266    0    0   41    0
    6   38   48   10  263    9   19 2020   10    3  36035625   39   12   74 -999
35625 -999  100    6 -999 -999 -999 -999 -999 -999 -999 -999 -999 -999 -999 -999
 -999 -999 -999 -99915050    2 -999    0 -999   20 -999 -999    3    1 419115050
    315050    4   78    1    3    5    0    0 -999    0 -999 -999    6 -999    2
    2    2    4 -999 -999 -999 -999 -999 -999 -999 -999    1 -999 -999 -999  111
    1    1 -999 -999
      .005      .707   356.250      .000     1.000  4995.260      .000    50.700
   200.000     2.384      .477  -999.000    10.000  -999.000     4.000  -999.000
    20.000   -15.548      .000  -999.000  -999.000  -999.000  -999.000      .001
     -.001     -.002     2.000    15.000    33.768  -116.239      .004      .004
      .991     -.003     -.002    29.000  -999.000  -999.000  -999.000  -999.000
     1.000  -999.000  -999.000  -999.000  -999.000  -999.000  -999.000   120.000
     -.900     2.000     6.800   980.665      .020   301.000    31.831      .000
  -999.000    23.000  -999.000   301.000      .020      .300  -999.000  -999.000
    50.700      .372    50.660     -.022    52.480      .002      .000      .300
    23.000      .020      .020      .000      .020      .002  -999.000  -999.000
      .001      .240      .001      .001      .000      .000  -999.000  -999.000
  -999.000  -999.000  -999.000  -999.000  -999.000  -999.000  -999.000  -999.000
  -999.000  -999.000  -999.000  -999.000
      .050
      .040      .042      .044      .046      .048      .050      .055      .060
      .065      .070      .075      .080      .085      .090      .095      .100
      .110      .120      .130      .140      .150      .160      .170      .180
      .190      .200      .220      .240      .260      .280      .300      .320
      .340      .360      .380      .400      .420      .440      .460      .480
      .500      .550      .600      .650      .700      .750      .800      .850
      .900      .950     1.000     1.100     1.200     1.300     1.400     1.500
     1.600     1.700     1.800     1.900     2.000     2.200     2.400     2.600
     2.800     3.000     3.200     3.400     3.600     3.800     4.000     4.200
     4.400     4.600     4.800     5.000     5.500     6.000      .000      .000
      .000      .000      .000      .000      .000      .000      .000      .000
      .000      .000      .000      .000      .000      .000      .000      .000
      .000      .000      .000      .000
Fourier amplitude spectra in in/sec.
  .000E+00  .000E+00  .000E+00  .000E+00  .000E+00  .000E+00  .000E+00  .000E+00
  .000E+00  .000E+00  .000E+00  .000E+00  .000E+00  .000E+00  .000E+00  .000E+00
  .000E+00  .000E+00  .000E+00  .000E+00  .000E+00  .000E+00  .000E+00  .000E+00
  .000E+00  .000E+00  .000E+00  .000E+00  .000E+00  .000E+00  .000E+00  .000E+00
  .000E+00  .000E+00  .000E+00  .000E+00  .000E+00  .000E+00  .000E+00  .000E+00
  .000E+00  .000E+00  .000E+00  .000E+00  .000E+00  .000E+00  .000E+00  .000E+00
  .000E+00  .000E+00  .000E+00  .000E+00  .000E+00  .000E+00  .000E+00  .000E+00
  .000E+00  .000E+00  .000E+00  .000E+00  .000E+00  .000E+00  .000E+00  .000E+00
  .000E+00  .000E+00  .000E+00  .000E+00  .000E+00  .000E+00  .000E+00  .000E+00
  .000E+00  .000E+00  .000E+00  .000E+00  .000E+00  .000E+00  .000E+00  .000E+00
  .000E+00  .000E+00  .000E+00  .000E+00  .000E+00  .000E+00  .000E+00  .000E+00
  .000E+00  .000E+00  .000E+00  .000E+00  .000E+00  .000E+00  .000E+00  .000E+00
  .000E+00  .000E+00  .000E+00  .000E+00
Damping =  .05. Data of Sd,Sv,Sa,Pssv,ttSd,ttSv,ttSa :
  .603E-05  .660E-05  .742E-05  .840E-05  .922E-05  .977E-05  .125E-04  .163E-04
  .212E-04  .301E-04  .352E-04  .438E-04  .466E-04  .534E-04  .603E-04  .686E-04
  .123E-03  .134E-03  .148E-03  .191E-03  .229E-03  .283E-03  .320E-03  .340E-03
  .377E-03  .448E-03  .504E-03  .748E-03  .824E-03  .904E-03  .101E-02  .111E-02
  .120E-02  .116E-02  .113E-02  .112E-02  .139E-02  .164E-02  .185E-02  .230E-02
