Response and Fourier amplitude spectra (78 periods,  .04 -  6.0 sec)   for      
Corrected accelerogram   38695658.CI.IVY.--.HN      Chan  1:  90 Deg     from   
Uncorrected Accelerogram Data             Processed: 09/19/20, CGS  ciivy--r    
Rcrd of Fri Sep 18, 2020 23:38:36.0 PDT               (Avol1 v2.0, 4/18 CSMIP)  
                                        (Origin:  To be determined)             
38695658.CI.IVY.--.HN                Start time:  9/19/20, 06:38:36.0 UTC (GPS) 
Station Id. IVY     33.760N, 117.477W    ObsMMS  s/n 1923  (3 Chns of  6 at Sta)
Ivy Glen                                 SCSN   Data: Acceleration              
Chan  1:  90 Deg                                                                
Rcrd of Fri Sep 18, 2020 23:38:36.0 PDT    Fri Sep 18, 2020 23:38:36.0 PDT      
Hypocenter:  To be determined.               ML:  To be determined.             
Instr Period =  .0050 sec,  Damping =  .707,  Sensitivity = 4.99 v/g  (Nominal) 
                        Record Length =301.000 sec.                             
                                     Uncor Max  =   .011 g, at   32.280 sec.    
RMS accel of (uncor) record  =        .   Chn. metadata effective date:         
Accelerogram bandpass filtered with 3 dB pts at   .30 and 23.00 cyc/sec         
                 instrument- and base-line correcte                             
                                                                                
                                                                                
                                                                                
                                                                                
                                                                                
Rcrd of Fri Sep 18, 2020 23:38:36.0 PDT    Fri Sep 18, 2020 23:38:36.0 PDT      
                                                                                
38695658.CI.IVY.--.HN     Ivy Glen    Chan  1:  90 Deg                          
                                                                                
38695658.CI.IVY.--.HN     Ivy Glen    Chan  1:  90 Deg                          
                                                                                
Units for spectra are inches and sec, except Sa is in fraction of g.            
                                                                                
    1  100    1    6    6  100 -999    3    1    0   15 1923    0    0   41    0
    6   38   36    0  263    9   19 2020   10    3   9035268   39    8   74 -999
35268 -999  100    6 -999 -999 -999 -999 -999 -999 -999 -999 -999 -999 -999 -999
 -999 -999 -999 -99915050    2 -999    0 -999   20 -999 -999    3    1 -99915050
    315050    4   78    1    3    5    0    0 -999    0 -999 -999    6 -999    2
    2    2    4 -999 -999 -999 -999 -999 -999 -999 -999    1 -999 -999 -999  111
    1    1 -999 -999
      .005      .707   352.680      .000     1.000  4988.479      .011    32.280
   200.000     2.384      .478  -999.000    10.000  -999.000     4.000  -999.000
    20.000   -19.407      .000  -999.000  -999.000  -999.000  -999.000      .001
      .000     -.001     2.000    15.000    33.760  -117.477      .022      .026
     1.194     -.005      .003   330.000  -999.000  -999.000  -999.000  -999.000
     1.000  -999.000    -8.000  -999.000  -999.000  -999.000  -999.000   120.000
     -.900     2.000     6.800   980.665      .020   301.000    31.831      .000
  -999.000    23.000  -999.000   301.000      .020      .300  -999.000  -999.000
    32.280    10.629    32.240     -.305    30.920      .011      .000      .300
    23.000      .020      .020      .000      .020      .012  -999.000  -999.000
      .032      .130      .023      .020      .001      .000  -999.000  -999.000
  -999.000  -999.000  -999.000  -999.000  -999.000  -999.000  -999.000  -999.000
  -999.000  -999.000  -999.000  -999.000
      .050
      .040      .042      .044      .046      .048      .050      .055      .060
      .065      .070      .075      .080      .085      .090      .095      .100
      .110      .120      .130      .140      .150      .160      .170      .180
      .190      .200      .220      .240      .260      .280      .300      .320
      .340      .360      .380      .400      .420      .440      .460      .480
      .500      .550      .600      .650      .700      .750      .800      .850
      .900      .950     1.000     1.100     1.200     1.300     1.400     1.500
     1.600     1.700     1.800     1.900     2.000     2.200     2.400     2.600
     2.800     3.000     3.200     3.400     3.600     3.800     4.000     4.200
     4.400     4.600     4.800     5.000     5.500     6.000      .000      .000
      .000      .000      .000      .000      .000      .000      .000      .000
      .000      .000      .000      .000      .000      .000      .000      .000
      .000      .000      .000      .000
Fourier amplitude spectra in in/sec.
  .000E+00  .000E+00  .000E+00  .000E+00  .000E+00  .000E+00  .000E+00  .000E+00
  .000E+00  .000E+00  .000E+00  .000E+00  .000E+00  .000E+00  .000E+00  .000E+00
  .000E+00  .000E+00  .000E+00  .000E+00  .000E+00  .000E+00  .000E+00  .000E+00
  .000E+00  .000E+00  .000E+00  .000E+00  .000E+00  .000E+00  .000E+00  .000E+00
  .000E+00  .000E+00  .000E+00  .000E+00  .000E+00  .000E+00  .000E+00  .000E+00
  .000E+00  .000E+00  .000E+00  .000E+00  .000E+00  .000E+00  .000E+00  .000E+00
  .000E+00  .000E+00  .000E+00  .000E+00  .000E+00  .000E+00  .000E+00  .000E+00
  .000E+00  .000E+00  .000E+00  .000E+00  .000E+00  .000E+00  .000E+00  .000E+00
  .000E+00  .000E+00  .000E+00  .000E+00  .000E+00  .000E+00  .000E+00  .000E+00
  .000E+00  .000E+00  .000E+00  .000E+00  .000E+00  .000E+00  .000E+00  .000E+00
  .000E+00  .000E+00  .000E+00  .000E+00  .000E+00  .000E+00  .000E+00  .000E+00
  .000E+00  .000E+00  .000E+00  .000E+00  .000E+00  .000E+00  .000E+00  .000E+00
  .000E+00  .000E+00  .000E+00  .000E+00
Damping =  .05. Data of Sd,Sv,Sa,Pssv,ttSd,ttSv,ttSa :
  .174E-03  .196E-03  .223E-03  .249E-03  .265E-03  .287E-03  .364E-03  .478E-03
  .493E-03  .732E-03  .989E-03  .149E-02  .190E-02  .181E-02  .206E-02  .243E-02
  .271E-02  .412E-02  .525E-02  .579E-02  .579E-02  .674E-02  .676E-02  .699E-02
  .780E-02  .919E-02  .105E-01  .125E-01  .146E-01  .165E-01  .186E-01  .166E-01
  .180E-01  .196E-01  .187E-01  .161E-01  .140E-01  .116E-01  .963E-02  .797E-02
  .814E-02  .119E-01  .131E-01  .158E-01  .134E-01  .128E-01  .110E-01  .818E-02
  .786E-02  .832E-02  .788E-02  .830E-02  .905E-02  .107E-01  .144E-01  .145E-01
  .149E-01  .147E-01  .165E-01  .133E-01  .115E-01  .993E-02  .903E-02  .102E-01
  .965E-02  .854E-02  .770E-02  .728E-02  .648E-02  .575E-02  .538E-02  .526E-02
  .516E-02  .512E-02  .509E-02  .507E-02  .496E-02  .486E-02  .000E+00  .000E+00
  .000E+00  .000E+00  .000E+00  .000E+00  .000E+00  .000E+00  .000E+00  .000E+00
  .000E+00  .000E+00  .000E+00  .000E+00  .000E+00  .000E+00  .000E+00  .000E+00
  .000E+00  .000E+00  .000E+00  .000E+00
  .909E-02  .101E-01  .105E-01  .114E-01  .131E-01  .156E-01  .239E-01  .301E-01
  .357E-01  .462E-01  .686E-01  .105E+00  .114E+00  .943E-01  .103E+00  .127E+00
  .137E+00  .210E+00  .235E+00  .241E+00  .231E+00  .263E+00  .236E+00  .232E+00
  .260E+00  .288E+00  .291E+00  .356E+00  .370E+00  .354E+00  .381E+00  .348E+00
  .357E+00  .376E+00  .327E+00  .284E+00  .247E+00  .199E+00  .173E+00  .160E+00
  .168E+00  .162E+00  .206E+00  .191E+00  .183E+00  .186E+00  .177E+00  .158E+00
  .140E+00  .132E+00  .131E+00  .133E+00  .134E+00  .144E+00  .149E+00  .155E+00
  .155E+00  .146E+00  .132E+00  .122E+00  .120E+00  .116E+00  .109E+00  .109E+00
  .111E+00  .111E+00  .111E+00  .112E+00  .113E+00  .114E+00  .115E+00  .115E+00
  .115E+00  .115E+00  .116E+00  .116E+00  .116E+00  .116E+00  .000E+00  .000E+00
  .000E+00  .000E+00  .000E+00  .000E+00  .000E+00  .000E+00  .000E+00  .000E+00
  .000E+00  .000E+00  .000E+00  .000E+00  .000E+00  .000E+00  .000E+00  .000E+00
  .000E+00  .000E+00  .000E+00  .000E+00
  .111E-01  .114E-01  .118E-01  .120E-01  .118E-01  .118E-01  .123E-01  .136E-01
  .120E-01  .152E-01  .180E-01  .239E-01  .267E-01  .226E-01  .233E-01  .255E-01
  .229E-01  .297E-01  .320E-01  .299E-01  .264E-01  .274E-01  .241E-01  .222E-01
  .222E-01  .239E-01  .227E-01  .221E-01  .223E-01  .219E-01  .210E-01  .165E-01
  .162E-01  .155E-01  .134E-01  .103E-01  .824E-02  .623E-02  .463E-02  .357E-02
  .341E-02  .415E-02  .385E-02  .383E-02  .288E-02  .234E-02  .180E-02  .117E-02
  .100E-02  .951E-03  .811E-03  .740E-03  .666E-03  .657E-03  .755E-03  .662E-03
  .598E-03  .528E-03  .526E-03  .382E-03  .297E-03  .225E-03  .192E-03  .165E-03
  .136E-03  .106E-03  .894E-04  .767E-04  .695E-04  .626E-04  .583E-04  .543E-04
  .510E-04  .480E-04  .453E-04  .428E-04  .379E-04  .342E-04  .000E+00  .000E+00
  .000E+00  .000E+00  .000E+00  .000E+00  .000E+00  .000E+00  .000E+00  .000E+00
  .000E+00  .000E+00  .000E+00  .000E+00  .000E+00  .000E+00  .000E+00  .000E+00
  .000E+00  .000E+00  .000E+00  .000E+00
  .274E-01  .294E-01  .319E-01  .340E-01  .347E-01  .360E-01  .415E-01  .500E-01
  .476E-01  .657E-01  .828E-01  .117E+00  .140E+00  .126E+00  .136E+00  .153E+00
  .155E+00  .216E+00  .254E+00  .260E+00  .243E+00  .265E+00  .250E+00  .244E+00
  .258E+00  .289E+00  .301E+00  .327E+00  .352E+00  .371E+00  .390E+00  .325E+00
  .333E+00  .342E+00  .310E+00  .253E+00  .210E+00  .165E+00  .132E+00  .104E+00
  .102E+00  .136E+00  .137E+00  .152E+00  .121E+00  .107E+00  .864E-01  .605E-01
  .549E-01  .550E-01  .495E-01  .474E-01  .474E-01  .518E-01  .646E-01  .606E-01
  .583E-01  .543E-01  .576E-01  .441E-01  .360E-01  .284E-01  .236E-01  .247E-01
  .217E-01  .179E-01  .151E-01  .134E-01  .113E-01  .951E-02  .846E-02  .787E-02
  .738E-02  .699E-02  .666E-02  .637E-02  .567E-02  .509E-02  .000E+00  .000E+00
  .000E+00  .000E+00  .000E+00  .000E+00  .000E+00  .000E+00  .000E+00  .000E+00
  .000E+00  .000E+00  .000E+00  .000E+00  .000E+00  .000E+00  .000E+00  .000E+00
  .000E+00  .000E+00  .000E+00  .000E+00
  .323E+02  .323E+02  .323E+02  .323E+02  .323E+02  .323E+02  .323E+02  .323E+02
  .324E+02  .323E+02  .323E+02  .324E+02  .324E+02  .324E+02  .324E+02  .324E+02
  .335E+02  .326E+02  .323E+02  .323E+02  .313E+02  .336E+02  .328E+02  .328E+02
  .321E+02  .321E+02  .325E+02  .325E+02  .325E+02  .325E+02  .328E+02  .328E+02
  .328E+02  .329E+02  .327E+02  .327E+02  .324E+02  .324E+02  .323E+02  .327E+02
  .324E+02  .324E+02  .322E+02  .323E+02  .376E+02  .327E+02  .328E+02  .321E+02
  .313E+02  .362E+02  .363E+02  .323E+02  .359E+02  .413E+02  .422E+02  .423E+02
  .360E+02  .361E+02  .418E+02  .411E+02  .403E+02  .321E+02  .324E+02  .356E+02
  .356E+02  .356E+02  .347E+02  .347E+02  .347E+02  .347E+02  .307E+02  .307E+02
  .307E+02  .307E+02  .307E+02  .307E+02  .307E+02  .307E+02  .000E+00  .000E+00
  .000E+00  .000E+00  .000E+00  .000E+00  .000E+00  .000E+00  .000E+00  .000E+00
  .000E+00  .000E+00  .000E+00  .000E+00  .000E+00  .000E+00  .000E+00  .000E+00
  .000E+00  .000E+00  .000E+00  .000E+00
  .325E+02  .325E+02  .325E+02  .323E+02  .325E+02  .325E+02  .325E+02  .326E+02
  .324E+02  .326E+02  .326E+02  .326E+02  .324E+02  .324E+02  .324E+02  .325E+02
  .326E+02  .326E+02  .323E+02  .323E+02  .313E+02  .336E+02  .328E+02  .328E+02
  .321E+02  .321E+02  .325E+02  .325E+02  .325E+02  .325E+02  .330E+02  .329E+02
  .329E+02  .328E+02  .328E+02  .325E+02  .327E+02  .324E+02  .324E+02  .327E+02
  .327E+02  .323E+02  .324E+02  .324E+02  .322E+02  .322E+02  .322E+02  .322E+02
  .322E+02  .312E+02  .312E+02  .322E+02  .327E+02  .322E+02  .322E+02  .322E+02
  .322E+02  .322E+02  .322E+02  .322E+02  .322E+02  .322E+02  .322E+02  .322E+02
  .322E+02  .322E+02  .322E+02  .322E+02  .322E+02  .322E+02  .322E+02  .322E+02
  .322E+02  .322E+02  .322E+02  .322E+02  .322E+02  .322E+02  .000E+00  .000E+00
  .000E+00  .000E+00  .000E+00  .000E+00  .000E+00  .000E+00  .000E+00  .000E+00
  .000E+00  .000E+00  .000E+00  .000E+00  .000E+00  .000E+00  .000E+00  .000E+00
  .000E+00  .000E+00  .000E+00  .000E+00
  .323E+02  .323E+02  .323E+02  .323E+02  .323E+02  .323E+02  .323E+02  .323E+02
  .324E+02  .323E+02  .323E+02  .324E+02  .324E+02  .324E+02  .324E+02  .324E+02
  .335E+02  .326E+02  .323E+02  .323E+02  .313E+02  .335E+02  .328E+02  .328E+02
  .321E+02  .320E+02  .325E+02  .324E+02  .325E+02  .325E+02  .328E+02  .328E+02
  .328E+02  .329E+02  .327E+02  .327E+02  .324E+02  .324E+02  .323E+02  .327E+02
  .324E+02  .324E+02  .322E+02  .323E+02  .323E+02  .327E+02  .327E+02  .327E+02
  .313E+02  .362E+02  .363E+02  .322E+02  .322E+02  .413E+02  .422E+02  .423E+02
  .360E+02  .361E+02  .418E+02  .411E+02  .403E+02  .324E+02  .324E+02  .355E+02
  .355E+02  .355E+02  .347E+02  .347E+02  .335E+02  .322E+02  .322E+02  .322E+02
  .322E+02  .322E+02  .322E+02  .322E+02  .322E+02  .322E+02  .000E+00  .000E+00
  .000E+00  .000E+00  .000E+00  .000E+00  .000E+00  .000E+00  .000E+00  .000E+00
  .000E+00  .000E+00  .000E+00  .000E+00  .000E+00  .000E+00  .000E+00  .000E+00
  .000E+00  .000E+00  .000E+00  .000E+00
/&   ----------  End of spectral data for channel  1  ----------
Response and Fourier amplitude spectra (78 periods,  .04 -  6.0 sec)   for      
Corrected accelerogram   38695658.CI.IVY.--.HN      Chan  2: 360 Deg     from   
Uncorrected Accelerogram Data             Processed: 09/19/20, CGS  ciivy--r    
Rcrd of Fri Sep 18, 2020 23:38:36.0 PDT               (Avol1 v2.0, 4/18 CSMIP)  
                                        (Origin:  To be determined)             
38695658.CI.IVY.--.HN                Start time:  9/19/20, 06:38:36.0 UTC (GPS) 
Station Id. IVY     33.760N, 117.477W    ObsMMS  s/n 1923  (3 Chns of  6 at Sta)
Ivy Glen                                 SCSN   Data: Acceleration              
Chan  2: 360 Deg                                                                
Rcrd of Fri Sep 18, 2020 23:38:36.0 PDT    Fri Sep 18, 2020 23:38:36.0 PDT      
Hypocenter:  To be determined.               ML:  To be determined.             
Instr Period =  .0050 sec,  Damping =  .707,  Sensitivity = 4.99 v/g  (Nominal) 
                        Record Length =301.000 sec.                             
                                     Uncor Max  =  -.011 g, at   32.520 sec.    
RMS accel of (uncor) record  =        .   Chn. metadata effective date:         
Accelerogram bandpass filtered with 3 dB pts at   .30 and 23.00 cyc/sec         
                 instrument- and base-line correcte                             
                                                                                
                                                                                
                                                                                
                                                                                
                                                                                
Rcrd of Fri Sep 18, 2020 23:38:36.0 PDT    Fri Sep 18, 2020 23:38:36.0 PDT      
                                                                                
38695658.CI.IVY.--.HN     Ivy Glen    Chan  2: 360 Deg                          
                                                                                
38695658.CI.IVY.--.HN     Ivy Glen    Chan  2: 360 Deg                          
                                                                                
Units for spectra are inches and sec, except Sa is in fraction of g.            
                                                                                
    2  100    2    6    6  100 -999    3    1    0   15 1923    0    0   41    0
    6   38   36   10  263    9   19 2020   10    3  36035641   39    8   74 -999
35641 -999  100    6 -999 -999 -999 -999 -999 -999 -999 -999 -999 -999 -999 -999
 -999 -999 -999 -99915050    2 -999    0 -999   20 -999 -999    3    1 -99915050
    315050    4   78    1    3    5    0    0 -999    0 -999 -999    6 -999    2
    2    2    4 -999 -999 -999 -999 -999 -999 -999 -999    1 -999 -999 -999  111
    1    1 -999 -999
      .005      .707   356.410      .000     1.000  4990.473     -.011    32.520
   200.000     2.384      .478  -999.000    10.000  -999.000     4.000  -999.000
    20.000   -20.391      .000  -999.000  -999.000  -999.000  -999.000     -.022
      .022      .044     2.000    15.000    33.760  -117.477      .028      .029
     1.053      .038      .049   330.000  -999.000  -999.000  -999.000  -999.000
     1.000  -999.000  -999.000  -999.000  -999.000  -999.000  -999.000   120.000
     -.900     2.000     6.800   980.665      .020   301.000    31.831     -.003
  -999.000    23.000  -999.000   301.000      .020      .300  -999.000  -999.000
    32.520   -10.274    32.540     -.328    34.880      .015      .000      .300
    23.000      .020      .020      .000      .020      .012  -999.000  -999.000
      .037      .130      .024      .018      .002      .000  -999.000  -999.000
  -999.000  -999.000  -999.000  -999.000  -999.000  -999.000  -999.000  -999.000
  -999.000  -999.000  -999.000  -999.000
      .050
      .040      .042      .044      .046      .048      .050      .055      .060
      .065      .070      .075      .080      .085      .090      .095      .100
      .110      .120      .130      .140      .150      .160      .170      .180
      .190      .200      .220      .240      .260      .280      .300      .320
      .340      .360      .380      .400      .420      .440      .460      .480
      .500      .550      .600      .650      .700      .750      .800      .850
      .900      .950     1.000     1.100     1.200     1.300     1.400     1.500
     1.600     1.700     1.800     1.900     2.000     2.200     2.400     2.600
     2.800     3.000     3.200     3.400     3.600     3.800     4.000     4.200
     4.400     4.600     4.800     5.000     5.500     6.000      .000      .000
      .000      .000      .000      .000      .000      .000      .000      .000
      .000      .000      .000      .000      .000      .000      .000      .000
      .000      .000      .000      .000
Fourier amplitude spectra in in/sec.
  .000E+00  .000E+00  .000E+00  .000E+00  .000E+00  .000E+00  .000E+00  .000E+00
  .000E+00  .000E+00  .000E+00  .000E+00  .000E+00  .000E+00  .000E+00  .000E+00
  .000E+00  .000E+00  .000E+00  .000E+00  .000E+00  .000E+00  .000E+00  .000E+00
  .000E+00  .000E+00  .000E+00  .000E+00  .000E+00  .000E+00  .000E+00  .000E+00
  .000E+00  .000E+00  .000E+00  .000E+00  .000E+00  .000E+00  .000E+00  .000E+00
  .000E+00  .000E+00  .000E+00  .000E+00  .000E+00  .000E+00  .000E+00  .000E+00
  .000E+00  .000E+00  .000E+00  .000E+00  .000E+00  .000E+00  .000E+00  .000E+00
  .000E+00  .000E+00  .000E+00  .000E+00  .000E+00  .000E+00  .000E+00  .000E+00
  .000E+00  .000E+00  .000E+00  .000E+00  .000E+00  .000E+00  .000E+00  .000E+00
  .000E+00  .000E+00  .000E+00  .000E+00  .000E+00  .000E+00  .000E+00  .000E+00
  .000E+00  .000E+00  .000E+00  .000E+00  .000E+00  .000E+00  .000E+00  .000E+00
  .000E+00  .000E+00  .000E+00  .000E+00  .000E+00  .000E+00  .000E+00  .000E+00
  .000E+00  .000E+00  .000E+00  .000E+00
Damping =  .05. Data of Sd,Sv,Sa,Pssv,ttSd,ttSv,ttSa :
  .192E-03  .218E-03  .248E-03  .274E-03  .300E-03  .319E-03  .419E-03  .473E-03
  .531E-03  .717E-03  .912E-03  .147E-02  .178E-02  .176E-02  .233E-02  .289E-02
  .306E-02  .515E-02  .612E-02  .614E-02  .648E-02  .602E-02  .855E-02  .103E-01
  .926E-02  .855E-02  .118E-01  .123E-01  .150E-01  .153E-01  .147E-01  .151E-01
  .125E-01  .124E-01  .125E-01  .126E-01  .120E-01  .141E-01  .178E-01  .195E-01
