Response and Fourier amplitude spectra (78 periods,  .04 -  6.0 sec)   for      
Corrected accelerogram   38695658.CI.JEM.--.HN      Chan  1:  90 Deg     from   
Uncorrected Accelerogram Data             Processed: 09/19/20, CGS  cijem--n    
Rcrd of Fri Sep 18, 2020 23:38:47.0 PDT               (Avol1 v2.0, 4/18 CSMIP)  
                                        (Origin:  To be determined)             
38695658.CI.JEM.--.HN                Start time:  9/19/20, 06:38:47.0 UTC (GPS) 
Station Id. JEM     33.081N, 116.598W    ObsMMS  s/n 4323  (3 Chns of  6 at Sta)
Julian Eagle Mine                        SCSN   Data: Acceleration              
Chan  1:  90 Deg                                                                
Rcrd of Fri Sep 18, 2020 23:38:47.0 PDT    Fri Sep 18, 2020 23:38:47.0 PDT      
Hypocenter:  To be determined.               ML:  To be determined.             
Instr Period =  .0050 sec,  Damping =  .707,  Sensitivity = 4.99 v/g  (Nominal) 
                        Record Length =301.000 sec.                             
                                     Uncor Max  =   .001 g, at   50.130 sec.    
RMS accel of (uncor) record  =        .   Chn. metadata effective date:         
Accelerogram bandpass filtered with 3 dB pts at   .30 and 23.00 cyc/sec         
                 instrument- and base-line correcte                             
                                                                                
                                                                                
                                                                                
                                                                                
                                                                                
Rcrd of Fri Sep 18, 2020 23:38:47.0 PDT    Fri Sep 18, 2020 23:38:47.0 PDT      
                                                                                
38695658.CI.JEM.--.HN     Julian Eagle Mine   Chan  1:  90 Deg                  
                                                                                
38695658.CI.JEM.--.HN     Julian Eagle Mine   Chan  1:  90 Deg                  
                                                                                
Units for spectra are inches and sec, except Sa is in fraction of g.            
                                                                                
    1  100    1    6    6  100 -999    3    1    0   15 4323    0    0   41    0
    6   38   47    8  263    9   19 2020   10    3   9036359   39   17   74 -999
36359 -999  100    6 -999 -999 -999 -999 -999 -999 -999 -999 -999 -999 -999 -999
 -999 -999 -999 -99915050    2 -999    0 -999   20 -999 -999    3    1 -99915050
    315050    4   78    1    3    5    0    0 -999    0 -999 -999    6 -999    2
    2    2    4 -999 -999 -999 -999 -999 -999 -999 -999    1 -999 -999 -999  111
    1    1 -999 -999
      .005      .707   363.590      .000     1.000  4992.069      .001    50.130
   200.000     2.384      .478  -999.000    10.000  -999.000     4.000  -999.000
    20.000   -27.586      .000  -999.000  -999.000  -999.000  -999.000      .000
      .001      .000     2.000    15.000    33.081  -116.598      .001      .001
     1.132      .000      .001  1308.000  -999.000  -999.000  -999.000  -999.000
     1.000  -999.000    -8.000  -999.000  -999.000  -999.000  -999.000   120.000
     -.900     2.000     6.800   980.665      .020   301.000    31.831      .000
  -999.000    23.000  -999.000   301.000      .020      .300  -999.000  -999.000
    50.120      .941    50.160      .026    49.060      .001      .000      .300
    23.000      .020      .020      .000      .020      .002  -999.000  -999.000
      .004      .200      .004      .002      .000      .000  -999.000  -999.000
  -999.000  -999.000  -999.000  -999.000  -999.000  -999.000  -999.000  -999.000
  -999.000  -999.000  -999.000  -999.000
      .050
      .040      .042      .044      .046      .048      .050      .055      .060
      .065      .070      .075      .080      .085      .090      .095      .100
      .110      .120      .130      .140      .150      .160      .170      .180
      .190      .200      .220      .240      .260      .280      .300      .320
      .340      .360      .380      .400      .420      .440      .460      .480
      .500      .550      .600      .650      .700      .750      .800      .850
      .900      .950     1.000     1.100     1.200     1.300     1.400     1.500
     1.600     1.700     1.800     1.900     2.000     2.200     2.400     2.600
     2.800     3.000     3.200     3.400     3.600     3.800     4.000     4.200
     4.400     4.600     4.800     5.000     5.500     6.000      .000      .000
      .000      .000      .000      .000      .000      .000      .000      .000
      .000      .000      .000      .000      .000      .000      .000      .000
      .000      .000      .000      .000
Fourier amplitude spectra in in/sec.
  .000E+00  .000E+00  .000E+00  .000E+00  .000E+00  .000E+00  .000E+00  .000E+00
  .000E+00  .000E+00  .000E+00  .000E+00  .000E+00  .000E+00  .000E+00  .000E+00
  .000E+00  .000E+00  .000E+00  .000E+00  .000E+00  .000E+00  .000E+00  .000E+00
  .000E+00  .000E+00  .000E+00  .000E+00  .000E+00  .000E+00  .000E+00  .000E+00
  .000E+00  .000E+00  .000E+00  .000E+00  .000E+00  .000E+00  .000E+00  .000E+00
  .000E+00  .000E+00  .000E+00  .000E+00  .000E+00  .000E+00  .000E+00  .000E+00
  .000E+00  .000E+00  .000E+00  .000E+00  .000E+00  .000E+00  .000E+00  .000E+00
  .000E+00  .000E+00  .000E+00  .000E+00  .000E+00  .000E+00  .000E+00  .000E+00
  .000E+00  .000E+00  .000E+00  .000E+00  .000E+00  .000E+00  .000E+00  .000E+00
  .000E+00  .000E+00  .000E+00  .000E+00  .000E+00  .000E+00  .000E+00  .000E+00
  .000E+00  .000E+00  .000E+00  .000E+00  .000E+00  .000E+00  .000E+00  .000E+00
  .000E+00  .000E+00  .000E+00  .000E+00  .000E+00  .000E+00  .000E+00  .000E+00
  .000E+00  .000E+00  .000E+00  .000E+00
Damping =  .05. Data of Sd,Sv,Sa,Pssv,ttSd,ttSv,ttSa :
  .171E-04  .189E-04  .213E-04  .242E-04  .275E-04  .300E-04  .303E-04  .397E-04
  .575E-04  .749E-04  .962E-04  .120E-03  .138E-03  .171E-03  .199E-03  .221E-03
  .276E-03  .438E-03  .468E-03  .534E-03  .694E-03  .648E-03  .753E-03  .107E-02
  .132E-02  .154E-02  .150E-02  .178E-02  .213E-02  .153E-02  .129E-02  .117E-02
  .106E-02  .104E-02  .104E-02  .105E-02  .108E-02  .941E-03  .937E-03  .935E-03
  .852E-03  .842E-03  .837E-03  .751E-03  .636E-03  .785E-03  .819E-03  .829E-03
  .806E-03  .827E-03  .778E-03  .629E-03  .789E-03  .939E-03  .838E-03  .874E-03
  .102E-02  .119E-02  .134E-02  .148E-02  .139E-02  .108E-02  .121E-02  .109E-02
  .106E-02  .851E-03  .817E-03  .745E-03  .725E-03  .783E-03  .793E-03  .721E-03
  .711E-03  .685E-03  .649E-03  .625E-03  .597E-03  .557E-03  .000E+00  .000E+00
  .000E+00  .000E+00  .000E+00  .000E+00  .000E+00  .000E+00  .000E+00  .000E+00
  .000E+00  .000E+00  .000E+00  .000E+00  .000E+00  .000E+00  .000E+00  .000E+00
  .000E+00  .000E+00  .000E+00  .000E+00
  .827E-03  .928E-03  .103E-02  .109E-02  .115E-02  .151E-02  .193E-02  .258E-02
  .339E-02  .422E-02  .653E-02  .860E-02  .963E-02  .986E-02  .117E-01  .127E-01
  .154E-01  .196E-01  .191E-01  .215E-01  .266E-01  .240E-01  .259E-01  .375E-01
  .446E-01  .503E-01  .417E-01  .441E-01  .526E-01  .376E-01  .308E-01  .286E-01
  .212E-01  .189E-01  .201E-01  .187E-01  .218E-01  .227E-01  .204E-01  .184E-01
  .176E-01  .145E-01  .156E-01  .145E-01  .131E-01  .133E-01  .127E-01  .120E-01
  .121E-01  .124E-01  .129E-01  .120E-01  .114E-01  .109E-01  .116E-01  .113E-01
  .111E-01  .115E-01  .116E-01  .118E-01  .117E-01  .116E-01  .111E-01  .108E-01
  .108E-01  .104E-01  .998E-02  .985E-02  .989E-02  .982E-02  .983E-02  .992E-02
  .999E-02  .100E-01  .100E-01  .997E-02  .995E-02  .989E-02  .000E+00  .000E+00
  .000E+00  .000E+00  .000E+00  .000E+00  .000E+00  .000E+00  .000E+00  .000E+00
  .000E+00  .000E+00  .000E+00  .000E+00  .000E+00  .000E+00  .000E+00  .000E+00
  .000E+00  .000E+00  .000E+00  .000E+00
  .109E-02  .110E-02  .113E-02  .117E-02  .122E-02  .123E-02  .102E-02  .113E-02
  .139E-02  .156E-02  .175E-02  .191E-02  .196E-02  .219E-02  .225E-02  .230E-02
  .234E-02  .311E-02  .284E-02  .278E-02  .314E-02  .262E-02  .270E-02  .343E-02
  .372E-02  .395E-02  .315E-02  .312E-02  .322E-02  .204E-02  .148E-02  .116E-02
  .934E-03  .826E-03  .753E-03  .671E-03  .625E-03  .512E-03  .462E-03  .415E-03
  .357E-03  .289E-03  .245E-03  .187E-03  .135E-03  .145E-03  .136E-03  .123E-03
  .107E-03  .971E-04  .824E-04  .551E-04  .579E-04  .590E-04  .453E-04  .411E-04
  .417E-04  .437E-04  .439E-04  .429E-04  .360E-04  .244E-04  .242E-04  .191E-04
  .164E-04  .122E-04  .970E-05  .807E-05  .749E-05  .703E-05  .660E-05  .618E-05
  .572E-05  .524E-05  .476E-05  .439E-05  .376E-05  .322E-05  .000E+00  .000E+00
  .000E+00  .000E+00  .000E+00  .000E+00  .000E+00  .000E+00  .000E+00  .000E+00
  .000E+00  .000E+00  .000E+00  .000E+00  .000E+00  .000E+00  .000E+00  .000E+00
  .000E+00  .000E+00  .000E+00  .000E+00
  .268E-02  .283E-02  .304E-02  .330E-02  .360E-02  .377E-02  .346E-02  .416E-02
  .556E-02  .672E-02  .806E-02  .940E-02  .102E-01  .119E-01  .132E-01  .139E-01
  .158E-01  .230E-01  .226E-01  .239E-01  .291E-01  .254E-01  .278E-01  .373E-01
  .435E-01  .484E-01  .427E-01  .466E-01  .515E-01  .343E-01  .270E-01  .229E-01
  .197E-01  .181E-01  .172E-01  .164E-01  .161E-01  .134E-01  .128E-01  .122E-01
  .107E-01  .962E-02  .876E-02  .726E-02  .571E-02  .658E-02  .643E-02  .613E-02
  .563E-02  .547E-02  .489E-02  .359E-02  .413E-02  .454E-02  .376E-02  .366E-02
  .400E-02  .440E-02  .468E-02  .490E-02  .438E-02  .309E-02  .316E-02  .264E-02
  .238E-02  .178E-02  .160E-02  .138E-02  .126E-02  .130E-02  .125E-02  .108E-02
  .101E-02  .936E-03  .849E-03  .785E-03  .682E-03  .583E-03  .000E+00  .000E+00
  .000E+00  .000E+00  .000E+00  .000E+00  .000E+00  .000E+00  .000E+00  .000E+00
  .000E+00  .000E+00  .000E+00  .000E+00  .000E+00  .000E+00  .000E+00  .000E+00
  .000E+00  .000E+00  .000E+00  .000E+00
  .501E+02  .501E+02  .501E+02  .501E+02  .501E+02  .501E+02  .501E+02  .484E+02
  .484E+02  .501E+02  .501E+02  .294E+02  .294E+02  .501E+02  .510E+02  .495E+02
  .506E+02  .502E+02  .502E+02  .502E+02  .503E+02  .504E+02  .498E+02  .504E+02
  .503E+02  .504E+02  .491E+02  .494E+02  .498E+02  .488E+02  .486E+02  .496E+02
  .493E+02  .493E+02  .493E+02  .493E+02  .502E+02  .492E+02  .501E+02  .501E+02
  .501E+02  .497E+02  .497E+02  .492E+02  .496E+02  .496E+02  .496E+02  .496E+02
  .496E+02  .492E+02  .492E+02  .498E+02  .525E+02  .525E+02  .514E+02  .560E+02
  .571E+02  .580E+02  .580E+02  .582E+02  .575E+02  .558E+02  .490E+02  .490E+02
  .490E+02  .490E+02  .531E+02  .531E+02  .531E+02  .558E+02  .558E+02  .485E+02
  .485E+02  .485E+02  .485E+02  .485E+02  .485E+02  .485E+02  .000E+00  .000E+00
  .000E+00  .000E+00  .000E+00  .000E+00  .000E+00  .000E+00  .000E+00  .000E+00
  .000E+00  .000E+00  .000E+00  .000E+00  .000E+00  .000E+00  .000E+00  .000E+00
  .000E+00  .000E+00  .000E+00  .000E+00
  .494E+02  .494E+02  .494E+02  .494E+02  .494E+02  .504E+02  .504E+02  .504E+02
  .504E+02  .484E+02  .294E+02  .294E+02  .295E+02  .510E+02  .510E+02  .495E+02
  .506E+02  .502E+02  .510E+02  .503E+02  .503E+02  .504E+02  .499E+02  .504E+02
  .504E+02  .504E+02  .490E+02  .501E+02  .498E+02  .487E+02  .486E+02  .496E+02
  .494E+02  .492E+02  .530E+02  .502E+02  .501E+02  .501E+02  .501E+02  .498E+02
  .498E+02  .496E+02  .496E+02  .496E+02  .496E+02  .496E+02  .501E+02  .491E+02
  .491E+02  .491E+02  .491E+02  .491E+02  .491E+02  .491E+02  .491E+02  .491E+02
  .491E+02  .491E+02  .491E+02  .491E+02  .491E+02  .491E+02  .485E+02  .485E+02
  .485E+02  .485E+02  .485E+02  .485E+02  .485E+02  .485E+02  .501E+02  .501E+02
  .501E+02  .501E+02  .501E+02  .501E+02  .501E+02  .501E+02  .000E+00  .000E+00
  .000E+00  .000E+00  .000E+00  .000E+00  .000E+00  .000E+00  .000E+00  .000E+00
  .000E+00  .000E+00  .000E+00  .000E+00  .000E+00  .000E+00  .000E+00  .000E+00
  .000E+00  .000E+00  .000E+00  .000E+00
  .501E+02  .501E+02  .501E+02  .501E+02  .501E+02  .501E+02  .501E+02  .484E+02
  .484E+02  .501E+02  .501E+02  .294E+02  .296E+02  .501E+02  .510E+02  .495E+02
  .506E+02  .502E+02  .502E+02  .503E+02  .503E+02  .504E+02  .498E+02  .504E+02
  .503E+02  .503E+02  .491E+02  .494E+02  .498E+02  .487E+02  .486E+02  .496E+02
  .493E+02  .493E+02  .493E+02  .493E+02  .502E+02  .492E+02  .501E+02  .501E+02
  .501E+02  .497E+02  .497E+02  .492E+02  .496E+02  .496E+02  .496E+02  .496E+02
  .496E+02  .492E+02  .492E+02  .498E+02  .525E+02  .525E+02  .514E+02  .560E+02
  .571E+02  .580E+02  .580E+02  .582E+02  .575E+02  .490E+02  .490E+02  .490E+02
  .490E+02  .490E+02  .484E+02  .490E+02  .490E+02  .484E+02  .484E+02  .484E+02
  .484E+02  .484E+02  .484E+02  .484E+02  .484E+02  .484E+02  .000E+00  .000E+00
  .000E+00  .000E+00  .000E+00  .000E+00  .000E+00  .000E+00  .000E+00  .000E+00
  .000E+00  .000E+00  .000E+00  .000E+00  .000E+00  .000E+00  .000E+00  .000E+00
  .000E+00  .000E+00  .000E+00  .000E+00
/&   ----------  End of spectral data for channel  1  ----------
Response and Fourier amplitude spectra (78 periods,  .04 -  6.0 sec)   for      
Corrected accelerogram   38695658.CI.JEM.--.HN      Chan  2: 360 Deg     from   
Uncorrected Accelerogram Data             Processed: 09/19/20, CGS  cijem--n    
Rcrd of Fri Sep 18, 2020 23:38:47.0 PDT               (Avol1 v2.0, 4/18 CSMIP)  
                                        (Origin:  To be determined)             
38695658.CI.JEM.--.HN                Start time:  9/19/20, 06:38:47.0 UTC (GPS) 
Station Id. JEM     33.081N, 116.598W    ObsMMS  s/n 4323  (3 Chns of  6 at Sta)
Julian Eagle Mine                        SCSN   Data: Acceleration              
Chan  2: 360 Deg                                                                
Rcrd of Fri Sep 18, 2020 23:38:47.0 PDT    Fri Sep 18, 2020 23:38:47.0 PDT      
Hypocenter:  To be determined.               ML:  To be determined.             
Instr Period =  .0050 sec,  Damping =  .707,  Sensitivity = 4.99 v/g  (Nominal) 
                        Record Length =301.000 sec.                             
                                     Uncor Max  =   .001 g, at   49.740 sec.    
RMS accel of (uncor) record  =        .   Chn. metadata effective date:         
Accelerogram bandpass filtered with 3 dB pts at   .30 and 23.00 cyc/sec         
                 instrument- and base-line correcte                             
                                                                                
                                                                                
                                                                                
                                                                                
                                                                                
Rcrd of Fri Sep 18, 2020 23:38:47.0 PDT    Fri Sep 18, 2020 23:38:47.0 PDT      
                                                                                
38695658.CI.JEM.--.HN     Julian Eagle Mine   Chan  2: 360 Deg                  
                                                                                
38695658.CI.JEM.--.HN     Julian Eagle Mine   Chan  2: 360 Deg                  
                                                                                
Units for spectra are inches and sec, except Sa is in fraction of g.            
                                                                                
    2  100    2    6    6  100 -999    3    1    0   15 4323    0    0   41    0
    6   38   47    8  263    9   19 2020   10    3  36036152   39   17   74 -999
36152 -999  100    6 -999 -999 -999 -999 -999 -999 -999 -999 -999 -999 -999 -999
 -999 -999 -999 -99915050    2 -999    0 -999   20 -999 -999    3    1 -99915050
    315050    4   78    1    3    5    0    0 -999    0 -999 -999    6 -999    2
    2    2    4 -999 -999 -999 -999 -999 -999 -999 -999    1 -999 -999 -999  111
    1    1 -999 -999
      .005      .707   361.520      .000     1.000  4991.271      .001    49.740
   200.000     2.384      .478  -999.000    10.000  -999.000     4.000  -999.000
    20.000    -7.804      .000  -999.000  -999.000  -999.000  -999.000      .000
      .000      .000     2.000    15.000    33.081  -116.598      .001      .001
      .926      .000      .000  1308.000  -999.000  -999.000  -999.000  -999.000
     1.000  -999.000  -999.000  -999.000  -999.000  -999.000  -999.000   120.000
     -.900     2.000     6.800   980.665      .020   301.000    31.831      .000
  -999.000    23.000  -999.000   301.000      .020      .300  -999.000  -999.000
    49.740     1.095    49.020      .035    48.700     -.002      .000      .300
    23.000      .020      .020      .000      .020      .002  -999.000  -999.000
      .004      .260      .003      .002      .000      .000  -999.000  -999.000
  -999.000  -999.000  -999.000  -999.000  -999.000  -999.000  -999.000  -999.000
  -999.000  -999.000  -999.000  -999.000
      .050
      .040      .042      .044      .046      .048      .050      .055      .060
      .065      .070      .075      .080      .085      .090      .095      .100
      .110      .120      .130      .140      .150      .160      .170      .180
      .190      .200      .220      .240      .260      .280      .300      .320
      .340      .360      .380      .400      .420      .440      .460      .480
      .500      .550      .600      .650      .700      .750      .800      .850
      .900      .950     1.000     1.100     1.200     1.300     1.400     1.500
     1.600     1.700     1.800     1.900     2.000     2.200     2.400     2.600
     2.800     3.000     3.200     3.400     3.600     3.800     4.000     4.200
     4.400     4.600     4.800     5.000     5.500     6.000      .000      .000
      .000      .000      .000      .000      .000      .000      .000      .000
      .000      .000      .000      .000      .000      .000      .000      .000
      .000      .000      .000      .000
Fourier amplitude spectra in in/sec.
  .000E+00  .000E+00  .000E+00  .000E+00  .000E+00  .000E+00  .000E+00  .000E+00
  .000E+00  .000E+00  .000E+00  .000E+00  .000E+00  .000E+00  .000E+00  .000E+00
  .000E+00  .000E+00  .000E+00  .000E+00  .000E+00  .000E+00  .000E+00  .000E+00
  .000E+00  .000E+00  .000E+00  .000E+00  .000E+00  .000E+00  .000E+00  .000E+00
  .000E+00  .000E+00  .000E+00  .000E+00  .000E+00  .000E+00  .000E+00  .000E+00
  .000E+00  .000E+00  .000E+00  .000E+00  .000E+00  .000E+00  .000E+00  .000E+00
  .000E+00  .000E+00  .000E+00  .000E+00  .000E+00  .000E+00  .000E+00  .000E+00
  .000E+00  .000E+00  .000E+00  .000E+00  .000E+00  .000E+00  .000E+00  .000E+00
  .000E+00  .000E+00  .000E+00  .000E+00  .000E+00  .000E+00  .000E+00  .000E+00
  .000E+00  .000E+00  .000E+00  .000E+00  .000E+00  .000E+00  .000E+00  .000E+00
  .000E+00  .000E+00  .000E+00  .000E+00  .000E+00  .000E+00  .000E+00  .000E+00
  .000E+00  .000E+00  .000E+00  .000E+00  .000E+00  .000E+00  .000E+00  .000E+00
  .000E+00  .000E+00  .000E+00  .000E+00
Damping =  .05. Data of Sd,Sv,Sa,Pssv,ttSd,ttSv,ttSa :
  .175E-04  .194E-04  .215E-04  .238E-04  .270E-04  .308E-04  .406E-04  .606E-04
  .745E-04  .816E-04  .999E-04  .124E-03  .199E-03  .257E-03  .276E-03  .241E-03
  .222E-03  .427E-03  .441E-03  .624E-03  .691E-03  .616E-03  .769E-03  .928E-03
  .114E-02  .128E-02  .159E-02  .217E-02  .283E-02  .221E-02  .180E-02  .184E-02
  .171E-02  .181E-02  .168E-02  .143E-02  .129E-02  .118E-02  .111E-02  .105E-02
