Response and Fourier amplitude spectra (78 periods,  .04 -  6.0 sec)   for      
Corrected accelerogram   38695658.CI.JPLS.--.H      Chan  1:  90 Deg     from   
Uncorrected Accelerogram Data             Processed: 09/19/20, CGS  cijpls-k    
Rcrd of Fri Sep 18, 2020 23:38:27.0 PDT               (Avol1 v2.0, 4/18 CSMIP)  
                                        (Origin:  To be determined)             
38695658.CI.JPLS.--.H                Start time:  9/19/20, 06:38:27.0 UTC (GPS) 
Station Id. JPLS    34.205N, 118.174W    ObsMMS  s/n 6910  (3 Chns of  6 at Sta)
JPL Station at Mesa Rd.                  SCSN   Data: Acceleration              
Chan  1:  90 Deg                                                                
Rcrd of Fri Sep 18, 2020 23:38:27.0 PDT    Fri Sep 18, 2020 23:38:27.0 PDT      
Hypocenter:  To be determined.               ML:  To be determined.             
Instr Period =  .0050 sec,  Damping =  .707,  Sensitivity = 9.96 v/g  (Nominal) 
                        Record Length =301.000 sec.                             
                                     Uncor Max  =   .020 g, at   27.860 sec.    
RMS accel of (uncor) record  =        .   Chn. metadata effective date:         
Accelerogram bandpass filtered with 3 dB pts at   .30 and 23.00 cyc/sec         
                 instrument- and base-line correcte                             
                                                                                
                                                                                
                                                                                
                                                                                
                                                                                
Rcrd of Fri Sep 18, 2020 23:38:27.0 PDT    Fri Sep 18, 2020 23:38:27.0 PDT      
                                                                                
38695658.CI.JPLS.--.H     JPL Station at Mesa Rd.   Chan  1:  90 Deg            
                                                                                
38695658.CI.JPLS.--.H     JPL Station at Mesa Rd.   Chan  1:  90 Deg            
                                                                                
Units for spectra are inches and sec, except Sa is in fraction of g.            
                                                                                
    1  100    1    6    6  100 -999    3    1    0   15 6910    0    0   41    0
    6   38   27    3  263    9   19 2020   10    3   9035685   39   23   74 -999
35685 -999  100    6 -999 -999 -999 -999 -999 -999 -999 -999 -999 -999 -999 -999
 -999 -999 -999 -99915050    2 -999    0 -999   20 -999 -999    3    1 863515050
    315050    4   78    1    3    5    0    0 -999    0 -999 -999    6 -999    2
    2    2    4 -999 -999 -999 -999 -999 -999 -999 -999    1 -999 -999 -999  111
    1    1 -999 -999
      .005      .707   356.850      .001     1.000  9961.356      .020    27.860
   200.000     2.384      .239  -999.000    10.000  -999.000     2.000  -999.000
    20.000     5.101      .000  -999.000  -999.000  -999.000  -999.000      .000
      .000      .000     2.000    15.000    34.205  -118.174      .001      .001
     1.030      .000      .000   465.600  -999.000  -999.000  -999.000  -999.000
     1.000  -999.000    -8.000  -999.000  -999.000  -999.000  -999.000   120.000
     -.900     2.000     6.800   980.665      .020   301.000    31.831      .000
  -999.000    23.000  -999.000   301.000      .020      .300  -999.000  -999.000
    27.860    20.270    27.840     -.499    29.240      .025      .000      .300
    23.000      .020      .020      .000      .020      .015  -999.000  -999.000
      .064      .130      .033      .019      .003      .000  -999.000  -999.000
  -999.000  -999.000  -999.000  -999.000  -999.000  -999.000  -999.000  -999.000
  -999.000  -999.000  -999.000  -999.000
      .050
      .040      .042      .044      .046      .048      .050      .055      .060
      .065      .070      .075      .080      .085      .090      .095      .100
      .110      .120      .130      .140      .150      .160      .170      .180
      .190      .200      .220      .240      .260      .280      .300      .320
      .340      .360      .380      .400      .420      .440      .460      .480
      .500      .550      .600      .650      .700      .750      .800      .850
      .900      .950     1.000     1.100     1.200     1.300     1.400     1.500
     1.600     1.700     1.800     1.900     2.000     2.200     2.400     2.600
     2.800     3.000     3.200     3.400     3.600     3.800     4.000     4.200
     4.400     4.600     4.800     5.000     5.500     6.000      .000      .000
      .000      .000      .000      .000      .000      .000      .000      .000
      .000      .000      .000      .000      .000      .000      .000      .000
      .000      .000      .000      .000
Fourier amplitude spectra in in/sec.
  .000E+00  .000E+00  .000E+00  .000E+00  .000E+00  .000E+00  .000E+00  .000E+00
  .000E+00  .000E+00  .000E+00  .000E+00  .000E+00  .000E+00  .000E+00  .000E+00
  .000E+00  .000E+00  .000E+00  .000E+00  .000E+00  .000E+00  .000E+00  .000E+00
  .000E+00  .000E+00  .000E+00  .000E+00  .000E+00  .000E+00  .000E+00  .000E+00
  .000E+00  .000E+00  .000E+00  .000E+00  .000E+00  .000E+00  .000E+00  .000E+00
  .000E+00  .000E+00  .000E+00  .000E+00  .000E+00  .000E+00  .000E+00  .000E+00
  .000E+00  .000E+00  .000E+00  .000E+00  .000E+00  .000E+00  .000E+00  .000E+00
  .000E+00  .000E+00  .000E+00  .000E+00  .000E+00  .000E+00  .000E+00  .000E+00
  .000E+00  .000E+00  .000E+00  .000E+00  .000E+00  .000E+00  .000E+00  .000E+00
  .000E+00  .000E+00  .000E+00  .000E+00  .000E+00  .000E+00  .000E+00  .000E+00
  .000E+00  .000E+00  .000E+00  .000E+00  .000E+00  .000E+00  .000E+00  .000E+00
  .000E+00  .000E+00  .000E+00  .000E+00  .000E+00  .000E+00  .000E+00  .000E+00
  .000E+00  .000E+00  .000E+00  .000E+00
Damping =  .05. Data of Sd,Sv,Sa,Pssv,ttSd,ttSv,ttSa :
  .340E-03  .383E-03  .435E-03  .497E-03  .571E-03  .646E-03  .868E-03  .120E-02
  .146E-02  .201E-02  .276E-02  .302E-02  .339E-02  .373E-02  .416E-02  .475E-02
  .605E-02  .723E-02  .106E-01  .115E-01  .108E-01  .112E-01  .114E-01  .119E-01
  .129E-01  .132E-01  .132E-01  .156E-01  .140E-01  .151E-01  .167E-01  .191E-01
  .216E-01  .194E-01  .179E-01  .188E-01  .197E-01  .211E-01  .240E-01  .263E-01
  .279E-01  .472E-01  .472E-01  .323E-01  .277E-01  .260E-01  .251E-01  .266E-01
  .260E-01  .272E-01  .287E-01  .250E-01  .227E-01  .266E-01  .198E-01  .171E-01
  .184E-01  .178E-01  .182E-01  .175E-01  .165E-01  .144E-01  .127E-01  .116E-01
  .114E-01  .115E-01  .114E-01  .109E-01  .105E-01  .102E-01  .103E-01  .104E-01
  .104E-01  .104E-01  .104E-01  .103E-01  .103E-01  .101E-01  .000E+00  .000E+00
  .000E+00  .000E+00  .000E+00  .000E+00  .000E+00  .000E+00  .000E+00  .000E+00
  .000E+00  .000E+00  .000E+00  .000E+00  .000E+00  .000E+00  .000E+00  .000E+00
  .000E+00  .000E+00  .000E+00  .000E+00
  .231E-01  .257E-01  .286E-01  .322E-01  .372E-01  .404E-01  .512E-01  .694E-01
  .115E+00  .168E+00  .232E+00  .211E+00  .215E+00  .224E+00  .245E+00  .295E+00
  .323E+00  .370E+00  .493E+00  .535E+00  .464E+00  .445E+00  .450E+00  .448E+00
  .453E+00  .426E+00  .410E+00  .414E+00  .302E+00  .335E+00  .406E+00  .369E+00
  .391E+00  .331E+00  .282E+00  .296E+00  .333E+00  .388E+00  .408E+00  .410E+00
  .372E+00  .545E+00  .558E+00  .387E+00  .299E+00  .260E+00  .258E+00  .222E+00
  .213E+00  .212E+00  .211E+00  .206E+00  .210E+00  .213E+00  .216E+00  .216E+00
  .213E+00  .209E+00  .204E+00  .200E+00  .197E+00  .192E+00  .190E+00  .187E+00
  .186E+00  .184E+00  .183E+00  .182E+00  .181E+00  .181E+00  .181E+00  .181E+00
  .180E+00  .180E+00  .180E+00  .181E+00  .181E+00  .181E+00  .000E+00  .000E+00
  .000E+00  .000E+00  .000E+00  .000E+00  .000E+00  .000E+00  .000E+00  .000E+00
  .000E+00  .000E+00  .000E+00  .000E+00  .000E+00  .000E+00  .000E+00  .000E+00
  .000E+00  .000E+00  .000E+00  .000E+00
  .217E-01  .223E-01  .231E-01  .240E-01  .254E-01  .264E-01  .295E-01  .337E-01
  .356E-01  .422E-01  .515E-01  .479E-01  .488E-01  .473E-01  .469E-01  .491E-01
  .506E-01  .510E-01  .642E-01  .604E-01  .499E-01  .452E-01  .404E-01  .382E-01
  .366E-01  .330E-01  .281E-01  .279E-01  .210E-01  .195E-01  .191E-01  .192E-01
  .190E-01  .153E-01  .127E-01  .120E-01  .114E-01  .113E-01  .117E-01  .118E-01
  .115E-01  .160E-01  .134E-01  .785E-02  .579E-02  .477E-02  .403E-02  .377E-02
  .330E-02  .311E-02  .295E-02  .214E-02  .162E-02  .163E-02  .105E-02  .794E-03
  .751E-03  .662E-03  .605E-03  .530E-03  .456E-03  .339E-03  .258E-03  .201E-03
  .168E-03  .146E-03  .128E-03  .113E-03  .103E-03  .972E-04  .926E-04  .884E-04
  .844E-04  .805E-04  .769E-04  .736E-04  .660E-04  .597E-04  .000E+00  .000E+00
  .000E+00  .000E+00  .000E+00  .000E+00  .000E+00  .000E+00  .000E+00  .000E+00
  .000E+00  .000E+00  .000E+00  .000E+00  .000E+00  .000E+00  .000E+00  .000E+00
  .000E+00  .000E+00  .000E+00  .000E+00
  .534E-01  .573E-01  .622E-01  .678E-01  .747E-01  .811E-01  .991E-01  .125E+00
  .141E+00  .180E+00  .231E+00  .237E+00  .251E+00  .261E+00  .275E+00  .298E+00
  .346E+00  .379E+00  .514E+00  .514E+00  .450E+00  .442E+00  .423E+00  .417E+00
  .428E+00  .413E+00  .377E+00  .408E+00  .337E+00  .338E+00  .349E+00  .376E+00
  .399E+00  .338E+00  .296E+00  .296E+00  .295E+00  .302E+00  .328E+00  .344E+00
  .350E+00  .539E+00  .495E+00  .312E+00  .248E+00  .218E+00  .197E+00  .197E+00
  .182E+00  .180E+00  .180E+00  .143E+00  .119E+00  .128E+00  .886E-01  .715E-01
  .722E-01  .657E-01  .637E-01  .578E-01  .518E-01  .412E-01  .332E-01  .281E-01
  .256E-01  .241E-01  .224E-01  .202E-01  .183E-01  .168E-01  .162E-01  .156E-01
  .149E-01  .143E-01  .136E-01  .130E-01  .117E-01  .106E-01  .000E+00  .000E+00
  .000E+00  .000E+00  .000E+00  .000E+00  .000E+00  .000E+00  .000E+00  .000E+00
  .000E+00  .000E+00  .000E+00  .000E+00  .000E+00  .000E+00  .000E+00  .000E+00
  .000E+00  .000E+00  .000E+00  .000E+00
  .279E+02  .279E+02  .279E+02  .279E+02  .279E+02  .279E+02  .279E+02  .279E+02
  .279E+02  .282E+02  .282E+02  .279E+02  .279E+02  .279E+02  .279E+02  .280E+02
  .277E+02  .278E+02  .279E+02  .279E+02  .280E+02  .280E+02  .279E+02  .279E+02
  .279E+02  .279E+02  .291E+02  .293E+02  .293E+02  .299E+02  .304E+02  .309E+02
  .309E+02  .310E+02  .295E+02  .295E+02  .286E+02  .284E+02  .284E+02  .284E+02
  .285E+02  .302E+02  .309E+02  .306E+02  .307E+02  .307E+02  .349E+02  .346E+02
  .329E+02  .330E+02  .330E+02  .326E+02  .356E+02  .346E+02  .323E+02  .304E+02
  .347E+02  .292E+02  .327E+02  .292E+02  .292E+02  .292E+02  .292E+02  .276E+02
  .276E+02  .323E+02  .323E+02  .323E+02  .323E+02  .292E+02  .292E+02  .292E+02
  .292E+02  .292E+02  .292E+02  .323E+02  .323E+02  .323E+02  .000E+00  .000E+00
  .000E+00  .000E+00  .000E+00  .000E+00  .000E+00  .000E+00  .000E+00  .000E+00
  .000E+00  .000E+00  .000E+00  .000E+00  .000E+00  .000E+00  .000E+00  .000E+00
  .000E+00  .000E+00  .000E+00  .000E+00
  .278E+02  .278E+02  .278E+02  .278E+02  .281E+02  .281E+02  .278E+02  .280E+02
  .280E+02  .282E+02  .282E+02  .282E+02  .279E+02  .279E+02  .282E+02  .281E+02
  .278E+02  .278E+02  .280E+02  .280E+02  .280E+02  .279E+02  .279E+02  .280E+02
  .280E+02  .280E+02  .279E+02  .291E+02  .290E+02  .299E+02  .303E+02  .310E+02
  .310E+02  .302E+02  .286E+02  .294E+02  .285E+02  .285E+02  .285E+02  .285E+02
  .285E+02  .309E+02  .307E+02  .308E+02  .308E+02  .299E+02  .299E+02  .347E+02
  .277E+02  .277E+02  .277E+02  .277E+02  .278E+02  .278E+02  .278E+02  .278E+02
  .278E+02  .278E+02  .278E+02  .278E+02  .278E+02  .278E+02  .278E+02  .278E+02
  .278E+02  .278E+02  .278E+02  .278E+02  .278E+02  .278E+02  .278E+02  .278E+02
  .278E+02  .278E+02  .278E+02  .278E+02  .278E+02  .278E+02  .000E+00  .000E+00
  .000E+00  .000E+00  .000E+00  .000E+00  .000E+00  .000E+00  .000E+00  .000E+00
  .000E+00  .000E+00  .000E+00  .000E+00  .000E+00  .000E+00  .000E+00  .000E+00
  .000E+00  .000E+00  .000E+00  .000E+00
  .279E+02  .279E+02  .279E+02  .279E+02  .279E+02  .279E+02  .279E+02  .279E+02
  .279E+02  .282E+02  .282E+02  .279E+02  .279E+02  .279E+02  .279E+02  .280E+02
  .277E+02  .278E+02  .279E+02  .279E+02  .280E+02  .280E+02  .279E+02  .279E+02
  .279E+02  .279E+02  .291E+02  .292E+02  .293E+02  .299E+02  .302E+02  .309E+02
  .309E+02  .310E+02  .295E+02  .295E+02  .286E+02  .284E+02  .284E+02  .284E+02
  .285E+02  .302E+02  .308E+02  .306E+02  .307E+02  .307E+02  .349E+02  .346E+02
  .329E+02  .330E+02  .330E+02  .326E+02  .350E+02  .346E+02  .323E+02  .304E+02
  .346E+02  .292E+02  .292E+02  .292E+02  .292E+02  .292E+02  .292E+02  .292E+02
  .276E+02  .275E+02  .275E+02  .275E+02  .292E+02  .278E+02  .278E+02  .278E+02
  .278E+02  .278E+02  .278E+02  .278E+02  .278E+02  .278E+02  .000E+00  .000E+00
  .000E+00  .000E+00  .000E+00  .000E+00  .000E+00  .000E+00  .000E+00  .000E+00
  .000E+00  .000E+00  .000E+00  .000E+00  .000E+00  .000E+00  .000E+00  .000E+00
  .000E+00  .000E+00  .000E+00  .000E+00
/&   ----------  End of spectral data for channel  1  ----------
Response and Fourier amplitude spectra (78 periods,  .04 -  6.0 sec)   for      
Corrected accelerogram   38695658.CI.JPLS.--.H      Chan  2: 360 Deg     from   
Uncorrected Accelerogram Data             Processed: 09/19/20, CGS  cijpls-k    
Rcrd of Fri Sep 18, 2020 23:38:27.0 PDT               (Avol1 v2.0, 4/18 CSMIP)  
                                        (Origin:  To be determined)             
38695658.CI.JPLS.--.H                Start time:  9/19/20, 06:38:27.0 UTC (GPS) 
Station Id. JPLS    34.205N, 118.174W    ObsMMS  s/n 6910  (3 Chns of  6 at Sta)
JPL Station at Mesa Rd.                  SCSN   Data: Acceleration              
Chan  2: 360 Deg                                                                
Rcrd of Fri Sep 18, 2020 23:38:27.0 PDT    Fri Sep 18, 2020 23:38:27.0 PDT      
Hypocenter:  To be determined.               ML:  To be determined.             
Instr Period =  .0050 sec,  Damping =  .707,  Sensitivity = 9.95 v/g  (Nominal) 
                        Record Length =301.000 sec.                             
                                     Uncor Max  =   .016 g, at   27.900 sec.    
RMS accel of (uncor) record  =        .   Chn. metadata effective date:         
Accelerogram bandpass filtered with 3 dB pts at   .30 and 23.00 cyc/sec         
                 instrument- and base-line correcte                             
                                                                                
                                                                                
                                                                                
                                                                                
                                                                                
Rcrd of Fri Sep 18, 2020 23:38:27.0 PDT    Fri Sep 18, 2020 23:38:27.0 PDT      
                                                                                
38695658.CI.JPLS.--.H     JPL Station at Mesa Rd.   Chan  2: 360 Deg            
                                                                                
38695658.CI.JPLS.--.H     JPL Station at Mesa Rd.   Chan  2: 360 Deg            
                                                                                
Units for spectra are inches and sec, except Sa is in fraction of g.            
                                                                                
    2  100    2    6    6  100 -999    3    1    0   15 6910    0    0   41    0
    6   38   27    3  263    9   19 2020   10    3  36036074   39   23   74 -999
36074 -999  100    6 -999 -999 -999 -999 -999 -999 -999 -999 -999 -999 -999 -999
 -999 -999 -999 -99915050    2 -999    0 -999   20 -999 -999    3    1 863515050
    315050    4   78    1    3    5    0    0 -999    0 -999 -999    6 -999    2
    2    2    4 -999 -999 -999 -999 -999 -999 -999 -999    1 -999 -999 -999  111
    1    1 -999 -999
      .005      .707   360.740      .001     1.000  9952.380      .016    27.900
   200.000     2.384      .240  -999.000    10.000  -999.000     2.000  -999.000
    20.000   -14.338      .000  -999.000  -999.000  -999.000  -999.000      .000
      .000      .001     2.000    15.000    34.205  -118.174      .001      .002
     1.088      .000      .001   465.600  -999.000  -999.000  -999.000  -999.000
     1.000  -999.000  -999.000  -999.000  -999.000  -999.000  -999.000   120.000
     -.900     2.000     6.800   980.665      .020   301.000    31.831      .000
  -999.000    23.000  -999.000   301.000      .020      .300  -999.000  -999.000
    27.900    15.517    27.940      .986    27.720     -.104      .000      .300
    23.000      .020      .020      .000      .020      .020  -999.000  -999.000
      .050      .100      .033      .026      .011      .001  -999.000  -999.000
  -999.000  -999.000  -999.000  -999.000  -999.000  -999.000  -999.000  -999.000
  -999.000  -999.000  -999.000  -999.000
      .050
      .040      .042      .044      .046      .048      .050      .055      .060
      .065      .070      .075      .080      .085      .090      .095      .100
      .110      .120      .130      .140      .150      .160      .170      .180
      .190      .200      .220      .240      .260      .280      .300      .320
      .340      .360      .380      .400      .420      .440      .460      .480
      .500      .550      .600      .650      .700      .750      .800      .850
      .900      .950     1.000     1.100     1.200     1.300     1.400     1.500
     1.600     1.700     1.800     1.900     2.000     2.200     2.400     2.600
     2.800     3.000     3.200     3.400     3.600     3.800     4.000     4.200
     4.400     4.600     4.800     5.000     5.500     6.000      .000      .000
      .000      .000      .000      .000      .000      .000      .000      .000
      .000      .000      .000      .000      .000      .000      .000      .000
      .000      .000      .000      .000
Fourier amplitude spectra in in/sec.
  .000E+00  .000E+00  .000E+00  .000E+00  .000E+00  .000E+00  .000E+00  .000E+00
  .000E+00  .000E+00  .000E+00  .000E+00  .000E+00  .000E+00  .000E+00  .000E+00
  .000E+00  .000E+00  .000E+00  .000E+00  .000E+00  .000E+00  .000E+00  .000E+00
  .000E+00  .000E+00  .000E+00  .000E+00  .000E+00  .000E+00  .000E+00  .000E+00
  .000E+00  .000E+00  .000E+00  .000E+00  .000E+00  .000E+00  .000E+00  .000E+00
  .000E+00  .000E+00  .000E+00  .000E+00  .000E+00  .000E+00  .000E+00  .000E+00
  .000E+00  .000E+00  .000E+00  .000E+00  .000E+00  .000E+00  .000E+00  .000E+00
  .000E+00  .000E+00  .000E+00  .000E+00  .000E+00  .000E+00  .000E+00  .000E+00
  .000E+00  .000E+00  .000E+00  .000E+00  .000E+00  .000E+00  .000E+00  .000E+00
  .000E+00  .000E+00  .000E+00  .000E+00  .000E+00  .000E+00  .000E+00  .000E+00
  .000E+00  .000E+00  .000E+00  .000E+00  .000E+00  .000E+00  .000E+00  .000E+00
  .000E+00  .000E+00  .000E+00  .000E+00  .000E+00  .000E+00  .000E+00  .000E+00
  .000E+00  .000E+00  .000E+00  .000E+00
Damping =  .05. Data of Sd,Sv,Sa,Pssv,ttSd,ttSv,ttSa :
  .253E-03  .287E-03  .325E-03  .359E-03  .389E-03  .427E-03  .522E-03  .701E-03
  .105E-02  .128E-02  .163E-02  .213E-02  .294E-02  .366E-02  .440E-02  .485E-02
  .512E-02  .516E-02  .536E-02  .637E-02  .618E-02  .819E-02  .109E-01  .139E-01
  .146E-01  .125E-01  .119E-01  .150E-01  .192E-01  .232E-01  .229E-01  .220E-01
  .263E-01  .283E-01  .258E-01  .236E-01  .267E-01  .294E-01  .328E-01  .357E-01
