Response and Fourier amplitude spectra (78 periods,  .04 -  6.0 sec)   for      
Corrected accelerogram   38695658.CI.JVA.--.HN      Chan  1:  90 Deg     from   
Uncorrected Accelerogram Data             Processed: 09/19/20, CGS  cijva--o    
Rcrd of Fri Sep 18, 2020 23:38:45.0 PDT               (Avol1 v2.0, 4/18 CSMIP)  
                                        (Origin:  To be determined)             
38695658.CI.JVA.--.HN                Start time:  9/19/20, 06:38:45.0 UTC (GPS) 
Station Id. JVA     34.366N, 116.613W    ObsMMS  s/n 4329  (3 Chns of  3 at Sta)
Johnson Valley, Hwy 247 and Pony Rd.     SCSN   Data: Acceleration              
Chan  1:  90 Deg                                                                
Rcrd of Fri Sep 18, 2020 23:38:45.0 PDT    Fri Sep 18, 2020 23:38:45.0 PDT      
Hypocenter:  To be determined.               ML:  To be determined.             
Instr Period =  .0050 sec,  Damping =  .707,  Sensitivity = 4.99 v/g  (Nominal) 
                        Record Length =301.000 sec.                             
                                     Uncor Max  =  -.002 g, at   44.410 sec.    
RMS accel of (uncor) record  =        .   Chn. metadata effective date:         
Accelerogram bandpass filtered with 3 dB pts at   .30 and 23.00 cyc/sec         
                 instrument- and base-line correcte                             
                                                                                
                                                                                
                                                                                
                                                                                
                                                                                
Rcrd of Fri Sep 18, 2020 23:38:45.0 PDT    Fri Sep 18, 2020 23:38:45.0 PDT      
                                                                                
38695658.CI.JVA.--.HN     Johnson Valley, Hwy 247 and Pony Rd.    Chan  1:  90 D
eg                                                                              
38695658.CI.JVA.--.HN     Johnson Valley, Hwy 247 and Pony Rd.    Chan  1:  90 D
eg                                                                              
Units for spectra are inches and sec, except Sa is in fraction of g.            
                                                                                
    1  100    1    3    3  100 -999    3    1    0   15 4329    050618   41    0
    6   38   45    8  263    9   19 2020   10    3   9035692   39   36   74 -999
35692 -999  100    6 -999 -999 -999 -999 -999 -999 -999 -999 -999 -999 -999 -999
 -999 -999 -999 -99915050    2 -999    0 -999   20 -999 -999    3    1 -99915050
    315050    4   78    1    3    5    0    0 -999    0 -999 -999    6 -999    2
    2    2    4 -999 -999 -999 -999 -999 -999 -999 -999    1 -999 -999 -999  111
    1    1 -999 -999
      .005      .707   356.920      .000     1.000  4994.462     -.002    44.410
   200.000     2.384      .477  -999.000    10.000  -999.000     4.000  -999.000
    20.000    18.156      .000  -999.000  -999.000  -999.000  -999.000     -.001
      .001      .002     2.000    15.000    34.366  -116.613      .017      .019
     1.084     -.001      .005   904.000  -999.000  -999.000  -999.000  -999.000
     1.000  -999.000    -8.000  -999.000  -999.000  -999.000  -999.000   120.000
     -.900     2.000     6.800   980.665      .020   301.000    31.831      .000
  -999.000    23.000  -999.000   301.000      .020      .300  -999.000  -999.000
    44.420    -1.351    43.080      .054    44.560     -.003      .000      .300
    23.000      .020      .020      .000      .020      .004  -999.000  -999.000
      .005      .240      .004      .003      .000      .000  -999.000  -999.000
  -999.000  -999.000  -999.000  -999.000  -999.000  -999.000  -999.000  -999.000
  -999.000  -999.000  -999.000  -999.000
      .050
      .040      .042      .044      .046      .048      .050      .055      .060
      .065      .070      .075      .080      .085      .090      .095      .100
      .110      .120      .130      .140      .150      .160      .170      .180
      .190      .200      .220      .240      .260      .280      .300      .320
      .340      .360      .380      .400      .420      .440      .460      .480
      .500      .550      .600      .650      .700      .750      .800      .850
      .900      .950     1.000     1.100     1.200     1.300     1.400     1.500
     1.600     1.700     1.800     1.900     2.000     2.200     2.400     2.600
     2.800     3.000     3.200     3.400     3.600     3.800     4.000     4.200
     4.400     4.600     4.800     5.000     5.500     6.000      .000      .000
      .000      .000      .000      .000      .000      .000      .000      .000
      .000      .000      .000      .000      .000      .000      .000      .000
      .000      .000      .000      .000
Fourier amplitude spectra in in/sec.
  .000E+00  .000E+00  .000E+00  .000E+00  .000E+00  .000E+00  .000E+00  .000E+00
  .000E+00  .000E+00  .000E+00  .000E+00  .000E+00  .000E+00  .000E+00  .000E+00
  .000E+00  .000E+00  .000E+00  .000E+00  .000E+00  .000E+00  .000E+00  .000E+00
  .000E+00  .000E+00  .000E+00  .000E+00  .000E+00  .000E+00  .000E+00  .000E+00
  .000E+00  .000E+00  .000E+00  .000E+00  .000E+00  .000E+00  .000E+00  .000E+00
  .000E+00  .000E+00  .000E+00  .000E+00  .000E+00  .000E+00  .000E+00  .000E+00
  .000E+00  .000E+00  .000E+00  .000E+00  .000E+00  .000E+00  .000E+00  .000E+00
  .000E+00  .000E+00  .000E+00  .000E+00  .000E+00  .000E+00  .000E+00  .000E+00
  .000E+00  .000E+00  .000E+00  .000E+00  .000E+00  .000E+00  .000E+00  .000E+00
  .000E+00  .000E+00  .000E+00  .000E+00  .000E+00  .000E+00  .000E+00  .000E+00
  .000E+00  .000E+00  .000E+00  .000E+00  .000E+00  .000E+00  .000E+00  .000E+00
  .000E+00  .000E+00  .000E+00  .000E+00  .000E+00  .000E+00  .000E+00  .000E+00
  .000E+00  .000E+00  .000E+00  .000E+00
Damping =  .05. Data of Sd,Sv,Sa,Pssv,ttSd,ttSv,ttSa :
  .253E-04  .281E-04  .316E-04  .359E-04  .392E-04  .428E-04  .604E-04  .656E-04
  .964E-04  .159E-03  .183E-03  .220E-03  .247E-03  .254E-03  .286E-03  .332E-03
  .407E-03  .518E-03  .574E-03  .491E-03  .545E-03  .756E-03  .114E-02  .122E-02
  .114E-02  .133E-02  .179E-02  .293E-02  .326E-02  .253E-02  .208E-02  .198E-02
  .195E-02  .188E-02  .196E-02  .208E-02  .198E-02  .184E-02  .187E-02  .219E-02
  .258E-02  .373E-02  .394E-02  .409E-02  .580E-02  .712E-02  .658E-02  .513E-02
  .417E-02  .393E-02  .377E-02  .292E-02  .273E-02  .294E-02  .340E-02  .310E-02
  .303E-02  .288E-02  .252E-02  .236E-02  .223E-02  .208E-02  .194E-02  .195E-02
  .177E-02  .171E-02  .170E-02  .165E-02  .164E-02  .162E-02  .158E-02  .154E-02
  .153E-02  .152E-02  .151E-02  .149E-02  .143E-02  .140E-02  .000E+00  .000E+00
  .000E+00  .000E+00  .000E+00  .000E+00  .000E+00  .000E+00  .000E+00  .000E+00
  .000E+00  .000E+00  .000E+00  .000E+00  .000E+00  .000E+00  .000E+00  .000E+00
  .000E+00  .000E+00  .000E+00  .000E+00
  .128E-02  .145E-02  .162E-02  .176E-02  .199E-02  .250E-02  .390E-02  .471E-02
  .624E-02  .100E-01  .111E-01  .137E-01  .156E-01  .162E-01  .166E-01  .188E-01
  .212E-01  .261E-01  .261E-01  .222E-01  .223E-01  .254E-01  .370E-01  .395E-01
  .331E-01  .386E-01  .499E-01  .742E-01  .754E-01  .556E-01  .487E-01  .470E-01
  .367E-01  .389E-01  .369E-01  .359E-01  .350E-01  .349E-01  .348E-01  .306E-01
  .318E-01  .433E-01  .423E-01  .431E-01  .534E-01  .608E-01  .576E-01  .488E-01
  .416E-01  .384E-01  .333E-01  .282E-01  .265E-01  .249E-01  .251E-01  .246E-01
  .247E-01  .254E-01  .250E-01  .246E-01  .240E-01  .229E-01  .224E-01  .225E-01
  .225E-01  .223E-01  .218E-01  .213E-01  .211E-01  .208E-01  .206E-01  .204E-01
  .203E-01  .203E-01  .203E-01  .203E-01  .204E-01  .204E-01  .000E+00  .000E+00
  .000E+00  .000E+00  .000E+00  .000E+00  .000E+00  .000E+00  .000E+00  .000E+00
  .000E+00  .000E+00  .000E+00  .000E+00  .000E+00  .000E+00  .000E+00  .000E+00
  .000E+00  .000E+00  .000E+00  .000E+00
  .161E-02  .162E-02  .167E-02  .173E-02  .174E-02  .176E-02  .203E-02  .188E-02
  .234E-02  .336E-02  .337E-02  .350E-02  .355E-02  .326E-02  .327E-02  .340E-02
  .346E-02  .375E-02  .346E-02  .257E-02  .249E-02  .306E-02  .403E-02  .390E-02
  .327E-02  .347E-02  .379E-02  .514E-02  .493E-02  .333E-02  .242E-02  .199E-02
  .171E-02  .149E-02  .140E-02  .134E-02  .116E-02  .979E-03  .912E-03  .974E-03
  .106E-02  .127E-02  .113E-02  .994E-03  .122E-02  .130E-02  .106E-02  .733E-03
  .531E-03  .450E-03  .388E-03  .249E-03  .197E-03  .181E-03  .180E-03  .143E-03
  .123E-03  .104E-03  .819E-04  .688E-04  .590E-04  .462E-04  .366E-04  .309E-04
  .241E-04  .211E-04  .190E-04  .163E-04  .146E-04  .130E-04  .116E-04  .108E-04
  .101E-04  .933E-05  .865E-05  .805E-05  .673E-05  .581E-05  .000E+00  .000E+00
  .000E+00  .000E+00  .000E+00  .000E+00  .000E+00  .000E+00  .000E+00  .000E+00
  .000E+00  .000E+00  .000E+00  .000E+00  .000E+00  .000E+00  .000E+00  .000E+00
  .000E+00  .000E+00  .000E+00  .000E+00
  .397E-02  .420E-02  .452E-02  .491E-02  .513E-02  .538E-02  .690E-02  .687E-02
  .932E-02  .143E-01  .153E-01  .173E-01  .183E-01  .177E-01  .189E-01  .209E-01
  .233E-01  .271E-01  .277E-01  .220E-01  .228E-01  .297E-01  .423E-01  .425E-01
  .378E-01  .419E-01  .512E-01  .768E-01  .787E-01  .567E-01  .435E-01  .389E-01
  .360E-01  .329E-01  .324E-01  .327E-01  .296E-01  .262E-01  .256E-01  .286E-01
  .324E-01  .426E-01  .413E-01  .396E-01  .521E-01  .596E-01  .517E-01  .379E-01
  .291E-01  .260E-01  .237E-01  .167E-01  .143E-01  .142E-01  .152E-01  .130E-01
  .119E-01  .106E-01  .881E-02  .779E-02  .700E-02  .595E-02  .508E-02  .472E-02
  .396E-02  .359E-02  .334E-02  .304E-02  .286E-02  .269E-02  .248E-02  .231E-02
  .219E-02  .208E-02  .198E-02  .188E-02  .164E-02  .147E-02  .000E+00  .000E+00
  .000E+00  .000E+00  .000E+00  .000E+00  .000E+00  .000E+00  .000E+00  .000E+00
  .000E+00  .000E+00  .000E+00  .000E+00  .000E+00  .000E+00  .000E+00  .000E+00
  .000E+00  .000E+00  .000E+00  .000E+00
  .444E+02  .444E+02  .444E+02  .444E+02  .444E+02  .444E+02  .444E+02  .444E+02
  .444E+02  .444E+02  .444E+02  .444E+02  .444E+02  .444E+02  .433E+02  .451E+02
  .444E+02  .444E+02  .445E+02  .453E+02  .438E+02  .430E+02  .431E+02  .431E+02
  .434E+02  .434E+02  .434E+02  .439E+02  .446E+02  .448E+02  .434E+02  .432E+02
  .486E+02  .479E+02  .440E+02  .448E+02  .451E+02  .433E+02  .460E+02  .563E+02
  .522E+02  .523E+02  .529E+02  .518E+02  .512E+02  .484E+02  .482E+02  .463E+02
  .463E+02  .463E+02  .464E+02  .483E+02  .497E+02  .479E+02  .479E+02  .479E+02
  .460E+02  .460E+02  .460E+02  .460E+02  .471E+02  .471E+02  .471E+02  .461E+02
  .461E+02  .479E+02  .456E+02  .456E+02  .456E+02  .457E+02  .457E+02  .457E+02
  .445E+02  .445E+02  .445E+02  .445E+02  .445E+02  .445E+02  .000E+00  .000E+00
  .000E+00  .000E+00  .000E+00  .000E+00  .000E+00  .000E+00  .000E+00  .000E+00
  .000E+00  .000E+00  .000E+00  .000E+00  .000E+00  .000E+00  .000E+00  .000E+00
  .000E+00  .000E+00  .000E+00  .000E+00
  .444E+02  .444E+02  .444E+02  .444E+02  .431E+02  .431E+02  .451E+02  .451E+02
  .453E+02  .444E+02  .444E+02  .444E+02  .444E+02  .445E+02  .451E+02  .451E+02
  .445E+02  .445E+02  .445E+02  .453E+02  .453E+02  .460E+02  .431E+02  .431E+02
  .433E+02  .434E+02  .435E+02  .440E+02  .447E+02  .447E+02  .433E+02  .433E+02
  .433E+02  .433E+02  .439E+02  .439E+02  .432E+02  .432E+02  .432E+02  .432E+02
  .523E+02  .521E+02  .531E+02  .517E+02  .511E+02  .486E+02  .484E+02  .465E+02
  .465E+02  .465E+02  .465E+02  .458E+02  .431E+02  .431E+02  .431E+02  .431E+02
  .458E+02  .458E+02  .458E+02  .458E+02  .458E+02  .458E+02  .458E+02  .458E+02
  .458E+02  .458E+02  .458E+02  .458E+02  .458E+02  .458E+02  .458E+02  .458E+02
  .458E+02  .431E+02  .431E+02  .431E+02  .431E+02  .431E+02  .000E+00  .000E+00
  .000E+00  .000E+00  .000E+00  .000E+00  .000E+00  .000E+00  .000E+00  .000E+00
  .000E+00  .000E+00  .000E+00  .000E+00  .000E+00  .000E+00  .000E+00  .000E+00
  .000E+00  .000E+00  .000E+00  .000E+00
  .444E+02  .444E+02  .444E+02  .444E+02  .444E+02  .444E+02  .444E+02  .444E+02
  .444E+02  .444E+02  .444E+02  .444E+02  .444E+02  .444E+02  .433E+02  .451E+02
  .444E+02  .444E+02  .445E+02  .453E+02  .445E+02  .430E+02  .431E+02  .431E+02
  .434E+02  .434E+02  .434E+02  .439E+02  .446E+02  .448E+02  .433E+02  .432E+02
  .486E+02  .479E+02  .432E+02  .448E+02  .451E+02  .460E+02  .460E+02  .563E+02
  .522E+02  .522E+02  .529E+02  .518E+02  .512E+02  .484E+02  .466E+02  .463E+02
  .463E+02  .463E+02  .464E+02  .483E+02  .496E+02  .478E+02  .479E+02  .479E+02
  .460E+02  .460E+02  .460E+02  .460E+02  .471E+02  .471E+02  .471E+02  .460E+02
  .460E+02  .478E+02  .455E+02  .455E+02  .455E+02  .455E+02  .445E+02  .445E+02
  .445E+02  .445E+02  .445E+02  .445E+02  .445E+02  .445E+02  .000E+00  .000E+00
  .000E+00  .000E+00  .000E+00  .000E+00  .000E+00  .000E+00  .000E+00  .000E+00
  .000E+00  .000E+00  .000E+00  .000E+00  .000E+00  .000E+00  .000E+00  .000E+00
  .000E+00  .000E+00  .000E+00  .000E+00
/&   ----------  End of spectral data for channel  1  ----------
Response and Fourier amplitude spectra (78 periods,  .04 -  6.0 sec)   for      
Corrected accelerogram   38695658.CI.JVA.--.HN      Chan  2: 360 Deg     from   
Uncorrected Accelerogram Data             Processed: 09/19/20, CGS  cijva--o    
Rcrd of Fri Sep 18, 2020 23:38:45.0 PDT               (Avol1 v2.0, 4/18 CSMIP)  
                                        (Origin:  To be determined)             
38695658.CI.JVA.--.HN                Start time:  9/19/20, 06:38:45.0 UTC (GPS) 
Station Id. JVA     34.366N, 116.613W    ObsMMS  s/n 4329  (3 Chns of  3 at Sta)
Johnson Valley, Hwy 247 and Pony Rd.     SCSN   Data: Acceleration              
Chan  2: 360 Deg                                                                
Rcrd of Fri Sep 18, 2020 23:38:45.0 PDT    Fri Sep 18, 2020 23:38:45.0 PDT      
Hypocenter:  To be determined.               ML:  To be determined.             
Instr Period =  .0050 sec,  Damping =  .707,  Sensitivity = 4.99 v/g  (Nominal) 
                        Record Length =301.000 sec.                             
                                     Uncor Max  =   .001 g, at   44.480 sec.    
RMS accel of (uncor) record  =        .   Chn. metadata effective date:         
Accelerogram bandpass filtered with 3 dB pts at   .30 and 23.00 cyc/sec         
                 instrument- and base-line correcte                             
                                                                                
                                                                                
                                                                                
                                                                                
                                                                                
Rcrd of Fri Sep 18, 2020 23:38:45.0 PDT    Fri Sep 18, 2020 23:38:45.0 PDT      
                                                                                
38695658.CI.JVA.--.HN     Johnson Valley, Hwy 247 and Pony Rd.    Chan  2: 360 D
eg                                                                              
38695658.CI.JVA.--.HN     Johnson Valley, Hwy 247 and Pony Rd.    Chan  2: 360 D
eg                                                                              
Units for spectra are inches and sec, except Sa is in fraction of g.            
                                                                                
    2  100    2    3    3  100 -999    3    1    0   15 4329    050618   41    0
    6   38   45    8  263    9   19 2020   10    3  36035753   39   36   74 -999
35753 -999  100    6 -999 -999 -999 -999 -999 -999 -999 -999 -999 -999 -999 -999
 -999 -999 -999 -99915050    2 -999    0 -999   20 -999 -999    3    1 -99915050
    315050    4   78    1    3    5    0    0 -999    0 -999 -999    6 -999    2
    2    2    4 -999 -999 -999 -999 -999 -999 -999 -999    1 -999 -999 -999  111
    1    1 -999 -999
      .005      .707   357.530      .000     1.000  4991.271      .001    44.480
   200.000     2.384      .478  -999.000    10.000  -999.000     4.000  -999.000
    20.000     3.351      .000  -999.000  -999.000  -999.000  -999.000     -.001
      .001      .002     2.000    15.000    34.366  -116.613      .010      .010
     1.020      .000      .004   904.000  -999.000  -999.000  -999.000  -999.000
     1.000  -999.000  -999.000  -999.000  -999.000  -999.000  -999.000   120.000
     -.900     2.000     6.800   980.665      .020   301.000    31.831      .000
  -999.000    23.000  -999.000   301.000      .020      .300  -999.000  -999.000
    44.480     1.052    42.120     -.046    42.360     -.004      .000      .300
    23.000      .020      .020      .000      .020      .003  -999.000  -999.000
      .004      .150      .003      .002      .000      .000  -999.000  -999.000
  -999.000  -999.000  -999.000  -999.000  -999.000  -999.000  -999.000  -999.000
  -999.000  -999.000  -999.000  -999.000
      .050
      .040      .042      .044      .046      .048      .050      .055      .060
      .065      .070      .075      .080      .085      .090      .095      .100
      .110      .120      .130      .140      .150      .160      .170      .180
      .190      .200      .220      .240      .260      .280      .300      .320
      .340      .360      .380      .400      .420      .440      .460      .480
      .500      .550      .600      .650      .700      .750      .800      .850
      .900      .950     1.000     1.100     1.200     1.300     1.400     1.500
     1.600     1.700     1.800     1.900     2.000     2.200     2.400     2.600
     2.800     3.000     3.200     3.400     3.600     3.800     4.000     4.200
     4.400     4.600     4.800     5.000     5.500     6.000      .000      .000
      .000      .000      .000      .000      .000      .000      .000      .000
      .000      .000      .000      .000      .000      .000      .000      .000
      .000      .000      .000      .000
Fourier amplitude spectra in in/sec.
  .000E+00  .000E+00  .000E+00  .000E+00  .000E+00  .000E+00  .000E+00  .000E+00
  .000E+00  .000E+00  .000E+00  .000E+00  .000E+00  .000E+00  .000E+00  .000E+00
  .000E+00  .000E+00  .000E+00  .000E+00  .000E+00  .000E+00  .000E+00  .000E+00
  .000E+00  .000E+00  .000E+00  .000E+00  .000E+00  .000E+00  .000E+00  .000E+00
  .000E+00  .000E+00  .000E+00  .000E+00  .000E+00  .000E+00  .000E+00  .000E+00
  .000E+00  .000E+00  .000E+00  .000E+00  .000E+00  .000E+00  .000E+00  .000E+00
  .000E+00  .000E+00  .000E+00  .000E+00  .000E+00  .000E+00  .000E+00  .000E+00
  .000E+00  .000E+00  .000E+00  .000E+00  .000E+00  .000E+00  .000E+00  .000E+00
  .000E+00  .000E+00  .000E+00  .000E+00  .000E+00  .000E+00  .000E+00  .000E+00
  .000E+00  .000E+00  .000E+00  .000E+00  .000E+00  .000E+00  .000E+00  .000E+00
  .000E+00  .000E+00  .000E+00  .000E+00  .000E+00  .000E+00  .000E+00  .000E+00
  .000E+00  .000E+00  .000E+00  .000E+00  .000E+00  .000E+00  .000E+00  .000E+00
  .000E+00  .000E+00  .000E+00  .000E+00
Damping =  .05. Data of Sd,Sv,Sa,Pssv,ttSd,ttSv,ttSa :
  .173E-04  .196E-04  .220E-04  .247E-04  .299E-04  .360E-04  .466E-04  .636E-04
  .775E-04  .853E-04  .129E-03  .160E-03  .158E-03  .180E-03  .205E-03  .225E-03
  .351E-03  .495E-03  .600E-03  .543E-03  .840E-03  .786E-03  .686E-03  .966E-03
  .935E-03  .104E-02  .106E-02  .172E-02  .212E-02  .186E-02  .190E-02  .208E-02
  .200E-02  .156E-02  .121E-02  .123E-02  .135E-02  .177E-02  .222E-02  .254E-02
