Response and Fourier amplitude spectra (78 periods,  .04 -  6.0 sec)   for      
Corrected accelerogram   38695658.CI.KIK.--.HN      Chan  1:  90 Deg     from   
Uncorrected Accelerogram Data             Processed: 09/19/20, CGS  cikik--u    
Rcrd of Fri Sep 18, 2020 23:38:27.0 PDT               (Avol1 v2.0, 4/18 CSMIP)  
                                        (Origin:  To be determined)             
38695658.CI.KIK.--.HN                Start time:  9/19/20, 06:38:27.0 UTC (GPS) 
Station Id. KIK     34.150N, 118.102W    ObsMMS  s/n  153  (3 Chns of  6 at Sta)
Pasadena, Foothill & Sierra Madre Blvd.  SCSN   Data: Acceleration              
Chan  1:  90 Deg                                                                
Rcrd of Fri Sep 18, 2020 23:38:27.0 PDT    Fri Sep 18, 2020 23:38:27.0 PDT      
Hypocenter:  To be determined.               ML:  To be determined.             
Instr Period =  .0050 sec,  Damping =  .707,  Sensitivity = 4.99 v/g  (Nominal) 
                        Record Length =301.000 sec.                             
                                     Uncor Max  =  -.020 g, at   26.620 sec.    
RMS accel of (uncor) record  =        .   Chn. metadata effective date:         
Accelerogram bandpass filtered with 3 dB pts at   .30 and 23.00 cyc/sec         
                 instrument- and base-line correcte                             
                                                                                
                                                                                
                                                                                
                                                                                
                                                                                
Rcrd of Fri Sep 18, 2020 23:38:27.0 PDT    Fri Sep 18, 2020 23:38:27.0 PDT      
                                                                                
38695658.CI.KIK.--.HN     Pasadena, Foothill & Sierra Madre Blvd.  SChan  1:  90
 Deg                                                                            
38695658.CI.KIK.--.HN     Pasadena, Foothill & Sierra Madre Blvd.  SChan  1:  90
 Deg                                                                            
Units for spectra are inches and sec, except Sa is in fraction of g.            
                                                                                
    1  100    1    6    6  100 -999    3    1    0   15  153    050506   41    0
    6   38   27   10  263    9   19 2020   10    3   9035785   39   39   74 -999
35785 -999  100    6 -999 -999 -999 -999 -999 -999 -999 -999 -999 -999 -999 -999
 -999 -999 -999 -99915050    2 -999    0 -999   20 -999 -999    3    1 -99915050
    315050    4   78    1    3    5    0    0 -999    0 -999 -999    6 -999    2
    2    2    4 -999 -999 -999 -999 -999 -999 -999 -999    1 -999 -999 -999  111
    1    1 -999 -999
      .005      .707   357.850      .001     1.000  4986.662     -.020    26.620
   200.000     2.384      .478  -999.000    10.000  -999.000     4.000  -999.000
    20.000    12.550      .000  -999.000  -999.000  -999.000  -999.000      .000
     -.003     -.002     2.000    15.000    34.150  -118.102      .013      .014
     1.065     -.005      .000   237.200  -999.000  -999.000  -999.000  -999.000
     1.000  -999.000    -8.000  -999.000  -999.000  -999.000  -999.000   120.000
     -.900     2.000     6.800   980.665      .020   301.000    31.831      .000
  -999.000    23.000  -999.000   301.000      .020      .300  -999.000  -999.000
    26.620   -18.713    26.220      .476    26.140     -.033      .000      .300
    23.000      .020      .020      .000      .020      .022  -999.000  -999.000
      .053      .170      .033      .017      .005      .000  -999.000  -999.000
  -999.000  -999.000  -999.000  -999.000  -999.000  -999.000  -999.000  -999.000
  -999.000  -999.000  -999.000  -999.000
      .050
      .040      .042      .044      .046      .048      .050      .055      .060
      .065      .070      .075      .080      .085      .090      .095      .100
      .110      .120      .130      .140      .150      .160      .170      .180
      .190      .200      .220      .240      .260      .280      .300      .320
      .340      .360      .380      .400      .420      .440      .460      .480
      .500      .550      .600      .650      .700      .750      .800      .850
      .900      .950     1.000     1.100     1.200     1.300     1.400     1.500
     1.600     1.700     1.800     1.900     2.000     2.200     2.400     2.600
     2.800     3.000     3.200     3.400     3.600     3.800     4.000     4.200
     4.400     4.600     4.800     5.000     5.500     6.000      .000      .000
      .000      .000      .000      .000      .000      .000      .000      .000
      .000      .000      .000      .000      .000      .000      .000      .000
      .000      .000      .000      .000
Fourier amplitude spectra in in/sec.
  .000E+00  .000E+00  .000E+00  .000E+00  .000E+00  .000E+00  .000E+00  .000E+00
  .000E+00  .000E+00  .000E+00  .000E+00  .000E+00  .000E+00  .000E+00  .000E+00
  .000E+00  .000E+00  .000E+00  .000E+00  .000E+00  .000E+00  .000E+00  .000E+00
  .000E+00  .000E+00  .000E+00  .000E+00  .000E+00  .000E+00  .000E+00  .000E+00
  .000E+00  .000E+00  .000E+00  .000E+00  .000E+00  .000E+00  .000E+00  .000E+00
  .000E+00  .000E+00  .000E+00  .000E+00  .000E+00  .000E+00  .000E+00  .000E+00
  .000E+00  .000E+00  .000E+00  .000E+00  .000E+00  .000E+00  .000E+00  .000E+00
  .000E+00  .000E+00  .000E+00  .000E+00  .000E+00  .000E+00  .000E+00  .000E+00
  .000E+00  .000E+00  .000E+00  .000E+00  .000E+00  .000E+00  .000E+00  .000E+00
  .000E+00  .000E+00  .000E+00  .000E+00  .000E+00  .000E+00  .000E+00  .000E+00
  .000E+00  .000E+00  .000E+00  .000E+00  .000E+00  .000E+00  .000E+00  .000E+00
  .000E+00  .000E+00  .000E+00  .000E+00  .000E+00  .000E+00  .000E+00  .000E+00
  .000E+00  .000E+00  .000E+00  .000E+00
Damping =  .05. Data of Sd,Sv,Sa,Pssv,ttSd,ttSv,ttSa :
  .308E-03  .352E-03  .407E-03  .455E-03  .524E-03  .605E-03  .775E-03  .108E-02
  .160E-02  .233E-02  .264E-02  .269E-02  .305E-02  .404E-02  .441E-02  .405E-02
  .438E-02  .716E-02  .716E-02  .751E-02  .913E-02  .127E-01  .148E-01  .158E-01
  .154E-01  .130E-01  .928E-02  .112E-01  .141E-01  .123E-01  .170E-01  .156E-01
  .182E-01  .184E-01  .185E-01  .217E-01  .219E-01  .220E-01  .233E-01  .244E-01
  .253E-01  .265E-01  .256E-01  .226E-01  .287E-01  .344E-01  .309E-01  .327E-01
  .374E-01  .435E-01  .472E-01  .581E-01  .445E-01  .454E-01  .402E-01  .364E-01
  .330E-01  .339E-01  .294E-01  .279E-01  .283E-01  .243E-01  .258E-01  .218E-01
  .206E-01  .201E-01  .167E-01  .146E-01  .143E-01  .144E-01  .143E-01  .139E-01
  .136E-01  .135E-01  .135E-01  .136E-01  .140E-01  .139E-01  .000E+00  .000E+00
  .000E+00  .000E+00  .000E+00  .000E+00  .000E+00  .000E+00  .000E+00  .000E+00
  .000E+00  .000E+00  .000E+00  .000E+00  .000E+00  .000E+00  .000E+00  .000E+00
  .000E+00  .000E+00  .000E+00  .000E+00
  .234E-01  .262E-01  .309E-01  .348E-01  .432E-01  .477E-01  .613E-01  .806E-01
  .121E+00  .178E+00  .185E+00  .189E+00  .209E+00  .248E+00  .255E+00  .215E+00
  .207E+00  .326E+00  .325E+00  .318E+00  .374E+00  .491E+00  .536E+00  .551E+00
  .546E+00  .449E+00  .337E+00  .289E+00  .338E+00  .317E+00  .377E+00  .320E+00
  .329E+00  .327E+00  .334E+00  .392E+00  .401E+00  .382E+00  .375E+00  .355E+00
  .332E+00  .305E+00  .356E+00  .352E+00  .324E+00  .286E+00  .256E+00  .246E+00
  .267E+00  .298E+00  .291E+00  .366E+00  .273E+00  .227E+00  .223E+00  .218E+00
  .215E+00  .211E+00  .209E+00  .207E+00  .205E+00  .202E+00  .200E+00  .198E+00
  .196E+00  .195E+00  .193E+00  .192E+00  .191E+00  .190E+00  .189E+00  .188E+00
  .188E+00  .187E+00  .187E+00  .187E+00  .186E+00  .185E+00  .000E+00  .000E+00
  .000E+00  .000E+00  .000E+00  .000E+00  .000E+00  .000E+00  .000E+00  .000E+00
  .000E+00  .000E+00  .000E+00  .000E+00  .000E+00  .000E+00  .000E+00  .000E+00
  .000E+00  .000E+00  .000E+00  .000E+00
  .197E-01  .204E-01  .216E-01  .221E-01  .232E-01  .250E-01  .262E-01  .303E-01
  .392E-01  .494E-01  .475E-01  .440E-01  .436E-01  .508E-01  .496E-01  .422E-01
  .379E-01  .512E-01  .436E-01  .390E-01  .419E-01  .508E-01  .527E-01  .502E-01
  .442E-01  .337E-01  .204E-01  .202E-01  .210E-01  .162E-01  .192E-01  .156E-01
  .163E-01  .146E-01  .132E-01  .141E-01  .127E-01  .116E-01  .114E-01  .109E-01
  .106E-01  .918E-02  .730E-02  .547E-02  .601E-02  .627E-02  .498E-02  .465E-02
  .476E-02  .496E-02  .485E-02  .494E-02  .318E-02  .277E-02  .211E-02  .168E-02
  .134E-02  .122E-02  .948E-03  .801E-03  .739E-03  .521E-03  .466E-03  .338E-03
  .282E-03  .243E-03  .181E-03  .143E-03  .126E-03  .115E-03  .104E-03  .931E-04
  .843E-04  .776E-04  .721E-04  .678E-04  .588E-04  .516E-04  .000E+00  .000E+00
  .000E+00  .000E+00  .000E+00  .000E+00  .000E+00  .000E+00  .000E+00  .000E+00
  .000E+00  .000E+00  .000E+00  .000E+00  .000E+00  .000E+00  .000E+00  .000E+00
  .000E+00  .000E+00  .000E+00  .000E+00
  .483E-01  .527E-01  .581E-01  .622E-01  .686E-01  .760E-01  .886E-01  .113E+00
  .155E+00  .209E+00  .221E+00  .211E+00  .226E+00  .282E+00  .292E+00  .254E+00
  .250E+00  .375E+00  .346E+00  .337E+00  .382E+00  .498E+00  .547E+00  .551E+00
  .509E+00  .409E+00  .265E+00  .294E+00  .340E+00  .277E+00  .357E+00  .307E+00
  .336E+00  .321E+00  .305E+00  .341E+00  .328E+00  .314E+00  .318E+00  .320E+00
  .318E+00  .303E+00  .268E+00  .218E+00  .258E+00  .288E+00  .243E+00  .242E+00
  .261E+00  .288E+00  .297E+00  .332E+00  .233E+00  .219E+00  .180E+00  .153E+00
  .130E+00  .125E+00  .103E+00  .921E-01  .890E-01  .695E-01  .674E-01  .526E-01
  .461E-01  .421E-01  .329E-01  .270E-01  .249E-01  .239E-01  .225E-01  .208E-01
  .195E-01  .184E-01  .177E-01  .171E-01  .160E-01  .146E-01  .000E+00  .000E+00
  .000E+00  .000E+00  .000E+00  .000E+00  .000E+00  .000E+00  .000E+00  .000E+00
  .000E+00  .000E+00  .000E+00  .000E+00  .000E+00  .000E+00  .000E+00  .000E+00
  .000E+00  .000E+00  .000E+00  .000E+00
  .266E+02  .266E+02  .266E+02  .266E+02  .266E+02  .267E+02  .268E+02  .268E+02
  .268E+02  .268E+02  .268E+02  .268E+02  .267E+02  .267E+02  .267E+02  .267E+02
  .267E+02  .267E+02  .267E+02  .268E+02  .268E+02  .268E+02  .268E+02  .268E+02
  .268E+02  .268E+02  .266E+02  .294E+02  .305E+02  .290E+02  .288E+02  .325E+02
  .321E+02  .313E+02  .274E+02  .274E+02  .277E+02  .271E+02  .269E+02  .270E+02
  .267E+02  .268E+02  .280E+02  .281E+02  .416E+02  .393E+02  .397E+02  .398E+02
  .417E+02  .414E+02  .387E+02  .383E+02  .352E+02  .336E+02  .407E+02  .312E+02
  .307E+02  .307E+02  .402E+02  .331E+02  .332E+02  .425E+02  .396E+02  .396E+02
  .379E+02  .379E+02  .379E+02  .379E+02  .379E+02  .379E+02  .379E+02  .379E+02
  .379E+02  .379E+02  .379E+02  .379E+02  .379E+02  .379E+02  .000E+00  .000E+00
  .000E+00  .000E+00  .000E+00  .000E+00  .000E+00  .000E+00  .000E+00  .000E+00
  .000E+00  .000E+00  .000E+00  .000E+00  .000E+00  .000E+00  .000E+00  .000E+00
  .000E+00  .000E+00  .000E+00  .000E+00
  .266E+02  .266E+02  .266E+02  .266E+02  .266E+02  .266E+02  .267E+02  .268E+02
  .268E+02  .268E+02  .268E+02  .268E+02  .268E+02  .267E+02  .267E+02  .267E+02
  .267E+02  .267E+02  .267E+02  .268E+02  .268E+02  .268E+02  .268E+02  .268E+02
  .268E+02  .266E+02  .266E+02  .294E+02  .306E+02  .291E+02  .290E+02  .266E+02
  .322E+02  .314E+02  .275E+02  .275E+02  .274E+02  .266E+02  .266E+02  .266E+02
  .266E+02  .267E+02  .267E+02  .267E+02  .267E+02  .267E+02  .399E+02  .400E+02
  .419E+02  .412E+02  .384E+02  .380E+02  .313E+02  .262E+02  .262E+02  .262E+02
  .262E+02  .262E+02  .262E+02  .262E+02  .262E+02  .262E+02  .262E+02  .262E+02
  .262E+02  .262E+02  .262E+02  .262E+02  .262E+02  .262E+02  .262E+02  .262E+02
  .262E+02  .262E+02  .262E+02  .262E+02  .262E+02  .262E+02  .000E+00  .000E+00
  .000E+00  .000E+00  .000E+00  .000E+00  .000E+00  .000E+00  .000E+00  .000E+00
  .000E+00  .000E+00  .000E+00  .000E+00  .000E+00  .000E+00  .000E+00  .000E+00
  .000E+00  .000E+00  .000E+00  .000E+00
  .266E+02  .266E+02  .266E+02  .266E+02  .266E+02  .267E+02  .268E+02  .268E+02
  .268E+02  .268E+02  .268E+02  .268E+02  .268E+02  .267E+02  .267E+02  .267E+02
  .267E+02  .267E+02  .267E+02  .268E+02  .268E+02  .268E+02  .268E+02  .268E+02
  .268E+02  .267E+02  .266E+02  .294E+02  .305E+02  .290E+02  .288E+02  .325E+02
  .321E+02  .313E+02  .274E+02  .274E+02  .277E+02  .271E+02  .269E+02  .269E+02
  .267E+02  .268E+02  .280E+02  .281E+02  .416E+02  .392E+02  .397E+02  .398E+02
  .417E+02  .414E+02  .386E+02  .383E+02  .352E+02  .336E+02  .406E+02  .312E+02
  .307E+02  .307E+02  .307E+02  .331E+02  .331E+02  .425E+02  .395E+02  .395E+02
  .379E+02  .379E+02  .379E+02  .379E+02  .379E+02  .379E+02  .379E+02  .379E+02
  .379E+02  .261E+02  .261E+02  .379E+02  .379E+02  .267E+02  .000E+00  .000E+00
  .000E+00  .000E+00  .000E+00  .000E+00  .000E+00  .000E+00  .000E+00  .000E+00
  .000E+00  .000E+00  .000E+00  .000E+00  .000E+00  .000E+00  .000E+00  .000E+00
  .000E+00  .000E+00  .000E+00  .000E+00
/&   ----------  End of spectral data for channel  1  ----------
Response and Fourier amplitude spectra (78 periods,  .04 -  6.0 sec)   for      
Corrected accelerogram   38695658.CI.KIK.--.HN      Chan  2: 360 Deg     from   
Uncorrected Accelerogram Data             Processed: 09/19/20, CGS  cikik--u    
Rcrd of Fri Sep 18, 2020 23:38:27.0 PDT               (Avol1 v2.0, 4/18 CSMIP)  
                                        (Origin:  To be determined)             
38695658.CI.KIK.--.HN                Start time:  9/19/20, 06:38:27.0 UTC (GPS) 
Station Id. KIK     34.150N, 118.102W    ObsMMS  s/n  153  (3 Chns of  6 at Sta)
Pasadena, Foothill & Sierra Madre Blvd.  SCSN   Data: Acceleration              
Chan  2: 360 Deg                                                                
Rcrd of Fri Sep 18, 2020 23:38:27.0 PDT    Fri Sep 18, 2020 23:38:27.0 PDT      
Hypocenter:  To be determined.               ML:  To be determined.             
Instr Period =  .0050 sec,  Damping =  .707,  Sensitivity = 4.99 v/g  (Nominal) 
                        Record Length =301.000 sec.                             
                                     Uncor Max  =  -.024 g, at   26.690 sec.    
RMS accel of (uncor) record  =        .   Chn. metadata effective date:         
Accelerogram bandpass filtered with 3 dB pts at   .30 and 23.00 cyc/sec         
                 instrument- and base-line correcte                             
                                                                                
                                                                                
                                                                                
                                                                                
                                                                                
Rcrd of Fri Sep 18, 2020 23:38:27.0 PDT    Fri Sep 18, 2020 23:38:27.0 PDT      
                                                                                
38695658.CI.KIK.--.HN     Pasadena, Foothill & Sierra Madre Blvd.  SChan  2: 360
 Deg                                                                            
38695658.CI.KIK.--.HN     Pasadena, Foothill & Sierra Madre Blvd.  SChan  2: 360
 Deg                                                                            
Units for spectra are inches and sec, except Sa is in fraction of g.            
                                                                                
    2  100    2    6    6  100 -999    3    1    0   15  153    050506   41    0
    6   38   27   10  263    9   19 2020   10    3  36035836   39   39   74 -999
35836 -999  100    6 -999 -999 -999 -999 -999 -999 -999 -999 -999 -999 -999 -999
 -999 -999 -999 -99915050    2 -999    0 -999   20 -999 -999    3    1 -99915050
    315050    4   78    1    3    5    0    0 -999    0 -999 -999    6 -999    2
    2    2    4 -999 -999 -999 -999 -999 -999 -999 -999    1 -999 -999 -999  111
    1    1 -999 -999
      .005      .707   358.360      .001     1.000  4986.662     -.024    26.690
   200.000     2.384      .478  -999.000    10.000  -999.000     4.000  -999.000
    20.000    -2.209      .000  -999.000  -999.000  -999.000  -999.000      .001
     -.001     -.003     2.000    15.000    34.150  -118.102      .021      .016
      .764     -.007      .001   237.200  -999.000  -999.000  -999.000  -999.000
     1.000  -999.000  -999.000  -999.000  -999.000  -999.000  -999.000   120.000
     -.900     2.000     6.800   980.665      .020   301.000    31.831      .000
  -999.000    23.000  -999.000   301.000      .020      .300  -999.000  -999.000
    26.700   -22.836    26.140     -.908    26.400     -.092      .000      .300
    23.000      .020      .020      .000      .020      .023  -999.000  -999.000
      .074      .070      .035      .023      .008      .001  -999.000  -999.000
  -999.000  -999.000  -999.000  -999.000  -999.000  -999.000  -999.000  -999.000
  -999.000  -999.000  -999.000  -999.000
      .050
      .040      .042      .044      .046      .048      .050      .055      .060
      .065      .070      .075      .080      .085      .090      .095      .100
      .110      .120      .130      .140      .150      .160      .170      .180
      .190      .200      .220      .240      .260      .280      .300      .320
      .340      .360      .380      .400      .420      .440      .460      .480
      .500      .550      .600      .650      .700      .750      .800      .850
      .900      .950     1.000     1.100     1.200     1.300     1.400     1.500
     1.600     1.700     1.800     1.900     2.000     2.200     2.400     2.600
     2.800     3.000     3.200     3.400     3.600     3.800     4.000     4.200
     4.400     4.600     4.800     5.000     5.500     6.000      .000      .000
      .000      .000      .000      .000      .000      .000      .000      .000
      .000      .000      .000      .000      .000      .000      .000      .000
      .000      .000      .000      .000
Fourier amplitude spectra in in/sec.
  .000E+00  .000E+00  .000E+00  .000E+00  .000E+00  .000E+00  .000E+00  .000E+00
  .000E+00  .000E+00  .000E+00  .000E+00  .000E+00  .000E+00  .000E+00  .000E+00
  .000E+00  .000E+00  .000E+00  .000E+00  .000E+00  .000E+00  .000E+00  .000E+00
  .000E+00  .000E+00  .000E+00  .000E+00  .000E+00  .000E+00  .000E+00  .000E+00
  .000E+00  .000E+00  .000E+00  .000E+00  .000E+00  .000E+00  .000E+00  .000E+00
  .000E+00  .000E+00  .000E+00  .000E+00  .000E+00  .000E+00  .000E+00  .000E+00
  .000E+00  .000E+00  .000E+00  .000E+00  .000E+00  .000E+00  .000E+00  .000E+00
  .000E+00  .000E+00  .000E+00  .000E+00  .000E+00  .000E+00  .000E+00  .000E+00
  .000E+00  .000E+00  .000E+00  .000E+00  .000E+00  .000E+00  .000E+00  .000E+00
  .000E+00  .000E+00  .000E+00  .000E+00  .000E+00  .000E+00  .000E+00  .000E+00
  .000E+00  .000E+00  .000E+00  .000E+00  .000E+00  .000E+00  .000E+00  .000E+00
  .000E+00  .000E+00  .000E+00  .000E+00  .000E+00  .000E+00  .000E+00  .000E+00
  .000E+00  .000E+00  .000E+00  .000E+00
Damping =  .05. Data of Sd,Sv,Sa,Pssv,ttSd,ttSv,ttSa :
  .443E-03  .499E-03  .589E-03  .737E-03  .917E-03  .113E-02  .164E-02  .197E-02
  .283E-02  .355E-02  .355E-02  .373E-02  .446E-02  .515E-02  .479E-02  .376E-02
  .546E-02  .679E-02  .632E-02  .585E-02  .541E-02  .701E-02  .974E-02  .113E-01
  .129E-01  .150E-01  .151E-01  .153E-01  .167E-01  .193E-01  .203E-01  .214E-01
  .248E-01  .269E-01  .287E-01  .299E-01  .309E-01  .311E-01  .317E-01  .324E-01
