Response and Fourier amplitude spectra (78 periods,  .04 -  6.0 sec)   for      
Corrected accelerogram   38695658.CI.KML.--.HN      Chan  1:  90 Deg     from   
Uncorrected Accelerogram Data             Processed: 09/19/20, CGS  cikml--k    
Rcrd of Fri Sep 18, 2020 23:38:31.0 PDT               (Avol1 v2.0, 4/18 CSMIP)  
                                        (Origin:  To be determined)             
38695658.CI.KML.--.HN                Start time:  9/19/20, 06:38:31.0 UTC (GPS) 
Station Id. KML     33.597N, 117.879W    ObsMMS  s/n 1936  (3 Chns of  6 at Sta)
Kerckhoff Marine Lab, Corona del Mar     SCSN   Data: Acceleration              
Chan  1:  90 Deg                                                                
Rcrd of Fri Sep 18, 2020 23:38:31.0 PDT    Fri Sep 18, 2020 23:38:31.0 PDT      
Hypocenter:  To be determined.               ML:  To be determined.             
Instr Period =  .0050 sec,  Damping =  .707,  Sensitivity = 4.98 v/g  (Nominal) 
                        Record Length =301.000 sec.                             
                                     Uncor Max  =   .001 g, at   32.010 sec.    
RMS accel of (uncor) record  =        .   Chn. metadata effective date:         
Accelerogram bandpass filtered with 3 dB pts at   .30 and 23.00 cyc/sec         
                 instrument- and base-line correcte                             
                                                                                
                                                                                
                                                                                
                                                                                
                                                                                
Rcrd of Fri Sep 18, 2020 23:38:31.0 PDT    Fri Sep 18, 2020 23:38:31.0 PDT      
                                                                                
38695658.CI.KML.--.HN     Kerckhoff Marine Lab, Corona del Mar    Chan  1:  90 D
eg                                                                              
38695658.CI.KML.--.HN     Kerckhoff Marine Lab, Corona del Mar    Chan  1:  90 D
eg                                                                              
Units for spectra are inches and sec, except Sa is in fraction of g.            
                                                                                
    1  100    1    6    6  100 -999    3    1    0   15 1936    050708   41    0
    6   38   31   10  263    9   19 2020   10    3   9035923   39   36   74 -999
35923 -999  100    6 -999 -999 -999 -999 -999 -999 -999 -999 -999 -999 -999 -999
 -999 -999 -999 -99915050    2 -999    0 -999   20 -999 -999    3    1 568615050
    315050    4   78    1    3    5    0    0 -999    0 -999 -999    6 -999    2
    2    2    4 -999 -999 -999 -999 -999 -999 -999 -999    1 -999 -999 -999  111
    1    1 -999 -999
      .005      .707   359.230      .000     1.000  4979.503      .001    32.010
   200.000     2.384      .479  -999.000    10.000  -999.000     4.000  -999.000
    20.000   -17.549      .000  -999.000  -999.000  -999.000  -999.000      .000
      .000      .000     2.000    15.000    33.597  -117.879      .003      .001
      .394     -.001      .000     9.000  -999.000  -999.000  -999.000  -999.000
     1.000  -999.000    -8.000  -999.000  -999.000  -999.000  -999.000   120.000
     -.900     2.000     6.800   980.665      .020   301.000    31.831      .000
  -999.000    23.000  -999.000   301.000      .020      .300  -999.000  -999.000
    33.080     -.931    39.600     -.051    39.720     -.007      .000      .300
    23.000      .020      .020      .000      .020      .004  -999.000  -999.000
      .004      .180      .003      .002      .000      .000  -999.000  -999.000
  -999.000  -999.000  -999.000  -999.000  -999.000  -999.000  -999.000  -999.000
  -999.000  -999.000  -999.000  -999.000
      .050
      .040      .042      .044      .046      .048      .050      .055      .060
      .065      .070      .075      .080      .085      .090      .095      .100
      .110      .120      .130      .140      .150      .160      .170      .180
      .190      .200      .220      .240      .260      .280      .300      .320
      .340      .360      .380      .400      .420      .440      .460      .480
      .500      .550      .600      .650      .700      .750      .800      .850
      .900      .950     1.000     1.100     1.200     1.300     1.400     1.500
     1.600     1.700     1.800     1.900     2.000     2.200     2.400     2.600
     2.800     3.000     3.200     3.400     3.600     3.800     4.000     4.200
     4.400     4.600     4.800     5.000     5.500     6.000      .000      .000
      .000      .000      .000      .000      .000      .000      .000      .000
      .000      .000      .000      .000      .000      .000      .000      .000
      .000      .000      .000      .000
Fourier amplitude spectra in in/sec.
  .000E+00  .000E+00  .000E+00  .000E+00  .000E+00  .000E+00  .000E+00  .000E+00
  .000E+00  .000E+00  .000E+00  .000E+00  .000E+00  .000E+00  .000E+00  .000E+00
  .000E+00  .000E+00  .000E+00  .000E+00  .000E+00  .000E+00  .000E+00  .000E+00
  .000E+00  .000E+00  .000E+00  .000E+00  .000E+00  .000E+00  .000E+00  .000E+00
  .000E+00  .000E+00  .000E+00  .000E+00  .000E+00  .000E+00  .000E+00  .000E+00
  .000E+00  .000E+00  .000E+00  .000E+00  .000E+00  .000E+00  .000E+00  .000E+00
  .000E+00  .000E+00  .000E+00  .000E+00  .000E+00  .000E+00  .000E+00  .000E+00
  .000E+00  .000E+00  .000E+00  .000E+00  .000E+00  .000E+00  .000E+00  .000E+00
  .000E+00  .000E+00  .000E+00  .000E+00  .000E+00  .000E+00  .000E+00  .000E+00
  .000E+00  .000E+00  .000E+00  .000E+00  .000E+00  .000E+00  .000E+00  .000E+00
  .000E+00  .000E+00  .000E+00  .000E+00  .000E+00  .000E+00  .000E+00  .000E+00
  .000E+00  .000E+00  .000E+00  .000E+00  .000E+00  .000E+00  .000E+00  .000E+00
  .000E+00  .000E+00  .000E+00  .000E+00
Damping =  .05. Data of Sd,Sv,Sa,Pssv,ttSd,ttSv,ttSa :
  .161E-04  .182E-04  .209E-04  .245E-04  .262E-04  .275E-04  .389E-04  .550E-04
  .729E-04  .813E-04  .105E-03  .110E-03  .151E-03  .183E-03  .234E-03  .293E-03
  .315E-03  .384E-03  .612E-03  .631E-03  .637E-03  .877E-03  .100E-02  .116E-02
  .113E-02  .127E-02  .151E-02  .197E-02  .167E-02  .189E-02  .191E-02  .172E-02
  .205E-02  .234E-02  .246E-02  .316E-02  .340E-02  .296E-02  .303E-02  .405E-02
  .471E-02  .425E-02  .425E-02  .360E-02  .301E-02  .268E-02  .232E-02  .215E-02
  .216E-02  .240E-02  .244E-02  .259E-02  .304E-02  .464E-02  .482E-02  .431E-02
  .403E-02  .501E-02  .646E-02  .663E-02  .608E-02  .501E-02  .422E-02  .425E-02
  .441E-02  .395E-02  .396E-02  .385E-02  .361E-02  .327E-02  .302E-02  .296E-02
  .305E-02  .318E-02  .329E-02  .336E-02  .338E-02  .328E-02  .000E+00  .000E+00
  .000E+00  .000E+00  .000E+00  .000E+00  .000E+00  .000E+00  .000E+00  .000E+00
  .000E+00  .000E+00  .000E+00  .000E+00  .000E+00  .000E+00  .000E+00  .000E+00
  .000E+00  .000E+00  .000E+00  .000E+00
  .992E-03  .110E-02  .127E-02  .136E-02  .157E-02  .196E-02  .285E-02  .373E-02
  .478E-02  .448E-02  .682E-02  .718E-02  .896E-02  .109E-01  .133E-01  .169E-01
  .171E-01  .178E-01  .283E-01  .275E-01  .257E-01  .341E-01  .356E-01  .397E-01
  .373E-01  .383E-01  .422E-01  .541E-01  .399E-01  .402E-01  .388E-01  .355E-01
  .422E-01  .422E-01  .435E-01  .525E-01  .521E-01  .425E-01  .420E-01  .517E-01
  .557E-01  .537E-01  .532E-01  .422E-01  .383E-01  .317E-01  .264E-01  .227E-01
  .215E-01  .213E-01  .189E-01  .178E-01  .216E-01  .229E-01  .257E-01  .210E-01
  .186E-01  .217E-01  .258E-01  .250E-01  .239E-01  .204E-01  .188E-01  .172E-01
  .175E-01  .183E-01  .193E-01  .199E-01  .203E-01  .203E-01  .200E-01  .196E-01
  .194E-01  .194E-01  .194E-01  .195E-01  .198E-01  .199E-01  .000E+00  .000E+00
  .000E+00  .000E+00  .000E+00  .000E+00  .000E+00  .000E+00  .000E+00  .000E+00
  .000E+00  .000E+00  .000E+00  .000E+00  .000E+00  .000E+00  .000E+00  .000E+00
  .000E+00  .000E+00  .000E+00  .000E+00
  .103E-02  .105E-02  .110E-02  .119E-02  .116E-02  .113E-02  .133E-02  .156E-02
  .178E-02  .172E-02  .189E-02  .176E-02  .212E-02  .232E-02  .267E-02  .303E-02
  .269E-02  .278E-02  .366E-02  .334E-02  .289E-02  .349E-02  .358E-02  .368E-02
  .320E-02  .329E-02  .325E-02  .356E-02  .249E-02  .249E-02  .215E-02  .169E-02
  .184E-02  .188E-02  .176E-02  .205E-02  .198E-02  .157E-02  .146E-02  .180E-02
  .193E-02  .145E-02  .121E-02  .879E-03  .638E-03  .488E-03  .375E-03  .307E-03
  .275E-03  .274E-03  .255E-03  .224E-03  .218E-03  .283E-03  .253E-03  .198E-03
  .163E-03  .179E-03  .206E-03  .189E-03  .157E-03  .108E-03  .766E-04  .650E-04
  .586E-04  .475E-04  .424E-04  .368E-04  .312E-04  .259E-04  .220E-04  .198E-04
  .188E-04  .180E-04  .172E-04  .163E-04  .139E-04  .117E-04  .000E+00  .000E+00
  .000E+00  .000E+00  .000E+00  .000E+00  .000E+00  .000E+00  .000E+00  .000E+00
  .000E+00  .000E+00  .000E+00  .000E+00  .000E+00  .000E+00  .000E+00  .000E+00
  .000E+00  .000E+00  .000E+00  .000E+00
  .253E-02  .273E-02  .299E-02  .334E-02  .343E-02  .345E-02  .445E-02  .576E-02
  .704E-02  .730E-02  .881E-02  .867E-02  .112E-01  .128E-01  .155E-01  .184E-01
  .180E-01  .201E-01  .296E-01  .283E-01  .267E-01  .344E-01  .371E-01  .403E-01
  .374E-01  .399E-01  .432E-01  .515E-01  .403E-01  .425E-01  .399E-01  .337E-01
  .378E-01  .409E-01  .407E-01  .497E-01  .509E-01  .423E-01  .414E-01  .530E-01
  .592E-01  .486E-01  .445E-01  .348E-01  .270E-01  .224E-01  .182E-01  .159E-01
  .151E-01  .159E-01  .153E-01  .148E-01  .159E-01  .224E-01  .216E-01  .181E-01
  .158E-01  .185E-01  .226E-01  .219E-01  .191E-01  .143E-01  .111E-01  .103E-01
  .991E-02  .827E-02  .777E-02  .711E-02  .630E-02  .541E-02  .474E-02  .443E-02
  .436E-02  .435E-02  .430E-02  .423E-02  .386E-02  .344E-02  .000E+00  .000E+00
  .000E+00  .000E+00  .000E+00  .000E+00  .000E+00  .000E+00  .000E+00  .000E+00
  .000E+00  .000E+00  .000E+00  .000E+00  .000E+00  .000E+00  .000E+00  .000E+00
  .000E+00  .000E+00  .000E+00  .000E+00
  .331E+02  .331E+02  .331E+02  .331E+02  .331E+02  .331E+02  .326E+02  .326E+02
  .324E+02  .324E+02  .326E+02  .328E+02  .328E+02  .328E+02  .341E+02  .341E+02
  .342E+02  .351E+02  .327E+02  .327E+02  .327E+02  .327E+02  .328E+02  .357E+02
  .357E+02  .333E+02  .333E+02  .331E+02  .326E+02  .393E+02  .393E+02  .331E+02
  .399E+02  .399E+02  .399E+02  .398E+02  .398E+02  .398E+02  .398E+02  .398E+02
  .398E+02  .399E+02  .399E+02  .397E+02  .397E+02  .395E+02  .395E+02  .392E+02
  .392E+02  .392E+02  .392E+02  .392E+02  .444E+02  .453E+02  .408E+02  .409E+02
  .409E+02  .409E+02  .457E+02  .450E+02  .442E+02  .436E+02  .436E+02  .428E+02
  .405E+02  .405E+02  .397E+02  .397E+02  .397E+02  .397E+02  .397E+02  .397E+02
  .397E+02  .397E+02  .397E+02  .397E+02  .397E+02  .397E+02  .000E+00  .000E+00
  .000E+00  .000E+00  .000E+00  .000E+00  .000E+00  .000E+00  .000E+00  .000E+00
  .000E+00  .000E+00  .000E+00  .000E+00  .000E+00  .000E+00  .000E+00  .000E+00
  .000E+00  .000E+00  .000E+00  .000E+00
  .326E+02  .326E+02  .326E+02  .327E+02  .341E+02  .341E+02  .341E+02  .324E+02
  .324E+02  .339E+02  .326E+02  .326E+02  .328E+02  .347E+02  .341E+02  .341E+02
  .342E+02  .351E+02  .326E+02  .327E+02  .327E+02  .327E+02  .328E+02  .357E+02
  .358E+02  .332E+02  .334E+02  .332E+02  .325E+02  .394E+02  .392E+02  .332E+02
  .331E+02  .398E+02  .399E+02  .399E+02  .399E+02  .399E+02  .399E+02  .399E+02
  .399E+02  .398E+02  .398E+02  .396E+02  .396E+02  .396E+02  .396E+02  .396E+02
  .393E+02  .393E+02  .393E+02  .393E+02  .398E+02  .496E+02  .398E+02  .398E+02
  .421E+02  .398E+02  .452E+02  .398E+02  .398E+02  .391E+02  .396E+02  .398E+02
  .398E+02  .396E+02  .396E+02  .396E+02  .396E+02  .396E+02  .396E+02  .396E+02
  .396E+02  .396E+02  .396E+02  .396E+02  .396E+02  .396E+02  .000E+00  .000E+00
  .000E+00  .000E+00  .000E+00  .000E+00  .000E+00  .000E+00  .000E+00  .000E+00
  .000E+00  .000E+00  .000E+00  .000E+00  .000E+00  .000E+00  .000E+00  .000E+00
  .000E+00  .000E+00  .000E+00  .000E+00
  .331E+02  .331E+02  .331E+02  .331E+02  .331E+02  .331E+02  .326E+02  .326E+02
  .324E+02  .324E+02  .326E+02  .326E+02  .328E+02  .328E+02  .341E+02  .341E+02
  .342E+02  .351E+02  .327E+02  .327E+02  .327E+02  .327E+02  .328E+02  .357E+02
  .357E+02  .333E+02  .333E+02  .332E+02  .326E+02  .393E+02  .393E+02  .331E+02
  .399E+02  .399E+02  .399E+02  .398E+02  .398E+02  .398E+02  .398E+02  .398E+02
  .398E+02  .399E+02  .399E+02  .397E+02  .397E+02  .394E+02  .395E+02  .392E+02
  .392E+02  .392E+02  .392E+02  .392E+02  .444E+02  .453E+02  .408E+02  .409E+02
  .409E+02  .409E+02  .457E+02  .450E+02  .442E+02  .436E+02  .436E+02  .427E+02
  .405E+02  .396E+02  .396E+02  .396E+02  .396E+02  .396E+02  .396E+02  .396E+02
  .396E+02  .396E+02  .396E+02  .396E+02  .396E+02  .396E+02  .000E+00  .000E+00
  .000E+00  .000E+00  .000E+00  .000E+00  .000E+00  .000E+00  .000E+00  .000E+00
  .000E+00  .000E+00  .000E+00  .000E+00  .000E+00  .000E+00  .000E+00  .000E+00
  .000E+00  .000E+00  .000E+00  .000E+00
/&   ----------  End of spectral data for channel  1  ----------
Response and Fourier amplitude spectra (78 periods,  .04 -  6.0 sec)   for      
Corrected accelerogram   38695658.CI.KML.--.HN      Chan  2: 360 Deg     from   
Uncorrected Accelerogram Data             Processed: 09/19/20, CGS  cikml--k    
Rcrd of Fri Sep 18, 2020 23:38:31.0 PDT               (Avol1 v2.0, 4/18 CSMIP)  
                                        (Origin:  To be determined)             
38695658.CI.KML.--.HN                Start time:  9/19/20, 06:38:31.0 UTC (GPS) 
Station Id. KML     33.597N, 117.879W    ObsMMS  s/n 1936  (3 Chns of  6 at Sta)
Kerckhoff Marine Lab, Corona del Mar     SCSN   Data: Acceleration              
Chan  2: 360 Deg                                                                
Rcrd of Fri Sep 18, 2020 23:38:31.0 PDT    Fri Sep 18, 2020 23:38:31.0 PDT      
Hypocenter:  To be determined.               ML:  To be determined.             
Instr Period =  .0050 sec,  Damping =  .707,  Sensitivity = 4.98 v/g  (Nominal) 
                        Record Length =301.000 sec.                             
                                     Uncor Max  =  -.001 g, at   32.020 sec.    
RMS accel of (uncor) record  =        .   Chn. metadata effective date:         
Accelerogram bandpass filtered with 3 dB pts at   .30 and 23.00 cyc/sec         
                 instrument- and base-line correcte                             
                                                                                
                                                                                
                                                                                
                                                                                
                                                                                
Rcrd of Fri Sep 18, 2020 23:38:31.0 PDT    Fri Sep 18, 2020 23:38:31.0 PDT      
                                                                                
38695658.CI.KML.--.HN     Kerckhoff Marine Lab, Corona del Mar    Chan  2: 360 D
eg                                                                              
38695658.CI.KML.--.HN     Kerckhoff Marine Lab, Corona del Mar    Chan  2: 360 D
eg                                                                              
Units for spectra are inches and sec, except Sa is in fraction of g.            
                                                                                
    2  100    2    6    6  100 -999    3    1    0   15 1936    050708   41    0
    6   38   31   10  263    9   19 2020   10    3  36035662   39   36   74 -999
35662 -999  100    6 -999 -999 -999 -999 -999 -999 -999 -999 -999 -999 -999 -999
 -999 -999 -999 -99915050    2 -999    0 -999   20 -999 -999    3    1 568615050
    315050    4   78    1    3    5    0    0 -999    0 -999 -999    6 -999    2
    2    2    4 -999 -999 -999 -999 -999 -999 -999 -999    1 -999 -999 -999  111
    1    1 -999 -999
      .005      .707   356.620      .000     1.000  4984.489     -.001    32.020
   200.000     2.384      .478  -999.000    10.000  -999.000     4.000  -999.000
    20.000    -7.345      .000  -999.000  -999.000  -999.000  -999.000      .000
      .000      .000     2.000    15.000    33.597  -117.879      .004      .001
      .356     -.001      .001     9.000  -999.000  -999.000  -999.000  -999.000
     1.000  -999.000  -999.000  -999.000  -999.000  -999.000  -999.000   120.000
     -.900     2.000     6.800   980.665      .020   301.000    31.831      .000
  -999.000    23.000  -999.000   301.000      .020      .300  -999.000  -999.000
    32.240     -.852    38.320      .034    38.860      .005      .000      .300
    23.000      .020      .020      .000      .020      .004  -999.000  -999.000
      .004      .200      .004      .001      .000      .000  -999.000  -999.000
  -999.000  -999.000  -999.000  -999.000  -999.000  -999.000  -999.000  -999.000
  -999.000  -999.000  -999.000  -999.000
      .050
      .040      .042      .044      .046      .048      .050      .055      .060
      .065      .070      .075      .080      .085      .090      .095      .100
      .110      .120      .130      .140      .150      .160      .170      .180
      .190      .200      .220      .240      .260      .280      .300      .320
      .340      .360      .380      .400      .420      .440      .460      .480
      .500      .550      .600      .650      .700      .750      .800      .850
      .900      .950     1.000     1.100     1.200     1.300     1.400     1.500
     1.600     1.700     1.800     1.900     2.000     2.200     2.400     2.600
     2.800     3.000     3.200     3.400     3.600     3.800     4.000     4.200
     4.400     4.600     4.800     5.000     5.500     6.000      .000      .000
      .000      .000      .000      .000      .000      .000      .000      .000
      .000      .000      .000      .000      .000      .000      .000      .000
      .000      .000      .000      .000
Fourier amplitude spectra in in/sec.
  .000E+00  .000E+00  .000E+00  .000E+00  .000E+00  .000E+00  .000E+00  .000E+00
  .000E+00  .000E+00  .000E+00  .000E+00  .000E+00  .000E+00  .000E+00  .000E+00
  .000E+00  .000E+00  .000E+00  .000E+00  .000E+00  .000E+00  .000E+00  .000E+00
  .000E+00  .000E+00  .000E+00  .000E+00  .000E+00  .000E+00  .000E+00  .000E+00
  .000E+00  .000E+00  .000E+00  .000E+00  .000E+00  .000E+00  .000E+00  .000E+00
  .000E+00  .000E+00  .000E+00  .000E+00  .000E+00  .000E+00  .000E+00  .000E+00
  .000E+00  .000E+00  .000E+00  .000E+00  .000E+00  .000E+00  .000E+00  .000E+00
  .000E+00  .000E+00  .000E+00  .000E+00  .000E+00  .000E+00  .000E+00  .000E+00
  .000E+00  .000E+00  .000E+00  .000E+00  .000E+00  .000E+00  .000E+00  .000E+00
  .000E+00  .000E+00  .000E+00  .000E+00  .000E+00  .000E+00  .000E+00  .000E+00
  .000E+00  .000E+00  .000E+00  .000E+00  .000E+00  .000E+00  .000E+00  .000E+00
  .000E+00  .000E+00  .000E+00  .000E+00  .000E+00  .000E+00  .000E+00  .000E+00
  .000E+00  .000E+00  .000E+00  .000E+00
Damping =  .05. Data of Sd,Sv,Sa,Pssv,ttSd,ttSv,ttSa :
  .140E-04  .155E-04  .177E-04  .197E-04  .232E-04  .268E-04  .412E-04  .459E-04
  .553E-04  .786E-04  .101E-03  .131E-03  .126E-03  .135E-03  .195E-03  .245E-03
  .320E-03  .330E-03  .499E-03  .590E-03  .651E-03  .487E-03  .496E-03  .740E-03
  .115E-02  .157E-02  .194E-02  .159E-02  .146E-02  .140E-02  .114E-02  .127E-02
  .130E-02  .113E-02  .111E-02  .150E-02  .193E-02  .224E-02  .240E-02  .243E-02
