Response and Fourier amplitude spectra (78 periods,  .04 -  6.0 sec)   for      
Corrected accelerogram   38695658.CI.LAT.--.HN      Chan  1:  90 Deg     from   
Uncorrected Accelerogram Data             Processed: 09/19/20, CGS  cilat--o    
Rcrd of Fri Sep 18, 2020 23:38:33.0 PDT               (Avol1 v2.0, 4/18 CSMIP)  
                                        (Origin:  To be determined)             
38695658.CI.LAT.--.HN                Start time:  9/19/20, 06:38:33.0 UTC (GPS) 
Station Id. LAT     34.044N, 118.776W    ObsMMS  s/n 1937  (3 Chns of  6 at Sta)
Latigo                                   SCSN   Data: Acceleration              
Chan  1:  90 Deg                                                                
Rcrd of Fri Sep 18, 2020 23:38:33.0 PDT    Fri Sep 18, 2020 23:38:33.0 PDT      
Hypocenter:  To be determined.               ML:  To be determined.             
Instr Period =  .0050 sec,  Damping =  .707,  Sensitivity = 4.97 v/g  (Nominal) 
                        Record Length =301.000 sec.                             
                                     Uncor Max  =   .005 g, at   35.470 sec.    
RMS accel of (uncor) record  =        .   Chn. metadata effective date:         
Accelerogram bandpass filtered with 3 dB pts at   .30 and 23.00 cyc/sec         
                 instrument- and base-line correcte                             
                                                                                
                                                                                
                                                                                
                                                                                
                                                                                
Rcrd of Fri Sep 18, 2020 23:38:33.0 PDT    Fri Sep 18, 2020 23:38:33.0 PDT      
                                                                                
38695658.CI.LAT.--.HN     Latigo    Chan  1:  90 Deg                            
                                                                                
38695658.CI.LAT.--.HN     Latigo    Chan  1:  90 Deg                            
                                                                                
Units for spectra are inches and sec, except Sa is in fraction of g.            
                                                                                
    1  100    1    6    6  100 -999    3    1    0   15 1937    0    0   41    0
    6   38   33   10  263    9   19 2020   10    3   9036004   39    6   74 -999
36004 -999  100    6 -999 -999 -999 -999 -999 -999 -999 -999 -999 -999 -999 -999
 -999 -999 -999 -99915050    2 -999    0 -999   20 -999 -999    3    1 -99915050
    315050    4   78    1    3    5    0    0 -999    0 -999 -999    6 -999    2
    2    2    4 -999 -999 -999 -999 -999 -999 -999 -999    1 -999 -999 -999  111
    1    1 -999 -999
      .005      .707   360.040      .000     1.000  4974.516      .005    35.470
   200.000     2.384      .479  -999.000    10.000  -999.000     4.000  -999.000
    20.000   -25.837      .000  -999.000  -999.000  -999.000  -999.000      .015
     -.015     -.030     2.000    15.000    34.044  -118.776      .002      .002
     1.157     -.030     -.029   351.000  -999.000  -999.000  -999.000  -999.000
     1.000  -999.000    -8.000  -999.000  -999.000  -999.000  -999.000   120.000
     -.900     2.000     6.800   980.665      .020   301.000    31.831      .003
  -999.000    23.000  -999.000   301.000      .020      .300  -999.000  -999.000
    35.540    -4.566    35.500      .130    34.100      .006      .000      .300
    23.000      .020      .020      .000      .020      .005  -999.000  -999.000
      .024      .130      .009      .006      .000      .000  -999.000  -999.000
  -999.000  -999.000  -999.000  -999.000  -999.000  -999.000  -999.000  -999.000
  -999.000  -999.000  -999.000  -999.000
      .050
      .040      .042      .044      .046      .048      .050      .055      .060
      .065      .070      .075      .080      .085      .090      .095      .100
      .110      .120      .130      .140      .150      .160      .170      .180
      .190      .200      .220      .240      .260      .280      .300      .320
      .340      .360      .380      .400      .420      .440      .460      .480
      .500      .550      .600      .650      .700      .750      .800      .850
      .900      .950     1.000     1.100     1.200     1.300     1.400     1.500
     1.600     1.700     1.800     1.900     2.000     2.200     2.400     2.600
     2.800     3.000     3.200     3.400     3.600     3.800     4.000     4.200
     4.400     4.600     4.800     5.000     5.500     6.000      .000      .000
      .000      .000      .000      .000      .000      .000      .000      .000
      .000      .000      .000      .000      .000      .000      .000      .000
      .000      .000      .000      .000
Fourier amplitude spectra in in/sec.
  .000E+00  .000E+00  .000E+00  .000E+00  .000E+00  .000E+00  .000E+00  .000E+00
  .000E+00  .000E+00  .000E+00  .000E+00  .000E+00  .000E+00  .000E+00  .000E+00
  .000E+00  .000E+00  .000E+00  .000E+00  .000E+00  .000E+00  .000E+00  .000E+00
  .000E+00  .000E+00  .000E+00  .000E+00  .000E+00  .000E+00  .000E+00  .000E+00
  .000E+00  .000E+00  .000E+00  .000E+00  .000E+00  .000E+00  .000E+00  .000E+00
  .000E+00  .000E+00  .000E+00  .000E+00  .000E+00  .000E+00  .000E+00  .000E+00
  .000E+00  .000E+00  .000E+00  .000E+00  .000E+00  .000E+00  .000E+00  .000E+00
  .000E+00  .000E+00  .000E+00  .000E+00  .000E+00  .000E+00  .000E+00  .000E+00
  .000E+00  .000E+00  .000E+00  .000E+00  .000E+00  .000E+00  .000E+00  .000E+00
  .000E+00  .000E+00  .000E+00  .000E+00  .000E+00  .000E+00  .000E+00  .000E+00
  .000E+00  .000E+00  .000E+00  .000E+00  .000E+00  .000E+00  .000E+00  .000E+00
  .000E+00  .000E+00  .000E+00  .000E+00  .000E+00  .000E+00  .000E+00  .000E+00
  .000E+00  .000E+00  .000E+00  .000E+00
Damping =  .05. Data of Sd,Sv,Sa,Pssv,ttSd,ttSv,ttSa :
  .816E-04  .911E-04  .101E-03  .113E-03  .125E-03  .142E-03  .175E-03  .206E-03
  .249E-03  .328E-03  .396E-03  .543E-03  .641E-03  .787E-03  .105E-02  .146E-02
  .213E-02  .263E-02  .399E-02  .397E-02  .340E-02  .310E-02  .301E-02  .267E-02
  .289E-02  .324E-02  .440E-02  .638E-02  .746E-02  .533E-02  .504E-02  .479E-02
  .489E-02  .596E-02  .491E-02  .508E-02  .624E-02  .611E-02  .520E-02  .463E-02
  .494E-02  .513E-02  .653E-02  .805E-02  .794E-02  .632E-02  .536E-02  .616E-02
  .544E-02  .471E-02  .431E-02  .407E-02  .356E-02  .308E-02  .285E-02  .264E-02
  .288E-02  .284E-02  .272E-02  .270E-02  .269E-02  .253E-02  .242E-02  .236E-02
  .239E-02  .226E-02  .206E-02  .228E-02  .238E-02  .237E-02  .235E-02  .228E-02
  .223E-02  .220E-02  .222E-02  .221E-02  .221E-02  .223E-02  .000E+00  .000E+00
  .000E+00  .000E+00  .000E+00  .000E+00  .000E+00  .000E+00  .000E+00  .000E+00
  .000E+00  .000E+00  .000E+00  .000E+00  .000E+00  .000E+00  .000E+00  .000E+00
  .000E+00  .000E+00  .000E+00  .000E+00
  .403E-02  .447E-02  .502E-02  .553E-02  .633E-02  .725E-02  .964E-02  .110E-01
  .163E-01  .175E-01  .219E-01  .292E-01  .318E-01  .388E-01  .521E-01  .780E-01
  .105E+00  .125E+00  .184E+00  .173E+00  .137E+00  .125E+00  .114E+00  .937E-01
  .995E-01  .105E+00  .142E+00  .166E+00  .184E+00  .141E+00  .114E+00  .105E+00
  .117E+00  .118E+00  .100E+00  .101E+00  .101E+00  .913E-01  .810E-01  .745E-01
  .717E-01  .757E-01  .838E-01  .911E-01  .871E-01  .885E-01  .812E-01  .662E-01
  .564E-01  .514E-01  .494E-01  .516E-01  .530E-01  .524E-01  .513E-01  .517E-01
  .504E-01  .511E-01  .509E-01  .508E-01  .506E-01  .496E-01  .490E-01  .486E-01
  .484E-01  .486E-01  .490E-01  .492E-01  .492E-01  .491E-01  .489E-01  .488E-01
  .487E-01  .487E-01  .486E-01  .485E-01  .485E-01  .484E-01  .000E+00  .000E+00
  .000E+00  .000E+00  .000E+00  .000E+00  .000E+00  .000E+00  .000E+00  .000E+00
  .000E+00  .000E+00  .000E+00  .000E+00  .000E+00  .000E+00  .000E+00  .000E+00
  .000E+00  .000E+00  .000E+00  .000E+00
  .522E-02  .529E-02  .536E-02  .547E-02  .556E-02  .580E-02  .593E-02  .587E-02
  .606E-02  .682E-02  .729E-02  .874E-02  .904E-02  .993E-02  .119E-01  .149E-01
  .181E-01  .189E-01  .240E-01  .209E-01  .154E-01  .123E-01  .107E-01  .848E-02
  .815E-02  .815E-02  .942E-02  .113E-01  .114E-01  .701E-02  .580E-02  .472E-02
  .433E-02  .474E-02  .354E-02  .323E-02  .361E-02  .325E-02  .253E-02  .206E-02
  .203E-02  .175E-02  .188E-02  .196E-02  .170E-02  .116E-02  .861E-03  .885E-03
  .696E-03  .541E-03  .449E-03  .355E-03  .263E-03  .196E-03  .159E-03  .133E-03
  .125E-03  .108E-03  .931E-04  .837E-04  .759E-04  .605E-04  .499E-04  .434E-04
  .390E-04  .375E-04  .346E-04  .306E-04  .287E-04  .266E-04  .246E-04  .226E-04
  .210E-04  .196E-04  .183E-04  .173E-04  .152E-04  .139E-04  .000E+00  .000E+00
  .000E+00  .000E+00  .000E+00  .000E+00  .000E+00  .000E+00  .000E+00  .000E+00
  .000E+00  .000E+00  .000E+00  .000E+00  .000E+00  .000E+00  .000E+00  .000E+00
  .000E+00  .000E+00  .000E+00  .000E+00
  .128E-01  .136E-01  .144E-01  .154E-01  .163E-01  .178E-01  .200E-01  .216E-01
  .241E-01  .294E-01  .332E-01  .427E-01  .474E-01  .550E-01  .696E-01  .919E-01
  .122E+00  .138E+00  .193E+00  .178E+00  .142E+00  .122E+00  .111E+00  .931E-01
  .956E-01  .102E+00  .126E+00  .167E+00  .180E+00  .120E+00  .106E+00  .940E-01
  .904E-01  .104E+00  .812E-01  .798E-01  .934E-01  .873E-01  .710E-01  .606E-01
  .620E-01  .586E-01  .684E-01  .778E-01  .713E-01  .530E-01  .421E-01  .455E-01
  .380E-01  .311E-01  .271E-01  .232E-01  .186E-01  .149E-01  .128E-01  .111E-01
  .113E-01  .105E-01  .950E-02  .893E-02  .844E-02  .723E-02  .633E-02  .571E-02
  .536E-02  .472E-02  .404E-02  .422E-02  .415E-02  .392E-02  .369E-02  .341E-02
  .318E-02  .300E-02  .290E-02  .278E-02  .252E-02  .233E-02  .000E+00  .000E+00
  .000E+00  .000E+00  .000E+00  .000E+00  .000E+00  .000E+00  .000E+00  .000E+00
  .000E+00  .000E+00  .000E+00  .000E+00  .000E+00  .000E+00  .000E+00  .000E+00
  .000E+00  .000E+00  .000E+00  .000E+00
  .355E+02  .355E+02  .355E+02  .355E+02  .355E+02  .355E+02  .355E+02  .355E+02
  .355E+02  .355E+02  .365E+02  .355E+02  .355E+02  .355E+02  .355E+02  .355E+02
  .355E+02  .355E+02  .356E+02  .356E+02  .356E+02  .356E+02  .366E+02  .339E+02
  .366E+02  .371E+02  .353E+02  .353E+02  .359E+02  .359E+02  .341E+02  .350E+02
  .350E+02  .367E+02  .369E+02  .370E+02  .370E+02  .370E+02  .370E+02  .370E+02
  .376E+02  .385E+02  .380E+02  .375E+02  .353E+02  .357E+02  .347E+02  .372E+02
  .373E+02  .369E+02  .369E+02  .366E+02  .366E+02  .366E+02  .366E+02  .341E+02
  .341E+02  .341E+02  .341E+02  .341E+02  .341E+02  .341E+02  .341E+02  .348E+02
  .348E+02  .348E+02  .366E+02  .366E+02  .366E+02  .366E+02  .366E+02  .366E+02
  .366E+02  .366E+02  .341E+02  .341E+02  .341E+02  .341E+02  .000E+00  .000E+00
  .000E+00  .000E+00  .000E+00  .000E+00  .000E+00  .000E+00  .000E+00  .000E+00
  .000E+00  .000E+00  .000E+00  .000E+00  .000E+00  .000E+00  .000E+00  .000E+00
  .000E+00  .000E+00  .000E+00  .000E+00
  .354E+02  .354E+02  .354E+02  .354E+02  .354E+02  .354E+02  .350E+02  .350E+02
  .350E+02  .350E+02  .354E+02  .354E+02  .355E+02  .355E+02  .355E+02  .355E+02
  .356E+02  .356E+02  .356E+02  .355E+02  .355E+02  .355E+02  .367E+02  .368E+02
  .367E+02  .367E+02  .354E+02  .359E+02  .358E+02  .358E+02  .353E+02  .352E+02
  .350E+02  .366E+02  .370E+02  .355E+02  .371E+02  .365E+02  .365E+02  .365E+02
  .365E+02  .355E+02  .353E+02  .357E+02  .352E+02  .352E+02  .352E+02  .352E+02
  .352E+02  .352E+02  .352E+02  .365E+02  .365E+02  .365E+02  .365E+02  .365E+02
  .365E+02  .355E+02  .355E+02  .355E+02  .355E+02  .355E+02  .355E+02  .355E+02
  .355E+02  .355E+02  .355E+02  .355E+02  .355E+02  .355E+02  .355E+02  .355E+02
  .355E+02  .355E+02  .355E+02  .355E+02  .355E+02  .355E+02  .000E+00  .000E+00
  .000E+00  .000E+00  .000E+00  .000E+00  .000E+00  .000E+00  .000E+00  .000E+00
  .000E+00  .000E+00  .000E+00  .000E+00  .000E+00  .000E+00  .000E+00  .000E+00
  .000E+00  .000E+00  .000E+00  .000E+00
  .355E+02  .355E+02  .355E+02  .355E+02  .355E+02  .355E+02  .355E+02  .355E+02
  .355E+02  .355E+02  .365E+02  .355E+02  .355E+02  .355E+02  .355E+02  .355E+02
  .355E+02  .355E+02  .355E+02  .356E+02  .356E+02  .356E+02  .366E+02  .339E+02
  .366E+02  .371E+02  .353E+02  .353E+02  .359E+02  .359E+02  .341E+02  .350E+02
  .350E+02  .367E+02  .365E+02  .369E+02  .370E+02  .370E+02  .370E+02  .370E+02
  .376E+02  .385E+02  .380E+02  .375E+02  .353E+02  .357E+02  .347E+02  .372E+02
  .373E+02  .369E+02  .369E+02  .366E+02  .366E+02  .366E+02  .366E+02  .355E+02
  .355E+02  .340E+02  .340E+02  .340E+02  .340E+02  .340E+02  .340E+02  .347E+02
  .355E+02  .355E+02  .355E+02  .355E+02  .365E+02  .365E+02  .365E+02  .365E+02
  .365E+02  .365E+02  .365E+02  .365E+02  .365E+02  .355E+02  .000E+00  .000E+00
  .000E+00  .000E+00  .000E+00  .000E+00  .000E+00  .000E+00  .000E+00  .000E+00
  .000E+00  .000E+00  .000E+00  .000E+00  .000E+00  .000E+00  .000E+00  .000E+00
  .000E+00  .000E+00  .000E+00  .000E+00
/&   ----------  End of spectral data for channel  1  ----------
Response and Fourier amplitude spectra (78 periods,  .04 -  6.0 sec)   for      
Corrected accelerogram   38695658.CI.LAT.--.HN      Chan  2: 360 Deg     from   
Uncorrected Accelerogram Data             Processed: 09/19/20, CGS  cilat--o    
Rcrd of Fri Sep 18, 2020 23:38:33.0 PDT               (Avol1 v2.0, 4/18 CSMIP)  
                                        (Origin:  To be determined)             
38695658.CI.LAT.--.HN                Start time:  9/19/20, 06:38:33.0 UTC (GPS) 
Station Id. LAT     34.044N, 118.776W    ObsMMS  s/n 1937  (3 Chns of  6 at Sta)
Latigo                                   SCSN   Data: Acceleration              
Chan  2: 360 Deg                                                                
Rcrd of Fri Sep 18, 2020 23:38:33.0 PDT    Fri Sep 18, 2020 23:38:33.0 PDT      
Hypocenter:  To be determined.               ML:  To be determined.             
Instr Period =  .0050 sec,  Damping =  .707,  Sensitivity = 4.99 v/g  (Nominal) 
                        Record Length =301.000 sec.                             
                                     Uncor Max  =  -.004 g, at   35.430 sec.    
RMS accel of (uncor) record  =        .   Chn. metadata effective date:         
Accelerogram bandpass filtered with 3 dB pts at   .30 and 23.00 cyc/sec         
                 instrument- and base-line correcte                             
                                                                                
                                                                                
                                                                                
                                                                                
                                                                                
Rcrd of Fri Sep 18, 2020 23:38:33.0 PDT    Fri Sep 18, 2020 23:38:33.0 PDT      
                                                                                
38695658.CI.LAT.--.HN     Latigo    Chan  2: 360 Deg                            
                                                                                
38695658.CI.LAT.--.HN     Latigo    Chan  2: 360 Deg                            
                                                                                
Units for spectra are inches and sec, except Sa is in fraction of g.            
                                                                                
    2  100    2    6    6  100 -999    3    1    0   15 1937    0    0   41    0
    6   38   33   10  263    9   19 2020   10    3  36035934   39    6   74 -999
35934 -999  100    6 -999 -999 -999 -999 -999 -999 -999 -999 -999 -999 -999 -999
 -999 -999 -999 -99915050    2 -999    0 -999   20 -999 -999    3    1 -99915050
    315050    4   78    1    3    5    0    0 -999    0 -999 -999    6 -999    2
    2    2    4 -999 -999 -999 -999 -999 -999 -999 -999    1 -999 -999 -999  111
    1    1 -999 -999
      .005      .707   359.340      .000     1.000  4988.479     -.004    35.430
   200.000     2.384      .478  -999.000    10.000  -999.000     4.000  -999.000
    20.000   -12.127      .000  -999.000  -999.000  -999.000  -999.000      .006
     -.006     -.011     2.000    15.000    34.044  -118.776      .003      .003
     1.124     -.012     -.011   351.000  -999.000  -999.000  -999.000  -999.000
     1.000  -999.000  -999.000  -999.000  -999.000  -999.000  -999.000   120.000
     -.900     2.000     6.800   980.665      .020   301.000    31.831      .001
  -999.000    23.000  -999.000   301.000      .020      .300  -999.000  -999.000
    35.920    -4.136    35.960     -.120    35.920      .007      .000      .300
    23.000      .020      .020      .000      .020      .006  -999.000  -999.000
      .022      .130      .008      .009      .001      .000  -999.000  -999.000
  -999.000  -999.000  -999.000  -999.000  -999.000  -999.000  -999.000  -999.000
  -999.000  -999.000  -999.000  -999.000
      .050
      .040      .042      .044      .046      .048      .050      .055      .060
      .065      .070      .075      .080      .085      .090      .095      .100
      .110      .120      .130      .140      .150      .160      .170      .180
      .190      .200      .220      .240      .260      .280      .300      .320
      .340      .360      .380      .400      .420      .440      .460      .480
      .500      .550      .600      .650      .700      .750      .800      .850
      .900      .950     1.000     1.100     1.200     1.300     1.400     1.500
     1.600     1.700     1.800     1.900     2.000     2.200     2.400     2.600
     2.800     3.000     3.200     3.400     3.600     3.800     4.000     4.200
     4.400     4.600     4.800     5.000     5.500     6.000      .000      .000
      .000      .000      .000      .000      .000      .000      .000      .000
      .000      .000      .000      .000      .000      .000      .000      .000
      .000      .000      .000      .000
Fourier amplitude spectra in in/sec.
  .000E+00  .000E+00  .000E+00  .000E+00  .000E+00  .000E+00  .000E+00  .000E+00
  .000E+00  .000E+00  .000E+00  .000E+00  .000E+00  .000E+00  .000E+00  .000E+00
  .000E+00  .000E+00  .000E+00  .000E+00  .000E+00  .000E+00  .000E+00  .000E+00
  .000E+00  .000E+00  .000E+00  .000E+00  .000E+00  .000E+00  .000E+00  .000E+00
  .000E+00  .000E+00  .000E+00  .000E+00  .000E+00  .000E+00  .000E+00  .000E+00
  .000E+00  .000E+00  .000E+00  .000E+00  .000E+00  .000E+00  .000E+00  .000E+00
  .000E+00  .000E+00  .000E+00  .000E+00  .000E+00  .000E+00  .000E+00  .000E+00
  .000E+00  .000E+00  .000E+00  .000E+00  .000E+00  .000E+00  .000E+00  .000E+00
  .000E+00  .000E+00  .000E+00  .000E+00  .000E+00  .000E+00  .000E+00  .000E+00
  .000E+00  .000E+00  .000E+00  .000E+00  .000E+00  .000E+00  .000E+00  .000E+00
  .000E+00  .000E+00  .000E+00  .000E+00  .000E+00  .000E+00  .000E+00  .000E+00
  .000E+00  .000E+00  .000E+00  .000E+00  .000E+00  .000E+00  .000E+00  .000E+00
  .000E+00  .000E+00  .000E+00  .000E+00
Damping =  .05. Data of Sd,Sv,Sa,Pssv,ttSd,ttSv,ttSa :
  .735E-04  .833E-04  .951E-04  .109E-03  .122E-03  .131E-03  .185E-03  .272E-03
  .375E-03  .480E-03  .594E-03  .614E-03  .633E-03  .765E-03  .978E-03  .148E-02
  .178E-02  .240E-02  .355E-02  .309E-02  .264E-02  .316E-02  .265E-02  .208E-02
  .235E-02  .313E-02  .400E-02  .577E-02  .633E-02  .743E-02  .863E-02  .826E-02
  .775E-02  .914E-02  .832E-02  .713E-02  .563E-02  .482E-02  .507E-02  .479E-02
