Response and Fourier amplitude spectra (78 periods,  .04 -  6.0 sec)   for      
Corrected accelerogram   38695658.CI.LAF.--.HN      Chan  1:  90 Deg     from   
Uncorrected Accelerogram Data             Processed: 09/19/20, CGS  cilaf--s    
Rcrd of Fri Sep 18, 2020 23:38:30.0 PDT               (Avol1 v2.0, 4/18 CSMIP)  
                                        (Origin:  To be determined)             
38695658.CI.LAF.--.HN                Start time:  9/19/20, 06:38:30.0 UTC (GPS) 
Station Id. LAF     33.869N, 118.331W    ObsMMS  s/n 4795  (3 Chns of  6 at Sta)
Los Angeles, I - 405 near Crenshaw Blvd  SCSN   Data: Acceleration              
Chan  1:  90 Deg                                                                
Rcrd of Fri Sep 18, 2020 23:38:30.0 PDT    Fri Sep 18, 2020 23:38:30.0 PDT      
Hypocenter:  To be determined.               ML:  To be determined.             
Instr Period =  .0050 sec,  Damping =  .707,  Sensitivity = 4.99 v/g  (Nominal) 
                        Record Length =301.000 sec.                             
                                     Uncor Max  =  -.009 g, at   30.570 sec.    
RMS accel of (uncor) record  =        .   Chn. metadata effective date:         
Accelerogram bandpass filtered with 3 dB pts at   .30 and 23.00 cyc/sec         
                 instrument- and base-line correcte                             
                                                                                
                                                                                
                                                                                
                                                                                
                                                                                
Rcrd of Fri Sep 18, 2020 23:38:30.0 PDT    Fri Sep 18, 2020 23:38:30.0 PDT      
                                                                                
38695658.CI.LAF.--.HN     Los Angeles, I - 405 near Crenshaw Blvd  SChan  1:  90
 Deg                                                                            
38695658.CI.LAF.--.HN     Los Angeles, I - 405 near Crenshaw Blvd  SChan  1:  90
 Deg                                                                            
Units for spectra are inches and sec, except Sa is in fraction of g.            
                                                                                
    1  100    1    6    6  100 -999    3    1    0   15 4795    050546   41    0
    6   38   30    8  263    9   19 2020   10    3   9035827   39   39   74 -999
35827 -999  100    6 -999 -999 -999 -999 -999 -999 -999 -999 -999 -999 -999 -999
 -999 -999 -999 -99915050    2 -999    0 -999   20 -999 -999    3    1 -99915050
    315050    4   78    1    3    5    0    0 -999    0 -999 -999    6 -999    2
    2    2    4 -999 -999 -999 -999 -999 -999 -999 -999    1 -999 -999 -999  111
    1    1 -999 -999
      .005      .707   358.270      .001     1.000  4988.878     -.009    30.570
   200.000     2.384      .478  -999.000    10.000  -999.000     4.000  -999.000
    20.000   -15.083      .000  -999.000  -999.000  -999.000  -999.000      .000
      .001      .001     2.000    15.000    33.869  -118.331      .020      .020
     1.005     -.003      .005    20.000  -999.000  -999.000  -999.000  -999.000
     1.000  -999.000    -8.000  -999.000  -999.000  -999.000  -999.000   120.000
     -.900     2.000     6.800   980.665      .020   301.000    31.831      .000
  -999.000    23.000  -999.000   301.000      .020      .300  -999.000  -999.000
    37.000     8.496    36.420     -.337    36.300      .037      .000      .300
    23.000      .020      .020      .000      .020      .030  -999.000  -999.000
      .035      .110      .019      .016      .002      .000  -999.000  -999.000
  -999.000  -999.000  -999.000  -999.000  -999.000  -999.000  -999.000  -999.000
  -999.000  -999.000  -999.000  -999.000
      .050
      .040      .042      .044      .046      .048      .050      .055      .060
      .065      .070      .075      .080      .085      .090      .095      .100
      .110      .120      .130      .140      .150      .160      .170      .180
      .190      .200      .220      .240      .260      .280      .300      .320
      .340      .360      .380      .400      .420      .440      .460      .480
      .500      .550      .600      .650      .700      .750      .800      .850
      .900      .950     1.000     1.100     1.200     1.300     1.400     1.500
     1.600     1.700     1.800     1.900     2.000     2.200     2.400     2.600
     2.800     3.000     3.200     3.400     3.600     3.800     4.000     4.200
     4.400     4.600     4.800     5.000     5.500     6.000      .000      .000
      .000      .000      .000      .000      .000      .000      .000      .000
      .000      .000      .000      .000      .000      .000      .000      .000
      .000      .000      .000      .000
Fourier amplitude spectra in in/sec.
  .000E+00  .000E+00  .000E+00  .000E+00  .000E+00  .000E+00  .000E+00  .000E+00
  .000E+00  .000E+00  .000E+00  .000E+00  .000E+00  .000E+00  .000E+00  .000E+00
  .000E+00  .000E+00  .000E+00  .000E+00  .000E+00  .000E+00  .000E+00  .000E+00
  .000E+00  .000E+00  .000E+00  .000E+00  .000E+00  .000E+00  .000E+00  .000E+00
  .000E+00  .000E+00  .000E+00  .000E+00  .000E+00  .000E+00  .000E+00  .000E+00
  .000E+00  .000E+00  .000E+00  .000E+00  .000E+00  .000E+00  .000E+00  .000E+00
  .000E+00  .000E+00  .000E+00  .000E+00  .000E+00  .000E+00  .000E+00  .000E+00
  .000E+00  .000E+00  .000E+00  .000E+00  .000E+00  .000E+00  .000E+00  .000E+00
  .000E+00  .000E+00  .000E+00  .000E+00  .000E+00  .000E+00  .000E+00  .000E+00
  .000E+00  .000E+00  .000E+00  .000E+00  .000E+00  .000E+00  .000E+00  .000E+00
  .000E+00  .000E+00  .000E+00  .000E+00  .000E+00  .000E+00  .000E+00  .000E+00
  .000E+00  .000E+00  .000E+00  .000E+00  .000E+00  .000E+00  .000E+00  .000E+00
  .000E+00  .000E+00  .000E+00  .000E+00
Damping =  .05. Data of Sd,Sv,Sa,Pssv,ttSd,ttSv,ttSa :
  .159E-03  .176E-03  .193E-03  .221E-03  .253E-03  .295E-03  .439E-03  .693E-03
  .847E-03  .926E-03  .120E-02  .179E-02  .223E-02  .252E-02  .242E-02  .295E-02
  .422E-02  .339E-02  .419E-02  .350E-02  .466E-02  .542E-02  .621E-02  .656E-02
  .687E-02  .638E-02  .950E-02  .110E-01  .134E-01  .125E-01  .140E-01  .146E-01
  .165E-01  .159E-01  .178E-01  .219E-01  .219E-01  .257E-01  .331E-01  .388E-01
  .411E-01  .329E-01  .276E-01  .288E-01  .309E-01  .314E-01  .309E-01  .275E-01
  .229E-01  .210E-01  .227E-01  .273E-01  .220E-01  .255E-01  .283E-01  .318E-01
  .254E-01  .275E-01  .353E-01  .347E-01  .252E-01  .229E-01  .243E-01  .259E-01
  .244E-01  .252E-01  .267E-01  .253E-01  .240E-01  .227E-01  .200E-01  .167E-01
  .155E-01  .159E-01  .160E-01  .159E-01  .154E-01  .151E-01  .000E+00  .000E+00
  .000E+00  .000E+00  .000E+00  .000E+00  .000E+00  .000E+00  .000E+00  .000E+00
  .000E+00  .000E+00  .000E+00  .000E+00  .000E+00  .000E+00  .000E+00  .000E+00
  .000E+00  .000E+00  .000E+00  .000E+00
  .128E-01  .142E-01  .167E-01  .182E-01  .195E-01  .223E-01  .343E-01  .632E-01
  .621E-01  .620E-01  .788E-01  .116E+00  .141E+00  .156E+00  .142E+00  .179E+00
  .235E+00  .181E+00  .205E+00  .172E+00  .200E+00  .212E+00  .223E+00  .228E+00
  .222E+00  .206E+00  .266E+00  .275E+00  .341E+00  .273E+00  .288E+00  .290E+00
  .304E+00  .280E+00  .310E+00  .339E+00  .359E+00  .397E+00  .426E+00  .507E+00
  .556E+00  .428E+00  .322E+00  .331E+00  .339E+00  .282E+00  .294E+00  .287E+00
  .258E+00  .231E+00  .209E+00  .180E+00  .181E+00  .194E+00  .211E+00  .199E+00
  .173E+00  .161E+00  .153E+00  .154E+00  .154E+00  .163E+00  .148E+00  .140E+00
  .143E+00  .146E+00  .143E+00  .139E+00  .135E+00  .133E+00  .132E+00  .132E+00
  .133E+00  .134E+00  .134E+00  .134E+00  .134E+00  .133E+00  .000E+00  .000E+00
  .000E+00  .000E+00  .000E+00  .000E+00  .000E+00  .000E+00  .000E+00  .000E+00
  .000E+00  .000E+00  .000E+00  .000E+00  .000E+00  .000E+00  .000E+00  .000E+00
  .000E+00  .000E+00  .000E+00  .000E+00
  .102E-01  .102E-01  .102E-01  .106E-01  .112E-01  .121E-01  .151E-01  .200E-01
  .207E-01  .194E-01  .221E-01  .286E-01  .312E-01  .317E-01  .276E-01  .305E-01
  .350E-01  .242E-01  .258E-01  .187E-01  .211E-01  .214E-01  .222E-01  .210E-01
  .194E-01  .166E-01  .206E-01  .198E-01  .205E-01  .166E-01  .160E-01  .148E-01
  .145E-01  .127E-01  .127E-01  .140E-01  .128E-01  .137E-01  .162E-01  .173E-01
  .168E-01  .113E-01  .791E-02  .701E-02  .652E-02  .579E-02  .499E-02  .392E-02
  .292E-02  .241E-02  .235E-02  .232E-02  .158E-02  .156E-02  .149E-02  .146E-02
  .103E-02  .982E-03  .113E-02  .998E-03  .658E-03  .511E-03  .442E-03  .403E-03
  .329E-03  .294E-03  .275E-03  .233E-03  .198E-03  .169E-03  .136E-03  .108E-03
  .104E-03  .985E-04  .924E-04  .861E-04  .719E-04  .614E-04  .000E+00  .000E+00
  .000E+00  .000E+00  .000E+00  .000E+00  .000E+00  .000E+00  .000E+00  .000E+00
  .000E+00  .000E+00  .000E+00  .000E+00  .000E+00  .000E+00  .000E+00  .000E+00
  .000E+00  .000E+00  .000E+00  .000E+00
  .250E-01  .264E-01  .275E-01  .302E-01  .331E-01  .371E-01  .502E-01  .726E-01
  .819E-01  .831E-01  .100E+00  .140E+00  .165E+00  .176E+00  .160E+00  .186E+00
  .241E+00  .177E+00  .203E+00  .157E+00  .195E+00  .213E+00  .230E+00  .229E+00
  .227E+00  .200E+00  .271E+00  .288E+00  .325E+00  .280E+00  .293E+00  .286E+00
  .305E+00  .278E+00  .295E+00  .344E+00  .328E+00  .367E+00  .452E+00  .508E+00
  .516E+00  .376E+00  .289E+00  .279E+00  .277E+00  .263E+00  .243E+00  .203E+00
  .160E+00  .139E+00  .142E+00  .156E+00  .115E+00  .123E+00  .127E+00  .133E+00
  .998E-01  .101E+00  .123E+00  .115E+00  .792E-01  .655E-01  .637E-01  .627E-01
  .546E-01  .528E-01  .524E-01  .468E-01  .419E-01  .375E-01  .315E-01  .251E-01
  .221E-01  .217E-01  .210E-01  .200E-01  .176E-01  .158E-01  .000E+00  .000E+00
  .000E+00  .000E+00  .000E+00  .000E+00  .000E+00  .000E+00  .000E+00  .000E+00
  .000E+00  .000E+00  .000E+00  .000E+00  .000E+00  .000E+00  .000E+00  .000E+00
  .000E+00  .000E+00  .000E+00  .000E+00
  .306E+02  .306E+02  .306E+02  .302E+02  .296E+02  .296E+02  .297E+02  .302E+02
  .302E+02  .302E+02  .302E+02  .302E+02  .302E+02  .302E+02  .290E+02  .311E+02
  .311E+02  .303E+02  .303E+02  .306E+02  .306E+02  .306E+02  .311E+02  .311E+02
  .327E+02  .313E+02  .328E+02  .328E+02  .370E+02  .353E+02  .356E+02  .357E+02
  .365E+02  .299E+02  .370E+02  .371E+02  .411E+02  .411E+02  .371E+02  .371E+02
  .371E+02  .370E+02  .375E+02  .370E+02  .368E+02  .365E+02  .365E+02  .365E+02
  .365E+02  .376E+02  .499E+02  .460E+02  .514E+02  .373E+02  .373E+02  .457E+02
  .457E+02  .473E+02  .457E+02  .458E+02  .458E+02  .370E+02  .471E+02  .471E+02
  .471E+02  .461E+02  .451E+02  .451E+02  .451E+02  .451E+02  .451E+02  .451E+02
  .370E+02  .370E+02  .370E+02  .370E+02  .370E+02  .370E+02  .000E+00  .000E+00
  .000E+00  .000E+00  .000E+00  .000E+00  .000E+00  .000E+00  .000E+00  .000E+00
  .000E+00  .000E+00  .000E+00  .000E+00  .000E+00  .000E+00  .000E+00  .000E+00
  .000E+00  .000E+00  .000E+00  .000E+00
  .302E+02  .302E+02  .302E+02  .302E+02  .302E+02  .296E+02  .302E+02  .302E+02
  .302E+02  .302E+02  .302E+02  .302E+02  .303E+02  .303E+02  .290E+02  .317E+02
  .311E+02  .335E+02  .303E+02  .306E+02  .306E+02  .309E+02  .309E+02  .312E+02
  .313E+02  .313E+02  .329E+02  .329E+02  .333E+02  .377E+02  .357E+02  .357E+02
  .365E+02  .365E+02  .371E+02  .371E+02  .356E+02  .410E+02  .372E+02  .370E+02
  .370E+02  .370E+02  .409E+02  .369E+02  .369E+02  .366E+02  .363E+02  .364E+02
  .364E+02  .364E+02  .364E+02  .402E+02  .364E+02  .364E+02  .364E+02  .364E+02
  .364E+02  .364E+02  .364E+02  .472E+02  .364E+02  .364E+02  .364E+02  .364E+02
  .364E+02  .364E+02  .364E+02  .364E+02  .364E+02  .364E+02  .364E+02  .364E+02
  .364E+02  .364E+02  .364E+02  .364E+02  .364E+02  .364E+02  .000E+00  .000E+00
  .000E+00  .000E+00  .000E+00  .000E+00  .000E+00  .000E+00  .000E+00  .000E+00
  .000E+00  .000E+00  .000E+00  .000E+00  .000E+00  .000E+00  .000E+00  .000E+00
  .000E+00  .000E+00  .000E+00  .000E+00
  .306E+02  .306E+02  .306E+02  .302E+02  .296E+02  .296E+02  .297E+02  .302E+02
  .302E+02  .302E+02  .302E+02  .302E+02  .302E+02  .302E+02  .290E+02  .317E+02
  .311E+02  .335E+02  .303E+02  .306E+02  .306E+02  .306E+02  .311E+02  .311E+02
  .327E+02  .313E+02  .328E+02  .328E+02  .370E+02  .353E+02  .356E+02  .357E+02
  .365E+02  .299E+02  .370E+02  .371E+02  .355E+02  .411E+02  .371E+02  .371E+02
  .371E+02  .369E+02  .375E+02  .370E+02  .367E+02  .364E+02  .365E+02  .365E+02
  .365E+02  .375E+02  .499E+02  .460E+02  .514E+02  .373E+02  .373E+02  .457E+02
  .457E+02  .473E+02  .457E+02  .458E+02  .458E+02  .369E+02  .470E+02  .471E+02
  .471E+02  .461E+02  .450E+02  .450E+02  .450E+02  .450E+02  .450E+02  .369E+02
  .369E+02  .369E+02  .369E+02  .369E+02  .369E+02  .369E+02  .000E+00  .000E+00
  .000E+00  .000E+00  .000E+00  .000E+00  .000E+00  .000E+00  .000E+00  .000E+00
  .000E+00  .000E+00  .000E+00  .000E+00  .000E+00  .000E+00  .000E+00  .000E+00
  .000E+00  .000E+00  .000E+00  .000E+00
/&   ----------  End of spectral data for channel  1  ----------
Response and Fourier amplitude spectra (78 periods,  .04 -  6.0 sec)   for      
Corrected accelerogram   38695658.CI.LAF.--.HN      Chan  2: 360 Deg     from   
Uncorrected Accelerogram Data             Processed: 09/19/20, CGS  cilaf--s    
Rcrd of Fri Sep 18, 2020 23:38:30.0 PDT               (Avol1 v2.0, 4/18 CSMIP)  
                                        (Origin:  To be determined)             
38695658.CI.LAF.--.HN                Start time:  9/19/20, 06:38:30.0 UTC (GPS) 
Station Id. LAF     33.869N, 118.331W    ObsMMS  s/n 4795  (3 Chns of  6 at Sta)
Los Angeles, I - 405 near Crenshaw Blvd  SCSN   Data: Acceleration              
Chan  2: 360 Deg                                                                
Rcrd of Fri Sep 18, 2020 23:38:30.0 PDT    Fri Sep 18, 2020 23:38:30.0 PDT      
Hypocenter:  To be determined.               ML:  To be determined.             
Instr Period =  .0050 sec,  Damping =  .707,  Sensitivity = 4.99 v/g  (Nominal) 
                        Record Length =301.000 sec.                             
                                     Uncor Max  =  -.015 g, at   30.270 sec.    
RMS accel of (uncor) record  =        .   Chn. metadata effective date:         
Accelerogram bandpass filtered with 3 dB pts at   .30 and 23.00 cyc/sec         
                 instrument- and base-line correcte                             
                                                                                
                                                                                
                                                                                
                                                                                
                                                                                
Rcrd of Fri Sep 18, 2020 23:38:30.0 PDT    Fri Sep 18, 2020 23:38:30.0 PDT      
                                                                                
38695658.CI.LAF.--.HN     Los Angeles, I - 405 near Crenshaw Blvd  SChan  2: 360
 Deg                                                                            
38695658.CI.LAF.--.HN     Los Angeles, I - 405 near Crenshaw Blvd  SChan  2: 360
 Deg                                                                            
Units for spectra are inches and sec, except Sa is in fraction of g.            
                                                                                
    2  100    2    6    6  100 -999    3    1    0   15 4795    050546   41    0
    6   38   30    8  263    9   19 2020   10    3  36035715   39   39   74 -999
35715 -999  100    6 -999 -999 -999 -999 -999 -999 -999 -999 -999 -999 -999 -999
 -999 -999 -999 -99915050    2 -999    0 -999   20 -999 -999    3    1 -99915050
    315050    4   78    1    3    5    0    0 -999    0 -999 -999    6 -999    2
    2    2    4 -999 -999 -999 -999 -999 -999 -999 -999    1 -999 -999 -999  111
    1    1 -999 -999
      .005      .707   357.150      .001     1.000  4988.878     -.015    30.270
   200.000     2.384      .478  -999.000    10.000  -999.000     4.000  -999.000
    20.000   -14.141      .000  -999.000  -999.000  -999.000  -999.000     -.001
     -.001      .000     2.000    15.000    33.869  -118.331      .009      .011
     1.167     -.002      .002    20.000  -999.000  -999.000  -999.000  -999.000
     1.000  -999.000  -999.000  -999.000  -999.000  -999.000  -999.000   120.000
     -.900     2.000     6.800   980.665      .020   301.000    31.831      .000
  -999.000    23.000  -999.000   301.000      .020      .300  -999.000  -999.000
    30.260   -13.695    30.220      .419    35.200      .047      .000      .300
    23.000      .020      .020      .000      .020      .029  -999.000  -999.000
      .046      .080      .037      .016      .003      .000  -999.000  -999.000
  -999.000  -999.000  -999.000  -999.000  -999.000  -999.000  -999.000  -999.000
  -999.000  -999.000  -999.000  -999.000
      .050
      .040      .042      .044      .046      .048      .050      .055      .060
      .065      .070      .075      .080      .085      .090      .095      .100
      .110      .120      .130      .140      .150      .160      .170      .180
      .190      .200      .220      .240      .260      .280      .300      .320
      .340      .360      .380      .400      .420      .440      .460      .480
      .500      .550      .600      .650      .700      .750      .800      .850
      .900      .950     1.000     1.100     1.200     1.300     1.400     1.500
     1.600     1.700     1.800     1.900     2.000     2.200     2.400     2.600
     2.800     3.000     3.200     3.400     3.600     3.800     4.000     4.200
     4.400     4.600     4.800     5.000     5.500     6.000      .000      .000
      .000      .000      .000      .000      .000      .000      .000      .000
      .000      .000      .000      .000      .000      .000      .000      .000
      .000      .000      .000      .000
Fourier amplitude spectra in in/sec.
  .000E+00  .000E+00  .000E+00  .000E+00  .000E+00  .000E+00  .000E+00  .000E+00
  .000E+00  .000E+00  .000E+00  .000E+00  .000E+00  .000E+00  .000E+00  .000E+00
  .000E+00  .000E+00  .000E+00  .000E+00  .000E+00  .000E+00  .000E+00  .000E+00
  .000E+00  .000E+00  .000E+00  .000E+00  .000E+00  .000E+00  .000E+00  .000E+00
  .000E+00  .000E+00  .000E+00  .000E+00  .000E+00  .000E+00  .000E+00  .000E+00
  .000E+00  .000E+00  .000E+00  .000E+00  .000E+00  .000E+00  .000E+00  .000E+00
  .000E+00  .000E+00  .000E+00  .000E+00  .000E+00  .000E+00  .000E+00  .000E+00
  .000E+00  .000E+00  .000E+00  .000E+00  .000E+00  .000E+00  .000E+00  .000E+00
  .000E+00  .000E+00  .000E+00  .000E+00  .000E+00  .000E+00  .000E+00  .000E+00
  .000E+00  .000E+00  .000E+00  .000E+00  .000E+00  .000E+00  .000E+00  .000E+00
  .000E+00  .000E+00  .000E+00  .000E+00  .000E+00  .000E+00  .000E+00  .000E+00
  .000E+00  .000E+00  .000E+00  .000E+00  .000E+00  .000E+00  .000E+00  .000E+00
  .000E+00  .000E+00  .000E+00  .000E+00
Damping =  .05. Data of Sd,Sv,Sa,Pssv,ttSd,ttSv,ttSa :
  .233E-03  .260E-03  .286E-03  .316E-03  .353E-03  .411E-03  .513E-03  .696E-03
  .890E-03  .130E-02  .204E-02  .288E-02  .269E-02  .206E-02  .263E-02  .289E-02
  .432E-02  .485E-02  .708E-02  .810E-02  .658E-02  .813E-02  .101E-01  .123E-01
  .161E-01  .153E-01  .122E-01  .111E-01  .131E-01  .134E-01  .124E-01  .172E-01
  .202E-01  .223E-01  .256E-01  .266E-01  .277E-01  .319E-01  .318E-01  .251E-01
