Response and Fourier amplitude spectra (78 periods,  .04 -  6.0 sec)   for      
Corrected accelerogram   38695658.CI.LBW2.01.H      Chan  1:  90 Deg     from   
Uncorrected Accelerogram Data             Processed: 09/19/20, CGS  cilbw2-t    
Rcrd of Fri Sep 18, 2020 23:38:29.0 PDT               (Avol1 v2.0, 4/18 CSMIP)  
                                        (Origin:  To be determined)             
38695658.CI.LBW2.01.H                Start time:  9/19/20, 06:38:29.0 UTC (GPS) 
Station Id. LBW2    33.798N, 118.088W    ObsMMS  s/n 1959  (3 Chns of  6 at Sta)
Los Alimitos, I - 405 near Katella       SCSN   Data: Acceleration              
Chan  1:  90 Deg                                                                
Rcrd of Fri Sep 18, 2020 23:38:29.0 PDT    Fri Sep 18, 2020 23:38:29.0 PDT      
Hypocenter:  To be determined.               ML:  To be determined.             
Instr Period =  .0050 sec,  Damping =  .707,  Sensitivity = 9.99 v/g  (Nominal) 
                        Record Length =301.000 sec.                             
                                     Uncor Max  =   .014 g, at   29.790 sec.    
RMS accel of (uncor) record  =        .   Chn. metadata effective date:         
Accelerogram bandpass filtered with 3 dB pts at   .30 and 23.00 cyc/sec         
                 instrument- and base-line correcte                             
                                                                                
                                                                                
                                                                                
                                                                                
                                                                                
Rcrd of Fri Sep 18, 2020 23:38:29.0 PDT    Fri Sep 18, 2020 23:38:29.0 PDT      
                                                                                
38695658.CI.LBW2.01.H     Los Alimitos, I - 405 near Katella    Chan  1:  90 Deg
                                                                                
38695658.CI.LBW2.01.H     Los Alimitos, I - 405 near Katella    Chan  1:  90 Deg
                                                                                
Units for spectra are inches and sec, except Sa is in fraction of g.            
                                                                                
    1  100    1    6    6  100 -999    3    1    0   15 1959    050682   41    0
    6   38   29   10  263    9   19 2020   10    3   9035519   39   34   74 -999
35519 -999  100    6 -999 -999 -999 -999 -999 -999 -999 -999 -999 -999 -999 -999
 -999 -999 -999 -99915050    2 -999    0 -999    0 -999 -999    3    1 -99915050
    315050    4   78    1    3    5    0    0 -999    0 -999 -999    6 -999    2
    2    2    4 -999 -999 -999 -999 -999 -999 -999 -999    1 -999 -999 -999  111
    1    1 -999 -999
      .005      .707   355.190      .001     1.000  9986.531      .014    29.790
   200.000     2.384      .239  -999.000    10.000  -999.000     2.000  -999.000
    20.000   -25.510      .000  -999.000  -999.000  -999.000  -999.000     -.001
      .000      .001     2.000    15.000    33.798  -118.088      .024      .012
      .511     -.004      .005   -16.300  -999.000  -999.000  -999.000  -999.000
     1.000  -999.000    -8.000  -999.000  -999.000  -999.000  -999.000   120.000
     -.900     2.000     6.800   980.665      .020   301.000    31.831      .000
  -999.000    23.000  -999.000   301.000      .020      .300  -999.000  -999.000
    29.680    12.829    29.700      .262    36.720     -.017      .000      .300
    23.000      .020      .020      .000      .020      .023  -999.000  -999.000
      .065      .120      .021      .009      .001      .000  -999.000  -999.000
  -999.000  -999.000  -999.000  -999.000  -999.000  -999.000  -999.000  -999.000
  -999.000  -999.000  -999.000  -999.000
      .050
      .040      .042      .044      .046      .048      .050      .055      .060
      .065      .070      .075      .080      .085      .090      .095      .100
      .110      .120      .130      .140      .150      .160      .170      .180
      .190      .200      .220      .240      .260      .280      .300      .320
      .340      .360      .380      .400      .420      .440      .460      .480
      .500      .550      .600      .650      .700      .750      .800      .850
      .900      .950     1.000     1.100     1.200     1.300     1.400     1.500
     1.600     1.700     1.800     1.900     2.000     2.200     2.400     2.600
     2.800     3.000     3.200     3.400     3.600     3.800     4.000     4.200
     4.400     4.600     4.800     5.000     5.500     6.000      .000      .000
      .000      .000      .000      .000      .000      .000      .000      .000
      .000      .000      .000      .000      .000      .000      .000      .000
      .000      .000      .000      .000
Fourier amplitude spectra in in/sec.
  .000E+00  .000E+00  .000E+00  .000E+00  .000E+00  .000E+00  .000E+00  .000E+00
  .000E+00  .000E+00  .000E+00  .000E+00  .000E+00  .000E+00  .000E+00  .000E+00
  .000E+00  .000E+00  .000E+00  .000E+00  .000E+00  .000E+00  .000E+00  .000E+00
  .000E+00  .000E+00  .000E+00  .000E+00  .000E+00  .000E+00  .000E+00  .000E+00
  .000E+00  .000E+00  .000E+00  .000E+00  .000E+00  .000E+00  .000E+00  .000E+00
  .000E+00  .000E+00  .000E+00  .000E+00  .000E+00  .000E+00  .000E+00  .000E+00
  .000E+00  .000E+00  .000E+00  .000E+00  .000E+00  .000E+00  .000E+00  .000E+00
  .000E+00  .000E+00  .000E+00  .000E+00  .000E+00  .000E+00  .000E+00  .000E+00
  .000E+00  .000E+00  .000E+00  .000E+00  .000E+00  .000E+00  .000E+00  .000E+00
  .000E+00  .000E+00  .000E+00  .000E+00  .000E+00  .000E+00  .000E+00  .000E+00
  .000E+00  .000E+00  .000E+00  .000E+00  .000E+00  .000E+00  .000E+00  .000E+00
  .000E+00  .000E+00  .000E+00  .000E+00  .000E+00  .000E+00  .000E+00  .000E+00
  .000E+00  .000E+00  .000E+00  .000E+00
Damping =  .05. Data of Sd,Sv,Sa,Pssv,ttSd,ttSv,ttSa :
  .258E-03  .290E-03  .327E-03  .400E-03  .526E-03  .660E-03  .745E-03  .101E-02
  .131E-02  .164E-02  .185E-02  .228E-02  .299E-02  .423E-02  .383E-02  .384E-02
  .455E-02  .899E-02  .100E-01  .933E-02  .643E-02  .519E-02  .492E-02  .568E-02
  .637E-02  .680E-02  .125E-01  .151E-01  .116E-01  .951E-02  .659E-02  .684E-02
  .681E-02  .693E-02  .674E-02  .662E-02  .676E-02  .725E-02  .746E-02  .894E-02
  .894E-02  .113E-01  .116E-01  .111E-01  .130E-01  .130E-01  .118E-01  .144E-01
  .142E-01  .135E-01  .136E-01  .137E-01  .151E-01  .172E-01  .232E-01  .191E-01
  .181E-01  .180E-01  .169E-01  .195E-01  .185E-01  .154E-01  .159E-01  .141E-01
  .135E-01  .158E-01  .134E-01  .142E-01  .134E-01  .108E-01  .992E-02  .914E-02
  .862E-02  .822E-02  .809E-02  .806E-02  .811E-02  .793E-02  .000E+00  .000E+00
  .000E+00  .000E+00  .000E+00  .000E+00  .000E+00  .000E+00  .000E+00  .000E+00
  .000E+00  .000E+00  .000E+00  .000E+00  .000E+00  .000E+00  .000E+00  .000E+00
  .000E+00  .000E+00  .000E+00  .000E+00
  .217E-01  .234E-01  .254E-01  .328E-01  .429E-01  .534E-01  .625E-01  .898E-01
  .117E+00  .125E+00  .120E+00  .146E+00  .193E+00  .276E+00  .242E+00  .231E+00
  .249E+00  .468E+00  .511E+00  .433E+00  .310E+00  .241E+00  .225E+00  .232E+00
  .236E+00  .269E+00  .360E+00  .416E+00  .312E+00  .234E+00  .179E+00  .153E+00
  .163E+00  .167E+00  .158E+00  .148E+00  .137E+00  .131E+00  .127E+00  .134E+00
  .126E+00  .137E+00  .141E+00  .152E+00  .146E+00  .117E+00  .116E+00  .119E+00
  .116E+00  .110E+00  .105E+00  .101E+00  .109E+00  .983E-01  .107E+00  .993E-01
  .103E+00  .105E+00  .105E+00  .106E+00  .106E+00  .104E+00  .103E+00  .102E+00
  .101E+00  .998E-01  .990E-01  .984E-01  .979E-01  .974E-01  .970E-01  .968E-01
  .966E-01  .964E-01  .963E-01  .961E-01  .957E-01  .954E-01  .000E+00  .000E+00
  .000E+00  .000E+00  .000E+00  .000E+00  .000E+00  .000E+00  .000E+00  .000E+00
  .000E+00  .000E+00  .000E+00  .000E+00  .000E+00  .000E+00  .000E+00  .000E+00
  .000E+00  .000E+00  .000E+00  .000E+00
  .164E-01  .167E-01  .173E-01  .194E-01  .235E-01  .274E-01  .250E-01  .292E-01
  .321E-01  .349E-01  .332E-01  .365E-01  .431E-01  .529E-01  .435E-01  .388E-01
  .393E-01  .649E-01  .613E-01  .491E-01  .298E-01  .206E-01  .176E-01  .178E-01
  .181E-01  .170E-01  .266E-01  .267E-01  .181E-01  .125E-01  .765E-02  .692E-02
  .619E-02  .556E-02  .476E-02  .430E-02  .394E-02  .383E-02  .363E-02  .401E-02
  .368E-02  .387E-02  .334E-02  .272E-02  .271E-02  .239E-02  .189E-02  .206E-02
  .181E-02  .153E-02  .141E-02  .117E-02  .108E-02  .105E-02  .122E-02  .872E-03
  .728E-03  .645E-03  .538E-03  .556E-03  .475E-03  .330E-03  .289E-03  .224E-03
  .186E-03  .181E-03  .136E-03  .128E-03  .108E-03  .803E-04  .673E-04  .587E-04
  .543E-04  .504E-04  .469E-04  .438E-04  .374E-04  .326E-04  .000E+00  .000E+00
  .000E+00  .000E+00  .000E+00  .000E+00  .000E+00  .000E+00  .000E+00  .000E+00
  .000E+00  .000E+00  .000E+00  .000E+00  .000E+00  .000E+00  .000E+00  .000E+00
  .000E+00  .000E+00  .000E+00  .000E+00
  .405E-01  .433E-01  .467E-01  .546E-01  .689E-01  .829E-01  .852E-01  .106E+00
  .127E+00  .147E+00  .155E+00  .179E+00  .221E+00  .296E+00  .253E+00  .242E+00
  .260E+00  .471E+00  .486E+00  .419E+00  .269E+00  .204E+00  .182E+00  .198E+00
  .211E+00  .214E+00  .356E+00  .396E+00  .281E+00  .213E+00  .138E+00  .134E+00
  .126E+00  .121E+00  .111E+00  .104E+00  .101E+00  .104E+00  .102E+00  .117E+00
  .112E+00  .129E+00  .121E+00  .108E+00  .116E+00  .109E+00  .928E-01  .107E+00
  .989E-01  .890E-01  .857E-01  .782E-01  .789E-01  .833E-01  .104E+00  .799E-01
  .711E-01  .664E-01  .591E-01  .645E-01  .580E-01  .440E-01  .415E-01  .341E-01
  .302E-01  .330E-01  .264E-01  .263E-01  .233E-01  .178E-01  .156E-01  .137E-01
  .123E-01  .112E-01  .106E-01  .101E-01  .927E-02  .830E-02  .000E+00  .000E+00
  .000E+00  .000E+00  .000E+00  .000E+00  .000E+00  .000E+00  .000E+00  .000E+00
  .000E+00  .000E+00  .000E+00  .000E+00  .000E+00  .000E+00  .000E+00  .000E+00
  .000E+00  .000E+00  .000E+00  .000E+00
  .298E+02  .298E+02  .297E+02  .297E+02  .298E+02  .298E+02  .298E+02  .296E+02
  .297E+02  .297E+02  .297E+02  .298E+02  .298E+02  .299E+02  .299E+02  .299E+02
  .299E+02  .299E+02  .298E+02  .305E+02  .298E+02  .298E+02  .298E+02  .298E+02
  .298E+02  .298E+02  .317E+02  .319E+02  .313E+02  .312E+02  .319E+02  .319E+02
  .319E+02  .312E+02  .312E+02  .311E+02  .439E+02  .440E+02  .440E+02  .438E+02
  .438E+02  .438E+02  .434E+02  .434E+02  .432E+02  .432E+02  .373E+02  .374E+02
  .374E+02  .374E+02  .380E+02  .376E+02  .376E+02  .842E+02  .851E+02  .838E+02
  .631E+02  .414E+02  .408E+02  .728E+02  .729E+02  .489E+02  .393E+02  .394E+02
  .394E+02  .683E+02  .672E+02  .627E+02  .627E+02  .373E+02  .373E+02  .373E+02
  .618E+02  .373E+02  .373E+02  .373E+02  .373E+02  .373E+02  .000E+00  .000E+00
  .000E+00  .000E+00  .000E+00  .000E+00  .000E+00  .000E+00  .000E+00  .000E+00
  .000E+00  .000E+00  .000E+00  .000E+00  .000E+00  .000E+00  .000E+00  .000E+00
  .000E+00  .000E+00  .000E+00  .000E+00
  .295E+02  .295E+02  .297E+02  .297E+02  .298E+02  .298E+02  .296E+02  .296E+02
  .297E+02  .297E+02  .297E+02  .298E+02  .298E+02  .299E+02  .299E+02  .299E+02
  .299E+02  .299E+02  .298E+02  .305E+02  .298E+02  .298E+02  .298E+02  .298E+02
  .298E+02  .297E+02  .316E+02  .319E+02  .313E+02  .313E+02  .304E+02  .297E+02
  .318E+02  .318E+02  .312E+02  .312E+02  .304E+02  .304E+02  .304E+02  .439E+02
  .318E+02  .437E+02  .318E+02  .318E+02  .433E+02  .313E+02  .297E+02  .297E+02
  .297E+02  .297E+02  .382E+02  .304E+02  .379E+02  .379E+02  .840E+02  .304E+02
  .304E+02  .304E+02  .304E+02  .304E+02  .304E+02  .304E+02  .297E+02  .297E+02
  .297E+02  .297E+02  .297E+02  .297E+02  .297E+02  .297E+02  .297E+02  .297E+02
  .297E+02  .297E+02  .297E+02  .297E+02  .297E+02  .297E+02  .000E+00  .000E+00
  .000E+00  .000E+00  .000E+00  .000E+00  .000E+00  .000E+00  .000E+00  .000E+00
  .000E+00  .000E+00  .000E+00  .000E+00  .000E+00  .000E+00  .000E+00  .000E+00
  .000E+00  .000E+00  .000E+00  .000E+00
  .298E+02  .298E+02  .297E+02  .297E+02  .298E+02  .298E+02  .298E+02  .296E+02
  .297E+02  .297E+02  .297E+02  .298E+02  .298E+02  .299E+02  .299E+02  .299E+02
  .299E+02  .299E+02  .298E+02  .305E+02  .298E+02  .298E+02  .298E+02  .298E+02
  .298E+02  .298E+02  .317E+02  .318E+02  .313E+02  .312E+02  .304E+02  .319E+02
  .319E+02  .312E+02  .439E+02  .311E+02  .439E+02  .440E+02  .440E+02  .438E+02
  .438E+02  .438E+02  .434E+02  .434E+02  .432E+02  .432E+02  .373E+02  .374E+02
  .374E+02  .374E+02  .380E+02  .375E+02  .376E+02  .842E+02  .850E+02  .838E+02
  .631E+02  .414E+02  .408E+02  .728E+02  .729E+02  .489E+02  .393E+02  .393E+02
  .393E+02  .683E+02  .671E+02  .626E+02  .627E+02  .371E+02  .371E+02  .304E+02
  .304E+02  .304E+02  .304E+02  .304E+02  .304E+02  .304E+02  .000E+00  .000E+00
  .000E+00  .000E+00  .000E+00  .000E+00  .000E+00  .000E+00  .000E+00  .000E+00
  .000E+00  .000E+00  .000E+00  .000E+00  .000E+00  .000E+00  .000E+00  .000E+00
  .000E+00  .000E+00  .000E+00  .000E+00
/&   ----------  End of spectral data for channel  1  ----------
Response and Fourier amplitude spectra (78 periods,  .04 -  6.0 sec)   for      
Corrected accelerogram   38695658.CI.LBW2.01.H      Chan  2: 360 Deg     from   
Uncorrected Accelerogram Data             Processed: 09/19/20, CGS  cilbw2-t    
Rcrd of Fri Sep 18, 2020 23:38:29.0 PDT               (Avol1 v2.0, 4/18 CSMIP)  
                                        (Origin:  To be determined)             
38695658.CI.LBW2.01.H                Start time:  9/19/20, 06:38:29.0 UTC (GPS) 
Station Id. LBW2    33.798N, 118.088W    ObsMMS  s/n 1959  (3 Chns of  6 at Sta)
Los Alimitos, I - 405 near Katella       SCSN   Data: Acceleration              
Chan  2: 360 Deg                                                                
Rcrd of Fri Sep 18, 2020 23:38:29.0 PDT    Fri Sep 18, 2020 23:38:29.0 PDT      
Hypocenter:  To be determined.               ML:  To be determined.             
Instr Period =  .0050 sec,  Damping =  .707,  Sensitivity = 9.99 v/g  (Nominal) 
                        Record Length =301.000 sec.                             
                                     Uncor Max  =  -.011 g, at   30.110 sec.    
RMS accel of (uncor) record  =        .   Chn. metadata effective date:         
Accelerogram bandpass filtered with 3 dB pts at   .30 and 23.00 cyc/sec         
                 instrument- and base-line correcte                             
                                                                                
                                                                                
                                                                                
                                                                                
                                                                                
Rcrd of Fri Sep 18, 2020 23:38:29.0 PDT    Fri Sep 18, 2020 23:38:29.0 PDT      
                                                                                
38695658.CI.LBW2.01.H     Los Alimitos, I - 405 near Katella    Chan  2: 360 Deg
                                                                                
38695658.CI.LBW2.01.H     Los Alimitos, I - 405 near Katella    Chan  2: 360 Deg
                                                                                
Units for spectra are inches and sec, except Sa is in fraction of g.            
                                                                                
    2  100    2    6    6  100 -999    3    1    0   15 1959    050682   41    0
    6   38   29   10  263    9   19 2020   10    3  36035581   39   34   74 -999
35581 -999  100    6 -999 -999 -999 -999 -999 -999 -999 -999 -999 -999 -999 -999
 -999 -999 -999 -99915050    2 -999    0 -999    0 -999 -999    3    1 -99915050
    315050    4   78    1    3    5    0    0 -999    0 -999 -999    6 -999    2
    2    2    4 -999 -999 -999 -999 -999 -999 -999 -999    1 -999 -999 -999  111
    1    1 -999 -999
      .005      .707   355.810      .000     1.000  9986.531     -.011    30.110
   200.000     2.384      .239  -999.000    10.000  -999.000     2.000  -999.000
    20.000   -42.829      .000  -999.000  -999.000  -999.000  -999.000      .000
      .000      .000     2.000    15.000    33.798  -118.088      .010      .005
      .505     -.002      .002   -16.300  -999.000  -999.000  -999.000  -999.000
     1.000  -999.000  -999.000  -999.000  -999.000  -999.000  -999.000   120.000
     -.900     2.000     6.800   980.665      .020   301.000    31.831      .000
  -999.000    23.000  -999.000   301.000      .020      .300  -999.000  -999.000
    30.100    -9.942    29.760     -.335    37.440      .033      .000      .300
    23.000      .020      .020      .000      .020      .022  -999.000  -999.000
      .043      .130      .020      .013      .002      .000  -999.000  -999.000
  -999.000  -999.000  -999.000  -999.000  -999.000  -999.000  -999.000  -999.000
  -999.000  -999.000  -999.000  -999.000
      .050
      .040      .042      .044      .046      .048      .050      .055      .060
      .065      .070      .075      .080      .085      .090      .095      .100
      .110      .120      .130      .140      .150      .160      .170      .180
      .190      .200      .220      .240      .260      .280      .300      .320
      .340      .360      .380      .400      .420      .440      .460      .480
      .500      .550      .600      .650      .700      .750      .800      .850
      .900      .950     1.000     1.100     1.200     1.300     1.400     1.500
     1.600     1.700     1.800     1.900     2.000     2.200     2.400     2.600
     2.800     3.000     3.200     3.400     3.600     3.800     4.000     4.200
     4.400     4.600     4.800     5.000     5.500     6.000      .000      .000
      .000      .000      .000      .000      .000      .000      .000      .000
      .000      .000      .000      .000      .000      .000      .000      .000
      .000      .000      .000      .000
Fourier amplitude spectra in in/sec.
  .000E+00  .000E+00  .000E+00  .000E+00  .000E+00  .000E+00  .000E+00  .000E+00
  .000E+00  .000E+00  .000E+00  .000E+00  .000E+00  .000E+00  .000E+00  .000E+00
  .000E+00  .000E+00  .000E+00  .000E+00  .000E+00  .000E+00  .000E+00  .000E+00
  .000E+00  .000E+00  .000E+00  .000E+00  .000E+00  .000E+00  .000E+00  .000E+00
  .000E+00  .000E+00  .000E+00  .000E+00  .000E+00  .000E+00  .000E+00  .000E+00
  .000E+00  .000E+00  .000E+00  .000E+00  .000E+00  .000E+00  .000E+00  .000E+00
  .000E+00  .000E+00  .000E+00  .000E+00  .000E+00  .000E+00  .000E+00  .000E+00
  .000E+00  .000E+00  .000E+00  .000E+00  .000E+00  .000E+00  .000E+00  .000E+00
  .000E+00  .000E+00  .000E+00  .000E+00  .000E+00  .000E+00  .000E+00  .000E+00
  .000E+00  .000E+00  .000E+00  .000E+00  .000E+00  .000E+00  .000E+00  .000E+00
  .000E+00  .000E+00  .000E+00  .000E+00  .000E+00  .000E+00  .000E+00  .000E+00
  .000E+00  .000E+00  .000E+00  .000E+00  .000E+00  .000E+00  .000E+00  .000E+00
  .000E+00  .000E+00  .000E+00  .000E+00
Damping =  .05. Data of Sd,Sv,Sa,Pssv,ttSd,ttSv,ttSa :
  .183E-03  .211E-03  .246E-03  .290E-03  .355E-03  .409E-03  .523E-03  .688E-03
  .884E-03  .907E-03  .113E-02  .157E-02  .238E-02  .275E-02  .266E-02  .250E-02
  .414E-02  .532E-02  .702E-02  .533E-02  .597E-02  .665E-02  .538E-02  .514E-02
  .574E-02  .679E-02  .127E-01  .131E-01  .142E-01  .973E-02  .116E-01  .125E-01
  .132E-01  .113E-01  .914E-02  .810E-02  .705E-02  .710E-02  .852E-02  .957E-02
