Response and Fourier amplitude spectra (78 periods,  .04 -  6.0 sec)   for      
Corrected accelerogram   38695658.CI.LBW1.00.H      Chan  1:  90 Deg     from   
Uncorrected Accelerogram Data             Processed: 09/19/20, CGS  cilbw1-e    
Rcrd of Fri Sep 18, 2020 23:38:29.0 PDT               (Avol1 v2.0, 4/18 CSMIP)  
                                        (Origin:  To be determined)             
38695658.CI.LBW1.00.H                Start time:  9/19/20, 06:38:29.0 UTC (GPS) 
Station Id. LBW1    33.798N, 118.088W    ObsMMS  s/n 5318  (3 Chns of  6 at Sta)
Los Alimitos, I - 405 near Katella       SCSN   Data: Acceleration              
Chan  1:  90 Deg                                                                
Rcrd of Fri Sep 18, 2020 23:38:29.0 PDT    Fri Sep 18, 2020 23:38:29.0 PDT      
Hypocenter:  To be determined.               ML:  To be determined.             
Instr Period =  .0050 sec,  Damping =  .707,  Sensitivity = 5.00 v/g  (Nominal) 
                        Record Length =301.000 sec.                             
                                     Uncor Max  =   .023 g, at   29.560 sec.    
RMS accel of (uncor) record  =        .   Chn. metadata effective date:         
Accelerogram bandpass filtered with 3 dB pts at   .30 and 23.00 cyc/sec         
                 instrument- and base-line correcte                             
                                                                                
                                                                                
                                                                                
                                                                                
                                                                                
Rcrd of Fri Sep 18, 2020 23:38:29.0 PDT    Fri Sep 18, 2020 23:38:29.0 PDT      
                                                                                
38695658.CI.LBW1.00.H     Los Alimitos, I - 405 near Katella    Chan  1:  90 Deg
                                                                                
38695658.CI.LBW1.00.H     Los Alimitos, I - 405 near Katella    Chan  1:  90 Deg
                                                                                
Units for spectra are inches and sec, except Sa is in fraction of g.            
                                                                                
    1  100    1    6    6  100 -999    3    1    0   15 5318    050681   41    0
    6   38   29    8  263    9   19 2020   10    3   9035452   39   34   74 -999
35452 -999  100    6 -999 -999 -999 -999 -999 -999 -999 -999 -999 -999 -999 -999
 -999 -999 -999 -99915050    2 -999    0 -999   20 -999 -999    3    1 -99915050
    315050    4   78    1    3    5    0    0 -999    0 -999 -999    6 -999    2
    2    2    4 -999 -999 -999 -999 -999 -999 -999 -999    1 -999 -999 -999  111
    1    1 -999 -999
      .005      .707   354.520      .001     1.000  4998.452      .023    29.560
   200.000     2.384      .477  -999.000    10.000  -999.000     4.000  -999.000
    20.000    -1.274      .000  -999.000  -999.000  -999.000  -999.000     -.010
      .009      .019     2.000    15.000    33.798  -118.088      .022      .012
      .559      .015      .023   -16.300  -999.000  -999.000  -999.000  -999.000
     1.000  -999.000    -8.000  -999.000  -999.000  -999.000  -999.000   120.000
     -.900     2.000     6.800   980.665      .020   301.000    31.831     -.001
  -999.000    23.000  -999.000   301.000      .020      .300  -999.000  -999.000
    29.560    22.549    31.640      .618    31.560     -.029      .000      .300
    23.000      .020      .020      .000      .020      .039  -999.000  -999.000
      .097      .120      .045      .020      .002      .000  -999.000  -999.000
  -999.000  -999.000  -999.000  -999.000  -999.000  -999.000  -999.000  -999.000
  -999.000  -999.000  -999.000  -999.000
      .050
      .040      .042      .044      .046      .048      .050      .055      .060
      .065      .070      .075      .080      .085      .090      .095      .100
      .110      .120      .130      .140      .150      .160      .170      .180
      .190      .200      .220      .240      .260      .280      .300      .320
      .340      .360      .380      .400      .420      .440      .460      .480
      .500      .550      .600      .650      .700      .750      .800      .850
      .900      .950     1.000     1.100     1.200     1.300     1.400     1.500
     1.600     1.700     1.800     1.900     2.000     2.200     2.400     2.600
     2.800     3.000     3.200     3.400     3.600     3.800     4.000     4.200
     4.400     4.600     4.800     5.000     5.500     6.000      .000      .000
      .000      .000      .000      .000      .000      .000      .000      .000
      .000      .000      .000      .000      .000      .000      .000      .000
      .000      .000      .000      .000
Fourier amplitude spectra in in/sec.
  .000E+00  .000E+00  .000E+00  .000E+00  .000E+00  .000E+00  .000E+00  .000E+00
  .000E+00  .000E+00  .000E+00  .000E+00  .000E+00  .000E+00  .000E+00  .000E+00
  .000E+00  .000E+00  .000E+00  .000E+00  .000E+00  .000E+00  .000E+00  .000E+00
  .000E+00  .000E+00  .000E+00  .000E+00  .000E+00  .000E+00  .000E+00  .000E+00
  .000E+00  .000E+00  .000E+00  .000E+00  .000E+00  .000E+00  .000E+00  .000E+00
  .000E+00  .000E+00  .000E+00  .000E+00  .000E+00  .000E+00  .000E+00  .000E+00
  .000E+00  .000E+00  .000E+00  .000E+00  .000E+00  .000E+00  .000E+00  .000E+00
  .000E+00  .000E+00  .000E+00  .000E+00  .000E+00  .000E+00  .000E+00  .000E+00
  .000E+00  .000E+00  .000E+00  .000E+00  .000E+00  .000E+00  .000E+00  .000E+00
  .000E+00  .000E+00  .000E+00  .000E+00  .000E+00  .000E+00  .000E+00  .000E+00
  .000E+00  .000E+00  .000E+00  .000E+00  .000E+00  .000E+00  .000E+00  .000E+00
  .000E+00  .000E+00  .000E+00  .000E+00  .000E+00  .000E+00  .000E+00  .000E+00
  .000E+00  .000E+00  .000E+00  .000E+00
Damping =  .05. Data of Sd,Sv,Sa,Pssv,ttSd,ttSv,ttSa :
  .428E-03  .487E-03  .562E-03  .657E-03  .735E-03  .930E-03  .122E-02  .176E-02
  .224E-02  .266E-02  .294E-02  .365E-02  .457E-02  .600E-02  .614E-02  .699E-02
  .759E-02  .136E-01  .157E-01  .116E-01  .126E-01  .151E-01  .147E-01  .141E-01
  .148E-01  .163E-01  .239E-01  .294E-01  .212E-01  .179E-01  .144E-01  .187E-01
  .241E-01  .291E-01  .318E-01  .324E-01  .293E-01  .290E-01  .320E-01  .331E-01
  .321E-01  .262E-01  .252E-01  .271E-01  .254E-01  .247E-01  .212E-01  .243E-01
  .232E-01  .213E-01  .189E-01  .192E-01  .197E-01  .200E-01  .265E-01  .237E-01
  .216E-01  .218E-01  .209E-01  .223E-01  .215E-01  .194E-01  .183E-01  .160E-01
  .158E-01  .165E-01  .162E-01  .150E-01  .141E-01  .129E-01  .123E-01  .120E-01
  .118E-01  .116E-01  .114E-01  .113E-01  .111E-01  .111E-01  .000E+00  .000E+00
  .000E+00  .000E+00  .000E+00  .000E+00  .000E+00  .000E+00  .000E+00  .000E+00
  .000E+00  .000E+00  .000E+00  .000E+00  .000E+00  .000E+00  .000E+00  .000E+00
  .000E+00  .000E+00  .000E+00  .000E+00
  .379E-01  .423E-01  .482E-01  .590E-01  .707E-01  .852E-01  .103E+00  .144E+00
  .176E+00  .190E+00  .193E+00  .242E+00  .305E+00  .392E+00  .387E+00  .437E+00
  .440E+00  .694E+00  .788E+00  .551E+00  .556E+00  .630E+00  .569E+00  .560E+00
  .532E+00  .532E+00  .682E+00  .778E+00  .541E+00  .403E+00  .320E+00  .369E+00
  .481E+00  .588E+00  .606E+00  .532E+00  .494E+00  .500E+00  .525E+00  .483E+00
  .439E+00  .416E+00  .387E+00  .440E+00  .441E+00  .379E+00  .324E+00  .305E+00
  .303E+00  .293E+00  .278E+00  .255E+00  .246E+00  .243E+00  .236E+00  .234E+00
  .237E+00  .243E+00  .248E+00  .252E+00  .255E+00  .255E+00  .251E+00  .244E+00
  .240E+00  .237E+00  .235E+00  .235E+00  .234E+00  .234E+00  .234E+00  .234E+00
  .234E+00  .234E+00  .234E+00  .234E+00  .234E+00  .235E+00  .000E+00  .000E+00
  .000E+00  .000E+00  .000E+00  .000E+00  .000E+00  .000E+00  .000E+00  .000E+00
  .000E+00  .000E+00  .000E+00  .000E+00  .000E+00  .000E+00  .000E+00  .000E+00
  .000E+00  .000E+00  .000E+00  .000E+00
  .275E-01  .284E-01  .299E-01  .321E-01  .329E-01  .381E-01  .409E-01  .502E-01
  .546E-01  .565E-01  .541E-01  .590E-01  .654E-01  .770E-01  .707E-01  .720E-01
  .632E-01  .970E-01  .955E-01  .598E-01  .578E-01  .603E-01  .521E-01  .443E-01
  .426E-01  .420E-01  .511E-01  .514E-01  .327E-01  .237E-01  .166E-01  .190E-01
  .213E-01  .230E-01  .227E-01  .209E-01  .173E-01  .154E-01  .155E-01  .147E-01
  .134E-01  .892E-02  .716E-02  .669E-02  .532E-02  .455E-02  .342E-02  .346E-02
  .296E-02  .244E-02  .196E-02  .165E-02  .142E-02  .122E-02  .139E-02  .111E-02
  .872E-03  .796E-03  .687E-03  .636E-03  .555E-03  .423E-03  .339E-03  .280E-03
  .241E-03  .205E-03  .177E-03  .154E-03  .136E-03  .121E-03  .109E-03  .991E-04
  .917E-04  .862E-04  .814E-04  .770E-04  .683E-04  .618E-04  .000E+00  .000E+00
  .000E+00  .000E+00  .000E+00  .000E+00  .000E+00  .000E+00  .000E+00  .000E+00
  .000E+00  .000E+00  .000E+00  .000E+00  .000E+00  .000E+00  .000E+00  .000E+00
  .000E+00  .000E+00  .000E+00  .000E+00
  .673E-01  .729E-01  .803E-01  .897E-01  .962E-01  .117E+00  .139E+00  .184E+00
  .216E+00  .239E+00  .247E+00  .287E+00  .337E+00  .419E+00  .406E+00  .439E+00
  .434E+00  .710E+00  .761E+00  .522E+00  .526E+00  .594E+00  .545E+00  .492E+00
  .488E+00  .512E+00  .681E+00  .769E+00  .513E+00  .401E+00  .301E+00  .367E+00
  .445E+00  .508E+00  .526E+00  .508E+00  .438E+00  .415E+00  .437E+00  .433E+00
  .403E+00  .299E+00  .264E+00  .262E+00  .228E+00  .207E+00  .167E+00  .180E+00
  .162E+00  .141E+00  .119E+00  .110E+00  .103E+00  .964E-01  .119E+00  .993E-01
  .846E-01  .804E-01  .728E-01  .737E-01  .674E-01  .553E-01  .480E-01  .388E-01
  .355E-01  .345E-01  .318E-01  .278E-01  .246E-01  .213E-01  .193E-01  .180E-01
  .168E-01  .158E-01  .149E-01  .142E-01  .127E-01  .116E-01  .000E+00  .000E+00
  .000E+00  .000E+00  .000E+00  .000E+00  .000E+00  .000E+00  .000E+00  .000E+00
  .000E+00  .000E+00  .000E+00  .000E+00  .000E+00  .000E+00  .000E+00  .000E+00
  .000E+00  .000E+00  .000E+00  .000E+00
  .297E+02  .297E+02  .297E+02  .297E+02  .297E+02  .299E+02  .297E+02  .297E+02
  .299E+02  .299E+02  .299E+02  .299E+02  .300E+02  .298E+02  .298E+02  .298E+02
  .298E+02  .300E+02  .299E+02  .296E+02  .296E+02  .296E+02  .296E+02  .299E+02
  .299E+02  .299E+02  .317E+02  .317E+02  .312E+02  .313E+02  .313E+02  .317E+02
  .318E+02  .318E+02  .318E+02  .322E+02  .323E+02  .321E+02  .321E+02  .321E+02
  .317E+02  .465E+02  .317E+02  .317E+02  .315E+02  .315E+02  .373E+02  .374E+02
  .374E+02  .374E+02  .385E+02  .381E+02  .377E+02  .842E+02  .851E+02  .378E+02
  .631E+02  .398E+02  .398E+02  .728E+02  .729E+02  .488E+02  .392E+02  .315E+02
  .395E+02  .684E+02  .461E+02  .627E+02  .627E+02  .371E+02  .315E+02  .315E+02
  .315E+02  .315E+02  .315E+02  .315E+02  .315E+02  .315E+02  .000E+00  .000E+00
  .000E+00  .000E+00  .000E+00  .000E+00  .000E+00  .000E+00  .000E+00  .000E+00
  .000E+00  .000E+00  .000E+00  .000E+00  .000E+00  .000E+00  .000E+00  .000E+00
  .000E+00  .000E+00  .000E+00  .000E+00
  .297E+02  .297E+02  .297E+02  .297E+02  .298E+02  .298E+02  .297E+02  .297E+02
  .298E+02  .298E+02  .299E+02  .299E+02  .300E+02  .297E+02  .298E+02  .298E+02
  .291E+02  .300E+02  .300E+02  .297E+02  .296E+02  .296E+02  .296E+02  .299E+02
  .299E+02  .299E+02  .318E+02  .317E+02  .317E+02  .310E+02  .317E+02  .317E+02
  .317E+02  .317E+02  .317E+02  .317E+02  .322E+02  .322E+02  .322E+02  .322E+02
  .316E+02  .316E+02  .316E+02  .316E+02  .316E+02  .316E+02  .316E+02  .316E+02
  .316E+02  .316E+02  .316E+02  .316E+02  .316E+02  .316E+02  .316E+02  .316E+02
  .316E+02  .316E+02  .316E+02  .316E+02  .316E+02  .316E+02  .316E+02  .316E+02
  .316E+02  .316E+02  .316E+02  .316E+02  .316E+02  .316E+02  .316E+02  .316E+02
  .316E+02  .316E+02  .316E+02  .316E+02  .316E+02  .316E+02  .000E+00  .000E+00
  .000E+00  .000E+00  .000E+00  .000E+00  .000E+00  .000E+00  .000E+00  .000E+00
  .000E+00  .000E+00  .000E+00  .000E+00  .000E+00  .000E+00  .000E+00  .000E+00
  .000E+00  .000E+00  .000E+00  .000E+00
  .297E+02  .297E+02  .297E+02  .297E+02  .297E+02  .299E+02  .297E+02  .297E+02
  .299E+02  .299E+02  .299E+02  .299E+02  .300E+02  .298E+02  .298E+02  .298E+02
  .298E+02  .300E+02  .299E+02  .296E+02  .296E+02  .296E+02  .296E+02  .299E+02
  .299E+02  .299E+02  .317E+02  .317E+02  .312E+02  .313E+02  .313E+02  .317E+02
  .318E+02  .318E+02  .318E+02  .322E+02  .322E+02  .321E+02  .321E+02  .321E+02
  .317E+02  .465E+02  .317E+02  .317E+02  .315E+02  .315E+02  .373E+02  .374E+02
  .374E+02  .374E+02  .384E+02  .381E+02  .377E+02  .377E+02  .850E+02  .377E+02
  .631E+02  .398E+02  .398E+02  .728E+02  .729E+02  .488E+02  .392E+02  .315E+02
  .315E+02  .315E+02  .315E+02  .315E+02  .315E+02  .315E+02  .315E+02  .315E+02
  .295E+02  .295E+02  .295E+02  .295E+02  .295E+02  .316E+02  .000E+00  .000E+00
  .000E+00  .000E+00  .000E+00  .000E+00  .000E+00  .000E+00  .000E+00  .000E+00
  .000E+00  .000E+00  .000E+00  .000E+00  .000E+00  .000E+00  .000E+00  .000E+00
  .000E+00  .000E+00  .000E+00  .000E+00
/&   ----------  End of spectral data for channel  1  ----------
Response and Fourier amplitude spectra (78 periods,  .04 -  6.0 sec)   for      
Corrected accelerogram   38695658.CI.LBW1.00.H      Chan  2: 360 Deg     from   
Uncorrected Accelerogram Data             Processed: 09/19/20, CGS  cilbw1-e    
Rcrd of Fri Sep 18, 2020 23:38:29.0 PDT               (Avol1 v2.0, 4/18 CSMIP)  
                                        (Origin:  To be determined)             
38695658.CI.LBW1.00.H                Start time:  9/19/20, 06:38:29.0 UTC (GPS) 
Station Id. LBW1    33.798N, 118.088W    ObsMMS  s/n 5318  (3 Chns of  6 at Sta)
Los Alimitos, I - 405 near Katella       SCSN   Data: Acceleration              
Chan  2: 360 Deg                                                                
Rcrd of Fri Sep 18, 2020 23:38:29.0 PDT    Fri Sep 18, 2020 23:38:29.0 PDT      
Hypocenter:  To be determined.               ML:  To be determined.             
Instr Period =  .0050 sec,  Damping =  .707,  Sensitivity = 5.00 v/g  (Nominal) 
                        Record Length =301.000 sec.                             
                                     Uncor Max  =   .024 g, at   29.930 sec.    
RMS accel of (uncor) record  =        .   Chn. metadata effective date:         
Accelerogram bandpass filtered with 3 dB pts at   .30 and 23.00 cyc/sec         
                 instrument- and base-line correcte                             
                                                                                
                                                                                
                                                                                
                                                                                
                                                                                
Rcrd of Fri Sep 18, 2020 23:38:29.0 PDT    Fri Sep 18, 2020 23:38:29.0 PDT      
                                                                                
38695658.CI.LBW1.00.H     Los Alimitos, I - 405 near Katella    Chan  2: 360 Deg
                                                                                
38695658.CI.LBW1.00.H     Los Alimitos, I - 405 near Katella    Chan  2: 360 Deg
                                                                                
Units for spectra are inches and sec, except Sa is in fraction of g.            
                                                                                
    2  100    2    6    6  100 -999    3    1    0   15 5318    050681   41    0
    6   38   29    8  263    9   19 2020   10    3  36035765   39   34   74 -999
35765 -999  100    6 -999 -999 -999 -999 -999 -999 -999 -999 -999 -999 -999 -999
 -999 -999 -999 -99915050    2 -999    0 -999   20 -999 -999    3    1 -99915050
    315050    4   78    1    3    5    0    0 -999    0 -999 -999    6 -999    2
    2    2    4 -999 -999 -999 -999 -999 -999 -999 -999    1 -999 -999 -999  111
    1    1 -999 -999
      .005      .707   357.650      .001     1.000  4996.058      .024    29.930
   200.000     2.384      .477  -999.000    10.000  -999.000     4.000  -999.000
    20.000   -20.199      .000  -999.000  -999.000  -999.000  -999.000     -.032
      .030      .062     2.000    15.000    33.798  -118.088      .021      .011
      .559      .058      .066   -16.300  -999.000  -999.000  -999.000  -999.000
     1.000  -999.000  -999.000  -999.000  -999.000  -999.000  -999.000   120.000
     -.900     2.000     6.800   980.665      .020   301.000    31.831     -.005
  -999.000    23.000  -999.000   301.000      .020      .300  -999.000  -999.000
    29.920    22.285    29.640     -.509    29.600      .061      .000      .300
    23.000      .020      .020      .000      .020      .039  -999.000  -999.000
      .103      .130      .055      .022      .003      .000  -999.000  -999.000
  -999.000  -999.000  -999.000  -999.000  -999.000  -999.000  -999.000  -999.000
  -999.000  -999.000  -999.000  -999.000
      .050
      .040      .042      .044      .046      .048      .050      .055      .060
      .065      .070      .075      .080      .085      .090      .095      .100
      .110      .120      .130      .140      .150      .160      .170      .180
      .190      .200      .220      .240      .260      .280      .300      .320
      .340      .360      .380      .400      .420      .440      .460      .480
      .500      .550      .600      .650      .700      .750      .800      .850
      .900      .950     1.000     1.100     1.200     1.300     1.400     1.500
     1.600     1.700     1.800     1.900     2.000     2.200     2.400     2.600
     2.800     3.000     3.200     3.400     3.600     3.800     4.000     4.200
     4.400     4.600     4.800     5.000     5.500     6.000      .000      .000
      .000      .000      .000      .000      .000      .000      .000      .000
      .000      .000      .000      .000      .000      .000      .000      .000
      .000      .000      .000      .000
Fourier amplitude spectra in in/sec.
  .000E+00  .000E+00  .000E+00  .000E+00  .000E+00  .000E+00  .000E+00  .000E+00
  .000E+00  .000E+00  .000E+00  .000E+00  .000E+00  .000E+00  .000E+00  .000E+00
  .000E+00  .000E+00  .000E+00  .000E+00  .000E+00  .000E+00  .000E+00  .000E+00
  .000E+00  .000E+00  .000E+00  .000E+00  .000E+00  .000E+00  .000E+00  .000E+00
  .000E+00  .000E+00  .000E+00  .000E+00  .000E+00  .000E+00  .000E+00  .000E+00
  .000E+00  .000E+00  .000E+00  .000E+00  .000E+00  .000E+00  .000E+00  .000E+00
  .000E+00  .000E+00  .000E+00  .000E+00  .000E+00  .000E+00  .000E+00  .000E+00
  .000E+00  .000E+00  .000E+00  .000E+00  .000E+00  .000E+00  .000E+00  .000E+00
  .000E+00  .000E+00  .000E+00  .000E+00  .000E+00  .000E+00  .000E+00  .000E+00
  .000E+00  .000E+00  .000E+00  .000E+00  .000E+00  .000E+00  .000E+00  .000E+00
  .000E+00  .000E+00  .000E+00  .000E+00  .000E+00  .000E+00  .000E+00  .000E+00
  .000E+00  .000E+00  .000E+00  .000E+00  .000E+00  .000E+00  .000E+00  .000E+00
  .000E+00  .000E+00  .000E+00  .000E+00
Damping =  .05. Data of Sd,Sv,Sa,Pssv,ttSd,ttSv,ttSa :
  .406E-03  .459E-03  .529E-03  .620E-03  .680E-03  .721E-03  .883E-03  .126E-02
  .162E-02  .236E-02  .233E-02  .284E-02  .446E-02  .528E-02  .659E-02  .762E-02
  .986E-02  .124E-01  .171E-01  .145E-01  .134E-01  .154E-01  .179E-01  .192E-01
  .198E-01  .216E-01  .256E-01  .250E-01  .201E-01  .185E-01  .189E-01  .210E-01
  .255E-01  .255E-01  .239E-01  .275E-01  .323E-01  .343E-01  .391E-01  .432E-01
