Response and Fourier amplitude spectra (78 periods,  .04 -  6.0 sec)   for      
Corrected accelerogram   38695658.CI.LCG.--.HN      Chan  1:  90 Deg     from   
Uncorrected Accelerogram Data             Processed: 09/19/20, CGS  cilcg--t    
Rcrd of Fri Sep 18, 2020 23:38:29.0 PDT               (Avol1 v2.0, 4/18 CSMIP)  
                                        (Origin:  To be determined)             
38695658.CI.LCG.--.HN                Start time:  9/19/20, 06:38:29.0 UTC (GPS) 
Station Id. LCG     34.000N, 118.378W    ObsMMS  s/n 5747  (3 Chns of  6 at Sta)
Windsor Hills, Holy Cross Cemetery       SCSN   Data: Acceleration              
Chan  1:  90 Deg                                                                
Rcrd of Fri Sep 18, 2020 23:38:29.0 PDT    Fri Sep 18, 2020 23:38:29.0 PDT      
Hypocenter:  To be determined.               ML:  To be determined.             
Instr Period =  .0050 sec,  Damping =  .707,  Sensitivity = 4.98 v/g  (Nominal) 
                        Record Length =301.000 sec.                             
                                     Uncor Max  =  -.009 g, at   35.160 sec.    
RMS accel of (uncor) record  =        .   Chn. metadata effective date:         
Accelerogram bandpass filtered with 3 dB pts at   .30 and 23.00 cyc/sec         
                 instrument- and base-line correcte                             
                                                                                
                                                                                
                                                                                
                                                                                
                                                                                
Rcrd of Fri Sep 18, 2020 23:38:29.0 PDT    Fri Sep 18, 2020 23:38:29.0 PDT      
                                                                                
38695658.CI.LCG.--.HN     Windsor Hills, Holy Cross Cemetery    Chan  1:  90 Deg
                                                                                
38695658.CI.LCG.--.HN     Windsor Hills, Holy Cross Cemetery    Chan  1:  90 Deg
                                                                                
Units for spectra are inches and sec, except Sa is in fraction of g.            
                                                                                
    1  100    1    6    6  100 -999    3    1    0   15 5747    050619   41    0
    6   38   29    3  263    9   19 2020   10    3   9035661   39   34   74 -999
35661 -999  100    6 -999 -999 -999 -999 -999 -999 -999 -999 -999 -999 -999 -999
 -999 -999 -999 -99915050    2 -999    0 -999   20 -999 -999    3    1 329115050
    315050    4   78    1    3    5    0    0 -999    0 -999 -999    6 -999    2
    2    2    4 -999 -999 -999 -999 -999 -999 -999 -999    1 -999 -999 -999  111
    1    1 -999 -999
      .005      .707   356.610      .001     1.000  4984.889     -.009    35.160
   200.000     2.384      .478  -999.000    10.000  -999.000     4.000  -999.000
    20.000   -41.909      .000  -999.000  -999.000  -999.000  -999.000     -.001
      .001      .001     2.000    15.000    34.000  -118.378      .006      .006
      .989      .000      .002   108.000  -999.000  -999.000  -999.000  -999.000
     1.000  -999.000    -8.000  -999.000  -999.000  -999.000  -999.000   120.000
     -.900     2.000     6.800   980.665      .020   301.000    31.831      .000
  -999.000    23.000  -999.000   301.000      .020      .300  -999.000  -999.000
    35.160    -9.134    35.080      .564    34.980     -.039      .000      .300
    23.000      .020      .020      .000      .020      .030  -999.000  -999.000
      .044      .340      .036      .035      .003      .000  -999.000  -999.000
  -999.000  -999.000  -999.000  -999.000  -999.000  -999.000  -999.000  -999.000
  -999.000  -999.000  -999.000  -999.000
      .050
      .040      .042      .044      .046      .048      .050      .055      .060
      .065      .070      .075      .080      .085      .090      .095      .100
      .110      .120      .130      .140      .150      .160      .170      .180
      .190      .200      .220      .240      .260      .280      .300      .320
      .340      .360      .380      .400      .420      .440      .460      .480
      .500      .550      .600      .650      .700      .750      .800      .850
      .900      .950     1.000     1.100     1.200     1.300     1.400     1.500
     1.600     1.700     1.800     1.900     2.000     2.200     2.400     2.600
     2.800     3.000     3.200     3.400     3.600     3.800     4.000     4.200
     4.400     4.600     4.800     5.000     5.500     6.000      .000      .000
      .000      .000      .000      .000      .000      .000      .000      .000
      .000      .000      .000      .000      .000      .000      .000      .000
      .000      .000      .000      .000
Fourier amplitude spectra in in/sec.
  .000E+00  .000E+00  .000E+00  .000E+00  .000E+00  .000E+00  .000E+00  .000E+00
  .000E+00  .000E+00  .000E+00  .000E+00  .000E+00  .000E+00  .000E+00  .000E+00
  .000E+00  .000E+00  .000E+00  .000E+00  .000E+00  .000E+00  .000E+00  .000E+00
  .000E+00  .000E+00  .000E+00  .000E+00  .000E+00  .000E+00  .000E+00  .000E+00
  .000E+00  .000E+00  .000E+00  .000E+00  .000E+00  .000E+00  .000E+00  .000E+00
  .000E+00  .000E+00  .000E+00  .000E+00  .000E+00  .000E+00  .000E+00  .000E+00
  .000E+00  .000E+00  .000E+00  .000E+00  .000E+00  .000E+00  .000E+00  .000E+00
  .000E+00  .000E+00  .000E+00  .000E+00  .000E+00  .000E+00  .000E+00  .000E+00
  .000E+00  .000E+00  .000E+00  .000E+00  .000E+00  .000E+00  .000E+00  .000E+00
  .000E+00  .000E+00  .000E+00  .000E+00  .000E+00  .000E+00  .000E+00  .000E+00
  .000E+00  .000E+00  .000E+00  .000E+00  .000E+00  .000E+00  .000E+00  .000E+00
  .000E+00  .000E+00  .000E+00  .000E+00  .000E+00  .000E+00  .000E+00  .000E+00
  .000E+00  .000E+00  .000E+00  .000E+00
Damping =  .05. Data of Sd,Sv,Sa,Pssv,ttSd,ttSv,ttSa :
  .146E-03  .163E-03  .180E-03  .199E-03  .219E-03  .247E-03  .331E-03  .438E-03
  .559E-03  .685E-03  .897E-03  .114E-02  .116E-02  .133E-02  .152E-02  .163E-02
  .224E-02  .283E-02  .327E-02  .447E-02  .518E-02  .794E-02  .771E-02  .923E-02
  .116E-01  .158E-01  .165E-01  .159E-01  .179E-01  .221E-01  .314E-01  .410E-01
  .491E-01  .524E-01  .463E-01  .397E-01  .403E-01  .387E-01  .396E-01  .405E-01
  .344E-01  .274E-01  .244E-01  .271E-01  .248E-01  .164E-01  .200E-01  .235E-01
  .253E-01  .263E-01  .264E-01  .311E-01  .273E-01  .280E-01  .280E-01  .464E-01
  .525E-01  .413E-01  .367E-01  .310E-01  .280E-01  .264E-01  .232E-01  .209E-01
  .198E-01  .235E-01  .247E-01  .213E-01  .229E-01  .234E-01  .231E-01  .223E-01
  .213E-01  .203E-01  .195E-01  .189E-01  .178E-01  .171E-01  .000E+00  .000E+00
  .000E+00  .000E+00  .000E+00  .000E+00  .000E+00  .000E+00  .000E+00  .000E+00
  .000E+00  .000E+00  .000E+00  .000E+00  .000E+00  .000E+00  .000E+00  .000E+00
  .000E+00  .000E+00  .000E+00  .000E+00
  .805E-02  .886E-02  .115E-01  .138E-01  .151E-01  .172E-01  .250E-01  .353E-01
  .412E-01  .419E-01  .552E-01  .751E-01  .819E-01  .772E-01  .701E-01  .745E-01
  .104E+00  .116E+00  .135E+00  .187E+00  .193E+00  .255E+00  .259E+00  .319E+00
  .338E+00  .441E+00  .422E+00  .389E+00  .360E+00  .456E+00  .629E+00  .801E+00
  .936E+00  .910E+00  .835E+00  .714E+00  .658E+00  .600E+00  .621E+00  .598E+00
  .521E+00  .457E+00  .396E+00  .353E+00  .334E+00  .282E+00  .284E+00  .256E+00
  .289E+00  .250E+00  .244E+00  .231E+00  .240E+00  .239E+00  .195E+00  .249E+00
  .273E+00  .281E+00  .266E+00  .259E+00  .265E+00  .277E+00  .259E+00  .241E+00
  .236E+00  .238E+00  .240E+00  .238E+00  .234E+00  .230E+00  .226E+00  .223E+00
  .221E+00  .219E+00  .219E+00  .218E+00  .218E+00  .218E+00  .000E+00  .000E+00
  .000E+00  .000E+00  .000E+00  .000E+00  .000E+00  .000E+00  .000E+00  .000E+00
  .000E+00  .000E+00  .000E+00  .000E+00  .000E+00  .000E+00  .000E+00  .000E+00
  .000E+00  .000E+00  .000E+00  .000E+00
  .934E-02  .943E-02  .951E-02  .962E-02  .971E-02  .101E-01  .112E-01  .125E-01
  .136E-01  .142E-01  .165E-01  .184E-01  .165E-01  .168E-01  .172E-01  .166E-01
  .191E-01  .202E-01  .197E-01  .237E-01  .234E-01  .320E-01  .275E-01  .295E-01
  .329E-01  .405E-01  .355E-01  .286E-01  .271E-01  .291E-01  .358E-01  .411E-01
  .441E-01  .417E-01  .333E-01  .257E-01  .236E-01  .206E-01  .191E-01  .179E-01
  .142E-01  .937E-02  .696E-02  .661E-02  .527E-02  .304E-02  .327E-02  .340E-02
  .322E-02  .300E-02  .272E-02  .264E-02  .195E-02  .170E-02  .147E-02  .212E-02
  .212E-02  .147E-02  .117E-02  .885E-03  .726E-03  .583E-03  .445E-03  .349E-03
  .262E-03  .272E-03  .256E-03  .217E-03  .210E-03  .195E-03  .176E-03  .157E-03
  .141E-03  .126E-03  .115E-03  .105E-03  .869E-04  .745E-04  .000E+00  .000E+00
  .000E+00  .000E+00  .000E+00  .000E+00  .000E+00  .000E+00  .000E+00  .000E+00
  .000E+00  .000E+00  .000E+00  .000E+00  .000E+00  .000E+00  .000E+00  .000E+00
  .000E+00  .000E+00  .000E+00  .000E+00
  .230E-01  .243E-01  .257E-01  .272E-01  .287E-01  .311E-01  .378E-01  .458E-01
  .540E-01  .615E-01  .752E-01  .899E-01  .856E-01  .930E-01  .101E+00  .102E+00
  .128E+00  .148E+00  .158E+00  .201E+00  .217E+00  .312E+00  .285E+00  .322E+00
  .385E+00  .498E+00  .470E+00  .417E+00  .432E+00  .496E+00  .658E+00  .805E+00
  .908E+00  .915E+00  .765E+00  .624E+00  .603E+00  .553E+00  .541E+00  .530E+00
  .432E+00  .313E+00  .256E+00  .262E+00  .222E+00  .137E+00  .157E+00  .174E+00
  .177E+00  .174E+00  .166E+00  .178E+00  .143E+00  .135E+00  .126E+00  .194E+00
  .206E+00  .153E+00  .128E+00  .102E+00  .880E-01  .753E-01  .608E-01  .506E-01
  .445E-01  .493E-01  .485E-01  .393E-01  .400E-01  .387E-01  .363E-01  .333E-01
  .304E-01  .278E-01  .256E-01  .237E-01  .203E-01  .179E-01  .000E+00  .000E+00
  .000E+00  .000E+00  .000E+00  .000E+00  .000E+00  .000E+00  .000E+00  .000E+00
  .000E+00  .000E+00  .000E+00  .000E+00  .000E+00  .000E+00  .000E+00  .000E+00
  .000E+00  .000E+00  .000E+00  .000E+00
  .352E+02  .352E+02  .346E+02  .346E+02  .352E+02  .352E+02  .295E+02  .295E+02
  .352E+02  .340E+02  .336E+02  .340E+02  .339E+02  .345E+02  .351E+02  .345E+02
  .351E+02  .351E+02  .351E+02  .317E+02  .311E+02  .346E+02  .340E+02  .330E+02
  .347E+02  .348E+02  .348E+02  .350E+02  .350E+02  .352E+02  .352E+02  .352E+02
  .358E+02  .358E+02  .358E+02  .357E+02  .357E+02  .357E+02  .353E+02  .351E+02
  .351E+02  .351E+02  .350E+02  .348E+02  .348E+02  .348E+02  .312E+02  .351E+02
  .475E+02  .618E+02  .618E+02  .614E+02  .633E+02  .555E+02  .424E+02  .442E+02
  .459E+02  .460E+02  .605E+02  .606E+02  .407E+02  .355E+02  .350E+02  .350E+02
  .538E+02  .539E+02  .407E+02  .350E+02  .350E+02  .350E+02  .350E+02  .350E+02
  .350E+02  .350E+02  .350E+02  .350E+02  .350E+02  .350E+02  .000E+00  .000E+00
  .000E+00  .000E+00  .000E+00  .000E+00  .000E+00  .000E+00  .000E+00  .000E+00
  .000E+00  .000E+00  .000E+00  .000E+00  .000E+00  .000E+00  .000E+00  .000E+00
  .000E+00  .000E+00  .000E+00  .000E+00
  .296E+02  .296E+02  .305E+02  .305E+02  .305E+02  .305E+02  .296E+02  .296E+02
  .296E+02  .296E+02  .336E+02  .337E+02  .339E+02  .339E+02  .351E+02  .346E+02
  .297E+02  .297E+02  .316E+02  .316E+02  .309E+02  .346E+02  .340E+02  .330E+02
  .347E+02  .347E+02  .348E+02  .320E+02  .349E+02  .352E+02  .353E+02  .353E+02
  .358E+02  .359E+02  .357E+02  .357E+02  .358E+02  .356E+02  .352E+02  .352E+02
  .350E+02  .351E+02  .351E+02  .349E+02  .347E+02  .347E+02  .347E+02  .352E+02
  .351E+02  .351E+02  .351E+02  .351E+02  .351E+02  .351E+02  .347E+02  .347E+02
  .351E+02  .351E+02  .351E+02  .351E+02  .351E+02  .351E+02  .351E+02  .351E+02
  .351E+02  .351E+02  .351E+02  .351E+02  .351E+02  .351E+02  .351E+02  .351E+02
  .351E+02  .351E+02  .351E+02  .351E+02  .351E+02  .351E+02  .000E+00  .000E+00
  .000E+00  .000E+00  .000E+00  .000E+00  .000E+00  .000E+00  .000E+00  .000E+00
  .000E+00  .000E+00  .000E+00  .000E+00  .000E+00  .000E+00  .000E+00  .000E+00
  .000E+00  .000E+00  .000E+00  .000E+00
  .352E+02  .352E+02  .346E+02  .346E+02  .351E+02  .351E+02  .295E+02  .295E+02
  .352E+02  .340E+02  .336E+02  .340E+02  .339E+02  .345E+02  .351E+02  .345E+02
  .351E+02  .351E+02  .351E+02  .317E+02  .311E+02  .346E+02  .340E+02  .330E+02
  .347E+02  .348E+02  .348E+02  .350E+02  .350E+02  .352E+02  .352E+02  .352E+02
  .357E+02  .358E+02  .358E+02  .356E+02  .357E+02  .357E+02  .353E+02  .351E+02
  .351E+02  .351E+02  .349E+02  .348E+02  .348E+02  .348E+02  .312E+02  .351E+02
  .475E+02  .618E+02  .618E+02  .614E+02  .633E+02  .555E+02  .424E+02  .441E+02
  .459E+02  .460E+02  .605E+02  .606E+02  .407E+02  .355E+02  .349E+02  .349E+02
  .538E+02  .539E+02  .407E+02  .349E+02  .349E+02  .349E+02  .349E+02  .349E+02
  .349E+02  .349E+02  .349E+02  .349E+02  .349E+02  .349E+02  .000E+00  .000E+00
  .000E+00  .000E+00  .000E+00  .000E+00  .000E+00  .000E+00  .000E+00  .000E+00
  .000E+00  .000E+00  .000E+00  .000E+00  .000E+00  .000E+00  .000E+00  .000E+00
  .000E+00  .000E+00  .000E+00  .000E+00
/&   ----------  End of spectral data for channel  1  ----------
Response and Fourier amplitude spectra (78 periods,  .04 -  6.0 sec)   for      
Corrected accelerogram   38695658.CI.LCG.--.HN      Chan  2: 360 Deg     from   
Uncorrected Accelerogram Data             Processed: 09/19/20, CGS  cilcg--t    
Rcrd of Fri Sep 18, 2020 23:38:29.0 PDT               (Avol1 v2.0, 4/18 CSMIP)  
                                        (Origin:  To be determined)             
38695658.CI.LCG.--.HN                Start time:  9/19/20, 06:38:29.0 UTC (GPS) 
Station Id. LCG     34.000N, 118.378W    ObsMMS  s/n 5747  (3 Chns of  6 at Sta)
Windsor Hills, Holy Cross Cemetery       SCSN   Data: Acceleration              
Chan  2: 360 Deg                                                                
Rcrd of Fri Sep 18, 2020 23:38:29.0 PDT    Fri Sep 18, 2020 23:38:29.0 PDT      
Hypocenter:  To be determined.               ML:  To be determined.             
Instr Period =  .0050 sec,  Damping =  .707,  Sensitivity = 4.99 v/g  (Nominal) 
                        Record Length =301.000 sec.                             
                                     Uncor Max  =   .009 g, at   31.430 sec.    
RMS accel of (uncor) record  =        .   Chn. metadata effective date:         
Accelerogram bandpass filtered with 3 dB pts at   .30 and 23.00 cyc/sec         
                 instrument- and base-line correcte                             
                                                                                
                                                                                
                                                                                
                                                                                
                                                                                
Rcrd of Fri Sep 18, 2020 23:38:29.0 PDT    Fri Sep 18, 2020 23:38:29.0 PDT      
                                                                                
38695658.CI.LCG.--.HN     Windsor Hills, Holy Cross Cemetery    Chan  2: 360 Deg
                                                                                
38695658.CI.LCG.--.HN     Windsor Hills, Holy Cross Cemetery    Chan  2: 360 Deg
                                                                                
Units for spectra are inches and sec, except Sa is in fraction of g.            
                                                                                
    2  100    2    6    6  100 -999    3    1    0   15 5747    050619   41    0
    6   38   29    3  263    9   19 2020   10    3  36035774   39   34   74 -999
35774 -999  100    6 -999 -999 -999 -999 -999 -999 -999 -999 -999 -999 -999 -999
 -999 -999 -999 -99915050    2 -999    0 -999   20 -999 -999    3    1 329115050
    315050    4   78    1    3    5    0    0 -999    0 -999 -999    6 -999    2
    2    2    4 -999 -999 -999 -999 -999 -999 -999 -999    1 -999 -999 -999  111
    1    1 -999 -999
      .005      .707   357.740      .000     1.000  4991.271      .009    31.430
   200.000     2.384      .478  -999.000    10.000  -999.000     4.000  -999.000
    20.000   -40.582      .000  -999.000  -999.000  -999.000  -999.000     -.001
      .001      .001     2.000    15.000    34.000  -118.378      .007      .007
     1.082      .000      .003   108.000  -999.000  -999.000  -999.000  -999.000
     1.000  -999.000  -999.000  -999.000  -999.000  -999.000  -999.000   120.000
     -.900     2.000     6.800   980.665      .020   301.000    31.831      .000
  -999.000    23.000  -999.000   301.000      .020      .300  -999.000  -999.000
    31.420     8.568    29.660     -.303    34.160     -.028      .000      .300
    23.000      .020      .020      .000      .020      .025  -999.000  -999.000
      .032      .140      .027      .020      .002      .000  -999.000  -999.000
  -999.000  -999.000  -999.000  -999.000  -999.000  -999.000  -999.000  -999.000
  -999.000  -999.000  -999.000  -999.000
      .050
      .040      .042      .044      .046      .048      .050      .055      .060
      .065      .070      .075      .080      .085      .090      .095      .100
      .110      .120      .130      .140      .150      .160      .170      .180
      .190      .200      .220      .240      .260      .280      .300      .320
      .340      .360      .380      .400      .420      .440      .460      .480
      .500      .550      .600      .650      .700      .750      .800      .850
      .900      .950     1.000     1.100     1.200     1.300     1.400     1.500
     1.600     1.700     1.800     1.900     2.000     2.200     2.400     2.600
     2.800     3.000     3.200     3.400     3.600     3.800     4.000     4.200
     4.400     4.600     4.800     5.000     5.500     6.000      .000      .000
      .000      .000      .000      .000      .000      .000      .000      .000
      .000      .000      .000      .000      .000      .000      .000      .000
      .000      .000      .000      .000
Fourier amplitude spectra in in/sec.
  .000E+00  .000E+00  .000E+00  .000E+00  .000E+00  .000E+00  .000E+00  .000E+00
  .000E+00  .000E+00  .000E+00  .000E+00  .000E+00  .000E+00  .000E+00  .000E+00
  .000E+00  .000E+00  .000E+00  .000E+00  .000E+00  .000E+00  .000E+00  .000E+00
  .000E+00  .000E+00  .000E+00  .000E+00  .000E+00  .000E+00  .000E+00  .000E+00
  .000E+00  .000E+00  .000E+00  .000E+00  .000E+00  .000E+00  .000E+00  .000E+00
  .000E+00  .000E+00  .000E+00  .000E+00  .000E+00  .000E+00  .000E+00  .000E+00
  .000E+00  .000E+00  .000E+00  .000E+00  .000E+00  .000E+00  .000E+00  .000E+00
  .000E+00  .000E+00  .000E+00  .000E+00  .000E+00  .000E+00  .000E+00  .000E+00
  .000E+00  .000E+00  .000E+00  .000E+00  .000E+00  .000E+00  .000E+00  .000E+00
  .000E+00  .000E+00  .000E+00  .000E+00  .000E+00  .000E+00  .000E+00  .000E+00
  .000E+00  .000E+00  .000E+00  .000E+00  .000E+00  .000E+00  .000E+00  .000E+00
  .000E+00  .000E+00  .000E+00  .000E+00  .000E+00  .000E+00  .000E+00  .000E+00
  .000E+00  .000E+00  .000E+00  .000E+00
Damping =  .05. Data of Sd,Sv,Sa,Pssv,ttSd,ttSv,ttSa :
  .156E-03  .178E-03  .203E-03  .236E-03  .278E-03  .312E-03  .368E-03  .374E-03
  .407E-03  .564E-03  .752E-03  .101E-02  .117E-02  .142E-02  .138E-02  .187E-02
  .218E-02  .256E-02  .413E-02  .609E-02  .657E-02  .621E-02  .775E-02  .804E-02
  .100E-01  .104E-01  .117E-01  .155E-01  .118E-01  .136E-01  .185E-01  .196E-01
  .223E-01  .224E-01  .208E-01  .176E-01  .151E-01  .137E-01  .129E-01  .174E-01
