Response and Fourier amplitude spectra (78 periods,  .04 -  6.0 sec)   for      
Corrected accelerogram   38695658.CI.LDR.--.HN      Chan  1:  90 Deg     from   
Uncorrected Accelerogram Data             Processed: 09/19/20, CGS  cildr--n    
Rcrd of Fri Sep 18, 2020 23:38:38.0 PDT               (Avol1 v2.0, 4/18 CSMIP)  
                                        (Origin:  To be determined)             
38695658.CI.LDR.--.HN                Start time:  9/19/20, 06:38:38.0 UTC (GPS) 
Station Id. LDR     34.991N, 118.342W    Q330    s/n 3441  (3 Chns of  3 at Sta)
Mojave, Tehachapi - Willow Springs Rd.   SCSN   Data: Acceleration              
Chan  1:  90 Deg                                                                
Rcrd of Fri Sep 18, 2020 23:38:38.0 PDT    Fri Sep 18, 2020 23:38:38.0 PDT      
Hypocenter:  To be determined.               ML:  To be determined.             
Instr Period =  .0050 sec,  Damping =  .707,  Sensitivity = 5.00 v/g  (Nominal) 
                        Record Length =301.000 sec.                             
                                     Uncor Max  =  -.002 g, at   42.130 sec.    
RMS accel of (uncor) record  =        .   Chn. metadata effective date:         
Accelerogram bandpass filtered with 3 dB pts at   .30 and 23.00 cyc/sec         
                 instrument- and base-line correcte                             
                                                                                
                                                                                
                                                                                
                                                                                
                                                                                
Rcrd of Fri Sep 18, 2020 23:38:38.0 PDT    Fri Sep 18, 2020 23:38:38.0 PDT      
                                                                                
38695658.CI.LDR.--.HN     Mojave, Tehachapi - Willow Springs Rd.   SChan  1:  90
 Deg                                                                            
38695658.CI.LDR.--.HN     Mojave, Tehachapi - Willow Springs Rd.   SChan  1:  90
 Deg                                                                            
Units for spectra are inches and sec, except Sa is in fraction of g.            
                                                                                
    1  100    1    3    3  100 -999    3    1    0  605 3441    050676   41    0
    6   38   38    8  263    9   19 2020   10    3   9036279   39   38   74 -999
36279 -999  100    6 -999 -999 -999 -999 -999 -999 -999 -999 -999 -999 -999 -999
 -999 -999 -999 -99915050    2 -999    0 -999   20 -999 -999    3    1 -99915050
    315050    4   78    1    3    5    0    0 -999    0 -999 -999    6 -999    2
    2    2    4 -999 -999 -999 -999 -999 -999 -999 -999    1 -999 -999 -999  111
    1    1 -999 -999
      .005      .707   362.790      .000     1.000  4996.058     -.002    42.130
   200.000     2.384      .477  -999.000    10.000  -999.000     4.000  -999.000
    20.000   -16.157      .000  -999.000  -999.000  -999.000  -999.000      .000
      .000      .000     2.000    15.000    34.991  -118.342      .001      .001
      .959      .000      .000  1121.000  -999.000  -999.000  -999.000  -999.000
     1.000  -999.000    -8.000  -999.000  -999.000  -999.000  -999.000   120.000
     -.900     2.000     6.800   980.665      .020   301.000    31.831      .000
  -999.000    23.000  -999.000   301.000      .020      .300  -999.000  -999.000
    42.120    -2.231    42.200     -.105    42.120      .009      .000      .300
    23.000      .020      .020      .000      .020      .004  -999.000  -999.000
      .009      .160      .005      .006      .001      .000  -999.000  -999.000
  -999.000  -999.000  -999.000  -999.000  -999.000  -999.000  -999.000  -999.000
  -999.000  -999.000  -999.000  -999.000
      .050
      .040      .042      .044      .046      .048      .050      .055      .060
      .065      .070      .075      .080      .085      .090      .095      .100
      .110      .120      .130      .140      .150      .160      .170      .180
      .190      .200      .220      .240      .260      .280      .300      .320
      .340      .360      .380      .400      .420      .440      .460      .480
      .500      .550      .600      .650      .700      .750      .800      .850
      .900      .950     1.000     1.100     1.200     1.300     1.400     1.500
     1.600     1.700     1.800     1.900     2.000     2.200     2.400     2.600
     2.800     3.000     3.200     3.400     3.600     3.800     4.000     4.200
     4.400     4.600     4.800     5.000     5.500     6.000      .000      .000
      .000      .000      .000      .000      .000      .000      .000      .000
      .000      .000      .000      .000      .000      .000      .000      .000
      .000      .000      .000      .000
Fourier amplitude spectra in in/sec.
  .000E+00  .000E+00  .000E+00  .000E+00  .000E+00  .000E+00  .000E+00  .000E+00
  .000E+00  .000E+00  .000E+00  .000E+00  .000E+00  .000E+00  .000E+00  .000E+00
  .000E+00  .000E+00  .000E+00  .000E+00  .000E+00  .000E+00  .000E+00  .000E+00
  .000E+00  .000E+00  .000E+00  .000E+00  .000E+00  .000E+00  .000E+00  .000E+00
  .000E+00  .000E+00  .000E+00  .000E+00  .000E+00  .000E+00  .000E+00  .000E+00
  .000E+00  .000E+00  .000E+00  .000E+00  .000E+00  .000E+00  .000E+00  .000E+00
  .000E+00  .000E+00  .000E+00  .000E+00  .000E+00  .000E+00  .000E+00  .000E+00
  .000E+00  .000E+00  .000E+00  .000E+00  .000E+00  .000E+00  .000E+00  .000E+00
  .000E+00  .000E+00  .000E+00  .000E+00  .000E+00  .000E+00  .000E+00  .000E+00
  .000E+00  .000E+00  .000E+00  .000E+00  .000E+00  .000E+00  .000E+00  .000E+00
  .000E+00  .000E+00  .000E+00  .000E+00  .000E+00  .000E+00  .000E+00  .000E+00
  .000E+00  .000E+00  .000E+00  .000E+00  .000E+00  .000E+00  .000E+00  .000E+00
  .000E+00  .000E+00  .000E+00  .000E+00
Damping =  .05. Data of Sd,Sv,Sa,Pssv,ttSd,ttSv,ttSa :
  .375E-04  .420E-04  .470E-04  .520E-04  .566E-04  .614E-04  .812E-04  .115E-03
  .134E-03  .163E-03  .174E-03  .202E-03  .212E-03  .233E-03  .284E-03  .275E-03
  .369E-03  .519E-03  .620E-03  .804E-03  .140E-02  .228E-02  .235E-02  .234E-02
  .248E-02  .197E-02  .209E-02  .252E-02  .347E-02  .422E-02  .570E-02  .719E-02
  .778E-02  .782E-02  .767E-02  .677E-02  .540E-02  .516E-02  .476E-02  .435E-02
  .414E-02  .486E-02  .664E-02  .871E-02  .101E-01  .110E-01  .112E-01  .102E-01
  .895E-02  .795E-02  .777E-02  .733E-02  .575E-02  .488E-02  .421E-02  .394E-02
  .389E-02  .401E-02  .418E-02  .395E-02  .392E-02  .443E-02  .424E-02  .419E-02
  .428E-02  .427E-02  .425E-02  .419E-02  .411E-02  .405E-02  .397E-02  .390E-02
  .386E-02  .384E-02  .383E-02  .382E-02  .376E-02  .368E-02  .000E+00  .000E+00
  .000E+00  .000E+00  .000E+00  .000E+00  .000E+00  .000E+00  .000E+00  .000E+00
  .000E+00  .000E+00  .000E+00  .000E+00  .000E+00  .000E+00  .000E+00  .000E+00
  .000E+00  .000E+00  .000E+00  .000E+00
  .111E-02  .126E-02  .151E-02  .177E-02  .201E-02  .223E-02  .288E-02  .430E-02
  .541E-02  .711E-02  .758E-02  .878E-02  .932E-02  .118E-01  .150E-01  .144E-01
  .179E-01  .203E-01  .244E-01  .333E-01  .524E-01  .847E-01  .878E-01  .859E-01
  .848E-01  .631E-01  .550E-01  .556E-01  .846E-01  .963E-01  .126E+00  .149E+00
  .150E+00  .150E+00  .134E+00  .110E+00  .997E-01  .804E-01  .778E-01  .739E-01
  .710E-01  .753E-01  .855E-01  .939E-01  .110E+00  .102E+00  .102E+00  .105E+00
  .102E+00  .929E-01  .826E-01  .659E-01  .534E-01  .494E-01  .479E-01  .457E-01
  .465E-01  .457E-01  .463E-01  .480E-01  .480E-01  .463E-01  .445E-01  .441E-01
  .436E-01  .430E-01  .425E-01  .421E-01  .418E-01  .416E-01  .415E-01  .414E-01
  .413E-01  .413E-01  .413E-01  .412E-01  .411E-01  .410E-01  .000E+00  .000E+00
  .000E+00  .000E+00  .000E+00  .000E+00  .000E+00  .000E+00  .000E+00  .000E+00
  .000E+00  .000E+00  .000E+00  .000E+00  .000E+00  .000E+00  .000E+00  .000E+00
  .000E+00  .000E+00  .000E+00  .000E+00
  .240E-02  .243E-02  .248E-02  .252E-02  .252E-02  .251E-02  .275E-02  .328E-02
  .325E-02  .338E-02  .319E-02  .322E-02  .302E-02  .292E-02  .320E-02  .284E-02
  .311E-02  .371E-02  .372E-02  .422E-02  .633E-02  .910E-02  .839E-02  .743E-02
  .697E-02  .502E-02  .444E-02  .456E-02  .528E-02  .550E-02  .656E-02  .720E-02
  .683E-02  .615E-02  .541E-02  .436E-02  .318E-02  .275E-02  .232E-02  .197E-02
  .170E-02  .165E-02  .190E-02  .213E-02  .211E-02  .202E-02  .180E-02  .145E-02
  .114E-02  .907E-03  .801E-03  .627E-03  .419E-03  .305E-03  .229E-03  .183E-03
  .159E-03  .146E-03  .136E-03  .116E-03  .107E-03  .101E-03  .819E-04  .698E-04
  .621E-04  .547E-04  .485E-04  .430E-04  .382E-04  .343E-04  .308E-04  .279E-04
  .256E-04  .237E-04  .221E-04  .206E-04  .176E-04  .151E-04  .000E+00  .000E+00
  .000E+00  .000E+00  .000E+00  .000E+00  .000E+00  .000E+00  .000E+00  .000E+00
  .000E+00  .000E+00  .000E+00  .000E+00  .000E+00  .000E+00  .000E+00  .000E+00
  .000E+00  .000E+00  .000E+00  .000E+00
  .589E-02  .628E-02  .672E-02  .711E-02  .741E-02  .772E-02  .928E-02  .121E-01
  .130E-01  .146E-01  .146E-01  .159E-01  .157E-01  .162E-01  .188E-01  .173E-01
  .211E-01  .272E-01  .300E-01  .361E-01  .587E-01  .893E-01  .870E-01  .817E-01
  .819E-01  .620E-01  .597E-01  .660E-01  .838E-01  .946E-01  .119E+00  .141E+00
  .144E+00  .137E+00  .127E+00  .106E+00  .808E-01  .737E-01  .650E-01  .570E-01
  .521E-01  .555E-01  .696E-01  .842E-01  .903E-01  .925E-01  .877E-01  .753E-01
  .625E-01  .526E-01  .488E-01  .419E-01  .301E-01  .236E-01  .189E-01  .165E-01
  .153E-01  .148E-01  .146E-01  .130E-01  .123E-01  .127E-01  .111E-01  .101E-01
  .960E-02  .895E-02  .834E-02  .774E-02  .717E-02  .669E-02  .624E-02  .583E-02
  .551E-02  .524E-02  .501E-02  .480E-02  .430E-02  .385E-02  .000E+00  .000E+00
  .000E+00  .000E+00  .000E+00  .000E+00  .000E+00  .000E+00  .000E+00  .000E+00
  .000E+00  .000E+00  .000E+00  .000E+00  .000E+00  .000E+00  .000E+00  .000E+00
  .000E+00  .000E+00  .000E+00  .000E+00
  .421E+02  .421E+02  .421E+02  .421E+02  .421E+02  .421E+02  .421E+02  .421E+02
  .421E+02  .421E+02  .421E+02  .421E+02  .421E+02  .421E+02  .416E+02  .421E+02
  .428E+02  .428E+02  .429E+02  .429E+02  .428E+02  .429E+02  .430E+02  .429E+02
  .429E+02  .429E+02  .423E+02  .423E+02  .423E+02  .426E+02  .426E+02  .425E+02
  .425E+02  .424E+02  .424E+02  .424E+02  .424E+02  .419E+02  .419E+02  .419E+02
  .419E+02  .417E+02  .417E+02  .424E+02  .422E+02  .422E+02  .423E+02  .423E+02
  .423E+02  .420E+02  .421E+02  .421E+02  .421E+02  .416E+02  .416E+02  .413E+02
  .413E+02  .451E+02  .451E+02  .413E+02  .421E+02  .421E+02  .421E+02  .421E+02
  .421E+02  .421E+02  .421E+02  .421E+02  .421E+02  .421E+02  .421E+02  .421E+02
  .421E+02  .421E+02  .421E+02  .421E+02  .421E+02  .421E+02  .000E+00  .000E+00
  .000E+00  .000E+00  .000E+00  .000E+00  .000E+00  .000E+00  .000E+00  .000E+00
  .000E+00  .000E+00  .000E+00  .000E+00  .000E+00  .000E+00  .000E+00  .000E+00
  .000E+00  .000E+00  .000E+00  .000E+00
  .426E+02  .426E+02  .426E+02  .426E+02  .426E+02  .426E+02  .426E+02  .421E+02
  .421E+02  .422E+02  .422E+02  .422E+02  .430E+02  .431E+02  .433E+02  .433E+02
  .431E+02  .428E+02  .428E+02  .431E+02  .428E+02  .430E+02  .430E+02  .430E+02
  .430E+02  .430E+02  .429E+02  .427E+02  .426E+02  .427E+02  .425E+02  .426E+02
  .424E+02  .425E+02  .425E+02  .421E+02  .422E+02  .420E+02  .418E+02  .418E+02
  .419E+02  .419E+02  .419E+02  .423E+02  .424E+02  .424E+02  .422E+02  .422E+02
  .422E+02  .422E+02  .422E+02  .422E+02  .422E+02  .415E+02  .415E+02  .415E+02
  .422E+02  .422E+02  .422E+02  .422E+02  .422E+02  .422E+02  .422E+02  .422E+02
  .422E+02  .422E+02  .422E+02  .422E+02  .422E+02  .422E+02  .422E+02  .422E+02
  .422E+02  .422E+02  .422E+02  .422E+02  .422E+02  .422E+02  .000E+00  .000E+00
  .000E+00  .000E+00  .000E+00  .000E+00  .000E+00  .000E+00  .000E+00  .000E+00
  .000E+00  .000E+00  .000E+00  .000E+00  .000E+00  .000E+00  .000E+00  .000E+00
  .000E+00  .000E+00  .000E+00  .000E+00
  .421E+02  .421E+02  .421E+02  .421E+02  .421E+02  .421E+02  .421E+02  .421E+02
  .421E+02  .421E+02  .421E+02  .421E+02  .421E+02  .421E+02  .416E+02  .416E+02
  .428E+02  .428E+02  .429E+02  .429E+02  .428E+02  .429E+02  .430E+02  .429E+02
  .429E+02  .429E+02  .423E+02  .423E+02  .423E+02  .426E+02  .426E+02  .425E+02
  .425E+02  .424E+02  .424E+02  .424E+02  .424E+02  .419E+02  .419E+02  .419E+02
  .419E+02  .417E+02  .417E+02  .424E+02  .422E+02  .422E+02  .423E+02  .423E+02
  .423E+02  .420E+02  .420E+02  .421E+02  .421E+02  .416E+02  .416E+02  .413E+02
  .413E+02  .450E+02  .451E+02  .413E+02  .421E+02  .421E+02  .421E+02  .421E+02
  .421E+02  .421E+02  .421E+02  .421E+02  .421E+02  .421E+02  .421E+02  .421E+02
  .420E+02  .420E+02  .420E+02  .420E+02  .420E+02  .420E+02  .000E+00  .000E+00
  .000E+00  .000E+00  .000E+00  .000E+00  .000E+00  .000E+00  .000E+00  .000E+00
  .000E+00  .000E+00  .000E+00  .000E+00  .000E+00  .000E+00  .000E+00  .000E+00
  .000E+00  .000E+00  .000E+00  .000E+00
/&   ----------  End of spectral data for channel  1  ----------
Response and Fourier amplitude spectra (78 periods,  .04 -  6.0 sec)   for      
Corrected accelerogram   38695658.CI.LDR.--.HN      Chan  2: 360 Deg     from   
Uncorrected Accelerogram Data             Processed: 09/19/20, CGS  cildr--n    
Rcrd of Fri Sep 18, 2020 23:38:38.0 PDT               (Avol1 v2.0, 4/18 CSMIP)  
                                        (Origin:  To be determined)             
38695658.CI.LDR.--.HN                Start time:  9/19/20, 06:38:38.0 UTC (GPS) 
Station Id. LDR     34.991N, 118.342W    Q330    s/n 3441  (3 Chns of  3 at Sta)
Mojave, Tehachapi - Willow Springs Rd.   SCSN   Data: Acceleration              
Chan  2: 360 Deg                                                                
Rcrd of Fri Sep 18, 2020 23:38:38.0 PDT    Fri Sep 18, 2020 23:38:38.0 PDT      
Hypocenter:  To be determined.               ML:  To be determined.             
Instr Period =  .0050 sec,  Damping =  .707,  Sensitivity = 4.99 v/g  (Nominal) 
                        Record Length =301.000 sec.                             
                                     Uncor Max  =  -.003 g, at   42.140 sec.    
RMS accel of (uncor) record  =        .   Chn. metadata effective date:         
Accelerogram bandpass filtered with 3 dB pts at   .30 and 23.00 cyc/sec         
                 instrument- and base-line correcte                             
                                                                                
                                                                                
                                                                                
                                                                                
                                                                                
Rcrd of Fri Sep 18, 2020 23:38:38.0 PDT    Fri Sep 18, 2020 23:38:38.0 PDT      
                                                                                
38695658.CI.LDR.--.HN     Mojave, Tehachapi - Willow Springs Rd.   SChan  2: 360
 Deg                                                                            
38695658.CI.LDR.--.HN     Mojave, Tehachapi - Willow Springs Rd.   SChan  2: 360
 Deg                                                                            
Units for spectra are inches and sec, except Sa is in fraction of g.            
                                                                                
    2  100    2    3    3  100 -999    3    1    0  605 3441    050676   41    0
    6   38   38    8  263    9   19 2020   10    3  36036196   39   38   74 -999
36196 -999  100    6 -999 -999 -999 -999 -999 -999 -999 -999 -999 -999 -999 -999
 -999 -999 -999 -99915050    2 -999    0 -999   20 -999 -999    3    1 -99915050
    315050    4   78    1    3    5    0    0 -999    0 -999 -999    6 -999    2
    2    2    4 -999 -999 -999 -999 -999 -999 -999 -999    1 -999 -999 -999  111
    1    1 -999 -999
      .005      .707   361.960      .000     1.000  4989.676     -.003    42.140
   200.000     2.384      .478  -999.000    10.000  -999.000     4.000  -999.000
    20.000   -47.936      .000  -999.000  -999.000  -999.000  -999.000      .001
     -.001     -.002     2.000    15.000    34.991  -118.342      .001      .001
      .981     -.002     -.001  1121.000  -999.000  -999.000  -999.000  -999.000
     1.000  -999.000  -999.000  -999.000  -999.000  -999.000  -999.000   120.000
     -.900     2.000     6.800   980.665      .020   301.000    31.831      .000
  -999.000    23.000  -999.000   301.000      .020      .300  -999.000  -999.000
    42.140    -2.853    42.200     -.147    42.120      .010      .000      .300
    23.000      .020      .020      .000      .020      .003  -999.000  -999.000
      .010      .280      .005      .010      .001      .000  -999.000  -999.000
  -999.000  -999.000  -999.000  -999.000  -999.000  -999.000  -999.000  -999.000
  -999.000  -999.000  -999.000  -999.000
      .050
      .040      .042      .044      .046      .048      .050      .055      .060
      .065      .070      .075      .080      .085      .090      .095      .100
      .110      .120      .130      .140      .150      .160      .170      .180
      .190      .200      .220      .240      .260      .280      .300      .320
      .340      .360      .380      .400      .420      .440      .460      .480
      .500      .550      .600      .650      .700      .750      .800      .850
      .900      .950     1.000     1.100     1.200     1.300     1.400     1.500
     1.600     1.700     1.800     1.900     2.000     2.200     2.400     2.600
     2.800     3.000     3.200     3.400     3.600     3.800     4.000     4.200
     4.400     4.600     4.800     5.000     5.500     6.000      .000      .000
      .000      .000      .000      .000      .000      .000      .000      .000
      .000      .000      .000      .000      .000      .000      .000      .000
      .000      .000      .000      .000
Fourier amplitude spectra in in/sec.
  .000E+00  .000E+00  .000E+00  .000E+00  .000E+00  .000E+00  .000E+00  .000E+00
  .000E+00  .000E+00  .000E+00  .000E+00  .000E+00  .000E+00  .000E+00  .000E+00
  .000E+00  .000E+00  .000E+00  .000E+00  .000E+00  .000E+00  .000E+00  .000E+00
  .000E+00  .000E+00  .000E+00  .000E+00  .000E+00  .000E+00  .000E+00  .000E+00
  .000E+00  .000E+00  .000E+00  .000E+00  .000E+00  .000E+00  .000E+00  .000E+00
  .000E+00  .000E+00  .000E+00  .000E+00  .000E+00  .000E+00  .000E+00  .000E+00
  .000E+00  .000E+00  .000E+00  .000E+00  .000E+00  .000E+00  .000E+00  .000E+00
  .000E+00  .000E+00  .000E+00  .000E+00  .000E+00  .000E+00  .000E+00  .000E+00
  .000E+00  .000E+00  .000E+00  .000E+00  .000E+00  .000E+00  .000E+00  .000E+00
  .000E+00  .000E+00  .000E+00  .000E+00  .000E+00  .000E+00  .000E+00  .000E+00
  .000E+00  .000E+00  .000E+00  .000E+00  .000E+00  .000E+00  .000E+00  .000E+00
  .000E+00  .000E+00  .000E+00  .000E+00  .000E+00  .000E+00  .000E+00  .000E+00
  .000E+00  .000E+00  .000E+00  .000E+00
Damping =  .05. Data of Sd,Sv,Sa,Pssv,ttSd,ttSv,ttSa :
  .470E-04  .519E-04  .575E-04  .635E-04  .698E-04  .763E-04  .102E-03  .128E-03
  .153E-03  .179E-03  .215E-03  .251E-03  .291E-03  .372E-03  .440E-03  .429E-03
  .482E-03  .660E-03  .847E-03  .109E-02  .145E-02  .178E-02  .170E-02  .163E-02
  .162E-02  .189E-02  .291E-02  .478E-02  .639E-02  .764E-02  .866E-02  .943E-02
  .937E-02  .874E-02  .743E-02  .613E-02  .560E-02  .502E-02  .420E-02  .423E-02
