Response and Fourier amplitude spectra (78 periods,  .04 -  6.0 sec)   for      
Corrected accelerogram   38695658.CI.LEO.--.HN      Chan  1:  90 Deg     from   
Uncorrected Accelerogram Data             Processed: 09/19/20, CGS  cileo--p    
Rcrd of Fri Sep 18, 2020 23:38:31.0 PDT               (Avol1 v2.0, 4/18 CSMIP)  
                                        (Origin:  To be determined)             
38695658.CI.LEO.--.HN                Start time:  9/19/20, 06:38:31.0 UTC (GPS) 
Station Id. LEO     34.631N, 118.305W    ObsMMS  s/n  255  (3 Chns of  6 at Sta)
Leona Valley                             SCSN   Data: Acceleration              
Chan  1:  90 Deg                                                                
Rcrd of Fri Sep 18, 2020 23:38:31.0 PDT    Fri Sep 18, 2020 23:38:31.0 PDT      
Hypocenter:  To be determined.               ML:  To be determined.             
Instr Period =  .0050 sec,  Damping =  .707,  Sensitivity = 4.99 v/g  (Nominal) 
                        Record Length =301.000 sec.                             
                                     Uncor Max  =   .002 g, at   41.080 sec.    
RMS accel of (uncor) record  =        .   Chn. metadata effective date:         
Accelerogram bandpass filtered with 3 dB pts at   .30 and 23.00 cyc/sec         
                 instrument- and base-line correcte                             
                                                                                
                                                                                
                                                                                
                                                                                
                                                                                
Rcrd of Fri Sep 18, 2020 23:38:31.0 PDT    Fri Sep 18, 2020 23:38:31.0 PDT      
                                                                                
38695658.CI.LEO.--.HN     Leona Valley    Chan  1:  90 Deg                      
                                                                                
38695658.CI.LEO.--.HN     Leona Valley    Chan  1:  90 Deg                      
                                                                                
Units for spectra are inches and sec, except Sa is in fraction of g.            
                                                                                
    1  100    1    6    6  100 -999    3    1    0   15  255    050797   41    0
    6   38   31   10  263    9   19 2020   10    3   9036531   39   12   74 -999
36531 -999  100    6 -999 -999 -999 -999 -999 -999 -999 -999 -999 -999 -999 -999
 -999 -999 -999 -99915050    2 -999    0 -999   20 -999 -999    3    1 -99915050
    315050    4   78    1    3    5    0    0 -999    0 -999 -999    6 -999    2
    2    2    4 -999 -999 -999 -999 -999 -999 -999 -999    1 -999 -999 -999  111
    1    1 -999 -999
      .005      .707   365.310      .000     1.000  4987.282      .002    41.080
   200.000     2.384      .478  -999.000    10.000  -999.000     4.000  -999.000
    20.000   -18.830      .000  -999.000  -999.000  -999.000  -999.000     -.005
      .005      .010     2.000    15.000    34.631  -118.305      .001      .001
      .979      .009      .010  1025.000  -999.000  -999.000  -999.000  -999.000
     1.000  -999.000    -8.000  -999.000  -999.000  -999.000  -999.000   120.000
     -.900     2.000     6.800   980.665      .020   301.000    31.831     -.001
  -999.000    23.000  -999.000   301.000      .020      .300  -999.000  -999.000
    39.500     1.517    41.400      .053    41.560      .006      .000      .300
    23.000      .020      .020      .000      .020      .003  -999.000  -999.000
      .006      .090      .004      .002      .001      .000  -999.000  -999.000
  -999.000  -999.000  -999.000  -999.000  -999.000  -999.000  -999.000  -999.000
  -999.000  -999.000  -999.000  -999.000
      .050
      .040      .042      .044      .046      .048      .050      .055      .060
      .065      .070      .075      .080      .085      .090      .095      .100
      .110      .120      .130      .140      .150      .160      .170      .180
      .190      .200      .220      .240      .260      .280      .300      .320
      .340      .360      .380      .400      .420      .440      .460      .480
      .500      .550      .600      .650      .700      .750      .800      .850
      .900      .950     1.000     1.100     1.200     1.300     1.400     1.500
     1.600     1.700     1.800     1.900     2.000     2.200     2.400     2.600
     2.800     3.000     3.200     3.400     3.600     3.800     4.000     4.200
     4.400     4.600     4.800     5.000     5.500     6.000      .000      .000
      .000      .000      .000      .000      .000      .000      .000      .000
      .000      .000      .000      .000      .000      .000      .000      .000
      .000      .000      .000      .000
Fourier amplitude spectra in in/sec.
  .000E+00  .000E+00  .000E+00  .000E+00  .000E+00  .000E+00  .000E+00  .000E+00
  .000E+00  .000E+00  .000E+00  .000E+00  .000E+00  .000E+00  .000E+00  .000E+00
  .000E+00  .000E+00  .000E+00  .000E+00  .000E+00  .000E+00  .000E+00  .000E+00
  .000E+00  .000E+00  .000E+00  .000E+00  .000E+00  .000E+00  .000E+00  .000E+00
  .000E+00  .000E+00  .000E+00  .000E+00  .000E+00  .000E+00  .000E+00  .000E+00
  .000E+00  .000E+00  .000E+00  .000E+00  .000E+00  .000E+00  .000E+00  .000E+00
  .000E+00  .000E+00  .000E+00  .000E+00  .000E+00  .000E+00  .000E+00  .000E+00
  .000E+00  .000E+00  .000E+00  .000E+00  .000E+00  .000E+00  .000E+00  .000E+00
  .000E+00  .000E+00  .000E+00  .000E+00  .000E+00  .000E+00  .000E+00  .000E+00
  .000E+00  .000E+00  .000E+00  .000E+00  .000E+00  .000E+00  .000E+00  .000E+00
  .000E+00  .000E+00  .000E+00  .000E+00  .000E+00  .000E+00  .000E+00  .000E+00
  .000E+00  .000E+00  .000E+00  .000E+00  .000E+00  .000E+00  .000E+00  .000E+00
  .000E+00  .000E+00  .000E+00  .000E+00
Damping =  .05. Data of Sd,Sv,Sa,Pssv,ttSd,ttSv,ttSa :
  .278E-04  .322E-04  .368E-04  .413E-04  .495E-04  .600E-04  .859E-04  .974E-04
  .127E-03  .173E-03  .246E-03  .329E-03  .425E-03  .499E-03  .526E-03  .565E-03
  .632E-03  .632E-03  .699E-03  .801E-03  .796E-03  .822E-03  .102E-02  .967E-03
  .121E-02  .151E-02  .211E-02  .292E-02  .246E-02  .195E-02  .199E-02  .200E-02
  .189E-02  .193E-02  .205E-02  .189E-02  .173E-02  .163E-02  .152E-02  .174E-02
  .187E-02  .309E-02  .405E-02  .472E-02  .428E-02  .523E-02  .645E-02  .693E-02
  .808E-02  .710E-02  .620E-02  .441E-02  .425E-02  .529E-02  .511E-02  .543E-02
  .585E-02  .596E-02  .531E-02  .527E-02  .457E-02  .357E-02  .387E-02  .379E-02
  .364E-02  .355E-02  .324E-02  .289E-02  .257E-02  .237E-02  .232E-02  .239E-02
  .248E-02  .252E-02  .252E-02  .248E-02  .239E-02  .234E-02  .000E+00  .000E+00
  .000E+00  .000E+00  .000E+00  .000E+00  .000E+00  .000E+00  .000E+00  .000E+00
  .000E+00  .000E+00  .000E+00  .000E+00  .000E+00  .000E+00  .000E+00  .000E+00
  .000E+00  .000E+00  .000E+00  .000E+00
  .222E-02  .231E-02  .263E-02  .314E-02  .416E-02  .464E-02  .804E-02  .964E-02
  .108E-01  .122E-01  .175E-01  .227E-01  .274E-01  .324E-01  .336E-01  .347E-01
  .357E-01  .329E-01  .334E-01  .346E-01  .327E-01  .303E-01  .338E-01  .323E-01
  .350E-01  .415E-01  .587E-01  .763E-01  .627E-01  .506E-01  .460E-01  .434E-01
  .389E-01  .327E-01  .321E-01  .341E-01  .298E-01  .246E-01  .265E-01  .270E-01
  .224E-01  .296E-01  .396E-01  .474E-01  .419E-01  .459E-01  .506E-01  .554E-01
  .590E-01  .510E-01  .425E-01  .301E-01  .254E-01  .293E-01  .290E-01  .262E-01
  .290E-01  .271E-01  .288E-01  .274E-01  .281E-01  .246E-01  .220E-01  .213E-01
  .223E-01  .231E-01  .233E-01  .231E-01  .226E-01  .221E-01  .217E-01  .214E-01
  .213E-01  .213E-01  .213E-01  .213E-01  .212E-01  .211E-01  .000E+00  .000E+00
  .000E+00  .000E+00  .000E+00  .000E+00  .000E+00  .000E+00  .000E+00  .000E+00
  .000E+00  .000E+00  .000E+00  .000E+00  .000E+00  .000E+00  .000E+00  .000E+00
  .000E+00  .000E+00  .000E+00  .000E+00
  .177E-02  .187E-02  .196E-02  .199E-02  .219E-02  .244E-02  .295E-02  .278E-02
  .307E-02  .359E-02  .449E-02  .533E-02  .607E-02  .636E-02  .608E-02  .574E-02
  .537E-02  .448E-02  .424E-02  .415E-02  .364E-02  .327E-02  .364E-02  .305E-02
  .341E-02  .386E-02  .455E-02  .521E-02  .367E-02  .255E-02  .232E-02  .204E-02
  .167E-02  .155E-02  .148E-02  .122E-02  .101E-02  .865E-03  .739E-03  .772E-03
  .766E-03  .104E-02  .115E-02  .115E-02  .896E-03  .953E-03  .104E-02  .987E-03
  .103E-02  .809E-03  .638E-03  .376E-03  .304E-03  .323E-03  .269E-03  .248E-03
  .235E-03  .213E-03  .169E-03  .152E-03  .120E-03  .783E-04  .718E-04  .604E-04
  .499E-04  .427E-04  .346E-04  .278E-04  .228E-04  .206E-04  .180E-04  .160E-04
  .151E-04  .142E-04  .131E-04  .120E-04  .101E-04  .876E-05  .000E+00  .000E+00
  .000E+00  .000E+00  .000E+00  .000E+00  .000E+00  .000E+00  .000E+00  .000E+00
  .000E+00  .000E+00  .000E+00  .000E+00  .000E+00  .000E+00  .000E+00  .000E+00
  .000E+00  .000E+00  .000E+00  .000E+00
  .437E-02  .482E-02  .526E-02  .564E-02  .649E-02  .755E-02  .981E-02  .102E-01
  .123E-01  .155E-01  .206E-01  .258E-01  .314E-01  .348E-01  .348E-01  .355E-01
  .361E-01  .331E-01  .338E-01  .359E-01  .333E-01  .323E-01  .376E-01  .337E-01
  .399E-01  .474E-01  .603E-01  .765E-01  .594E-01  .437E-01  .418E-01  .392E-01
  .349E-01  .338E-01  .340E-01  .297E-01  .259E-01  .233E-01  .208E-01  .228E-01
  .235E-01  .353E-01  .424E-01  .456E-01  .385E-01  .438E-01  .507E-01  .512E-01
  .564E-01  .469E-01  .390E-01  .252E-01  .222E-01  .256E-01  .229E-01  .228E-01
  .230E-01  .220E-01  .185E-01  .174E-01  .144E-01  .102E-01  .101E-01  .916E-02
  .818E-02  .744E-02  .636E-02  .535E-02  .449E-02  .392E-02  .364E-02  .358E-02
  .354E-02  .344E-02  .330E-02  .311E-02  .273E-02  .245E-02  .000E+00  .000E+00
  .000E+00  .000E+00  .000E+00  .000E+00  .000E+00  .000E+00  .000E+00  .000E+00
  .000E+00  .000E+00  .000E+00  .000E+00  .000E+00  .000E+00  .000E+00  .000E+00
  .000E+00  .000E+00  .000E+00  .000E+00
  .374E+02  .374E+02  .374E+02  .411E+02  .395E+02  .395E+02  .372E+02  .369E+02
  .395E+02  .365E+02  .398E+02  .365E+02  .366E+02  .366E+02  .367E+02  .367E+02
  .367E+02  .367E+02  .411E+02  .401E+02  .401E+02  .384E+02  .385E+02  .386E+02
  .386E+02  .386E+02  .389E+02  .390E+02  .389E+02  .383E+02  .382E+02  .381E+02
  .398E+02  .416E+02  .411E+02  .402E+02  .396E+02  .416E+02  .416E+02  .471E+02
  .416E+02  .416E+02  .435E+02  .475E+02  .421E+02  .476E+02  .421E+02  .440E+02
  .445E+02  .442E+02  .442E+02  .443E+02  .419E+02  .419E+02  .443E+02  .532E+02
  .438E+02  .439E+02  .439E+02  .434E+02  .434E+02  .434E+02  .434E+02  .434E+02
  .415E+02  .415E+02  .415E+02  .415E+02  .415E+02  .415E+02  .415E+02  .415E+02
  .415E+02  .415E+02  .415E+02  .415E+02  .415E+02  .415E+02  .000E+00  .000E+00
  .000E+00  .000E+00  .000E+00  .000E+00  .000E+00  .000E+00  .000E+00  .000E+00
  .000E+00  .000E+00  .000E+00  .000E+00  .000E+00  .000E+00  .000E+00  .000E+00
  .000E+00  .000E+00  .000E+00  .000E+00
  .290E+02  .290E+02  .290E+02  .395E+02  .395E+02  .395E+02  .375E+02  .369E+02
  .369E+02  .365E+02  .399E+02  .366E+02  .366E+02  .366E+02  .366E+02  .366E+02
  .366E+02  .367E+02  .411E+02  .401E+02  .401E+02  .400E+02  .384E+02  .375E+02
  .386E+02  .386E+02  .390E+02  .389E+02  .389E+02  .384E+02  .383E+02  .391E+02
  .397E+02  .410E+02  .397E+02  .411E+02  .402E+02  .402E+02  .366E+02  .366E+02
  .411E+02  .417E+02  .418E+02  .477E+02  .422E+02  .474E+02  .419E+02  .468E+02
  .443E+02  .444E+02  .445E+02  .431E+02  .422E+02  .417E+02  .417E+02  .442E+02
  .442E+02  .437E+02  .437E+02  .414E+02  .414E+02  .414E+02  .414E+02  .414E+02
  .414E+02  .414E+02  .414E+02  .414E+02  .414E+02  .414E+02  .414E+02  .414E+02
  .414E+02  .414E+02  .414E+02  .414E+02  .414E+02  .414E+02  .000E+00  .000E+00
  .000E+00  .000E+00  .000E+00  .000E+00  .000E+00  .000E+00  .000E+00  .000E+00
  .000E+00  .000E+00  .000E+00  .000E+00  .000E+00  .000E+00  .000E+00  .000E+00
  .000E+00  .000E+00  .000E+00  .000E+00
  .374E+02  .374E+02  .374E+02  .411E+02  .395E+02  .395E+02  .375E+02  .369E+02
  .372E+02  .365E+02  .398E+02  .365E+02  .366E+02  .366E+02  .367E+02  .367E+02
  .367E+02  .367E+02  .411E+02  .401E+02  .401E+02  .384E+02  .384E+02  .385E+02
  .386E+02  .386E+02  .389E+02  .390E+02  .389E+02  .383E+02  .382E+02  .381E+02
  .381E+02  .416E+02  .411E+02  .402E+02  .396E+02  .416E+02  .416E+02  .471E+02
  .416E+02  .416E+02  .435E+02  .475E+02  .421E+02  .476E+02  .421E+02  .418E+02
  .445E+02  .442E+02  .442E+02  .443E+02  .419E+02  .419E+02  .443E+02  .532E+02
  .438E+02  .438E+02  .439E+02  .433E+02  .434E+02  .434E+02  .434E+02  .434E+02
  .415E+02  .415E+02  .415E+02  .415E+02  .410E+02  .410E+02  .410E+02  .415E+02
  .415E+02  .415E+02  .415E+02  .415E+02  .414E+02  .414E+02  .000E+00  .000E+00
  .000E+00  .000E+00  .000E+00  .000E+00  .000E+00  .000E+00  .000E+00  .000E+00
  .000E+00  .000E+00  .000E+00  .000E+00  .000E+00  .000E+00  .000E+00  .000E+00
  .000E+00  .000E+00  .000E+00  .000E+00
/&   ----------  End of spectral data for channel  1  ----------
Response and Fourier amplitude spectra (78 periods,  .04 -  6.0 sec)   for      
Corrected accelerogram   38695658.CI.LEO.--.HN      Chan  2: 360 Deg     from   
Uncorrected Accelerogram Data             Processed: 09/19/20, CGS  cileo--p    
Rcrd of Fri Sep 18, 2020 23:38:31.0 PDT               (Avol1 v2.0, 4/18 CSMIP)  
                                        (Origin:  To be determined)             
38695658.CI.LEO.--.HN                Start time:  9/19/20, 06:38:31.0 UTC (GPS) 
Station Id. LEO     34.631N, 118.305W    ObsMMS  s/n  255  (3 Chns of  6 at Sta)
Leona Valley                             SCSN   Data: Acceleration              
Chan  2: 360 Deg                                                                
Rcrd of Fri Sep 18, 2020 23:38:31.0 PDT    Fri Sep 18, 2020 23:38:31.0 PDT      
Hypocenter:  To be determined.               ML:  To be determined.             
Instr Period =  .0050 sec,  Damping =  .707,  Sensitivity = 4.99 v/g  (Nominal) 
                        Record Length =301.000 sec.                             
                                     Uncor Max  =   .002 g, at   36.090 sec.    
RMS accel of (uncor) record  =        .   Chn. metadata effective date:         
Accelerogram bandpass filtered with 3 dB pts at   .30 and 23.00 cyc/sec         
                 instrument- and base-line correcte                             
                                                                                
                                                                                
                                                                                
                                                                                
                                                                                
Rcrd of Fri Sep 18, 2020 23:38:31.0 PDT    Fri Sep 18, 2020 23:38:31.0 PDT      
                                                                                
38695658.CI.LEO.--.HN     Leona Valley    Chan  2: 360 Deg                      
                                                                                
38695658.CI.LEO.--.HN     Leona Valley    Chan  2: 360 Deg                      
                                                                                
Units for spectra are inches and sec, except Sa is in fraction of g.            
                                                                                
    2  100    2    6    6  100 -999    3    1    0   15  255    050797   41    0
    6   38   31    0  263    9   19 2020   10    3  36036336   39   12   74 -999
36336 -999  100    6 -999 -999 -999 -999 -999 -999 -999 -999 -999 -999 -999 -999
 -999 -999 -999 -99915050    2 -999    0 -999   20 -999 -999    3    1 -99915050
    315050    4   78    1    3    5    0    0 -999    0 -999 -999    6 -999    2
    2    2    4 -999 -999 -999 -999 -999 -999 -999 -999    1 -999 -999 -999  111
    1    1 -999 -999
      .005      .707   363.360      .000     1.000  4992.069      .002    36.090
   200.000     2.384      .478  -999.000    10.000  -999.000     4.000  -999.000
    20.000   -33.464      .000  -999.000  -999.000  -999.000  -999.000      .003
     -.003     -.006     2.000    15.000    34.631  -118.305      .001      .001
      .993     -.006     -.006  1025.000  -999.000  -999.000  -999.000  -999.000
     1.000  -999.000  -999.000  -999.000  -999.000  -999.000  -999.000   120.000
     -.900     2.000     6.800   980.665      .020   301.000    31.831      .000
  -999.000    23.000  -999.000   301.000      .020      .300  -999.000  -999.000
    39.080    -1.450    42.000     -.047    42.100     -.007      .000      .300
    23.000      .020      .020      .000      .020      .003  -999.000  -999.000
      .005      .080      .003      .003      .001      .000  -999.000  -999.000
  -999.000  -999.000  -999.000  -999.000  -999.000  -999.000  -999.000  -999.000
  -999.000  -999.000  -999.000  -999.000
      .050
      .040      .042      .044      .046      .048      .050      .055      .060
      .065      .070      .075      .080      .085      .090      .095      .100
      .110      .120      .130      .140      .150      .160      .170      .180
      .190      .200      .220      .240      .260      .280      .300      .320
      .340      .360      .380      .400      .420      .440      .460      .480
      .500      .550      .600      .650      .700      .750      .800      .850
      .900      .950     1.000     1.100     1.200     1.300     1.400     1.500
     1.600     1.700     1.800     1.900     2.000     2.200     2.400     2.600
     2.800     3.000     3.200     3.400     3.600     3.800     4.000     4.200
     4.400     4.600     4.800     5.000     5.500     6.000      .000      .000
      .000      .000      .000      .000      .000      .000      .000      .000
      .000      .000      .000      .000      .000      .000      .000      .000
      .000      .000      .000      .000
Fourier amplitude spectra in in/sec.
  .000E+00  .000E+00  .000E+00  .000E+00  .000E+00  .000E+00  .000E+00  .000E+00
  .000E+00  .000E+00  .000E+00  .000E+00  .000E+00  .000E+00  .000E+00  .000E+00
  .000E+00  .000E+00  .000E+00  .000E+00  .000E+00  .000E+00  .000E+00  .000E+00
  .000E+00  .000E+00  .000E+00  .000E+00  .000E+00  .000E+00  .000E+00  .000E+00
  .000E+00  .000E+00  .000E+00  .000E+00  .000E+00  .000E+00  .000E+00  .000E+00
  .000E+00  .000E+00  .000E+00  .000E+00  .000E+00  .000E+00  .000E+00  .000E+00
  .000E+00  .000E+00  .000E+00  .000E+00  .000E+00  .000E+00  .000E+00  .000E+00
  .000E+00  .000E+00  .000E+00  .000E+00  .000E+00  .000E+00  .000E+00  .000E+00
  .000E+00  .000E+00  .000E+00  .000E+00  .000E+00  .000E+00  .000E+00  .000E+00
  .000E+00  .000E+00  .000E+00  .000E+00  .000E+00  .000E+00  .000E+00  .000E+00
  .000E+00  .000E+00  .000E+00  .000E+00  .000E+00  .000E+00  .000E+00  .000E+00
  .000E+00  .000E+00  .000E+00  .000E+00  .000E+00  .000E+00  .000E+00  .000E+00
  .000E+00  .000E+00  .000E+00  .000E+00
Damping =  .05. Data of Sd,Sv,Sa,Pssv,ttSd,ttSv,ttSa :
  .286E-04  .335E-04  .376E-04  .413E-04  .453E-04  .562E-04  .748E-04  .981E-04
  .132E-03  .186E-03  .238E-03  .304E-03  .321E-03  .313E-03  .368E-03  .467E-03
  .473E-03  .449E-03  .408E-03  .514E-03  .669E-03  .849E-03  .889E-03  .964E-03
  .135E-02  .122E-02  .124E-02  .169E-02  .149E-02  .171E-02  .229E-02  .288E-02
  .265E-02  .226E-02  .203E-02  .215E-02  .214E-02  .191E-02  .191E-02  .216E-02
