Response and Fourier amplitude spectra (78 periods,  .04 -  6.0 sec)   for      
Corrected accelerogram   38695658.CI.LFP.--.HN      Chan  1:  90 Deg     from   
Uncorrected Accelerogram Data             Processed: 09/19/20, CGS  cilfp--u    
Rcrd of Fri Sep 18, 2020 23:38:32.0 PDT               (Avol1 v2.0, 4/18 CSMIP)  
                                        (Origin:  To be determined)             
38695658.CI.LFP.--.HN                Start time:  9/19/20, 06:38:32.0 UTC (GPS) 
Station Id. LFP     34.305N, 118.488W    ObsMMS  s/n 4132  (3 Chns of  6 at Sta)
Sylmar, I-5 at Los Angeles               SCSN   Data: Acceleration              
Chan  1:  90 Deg                                                                
Rcrd of Fri Sep 18, 2020 23:38:32.0 PDT    Fri Sep 18, 2020 23:38:32.0 PDT      
Hypocenter:  To be determined.               ML:  To be determined.             
Instr Period =  .0050 sec,  Damping =  .707,  Sensitivity = 4.99 v/g  (Nominal) 
                        Record Length =301.000 sec.                             
                                     Uncor Max  =  -.006 g, at   31.360 sec.    
RMS accel of (uncor) record  =        .   Chn. metadata effective date:         
Accelerogram bandpass filtered with 3 dB pts at   .30 and 23.00 cyc/sec         
                 instrument- and base-line correcte                             
                                                                                
                                                                                
                                                                                
                                                                                
                                                                                
Rcrd of Fri Sep 18, 2020 23:38:32.0 PDT    Fri Sep 18, 2020 23:38:32.0 PDT      
                                                                                
38695658.CI.LFP.--.HN     Sylmar, I-5 at Los Angeles    Chan  1:  90 Deg        
                                                                                
38695658.CI.LFP.--.HN     Sylmar, I-5 at Los Angeles    Chan  1:  90 Deg        
                                                                                
Units for spectra are inches and sec, except Sa is in fraction of g.            
                                                                                
    1  100    1    6    6  100 -999    3    1    0   15 4132    050621   41    0
    6   38   32    8  263    9   19 2020   10    3   9035612   39   26   74 -999
35612 -999  100    6 -999 -999 -999 -999 -999 -999 -999 -999 -999 -999 -999 -999
 -999 -999 -999 -99915050    2 -999    0 -999   20 -999 -999    3    1 -99915050
    315050    4   78    1    3    5    0    0 -999    0 -999 -999    6 -999    2
    2    2    4 -999 -999 -999 -999 -999 -999 -999 -999    1 -999 -999 -999  111
    1    1 -999 -999
      .005      .707   356.120      .000     1.000  4992.867     -.006    31.360
   200.000     2.384      .478  -999.000    10.000  -999.000     4.000  -999.000
    20.000   -13.078      .000  -999.000  -999.000  -999.000  -999.000      .000
     -.001      .000     2.000    15.000    34.305  -118.488      .013      .013
     1.054     -.003      .002   368.000  -999.000  -999.000  -999.000  -999.000
     1.000  -999.000    -8.000  -999.000  -999.000  -999.000  -999.000   120.000
     -.900     2.000     6.800   980.665      .020   301.000    31.831      .000
  -999.000    23.000  -999.000   301.000      .020      .300  -999.000  -999.000
    31.360    -5.468    33.260      .174    43.880     -.017      .000      .300
    23.000      .020      .020      .000      .020      .014  -999.000  -999.000
      .021      .100      .014      .014      .002      .000  -999.000  -999.000
  -999.000  -999.000  -999.000  -999.000  -999.000  -999.000  -999.000  -999.000
  -999.000  -999.000  -999.000  -999.000
      .050
      .040      .042      .044      .046      .048      .050      .055      .060
      .065      .070      .075      .080      .085      .090      .095      .100
      .110      .120      .130      .140      .150      .160      .170      .180
      .190      .200      .220      .240      .260      .280      .300      .320
      .340      .360      .380      .400      .420      .440      .460      .480
      .500      .550      .600      .650      .700      .750      .800      .850
      .900      .950     1.000     1.100     1.200     1.300     1.400     1.500
     1.600     1.700     1.800     1.900     2.000     2.200     2.400     2.600
     2.800     3.000     3.200     3.400     3.600     3.800     4.000     4.200
     4.400     4.600     4.800     5.000     5.500     6.000      .000      .000
      .000      .000      .000      .000      .000      .000      .000      .000
      .000      .000      .000      .000      .000      .000      .000      .000
      .000      .000      .000      .000
Fourier amplitude spectra in in/sec.
  .000E+00  .000E+00  .000E+00  .000E+00  .000E+00  .000E+00  .000E+00  .000E+00
  .000E+00  .000E+00  .000E+00  .000E+00  .000E+00  .000E+00  .000E+00  .000E+00
  .000E+00  .000E+00  .000E+00  .000E+00  .000E+00  .000E+00  .000E+00  .000E+00
  .000E+00  .000E+00  .000E+00  .000E+00  .000E+00  .000E+00  .000E+00  .000E+00
  .000E+00  .000E+00  .000E+00  .000E+00  .000E+00  .000E+00  .000E+00  .000E+00
  .000E+00  .000E+00  .000E+00  .000E+00  .000E+00  .000E+00  .000E+00  .000E+00
  .000E+00  .000E+00  .000E+00  .000E+00  .000E+00  .000E+00  .000E+00  .000E+00
  .000E+00  .000E+00  .000E+00  .000E+00  .000E+00  .000E+00  .000E+00  .000E+00
  .000E+00  .000E+00  .000E+00  .000E+00  .000E+00  .000E+00  .000E+00  .000E+00
  .000E+00  .000E+00  .000E+00  .000E+00  .000E+00  .000E+00  .000E+00  .000E+00
  .000E+00  .000E+00  .000E+00  .000E+00  .000E+00  .000E+00  .000E+00  .000E+00
  .000E+00  .000E+00  .000E+00  .000E+00  .000E+00  .000E+00  .000E+00  .000E+00
  .000E+00  .000E+00  .000E+00  .000E+00
Damping =  .05. Data of Sd,Sv,Sa,Pssv,ttSd,ttSv,ttSa :
  .895E-04  .999E-04  .112E-03  .128E-03  .148E-03  .164E-03  .200E-03  .286E-03
  .313E-03  .438E-03  .524E-03  .692E-03  .936E-03  .144E-02  .173E-02  .207E-02
  .206E-02  .171E-02  .214E-02  .237E-02  .291E-02  .367E-02  .440E-02  .522E-02
  .523E-02  .519E-02  .618E-02  .839E-02  .694E-02  .110E-01  .125E-01  .115E-01
  .114E-01  .117E-01  .117E-01  .118E-01  .105E-01  .964E-02  .115E-01  .134E-01
  .141E-01  .153E-01  .160E-01  .166E-01  .168E-01  .157E-01  .149E-01  .173E-01
  .177E-01  .222E-01  .273E-01  .251E-01  .184E-01  .179E-01  .192E-01  .175E-01
  .180E-01  .143E-01  .132E-01  .131E-01  .147E-01  .149E-01  .129E-01  .980E-02
  .925E-02  .105E-01  .110E-01  .982E-02  .950E-02  .946E-02  .868E-02  .775E-02
  .760E-02  .762E-02  .738E-02  .715E-02  .732E-02  .711E-02  .000E+00  .000E+00
  .000E+00  .000E+00  .000E+00  .000E+00  .000E+00  .000E+00  .000E+00  .000E+00
  .000E+00  .000E+00  .000E+00  .000E+00  .000E+00  .000E+00  .000E+00  .000E+00
  .000E+00  .000E+00  .000E+00  .000E+00
  .502E-02  .564E-02  .651E-02  .746E-02  .783E-02  .912E-02  .116E-01  .185E-01
  .234E-01  .282E-01  .321E-01  .414E-01  .564E-01  .835E-01  .101E+00  .122E+00
  .116E+00  .889E-01  .891E-01  .975E-01  .121E+00  .138E+00  .155E+00  .183E+00
  .174E+00  .168E+00  .173E+00  .213E+00  .168E+00  .243E+00  .275E+00  .248E+00
  .239E+00  .210E+00  .193E+00  .184E+00  .169E+00  .149E+00  .161E+00  .190E+00
  .199E+00  .201E+00  .199E+00  .200E+00  .163E+00  .157E+00  .132E+00  .135E+00
  .141E+00  .146E+00  .177E+00  .170E+00  .115E+00  .107E+00  .105E+00  .965E-01
  .923E-01  .923E-01  .947E-01  .936E-01  .925E-01  .894E-01  .818E-01  .763E-01
  .737E-01  .723E-01  .711E-01  .702E-01  .694E-01  .686E-01  .681E-01  .677E-01
  .676E-01  .676E-01  .677E-01  .677E-01  .679E-01  .680E-01  .000E+00  .000E+00
  .000E+00  .000E+00  .000E+00  .000E+00  .000E+00  .000E+00  .000E+00  .000E+00
  .000E+00  .000E+00  .000E+00  .000E+00  .000E+00  .000E+00  .000E+00  .000E+00
  .000E+00  .000E+00  .000E+00  .000E+00
  .574E-02  .580E-02  .590E-02  .618E-02  .659E-02  .671E-02  .679E-02  .818E-02
  .754E-02  .926E-02  .960E-02  .111E-01  .134E-01  .185E-01  .199E-01  .215E-01
  .177E-01  .120E-01  .131E-01  .123E-01  .134E-01  .148E-01  .156E-01  .167E-01
  .148E-01  .135E-01  .131E-01  .152E-01  .105E-01  .145E-01  .144E-01  .117E-01
  .101E-01  .918E-02  .829E-02  .755E-02  .610E-02  .517E-02  .561E-02  .597E-02
  .578E-02  .525E-02  .456E-02  .402E-02  .356E-02  .286E-02  .239E-02  .247E-02
  .225E-02  .252E-02  .281E-02  .213E-02  .132E-02  .110E-02  .101E-02  .805E-03
  .730E-03  .507E-03  .429E-03  .375E-03  .382E-03  .319E-03  .236E-03  .154E-03
  .126E-03  .124E-03  .116E-03  .924E-04  .800E-04  .720E-04  .604E-04  .548E-04
  .507E-04  .467E-04  .429E-04  .395E-04  .328E-04  .280E-04  .000E+00  .000E+00
  .000E+00  .000E+00  .000E+00  .000E+00  .000E+00  .000E+00  .000E+00  .000E+00
  .000E+00  .000E+00  .000E+00  .000E+00  .000E+00  .000E+00  .000E+00  .000E+00
  .000E+00  .000E+00  .000E+00  .000E+00
  .141E-01  .149E-01  .160E-01  .175E-01  .194E-01  .206E-01  .229E-01  .299E-01
  .302E-01  .393E-01  .439E-01  .543E-01  .692E-01  .101E+00  .114E+00  .130E+00
  .118E+00  .897E-01  .103E+00  .106E+00  .122E+00  .144E+00  .163E+00  .182E+00
  .173E+00  .163E+00  .177E+00  .220E+00  .168E+00  .246E+00  .261E+00  .226E+00
  .210E+00  .204E+00  .193E+00  .185E+00  .158E+00  .138E+00  .158E+00  .175E+00
  .177E+00  .175E+00  .167E+00  .160E+00  .151E+00  .131E+00  .117E+00  .128E+00
  .124E+00  .147E+00  .172E+00  .143E+00  .964E-01  .867E-01  .861E-01  .735E-01
  .708E-01  .527E-01  .461E-01  .432E-01  .462E-01  .424E-01  .338E-01  .237E-01
  .208E-01  .219E-01  .216E-01  .181E-01  .166E-01  .156E-01  .136E-01  .116E-01
  .108E-01  .104E-01  .966E-02  .898E-02  .836E-02  .744E-02  .000E+00  .000E+00
  .000E+00  .000E+00  .000E+00  .000E+00  .000E+00  .000E+00  .000E+00  .000E+00
  .000E+00  .000E+00  .000E+00  .000E+00  .000E+00  .000E+00  .000E+00  .000E+00
  .000E+00  .000E+00  .000E+00  .000E+00
  .314E+02  .314E+02  .314E+02  .314E+02  .314E+02  .314E+02  .314E+02  .314E+02
  .313E+02  .313E+02  .313E+02  .333E+02  .314E+02  .314E+02  .314E+02  .314E+02
  .314E+02  .312E+02  .350E+02  .351E+02  .315E+02  .339E+02  .340E+02  .340E+02
  .340E+02  .338E+02  .317E+02  .333E+02  .333E+02  .333E+02  .334E+02  .334E+02
  .334E+02  .340E+02  .357E+02  .358E+02  .366E+02  .342E+02  .358E+02  .358E+02
  .356E+02  .354E+02  .352E+02  .353E+02  .350E+02  .348E+02  .381E+02  .404E+02
  .418E+02  .445E+02  .445E+02  .447E+02  .443E+02  .438E+02  .427E+02  .428E+02
  .428E+02  .466E+02  .342E+02  .450E+02  .443E+02  .443E+02  .443E+02  .438E+02
  .438E+02  .438E+02  .438E+02  .439E+02  .416E+02  .416E+02  .417E+02  .417E+02
  .439E+02  .439E+02  .439E+02  .416E+02  .417E+02  .417E+02  .000E+00  .000E+00
  .000E+00  .000E+00  .000E+00  .000E+00  .000E+00  .000E+00  .000E+00  .000E+00
  .000E+00  .000E+00  .000E+00  .000E+00  .000E+00  .000E+00  .000E+00  .000E+00
  .000E+00  .000E+00  .000E+00  .000E+00
  .313E+02  .313E+02  .313E+02  .313E+02  .313E+02  .249E+02  .250E+02  .250E+02
  .250E+02  .313E+02  .250E+02  .253E+02  .313E+02  .313E+02  .314E+02  .314E+02
  .314E+02  .312E+02  .350E+02  .314E+02  .314E+02  .343E+02  .341E+02  .340E+02
  .340E+02  .338E+02  .318E+02  .335E+02  .334E+02  .334E+02  .333E+02  .333E+02
  .333E+02  .333E+02  .358E+02  .365E+02  .365E+02  .363E+02  .364E+02  .357E+02
  .357E+02  .355E+02  .354E+02  .351E+02  .345E+02  .350E+02  .383E+02  .380E+02
  .402E+02  .447E+02  .443E+02  .444E+02  .440E+02  .440E+02  .364E+02  .351E+02
  .425E+02  .340E+02  .340E+02  .340E+02  .340E+02  .340E+02  .340E+02  .340E+02
  .340E+02  .340E+02  .340E+02  .340E+02  .340E+02  .340E+02  .340E+02  .340E+02
  .340E+02  .340E+02  .340E+02  .340E+02  .340E+02  .340E+02  .000E+00  .000E+00
  .000E+00  .000E+00  .000E+00  .000E+00  .000E+00  .000E+00  .000E+00  .000E+00
  .000E+00  .000E+00  .000E+00  .000E+00  .000E+00  .000E+00  .000E+00  .000E+00
  .000E+00  .000E+00  .000E+00  .000E+00
  .314E+02  .314E+02  .314E+02  .314E+02  .314E+02  .314E+02  .314E+02  .314E+02
  .313E+02  .313E+02  .313E+02  .333E+02  .314E+02  .314E+02  .314E+02  .314E+02
  .314E+02  .312E+02  .350E+02  .350E+02  .315E+02  .339E+02  .340E+02  .340E+02
  .340E+02  .338E+02  .317E+02  .333E+02  .333E+02  .333E+02  .334E+02  .334E+02
  .334E+02  .340E+02  .342E+02  .358E+02  .366E+02  .342E+02  .358E+02  .358E+02
  .356E+02  .357E+02  .352E+02  .352E+02  .350E+02  .348E+02  .381E+02  .403E+02
  .418E+02  .444E+02  .445E+02  .447E+02  .442E+02  .438E+02  .427E+02  .428E+02
  .428E+02  .466E+02  .341E+02  .450E+02  .442E+02  .443E+02  .443E+02  .438E+02
  .438E+02  .438E+02  .438E+02  .438E+02  .416E+02  .416E+02  .416E+02  .350E+02
  .350E+02  .350E+02  .350E+02  .350E+02  .350E+02  .350E+02  .000E+00  .000E+00
  .000E+00  .000E+00  .000E+00  .000E+00  .000E+00  .000E+00  .000E+00  .000E+00
  .000E+00  .000E+00  .000E+00  .000E+00  .000E+00  .000E+00  .000E+00  .000E+00
  .000E+00  .000E+00  .000E+00  .000E+00
/&   ----------  End of spectral data for channel  1  ----------
Response and Fourier amplitude spectra (78 periods,  .04 -  6.0 sec)   for      
Corrected accelerogram   38695658.CI.LFP.--.HN      Chan  2: 360 Deg     from   
Uncorrected Accelerogram Data             Processed: 09/19/20, CGS  cilfp--u    
Rcrd of Fri Sep 18, 2020 23:38:32.0 PDT               (Avol1 v2.0, 4/18 CSMIP)  
                                        (Origin:  To be determined)             
38695658.CI.LFP.--.HN                Start time:  9/19/20, 06:38:32.0 UTC (GPS) 
Station Id. LFP     34.305N, 118.488W    ObsMMS  s/n 4132  (3 Chns of  6 at Sta)
Sylmar, I-5 at Los Angeles               SCSN   Data: Acceleration              
Chan  2: 360 Deg                                                                
Rcrd of Fri Sep 18, 2020 23:38:32.0 PDT    Fri Sep 18, 2020 23:38:32.0 PDT      
Hypocenter:  To be determined.               ML:  To be determined.             
Instr Period =  .0050 sec,  Damping =  .707,  Sensitivity = 4.99 v/g  (Nominal) 
                        Record Length =301.000 sec.                             
                                     Uncor Max  =   .007 g, at   30.860 sec.    
RMS accel of (uncor) record  =        .   Chn. metadata effective date:         
Accelerogram bandpass filtered with 3 dB pts at   .30 and 23.00 cyc/sec         
                 instrument- and base-line correcte                             
                                                                                
                                                                                
                                                                                
                                                                                
                                                                                
Rcrd of Fri Sep 18, 2020 23:38:32.0 PDT    Fri Sep 18, 2020 23:38:32.0 PDT      
                                                                                
38695658.CI.LFP.--.HN     Sylmar, I-5 at Los Angeles    Chan  2: 360 Deg        
                                                                                
38695658.CI.LFP.--.HN     Sylmar, I-5 at Los Angeles    Chan  2: 360 Deg        
                                                                                
Units for spectra are inches and sec, except Sa is in fraction of g.            
                                                                                
    2  100    2    6    6  100 -999    3    1    0   15 4132    050621   41    0
    6   38   32    8  263    9   19 2020   10    3  36035528   39   26   74 -999
35528 -999  100    6 -999 -999 -999 -999 -999 -999 -999 -999 -999 -999 -999 -999
 -999 -999 -999 -99915050    2 -999    0 -999   20 -999 -999    3    1 -99915050
    315050    4   78    1    3    5    0    0 -999    0 -999 -999    6 -999    2
    2    2    4 -999 -999 -999 -999 -999 -999 -999 -999    1 -999 -999 -999  111
    1    1 -999 -999
      .005      .707   355.280      .000     1.000  4993.665      .007    30.860
   200.000     2.384      .477  -999.000    10.000  -999.000     4.000  -999.000
    20.000    -9.074      .000  -999.000  -999.000  -999.000  -999.000     -.002
      .001      .003     2.000    15.000    34.305  -118.488      .019      .014
      .705     -.001      .006   368.000  -999.000  -999.000  -999.000  -999.000
     1.000  -999.000  -999.000  -999.000  -999.000  -999.000  -999.000   120.000
     -.900     2.000     6.800   980.665      .020   301.000    31.831      .000
  -999.000    23.000  -999.000   301.000      .020      .300  -999.000  -999.000
    30.860     6.604    30.980      .332    30.880     -.047      .000      .300
    23.000      .020      .020      .000      .020      .018  -999.000  -999.000
      .020      .150      .016      .016      .004      .000  -999.000  -999.000
  -999.000  -999.000  -999.000  -999.000  -999.000  -999.000  -999.000  -999.000
  -999.000  -999.000  -999.000  -999.000
      .050
      .040      .042      .044      .046      .048      .050      .055      .060
      .065      .070      .075      .080      .085      .090      .095      .100
      .110      .120      .130      .140      .150      .160      .170      .180
      .190      .200      .220      .240      .260      .280      .300      .320
      .340      .360      .380      .400      .420      .440      .460      .480
      .500      .550      .600      .650      .700      .750      .800      .850
      .900      .950     1.000     1.100     1.200     1.300     1.400     1.500
     1.600     1.700     1.800     1.900     2.000     2.200     2.400     2.600
     2.800     3.000     3.200     3.400     3.600     3.800     4.000     4.200
     4.400     4.600     4.800     5.000     5.500     6.000      .000      .000
      .000      .000      .000      .000      .000      .000      .000      .000
      .000      .000      .000      .000      .000      .000      .000      .000
      .000      .000      .000      .000
Fourier amplitude spectra in in/sec.
  .000E+00  .000E+00  .000E+00  .000E+00  .000E+00  .000E+00  .000E+00  .000E+00
  .000E+00  .000E+00  .000E+00  .000E+00  .000E+00  .000E+00  .000E+00  .000E+00
  .000E+00  .000E+00  .000E+00  .000E+00  .000E+00  .000E+00  .000E+00  .000E+00
  .000E+00  .000E+00  .000E+00  .000E+00  .000E+00  .000E+00  .000E+00  .000E+00
  .000E+00  .000E+00  .000E+00  .000E+00  .000E+00  .000E+00  .000E+00  .000E+00
  .000E+00  .000E+00  .000E+00  .000E+00  .000E+00  .000E+00  .000E+00  .000E+00
  .000E+00  .000E+00  .000E+00  .000E+00  .000E+00  .000E+00  .000E+00  .000E+00
  .000E+00  .000E+00  .000E+00  .000E+00  .000E+00  .000E+00  .000E+00  .000E+00
  .000E+00  .000E+00  .000E+00  .000E+00  .000E+00  .000E+00  .000E+00  .000E+00
  .000E+00  .000E+00  .000E+00  .000E+00  .000E+00  .000E+00  .000E+00  .000E+00
  .000E+00  .000E+00  .000E+00  .000E+00  .000E+00  .000E+00  .000E+00  .000E+00
  .000E+00  .000E+00  .000E+00  .000E+00  .000E+00  .000E+00  .000E+00  .000E+00
  .000E+00  .000E+00  .000E+00  .000E+00
Damping =  .05. Data of Sd,Sv,Sa,Pssv,ttSd,ttSv,ttSa :
  .107E-03  .119E-03  .132E-03  .145E-03  .159E-03  .174E-03  .234E-03  .283E-03
  .340E-03  .462E-03  .612E-03  .709E-03  .783E-03  .105E-02  .118E-02  .148E-02
  .203E-02  .198E-02  .240E-02  .354E-02  .438E-02  .481E-02  .469E-02  .516E-02
  .522E-02  .574E-02  .872E-02  .837E-02  .954E-02  .109E-01  .146E-01  .154E-01
  .146E-01  .140E-01  .139E-01  .152E-01  .155E-01  .170E-01  .190E-01  .195E-01
