Response and Fourier amplitude spectra (78 periods,  .04 -  6.0 sec)   for      
Corrected accelerogram   38695658.CI.LGB.--.HN      Chan  1:  90 Deg     from   
Uncorrected Accelerogram Data             Processed: 09/19/20, CGS  cilgb--f    
Rcrd of Fri Sep 18, 2020 23:38:25.0 PDT               (Avol1 v2.0, 4/18 CSMIP)  
                                        (Origin:  To be determined)             
38695658.CI.LGB.--.HN                Start time:  9/19/20, 06:38:25.0 UTC (GPS) 
Station Id. LGB     33.975N, 118.149W    ObsMMS  s/n 4213  (3 Chns of  6 at Sta)
Bell Gardens, Gage and Garfield          SCSN   Data: Acceleration              
Chan  1:  90 Deg                                                                
Rcrd of Fri Sep 18, 2020 23:38:25.0 PDT    Fri Sep 18, 2020 23:38:25.0 PDT      
Hypocenter:  To be determined.               ML:  To be determined.             
Instr Period =  .0050 sec,  Damping =  .707,  Sensitivity = 4.99 v/g  (Nominal) 
                        Record Length =301.000 sec.                             
                                     Uncor Max  =  -.073 g, at   29.410 sec.    
RMS accel of (uncor) record  =        .   Chn. metadata effective date:         
Accelerogram bandpass filtered with 3 dB pts at   .30 and 23.00 cyc/sec         
                 instrument- and base-line correcte                             
                                                                                
                                                                                
                                                                                
                                                                                
                                                                                
Rcrd of Fri Sep 18, 2020 23:38:25.0 PDT    Fri Sep 18, 2020 23:38:25.0 PDT      
                                                                                
38695658.CI.LGB.--.HN     Bell Gardens, Gage and Garfield   Chan  1:  90 Deg    
                                                                                
38695658.CI.LGB.--.HN     Bell Gardens, Gage and Garfield   Chan  1:  90 Deg    
                                                                                
Units for spectra are inches and sec, except Sa is in fraction of g.            
                                                                                
    1  100    1    6    6  100 -999    3    1    0   15 4213    050622   41    0
    6   38   25    8  263    9   19 2020   10    3   9035771   39   31   74 -999
35771 -999  100    6 -999 -999 -999 -999 -999 -999 -999 -999 -999 -999 -999 -999
 -999 -999 -999 -99915050    2 -999    0 -999   20 -999 -999    3    1 -99915050
    315050    4   78    1    3    5    0    0 -999    0 -999 -999    6 -999    2
    2    2    4 -999 -999 -999 -999 -999 -999 -999 -999    1 -999 -999 -999  111
    1    1 -999 -999
      .005      .707   357.710      .002     1.000  4992.867     -.073    29.410
   200.000     2.384      .478  -999.000    10.000  -999.000     4.000  -999.000
    20.000   -10.296      .000  -999.000  -999.000  -999.000  -999.000      .000
      .001      .001     2.000    15.000    33.975  -118.149      .006      .012
     2.054      .000      .002    42.000  -999.000  -999.000  -999.000  -999.000
     1.000  -999.000    -8.000  -999.000  -999.000  -999.000  -999.000   120.000
     -.900     2.000     6.800   980.665      .020   301.000    31.831      .000
  -999.000    23.000  -999.000   301.000      .020      .300  -999.000  -999.000
    29.400   -71.400    29.380     2.375    29.560      .116      .000      .300
    23.000      .020      .020      .000      .460      .034  -999.000  -999.000
      .247      .130      .137      .061      .006      .001  -999.000  -999.000
  -999.000  -999.000  -999.000  -999.000  -999.000  -999.000  -999.000  -999.000
  -999.000  -999.000  -999.000  -999.000
      .050
      .040      .042      .044      .046      .048      .050      .055      .060
      .065      .070      .075      .080      .085      .090      .095      .100
      .110      .120      .130      .140      .150      .160      .170      .180
      .190      .200      .220      .240      .260      .280      .300      .320
      .340      .360      .380      .400      .420      .440      .460      .480
      .500      .550      .600      .650      .700      .750      .800      .850
      .900      .950     1.000     1.100     1.200     1.300     1.400     1.500
     1.600     1.700     1.800     1.900     2.000     2.200     2.400     2.600
     2.800     3.000     3.200     3.400     3.600     3.800     4.000     4.200
     4.400     4.600     4.800     5.000     5.500     6.000      .000      .000
      .000      .000      .000      .000      .000      .000      .000      .000
      .000      .000      .000      .000      .000      .000      .000      .000
      .000      .000      .000      .000
Fourier amplitude spectra in in/sec.
  .000E+00  .000E+00  .000E+00  .000E+00  .000E+00  .000E+00  .000E+00  .000E+00
  .000E+00  .000E+00  .000E+00  .000E+00  .000E+00  .000E+00  .000E+00  .000E+00
  .000E+00  .000E+00  .000E+00  .000E+00  .000E+00  .000E+00  .000E+00  .000E+00
  .000E+00  .000E+00  .000E+00  .000E+00  .000E+00  .000E+00  .000E+00  .000E+00
  .000E+00  .000E+00  .000E+00  .000E+00  .000E+00  .000E+00  .000E+00  .000E+00
  .000E+00  .000E+00  .000E+00  .000E+00  .000E+00  .000E+00  .000E+00  .000E+00
  .000E+00  .000E+00  .000E+00  .000E+00  .000E+00  .000E+00  .000E+00  .000E+00
  .000E+00  .000E+00  .000E+00  .000E+00  .000E+00  .000E+00  .000E+00  .000E+00
  .000E+00  .000E+00  .000E+00  .000E+00  .000E+00  .000E+00  .000E+00  .000E+00
  .000E+00  .000E+00  .000E+00  .000E+00  .000E+00  .000E+00  .000E+00  .000E+00
  .000E+00  .000E+00  .000E+00  .000E+00  .000E+00  .000E+00  .000E+00  .000E+00
  .000E+00  .000E+00  .000E+00  .000E+00  .000E+00  .000E+00  .000E+00  .000E+00
  .000E+00  .000E+00  .000E+00  .000E+00
Damping =  .05. Data of Sd,Sv,Sa,Pssv,ttSd,ttSv,ttSa :
  .118E-02  .131E-02  .144E-02  .174E-02  .206E-02  .235E-02  .289E-02  .339E-02
  .399E-02  .547E-02  .749E-02  .949E-02  .112E-01  .119E-01  .139E-01  .164E-01
  .208E-01  .250E-01  .409E-01  .440E-01  .381E-01  .371E-01  .422E-01  .473E-01
  .487E-01  .529E-01  .656E-01  .678E-01  .618E-01  .582E-01  .533E-01  .499E-01
  .527E-01  .679E-01  .823E-01  .962E-01  .107E+00  .113E+00  .117E+00  .121E+00
  .124E+00  .123E+00  .107E+00  .851E-01  .725E-01  .685E-01  .677E-01  .667E-01
  .654E-01  .638E-01  .622E-01  .589E-01  .555E-01  .520E-01  .488E-01  .461E-01
  .439E-01  .419E-01  .399E-01  .399E-01  .407E-01  .403E-01  .424E-01  .452E-01
  .474E-01  .492E-01  .504E-01  .513E-01  .517E-01  .519E-01  .518E-01  .516E-01
  .513E-01  .510E-01  .505E-01  .501E-01  .491E-01  .484E-01  .000E+00  .000E+00
  .000E+00  .000E+00  .000E+00  .000E+00  .000E+00  .000E+00  .000E+00  .000E+00
  .000E+00  .000E+00  .000E+00  .000E+00  .000E+00  .000E+00  .000E+00  .000E+00
  .000E+00  .000E+00  .000E+00  .000E+00
  .634E-01  .702E-01  .875E-01  .105E+00  .114E+00  .117E+00  .159E+00  .222E+00
  .249E+00  .389E+00  .549E+00  .701E+00  .795E+00  .755E+00  .773E+00  .891E+00
  .113E+01  .129E+01  .191E+01  .211E+01  .163E+01  .147E+01  .154E+01  .159E+01
  .166E+01  .161E+01  .195E+01  .204E+01  .193E+01  .166E+01  .141E+01  .130E+01
  .133E+01  .138E+01  .138E+01  .142E+01  .164E+01  .181E+01  .190E+01  .189E+01
  .177E+01  .171E+01  .165E+01  .152E+01  .140E+01  .130E+01  .123E+01  .117E+01
  .112E+01  .107E+01  .104E+01  .981E+00  .940E+00  .913E+00  .897E+00  .887E+00
  .880E+00  .876E+00  .873E+00  .871E+00  .871E+00  .873E+00  .877E+00  .880E+00
  .884E+00  .887E+00  .890E+00  .892E+00  .894E+00  .895E+00  .896E+00  .897E+00
  .897E+00  .898E+00  .898E+00  .898E+00  .897E+00  .897E+00  .000E+00  .000E+00
  .000E+00  .000E+00  .000E+00  .000E+00  .000E+00  .000E+00  .000E+00  .000E+00
  .000E+00  .000E+00  .000E+00  .000E+00  .000E+00  .000E+00  .000E+00  .000E+00
  .000E+00  .000E+00  .000E+00  .000E+00
  .755E-01  .762E-01  .761E-01  .842E-01  .912E-01  .963E-01  .971E-01  .971E-01
  .970E-01  .115E+00  .138E+00  .153E+00  .157E+00  .151E+00  .157E+00  .166E+00
  .179E+00  .182E+00  .247E+00  .228E+00  .176E+00  .148E+00  .151E+00  .152E+00
  .138E+00  .132E+00  .140E+00  .119E+00  .955E-01  .763E-01  .594E-01  .487E-01
  .467E-01  .535E-01  .590E-01  .613E-01  .616E-01  .597E-01  .567E-01  .539E-01
  .510E-01  .422E-01  .311E-01  .207E-01  .152E-01  .125E-01  .109E-01  .960E-02
  .846E-02  .748E-02  .663E-02  .527E-02  .422E-02  .340E-02  .278E-02  .232E-02
  .196E-02  .168E-02  .144E-02  .125E-02  .111E-02  .950E-03  .821E-03  .744E-03
  .685E-03  .640E-03  .597E-03  .556E-03  .518E-03  .483E-03  .452E-03  .424E-03
  .399E-03  .376E-03  .356E-03  .337E-03  .299E-03  .269E-03  .000E+00  .000E+00
  .000E+00  .000E+00  .000E+00  .000E+00  .000E+00  .000E+00  .000E+00  .000E+00
  .000E+00  .000E+00  .000E+00  .000E+00  .000E+00  .000E+00  .000E+00  .000E+00
  .000E+00  .000E+00  .000E+00  .000E+00
  .185E+00  .196E+00  .206E+00  .237E+00  .269E+00  .295E+00  .330E+00  .355E+00
  .386E+00  .491E+00  .628E+00  .746E+00  .826E+00  .832E+00  .918E+00  .103E+01
  .119E+01  .131E+01  .198E+01  .198E+01  .160E+01  .146E+01  .156E+01  .165E+01
  .161E+01  .166E+01  .187E+01  .177E+01  .149E+01  .130E+01  .112E+01  .979E+00
  .973E+00  .118E+01  .136E+01  .151E+01  .159E+01  .162E+01  .160E+01  .158E+01
  .155E+01  .141E+01  .112E+01  .823E+00  .651E+00  .574E+00  .532E+00  .493E+00
  .456E+00  .422E+00  .391E+00  .337E+00  .291E+00  .251E+00  .219E+00  .193E+00
  .173E+00  .155E+00  .139E+00  .132E+00  .128E+00  .115E+00  .111E+00  .109E+00
  .106E+00  .103E+00  .990E-01  .947E-01  .902E-01  .857E-01  .814E-01  .772E-01
  .733E-01  .696E-01  .662E-01  .630E-01  .561E-01  .506E-01  .000E+00  .000E+00
  .000E+00  .000E+00  .000E+00  .000E+00  .000E+00  .000E+00  .000E+00  .000E+00
  .000E+00  .000E+00  .000E+00  .000E+00  .000E+00  .000E+00  .000E+00  .000E+00
  .000E+00  .000E+00  .000E+00  .000E+00
  .294E+02  .294E+02  .294E+02  .294E+02  .294E+02  .294E+02  .294E+02  .294E+02
  .294E+02  .296E+02  .296E+02  .296E+02  .296E+02  .297E+02  .290E+02  .290E+02
  .290E+02  .291E+02  .295E+02  .294E+02  .296E+02  .296E+02  .296E+02  .296E+02
  .294E+02  .294E+02  .294E+02  .295E+02  .294E+02  .294E+02  .294E+02  .294E+02
  .294E+02  .298E+02  .298E+02  .298E+02  .298E+02  .298E+02  .298E+02  .296E+02
  .297E+02  .297E+02  .297E+02  .297E+02  .295E+02  .293E+02  .293E+02  .293E+02
  .293E+02  .293E+02  .293E+02  .293E+02  .293E+02  .293E+02  .293E+02  .293E+02
  .293E+02  .293E+02  .293E+02  .300E+02  .300E+02  .300E+02  .295E+02  .295E+02
  .295E+02  .295E+02  .295E+02  .295E+02  .295E+02  .295E+02  .295E+02  .295E+02
  .295E+02  .295E+02  .295E+02  .295E+02  .295E+02  .295E+02  .000E+00  .000E+00
  .000E+00  .000E+00  .000E+00  .000E+00  .000E+00  .000E+00  .000E+00  .000E+00
  .000E+00  .000E+00  .000E+00  .000E+00  .000E+00  .000E+00  .000E+00  .000E+00
  .000E+00  .000E+00  .000E+00  .000E+00
  .294E+02  .294E+02  .294E+02  .294E+02  .294E+02  .294E+02  .294E+02  .294E+02
  .296E+02  .296E+02  .296E+02  .296E+02  .296E+02  .298E+02  .290E+02  .290E+02
  .295E+02  .290E+02  .294E+02  .295E+02  .296E+02  .296E+02  .296E+02  .295E+02
  .296E+02  .295E+02  .294E+02  .294E+02  .294E+02  .294E+02  .294E+02  .294E+02
  .294E+02  .294E+02  .294E+02  .301E+02  .297E+02  .297E+02  .297E+02  .297E+02
  .297E+02  .293E+02  .293E+02  .293E+02  .293E+02  .293E+02  .294E+02  .294E+02
  .294E+02  .294E+02  .294E+02  .294E+02  .294E+02  .294E+02  .294E+02  .294E+02
  .293E+02  .293E+02  .293E+02  .293E+02  .293E+02  .293E+02  .293E+02  .293E+02
  .293E+02  .293E+02  .293E+02  .293E+02  .293E+02  .293E+02  .293E+02  .294E+02
  .294E+02  .294E+02  .294E+02  .294E+02  .294E+02  .294E+02  .000E+00  .000E+00
  .000E+00  .000E+00  .000E+00  .000E+00  .000E+00  .000E+00  .000E+00  .000E+00
  .000E+00  .000E+00  .000E+00  .000E+00  .000E+00  .000E+00  .000E+00  .000E+00
  .000E+00  .000E+00  .000E+00  .000E+00
  .294E+02  .294E+02  .294E+02  .294E+02  .294E+02  .294E+02  .294E+02  .294E+02
  .294E+02  .296E+02  .296E+02  .296E+02  .296E+02  .297E+02  .290E+02  .290E+02
  .290E+02  .291E+02  .295E+02  .295E+02  .296E+02  .296E+02  .296E+02  .296E+02
  .294E+02  .294E+02  .294E+02  .295E+02  .294E+02  .294E+02  .294E+02  .294E+02
  .294E+02  .297E+02  .298E+02  .298E+02  .298E+02  .298E+02  .298E+02  .296E+02
  .296E+02  .297E+02  .297E+02  .297E+02  .295E+02  .293E+02  .293E+02  .293E+02
  .293E+02  .293E+02  .293E+02  .293E+02  .293E+02  .293E+02  .293E+02  .293E+02
  .293E+02  .293E+02  .293E+02  .293E+02  .289E+02  .289E+02  .289E+02  .295E+02
  .294E+02  .294E+02  .294E+02  .294E+02  .294E+02  .294E+02  .294E+02  .294E+02
  .294E+02  .294E+02  .294E+02  .294E+02  .294E+02  .294E+02  .000E+00  .000E+00
  .000E+00  .000E+00  .000E+00  .000E+00  .000E+00  .000E+00  .000E+00  .000E+00
  .000E+00  .000E+00  .000E+00  .000E+00  .000E+00  .000E+00  .000E+00  .000E+00
  .000E+00  .000E+00  .000E+00  .000E+00
/&   ----------  End of spectral data for channel  1  ----------
Response and Fourier amplitude spectra (78 periods,  .04 -  6.0 sec)   for      
Corrected accelerogram   38695658.CI.LGB.--.HN      Chan  2: 360 Deg     from   
Uncorrected Accelerogram Data             Processed: 09/19/20, CGS  cilgb--f    
Rcrd of Fri Sep 18, 2020 23:38:25.0 PDT               (Avol1 v2.0, 4/18 CSMIP)  
                                        (Origin:  To be determined)             
38695658.CI.LGB.--.HN                Start time:  9/19/20, 06:38:25.0 UTC (GPS) 
Station Id. LGB     33.975N, 118.149W    ObsMMS  s/n 4213  (3 Chns of  6 at Sta)
Bell Gardens, Gage and Garfield          SCSN   Data: Acceleration              
Chan  2: 360 Deg                                                                
Rcrd of Fri Sep 18, 2020 23:38:25.0 PDT    Fri Sep 18, 2020 23:38:25.0 PDT      
Hypocenter:  To be determined.               ML:  To be determined.             
Instr Period =  .0050 sec,  Damping =  .707,  Sensitivity = 4.98 v/g  (Nominal) 
                        Record Length =301.000 sec.                             
                                     Uncor Max  =   .040 g, at   29.110 sec.    
RMS accel of (uncor) record  =        .   Chn. metadata effective date:         
Accelerogram bandpass filtered with 3 dB pts at   .30 and 23.00 cyc/sec         
                 instrument- and base-line correcte                             
                                                                                
                                                                                
                                                                                
                                                                                
                                                                                
Rcrd of Fri Sep 18, 2020 23:38:25.0 PDT    Fri Sep 18, 2020 23:38:25.0 PDT      
                                                                                
38695658.CI.LGB.--.HN     Bell Gardens, Gage and Garfield   Chan  2: 360 Deg    
                                                                                
38695658.CI.LGB.--.HN     Bell Gardens, Gage and Garfield   Chan  2: 360 Deg    
                                                                                
Units for spectra are inches and sec, except Sa is in fraction of g.            
                                                                                
    2  100    2    6    6  100 -999    3    1    0   15 4213    050622   41    0
    6   38   25    8  263    9   19 2020   10    3  36036090   39   31   74 -999
36090 -999  100    6 -999 -999 -999 -999 -999 -999 -999 -999 -999 -999 -999 -999
 -999 -999 -999 -99915050    2 -999    0 -999   20 -999 -999    3    1 -99915050
    315050    4   78    1    3    5    0    0 -999    0 -999 -999    6 -999    2
    2    2    4 -999 -999 -999 -999 -999 -999 -999 -999    1 -999 -999 -999  111
    1    1 -999 -999
      .005      .707   360.900      .001     1.000  4984.889      .040    29.110
   200.000     2.384      .478  -999.000    10.000  -999.000     4.000  -999.000
    20.000   -16.300      .000  -999.000  -999.000  -999.000  -999.000      .000
      .000      .000     2.000    15.000    33.975  -118.149      .005      .009
     1.757     -.001      .002    42.000  -999.000  -999.000  -999.000  -999.000
     1.000  -999.000  -999.000  -999.000  -999.000  -999.000  -999.000   120.000
     -.900     2.000     6.800   980.665      .020   301.000    31.831      .000
  -999.000    23.000  -999.000   301.000      .020      .300  -999.000  -999.000
    29.100    36.723    29.160     2.002    29.260      .190      .000      .300
    23.000      .020      .020      .000      .020      .036  -999.000  -999.000
      .119      .070      .078      .057      .008      .001  -999.000  -999.000
  -999.000  -999.000  -999.000  -999.000  -999.000  -999.000  -999.000  -999.000
  -999.000  -999.000  -999.000  -999.000
      .050
      .040      .042      .044      .046      .048      .050      .055      .060
      .065      .070      .075      .080      .085      .090      .095      .100
      .110      .120      .130      .140      .150      .160      .170      .180
      .190      .200      .220      .240      .260      .280      .300      .320
      .340      .360      .380      .400      .420      .440      .460      .480
      .500      .550      .600      .650      .700      .750      .800      .850
      .900      .950     1.000     1.100     1.200     1.300     1.400     1.500
     1.600     1.700     1.800     1.900     2.000     2.200     2.400     2.600
     2.800     3.000     3.200     3.400     3.600     3.800     4.000     4.200
     4.400     4.600     4.800     5.000     5.500     6.000      .000      .000
      .000      .000      .000      .000      .000      .000      .000      .000
      .000      .000      .000      .000      .000      .000      .000      .000
      .000      .000      .000      .000
Fourier amplitude spectra in in/sec.
  .000E+00  .000E+00  .000E+00  .000E+00  .000E+00  .000E+00  .000E+00  .000E+00
  .000E+00  .000E+00  .000E+00  .000E+00  .000E+00  .000E+00  .000E+00  .000E+00
  .000E+00  .000E+00  .000E+00  .000E+00  .000E+00  .000E+00  .000E+00  .000E+00
  .000E+00  .000E+00  .000E+00  .000E+00  .000E+00  .000E+00  .000E+00  .000E+00
  .000E+00  .000E+00  .000E+00  .000E+00  .000E+00  .000E+00  .000E+00  .000E+00
  .000E+00  .000E+00  .000E+00  .000E+00  .000E+00  .000E+00  .000E+00  .000E+00
  .000E+00  .000E+00  .000E+00  .000E+00  .000E+00  .000E+00  .000E+00  .000E+00
  .000E+00  .000E+00  .000E+00  .000E+00  .000E+00  .000E+00  .000E+00  .000E+00
  .000E+00  .000E+00  .000E+00  .000E+00  .000E+00  .000E+00  .000E+00  .000E+00
  .000E+00  .000E+00  .000E+00  .000E+00  .000E+00  .000E+00  .000E+00  .000E+00
  .000E+00  .000E+00  .000E+00  .000E+00  .000E+00  .000E+00  .000E+00  .000E+00
  .000E+00  .000E+00  .000E+00  .000E+00  .000E+00  .000E+00  .000E+00  .000E+00
  .000E+00  .000E+00  .000E+00  .000E+00
Damping =  .05. Data of Sd,Sv,Sa,Pssv,ttSd,ttSv,ttSa :
  .681E-03  .766E-03  .871E-03  .991E-03  .114E-02  .134E-02  .196E-02  .295E-02
  .467E-02  .577E-02  .583E-02  .586E-02  .563E-02  .583E-02  .712E-02  .818E-02
  .108E-01  .126E-01  .139E-01  .153E-01  .171E-01  .189E-01  .193E-01  .178E-01
  .203E-01  .295E-01  .474E-01  .531E-01  .476E-01  .413E-01  .464E-01  .644E-01
  .814E-01  .982E-01  .116E+00  .130E+00  .141E+00  .151E+00  .160E+00  .165E+00
