Response and Fourier amplitude spectra (78 periods,  .04 -  6.0 sec)   for      
Corrected accelerogram   38695658.CI.LJR.--.HN      Chan  1:  90 Deg     from   
Uncorrected Accelerogram Data             Processed: 09/19/20, CGS  ciljr--p    
Rcrd of Fri Sep 18, 2020 23:38:40.0 PDT               (Avol1 v2.0, 4/18 CSMIP)  
                                        (Origin:  To be determined)             
38695658.CI.LJR.--.HN                Start time:  9/19/20, 06:38:40.0 UTC (GPS) 
Station Id. LJR     34.808N, 118.868W    Q330    s/n  114  (3 Chns of  3 at Sta)
Gorman, off I-5                          SCSN   Data: Acceleration              
Chan  1:  90 Deg                                                                
Rcrd of Fri Sep 18, 2020 23:38:40.0 PDT    Fri Sep 18, 2020 23:38:40.0 PDT      
Hypocenter:  To be determined.               ML:  To be determined.             
Instr Period =  .0050 sec,  Damping =  .707,  Sensitivity = 4.99 v/g  (Nominal) 
                        Record Length =301.000 sec.                             
                                     Uncor Max  =   .002 g, at   40.550 sec.    
RMS accel of (uncor) record  =        .   Chn. metadata effective date:         
Accelerogram bandpass filtered with 3 dB pts at   .30 and 23.00 cyc/sec         
                 instrument- and base-line correcte                             
                                                                                
                                                                                
                                                                                
                                                                                
                                                                                
Rcrd of Fri Sep 18, 2020 23:38:40.0 PDT    Fri Sep 18, 2020 23:38:40.0 PDT      
                                                                                
38695658.CI.LJR.--.HN     Gorman, off I-5   Chan  1:  90 Deg                    
                                                                                
38695658.CI.LJR.--.HN     Gorman, off I-5   Chan  1:  90 Deg                    
                                                                                
Units for spectra are inches and sec, except Sa is in fraction of g.            
                                                                                
    1  100    1    3    3  100 -999    3    1   24  605  114    050699   41    0
    6   38   40    8  263    9   19 2020   10    3   9035915   39   15   74 -999
35915 -999  100    6 -999 -999 -999 -999 -999 -999 -999 -999 -999 -999 -999 -999
 -999 -999 -999 -99915050    2 -999    0 -999   20 -999 -999    3    1 -99915050
    315050    4   78    1    3    5    0    0 -999    0 -999 -999    6 -999    2
    2    2    4 -999 -999 -999 -999 -999 -999 -999 -999    1 -999 -999 -999  111
    1    1 -999 -999
      .005      .707   359.150      .000     1.000  4989.676      .002    40.550
   200.000     2.384      .478  -999.000    10.000  -999.000     4.000  -999.000
    20.000   -23.503    20.000  -999.000  -999.000  -999.000  -999.000     -.001
      .000      .001     2.000    15.000    34.808  -118.868      .001      .002
     1.390      .001      .001  1443.000  -999.000  -999.000  -999.000  -999.000
     1.000  -999.000    -8.000  -999.000  -999.000  -999.000  -999.000   120.000
     -.900     2.000     6.800   980.665      .020   301.000    31.831      .000
  -999.000    23.000  -999.000   301.000      .020      .300  -999.000  -999.000
    40.540     1.824    40.120      .132    39.940     -.015      .000      .300
    23.000      .020      .020      .000      .020      .006  -999.000  -999.000
      .006      .200      .005      .003      .001      .000  -999.000  -999.000
  -999.000  -999.000  -999.000  -999.000  -999.000  -999.000  -999.000  -999.000
  -999.000  -999.000  -999.000  -999.000
      .050
      .040      .042      .044      .046      .048      .050      .055      .060
      .065      .070      .075      .080      .085      .090      .095      .100
      .110      .120      .130      .140      .150      .160      .170      .180
      .190      .200      .220      .240      .260      .280      .300      .320
      .340      .360      .380      .400      .420      .440      .460      .480
      .500      .550      .600      .650      .700      .750      .800      .850
      .900      .950     1.000     1.100     1.200     1.300     1.400     1.500
     1.600     1.700     1.800     1.900     2.000     2.200     2.400     2.600
     2.800     3.000     3.200     3.400     3.600     3.800     4.000     4.200
     4.400     4.600     4.800     5.000     5.500     6.000      .000      .000
      .000      .000      .000      .000      .000      .000      .000      .000
      .000      .000      .000      .000      .000      .000      .000      .000
      .000      .000      .000      .000
Fourier amplitude spectra in in/sec.
  .000E+00  .000E+00  .000E+00  .000E+00  .000E+00  .000E+00  .000E+00  .000E+00
  .000E+00  .000E+00  .000E+00  .000E+00  .000E+00  .000E+00  .000E+00  .000E+00
  .000E+00  .000E+00  .000E+00  .000E+00  .000E+00  .000E+00  .000E+00  .000E+00
  .000E+00  .000E+00  .000E+00  .000E+00  .000E+00  .000E+00  .000E+00  .000E+00
  .000E+00  .000E+00  .000E+00  .000E+00  .000E+00  .000E+00  .000E+00  .000E+00
  .000E+00  .000E+00  .000E+00  .000E+00  .000E+00  .000E+00  .000E+00  .000E+00
  .000E+00  .000E+00  .000E+00  .000E+00  .000E+00  .000E+00  .000E+00  .000E+00
  .000E+00  .000E+00  .000E+00  .000E+00  .000E+00  .000E+00  .000E+00  .000E+00
  .000E+00  .000E+00  .000E+00  .000E+00  .000E+00  .000E+00  .000E+00  .000E+00
  .000E+00  .000E+00  .000E+00  .000E+00  .000E+00  .000E+00  .000E+00  .000E+00
  .000E+00  .000E+00  .000E+00  .000E+00  .000E+00  .000E+00  .000E+00  .000E+00
  .000E+00  .000E+00  .000E+00  .000E+00  .000E+00  .000E+00  .000E+00  .000E+00
  .000E+00  .000E+00  .000E+00  .000E+00
Damping =  .05. Data of Sd,Sv,Sa,Pssv,ttSd,ttSv,ttSa :
  .295E-04  .325E-04  .357E-04  .390E-04  .424E-04  .459E-04  .558E-04  .652E-04
  .776E-04  .918E-04  .107E-03  .133E-03  .161E-03  .182E-03  .214E-03  .245E-03
  .320E-03  .401E-03  .550E-03  .595E-03  .732E-03  .922E-03  .112E-02  .157E-02
  .183E-02  .218E-02  .230E-02  .239E-02  .248E-02  .222E-02  .253E-02  .234E-02
  .238E-02  .274E-02  .304E-02  .337E-02  .401E-02  .500E-02  .619E-02  .765E-02
  .963E-02  .153E-01  .181E-01  .186E-01  .160E-01  .154E-01  .161E-01  .168E-01
  .153E-01  .141E-01  .155E-01  .151E-01  .161E-01  .147E-01  .147E-01  .135E-01
  .118E-01  .108E-01  .103E-01  .958E-02  .890E-02  .842E-02  .740E-02  .693E-02
  .658E-02  .638E-02  .634E-02  .635E-02  .634E-02  .630E-02  .624E-02  .617E-02
  .612E-02  .609E-02  .609E-02  .610E-02  .613E-02  .613E-02  .000E+00  .000E+00
  .000E+00  .000E+00  .000E+00  .000E+00  .000E+00  .000E+00  .000E+00  .000E+00
  .000E+00  .000E+00  .000E+00  .000E+00  .000E+00  .000E+00  .000E+00  .000E+00
  .000E+00  .000E+00  .000E+00  .000E+00
  .797E-03  .891E-03  .999E-03  .109E-02  .118E-02  .129E-02  .161E-02  .200E-02
  .240E-02  .297E-02  .337E-02  .415E-02  .506E-02  .617E-02  .752E-02  .879E-02
  .976E-02  .153E-01  .211E-01  .229E-01  .270E-01  .342E-01  .393E-01  .538E-01
  .576E-01  .638E-01  .624E-01  .610E-01  .610E-01  .532E-01  .556E-01  .511E-01
  .442E-01  .452E-01  .508E-01  .558E-01  .605E-01  .691E-01  .848E-01  .101E+00
  .117E+00  .163E+00  .184E+00  .168E+00  .163E+00  .144E+00  .129E+00  .119E+00
  .114E+00  .109E+00  .120E+00  .106E+00  .100E+00  .829E-01  .785E-01  .772E-01
  .733E-01  .687E-01  .675E-01  .673E-01  .651E-01  .639E-01  .617E-01  .598E-01
  .585E-01  .574E-01  .567E-01  .561E-01  .555E-01  .550E-01  .546E-01  .542E-01
  .540E-01  .538E-01  .537E-01  .535E-01  .532E-01  .529E-01  .000E+00  .000E+00
  .000E+00  .000E+00  .000E+00  .000E+00  .000E+00  .000E+00  .000E+00  .000E+00
  .000E+00  .000E+00  .000E+00  .000E+00  .000E+00  .000E+00  .000E+00  .000E+00
  .000E+00  .000E+00  .000E+00  .000E+00
  .188E-02  .188E-02  .188E-02  .189E-02  .188E-02  .188E-02  .189E-02  .185E-02
  .188E-02  .192E-02  .194E-02  .213E-02  .227E-02  .230E-02  .242E-02  .250E-02
  .270E-02  .286E-02  .334E-02  .309E-02  .331E-02  .373E-02  .397E-02  .500E-02
  .521E-02  .565E-02  .483E-02  .423E-02  .373E-02  .296E-02  .288E-02  .237E-02
  .210E-02  .217E-02  .216E-02  .216E-02  .233E-02  .264E-02  .301E-02  .340E-02
  .395E-02  .523E-02  .515E-02  .453E-02  .337E-02  .282E-02  .259E-02  .239E-02
  .196E-02  .161E-02  .160E-02  .129E-02  .116E-02  .894E-03  .772E-03  .620E-03
  .480E-03  .389E-03  .332E-03  .277E-03  .234E-03  .184E-03  .137E-03  .111E-03
  .920E-04  .779E-04  .674E-04  .599E-04  .538E-04  .483E-04  .435E-04  .393E-04
  .358E-04  .328E-04  .303E-04  .282E-04  .238E-04  .204E-04  .000E+00  .000E+00
  .000E+00  .000E+00  .000E+00  .000E+00  .000E+00  .000E+00  .000E+00  .000E+00
  .000E+00  .000E+00  .000E+00  .000E+00  .000E+00  .000E+00  .000E+00  .000E+00
  .000E+00  .000E+00  .000E+00  .000E+00
  .463E-02  .486E-02  .510E-02  .533E-02  .556E-02  .577E-02  .637E-02  .683E-02
  .750E-02  .824E-02  .896E-02  .104E-01  .119E-01  .127E-01  .141E-01  .154E-01
  .183E-01  .210E-01  .266E-01  .267E-01  .307E-01  .362E-01  .416E-01  .550E-01
  .607E-01  .686E-01  .656E-01  .625E-01  .599E-01  .499E-01  .531E-01  .459E-01
  .440E-01  .478E-01  .503E-01  .530E-01  .599E-01  .714E-01  .846E-01  .100E+00
  .121E+00  .175E+00  .189E+00  .180E+00  .144E+00  .129E+00  .127E+00  .124E+00
  .107E+00  .931E-01  .972E-01  .864E-01  .846E-01  .710E-01  .659E-01  .564E-01
  .463E-01  .399E-01  .361E-01  .317E-01  .280E-01  .240E-01  .194E-01  .167E-01
  .148E-01  .134E-01  .124E-01  .117E-01  .111E-01  .104E-01  .979E-02  .923E-02
  .874E-02  .832E-02  .797E-02  .766E-02  .700E-02  .642E-02  .000E+00  .000E+00
  .000E+00  .000E+00  .000E+00  .000E+00  .000E+00  .000E+00  .000E+00  .000E+00
  .000E+00  .000E+00  .000E+00  .000E+00  .000E+00  .000E+00  .000E+00  .000E+00
  .000E+00  .000E+00  .000E+00  .000E+00
  .405E+02  .405E+02  .405E+02  .405E+02  .405E+02  .405E+02  .405E+02  .405E+02
  .405E+02  .405E+02  .405E+02  .405E+02  .405E+02  .405E+02  .405E+02  .405E+02
  .405E+02  .416E+02  .417E+02  .417E+02  .417E+02  .417E+02  .417E+02  .417E+02
  .423E+02  .432E+02  .435E+02  .407E+02  .407E+02  .407E+02  .407E+02  .406E+02
  .403E+02  .403E+02  .403E+02  .403E+02  .403E+02  .403E+02  .403E+02  .406E+02
  .411E+02  .412E+02  .416E+02  .417E+02  .456E+02  .405E+02  .405E+02  .405E+02
  .405E+02  .447E+02  .443E+02  .440E+02  .426E+02  .415E+02  .415E+02  .415E+02
  .415E+02  .441E+02  .411E+02  .411E+02  .411E+02  .403E+02  .403E+02  .403E+02
  .403E+02  .399E+02  .399E+02  .399E+02  .399E+02  .399E+02  .399E+02  .399E+02
  .399E+02  .399E+02  .399E+02  .399E+02  .399E+02  .399E+02  .000E+00  .000E+00
  .000E+00  .000E+00  .000E+00  .000E+00  .000E+00  .000E+00  .000E+00  .000E+00
  .000E+00  .000E+00  .000E+00  .000E+00  .000E+00  .000E+00  .000E+00  .000E+00
  .000E+00  .000E+00  .000E+00  .000E+00
  .416E+02  .416E+02  .416E+02  .416E+02  .416E+02  .416E+02  .416E+02  .416E+02
  .416E+02  .406E+02  .269E+02  .292E+02  .292E+02  .416E+02  .416E+02  .293E+02
  .416E+02  .416E+02  .417E+02  .417E+02  .417E+02  .417E+02  .417E+02  .417E+02
  .418E+02  .432E+02  .435E+02  .406E+02  .407E+02  .407E+02  .407E+02  .407E+02
  .407E+02  .407E+02  .407E+02  .407E+02  .407E+02  .407E+02  .407E+02  .407E+02
  .407E+02  .414E+02  .417E+02  .415E+02  .406E+02  .406E+02  .406E+02  .404E+02
  .404E+02  .404E+02  .446E+02  .416E+02  .416E+02  .404E+02  .413E+02  .413E+02
  .413E+02  .413E+02  .401E+02  .401E+02  .401E+02  .401E+02  .401E+02  .401E+02
  .401E+02  .401E+02  .401E+02  .401E+02  .401E+02  .401E+02  .401E+02  .401E+02
  .401E+02  .401E+02  .401E+02  .401E+02  .401E+02  .401E+02  .000E+00  .000E+00
  .000E+00  .000E+00  .000E+00  .000E+00  .000E+00  .000E+00  .000E+00  .000E+00
  .000E+00  .000E+00  .000E+00  .000E+00  .000E+00  .000E+00  .000E+00  .000E+00
  .000E+00  .000E+00  .000E+00  .000E+00
  .405E+02  .405E+02  .405E+02  .405E+02  .405E+02  .405E+02  .405E+02  .405E+02
  .405E+02  .405E+02  .405E+02  .405E+02  .405E+02  .405E+02  .405E+02  .405E+02
  .405E+02  .416E+02  .417E+02  .417E+02  .417E+02  .417E+02  .417E+02  .417E+02
  .423E+02  .432E+02  .435E+02  .407E+02  .407E+02  .407E+02  .407E+02  .406E+02
  .403E+02  .403E+02  .403E+02  .403E+02  .403E+02  .403E+02  .403E+02  .408E+02
  .409E+02  .412E+02  .416E+02  .416E+02  .456E+02  .405E+02  .405E+02  .405E+02
  .405E+02  .447E+02  .443E+02  .440E+02  .425E+02  .414E+02  .415E+02  .415E+02
  .415E+02  .440E+02  .411E+02  .411E+02  .411E+02  .402E+02  .402E+02  .402E+02
  .402E+02  .402E+02  .402E+02  .399E+02  .399E+02  .399E+02  .399E+02  .399E+02
  .399E+02  .399E+02  .399E+02  .399E+02  .399E+02  .399E+02  .000E+00  .000E+00
  .000E+00  .000E+00  .000E+00  .000E+00  .000E+00  .000E+00  .000E+00  .000E+00
  .000E+00  .000E+00  .000E+00  .000E+00  .000E+00  .000E+00  .000E+00  .000E+00
  .000E+00  .000E+00  .000E+00  .000E+00
/&   ----------  End of spectral data for channel  1  ----------
Response and Fourier amplitude spectra (78 periods,  .04 -  6.0 sec)   for      
Corrected accelerogram   38695658.CI.LJR.--.HN      Chan  2: 360 Deg     from   
Uncorrected Accelerogram Data             Processed: 09/19/20, CGS  ciljr--p    
Rcrd of Fri Sep 18, 2020 23:38:40.0 PDT               (Avol1 v2.0, 4/18 CSMIP)  
                                        (Origin:  To be determined)             
38695658.CI.LJR.--.HN                Start time:  9/19/20, 06:38:40.0 UTC (GPS) 
Station Id. LJR     34.808N, 118.868W    Q330    s/n  114  (3 Chns of  3 at Sta)
Gorman, off I-5                          SCSN   Data: Acceleration              
Chan  2: 360 Deg                                                                
Rcrd of Fri Sep 18, 2020 23:38:40.0 PDT    Fri Sep 18, 2020 23:38:40.0 PDT      
Hypocenter:  To be determined.               ML:  To be determined.             
Instr Period =  .0050 sec,  Damping =  .707,  Sensitivity = 4.99 v/g  (Nominal) 
                        Record Length =301.000 sec.                             
                                     Uncor Max  =  -.001 g, at   43.190 sec.    
RMS accel of (uncor) record  =        .   Chn. metadata effective date:         
Accelerogram bandpass filtered with 3 dB pts at   .30 and 23.00 cyc/sec         
                 instrument- and base-line correcte                             
                                                                                
                                                                                
                                                                                
                                                                                
                                                                                
Rcrd of Fri Sep 18, 2020 23:38:40.0 PDT    Fri Sep 18, 2020 23:38:40.0 PDT      
                                                                                
38695658.CI.LJR.--.HN     Gorman, off I-5   Chan  2: 360 Deg                    
                                                                                
38695658.CI.LJR.--.HN     Gorman, off I-5   Chan  2: 360 Deg                    
                                                                                
Units for spectra are inches and sec, except Sa is in fraction of g.            
                                                                                
    2  100    2    3    3  100 -999    3    1   24  605  114    050699   41    0
    6   38   40    8  263    9   19 2020   10    3  36035752   39   15   74 -999
35752 -999  100    6 -999 -999 -999 -999 -999 -999 -999 -999 -999 -999 -999 -999
 -999 -999 -999 -99915050    2 -999    0 -999   20 -999 -999    3    1 -99915050
    315050    4   78    1    3    5    0    0 -999    0 -999 -999    6 -999    2
    2    2    4 -999 -999 -999 -999 -999 -999 -999 -999    1 -999 -999 -999  111
    1    1 -999 -999
      .005      .707   357.520      .000     1.000  4990.473     -.001    43.190
   200.000     2.384      .478  -999.000    10.000  -999.000     4.000  -999.000
    20.000   -18.274    20.000  -999.000  -999.000  -999.000  -999.000     -.001
      .001      .002     2.000    15.000    34.808  -118.868      .001      .001
     1.062      .002      .003  1443.000  -999.000  -999.000  -999.000  -999.000
     1.000  -999.000  -999.000  -999.000  -999.000  -999.000  -999.000   120.000
     -.900     2.000     6.800   980.665      .020   301.000    31.831      .000
  -999.000    23.000  -999.000   301.000      .020      .300  -999.000  -999.000
    43.200    -1.234    40.280      .071    40.380      .008      .000      .300
    23.000      .020      .020      .000      .020      .005  -999.000  -999.000
      .005      .260      .004      .004      .001      .000  -999.000  -999.000
  -999.000  -999.000  -999.000  -999.000  -999.000  -999.000  -999.000  -999.000
  -999.000  -999.000  -999.000  -999.000
      .050
      .040      .042      .044      .046      .048      .050      .055      .060
      .065      .070      .075      .080      .085      .090      .095      .100
      .110      .120      .130      .140      .150      .160      .170      .180
      .190      .200      .220      .240      .260      .280      .300      .320
      .340      .360      .380      .400      .420      .440      .460      .480
      .500      .550      .600      .650      .700      .750      .800      .850
      .900      .950     1.000     1.100     1.200     1.300     1.400     1.500
     1.600     1.700     1.800     1.900     2.000     2.200     2.400     2.600
     2.800     3.000     3.200     3.400     3.600     3.800     4.000     4.200
     4.400     4.600     4.800     5.000     5.500     6.000      .000      .000
      .000      .000      .000      .000      .000      .000      .000      .000
      .000      .000      .000      .000      .000      .000      .000      .000
      .000      .000      .000      .000
Fourier amplitude spectra in in/sec.
  .000E+00  .000E+00  .000E+00  .000E+00  .000E+00  .000E+00  .000E+00  .000E+00
  .000E+00  .000E+00  .000E+00  .000E+00  .000E+00  .000E+00  .000E+00  .000E+00
  .000E+00  .000E+00  .000E+00  .000E+00  .000E+00  .000E+00  .000E+00  .000E+00
  .000E+00  .000E+00  .000E+00  .000E+00  .000E+00  .000E+00  .000E+00  .000E+00
  .000E+00  .000E+00  .000E+00  .000E+00  .000E+00  .000E+00  .000E+00  .000E+00
  .000E+00  .000E+00  .000E+00  .000E+00  .000E+00  .000E+00  .000E+00  .000E+00
  .000E+00  .000E+00  .000E+00  .000E+00  .000E+00  .000E+00  .000E+00  .000E+00
  .000E+00  .000E+00  .000E+00  .000E+00  .000E+00  .000E+00  .000E+00  .000E+00
  .000E+00  .000E+00  .000E+00  .000E+00  .000E+00  .000E+00  .000E+00  .000E+00
  .000E+00  .000E+00  .000E+00  .000E+00  .000E+00  .000E+00  .000E+00  .000E+00
  .000E+00  .000E+00  .000E+00  .000E+00  .000E+00  .000E+00  .000E+00  .000E+00
  .000E+00  .000E+00  .000E+00  .000E+00  .000E+00  .000E+00  .000E+00  .000E+00
  .000E+00  .000E+00  .000E+00  .000E+00
Damping =  .05. Data of Sd,Sv,Sa,Pssv,ttSd,ttSv,ttSa :
  .208E-04  .231E-04  .254E-04  .278E-04  .305E-04  .332E-04  .407E-04  .499E-04
  .637E-04  .761E-04  .877E-04  .103E-03  .114E-03  .124E-03  .147E-03  .175E-03
  .249E-03  .333E-03  .460E-03  .584E-03  .878E-03  .902E-03  .114E-02  .137E-02
  .143E-02  .143E-02  .187E-02  .250E-02  .305E-02  .342E-02  .329E-02  .356E-02
  .350E-02  .324E-02  .316E-02  .315E-02  .325E-02  .381E-02  .474E-02  .512E-02
