Response and Fourier amplitude spectra (78 periods,  .04 -  6.0 sec)   for      
Corrected accelerogram   38695658.CI.LKH.--.HN      Chan  1:  90 Deg     from   
Uncorrected Accelerogram Data             Processed: 09/19/20, CGS  cilkh--i    
Rcrd of Fri Sep 18, 2020 23:38:45.0 PDT               (Avol1 v2.0, 4/18 CSMIP)  
                                        (Origin:  To be determined)             
38695658.CI.LKH.--.HN                Start time:  9/19/20, 06:38:45.0 UTC (GPS) 
Station Id. LKH     33.236N, 116.759W    ObsMMS  s/n 5452  (3 Chns of  3 at Sta)
Lake Henshaw                             SCSN   Data: Acceleration              
Chan  1:  90 Deg                                                                
Rcrd of Fri Sep 18, 2020 23:38:45.0 PDT    Fri Sep 18, 2020 23:38:45.0 PDT      
Hypocenter:  To be determined.               ML:  To be determined.             
Instr Period =  .0050 sec,  Damping =  .707,  Sensitivity = 4.99 v/g  (Nominal) 
                        Record Length =301.000 sec.                             
                                     Uncor Max  =   .002 g, at   46.040 sec.    
RMS accel of (uncor) record  =        .   Chn. metadata effective date:         
Accelerogram bandpass filtered with 3 dB pts at   .30 and 23.00 cyc/sec         
                 instrument- and base-line correcte                             
                                                                                
                                                                                
                                                                                
                                                                                
                                                                                
Rcrd of Fri Sep 18, 2020 23:38:45.0 PDT    Fri Sep 18, 2020 23:38:45.0 PDT      
                                                                                
38695658.CI.LKH.--.HN     Lake Henshaw    Chan  1:  90 Deg                      
                                                                                
38695658.CI.LKH.--.HN     Lake Henshaw    Chan  1:  90 Deg                      
                                                                                
Units for spectra are inches and sec, except Sa is in fraction of g.            
                                                                                
    1  100    1    3    3  100 -999    3    1    0   15 5452    0    0   41    0
    6   38   45    8  263    9   19 2020   10    3   9035694   39   12   74 -999
35694 -999  100    6 -999 -999 -999 -999 -999 -999 -999 -999 -999 -999 -999 -999
 -999 -999 -999 -99915050    2 -999    0 -999   20 -999 -999    3    1 -99915050
    315050    4   78    1    3    5    0    0 -999    0 -999 -999    6 -999    2
    2    2    4 -999 -999 -999 -999 -999 -999 -999 -999    1 -999 -999 -999  111
    1    1 -999 -999
      .005      .707   356.940      .000     1.000  4994.462      .002    46.040
   200.000     2.384      .477  -999.000    10.000  -999.000     4.000  -999.000
    20.000    -5.156      .000  -999.000  -999.000  -999.000  -999.000      .000
      .000      .000     2.000    15.000    33.236  -116.759      .001      .001
     1.090      .000      .000   847.000  -999.000  -999.000  -999.000  -999.000
     1.000  -999.000    -8.000  -999.000  -999.000  -999.000  -999.000   120.000
     -.900     2.000     6.800   980.665      .020   301.000    31.831      .000
  -999.000    23.000  -999.000   301.000      .020      .300  -999.000  -999.000
    46.040     1.527    46.740      .047    46.160      .004      .000      .300
    23.000      .020      .020      .000      .020      .004  -999.000  -999.000
      .007      .220      .005      .004      .000      .000  -999.000  -999.000
  -999.000  -999.000  -999.000  -999.000  -999.000  -999.000  -999.000  -999.000
  -999.000  -999.000  -999.000  -999.000
      .050
      .040      .042      .044      .046      .048      .050      .055      .060
      .065      .070      .075      .080      .085      .090      .095      .100
      .110      .120      .130      .140      .150      .160      .170      .180
      .190      .200      .220      .240      .260      .280      .300      .320
      .340      .360      .380      .400      .420      .440      .460      .480
      .500      .550      .600      .650      .700      .750      .800      .850
      .900      .950     1.000     1.100     1.200     1.300     1.400     1.500
     1.600     1.700     1.800     1.900     2.000     2.200     2.400     2.600
     2.800     3.000     3.200     3.400     3.600     3.800     4.000     4.200
     4.400     4.600     4.800     5.000     5.500     6.000      .000      .000
      .000      .000      .000      .000      .000      .000      .000      .000
      .000      .000      .000      .000      .000      .000      .000      .000
      .000      .000      .000      .000
Fourier amplitude spectra in in/sec.
  .000E+00  .000E+00  .000E+00  .000E+00  .000E+00  .000E+00  .000E+00  .000E+00
  .000E+00  .000E+00  .000E+00  .000E+00  .000E+00  .000E+00  .000E+00  .000E+00
  .000E+00  .000E+00  .000E+00  .000E+00  .000E+00  .000E+00  .000E+00  .000E+00
  .000E+00  .000E+00  .000E+00  .000E+00  .000E+00  .000E+00  .000E+00  .000E+00
  .000E+00  .000E+00  .000E+00  .000E+00  .000E+00  .000E+00  .000E+00  .000E+00
  .000E+00  .000E+00  .000E+00  .000E+00  .000E+00  .000E+00  .000E+00  .000E+00
  .000E+00  .000E+00  .000E+00  .000E+00  .000E+00  .000E+00  .000E+00  .000E+00
  .000E+00  .000E+00  .000E+00  .000E+00  .000E+00  .000E+00  .000E+00  .000E+00
  .000E+00  .000E+00  .000E+00  .000E+00  .000E+00  .000E+00  .000E+00  .000E+00
  .000E+00  .000E+00  .000E+00  .000E+00  .000E+00  .000E+00  .000E+00  .000E+00
  .000E+00  .000E+00  .000E+00  .000E+00  .000E+00  .000E+00  .000E+00  .000E+00
  .000E+00  .000E+00  .000E+00  .000E+00  .000E+00  .000E+00  .000E+00  .000E+00
  .000E+00  .000E+00  .000E+00  .000E+00
Damping =  .05. Data of Sd,Sv,Sa,Pssv,ttSd,ttSv,ttSa :
  .244E-04  .271E-04  .297E-04  .331E-04  .367E-04  .405E-04  .499E-04  .618E-04
  .787E-04  .944E-04  .104E-03  .108E-03  .152E-03  .196E-03  .242E-03  .323E-03
  .424E-03  .416E-03  .421E-03  .538E-03  .788E-03  .116E-02  .128E-02  .133E-02
  .156E-02  .194E-02  .327E-02  .333E-02  .355E-02  .329E-02  .405E-02  .419E-02
  .379E-02  .352E-02  .333E-02  .340E-02  .301E-02  .270E-02  .271E-02  .278E-02
  .276E-02  .267E-02  .301E-02  .260E-02  .246E-02  .237E-02  .294E-02  .285E-02
  .291E-02  .285E-02  .263E-02  .203E-02  .239E-02  .245E-02  .257E-02  .260E-02
  .254E-02  .236E-02  .246E-02  .238E-02  .247E-02  .267E-02  .259E-02  .237E-02
  .225E-02  .199E-02  .194E-02  .182E-02  .174E-02  .174E-02  .170E-02  .166E-02
  .164E-02  .161E-02  .159E-02  .157E-02  .155E-02  .154E-02  .000E+00  .000E+00
  .000E+00  .000E+00  .000E+00  .000E+00  .000E+00  .000E+00  .000E+00  .000E+00
  .000E+00  .000E+00  .000E+00  .000E+00  .000E+00  .000E+00  .000E+00  .000E+00
  .000E+00  .000E+00  .000E+00  .000E+00
  .802E-03  .877E-03  .928E-03  .999E-03  .114E-02  .125E-02  .163E-02  .222E-02
  .287E-02  .403E-02  .544E-02  .595E-02  .718E-02  .107E-01  .123E-01  .150E-01
  .178E-01  .191E-01  .174E-01  .202E-01  .276E-01  .420E-01  .414E-01  .423E-01
  .492E-01  .613E-01  .925E-01  .887E-01  .881E-01  .711E-01  .858E-01  .842E-01
  .767E-01  .695E-01  .669E-01  .626E-01  .582E-01  .505E-01  .466E-01  .418E-01
  .428E-01  .452E-01  .431E-01  .329E-01  .303E-01  .275E-01  .272E-01  .321E-01
  .309E-01  .272E-01  .269E-01  .242E-01  .247E-01  .259E-01  .287E-01  .286E-01
  .270E-01  .252E-01  .249E-01  .232E-01  .222E-01  .219E-01  .209E-01  .200E-01
  .200E-01  .194E-01  .186E-01  .186E-01  .186E-01  .186E-01  .186E-01  .185E-01
  .185E-01  .184E-01  .183E-01  .183E-01  .182E-01  .182E-01  .000E+00  .000E+00
  .000E+00  .000E+00  .000E+00  .000E+00  .000E+00  .000E+00  .000E+00  .000E+00
  .000E+00  .000E+00  .000E+00  .000E+00  .000E+00  .000E+00  .000E+00  .000E+00
  .000E+00  .000E+00  .000E+00  .000E+00
  .156E-02  .157E-02  .157E-02  .160E-02  .163E-02  .165E-02  .169E-02  .176E-02
  .191E-02  .198E-02  .189E-02  .172E-02  .214E-02  .249E-02  .275E-02  .336E-02
  .361E-02  .301E-02  .254E-02  .279E-02  .361E-02  .468E-02  .449E-02  .419E-02
  .448E-02  .503E-02  .693E-02  .599E-02  .549E-02  .429E-02  .463E-02  .423E-02
  .342E-02  .276E-02  .240E-02  .223E-02  .175E-02  .143E-02  .134E-02  .124E-02
  .114E-02  .901E-03  .860E-03  .636E-03  .523E-03  .438E-03  .475E-03  .410E-03
  .373E-03  .330E-03  .273E-03  .177E-03  .175E-03  .153E-03  .137E-03  .123E-03
  .106E-03  .856E-04  .813E-04  .696E-04  .657E-04  .599E-04  .481E-04  .400E-04
  .336E-04  .262E-04  .231E-04  .202E-04  .177E-04  .162E-04  .147E-04  .134E-04
  .123E-04  .114E-04  .105E-04  .985E-05  .845E-05  .741E-05  .000E+00  .000E+00
  .000E+00  .000E+00  .000E+00  .000E+00  .000E+00  .000E+00  .000E+00  .000E+00
  .000E+00  .000E+00  .000E+00  .000E+00  .000E+00  .000E+00  .000E+00  .000E+00
  .000E+00  .000E+00  .000E+00  .000E+00
  .383E-02  .405E-02  .425E-02  .453E-02  .480E-02  .509E-02  .570E-02  .647E-02
  .761E-02  .847E-02  .870E-02  .845E-02  .112E-01  .137E-01  .160E-01  .203E-01
  .242E-01  .218E-01  .203E-01  .241E-01  .330E-01  .455E-01  .471E-01  .464E-01
  .515E-01  .610E-01  .934E-01  .871E-01  .857E-01  .739E-01  .848E-01  .823E-01
  .700E-01  .614E-01  .550E-01  .534E-01  .450E-01  .385E-01  .370E-01  .364E-01
  .347E-01  .305E-01  .315E-01  .251E-01  .221E-01  .199E-01  .231E-01  .210E-01
  .203E-01  .189E-01  .165E-01  .116E-01  .125E-01  .119E-01  .115E-01  .109E-01
  .998E-02  .872E-02  .857E-02  .787E-02  .775E-02  .761E-02  .677E-02  .573E-02
  .505E-02  .417E-02  .381E-02  .336E-02  .303E-02  .287E-02  .267E-02  .249E-02
  .234E-02  .220E-02  .208E-02  .198E-02  .177E-02  .162E-02  .000E+00  .000E+00
  .000E+00  .000E+00  .000E+00  .000E+00  .000E+00  .000E+00  .000E+00  .000E+00
  .000E+00  .000E+00  .000E+00  .000E+00  .000E+00  .000E+00  .000E+00  .000E+00
  .000E+00  .000E+00  .000E+00  .000E+00
  .460E+02  .460E+02  .460E+02  .460E+02  .460E+02  .460E+02  .460E+02  .460E+02
  .460E+02  .460E+02  .460E+02  .459E+02  .458E+02  .460E+02  .460E+02  .460E+02
  .460E+02  .460E+02  .461E+02  .467E+02  .467E+02  .468E+02  .468E+02  .468E+02
  .283E+02  .462E+02  .462E+02  .462E+02  .462E+02  .515E+02  .514E+02  .514E+02
  .515E+02  .457E+02  .457E+02  .461E+02  .456E+02  .460E+02  .460E+02  .460E+02
  .460E+02  .456E+02  .454E+02  .474E+02  .513E+02  .478E+02  .479E+02  .479E+02
  .472E+02  .468E+02  .468E+02  .468E+02  .468E+02  .468E+02  .470E+02  .479E+02
  .514E+02  .500E+02  .509E+02  .501E+02  .496E+02  .496E+02  .477E+02  .467E+02
  .467E+02  .459E+02  .459E+02  .461E+02  .461E+02  .461E+02  .461E+02  .461E+02
  .461E+02  .461E+02  .461E+02  .461E+02  .461E+02  .461E+02  .000E+00  .000E+00
  .000E+00  .000E+00  .000E+00  .000E+00  .000E+00  .000E+00  .000E+00  .000E+00
  .000E+00  .000E+00  .000E+00  .000E+00  .000E+00  .000E+00  .000E+00  .000E+00
  .000E+00  .000E+00  .000E+00  .000E+00
  .458E+02  .458E+02  .458E+02  .466E+02  .466E+02  .466E+02  .458E+02  .466E+02
  .466E+02  .279E+02  .490E+02  .490E+02  .458E+02  .460E+02  .460E+02  .460E+02
  .461E+02  .461E+02  .459E+02  .496E+02  .468E+02  .468E+02  .469E+02  .469E+02
  .283E+02  .283E+02  .468E+02  .466E+02  .462E+02  .515E+02  .515E+02  .515E+02
  .514E+02  .456E+02  .456E+02  .456E+02  .461E+02  .461E+02  .461E+02  .461E+02
  .460E+02  .455E+02  .455E+02  .475E+02  .479E+02  .513E+02  .460E+02  .486E+02
  .513E+02  .471E+02  .467E+02  .455E+02  .467E+02  .467E+02  .467E+02  .467E+02
  .467E+02  .513E+02  .513E+02  .467E+02  .467E+02  .467E+02  .467E+02  .513E+02
  .513E+02  .462E+02  .462E+02  .513E+02  .513E+02  .513E+02  .513E+02  .513E+02
  .513E+02  .513E+02  .513E+02  .513E+02  .513E+02  .467E+02  .000E+00  .000E+00
  .000E+00  .000E+00  .000E+00  .000E+00  .000E+00  .000E+00  .000E+00  .000E+00
  .000E+00  .000E+00  .000E+00  .000E+00  .000E+00  .000E+00  .000E+00  .000E+00
  .000E+00  .000E+00  .000E+00  .000E+00
  .460E+02  .460E+02  .460E+02  .460E+02  .460E+02  .460E+02  .460E+02  .460E+02
  .460E+02  .460E+02  .460E+02  .459E+02  .458E+02  .460E+02  .460E+02  .460E+02
  .460E+02  .460E+02  .461E+02  .467E+02  .467E+02  .468E+02  .468E+02  .468E+02
  .283E+02  .284E+02  .462E+02  .462E+02  .462E+02  .515E+02  .514E+02  .514E+02
  .515E+02  .457E+02  .463E+02  .461E+02  .455E+02  .460E+02  .460E+02  .460E+02
  .460E+02  .456E+02  .454E+02  .474E+02  .513E+02  .478E+02  .478E+02  .479E+02
  .471E+02  .468E+02  .468E+02  .468E+02  .468E+02  .468E+02  .470E+02  .478E+02
  .513E+02  .509E+02  .509E+02  .512E+02  .495E+02  .495E+02  .477E+02  .466E+02
  .466E+02  .466E+02  .461E+02  .461E+02  .461E+02  .461E+02  .461E+02  .461E+02
  .461E+02  .461E+02  .461E+02  .461E+02  .461E+02  .461E+02  .000E+00  .000E+00
  .000E+00  .000E+00  .000E+00  .000E+00  .000E+00  .000E+00  .000E+00  .000E+00
  .000E+00  .000E+00  .000E+00  .000E+00  .000E+00  .000E+00  .000E+00  .000E+00
  .000E+00  .000E+00  .000E+00  .000E+00
/&   ----------  End of spectral data for channel  1  ----------
Response and Fourier amplitude spectra (78 periods,  .04 -  6.0 sec)   for      
Corrected accelerogram   38695658.CI.LKH.--.HN      Chan  2: 360 Deg     from   
Uncorrected Accelerogram Data             Processed: 09/19/20, CGS  cilkh--i    
Rcrd of Fri Sep 18, 2020 23:38:45.0 PDT               (Avol1 v2.0, 4/18 CSMIP)  
                                        (Origin:  To be determined)             
38695658.CI.LKH.--.HN                Start time:  9/19/20, 06:38:45.0 UTC (GPS) 
Station Id. LKH     33.236N, 116.759W    ObsMMS  s/n 5452  (3 Chns of  3 at Sta)
Lake Henshaw                             SCSN   Data: Acceleration              
Chan  2: 360 Deg                                                                
Rcrd of Fri Sep 18, 2020 23:38:45.0 PDT    Fri Sep 18, 2020 23:38:45.0 PDT      
Hypocenter:  To be determined.               ML:  To be determined.             
Instr Period =  .0050 sec,  Damping =  .707,  Sensitivity = 4.99 v/g  (Nominal) 
                        Record Length =301.000 sec.                             
                                     Uncor Max  =   .002 g, at   45.470 sec.    
RMS accel of (uncor) record  =        .   Chn. metadata effective date:         
Accelerogram bandpass filtered with 3 dB pts at   .30 and 23.00 cyc/sec         
                 instrument- and base-line correcte                             
                                                                                
                                                                                
                                                                                
                                                                                
                                                                                
Rcrd of Fri Sep 18, 2020 23:38:45.0 PDT    Fri Sep 18, 2020 23:38:45.0 PDT      
                                                                                
38695658.CI.LKH.--.HN     Lake Henshaw    Chan  2: 360 Deg                      
                                                                                
38695658.CI.LKH.--.HN     Lake Henshaw    Chan  2: 360 Deg                      
                                                                                
Units for spectra are inches and sec, except Sa is in fraction of g.            
                                                                                
    2  100    2    3    3  100 -999    3    1    0   15 5452    0    0   41    0
    6   38   45    8  263    9   19 2020   10    3  36035794   39   12   74 -999
35794 -999  100    6 -999 -999 -999 -999 -999 -999 -999 -999 -999 -999 -999 -999
 -999 -999 -999 -99915050    2 -999    0 -999   20 -999 -999    3    1 -99915050
    315050    4   78    1    3    5    0    0 -999    0 -999 -999    6 -999    2
    2    2    4 -999 -999 -999 -999 -999 -999 -999 -999    1 -999 -999 -999  111
    1    1 -999 -999
      .005      .707   357.940      .000     1.000  4989.476      .002    45.470
   200.000     2.384      .478  -999.000    10.000  -999.000     4.000  -999.000
    20.000   -10.985      .000  -999.000  -999.000  -999.000  -999.000     -.001
      .000      .001     2.000    15.000    33.236  -116.759      .001      .001
     1.023      .001      .001   847.000  -999.000  -999.000  -999.000  -999.000
     1.000  -999.000  -999.000  -999.000  -999.000  -999.000  -999.000   120.000
     -.900     2.000     6.800   980.665      .020   301.000    31.831      .000
  -999.000    23.000  -999.000   301.000      .020      .300  -999.000  -999.000
    45.460     1.615    45.400     -.066    45.480     -.003      .000      .300
    23.000      .020      .020      .000      .020      .003  -999.000  -999.000
      .008      .220      .006      .004      .000      .000  -999.000  -999.000
  -999.000  -999.000  -999.000  -999.000  -999.000  -999.000  -999.000  -999.000
  -999.000  -999.000  -999.000  -999.000
      .050
      .040      .042      .044      .046      .048      .050      .055      .060
      .065      .070      .075      .080      .085      .090      .095      .100
      .110      .120      .130      .140      .150      .160      .170      .180
      .190      .200      .220      .240      .260      .280      .300      .320
      .340      .360      .380      .400      .420      .440      .460      .480
      .500      .550      .600      .650      .700      .750      .800      .850
      .900      .950     1.000     1.100     1.200     1.300     1.400     1.500
     1.600     1.700     1.800     1.900     2.000     2.200     2.400     2.600
     2.800     3.000     3.200     3.400     3.600     3.800     4.000     4.200
     4.400     4.600     4.800     5.000     5.500     6.000      .000      .000
      .000      .000      .000      .000      .000      .000      .000      .000
      .000      .000      .000      .000      .000      .000      .000      .000
      .000      .000      .000      .000
Fourier amplitude spectra in in/sec.
  .000E+00  .000E+00  .000E+00  .000E+00  .000E+00  .000E+00  .000E+00  .000E+00
  .000E+00  .000E+00  .000E+00  .000E+00  .000E+00  .000E+00  .000E+00  .000E+00
  .000E+00  .000E+00  .000E+00  .000E+00  .000E+00  .000E+00  .000E+00  .000E+00
  .000E+00  .000E+00  .000E+00  .000E+00  .000E+00  .000E+00  .000E+00  .000E+00
  .000E+00  .000E+00  .000E+00  .000E+00  .000E+00  .000E+00  .000E+00  .000E+00
  .000E+00  .000E+00  .000E+00  .000E+00  .000E+00  .000E+00  .000E+00  .000E+00
  .000E+00  .000E+00  .000E+00  .000E+00  .000E+00  .000E+00  .000E+00  .000E+00
  .000E+00  .000E+00  .000E+00  .000E+00  .000E+00  .000E+00  .000E+00  .000E+00
  .000E+00  .000E+00  .000E+00  .000E+00  .000E+00  .000E+00  .000E+00  .000E+00
  .000E+00  .000E+00  .000E+00  .000E+00  .000E+00  .000E+00  .000E+00  .000E+00
  .000E+00  .000E+00  .000E+00  .000E+00  .000E+00  .000E+00  .000E+00  .000E+00
  .000E+00  .000E+00  .000E+00  .000E+00  .000E+00  .000E+00  .000E+00  .000E+00
  .000E+00  .000E+00  .000E+00  .000E+00
Damping =  .05. Data of Sd,Sv,Sa,Pssv,ttSd,ttSv,ttSa :
  .264E-04  .294E-04  .327E-04  .356E-04  .385E-04  .422E-04  .548E-04  .672E-04
  .821E-04  .101E-03  .125E-03  .147E-03  .169E-03  .220E-03  .228E-03  .227E-03
  .371E-03  .516E-03  .594E-03  .804E-03  .852E-03  .979E-03  .113E-02  .129E-02
  .181E-02  .238E-02  .368E-02  .365E-02  .354E-02  .315E-02  .342E-02  .481E-02
  .537E-02  .492E-02  .419E-02  .377E-02  .374E-02  .427E-02  .458E-02  .405E-02
