Response and Fourier amplitude spectra (78 periods,  .04 -  6.0 sec)   for      
Corrected accelerogram   38695658.CI.LLS.--.HN      Chan  1:  90 Deg     from   
Uncorrected Accelerogram Data             Processed: 09/19/20, CGS  cills--z    
Rcrd of Fri Sep 18, 2020 23:38:32.0 PDT               (Avol1 v2.0, 4/18 CSMIP)  
                                        (Origin:  To be determined)             
38695658.CI.LLS.--.HN                Start time:  9/19/20, 06:38:32.0 UTC (GPS) 
Station Id. LLS     33.684N, 117.943W    ObsMMS  s/n 4314  (3 Chns of  6 at Sta)
Fountain Valley, I-5 at Santa Ana River  SCSN   Data: Acceleration              
Chan  1:  90 Deg                                                                
Rcrd of Fri Sep 18, 2020 23:38:32.0 PDT    Fri Sep 18, 2020 23:38:32.0 PDT      
Hypocenter:  To be determined.               ML:  To be determined.             
Instr Period =  .0050 sec,  Damping =  .707,  Sensitivity = 4.99 v/g  (Nominal) 
                        Record Length =301.000 sec.                             
                                     Uncor Max  =   .005 g, at   40.550 sec.    
RMS accel of (uncor) record  =        .   Chn. metadata effective date:         
Accelerogram bandpass filtered with 3 dB pts at   .30 and 23.00 cyc/sec         
                 instrument- and base-line correcte                             
                                                                                
                                                                                
                                                                                
                                                                                
                                                                                
Rcrd of Fri Sep 18, 2020 23:38:32.0 PDT    Fri Sep 18, 2020 23:38:32.0 PDT      
                                                                                
38695658.CI.LLS.--.HN     Fountain Valley, I-5 at Santa Ana River  SChan  1:  90
 Deg                                                                            
38695658.CI.LLS.--.HN     Fountain Valley, I-5 at Santa Ana River  SChan  1:  90
 Deg                                                                            
Units for spectra are inches and sec, except Sa is in fraction of g.            
                                                                                
    1  100    1    6    6  100 -999    3    1    0   15 4314    050623   41    0
    6   38   32    8  263    9   19 2020   10    3   9035357   39   39   74 -999
35357 -999  100    6 -999 -999 -999 -999 -999 -999 -999 -999 -999 -999 -999 -999
 -999 -999 -999 -99915050    2 -999    0 -999   20 -999 -999    3    1 -99915050
    315050    4   78    1    3    5    0    0 -999    0 -999 -999    6 -999    2
    2    2    4 -999 -999 -999 -999 -999 -999 -999 -999    1 -999 -999 -999  111
    1    1 -999 -999
      .005      .707   353.570      .000     1.000  4993.665      .005    40.550
   200.000     2.384      .477  -999.000    10.000  -999.000     4.000  -999.000
    20.000   -13.404      .000  -999.000  -999.000  -999.000  -999.000      .000
      .000      .000     2.000    15.000    33.684  -117.943      .004      .006
     1.698     -.001      .001     8.000  -999.000  -999.000  -999.000  -999.000
     1.000  -999.000    -8.000  -999.000  -999.000  -999.000  -999.000   120.000
     -.900     2.000     6.800   980.665      .020   301.000    31.831      .000
  -999.000    23.000  -999.000   301.000      .020      .300  -999.000  -999.000
    40.560     4.469    40.480     -.264    36.620     -.024      .000      .300
    23.000      .020      .020      .000      .020      .029  -999.000  -999.000
      .017      .100      .011      .011      .002      .000  -999.000  -999.000
  -999.000  -999.000  -999.000  -999.000  -999.000  -999.000  -999.000  -999.000
  -999.000  -999.000  -999.000  -999.000
      .050
      .040      .042      .044      .046      .048      .050      .055      .060
      .065      .070      .075      .080      .085      .090      .095      .100
      .110      .120      .130      .140      .150      .160      .170      .180
      .190      .200      .220      .240      .260      .280      .300      .320
      .340      .360      .380      .400      .420      .440      .460      .480
      .500      .550      .600      .650      .700      .750      .800      .850
      .900      .950     1.000     1.100     1.200     1.300     1.400     1.500
     1.600     1.700     1.800     1.900     2.000     2.200     2.400     2.600
     2.800     3.000     3.200     3.400     3.600     3.800     4.000     4.200
     4.400     4.600     4.800     5.000     5.500     6.000      .000      .000
      .000      .000      .000      .000      .000      .000      .000      .000
      .000      .000      .000      .000      .000      .000      .000      .000
      .000      .000      .000      .000
Fourier amplitude spectra in in/sec.
  .000E+00  .000E+00  .000E+00  .000E+00  .000E+00  .000E+00  .000E+00  .000E+00
  .000E+00  .000E+00  .000E+00  .000E+00  .000E+00  .000E+00  .000E+00  .000E+00
  .000E+00  .000E+00  .000E+00  .000E+00  .000E+00  .000E+00  .000E+00  .000E+00
  .000E+00  .000E+00  .000E+00  .000E+00  .000E+00  .000E+00  .000E+00  .000E+00
  .000E+00  .000E+00  .000E+00  .000E+00  .000E+00  .000E+00  .000E+00  .000E+00
  .000E+00  .000E+00  .000E+00  .000E+00  .000E+00  .000E+00  .000E+00  .000E+00
  .000E+00  .000E+00  .000E+00  .000E+00  .000E+00  .000E+00  .000E+00  .000E+00
  .000E+00  .000E+00  .000E+00  .000E+00  .000E+00  .000E+00  .000E+00  .000E+00
  .000E+00  .000E+00  .000E+00  .000E+00  .000E+00  .000E+00  .000E+00  .000E+00
  .000E+00  .000E+00  .000E+00  .000E+00  .000E+00  .000E+00  .000E+00  .000E+00
  .000E+00  .000E+00  .000E+00  .000E+00  .000E+00  .000E+00  .000E+00  .000E+00
  .000E+00  .000E+00  .000E+00  .000E+00  .000E+00  .000E+00  .000E+00  .000E+00
  .000E+00  .000E+00  .000E+00  .000E+00
Damping =  .05. Data of Sd,Sv,Sa,Pssv,ttSd,ttSv,ttSa :
  .746E-04  .828E-04  .918E-04  .101E-03  .116E-03  .135E-03  .190E-03  .288E-03
  .404E-03  .481E-03  .556E-03  .703E-03  .976E-03  .978E-03  .115E-02  .170E-02
  .132E-02  .160E-02  .222E-02  .270E-02  .293E-02  .318E-02  .282E-02  .323E-02
  .378E-02  .378E-02  .611E-02  .683E-02  .641E-02  .740E-02  .934E-02  .116E-01
  .133E-01  .140E-01  .147E-01  .182E-01  .217E-01  .230E-01  .256E-01  .299E-01
  .293E-01  .369E-01  .440E-01  .371E-01  .267E-01  .238E-01  .199E-01  .166E-01
  .169E-01  .174E-01  .155E-01  .138E-01  .158E-01  .177E-01  .181E-01  .174E-01
  .194E-01  .189E-01  .215E-01  .163E-01  .168E-01  .187E-01  .150E-01  .148E-01
  .143E-01  .145E-01  .143E-01  .136E-01  .123E-01  .112E-01  .101E-01  .105E-01
  .108E-01  .109E-01  .109E-01  .108E-01  .105E-01  .102E-01  .000E+00  .000E+00
  .000E+00  .000E+00  .000E+00  .000E+00  .000E+00  .000E+00  .000E+00  .000E+00
  .000E+00  .000E+00  .000E+00  .000E+00  .000E+00  .000E+00  .000E+00  .000E+00
  .000E+00  .000E+00  .000E+00  .000E+00
  .471E-02  .522E-02  .637E-02  .784E-02  .891E-02  .989E-02  .164E-01  .257E-01
  .311E-01  .353E-01  .406E-01  .529E-01  .680E-01  .680E-01  .675E-01  .984E-01
  .751E-01  .748E-01  .104E+00  .121E+00  .131E+00  .119E+00  .943E-01  .969E-01
  .105E+00  .104E+00  .169E+00  .165E+00  .146E+00  .161E+00  .190E+00  .228E+00
  .220E+00  .232E+00  .228E+00  .274E+00  .318E+00  .318E+00  .328E+00  .376E+00
  .364E+00  .437E+00  .496E+00  .406E+00  .285E+00  .248E+00  .191E+00  .183E+00
  .177E+00  .155E+00  .140E+00  .129E+00  .131E+00  .132E+00  .136E+00  .145E+00
  .152E+00  .135E+00  .134E+00  .132E+00  .121E+00  .110E+00  .122E+00  .122E+00
  .118E+00  .113E+00  .108E+00  .105E+00  .102E+00  .101E+00  .102E+00  .100E+00
  .101E+00  .102E+00  .103E+00  .103E+00  .104E+00  .104E+00  .000E+00  .000E+00
  .000E+00  .000E+00  .000E+00  .000E+00  .000E+00  .000E+00  .000E+00  .000E+00
  .000E+00  .000E+00  .000E+00  .000E+00  .000E+00  .000E+00  .000E+00  .000E+00
  .000E+00  .000E+00  .000E+00  .000E+00
  .476E-02  .480E-02  .485E-02  .489E-02  .514E-02  .548E-02  .646E-02  .831E-02
  .973E-02  .998E-02  .101E-01  .112E-01  .137E-01  .125E-01  .132E-01  .171E-01
  .113E-01  .115E-01  .133E-01  .141E-01  .136E-01  .129E-01  .100E-01  .103E-01
  .107E-01  .967E-02  .131E-01  .121E-01  .974E-02  .979E-02  .108E-01  .117E-01
  .117E-01  .112E-01  .105E-01  .116E-01  .128E-01  .122E-01  .124E-01  .133E-01
  .120E-01  .125E-01  .126E-01  .901E-02  .563E-02  .436E-02  .321E-02  .237E-02
  .216E-02  .201E-02  .160E-02  .118E-02  .113E-02  .108E-02  .948E-03  .799E-03
  .785E-03  .682E-03  .690E-03  .470E-03  .434E-03  .398E-03  .271E-03  .228E-03
  .191E-03  .175E-03  .153E-03  .131E-03  .111E-03  .960E-04  .773E-04  .736E-04
  .694E-04  .649E-04  .602E-04  .559E-04  .468E-04  .398E-04  .000E+00  .000E+00
  .000E+00  .000E+00  .000E+00  .000E+00  .000E+00  .000E+00  .000E+00  .000E+00
  .000E+00  .000E+00  .000E+00  .000E+00  .000E+00  .000E+00  .000E+00  .000E+00
  .000E+00  .000E+00  .000E+00  .000E+00
  .117E-01  .124E-01  .131E-01  .138E-01  .152E-01  .169E-01  .217E-01  .302E-01
  .391E-01  .432E-01  .466E-01  .552E-01  .721E-01  .683E-01  .761E-01  .107E+00
  .754E-01  .836E-01  .107E+00  .121E+00  .123E+00  .125E+00  .104E+00  .113E+00
  .125E+00  .119E+00  .175E+00  .179E+00  .155E+00  .166E+00  .196E+00  .228E+00
  .245E+00  .245E+00  .243E+00  .286E+00  .325E+00  .328E+00  .349E+00  .392E+00
  .368E+00  .421E+00  .461E+00  .359E+00  .240E+00  .199E+00  .157E+00  .123E+00
  .118E+00  .115E+00  .971E-01  .788E-01  .825E-01  .854E-01  .810E-01  .730E-01
  .762E-01  .700E-01  .750E-01  .539E-01  .528E-01  .534E-01  .393E-01  .358E-01
  .320E-01  .304E-01  .280E-01  .251E-01  .215E-01  .185E-01  .159E-01  .157E-01
  .154E-01  .149E-01  .142E-01  .135E-01  .120E-01  .107E-01  .000E+00  .000E+00
  .000E+00  .000E+00  .000E+00  .000E+00  .000E+00  .000E+00  .000E+00  .000E+00
  .000E+00  .000E+00  .000E+00  .000E+00  .000E+00  .000E+00  .000E+00  .000E+00
  .000E+00  .000E+00  .000E+00  .000E+00
  .405E+02  .405E+02  .405E+02  .405E+02  .314E+02  .314E+02  .314E+02  .314E+02
  .314E+02  .294E+02  .294E+02  .318E+02  .321E+02  .321E+02  .318E+02  .318E+02
  .318E+02  .312E+02  .315E+02  .315E+02  .315E+02  .339E+02  .385E+02  .385E+02
  .386E+02  .409E+02  .409E+02  .375E+02  .375E+02  .403E+02  .367E+02  .382E+02
  .386E+02  .386E+02  .498E+02  .501E+02  .501E+02  .504E+02  .509E+02  .509E+02
  .510E+02  .465E+02  .466E+02  .464E+02  .464E+02  .518E+02  .515E+02  .509E+02
  .506E+02  .506E+02  .506E+02  .516E+02  .601E+02  .485E+02  .562E+02  .610E+02
  .652E+02  .456E+02  .558E+02  .694E+02  .641E+02  .615E+02  .444E+02  .680E+02
  .680E+02  .403E+02  .403E+02  .403E+02  .403E+02  .464E+02  .366E+02  .366E+02
  .366E+02  .366E+02  .366E+02  .366E+02  .366E+02  .366E+02  .000E+00  .000E+00
  .000E+00  .000E+00  .000E+00  .000E+00  .000E+00  .000E+00  .000E+00  .000E+00
  .000E+00  .000E+00  .000E+00  .000E+00  .000E+00  .000E+00  .000E+00  .000E+00
  .000E+00  .000E+00  .000E+00  .000E+00
  .312E+02  .314E+02  .314E+02  .314E+02  .314E+02  .314E+02  .299E+02  .299E+02
  .294E+02  .294E+02  .329E+02  .319E+02  .321E+02  .321E+02  .318E+02  .318E+02
  .318E+02  .313E+02  .315E+02  .315E+02  .315E+02  .339E+02  .385E+02  .385E+02
  .385E+02  .372E+02  .410E+02  .374E+02  .374E+02  .382E+02  .367E+02  .383E+02
  .385E+02  .385E+02  .499E+02  .500E+02  .500E+02  .406E+02  .508E+02  .508E+02
  .509E+02  .467E+02  .465E+02  .465E+02  .463E+02  .463E+02  .507E+02  .404E+02
  .507E+02  .507E+02  .463E+02  .457E+02  .405E+02  .457E+02  .457E+02  .405E+02
  .405E+02  .405E+02  .463E+02  .463E+02  .463E+02  .405E+02  .405E+02  .405E+02
  .405E+02  .405E+02  .405E+02  .405E+02  .405E+02  .463E+02  .463E+02  .405E+02
  .405E+02  .405E+02  .405E+02  .405E+02  .405E+02  .405E+02  .000E+00  .000E+00
  .000E+00  .000E+00  .000E+00  .000E+00  .000E+00  .000E+00  .000E+00  .000E+00
  .000E+00  .000E+00  .000E+00  .000E+00  .000E+00  .000E+00  .000E+00  .000E+00
  .000E+00  .000E+00  .000E+00  .000E+00
  .405E+02  .405E+02  .405E+02  .405E+02  .314E+02  .314E+02  .314E+02  .314E+02
  .314E+02  .294E+02  .294E+02  .318E+02  .321E+02  .321E+02  .318E+02  .318E+02
  .318E+02  .312E+02  .315E+02  .315E+02  .315E+02  .339E+02  .385E+02  .385E+02
  .386E+02  .409E+02  .409E+02  .375E+02  .375E+02  .403E+02  .367E+02  .466E+02
  .386E+02  .386E+02  .498E+02  .501E+02  .501E+02  .504E+02  .509E+02  .509E+02
  .510E+02  .465E+02  .466E+02  .463E+02  .464E+02  .518E+02  .515E+02  .508E+02
  .506E+02  .506E+02  .506E+02  .515E+02  .601E+02  .485E+02  .562E+02  .610E+02
  .652E+02  .455E+02  .558E+02  .558E+02  .641E+02  .614E+02  .444E+02  .679E+02
  .403E+02  .403E+02  .403E+02  .403E+02  .463E+02  .463E+02  .366E+02  .366E+02
  .366E+02  .366E+02  .366E+02  .366E+02  .366E+02  .366E+02  .000E+00  .000E+00
  .000E+00  .000E+00  .000E+00  .000E+00  .000E+00  .000E+00  .000E+00  .000E+00
  .000E+00  .000E+00  .000E+00  .000E+00  .000E+00  .000E+00  .000E+00  .000E+00
  .000E+00  .000E+00  .000E+00  .000E+00
/&   ----------  End of spectral data for channel  1  ----------
Response and Fourier amplitude spectra (78 periods,  .04 -  6.0 sec)   for      
Corrected accelerogram   38695658.CI.LLS.--.HN      Chan  2: 360 Deg     from   
Uncorrected Accelerogram Data             Processed: 09/19/20, CGS  cills--z    
Rcrd of Fri Sep 18, 2020 23:38:32.0 PDT               (Avol1 v2.0, 4/18 CSMIP)  
                                        (Origin:  To be determined)             
38695658.CI.LLS.--.HN                Start time:  9/19/20, 06:38:32.0 UTC (GPS) 
Station Id. LLS     33.684N, 117.943W    ObsMMS  s/n 4314  (3 Chns of  6 at Sta)
Fountain Valley, I-5 at Santa Ana River  SCSN   Data: Acceleration              
Chan  2: 360 Deg                                                                
Rcrd of Fri Sep 18, 2020 23:38:32.0 PDT    Fri Sep 18, 2020 23:38:32.0 PDT      
Hypocenter:  To be determined.               ML:  To be determined.             
Instr Period =  .0050 sec,  Damping =  .707,  Sensitivity = 4.99 v/g  (Nominal) 
                        Record Length =301.000 sec.                             
                                     Uncor Max  =  -.006 g, at   36.440 sec.    
RMS accel of (uncor) record  =        .   Chn. metadata effective date:         
Accelerogram bandpass filtered with 3 dB pts at   .30 and 23.00 cyc/sec         
                 instrument- and base-line correcte                             
                                                                                
                                                                                
                                                                                
                                                                                
                                                                                
Rcrd of Fri Sep 18, 2020 23:38:32.0 PDT    Fri Sep 18, 2020 23:38:32.0 PDT      
                                                                                
38695658.CI.LLS.--.HN     Fountain Valley, I-5 at Santa Ana River  SChan  2: 360
 Deg                                                                            
38695658.CI.LLS.--.HN     Fountain Valley, I-5 at Santa Ana River  SChan  2: 360
 Deg                                                                            
Units for spectra are inches and sec, except Sa is in fraction of g.            
                                                                                
    2  100    2    6    6  100 -999    3    1    0   15 4314    050623   41    0
    6   38   32    8  263    9   19 2020   10    3  36035450   39   39   74 -999
35450 -999  100    6 -999 -999 -999 -999 -999 -999 -999 -999 -999 -999 -999 -999
 -999 -999 -999 -99915050    2 -999    0 -999   20 -999 -999    3    1 -99915050
    315050    4   78    1    3    5    0    0 -999    0 -999 -999    6 -999    2
    2    2    4 -999 -999 -999 -999 -999 -999 -999 -999    1 -999 -999 -999  111
    1    1 -999 -999
      .005      .707   354.500      .000     1.000  4990.473     -.006    36.440
   200.000     2.384      .478  -999.000    10.000  -999.000     4.000  -999.000
    20.000   -22.844      .000  -999.000  -999.000  -999.000  -999.000     -.001
      .000      .001     2.000    15.000    33.684  -117.943      .004      .005
     1.251      .000      .002     8.000  -999.000  -999.000  -999.000  -999.000
     1.000  -999.000  -999.000  -999.000  -999.000  -999.000  -999.000   120.000
     -.900     2.000     6.800   980.665      .020   301.000    31.831      .000
  -999.000    23.000  -999.000   301.000      .020      .300  -999.000  -999.000
    36.440    -5.442    37.740      .355    36.720     -.026      .000      .300
    23.000      .020      .020      .000      .020      .031  -999.000  -999.000
      .021      .460      .016      .012      .002      .000  -999.000  -999.000
  -999.000  -999.000  -999.000  -999.000  -999.000  -999.000  -999.000  -999.000
  -999.000  -999.000  -999.000  -999.000
      .050
      .040      .042      .044      .046      .048      .050      .055      .060
      .065      .070      .075      .080      .085      .090      .095      .100
      .110      .120      .130      .140      .150      .160      .170      .180
      .190      .200      .220      .240      .260      .280      .300      .320
      .340      .360      .380      .400      .420      .440      .460      .480
      .500      .550      .600      .650      .700      .750      .800      .850
      .900      .950     1.000     1.100     1.200     1.300     1.400     1.500
     1.600     1.700     1.800     1.900     2.000     2.200     2.400     2.600
     2.800     3.000     3.200     3.400     3.600     3.800     4.000     4.200
     4.400     4.600     4.800     5.000     5.500     6.000      .000      .000
      .000      .000      .000      .000      .000      .000      .000      .000
      .000      .000      .000      .000      .000      .000      .000      .000
      .000      .000      .000      .000
Fourier amplitude spectra in in/sec.
  .000E+00  .000E+00  .000E+00  .000E+00  .000E+00  .000E+00  .000E+00  .000E+00
  .000E+00  .000E+00  .000E+00  .000E+00  .000E+00  .000E+00  .000E+00  .000E+00
  .000E+00  .000E+00  .000E+00  .000E+00  .000E+00  .000E+00  .000E+00  .000E+00
  .000E+00  .000E+00  .000E+00  .000E+00  .000E+00  .000E+00  .000E+00  .000E+00
  .000E+00  .000E+00  .000E+00  .000E+00  .000E+00  .000E+00  .000E+00  .000E+00
  .000E+00  .000E+00  .000E+00  .000E+00  .000E+00  .000E+00  .000E+00  .000E+00
  .000E+00  .000E+00  .000E+00  .000E+00  .000E+00  .000E+00  .000E+00  .000E+00
  .000E+00  .000E+00  .000E+00  .000E+00  .000E+00  .000E+00  .000E+00  .000E+00
  .000E+00  .000E+00  .000E+00  .000E+00  .000E+00  .000E+00  .000E+00  .000E+00
  .000E+00  .000E+00  .000E+00  .000E+00  .000E+00  .000E+00  .000E+00  .000E+00
  .000E+00  .000E+00  .000E+00  .000E+00  .000E+00  .000E+00  .000E+00  .000E+00
  .000E+00  .000E+00  .000E+00  .000E+00  .000E+00  .000E+00  .000E+00  .000E+00
  .000E+00  .000E+00  .000E+00  .000E+00
Damping =  .05. Data of Sd,Sv,Sa,Pssv,ttSd,ttSv,ttSa :
  .874E-04  .986E-04  .110E-03  .121E-03  .134E-03  .146E-03  .212E-03  .336E-03
  .393E-03  .454E-03  .593E-03  .732E-03  .914E-03  .922E-03  .887E-03  .988E-03
  .114E-02  .115E-02  .146E-02  .186E-02  .212E-02  .325E-02  .340E-02  .375E-02
  .512E-02  .576E-02  .929E-02  .946E-02  .829E-02  .936E-02  .965E-02  .115E-01
  .140E-01  .147E-01  .170E-01  .224E-01  .303E-01  .387E-01  .430E-01  .427E-01
