Response and Fourier amplitude spectra (78 periods,  .04 -  6.0 sec)   for      
Corrected accelerogram   38695658.CI.LMY.--.HN      Chan  1:  90 Deg     from   
Uncorrected Accelerogram Data             Processed: 09/19/20, CGS  cilmy--d    
Rcrd of Fri Sep 18, 2020 23:38:40.0 PDT               (Avol1 v2.0, 4/18 CSMIP)  
                                        (Origin:  To be determined)             
38695658.CI.LMY.--.HN                Start time:  9/19/20, 06:38:40.0 UTC (GPS) 
Station Id. LMY     34.733N, 119.104W    Q330    s/n 5447  (3 Chns of  3 at Sta)
Lockwood Valley Maintenance Yard         SCSN   Data: Acceleration              
Chan  1:  90 Deg                                                                
Rcrd of Fri Sep 18, 2020 23:38:40.0 PDT    Fri Sep 18, 2020 23:38:40.0 PDT      
Hypocenter:  To be determined.               ML:  To be determined.             
Instr Period =  .0050 sec,  Damping =  .707,  Sensitivity = 4.99 v/g  (Nominal) 
                        Record Length =301.000 sec.                             
                                     Uncor Max  =  -.001 g, at   44.800 sec.    
RMS accel of (uncor) record  =        .   Chn. metadata effective date:         
Accelerogram bandpass filtered with 3 dB pts at   .30 and 23.00 cyc/sec         
                 instrument- and base-line correcte                             
                                                                                
                                                                                
                                                                                
                                                                                
                                                                                
Rcrd of Fri Sep 18, 2020 23:38:40.0 PDT    Fri Sep 18, 2020 23:38:40.0 PDT      
                                                                                
38695658.CI.LMY.--.HN     Lockwood Valley Maintenance Yard    Chan  1:  90 Deg  
                                                                                
38695658.CI.LMY.--.HN     Lockwood Valley Maintenance Yard    Chan  1:  90 Deg  
                                                                                
Units for spectra are inches and sec, except Sa is in fraction of g.            
                                                                                
    1  100    1    3    3  100 -999    3    1    0  605 5447    0    0   41    0
    6   38   40    8  263    9   19 2020   10    3   9036245   39   32   74 -999
36245 -999  100    6 -999 -999 -999 -999 -999 -999 -999 -999 -999 -999 -999 -999
 -999 -999 -999 -99915050    2 -999    0 -999   20 -999 -999    3    1 -99915050
    315050    4   78    1    3    5    0    0 -999    0 -999 -999    6 -999    2
    2    2    4 -999 -999 -999 -999 -999 -999 -999 -999    1 -999 -999 -999  111
    1    1 -999 -999
      .005      .707   362.450      .000     1.000  4992.468     -.001    44.800
   200.000     2.384      .478  -999.000    10.000  -999.000     4.000  -999.000
    20.000   -20.093      .000  -999.000  -999.000  -999.000  -999.000     -.001
      .001      .002     2.000    15.000    34.733  -119.104      .001      .001
      .947      .002      .002  1575.000  -999.000  -999.000  -999.000  -999.000
     1.000  -999.000    -8.000  -999.000  -999.000  -999.000  -999.000   120.000
     -.900     2.000     6.800   980.665      .020   301.000    31.831      .000
  -999.000    23.000  -999.000   301.000      .020      .300  -999.000  -999.000
    44.800    -1.018    45.300      .062    43.800      .007      .000      .300
    23.000      .020      .020      .000      .020      .005  -999.000  -999.000
      .004      .260      .002      .003      .001      .000  -999.000  -999.000
  -999.000  -999.000  -999.000  -999.000  -999.000  -999.000  -999.000  -999.000
  -999.000  -999.000  -999.000  -999.000
      .050
      .040      .042      .044      .046      .048      .050      .055      .060
      .065      .070      .075      .080      .085      .090      .095      .100
      .110      .120      .130      .140      .150      .160      .170      .180
      .190      .200      .220      .240      .260      .280      .300      .320
      .340      .360      .380      .400      .420      .440      .460      .480
      .500      .550      .600      .650      .700      .750      .800      .850
      .900      .950     1.000     1.100     1.200     1.300     1.400     1.500
     1.600     1.700     1.800     1.900     2.000     2.200     2.400     2.600
     2.800     3.000     3.200     3.400     3.600     3.800     4.000     4.200
     4.400     4.600     4.800     5.000     5.500     6.000      .000      .000
      .000      .000      .000      .000      .000      .000      .000      .000
      .000      .000      .000      .000      .000      .000      .000      .000
      .000      .000      .000      .000
Fourier amplitude spectra in in/sec.
  .000E+00  .000E+00  .000E+00  .000E+00  .000E+00  .000E+00  .000E+00  .000E+00
  .000E+00  .000E+00  .000E+00  .000E+00  .000E+00  .000E+00  .000E+00  .000E+00
  .000E+00  .000E+00  .000E+00  .000E+00  .000E+00  .000E+00  .000E+00  .000E+00
  .000E+00  .000E+00  .000E+00  .000E+00  .000E+00  .000E+00  .000E+00  .000E+00
  .000E+00  .000E+00  .000E+00  .000E+00  .000E+00  .000E+00  .000E+00  .000E+00
  .000E+00  .000E+00  .000E+00  .000E+00  .000E+00  .000E+00  .000E+00  .000E+00
  .000E+00  .000E+00  .000E+00  .000E+00  .000E+00  .000E+00  .000E+00  .000E+00
  .000E+00  .000E+00  .000E+00  .000E+00  .000E+00  .000E+00  .000E+00  .000E+00
  .000E+00  .000E+00  .000E+00  .000E+00  .000E+00  .000E+00  .000E+00  .000E+00
  .000E+00  .000E+00  .000E+00  .000E+00  .000E+00  .000E+00  .000E+00  .000E+00
  .000E+00  .000E+00  .000E+00  .000E+00  .000E+00  .000E+00  .000E+00  .000E+00
  .000E+00  .000E+00  .000E+00  .000E+00  .000E+00  .000E+00  .000E+00  .000E+00
  .000E+00  .000E+00  .000E+00  .000E+00
Damping =  .05. Data of Sd,Sv,Sa,Pssv,ttSd,ttSv,ttSa :
  .164E-04  .181E-04  .200E-04  .220E-04  .241E-04  .263E-04  .328E-04  .405E-04
  .476E-04  .556E-04  .638E-04  .754E-04  .991E-04  .134E-03  .149E-03  .165E-03
  .169E-03  .234E-03  .326E-03  .407E-03  .388E-03  .461E-03  .520E-03  .554E-03
  .593E-03  .743E-03  .131E-02  .162E-02  .237E-02  .270E-02  .287E-02  .287E-02
  .291E-02  .271E-02  .344E-02  .398E-02  .365E-02  .460E-02  .555E-02  .586E-02
  .588E-02  .820E-02  .947E-02  .983E-02  .857E-02  .705E-02  .634E-02  .674E-02
  .684E-02  .673E-02  .640E-02  .706E-02  .599E-02  .646E-02  .672E-02  .770E-02
  .753E-02  .608E-02  .568E-02  .561E-02  .532E-02  .396E-02  .359E-02  .330E-02
  .330E-02  .337E-02  .341E-02  .338E-02  .331E-02  .331E-02  .332E-02  .328E-02
  .320E-02  .310E-02  .302E-02  .296E-02  .289E-02  .284E-02  .000E+00  .000E+00
  .000E+00  .000E+00  .000E+00  .000E+00  .000E+00  .000E+00  .000E+00  .000E+00
  .000E+00  .000E+00  .000E+00  .000E+00  .000E+00  .000E+00  .000E+00  .000E+00
  .000E+00  .000E+00  .000E+00  .000E+00
  .346E-03  .381E-03  .419E-03  .473E-03  .524E-03  .571E-03  .836E-03  .151E-02
  .183E-02  .223E-02  .268E-02  .387E-02  .594E-02  .787E-02  .879E-02  .914E-02
  .890E-02  .886E-02  .106E-01  .150E-01  .134E-01  .152E-01  .164E-01  .158E-01
  .167E-01  .191E-01  .309E-01  .362E-01  .524E-01  .557E-01  .565E-01  .531E-01
  .534E-01  .467E-01  .577E-01  .623E-01  .578E-01  .675E-01  .765E-01  .755E-01
  .735E-01  .937E-01  .102E+00  .103E+00  .881E-01  .753E-01  .607E-01  .544E-01
  .518E-01  .537E-01  .553E-01  .474E-01  .416E-01  .333E-01  .358E-01  .345E-01
  .337E-01  .310E-01  .301E-01  .302E-01  .288E-01  .309E-01  .305E-01  .298E-01
  .290E-01  .282E-01  .273E-01  .266E-01  .261E-01  .257E-01  .253E-01  .250E-01
  .249E-01  .248E-01  .248E-01  .248E-01  .248E-01  .247E-01  .000E+00  .000E+00
  .000E+00  .000E+00  .000E+00  .000E+00  .000E+00  .000E+00  .000E+00  .000E+00
  .000E+00  .000E+00  .000E+00  .000E+00  .000E+00  .000E+00  .000E+00  .000E+00
  .000E+00  .000E+00  .000E+00  .000E+00
  .105E-02  .105E-02  .106E-02  .106E-02  .107E-02  .108E-02  .111E-02  .115E-02
  .115E-02  .116E-02  .116E-02  .121E-02  .141E-02  .171E-02  .172E-02  .167E-02
  .143E-02  .168E-02  .197E-02  .211E-02  .176E-02  .184E-02  .186E-02  .176E-02
  .168E-02  .192E-02  .276E-02  .286E-02  .359E-02  .354E-02  .323E-02  .285E-02
  .256E-02  .213E-02  .246E-02  .253E-02  .214E-02  .243E-02  .268E-02  .260E-02
  .240E-02  .278E-02  .270E-02  .240E-02  .180E-02  .129E-02  .102E-02  .960E-03
  .872E-03  .767E-03  .659E-03  .602E-03  .431E-03  .393E-03  .353E-03  .352E-03
  .303E-03  .218E-03  .182E-03  .161E-03  .137E-03  .844E-04  .643E-04  .534E-04
  .465E-04  .418E-04  .376E-04  .333E-04  .296E-04  .268E-04  .245E-04  .223E-04
  .201E-04  .181E-04  .164E-04  .151E-04  .127E-04  .109E-04  .000E+00  .000E+00
  .000E+00  .000E+00  .000E+00  .000E+00  .000E+00  .000E+00  .000E+00  .000E+00
  .000E+00  .000E+00  .000E+00  .000E+00  .000E+00  .000E+00  .000E+00  .000E+00
  .000E+00  .000E+00  .000E+00  .000E+00
  .257E-02  .271E-02  .285E-02  .300E-02  .315E-02  .330E-02  .375E-02  .424E-02
  .460E-02  .499E-02  .534E-02  .592E-02  .733E-02  .935E-02  .987E-02  .103E-01
  .964E-02  .123E-01  .157E-01  .183E-01  .162E-01  .181E-01  .192E-01  .194E-01
  .196E-01  .233E-01  .375E-01  .423E-01  .572E-01  .606E-01  .601E-01  .563E-01
  .537E-01  .472E-01  .568E-01  .624E-01  .546E-01  .657E-01  .758E-01  .767E-01
  .739E-01  .937E-01  .991E-01  .950E-01  .769E-01  .591E-01  .498E-01  .498E-01
  .478E-01  .445E-01  .402E-01  .403E-01  .314E-01  .312E-01  .301E-01  .322E-01
  .296E-01  .225E-01  .198E-01  .186E-01  .167E-01  .113E-01  .940E-02  .797E-02
  .740E-02  .705E-02  .670E-02  .624E-02  .578E-02  .548E-02  .521E-02  .491E-02
  .457E-02  .423E-02  .395E-02  .372E-02  .330E-02  .298E-02  .000E+00  .000E+00
  .000E+00  .000E+00  .000E+00  .000E+00  .000E+00  .000E+00  .000E+00  .000E+00
  .000E+00  .000E+00  .000E+00  .000E+00  .000E+00  .000E+00  .000E+00  .000E+00
  .000E+00  .000E+00  .000E+00  .000E+00
  .448E+02  .448E+02  .448E+02  .448E+02  .448E+02  .448E+02  .448E+02  .448E+02
  .448E+02  .448E+02  .448E+02  .448E+02  .289E+02  .289E+02  .289E+02  .289E+02
  .289E+02  .462E+02  .448E+02  .452E+02  .444E+02  .435E+02  .435E+02  .448E+02
  .448E+02  .441E+02  .446E+02  .463E+02  .463E+02  .454E+02  .454E+02  .455E+02
  .465E+02  .491E+02  .485E+02  .486E+02  .486E+02  .449E+02  .449E+02  .449E+02
  .455E+02  .455E+02  .453E+02  .446E+02  .443E+02  .443E+02  .457E+02  .457E+02
  .454E+02  .454E+02  .454E+02  .441E+02  .437E+02  .648E+02  .650E+02  .727E+02
  .706E+02  .478E+02  .479E+02  .479E+02  .646E+02  .631E+02  .732E+02  .438E+02
  .438E+02  .438E+02  .438E+02  .438E+02  .438E+02  .438E+02  .438E+02  .438E+02
  .438E+02  .438E+02  .438E+02  .438E+02  .438E+02  .438E+02  .000E+00  .000E+00
  .000E+00  .000E+00  .000E+00  .000E+00  .000E+00  .000E+00  .000E+00  .000E+00
  .000E+00  .000E+00  .000E+00  .000E+00  .000E+00  .000E+00  .000E+00  .000E+00
  .000E+00  .000E+00  .000E+00  .000E+00
  .289E+02  .289E+02  .289E+02  .288E+02  .288E+02  .288E+02  .288E+02  .288E+02
  .288E+02  .289E+02  .289E+02  .289E+02  .289E+02  .290E+02  .290E+02  .290E+02
  .290E+02  .465E+02  .451E+02  .451E+02  .444E+02  .435E+02  .435E+02  .449E+02
  .468E+02  .449E+02  .445E+02  .462E+02  .462E+02  .453E+02  .454E+02  .454E+02
  .466E+02  .492E+02  .486E+02  .485E+02  .485E+02  .450E+02  .450E+02  .448E+02
  .448E+02  .454E+02  .455E+02  .447E+02  .441E+02  .442E+02  .442E+02  .442E+02
  .456E+02  .453E+02  .453E+02  .453E+02  .440E+02  .440E+02  .486E+02  .480E+02
  .480E+02  .453E+02  .484E+02  .484E+02  .453E+02  .453E+02  .453E+02  .453E+02
  .453E+02  .453E+02  .453E+02  .453E+02  .453E+02  .453E+02  .453E+02  .453E+02
  .453E+02  .453E+02  .453E+02  .453E+02  .453E+02  .453E+02  .000E+00  .000E+00
  .000E+00  .000E+00  .000E+00  .000E+00  .000E+00  .000E+00  .000E+00  .000E+00
  .000E+00  .000E+00  .000E+00  .000E+00  .000E+00  .000E+00  .000E+00  .000E+00
  .000E+00  .000E+00  .000E+00  .000E+00
  .448E+02  .448E+02  .448E+02  .448E+02  .448E+02  .448E+02  .448E+02  .448E+02
  .448E+02  .448E+02  .448E+02  .448E+02  .289E+02  .289E+02  .289E+02  .289E+02
  .289E+02  .462E+02  .448E+02  .448E+02  .444E+02  .435E+02  .435E+02  .448E+02
  .448E+02  .441E+02  .446E+02  .462E+02  .463E+02  .454E+02  .454E+02  .455E+02
  .465E+02  .491E+02  .485E+02  .486E+02  .486E+02  .449E+02  .449E+02  .449E+02
  .455E+02  .455E+02  .453E+02  .445E+02  .443E+02  .443E+02  .457E+02  .457E+02
  .454E+02  .454E+02  .454E+02  .441E+02  .437E+02  .647E+02  .649E+02  .727E+02
  .706E+02  .478E+02  .478E+02  .478E+02  .645E+02  .630E+02  .732E+02  .437E+02
  .437E+02  .437E+02  .437E+02  .437E+02  .437E+02  .437E+02  .437E+02  .437E+02
  .437E+02  .437E+02  .437E+02  .437E+02  .437E+02  .437E+02  .000E+00  .000E+00
  .000E+00  .000E+00  .000E+00  .000E+00  .000E+00  .000E+00  .000E+00  .000E+00
  .000E+00  .000E+00  .000E+00  .000E+00  .000E+00  .000E+00  .000E+00  .000E+00
  .000E+00  .000E+00  .000E+00  .000E+00
/&   ----------  End of spectral data for channel  1  ----------
Response and Fourier amplitude spectra (78 periods,  .04 -  6.0 sec)   for      
Corrected accelerogram   38695658.CI.LMY.--.HN      Chan  2: 360 Deg     from   
Uncorrected Accelerogram Data             Processed: 09/19/20, CGS  cilmy--d    
Rcrd of Fri Sep 18, 2020 23:38:40.0 PDT               (Avol1 v2.0, 4/18 CSMIP)  
                                        (Origin:  To be determined)             
38695658.CI.LMY.--.HN                Start time:  9/19/20, 06:38:40.0 UTC (GPS) 
Station Id. LMY     34.733N, 119.104W    Q330    s/n 5447  (3 Chns of  3 at Sta)
Lockwood Valley Maintenance Yard         SCSN   Data: Acceleration              
Chan  2: 360 Deg                                                                
Rcrd of Fri Sep 18, 2020 23:38:40.0 PDT    Fri Sep 18, 2020 23:38:40.0 PDT      
Hypocenter:  To be determined.               ML:  To be determined.             
Instr Period =  .0050 sec,  Damping =  .707,  Sensitivity = 4.99 v/g  (Nominal) 
                        Record Length =301.000 sec.                             
                                     Uncor Max  =  -.001 g, at   43.920 sec.    
RMS accel of (uncor) record  =        .   Chn. metadata effective date:         
Accelerogram bandpass filtered with 3 dB pts at   .30 and 23.00 cyc/sec         
                 instrument- and base-line correcte                             
                                                                                
                                                                                
                                                                                
                                                                                
                                                                                
Rcrd of Fri Sep 18, 2020 23:38:40.0 PDT    Fri Sep 18, 2020 23:38:40.0 PDT      
                                                                                
38695658.CI.LMY.--.HN     Lockwood Valley Maintenance Yard    Chan  2: 360 Deg  
                                                                                
38695658.CI.LMY.--.HN     Lockwood Valley Maintenance Yard    Chan  2: 360 Deg  
                                                                                
Units for spectra are inches and sec, except Sa is in fraction of g.            
                                                                                
    2  100    2    3    3  100 -999    3    1    0  605 5447    0    0   41    0
    6   38   40    8  263    9   19 2020   10    3  36035894   39   32   74 -999
35894 -999  100    6 -999 -999 -999 -999 -999 -999 -999 -999 -999 -999 -999 -999
 -999 -999 -999 -99915050    2 -999    0 -999   20 -999 -999    3    1 -99915050
    315050    4   78    1    3    5    0    0 -999    0 -999 -999    6 -999    2
    2    2    4 -999 -999 -999 -999 -999 -999 -999 -999    1 -999 -999 -999  111
    1    1 -999 -999
      .005      .707   358.940      .000     1.000  4992.468     -.001    43.920
   200.000     2.384      .478  -999.000    10.000  -999.000     4.000  -999.000
    20.000   -10.052      .000  -999.000  -999.000  -999.000  -999.000      .001
     -.001     -.002     2.000    15.000    34.733  -119.104      .001      .001
     1.022     -.002     -.001  1575.000  -999.000  -999.000  -999.000  -999.000
     1.000  -999.000  -999.000  -999.000  -999.000  -999.000  -999.000   120.000
     -.900     2.000     6.800   980.665      .020   301.000    31.831      .000
  -999.000    23.000  -999.000   301.000      .020      .300  -999.000  -999.000
    43.920    -1.360    43.860      .093    43.960      .010      .000      .300
    23.000      .020      .020      .000      .020      .005  -999.000  -999.000
      .005      .240      .004      .004      .001      .000  -999.000  -999.000
  -999.000  -999.000  -999.000  -999.000  -999.000  -999.000  -999.000  -999.000
  -999.000  -999.000  -999.000  -999.000
      .050
      .040      .042      .044      .046      .048      .050      .055      .060
      .065      .070      .075      .080      .085      .090      .095      .100
      .110      .120      .130      .140      .150      .160      .170      .180
      .190      .200      .220      .240      .260      .280      .300      .320
      .340      .360      .380      .400      .420      .440      .460      .480
      .500      .550      .600      .650      .700      .750      .800      .850
      .900      .950     1.000     1.100     1.200     1.300     1.400     1.500
     1.600     1.700     1.800     1.900     2.000     2.200     2.400     2.600
     2.800     3.000     3.200     3.400     3.600     3.800     4.000     4.200
     4.400     4.600     4.800     5.000     5.500     6.000      .000      .000
      .000      .000      .000      .000      .000      .000      .000      .000
      .000      .000      .000      .000      .000      .000      .000      .000
      .000      .000      .000      .000
Fourier amplitude spectra in in/sec.
  .000E+00  .000E+00  .000E+00  .000E+00  .000E+00  .000E+00  .000E+00  .000E+00
  .000E+00  .000E+00  .000E+00  .000E+00  .000E+00  .000E+00  .000E+00  .000E+00
  .000E+00  .000E+00  .000E+00  .000E+00  .000E+00  .000E+00  .000E+00  .000E+00
  .000E+00  .000E+00  .000E+00  .000E+00  .000E+00  .000E+00  .000E+00  .000E+00
  .000E+00  .000E+00  .000E+00  .000E+00  .000E+00  .000E+00  .000E+00  .000E+00
  .000E+00  .000E+00  .000E+00  .000E+00  .000E+00  .000E+00  .000E+00  .000E+00
  .000E+00  .000E+00  .000E+00  .000E+00  .000E+00  .000E+00  .000E+00  .000E+00
  .000E+00  .000E+00  .000E+00  .000E+00  .000E+00  .000E+00  .000E+00  .000E+00
  .000E+00  .000E+00  .000E+00  .000E+00  .000E+00  .000E+00  .000E+00  .000E+00
  .000E+00  .000E+00  .000E+00  .000E+00  .000E+00  .000E+00  .000E+00  .000E+00
  .000E+00  .000E+00  .000E+00  .000E+00  .000E+00  .000E+00  .000E+00  .000E+00
  .000E+00  .000E+00  .000E+00  .000E+00  .000E+00  .000E+00  .000E+00  .000E+00
  .000E+00  .000E+00  .000E+00  .000E+00
Damping =  .05. Data of Sd,Sv,Sa,Pssv,ttSd,ttSv,ttSa :
  .217E-04  .240E-04  .264E-04  .289E-04  .315E-04  .345E-04  .433E-04  .514E-04
  .604E-04  .708E-04  .813E-04  .945E-04  .108E-03  .155E-03  .201E-03  .231E-03
  .252E-03  .346E-03  .439E-03  .582E-03  .571E-03  .599E-03  .787E-03  .115E-02
  .150E-02  .151E-02  .131E-02  .265E-02  .295E-02  .293E-02  .342E-02  .303E-02
  .310E-02  .347E-02  .450E-02  .579E-02  .609E-02  .561E-02  .552E-02  .550E-02
