Response and Fourier amplitude spectra (78 periods,  .04 -  6.0 sec)   for      
Corrected accelerogram   38695658.CI.LMR2.--.H      Chan  1:  90 Deg     from   
Uncorrected Accelerogram Data             Processed: 09/19/20, CGS  cilmr2-j    
Rcrd of Fri Sep 18, 2020 23:38:40.0 PDT               (Avol1 v2.0, 4/18 CSMIP)  
                                        (Origin:  To be determined)             
38695658.CI.LMR2.--.H                Start time:  9/19/20, 06:38:40.0 UTC (GPS) 
Station Id. LMR2    34.934N, 117.696W    Q330    s/n 1079  (3 Chns of  3 at Sta)
Near Building 8377, Edwards              SCSN   Data: Acceleration              
Chan  1:  90 Deg                                                                
Rcrd of Fri Sep 18, 2020 23:38:40.0 PDT    Fri Sep 18, 2020 23:38:40.0 PDT      
Hypocenter:  To be determined.               ML:  To be determined.             
Instr Period =  .0050 sec,  Damping =  .707,  Sensitivity = 4.99 v/g  (Nominal) 
                        Record Length =301.000 sec.                             
                                     Uncor Max  =  -.001 g, at   38.910 sec.    
RMS accel of (uncor) record  =        .   Chn. metadata effective date:         
Accelerogram bandpass filtered with 3 dB pts at   .30 and 23.00 cyc/sec         
                 instrument- and base-line correcte                             
                                                                                
                                                                                
                                                                                
                                                                                
                                                                                
Rcrd of Fri Sep 18, 2020 23:38:40.0 PDT    Fri Sep 18, 2020 23:38:40.0 PDT      
                                                                                
38695658.CI.LMR2.--.H     Near Building 8377, Edwards   Chan  1:  90 Deg        
                                                                                
38695658.CI.LMR2.--.H     Near Building 8377, Edwards   Chan  1:  90 Deg        
                                                                                
Units for spectra are inches and sec, except Sa is in fraction of g.            
                                                                                
    1  100    1    3    3  100 -999    3    1   24  605 1079    050709   41    0
    6   38   40    8  263    9   19 2020   10    3   9035524   39   27   74 -999
35524 -999  100    6 -999 -999 -999 -999 -999 -999 -999 -999 -999 -999 -999 -999
 -999 -999 -999 -99915050    2 -999    0 -999   20 -999 -999    3    1 -99915050
    315050    4   78    1    3    5    0    0 -999    0 -999 -999    6 -999    2
    2    2    4 -999 -999 -999 -999 -999 -999 -999 -999    1 -999 -999 -999  111
    1    1 -999 -999
      .005      .707   355.240      .000     1.000  4991.271     -.001    38.910
   200.000     2.384      .478  -999.000    10.000  -999.000     4.000  -999.000
    20.000   -41.571    20.000  -999.000  -999.000  -999.000  -999.000     -.001
      .001      .002     2.000    15.000    34.934  -117.696      .001      .001
     1.126      .001      .002   964.000  -999.000  -999.000  -999.000  -999.000
     1.000  -999.000    -8.000  -999.000  -999.000  -999.000  -999.000   120.000
     -.900     2.000     6.800   980.665      .020   301.000    31.831      .000
  -999.000    23.000  -999.000   301.000      .020      .300  -999.000  -999.000
    38.920    -1.405    38.840      .046    38.920      .006      .000      .300
    23.000      .020      .020      .000      .020      .002  -999.000  -999.000
      .005      .150      .002      .002      .000      .000  -999.000  -999.000
  -999.000  -999.000  -999.000  -999.000  -999.000  -999.000  -999.000  -999.000
  -999.000  -999.000  -999.000  -999.000
      .050
      .040      .042      .044      .046      .048      .050      .055      .060
      .065      .070      .075      .080      .085      .090      .095      .100
      .110      .120      .130      .140      .150      .160      .170      .180
      .190      .200      .220      .240      .260      .280      .300      .320
      .340      .360      .380      .400      .420      .440      .460      .480
      .500      .550      .600      .650      .700      .750      .800      .850
      .900      .950     1.000     1.100     1.200     1.300     1.400     1.500
     1.600     1.700     1.800     1.900     2.000     2.200     2.400     2.600
     2.800     3.000     3.200     3.400     3.600     3.800     4.000     4.200
     4.400     4.600     4.800     5.000     5.500     6.000      .000      .000
      .000      .000      .000      .000      .000      .000      .000      .000
      .000      .000      .000      .000      .000      .000      .000      .000
      .000      .000      .000      .000
Fourier amplitude spectra in in/sec.
  .000E+00  .000E+00  .000E+00  .000E+00  .000E+00  .000E+00  .000E+00  .000E+00
  .000E+00  .000E+00  .000E+00  .000E+00  .000E+00  .000E+00  .000E+00  .000E+00
  .000E+00  .000E+00  .000E+00  .000E+00  .000E+00  .000E+00  .000E+00  .000E+00
  .000E+00  .000E+00  .000E+00  .000E+00  .000E+00  .000E+00  .000E+00  .000E+00
  .000E+00  .000E+00  .000E+00  .000E+00  .000E+00  .000E+00  .000E+00  .000E+00
  .000E+00  .000E+00  .000E+00  .000E+00  .000E+00  .000E+00  .000E+00  .000E+00
  .000E+00  .000E+00  .000E+00  .000E+00  .000E+00  .000E+00  .000E+00  .000E+00
  .000E+00  .000E+00  .000E+00  .000E+00  .000E+00  .000E+00  .000E+00  .000E+00
  .000E+00  .000E+00  .000E+00  .000E+00  .000E+00  .000E+00  .000E+00  .000E+00
  .000E+00  .000E+00  .000E+00  .000E+00  .000E+00  .000E+00  .000E+00  .000E+00
  .000E+00  .000E+00  .000E+00  .000E+00  .000E+00  .000E+00  .000E+00  .000E+00
  .000E+00  .000E+00  .000E+00  .000E+00  .000E+00  .000E+00  .000E+00  .000E+00
  .000E+00  .000E+00  .000E+00  .000E+00
Damping =  .05. Data of Sd,Sv,Sa,Pssv,ttSd,ttSv,ttSa :
  .246E-04  .269E-04  .290E-04  .316E-04  .346E-04  .388E-04  .559E-04  .623E-04
  .764E-04  .103E-03  .103E-03  .139E-03  .169E-03  .194E-03  .267E-03  .352E-03
  .413E-03  .527E-03  .638E-03  .905E-03  .111E-02  .115E-02  .104E-02  .879E-03
  .775E-03  .706E-03  .103E-02  .134E-02  .189E-02  .200E-02  .215E-02  .203E-02
  .158E-02  .163E-02  .195E-02  .258E-02  .324E-02  .365E-02  .371E-02  .356E-02
  .332E-02  .259E-02  .203E-02  .209E-02  .249E-02  .284E-02  .298E-02  .333E-02
  .352E-02  .336E-02  .332E-02  .314E-02  .259E-02  .304E-02  .367E-02  .351E-02
  .370E-02  .376E-02  .367E-02  .351E-02  .332E-02  .281E-02  .240E-02  .236E-02
  .249E-02  .250E-02  .243E-02  .235E-02  .235E-02  .240E-02  .241E-02  .239E-02
  .235E-02  .233E-02  .232E-02  .233E-02  .241E-02  .242E-02  .000E+00  .000E+00
  .000E+00  .000E+00  .000E+00  .000E+00  .000E+00  .000E+00  .000E+00  .000E+00
  .000E+00  .000E+00  .000E+00  .000E+00  .000E+00  .000E+00  .000E+00  .000E+00
  .000E+00  .000E+00  .000E+00  .000E+00
  .113E-02  .129E-02  .148E-02  .171E-02  .216E-02  .233E-02  .329E-02  .478E-02
  .470E-02  .667E-02  .756E-02  .840E-02  .102E-01  .121E-01  .166E-01  .189E-01
  .200E-01  .244E-01  .286E-01  .372E-01  .438E-01  .452E-01  .380E-01  .298E-01
  .244E-01  .228E-01  .326E-01  .359E-01  .403E-01  .387E-01  .425E-01  .396E-01
  .375E-01  .340E-01  .314E-01  .424E-01  .519E-01  .538E-01  .505E-01  .461E-01
  .446E-01  .348E-01  .271E-01  .249E-01  .259E-01  .265E-01  .259E-01  .281E-01
  .303E-01  .299E-01  .298E-01  .274E-01  .222E-01  .207E-01  .225E-01  .224E-01
  .222E-01  .227E-01  .222E-01  .218E-01  .216E-01  .209E-01  .192E-01  .187E-01
  .188E-01  .188E-01  .187E-01  .185E-01  .183E-01  .182E-01  .180E-01  .178E-01
  .177E-01  .176E-01  .176E-01  .176E-01  .176E-01  .177E-01  .000E+00  .000E+00
  .000E+00  .000E+00  .000E+00  .000E+00  .000E+00  .000E+00  .000E+00  .000E+00
  .000E+00  .000E+00  .000E+00  .000E+00  .000E+00  .000E+00  .000E+00  .000E+00
  .000E+00  .000E+00  .000E+00  .000E+00
  .157E-02  .156E-02  .153E-02  .153E-02  .154E-02  .159E-02  .190E-02  .177E-02
  .185E-02  .215E-02  .190E-02  .221E-02  .241E-02  .243E-02  .308E-02  .359E-02
  .350E-02  .370E-02  .391E-02  .469E-02  .505E-02  .468E-02  .373E-02  .279E-02
  .224E-02  .183E-02  .220E-02  .239E-02  .289E-02  .259E-02  .242E-02  .203E-02
  .140E-02  .128E-02  .139E-02  .165E-02  .189E-02  .195E-02  .183E-02  .160E-02
  .138E-02  .875E-03  .579E-03  .506E-03  .527E-03  .518E-03  .482E-03  .480E-03
  .449E-03  .382E-03  .345E-03  .268E-03  .186E-03  .185E-03  .193E-03  .163E-03
  .149E-03  .135E-03  .118E-03  .103E-03  .876E-04  .620E-04  .480E-04  .382E-04
  .350E-04  .310E-04  .269E-04  .247E-04  .227E-04  .211E-04  .194E-04  .177E-04
  .162E-04  .149E-04  .138E-04  .129E-04  .113E-04  .991E-05  .000E+00  .000E+00
  .000E+00  .000E+00  .000E+00  .000E+00  .000E+00  .000E+00  .000E+00  .000E+00
  .000E+00  .000E+00  .000E+00  .000E+00  .000E+00  .000E+00  .000E+00  .000E+00
  .000E+00  .000E+00  .000E+00  .000E+00
  .387E-02  .402E-02  .415E-02  .432E-02  .452E-02  .487E-02  .639E-02  .653E-02
  .738E-02  .922E-02  .865E-02  .109E-01  .125E-01  .135E-01  .177E-01  .221E-01
  .236E-01  .276E-01  .309E-01  .406E-01  .467E-01  .452E-01  .386E-01  .307E-01
  .256E-01  .222E-01  .296E-01  .352E-01  .456E-01  .448E-01  .450E-01  .398E-01
  .293E-01  .285E-01  .323E-01  .406E-01  .485E-01  .521E-01  .507E-01  .466E-01
  .417E-01  .295E-01  .213E-01  .202E-01  .224E-01  .238E-01  .234E-01  .246E-01
  .246E-01  .222E-01  .209E-01  .179E-01  .136E-01  .147E-01  .165E-01  .147E-01
  .145E-01  .139E-01  .128E-01  .116E-01  .104E-01  .803E-02  .629E-02  .570E-02
  .558E-02  .523E-02  .478E-02  .435E-02  .409E-02  .396E-02  .379E-02  .357E-02
  .336E-02  .318E-02  .304E-02  .293E-02  .276E-02  .253E-02  .000E+00  .000E+00
  .000E+00  .000E+00  .000E+00  .000E+00  .000E+00  .000E+00  .000E+00  .000E+00
  .000E+00  .000E+00  .000E+00  .000E+00  .000E+00  .000E+00  .000E+00  .000E+00
  .000E+00  .000E+00  .000E+00  .000E+00
  .389E+02  .389E+02  .389E+02  .389E+02  .389E+02  .389E+02  .389E+02  .389E+02
  .389E+02  .389E+02  .384E+02  .384E+02  .384E+02  .384E+02  .390E+02  .385E+02
  .385E+02  .386E+02  .388E+02  .389E+02  .389E+02  .389E+02  .390E+02  .390E+02
  .390E+02  .387E+02  .387E+02  .389E+02  .389E+02  .390E+02  .391E+02  .392E+02
  .396E+02  .396E+02  .396E+02  .396E+02  .396E+02  .397E+02  .397E+02  .395E+02
  .395E+02  .391E+02  .391E+02  .393E+02  .391E+02  .391E+02  .391E+02  .391E+02
  .391E+02  .391E+02  .397E+02  .404E+02  .405E+02  .406E+02  .407E+02  .407E+02
  .409E+02  .418E+02  .402E+02  .402E+02  .402E+02  .395E+02  .389E+02  .395E+02
  .395E+02  .395E+02  .395E+02  .395E+02  .389E+02  .389E+02  .389E+02  .389E+02
  .389E+02  .389E+02  .389E+02  .389E+02  .389E+02  .389E+02  .000E+00  .000E+00
  .000E+00  .000E+00  .000E+00  .000E+00  .000E+00  .000E+00  .000E+00  .000E+00
  .000E+00  .000E+00  .000E+00  .000E+00  .000E+00  .000E+00  .000E+00  .000E+00
  .000E+00  .000E+00  .000E+00  .000E+00
  .384E+02  .384E+02  .384E+02  .384E+02  .407E+02  .396E+02  .384E+02  .400E+02
  .400E+02  .387E+02  .392E+02  .385E+02  .385E+02  .390E+02  .390E+02  .385E+02
  .385E+02  .386E+02  .388E+02  .391E+02  .390E+02  .390E+02  .390E+02  .390E+02
  .390E+02  .387E+02  .387E+02  .386E+02  .390E+02  .389E+02  .389E+02  .391E+02
  .385E+02  .385E+02  .385E+02  .397E+02  .397E+02  .395E+02  .396E+02  .396E+02
  .394E+02  .394E+02  .394E+02  .395E+02  .392E+02  .392E+02  .389E+02  .389E+02
  .389E+02  .389E+02  .390E+02  .390E+02  .390E+02  .390E+02  .390E+02  .390E+02
  .390E+02  .390E+02  .390E+02  .390E+02  .390E+02  .390E+02  .390E+02  .390E+02
  .390E+02  .390E+02  .390E+02  .390E+02  .390E+02  .390E+02  .390E+02  .390E+02
  .390E+02  .388E+02  .388E+02  .388E+02  .388E+02  .388E+02  .000E+00  .000E+00
  .000E+00  .000E+00  .000E+00  .000E+00  .000E+00  .000E+00  .000E+00  .000E+00
  .000E+00  .000E+00  .000E+00  .000E+00  .000E+00  .000E+00  .000E+00  .000E+00
  .000E+00  .000E+00  .000E+00  .000E+00
  .389E+02  .389E+02  .389E+02  .389E+02  .389E+02  .389E+02  .389E+02  .389E+02
  .389E+02  .389E+02  .384E+02  .384E+02  .384E+02  .384E+02  .390E+02  .385E+02
  .385E+02  .386E+02  .388E+02  .389E+02  .389E+02  .389E+02  .389E+02  .390E+02
  .390E+02  .387E+02  .387E+02  .389E+02  .389E+02  .390E+02  .391E+02  .392E+02
  .396E+02  .385E+02  .396E+02  .396E+02  .396E+02  .397E+02  .397E+02  .395E+02
  .395E+02  .391E+02  .391E+02  .393E+02  .391E+02  .391E+02  .391E+02  .391E+02
  .391E+02  .391E+02  .397E+02  .404E+02  .404E+02  .406E+02  .406E+02  .407E+02
  .409E+02  .402E+02  .402E+02  .402E+02  .402E+02  .395E+02  .389E+02  .395E+02
  .395E+02  .395E+02  .395E+02  .389E+02  .389E+02  .389E+02  .389E+02  .389E+02
  .389E+02  .389E+02  .389E+02  .389E+02  .389E+02  .388E+02  .000E+00  .000E+00
  .000E+00  .000E+00  .000E+00  .000E+00  .000E+00  .000E+00  .000E+00  .000E+00
  .000E+00  .000E+00  .000E+00  .000E+00  .000E+00  .000E+00  .000E+00  .000E+00
  .000E+00  .000E+00  .000E+00  .000E+00
/&   ----------  End of spectral data for channel  1  ----------
Response and Fourier amplitude spectra (78 periods,  .04 -  6.0 sec)   for      
Corrected accelerogram   38695658.CI.LMR2.--.H      Chan  2: 360 Deg     from   
Uncorrected Accelerogram Data             Processed: 09/19/20, CGS  cilmr2-j    
Rcrd of Fri Sep 18, 2020 23:38:40.0 PDT               (Avol1 v2.0, 4/18 CSMIP)  
                                        (Origin:  To be determined)             
38695658.CI.LMR2.--.H                Start time:  9/19/20, 06:38:40.0 UTC (GPS) 
Station Id. LMR2    34.934N, 117.696W    Q330    s/n 1079  (3 Chns of  3 at Sta)
Near Building 8377, Edwards              SCSN   Data: Acceleration              
Chan  2: 360 Deg                                                                
Rcrd of Fri Sep 18, 2020 23:38:40.0 PDT    Fri Sep 18, 2020 23:38:40.0 PDT      
Hypocenter:  To be determined.               ML:  To be determined.             
Instr Period =  .0050 sec,  Damping =  .707,  Sensitivity = 4.99 v/g  (Nominal) 
                        Record Length =301.000 sec.                             
                                     Uncor Max  =   .001 g, at   39.190 sec.    
RMS accel of (uncor) record  =        .   Chn. metadata effective date:         
Accelerogram bandpass filtered with 3 dB pts at   .30 and 23.00 cyc/sec         
                 instrument- and base-line correcte                             
                                                                                
                                                                                
                                                                                
                                                                                
                                                                                
Rcrd of Fri Sep 18, 2020 23:38:40.0 PDT    Fri Sep 18, 2020 23:38:40.0 PDT      
                                                                                
38695658.CI.LMR2.--.H     Near Building 8377, Edwards   Chan  2: 360 Deg        
                                                                                
38695658.CI.LMR2.--.H     Near Building 8377, Edwards   Chan  2: 360 Deg        
                                                                                
Units for spectra are inches and sec, except Sa is in fraction of g.            
                                                                                
    2  100    2    3    3  100 -999    3    1   24  605 1079    050709   41    0
    6   38   40    8  263    9   19 2020   10    3  36035676   39   27   74 -999
35676 -999  100    6 -999 -999 -999 -999 -999 -999 -999 -999 -999 -999 -999 -999
 -999 -999 -999 -99915050    2 -999    0 -999   20 -999 -999    3    1 -99915050
    315050    4   78    1    3    5    0    0 -999    0 -999 -999    6 -999    2
    2    2    4 -999 -999 -999 -999 -999 -999 -999 -999    1 -999 -999 -999  111
    1    1 -999 -999
      .005      .707   356.760      .000     1.000  4987.282      .001    39.190
   200.000     2.384      .478  -999.000    10.000  -999.000     4.000  -999.000
    20.000   -33.246    20.000  -999.000  -999.000  -999.000  -999.000      .000
      .001      .001     2.000    15.000    34.934  -117.696      .001      .001
     1.025      .001      .001   964.000  -999.000  -999.000  -999.000  -999.000
     1.000  -999.000  -999.000  -999.000  -999.000  -999.000  -999.000   120.000
     -.900     2.000     6.800   980.665      .020   301.000    31.831      .000
  -999.000    23.000  -999.000   301.000      .020      .300  -999.000  -999.000
    39.180     1.197    39.080     -.031    38.980      .004      .000      .300
    23.000      .020      .020      .000      .020      .001  -999.000  -999.000
      .004      .075      .002      .002      .000      .000  -999.000  -999.000
  -999.000  -999.000  -999.000  -999.000  -999.000  -999.000  -999.000  -999.000
  -999.000  -999.000  -999.000  -999.000
      .050
      .040      .042      .044      .046      .048      .050      .055      .060
      .065      .070      .075      .080      .085      .090      .095      .100
      .110      .120      .130      .140      .150      .160      .170      .180
      .190      .200      .220      .240      .260      .280      .300      .320
      .340      .360      .380      .400      .420      .440      .460      .480
      .500      .550      .600      .650      .700      .750      .800      .850
      .900      .950     1.000     1.100     1.200     1.300     1.400     1.500
     1.600     1.700     1.800     1.900     2.000     2.200     2.400     2.600
     2.800     3.000     3.200     3.400     3.600     3.800     4.000     4.200
     4.400     4.600     4.800     5.000     5.500     6.000      .000      .000
      .000      .000      .000      .000      .000      .000      .000      .000
      .000      .000      .000      .000      .000      .000      .000      .000
      .000      .000      .000      .000
Fourier amplitude spectra in in/sec.
  .000E+00  .000E+00  .000E+00  .000E+00  .000E+00  .000E+00  .000E+00  .000E+00
  .000E+00  .000E+00  .000E+00  .000E+00  .000E+00  .000E+00  .000E+00  .000E+00
  .000E+00  .000E+00  .000E+00  .000E+00  .000E+00  .000E+00  .000E+00  .000E+00
  .000E+00  .000E+00  .000E+00  .000E+00  .000E+00  .000E+00  .000E+00  .000E+00
  .000E+00  .000E+00  .000E+00  .000E+00  .000E+00  .000E+00  .000E+00  .000E+00
  .000E+00  .000E+00  .000E+00  .000E+00  .000E+00  .000E+00  .000E+00  .000E+00
  .000E+00  .000E+00  .000E+00  .000E+00  .000E+00  .000E+00  .000E+00  .000E+00
  .000E+00  .000E+00  .000E+00  .000E+00  .000E+00  .000E+00  .000E+00  .000E+00
  .000E+00  .000E+00  .000E+00  .000E+00  .000E+00  .000E+00  .000E+00  .000E+00
  .000E+00  .000E+00  .000E+00  .000E+00  .000E+00  .000E+00  .000E+00  .000E+00
  .000E+00  .000E+00  .000E+00  .000E+00  .000E+00  .000E+00  .000E+00  .000E+00
  .000E+00  .000E+00  .000E+00  .000E+00  .000E+00  .000E+00  .000E+00  .000E+00
  .000E+00  .000E+00  .000E+00  .000E+00
Damping =  .05. Data of Sd,Sv,Sa,Pssv,ttSd,ttSv,ttSa :
  .240E-04  .266E-04  .294E-04  .325E-04  .365E-04  .373E-04  .518E-04  .731E-04
  .114E-03  .161E-03  .211E-03  .191E-03  .216E-03  .211E-03  .236E-03  .316E-03
  .346E-03  .339E-03  .388E-03  .484E-03  .591E-03  .567E-03  .765E-03  .736E-03
  .776E-03  .837E-03  .838E-03  .922E-03  .148E-02  .202E-02  .182E-02  .157E-02
  .190E-02  .246E-02  .281E-02  .260E-02  .247E-02  .249E-02  .234E-02  .227E-02
