Response and Fourier amplitude spectra (78 periods,  .04 -  6.0 sec)   for      
Corrected accelerogram   38695658.CI.LMS.--.HN      Chan  1:  90 Deg     from   
Uncorrected Accelerogram Data             Processed: 09/19/20, CGS  cilms--g    
Rcrd of Fri Sep 18, 2020 23:38:32.0 PDT               (Avol1 v2.0, 4/18 CSMIP)  
                                        (Origin:  To be determined)             
38695658.CI.LMS.--.HN                Start time:  9/19/20, 06:38:32.0 UTC (GPS) 
Station Id. LMS     33.817N, 117.445W    Q330    s/n 4339  (3 Chns of  6 at Sta)
Lake Mathews Shore                       SCSN   Data: Acceleration              
Chan  1:  90 Deg                                                                
Rcrd of Fri Sep 18, 2020 23:38:32.0 PDT    Fri Sep 18, 2020 23:38:32.0 PDT      
Hypocenter:  To be determined.               ML:  To be determined.             
Instr Period =  .0050 sec,  Damping =  .707,  Sensitivity = 4.99 v/g  (Nominal) 
                        Record Length =301.000 sec.                             
                                     Uncor Max  =  -.005 g, at   35.900 sec.    
RMS accel of (uncor) record  =        .   Chn. metadata effective date:         
Accelerogram bandpass filtered with 3 dB pts at   .30 and 23.00 cyc/sec         
                 instrument- and base-line correcte                             
                                                                                
                                                                                
                                                                                
                                                                                
                                                                                
Rcrd of Fri Sep 18, 2020 23:38:32.0 PDT    Fri Sep 18, 2020 23:38:32.0 PDT      
                                                                                
38695658.CI.LMS.--.HN     Lake Mathews Shore    Chan  1:  90 Deg                
                                                                                
38695658.CI.LMS.--.HN     Lake Mathews Shore    Chan  1:  90 Deg                
                                                                                
Units for spectra are inches and sec, except Sa is in fraction of g.            
                                                                                
    1  100    1    6    6  100 -999    3    1    0  605 4339    0    0   41    0
    6   38   32    8  263    9   19 2020   10    3   9036187   39   18   74 -999
36187 -999  100    6 -999 -999 -999 -999 -999 -999 -999 -999 -999 -999 -999 -999
 -999 -999 -999 -99915050    2 -999    0 -999   20 -999 -999    3    1 -99915050
    315050    4   78    1    3    5    0    0 -999    0 -999 -999    6 -999    2
    2    2    4 -999 -999 -999 -999 -999 -999 -999 -999    1 -999 -999 -999  111
    1    1 -999 -999
      .005      .707   361.870      .000     1.000  4993.465     -.005    35.900
   200.000     2.384      .477  -999.000    10.000  -999.000     4.000  -999.000
    20.000    -9.705      .000  -999.000  -999.000  -999.000  -999.000     -.001
      .002      .003     2.000    15.000    33.817  -117.445      .001      .001
     1.111      .003      .003   443.000  -999.000  -999.000  -999.000  -999.000
     1.000  -999.000    -8.000  -999.000  -999.000  -999.000  -999.000   120.000
     -.900     2.000     6.800   980.665      .020   301.000    31.831      .000
  -999.000    23.000  -999.000   301.000      .020      .300  -999.000  -999.000
    35.900    -4.156    35.180      .069    33.760      .004      .000      .300
    23.000      .020      .020      .000      .020      .003  -999.000  -999.000
      .013      .085      .004      .003      .000      .000  -999.000  -999.000
  -999.000  -999.000  -999.000  -999.000  -999.000  -999.000  -999.000  -999.000
  -999.000  -999.000  -999.000  -999.000
      .050
      .040      .042      .044      .046      .048      .050      .055      .060
      .065      .070      .075      .080      .085      .090      .095      .100
      .110      .120      .130      .140      .150      .160      .170      .180
      .190      .200      .220      .240      .260      .280      .300      .320
      .340      .360      .380      .400      .420      .440      .460      .480
      .500      .550      .600      .650      .700      .750      .800      .850
      .900      .950     1.000     1.100     1.200     1.300     1.400     1.500
     1.600     1.700     1.800     1.900     2.000     2.200     2.400     2.600
     2.800     3.000     3.200     3.400     3.600     3.800     4.000     4.200
     4.400     4.600     4.800     5.000     5.500     6.000      .000      .000
      .000      .000      .000      .000      .000      .000      .000      .000
      .000      .000      .000      .000      .000      .000      .000      .000
      .000      .000      .000      .000
Fourier amplitude spectra in in/sec.
  .000E+00  .000E+00  .000E+00  .000E+00  .000E+00  .000E+00  .000E+00  .000E+00
  .000E+00  .000E+00  .000E+00  .000E+00  .000E+00  .000E+00  .000E+00  .000E+00
  .000E+00  .000E+00  .000E+00  .000E+00  .000E+00  .000E+00  .000E+00  .000E+00
  .000E+00  .000E+00  .000E+00  .000E+00  .000E+00  .000E+00  .000E+00  .000E+00
  .000E+00  .000E+00  .000E+00  .000E+00  .000E+00  .000E+00  .000E+00  .000E+00
  .000E+00  .000E+00  .000E+00  .000E+00  .000E+00  .000E+00  .000E+00  .000E+00
  .000E+00  .000E+00  .000E+00  .000E+00  .000E+00  .000E+00  .000E+00  .000E+00
  .000E+00  .000E+00  .000E+00  .000E+00  .000E+00  .000E+00  .000E+00  .000E+00
  .000E+00  .000E+00  .000E+00  .000E+00  .000E+00  .000E+00  .000E+00  .000E+00
  .000E+00  .000E+00  .000E+00  .000E+00  .000E+00  .000E+00  .000E+00  .000E+00
  .000E+00  .000E+00  .000E+00  .000E+00  .000E+00  .000E+00  .000E+00  .000E+00
  .000E+00  .000E+00  .000E+00  .000E+00  .000E+00  .000E+00  .000E+00  .000E+00
  .000E+00  .000E+00  .000E+00  .000E+00
Damping =  .05. Data of Sd,Sv,Sa,Pssv,ttSd,ttSv,ttSa :
  .696E-04  .834E-04  .101E-03  .122E-03  .141E-03  .172E-03  .222E-03  .275E-03
  .482E-03  .574E-03  .687E-03  .695E-03  .921E-03  .993E-03  .110E-02  .114E-02
  .143E-02  .150E-02  .167E-02  .206E-02  .194E-02  .151E-02  .149E-02  .134E-02
  .138E-02  .165E-02  .185E-02  .235E-02  .200E-02  .203E-02  .233E-02  .216E-02
  .253E-02  .256E-02  .196E-02  .171E-02  .164E-02  .176E-02  .170E-02  .177E-02
  .228E-02  .269E-02  .253E-02  .254E-02  .213E-02  .179E-02  .153E-02  .160E-02
  .168E-02  .166E-02  .165E-02  .172E-02  .236E-02  .264E-02  .282E-02  .252E-02
  .249E-02  .231E-02  .248E-02  .232E-02  .230E-02  .271E-02  .250E-02  .213E-02
  .206E-02  .202E-02  .189E-02  .192E-02  .189E-02  .185E-02  .178E-02  .174E-02
  .174E-02  .173E-02  .172E-02  .172E-02  .171E-02  .166E-02  .000E+00  .000E+00
  .000E+00  .000E+00  .000E+00  .000E+00  .000E+00  .000E+00  .000E+00  .000E+00
  .000E+00  .000E+00  .000E+00  .000E+00  .000E+00  .000E+00  .000E+00  .000E+00
  .000E+00  .000E+00  .000E+00  .000E+00
  .628E-02  .722E-02  .866E-02  .113E-01  .132E-01  .160E-01  .216E-01  .244E-01
  .421E-01  .494E-01  .536E-01  .528E-01  .620E-01  .623E-01  .682E-01  .725E-01
  .823E-01  .836E-01  .791E-01  .999E-01  .845E-01  .672E-01  .582E-01  .457E-01
  .470E-01  .583E-01  .623E-01  .630E-01  .508E-01  .476E-01  .624E-01  .471E-01
  .558E-01  .554E-01  .403E-01  .348E-01  .311E-01  .315E-01  .328E-01  .359E-01
  .381E-01  .467E-01  .520E-01  .427E-01  .324E-01  .280E-01  .286E-01  .270E-01
  .263E-01  .261E-01  .259E-01  .248E-01  .295E-01  .285E-01  .267E-01  .256E-01
  .267E-01  .269E-01  .248E-01  .257E-01  .260E-01  .280E-01  .281E-01  .272E-01
  .269E-01  .266E-01  .262E-01  .257E-01  .253E-01  .251E-01  .250E-01  .250E-01
  .249E-01  .249E-01  .248E-01  .248E-01  .247E-01  .248E-01  .000E+00  .000E+00
  .000E+00  .000E+00  .000E+00  .000E+00  .000E+00  .000E+00  .000E+00  .000E+00
  .000E+00  .000E+00  .000E+00  .000E+00  .000E+00  .000E+00  .000E+00  .000E+00
  .000E+00  .000E+00  .000E+00  .000E+00
  .444E-02  .483E-02  .538E-02  .593E-02  .625E-02  .707E-02  .762E-02  .774E-02
  .117E-01  .122E-01  .125E-01  .113E-01  .129E-01  .126E-01  .126E-01  .116E-01
  .120E-01  .104E-01  .102E-01  .110E-01  .889E-02  .612E-02  .536E-02  .427E-02
  .392E-02  .426E-02  .386E-02  .413E-02  .300E-02  .274E-02  .263E-02  .217E-02
  .229E-02  .203E-02  .138E-02  .109E-02  .978E-03  .924E-03  .838E-03  .801E-03
  .951E-03  .919E-03  .731E-03  .617E-03  .450E-03  .327E-03  .251E-03  .233E-03
  .217E-03  .191E-03  .172E-03  .152E-03  .175E-03  .166E-03  .151E-03  .125E-03
  .106E-03  .920E-04  .895E-04  .766E-04  .694E-04  .675E-04  .545E-04  .419E-04
  .359E-04  .316E-04  .272E-04  .230E-04  .199E-04  .175E-04  .158E-04  .146E-04
  .134E-04  .124E-04  .115E-04  .107E-04  .906E-05  .800E-05  .000E+00  .000E+00
  .000E+00  .000E+00  .000E+00  .000E+00  .000E+00  .000E+00  .000E+00  .000E+00
  .000E+00  .000E+00  .000E+00  .000E+00  .000E+00  .000E+00  .000E+00  .000E+00
  .000E+00  .000E+00  .000E+00  .000E+00
  .109E-01  .125E-01  .144E-01  .167E-01  .184E-01  .216E-01  .253E-01  .288E-01
  .466E-01  .515E-01  .576E-01  .546E-01  .681E-01  .693E-01  .728E-01  .717E-01
  .819E-01  .784E-01  .806E-01  .925E-01  .812E-01  .595E-01  .550E-01  .467E-01
  .456E-01  .518E-01  .527E-01  .616E-01  .483E-01  .455E-01  .489E-01  .423E-01
  .467E-01  .447E-01  .325E-01  .268E-01  .245E-01  .251E-01  .232E-01  .232E-01
  .286E-01  .307E-01  .265E-01  .245E-01  .191E-01  .150E-01  .120E-01  .118E-01
  .117E-01  .110E-01  .104E-01  .984E-02  .124E-01  .128E-01  .127E-01  .105E-01
  .977E-02  .853E-02  .866E-02  .767E-02  .724E-02  .774E-02  .655E-02  .516E-02
  .462E-02  .424E-02  .372E-02  .355E-02  .330E-02  .306E-02  .280E-02  .261E-02
  .249E-02  .237E-02  .225E-02  .216E-02  .196E-02  .174E-02  .000E+00  .000E+00
  .000E+00  .000E+00  .000E+00  .000E+00  .000E+00  .000E+00  .000E+00  .000E+00
  .000E+00  .000E+00  .000E+00  .000E+00  .000E+00  .000E+00  .000E+00  .000E+00
  .000E+00  .000E+00  .000E+00  .000E+00
  .359E+02  .359E+02  .359E+02  .359E+02  .366E+02  .366E+02  .361E+02  .355E+02
  .355E+02  .356E+02  .362E+02  .362E+02  .360E+02  .368E+02  .369E+02  .367E+02
  .364E+02  .361E+02  .371E+02  .371E+02  .370E+02  .366E+02  .363E+02  .363E+02
  .363E+02  .366E+02  .369E+02  .373E+02  .384E+02  .360E+02  .359E+02  .382E+02
  .382E+02  .381E+02  .381E+02  .381E+02  .380E+02  .380E+02  .401E+02  .346E+02
  .352E+02  .352E+02  .359E+02  .351E+02  .351E+02  .351E+02  .339E+02  .339E+02
  .339E+02  .339E+02  .351E+02  .365E+02  .365E+02  .362E+02  .363E+02  .357E+02
  .388E+02  .352E+02  .345E+02  .345E+02  .345E+02  .345E+02  .345E+02  .345E+02
  .345E+02  .345E+02  .337E+02  .337E+02  .337E+02  .337E+02  .337E+02  .337E+02
  .337E+02  .337E+02  .337E+02  .337E+02  .337E+02  .337E+02  .000E+00  .000E+00
  .000E+00  .000E+00  .000E+00  .000E+00  .000E+00  .000E+00  .000E+00  .000E+00
  .000E+00  .000E+00  .000E+00  .000E+00  .000E+00  .000E+00  .000E+00  .000E+00
  .000E+00  .000E+00  .000E+00  .000E+00
  .355E+02  .359E+02  .345E+02  .359E+02  .359E+02  .366E+02  .366E+02  .355E+02
  .355E+02  .355E+02  .362E+02  .362E+02  .359E+02  .359E+02  .368E+02  .367E+02
  .361E+02  .361E+02  .371E+02  .371E+02  .369E+02  .366E+02  .363E+02  .362E+02
  .362E+02  .362E+02  .369E+02  .373E+02  .385E+02  .360E+02  .360E+02  .359E+02
  .382E+02  .382E+02  .370E+02  .370E+02  .369E+02  .377E+02  .377E+02  .377E+02
  .368E+02  .359E+02  .352E+02  .352E+02  .352E+02  .344E+02  .344E+02  .344E+02
  .352E+02  .352E+02  .370E+02  .363E+02  .363E+02  .363E+02  .360E+02  .368E+02
  .370E+02  .370E+02  .352E+02  .352E+02  .352E+02  .352E+02  .352E+02  .352E+02
  .352E+02  .352E+02  .352E+02  .352E+02  .352E+02  .352E+02  .352E+02  .352E+02
  .352E+02  .352E+02  .352E+02  .352E+02  .352E+02  .352E+02  .000E+00  .000E+00
  .000E+00  .000E+00  .000E+00  .000E+00  .000E+00  .000E+00  .000E+00  .000E+00
  .000E+00  .000E+00  .000E+00  .000E+00  .000E+00  .000E+00  .000E+00  .000E+00
  .000E+00  .000E+00  .000E+00  .000E+00
  .359E+02  .359E+02  .359E+02  .359E+02  .366E+02  .366E+02  .361E+02  .355E+02
  .355E+02  .356E+02  .362E+02  .362E+02  .360E+02  .368E+02  .369E+02  .367E+02
  .364E+02  .361E+02  .371E+02  .371E+02  .370E+02  .366E+02  .363E+02  .363E+02
  .363E+02  .363E+02  .369E+02  .373E+02  .384E+02  .360E+02  .359E+02  .382E+02
  .382E+02  .381E+02  .380E+02  .381E+02  .380E+02  .380E+02  .401E+02  .346E+02
  .352E+02  .352E+02  .359E+02  .351E+02  .351E+02  .351E+02  .339E+02  .339E+02
  .339E+02  .339E+02  .351E+02  .365E+02  .365E+02  .362E+02  .363E+02  .371E+02
  .388E+02  .345E+02  .345E+02  .345E+02  .345E+02  .345E+02  .345E+02  .345E+02
  .345E+02  .345E+02  .345E+02  .345E+02  .345E+02  .337E+02  .345E+02  .345E+02
  .345E+02  .345E+02  .345E+02  .345E+02  .345E+02  .344E+02  .000E+00  .000E+00
  .000E+00  .000E+00  .000E+00  .000E+00  .000E+00  .000E+00  .000E+00  .000E+00
  .000E+00  .000E+00  .000E+00  .000E+00  .000E+00  .000E+00  .000E+00  .000E+00
  .000E+00  .000E+00  .000E+00  .000E+00
/&   ----------  End of spectral data for channel  1  ----------
Response and Fourier amplitude spectra (78 periods,  .04 -  6.0 sec)   for      
Corrected accelerogram   38695658.CI.LMS.--.HN      Chan  2: 360 Deg     from   
Uncorrected Accelerogram Data             Processed: 09/19/20, CGS  cilms--g    
Rcrd of Fri Sep 18, 2020 23:38:32.0 PDT               (Avol1 v2.0, 4/18 CSMIP)  
                                        (Origin:  To be determined)             
38695658.CI.LMS.--.HN                Start time:  9/19/20, 06:38:32.0 UTC (GPS) 
Station Id. LMS     33.817N, 117.445W    Q330    s/n 4339  (3 Chns of  6 at Sta)
Lake Mathews Shore                       SCSN   Data: Acceleration              
Chan  2: 360 Deg                                                                
Rcrd of Fri Sep 18, 2020 23:38:32.0 PDT    Fri Sep 18, 2020 23:38:32.0 PDT      
Hypocenter:  To be determined.               ML:  To be determined.             
Instr Period =  .0050 sec,  Damping =  .707,  Sensitivity = 4.98 v/g  (Nominal) 
                        Record Length =301.000 sec.                             
                                     Uncor Max  =  -.007 g, at   36.100 sec.    
RMS accel of (uncor) record  =        .   Chn. metadata effective date:         
Accelerogram bandpass filtered with 3 dB pts at   .30 and 23.00 cyc/sec         
                 instrument- and base-line correcte                             
                                                                                
                                                                                
                                                                                
                                                                                
                                                                                
Rcrd of Fri Sep 18, 2020 23:38:32.0 PDT    Fri Sep 18, 2020 23:38:32.0 PDT      
                                                                                
38695658.CI.LMS.--.HN     Lake Mathews Shore    Chan  2: 360 Deg                
                                                                                
38695658.CI.LMS.--.HN     Lake Mathews Shore    Chan  2: 360 Deg                
                                                                                
Units for spectra are inches and sec, except Sa is in fraction of g.            
                                                                                
    2  100    2    6    6  100 -999    3    1    0  605 4339    0    0   41    0
    6   38   32    8  263    9   19 2020   10    3  36036052   39   18   74 -999
36052 -999  100    6 -999 -999 -999 -999 -999 -999 -999 -999 -999 -999 -999 -999
 -999 -999 -999 -99915050    2 -999    0 -999   20 -999 -999    3    1 -99915050
    315050    4   78    1    3    5    0    0 -999    0 -999 -999    6 -999    2
    2    2    4 -999 -999 -999 -999 -999 -999 -999 -999    1 -999 -999 -999  111
    1    1 -999 -999
      .005      .707   360.520      .000     1.000  4983.492     -.007    36.100
   200.000     2.384      .478  -999.000    10.000  -999.000     4.000  -999.000
    20.000    -3.224      .000  -999.000  -999.000  -999.000  -999.000      .002
     -.001     -.003     2.000    15.000    33.817  -117.445      .001      .001
     1.368     -.003     -.003   443.000  -999.000  -999.000  -999.000  -999.000
     1.000  -999.000  -999.000  -999.000  -999.000  -999.000  -999.000   120.000
     -.900     2.000     6.800   980.665      .020   301.000    31.831      .000
  -999.000    23.000  -999.000   301.000      .020      .300  -999.000  -999.000
    36.100    -6.768    36.080      .128    34.280      .005      .000      .300
    23.000      .020      .020      .000      .020      .003  -999.000  -999.000
      .026      .120      .009      .004      .000      .000  -999.000  -999.000
  -999.000  -999.000  -999.000  -999.000  -999.000  -999.000  -999.000  -999.000
  -999.000  -999.000  -999.000  -999.000
      .050
      .040      .042      .044      .046      .048      .050      .055      .060
      .065      .070      .075      .080      .085      .090      .095      .100
      .110      .120      .130      .140      .150      .160      .170      .180
      .190      .200      .220      .240      .260      .280      .300      .320
      .340      .360      .380      .400      .420      .440      .460      .480
      .500      .550      .600      .650      .700      .750      .800      .850
      .900      .950     1.000     1.100     1.200     1.300     1.400     1.500
     1.600     1.700     1.800     1.900     2.000     2.200     2.400     2.600
     2.800     3.000     3.200     3.400     3.600     3.800     4.000     4.200
     4.400     4.600     4.800     5.000     5.500     6.000      .000      .000
      .000      .000      .000      .000      .000      .000      .000      .000
      .000      .000      .000      .000      .000      .000      .000      .000
      .000      .000      .000      .000
Fourier amplitude spectra in in/sec.
  .000E+00  .000E+00  .000E+00  .000E+00  .000E+00  .000E+00  .000E+00  .000E+00
  .000E+00  .000E+00  .000E+00  .000E+00  .000E+00  .000E+00  .000E+00  .000E+00
  .000E+00  .000E+00  .000E+00  .000E+00  .000E+00  .000E+00  .000E+00  .000E+00
  .000E+00  .000E+00  .000E+00  .000E+00  .000E+00  .000E+00  .000E+00  .000E+00
  .000E+00  .000E+00  .000E+00  .000E+00  .000E+00  .000E+00  .000E+00  .000E+00
  .000E+00  .000E+00  .000E+00  .000E+00  .000E+00  .000E+00  .000E+00  .000E+00
  .000E+00  .000E+00  .000E+00  .000E+00  .000E+00  .000E+00  .000E+00  .000E+00
  .000E+00  .000E+00  .000E+00  .000E+00  .000E+00  .000E+00  .000E+00  .000E+00
  .000E+00  .000E+00  .000E+00  .000E+00  .000E+00  .000E+00  .000E+00  .000E+00
  .000E+00  .000E+00  .000E+00  .000E+00  .000E+00  .000E+00  .000E+00  .000E+00
  .000E+00  .000E+00  .000E+00  .000E+00  .000E+00  .000E+00  .000E+00  .000E+00
  .000E+00  .000E+00  .000E+00  .000E+00  .000E+00  .000E+00  .000E+00  .000E+00
  .000E+00  .000E+00  .000E+00  .000E+00
Damping =  .05. Data of Sd,Sv,Sa,Pssv,ttSd,ttSv,ttSa :
  .108E-03  .123E-03  .142E-03  .162E-03  .180E-03  .201E-03  .318E-03  .423E-03
  .584E-03  .534E-03  .571E-03  .966E-03  .123E-02  .166E-02  .202E-02  .206E-02
  .271E-02  .367E-02  .301E-02  .299E-02  .288E-02  .256E-02  .284E-02  .264E-02
  .316E-02  .404E-02  .361E-02  .289E-02  .330E-02  .327E-02  .369E-02  .397E-02
  .392E-02  .378E-02  .443E-02  .478E-02  .496E-02  .500E-02  .482E-02  .469E-02
