Response and Fourier amplitude spectra (78 periods,  .04 -  6.0 sec)   for      
Corrected accelerogram   38695658.CI.LMH.--.HN      Chan  1:  90 Deg     from   
Uncorrected Accelerogram Data             Processed: 09/19/20, CGS  cilmh--w    
Rcrd of Fri Sep 18, 2020 23:38:32.0 PDT               (Avol1 v2.0, 4/18 CSMIP)  
                                        (Origin:  To be determined)             
38695658.CI.LMH.--.HN                Start time:  9/19/20, 06:38:32.0 UTC (GPS) 
Station Id. LMH     33.744N, 117.391W    ObsMMS  s/n 5338  (3 Chns of  6 at Sta)
Lake Mathews Hills                       SCSN   Data: Acceleration              
Chan  1:  90 Deg                                                                
Rcrd of Fri Sep 18, 2020 23:38:32.0 PDT    Fri Sep 18, 2020 23:38:32.0 PDT      
Hypocenter:  To be determined.               ML:  To be determined.             
Instr Period =  .0050 sec,  Damping =  .707,  Sensitivity = 4.98 v/g  (Nominal) 
                        Record Length =301.000 sec.                             
                                     Uncor Max  =   .009 g, at   37.590 sec.    
RMS accel of (uncor) record  =        .   Chn. metadata effective date:         
Accelerogram bandpass filtered with 3 dB pts at   .30 and 23.00 cyc/sec         
                 instrument- and base-line correcte                             
                                                                                
                                                                                
                                                                                
                                                                                
                                                                                
Rcrd of Fri Sep 18, 2020 23:38:32.0 PDT    Fri Sep 18, 2020 23:38:32.0 PDT      
                                                                                
38695658.CI.LMH.--.HN     Lake Mathews Hills    Chan  1:  90 Deg                
                                                                                
38695658.CI.LMH.--.HN     Lake Mathews Hills    Chan  1:  90 Deg                
                                                                                
Units for spectra are inches and sec, except Sa is in fraction of g.            
                                                                                
    1  100    1    6    6  100 -999    3    1    0   15 5338    0    0   41    0
    6   38   32    8  263    9   19 2020   10    3   9036094   39   18   74 -999
36094 -999  100    6 -999 -999 -999 -999 -999 -999 -999 -999 -999 -999 -999 -999
 -999 -999 -999 -99915050    2 -999    0 -999   20 -999 -999    3    1 -99915050
    315050    4   78    1    3    5    0    0 -999    0 -999 -999    6 -999    2
    2    2    4 -999 -999 -999 -999 -999 -999 -999 -999    1 -999 -999 -999  111
    1    1 -999 -999
      .005      .707   360.940      .000     1.000  4978.683      .009    37.590
   200.000     2.384      .479  -999.000    10.000  -999.000     4.000  -999.000
    20.000   -11.460      .000  -999.000  -999.000  -999.000  -999.000      .000
      .000     -.001     2.000    15.000    33.744  -117.391      .001      .001
     1.282     -.001     -.001   496.000  -999.000  -999.000  -999.000  -999.000
     1.000  -999.000    -8.000  -999.000  -999.000  -999.000  -999.000   120.000
     -.900     2.000     6.800   980.665      .020   301.000    31.831      .000
  -999.000    23.000  -999.000   301.000      .020      .300  -999.000  -999.000
    37.580     8.201    37.560     -.155    37.580     -.007      .000      .300
    23.000      .020      .020      .000      .020      .004  -999.000  -999.000
      .026      .110      .015      .008      .000      .000  -999.000  -999.000
  -999.000  -999.000  -999.000  -999.000  -999.000  -999.000  -999.000  -999.000
  -999.000  -999.000  -999.000  -999.000
      .050
      .040      .042      .044      .046      .048      .050      .055      .060
      .065      .070      .075      .080      .085      .090      .095      .100
      .110      .120      .130      .140      .150      .160      .170      .180
      .190      .200      .220      .240      .260      .280      .300      .320
      .340      .360      .380      .400      .420      .440      .460      .480
      .500      .550      .600      .650      .700      .750      .800      .850
      .900      .950     1.000     1.100     1.200     1.300     1.400     1.500
     1.600     1.700     1.800     1.900     2.000     2.200     2.400     2.600
     2.800     3.000     3.200     3.400     3.600     3.800     4.000     4.200
     4.400     4.600     4.800     5.000     5.500     6.000      .000      .000
      .000      .000      .000      .000      .000      .000      .000      .000
      .000      .000      .000      .000      .000      .000      .000      .000
      .000      .000      .000      .000
Fourier amplitude spectra in in/sec.
  .000E+00  .000E+00  .000E+00  .000E+00  .000E+00  .000E+00  .000E+00  .000E+00
  .000E+00  .000E+00  .000E+00  .000E+00  .000E+00  .000E+00  .000E+00  .000E+00
  .000E+00  .000E+00  .000E+00  .000E+00  .000E+00  .000E+00  .000E+00  .000E+00
  .000E+00  .000E+00  .000E+00  .000E+00  .000E+00  .000E+00  .000E+00  .000E+00
  .000E+00  .000E+00  .000E+00  .000E+00  .000E+00  .000E+00  .000E+00  .000E+00
  .000E+00  .000E+00  .000E+00  .000E+00  .000E+00  .000E+00  .000E+00  .000E+00
  .000E+00  .000E+00  .000E+00  .000E+00  .000E+00  .000E+00  .000E+00  .000E+00
  .000E+00  .000E+00  .000E+00  .000E+00  .000E+00  .000E+00  .000E+00  .000E+00
  .000E+00  .000E+00  .000E+00  .000E+00  .000E+00  .000E+00  .000E+00  .000E+00
  .000E+00  .000E+00  .000E+00  .000E+00  .000E+00  .000E+00  .000E+00  .000E+00
  .000E+00  .000E+00  .000E+00  .000E+00  .000E+00  .000E+00  .000E+00  .000E+00
  .000E+00  .000E+00  .000E+00  .000E+00  .000E+00  .000E+00  .000E+00  .000E+00
  .000E+00  .000E+00  .000E+00  .000E+00
Damping =  .05. Data of Sd,Sv,Sa,Pssv,ttSd,ttSv,ttSa :
  .168E-03  .192E-03  .217E-03  .244E-03  .266E-03  .310E-03  .527E-03  .659E-03
  .945E-03  .888E-03  .906E-03  .107E-02  .142E-02  .190E-02  .227E-02  .225E-02
  .307E-02  .248E-02  .323E-02  .354E-02  .368E-02  .337E-02  .316E-02  .366E-02
  .524E-02  .677E-02  .649E-02  .658E-02  .610E-02  .655E-02  .690E-02  .671E-02
  .533E-02  .489E-02  .396E-02  .323E-02  .307E-02  .329E-02  .347E-02  .344E-02
  .316E-02  .282E-02  .261E-02  .252E-02  .247E-02  .224E-02  .223E-02  .243E-02
  .258E-02  .256E-02  .234E-02  .214E-02  .212E-02  .224E-02  .248E-02  .274E-02
  .280E-02  .304E-02  .310E-02  .328E-02  .357E-02  .305E-02  .270E-02  .295E-02
  .318E-02  .321E-02  .322E-02  .327E-02  .330E-02  .329E-02  .322E-02  .314E-02
  .306E-02  .301E-02  .297E-02  .293E-02  .283E-02  .278E-02  .000E+00  .000E+00
  .000E+00  .000E+00  .000E+00  .000E+00  .000E+00  .000E+00  .000E+00  .000E+00
  .000E+00  .000E+00  .000E+00  .000E+00  .000E+00  .000E+00  .000E+00  .000E+00
  .000E+00  .000E+00  .000E+00  .000E+00
  .125E-01  .134E-01  .154E-01  .195E-01  .236E-01  .277E-01  .421E-01  .603E-01
  .810E-01  .704E-01  .745E-01  .843E-01  .102E+00  .115E+00  .142E+00  .140E+00
  .178E+00  .138E+00  .170E+00  .170E+00  .160E+00  .141E+00  .126E+00  .137E+00
  .188E+00  .215E+00  .201E+00  .185E+00  .151E+00  .159E+00  .169E+00  .146E+00
  .137E+00  .106E+00  .891E-01  .818E-01  .762E-01  .772E-01  .742E-01  .737E-01
  .731E-01  .697E-01  .664E-01  .655E-01  .661E-01  .664E-01  .661E-01  .650E-01
  .626E-01  .600E-01  .572E-01  .560E-01  .564E-01  .552E-01  .554E-01  .544E-01
  .545E-01  .558E-01  .558E-01  .560E-01  .571E-01  .564E-01  .552E-01  .549E-01
  .540E-01  .546E-01  .550E-01  .553E-01  .556E-01  .559E-01  .561E-01  .563E-01
  .563E-01  .564E-01  .564E-01  .565E-01  .565E-01  .565E-01  .000E+00  .000E+00
  .000E+00  .000E+00  .000E+00  .000E+00  .000E+00  .000E+00  .000E+00  .000E+00
  .000E+00  .000E+00  .000E+00  .000E+00  .000E+00  .000E+00  .000E+00  .000E+00
  .000E+00  .000E+00  .000E+00  .000E+00
  .108E-01  .112E-01  .115E-01  .119E-01  .118E-01  .127E-01  .177E-01  .191E-01
  .228E-01  .184E-01  .166E-01  .169E-01  .200E-01  .244E-01  .259E-01  .236E-01
  .265E-01  .175E-01  .194E-01  .185E-01  .169E-01  .135E-01  .114E-01  .115E-01
  .151E-01  .170E-01  .135E-01  .119E-01  .940E-02  .861E-02  .786E-02  .664E-02
  .463E-02  .391E-02  .290E-02  .215E-02  .184E-02  .179E-02  .174E-02  .160E-02
  .138E-02  .103E-02  .810E-03  .674E-03  .578E-03  .468E-03  .374E-03  .357E-03
  .329E-03  .292E-03  .256E-03  .195E-03  .164E-03  .148E-03  .142E-03  .137E-03
  .126E-03  .129E-03  .119E-03  .113E-03  .112E-03  .843E-04  .684E-04  .656E-04
  .621E-04  .565E-04  .516E-04  .478E-04  .444E-04  .411E-04  .378E-04  .349E-04
  .324E-04  .303E-04  .284E-04  .268E-04  .233E-04  .207E-04  .000E+00  .000E+00
  .000E+00  .000E+00  .000E+00  .000E+00  .000E+00  .000E+00  .000E+00  .000E+00
  .000E+00  .000E+00  .000E+00  .000E+00  .000E+00  .000E+00  .000E+00  .000E+00
  .000E+00  .000E+00  .000E+00  .000E+00
  .263E-01  .287E-01  .310E-01  .333E-01  .348E-01  .390E-01  .602E-01  .690E-01
  .914E-01  .797E-01  .759E-01  .838E-01  .105E+00  .133E+00  .150E+00  .141E+00
  .175E+00  .130E+00  .156E+00  .159E+00  .154E+00  .132E+00  .117E+00  .128E+00
  .173E+00  .213E+00  .185E+00  .172E+00  .147E+00  .147E+00  .145E+00  .132E+00
  .986E-01  .854E-01  .654E-01  .507E-01  .459E-01  .470E-01  .474E-01  .450E-01
  .397E-01  .323E-01  .273E-01  .243E-01  .221E-01  .187E-01  .175E-01  .180E-01
  .180E-01  .169E-01  .147E-01  .122E-01  .111E-01  .108E-01  .112E-01  .115E-01
  .110E-01  .112E-01  .108E-01  .109E-01  .112E-01  .871E-02  .706E-02  .712E-02
  .714E-02  .672E-02  .632E-02  .604E-02  .576E-02  .543E-02  .505E-02  .469E-02
  .437E-02  .411E-02  .389E-02  .368E-02  .323E-02  .292E-02  .000E+00  .000E+00
  .000E+00  .000E+00  .000E+00  .000E+00  .000E+00  .000E+00  .000E+00  .000E+00
  .000E+00  .000E+00  .000E+00  .000E+00  .000E+00  .000E+00  .000E+00  .000E+00
  .000E+00  .000E+00  .000E+00  .000E+00
  .376E+02  .376E+02  .376E+02  .376E+02  .374E+02  .376E+02  .376E+02  .376E+02
  .375E+02  .375E+02  .378E+02  .379E+02  .373E+02  .376E+02  .376E+02  .380E+02
  .380E+02  .375E+02  .378E+02  .377E+02  .377E+02  .377E+02  .377E+02  .377E+02
  .376E+02  .376E+02  .376E+02  .381E+02  .382E+02  .382E+02  .379E+02  .380E+02
  .376E+02  .376E+02  .376E+02  .376E+02  .376E+02  .376E+02  .376E+02  .376E+02
  .376E+02  .376E+02  .376E+02  .376E+02  .376E+02  .376E+02  .375E+02  .375E+02
  .375E+02  .375E+02  .375E+02  .377E+02  .377E+02  .377E+02  .377E+02  .377E+02
  .377E+02  .380E+02  .380E+02  .380E+02  .380E+02  .380E+02  .380E+02  .376E+02
  .376E+02  .376E+02  .376E+02  .376E+02  .376E+02  .376E+02  .376E+02  .376E+02
  .376E+02  .376E+02  .376E+02  .376E+02  .376E+02  .376E+02  .000E+00  .000E+00
  .000E+00  .000E+00  .000E+00  .000E+00  .000E+00  .000E+00  .000E+00  .000E+00
  .000E+00  .000E+00  .000E+00  .000E+00  .000E+00  .000E+00  .000E+00  .000E+00
  .000E+00  .000E+00  .000E+00  .000E+00
  .374E+02  .374E+02  .374E+02  .374E+02  .374E+02  .382E+02  .376E+02  .376E+02
  .375E+02  .375E+02  .378E+02  .378E+02  .373E+02  .376E+02  .376E+02  .376E+02
  .380E+02  .375E+02  .378E+02  .378E+02  .376E+02  .376E+02  .376E+02  .376E+02
  .377E+02  .377E+02  .376E+02  .384E+02  .384E+02  .381E+02  .381E+02  .378E+02
  .378E+02  .376E+02  .375E+02  .370E+02  .376E+02  .376E+02  .376E+02  .375E+02
  .375E+02  .375E+02  .375E+02  .375E+02  .375E+02  .375E+02  .375E+02  .375E+02
  .375E+02  .375E+02  .375E+02  .375E+02  .375E+02  .375E+02  .375E+02  .376E+02
  .376E+02  .376E+02  .376E+02  .376E+02  .376E+02  .376E+02  .376E+02  .376E+02
  .375E+02  .375E+02  .375E+02  .375E+02  .375E+02  .375E+02  .375E+02  .375E+02
  .375E+02  .375E+02  .375E+02  .375E+02  .375E+02  .375E+02  .000E+00  .000E+00
  .000E+00  .000E+00  .000E+00  .000E+00  .000E+00  .000E+00  .000E+00  .000E+00
  .000E+00  .000E+00  .000E+00  .000E+00  .000E+00  .000E+00  .000E+00  .000E+00
  .000E+00  .000E+00  .000E+00  .000E+00
  .376E+02  .376E+02  .376E+02  .376E+02  .376E+02  .376E+02  .376E+02  .376E+02
  .375E+02  .375E+02  .379E+02  .379E+02  .373E+02  .376E+02  .376E+02  .376E+02
  .380E+02  .375E+02  .378E+02  .377E+02  .377E+02  .377E+02  .377E+02  .377E+02
  .376E+02  .376E+02  .376E+02  .381E+02  .382E+02  .382E+02  .379E+02  .380E+02
  .376E+02  .376E+02  .376E+02  .376E+02  .376E+02  .376E+02  .376E+02  .376E+02
  .376E+02  .376E+02  .376E+02  .376E+02  .376E+02  .376E+02  .374E+02  .374E+02
  .375E+02  .375E+02  .381E+02  .377E+02  .377E+02  .377E+02  .377E+02  .377E+02
  .379E+02  .379E+02  .379E+02  .379E+02  .379E+02  .379E+02  .375E+02  .375E+02
  .375E+02  .375E+02  .375E+02  .375E+02  .375E+02  .375E+02  .375E+02  .375E+02
  .375E+02  .375E+02  .375E+02  .375E+02  .375E+02  .375E+02  .000E+00  .000E+00
  .000E+00  .000E+00  .000E+00  .000E+00  .000E+00  .000E+00  .000E+00  .000E+00
  .000E+00  .000E+00  .000E+00  .000E+00  .000E+00  .000E+00  .000E+00  .000E+00
  .000E+00  .000E+00  .000E+00  .000E+00
/&   ----------  End of spectral data for channel  1  ----------
Response and Fourier amplitude spectra (78 periods,  .04 -  6.0 sec)   for      
Corrected accelerogram   38695658.CI.LMH.--.HN      Chan  2: 360 Deg     from   
Uncorrected Accelerogram Data             Processed: 09/19/20, CGS  cilmh--w    
Rcrd of Fri Sep 18, 2020 23:38:32.0 PDT               (Avol1 v2.0, 4/18 CSMIP)  
                                        (Origin:  To be determined)             
38695658.CI.LMH.--.HN                Start time:  9/19/20, 06:38:32.0 UTC (GPS) 
Station Id. LMH     33.744N, 117.391W    ObsMMS  s/n 5338  (3 Chns of  6 at Sta)
Lake Mathews Hills                       SCSN   Data: Acceleration              
Chan  2: 360 Deg                                                                
Rcrd of Fri Sep 18, 2020 23:38:32.0 PDT    Fri Sep 18, 2020 23:38:32.0 PDT      
Hypocenter:  To be determined.               ML:  To be determined.             
Instr Period =  .0050 sec,  Damping =  .707,  Sensitivity = 4.98 v/g  (Nominal) 
                        Record Length =301.000 sec.                             
                                     Uncor Max  =  -.009 g, at   37.440 sec.    
RMS accel of (uncor) record  =        .   Chn. metadata effective date:         
Accelerogram bandpass filtered with 3 dB pts at   .30 and 23.00 cyc/sec         
                 instrument- and base-line correcte                             
                                                                                
                                                                                
                                                                                
                                                                                
                                                                                
Rcrd of Fri Sep 18, 2020 23:38:32.0 PDT    Fri Sep 18, 2020 23:38:32.0 PDT      
                                                                                
38695658.CI.LMH.--.HN     Lake Mathews Hills    Chan  2: 360 Deg                
                                                                                
38695658.CI.LMH.--.HN     Lake Mathews Hills    Chan  2: 360 Deg                
                                                                                
Units for spectra are inches and sec, except Sa is in fraction of g.            
                                                                                
    2  100    2    6    6  100 -999    3    1    0   15 5338    0    0   41    0
    6   38   32    8  263    9   19 2020   10    3  36036210   39   18   74 -999
36210 -999  100    6 -999 -999 -999 -999 -999 -999 -999 -999 -999 -999 -999 -999
 -999 -999 -999 -99915050    2 -999    0 -999   20 -999 -999    3    1 -99915050
    315050    4   78    1    3    5    0    0 -999    0 -999 -999    6 -999    2
    2    2    4 -999 -999 -999 -999 -999 -999 -999 -999    1 -999 -999 -999  111
    1    1 -999 -999
      .005      .707   362.100      .000     1.000  4984.667     -.009    37.440
   200.000     2.384      .478  -999.000    10.000  -999.000     4.000  -999.000
    20.000     9.143      .000  -999.000  -999.000  -999.000  -999.000     -.001
      .002      .003     2.000    15.000    33.744  -117.391      .001      .001
     1.159      .003      .003   496.000  -999.000  -999.000  -999.000  -999.000
     1.000  -999.000  -999.000  -999.000  -999.000  -999.000  -999.000   120.000
     -.900     2.000     6.800   980.665      .020   301.000    31.831      .000
  -999.000    23.000  -999.000   301.000      .020      .300  -999.000  -999.000
    37.440    -8.606    37.500     -.159    37.540     -.005      .000      .300
    23.000      .020      .020      .000      .020      .004  -999.000  -999.000
      .025      .130      .009      .010      .000      .000  -999.000  -999.000
  -999.000  -999.000  -999.000  -999.000  -999.000  -999.000  -999.000  -999.000
  -999.000  -999.000  -999.000  -999.000
      .050
      .040      .042      .044      .046      .048      .050      .055      .060
      .065      .070      .075      .080      .085      .090      .095      .100
      .110      .120      .130      .140      .150      .160      .170      .180
      .190      .200      .220      .240      .260      .280      .300      .320
      .340      .360      .380      .400      .420      .440      .460      .480
      .500      .550      .600      .650      .700      .750      .800      .850
      .900      .950     1.000     1.100     1.200     1.300     1.400     1.500
     1.600     1.700     1.800     1.900     2.000     2.200     2.400     2.600
     2.800     3.000     3.200     3.400     3.600     3.800     4.000     4.200
     4.400     4.600     4.800     5.000     5.500     6.000      .000      .000
      .000      .000      .000      .000      .000      .000      .000      .000
      .000      .000      .000      .000      .000      .000      .000      .000
      .000      .000      .000      .000
Fourier amplitude spectra in in/sec.
  .000E+00  .000E+00  .000E+00  .000E+00  .000E+00  .000E+00  .000E+00  .000E+00
  .000E+00  .000E+00  .000E+00  .000E+00  .000E+00  .000E+00  .000E+00  .000E+00
  .000E+00  .000E+00  .000E+00  .000E+00  .000E+00  .000E+00  .000E+00  .000E+00
  .000E+00  .000E+00  .000E+00  .000E+00  .000E+00  .000E+00  .000E+00  .000E+00
  .000E+00  .000E+00  .000E+00  .000E+00  .000E+00  .000E+00  .000E+00  .000E+00
  .000E+00  .000E+00  .000E+00  .000E+00  .000E+00  .000E+00  .000E+00  .000E+00
  .000E+00  .000E+00  .000E+00  .000E+00  .000E+00  .000E+00  .000E+00  .000E+00
  .000E+00  .000E+00  .000E+00  .000E+00  .000E+00  .000E+00  .000E+00  .000E+00
  .000E+00  .000E+00  .000E+00  .000E+00  .000E+00  .000E+00  .000E+00  .000E+00
  .000E+00  .000E+00  .000E+00  .000E+00  .000E+00  .000E+00  .000E+00  .000E+00
  .000E+00  .000E+00  .000E+00  .000E+00  .000E+00  .000E+00  .000E+00  .000E+00
  .000E+00  .000E+00  .000E+00  .000E+00  .000E+00  .000E+00  .000E+00  .000E+00
  .000E+00  .000E+00  .000E+00  .000E+00
Damping =  .05. Data of Sd,Sv,Sa,Pssv,ttSd,ttSv,ttSa :
  .162E-03  .186E-03  .222E-03  .246E-03  .328E-03  .373E-03  .607E-03  .841E-03
  .932E-03  .115E-02  .101E-02  .963E-03  .113E-02  .122E-02  .148E-02  .173E-02
  .217E-02  .333E-02  .421E-02  .388E-02  .348E-02  .273E-02  .323E-02  .360E-02
  .355E-02  .338E-02  .358E-02  .423E-02  .484E-02  .794E-02  .979E-02  .913E-02
  .746E-02  .533E-02  .435E-02  .373E-02  .333E-02  .297E-02  .275E-02  .256E-02
