Response and Fourier amplitude spectra (78 periods,  .04 -  6.0 sec)   for      
Corrected accelerogram   38695658.CI.LPC.--.HN      Chan  1:  90 Deg     from   
Uncorrected Accelerogram Data             Processed: 09/19/20, CGS  cilpc--j    
Rcrd of Fri Sep 18, 2020 23:38:35.0 PDT               (Avol1 v2.0, 4/18 CSMIP)  
                                        (Origin:  To be determined)             
38695658.CI.LPC.--.HN                Start time:  9/19/20, 06:38:35.0 UTC (GPS) 
Station Id. LPC     34.315N, 117.546W    Q330    s/n 3065  (3 Chns of  3 at Sta)
Lone Pine Canyon                         SCSN   Data: Acceleration              
Chan  1:  90 Deg                                                                
Rcrd of Fri Sep 18, 2020 23:38:35.0 PDT    Fri Sep 18, 2020 23:38:35.0 PDT      
Hypocenter:  To be determined.               ML:  To be determined.             
Instr Period =  .0050 sec,  Damping =  .707,  Sensitivity = 4.99 v/g  (Nominal) 
                        Record Length =301.000 sec.                             
                                     Uncor Max  =   .005 g, at   30.000 sec.    
RMS accel of (uncor) record  =        .   Chn. metadata effective date:         
Accelerogram bandpass filtered with 3 dB pts at   .30 and 23.00 cyc/sec         
                 instrument- and base-line correcte                             
                                                                                
                                                                                
                                                                                
                                                                                
                                                                                
Rcrd of Fri Sep 18, 2020 23:38:35.0 PDT    Fri Sep 18, 2020 23:38:35.0 PDT      
                                                                                
38695658.CI.LPC.--.HN     Lone Pine Canyon    Chan  1:  90 Deg                  
                                                                                
38695658.CI.LPC.--.HN     Lone Pine Canyon    Chan  1:  90 Deg                  
                                                                                
Units for spectra are inches and sec, except Sa is in fraction of g.            
                                                                                
    1  100    1    3    3  100 -999    3    1   24  605 3065    0    0   41    0
    6   38   35    8  263    9   19 2020   10    3   9035324   39   16   74 -999
35324 -999  100    6 -999 -999 -999 -999 -999 -999 -999 -999 -999 -999 -999 -999
 -999 -999 -999 -99915050    2 -999    0 -999   20 -999 -999    3    1 -99915050
    315050    4   78    1    3    5    0    0 -999    0 -999 -999    6 -999    2
    2    2    4 -999 -999 -999 -999 -999 -999 -999 -999    1 -999 -999 -999  111
    1    1 -999 -999
      .005      .707   353.240      .000     1.000  4985.686      .005    30.000
   200.000     2.384      .478  -999.000    10.000  -999.000     4.000  -999.000
    20.000   -41.666    20.000  -999.000  -999.000  -999.000  -999.000      .000
      .000     -.001     2.000    15.000    34.315  -117.546      .001      .001
     1.028     -.001      .000  1351.000  -999.000  -999.000  -999.000  -999.000
     1.000  -999.000    -8.000  -999.000  -999.000  -999.000  -999.000   120.000
     -.900     2.000     6.800   980.665      .020   301.000    31.831      .000
  -999.000    23.000  -999.000   301.000      .020      .300  -999.000  -999.000
    30.000     5.244    30.040      .155    30.100      .007      .000      .300
    23.000      .020      .020      .000      .020      .005  -999.000  -999.000
      .020      .240      .015      .008      .001      .000  -999.000  -999.000
  -999.000  -999.000  -999.000  -999.000  -999.000  -999.000  -999.000  -999.000
  -999.000  -999.000  -999.000  -999.000
      .050
      .040      .042      .044      .046      .048      .050      .055      .060
      .065      .070      .075      .080      .085      .090      .095      .100
      .110      .120      .130      .140      .150      .160      .170      .180
      .190      .200      .220      .240      .260      .280      .300      .320
      .340      .360      .380      .400      .420      .440      .460      .480
      .500      .550      .600      .650      .700      .750      .800      .850
      .900      .950     1.000     1.100     1.200     1.300     1.400     1.500
     1.600     1.700     1.800     1.900     2.000     2.200     2.400     2.600
     2.800     3.000     3.200     3.400     3.600     3.800     4.000     4.200
     4.400     4.600     4.800     5.000     5.500     6.000      .000      .000
      .000      .000      .000      .000      .000      .000      .000      .000
      .000      .000      .000      .000      .000      .000      .000      .000
      .000      .000      .000      .000
Fourier amplitude spectra in in/sec.
  .000E+00  .000E+00  .000E+00  .000E+00  .000E+00  .000E+00  .000E+00  .000E+00
  .000E+00  .000E+00  .000E+00  .000E+00  .000E+00  .000E+00  .000E+00  .000E+00
  .000E+00  .000E+00  .000E+00  .000E+00  .000E+00  .000E+00  .000E+00  .000E+00
  .000E+00  .000E+00  .000E+00  .000E+00  .000E+00  .000E+00  .000E+00  .000E+00
  .000E+00  .000E+00  .000E+00  .000E+00  .000E+00  .000E+00  .000E+00  .000E+00
  .000E+00  .000E+00  .000E+00  .000E+00  .000E+00  .000E+00  .000E+00  .000E+00
  .000E+00  .000E+00  .000E+00  .000E+00  .000E+00  .000E+00  .000E+00  .000E+00
  .000E+00  .000E+00  .000E+00  .000E+00  .000E+00  .000E+00  .000E+00  .000E+00
  .000E+00  .000E+00  .000E+00  .000E+00  .000E+00  .000E+00  .000E+00  .000E+00
  .000E+00  .000E+00  .000E+00  .000E+00  .000E+00  .000E+00  .000E+00  .000E+00
  .000E+00  .000E+00  .000E+00  .000E+00  .000E+00  .000E+00  .000E+00  .000E+00
  .000E+00  .000E+00  .000E+00  .000E+00  .000E+00  .000E+00  .000E+00  .000E+00
  .000E+00  .000E+00  .000E+00  .000E+00
Damping =  .05. Data of Sd,Sv,Sa,Pssv,ttSd,ttSv,ttSa :
  .836E-04  .924E-04  .104E-03  .120E-03  .140E-03  .160E-03  .177E-03  .257E-03
  .331E-03  .383E-03  .474E-03  .579E-03  .522E-03  .722E-03  .987E-03  .879E-03
  .920E-03  .133E-02  .185E-02  .269E-02  .274E-02  .277E-02  .295E-02  .341E-02
  .421E-02  .566E-02  .908E-02  .111E-01  .104E-01  .819E-02  .676E-02  .644E-02
  .612E-02  .556E-02  .581E-02  .713E-02  .731E-02  .866E-02  .996E-02  .928E-02
  .828E-02  .735E-02  .660E-02  .677E-02  .606E-02  .550E-02  .451E-02  .357E-02
  .403E-02  .473E-02  .506E-02  .723E-02  .596E-02  .474E-02  .473E-02  .430E-02
  .444E-02  .464E-02  .468E-02  .440E-02  .399E-02  .337E-02  .310E-02  .298E-02
  .280E-02  .266E-02  .265E-02  .269E-02  .280E-02  .288E-02  .291E-02  .286E-02
  .279E-02  .274E-02  .269E-02  .269E-02  .269E-02  .268E-02  .000E+00  .000E+00
  .000E+00  .000E+00  .000E+00  .000E+00  .000E+00  .000E+00  .000E+00  .000E+00
  .000E+00  .000E+00  .000E+00  .000E+00  .000E+00  .000E+00  .000E+00  .000E+00
  .000E+00  .000E+00  .000E+00  .000E+00
  .512E-02  .588E-02  .661E-02  .651E-02  .766E-02  .908E-02  .144E-01  .198E-01
  .209E-01  .286E-01  .364E-01  .400E-01  .339E-01  .409E-01  .554E-01  .483E-01
  .468E-01  .627E-01  .814E-01  .100E+00  .991E-01  .105E+00  .104E+00  .117E+00
  .126E+00  .172E+00  .253E+00  .292E+00  .266E+00  .216E+00  .161E+00  .139E+00
  .132E+00  .127E+00  .119E+00  .117E+00  .120E+00  .132E+00  .151E+00  .145E+00
  .128E+00  .957E-01  .892E-01  .860E-01  .727E-01  .719E-01  .665E-01  .641E-01
  .647E-01  .640E-01  .649E-01  .619E-01  .592E-01  .591E-01  .586E-01  .581E-01
  .587E-01  .589E-01  .594E-01  .601E-01  .605E-01  .607E-01  .606E-01  .603E-01
  .600E-01  .597E-01  .596E-01  .595E-01  .595E-01  .594E-01  .594E-01  .594E-01
  .595E-01  .595E-01  .595E-01  .596E-01  .596E-01  .596E-01  .000E+00  .000E+00
  .000E+00  .000E+00  .000E+00  .000E+00  .000E+00  .000E+00  .000E+00  .000E+00
  .000E+00  .000E+00  .000E+00  .000E+00  .000E+00  .000E+00  .000E+00  .000E+00
  .000E+00  .000E+00  .000E+00  .000E+00
  .534E-02  .536E-02  .550E-02  .580E-02  .624E-02  .654E-02  .598E-02  .733E-02
  .807E-02  .800E-02  .878E-02  .915E-02  .734E-02  .919E-02  .113E-01  .885E-02
  .779E-02  .952E-02  .111E-01  .141E-01  .126E-01  .111E-01  .104E-01  .107E-01
  .120E-01  .146E-01  .194E-01  .195E-01  .156E-01  .106E-01  .760E-02  .649E-02
  .557E-02  .434E-02  .411E-02  .460E-02  .428E-02  .462E-02  .484E-02  .412E-02
  .340E-02  .252E-02  .189E-02  .167E-02  .129E-02  .101E-02  .736E-03  .514E-03
  .524E-03  .550E-03  .531E-03  .621E-03  .438E-03  .300E-03  .259E-03  .207E-03
  .185E-03  .170E-03  .150E-03  .128E-03  .105E-03  .780E-04  .645E-04  .545E-04
  .476E-04  .428E-04  .393E-04  .362E-04  .335E-04  .315E-04  .299E-04  .285E-04
  .271E-04  .257E-04  .244E-04  .233E-04  .207E-04  .187E-04  .000E+00  .000E+00
  .000E+00  .000E+00  .000E+00  .000E+00  .000E+00  .000E+00  .000E+00  .000E+00
  .000E+00  .000E+00  .000E+00  .000E+00  .000E+00  .000E+00  .000E+00  .000E+00
  .000E+00  .000E+00  .000E+00  .000E+00
  .131E-01  .138E-01  .149E-01  .164E-01  .184E-01  .201E-01  .202E-01  .269E-01
  .319E-01  .344E-01  .397E-01  .455E-01  .386E-01  .504E-01  .653E-01  .552E-01
  .526E-01  .694E-01  .895E-01  .121E+00  .115E+00  .109E+00  .109E+00  .119E+00
  .139E+00  .178E+00  .259E+00  .292E+00  .250E+00  .184E+00  .142E+00  .126E+00
  .113E+00  .970E-01  .961E-01  .112E+00  .109E+00  .124E+00  .136E+00  .121E+00
  .104E+00  .840E-01  .692E-01  .655E-01  .544E-01  .461E-01  .354E-01  .264E-01
  .281E-01  .313E-01  .318E-01  .413E-01  .312E-01  .229E-01  .212E-01  .180E-01
  .175E-01  .172E-01  .163E-01  .145E-01  .125E-01  .963E-02  .811E-02  .721E-02
  .629E-02  .558E-02  .520E-02  .497E-02  .489E-02  .477E-02  .456E-02  .428E-02
  .399E-02  .374E-02  .353E-02  .338E-02  .307E-02  .280E-02  .000E+00  .000E+00
  .000E+00  .000E+00  .000E+00  .000E+00  .000E+00  .000E+00  .000E+00  .000E+00
  .000E+00  .000E+00  .000E+00  .000E+00  .000E+00  .000E+00  .000E+00  .000E+00
  .000E+00  .000E+00  .000E+00  .000E+00
  .300E+02  .300E+02  .300E+02  .300E+02  .300E+02  .300E+02  .302E+02  .319E+02
  .300E+02  .319E+02  .305E+02  .305E+02  .333E+02  .319E+02  .319E+02  .319E+02
  .319E+02  .300E+02  .301E+02  .301E+02  .301E+02  .306E+02  .298E+02  .299E+02
  .301E+02  .301E+02  .302E+02  .302E+02  .302E+02  .301E+02  .297E+02  .297E+02
  .297E+02  .297E+02  .310E+02  .333E+02  .332E+02  .332E+02  .332E+02  .332E+02
  .330E+02  .331E+02  .331E+02  .331E+02  .331E+02  .331E+02  .329E+02  .329E+02
  .331E+02  .331E+02  .331E+02  .329E+02  .329E+02  .329E+02  .329E+02  .329E+02
  .326E+02  .326E+02  .326E+02  .326E+02  .326E+02  .326E+02  .326E+02  .326E+02
  .326E+02  .319E+02  .338E+02  .329E+02  .329E+02  .329E+02  .329E+02  .329E+02
  .329E+02  .329E+02  .329E+02  .301E+02  .301E+02  .301E+02  .000E+00  .000E+00
  .000E+00  .000E+00  .000E+00  .000E+00  .000E+00  .000E+00  .000E+00  .000E+00
  .000E+00  .000E+00  .000E+00  .000E+00  .000E+00  .000E+00  .000E+00  .000E+00
  .000E+00  .000E+00  .000E+00  .000E+00
  .319E+02  .319E+02  .319E+02  .319E+02  .305E+02  .319E+02  .303E+02  .303E+02
  .303E+02  .306E+02  .306E+02  .325E+02  .332E+02  .314E+02  .320E+02  .320E+02
  .320E+02  .306E+02  .306E+02  .301E+02  .302E+02  .306E+02  .298E+02  .298E+02
  .302E+02  .302E+02  .302E+02  .302E+02  .301E+02  .300E+02  .298E+02  .298E+02
  .297E+02  .297E+02  .310E+02  .333E+02  .333E+02  .333E+02  .331E+02  .331E+02
  .331E+02  .300E+02  .300E+02  .300E+02  .300E+02  .300E+02  .300E+02  .300E+02
  .300E+02  .300E+02  .330E+02  .330E+02  .296E+02  .296E+02  .296E+02  .300E+02
  .300E+02  .300E+02  .300E+02  .300E+02  .300E+02  .300E+02  .300E+02  .300E+02
  .300E+02  .300E+02  .300E+02  .300E+02  .300E+02  .300E+02  .300E+02  .300E+02
  .300E+02  .300E+02  .300E+02  .300E+02  .300E+02  .300E+02  .000E+00  .000E+00
  .000E+00  .000E+00  .000E+00  .000E+00  .000E+00  .000E+00  .000E+00  .000E+00
  .000E+00  .000E+00  .000E+00  .000E+00  .000E+00  .000E+00  .000E+00  .000E+00
  .000E+00  .000E+00  .000E+00  .000E+00
  .300E+02  .300E+02  .300E+02  .300E+02  .300E+02  .300E+02  .302E+02  .319E+02
  .300E+02  .306E+02  .305E+02  .305E+02  .333E+02  .319E+02  .319E+02  .319E+02
  .300E+02  .300E+02  .301E+02  .301E+02  .301E+02  .306E+02  .298E+02  .299E+02
  .301E+02  .301E+02  .302E+02  .302E+02  .302E+02  .301E+02  .297E+02  .297E+02
  .297E+02  .297E+02  .310E+02  .333E+02  .332E+02  .332E+02  .332E+02  .332E+02
  .332E+02  .331E+02  .331E+02  .331E+02  .331E+02  .331E+02  .329E+02  .331E+02
  .331E+02  .331E+02  .331E+02  .329E+02  .329E+02  .329E+02  .329E+02  .329E+02
  .326E+02  .326E+02  .326E+02  .326E+02  .326E+02  .301E+02  .301E+02  .301E+02
  .301E+02  .301E+02  .301E+02  .301E+02  .301E+02  .300E+02  .300E+02  .300E+02
  .300E+02  .300E+02  .300E+02  .300E+02  .300E+02  .300E+02  .000E+00  .000E+00
  .000E+00  .000E+00  .000E+00  .000E+00  .000E+00  .000E+00  .000E+00  .000E+00
  .000E+00  .000E+00  .000E+00  .000E+00  .000E+00  .000E+00  .000E+00  .000E+00
  .000E+00  .000E+00  .000E+00  .000E+00
/&   ----------  End of spectral data for channel  1  ----------
Response and Fourier amplitude spectra (78 periods,  .04 -  6.0 sec)   for      
Corrected accelerogram   38695658.CI.LPC.--.HN      Chan  2: 360 Deg     from   
Uncorrected Accelerogram Data             Processed: 09/19/20, CGS  cilpc--j    
Rcrd of Fri Sep 18, 2020 23:38:35.0 PDT               (Avol1 v2.0, 4/18 CSMIP)  
                                        (Origin:  To be determined)             
38695658.CI.LPC.--.HN                Start time:  9/19/20, 06:38:35.0 UTC (GPS) 
Station Id. LPC     34.315N, 117.546W    Q330    s/n 3065  (3 Chns of  3 at Sta)
Lone Pine Canyon                         SCSN   Data: Acceleration              
Chan  2: 360 Deg                                                                
Rcrd of Fri Sep 18, 2020 23:38:35.0 PDT    Fri Sep 18, 2020 23:38:35.0 PDT      
Hypocenter:  To be determined.               ML:  To be determined.             
Instr Period =  .0050 sec,  Damping =  .707,  Sensitivity = 4.98 v/g  (Nominal) 
                        Record Length =301.000 sec.                             
                                     Uncor Max  =   .005 g, at   29.740 sec.    
RMS accel of (uncor) record  =        .   Chn. metadata effective date:         
Accelerogram bandpass filtered with 3 dB pts at   .30 and 23.00 cyc/sec         
                 instrument- and base-line correcte                             
                                                                                
                                                                                
                                                                                
                                                                                
                                                                                
Rcrd of Fri Sep 18, 2020 23:38:35.0 PDT    Fri Sep 18, 2020 23:38:35.0 PDT      
                                                                                
38695658.CI.LPC.--.HN     Lone Pine Canyon    Chan  2: 360 Deg                  
                                                                                
38695658.CI.LPC.--.HN     Lone Pine Canyon    Chan  2: 360 Deg                  
                                                                                
Units for spectra are inches and sec, except Sa is in fraction of g.            
                                                                                
    2  100    2    3    3  100 -999    3    1   24  605 3065    0    0   41    0
    6   38   35    8  263    9   19 2020   10    3  36035645   39   16   74 -999
35645 -999  100    6 -999 -999 -999 -999 -999 -999 -999 -999 -999 -999 -999 -999
 -999 -999 -999 -99915050    2 -999    0 -999   20 -999 -999    3    1 -99915050
    315050    4   78    1    3    5    0    0 -999    0 -999 -999    6 -999    2
    2    2    4 -999 -999 -999 -999 -999 -999 -999 -999    1 -999 -999 -999  111
    1    1 -999 -999
      .005      .707   356.450      .000     1.000  4984.889      .005    29.740
   200.000     2.384      .478  -999.000    10.000  -999.000     4.000  -999.000
    20.000    -2.717    20.000  -999.000  -999.000  -999.000  -999.000      .000
      .001      .001     2.000    15.000    34.315  -117.546      .001      .001
     1.148      .001      .001  1351.000  -999.000  -999.000  -999.000  -999.000
     1.000  -999.000  -999.000  -999.000  -999.000  -999.000  -999.000   120.000
     -.900     2.000     6.800   980.665      .020   301.000    31.831      .000
  -999.000    23.000  -999.000   301.000      .020      .300  -999.000  -999.000
    30.220    -4.787    29.600      .168    29.520     -.012      .000      .300
    23.000      .020      .020      .000      .020      .005  -999.000  -999.000
      .021      .140      .012      .007      .001      .000  -999.000  -999.000
  -999.000  -999.000  -999.000  -999.000  -999.000  -999.000  -999.000  -999.000
  -999.000  -999.000  -999.000  -999.000
      .050
      .040      .042      .044      .046      .048      .050      .055      .060
      .065      .070      .075      .080      .085      .090      .095      .100
      .110      .120      .130      .140      .150      .160      .170      .180
      .190      .200      .220      .240      .260      .280      .300      .320
      .340      .360      .380      .400      .420      .440      .460      .480
      .500      .550      .600      .650      .700      .750      .800      .850
      .900      .950     1.000     1.100     1.200     1.300     1.400     1.500
     1.600     1.700     1.800     1.900     2.000     2.200     2.400     2.600
     2.800     3.000     3.200     3.400     3.600     3.800     4.000     4.200
     4.400     4.600     4.800     5.000     5.500     6.000      .000      .000
      .000      .000      .000      .000      .000      .000      .000      .000
      .000      .000      .000      .000      .000      .000      .000      .000
      .000      .000      .000      .000
Fourier amplitude spectra in in/sec.
  .000E+00  .000E+00  .000E+00  .000E+00  .000E+00  .000E+00  .000E+00  .000E+00
  .000E+00  .000E+00  .000E+00  .000E+00  .000E+00  .000E+00  .000E+00  .000E+00
  .000E+00  .000E+00  .000E+00  .000E+00  .000E+00  .000E+00  .000E+00  .000E+00
  .000E+00  .000E+00  .000E+00  .000E+00  .000E+00  .000E+00  .000E+00  .000E+00
  .000E+00  .000E+00  .000E+00  .000E+00  .000E+00  .000E+00  .000E+00  .000E+00
  .000E+00  .000E+00  .000E+00  .000E+00  .000E+00  .000E+00  .000E+00  .000E+00
  .000E+00  .000E+00  .000E+00  .000E+00  .000E+00  .000E+00  .000E+00  .000E+00
  .000E+00  .000E+00  .000E+00  .000E+00  .000E+00  .000E+00  .000E+00  .000E+00
  .000E+00  .000E+00  .000E+00  .000E+00  .000E+00  .000E+00  .000E+00  .000E+00
  .000E+00  .000E+00  .000E+00  .000E+00  .000E+00  .000E+00  .000E+00  .000E+00
  .000E+00  .000E+00  .000E+00  .000E+00  .000E+00  .000E+00  .000E+00  .000E+00
  .000E+00  .000E+00  .000E+00  .000E+00  .000E+00  .000E+00  .000E+00  .000E+00
  .000E+00  .000E+00  .000E+00  .000E+00
Damping =  .05. Data of Sd,Sv,Sa,Pssv,ttSd,ttSv,ttSa :
  .891E-04  .950E-04  .100E-03  .119E-03  .130E-03  .145E-03  .254E-03  .382E-03
  .444E-03  .463E-03  .645E-03  .690E-03  .883E-03  .111E-02  .103E-02  .938E-03
  .138E-02  .163E-02  .292E-02  .400E-02  .360E-02  .337E-02  .383E-02  .412E-02
  .440E-02  .444E-02  .530E-02  .651E-02  .718E-02  .694E-02  .587E-02  .586E-02
  .573E-02  .582E-02  .570E-02  .666E-02  .706E-02  .675E-02  .698E-02  .754E-02
