Response and Fourier amplitude spectra (78 periods,  .04 -  6.0 sec)   for      
Corrected accelerogram   38695658.CI.LRR2.--.H      Chan  1:  90 Deg     from   
Uncorrected Accelerogram Data             Processed: 09/19/20, CGS  cilrr2-i    
Rcrd of Fri Sep 18, 2020 23:38:30.0 PDT               (Avol1 v2.0, 4/18 CSMIP)  
                                        (Origin:  To be determined)             
38695658.CI.LRR2.--.H                Start time:  9/19/20, 06:38:30.0 UTC (GPS) 
Station Id. LRR2    34.527N, 118.030W    Q330    s/n 5448  (3 Chns of  3 at Sta)
Little Rock Reservoir 2                  SCSN   Data: Acceleration              
Chan  1:  90 Deg                                                                
Rcrd of Fri Sep 18, 2020 23:38:30.0 PDT    Fri Sep 18, 2020 23:38:30.0 PDT      
Hypocenter:  To be determined.               ML:  To be determined.             
Instr Period =  .0050 sec,  Damping =  .707,  Sensitivity = 4.99 v/g  (Nominal) 
                        Record Length =301.000 sec.                             
                                     Uncor Max  =   .005 g, at   33.360 sec.    
RMS accel of (uncor) record  =        .   Chn. metadata effective date:         
Accelerogram bandpass filtered with 3 dB pts at   .30 and 23.00 cyc/sec         
                 instrument- and base-line correcte                             
                                                                                
                                                                                
                                                                                
                                                                                
                                                                                
Rcrd of Fri Sep 18, 2020 23:38:30.0 PDT    Fri Sep 18, 2020 23:38:30.0 PDT      
                                                                                
38695658.CI.LRR2.--.H     Little Rock Reservoir 2   Chan  1:  90 Deg            
                                                                                
38695658.CI.LRR2.--.H     Little Rock Reservoir 2   Chan  1:  90 Deg            
                                                                                
Units for spectra are inches and sec, except Sa is in fraction of g.            
                                                                                
    1  100    1    3    3  100 -999    3    1    0  605 5448    0    0   41    0
    6   38   30    8  263    9   19 2020   10    3   9035972   39   23   74 -999
35972 -999  100    6 -999 -999 -999 -999 -999 -999 -999 -999 -999 -999 -999 -999
 -999 -999 -999 -99915050    2 -999    0 -999   20 -999 -999    3    1 -99915050
    315050    4   78    1    3    5    0    0 -999    0 -999 -999    6 -999    2
    2    2    4 -999 -999 -999 -999 -999 -999 -999 -999    1 -999 -999 -999  111
    1    1 -999 -999
      .005      .707   359.720      .000     1.000  4985.487      .005    33.360
   200.000     2.384      .478  -999.000    10.000  -999.000     4.000  -999.000
    20.000    -6.631      .000  -999.000  -999.000  -999.000  -999.000     -.001
      .000      .001     2.000    15.000    34.527  -118.030      .001      .001
     1.181      .001      .001   906.000  -999.000  -999.000  -999.000  -999.000
     1.000  -999.000    -8.000  -999.000  -999.000  -999.000  -999.000   120.000
     -.900     2.000     6.800   980.665      .020   301.000    31.831      .000
  -999.000    23.000  -999.000   301.000      .020      .300  -999.000  -999.000
    33.360     4.917    33.400      .122    35.600     -.010      .000      .300
    23.000      .020      .020      .000      .020      .006  -999.000  -999.000
      .015      .150      .009      .006      .001      .000  -999.000  -999.000
  -999.000  -999.000  -999.000  -999.000  -999.000  -999.000  -999.000  -999.000
  -999.000  -999.000  -999.000  -999.000
      .050
      .040      .042      .044      .046      .048      .050      .055      .060
      .065      .070      .075      .080      .085      .090      .095      .100
      .110      .120      .130      .140      .150      .160      .170      .180
      .190      .200      .220      .240      .260      .280      .300      .320
      .340      .360      .380      .400      .420      .440      .460      .480
      .500      .550      .600      .650      .700      .750      .800      .850
      .900      .950     1.000     1.100     1.200     1.300     1.400     1.500
     1.600     1.700     1.800     1.900     2.000     2.200     2.400     2.600
     2.800     3.000     3.200     3.400     3.600     3.800     4.000     4.200
     4.400     4.600     4.800     5.000     5.500     6.000      .000      .000
      .000      .000      .000      .000      .000      .000      .000      .000
      .000      .000      .000      .000      .000      .000      .000      .000
      .000      .000      .000      .000
Fourier amplitude spectra in in/sec.
  .000E+00  .000E+00  .000E+00  .000E+00  .000E+00  .000E+00  .000E+00  .000E+00
  .000E+00  .000E+00  .000E+00  .000E+00  .000E+00  .000E+00  .000E+00  .000E+00
  .000E+00  .000E+00  .000E+00  .000E+00  .000E+00  .000E+00  .000E+00  .000E+00
  .000E+00  .000E+00  .000E+00  .000E+00  .000E+00  .000E+00  .000E+00  .000E+00
  .000E+00  .000E+00  .000E+00  .000E+00  .000E+00  .000E+00  .000E+00  .000E+00
  .000E+00  .000E+00  .000E+00  .000E+00  .000E+00  .000E+00  .000E+00  .000E+00
  .000E+00  .000E+00  .000E+00  .000E+00  .000E+00  .000E+00  .000E+00  .000E+00
  .000E+00  .000E+00  .000E+00  .000E+00  .000E+00  .000E+00  .000E+00  .000E+00
  .000E+00  .000E+00  .000E+00  .000E+00  .000E+00  .000E+00  .000E+00  .000E+00
  .000E+00  .000E+00  .000E+00  .000E+00  .000E+00  .000E+00  .000E+00  .000E+00
  .000E+00  .000E+00  .000E+00  .000E+00  .000E+00  .000E+00  .000E+00  .000E+00
  .000E+00  .000E+00  .000E+00  .000E+00  .000E+00  .000E+00  .000E+00  .000E+00
  .000E+00  .000E+00  .000E+00  .000E+00
Damping =  .05. Data of Sd,Sv,Sa,Pssv,ttSd,ttSv,ttSa :
  .789E-04  .913E-04  .101E-03  .112E-03  .124E-03  .138E-03  .174E-03  .275E-03
  .309E-03  .418E-03  .500E-03  .613E-03  .632E-03  .630E-03  .915E-03  .107E-02
  .132E-02  .196E-02  .230E-02  .280E-02  .332E-02  .359E-02  .349E-02  .368E-02
  .366E-02  .337E-02  .353E-02  .442E-02  .474E-02  .499E-02  .554E-02  .554E-02
  .537E-02  .565E-02  .573E-02  .541E-02  .495E-02  .560E-02  .542E-02  .488E-02
  .509E-02  .715E-02  .740E-02  .966E-02  .107E-01  .913E-02  .993E-02  .127E-01
  .142E-01  .134E-01  .118E-01  .821E-02  .776E-02  .983E-02  .957E-02  .117E-01
  .114E-01  .111E-01  .108E-01  .108E-01  .978E-02  .733E-02  .613E-02  .585E-02
  .536E-02  .493E-02  .496E-02  .467E-02  .434E-02  .431E-02  .426E-02  .424E-02
  .424E-02  .420E-02  .413E-02  .408E-02  .399E-02  .392E-02  .000E+00  .000E+00
  .000E+00  .000E+00  .000E+00  .000E+00  .000E+00  .000E+00  .000E+00  .000E+00
  .000E+00  .000E+00  .000E+00  .000E+00  .000E+00  .000E+00  .000E+00  .000E+00
  .000E+00  .000E+00  .000E+00  .000E+00
  .552E-02  .576E-02  .702E-02  .879E-02  .104E-01  .107E-01  .178E-01  .280E-01
  .240E-01  .312E-01  .337E-01  .382E-01  .394E-01  .377E-01  .528E-01  .609E-01
  .701E-01  .984E-01  .108E+00  .128E+00  .137E+00  .139E+00  .128E+00  .131E+00
  .128E+00  .116E+00  .118E+00  .126E+00  .121E+00  .105E+00  .112E+00  .123E+00
  .119E+00  .113E+00  .117E+00  .116E+00  .108E+00  .103E+00  .989E-01  .917E-01
  .865E-01  .809E-01  .767E-01  .114E+00  .112E+00  .892E-01  .111E+00  .123E+00
  .101E+00  .104E+00  .955E-01  .791E-01  .709E-01  .643E-01  .622E-01  .593E-01
  .560E-01  .556E-01  .558E-01  .553E-01  .542E-01  .523E-01  .513E-01  .504E-01
  .496E-01  .490E-01  .486E-01  .484E-01  .481E-01  .479E-01  .477E-01  .476E-01
  .475E-01  .473E-01  .472E-01  .472E-01  .471E-01  .470E-01  .000E+00  .000E+00
  .000E+00  .000E+00  .000E+00  .000E+00  .000E+00  .000E+00  .000E+00  .000E+00
  .000E+00  .000E+00  .000E+00  .000E+00  .000E+00  .000E+00  .000E+00  .000E+00
  .000E+00  .000E+00  .000E+00  .000E+00
  .504E-02  .530E-02  .537E-02  .542E-02  .553E-02  .566E-02  .595E-02  .780E-02
  .755E-02  .886E-02  .911E-02  .969E-02  .888E-02  .791E-02  .103E-01  .109E-01
  .114E-01  .138E-01  .141E-01  .147E-01  .150E-01  .143E-01  .125E-01  .116E-01
  .104E-01  .869E-02  .769E-02  .782E-02  .739E-02  .662E-02  .629E-02  .550E-02
  .483E-02  .446E-02  .408E-02  .350E-02  .289E-02  .297E-02  .265E-02  .218E-02
  .211E-02  .245E-02  .213E-02  .236E-02  .225E-02  .167E-02  .160E-02  .181E-02
  .181E-02  .153E-02  .122E-02  .698E-03  .558E-03  .600E-03  .502E-03  .534E-03
  .457E-03  .397E-03  .343E-03  .309E-03  .254E-03  .161E-03  .114E-03  .933E-04
  .743E-04  .611E-04  .545E-04  .462E-04  .406E-04  .367E-04  .332E-04  .304E-04
  .281E-04  .259E-04  .238E-04  .221E-04  .193E-04  .171E-04  .000E+00  .000E+00
  .000E+00  .000E+00  .000E+00  .000E+00  .000E+00  .000E+00  .000E+00  .000E+00
  .000E+00  .000E+00  .000E+00  .000E+00  .000E+00  .000E+00  .000E+00  .000E+00
  .000E+00  .000E+00  .000E+00  .000E+00
  .124E-01  .137E-01  .145E-01  .153E-01  .163E-01  .173E-01  .199E-01  .288E-01
  .299E-01  .375E-01  .419E-01  .482E-01  .467E-01  .440E-01  .605E-01  .674E-01
  .752E-01  .103E+00  .111E+00  .126E+00  .139E+00  .141E+00  .129E+00  .128E+00
  .121E+00  .106E+00  .101E+00  .116E+00  .115E+00  .112E+00  .116E+00  .109E+00
  .992E-01  .987E-01  .947E-01  .850E-01  .741E-01  .800E-01  .741E-01  .639E-01
  .640E-01  .816E-01  .775E-01  .933E-01  .962E-01  .765E-01  .780E-01  .940E-01
  .995E-01  .886E-01  .742E-01  .469E-01  .406E-01  .475E-01  .430E-01  .488E-01
  .447E-01  .412E-01  .378E-01  .357E-01  .307E-01  .209E-01  .160E-01  .141E-01
  .120E-01  .103E-01  .973E-02  .863E-02  .758E-02  .712E-02  .669E-02  .634E-02
  .606E-02  .574E-02  .541E-02  .512E-02  .456E-02  .410E-02  .000E+00  .000E+00
  .000E+00  .000E+00  .000E+00  .000E+00  .000E+00  .000E+00  .000E+00  .000E+00
  .000E+00  .000E+00  .000E+00  .000E+00  .000E+00  .000E+00  .000E+00  .000E+00
  .000E+00  .000E+00  .000E+00  .000E+00
  .334E+02  .334E+02  .334E+02  .334E+02  .334E+02  .334E+02  .342E+02  .270E+02
  .342E+02  .341E+02  .342E+02  .342E+02  .342E+02  .334E+02  .342E+02  .338E+02
  .342E+02  .343E+02  .336E+02  .336E+02  .335E+02  .335E+02  .335E+02  .335E+02
  .335E+02  .335E+02  .335E+02  .334E+02  .334E+02  .337E+02  .337E+02  .337E+02
  .336E+02  .336E+02  .336E+02  .338E+02  .339E+02  .356E+02  .357E+02  .357E+02
  .357E+02  .357E+02  .357E+02  .381E+02  .379E+02  .379E+02  .365E+02  .362E+02
  .362E+02  .363E+02  .379E+02  .376E+02  .376E+02  .461E+02  .456E+02  .450E+02
  .451E+02  .445E+02  .430E+02  .423E+02  .416E+02  .390E+02  .352E+02  .352E+02
  .352E+02  .390E+02  .390E+02  .390E+02  .332E+02  .332E+02  .332E+02  .332E+02
  .332E+02  .332E+02  .332E+02  .332E+02  .332E+02  .332E+02  .000E+00  .000E+00
  .000E+00  .000E+00  .000E+00  .000E+00  .000E+00  .000E+00  .000E+00  .000E+00
  .000E+00  .000E+00  .000E+00  .000E+00  .000E+00  .000E+00  .000E+00  .000E+00
  .000E+00  .000E+00  .000E+00  .000E+00
  .342E+02  .342E+02  .270E+02  .270E+02  .270E+02  .270E+02  .270E+02  .270E+02
  .269E+02  .341E+02  .341E+02  .342E+02  .343E+02  .269E+02  .338E+02  .338E+02
  .343E+02  .343E+02  .343E+02  .335E+02  .335E+02  .335E+02  .335E+02  .334E+02
  .334E+02  .334E+02  .334E+02  .334E+02  .335E+02  .334E+02  .337E+02  .337E+02
  .337E+02  .334E+02  .334E+02  .334E+02  .334E+02  .334E+02  .334E+02  .334E+02
  .334E+02  .334E+02  .333E+02  .380E+02  .380E+02  .368E+02  .368E+02  .368E+02
  .356E+02  .356E+02  .357E+02  .378E+02  .378E+02  .333E+02  .333E+02  .357E+02
  .333E+02  .333E+02  .333E+02  .333E+02  .333E+02  .333E+02  .333E+02  .333E+02
  .333E+02  .333E+02  .333E+02  .333E+02  .333E+02  .333E+02  .333E+02  .333E+02
  .333E+02  .333E+02  .333E+02  .333E+02  .333E+02  .333E+02  .000E+00  .000E+00
  .000E+00  .000E+00  .000E+00  .000E+00  .000E+00  .000E+00  .000E+00  .000E+00
  .000E+00  .000E+00  .000E+00  .000E+00  .000E+00  .000E+00  .000E+00  .000E+00
  .000E+00  .000E+00  .000E+00  .000E+00
  .334E+02  .334E+02  .334E+02  .334E+02  .334E+02  .334E+02  .342E+02  .270E+02
  .342E+02  .341E+02  .342E+02  .342E+02  .342E+02  .334E+02  .342E+02  .338E+02
  .342E+02  .342E+02  .336E+02  .336E+02  .335E+02  .335E+02  .335E+02  .335E+02
  .335E+02  .335E+02  .335E+02  .334E+02  .334E+02  .337E+02  .337E+02  .337E+02
  .336E+02  .336E+02  .336E+02  .338E+02  .339E+02  .356E+02  .357E+02  .357E+02
  .357E+02  .357E+02  .357E+02  .380E+02  .378E+02  .379E+02  .365E+02  .362E+02
  .362E+02  .363E+02  .379E+02  .376E+02  .376E+02  .461E+02  .456E+02  .450E+02
  .451E+02  .445E+02  .430E+02  .423E+02  .416E+02  .389E+02  .352E+02  .352E+02
  .352E+02  .389E+02  .389E+02  .389E+02  .332E+02  .332E+02  .332E+02  .332E+02
  .332E+02  .332E+02  .332E+02  .334E+02  .334E+02  .334E+02  .000E+00  .000E+00
  .000E+00  .000E+00  .000E+00  .000E+00  .000E+00  .000E+00  .000E+00  .000E+00
  .000E+00  .000E+00  .000E+00  .000E+00  .000E+00  .000E+00  .000E+00  .000E+00
  .000E+00  .000E+00  .000E+00  .000E+00
/&   ----------  End of spectral data for channel  1  ----------
Response and Fourier amplitude spectra (78 periods,  .04 -  6.0 sec)   for      
Corrected accelerogram   38695658.CI.LRR2.--.H      Chan  2: 360 Deg     from   
Uncorrected Accelerogram Data             Processed: 09/19/20, CGS  cilrr2-i    
Rcrd of Fri Sep 18, 2020 23:38:30.0 PDT               (Avol1 v2.0, 4/18 CSMIP)  
                                        (Origin:  To be determined)             
38695658.CI.LRR2.--.H                Start time:  9/19/20, 06:38:30.0 UTC (GPS) 
Station Id. LRR2    34.527N, 118.030W    Q330    s/n 5448  (3 Chns of  3 at Sta)
Little Rock Reservoir 2                  SCSN   Data: Acceleration              
Chan  2: 360 Deg                                                                
Rcrd of Fri Sep 18, 2020 23:38:30.0 PDT    Fri Sep 18, 2020 23:38:30.0 PDT      
Hypocenter:  To be determined.               ML:  To be determined.             
Instr Period =  .0050 sec,  Damping =  .707,  Sensitivity = 4.99 v/g  (Nominal) 
                        Record Length =301.000 sec.                             
                                     Uncor Max  =  -.003 g, at   33.970 sec.    
RMS accel of (uncor) record  =        .   Chn. metadata effective date:         
Accelerogram bandpass filtered with 3 dB pts at   .30 and 23.00 cyc/sec         
                 instrument- and base-line correcte                             
                                                                                
                                                                                
                                                                                
                                                                                
                                                                                
Rcrd of Fri Sep 18, 2020 23:38:30.0 PDT    Fri Sep 18, 2020 23:38:30.0 PDT      
                                                                                
38695658.CI.LRR2.--.H     Little Rock Reservoir 2   Chan  2: 360 Deg            
                                                                                
38695658.CI.LRR2.--.H     Little Rock Reservoir 2   Chan  2: 360 Deg            
                                                                                
Units for spectra are inches and sec, except Sa is in fraction of g.            
                                                                                
    2  100    2    3    3  100 -999    3    1    0  605 5448    0    0   41    0
    6   38   30    8  263    9   19 2020   10    3  36036138   39   23   74 -999
36138 -999  100    6 -999 -999 -999 -999 -999 -999 -999 -999 -999 -999 -999 -999
 -999 -999 -999 -99915050    2 -999    0 -999   20 -999 -999    3    1 -99915050
    315050    4   78    1    3    5    0    0 -999    0 -999 -999    6 -999    2
    2    2    4 -999 -999 -999 -999 -999 -999 -999 -999    1 -999 -999 -999  111
    1    1 -999 -999
      .005      .707   361.380      .000     1.000  4989.476     -.003    33.970
   200.000     2.384      .478  -999.000    10.000  -999.000     4.000  -999.000
    20.000    -4.774      .000  -999.000  -999.000  -999.000  -999.000      .000
      .000      .000     2.000    15.000    34.527  -118.030      .001      .001
     1.173      .000      .000   906.000  -999.000  -999.000  -999.000  -999.000
     1.000  -999.000  -999.000  -999.000  -999.000  -999.000  -999.000   120.000
     -.900     2.000     6.800   980.665      .020   301.000    31.831      .000
  -999.000    23.000  -999.000   301.000      .020      .300  -999.000  -999.000
    35.900     2.801    33.340     -.132    35.160      .013      .000      .300
    23.000      .020      .020      .000      .020      .006  -999.000  -999.000
      .009      .130      .009      .006      .001      .000  -999.000  -999.000
  -999.000  -999.000  -999.000  -999.000  -999.000  -999.000  -999.000  -999.000
  -999.000  -999.000  -999.000  -999.000
      .050
      .040      .042      .044      .046      .048      .050      .055      .060
      .065      .070      .075      .080      .085      .090      .095      .100
      .110      .120      .130      .140      .150      .160      .170      .180
      .190      .200      .220      .240      .260      .280      .300      .320
      .340      .360      .380      .400      .420      .440      .460      .480
      .500      .550      .600      .650      .700      .750      .800      .850
      .900      .950     1.000     1.100     1.200     1.300     1.400     1.500
     1.600     1.700     1.800     1.900     2.000     2.200     2.400     2.600
     2.800     3.000     3.200     3.400     3.600     3.800     4.000     4.200
     4.400     4.600     4.800     5.000     5.500     6.000      .000      .000
      .000      .000      .000      .000      .000      .000      .000      .000
      .000      .000      .000      .000      .000      .000      .000      .000
      .000      .000      .000      .000
Fourier amplitude spectra in in/sec.
  .000E+00  .000E+00  .000E+00  .000E+00  .000E+00  .000E+00  .000E+00  .000E+00
  .000E+00  .000E+00  .000E+00  .000E+00  .000E+00  .000E+00  .000E+00  .000E+00
  .000E+00  .000E+00  .000E+00  .000E+00  .000E+00  .000E+00  .000E+00  .000E+00
  .000E+00  .000E+00  .000E+00  .000E+00  .000E+00  .000E+00  .000E+00  .000E+00
  .000E+00  .000E+00  .000E+00  .000E+00  .000E+00  .000E+00  .000E+00  .000E+00
  .000E+00  .000E+00  .000E+00  .000E+00  .000E+00  .000E+00  .000E+00  .000E+00
  .000E+00  .000E+00  .000E+00  .000E+00  .000E+00  .000E+00  .000E+00  .000E+00
  .000E+00  .000E+00  .000E+00  .000E+00  .000E+00  .000E+00  .000E+00  .000E+00
  .000E+00  .000E+00  .000E+00  .000E+00  .000E+00  .000E+00  .000E+00  .000E+00
  .000E+00  .000E+00  .000E+00  .000E+00  .000E+00  .000E+00  .000E+00  .000E+00
  .000E+00  .000E+00  .000E+00  .000E+00  .000E+00  .000E+00  .000E+00  .000E+00
  .000E+00  .000E+00  .000E+00  .000E+00  .000E+00  .000E+00  .000E+00  .000E+00
  .000E+00  .000E+00  .000E+00  .000E+00
Damping =  .05. Data of Sd,Sv,Sa,Pssv,ttSd,ttSv,ttSa :
  .524E-04  .568E-04  .649E-04  .761E-04  .893E-04  .103E-03  .163E-03  .226E-03
  .298E-03  .330E-03  .430E-03  .518E-03  .547E-03  .561E-03  .600E-03  .760E-03
  .755E-03  .106E-02  .153E-02  .175E-02  .183E-02  .189E-02  .210E-02  .229E-02
  .290E-02  .342E-02  .406E-02  .379E-02  .419E-02  .456E-02  .606E-02  .540E-02
  .525E-02  .601E-02  .737E-02  .783E-02  .810E-02  .839E-02  .884E-02  .884E-02
