Response and Fourier amplitude spectra (78 periods,  .04 -  6.0 sec)   for      
Corrected accelerogram   38695658.CI.LTP.--.HN      Chan  1:  90 Deg     from   
Uncorrected Accelerogram Data             Processed: 09/19/20, CGS  ciltp--o    
Rcrd of Fri Sep 18, 2020 23:38:29.0 PDT               (Avol1 v2.0, 4/18 CSMIP)  
                                        (Origin:  To be determined)             
38695658.CI.LTP.--.HN                Start time:  9/19/20, 06:38:29.0 UTC (GPS) 
Station Id. LTP     33.881N, 118.176W    Q330    s/n 4170  (3 Chns of  3 at Sta)
Paramount, I-710 and Hwy 91              SCSN   Data: Acceleration              
Chan  1:  90 Deg                                                                
Rcrd of Fri Sep 18, 2020 23:38:29.0 PDT    Fri Sep 18, 2020 23:38:29.0 PDT      
Hypocenter:  To be determined.               ML:  To be determined.             
Instr Period =  .0050 sec,  Damping =  .707,  Sensitivity = 4.99 v/g  (Nominal) 
                        Record Length =301.000 sec.                             
                                     Uncor Max  =  -.157 g, at   28.300 sec.    
RMS accel of (uncor) record  =        .   Chn. metadata effective date:         
Accelerogram bandpass filtered with 3 dB pts at   .30 and 23.00 cyc/sec         
                 instrument- and base-line correcte                             
                                                                                
                                                                                
                                                                                
                                                                                
                                                                                
Rcrd of Fri Sep 18, 2020 23:38:29.0 PDT    Fri Sep 18, 2020 23:38:29.0 PDT      
                                                                                
38695658.CI.LTP.--.HN     Paramount, I-710 and Hwy 91   Chan  1:  90 Deg        
                                                                                
38695658.CI.LTP.--.HN     Paramount, I-710 and Hwy 91   Chan  1:  90 Deg        
                                                                                
Units for spectra are inches and sec, except Sa is in fraction of g.            
                                                                                
    1  100    1    3    3  100 -999    3    1    0  605 4170    050624   41    0
    6   38   29    8  263    9   19 2020   10    3   9035709   39   27   74 -999
35709 -999  100    6 -999 -999 -999 -999 -999 -999 -999 -999 -999 -999 -999 -999
 -999 -999 -999 -99915050    2 -999    0 -999   20 -999 -999    3    1 -99915050
    315050    4   78    1    3    5    0    0 -999    0 -999 -999    6 -999    2
    2    2    4 -999 -999 -999 -999 -999 -999 -999 -999    1 -999 -999 -999  111
    1    1 -999 -999
      .005      .707   357.090      .003     1.000  4992.069     -.157    28.300
   200.000     2.384      .478  -999.000    10.000  -999.000     4.000  -999.000
    20.000    -2.622      .000  -999.000  -999.000  -999.000  -999.000      .000
     -.001     -.001     2.000    15.000    33.881  -118.176      .017      .021
     1.261     -.004      .003    20.000  -999.000  -999.000  -999.000  -999.000
     1.000  -999.000    -8.000  -999.000  -999.000  -999.000  -999.000   120.000
     -.900     2.000     6.800   980.665      .020   301.000    31.831      .000
  -999.000    23.000  -999.000   301.000      .020      .300  -999.000  -999.000
    28.300  -155.796    28.340    -3.773    28.380     -.179      .000      .300
    23.000      .020      .020      .000      .980      .053  -999.000  -999.000
      .595      .110      .164      .082      .009      .001  -999.000  -999.000
  -999.000  -999.000  -999.000  -999.000  -999.000  -999.000  -999.000  -999.000
  -999.000  -999.000  -999.000  -999.000
      .050
      .040      .042      .044      .046      .048      .050      .055      .060
      .065      .070      .075      .080      .085      .090      .095      .100
      .110      .120      .130      .140      .150      .160      .170      .180
      .190      .200      .220      .240      .260      .280      .300      .320
      .340      .360      .380      .400      .420      .440      .460      .480
      .500      .550      .600      .650      .700      .750      .800      .850
      .900      .950     1.000     1.100     1.200     1.300     1.400     1.500
     1.600     1.700     1.800     1.900     2.000     2.200     2.400     2.600
     2.800     3.000     3.200     3.400     3.600     3.800     4.000     4.200
     4.400     4.600     4.800     5.000     5.500     6.000      .000      .000
      .000      .000      .000      .000      .000      .000      .000      .000
      .000      .000      .000      .000      .000      .000      .000      .000
      .000      .000      .000      .000
Fourier amplitude spectra in in/sec.
  .000E+00  .000E+00  .000E+00  .000E+00  .000E+00  .000E+00  .000E+00  .000E+00
  .000E+00  .000E+00  .000E+00  .000E+00  .000E+00  .000E+00  .000E+00  .000E+00
  .000E+00  .000E+00  .000E+00  .000E+00  .000E+00  .000E+00  .000E+00  .000E+00
  .000E+00  .000E+00  .000E+00  .000E+00  .000E+00  .000E+00  .000E+00  .000E+00
  .000E+00  .000E+00  .000E+00  .000E+00  .000E+00  .000E+00  .000E+00  .000E+00
  .000E+00  .000E+00  .000E+00  .000E+00  .000E+00  .000E+00  .000E+00  .000E+00
  .000E+00  .000E+00  .000E+00  .000E+00  .000E+00  .000E+00  .000E+00  .000E+00
  .000E+00  .000E+00  .000E+00  .000E+00  .000E+00  .000E+00  .000E+00  .000E+00
  .000E+00  .000E+00  .000E+00  .000E+00  .000E+00  .000E+00  .000E+00  .000E+00
  .000E+00  .000E+00  .000E+00  .000E+00  .000E+00  .000E+00  .000E+00  .000E+00
  .000E+00  .000E+00  .000E+00  .000E+00  .000E+00  .000E+00  .000E+00  .000E+00
  .000E+00  .000E+00  .000E+00  .000E+00  .000E+00  .000E+00  .000E+00  .000E+00
  .000E+00  .000E+00  .000E+00  .000E+00
Damping =  .05. Data of Sd,Sv,Sa,Pssv,ttSd,ttSv,ttSa :
  .249E-02  .282E-02  .316E-02  .352E-02  .391E-02  .443E-02  .578E-02  .744E-02
  .108E-01  .136E-01  .170E-01  .226E-01  .289E-01  .389E-01  .415E-01  .435E-01
  .712E-01  .693E-01  .841E-01  .807E-01  .889E-01  .119E+00  .126E+00  .105E+00
  .785E-01  .606E-01  .536E-01  .473E-01  .534E-01  .647E-01  .749E-01  .745E-01
  .786E-01  .891E-01  .106E+00  .132E+00  .157E+00  .170E+00  .177E+00  .177E+00
  .171E+00  .147E+00  .136E+00  .124E+00  .109E+00  .106E+00  .102E+00  .969E-01
  .915E-01  .864E-01  .811E-01  .704E-01  .622E-01  .592E-01  .630E-01  .658E-01
  .678E-01  .691E-01  .699E-01  .706E-01  .712E-01  .722E-01  .721E-01  .712E-01
  .696E-01  .679E-01  .662E-01  .646E-01  .641E-01  .650E-01  .658E-01  .665E-01
  .671E-01  .676E-01  .679E-01  .682E-01  .687E-01  .690E-01  .000E+00  .000E+00
  .000E+00  .000E+00  .000E+00  .000E+00  .000E+00  .000E+00  .000E+00  .000E+00
  .000E+00  .000E+00  .000E+00  .000E+00  .000E+00  .000E+00  .000E+00  .000E+00
  .000E+00  .000E+00  .000E+00  .000E+00
  .160E+00  .176E+00  .193E+00  .212E+00  .241E+00  .276E+00  .340E+00  .444E+00
  .693E+00  .762E+00  .954E+00  .136E+01  .173E+01  .235E+01  .223E+01  .223E+01
  .355E+01  .334E+01  .393E+01  .360E+01  .373E+01  .474E+01  .468E+01  .390E+01
  .316E+01  .234E+01  .191E+01  .170E+01  .153E+01  .149E+01  .161E+01  .156E+01
  .156E+01  .168E+01  .188E+01  .205E+01  .225E+01  .237E+01  .252E+01  .261E+01
  .258E+01  .236E+01  .217E+01  .194E+01  .173E+01  .156E+01  .149E+01  .153E+01
  .154E+01  .155E+01  .155E+01  .153E+01  .149E+01  .146E+01  .144E+01  .142E+01
  .141E+01  .140E+01  .140E+01  .139E+01  .139E+01  .138E+01  .138E+01  .137E+01
  .137E+01  .137E+01  .138E+01  .138E+01  .138E+01  .138E+01  .138E+01  .138E+01
  .138E+01  .139E+01  .139E+01  .139E+01  .139E+01  .139E+01  .000E+00  .000E+00
  .000E+00  .000E+00  .000E+00  .000E+00  .000E+00  .000E+00  .000E+00  .000E+00
  .000E+00  .000E+00  .000E+00  .000E+00  .000E+00  .000E+00  .000E+00  .000E+00
  .000E+00  .000E+00  .000E+00  .000E+00
  .159E+00  .163E+00  .167E+00  .171E+00  .174E+00  .181E+00  .196E+00  .212E+00
  .263E+00  .283E+00  .308E+00  .366E+00  .404E+00  .496E+00  .477E+00  .439E+00
  .595E+00  .488E+00  .518E+00  .427E+00  .400E+00  .476E+00  .449E+00  .337E+00
  .222E+00  .155E+00  .116E+00  .869E-01  .839E-01  .845E-01  .855E-01  .748E-01
  .691E-01  .714E-01  .752E-01  .846E-01  .914E-01  .913E-01  .859E-01  .783E-01
  .700E-01  .495E-01  .392E-01  .302E-01  .239E-01  .203E-01  .172E-01  .145E-01
  .123E-01  .105E-01  .901E-02  .664E-02  .508E-02  .414E-02  .353E-02  .322E-02
  .292E-02  .265E-02  .241E-02  .219E-02  .201E-02  .171E-02  .147E-02  .132E-02
  .122E-02  .113E-02  .105E-02  .983E-03  .920E-03  .863E-03  .812E-03  .766E-03
  .725E-03  .687E-03  .652E-03  .620E-03  .552E-03  .496E-03  .000E+00  .000E+00
  .000E+00  .000E+00  .000E+00  .000E+00  .000E+00  .000E+00  .000E+00  .000E+00
  .000E+00  .000E+00  .000E+00  .000E+00  .000E+00  .000E+00  .000E+00  .000E+00
  .000E+00  .000E+00  .000E+00  .000E+00
  .391E+00  .421E+00  .451E+00  .481E+00  .511E+00  .556E+00  .661E+00  .779E+00
  .104E+01  .122E+01  .143E+01  .178E+01  .213E+01  .272E+01  .275E+01  .273E+01
  .407E+01  .363E+01  .407E+01  .362E+01  .372E+01  .467E+01  .464E+01  .368E+01
  .260E+01  .190E+01  .153E+01  .124E+01  .129E+01  .145E+01  .157E+01  .146E+01
  .145E+01  .156E+01  .175E+01  .207E+01  .235E+01  .243E+01  .242E+01  .231E+01
  .215E+01  .168E+01  .142E+01  .120E+01  .978E+00  .885E+00  .800E+00  .716E+00
  .639E+00  .571E+00  .510E+00  .402E+00  .326E+00  .286E+00  .283E+00  .275E+00
  .266E+00  .255E+00  .244E+00  .234E+00  .224E+00  .206E+00  .189E+00  .172E+00
  .156E+00  .142E+00  .130E+00  .119E+00  .112E+00  .108E+00  .103E+00  .995E-01
  .958E-01  .923E-01  .889E-01  .857E-01  .785E-01  .722E-01  .000E+00  .000E+00
  .000E+00  .000E+00  .000E+00  .000E+00  .000E+00  .000E+00  .000E+00  .000E+00
  .000E+00  .000E+00  .000E+00  .000E+00  .000E+00  .000E+00  .000E+00  .000E+00
  .000E+00  .000E+00  .000E+00  .000E+00
  .283E+02  .283E+02  .283E+02  .283E+02  .283E+02  .283E+02  .283E+02  .283E+02
  .283E+02  .283E+02  .283E+02  .283E+02  .283E+02  .284E+02  .284E+02  .284E+02
  .284E+02  .284E+02  .284E+02  .285E+02  .285E+02  .284E+02  .284E+02  .284E+02
  .284E+02  .283E+02  .284E+02  .284E+02  .284E+02  .287E+02  .288E+02  .288E+02
  .288E+02  .288E+02  .288E+02  .286E+02  .287E+02  .287E+02  .287E+02  .287E+02
  .287E+02  .288E+02  .286E+02  .286E+02  .283E+02  .284E+02  .284E+02  .284E+02
  .284E+02  .284E+02  .284E+02  .284E+02  .284E+02  .286E+02  .286E+02  .286E+02
  .286E+02  .286E+02  .286E+02  .286E+02  .286E+02  .286E+02  .286E+02  .286E+02
  .286E+02  .286E+02  .286E+02  .286E+02  .284E+02  .284E+02  .284E+02  .284E+02
  .284E+02  .284E+02  .284E+02  .284E+02  .284E+02  .284E+02  .000E+00  .000E+00
  .000E+00  .000E+00  .000E+00  .000E+00  .000E+00  .000E+00  .000E+00  .000E+00
  .000E+00  .000E+00  .000E+00  .000E+00  .000E+00  .000E+00  .000E+00  .000E+00
  .000E+00  .000E+00  .000E+00  .000E+00
  .283E+02  .283E+02  .283E+02  .283E+02  .283E+02  .283E+02  .283E+02  .283E+02
  .283E+02  .283E+02  .283E+02  .283E+02  .283E+02  .283E+02  .283E+02  .283E+02
  .283E+02  .284E+02  .284E+02  .284E+02  .284E+02  .284E+02  .285E+02  .284E+02
  .283E+02  .283E+02  .283E+02  .282E+02  .283E+02  .284E+02  .287E+02  .287E+02
  .283E+02  .283E+02  .283E+02  .287E+02  .287E+02  .288E+02  .286E+02  .286E+02
  .286E+02  .284E+02  .284E+02  .284E+02  .284E+02  .284E+02  .283E+02  .283E+02
  .283E+02  .283E+02  .283E+02  .283E+02  .283E+02  .283E+02  .283E+02  .283E+02
  .283E+02  .283E+02  .283E+02  .283E+02  .283E+02  .283E+02  .283E+02  .283E+02
  .283E+02  .283E+02  .283E+02  .283E+02  .283E+02  .283E+02  .283E+02  .283E+02
  .283E+02  .283E+02  .283E+02  .283E+02  .283E+02  .283E+02  .000E+00  .000E+00
  .000E+00  .000E+00  .000E+00  .000E+00  .000E+00  .000E+00  .000E+00  .000E+00
  .000E+00  .000E+00  .000E+00  .000E+00  .000E+00  .000E+00  .000E+00  .000E+00
  .000E+00  .000E+00  .000E+00  .000E+00
  .283E+02  .283E+02  .283E+02  .283E+02  .283E+02  .283E+02  .283E+02  .283E+02
  .283E+02  .283E+02  .283E+02  .283E+02  .283E+02  .284E+02  .284E+02  .284E+02
  .284E+02  .284E+02  .284E+02  .285E+02  .285E+02  .284E+02  .284E+02  .284E+02
  .284E+02  .283E+02  .284E+02  .284E+02  .284E+02  .287E+02  .288E+02  .288E+02
  .288E+02  .288E+02  .288E+02  .286E+02  .286E+02  .287E+02  .287E+02  .287E+02
  .287E+02  .288E+02  .285E+02  .286E+02  .283E+02  .283E+02  .283E+02  .283E+02
  .283E+02  .283E+02  .283E+02  .283E+02  .283E+02  .283E+02  .286E+02  .286E+02
  .286E+02  .286E+02  .286E+02  .286E+02  .286E+02  .285E+02  .285E+02  .283E+02
  .283E+02  .283E+02  .283E+02  .283E+02  .283E+02  .283E+02  .283E+02  .283E+02
  .283E+02  .283E+02  .283E+02  .283E+02  .283E+02  .283E+02  .000E+00  .000E+00
  .000E+00  .000E+00  .000E+00  .000E+00  .000E+00  .000E+00  .000E+00  .000E+00
  .000E+00  .000E+00  .000E+00  .000E+00  .000E+00  .000E+00  .000E+00  .000E+00
  .000E+00  .000E+00  .000E+00  .000E+00
/&   ----------  End of spectral data for channel  1  ----------
Response and Fourier amplitude spectra (78 periods,  .04 -  6.0 sec)   for      
Corrected accelerogram   38695658.CI.LTP.--.HN      Chan  2: 360 Deg     from   
Uncorrected Accelerogram Data             Processed: 09/19/20, CGS  ciltp--o    
Rcrd of Fri Sep 18, 2020 23:38:29.0 PDT               (Avol1 v2.0, 4/18 CSMIP)  
                                        (Origin:  To be determined)             
38695658.CI.LTP.--.HN                Start time:  9/19/20, 06:38:29.0 UTC (GPS) 
Station Id. LTP     33.881N, 118.176W    Q330    s/n 4170  (3 Chns of  3 at Sta)
Paramount, I-710 and Hwy 91              SCSN   Data: Acceleration              
Chan  2: 360 Deg                                                                
Rcrd of Fri Sep 18, 2020 23:38:29.0 PDT    Fri Sep 18, 2020 23:38:29.0 PDT      
Hypocenter:  To be determined.               ML:  To be determined.             
Instr Period =  .0050 sec,  Damping =  .707,  Sensitivity = 4.99 v/g  (Nominal) 
                        Record Length =301.000 sec.                             
                                     Uncor Max  =  -.084 g, at   28.350 sec.    
RMS accel of (uncor) record  =        .   Chn. metadata effective date:         
Accelerogram bandpass filtered with 3 dB pts at   .30 and 23.00 cyc/sec         
                 instrument- and base-line correcte                             
                                                                                
                                                                                
                                                                                
                                                                                
                                                                                
Rcrd of Fri Sep 18, 2020 23:38:29.0 PDT    Fri Sep 18, 2020 23:38:29.0 PDT      
                                                                                
38695658.CI.LTP.--.HN     Paramount, I-710 and Hwy 91   Chan  2: 360 Deg        
                                                                                
38695658.CI.LTP.--.HN     Paramount, I-710 and Hwy 91   Chan  2: 360 Deg        
                                                                                
Units for spectra are inches and sec, except Sa is in fraction of g.            
                                                                                
    2  100    2    3    3  100 -999    3    1    0  605 4170    050624   41    0
    6   38   29    8  263    9   19 2020   10    3  36035524   39   27   74 -999
35524 -999  100    6 -999 -999 -999 -999 -999 -999 -999 -999 -999 -999 -999 -999
 -999 -999 -999 -99915050    2 -999    0 -999   20 -999 -999    3    1 -99915050
    315050    4   78    1    3    5    0    0 -999    0 -999 -999    6 -999    2
    2    2    4 -999 -999 -999 -999 -999 -999 -999 -999    1 -999 -999 -999  111
    1    1 -999 -999
      .005      .707   355.240      .002     1.000  4985.686     -.084    28.350
   200.000     2.384      .478  -999.000    10.000  -999.000     4.000  -999.000
    20.000    -3.020      .000  -999.000  -999.000  -999.000  -999.000      .002
      .001     -.002     2.000    15.000    33.881  -118.176      .020      .023
     1.129     -.006      .002    20.000  -999.000  -999.000  -999.000  -999.000
     1.000  -999.000  -999.000  -999.000  -999.000  -999.000  -999.000   120.000
     -.900     2.000     6.800   980.665      .020   301.000    31.831      .000
  -999.000    23.000  -999.000   301.000      .020      .300  -999.000  -999.000
    28.340   -80.209    28.400    -4.840    28.260      .331      .000      .300
    23.000      .020      .020      .000      .900      .060  -999.000  -999.000
      .280      .120      .168      .148      .017      .002  -999.000  -999.000
  -999.000  -999.000  -999.000  -999.000  -999.000  -999.000  -999.000  -999.000
  -999.000  -999.000  -999.000  -999.000
      .050
      .040      .042      .044      .046      .048      .050      .055      .060
      .065      .070      .075      .080      .085      .090      .095      .100
      .110      .120      .130      .140      .150      .160      .170      .180
      .190      .200      .220      .240      .260      .280      .300      .320
      .340      .360      .380      .400      .420      .440      .460      .480
      .500      .550      .600      .650      .700      .750      .800      .850
      .900      .950     1.000     1.100     1.200     1.300     1.400     1.500
     1.600     1.700     1.800     1.900     2.000     2.200     2.400     2.600
     2.800     3.000     3.200     3.400     3.600     3.800     4.000     4.200
     4.400     4.600     4.800     5.000     5.500     6.000      .000      .000
      .000      .000      .000      .000      .000      .000      .000      .000
      .000      .000      .000      .000      .000      .000      .000      .000
      .000      .000      .000      .000
Fourier amplitude spectra in in/sec.
  .000E+00  .000E+00  .000E+00  .000E+00  .000E+00  .000E+00  .000E+00  .000E+00
  .000E+00  .000E+00  .000E+00  .000E+00  .000E+00  .000E+00  .000E+00  .000E+00
  .000E+00  .000E+00  .000E+00  .000E+00  .000E+00  .000E+00  .000E+00  .000E+00
  .000E+00  .000E+00  .000E+00  .000E+00  .000E+00  .000E+00  .000E+00  .000E+00
  .000E+00  .000E+00  .000E+00  .000E+00  .000E+00  .000E+00  .000E+00  .000E+00
  .000E+00  .000E+00  .000E+00  .000E+00  .000E+00  .000E+00  .000E+00  .000E+00
  .000E+00  .000E+00  .000E+00  .000E+00  .000E+00  .000E+00  .000E+00  .000E+00
  .000E+00  .000E+00  .000E+00  .000E+00  .000E+00  .000E+00  .000E+00  .000E+00
  .000E+00  .000E+00  .000E+00  .000E+00  .000E+00  .000E+00  .000E+00  .000E+00
  .000E+00  .000E+00  .000E+00  .000E+00  .000E+00  .000E+00  .000E+00  .000E+00
  .000E+00  .000E+00  .000E+00  .000E+00  .000E+00  .000E+00  .000E+00  .000E+00
  .000E+00  .000E+00  .000E+00  .000E+00  .000E+00  .000E+00  .000E+00  .000E+00
  .000E+00  .000E+00  .000E+00  .000E+00
Damping =  .05. Data of Sd,Sv,Sa,Pssv,ttSd,ttSv,ttSa :
  .131E-02  .146E-02  .161E-02  .185E-02  .212E-02  .240E-02  .331E-02  .435E-02
  .564E-02  .690E-02  .924E-02  .107E-01  .143E-01  .159E-01  .195E-01  .235E-01
  .329E-01  .400E-01  .399E-01  .513E-01  .410E-01  .487E-01  .678E-01  .751E-01
  .703E-01  .620E-01  .677E-01  .881E-01  .101E+00  .105E+00  .134E+00  .153E+00
  .176E+00  .212E+00  .241E+00  .272E+00  .307E+00  .337E+00  .360E+00  .372E+00
