Response and Fourier amplitude spectra (78 periods,  .04 -  6.0 sec)   for      
Corrected accelerogram   38695658.CI.LUS.--.HN      Chan  1:  90 Deg     from   
Uncorrected Accelerogram Data             Processed: 09/19/20, CGS  cilus--o    
Rcrd of Fri Sep 18, 2020 23:38:44.0 PDT               (Avol1 v2.0, 4/18 CSMIP)  
                                        (Origin:  To be determined)             
38695658.CI.LUS.--.HN                Start time:  9/19/20, 06:38:44.0 UTC (GPS) 
Station Id. LUS     33.014N, 117.163W    ObsMMS  s/n 6574  (3 Chns of  6 at Sta)
Lusardi Creek County Preserve            SCSN   Data: Acceleration              
Chan  1:  90 Deg                                                                
Rcrd of Fri Sep 18, 2020 23:38:44.0 PDT    Fri Sep 18, 2020 23:38:44.0 PDT      
Hypocenter:  To be determined.               ML:  To be determined.             
Instr Period =  .0050 sec,  Damping =  .707,  Sensitivity = 4.99 v/g  (Nominal) 
                        Record Length =301.000 sec.                             
                                     Uncor Max  =  -.001 g, at   42.350 sec.    
RMS accel of (uncor) record  =        .   Chn. metadata effective date:         
Accelerogram bandpass filtered with 3 dB pts at   .30 and 23.00 cyc/sec         
                 instrument- and base-line correcte                             
                                                                                
                                                                                
                                                                                
                                                                                
                                                                                
Rcrd of Fri Sep 18, 2020 23:38:44.0 PDT    Fri Sep 18, 2020 23:38:44.0 PDT      
                                                                                
38695658.CI.LUS.--.HN     Lusardi Creek County Preserve   Chan  1:  90 Deg      
                                                                                
38695658.CI.LUS.--.HN     Lusardi Creek County Preserve   Chan  1:  90 Deg      
                                                                                
Units for spectra are inches and sec, except Sa is in fraction of g.            
                                                                                
    1  100    1    6    6  100 -999    3    1    0   15 6574    0    0   41    0
    6   38   44    3  263    9   19 2020   10    3   9036017   39   29   74 -999
36017 -999  100    6 -999 -999 -999 -999 -999 -999 -999 -999 -999 -999 -999 -999
 -999 -999 -999 -99915050    2 -999    0 -999   20 -999 -999    3    1 -99915050
    315050    4   78    1    3    5    0    0 -999    0 -999 -999    6 -999    2
    2    2    4 -999 -999 -999 -999 -999 -999 -999 -999    1 -999 -999 -999  111
    1    1 -999 -999
      .005      .707   360.170      .000     1.000  4987.659     -.001    42.350
   200.000     2.384      .478  -999.000    10.000  -999.000     4.000  -999.000
    20.000    -3.499      .000  -999.000  -999.000  -999.000  -999.000     -.005
      .005      .010     2.000    15.000    33.014  -117.163      .001      .001
      .981      .010      .010   120.700  -999.000  -999.000  -999.000  -999.000
     1.000  -999.000    -8.000  -999.000  -999.000  -999.000  -999.000   120.000
     -.900     2.000     6.800   980.665      .020   301.000    31.831     -.001
  -999.000    23.000  -999.000   301.000      .020      .300  -999.000  -999.000
    42.340    -1.207    43.320     -.050    43.220      .003      .000      .300
    23.000      .020      .020      .000      .020      .002  -999.000  -999.000
      .006      .240      .003      .004      .000      .000  -999.000  -999.000
  -999.000  -999.000  -999.000  -999.000  -999.000  -999.000  -999.000  -999.000
  -999.000  -999.000  -999.000  -999.000
      .050
      .040      .042      .044      .046      .048      .050      .055      .060
      .065      .070      .075      .080      .085      .090      .095      .100
      .110      .120      .130      .140      .150      .160      .170      .180
      .190      .200      .220      .240      .260      .280      .300      .320
      .340      .360      .380      .400      .420      .440      .460      .480
      .500      .550      .600      .650      .700      .750      .800      .850
      .900      .950     1.000     1.100     1.200     1.300     1.400     1.500
     1.600     1.700     1.800     1.900     2.000     2.200     2.400     2.600
     2.800     3.000     3.200     3.400     3.600     3.800     4.000     4.200
     4.400     4.600     4.800     5.000     5.500     6.000      .000      .000
      .000      .000      .000      .000      .000      .000      .000      .000
      .000      .000      .000      .000      .000      .000      .000      .000
      .000      .000      .000      .000
Fourier amplitude spectra in in/sec.
  .000E+00  .000E+00  .000E+00  .000E+00  .000E+00  .000E+00  .000E+00  .000E+00
  .000E+00  .000E+00  .000E+00  .000E+00  .000E+00  .000E+00  .000E+00  .000E+00
  .000E+00  .000E+00  .000E+00  .000E+00  .000E+00  .000E+00  .000E+00  .000E+00
  .000E+00  .000E+00  .000E+00  .000E+00  .000E+00  .000E+00  .000E+00  .000E+00
  .000E+00  .000E+00  .000E+00  .000E+00  .000E+00  .000E+00  .000E+00  .000E+00
  .000E+00  .000E+00  .000E+00  .000E+00  .000E+00  .000E+00  .000E+00  .000E+00
  .000E+00  .000E+00  .000E+00  .000E+00  .000E+00  .000E+00  .000E+00  .000E+00
  .000E+00  .000E+00  .000E+00  .000E+00  .000E+00  .000E+00  .000E+00  .000E+00
  .000E+00  .000E+00  .000E+00  .000E+00  .000E+00  .000E+00  .000E+00  .000E+00
  .000E+00  .000E+00  .000E+00  .000E+00  .000E+00  .000E+00  .000E+00  .000E+00
  .000E+00  .000E+00  .000E+00  .000E+00  .000E+00  .000E+00  .000E+00  .000E+00
  .000E+00  .000E+00  .000E+00  .000E+00  .000E+00  .000E+00  .000E+00  .000E+00
  .000E+00  .000E+00  .000E+00  .000E+00
Damping =  .05. Data of Sd,Sv,Sa,Pssv,ttSd,ttSv,ttSa :
  .207E-04  .230E-04  .259E-04  .298E-04  .346E-04  .412E-04  .529E-04  .655E-04
  .838E-04  .112E-03  .151E-03  .161E-03  .213E-03  .306E-03  .366E-03  .387E-03
  .435E-03  .498E-03  .499E-03  .680E-03  .718E-03  .938E-03  .873E-03  .971E-03
  .893E-03  .123E-02  .197E-02  .317E-02  .317E-02  .314E-02  .381E-02  .364E-02
  .300E-02  .249E-02  .207E-02  .196E-02  .199E-02  .190E-02  .166E-02  .147E-02
  .126E-02  .121E-02  .123E-02  .124E-02  .107E-02  .116E-02  .129E-02  .132E-02
  .126E-02  .126E-02  .128E-02  .143E-02  .160E-02  .181E-02  .157E-02  .172E-02
  .206E-02  .169E-02  .151E-02  .143E-02  .142E-02  .137E-02  .155E-02  .166E-02
  .147E-02  .141E-02  .132E-02  .122E-02  .112E-02  .106E-02  .105E-02  .105E-02
  .104E-02  .103E-02  .103E-02  .103E-02  .105E-02  .106E-02  .000E+00  .000E+00
  .000E+00  .000E+00  .000E+00  .000E+00  .000E+00  .000E+00  .000E+00  .000E+00
  .000E+00  .000E+00  .000E+00  .000E+00  .000E+00  .000E+00  .000E+00  .000E+00
  .000E+00  .000E+00  .000E+00  .000E+00
  .154E-02  .171E-02  .189E-02  .215E-02  .231E-02  .260E-02  .390E-02  .520E-02
  .598E-02  .839E-02  .974E-02  .118E-01  .141E-01  .188E-01  .209E-01  .216E-01
  .239E-01  .259E-01  .230E-01  .295E-01  .297E-01  .365E-01  .331E-01  .359E-01
  .336E-01  .308E-01  .522E-01  .820E-01  .790E-01  .732E-01  .799E-01  .791E-01
  .632E-01  .505E-01  .401E-01  .369E-01  .355E-01  .356E-01  .343E-01  .302E-01
  .274E-01  .237E-01  .226E-01  .231E-01  .213E-01  .202E-01  .207E-01  .214E-01
  .212E-01  .209E-01  .206E-01  .210E-01  .221E-01  .220E-01  .221E-01  .214E-01
  .212E-01  .211E-01  .216E-01  .215E-01  .216E-01  .216E-01  .211E-01  .202E-01
  .196E-01  .194E-01  .192E-01  .191E-01  .191E-01  .191E-01  .192E-01  .192E-01
  .192E-01  .192E-01  .192E-01  .193E-01  .193E-01  .193E-01  .000E+00  .000E+00
  .000E+00  .000E+00  .000E+00  .000E+00  .000E+00  .000E+00  .000E+00  .000E+00
  .000E+00  .000E+00  .000E+00  .000E+00  .000E+00  .000E+00  .000E+00  .000E+00
  .000E+00  .000E+00  .000E+00  .000E+00
  .133E-02  .133E-02  .137E-02  .144E-02  .154E-02  .167E-02  .180E-02  .188E-02
  .203E-02  .232E-02  .272E-02  .261E-02  .306E-02  .388E-02  .412E-02  .389E-02
  .367E-02  .361E-02  .308E-02  .351E-02  .326E-02  .375E-02  .314E-02  .307E-02
  .254E-02  .314E-02  .423E-02  .556E-02  .482E-02  .408E-02  .441E-02  .368E-02
  .268E-02  .199E-02  .145E-02  .124E-02  .115E-02  .102E-02  .827E-03  .661E-03
  .524E-03  .416E-03  .355E-03  .309E-03  .232E-03  .216E-03  .213E-03  .195E-03
  .167E-03  .150E-03  .138E-03  .127E-03  .117E-03  .112E-03  .834E-04  .789E-04
  .829E-04  .602E-04  .509E-04  .441E-04  .399E-04  .329E-04  .316E-04  .293E-04
  .235E-04  .203E-04  .175E-04  .150E-04  .130E-04  .116E-04  .107E-04  .100E-04
  .933E-05  .873E-05  .821E-05  .780E-05  .690E-05  .621E-05  .000E+00  .000E+00
  .000E+00  .000E+00  .000E+00  .000E+00  .000E+00  .000E+00  .000E+00  .000E+00
  .000E+00  .000E+00  .000E+00  .000E+00  .000E+00  .000E+00  .000E+00  .000E+00
  .000E+00  .000E+00  .000E+00  .000E+00
  .326E-02  .344E-02  .370E-02  .407E-02  .452E-02  .517E-02  .604E-02  .685E-02
  .810E-02  .100E-01  .126E-01  .127E-01  .158E-01  .214E-01  .242E-01  .243E-01
  .248E-01  .261E-01  .241E-01  .305E-01  .301E-01  .368E-01  .323E-01  .339E-01
  .295E-01  .386E-01  .561E-01  .829E-01  .765E-01  .705E-01  .798E-01  .715E-01
  .554E-01  .435E-01  .342E-01  .307E-01  .298E-01  .271E-01  .227E-01  .192E-01
  .158E-01  .138E-01  .128E-01  .120E-01  .962E-02  .970E-02  .102E-01  .979E-02
  .882E-02  .834E-02  .805E-02  .815E-02  .837E-02  .877E-02  .704E-02  .719E-02
  .809E-02  .625E-02  .526E-02  .474E-02  .447E-02  .390E-02  .406E-02  .401E-02
  .331E-02  .295E-02  .259E-02  .225E-02  .195E-02  .176E-02  .166E-02  .157E-02
  .149E-02  .141E-02  .134E-02  .130E-02  .119E-02  .111E-02  .000E+00  .000E+00
  .000E+00  .000E+00  .000E+00  .000E+00  .000E+00  .000E+00  .000E+00  .000E+00
  .000E+00  .000E+00  .000E+00  .000E+00  .000E+00  .000E+00  .000E+00  .000E+00
  .000E+00  .000E+00  .000E+00  .000E+00
  .446E+02  .431E+02  .431E+02  .431E+02  .431E+02  .431E+02  .431E+02  .425E+02
  .447E+02  .447E+02  .447E+02  .462E+02  .425E+02  .432E+02  .432E+02  .447E+02
  .455E+02  .452E+02  .449E+02  .449E+02  .449E+02  .449E+02  .438E+02  .437E+02
  .447E+02  .422E+02  .434E+02  .426E+02  .426E+02  .425E+02  .434E+02  .435E+02
  .433E+02  .433E+02  .433E+02  .433E+02  .433E+02  .433E+02  .433E+02  .432E+02
  .423E+02  .433E+02  .433E+02  .433E+02  .433E+02  .433E+02  .433E+02  .433E+02
  .434E+02  .434E+02  .434E+02  .434E+02  .460E+02  .533E+02  .455E+02  .527E+02
  .529E+02  .523E+02  .444E+02  .444E+02  .437E+02  .437E+02  .432E+02  .432E+02
  .432E+02  .432E+02  .432E+02  .432E+02  .432E+02  .432E+02  .432E+02  .432E+02
  .432E+02  .432E+02  .432E+02  .432E+02  .432E+02  .432E+02  .000E+00  .000E+00
  .000E+00  .000E+00  .000E+00  .000E+00  .000E+00  .000E+00  .000E+00  .000E+00
  .000E+00  .000E+00  .000E+00  .000E+00  .000E+00  .000E+00  .000E+00  .000E+00
  .000E+00  .000E+00  .000E+00  .000E+00
  .425E+02  .425E+02  .425E+02  .425E+02  .425E+02  .431E+02  .431E+02  .430E+02
  .459E+02  .435E+02  .447E+02  .462E+02  .462E+02  .432E+02  .432E+02  .447E+02
  .455E+02  .452E+02  .452E+02  .449E+02  .449E+02  .449E+02  .438E+02  .438E+02
  .446E+02  .422E+02  .434E+02  .425E+02  .426E+02  .426E+02  .434E+02  .434E+02
  .434E+02  .434E+02  .434E+02  .434E+02  .433E+02  .433E+02  .433E+02  .433E+02
  .431E+02  .433E+02  .433E+02  .433E+02  .433E+02  .433E+02  .433E+02  .433E+02
  .433E+02  .433E+02  .433E+02  .433E+02  .433E+02  .433E+02  .433E+02  .433E+02
  .433E+02  .433E+02  .433E+02  .433E+02  .433E+02  .433E+02  .433E+02  .433E+02
  .433E+02  .433E+02  .433E+02  .433E+02  .433E+02  .433E+02  .433E+02  .433E+02
  .433E+02  .433E+02  .433E+02  .433E+02  .433E+02  .433E+02  .000E+00  .000E+00
  .000E+00  .000E+00  .000E+00  .000E+00  .000E+00  .000E+00  .000E+00  .000E+00
  .000E+00  .000E+00  .000E+00  .000E+00  .000E+00  .000E+00  .000E+00  .000E+00
  .000E+00  .000E+00  .000E+00  .000E+00
  .446E+02  .431E+02  .431E+02  .431E+02  .431E+02  .431E+02  .431E+02  .425E+02
  .447E+02  .447E+02  .447E+02  .462E+02  .425E+02  .432E+02  .432E+02  .447E+02
  .455E+02  .452E+02  .449E+02  .449E+02  .449E+02  .449E+02  .438E+02  .437E+02
  .422E+02  .422E+02  .434E+02  .426E+02  .426E+02  .425E+02  .434E+02  .434E+02
  .433E+02  .433E+02  .433E+02  .433E+02  .433E+02  .433E+02  .433E+02  .432E+02
  .423E+02  .433E+02  .433E+02  .433E+02  .433E+02  .433E+02  .433E+02  .433E+02
  .433E+02  .433E+02  .433E+02  .433E+02  .459E+02  .532E+02  .455E+02  .527E+02
  .529E+02  .522E+02  .443E+02  .443E+02  .436E+02  .432E+02  .432E+02  .432E+02
  .432E+02  .432E+02  .432E+02  .432E+02  .432E+02  .432E+02  .432E+02  .432E+02
  .432E+02  .432E+02  .432E+02  .432E+02  .432E+02  .432E+02  .000E+00  .000E+00
  .000E+00  .000E+00  .000E+00  .000E+00  .000E+00  .000E+00  .000E+00  .000E+00
  .000E+00  .000E+00  .000E+00  .000E+00  .000E+00  .000E+00  .000E+00  .000E+00
  .000E+00  .000E+00  .000E+00  .000E+00
/&   ----------  End of spectral data for channel  1  ----------
Response and Fourier amplitude spectra (78 periods,  .04 -  6.0 sec)   for      
Corrected accelerogram   38695658.CI.LUS.--.HN      Chan  2: 360 Deg     from   
Uncorrected Accelerogram Data             Processed: 09/19/20, CGS  cilus--o    
Rcrd of Fri Sep 18, 2020 23:38:44.0 PDT               (Avol1 v2.0, 4/18 CSMIP)  
                                        (Origin:  To be determined)             
38695658.CI.LUS.--.HN                Start time:  9/19/20, 06:38:44.0 UTC (GPS) 
Station Id. LUS     33.014N, 117.163W    ObsMMS  s/n 6574  (3 Chns of  6 at Sta)
Lusardi Creek County Preserve            SCSN   Data: Acceleration              
Chan  2: 360 Deg                                                                
Rcrd of Fri Sep 18, 2020 23:38:44.0 PDT    Fri Sep 18, 2020 23:38:44.0 PDT      
Hypocenter:  To be determined.               ML:  To be determined.             
Instr Period =  .0050 sec,  Damping =  .707,  Sensitivity = 4.97 v/g  (Nominal) 
                        Record Length =301.000 sec.                             
                                     Uncor Max  =   .001 g, at   43.090 sec.    
RMS accel of (uncor) record  =        .   Chn. metadata effective date:         
Accelerogram bandpass filtered with 3 dB pts at   .30 and 23.00 cyc/sec         
                 instrument- and base-line correcte                             
                                                                                
                                                                                
                                                                                
                                                                                
                                                                                
Rcrd of Fri Sep 18, 2020 23:38:44.0 PDT    Fri Sep 18, 2020 23:38:44.0 PDT      
                                                                                
38695658.CI.LUS.--.HN     Lusardi Creek County Preserve   Chan  2: 360 Deg      
                                                                                
38695658.CI.LUS.--.HN     Lusardi Creek County Preserve   Chan  2: 360 Deg      
                                                                                
Units for spectra are inches and sec, except Sa is in fraction of g.            
                                                                                
    2  100    2    6    6  100 -999    3    1    0   15 6574    0    0   41    0
    6   38   44    3  263    9   19 2020   10    3  36036217   39   29   74 -999
36217 -999  100    6 -999 -999 -999 -999 -999 -999 -999 -999 -999 -999 -999 -999
 -999 -999 -999 -99915050    2 -999    0 -999   20 -999 -999    3    1 -99915050
    315050    4   78    1    3    5    0    0 -999    0 -999 -999    6 -999    2
    2    2    4 -999 -999 -999 -999 -999 -999 -999 -999    1 -999 -999 -999  111
    1    1 -999 -999
      .005      .707   362.170      .000     1.000  4972.700      .001    43.090
   200.000     2.384      .479  -999.000    10.000  -999.000     4.000  -999.000
    20.000   -10.408      .000  -999.000  -999.000  -999.000  -999.000      .002
     -.002     -.005     2.000    15.000    33.014  -117.163      .001      .001
      .984     -.005     -.005   120.700  -999.000  -999.000  -999.000  -999.000
     1.000  -999.000  -999.000  -999.000  -999.000  -999.000  -999.000   120.000
     -.900     2.000     6.800   980.665      .020   301.000    31.831      .000
  -999.000    23.000  -999.000   301.000      .020      .300  -999.000  -999.000
    40.760    -1.058    40.560     -.040    40.640     -.002      .000      .300
    23.000      .020      .020      .000      .020      .002  -999.000  -999.000
      .005      .260      .004      .003      .000      .000  -999.000  -999.000
  -999.000  -999.000  -999.000  -999.000  -999.000  -999.000  -999.000  -999.000
  -999.000  -999.000  -999.000  -999.000
      .050
      .040      .042      .044      .046      .048      .050      .055      .060
      .065      .070      .075      .080      .085      .090      .095      .100
      .110      .120      .130      .140      .150      .160      .170      .180
      .190      .200      .220      .240      .260      .280      .300      .320
      .340      .360      .380      .400      .420      .440      .460      .480
      .500      .550      .600      .650      .700      .750      .800      .850
      .900      .950     1.000     1.100     1.200     1.300     1.400     1.500
     1.600     1.700     1.800     1.900     2.000     2.200     2.400     2.600
     2.800     3.000     3.200     3.400     3.600     3.800     4.000     4.200
     4.400     4.600     4.800     5.000     5.500     6.000      .000      .000
      .000      .000      .000      .000      .000      .000      .000      .000
      .000      .000      .000      .000      .000      .000      .000      .000
      .000      .000      .000      .000
Fourier amplitude spectra in in/sec.
  .000E+00  .000E+00  .000E+00  .000E+00  .000E+00  .000E+00  .000E+00  .000E+00
  .000E+00  .000E+00  .000E+00  .000E+00  .000E+00  .000E+00  .000E+00  .000E+00
  .000E+00  .000E+00  .000E+00  .000E+00  .000E+00  .000E+00  .000E+00  .000E+00
  .000E+00  .000E+00  .000E+00  .000E+00  .000E+00  .000E+00  .000E+00  .000E+00
  .000E+00  .000E+00  .000E+00  .000E+00  .000E+00  .000E+00  .000E+00  .000E+00
  .000E+00  .000E+00  .000E+00  .000E+00  .000E+00  .000E+00  .000E+00  .000E+00
  .000E+00  .000E+00  .000E+00  .000E+00  .000E+00  .000E+00  .000E+00  .000E+00
  .000E+00  .000E+00  .000E+00  .000E+00  .000E+00  .000E+00  .000E+00  .000E+00
  .000E+00  .000E+00  .000E+00  .000E+00  .000E+00  .000E+00  .000E+00  .000E+00
  .000E+00  .000E+00  .000E+00  .000E+00  .000E+00  .000E+00  .000E+00  .000E+00
  .000E+00  .000E+00  .000E+00  .000E+00  .000E+00  .000E+00  .000E+00  .000E+00
  .000E+00  .000E+00  .000E+00  .000E+00  .000E+00  .000E+00  .000E+00  .000E+00
  .000E+00  .000E+00  .000E+00  .000E+00
Damping =  .05. Data of Sd,Sv,Sa,Pssv,ttSd,ttSv,ttSa :
  .183E-04  .209E-04  .238E-04  .273E-04  .299E-04  .339E-04  .535E-04  .728E-04
  .105E-03  .125E-03  .139E-03  .163E-03  .195E-03  .231E-03  .300E-03  .320E-03
  .474E-03  .545E-03  .630E-03  .695E-03  .706E-03  .785E-03  .102E-02  .114E-02
  .112E-02  .136E-02  .205E-02  .291E-02  .345E-02  .332E-02  .273E-02  .224E-02
  .206E-02  .186E-02  .156E-02  .146E-02  .134E-02  .149E-02  .159E-02  .142E-02
