Response and Fourier amplitude spectra (78 periods,  .04 -  6.0 sec)   for      
Corrected accelerogram   38695658.CI.LUC2.--.H      Chan  1:  90 Deg     from   
Uncorrected Accelerogram Data             Processed: 09/19/20, CGS  ciluc2-l    
Rcrd of Fri Sep 18, 2020 23:38:39.0 PDT               (Avol1 v2.0, 4/18 CSMIP)  
                                        (Origin:  To be determined)             
38695658.CI.LUC2.--.H                Start time:  9/19/20, 06:38:39.0 UTC (GPS) 
Station Id. LUC2    34.456N, 116.964W    Q330    s/n 4185  (3 Chns of  3 at Sta)
Lucerne Valley 2                         SCSN   Data: Acceleration              
Chan  1:  90 Deg                                                                
Rcrd of Fri Sep 18, 2020 23:38:39.0 PDT    Fri Sep 18, 2020 23:38:39.0 PDT      
Hypocenter:  To be determined.               ML:  To be determined.             
Instr Period =  .0050 sec,  Damping =  .707,  Sensitivity = 4.99 v/g  (Nominal) 
                        Record Length =301.000 sec.                             
                                     Uncor Max  =  -.003 g, at   44.030 sec.    
RMS accel of (uncor) record  =        .   Chn. metadata effective date:         
Accelerogram bandpass filtered with 3 dB pts at   .30 and 23.00 cyc/sec         
                 instrument- and base-line correcte                             
                                                                                
                                                                                
                                                                                
                                                                                
                                                                                
Rcrd of Fri Sep 18, 2020 23:38:39.0 PDT    Fri Sep 18, 2020 23:38:39.0 PDT      
                                                                                
38695658.CI.LUC2.--.H     Lucerne Valley 2    Chan  1:  90 Deg                  
                                                                                
38695658.CI.LUC2.--.H     Lucerne Valley 2    Chan  1:  90 Deg                  
                                                                                
Units for spectra are inches and sec, except Sa is in fraction of g.            
                                                                                
    1  100    1    3    3  100 -999    3    1    0  605 4185    0    0   41    0
    6   38   39    8  263    9   19 2020   10    3   9036217   39   16   74 -999
36217 -999  100    6 -999 -999 -999 -999 -999 -999 -999 -999 -999 -999 -999 -999
 -999 -999 -999 -99915050    2 -999    0 -999   20 -999 -999    3    1 -99915050
    315050    4   78    1    3    5    0    0 -999    0 -999 -999    6 -999    2
    2    2    4 -999 -999 -999 -999 -999 -999 -999 -999    1 -999 -999 -999  111
    1    1 -999 -999
      .005      .707   362.170      .000     1.000  4988.080     -.003    44.030
   200.000     2.384      .478  -999.000    10.000  -999.000     4.000  -999.000
    20.000   -19.714      .000  -999.000  -999.000  -999.000  -999.000     -.001
      .000      .001     2.000    15.000    34.456  -116.964      .001      .001
     1.194      .001      .001   886.000  -999.000  -999.000  -999.000  -999.000
     1.000  -999.000    -8.000  -999.000  -999.000  -999.000  -999.000   120.000
     -.900     2.000     6.800   980.665      .020   301.000    31.831      .000
  -999.000    23.000  -999.000   301.000      .020      .300  -999.000  -999.000
    44.020    -2.858    43.160     -.142    43.080      .017      .000      .300
    23.000      .020      .020      .000      .020      .009  -999.000  -999.000
      .014      .220      .011      .008      .002      .000  -999.000  -999.000
  -999.000  -999.000  -999.000  -999.000  -999.000  -999.000  -999.000  -999.000
  -999.000  -999.000  -999.000  -999.000
      .050
      .040      .042      .044      .046      .048      .050      .055      .060
      .065      .070      .075      .080      .085      .090      .095      .100
      .110      .120      .130      .140      .150      .160      .170      .180
      .190      .200      .220      .240      .260      .280      .300      .320
      .340      .360      .380      .400      .420      .440      .460      .480
      .500      .550      .600      .650      .700      .750      .800      .850
      .900      .950     1.000     1.100     1.200     1.300     1.400     1.500
     1.600     1.700     1.800     1.900     2.000     2.200     2.400     2.600
     2.800     3.000     3.200     3.400     3.600     3.800     4.000     4.200
     4.400     4.600     4.800     5.000     5.500     6.000      .000      .000
      .000      .000      .000      .000      .000      .000      .000      .000
      .000      .000      .000      .000      .000      .000      .000      .000
      .000      .000      .000      .000
Fourier amplitude spectra in in/sec.
  .000E+00  .000E+00  .000E+00  .000E+00  .000E+00  .000E+00  .000E+00  .000E+00
  .000E+00  .000E+00  .000E+00  .000E+00  .000E+00  .000E+00  .000E+00  .000E+00
  .000E+00  .000E+00  .000E+00  .000E+00  .000E+00  .000E+00  .000E+00  .000E+00
  .000E+00  .000E+00  .000E+00  .000E+00  .000E+00  .000E+00  .000E+00  .000E+00
  .000E+00  .000E+00  .000E+00  .000E+00  .000E+00  .000E+00  .000E+00  .000E+00
  .000E+00  .000E+00  .000E+00  .000E+00  .000E+00  .000E+00  .000E+00  .000E+00
  .000E+00  .000E+00  .000E+00  .000E+00  .000E+00  .000E+00  .000E+00  .000E+00
  .000E+00  .000E+00  .000E+00  .000E+00  .000E+00  .000E+00  .000E+00  .000E+00
  .000E+00  .000E+00  .000E+00  .000E+00  .000E+00  .000E+00  .000E+00  .000E+00
  .000E+00  .000E+00  .000E+00  .000E+00  .000E+00  .000E+00  .000E+00  .000E+00
  .000E+00  .000E+00  .000E+00  .000E+00  .000E+00  .000E+00  .000E+00  .000E+00
  .000E+00  .000E+00  .000E+00  .000E+00  .000E+00  .000E+00  .000E+00  .000E+00
  .000E+00  .000E+00  .000E+00  .000E+00
Damping =  .05. Data of Sd,Sv,Sa,Pssv,ttSd,ttSv,ttSa :
  .466E-04  .517E-04  .570E-04  .623E-04  .677E-04  .730E-04  .919E-04  .113E-03
  .143E-03  .170E-03  .192E-03  .228E-03  .274E-03  .297E-03  .419E-03  .519E-03
  .626E-03  .919E-03  .107E-02  .144E-02  .160E-02  .184E-02  .244E-02  .264E-02
  .321E-02  .390E-02  .650E-02  .605E-02  .572E-02  .582E-02  .658E-02  .868E-02
  .886E-02  .784E-02  .698E-02  .606E-02  .529E-02  .619E-02  .851E-02  .957E-02
  .892E-02  .882E-02  .872E-02  .923E-02  .739E-02  .800E-02  .103E-01  .148E-01
  .192E-01  .222E-01  .224E-01  .234E-01  .241E-01  .234E-01  .201E-01  .186E-01
  .157E-01  .134E-01  .130E-01  .117E-01  .106E-01  .936E-02  .850E-02  .787E-02
  .750E-02  .730E-02  .711E-02  .713E-02  .712E-02  .708E-02  .705E-02  .705E-02
  .704E-02  .702E-02  .702E-02  .701E-02  .696E-02  .693E-02  .000E+00  .000E+00
  .000E+00  .000E+00  .000E+00  .000E+00  .000E+00  .000E+00  .000E+00  .000E+00
  .000E+00  .000E+00  .000E+00  .000E+00  .000E+00  .000E+00  .000E+00  .000E+00
  .000E+00  .000E+00  .000E+00  .000E+00
  .126E-02  .140E-02  .157E-02  .174E-02  .198E-02  .220E-02  .291E-02  .378E-02
  .441E-02  .558E-02  .696E-02  .774E-02  .101E-01  .141E-01  .193E-01  .234E-01
  .290E-01  .356E-01  .424E-01  .567E-01  .618E-01  .629E-01  .779E-01  .849E-01
  .954E-01  .107E+00  .187E+00  .170E+00  .141E+00  .135E+00  .152E+00  .174E+00
  .163E+00  .128E+00  .116E+00  .101E+00  .983E-01  .960E-01  .110E+00  .127E+00
  .122E+00  .115E+00  .105E+00  .956E-01  .834E-01  .837E-01  .876E-01  .108E+00
  .137E+00  .144E+00  .168E+00  .174E+00  .147E+00  .135E+00  .121E+00  .113E+00
  .101E+00  .884E-01  .796E-01  .716E-01  .677E-01  .633E-01  .608E-01  .603E-01
  .598E-01  .592E-01  .591E-01  .588E-01  .585E-01  .582E-01  .579E-01  .577E-01
  .575E-01  .573E-01  .571E-01  .570E-01  .567E-01  .564E-01  .000E+00  .000E+00
  .000E+00  .000E+00  .000E+00  .000E+00  .000E+00  .000E+00  .000E+00  .000E+00
  .000E+00  .000E+00  .000E+00  .000E+00  .000E+00  .000E+00  .000E+00  .000E+00
  .000E+00  .000E+00  .000E+00  .000E+00
  .298E-02  .299E-02  .301E-02  .301E-02  .300E-02  .299E-02  .311E-02  .321E-02
  .347E-02  .355E-02  .351E-02  .365E-02  .387E-02  .376E-02  .475E-02  .538E-02
  .534E-02  .660E-02  .644E-02  .746E-02  .726E-02  .744E-02  .860E-02  .837E-02
  .915E-02  .102E-01  .138E-01  .110E-01  .857E-02  .766E-02  .743E-02  .873E-02
  .790E-02  .628E-02  .490E-02  .395E-02  .306E-02  .327E-02  .416E-02  .424E-02
  .365E-02  .299E-02  .248E-02  .224E-02  .154E-02  .147E-02  .165E-02  .210E-02
  .244E-02  .253E-02  .230E-02  .200E-02  .172E-02  .144E-02  .106E-02  .860E-03
  .639E-03  .480E-03  .417E-03  .341E-03  .279E-03  .205E-03  .159E-03  .128E-03
  .106E-03  .912E-04  .817E-04  .728E-04  .652E-04  .591E-04  .539E-04  .494E-04
  .454E-04  .420E-04  .390E-04  .364E-04  .311E-04  .270E-04  .000E+00  .000E+00
  .000E+00  .000E+00  .000E+00  .000E+00  .000E+00  .000E+00  .000E+00  .000E+00
  .000E+00  .000E+00  .000E+00  .000E+00  .000E+00  .000E+00  .000E+00  .000E+00
  .000E+00  .000E+00  .000E+00  .000E+00
  .732E-02  .773E-02  .815E-02  .852E-02  .886E-02  .918E-02  .105E-01  .118E-01
  .139E-01  .153E-01  .161E-01  .179E-01  .203E-01  .207E-01  .277E-01  .326E-01
  .358E-01  .481E-01  .519E-01  .644E-01  .671E-01  .724E-01  .904E-01  .923E-01
  .106E+00  .123E+00  .186E+00  .158E+00  .138E+00  .131E+00  .138E+00  .170E+00
  .164E+00  .137E+00  .115E+00  .951E-01  .791E-01  .884E-01  .116E+00  .125E+00
  .112E+00  .101E+00  .913E-01  .892E-01  .663E-01  .670E-01  .809E-01  .110E+00
  .134E+00  .147E+00  .141E+00  .134E+00  .126E+00  .113E+00  .900E-01  .780E-01
  .615E-01  .496E-01  .454E-01  .388E-01  .334E-01  .267E-01  .222E-01  .190E-01
  .168E-01  .153E-01  .140E-01  .132E-01  .124E-01  .117E-01  .111E-01  .105E-01
  .101E-01  .959E-02  .918E-02  .881E-02  .796E-02  .726E-02  .000E+00  .000E+00
  .000E+00  .000E+00  .000E+00  .000E+00  .000E+00  .000E+00  .000E+00  .000E+00
  .000E+00  .000E+00  .000E+00  .000E+00  .000E+00  .000E+00  .000E+00  .000E+00
  .000E+00  .000E+00  .000E+00  .000E+00
  .440E+02  .440E+02  .440E+02  .440E+02  .440E+02  .440E+02  .440E+02  .440E+02
  .440E+02  .440E+02  .440E+02  .440E+02  .440E+02  .424E+02  .424E+02  .424E+02
  .425E+02  .440E+02  .435E+02  .428E+02  .429E+02  .431E+02  .431E+02  .432E+02
  .425E+02  .425E+02  .435E+02  .428E+02  .421E+02  .429E+02  .428E+02  .442E+02
  .453E+02  .453E+02  .445E+02  .424E+02  .424E+02  .453E+02  .454E+02  .454E+02
  .454E+02  .454E+02  .455E+02  .452E+02  .563E+02  .560E+02  .436E+02  .436E+02
  .441E+02  .442E+02  .442E+02  .450E+02  .440E+02  .440E+02  .435E+02  .435E+02
  .435E+02  .430E+02  .430E+02  .430E+02  .431E+02  .431E+02  .425E+02  .425E+02
  .431E+02  .425E+02  .431E+02  .431E+02  .431E+02  .431E+02  .431E+02  .431E+02
  .431E+02  .431E+02  .431E+02  .431E+02  .431E+02  .431E+02  .000E+00  .000E+00
  .000E+00  .000E+00  .000E+00  .000E+00  .000E+00  .000E+00  .000E+00  .000E+00
  .000E+00  .000E+00  .000E+00  .000E+00  .000E+00  .000E+00  .000E+00  .000E+00
  .000E+00  .000E+00  .000E+00  .000E+00
  .432E+02  .432E+02  .432E+02  .440E+02  .440E+02  .440E+02  .432E+02  .424E+02
  .432E+02  .424E+02  .424E+02  .420E+02  .422E+02  .424E+02  .424E+02  .425E+02
  .425E+02  .435E+02  .435E+02  .428E+02  .430E+02  .430E+02  .430E+02  .433E+02
  .446E+02  .425E+02  .433E+02  .429E+02  .420E+02  .429E+02  .428E+02  .442E+02
  .442E+02  .454E+02  .444E+02  .423E+02  .432E+02  .444E+02  .457E+02  .453E+02
  .453E+02  .453E+02  .453E+02  .451E+02  .427E+02  .427E+02  .427E+02  .443E+02
  .443E+02  .440E+02  .441E+02  .441E+02  .441E+02  .449E+02  .431E+02  .431E+02
  .431E+02  .431E+02  .431E+02  .431E+02  .431E+02  .431E+02  .431E+02  .431E+02
  .431E+02  .431E+02  .431E+02  .431E+02  .431E+02  .431E+02  .431E+02  .431E+02
  .431E+02  .431E+02  .431E+02  .431E+02  .431E+02  .431E+02  .000E+00  .000E+00
  .000E+00  .000E+00  .000E+00  .000E+00  .000E+00  .000E+00  .000E+00  .000E+00
  .000E+00  .000E+00  .000E+00  .000E+00  .000E+00  .000E+00  .000E+00  .000E+00
  .000E+00  .000E+00  .000E+00  .000E+00
  .440E+02  .440E+02  .440E+02  .440E+02  .440E+02  .440E+02  .440E+02  .440E+02
  .440E+02  .440E+02  .440E+02  .440E+02  .440E+02  .424E+02  .424E+02  .424E+02
  .425E+02  .440E+02  .435E+02  .428E+02  .448E+02  .431E+02  .431E+02  .432E+02
  .425E+02  .425E+02  .432E+02  .428E+02  .421E+02  .429E+02  .435E+02  .442E+02
  .453E+02  .453E+02  .445E+02  .424E+02  .424E+02  .453E+02  .453E+02  .454E+02
  .454E+02  .454E+02  .455E+02  .452E+02  .563E+02  .560E+02  .436E+02  .436E+02
  .441E+02  .442E+02  .442E+02  .450E+02  .439E+02  .440E+02  .434E+02  .434E+02
  .435E+02  .430E+02  .430E+02  .430E+02  .430E+02  .430E+02  .425E+02  .425E+02
  .425E+02  .434E+02  .434E+02  .434E+02  .434E+02  .434E+02  .434E+02  .434E+02
  .434E+02  .434E+02  .434E+02  .434E+02  .434E+02  .434E+02  .000E+00  .000E+00
  .000E+00  .000E+00  .000E+00  .000E+00  .000E+00  .000E+00  .000E+00  .000E+00
  .000E+00  .000E+00  .000E+00  .000E+00  .000E+00  .000E+00  .000E+00  .000E+00
  .000E+00  .000E+00  .000E+00  .000E+00
/&   ----------  End of spectral data for channel  1  ----------
Response and Fourier amplitude spectra (78 periods,  .04 -  6.0 sec)   for      
Corrected accelerogram   38695658.CI.LUC2.--.H      Chan  2: 360 Deg     from   
Uncorrected Accelerogram Data             Processed: 09/19/20, CGS  ciluc2-l    
Rcrd of Fri Sep 18, 2020 23:38:39.0 PDT               (Avol1 v2.0, 4/18 CSMIP)  
                                        (Origin:  To be determined)             
38695658.CI.LUC2.--.H                Start time:  9/19/20, 06:38:39.0 UTC (GPS) 
Station Id. LUC2    34.456N, 116.964W    Q330    s/n 4185  (3 Chns of  3 at Sta)
Lucerne Valley 2                         SCSN   Data: Acceleration              
Chan  2: 360 Deg                                                                
Rcrd of Fri Sep 18, 2020 23:38:39.0 PDT    Fri Sep 18, 2020 23:38:39.0 PDT      
Hypocenter:  To be determined.               ML:  To be determined.             
Instr Period =  .0050 sec,  Damping =  .707,  Sensitivity = 4.99 v/g  (Nominal) 
                        Record Length =301.000 sec.                             
                                     Uncor Max  =   .003 g, at   43.900 sec.    
RMS accel of (uncor) record  =        .   Chn. metadata effective date:         
Accelerogram bandpass filtered with 3 dB pts at   .30 and 23.00 cyc/sec         
                 instrument- and base-line correcte                             
                                                                                
                                                                                
                                                                                
                                                                                
                                                                                
Rcrd of Fri Sep 18, 2020 23:38:39.0 PDT    Fri Sep 18, 2020 23:38:39.0 PDT      
                                                                                
38695658.CI.LUC2.--.H     Lucerne Valley 2    Chan  2: 360 Deg                  
                                                                                
38695658.CI.LUC2.--.H     Lucerne Valley 2    Chan  2: 360 Deg                  
                                                                                
Units for spectra are inches and sec, except Sa is in fraction of g.            
                                                                                
    2  100    2    3    3  100 -999    3    1    0  605 4185    0    0   41    0
    6   38   39    8  263    9   19 2020   10    3  36036117   39   16   74 -999
36117 -999  100    6 -999 -999 -999 -999 -999 -999 -999 -999 -999 -999 -999 -999
 -999 -999 -999 -99915050    2 -999    0 -999   20 -999 -999    3    1 -99915050
    315050    4   78    1    3    5    0    0 -999    0 -999 -999    6 -999    2
    2    2    4 -999 -999 -999 -999 -999 -999 -999 -999    1 -999 -999 -999  111
    1    1 -999 -999
      .005      .707   361.170      .000     1.000  4986.484      .003    43.900
   200.000     2.384      .478  -999.000    10.000  -999.000     4.000  -999.000
    20.000   -32.919      .000  -999.000  -999.000  -999.000  -999.000     -.001
      .000      .001     2.000    15.000    34.456  -116.964      .001      .001
     1.161      .001      .001   886.000  -999.000  -999.000  -999.000  -999.000
     1.000  -999.000  -999.000  -999.000  -999.000  -999.000  -999.000   120.000
     -.900     2.000     6.800   980.665      .020   301.000    31.831      .000
  -999.000    23.000  -999.000   301.000      .020      .300  -999.000  -999.000
    43.900     2.713    44.620      .134    43.000     -.012      .000      .300
    23.000      .020      .020      .000      .020      .009  -999.000  -999.000
      .011      .220      .010      .009      .001      .000  -999.000  -999.000
  -999.000  -999.000  -999.000  -999.000  -999.000  -999.000  -999.000  -999.000
  -999.000  -999.000  -999.000  -999.000
      .050
      .040      .042      .044      .046      .048      .050      .055      .060
      .065      .070      .075      .080      .085      .090      .095      .100
      .110      .120      .130      .140      .150      .160      .170      .180
      .190      .200      .220      .240      .260      .280      .300      .320
      .340      .360      .380      .400      .420      .440      .460      .480
      .500      .550      .600      .650      .700      .750      .800      .850
      .900      .950     1.000     1.100     1.200     1.300     1.400     1.500
     1.600     1.700     1.800     1.900     2.000     2.200     2.400     2.600
     2.800     3.000     3.200     3.400     3.600     3.800     4.000     4.200
     4.400     4.600     4.800     5.000     5.500     6.000      .000      .000
      .000      .000      .000      .000      .000      .000      .000      .000
      .000      .000      .000      .000      .000      .000      .000      .000
      .000      .000      .000      .000
Fourier amplitude spectra in in/sec.
  .000E+00  .000E+00  .000E+00  .000E+00  .000E+00  .000E+00  .000E+00  .000E+00
  .000E+00  .000E+00  .000E+00  .000E+00  .000E+00  .000E+00  .000E+00  .000E+00
  .000E+00  .000E+00  .000E+00  .000E+00  .000E+00  .000E+00  .000E+00  .000E+00
  .000E+00  .000E+00  .000E+00  .000E+00  .000E+00  .000E+00  .000E+00  .000E+00
  .000E+00  .000E+00  .000E+00  .000E+00  .000E+00  .000E+00  .000E+00  .000E+00
  .000E+00  .000E+00  .000E+00  .000E+00  .000E+00  .000E+00  .000E+00  .000E+00
  .000E+00  .000E+00  .000E+00  .000E+00  .000E+00  .000E+00  .000E+00  .000E+00
  .000E+00  .000E+00  .000E+00  .000E+00  .000E+00  .000E+00  .000E+00  .000E+00
  .000E+00  .000E+00  .000E+00  .000E+00  .000E+00  .000E+00  .000E+00  .000E+00
  .000E+00  .000E+00  .000E+00  .000E+00  .000E+00  .000E+00  .000E+00  .000E+00
  .000E+00  .000E+00  .000E+00  .000E+00  .000E+00  .000E+00  .000E+00  .000E+00
  .000E+00  .000E+00  .000E+00  .000E+00  .000E+00  .000E+00  .000E+00  .000E+00
  .000E+00  .000E+00  .000E+00  .000E+00
Damping =  .05. Data of Sd,Sv,Sa,Pssv,ttSd,ttSv,ttSa :
  .443E-04  .493E-04  .545E-04  .604E-04  .658E-04  .715E-04  .909E-04  .117E-03
  .147E-03  .181E-03  .182E-03  .226E-03  .262E-03  .316E-03  .389E-03  .472E-03
  .718E-03  .827E-03  .942E-03  .113E-02  .142E-02  .204E-02  .274E-02  .282E-02
  .337E-02  .425E-02  .514E-02  .441E-02  .477E-02  .576E-02  .779E-02  .101E-01
  .117E-01  .116E-01  .103E-01  .993E-02  .921E-02  .826E-02  .754E-02  .748E-02
