Response and Fourier amplitude spectra (78 periods,  .04 -  6.0 sec)   for      
Corrected accelerogram   38695658.CI.LVY.--.HN      Chan  1:  90 Deg     from   
Uncorrected Accelerogram Data             Processed: 09/19/20, CGS  cilvy--h    
Rcrd of Fri Sep 18, 2020 23:38:39.0 PDT               (Avol1 v2.0, 4/18 CSMIP)  
                                        (Origin:  To be determined)             
38695658.CI.LVY.--.HN                Start time:  9/19/20, 06:38:39.0 UTC (GPS) 
Station Id. LVY     34.174N, 119.156W    ObsMMS  s/n 1846  (3 Chns of  6 at Sta)
Levy                                     SCSN   Data: Acceleration              
Chan  1:  90 Deg                                                                
Rcrd of Fri Sep 18, 2020 23:38:39.0 PDT    Fri Sep 18, 2020 23:38:39.0 PDT      
Hypocenter:  To be determined.               ML:  To be determined.             
Instr Period =  .0050 sec,  Damping =  .707,  Sensitivity = 5.00 v/g  (Nominal) 
                        Record Length =301.000 sec.                             
                                     Uncor Max  =  -.002 g, at   42.140 sec.    
RMS accel of (uncor) record  =        .   Chn. metadata effective date:         
Accelerogram bandpass filtered with 3 dB pts at   .30 and 23.00 cyc/sec         
                 instrument- and base-line correcte                             
                                                                                
                                                                                
                                                                                
                                                                                
                                                                                
Rcrd of Fri Sep 18, 2020 23:38:39.0 PDT    Fri Sep 18, 2020 23:38:39.0 PDT      
                                                                                
38695658.CI.LVY.--.HN     Levy    Chan  1:  90 Deg                              
                                                                                
38695658.CI.LVY.--.HN     Levy    Chan  1:  90 Deg                              
                                                                                
Units for spectra are inches and sec, except Sa is in fraction of g.            
                                                                                
    1  100    1    6    6  100 -999    3    1    0   15 1846    0    0   41    0
    6   38   39    0  263    9   19 2020   10    3   9035671   39    4   74 -999
35671 -999  100    6 -999 -999 -999 -999 -999 -999 -999 -999 -999 -999 -999 -999
 -999 -999 -999 -99915050    2 -999    0 -999   20 -999 -999    3    1 -99915050
    315050    4   78    1    3    5    0    0 -999    0 -999 -999    6 -999    2
    2    2    4 -999 -999 -999 -999 -999 -999 -999 -999    1 -999 -999 -999  111
    1    1 -999 -999
      .005      .707   356.710      .000     1.000  4996.457     -.002    42.140
   200.000     2.384      .477  -999.000    10.000  -999.000     4.000  -999.000
    20.000    -6.231      .000  -999.000  -999.000  -999.000  -999.000      .000
      .000      .000     2.000    15.000    34.174  -119.156      .009      .015
     1.617     -.002      .001    11.800  -999.000  -999.000  -999.000  -999.000
     1.000  -999.000    -8.000  -999.000  -999.000  -999.000  -999.000   120.000
     -.900     2.000     6.800   980.665      .020   301.000    31.831      .000
  -999.000    23.000  -999.000   301.000      .020      .300  -999.000  -999.000
    42.140    -1.807    39.000      .121    38.860     -.017      .000      .300
    23.000      .020      .020      .000      .020      .015  -999.000  -999.000
      .007      .120      .004      .004      .001      .000  -999.000  -999.000
  -999.000  -999.000  -999.000  -999.000  -999.000  -999.000  -999.000  -999.000
  -999.000  -999.000  -999.000  -999.000
      .050
      .040      .042      .044      .046      .048      .050      .055      .060
      .065      .070      .075      .080      .085      .090      .095      .100
      .110      .120      .130      .140      .150      .160      .170      .180
      .190      .200      .220      .240      .260      .280      .300      .320
      .340      .360      .380      .400      .420      .440      .460      .480
      .500      .550      .600      .650      .700      .750      .800      .850
      .900      .950     1.000     1.100     1.200     1.300     1.400     1.500
     1.600     1.700     1.800     1.900     2.000     2.200     2.400     2.600
     2.800     3.000     3.200     3.400     3.600     3.800     4.000     4.200
     4.400     4.600     4.800     5.000     5.500     6.000      .000      .000
      .000      .000      .000      .000      .000      .000      .000      .000
      .000      .000      .000      .000      .000      .000      .000      .000
      .000      .000      .000      .000
Fourier amplitude spectra in in/sec.
  .000E+00  .000E+00  .000E+00  .000E+00  .000E+00  .000E+00  .000E+00  .000E+00
  .000E+00  .000E+00  .000E+00  .000E+00  .000E+00  .000E+00  .000E+00  .000E+00
  .000E+00  .000E+00  .000E+00  .000E+00  .000E+00  .000E+00  .000E+00  .000E+00
  .000E+00  .000E+00  .000E+00  .000E+00  .000E+00  .000E+00  .000E+00  .000E+00
  .000E+00  .000E+00  .000E+00  .000E+00  .000E+00  .000E+00  .000E+00  .000E+00
  .000E+00  .000E+00  .000E+00  .000E+00  .000E+00  .000E+00  .000E+00  .000E+00
  .000E+00  .000E+00  .000E+00  .000E+00  .000E+00  .000E+00  .000E+00  .000E+00
  .000E+00  .000E+00  .000E+00  .000E+00  .000E+00  .000E+00  .000E+00  .000E+00
  .000E+00  .000E+00  .000E+00  .000E+00  .000E+00  .000E+00  .000E+00  .000E+00
  .000E+00  .000E+00  .000E+00  .000E+00  .000E+00  .000E+00  .000E+00  .000E+00
  .000E+00  .000E+00  .000E+00  .000E+00  .000E+00  .000E+00  .000E+00  .000E+00
  .000E+00  .000E+00  .000E+00  .000E+00  .000E+00  .000E+00  .000E+00  .000E+00
  .000E+00  .000E+00  .000E+00  .000E+00
Damping =  .05. Data of Sd,Sv,Sa,Pssv,ttSd,ttSv,ttSa :
  .288E-04  .321E-04  .352E-04  .381E-04  .421E-04  .472E-04  .590E-04  .771E-04
  .101E-03  .138E-03  .160E-03  .218E-03  .285E-03  .427E-03  .532E-03  .486E-03
  .649E-03  .962E-03  .710E-03  .956E-03  .125E-02  .150E-02  .120E-02  .123E-02
  .123E-02  .145E-02  .196E-02  .292E-02  .379E-02  .316E-02  .341E-02  .413E-02
  .413E-02  .438E-02  .483E-02  .448E-02  .507E-02  .569E-02  .593E-02  .678E-02
  .757E-02  .129E-01  .205E-01  .245E-01  .241E-01  .229E-01  .200E-01  .178E-01
  .154E-01  .136E-01  .116E-01  .112E-01  .977E-02  .119E-01  .109E-01  .125E-01
  .113E-01  .890E-02  .877E-02  .869E-02  .969E-02  .930E-02  .953E-02  .847E-02
  .889E-02  .871E-02  .823E-02  .895E-02  .101E-01  .937E-02  .704E-02  .703E-02
  .708E-02  .713E-02  .717E-02  .715E-02  .706E-02  .701E-02  .000E+00  .000E+00
  .000E+00  .000E+00  .000E+00  .000E+00  .000E+00  .000E+00  .000E+00  .000E+00
  .000E+00  .000E+00  .000E+00  .000E+00  .000E+00  .000E+00  .000E+00  .000E+00
  .000E+00  .000E+00  .000E+00  .000E+00
  .135E-02  .150E-02  .169E-02  .187E-02  .211E-02  .248E-02  .333E-02  .417E-02
  .590E-02  .906E-02  .115E-01  .137E-01  .178E-01  .284E-01  .339E-01  .286E-01
  .334E-01  .444E-01  .308E-01  .367E-01  .473E-01  .557E-01  .410E-01  .415E-01
  .429E-01  .446E-01  .563E-01  .712E-01  .938E-01  .708E-01  .664E-01  .688E-01
  .767E-01  .743E-01  .830E-01  .775E-01  .771E-01  .821E-01  .791E-01  .813E-01
  .891E-01  .138E+00  .217E+00  .242E+00  .234E+00  .213E+00  .183E+00  .152E+00
  .124E+00  .108E+00  .936E-01  .846E-01  .774E-01  .732E-01  .684E-01  .638E-01
  .592E-01  .584E-01  .570E-01  .558E-01  .557E-01  .562E-01  .570E-01  .564E-01
  .551E-01  .546E-01  .539E-01  .531E-01  .524E-01  .520E-01  .517E-01  .514E-01
  .510E-01  .507E-01  .503E-01  .500E-01  .495E-01  .492E-01  .000E+00  .000E+00
  .000E+00  .000E+00  .000E+00  .000E+00  .000E+00  .000E+00  .000E+00  .000E+00
  .000E+00  .000E+00  .000E+00  .000E+00  .000E+00  .000E+00  .000E+00  .000E+00
  .000E+00  .000E+00  .000E+00  .000E+00
  .184E-02  .186E-02  .186E-02  .185E-02  .187E-02  .193E-02  .200E-02  .219E-02
  .245E-02  .291E-02  .290E-02  .347E-02  .403E-02  .545E-02  .603E-02  .508E-02
  .551E-02  .678E-02  .435E-02  .500E-02  .574E-02  .594E-02  .422E-02  .390E-02
  .350E-02  .380E-02  .417E-02  .520E-02  .566E-02  .417E-02  .387E-02  .411E-02
  .370E-02  .351E-02  .343E-02  .286E-02  .296E-02  .304E-02  .288E-02  .305E-02
  .311E-02  .436E-02  .585E-02  .597E-02  .504E-02  .418E-02  .322E-02  .253E-02
  .195E-02  .155E-02  .120E-02  .958E-03  .701E-03  .725E-03  .578E-03  .572E-03
  .452E-03  .317E-03  .281E-03  .255E-03  .250E-03  .199E-03  .174E-03  .134E-03
  .122E-03  .105E-03  .859E-04  .800E-04  .798E-04  .674E-04  .499E-04  .463E-04
  .428E-04  .398E-04  .370E-04  .343E-04  .287E-04  .245E-04  .000E+00  .000E+00
  .000E+00  .000E+00  .000E+00  .000E+00  .000E+00  .000E+00  .000E+00  .000E+00
  .000E+00  .000E+00  .000E+00  .000E+00  .000E+00  .000E+00  .000E+00  .000E+00
  .000E+00  .000E+00  .000E+00  .000E+00
  .453E-02  .480E-02  .502E-02  .521E-02  .551E-02  .593E-02  .674E-02  .807E-02
  .974E-02  .124E-01  .134E-01  .172E-01  .211E-01  .298E-01  .352E-01  .305E-01
  .371E-01  .504E-01  .343E-01  .429E-01  .523E-01  .588E-01  .443E-01  .429E-01
  .408E-01  .456E-01  .558E-01  .764E-01  .915E-01  .708E-01  .714E-01  .811E-01
  .764E-01  .765E-01  .798E-01  .703E-01  .758E-01  .813E-01  .810E-01  .887E-01
  .951E-01  .147E+00  .214E+00  .237E+00  .216E+00  .192E+00  .157E+00  .131E+00
  .107E+00  .899E-01  .730E-01  .642E-01  .511E-01  .573E-01  .490E-01  .525E-01
  .442E-01  .329E-01  .306E-01  .287E-01  .304E-01  .266E-01  .250E-01  .205E-01
  .199E-01  .182E-01  .162E-01  .165E-01  .176E-01  .155E-01  .111E-01  .105E-01
  .101E-01  .975E-02  .938E-02  .899E-02  .806E-02  .734E-02  .000E+00  .000E+00
  .000E+00  .000E+00  .000E+00  .000E+00  .000E+00  .000E+00  .000E+00  .000E+00
  .000E+00  .000E+00  .000E+00  .000E+00  .000E+00  .000E+00  .000E+00  .000E+00
  .000E+00  .000E+00  .000E+00  .000E+00
  .421E+02  .421E+02  .421E+02  .434E+02  .421E+02  .421E+02  .421E+02  .421E+02
  .421E+02  .421E+02  .430E+02  .411E+02  .407E+02  .412E+02  .413E+02  .414E+02
  .419E+02  .419E+02  .419E+02  .427E+02  .427E+02  .427E+02  .432E+02  .410E+02
  .410E+02  .428E+02  .446E+02  .468E+02  .434E+02  .434E+02  .421E+02  .422E+02
  .422E+02  .428E+02  .440E+02  .458E+02  .475E+02  .577E+02  .580E+02  .597E+02
  .392E+02  .405E+02  .405E+02  .403E+02  .400E+02  .398E+02  .395E+02  .395E+02
  .395E+02  .424E+02  .425E+02  .574E+02  .392E+02  .438E+02  .433E+02  .779E+02
  .120E+03  .120E+03  .479E+02  .434E+02  .716E+02  .436E+02  .427E+02  .421E+02
  .421E+02  .421E+02  .780E+02  .958E+02  .876E+02  .878E+02  .862E+02  .388E+02
  .388E+02  .388E+02  .388E+02  .388E+02  .388E+02  .388E+02  .000E+00  .000E+00
  .000E+00  .000E+00  .000E+00  .000E+00  .000E+00  .000E+00  .000E+00  .000E+00
  .000E+00  .000E+00  .000E+00  .000E+00  .000E+00  .000E+00  .000E+00  .000E+00
  .000E+00  .000E+00  .000E+00  .000E+00
  .422E+02  .422E+02  .422E+02  .422E+02  .399E+02  .400E+02  .441E+02  .441E+02
  .441E+02  .429E+02  .429E+02  .411E+02  .412E+02  .412E+02  .412E+02  .413E+02
  .422E+02  .418E+02  .417E+02  .426E+02  .426E+02  .427E+02  .433E+02  .411E+02
  .410E+02  .429E+02  .446E+02  .467E+02  .435E+02  .435E+02  .422E+02  .480E+02
  .418E+02  .427E+02  .439E+02  .439E+02  .476E+02  .434E+02  .426E+02  .596E+02
  .602E+02  .400E+02  .407E+02  .404E+02  .402E+02  .399E+02  .396E+02  .397E+02
  .393E+02  .390E+02  .423E+02  .390E+02  .390E+02  .390E+02  .390E+02  .390E+02
  .390E+02  .390E+02  .390E+02  .390E+02  .390E+02  .390E+02  .390E+02  .390E+02
  .390E+02  .390E+02  .390E+02  .390E+02  .390E+02  .390E+02  .390E+02  .390E+02
  .390E+02  .390E+02  .390E+02  .390E+02  .390E+02  .390E+02  .000E+00  .000E+00
  .000E+00  .000E+00  .000E+00  .000E+00  .000E+00  .000E+00  .000E+00  .000E+00
  .000E+00  .000E+00  .000E+00  .000E+00  .000E+00  .000E+00  .000E+00  .000E+00
  .000E+00  .000E+00  .000E+00  .000E+00
  .421E+02  .421E+02  .421E+02  .434E+02  .421E+02  .421E+02  .421E+02  .421E+02
  .421E+02  .421E+02  .430E+02  .411E+02  .407E+02  .412E+02  .413E+02  .414E+02
  .419E+02  .419E+02  .419E+02  .427E+02  .427E+02  .427E+02  .402E+02  .410E+02
  .410E+02  .428E+02  .446E+02  .468E+02  .434E+02  .434E+02  .421E+02  .422E+02
  .422E+02  .428E+02  .440E+02  .458E+02  .475E+02  .577E+02  .580E+02  .597E+02
  .392E+02  .405E+02  .405E+02  .403E+02  .400E+02  .397E+02  .394E+02  .395E+02
  .395E+02  .424E+02  .425E+02  .574E+02  .392E+02  .438E+02  .433E+02  .778E+02
  .120E+03  .120E+03  .478E+02  .433E+02  .433E+02  .426E+02  .427E+02  .421E+02
  .421E+02  .421E+02  .421E+02  .957E+02  .875E+02  .877E+02  .388E+02  .388E+02
  .388E+02  .388E+02  .388E+02  .388E+02  .388E+02  .388E+02  .000E+00  .000E+00
  .000E+00  .000E+00  .000E+00  .000E+00  .000E+00  .000E+00  .000E+00  .000E+00
  .000E+00  .000E+00  .000E+00  .000E+00  .000E+00  .000E+00  .000E+00  .000E+00
  .000E+00  .000E+00  .000E+00  .000E+00
/&   ----------  End of spectral data for channel  1  ----------
Response and Fourier amplitude spectra (78 periods,  .04 -  6.0 sec)   for      
Corrected accelerogram   38695658.CI.LVY.--.HN      Chan  2: 360 Deg     from   
Uncorrected Accelerogram Data             Processed: 09/19/20, CGS  cilvy--h    
Rcrd of Fri Sep 18, 2020 23:38:39.0 PDT               (Avol1 v2.0, 4/18 CSMIP)  
                                        (Origin:  To be determined)             
38695658.CI.LVY.--.HN                Start time:  9/19/20, 06:38:39.0 UTC (GPS) 
Station Id. LVY     34.174N, 119.156W    ObsMMS  s/n 1846  (3 Chns of  6 at Sta)
Levy                                     SCSN   Data: Acceleration              
Chan  2: 360 Deg                                                                
Rcrd of Fri Sep 18, 2020 23:38:39.0 PDT    Fri Sep 18, 2020 23:38:39.0 PDT      
Hypocenter:  To be determined.               ML:  To be determined.             
Instr Period =  .0050 sec,  Damping =  .707,  Sensitivity = 4.99 v/g  (Nominal) 
                        Record Length =301.000 sec.                             
                                     Uncor Max  =  -.002 g, at   42.830 sec.    
RMS accel of (uncor) record  =        .   Chn. metadata effective date:         
Accelerogram bandpass filtered with 3 dB pts at   .30 and 23.00 cyc/sec         
                 instrument- and base-line correcte                             
                                                                                
                                                                                
                                                                                
                                                                                
                                                                                
Rcrd of Fri Sep 18, 2020 23:38:39.0 PDT    Fri Sep 18, 2020 23:38:39.0 PDT      
                                                                                
38695658.CI.LVY.--.HN     Levy    Chan  2: 360 Deg                              
                                                                                
38695658.CI.LVY.--.HN     Levy    Chan  2: 360 Deg                              
                                                                                
Units for spectra are inches and sec, except Sa is in fraction of g.            
                                                                                
    2  100    2    6    6  100 -999    3    1    0   15 1846    0    0   41    0
    6   38   39   10  263    9   19 2020   10    3  36035705   39    4   74 -999
35705 -999  100    6 -999 -999 -999 -999 -999 -999 -999 -999 -999 -999 -999 -999
 -999 -999 -999 -99915050    2 -999    0 -999   20 -999 -999    3    1 -99915050
    315050    4   78    1    3    5    0    0 -999    0 -999 -999    6 -999    2
    2    2    4 -999 -999 -999 -999 -999 -999 -999 -999    1 -999 -999 -999  111
    1    1 -999 -999
      .005      .707   357.050      .000     1.000  4986.484     -.002    42.830
   200.000     2.384      .478  -999.000    10.000  -999.000     4.000  -999.000
    20.000   -12.943      .000  -999.000  -999.000  -999.000  -999.000     -.009
      .008      .017     2.000    15.000    34.174  -119.156      .010      .023
     2.375      .014      .019    11.800  -999.000  -999.000  -999.000  -999.000
     1.000  -999.000  -999.000  -999.000  -999.000  -999.000  -999.000   120.000
     -.900     2.000     6.800   980.665      .020   301.000    31.831     -.001
  -999.000    23.000  -999.000   301.000      .020      .300  -999.000  -999.000
    42.820    -1.975    39.680      .094    38.700     -.013      .000      .300
    23.000      .020      .020      .000      .020      .014  -999.000  -999.000
      .008      .150      .005      .004      .001      .000  -999.000  -999.000
  -999.000  -999.000  -999.000  -999.000  -999.000  -999.000  -999.000  -999.000
  -999.000  -999.000  -999.000  -999.000
      .050
      .040      .042      .044      .046      .048      .050      .055      .060
      .065      .070      .075      .080      .085      .090      .095      .100
      .110      .120      .130      .140      .150      .160      .170      .180
      .190      .200      .220      .240      .260      .280      .300      .320
      .340      .360      .380      .400      .420      .440      .460      .480
      .500      .550      .600      .650      .700      .750      .800      .850
      .900      .950     1.000     1.100     1.200     1.300     1.400     1.500
     1.600     1.700     1.800     1.900     2.000     2.200     2.400     2.600
     2.800     3.000     3.200     3.400     3.600     3.800     4.000     4.200
     4.400     4.600     4.800     5.000     5.500     6.000      .000      .000
      .000      .000      .000      .000      .000      .000      .000      .000
      .000      .000      .000      .000      .000      .000      .000      .000
      .000      .000      .000      .000
Fourier amplitude spectra in in/sec.
  .000E+00  .000E+00  .000E+00  .000E+00  .000E+00  .000E+00  .000E+00  .000E+00
  .000E+00  .000E+00  .000E+00  .000E+00  .000E+00  .000E+00  .000E+00  .000E+00
  .000E+00  .000E+00  .000E+00  .000E+00  .000E+00  .000E+00  .000E+00  .000E+00
  .000E+00  .000E+00  .000E+00  .000E+00  .000E+00  .000E+00  .000E+00  .000E+00
  .000E+00  .000E+00  .000E+00  .000E+00  .000E+00  .000E+00  .000E+00  .000E+00
  .000E+00  .000E+00  .000E+00  .000E+00  .000E+00  .000E+00  .000E+00  .000E+00
  .000E+00  .000E+00  .000E+00  .000E+00  .000E+00  .000E+00  .000E+00  .000E+00
  .000E+00  .000E+00  .000E+00  .000E+00  .000E+00  .000E+00  .000E+00  .000E+00
  .000E+00  .000E+00  .000E+00  .000E+00  .000E+00  .000E+00  .000E+00  .000E+00
  .000E+00  .000E+00  .000E+00  .000E+00  .000E+00  .000E+00  .000E+00  .000E+00
  .000E+00  .000E+00  .000E+00  .000E+00  .000E+00  .000E+00  .000E+00  .000E+00
  .000E+00  .000E+00  .000E+00  .000E+00  .000E+00  .000E+00  .000E+00  .000E+00
  .000E+00  .000E+00  .000E+00  .000E+00
Damping =  .05. Data of Sd,Sv,Sa,Pssv,ttSd,ttSv,ttSa :
  .342E-04  .381E-04  .424E-04  .475E-04  .526E-04  .565E-04  .794E-04  .103E-03
  .133E-03  .153E-03  .181E-03  .247E-03  .315E-03  .369E-03  .407E-03  .440E-03
  .677E-03  .992E-03  .114E-02  .110E-02  .166E-02  .184E-02  .162E-02  .172E-02
  .172E-02  .185E-02  .277E-02  .311E-02  .307E-02  .293E-02  .323E-02  .320E-02
  .366E-02  .497E-02  .555E-02  .628E-02  .633E-02  .716E-02  .780E-02  .763E-02
