Response and Fourier amplitude spectra (78 periods,  .04 -  6.0 sec)   for      
Corrected accelerogram   38695658.CI.MES.--.HN      Chan  1:  90 Deg     from   
Uncorrected Accelerogram Data             Processed: 09/19/20, CGS  cimes--e    
Rcrd of Fri Sep 18, 2020 23:38:39.0 PDT               (Avol1 v2.0, 4/18 CSMIP)  
                                        (Origin:  To be determined)             
38695658.CI.MES.--.HN                Start time:  9/19/20, 06:38:39.0 UTC (GPS) 
Station Id. MES     34.263N, 119.096W    ObsMMS  s/n  907  (3 Chns of  6 at Sta)
Mesa Elementary School                   SCSN   Data: Acceleration              
Chan  1:  90 Deg                                                                
Rcrd of Fri Sep 18, 2020 23:38:39.0 PDT    Fri Sep 18, 2020 23:38:39.0 PDT      
Hypocenter:  To be determined.               ML:  To be determined.             
Instr Period =  .0050 sec,  Damping =  .707,  Sensitivity = 4.98 v/g  (Nominal) 
                        Record Length =301.000 sec.                             
                                     Uncor Max  =   .004 g, at   38.720 sec.    
RMS accel of (uncor) record  =        .   Chn. metadata effective date:         
Accelerogram bandpass filtered with 3 dB pts at   .30 and 23.00 cyc/sec         
                 instrument- and base-line correcte                             
                                                                                
                                                                                
                                                                                
                                                                                
                                                                                
Rcrd of Fri Sep 18, 2020 23:38:39.0 PDT    Fri Sep 18, 2020 23:38:39.0 PDT      
                                                                                
38695658.CI.MES.--.HN     Mesa Elementary School    Chan  1:  90 Deg            
                                                                                
38695658.CI.MES.--.HN     Mesa Elementary School    Chan  1:  90 Deg            
                                                                                
Units for spectra are inches and sec, except Sa is in fraction of g.            
                                                                                
    1  100    1    6    6  100 -999    3    1    0   15  907    0    0   41    0
    6   38   39   10  263    9   19 2020   10    3   9035826   39   22   74 -999
35826 -999  100    6 -999 -999 -999 -999 -999 -999 -999 -999 -999 -999 -999 -999
 -999 -999 -999 -99915050    2 -999    0 -999   20 -999 -999    3    1 753315050
    315050    4   78    1    3    5    0    0 -999    0 -999 -999    6 -999    2
    2    2    4 -999 -999 -999 -999 -999 -999 -999 -999    1 -999 -999 -999  111
    1    1 -999 -999
      .005      .707   358.260      .000     1.000  4977.686      .004    38.720
   200.000     2.384      .479  -999.000    10.000  -999.000     4.000  -999.000
    20.000    -1.155      .000  -999.000  -999.000  -999.000  -999.000      .006
     -.007     -.013     2.000    15.000    34.263  -119.096      .004      .004
     1.052     -.014     -.012    69.200  -999.000  -999.000  -999.000  -999.000
     1.000  -999.000    -8.000  -999.000  -999.000  -999.000  -999.000   120.000
     -.900     2.000     6.800   980.665      .020   301.000    31.831      .001
  -999.000    23.000  -999.000   301.000      .020      .300  -999.000  -999.000
    38.720     3.720    38.300      .148    38.100     -.014      .000      .300
    23.000      .020      .020      .000      .020      .015  -999.000  -999.000
      .014      .220      .013      .008      .001      .000  -999.000  -999.000
  -999.000  -999.000  -999.000  -999.000  -999.000  -999.000  -999.000  -999.000
  -999.000  -999.000  -999.000  -999.000
      .050
      .040      .042      .044      .046      .048      .050      .055      .060
      .065      .070      .075      .080      .085      .090      .095      .100
      .110      .120      .130      .140      .150      .160      .170      .180
      .190      .200      .220      .240      .260      .280      .300      .320
      .340      .360      .380      .400      .420      .440      .460      .480
      .500      .550      .600      .650      .700      .750      .800      .850
      .900      .950     1.000     1.100     1.200     1.300     1.400     1.500
     1.600     1.700     1.800     1.900     2.000     2.200     2.400     2.600
     2.800     3.000     3.200     3.400     3.600     3.800     4.000     4.200
     4.400     4.600     4.800     5.000     5.500     6.000      .000      .000
      .000      .000      .000      .000      .000      .000      .000      .000
      .000      .000      .000      .000      .000      .000      .000      .000
      .000      .000      .000      .000
Fourier amplitude spectra in in/sec.
  .000E+00  .000E+00  .000E+00  .000E+00  .000E+00  .000E+00  .000E+00  .000E+00
  .000E+00  .000E+00  .000E+00  .000E+00  .000E+00  .000E+00  .000E+00  .000E+00
  .000E+00  .000E+00  .000E+00  .000E+00  .000E+00  .000E+00  .000E+00  .000E+00
  .000E+00  .000E+00  .000E+00  .000E+00  .000E+00  .000E+00  .000E+00  .000E+00
  .000E+00  .000E+00  .000E+00  .000E+00  .000E+00  .000E+00  .000E+00  .000E+00
  .000E+00  .000E+00  .000E+00  .000E+00  .000E+00  .000E+00  .000E+00  .000E+00
  .000E+00  .000E+00  .000E+00  .000E+00  .000E+00  .000E+00  .000E+00  .000E+00
  .000E+00  .000E+00  .000E+00  .000E+00  .000E+00  .000E+00  .000E+00  .000E+00
  .000E+00  .000E+00  .000E+00  .000E+00  .000E+00  .000E+00  .000E+00  .000E+00
  .000E+00  .000E+00  .000E+00  .000E+00  .000E+00  .000E+00  .000E+00  .000E+00
  .000E+00  .000E+00  .000E+00  .000E+00  .000E+00  .000E+00  .000E+00  .000E+00
  .000E+00  .000E+00  .000E+00  .000E+00  .000E+00  .000E+00  .000E+00  .000E+00
  .000E+00  .000E+00  .000E+00  .000E+00
Damping =  .05. Data of Sd,Sv,Sa,Pssv,ttSd,ttSv,ttSa :
  .593E-04  .657E-04  .725E-04  .797E-04  .876E-04  .960E-04  .120E-03  .144E-03
  .171E-03  .237E-03  .291E-03  .317E-03  .378E-03  .518E-03  .588E-03  .653E-03
  .906E-03  .108E-02  .127E-02  .197E-02  .286E-02  .348E-02  .359E-02  .386E-02
  .429E-02  .441E-02  .665E-02  .692E-02  .901E-02  .708E-02  .662E-02  .566E-02
  .691E-02  .777E-02  .861E-02  .911E-02  .876E-02  .101E-01  .116E-01  .128E-01
  .136E-01  .155E-01  .193E-01  .195E-01  .170E-01  .125E-01  .981E-02  .106E-01
  .116E-01  .125E-01  .133E-01  .142E-01  .118E-01  .109E-01  .111E-01  .101E-01
  .114E-01  .120E-01  .175E-01  .165E-01  .129E-01  .121E-01  .118E-01  .117E-01
  .887E-02  .773E-02  .850E-02  .946E-02  .864E-02  .741E-02  .656E-02  .635E-02
  .621E-02  .615E-02  .609E-02  .605E-02  .591E-02  .585E-02  .000E+00  .000E+00
  .000E+00  .000E+00  .000E+00  .000E+00  .000E+00  .000E+00  .000E+00  .000E+00
  .000E+00  .000E+00  .000E+00  .000E+00  .000E+00  .000E+00  .000E+00  .000E+00
  .000E+00  .000E+00  .000E+00  .000E+00
  .208E-02  .230E-02  .253E-02  .276E-02  .299E-02  .323E-02  .470E-02  .675E-02
  .862E-02  .109E-01  .113E-01  .144E-01  .191E-01  .246E-01  .294E-01  .325E-01
  .440E-01  .472E-01  .494E-01  .685E-01  .988E-01  .119E+00  .121E+00  .119E+00
  .133E+00  .130E+00  .178E+00  .176E+00  .211E+00  .164E+00  .146E+00  .124E+00
  .133E+00  .150E+00  .128E+00  .142E+00  .157E+00  .173E+00  .180E+00  .174E+00
  .175E+00  .174E+00  .217E+00  .213E+00  .171E+00  .113E+00  .963E-01  .900E-01
  .870E-01  .995E-01  .904E-01  .895E-01  .734E-01  .729E-01  .733E-01  .716E-01
  .705E-01  .736E-01  .748E-01  .749E-01  .742E-01  .748E-01  .730E-01  .693E-01
  .666E-01  .649E-01  .640E-01  .630E-01  .622E-01  .616E-01  .611E-01  .607E-01
  .603E-01  .599E-01  .596E-01  .594E-01  .590E-01  .587E-01  .000E+00  .000E+00
  .000E+00  .000E+00  .000E+00  .000E+00  .000E+00  .000E+00  .000E+00  .000E+00
  .000E+00  .000E+00  .000E+00  .000E+00  .000E+00  .000E+00  .000E+00  .000E+00
  .000E+00  .000E+00  .000E+00  .000E+00
  .380E-02  .381E-02  .383E-02  .385E-02  .389E-02  .393E-02  .406E-02  .409E-02
  .414E-02  .500E-02  .527E-02  .510E-02  .541E-02  .658E-02  .670E-02  .679E-02
  .774E-02  .777E-02  .761E-02  .102E-01  .130E-01  .140E-01  .129E-01  .122E-01
  .123E-01  .113E-01  .142E-01  .125E-01  .138E-01  .921E-02  .761E-02  .573E-02
  .622E-02  .616E-02  .611E-02  .580E-02  .516E-02  .531E-02  .563E-02  .577E-02
  .559E-02  .525E-02  .552E-02  .474E-02  .358E-02  .231E-02  .159E-02  .151E-02
  .147E-02  .143E-02  .137E-02  .121E-02  .845E-03  .663E-03  .580E-03  .459E-03
  .459E-03  .425E-03  .554E-03  .471E-03  .331E-03  .259E-03  .211E-03  .180E-03
  .117E-03  .921E-04  .859E-04  .847E-04  .689E-04  .549E-04  .504E-04  .464E-04
  .430E-04  .397E-04  .368E-04  .343E-04  .291E-04  .252E-04  .000E+00  .000E+00
  .000E+00  .000E+00  .000E+00  .000E+00  .000E+00  .000E+00  .000E+00  .000E+00
  .000E+00  .000E+00  .000E+00  .000E+00  .000E+00  .000E+00  .000E+00  .000E+00
  .000E+00  .000E+00  .000E+00  .000E+00
  .932E-02  .983E-02  .103E-01  .109E-01  .115E-01  .121E-01  .137E-01  .151E-01
  .165E-01  .213E-01  .244E-01  .249E-01  .280E-01  .362E-01  .389E-01  .411E-01
  .518E-01  .564E-01  .612E-01  .886E-01  .120E+00  .137E+00  .133E+00  .135E+00
  .142E+00  .139E+00  .190E+00  .181E+00  .218E+00  .159E+00  .139E+00  .111E+00
  .128E+00  .136E+00  .142E+00  .143E+00  .131E+00  .144E+00  .158E+00  .168E+00
  .171E+00  .177E+00  .202E+00  .188E+00  .152E+00  .105E+00  .771E-01  .785E-01
  .810E-01  .830E-01  .833E-01  .812E-01  .618E-01  .525E-01  .496E-01  .421E-01
  .448E-01  .442E-01  .610E-01  .546E-01  .404E-01  .346E-01  .309E-01  .283E-01
  .199E-01  .162E-01  .167E-01  .175E-01  .151E-01  .123E-01  .103E-01  .949E-02
  .886E-02  .840E-02  .797E-02  .760E-02  .675E-02  .613E-02  .000E+00  .000E+00
  .000E+00  .000E+00  .000E+00  .000E+00  .000E+00  .000E+00  .000E+00  .000E+00
  .000E+00  .000E+00  .000E+00  .000E+00  .000E+00  .000E+00  .000E+00  .000E+00
  .000E+00  .000E+00  .000E+00  .000E+00
  .387E+02  .387E+02  .387E+02  .387E+02  .387E+02  .387E+02  .387E+02  .387E+02
  .387E+02  .387E+02  .387E+02  .387E+02  .393E+02  .393E+02  .393E+02  .393E+02
  .393E+02  .393E+02  .387E+02  .387E+02  .387E+02  .387E+02  .388E+02  .395E+02
  .395E+02  .395E+02  .388E+02  .388E+02  .397E+02  .402E+02  .402E+02  .408E+02
  .408E+02  .408E+02  .381E+02  .382E+02  .382E+02  .385E+02  .385E+02  .385E+02
  .385E+02  .394E+02  .398E+02  .399E+02  .396E+02  .396E+02  .397E+02  .501E+02
  .526E+02  .522E+02  .523E+02  .519E+02  .515E+02  .515E+02  .996E+02  .858E+02
  .859E+02  .860E+02  .861E+02  .854E+02  .781E+02  .782E+02  .774E+02  .765E+02
  .745E+02  .391E+02  .746E+02  .856E+02  .705E+02  .692E+02  .391E+02  .391E+02
  .381E+02  .381E+02  .381E+02  .381E+02  .381E+02  .381E+02  .000E+00  .000E+00
  .000E+00  .000E+00  .000E+00  .000E+00  .000E+00  .000E+00  .000E+00  .000E+00
  .000E+00  .000E+00  .000E+00  .000E+00  .000E+00  .000E+00  .000E+00  .000E+00
  .000E+00  .000E+00  .000E+00  .000E+00
  .387E+02  .387E+02  .387E+02  .387E+02  .387E+02  .387E+02  .394E+02  .395E+02
  .407E+02  .386E+02  .386E+02  .393E+02  .393E+02  .393E+02  .404E+02  .404E+02
  .400E+02  .393E+02  .424E+02  .387E+02  .388E+02  .388E+02  .388E+02  .395E+02
  .395E+02  .395E+02  .388E+02  .387E+02  .398E+02  .402E+02  .401E+02  .408E+02
  .409E+02  .407E+02  .381E+02  .381E+02  .385E+02  .386E+02  .386E+02  .386E+02
  .389E+02  .389E+02  .399E+02  .397E+02  .398E+02  .395E+02  .383E+02  .383E+02
  .383E+02  .524E+02  .525E+02  .521E+02  .396E+02  .396E+02  .396E+02  .396E+02
  .392E+02  .392E+02  .392E+02  .392E+02  .392E+02  .392E+02  .392E+02  .392E+02
  .392E+02  .383E+02  .383E+02  .383E+02  .383E+02  .383E+02  .383E+02  .383E+02
  .383E+02  .383E+02  .383E+02  .383E+02  .383E+02  .383E+02  .000E+00  .000E+00
  .000E+00  .000E+00  .000E+00  .000E+00  .000E+00  .000E+00  .000E+00  .000E+00
  .000E+00  .000E+00  .000E+00  .000E+00  .000E+00  .000E+00  .000E+00  .000E+00
  .000E+00  .000E+00  .000E+00  .000E+00
  .387E+02  .387E+02  .387E+02  .387E+02  .387E+02  .387E+02  .387E+02  .387E+02
  .387E+02  .387E+02  .387E+02  .387E+02  .393E+02  .393E+02  .393E+02  .393E+02
  .400E+02  .393E+02  .387E+02  .387E+02  .387E+02  .387E+02  .388E+02  .395E+02
  .395E+02  .406E+02  .388E+02  .388E+02  .397E+02  .402E+02  .402E+02  .381E+02
  .408E+02  .408E+02  .381E+02  .381E+02  .382E+02  .384E+02  .385E+02  .385E+02
  .385E+02  .394E+02  .398E+02  .399E+02  .396E+02  .396E+02  .396E+02  .501E+02
  .526E+02  .522E+02  .523E+02  .519E+02  .515E+02  .515E+02  .996E+02  .858E+02
  .859E+02  .860E+02  .861E+02  .854E+02  .780E+02  .781E+02  .774E+02  .764E+02
  .745E+02  .390E+02  .746E+02  .855E+02  .705E+02  .380E+02  .380E+02  .380E+02
  .380E+02  .380E+02  .380E+02  .380E+02  .380E+02  .380E+02  .000E+00  .000E+00
  .000E+00  .000E+00  .000E+00  .000E+00  .000E+00  .000E+00  .000E+00  .000E+00
  .000E+00  .000E+00  .000E+00  .000E+00  .000E+00  .000E+00  .000E+00  .000E+00
  .000E+00  .000E+00  .000E+00  .000E+00
/&   ----------  End of spectral data for channel  1  ----------
Response and Fourier amplitude spectra (78 periods,  .04 -  6.0 sec)   for      
Corrected accelerogram   38695658.CI.MES.--.HN      Chan  2: 360 Deg     from   
Uncorrected Accelerogram Data             Processed: 09/19/20, CGS  cimes--e    
Rcrd of Fri Sep 18, 2020 23:38:39.0 PDT               (Avol1 v2.0, 4/18 CSMIP)  
                                        (Origin:  To be determined)             
38695658.CI.MES.--.HN                Start time:  9/19/20, 06:38:39.0 UTC (GPS) 
Station Id. MES     34.263N, 119.096W    ObsMMS  s/n  907  (3 Chns of  6 at Sta)
Mesa Elementary School                   SCSN   Data: Acceleration              
Chan  2: 360 Deg                                                                
Rcrd of Fri Sep 18, 2020 23:38:39.0 PDT    Fri Sep 18, 2020 23:38:39.0 PDT      
Hypocenter:  To be determined.               ML:  To be determined.             
Instr Period =  .0050 sec,  Damping =  .707,  Sensitivity = 4.97 v/g  (Nominal) 
                        Record Length =301.000 sec.                             
                                     Uncor Max  =  -.003 g, at   39.430 sec.    
RMS accel of (uncor) record  =        .   Chn. metadata effective date:         
Accelerogram bandpass filtered with 3 dB pts at   .30 and 23.00 cyc/sec         
                 instrument- and base-line correcte                             
                                                                                
                                                                                
                                                                                
                                                                                
                                                                                
Rcrd of Fri Sep 18, 2020 23:38:39.0 PDT    Fri Sep 18, 2020 23:38:39.0 PDT      
                                                                                
38695658.CI.MES.--.HN     Mesa Elementary School    Chan  2: 360 Deg            
                                                                                
38695658.CI.MES.--.HN     Mesa Elementary School    Chan  2: 360 Deg            
                                                                                
Units for spectra are inches and sec, except Sa is in fraction of g.            
                                                                                
    2  100    2    6    6  100 -999    3    1    0   15  907    0    0   41    0
    6   38   39    0  263    9   19 2020   10    3  36035703   39   22   74 -999
35703 -999  100    6 -999 -999 -999 -999 -999 -999 -999 -999 -999 -999 -999 -999
 -999 -999 -999 -99915050    2 -999    0 -999   20 -999 -999    3    1 753315050
    315050    4   78    1    3    5    0    0 -999    0 -999 -999    6 -999    2
    2    2    4 -999 -999 -999 -999 -999 -999 -999 -999    1 -999 -999 -999  111
    1    1 -999 -999
      .005      .707   357.030      .000     1.000  4974.694     -.003    39.430
   200.000     2.384      .479  -999.000    10.000  -999.000     4.000  -999.000
    20.000   -19.733      .000  -999.000  -999.000  -999.000  -999.000     -.005
      .004      .009     2.000    15.000    34.263  -119.096      .009      .008
      .855      .007      .011    69.200  -999.000  -999.000  -999.000  -999.000
     1.000  -999.000  -999.000  -999.000  -999.000  -999.000  -999.000   120.000
     -.900     2.000     6.800   980.665      .020   301.000    31.831     -.001
  -999.000    23.000  -999.000   301.000      .020      .300  -999.000  -999.000
    39.420    -2.845    39.060     -.153    38.480     -.010      .000      .300
    23.000      .020      .020      .000      .020      .014  -999.000  -999.000
      .011      .140      .009      .008      .001      .000  -999.000  -999.000
  -999.000  -999.000  -999.000  -999.000  -999.000  -999.000  -999.000  -999.000
  -999.000  -999.000  -999.000  -999.000
      .050
      .040      .042      .044      .046      .048      .050      .055      .060
      .065      .070      .075      .080      .085      .090      .095      .100
      .110      .120      .130      .140      .150      .160      .170      .180
      .190      .200      .220      .240      .260      .280      .300      .320
      .340      .360      .380      .400      .420      .440      .460      .480
      .500      .550      .600      .650      .700      .750      .800      .850
      .900      .950     1.000     1.100     1.200     1.300     1.400     1.500
     1.600     1.700     1.800     1.900     2.000     2.200     2.400     2.600
     2.800     3.000     3.200     3.400     3.600     3.800     4.000     4.200
     4.400     4.600     4.800     5.000     5.500     6.000      .000      .000
      .000      .000      .000      .000      .000      .000      .000      .000
      .000      .000      .000      .000      .000      .000      .000      .000
      .000      .000      .000      .000
Fourier amplitude spectra in in/sec.
  .000E+00  .000E+00  .000E+00  .000E+00  .000E+00  .000E+00  .000E+00  .000E+00
  .000E+00  .000E+00  .000E+00  .000E+00  .000E+00  .000E+00  .000E+00  .000E+00
  .000E+00  .000E+00  .000E+00  .000E+00  .000E+00  .000E+00  .000E+00  .000E+00
  .000E+00  .000E+00  .000E+00  .000E+00  .000E+00  .000E+00  .000E+00  .000E+00
  .000E+00  .000E+00  .000E+00  .000E+00  .000E+00  .000E+00  .000E+00  .000E+00
  .000E+00  .000E+00  .000E+00  .000E+00  .000E+00  .000E+00  .000E+00  .000E+00
  .000E+00  .000E+00  .000E+00  .000E+00  .000E+00  .000E+00  .000E+00  .000E+00
  .000E+00  .000E+00  .000E+00  .000E+00  .000E+00  .000E+00  .000E+00  .000E+00
  .000E+00  .000E+00  .000E+00  .000E+00  .000E+00  .000E+00  .000E+00  .000E+00
  .000E+00  .000E+00  .000E+00  .000E+00  .000E+00  .000E+00  .000E+00  .000E+00
  .000E+00  .000E+00  .000E+00  .000E+00  .000E+00  .000E+00  .000E+00  .000E+00
  .000E+00  .000E+00  .000E+00  .000E+00  .000E+00  .000E+00  .000E+00  .000E+00
  .000E+00  .000E+00  .000E+00  .000E+00
Damping =  .05. Data of Sd,Sv,Sa,Pssv,ttSd,ttSv,ttSa :
  .497E-04  .551E-04  .611E-04  .676E-04  .751E-04  .841E-04  .107E-03  .136E-03
  .157E-03  .207E-03  .235E-03  .266E-03  .355E-03  .454E-03  .581E-03  .670E-03
  .831E-03  .146E-02  .165E-02  .201E-02  .178E-02  .175E-02  .159E-02  .196E-02
  .306E-02  .388E-02  .413E-02  .424E-02  .389E-02  .538E-02  .728E-02  .916E-02
  .109E-01  .127E-01  .137E-01  .127E-01  .105E-01  .100E-01  .889E-02  .993E-02
