Response and Fourier amplitude spectra (78 periods,  .04 -  6.0 sec)   for      
Corrected accelerogram   38695658.CI.MGE.--.HN      Chan  1:  90 Deg     from   
Uncorrected Accelerogram Data             Processed: 09/19/20, CGS  cimge--n    
Rcrd of Fri Sep 18, 2020 23:38:47.0 PDT               (Avol1 v2.0, 4/18 CSMIP)  
                                        (Origin:  To be determined)             
38695658.CI.MGE.--.HN                Start time:  9/19/20, 06:38:47.0 UTC (GPS) 
Station Id. MGE     33.818N, 116.369W    ObsMMS  s/n 3808  (3 Chns of  3 at Sta)
Thousand Palms, Ramon Rd.                SCSN   Data: Acceleration              
Chan  1:  90 Deg                                                                
Rcrd of Fri Sep 18, 2020 23:38:47.0 PDT    Fri Sep 18, 2020 23:38:47.0 PDT      
Hypocenter:  To be determined.               ML:  To be determined.             
Instr Period =  .0050 sec,  Damping =  .707,  Sensitivity = 4.99 v/g  (Nominal) 
                        Record Length =301.000 sec.                             
                                     Uncor Max  =   .001 g, at   51.760 sec.    
RMS accel of (uncor) record  =        .   Chn. metadata effective date:         
Accelerogram bandpass filtered with 3 dB pts at   .30 and 23.00 cyc/sec         
                 instrument- and base-line correcte                             
                                                                                
                                                                                
                                                                                
                                                                                
                                                                                
Rcrd of Fri Sep 18, 2020 23:38:47.0 PDT    Fri Sep 18, 2020 23:38:47.0 PDT      
                                                                                
38695658.CI.MGE.--.HN     Thousand Palms, Ramon Rd.   Chan  1:  90 Deg          
                                                                                
38695658.CI.MGE.--.HN     Thousand Palms, Ramon Rd.   Chan  1:  90 Deg          
                                                                                
Units for spectra are inches and sec, except Sa is in fraction of g.            
                                                                                
    1  100    1    3    3  100 -999    3    1    0   15 3808    050627   41    0
    6   38   47    8  263    9   19 2020   10    3   9035808   39   25   74 -999
35808 -999  100    6 -999 -999 -999 -999 -999 -999 -999 -999 -999 -999 -999 -999
 -999 -999 -999 -99915050    2 -999    0 -999   20 -999 -999    3    1 -99915050
    315050    4   78    1    3    5    0    0 -999    0 -999 -999    6 -999    2
    2    2    4 -999 -999 -999 -999 -999 -999 -999 -999    1 -999 -999 -999  111
    1    1 -999 -999
      .005      .707   358.080      .000     1.000  4986.484      .001    51.760
   200.000     2.384      .478  -999.000    10.000  -999.000     4.000  -999.000
    20.000     9.341      .000  -999.000  -999.000  -999.000  -999.000     -.001
      .000      .001     2.000    15.000    33.818  -116.369      .004      .007
     1.752      .000      .002    68.000  -999.000  -999.000  -999.000  -999.000
     1.000  -999.000    -8.000  -999.000  -999.000  -999.000  -999.000   120.000
     -.900     2.000     6.800   980.665      .020   301.000    31.831      .000
  -999.000    23.000  -999.000   301.000      .020      .300  -999.000  -999.000
    51.760     1.005    51.700     -.043    54.740      .006      .000      .300
    23.000      .020      .020      .000      .020      .006  -999.000  -999.000
      .005      .150      .003      .002      .001      .000  -999.000  -999.000
  -999.000  -999.000  -999.000  -999.000  -999.000  -999.000  -999.000  -999.000
  -999.000  -999.000  -999.000  -999.000
      .050
      .040      .042      .044      .046      .048      .050      .055      .060
      .065      .070      .075      .080      .085      .090      .095      .100
      .110      .120      .130      .140      .150      .160      .170      .180
      .190      .200      .220      .240      .260      .280      .300      .320
      .340      .360      .380      .400      .420      .440      .460      .480
      .500      .550      .600      .650      .700      .750      .800      .850
      .900      .950     1.000     1.100     1.200     1.300     1.400     1.500
     1.600     1.700     1.800     1.900     2.000     2.200     2.400     2.600
     2.800     3.000     3.200     3.400     3.600     3.800     4.000     4.200
     4.400     4.600     4.800     5.000     5.500     6.000      .000      .000
      .000      .000      .000      .000      .000      .000      .000      .000
      .000      .000      .000      .000      .000      .000      .000      .000
      .000      .000      .000      .000
Fourier amplitude spectra in in/sec.
  .000E+00  .000E+00  .000E+00  .000E+00  .000E+00  .000E+00  .000E+00  .000E+00
  .000E+00  .000E+00  .000E+00  .000E+00  .000E+00  .000E+00  .000E+00  .000E+00
  .000E+00  .000E+00  .000E+00  .000E+00  .000E+00  .000E+00  .000E+00  .000E+00
  .000E+00  .000E+00  .000E+00  .000E+00  .000E+00  .000E+00  .000E+00  .000E+00
  .000E+00  .000E+00  .000E+00  .000E+00  .000E+00  .000E+00  .000E+00  .000E+00
  .000E+00  .000E+00  .000E+00  .000E+00  .000E+00  .000E+00  .000E+00  .000E+00
  .000E+00  .000E+00  .000E+00  .000E+00  .000E+00  .000E+00  .000E+00  .000E+00
  .000E+00  .000E+00  .000E+00  .000E+00  .000E+00  .000E+00  .000E+00  .000E+00
  .000E+00  .000E+00  .000E+00  .000E+00  .000E+00  .000E+00  .000E+00  .000E+00
  .000E+00  .000E+00  .000E+00  .000E+00  .000E+00  .000E+00  .000E+00  .000E+00
  .000E+00  .000E+00  .000E+00  .000E+00  .000E+00  .000E+00  .000E+00  .000E+00
  .000E+00  .000E+00  .000E+00  .000E+00  .000E+00  .000E+00  .000E+00  .000E+00
  .000E+00  .000E+00  .000E+00  .000E+00
Damping =  .05. Data of Sd,Sv,Sa,Pssv,ttSd,ttSv,ttSa :
  .167E-04  .186E-04  .203E-04  .231E-04  .264E-04  .299E-04  .436E-04  .628E-04
  .660E-04  .777E-04  .101E-03  .156E-03  .164E-03  .171E-03  .202E-03  .242E-03
  .330E-03  .447E-03  .676E-03  .846E-03  .991E-03  .998E-03  .820E-03  .877E-03
  .109E-02  .129E-02  .176E-02  .217E-02  .211E-02  .232E-02  .214E-02  .188E-02
  .220E-02  .278E-02  .255E-02  .281E-02  .326E-02  .319E-02  .297E-02  .268E-02
  .222E-02  .235E-02  .289E-02  .347E-02  .320E-02  .330E-02  .368E-02  .425E-02
  .378E-02  .460E-02  .642E-02  .658E-02  .586E-02  .602E-02  .661E-02  .886E-02
  .917E-02  .811E-02  .762E-02  .814E-02  .815E-02  .788E-02  .880E-02  .826E-02
  .639E-02  .500E-02  .457E-02  .461E-02  .441E-02  .404E-02  .373E-02  .357E-02
  .336E-02  .312E-02  .288E-02  .289E-02  .283E-02  .274E-02  .000E+00  .000E+00
  .000E+00  .000E+00  .000E+00  .000E+00  .000E+00  .000E+00  .000E+00  .000E+00
  .000E+00  .000E+00  .000E+00  .000E+00  .000E+00  .000E+00  .000E+00  .000E+00
  .000E+00  .000E+00  .000E+00  .000E+00
  .108E-02  .121E-02  .134E-02  .151E-02  .162E-02  .197E-02  .282E-02  .392E-02
  .415E-02  .501E-02  .683E-02  .994E-02  .108E-01  .106E-01  .113E-01  .131E-01
  .158E-01  .199E-01  .300E-01  .371E-01  .394E-01  .383E-01  .296E-01  .303E-01
  .367E-01  .383E-01  .493E-01  .564E-01  .498E-01  .539E-01  .482E-01  .419E-01
  .424E-01  .493E-01  .472E-01  .503E-01  .517E-01  .508E-01  .427E-01  .417E-01
  .327E-01  .323E-01  .334E-01  .377E-01  .389E-01  .370E-01  .358E-01  .301E-01
  .302E-01  .349E-01  .445E-01  .389E-01  .429E-01  .346E-01  .354E-01  .438E-01
  .379E-01  .369E-01  .368E-01  .380E-01  .334E-01  .291E-01  .274E-01  .253E-01
  .248E-01  .234E-01  .221E-01  .202E-01  .187E-01  .187E-01  .183E-01  .178E-01
  .174E-01  .171E-01  .169E-01  .167E-01  .168E-01  .168E-01  .000E+00  .000E+00
  .000E+00  .000E+00  .000E+00  .000E+00  .000E+00  .000E+00  .000E+00  .000E+00
  .000E+00  .000E+00  .000E+00  .000E+00  .000E+00  .000E+00  .000E+00  .000E+00
  .000E+00  .000E+00  .000E+00  .000E+00
  .107E-02  .108E-02  .108E-02  .112E-02  .118E-02  .122E-02  .148E-02  .180E-02
  .159E-02  .163E-02  .185E-02  .247E-02  .234E-02  .216E-02  .229E-02  .253E-02
  .281E-02  .317E-02  .411E-02  .447E-02  .456E-02  .399E-02  .294E-02  .276E-02
  .313E-02  .328E-02  .374E-02  .385E-02  .316E-02  .301E-02  .247E-02  .189E-02
  .194E-02  .219E-02  .181E-02  .180E-02  .189E-02  .170E-02  .144E-02  .119E-02
  .925E-03  .796E-03  .822E-03  .846E-03  .671E-03  .602E-03  .596E-03  .605E-03
  .483E-03  .524E-03  .661E-03  .560E-03  .419E-03  .366E-03  .347E-03  .406E-03
  .369E-03  .290E-03  .244E-03  .234E-03  .213E-03  .168E-03  .158E-03  .126E-03
  .843E-04  .572E-04  .471E-04  .413E-04  .356E-04  .301E-04  .254E-04  .222E-04
  .193E-04  .166E-04  .141E-04  .131E-04  .109E-04  .908E-05  .000E+00  .000E+00
  .000E+00  .000E+00  .000E+00  .000E+00  .000E+00  .000E+00  .000E+00  .000E+00
  .000E+00  .000E+00  .000E+00  .000E+00  .000E+00  .000E+00  .000E+00  .000E+00
  .000E+00  .000E+00  .000E+00  .000E+00
  .263E-02  .279E-02  .290E-02  .316E-02  .346E-02  .376E-02  .498E-02  .658E-02
  .638E-02  .697E-02  .846E-02  .122E-01  .121E-01  .119E-01  .133E-01  .152E-01
  .189E-01  .234E-01  .327E-01  .380E-01  .415E-01  .392E-01  .303E-01  .306E-01
  .359E-01  .406E-01  .502E-01  .568E-01  .510E-01  .520E-01  .449E-01  .370E-01
  .406E-01  .485E-01  .422E-01  .441E-01  .487E-01  .456E-01  .406E-01  .350E-01
  .279E-01  .268E-01  .302E-01  .335E-01  .287E-01  .276E-01  .289E-01  .314E-01
  .264E-01  .304E-01  .403E-01  .376E-01  .307E-01  .291E-01  .297E-01  .371E-01
  .360E-01  .300E-01  .266E-01  .269E-01  .256E-01  .225E-01  .230E-01  .200E-01
  .143E-01  .105E-01  .897E-02  .852E-02  .770E-02  .668E-02  .586E-02  .534E-02
  .480E-02  .426E-02  .377E-02  .364E-02  .324E-02  .287E-02  .000E+00  .000E+00
  .000E+00  .000E+00  .000E+00  .000E+00  .000E+00  .000E+00  .000E+00  .000E+00
  .000E+00  .000E+00  .000E+00  .000E+00  .000E+00  .000E+00  .000E+00  .000E+00
  .000E+00  .000E+00  .000E+00  .000E+00
  .489E+02  .489E+02  .489E+02  .469E+02  .483E+02  .483E+02  .489E+02  .489E+02
  .464E+02  .489E+02  .490E+02  .491E+02  .491E+02  .478E+02  .463E+02  .463E+02
  .460E+02  .463E+02  .463E+02  .463E+02  .464E+02  .464E+02  .470E+02  .479E+02
  .479E+02  .473E+02  .474E+02  .495E+02  .556E+02  .555E+02  .554E+02  .493E+02
  .570E+02  .569E+02  .569E+02  .567E+02  .567E+02  .568E+02  .550E+02  .551E+02
  .542E+02  .617E+02  .566E+02  .555E+02  .621E+02  .560E+02  .553E+02  .566E+02
  .566E+02  .716E+02  .610E+02  .729E+02  .709E+02  .535E+02  .535E+02  .536E+02
  .530E+02  .531E+02  .531E+02  .524E+02  .517E+02  .637E+02  .638E+02  .630E+02
  .596E+02  .597E+02  .576E+02  .632E+02  .632E+02  .620E+02  .620E+02  .620E+02
  .620E+02  .620E+02  .547E+02  .547E+02  .547E+02  .547E+02  .000E+00  .000E+00
  .000E+00  .000E+00  .000E+00  .000E+00  .000E+00  .000E+00  .000E+00  .000E+00
  .000E+00  .000E+00  .000E+00  .000E+00  .000E+00  .000E+00  .000E+00  .000E+00
  .000E+00  .000E+00  .000E+00  .000E+00
  .468E+02  .468E+02  .468E+02  .468E+02  .468E+02  .470E+02  .484E+02  .490E+02
  .464E+02  .490E+02  .490E+02  .490E+02  .491E+02  .491E+02  .491E+02  .491E+02
  .460E+02  .463E+02  .463E+02  .463E+02  .463E+02  .464E+02  .463E+02  .479E+02
  .480E+02  .473E+02  .473E+02  .495E+02  .556E+02  .556E+02  .555E+02  .492E+02
  .569E+02  .569E+02  .568E+02  .568E+02  .568E+02  .567E+02  .549E+02  .550E+02
  .550E+02  .567E+02  .567E+02  .553E+02  .554E+02  .554E+02  .567E+02  .567E+02
  .565E+02  .611E+02  .612E+02  .609E+02  .548E+02  .532E+02  .532E+02  .532E+02
  .518E+02  .528E+02  .528E+02  .528E+02  .548E+02  .522E+02  .656E+02  .635E+02
  .548E+02  .548E+02  .548E+02  .548E+02  .528E+02  .528E+02  .528E+02  .528E+02
  .528E+02  .528E+02  .528E+02  .528E+02  .517E+02  .517E+02  .000E+00  .000E+00
  .000E+00  .000E+00  .000E+00  .000E+00  .000E+00  .000E+00  .000E+00  .000E+00
  .000E+00  .000E+00  .000E+00  .000E+00  .000E+00  .000E+00  .000E+00  .000E+00
  .000E+00  .000E+00  .000E+00  .000E+00
  .489E+02  .489E+02  .468E+02  .468E+02  .483E+02  .483E+02  .489E+02  .489E+02
  .464E+02  .489E+02  .489E+02  .491E+02  .491E+02  .478E+02  .463E+02  .463E+02
  .460E+02  .463E+02  .463E+02  .463E+02  .464E+02  .469E+02  .470E+02  .479E+02
  .479E+02  .473E+02  .474E+02  .495E+02  .556E+02  .556E+02  .554E+02  .493E+02
  .570E+02  .569E+02  .569E+02  .567E+02  .567E+02  .567E+02  .550E+02  .551E+02
  .542E+02  .617E+02  .566E+02  .554E+02  .621E+02  .560E+02  .553E+02  .566E+02
  .566E+02  .716E+02  .609E+02  .729E+02  .708E+02  .534E+02  .535E+02  .536E+02
  .530E+02  .530E+02  .531E+02  .523E+02  .517E+02  .636E+02  .637E+02  .630E+02
  .595E+02  .597E+02  .575E+02  .546E+02  .632E+02  .620E+02  .620E+02  .620E+02
  .620E+02  .620E+02  .547E+02  .546E+02  .546E+02  .517E+02  .000E+00  .000E+00
  .000E+00  .000E+00  .000E+00  .000E+00  .000E+00  .000E+00  .000E+00  .000E+00
  .000E+00  .000E+00  .000E+00  .000E+00  .000E+00  .000E+00  .000E+00  .000E+00
  .000E+00  .000E+00  .000E+00  .000E+00
/&   ----------  End of spectral data for channel  1  ----------
Response and Fourier amplitude spectra (78 periods,  .04 -  6.0 sec)   for      
Corrected accelerogram   38695658.CI.MGE.--.HN      Chan  2: 360 Deg     from   
Uncorrected Accelerogram Data             Processed: 09/19/20, CGS  cimge--n    
Rcrd of Fri Sep 18, 2020 23:38:47.0 PDT               (Avol1 v2.0, 4/18 CSMIP)  
                                        (Origin:  To be determined)             
38695658.CI.MGE.--.HN                Start time:  9/19/20, 06:38:47.0 UTC (GPS) 
Station Id. MGE     33.818N, 116.369W    ObsMMS  s/n 3808  (3 Chns of  3 at Sta)
Thousand Palms, Ramon Rd.                SCSN   Data: Acceleration              
Chan  2: 360 Deg                                                                
Rcrd of Fri Sep 18, 2020 23:38:47.0 PDT    Fri Sep 18, 2020 23:38:47.0 PDT      
Hypocenter:  To be determined.               ML:  To be determined.             
Instr Period =  .0050 sec,  Damping =  .707,  Sensitivity = 5.00 v/g  (Nominal) 
                        Record Length =301.000 sec.                             
                                     Uncor Max  =   .001 g, at   46.620 sec.    
RMS accel of (uncor) record  =        .   Chn. metadata effective date:         
Accelerogram bandpass filtered with 3 dB pts at   .30 and 23.00 cyc/sec         
                 instrument- and base-line correcte                             
                                                                                
                                                                                
                                                                                
                                                                                
                                                                                
Rcrd of Fri Sep 18, 2020 23:38:47.0 PDT    Fri Sep 18, 2020 23:38:47.0 PDT      
                                                                                
38695658.CI.MGE.--.HN     Thousand Palms, Ramon Rd.   Chan  2: 360 Deg          
                                                                                
38695658.CI.MGE.--.HN     Thousand Palms, Ramon Rd.   Chan  2: 360 Deg          
                                                                                
Units for spectra are inches and sec, except Sa is in fraction of g.            
                                                                                
    2  100    2    3    3  100 -999    3    1    0   15 3808    050627   41    0
    6   38   47    8  263    9   19 2020   10    3  36035986   39   25   74 -999
35986 -999  100    6 -999 -999 -999 -999 -999 -999 -999 -999 -999 -999 -999 -999
 -999 -999 -999 -99915050    2 -999    0 -999   20 -999 -999    3    1 -99915050
    315050    4   78    1    3    5    0    0 -999    0 -999 -999    6 -999    2
    2    2    4 -999 -999 -999 -999 -999 -999 -999 -999    1 -999 -999 -999  111
    1    1 -999 -999
      .005      .707   359.860      .000     1.000  4997.654      .001    46.620
   200.000     2.384      .477  -999.000    10.000  -999.000     4.000  -999.000
    20.000     2.111      .000  -999.000  -999.000  -999.000  -999.000      .000
      .000      .000     2.000    15.000    33.818  -116.369      .004      .008
     1.916     -.001      .001    68.000  -999.000  -999.000  -999.000  -999.000
     1.000  -999.000  -999.000  -999.000  -999.000  -999.000  -999.000   120.000
     -.900     2.000     6.800   980.665      .020   301.000    31.831      .000
  -999.000    23.000  -999.000   301.000      .020      .300  -999.000  -999.000
    46.620     1.167    45.340     -.042    61.540      .005      .000      .300
    23.000      .020      .020      .000      .020      .006  -999.000  -999.000
      .004      .130      .003      .002      .001      .000  -999.000  -999.000
  -999.000  -999.000  -999.000  -999.000  -999.000  -999.000  -999.000  -999.000
  -999.000  -999.000  -999.000  -999.000
      .050
      .040      .042      .044      .046      .048      .050      .055      .060
      .065      .070      .075      .080      .085      .090      .095      .100
      .110      .120      .130      .140      .150      .160      .170      .180
      .190      .200      .220      .240      .260      .280      .300      .320
      .340      .360      .380      .400      .420      .440      .460      .480
      .500      .550      .600      .650      .700      .750      .800      .850
      .900      .950     1.000     1.100     1.200     1.300     1.400     1.500
     1.600     1.700     1.800     1.900     2.000     2.200     2.400     2.600
     2.800     3.000     3.200     3.400     3.600     3.800     4.000     4.200
     4.400     4.600     4.800     5.000     5.500     6.000      .000      .000
      .000      .000      .000      .000      .000      .000      .000      .000
      .000      .000      .000      .000      .000      .000      .000      .000
      .000      .000      .000      .000
Fourier amplitude spectra in in/sec.
  .000E+00  .000E+00  .000E+00  .000E+00  .000E+00  .000E+00  .000E+00  .000E+00
  .000E+00  .000E+00  .000E+00  .000E+00  .000E+00  .000E+00  .000E+00  .000E+00
  .000E+00  .000E+00  .000E+00  .000E+00  .000E+00  .000E+00  .000E+00  .000E+00
  .000E+00  .000E+00  .000E+00  .000E+00  .000E+00  .000E+00  .000E+00  .000E+00
  .000E+00  .000E+00  .000E+00  .000E+00  .000E+00  .000E+00  .000E+00  .000E+00
  .000E+00  .000E+00  .000E+00  .000E+00  .000E+00  .000E+00  .000E+00  .000E+00
  .000E+00  .000E+00  .000E+00  .000E+00  .000E+00  .000E+00  .000E+00  .000E+00
  .000E+00  .000E+00  .000E+00  .000E+00  .000E+00  .000E+00  .000E+00  .000E+00
  .000E+00  .000E+00  .000E+00  .000E+00  .000E+00  .000E+00  .000E+00  .000E+00
  .000E+00  .000E+00  .000E+00  .000E+00  .000E+00  .000E+00  .000E+00  .000E+00
  .000E+00  .000E+00  .000E+00  .000E+00  .000E+00  .000E+00  .000E+00  .000E+00
  .000E+00  .000E+00  .000E+00  .000E+00  .000E+00  .000E+00  .000E+00  .000E+00
  .000E+00  .000E+00  .000E+00  .000E+00
Damping =  .05. Data of Sd,Sv,Sa,Pssv,ttSd,ttSv,ttSa :
  .189E-04  .211E-04  .238E-04  .266E-04  .299E-04  .335E-04  .442E-04  .534E-04
  .800E-04  .812E-04  .990E-04  .140E-03  .212E-03  .296E-03  .308E-03  .275E-03
  .415E-03  .474E-03  .718E-03  .684E-03  .779E-03  .983E-03  .848E-03  .102E-02
  .129E-02  .134E-02  .143E-02  .187E-02  .168E-02  .201E-02  .228E-02  .215E-02
  .226E-02  .233E-02  .215E-02  .223E-02  .245E-02  .283E-02  .318E-02  .397E-02
