Response and Fourier amplitude spectra (78 periods,  .04 -  6.0 sec)   for      
Corrected accelerogram   38695658.CI.MIS.00.HN      Chan  1:  90 Deg     from   
Uncorrected Accelerogram Data             Processed: 09/19/20, CGS  cimis--f    
Rcrd of Fri Sep 18, 2020 23:38:27.0 PDT               (Avol1 v2.0, 4/18 CSMIP)  
                                        (Origin:  To be determined)             
38695658.CI.MIS.00.HN                Start time:  9/19/20, 06:38:27.0 UTC (GPS) 
Station Id. MIS     33.740N, 118.335W    ObsMMS  s/n  942  (3 Chns of 12 at Sta)
Rancho Palos Verdes, Mira Catalina Schl  SCSN   Data: Acceleration              
Chan  1:  90 Deg                                                                
Rcrd of Fri Sep 18, 2020 23:38:27.0 PDT    Fri Sep 18, 2020 23:38:27.0 PDT      
Hypocenter:  To be determined.               ML:  To be determined.             
Instr Period =  .0050 sec,  Damping =  .707,  Sensitivity = 5.00 v/g  (Nominal) 
                        Record Length =301.000 sec.                             
                                     Uncor Max  =   .003 g, at   34.920 sec.    
RMS accel of (uncor) record  =        .   Chn. metadata effective date:         
Accelerogram bandpass filtered with 3 dB pts at   .30 and 23.00 cyc/sec         
                 instrument- and base-line correcte                             
                                                                                
                                                                                
                                                                                
                                                                                
                                                                                
Rcrd of Fri Sep 18, 2020 23:38:27.0 PDT    Fri Sep 18, 2020 23:38:27.0 PDT      
                                                                                
38695658.CI.MIS.00.HN     Rancho Palos Verdes, Mira Catalina Schl  SChan  1:  90
 Deg                                                                            
38695658.CI.MIS.00.HN     Rancho Palos Verdes, Mira Catalina Schl  SChan  1:  90
 Deg                                                                            
Units for spectra are inches and sec, except Sa is in fraction of g.            
                                                                                
    1  100    1   12   12  100 -999    3    1    0   15  942    050629   41    0
    6   38   27    0  263    9   19 2020   10    3   9035831   39   39   74 -999
35831 -999  100    6 -999 -999 -999 -999 -999 -999 -999 -999 -999 -999 -999 -999
 -999 -999 -999 -99915050    2 -999    0 -999   20 -999 -999    3    1 -99915050
    315050    4   78    1    3    5    0    0 -999    0 -999 -999    6 -999    2
    2    2    4 -999 -999 -999 -999 -999 -999 -999 -999    1 -999 -999 -999  111
    1    1 -999 -999
      .005      .707   358.310      .000     1.000  4996.856      .003    34.920
   200.000     2.384      .477  -999.000    10.000  -999.000     4.000  -999.000
    20.000   -18.528      .000  -999.000  -999.000  -999.000  -999.000      .002
     -.002     -.004     2.000    15.000    33.740  -118.335      .001      .001
     1.170     -.004     -.004   299.000  -999.000  -999.000  -999.000  -999.000
     1.000  -999.000    -8.000  -999.000  -999.000  -999.000  -999.000   120.000
     -.900     2.000     6.800   980.665      .020   301.000    31.831      .000
  -999.000    23.000  -999.000   301.000      .020      .300  -999.000  -999.000
    34.920     3.008    35.760      .113    46.120      .010      .000      .300
    23.000      .020      .020      .000      .020      .011  -999.000  -999.000
      .012      .140      .008      .008      .001      .000  -999.000  -999.000
  -999.000  -999.000  -999.000  -999.000  -999.000  -999.000  -999.000  -999.000
  -999.000  -999.000  -999.000  -999.000
      .050
      .040      .042      .044      .046      .048      .050      .055      .060
      .065      .070      .075      .080      .085      .090      .095      .100
      .110      .120      .130      .140      .150      .160      .170      .180
      .190      .200      .220      .240      .260      .280      .300      .320
      .340      .360      .380      .400      .420      .440      .460      .480
      .500      .550      .600      .650      .700      .750      .800      .850
      .900      .950     1.000     1.100     1.200     1.300     1.400     1.500
     1.600     1.700     1.800     1.900     2.000     2.200     2.400     2.600
     2.800     3.000     3.200     3.400     3.600     3.800     4.000     4.200
     4.400     4.600     4.800     5.000     5.500     6.000      .000      .000
      .000      .000      .000      .000      .000      .000      .000      .000
      .000      .000      .000      .000      .000      .000      .000      .000
      .000      .000      .000      .000
Fourier amplitude spectra in in/sec.
  .000E+00  .000E+00  .000E+00  .000E+00  .000E+00  .000E+00  .000E+00  .000E+00
  .000E+00  .000E+00  .000E+00  .000E+00  .000E+00  .000E+00  .000E+00  .000E+00
  .000E+00  .000E+00  .000E+00  .000E+00  .000E+00  .000E+00  .000E+00  .000E+00
  .000E+00  .000E+00  .000E+00  .000E+00  .000E+00  .000E+00  .000E+00  .000E+00
  .000E+00  .000E+00  .000E+00  .000E+00  .000E+00  .000E+00  .000E+00  .000E+00
  .000E+00  .000E+00  .000E+00  .000E+00  .000E+00  .000E+00  .000E+00  .000E+00
  .000E+00  .000E+00  .000E+00  .000E+00  .000E+00  .000E+00  .000E+00  .000E+00
  .000E+00  .000E+00  .000E+00  .000E+00  .000E+00  .000E+00  .000E+00  .000E+00
  .000E+00  .000E+00  .000E+00  .000E+00  .000E+00  .000E+00  .000E+00  .000E+00
  .000E+00  .000E+00  .000E+00  .000E+00  .000E+00  .000E+00  .000E+00  .000E+00
  .000E+00  .000E+00  .000E+00  .000E+00  .000E+00  .000E+00  .000E+00  .000E+00
  .000E+00  .000E+00  .000E+00  .000E+00  .000E+00  .000E+00  .000E+00  .000E+00
  .000E+00  .000E+00  .000E+00  .000E+00
Damping =  .05. Data of Sd,Sv,Sa,Pssv,ttSd,ttSv,ttSa :
  .498E-04  .566E-04  .646E-04  .721E-04  .789E-04  .894E-04  .132E-03  .180E-03
  .295E-03  .383E-03  .473E-03  .534E-03  .584E-03  .589E-03  .745E-03  .779E-03
  .116E-02  .155E-02  .191E-02  .225E-02  .198E-02  .239E-02  .260E-02  .316E-02
  .302E-02  .303E-02  .381E-02  .401E-02  .395E-02  .542E-02  .736E-02  .818E-02
  .809E-02  .823E-02  .886E-02  .917E-02  .108E-01  .127E-01  .130E-01  .117E-01
  .113E-01  .134E-01  .114E-01  .134E-01  .120E-01  .995E-02  .105E-01  .948E-02
  .110E-01  .113E-01  .102E-01  .102E-01  .977E-02  .894E-02  .893E-02  .936E-02
  .874E-02  .791E-02  .924E-02  .113E-01  .109E-01  .860E-02  .747E-02  .721E-02
  .843E-02  .863E-02  .771E-02  .600E-02  .515E-02  .504E-02  .516E-02  .516E-02
  .505E-02  .487E-02  .466E-02  .449E-02  .415E-02  .418E-02  .000E+00  .000E+00
  .000E+00  .000E+00  .000E+00  .000E+00  .000E+00  .000E+00  .000E+00  .000E+00
  .000E+00  .000E+00  .000E+00  .000E+00  .000E+00  .000E+00  .000E+00  .000E+00
  .000E+00  .000E+00  .000E+00  .000E+00
  .343E-02  .381E-02  .426E-02  .499E-02  .598E-02  .684E-02  .910E-02  .142E-01
  .248E-01  .300E-01  .342E-01  .364E-01  .375E-01  .343E-01  .400E-01  .421E-01
  .593E-01  .740E-01  .860E-01  .949E-01  .832E-01  .817E-01  .875E-01  .101E+00
  .101E+00  .986E-01  .105E+00  .109E+00  .971E-01  .122E+00  .155E+00  .167E+00
  .149E+00  .157E+00  .155E+00  .159E+00  .154E+00  .179E+00  .165E+00  .148E+00
  .137E+00  .162E+00  .149E+00  .147E+00  .114E+00  .100E+00  .103E+00  .931E-01
  .109E+00  .971E-01  .897E-01  .705E-01  .630E-01  .576E-01  .546E-01  .537E-01
  .514E-01  .522E-01  .543E-01  .553E-01  .535E-01  .480E-01  .506E-01  .534E-01
  .536E-01  .517E-01  .490E-01  .466E-01  .449E-01  .440E-01  .436E-01  .435E-01
  .434E-01  .434E-01  .434E-01  .434E-01  .433E-01  .433E-01  .000E+00  .000E+00
  .000E+00  .000E+00  .000E+00  .000E+00  .000E+00  .000E+00  .000E+00  .000E+00
  .000E+00  .000E+00  .000E+00  .000E+00  .000E+00  .000E+00  .000E+00  .000E+00
  .000E+00  .000E+00  .000E+00  .000E+00
  .320E-02  .329E-02  .342E-02  .351E-02  .352E-02  .365E-02  .446E-02  .514E-02
  .728E-02  .800E-02  .877E-02  .856E-02  .836E-02  .755E-02  .849E-02  .794E-02
  .972E-02  .111E-01  .115E-01  .118E-01  .902E-02  .960E-02  .931E-02  .101E-01
  .862E-02  .765E-02  .807E-02  .730E-02  .607E-02  .710E-02  .839E-02  .826E-02
  .726E-02  .651E-02  .639E-02  .592E-02  .636E-02  .676E-02  .628E-02  .525E-02
  .469E-02  .452E-02  .325E-02  .328E-02  .252E-02  .181E-02  .168E-02  .136E-02
  .139E-02  .129E-02  .105E-02  .863E-03  .699E-03  .545E-03  .469E-03  .428E-03
  .351E-03  .282E-03  .294E-03  .320E-03  .281E-03  .183E-03  .143E-03  .117E-03
  .112E-03  .101E-03  .804E-04  .566E-04  .448E-04  .386E-04  .361E-04  .341E-04
  .319E-04  .296E-04  .271E-04  .249E-04  .204E-04  .171E-04  .000E+00  .000E+00
  .000E+00  .000E+00  .000E+00  .000E+00  .000E+00  .000E+00  .000E+00  .000E+00
  .000E+00  .000E+00  .000E+00  .000E+00  .000E+00  .000E+00  .000E+00  .000E+00
  .000E+00  .000E+00  .000E+00  .000E+00
  .783E-02  .847E-02  .922E-02  .985E-02  .103E-01  .112E-01  .150E-01  .188E-01
  .285E-01  .344E-01  .396E-01  .420E-01  .432E-01  .411E-01  .493E-01  .490E-01
  .661E-01  .810E-01  .922E-01  .101E+00  .830E-01  .940E-01  .962E-01  .110E+00
  .100E+00  .953E-01  .109E+00  .105E+00  .955E-01  .122E+00  .154E+00  .161E+00
  .149E+00  .144E+00  .147E+00  .144E+00  .162E+00  .182E+00  .178E+00  .153E+00
  .142E+00  .153E+00  .120E+00  .130E+00  .108E+00  .834E-01  .824E-01  .701E-01
  .766E-01  .745E-01  .639E-01  .580E-01  .511E-01  .432E-01  .401E-01  .392E-01
  .343E-01  .292E-01  .323E-01  .372E-01  .342E-01  .246E-01  .195E-01  .174E-01
  .189E-01  .181E-01  .151E-01  .111E-01  .900E-02  .834E-02  .810E-02  .771E-02
  .721E-02  .665E-02  .611E-02  .565E-02  .474E-02  .438E-02  .000E+00  .000E+00
  .000E+00  .000E+00  .000E+00  .000E+00  .000E+00  .000E+00  .000E+00  .000E+00
  .000E+00  .000E+00  .000E+00  .000E+00  .000E+00  .000E+00  .000E+00  .000E+00
  .000E+00  .000E+00  .000E+00  .000E+00
  .349E+02  .349E+02  .349E+02  .349E+02  .349E+02  .349E+02  .349E+02  .349E+02
  .349E+02  .350E+02  .350E+02  .350E+02  .349E+02  .333E+02  .334E+02  .334E+02
  .345E+02  .345E+02  .346E+02  .350E+02  .384E+02  .358E+02  .362E+02  .340E+02
  .354E+02  .354E+02  .350E+02  .387E+02  .370E+02  .396E+02  .395E+02  .394E+02
  .364E+02  .363E+02  .363E+02  .363E+02  .464E+02  .464E+02  .467E+02  .467E+02
  .418E+02  .493E+02  .468E+02  .469E+02  .417E+02  .463E+02  .417E+02  .358E+02
  .414E+02  .415E+02  .415E+02  .672E+02  .662E+02  .558E+02  .663E+02  .658E+02
  .659E+02  .659E+02  .717E+02  .711E+02  .712E+02  .685E+02  .358E+02  .349E+02
  .535E+02  .412E+02  .412E+02  .412E+02  .412E+02  .412E+02  .412E+02  .412E+02
  .412E+02  .412E+02  .412E+02  .412E+02  .412E+02  .461E+02  .000E+00  .000E+00
  .000E+00  .000E+00  .000E+00  .000E+00  .000E+00  .000E+00  .000E+00  .000E+00
  .000E+00  .000E+00  .000E+00  .000E+00  .000E+00  .000E+00  .000E+00  .000E+00
  .000E+00  .000E+00  .000E+00  .000E+00
  .348E+02  .348E+02  .348E+02  .348E+02  .348E+02  .348E+02  .349E+02  .348E+02
  .349E+02  .350E+02  .350E+02  .350E+02  .349E+02  .349E+02  .333E+02  .349E+02
  .345E+02  .346E+02  .346E+02  .350E+02  .348E+02  .359E+02  .359E+02  .339E+02
  .353E+02  .353E+02  .353E+02  .350E+02  .388E+02  .396E+02  .395E+02  .395E+02
  .363E+02  .364E+02  .364E+02  .362E+02  .362E+02  .463E+02  .466E+02  .466E+02
  .417E+02  .491E+02  .418E+02  .418E+02  .465E+02  .462E+02  .416E+02  .416E+02
  .416E+02  .416E+02  .413E+02  .413E+02  .457E+02  .458E+02  .357E+02  .462E+02
  .487E+02  .462E+02  .349E+02  .349E+02  .349E+02  .460E+02  .357E+02  .357E+02
  .357E+02  .357E+02  .357E+02  .357E+02  .357E+02  .357E+02  .357E+02  .357E+02
  .357E+02  .357E+02  .357E+02  .357E+02  .357E+02  .357E+02  .000E+00  .000E+00
  .000E+00  .000E+00  .000E+00  .000E+00  .000E+00  .000E+00  .000E+00  .000E+00
  .000E+00  .000E+00  .000E+00  .000E+00  .000E+00  .000E+00  .000E+00  .000E+00
  .000E+00  .000E+00  .000E+00  .000E+00
  .349E+02  .349E+02  .349E+02  .349E+02  .349E+02  .349E+02  .349E+02  .349E+02
  .349E+02  .350E+02  .350E+02  .350E+02  .349E+02  .333E+02  .334E+02  .334E+02
  .345E+02  .345E+02  .346E+02  .350E+02  .384E+02  .358E+02  .362E+02  .340E+02
  .354E+02  .354E+02  .350E+02  .387E+02  .370E+02  .396E+02  .395E+02  .394E+02
  .364E+02  .363E+02  .363E+02  .363E+02  .464E+02  .464E+02  .467E+02  .467E+02
  .418E+02  .493E+02  .468E+02  .469E+02  .417E+02  .463E+02  .417E+02  .358E+02
  .414E+02  .414E+02  .415E+02  .672E+02  .662E+02  .558E+02  .663E+02  .658E+02
  .659E+02  .659E+02  .717E+02  .710E+02  .711E+02  .685E+02  .358E+02  .348E+02
  .535E+02  .411E+02  .412E+02  .412E+02  .416E+02  .416E+02  .416E+02  .416E+02
  .416E+02  .416E+02  .416E+02  .416E+02  .416E+02  .416E+02  .000E+00  .000E+00
  .000E+00  .000E+00  .000E+00  .000E+00  .000E+00  .000E+00  .000E+00  .000E+00
  .000E+00  .000E+00  .000E+00  .000E+00  .000E+00  .000E+00  .000E+00  .000E+00
  .000E+00  .000E+00  .000E+00  .000E+00
/&   ----------  End of spectral data for channel  1  ----------
Response and Fourier amplitude spectra (78 periods,  .04 -  6.0 sec)   for      
Corrected accelerogram   38695658.CI.MIS.00.HN      Chan  2: 360 Deg     from   
Uncorrected Accelerogram Data             Processed: 09/19/20, CGS  cimis--f    
Rcrd of Fri Sep 18, 2020 23:38:27.0 PDT               (Avol1 v2.0, 4/18 CSMIP)  
                                        (Origin:  To be determined)             
38695658.CI.MIS.00.HN                Start time:  9/19/20, 06:38:27.0 UTC (GPS) 
Station Id. MIS     33.740N, 118.335W    ObsMMS  s/n  942  (3 Chns of 12 at Sta)
Rancho Palos Verdes, Mira Catalina Schl  SCSN   Data: Acceleration              
Chan  2: 360 Deg                                                                
Rcrd of Fri Sep 18, 2020 23:38:27.0 PDT    Fri Sep 18, 2020 23:38:27.0 PDT      
Hypocenter:  To be determined.               ML:  To be determined.             
Instr Period =  .0050 sec,  Damping =  .707,  Sensitivity = 4.99 v/g  (Nominal) 
                        Record Length =301.000 sec.                             
                                     Uncor Max  =   .005 g, at   35.670 sec.    
RMS accel of (uncor) record  =        .   Chn. metadata effective date:         
Accelerogram bandpass filtered with 3 dB pts at   .30 and 23.00 cyc/sec         
                 instrument- and base-line correcte                             
                                                                                
                                                                                
                                                                                
                                                                                
                                                                                
Rcrd of Fri Sep 18, 2020 23:38:27.0 PDT    Fri Sep 18, 2020 23:38:27.0 PDT      
                                                                                
38695658.CI.MIS.00.HN     Rancho Palos Verdes, Mira Catalina Schl  SChan  2: 360
 Deg                                                                            
38695658.CI.MIS.00.HN     Rancho Palos Verdes, Mira Catalina Schl  SChan  2: 360
 Deg                                                                            
Units for spectra are inches and sec, except Sa is in fraction of g.            
                                                                                
    2  100    2   12   12  100 -999    3    1    0   15  942    050629   41    0
    6   38   27   10  263    9   19 2020   10    3  36035979   39   39   74 -999
35979 -999  100    6 -999 -999 -999 -999 -999 -999 -999 -999 -999 -999 -999 -999
 -999 -999 -999 -99915050    2 -999    0 -999   20 -999 -999    3    1 -99915050
    315050    4   78    1    3    5    0    0 -999    0 -999 -999    6 -999    2
    2    2    4 -999 -999 -999 -999 -999 -999 -999 -999    1 -999 -999 -999  111
    1    1 -999 -999
      .005      .707   359.790      .000     1.000  4992.069      .005    35.670
   200.000     2.384      .478  -999.000    10.000  -999.000     4.000  -999.000
    20.000    13.519      .000  -999.000  -999.000  -999.000  -999.000     -.035
      .013      .048     2.000    15.000    33.740  -118.335      .013      .088
     7.000      .042      .054   299.000  -999.000  -999.000  -999.000  -999.000
     1.000  -999.000  -999.000  -999.000  -999.000  -999.000  -999.000   120.000
     -.900     2.000     6.800   980.665      .020   301.000    31.831     -.007
  -999.000    23.000  -999.000   301.000      .020      .300  -999.000  -999.000
    35.680     4.675    40.960     -.207    41.960      .019      .000      .300
    23.000      .020      .020      .000      .020      .024  -999.000  -999.000
      .015      .180      .014      .010      .001      .000  -999.000  -999.000
  -999.000  -999.000  -999.000  -999.000  -999.000  -999.000  -999.000  -999.000
  -999.000  -999.000  -999.000  -999.000
      .050
      .040      .042      .044      .046      .048      .050      .055      .060
      .065      .070      .075      .080      .085      .090      .095      .100
      .110      .120      .130      .140      .150      .160      .170      .180
      .190      .200      .220      .240      .260      .280      .300      .320
      .340      .360      .380      .400      .420      .440      .460      .480
      .500      .550      .600      .650      .700      .750      .800      .850
      .900      .950     1.000     1.100     1.200     1.300     1.400     1.500
     1.600     1.700     1.800     1.900     2.000     2.200     2.400     2.600
     2.800     3.000     3.200     3.400     3.600     3.800     4.000     4.200
     4.400     4.600     4.800     5.000     5.500     6.000      .000      .000
      .000      .000      .000      .000      .000      .000      .000      .000
      .000      .000      .000      .000      .000      .000      .000      .000
      .000      .000      .000      .000
Fourier amplitude spectra in in/sec.
  .000E+00  .000E+00  .000E+00  .000E+00  .000E+00  .000E+00  .000E+00  .000E+00
  .000E+00  .000E+00  .000E+00  .000E+00  .000E+00  .000E+00  .000E+00  .000E+00
  .000E+00  .000E+00  .000E+00  .000E+00  .000E+00  .000E+00  .000E+00  .000E+00
  .000E+00  .000E+00  .000E+00  .000E+00  .000E+00  .000E+00  .000E+00  .000E+00
  .000E+00  .000E+00  .000E+00  .000E+00  .000E+00  .000E+00  .000E+00  .000E+00
  .000E+00  .000E+00  .000E+00  .000E+00  .000E+00  .000E+00  .000E+00  .000E+00
  .000E+00  .000E+00  .000E+00  .000E+00  .000E+00  .000E+00  .000E+00  .000E+00
  .000E+00  .000E+00  .000E+00  .000E+00  .000E+00  .000E+00  .000E+00  .000E+00
  .000E+00  .000E+00  .000E+00  .000E+00  .000E+00  .000E+00  .000E+00  .000E+00
  .000E+00  .000E+00  .000E+00  .000E+00  .000E+00  .000E+00  .000E+00  .000E+00
  .000E+00  .000E+00  .000E+00  .000E+00  .000E+00  .000E+00  .000E+00  .000E+00
  .000E+00  .000E+00  .000E+00  .000E+00  .000E+00  .000E+00  .000E+00  .000E+00
  .000E+00  .000E+00  .000E+00  .000E+00
Damping =  .05. Data of Sd,Sv,Sa,Pssv,ttSd,ttSv,ttSa :
  .824E-04  .918E-04  .104E-03  .117E-03  .131E-03  .151E-03  .208E-03  .262E-03
  .306E-03  .505E-03  .577E-03  .701E-03  .758E-03  .101E-02  .110E-02  .116E-02
  .135E-02  .197E-02  .231E-02  .278E-02  .296E-02  .379E-02  .356E-02  .486E-02
  .498E-02  .565E-02  .629E-02  .544E-02  .698E-02  .835E-02  .807E-02  .863E-02
  .104E-01  .125E-01  .159E-01  .144E-01  .110E-01  .104E-01  .121E-01  .131E-01
