Response and Fourier amplitude spectra (78 periods,  .04 -  6.0 sec)   for      
Corrected accelerogram   38695658.CI.MLS.--.HN      Chan  1:  90 Deg     from   
Uncorrected Accelerogram Data             Processed: 09/19/20, CGS  cimls--j    
Rcrd of Fri Sep 18, 2020 23:38:31.0 PDT               (Avol1 v2.0, 4/18 CSMIP)  
                                        (Origin:  To be determined)             
38695658.CI.MLS.--.HN                Start time:  9/19/20, 06:38:31.0 UTC (GPS) 
Station Id. MLS     34.005N, 117.562W    Q330    s/n 4338  (3 Chns of  6 at Sta)
Mira Loma, I-15 and Riverside            SCSN   Data: Acceleration              
Chan  1:  90 Deg                                                                
Rcrd of Fri Sep 18, 2020 23:38:31.0 PDT    Fri Sep 18, 2020 23:38:31.0 PDT      
Hypocenter:  To be determined.               ML:  To be determined.             
Instr Period =  .0050 sec,  Damping =  .707,  Sensitivity = 4.98 v/g  (Nominal) 
                        Record Length =301.000 sec.                             
                                     Uncor Max  =   .010 g, at   30.610 sec.    
RMS accel of (uncor) record  =        .   Chn. metadata effective date:         
Accelerogram bandpass filtered with 3 dB pts at   .30 and 23.00 cyc/sec         
                 instrument- and base-line correcte                             
                                                                                
                                                                                
                                                                                
                                                                                
                                                                                
Rcrd of Fri Sep 18, 2020 23:38:31.0 PDT    Fri Sep 18, 2020 23:38:31.0 PDT      
                                                                                
38695658.CI.MLS.--.HN     Mira Loma, I-15 and Riverside   Chan  1:  90 Deg      
                                                                                
38695658.CI.MLS.--.HN     Mira Loma, I-15 and Riverside   Chan  1:  90 Deg      
                                                                                
Units for spectra are inches and sec, except Sa is in fraction of g.            
                                                                                
    1  100    1    6    6  100 -999    3    1    0  605 4338    050549   41    0
    6   38   31    8  263    9   19 2020   10    3   9035542   39   29   74 -999
35542 -999  100    6 -999 -999 -999 -999 -999 -999 -999 -999 -999 -999 -999 -999
 -999 -999 -999 -99915050    2 -999    0 -999   20 -999 -999    3    1 -99915050
    315050    4   78    1    3    5    0    0 -999    0 -999 -999    6 -999    2
    2    2    4 -999 -999 -999 -999 -999 -999 -999 -999    1 -999 -999 -999  111
    1    1 -999 -999
      .005      .707   355.420      .000     1.000  4984.889      .010    30.610
   200.000     2.384      .478  -999.000    10.000  -999.000     4.000  -999.000
    20.000   -16.576      .000  -999.000  -999.000  -999.000  -999.000     -.002
      .002      .004     2.000    15.000    34.005  -117.562      .014      .007
      .497      .001      .007   230.000  -999.000  -999.000  -999.000  -999.000
     1.000  -999.000    -8.000  -999.000  -999.000  -999.000  -999.000   120.000
     -.900     2.000     6.800   980.665      .020   301.000    31.831      .000
  -999.000    23.000  -999.000   301.000      .020      .300  -999.000  -999.000
    31.000     8.869    31.060      .208    31.000     -.008      .000      .300
    23.000      .020      .020      .000      .020      .008  -999.000  -999.000
      .038      .130      .013      .012      .001      .000  -999.000  -999.000
  -999.000  -999.000  -999.000  -999.000  -999.000  -999.000  -999.000  -999.000
  -999.000  -999.000  -999.000  -999.000
      .050
      .040      .042      .044      .046      .048      .050      .055      .060
      .065      .070      .075      .080      .085      .090      .095      .100
      .110      .120      .130      .140      .150      .160      .170      .180
      .190      .200      .220      .240      .260      .280      .300      .320
      .340      .360      .380      .400      .420      .440      .460      .480
      .500      .550      .600      .650      .700      .750      .800      .850
      .900      .950     1.000     1.100     1.200     1.300     1.400     1.500
     1.600     1.700     1.800     1.900     2.000     2.200     2.400     2.600
     2.800     3.000     3.200     3.400     3.600     3.800     4.000     4.200
     4.400     4.600     4.800     5.000     5.500     6.000      .000      .000
      .000      .000      .000      .000      .000      .000      .000      .000
      .000      .000      .000      .000      .000      .000      .000      .000
      .000      .000      .000      .000
Fourier amplitude spectra in in/sec.
  .000E+00  .000E+00  .000E+00  .000E+00  .000E+00  .000E+00  .000E+00  .000E+00
  .000E+00  .000E+00  .000E+00  .000E+00  .000E+00  .000E+00  .000E+00  .000E+00
  .000E+00  .000E+00  .000E+00  .000E+00  .000E+00  .000E+00  .000E+00  .000E+00
  .000E+00  .000E+00  .000E+00  .000E+00  .000E+00  .000E+00  .000E+00  .000E+00
  .000E+00  .000E+00  .000E+00  .000E+00  .000E+00  .000E+00  .000E+00  .000E+00
  .000E+00  .000E+00  .000E+00  .000E+00  .000E+00  .000E+00  .000E+00  .000E+00
  .000E+00  .000E+00  .000E+00  .000E+00  .000E+00  .000E+00  .000E+00  .000E+00
  .000E+00  .000E+00  .000E+00  .000E+00  .000E+00  .000E+00  .000E+00  .000E+00
  .000E+00  .000E+00  .000E+00  .000E+00  .000E+00  .000E+00  .000E+00  .000E+00
  .000E+00  .000E+00  .000E+00  .000E+00  .000E+00  .000E+00  .000E+00  .000E+00
  .000E+00  .000E+00  .000E+00  .000E+00  .000E+00  .000E+00  .000E+00  .000E+00
  .000E+00  .000E+00  .000E+00  .000E+00  .000E+00  .000E+00  .000E+00  .000E+00
  .000E+00  .000E+00  .000E+00  .000E+00
Damping =  .05. Data of Sd,Sv,Sa,Pssv,ttSd,ttSv,ttSa :
  .181E-03  .209E-03  .242E-03  .271E-03  .297E-03  .318E-03  .463E-03  .620E-03
  .748E-03  .723E-03  .877E-03  .144E-02  .197E-02  .228E-02  .261E-02  .258E-02
  .301E-02  .469E-02  .625E-02  .709E-02  .636E-02  .522E-02  .469E-02  .467E-02
  .526E-02  .466E-02  .584E-02  .577E-02  .609E-02  .899E-02  .112E-01  .115E-01
  .113E-01  .110E-01  .910E-02  .747E-02  .686E-02  .637E-02  .550E-02  .458E-02
  .451E-02  .513E-02  .533E-02  .461E-02  .459E-02  .588E-02  .800E-02  .716E-02
  .620E-02  .594E-02  .589E-02  .566E-02  .492E-02  .407E-02  .409E-02  .432E-02
  .440E-02  .433E-02  .470E-02  .460E-02  .419E-02  .439E-02  .422E-02  .382E-02
  .346E-02  .335E-02  .329E-02  .327E-02  .321E-02  .317E-02  .313E-02  .311E-02
  .310E-02  .310E-02  .309E-02  .308E-02  .305E-02  .305E-02  .000E+00  .000E+00
  .000E+00  .000E+00  .000E+00  .000E+00  .000E+00  .000E+00  .000E+00  .000E+00
  .000E+00  .000E+00  .000E+00  .000E+00  .000E+00  .000E+00  .000E+00  .000E+00
  .000E+00  .000E+00  .000E+00  .000E+00
  .134E-01  .152E-01  .186E-01  .251E-01  .306E-01  .326E-01  .468E-01  .551E-01
  .672E-01  .647E-01  .663E-01  .973E-01  .132E+00  .141E+00  .154E+00  .139E+00
  .153E+00  .225E+00  .278E+00  .303E+00  .268E+00  .214E+00  .182E+00  .171E+00
  .180E+00  .158E+00  .170E+00  .170E+00  .187E+00  .220E+00  .236E+00  .254E+00
  .231E+00  .226E+00  .191E+00  .155E+00  .130E+00  .117E+00  .112E+00  .104E+00
  .101E+00  .108E+00  .113E+00  .107E+00  .103E+00  .103E+00  .959E-01  .101E+00
  .100E+00  .906E-01  .864E-01  .790E-01  .808E-01  .792E-01  .772E-01  .777E-01
  .779E-01  .772E-01  .764E-01  .761E-01  .762E-01  .763E-01  .761E-01  .759E-01
  .757E-01  .756E-01  .756E-01  .755E-01  .755E-01  .755E-01  .755E-01  .755E-01
  .756E-01  .756E-01  .756E-01  .756E-01  .756E-01  .756E-01  .000E+00  .000E+00
  .000E+00  .000E+00  .000E+00  .000E+00  .000E+00  .000E+00  .000E+00  .000E+00
  .000E+00  .000E+00  .000E+00  .000E+00  .000E+00  .000E+00  .000E+00  .000E+00
  .000E+00  .000E+00  .000E+00  .000E+00
  .117E-01  .120E-01  .128E-01  .133E-01  .133E-01  .133E-01  .156E-01  .177E-01
  .183E-01  .153E-01  .158E-01  .228E-01  .279E-01  .287E-01  .296E-01  .262E-01
  .259E-01  .333E-01  .381E-01  .369E-01  .292E-01  .213E-01  .169E-01  .150E-01
  .150E-01  .122E-01  .123E-01  .106E-01  .912E-02  .117E-01  .126E-01  .115E-01
  .101E-01  .883E-02  .650E-02  .476E-02  .399E-02  .344E-02  .271E-02  .205E-02
  .186E-02  .176E-02  .154E-02  .111E-02  .999E-03  .111E-02  .130E-02  .103E-02
  .791E-03  .679E-03  .608E-03  .495E-03  .370E-03  .272E-03  .229E-03  .213E-03
  .192E-03  .169E-03  .161E-03  .144E-03  .121E-03  .107E-03  .894E-04  .786E-04
  .699E-04  .628E-04  .567E-04  .518E-04  .473E-04  .436E-04  .405E-04  .377E-04
  .354E-04  .333E-04  .315E-04  .298E-04  .263E-04  .235E-04  .000E+00  .000E+00
  .000E+00  .000E+00  .000E+00  .000E+00  .000E+00  .000E+00  .000E+00  .000E+00
  .000E+00  .000E+00  .000E+00  .000E+00  .000E+00  .000E+00  .000E+00  .000E+00
  .000E+00  .000E+00  .000E+00  .000E+00
  .284E-01  .313E-01  .346E-01  .370E-01  .389E-01  .400E-01  .529E-01  .650E-01
  .723E-01  .649E-01  .734E-01  .113E+00  .146E+00  .159E+00  .172E+00  .162E+00
  .172E+00  .245E+00  .302E+00  .318E+00  .266E+00  .205E+00  .173E+00  .163E+00
  .174E+00  .146E+00  .167E+00  .151E+00  .147E+00  .202E+00  .234E+00  .225E+00
  .210E+00  .192E+00  .150E+00  .117E+00  .103E+00  .910E-01  .751E-01  .599E-01
  .567E-01  .586E-01  .558E-01  .445E-01  .412E-01  .493E-01  .628E-01  .529E-01
  .433E-01  .393E-01  .370E-01  .323E-01  .258E-01  .197E-01  .183E-01  .181E-01
  .173E-01  .160E-01  .164E-01  .152E-01  .132E-01  .125E-01  .111E-01  .924E-02
  .777E-02  .702E-02  .647E-02  .604E-02  .560E-02  .524E-02  .492E-02  .465E-02
  .443E-02  .423E-02  .404E-02  .387E-02  .348E-02  .320E-02  .000E+00  .000E+00
  .000E+00  .000E+00  .000E+00  .000E+00  .000E+00  .000E+00  .000E+00  .000E+00
  .000E+00  .000E+00  .000E+00  .000E+00  .000E+00  .000E+00  .000E+00  .000E+00
  .000E+00  .000E+00  .000E+00  .000E+00
  .306E+02  .306E+02  .306E+02  .306E+02  .336E+02  .336E+02  .336E+02  .318E+02
  .318E+02  .314E+02  .337E+02  .339E+02  .339E+02  .307E+02  .307E+02  .307E+02
  .308E+02  .308E+02  .311E+02  .311E+02  .311E+02  .311E+02  .308E+02  .334E+02
  .333E+02  .311E+02  .306E+02  .306E+02  .307E+02  .330E+02  .313E+02  .311E+02
  .311E+02  .349E+02  .347E+02  .348E+02  .348E+02  .348E+02  .346E+02  .328E+02
  .348E+02  .346E+02  .346E+02  .310E+02  .346E+02  .346E+02  .346E+02  .346E+02
  .352E+02  .344E+02  .344E+02  .344E+02  .344E+02  .344E+02  .344E+02  .344E+02
  .345E+02  .345E+02  .357E+02  .357E+02  .342E+02  .342E+02  .342E+02  .342E+02
  .342E+02  .310E+02  .310E+02  .310E+02  .310E+02  .310E+02  .310E+02  .310E+02
  .310E+02  .310E+02  .310E+02  .310E+02  .310E+02  .310E+02  .000E+00  .000E+00
  .000E+00  .000E+00  .000E+00  .000E+00  .000E+00  .000E+00  .000E+00  .000E+00
  .000E+00  .000E+00  .000E+00  .000E+00  .000E+00  .000E+00  .000E+00  .000E+00
  .000E+00  .000E+00  .000E+00  .000E+00
  .336E+02  .336E+02  .336E+02  .336E+02  .336E+02  .336E+02  .336E+02  .318E+02
  .316E+02  .344E+02  .344E+02  .339E+02  .339E+02  .346E+02  .307E+02  .307E+02
  .308E+02  .308E+02  .311E+02  .311E+02  .311E+02  .311E+02  .309E+02  .333E+02
  .333E+02  .307E+02  .307E+02  .306E+02  .306E+02  .331E+02  .311E+02  .313E+02
  .313E+02  .310E+02  .310E+02  .310E+02  .306E+02  .310E+02  .310E+02  .306E+02
  .306E+02  .310E+02  .310E+02  .310E+02  .310E+02  .310E+02  .310E+02  .346E+02
  .346E+02  .346E+02  .346E+02  .310E+02  .310E+02  .310E+02  .310E+02  .310E+02
  .310E+02  .310E+02  .310E+02  .310E+02  .310E+02  .310E+02  .310E+02  .310E+02
  .310E+02  .310E+02  .310E+02  .310E+02  .310E+02  .310E+02  .310E+02  .310E+02
  .310E+02  .310E+02  .310E+02  .310E+02  .310E+02  .310E+02  .000E+00  .000E+00
  .000E+00  .000E+00  .000E+00  .000E+00  .000E+00  .000E+00  .000E+00  .000E+00
  .000E+00  .000E+00  .000E+00  .000E+00  .000E+00  .000E+00  .000E+00  .000E+00
  .000E+00  .000E+00  .000E+00  .000E+00
  .306E+02  .306E+02  .306E+02  .306E+02  .336E+02  .336E+02  .336E+02  .318E+02
  .318E+02  .314E+02  .338E+02  .339E+02  .339E+02  .307E+02  .307E+02  .307E+02
  .308E+02  .308E+02  .311E+02  .311E+02  .311E+02  .311E+02  .308E+02  .334E+02
  .333E+02  .311E+02  .306E+02  .306E+02  .307E+02  .330E+02  .313E+02  .311E+02
  .311E+02  .349E+02  .347E+02  .347E+02  .348E+02  .348E+02  .346E+02  .328E+02
  .348E+02  .346E+02  .346E+02  .310E+02  .346E+02  .346E+02  .346E+02  .346E+02
  .352E+02  .344E+02  .344E+02  .344E+02  .344E+02  .310E+02  .344E+02  .344E+02
  .344E+02  .344E+02  .357E+02  .357E+02  .342E+02  .342E+02  .342E+02  .310E+02
  .310E+02  .310E+02  .310E+02  .310E+02  .310E+02  .310E+02  .310E+02  .310E+02
  .310E+02  .310E+02  .310E+02  .310E+02  .310E+02  .310E+02  .000E+00  .000E+00
  .000E+00  .000E+00  .000E+00  .000E+00  .000E+00  .000E+00  .000E+00  .000E+00
  .000E+00  .000E+00  .000E+00  .000E+00  .000E+00  .000E+00  .000E+00  .000E+00
  .000E+00  .000E+00  .000E+00  .000E+00
/&   ----------  End of spectral data for channel  1  ----------
Response and Fourier amplitude spectra (78 periods,  .04 -  6.0 sec)   for      
Corrected accelerogram   38695658.CI.MLS.--.HN      Chan  2: 360 Deg     from   
Uncorrected Accelerogram Data             Processed: 09/19/20, CGS  cimls--j    
Rcrd of Fri Sep 18, 2020 23:38:31.0 PDT               (Avol1 v2.0, 4/18 CSMIP)  
                                        (Origin:  To be determined)             
38695658.CI.MLS.--.HN                Start time:  9/19/20, 06:38:31.0 UTC (GPS) 
Station Id. MLS     34.005N, 117.562W    Q330    s/n 4338  (3 Chns of  6 at Sta)
Mira Loma, I-15 and Riverside            SCSN   Data: Acceleration              
Chan  2: 360 Deg                                                                
Rcrd of Fri Sep 18, 2020 23:38:31.0 PDT    Fri Sep 18, 2020 23:38:31.0 PDT      
Hypocenter:  To be determined.               ML:  To be determined.             
Instr Period =  .0050 sec,  Damping =  .707,  Sensitivity = 4.98 v/g  (Nominal) 
                        Record Length =301.000 sec.                             
                                     Uncor Max  =  -.014 g, at   31.200 sec.    
RMS accel of (uncor) record  =        .   Chn. metadata effective date:         
Accelerogram bandpass filtered with 3 dB pts at   .30 and 23.00 cyc/sec         
                 instrument- and base-line correcte                             
                                                                                
                                                                                
                                                                                
                                                                                
                                                                                
Rcrd of Fri Sep 18, 2020 23:38:31.0 PDT    Fri Sep 18, 2020 23:38:31.0 PDT      
                                                                                
38695658.CI.MLS.--.HN     Mira Loma, I-15 and Riverside   Chan  2: 360 Deg      
                                                                                
38695658.CI.MLS.--.HN     Mira Loma, I-15 and Riverside   Chan  2: 360 Deg      
                                                                                
Units for spectra are inches and sec, except Sa is in fraction of g.            
                                                                                
    2  100    2    6    6  100 -999    3    1    0  605 4338    050549   41    0
    6   38   31    8  263    9   19 2020   10    3  36035945   39   29   74 -999
35945 -999  100    6 -999 -999 -999 -999 -999 -999 -999 -999 -999 -999 -999 -999
 -999 -999 -999 -99915050    2 -999    0 -999   20 -999 -999    3    1 -99915050
    315050    4   78    1    3    5    0    0 -999    0 -999 -999    6 -999    2
    2    2    4 -999 -999 -999 -999 -999 -999 -999 -999    1 -999 -999 -999  111
    1    1 -999 -999
      .005      .707   359.450      .001     1.000  4984.889     -.014    31.200
   200.000     2.384      .478  -999.000    10.000  -999.000     4.000  -999.000
    20.000   -46.884      .000  -999.000  -999.000  -999.000  -999.000     -.005
      .005      .009     2.000    15.000    34.005  -117.562      .014      .007
      .539      .007      .012   230.000  -999.000  -999.000  -999.000  -999.000
     1.000  -999.000  -999.000  -999.000  -999.000  -999.000  -999.000   120.000
     -.900     2.000     6.800   980.665      .020   301.000    31.831     -.001
  -999.000    23.000  -999.000   301.000      .020      .300  -999.000  -999.000
    31.160    12.374    30.920      .245    30.960      .012      .000      .300
    23.000      .020      .020      .000      .020      .009  -999.000  -999.000
      .056      .065      .017      .016      .001      .000  -999.000  -999.000
  -999.000  -999.000  -999.000  -999.000  -999.000  -999.000  -999.000  -999.000
  -999.000  -999.000  -999.000  -999.000
      .050
      .040      .042      .044      .046      .048      .050      .055      .060
      .065      .070      .075      .080      .085      .090      .095      .100
      .110      .120      .130      .140      .150      .160      .170      .180
      .190      .200      .220      .240      .260      .280      .300      .320
      .340      .360      .380      .400      .420      .440      .460      .480
      .500      .550      .600      .650      .700      .750      .800      .850
      .900      .950     1.000     1.100     1.200     1.300     1.400     1.500
     1.600     1.700     1.800     1.900     2.000     2.200     2.400     2.600
     2.800     3.000     3.200     3.400     3.600     3.800     4.000     4.200
     4.400     4.600     4.800     5.000     5.500     6.000      .000      .000
      .000      .000      .000      .000      .000      .000      .000      .000
      .000      .000      .000      .000      .000      .000      .000      .000
      .000      .000      .000      .000
Fourier amplitude spectra in in/sec.
  .000E+00  .000E+00  .000E+00  .000E+00  .000E+00  .000E+00  .000E+00  .000E+00
  .000E+00  .000E+00  .000E+00  .000E+00  .000E+00  .000E+00  .000E+00  .000E+00
  .000E+00  .000E+00  .000E+00  .000E+00  .000E+00  .000E+00  .000E+00  .000E+00
  .000E+00  .000E+00  .000E+00  .000E+00  .000E+00  .000E+00  .000E+00  .000E+00
  .000E+00  .000E+00  .000E+00  .000E+00  .000E+00  .000E+00  .000E+00  .000E+00
  .000E+00  .000E+00  .000E+00  .000E+00  .000E+00  .000E+00  .000E+00  .000E+00
  .000E+00  .000E+00  .000E+00  .000E+00  .000E+00  .000E+00  .000E+00  .000E+00
  .000E+00  .000E+00  .000E+00  .000E+00  .000E+00  .000E+00  .000E+00  .000E+00
  .000E+00  .000E+00  .000E+00  .000E+00  .000E+00  .000E+00  .000E+00  .000E+00
  .000E+00  .000E+00  .000E+00  .000E+00  .000E+00  .000E+00  .000E+00  .000E+00
  .000E+00  .000E+00  .000E+00  .000E+00  .000E+00  .000E+00  .000E+00  .000E+00
  .000E+00  .000E+00  .000E+00  .000E+00  .000E+00  .000E+00  .000E+00  .000E+00
  .000E+00  .000E+00  .000E+00  .000E+00
Damping =  .05. Data of Sd,Sv,Sa,Pssv,ttSd,ttSv,ttSa :
  .258E-03  .316E-03  .401E-03  .471E-03  .546E-03  .578E-03  .934E-03  .147E-02
  .229E-02  .226E-02  .187E-02  .193E-02  .258E-02  .362E-02  .324E-02  .266E-02
  .326E-02  .384E-02  .421E-02  .376E-02  .403E-02  .347E-02  .434E-02  .507E-02
  .622E-02  .745E-02  .665E-02  .633E-02  .663E-02  .109E-01  .148E-01  .170E-01
  .171E-01  .159E-01  .139E-01  .116E-01  .102E-01  .940E-02  .897E-02  .928E-02
