Response and Fourier amplitude spectra (78 periods,  .04 -  6.0 sec)   for      
Corrected accelerogram   38695658.CI.MOR.--.HN      Chan  1:  90 Deg     from   
Uncorrected Accelerogram Data             Processed: 09/19/20, CGS  cimor--m    
Rcrd of Fri Sep 18, 2020 23:38:40.0 PDT               (Avol1 v2.0, 4/18 CSMIP)  
                                        (Origin:  To be determined)             
38695658.CI.MOR.--.HN                Start time:  9/19/20, 06:38:40.0 UTC (GPS) 
Station Id. MOR     33.504N, 117.140W    ObsMMS  s/n 1925  (3 Chns of  6 at Sta)
Moraga                                   SCSN   Data: Acceleration              
Chan  1:  90 Deg                                                                
Rcrd of Fri Sep 18, 2020 23:38:40.0 PDT    Fri Sep 18, 2020 23:38:40.0 PDT      
Hypocenter:  To be determined.               ML:  To be determined.             
Instr Period =  .0050 sec,  Damping =  .707,  Sensitivity = 4.97 v/g  (Nominal) 
                        Record Length =301.000 sec.                             
                                     Uncor Max  =   .004 g, at   39.150 sec.    
RMS accel of (uncor) record  =        .   Chn. metadata effective date:         
Accelerogram bandpass filtered with 3 dB pts at   .30 and 23.00 cyc/sec         
                 instrument- and base-line correcte                             
                                                                                
                                                                                
                                                                                
                                                                                
                                                                                
Rcrd of Fri Sep 18, 2020 23:38:40.0 PDT    Fri Sep 18, 2020 23:38:40.0 PDT      
                                                                                
38695658.CI.MOR.--.HN     Moraga    Chan  1:  90 Deg                            
                                                                                
38695658.CI.MOR.--.HN     Moraga    Chan  1:  90 Deg                            
                                                                                
Units for spectra are inches and sec, except Sa is in fraction of g.            
                                                                                
    1  100    1    6    6  100 -999    3    1    0   15 1925    0    0   41    0
    6   38   40    0  263    9   19 2020   10    3   9035808   39    6   74 -999
35808 -999  100    6 -999 -999 -999 -999 -999 -999 -999 -999 -999 -999 -999 -999
 -999 -999 -999 -99915050    2 -999    0 -999   20 -999 -999    3    1 -99915050
    315050    4   78    1    3    5    0    0 -999    0 -999 -999    6 -999    2
    2    2    4 -999 -999 -999 -999 -999 -999 -999 -999    1 -999 -999 -999  111
    1    1 -999 -999
      .005      .707   358.080      .000     1.000  4969.530      .004    39.150
   200.000     2.384      .480  -999.000    10.000  -999.000     4.000  -999.000
    20.000     5.068      .000  -999.000  -999.000  -999.000  -999.000      .003
     -.002     -.005     2.000    15.000    33.504  -117.140      .005      .005
      .916     -.006     -.004   331.000  -999.000  -999.000  -999.000  -999.000
     1.000  -999.000    -8.000  -999.000  -999.000  -999.000  -999.000   120.000
     -.900     2.000     6.800   980.665      .020   301.000    31.831      .000
  -999.000    23.000  -999.000   301.000      .020      .300  -999.000  -999.000
    39.160     3.546    39.200      .129    43.660      .016      .000      .300
    23.000      .020      .020      .000      .020      .010  -999.000  -999.000
      .014      .130      .008      .010      .001      .000  -999.000  -999.000
  -999.000  -999.000  -999.000  -999.000  -999.000  -999.000  -999.000  -999.000
  -999.000  -999.000  -999.000  -999.000
      .050
      .040      .042      .044      .046      .048      .050      .055      .060
      .065      .070      .075      .080      .085      .090      .095      .100
      .110      .120      .130      .140      .150      .160      .170      .180
      .190      .200      .220      .240      .260      .280      .300      .320
      .340      .360      .380      .400      .420      .440      .460      .480
      .500      .550      .600      .650      .700      .750      .800      .850
      .900      .950     1.000     1.100     1.200     1.300     1.400     1.500
     1.600     1.700     1.800     1.900     2.000     2.200     2.400     2.600
     2.800     3.000     3.200     3.400     3.600     3.800     4.000     4.200
     4.400     4.600     4.800     5.000     5.500     6.000      .000      .000
      .000      .000      .000      .000      .000      .000      .000      .000
      .000      .000      .000      .000      .000      .000      .000      .000
      .000      .000      .000      .000
Fourier amplitude spectra in in/sec.
  .000E+00  .000E+00  .000E+00  .000E+00  .000E+00  .000E+00  .000E+00  .000E+00
  .000E+00  .000E+00  .000E+00  .000E+00  .000E+00  .000E+00  .000E+00  .000E+00
  .000E+00  .000E+00  .000E+00  .000E+00  .000E+00  .000E+00  .000E+00  .000E+00
  .000E+00  .000E+00  .000E+00  .000E+00  .000E+00  .000E+00  .000E+00  .000E+00
  .000E+00  .000E+00  .000E+00  .000E+00  .000E+00  .000E+00  .000E+00  .000E+00
  .000E+00  .000E+00  .000E+00  .000E+00  .000E+00  .000E+00  .000E+00  .000E+00
  .000E+00  .000E+00  .000E+00  .000E+00  .000E+00  .000E+00  .000E+00  .000E+00
  .000E+00  .000E+00  .000E+00  .000E+00  .000E+00  .000E+00  .000E+00  .000E+00
  .000E+00  .000E+00  .000E+00  .000E+00  .000E+00  .000E+00  .000E+00  .000E+00
  .000E+00  .000E+00  .000E+00  .000E+00  .000E+00  .000E+00  .000E+00  .000E+00
  .000E+00  .000E+00  .000E+00  .000E+00  .000E+00  .000E+00  .000E+00  .000E+00
  .000E+00  .000E+00  .000E+00  .000E+00  .000E+00  .000E+00  .000E+00  .000E+00
  .000E+00  .000E+00  .000E+00  .000E+00
Damping =  .05. Data of Sd,Sv,Sa,Pssv,ttSd,ttSv,ttSa :
  .618E-04  .687E-04  .757E-04  .834E-04  .924E-04  .105E-03  .127E-03  .155E-03
  .190E-03  .248E-03  .274E-03  .359E-03  .399E-03  .476E-03  .630E-03  .731E-03
  .125E-02  .160E-02  .229E-02  .230E-02  .243E-02  .223E-02  .234E-02  .208E-02
  .227E-02  .301E-02  .477E-02  .552E-02  .536E-02  .676E-02  .860E-02  .984E-02
  .860E-02  .788E-02  .740E-02  .713E-02  .601E-02  .509E-02  .600E-02  .662E-02
  .628E-02  .508E-02  .477E-02  .463E-02  .568E-02  .661E-02  .840E-02  .996E-02
  .128E-01  .151E-01  .140E-01  .116E-01  .169E-01  .156E-01  .145E-01  .154E-01
  .128E-01  .164E-01  .191E-01  .203E-01  .222E-01  .238E-01  .194E-01  .161E-01
  .135E-01  .110E-01  .999E-02  .953E-02  .885E-02  .813E-02  .757E-02  .725E-02
  .713E-02  .701E-02  .692E-02  .686E-02  .682E-02  .680E-02  .000E+00  .000E+00
  .000E+00  .000E+00  .000E+00  .000E+00  .000E+00  .000E+00  .000E+00  .000E+00
  .000E+00  .000E+00  .000E+00  .000E+00  .000E+00  .000E+00  .000E+00  .000E+00
  .000E+00  .000E+00  .000E+00  .000E+00
  .220E-02  .239E-02  .258E-02  .297E-02  .360E-02  .409E-02  .527E-02  .686E-02
  .854E-02  .117E-01  .137E-01  .181E-01  .230E-01  .275E-01  .355E-01  .399E-01
  .596E-01  .755E-01  .103E+00  .977E-01  .909E-01  .849E-01  .771E-01  .720E-01
  .712E-01  .858E-01  .135E+00  .139E+00  .138E+00  .145E+00  .185E+00  .196E+00
  .174E+00  .148E+00  .130E+00  .123E+00  .978E-01  .880E-01  .991E-01  .949E-01
  .833E-01  .706E-01  .660E-01  .663E-01  .613E-01  .871E-01  .873E-01  .831E-01
  .800E-01  .109E+00  .110E+00  .106E+00  .106E+00  .998E-01  .945E-01  .785E-01
  .834E-01  .796E-01  .899E-01  .911E-01  .880E-01  .884E-01  .821E-01  .693E-01
  .643E-01  .605E-01  .593E-01  .585E-01  .575E-01  .562E-01  .551E-01  .542E-01
  .536E-01  .531E-01  .527E-01  .523E-01  .516E-01  .512E-01  .000E+00  .000E+00
  .000E+00  .000E+00  .000E+00  .000E+00  .000E+00  .000E+00  .000E+00  .000E+00
  .000E+00  .000E+00  .000E+00  .000E+00  .000E+00  .000E+00  .000E+00  .000E+00
  .000E+00  .000E+00  .000E+00  .000E+00
  .395E-02  .399E-02  .402E-02  .404E-02  .412E-02  .429E-02  .430E-02  .439E-02
  .463E-02  .518E-02  .502E-02  .575E-02  .569E-02  .602E-02  .713E-02  .748E-02
  .106E-01  .115E-01  .139E-01  .120E-01  .110E-01  .884E-02  .833E-02  .664E-02
  .645E-02  .764E-02  .103E-01  .989E-02  .803E-02  .894E-02  .971E-02  .991E-02
  .773E-02  .624E-02  .520E-02  .455E-02  .348E-02  .272E-02  .292E-02  .297E-02
  .261E-02  .173E-02  .137E-02  .113E-02  .119E-02  .122E-02  .135E-02  .142E-02
  .163E-02  .172E-02  .145E-02  .986E-03  .121E-02  .953E-03  .766E-03  .707E-03
  .518E-03  .584E-03  .615E-03  .585E-03  .574E-03  .511E-03  .355E-03  .251E-03
  .184E-03  .132E-03  .106E-03  .908E-04  .765E-04  .641E-04  .547E-04  .483E-04
  .436E-04  .395E-04  .361E-04  .334E-04  .282E-04  .244E-04  .000E+00  .000E+00
  .000E+00  .000E+00  .000E+00  .000E+00  .000E+00  .000E+00  .000E+00  .000E+00
  .000E+00  .000E+00  .000E+00  .000E+00  .000E+00  .000E+00  .000E+00  .000E+00
  .000E+00  .000E+00  .000E+00  .000E+00
  .971E-02  .103E-01  .108E-01  .114E-01  .121E-01  .132E-01  .145E-01  .162E-01
  .184E-01  .223E-01  .230E-01  .282E-01  .295E-01  .332E-01  .416E-01  .459E-01
  .711E-01  .839E-01  .111E+00  .103E+00  .102E+00  .875E-01  .864E-01  .725E-01
  .752E-01  .946E-01  .136E+00  .145E+00  .130E+00  .152E+00  .180E+00  .193E+00
  .159E+00  .138E+00  .122E+00  .112E+00  .899E-01  .727E-01  .819E-01  .867E-01
  .790E-01  .580E-01  .499E-01  .448E-01  .510E-01  .554E-01  .659E-01  .736E-01
  .892E-01  .997E-01  .883E-01  .660E-01  .885E-01  .753E-01  .650E-01  .644E-01
  .505E-01  .607E-01  .668E-01  .671E-01  .697E-01  .681E-01  .509E-01  .390E-01
  .303E-01  .231E-01  .196E-01  .176E-01  .155E-01  .134E-01  .119E-01  .108E-01
  .102E-01  .957E-02  .906E-02  .863E-02  .780E-02  .712E-02  .000E+00  .000E+00
  .000E+00  .000E+00  .000E+00  .000E+00  .000E+00  .000E+00  .000E+00  .000E+00
  .000E+00  .000E+00  .000E+00  .000E+00  .000E+00  .000E+00  .000E+00  .000E+00
  .000E+00  .000E+00  .000E+00  .000E+00
  .391E+02  .391E+02  .391E+02  .392E+02  .392E+02  .391E+02  .391E+02  .392E+02
  .391E+02  .392E+02  .392E+02  .392E+02  .392E+02  .390E+02  .410E+02  .410E+02
  .392E+02  .392E+02  .394E+02  .395E+02  .400E+02  .393E+02  .411E+02  .411E+02
  .411E+02  .397E+02  .401E+02  .401E+02  .402E+02  .452E+02  .415E+02  .415E+02
  .412E+02  .406E+02  .394E+02  .485E+02  .483E+02  .453E+02  .421E+02  .421E+02
  .421E+02  .481E+02  .438E+02  .412E+02  .382E+02  .413E+02  .430E+02  .432E+02
  .438E+02  .438E+02  .439E+02  .407E+02  .440E+02  .441E+02  .441E+02  .450E+02
  .408E+02  .409E+02  .409E+02  .450E+02  .443E+02  .436E+02  .437E+02  .405E+02
  .405E+02  .405E+02  .397E+02  .397E+02  .397E+02  .397E+02  .397E+02  .436E+02
  .436E+02  .436E+02  .436E+02  .436E+02  .436E+02  .436E+02  .000E+00  .000E+00
  .000E+00  .000E+00  .000E+00  .000E+00  .000E+00  .000E+00  .000E+00  .000E+00
  .000E+00  .000E+00  .000E+00  .000E+00  .000E+00  .000E+00  .000E+00  .000E+00
  .000E+00  .000E+00  .000E+00  .000E+00
  .391E+02  .391E+02  .391E+02  .395E+02  .395E+02  .395E+02  .392E+02  .392E+02
  .402E+02  .392E+02  .392E+02  .392E+02  .392E+02  .259E+02  .390E+02  .390E+02
  .392E+02  .392E+02  .395E+02  .395E+02  .400E+02  .392E+02  .392E+02  .392E+02
  .393E+02  .398E+02  .402E+02  .402E+02  .401E+02  .452E+02  .415E+02  .414E+02
  .413E+02  .400E+02  .399E+02  .399E+02  .399E+02  .392E+02  .422E+02  .422E+02
  .420E+02  .482E+02  .392E+02  .412E+02  .383E+02  .412E+02  .412E+02  .429E+02
  .439E+02  .441E+02  .441E+02  .410E+02  .437E+02  .451E+02  .451E+02  .410E+02
  .410E+02  .405E+02  .406E+02  .406E+02  .437E+02  .440E+02  .432E+02  .412E+02
  .400E+02  .392E+02  .392E+02  .392E+02  .392E+02  .392E+02  .392E+02  .392E+02
  .392E+02  .392E+02  .392E+02  .392E+02  .392E+02  .392E+02  .000E+00  .000E+00
  .000E+00  .000E+00  .000E+00  .000E+00  .000E+00  .000E+00  .000E+00  .000E+00
  .000E+00  .000E+00  .000E+00  .000E+00  .000E+00  .000E+00  .000E+00  .000E+00
  .000E+00  .000E+00  .000E+00  .000E+00
  .391E+02  .391E+02  .391E+02  .391E+02  .391E+02  .391E+02  .391E+02  .392E+02
  .391E+02  .392E+02  .392E+02  .392E+02  .392E+02  .390E+02  .410E+02  .410E+02
  .391E+02  .392E+02  .394E+02  .395E+02  .400E+02  .393E+02  .411E+02  .411E+02
  .411E+02  .397E+02  .400E+02  .401E+02  .402E+02  .452E+02  .414E+02  .415E+02
  .412E+02  .406E+02  .394E+02  .485E+02  .483E+02  .453E+02  .421E+02  .421E+02
  .421E+02  .481E+02  .438E+02  .412E+02  .382E+02  .412E+02  .430E+02  .432E+02
  .438E+02  .438E+02  .438E+02  .406E+02  .440E+02  .440E+02  .441E+02  .450E+02
  .408E+02  .409E+02  .409E+02  .450E+02  .443E+02  .436E+02  .436E+02  .405E+02
  .405E+02  .405E+02  .397E+02  .397E+02  .397E+02  .397E+02  .397E+02  .399E+02
  .399E+02  .399E+02  .399E+02  .436E+02  .436E+02  .436E+02  .000E+00  .000E+00
  .000E+00  .000E+00  .000E+00  .000E+00  .000E+00  .000E+00  .000E+00  .000E+00
  .000E+00  .000E+00  .000E+00  .000E+00  .000E+00  .000E+00  .000E+00  .000E+00
  .000E+00  .000E+00  .000E+00  .000E+00
/&   ----------  End of spectral data for channel  1  ----------
Response and Fourier amplitude spectra (78 periods,  .04 -  6.0 sec)   for      
Corrected accelerogram   38695658.CI.MOR.--.HN      Chan  2: 360 Deg     from   
Uncorrected Accelerogram Data             Processed: 09/19/20, CGS  cimor--m    
Rcrd of Fri Sep 18, 2020 23:38:40.0 PDT               (Avol1 v2.0, 4/18 CSMIP)  
                                        (Origin:  To be determined)             
38695658.CI.MOR.--.HN                Start time:  9/19/20, 06:38:40.0 UTC (GPS) 
Station Id. MOR     33.504N, 117.140W    ObsMMS  s/n 1925  (3 Chns of  6 at Sta)
Moraga                                   SCSN   Data: Acceleration              
Chan  2: 360 Deg                                                                
Rcrd of Fri Sep 18, 2020 23:38:40.0 PDT    Fri Sep 18, 2020 23:38:40.0 PDT      
Hypocenter:  To be determined.               ML:  To be determined.             
Instr Period =  .0050 sec,  Damping =  .707,  Sensitivity = 4.97 v/g  (Nominal) 
                        Record Length =301.000 sec.                             
                                     Uncor Max  =   .003 g, at   38.250 sec.    
RMS accel of (uncor) record  =        .   Chn. metadata effective date:         
Accelerogram bandpass filtered with 3 dB pts at   .30 and 23.00 cyc/sec         
                 instrument- and base-line correcte                             
                                                                                
                                                                                
                                                                                
                                                                                
                                                                                
Rcrd of Fri Sep 18, 2020 23:38:40.0 PDT    Fri Sep 18, 2020 23:38:40.0 PDT      
                                                                                
38695658.CI.MOR.--.HN     Moraga    Chan  2: 360 Deg                            
                                                                                
38695658.CI.MOR.--.HN     Moraga    Chan  2: 360 Deg                            
                                                                                
Units for spectra are inches and sec, except Sa is in fraction of g.            
                                                                                
    2  100    2    6    6  100 -999    3    1    0   15 1925    0    0   41    0
    6   38   40   10  263    9   19 2020   10    3  36035870   39    6   74 -999
35870 -999  100    6 -999 -999 -999 -999 -999 -999 -999 -999 -999 -999 -999 -999
 -999 -999 -999 -99915050    2 -999    0 -999   20 -999 -999    3    1 -99915050
    315050    4   78    1    3    5    0    0 -999    0 -999 -999    6 -999    2
    2    2    4 -999 -999 -999 -999 -999 -999 -999 -999    1 -999 -999 -999  111
    1    1 -999 -999
      .005      .707   358.700      .000     1.000  4973.519      .003    38.250
   200.000     2.384      .479  -999.000    10.000  -999.000     4.000  -999.000
    20.000    -7.806      .000  -999.000  -999.000  -999.000  -999.000     -.004
      .004      .008     2.000    15.000    33.504  -117.140      .004      .004
      .906      .007      .009   331.000  -999.000  -999.000  -999.000  -999.000
     1.000  -999.000  -999.000  -999.000  -999.000  -999.000  -999.000   120.000
     -.900     2.000     6.800   980.665      .020   301.000    31.831     -.001
  -999.000    23.000  -999.000   301.000      .020      .300  -999.000  -999.000
    38.240     2.827    38.200     -.115    40.100      .012      .000      .300
    23.000      .020      .020      .000      .020      .009  -999.000  -999.000
      .010      .140      .006      .008      .001      .000  -999.000  -999.000
  -999.000  -999.000  -999.000  -999.000  -999.000  -999.000  -999.000  -999.000
  -999.000  -999.000  -999.000  -999.000
      .050
      .040      .042      .044      .046      .048      .050      .055      .060
      .065      .070      .075      .080      .085      .090      .095      .100
      .110      .120      .130      .140      .150      .160      .170      .180
      .190      .200      .220      .240      .260      .280      .300      .320
      .340      .360      .380      .400      .420      .440      .460      .480
      .500      .550      .600      .650      .700      .750      .800      .850
      .900      .950     1.000     1.100     1.200     1.300     1.400     1.500
     1.600     1.700     1.800     1.900     2.000     2.200     2.400     2.600
     2.800     3.000     3.200     3.400     3.600     3.800     4.000     4.200
     4.400     4.600     4.800     5.000     5.500     6.000      .000      .000
      .000      .000      .000      .000      .000      .000      .000      .000
      .000      .000      .000      .000      .000      .000      .000      .000
      .000      .000      .000      .000
Fourier amplitude spectra in in/sec.
  .000E+00  .000E+00  .000E+00  .000E+00  .000E+00  .000E+00  .000E+00  .000E+00
  .000E+00  .000E+00  .000E+00  .000E+00  .000E+00  .000E+00  .000E+00  .000E+00
  .000E+00  .000E+00  .000E+00  .000E+00  .000E+00  .000E+00  .000E+00  .000E+00
  .000E+00  .000E+00  .000E+00  .000E+00  .000E+00  .000E+00  .000E+00  .000E+00
  .000E+00  .000E+00  .000E+00  .000E+00  .000E+00  .000E+00  .000E+00  .000E+00
  .000E+00  .000E+00  .000E+00  .000E+00  .000E+00  .000E+00  .000E+00  .000E+00
  .000E+00  .000E+00  .000E+00  .000E+00  .000E+00  .000E+00  .000E+00  .000E+00
  .000E+00  .000E+00  .000E+00  .000E+00  .000E+00  .000E+00  .000E+00  .000E+00
  .000E+00  .000E+00  .000E+00  .000E+00  .000E+00  .000E+00  .000E+00  .000E+00
  .000E+00  .000E+00  .000E+00  .000E+00  .000E+00  .000E+00  .000E+00  .000E+00
  .000E+00  .000E+00  .000E+00  .000E+00  .000E+00  .000E+00  .000E+00  .000E+00
  .000E+00  .000E+00  .000E+00  .000E+00  .000E+00  .000E+00  .000E+00  .000E+00
  .000E+00  .000E+00  .000E+00  .000E+00
Damping =  .05. Data of Sd,Sv,Sa,Pssv,ttSd,ttSv,ttSa :
  .468E-04  .521E-04  .578E-04  .640E-04  .714E-04  .787E-04  .960E-04  .121E-03
  .158E-03  .200E-03  .272E-03  .309E-03  .423E-03  .609E-03  .723E-03  .781E-03
  .101E-02  .142E-02  .154E-02  .191E-02  .173E-02  .149E-02  .136E-02  .152E-02
  .177E-02  .217E-02  .336E-02  .331E-02  .532E-02  .504E-02  .745E-02  .926E-02
  .953E-02  .881E-02  .731E-02  .660E-02  .548E-02  .514E-02  .549E-02  .589E-02
