Response and Fourier amplitude spectra (78 periods,  .04 -  6.0 sec)   for      
Corrected accelerogram   38695658.CI.MOP.--.HN      Chan  1:  90 Deg     from   
Uncorrected Accelerogram Data             Processed: 09/19/20, CGS  cimop--g    
Rcrd of Fri Sep 18, 2020 23:38:38.0 PDT               (Avol1 v2.0, 4/18 CSMIP)  
                                        (Origin:  To be determined)             
38695658.CI.MOP.--.HN                Start time:  9/19/20, 06:38:38.0 UTC (GPS) 
Station Id. MOP     34.281N, 118.905W    ObsMMS  s/n 4191  (3 Chns of  6 at Sta)
Moorpark, Los Angeles Ave.               SCSN   Data: Acceleration              
Chan  1:  90 Deg                                                                
Rcrd of Fri Sep 18, 2020 23:38:38.0 PDT    Fri Sep 18, 2020 23:38:38.0 PDT      
Hypocenter:  To be determined.               ML:  To be determined.             
Instr Period =  .0050 sec,  Damping =  .707,  Sensitivity = 4.99 v/g  (Nominal) 
                        Record Length =301.000 sec.                             
                                     Uncor Max  =  -.003 g, at   36.530 sec.    
RMS accel of (uncor) record  =        .   Chn. metadata effective date:         
Accelerogram bandpass filtered with 3 dB pts at   .30 and 23.00 cyc/sec         
                 instrument- and base-line correcte                             
                                                                                
                                                                                
                                                                                
                                                                                
                                                                                
Rcrd of Fri Sep 18, 2020 23:38:38.0 PDT    Fri Sep 18, 2020 23:38:38.0 PDT      
                                                                                
38695658.CI.MOP.--.HN     Moorpark, Los Angeles Ave.    Chan  1:  90 Deg        
                                                                                
38695658.CI.MOP.--.HN     Moorpark, Los Angeles Ave.    Chan  1:  90 Deg        
                                                                                
Units for spectra are inches and sec, except Sa is in fraction of g.            
                                                                                
    1  100    1    6    6  100 -999    3    1    0   15 4191    050550   41    0
    6   38   38    8  263    9   19 2020   10    3   9035640   39   26   74 -999
35640 -999  100    6 -999 -999 -999 -999 -999 -999 -999 -999 -999 -999 -999 -999
 -999 -999 -999 -99915050    2 -999    0 -999   20 -999 -999    3    1 -99915050
    315050    4   78    1    3    5    0    0 -999    0 -999 -999    6 -999    2
    2    2    4 -999 -999 -999 -999 -999 -999 -999 -999    1 -999 -999 -999  111
    1    1 -999 -999
      .005      .707   356.400      .000     1.000  4992.069     -.003    36.530
   200.000     2.384      .478  -999.000    10.000  -999.000     4.000  -999.000
    20.000   -23.933      .000  -999.000  -999.000  -999.000  -999.000     -.001
      .001      .001     2.000    15.000    34.281  -118.905      .006      .009
     1.407      .000      .003   141.000  -999.000  -999.000  -999.000  -999.000
     1.000  -999.000    -8.000  -999.000  -999.000  -999.000  -999.000   120.000
     -.900     2.000     6.800   980.665      .020   301.000    31.831      .000
  -999.000    23.000  -999.000   301.000      .020      .300  -999.000  -999.000
    36.540    -2.811    42.160      .224    42.020     -.027      .000      .300
    23.000      .020      .020      .000      .020      .018  -999.000  -999.000
      .011      .130      .009      .008      .004      .000  -999.000  -999.000
  -999.000  -999.000  -999.000  -999.000  -999.000  -999.000  -999.000  -999.000
  -999.000  -999.000  -999.000  -999.000
      .050
      .040      .042      .044      .046      .048      .050      .055      .060
      .065      .070      .075      .080      .085      .090      .095      .100
      .110      .120      .130      .140      .150      .160      .170      .180
      .190      .200      .220      .240      .260      .280      .300      .320
      .340      .360      .380      .400      .420      .440      .460      .480
      .500      .550      .600      .650      .700      .750      .800      .850
      .900      .950     1.000     1.100     1.200     1.300     1.400     1.500
     1.600     1.700     1.800     1.900     2.000     2.200     2.400     2.600
     2.800     3.000     3.200     3.400     3.600     3.800     4.000     4.200
     4.400     4.600     4.800     5.000     5.500     6.000      .000      .000
      .000      .000      .000      .000      .000      .000      .000      .000
      .000      .000      .000      .000      .000      .000      .000      .000
      .000      .000      .000      .000
Fourier amplitude spectra in in/sec.
  .000E+00  .000E+00  .000E+00  .000E+00  .000E+00  .000E+00  .000E+00  .000E+00
  .000E+00  .000E+00  .000E+00  .000E+00  .000E+00  .000E+00  .000E+00  .000E+00
  .000E+00  .000E+00  .000E+00  .000E+00  .000E+00  .000E+00  .000E+00  .000E+00
  .000E+00  .000E+00  .000E+00  .000E+00  .000E+00  .000E+00  .000E+00  .000E+00
  .000E+00  .000E+00  .000E+00  .000E+00  .000E+00  .000E+00  .000E+00  .000E+00
  .000E+00  .000E+00  .000E+00  .000E+00  .000E+00  .000E+00  .000E+00  .000E+00
  .000E+00  .000E+00  .000E+00  .000E+00  .000E+00  .000E+00  .000E+00  .000E+00
  .000E+00  .000E+00  .000E+00  .000E+00  .000E+00  .000E+00  .000E+00  .000E+00
  .000E+00  .000E+00  .000E+00  .000E+00  .000E+00  .000E+00  .000E+00  .000E+00
  .000E+00  .000E+00  .000E+00  .000E+00  .000E+00  .000E+00  .000E+00  .000E+00
  .000E+00  .000E+00  .000E+00  .000E+00  .000E+00  .000E+00  .000E+00  .000E+00
  .000E+00  .000E+00  .000E+00  .000E+00  .000E+00  .000E+00  .000E+00  .000E+00
  .000E+00  .000E+00  .000E+00  .000E+00
Damping =  .05. Data of Sd,Sv,Sa,Pssv,ttSd,ttSv,ttSa :
  .466E-04  .516E-04  .568E-04  .624E-04  .684E-04  .748E-04  .928E-04  .109E-03
  .129E-03  .163E-03  .187E-03  .253E-03  .327E-03  .392E-03  .546E-03  .667E-03
  .815E-03  .135E-02  .184E-02  .199E-02  .203E-02  .196E-02  .182E-02  .169E-02
  .275E-02  .363E-02  .411E-02  .459E-02  .497E-02  .618E-02  .741E-02  .860E-02
  .891E-02  .113E-01  .110E-01  .110E-01  .109E-01  .114E-01  .110E-01  .105E-01
  .109E-01  .195E-01  .225E-01  .252E-01  .282E-01  .334E-01  .388E-01  .455E-01
  .431E-01  .411E-01  .405E-01  .335E-01  .356E-01  .346E-01  .394E-01  .378E-01
  .336E-01  .301E-01  .257E-01  .234E-01  .223E-01  .187E-01  .140E-01  .128E-01
  .134E-01  .131E-01  .122E-01  .114E-01  .109E-01  .108E-01  .109E-01  .110E-01
  .110E-01  .109E-01  .109E-01  .109E-01  .108E-01  .108E-01  .000E+00  .000E+00
  .000E+00  .000E+00  .000E+00  .000E+00  .000E+00  .000E+00  .000E+00  .000E+00
  .000E+00  .000E+00  .000E+00  .000E+00  .000E+00  .000E+00  .000E+00  .000E+00
  .000E+00  .000E+00  .000E+00  .000E+00
  .179E-02  .196E-02  .215E-02  .236E-02  .257E-02  .280E-02  .358E-02  .494E-02
  .605E-02  .717E-02  .880E-02  .111E-01  .144E-01  .212E-01  .293E-01  .336E-01
  .360E-01  .658E-01  .877E-01  .850E-01  .846E-01  .761E-01  .685E-01  .612E-01
  .716E-01  .978E-01  .991E-01  .114E+00  .117E+00  .144E+00  .132E+00  .150E+00
  .154E+00  .193E+00  .181E+00  .165E+00  .173E+00  .160E+00  .145E+00  .136E+00
  .140E+00  .209E+00  .242E+00  .250E+00  .271E+00  .299E+00  .317E+00  .344E+00
  .344E+00  .328E+00  .287E+00  .240E+00  .239E+00  .203E+00  .214E+00  .236E+00
  .209E+00  .166E+00  .139E+00  .127E+00  .117E+00  .987E-01  .921E-01  .948E-01
  .948E-01  .923E-01  .905E-01  .900E-01  .903E-01  .906E-01  .907E-01  .906E-01
  .903E-01  .902E-01  .900E-01  .899E-01  .896E-01  .894E-01  .000E+00  .000E+00
  .000E+00  .000E+00  .000E+00  .000E+00  .000E+00  .000E+00  .000E+00  .000E+00
  .000E+00  .000E+00  .000E+00  .000E+00  .000E+00  .000E+00  .000E+00  .000E+00
  .000E+00  .000E+00  .000E+00  .000E+00
  .298E-02  .299E-02  .300E-02  .302E-02  .304E-02  .305E-02  .314E-02  .309E-02
  .313E-02  .339E-02  .340E-02  .404E-02  .464E-02  .500E-02  .628E-02  .673E-02
  .697E-02  .962E-02  .113E-01  .105E-01  .923E-02  .775E-02  .653E-02  .535E-02
  .789E-02  .952E-02  .870E-02  .826E-02  .752E-02  .802E-02  .845E-02  .870E-02
  .786E-02  .895E-02  .786E-02  .708E-02  .635E-02  .606E-02  .535E-02  .466E-02
  .445E-02  .664E-02  .641E-02  .616E-02  .593E-02  .610E-02  .625E-02  .647E-02
  .548E-02  .468E-02  .418E-02  .286E-02  .255E-02  .210E-02  .207E-02  .173E-02
  .135E-02  .108E-02  .823E-03  .673E-03  .581E-03  .408E-03  .260E-03  .204E-03
  .184E-03  .158E-03  .131E-03  .110E-03  .950E-04  .852E-04  .779E-04  .716E-04
  .658E-04  .605E-04  .559E-04  .519E-04  .437E-04  .376E-04  .000E+00  .000E+00
  .000E+00  .000E+00  .000E+00  .000E+00  .000E+00  .000E+00  .000E+00  .000E+00
  .000E+00  .000E+00  .000E+00  .000E+00  .000E+00  .000E+00  .000E+00  .000E+00
  .000E+00  .000E+00  .000E+00  .000E+00
  .731E-02  .771E-02  .811E-02  .853E-02  .895E-02  .940E-02  .106E-01  .114E-01
  .125E-01  .146E-01  .157E-01  .199E-01  .242E-01  .274E-01  .361E-01  .419E-01
  .466E-01  .708E-01  .890E-01  .891E-01  .851E-01  .769E-01  .672E-01  .591E-01
  .910E-01  .114E+00  .117E+00  .120E+00  .120E+00  .139E+00  .155E+00  .169E+00
  .165E+00  .197E+00  .182E+00  .173E+00  .163E+00  .163E+00  .150E+00  .137E+00
  .136E+00  .223E+00  .236E+00  .244E+00  .253E+00  .280E+00  .304E+00  .337E+00
  .301E+00  .272E+00  .255E+00  .191E+00  .187E+00  .167E+00  .177E+00  .159E+00
  .132E+00  .111E+00  .896E-01  .773E-01  .700E-01  .535E-01  .366E-01  .310E-01
  .300E-01  .275E-01  .240E-01  .211E-01  .191E-01  .179E-01  .171E-01  .164E-01
  .156E-01  .149E-01  .143E-01  .137E-01  .124E-01  .113E-01  .000E+00  .000E+00
  .000E+00  .000E+00  .000E+00  .000E+00  .000E+00  .000E+00  .000E+00  .000E+00
  .000E+00  .000E+00  .000E+00  .000E+00  .000E+00  .000E+00  .000E+00  .000E+00
  .000E+00  .000E+00  .000E+00  .000E+00
  .365E+02  .365E+02  .365E+02  .365E+02  .365E+02  .365E+02  .365E+02  .352E+02
  .365E+02  .365E+02  .365E+02  .365E+02  .365E+02  .353E+02  .353E+02  .354E+02
  .354E+02  .356E+02  .356E+02  .359E+02  .354E+02  .354E+02  .354E+02  .354E+02
  .365E+02  .366E+02  .366E+02  .398E+02  .439E+02  .420E+02  .421E+02  .423E+02
  .423E+02  .367E+02  .369E+02  .352E+02  .424E+02  .424E+02  .433E+02  .434E+02
  .416E+02  .440E+02  .453E+02  .451E+02  .451E+02  .442E+02  .438E+02  .439E+02
  .439E+02  .436E+02  .436E+02  .437E+02  .433E+02  .429E+02  .423E+02  .424E+02
  .419E+02  .420E+02  .420E+02  .420E+02  .420E+02  .420E+02  .420E+02  .420E+02
  .420E+02  .420E+02  .420E+02  .420E+02  .420E+02  .420E+02  .420E+02  .420E+02
  .420E+02  .420E+02  .420E+02  .420E+02  .420E+02  .420E+02  .000E+00  .000E+00
  .000E+00  .000E+00  .000E+00  .000E+00  .000E+00  .000E+00  .000E+00  .000E+00
  .000E+00  .000E+00  .000E+00  .000E+00  .000E+00  .000E+00  .000E+00  .000E+00
  .000E+00  .000E+00  .000E+00  .000E+00
  .353E+02  .353E+02  .353E+02  .353E+02  .353E+02  .353E+02  .352E+02  .352E+02
  .353E+02  .352E+02  .352E+02  .352E+02  .352E+02  .353E+02  .353E+02  .353E+02
  .354E+02  .356E+02  .356E+02  .354E+02  .355E+02  .355E+02  .354E+02  .354E+02
  .366E+02  .366E+02  .365E+02  .397E+02  .438E+02  .417E+02  .417E+02  .422E+02
  .367E+02  .367E+02  .373E+02  .356E+02  .354E+02  .354E+02  .423E+02  .435E+02
  .410E+02  .439E+02  .452E+02  .452E+02  .450E+02  .444E+02  .440E+02  .437E+02
  .437E+02  .438E+02  .434E+02  .434E+02  .430E+02  .431E+02  .421E+02  .421E+02
  .421E+02  .421E+02  .421E+02  .421E+02  .421E+02  .421E+02  .421E+02  .421E+02
  .421E+02  .421E+02  .421E+02  .421E+02  .421E+02  .421E+02  .421E+02  .421E+02
  .421E+02  .421E+02  .421E+02  .421E+02  .421E+02  .421E+02  .000E+00  .000E+00
  .000E+00  .000E+00  .000E+00  .000E+00  .000E+00  .000E+00  .000E+00  .000E+00
  .000E+00  .000E+00  .000E+00  .000E+00  .000E+00  .000E+00  .000E+00  .000E+00
  .000E+00  .000E+00  .000E+00  .000E+00
  .365E+02  .365E+02  .365E+02  .365E+02  .365E+02  .365E+02  .365E+02  .352E+02
  .365E+02  .365E+02  .365E+02  .365E+02  .365E+02  .353E+02  .353E+02  .354E+02
  .354E+02  .356E+02  .356E+02  .359E+02  .354E+02  .354E+02  .354E+02  .354E+02
  .365E+02  .365E+02  .366E+02  .366E+02  .439E+02  .417E+02  .421E+02  .423E+02
  .423E+02  .366E+02  .369E+02  .352E+02  .423E+02  .424E+02  .424E+02  .434E+02
  .416E+02  .440E+02  .453E+02  .450E+02  .451E+02  .442E+02  .438E+02  .439E+02
  .439E+02  .436E+02  .436E+02  .436E+02  .433E+02  .428E+02  .423E+02  .424E+02
  .419E+02  .419E+02  .420E+02  .420E+02  .420E+02  .420E+02  .420E+02  .420E+02
  .420E+02  .420E+02  .420E+02  .420E+02  .420E+02  .420E+02  .420E+02  .420E+02
  .420E+02  .420E+02  .420E+02  .420E+02  .419E+02  .419E+02  .000E+00  .000E+00
  .000E+00  .000E+00  .000E+00  .000E+00  .000E+00  .000E+00  .000E+00  .000E+00
  .000E+00  .000E+00  .000E+00  .000E+00  .000E+00  .000E+00  .000E+00  .000E+00
  .000E+00  .000E+00  .000E+00  .000E+00
/&   ----------  End of spectral data for channel  1  ----------
Response and Fourier amplitude spectra (78 periods,  .04 -  6.0 sec)   for      
Corrected accelerogram   38695658.CI.MOP.--.HN      Chan  2: 360 Deg     from   
Uncorrected Accelerogram Data             Processed: 09/19/20, CGS  cimop--g    
Rcrd of Fri Sep 18, 2020 23:38:38.0 PDT               (Avol1 v2.0, 4/18 CSMIP)  
                                        (Origin:  To be determined)             
38695658.CI.MOP.--.HN                Start time:  9/19/20, 06:38:38.0 UTC (GPS) 
Station Id. MOP     34.281N, 118.905W    ObsMMS  s/n 4191  (3 Chns of  6 at Sta)
Moorpark, Los Angeles Ave.               SCSN   Data: Acceleration              
Chan  2: 360 Deg                                                                
Rcrd of Fri Sep 18, 2020 23:38:38.0 PDT    Fri Sep 18, 2020 23:38:38.0 PDT      
Hypocenter:  To be determined.               ML:  To be determined.             
Instr Period =  .0050 sec,  Damping =  .707,  Sensitivity = 5.00 v/g  (Nominal) 
                        Record Length =301.000 sec.                             
                                     Uncor Max  =   .004 g, at   35.430 sec.    
RMS accel of (uncor) record  =        .   Chn. metadata effective date:         
Accelerogram bandpass filtered with 3 dB pts at   .30 and 23.00 cyc/sec         
                 instrument- and base-line correcte                             
                                                                                
                                                                                
                                                                                
                                                                                
                                                                                
Rcrd of Fri Sep 18, 2020 23:38:38.0 PDT    Fri Sep 18, 2020 23:38:38.0 PDT      
                                                                                
38695658.CI.MOP.--.HN     Moorpark, Los Angeles Ave.    Chan  2: 360 Deg        
                                                                                
38695658.CI.MOP.--.HN     Moorpark, Los Angeles Ave.    Chan  2: 360 Deg        
                                                                                
Units for spectra are inches and sec, except Sa is in fraction of g.            
                                                                                
    2  100    2    6    6  100 -999    3    1    0   15 4191    050550   41    0
    6   38   38    8  263    9   19 2020   10    3  36035467   39   26   74 -999
35467 -999  100    6 -999 -999 -999 -999 -999 -999 -999 -999 -999 -999 -999 -999
 -999 -999 -999 -99915050    2 -999    0 -999   20 -999 -999    3    1 -99915050
    315050    4   78    1    3    5    0    0 -999    0 -999 -999    6 -999    2
    2    2    4 -999 -999 -999 -999 -999 -999 -999 -999    1 -999 -999 -999  111
    1    1 -999 -999
      .005      .707   354.670      .000     1.000  4995.260      .004    35.430
   200.000     2.384      .477  -999.000    10.000  -999.000     4.000  -999.000
    20.000   -32.254      .000  -999.000  -999.000  -999.000  -999.000     -.002
      .002      .004     2.000    15.000    34.281  -118.905      .005      .010
     1.891      .003      .005   141.000  -999.000  -999.000  -999.000  -999.000
     1.000  -999.000  -999.000  -999.000  -999.000  -999.000  -999.000   120.000
     -.900     2.000     6.800   980.665      .020   301.000    31.831      .000
  -999.000    23.000  -999.000   301.000      .020      .300  -999.000  -999.000
    35.440     3.620    43.600     -.204    43.460      .025      .000      .300
    23.000      .020      .020      .000      .020      .017  -999.000  -999.000
      .014      .240      .008      .008      .003      .000  -999.000  -999.000
  -999.000  -999.000  -999.000  -999.000  -999.000  -999.000  -999.000  -999.000
  -999.000  -999.000  -999.000  -999.000
      .050
      .040      .042      .044      .046      .048      .050      .055      .060
      .065      .070      .075      .080      .085      .090      .095      .100
      .110      .120      .130      .140      .150      .160      .170      .180
      .190      .200      .220      .240      .260      .280      .300      .320
      .340      .360      .380      .400      .420      .440      .460      .480
      .500      .550      .600      .650      .700      .750      .800      .850
      .900      .950     1.000     1.100     1.200     1.300     1.400     1.500
     1.600     1.700     1.800     1.900     2.000     2.200     2.400     2.600
     2.800     3.000     3.200     3.400     3.600     3.800     4.000     4.200
     4.400     4.600     4.800     5.000     5.500     6.000      .000      .000
      .000      .000      .000      .000      .000      .000      .000      .000
      .000      .000      .000      .000      .000      .000      .000      .000
      .000      .000      .000      .000
Fourier amplitude spectra in in/sec.
  .000E+00  .000E+00  .000E+00  .000E+00  .000E+00  .000E+00  .000E+00  .000E+00
  .000E+00  .000E+00  .000E+00  .000E+00  .000E+00  .000E+00  .000E+00  .000E+00
  .000E+00  .000E+00  .000E+00  .000E+00  .000E+00  .000E+00  .000E+00  .000E+00
  .000E+00  .000E+00  .000E+00  .000E+00  .000E+00  .000E+00  .000E+00  .000E+00
  .000E+00  .000E+00  .000E+00  .000E+00  .000E+00  .000E+00  .000E+00  .000E+00
  .000E+00  .000E+00  .000E+00  .000E+00  .000E+00  .000E+00  .000E+00  .000E+00
  .000E+00  .000E+00  .000E+00  .000E+00  .000E+00  .000E+00  .000E+00  .000E+00
  .000E+00  .000E+00  .000E+00  .000E+00  .000E+00  .000E+00  .000E+00  .000E+00
  .000E+00  .000E+00  .000E+00  .000E+00  .000E+00  .000E+00  .000E+00  .000E+00
  .000E+00  .000E+00  .000E+00  .000E+00  .000E+00  .000E+00  .000E+00  .000E+00
  .000E+00  .000E+00  .000E+00  .000E+00  .000E+00  .000E+00  .000E+00  .000E+00
  .000E+00  .000E+00  .000E+00  .000E+00  .000E+00  .000E+00  .000E+00  .000E+00
  .000E+00  .000E+00  .000E+00  .000E+00
Damping =  .05. Data of Sd,Sv,Sa,Pssv,ttSd,ttSv,ttSa :
  .613E-04  .678E-04  .748E-04  .821E-04  .895E-04  .974E-04  .124E-03  .151E-03
  .191E-03  .220E-03  .257E-03  .307E-03  .352E-03  .433E-03  .531E-03  .588E-03
  .702E-03  .719E-03  .113E-02  .140E-02  .161E-02  .160E-02  .181E-02  .213E-02
  .250E-02  .294E-02  .463E-02  .756E-02  .884E-02  .732E-02  .690E-02  .751E-02
  .107E-01  .120E-01  .114E-01  .104E-01  .105E-01  .107E-01  .112E-01  .121E-01
