Response and Fourier amplitude spectra (78 periods,  .04 -  6.0 sec)   for      
Corrected accelerogram   38695658.CI.MSJ.--.HN      Chan  1: 104 Deg     from   
Uncorrected Accelerogram Data             Processed: 09/19/20, CGS  cimsj--h    
Rcrd of Fri Sep 18, 2020 23:38:39.0 PDT               (Avol1 v2.0, 4/18 CSMIP)  
                                        (Origin:  To be determined)             
38695658.CI.MSJ.--.HN                Start time:  9/19/20, 06:38:39.0 UTC (GPS) 
Station Id. MSJ     33.808N, 116.968W    Q330    s/n 4133  (3 Chns of  6 at Sta)
Mt. San Jacinto, Mt. San Jacinto College SCSN   Data: Acceleration              
Chan  1: 104 Deg                                                                
Rcrd of Fri Sep 18, 2020 23:38:39.0 PDT    Fri Sep 18, 2020 23:38:39.0 PDT      
Hypocenter:  To be determined.               ML:  To be determined.             
Instr Period =  .0050 sec,  Damping =  .707,  Sensitivity = 4.99 v/g  (Nominal) 
                        Record Length =301.000 sec.                             
                                     Uncor Max  =  -.006 g, at   41.920 sec.    
RMS accel of (uncor) record  =        .   Chn. metadata effective date:         
Accelerogram bandpass filtered with 3 dB pts at   .30 and 23.00 cyc/sec         
                 instrument- and base-line correcte                             
                                                                                
                                                                                
                                                                                
                                                                                
                                                                                
Rcrd of Fri Sep 18, 2020 23:38:39.0 PDT    Fri Sep 18, 2020 23:38:39.0 PDT      
                                                                                
38695658.CI.MSJ.--.HN     Mt. San Jacinto, Mt. San Jacinto College SCSChan  1: 1
04 Deg                                                                          
38695658.CI.MSJ.--.HN     Mt. San Jacinto, Mt. San Jacinto College SCSChan  1: 1
04 Deg                                                                          
Units for spectra are inches and sec, except Sa is in fraction of g.            
                                                                                
    1  100    1    6    6  100 -999    3    1    0  605 4133    050552   41    0
    6   38   39    8  263    9   19 2020   10    3  10435715   39   40   74 -999
35715 -999  100    6 -999 -999 -999 -999 -999 -999 -999 -999 -999 -999 -999 -999
 -999 -999 -999 -99915050    2 -999    0 -999   20 -999 -999    3    1 -99915050
    315050    4   78    1    3    5    0    0 -999    0 -999 -999    6 -999    2
    2    2    4 -999 -999 -999 -999 -999 -999 -999 -999    1 -999 -999 -999  111
    1    1 -999 -999
      .005      .707   357.150      .000     1.000  4987.282     -.006    41.920
   200.000     2.384      .478  -999.000    10.000  -999.000     4.000  -999.000
    20.000   -18.745      .000  -999.000  -999.000  -999.000  -999.000     -.001
      .001      .002     2.000    15.000    33.808  -116.968      .004      .003
      .885      .001      .002   466.000  -999.000  -999.000  -999.000  -999.000
     1.000  -999.000    -8.000  -999.000  -999.000  -999.000  -999.000   120.000
     -.900     2.000     6.800   980.665      .020   301.000    31.831      .000
  -999.000    23.000  -999.000   301.000      .020      .300  -999.000  -999.000
    41.920    -6.280    40.600      .346    40.520     -.031      .000      .300
    23.000      .020      .020      .000      .020      .017  -999.000  -999.000
      .029      .120      .016      .013      .003      .000  -999.000  -999.000
  -999.000  -999.000  -999.000  -999.000  -999.000  -999.000  -999.000  -999.000
  -999.000  -999.000  -999.000  -999.000
      .050
      .040      .042      .044      .046      .048      .050      .055      .060
      .065      .070      .075      .080      .085      .090      .095      .100
      .110      .120      .130      .140      .150      .160      .170      .180
      .190      .200      .220      .240      .260      .280      .300      .320
      .340      .360      .380      .400      .420      .440      .460      .480
      .500      .550      .600      .650      .700      .750      .800      .850
      .900      .950     1.000     1.100     1.200     1.300     1.400     1.500
     1.600     1.700     1.800     1.900     2.000     2.200     2.400     2.600
     2.800     3.000     3.200     3.400     3.600     3.800     4.000     4.200
     4.400     4.600     4.800     5.000     5.500     6.000      .000      .000
      .000      .000      .000      .000      .000      .000      .000      .000
      .000      .000      .000      .000      .000      .000      .000      .000
      .000      .000      .000      .000
Fourier amplitude spectra in in/sec.
  .000E+00  .000E+00  .000E+00  .000E+00  .000E+00  .000E+00  .000E+00  .000E+00
  .000E+00  .000E+00  .000E+00  .000E+00  .000E+00  .000E+00  .000E+00  .000E+00
  .000E+00  .000E+00  .000E+00  .000E+00  .000E+00  .000E+00  .000E+00  .000E+00
  .000E+00  .000E+00  .000E+00  .000E+00  .000E+00  .000E+00  .000E+00  .000E+00
  .000E+00  .000E+00  .000E+00  .000E+00  .000E+00  .000E+00  .000E+00  .000E+00
  .000E+00  .000E+00  .000E+00  .000E+00  .000E+00  .000E+00  .000E+00  .000E+00
  .000E+00  .000E+00  .000E+00  .000E+00  .000E+00  .000E+00  .000E+00  .000E+00
  .000E+00  .000E+00  .000E+00  .000E+00  .000E+00  .000E+00  .000E+00  .000E+00
  .000E+00  .000E+00  .000E+00  .000E+00  .000E+00  .000E+00  .000E+00  .000E+00
  .000E+00  .000E+00  .000E+00  .000E+00  .000E+00  .000E+00  .000E+00  .000E+00
  .000E+00  .000E+00  .000E+00  .000E+00  .000E+00  .000E+00  .000E+00  .000E+00
  .000E+00  .000E+00  .000E+00  .000E+00  .000E+00  .000E+00  .000E+00  .000E+00
  .000E+00  .000E+00  .000E+00  .000E+00
Damping =  .05. Data of Sd,Sv,Sa,Pssv,ttSd,ttSv,ttSa :
  .104E-03  .116E-03  .128E-03  .142E-03  .163E-03  .184E-03  .288E-03  .376E-03
  .551E-03  .694E-03  .863E-03  .116E-02  .136E-02  .134E-02  .130E-02  .162E-02
  .296E-02  .397E-02  .353E-02  .339E-02  .404E-02  .421E-02  .424E-02  .444E-02
  .500E-02  .560E-02  .837E-02  .925E-02  .913E-02  .101E-01  .110E-01  .137E-01
  .132E-01  .143E-01  .146E-01  .125E-01  .140E-01  .146E-01  .147E-01  .151E-01
  .156E-01  .158E-01  .203E-01  .225E-01  .234E-01  .257E-01  .295E-01  .315E-01
  .322E-01  .318E-01  .330E-01  .380E-01  .366E-01  .330E-01  .306E-01  .268E-01
  .245E-01  .239E-01  .226E-01  .211E-01  .197E-01  .180E-01  .175E-01  .168E-01
  .158E-01  .154E-01  .153E-01  .151E-01  .148E-01  .145E-01  .142E-01  .140E-01
  .138E-01  .136E-01  .134E-01  .133E-01  .130E-01  .128E-01  .000E+00  .000E+00
  .000E+00  .000E+00  .000E+00  .000E+00  .000E+00  .000E+00  .000E+00  .000E+00
  .000E+00  .000E+00  .000E+00  .000E+00  .000E+00  .000E+00  .000E+00  .000E+00
  .000E+00  .000E+00  .000E+00  .000E+00
  .628E-02  .694E-02  .774E-02  .890E-02  .102E-01  .118E-01  .201E-01  .298E-01
  .392E-01  .443E-01  .598E-01  .699E-01  .872E-01  .830E-01  .776E-01  .927E-01
  .162E+00  .206E+00  .167E+00  .148E+00  .160E+00  .170E+00  .163E+00  .145E+00
  .147E+00  .154E+00  .213E+00  .245E+00  .222E+00  .233E+00  .227E+00  .267E+00
  .230E+00  .248E+00  .254E+00  .208E+00  .201E+00  .209E+00  .217E+00  .223E+00
  .227E+00  .214E+00  .211E+00  .219E+00  .249E+00  .266E+00  .272E+00  .257E+00
  .232E+00  .229E+00  .234E+00  .251E+00  .248E+00  .239E+00  .229E+00  .218E+00
  .204E+00  .195E+00  .185E+00  .177E+00  .170E+00  .161E+00  .154E+00  .148E+00
  .145E+00  .143E+00  .141E+00  .140E+00  .138E+00  .137E+00  .137E+00  .136E+00
  .135E+00  .135E+00  .135E+00  .135E+00  .134E+00  .134E+00  .000E+00  .000E+00
  .000E+00  .000E+00  .000E+00  .000E+00  .000E+00  .000E+00  .000E+00  .000E+00
  .000E+00  .000E+00  .000E+00  .000E+00  .000E+00  .000E+00  .000E+00  .000E+00
  .000E+00  .000E+00  .000E+00  .000E+00
  .662E-02  .670E-02  .677E-02  .686E-02  .720E-02  .758E-02  .969E-02  .108E-01
  .135E-01  .147E-01  .157E-01  .186E-01  .193E-01  .171E-01  .149E-01  .163E-01
  .247E-01  .288E-01  .218E-01  .176E-01  .187E-01  .170E-01  .153E-01  .141E-01
  .143E-01  .148E-01  .177E-01  .165E-01  .140E-01  .134E-01  .127E-01  .137E-01
  .117E-01  .114E-01  .104E-01  .800E-02  .811E-02  .774E-02  .721E-02  .675E-02
  .636E-02  .536E-02  .577E-02  .546E-02  .493E-02  .473E-02  .474E-02  .452E-02
  .409E-02  .363E-02  .338E-02  .322E-02  .264E-02  .201E-02  .161E-02  .124E-02
  .994E-03  .864E-03  .734E-03  .616E-03  .520E-03  .392E-03  .321E-03  .261E-03
  .214E-03  .183E-03  .160E-03  .142E-03  .124E-03  .111E-03  .996E-04  .904E-04
  .826E-04  .759E-04  .700E-04  .650E-04  .548E-04  .473E-04  .000E+00  .000E+00
  .000E+00  .000E+00  .000E+00  .000E+00  .000E+00  .000E+00  .000E+00  .000E+00
  .000E+00  .000E+00  .000E+00  .000E+00  .000E+00  .000E+00  .000E+00  .000E+00
  .000E+00  .000E+00  .000E+00  .000E+00
  .163E-01  .173E-01  .183E-01  .194E-01  .213E-01  .231E-01  .329E-01  .394E-01
  .533E-01  .623E-01  .723E-01  .914E-01  .100E+00  .934E-01  .860E-01  .102E+00
  .169E+00  .208E+00  .171E+00  .152E+00  .169E+00  .165E+00  .157E+00  .155E+00
  .165E+00  .176E+00  .239E+00  .242E+00  .221E+00  .226E+00  .230E+00  .270E+00
  .244E+00  .249E+00  .241E+00  .196E+00  .210E+00  .209E+00  .201E+00  .198E+00
  .195E+00  .181E+00  .213E+00  .217E+00  .210E+00  .215E+00  .231E+00  .233E+00
  .225E+00  .210E+00  .207E+00  .217E+00  .191E+00  .160E+00  .137E+00  .112E+00
  .962E-01  .884E-01  .790E-01  .698E-01  .618E-01  .514E-01  .459E-01  .406E-01
  .356E-01  .323E-01  .300E-01  .279E-01  .258E-01  .239E-01  .223E-01  .209E-01
  .197E-01  .186E-01  .175E-01  .167E-01  .148E-01  .134E-01  .000E+00  .000E+00
  .000E+00  .000E+00  .000E+00  .000E+00  .000E+00  .000E+00  .000E+00  .000E+00
  .000E+00  .000E+00  .000E+00  .000E+00  .000E+00  .000E+00  .000E+00  .000E+00
  .000E+00  .000E+00  .000E+00  .000E+00
  .419E+02  .419E+02  .419E+02  .419E+02  .419E+02  .419E+02  .419E+02  .419E+02
  .419E+02  .419E+02  .406E+02  .419E+02  .419E+02  .420E+02  .408E+02  .417E+02
  .420E+02  .420E+02  .421E+02  .423E+02  .411E+02  .423E+02  .423E+02  .407E+02
  .407E+02  .407E+02  .407E+02  .407E+02  .409E+02  .409E+02  .409E+02  .454E+02
  .459E+02  .460E+02  .458E+02  .458E+02  .412E+02  .412E+02  .412E+02  .412E+02
  .412E+02  .408E+02  .408E+02  .408E+02  .409E+02  .406E+02  .406E+02  .406E+02
  .406E+02  .407E+02  .418E+02  .419E+02  .419E+02  .415E+02  .415E+02  .416E+02
  .410E+02  .410E+02  .410E+02  .411E+02  .411E+02  .404E+02  .405E+02  .405E+02
  .405E+02  .405E+02  .405E+02  .405E+02  .405E+02  .405E+02  .405E+02  .405E+02
  .405E+02  .405E+02  .405E+02  .405E+02  .405E+02  .405E+02  .000E+00  .000E+00
  .000E+00  .000E+00  .000E+00  .000E+00  .000E+00  .000E+00  .000E+00  .000E+00
  .000E+00  .000E+00  .000E+00  .000E+00  .000E+00  .000E+00  .000E+00  .000E+00
  .000E+00  .000E+00  .000E+00  .000E+00
  .406E+02  .406E+02  .406E+02  .406E+02  .418E+02  .418E+02  .419E+02  .419E+02
  .419E+02  .419E+02  .416E+02  .419E+02  .420E+02  .420E+02  .407E+02  .417E+02
  .420E+02  .420E+02  .420E+02  .423E+02  .411E+02  .423E+02  .423E+02  .423E+02
  .407E+02  .407E+02  .406E+02  .406E+02  .407E+02  .410E+02  .408E+02  .453E+02
  .459E+02  .459E+02  .459E+02  .459E+02  .413E+02  .413E+02  .411E+02  .411E+02
  .411E+02  .409E+02  .409E+02  .407E+02  .407E+02  .408E+02  .408E+02  .408E+02
  .408E+02  .419E+02  .419E+02  .406E+02  .406E+02  .406E+02  .406E+02  .406E+02
  .406E+02  .406E+02  .406E+02  .406E+02  .406E+02  .406E+02  .406E+02  .406E+02
  .406E+02  .406E+02  .406E+02  .406E+02  .406E+02  .406E+02  .406E+02  .406E+02
  .406E+02  .406E+02  .406E+02  .406E+02  .406E+02  .406E+02  .000E+00  .000E+00
  .000E+00  .000E+00  .000E+00  .000E+00  .000E+00  .000E+00  .000E+00  .000E+00
  .000E+00  .000E+00  .000E+00  .000E+00  .000E+00  .000E+00  .000E+00  .000E+00
  .000E+00  .000E+00  .000E+00  .000E+00
  .419E+02  .419E+02  .419E+02  .419E+02  .419E+02  .419E+02  .419E+02  .419E+02
  .419E+02  .419E+02  .406E+02  .419E+02  .419E+02  .420E+02  .408E+02  .417E+02
  .419E+02  .420E+02  .421E+02  .422E+02  .411E+02  .411E+02  .423E+02  .407E+02
  .407E+02  .407E+02  .407E+02  .407E+02  .409E+02  .409E+02  .409E+02  .454E+02
  .459E+02  .460E+02  .460E+02  .458E+02  .412E+02  .412E+02  .412E+02  .412E+02
  .412E+02  .408E+02  .408E+02  .408E+02  .409E+02  .406E+02  .406E+02  .406E+02
  .406E+02  .406E+02  .417E+02  .419E+02  .419E+02  .414E+02  .415E+02  .416E+02
  .410E+02  .410E+02  .410E+02  .410E+02  .410E+02  .403E+02  .403E+02  .405E+02
  .405E+02  .405E+02  .405E+02  .405E+02  .405E+02  .403E+02  .403E+02  .403E+02
  .403E+02  .403E+02  .403E+02  .403E+02  .403E+02  .403E+02  .000E+00  .000E+00
  .000E+00  .000E+00  .000E+00  .000E+00  .000E+00  .000E+00  .000E+00  .000E+00
  .000E+00  .000E+00  .000E+00  .000E+00  .000E+00  .000E+00  .000E+00  .000E+00
  .000E+00  .000E+00  .000E+00  .000E+00
/&   ----------  End of spectral data for channel  1  ----------
Response and Fourier amplitude spectra (78 periods,  .04 -  6.0 sec)   for      
Corrected accelerogram   38695658.CI.MSJ.--.HN      Chan  2:  14 Deg     from   
Uncorrected Accelerogram Data             Processed: 09/19/20, CGS  cimsj--h    
Rcrd of Fri Sep 18, 2020 23:38:39.0 PDT               (Avol1 v2.0, 4/18 CSMIP)  
                                        (Origin:  To be determined)             
38695658.CI.MSJ.--.HN                Start time:  9/19/20, 06:38:39.0 UTC (GPS) 
Station Id. MSJ     33.808N, 116.968W    Q330    s/n 4133  (3 Chns of  6 at Sta)
Mt. San Jacinto, Mt. San Jacinto College SCSN   Data: Acceleration              
Chan  2:  14 Deg                                                                
Rcrd of Fri Sep 18, 2020 23:38:39.0 PDT    Fri Sep 18, 2020 23:38:39.0 PDT      
Hypocenter:  To be determined.               ML:  To be determined.             
Instr Period =  .0050 sec,  Damping =  .707,  Sensitivity = 5.00 v/g  (Nominal) 
                        Record Length =301.000 sec.                             
                                     Uncor Max  =  -.007 g, at   40.390 sec.    
RMS accel of (uncor) record  =        .   Chn. metadata effective date:         
Accelerogram bandpass filtered with 3 dB pts at   .30 and 23.00 cyc/sec         
                 instrument- and base-line correcte                             
                                                                                
                                                                                
                                                                                
                                                                                
                                                                                
Rcrd of Fri Sep 18, 2020 23:38:39.0 PDT    Fri Sep 18, 2020 23:38:39.0 PDT      
                                                                                
38695658.CI.MSJ.--.HN     Mt. San Jacinto, Mt. San Jacinto College SCSChan  2:  
14 Deg                                                                          
38695658.CI.MSJ.--.HN     Mt. San Jacinto, Mt. San Jacinto College SCSChan  2:  
14 Deg                                                                          
Units for spectra are inches and sec, except Sa is in fraction of g.            
                                                                                
    2  100    2    6    6  100 -999    3    1    0  605 4133    050552   41    0
    6   38   39    8  263    9   19 2020   10    3   1435845   39   40   74 -999
35845 -999  100    6 -999 -999 -999 -999 -999 -999 -999 -999 -999 -999 -999 -999
 -999 -999 -999 -99915050    2 -999    0 -999   20 -999 -999    3    1 -99915050
    315050    4   78    1    3    5    0    0 -999    0 -999 -999    6 -999    2
    2    2    4 -999 -999 -999 -999 -999 -999 -999 -999    1 -999 -999 -999  111
    1    1 -999 -999
      .005      .707   358.450      .000     1.000  4995.260     -.007    40.390
   200.000     2.384      .477  -999.000    10.000  -999.000     4.000  -999.000
    20.000    -3.094      .000  -999.000  -999.000  -999.000  -999.000      .001
     -.001     -.002     2.000    15.000    33.808  -116.968      .004      .003
      .817     -.003     -.001   466.000  -999.000  -999.000  -999.000  -999.000
     1.000  -999.000  -999.000  -999.000  -999.000  -999.000  -999.000   120.000
     -.900     2.000     6.800   980.665      .020   301.000    31.831      .000
  -999.000    23.000  -999.000   301.000      .020      .300  -999.000  -999.000
    40.380    -6.321    40.320      .325    40.400      .022      .000      .300
    23.000      .020      .020      .000      .020      .016  -999.000  -999.000
      .020      .130      .012      .014      .002      .000  -999.000  -999.000
  -999.000  -999.000  -999.000  -999.000  -999.000  -999.000  -999.000  -999.000
  -999.000  -999.000  -999.000  -999.000
      .050
      .040      .042      .044      .046      .048      .050      .055      .060
      .065      .070      .075      .080      .085      .090      .095      .100
      .110      .120      .130      .140      .150      .160      .170      .180
      .190      .200      .220      .240      .260      .280      .300      .320
      .340      .360      .380      .400      .420      .440      .460      .480
      .500      .550      .600      .650      .700      .750      .800      .850
      .900      .950     1.000     1.100     1.200     1.300     1.400     1.500
     1.600     1.700     1.800     1.900     2.000     2.200     2.400     2.600
     2.800     3.000     3.200     3.400     3.600     3.800     4.000     4.200
     4.400     4.600     4.800     5.000     5.500     6.000      .000      .000
      .000      .000      .000      .000      .000      .000      .000      .000
      .000      .000      .000      .000      .000      .000      .000      .000
      .000      .000      .000      .000
Fourier amplitude spectra in in/sec.
  .000E+00  .000E+00  .000E+00  .000E+00  .000E+00  .000E+00  .000E+00  .000E+00
  .000E+00  .000E+00  .000E+00  .000E+00  .000E+00  .000E+00  .000E+00  .000E+00
  .000E+00  .000E+00  .000E+00  .000E+00  .000E+00  .000E+00  .000E+00  .000E+00
  .000E+00  .000E+00  .000E+00  .000E+00  .000E+00  .000E+00  .000E+00  .000E+00
  .000E+00  .000E+00  .000E+00  .000E+00  .000E+00  .000E+00  .000E+00  .000E+00
  .000E+00  .000E+00  .000E+00  .000E+00  .000E+00  .000E+00  .000E+00  .000E+00
  .000E+00  .000E+00  .000E+00  .000E+00  .000E+00  .000E+00  .000E+00  .000E+00
  .000E+00  .000E+00  .000E+00  .000E+00  .000E+00  .000E+00  .000E+00  .000E+00
  .000E+00  .000E+00  .000E+00  .000E+00  .000E+00  .000E+00  .000E+00  .000E+00
  .000E+00  .000E+00  .000E+00  .000E+00  .000E+00  .000E+00  .000E+00  .000E+00
  .000E+00  .000E+00  .000E+00  .000E+00  .000E+00  .000E+00  .000E+00  .000E+00
  .000E+00  .000E+00  .000E+00  .000E+00  .000E+00  .000E+00  .000E+00  .000E+00
  .000E+00  .000E+00  .000E+00  .000E+00
Damping =  .05. Data of Sd,Sv,Sa,Pssv,ttSd,ttSv,ttSa :
  .108E-03  .120E-03  .132E-03  .144E-03  .153E-03  .170E-03  .239E-03  .312E-03
  .360E-03  .474E-03  .613E-03  .887E-03  .110E-02  .120E-02  .126E-02  .137E-02
  .173E-02  .236E-02  .320E-02  .364E-02  .398E-02  .483E-02  .529E-02  .512E-02
  .455E-02  .424E-02  .538E-02  .680E-02  .878E-02  .108E-01  .130E-01  .137E-01
  .147E-01  .146E-01  .146E-01  .159E-01  .160E-01  .161E-01  .173E-01  .181E-01
