Response and Fourier amplitude spectra (78 periods,  .04 -  6.0 sec)   for      
Corrected accelerogram   38695658.CI.MSC.--.HN      Chan  1:  90 Deg     from   
Uncorrected Accelerogram Data             Processed: 09/19/20, CGS  cimsc--n    
Rcrd of Fri Sep 18, 2020 23:38:42.0 PDT               (Avol1 v2.0, 4/18 CSMIP)  
                                        (Origin:  To be determined)             
38695658.CI.MSC.--.HN                Start time:  9/19/20, 06:38:42.0 UTC (GPS) 
Station Id. MSC     34.039N, 116.648W    ObsMMS  s/n 5328  (3 Chns of  6 at Sta)
Mission Creek                            SCSN   Data: Acceleration              
Chan  1:  90 Deg                                                                
Rcrd of Fri Sep 18, 2020 23:38:42.0 PDT    Fri Sep 18, 2020 23:38:42.0 PDT      
Hypocenter:  To be determined.               ML:  To be determined.             
Instr Period =  .0050 sec,  Damping =  .707,  Sensitivity = 4.99 v/g  (Nominal) 
                        Record Length =301.000 sec.                             
                                     Uncor Max  =   .003 g, at   45.140 sec.    
RMS accel of (uncor) record  =        .   Chn. metadata effective date:         
Accelerogram bandpass filtered with 3 dB pts at   .30 and 23.00 cyc/sec         
                 instrument- and base-line correcte                             
                                                                                
                                                                                
                                                                                
                                                                                
                                                                                
Rcrd of Fri Sep 18, 2020 23:38:42.0 PDT    Fri Sep 18, 2020 23:38:42.0 PDT      
                                                                                
38695658.CI.MSC.--.HN     Mission Creek   Chan  1:  90 Deg                      
                                                                                
38695658.CI.MSC.--.HN     Mission Creek   Chan  1:  90 Deg                      
                                                                                
Units for spectra are inches and sec, except Sa is in fraction of g.            
                                                                                
    1  100    1    6    6  100 -999    3    1    0   15 5328    0    0   41    0
    6   38   42    8  263    9   19 2020   10    3   9036244   39   13   74 -999
36244 -999  100    6 -999 -999 -999 -999 -999 -999 -999 -999 -999 -999 -999 -999
 -999 -999 -999 -99915050    2 -999    0 -999   20 -999 -999    3    1 -99915050
    315050    4   78    1    3    5    0    0 -999    0 -999 -999    6 -999    2
    2    2    4 -999 -999 -999 -999 -999 -999 -999 -999    1 -999 -999 -999  111
    1    1 -999 -999
      .005      .707   362.440      .000     1.000  4987.282      .003    45.140
   200.000     2.384      .478  -999.000    10.000  -999.000     4.000  -999.000
    20.000   -23.897      .000  -999.000  -999.000  -999.000  -999.000     -.001
      .000      .000     2.000    15.000    34.039  -116.648      .001      .001
      .966      .000      .001   938.000  -999.000  -999.000  -999.000  -999.000
     1.000  -999.000    -8.000  -999.000  -999.000  -999.000  -999.000   120.000
     -.900     2.000     6.800   980.665      .020   301.000    31.831      .000
  -999.000    23.000  -999.000   301.000      .020      .300  -999.000  -999.000
    45.140     2.666    44.420     -.094    42.660      .009      .000      .300
    23.000      .020      .020      .000      .020      .006  -999.000  -999.000
      .013      .240      .009      .007      .001      .000  -999.000  -999.000
  -999.000  -999.000  -999.000  -999.000  -999.000  -999.000  -999.000  -999.000
  -999.000  -999.000  -999.000  -999.000
      .050
      .040      .042      .044      .046      .048      .050      .055      .060
      .065      .070      .075      .080      .085      .090      .095      .100
      .110      .120      .130      .140      .150      .160      .170      .180
      .190      .200      .220      .240      .260      .280      .300      .320
      .340      .360      .380      .400      .420      .440      .460      .480
      .500      .550      .600      .650      .700      .750      .800      .850
      .900      .950     1.000     1.100     1.200     1.300     1.400     1.500
     1.600     1.700     1.800     1.900     2.000     2.200     2.400     2.600
     2.800     3.000     3.200     3.400     3.600     3.800     4.000     4.200
     4.400     4.600     4.800     5.000     5.500     6.000      .000      .000
      .000      .000      .000      .000      .000      .000      .000      .000
      .000      .000      .000      .000      .000      .000      .000      .000
      .000      .000      .000      .000
Fourier amplitude spectra in in/sec.
  .000E+00  .000E+00  .000E+00  .000E+00  .000E+00  .000E+00  .000E+00  .000E+00
  .000E+00  .000E+00  .000E+00  .000E+00  .000E+00  .000E+00  .000E+00  .000E+00
  .000E+00  .000E+00  .000E+00  .000E+00  .000E+00  .000E+00  .000E+00  .000E+00
  .000E+00  .000E+00  .000E+00  .000E+00  .000E+00  .000E+00  .000E+00  .000E+00
  .000E+00  .000E+00  .000E+00  .000E+00  .000E+00  .000E+00  .000E+00  .000E+00
  .000E+00  .000E+00  .000E+00  .000E+00  .000E+00  .000E+00  .000E+00  .000E+00
  .000E+00  .000E+00  .000E+00  .000E+00  .000E+00  .000E+00  .000E+00  .000E+00
  .000E+00  .000E+00  .000E+00  .000E+00  .000E+00  .000E+00  .000E+00  .000E+00
  .000E+00  .000E+00  .000E+00  .000E+00  .000E+00  .000E+00  .000E+00  .000E+00
  .000E+00  .000E+00  .000E+00  .000E+00  .000E+00  .000E+00  .000E+00  .000E+00
  .000E+00  .000E+00  .000E+00  .000E+00  .000E+00  .000E+00  .000E+00  .000E+00
  .000E+00  .000E+00  .000E+00  .000E+00  .000E+00  .000E+00  .000E+00  .000E+00
  .000E+00  .000E+00  .000E+00  .000E+00
Damping =  .05. Data of Sd,Sv,Sa,Pssv,ttSd,ttSv,ttSa :
  .433E-04  .480E-04  .527E-04  .576E-04  .646E-04  .706E-04  .919E-04  .112E-03
  .133E-03  .154E-03  .225E-03  .275E-03  .380E-03  .469E-03  .468E-03  .411E-03
  .557E-03  .771E-03  .996E-03  .124E-02  .202E-02  .256E-02  .289E-02  .276E-02
  .256E-02  .281E-02  .537E-02  .719E-02  .629E-02  .639E-02  .715E-02  .551E-02
  .597E-02  .605E-02  .668E-02  .707E-02  .710E-02  .730E-02  .695E-02  .706E-02
  .742E-02  .664E-02  .681E-02  .707E-02  .727E-02  .708E-02  .674E-02  .607E-02
  .535E-02  .519E-02  .542E-02  .665E-02  .708E-02  .699E-02  .590E-02  .540E-02
  .484E-02  .431E-02  .404E-02  .389E-02  .390E-02  .381E-02  .378E-02  .400E-02
  .432E-02  .412E-02  .396E-02  .388E-02  .378E-02  .372E-02  .370E-02  .367E-02
  .363E-02  .362E-02  .362E-02  .360E-02  .351E-02  .351E-02  .000E+00  .000E+00
  .000E+00  .000E+00  .000E+00  .000E+00  .000E+00  .000E+00  .000E+00  .000E+00
  .000E+00  .000E+00  .000E+00  .000E+00  .000E+00  .000E+00  .000E+00  .000E+00
  .000E+00  .000E+00  .000E+00  .000E+00
  .151E-02  .175E-02  .213E-02  .250E-02  .270E-02  .285E-02  .437E-02  .594E-02
  .656E-02  .894E-02  .113E-01  .158E-01  .193E-01  .241E-01  .215E-01  .205E-01
  .262E-01  .365E-01  .436E-01  .475E-01  .702E-01  .902E-01  .102E+00  .882E-01
  .834E-01  .902E-01  .147E+00  .189E+00  .158E+00  .142E+00  .160E+00  .118E+00
  .129E+00  .125E+00  .127E+00  .124E+00  .132E+00  .121E+00  .107E+00  .106E+00
  .106E+00  .949E-01  .813E-01  .855E-01  .710E-01  .631E-01  .646E-01  .629E-01
  .601E-01  .568E-01  .603E-01  .654E-01  .620E-01  .562E-01  .497E-01  .468E-01
  .450E-01  .420E-01  .416E-01  .412E-01  .401E-01  .383E-01  .367E-01  .361E-01
  .376E-01  .373E-01  .370E-01  .367E-01  .365E-01  .364E-01  .362E-01  .362E-01
  .361E-01  .361E-01  .361E-01  .361E-01  .360E-01  .361E-01  .000E+00  .000E+00
  .000E+00  .000E+00  .000E+00  .000E+00  .000E+00  .000E+00  .000E+00  .000E+00
  .000E+00  .000E+00  .000E+00  .000E+00  .000E+00  .000E+00  .000E+00  .000E+00
  .000E+00  .000E+00  .000E+00  .000E+00
  .277E-02  .278E-02  .279E-02  .278E-02  .288E-02  .288E-02  .312E-02  .319E-02
  .320E-02  .320E-02  .408E-02  .437E-02  .537E-02  .600E-02  .534E-02  .425E-02
  .470E-02  .558E-02  .598E-02  .648E-02  .923E-02  .103E-01  .103E-01  .876E-02
  .732E-02  .733E-02  .113E-01  .126E-01  .970E-02  .845E-02  .821E-02  .546E-02
  .527E-02  .489E-02  .473E-02  .462E-02  .412E-02  .385E-02  .342E-02  .316E-02
  .304E-02  .225E-02  .195E-02  .173E-02  .154E-02  .130E-02  .108E-02  .865E-03
  .679E-03  .593E-03  .558E-03  .577E-03  .513E-03  .433E-03  .319E-03  .258E-03
  .204E-03  .156E-03  .131E-03  .115E-03  .104E-03  .852E-04  .718E-04  .652E-04
  .612E-04  .514E-04  .441E-04  .388E-04  .343E-04  .307E-04  .279E-04  .255E-04
  .233E-04  .215E-04  .200E-04  .186E-04  .157E-04  .137E-04  .000E+00  .000E+00
  .000E+00  .000E+00  .000E+00  .000E+00  .000E+00  .000E+00  .000E+00  .000E+00
  .000E+00  .000E+00  .000E+00  .000E+00  .000E+00  .000E+00  .000E+00  .000E+00
  .000E+00  .000E+00  .000E+00  .000E+00
  .680E-02  .719E-02  .753E-02  .787E-02  .846E-02  .888E-02  .105E-01  .117E-01
  .128E-01  .138E-01  .188E-01  .216E-01  .281E-01  .327E-01  .309E-01  .258E-01
  .318E-01  .404E-01  .481E-01  .558E-01  .844E-01  .101E+00  .107E+00  .963E-01
  .847E-01  .883E-01  .154E+00  .188E+00  .152E+00  .143E+00  .150E+00  .108E+00
  .110E+00  .106E+00  .111E+00  .111E+00  .106E+00  .104E+00  .949E-01  .924E-01
  .933E-01  .759E-01  .714E-01  .683E-01  .653E-01  .593E-01  .529E-01  .448E-01
  .374E-01  .344E-01  .341E-01  .380E-01  .370E-01  .338E-01  .265E-01  .226E-01
  .190E-01  .159E-01  .141E-01  .129E-01  .122E-01  .109E-01  .990E-02  .967E-02
  .970E-02  .862E-02  .777E-02  .716E-02  .660E-02  .615E-02  .581E-02  .549E-02
  .518E-02  .494E-02  .474E-02  .452E-02  .401E-02  .368E-02  .000E+00  .000E+00
  .000E+00  .000E+00  .000E+00  .000E+00  .000E+00  .000E+00  .000E+00  .000E+00
  .000E+00  .000E+00  .000E+00  .000E+00  .000E+00  .000E+00  .000E+00  .000E+00
  .000E+00  .000E+00  .000E+00  .000E+00
  .451E+02  .451E+02  .451E+02  .445E+02  .445E+02  .445E+02  .445E+02  .445E+02
  .446E+02  .446E+02  .450E+02  .445E+02  .445E+02  .445E+02  .443E+02  .451E+02
  .450E+02  .460E+02  .457E+02  .451E+02  .451E+02  .451E+02  .452E+02  .453E+02
  .446E+02  .446E+02  .454E+02  .457E+02  .445E+02  .474E+02  .474E+02  .454E+02
  .507E+02  .451E+02  .444E+02  .444E+02  .443E+02  .443E+02  .437E+02  .437E+02
  .435E+02  .436E+02  .434E+02  .431E+02  .432E+02  .432E+02  .432E+02  .432E+02
  .429E+02  .429E+02  .429E+02  .451E+02  .442E+02  .442E+02  .442E+02  .444E+02
  .445E+02  .430E+02  .430E+02  .426E+02  .426E+02  .426E+02  .426E+02  .426E+02
  .426E+02  .426E+02  .426E+02  .426E+02  .426E+02  .426E+02  .426E+02  .426E+02
  .426E+02  .426E+02  .426E+02  .426E+02  .426E+02  .426E+02  .000E+00  .000E+00
  .000E+00  .000E+00  .000E+00  .000E+00  .000E+00  .000E+00  .000E+00  .000E+00
  .000E+00  .000E+00  .000E+00  .000E+00  .000E+00  .000E+00  .000E+00  .000E+00
  .000E+00  .000E+00  .000E+00  .000E+00
  .442E+02  .444E+02  .444E+02  .444E+02  .444E+02  .444E+02  .445E+02  .445E+02
  .446E+02  .461E+02  .437E+02  .446E+02  .446E+02  .443E+02  .443E+02  .449E+02
  .462E+02  .460E+02  .458E+02  .458E+02  .451E+02  .452E+02  .452E+02  .452E+02
  .446E+02  .446E+02  .455E+02  .456E+02  .446E+02  .445E+02  .473E+02  .454E+02
  .453E+02  .445E+02  .445E+02  .444E+02  .444E+02  .444E+02  .443E+02  .436E+02
  .437E+02  .435E+02  .435E+02  .443E+02  .443E+02  .431E+02  .431E+02  .431E+02
  .431E+02  .431E+02  .452E+02  .443E+02  .451E+02  .451E+02  .472E+02  .441E+02
  .441E+02  .441E+02  .444E+02  .444E+02  .444E+02  .444E+02  .444E+02  .451E+02
  .472E+02  .472E+02  .472E+02  .472E+02  .472E+02  .472E+02  .472E+02  .472E+02
  .472E+02  .472E+02  .472E+02  .472E+02  .472E+02  .472E+02  .000E+00  .000E+00
  .000E+00  .000E+00  .000E+00  .000E+00  .000E+00  .000E+00  .000E+00  .000E+00
  .000E+00  .000E+00  .000E+00  .000E+00  .000E+00  .000E+00  .000E+00  .000E+00
  .000E+00  .000E+00  .000E+00  .000E+00
  .451E+02  .451E+02  .451E+02  .445E+02  .445E+02  .445E+02  .445E+02  .445E+02
  .446E+02  .446E+02  .450E+02  .445E+02  .445E+02  .445E+02  .443E+02  .451E+02
  .450E+02  .460E+02  .457E+02  .451E+02  .451E+02  .451E+02  .452E+02  .453E+02
  .446E+02  .446E+02  .454E+02  .457E+02  .445E+02  .474E+02  .474E+02  .454E+02
  .507E+02  .451E+02  .444E+02  .444E+02  .443E+02  .443E+02  .437E+02  .437E+02
  .435E+02  .436E+02  .434E+02  .431E+02  .432E+02  .432E+02  .432E+02  .432E+02
  .429E+02  .429E+02  .429E+02  .451E+02  .442E+02  .442E+02  .442E+02  .444E+02
  .444E+02  .430E+02  .430E+02  .426E+02  .426E+02  .426E+02  .426E+02  .426E+02
  .426E+02  .426E+02  .426E+02  .426E+02  .426E+02  .426E+02  .426E+02  .426E+02
  .426E+02  .426E+02  .426E+02  .426E+02  .426E+02  .426E+02  .000E+00  .000E+00
  .000E+00  .000E+00  .000E+00  .000E+00  .000E+00  .000E+00  .000E+00  .000E+00
  .000E+00  .000E+00  .000E+00  .000E+00  .000E+00  .000E+00  .000E+00  .000E+00
  .000E+00  .000E+00  .000E+00  .000E+00
/&   ----------  End of spectral data for channel  1  ----------
Response and Fourier amplitude spectra (78 periods,  .04 -  6.0 sec)   for      
Corrected accelerogram   38695658.CI.MSC.--.HN      Chan  2: 360 Deg     from   
Uncorrected Accelerogram Data             Processed: 09/19/20, CGS  cimsc--n    
Rcrd of Fri Sep 18, 2020 23:38:42.0 PDT               (Avol1 v2.0, 4/18 CSMIP)  
                                        (Origin:  To be determined)             
38695658.CI.MSC.--.HN                Start time:  9/19/20, 06:38:42.0 UTC (GPS) 
Station Id. MSC     34.039N, 116.648W    ObsMMS  s/n 5328  (3 Chns of  6 at Sta)
Mission Creek                            SCSN   Data: Acceleration              
Chan  2: 360 Deg                                                                
Rcrd of Fri Sep 18, 2020 23:38:42.0 PDT    Fri Sep 18, 2020 23:38:42.0 PDT      
Hypocenter:  To be determined.               ML:  To be determined.             
Instr Period =  .0050 sec,  Damping =  .707,  Sensitivity = 5.00 v/g  (Nominal) 
                        Record Length =301.000 sec.                             
                                     Uncor Max  =   .002 g, at   44.400 sec.    
RMS accel of (uncor) record  =        .   Chn. metadata effective date:         
Accelerogram bandpass filtered with 3 dB pts at   .30 and 23.00 cyc/sec         
                 instrument- and base-line correcte                             
                                                                                
                                                                                
                                                                                
                                                                                
                                                                                
Rcrd of Fri Sep 18, 2020 23:38:42.0 PDT    Fri Sep 18, 2020 23:38:42.0 PDT      
                                                                                
38695658.CI.MSC.--.HN     Mission Creek   Chan  2: 360 Deg                      
                                                                                
38695658.CI.MSC.--.HN     Mission Creek   Chan  2: 360 Deg                      
                                                                                
Units for spectra are inches and sec, except Sa is in fraction of g.            
                                                                                
    2  100    2    6    6  100 -999    3    1    0   15 5328    0    0   41    0
    6   38   42    8  263    9   19 2020   10    3  36035752   39   13   74 -999
35752 -999  100    6 -999 -999 -999 -999 -999 -999 -999 -999 -999 -999 -999 -999
 -999 -999 -999 -99915050    2 -999    0 -999   20 -999 -999    3    1 -99915050
    315050    4   78    1    3    5    0    0 -999    0 -999 -999    6 -999    2
    2    2    4 -999 -999 -999 -999 -999 -999 -999 -999    1 -999 -999 -999  111
    1    1 -999 -999
      .005      .707   357.520      .000     1.000  4996.058      .002    44.400
   200.000     2.384      .477  -999.000    10.000  -999.000     4.000  -999.000
    20.000   -33.626      .000  -999.000  -999.000  -999.000  -999.000      .000
      .001      .001     2.000    15.000    34.039  -116.648      .001      .001
      .961      .001      .002   938.000  -999.000  -999.000  -999.000  -999.000
     1.000  -999.000  -999.000  -999.000  -999.000  -999.000  -999.000   120.000
     -.900     2.000     6.800   980.665      .020   301.000    31.831      .000
  -999.000    23.000  -999.000   301.000      .020      .300  -999.000  -999.000
    44.400     2.214    44.460      .086    47.460     -.006      .000      .300
    23.000      .020      .020      .000      .020      .004  -999.000  -999.000
      .011      .200      .010      .004      .000      .000  -999.000  -999.000
  -999.000  -999.000  -999.000  -999.000  -999.000  -999.000  -999.000  -999.000
  -999.000  -999.000  -999.000  -999.000
      .050
      .040      .042      .044      .046      .048      .050      .055      .060
      .065      .070      .075      .080      .085      .090      .095      .100
      .110      .120      .130      .140      .150      .160      .170      .180
      .190      .200      .220      .240      .260      .280      .300      .320
      .340      .360      .380      .400      .420      .440      .460      .480
      .500      .550      .600      .650      .700      .750      .800      .850
      .900      .950     1.000     1.100     1.200     1.300     1.400     1.500
     1.600     1.700     1.800     1.900     2.000     2.200     2.400     2.600
     2.800     3.000     3.200     3.400     3.600     3.800     4.000     4.200
     4.400     4.600     4.800     5.000     5.500     6.000      .000      .000
      .000      .000      .000      .000      .000      .000      .000      .000
      .000      .000      .000      .000      .000      .000      .000      .000
      .000      .000      .000      .000
Fourier amplitude spectra in in/sec.
  .000E+00  .000E+00  .000E+00  .000E+00  .000E+00  .000E+00  .000E+00  .000E+00
  .000E+00  .000E+00  .000E+00  .000E+00  .000E+00  .000E+00  .000E+00  .000E+00
  .000E+00  .000E+00  .000E+00  .000E+00  .000E+00  .000E+00  .000E+00  .000E+00
  .000E+00  .000E+00  .000E+00  .000E+00  .000E+00  .000E+00  .000E+00  .000E+00
  .000E+00  .000E+00  .000E+00  .000E+00  .000E+00  .000E+00  .000E+00  .000E+00
  .000E+00  .000E+00  .000E+00  .000E+00  .000E+00  .000E+00  .000E+00  .000E+00
  .000E+00  .000E+00  .000E+00  .000E+00  .000E+00  .000E+00  .000E+00  .000E+00
  .000E+00  .000E+00  .000E+00  .000E+00  .000E+00  .000E+00  .000E+00  .000E+00
  .000E+00  .000E+00  .000E+00  .000E+00  .000E+00  .000E+00  .000E+00  .000E+00
  .000E+00  .000E+00  .000E+00  .000E+00  .000E+00  .000E+00  .000E+00  .000E+00
  .000E+00  .000E+00  .000E+00  .000E+00  .000E+00  .000E+00  .000E+00  .000E+00
  .000E+00  .000E+00  .000E+00  .000E+00  .000E+00  .000E+00  .000E+00  .000E+00
  .000E+00  .000E+00  .000E+00  .000E+00
Damping =  .05. Data of Sd,Sv,Sa,Pssv,ttSd,ttSv,ttSa :
  .364E-04  .409E-04  .463E-04  .511E-04  .556E-04  .602E-04  .801E-04  .104E-03
  .130E-03  .167E-03  .204E-03  .214E-03  .278E-03  .370E-03  .386E-03  .471E-03
  .672E-03  .940E-03  .104E-02  .116E-02  .127E-02  .163E-02  .225E-02  .319E-02
  .350E-02  .437E-02  .442E-02  .348E-02  .365E-02  .434E-02  .360E-02  .333E-02
  .320E-02  .341E-02  .363E-02  .367E-02  .309E-02  .297E-02  .317E-02  .358E-02
