Response and Fourier amplitude spectra (78 periods,  .04 -  6.0 sec)   for      
Corrected accelerogram   38695658.CI.MTA.--.HN      Chan  1:  90 Deg     from   
Uncorrected Accelerogram Data             Processed: 09/19/20, CGS  cimta--q    
Rcrd of Fri Sep 18, 2020 23:38:40.0 PDT               (Avol1 v2.0, 4/18 CSMIP)  
                                        (Origin:  To be determined)             
38695658.CI.MTA.--.HN                Start time:  9/19/20, 06:38:40.0 UTC (GPS) 
Station Id. MTA     33.427N, 117.379W    ObsMMS  s/n  558  (3 Chns of  6 at Sta)
Margarita Mountains                      SCSN   Data: Acceleration              
Chan  1:  90 Deg                                                                
Rcrd of Fri Sep 18, 2020 23:38:40.0 PDT    Fri Sep 18, 2020 23:38:40.0 PDT      
Hypocenter:  To be determined.               ML:  To be determined.             
Instr Period =  .0050 sec,  Damping =  .707,  Sensitivity = 4.98 v/g  (Nominal) 
                        Record Length =301.000 sec.                             
                                     Uncor Max  =  -.005 g, at   34.270 sec.    
RMS accel of (uncor) record  =        .   Chn. metadata effective date:         
Accelerogram bandpass filtered with 3 dB pts at   .30 and 23.00 cyc/sec         
                 instrument- and base-line correcte                             
                                                                                
                                                                                
                                                                                
                                                                                
                                                                                
Rcrd of Fri Sep 18, 2020 23:38:40.0 PDT    Fri Sep 18, 2020 23:38:40.0 PDT      
                                                                                
38695658.CI.MTA.--.HN     Margarita Mountains   Chan  1:  90 Deg                
                                                                                
38695658.CI.MTA.--.HN     Margarita Mountains   Chan  1:  90 Deg                
                                                                                
Units for spectra are inches and sec, except Sa is in fraction of g.            
                                                                                
    1  100    1    6    6  100 -999    3    1    0   15  558    0    0   41    0
    6   38   40   10  263    9   19 2020   10    3   9035404   39   19   74 -999
35404 -999  100    6 -999 -999 -999 -999 -999 -999 -999 -999 -999 -999 -999 -999
 -999 -999 -999 -99915050    2 -999    0 -999   20 -999 -999    3    1 753815050
    315050    4   78    1    3    5    0    0 -999    0 -999 -999    6 -999    2
    2    2    4 -999 -999 -999 -999 -999 -999 -999 -999    1 -999 -999 -999  111
    1    1 -999 -999
      .005      .707   354.040      .000     1.000  4984.667     -.005    34.270
   200.000     2.384      .478  -999.000    10.000  -999.000     4.000  -999.000
    20.000    -9.552      .000  -999.000  -999.000  -999.000  -999.000      .006
     -.005     -.011     2.000    15.000    33.427  -117.379      .005      .002
      .369     -.012     -.010   785.000  -999.000  -999.000  -999.000  -999.000
     1.000  -999.000    -8.000  -999.000  -999.000  -999.000  -999.000   120.000
     -.900     2.000     6.800   980.665      .020   301.000    31.831      .001
  -999.000    23.000  -999.000   301.000      .020      .300  -999.000  -999.000
    34.260    -4.282    34.340     -.182    33.980      .009      .000      .300
    23.000      .020      .020      .000      .020      .003  -999.000  -999.000
      .017      .300      .011      .016      .001      .000  -999.000  -999.000
  -999.000  -999.000  -999.000  -999.000  -999.000  -999.000  -999.000  -999.000
  -999.000  -999.000  -999.000  -999.000
      .050
      .040      .042      .044      .046      .048      .050      .055      .060
      .065      .070      .075      .080      .085      .090      .095      .100
      .110      .120      .130      .140      .150      .160      .170      .180
      .190      .200      .220      .240      .260      .280      .300      .320
      .340      .360      .380      .400      .420      .440      .460      .480
      .500      .550      .600      .650      .700      .750      .800      .850
      .900      .950     1.000     1.100     1.200     1.300     1.400     1.500
     1.600     1.700     1.800     1.900     2.000     2.200     2.400     2.600
     2.800     3.000     3.200     3.400     3.600     3.800     4.000     4.200
     4.400     4.600     4.800     5.000     5.500     6.000      .000      .000
      .000      .000      .000      .000      .000      .000      .000      .000
      .000      .000      .000      .000      .000      .000      .000      .000
      .000      .000      .000      .000
Fourier amplitude spectra in in/sec.
  .000E+00  .000E+00  .000E+00  .000E+00  .000E+00  .000E+00  .000E+00  .000E+00
  .000E+00  .000E+00  .000E+00  .000E+00  .000E+00  .000E+00  .000E+00  .000E+00
  .000E+00  .000E+00  .000E+00  .000E+00  .000E+00  .000E+00  .000E+00  .000E+00
  .000E+00  .000E+00  .000E+00  .000E+00  .000E+00  .000E+00  .000E+00  .000E+00
  .000E+00  .000E+00  .000E+00  .000E+00  .000E+00  .000E+00  .000E+00  .000E+00
  .000E+00  .000E+00  .000E+00  .000E+00  .000E+00  .000E+00  .000E+00  .000E+00
  .000E+00  .000E+00  .000E+00  .000E+00  .000E+00  .000E+00  .000E+00  .000E+00
  .000E+00  .000E+00  .000E+00  .000E+00  .000E+00  .000E+00  .000E+00  .000E+00
  .000E+00  .000E+00  .000E+00  .000E+00  .000E+00  .000E+00  .000E+00  .000E+00
  .000E+00  .000E+00  .000E+00  .000E+00  .000E+00  .000E+00  .000E+00  .000E+00
  .000E+00  .000E+00  .000E+00  .000E+00  .000E+00  .000E+00  .000E+00  .000E+00
  .000E+00  .000E+00  .000E+00  .000E+00  .000E+00  .000E+00  .000E+00  .000E+00
  .000E+00  .000E+00  .000E+00  .000E+00
Damping =  .05. Data of Sd,Sv,Sa,Pssv,ttSd,ttSv,ttSa :
  .739E-04  .821E-04  .924E-04  .103E-03  .112E-03  .118E-03  .150E-03  .197E-03
  .263E-03  .297E-03  .429E-03  .579E-03  .757E-03  .849E-03  .803E-03  .921E-03
  .103E-02  .126E-02  .159E-02  .173E-02  .198E-02  .206E-02  .216E-02  .267E-02
  .360E-02  .433E-02  .629E-02  .858E-02  .107E-01  .126E-01  .148E-01  .145E-01
  .125E-01  .115E-01  .109E-01  .992E-02  .914E-02  .872E-02  .839E-02  .822E-02
  .802E-02  .709E-02  .612E-02  .591E-02  .591E-02  .601E-02  .607E-02  .585E-02
  .575E-02  .543E-02  .497E-02  .473E-02  .456E-02  .449E-02  .438E-02  .426E-02
  .418E-02  .421E-02  .423E-02  .397E-02  .398E-02  .417E-02  .448E-02  .454E-02
  .395E-02  .371E-02  .363E-02  .371E-02  .379E-02  .376E-02  .372E-02  .371E-02
  .370E-02  .370E-02  .369E-02  .367E-02  .365E-02  .363E-02  .000E+00  .000E+00
  .000E+00  .000E+00  .000E+00  .000E+00  .000E+00  .000E+00  .000E+00  .000E+00
  .000E+00  .000E+00  .000E+00  .000E+00  .000E+00  .000E+00  .000E+00  .000E+00
  .000E+00  .000E+00  .000E+00  .000E+00
  .292E-02  .355E-02  .444E-02  .457E-02  .512E-02  .609E-02  .758E-02  .110E-01
  .159E-01  .199E-01  .282E-01  .359E-01  .435E-01  .456E-01  .435E-01  .530E-01
  .552E-01  .585E-01  .722E-01  .711E-01  .628E-01  .653E-01  .754E-01  .876E-01
  .895E-01  .113E+00  .176E+00  .205E+00  .251E+00  .280E+00  .331E+00  .311E+00
  .252E+00  .221E+00  .208E+00  .197E+00  .184E+00  .169E+00  .156E+00  .145E+00
  .132E+00  .125E+00  .112E+00  .105E+00  .999E-01  .959E-01  .910E-01  .849E-01
  .828E-01  .831E-01  .809E-01  .781E-01  .760E-01  .757E-01  .754E-01  .739E-01
  .729E-01  .723E-01  .722E-01  .718E-01  .711E-01  .713E-01  .715E-01  .731E-01
  .735E-01  .729E-01  .725E-01  .724E-01  .722E-01  .719E-01  .717E-01  .715E-01
  .714E-01  .713E-01  .711E-01  .710E-01  .709E-01  .707E-01  .000E+00  .000E+00
  .000E+00  .000E+00  .000E+00  .000E+00  .000E+00  .000E+00  .000E+00  .000E+00
  .000E+00  .000E+00  .000E+00  .000E+00  .000E+00  .000E+00  .000E+00  .000E+00
  .000E+00  .000E+00  .000E+00  .000E+00
  .474E-02  .477E-02  .490E-02  .499E-02  .499E-02  .483E-02  .509E-02  .565E-02
  .643E-02  .615E-02  .780E-02  .921E-02  .106E-01  .107E-01  .903E-02  .954E-02
  .886E-02  .906E-02  .961E-02  .919E-02  .907E-02  .830E-02  .763E-02  .848E-02
  .102E-01  .109E-01  .131E-01  .155E-01  .163E-01  .164E-01  .171E-01  .144E-01
  .111E-01  .924E-02  .772E-02  .645E-02  .528E-02  .465E-02  .413E-02  .375E-02
  .334E-02  .240E-02  .175E-02  .143E-02  .124E-02  .111E-02  .992E-03  .857E-03
  .753E-03  .638E-03  .529E-03  .420E-03  .342E-03  .289E-03  .250E-03  .216E-03
  .189E-03  .171E-03  .155E-03  .134E-03  .123E-03  .109E-03  .993E-04  .882E-04
  .702E-04  .587E-04  .522E-04  .464E-04  .413E-04  .379E-04  .352E-04  .329E-04
  .309E-04  .291E-04  .275E-04  .261E-04  .232E-04  .209E-04  .000E+00  .000E+00
  .000E+00  .000E+00  .000E+00  .000E+00  .000E+00  .000E+00  .000E+00  .000E+00
  .000E+00  .000E+00  .000E+00  .000E+00  .000E+00  .000E+00  .000E+00  .000E+00
  .000E+00  .000E+00  .000E+00  .000E+00
  .116E-01  .123E-01  .132E-01  .141E-01  .147E-01  .148E-01  .171E-01  .207E-01
  .254E-01  .266E-01  .359E-01  .455E-01  .559E-01  .593E-01  .531E-01  .579E-01
  .588E-01  .662E-01  .767E-01  .778E-01  .830E-01  .811E-01  .799E-01  .932E-01
  .119E+00  .136E+00  .180E+00  .225E+00  .259E+00  .282E+00  .309E+00  .284E+00
  .231E+00  .200E+00  .181E+00  .156E+00  .137E+00  .124E+00  .115E+00  .108E+00
  .101E+00  .810E-01  .641E-01  .572E-01  .531E-01  .503E-01  .476E-01  .432E-01
  .402E-01  .359E-01  .312E-01  .270E-01  .239E-01  .217E-01  .196E-01  .179E-01
  .164E-01  .155E-01  .148E-01  .131E-01  .125E-01  .119E-01  .117E-01  .110E-01
  .887E-02  .776E-02  .713E-02  .686E-02  .661E-02  .622E-02  .585E-02  .556E-02
  .529E-02  .505E-02  .483E-02  .461E-02  .417E-02  .380E-02  .000E+00  .000E+00
  .000E+00  .000E+00  .000E+00  .000E+00  .000E+00  .000E+00  .000E+00  .000E+00
  .000E+00  .000E+00  .000E+00  .000E+00  .000E+00  .000E+00  .000E+00  .000E+00
  .000E+00  .000E+00  .000E+00  .000E+00
  .343E+02  .343E+02  .343E+02  .343E+02  .343E+02  .343E+02  .350E+02  .350E+02
  .350E+02  .350E+02  .350E+02  .347E+02  .348E+02  .348E+02  .348E+02  .352E+02
  .348E+02  .343E+02  .353E+02  .353E+02  .344E+02  .344E+02  .349E+02  .349E+02
  .341E+02  .344E+02  .344E+02  .344E+02  .346E+02  .346E+02  .354E+02  .351E+02
  .345E+02  .344E+02  .344E+02  .344E+02  .342E+02  .342E+02  .342E+02  .342E+02
  .343E+02  .343E+02  .341E+02  .341E+02  .341E+02  .341E+02  .341E+02  .341E+02
  .341E+02  .341E+02  .341E+02  .341E+02  .341E+02  .341E+02  .344E+02  .344E+02
  .344E+02  .344E+02  .344E+02  .344E+02  .344E+02  .344E+02  .344E+02  .344E+02
  .344E+02  .340E+02  .340E+02  .340E+02  .340E+02  .340E+02  .340E+02  .340E+02
  .340E+02  .340E+02  .340E+02  .340E+02  .340E+02  .340E+02  .000E+00  .000E+00
  .000E+00  .000E+00  .000E+00  .000E+00  .000E+00  .000E+00  .000E+00  .000E+00
  .000E+00  .000E+00  .000E+00  .000E+00  .000E+00  .000E+00  .000E+00  .000E+00
  .000E+00  .000E+00  .000E+00  .000E+00
  .357E+02  .357E+02  .357E+02  .357E+02  .347E+02  .349E+02  .350E+02  .357E+02
  .357E+02  .347E+02  .347E+02  .347E+02  .347E+02  .348E+02  .351E+02  .353E+02
  .350E+02  .350E+02  .348E+02  .348E+02  .344E+02  .345E+02  .348E+02  .348E+02
  .342E+02  .351E+02  .351E+02  .345E+02  .346E+02  .345E+02  .355E+02  .350E+02
  .349E+02  .344E+02  .343E+02  .343E+02  .343E+02  .343E+02  .343E+02  .343E+02
  .343E+02  .342E+02  .342E+02  .342E+02  .342E+02  .342E+02  .342E+02  .342E+02
  .340E+02  .340E+02  .340E+02  .340E+02  .340E+02  .340E+02  .340E+02  .340E+02
  .340E+02  .340E+02  .340E+02  .343E+02  .343E+02  .343E+02  .343E+02  .343E+02
  .343E+02  .343E+02  .343E+02  .343E+02  .343E+02  .343E+02  .343E+02  .343E+02
  .343E+02  .343E+02  .343E+02  .343E+02  .343E+02  .343E+02  .000E+00  .000E+00
  .000E+00  .000E+00  .000E+00  .000E+00  .000E+00  .000E+00  .000E+00  .000E+00
  .000E+00  .000E+00  .000E+00  .000E+00  .000E+00  .000E+00  .000E+00  .000E+00
  .000E+00  .000E+00  .000E+00  .000E+00
  .343E+02  .343E+02  .343E+02  .343E+02  .343E+02  .343E+02  .350E+02  .350E+02
  .350E+02  .350E+02  .350E+02  .347E+02  .347E+02  .348E+02  .348E+02  .352E+02
  .348E+02  .343E+02  .353E+02  .353E+02  .344E+02  .344E+02  .349E+02  .349E+02
  .341E+02  .344E+02  .344E+02  .344E+02  .344E+02  .346E+02  .355E+02  .351E+02
  .345E+02  .344E+02  .344E+02  .344E+02  .342E+02  .342E+02  .342E+02  .342E+02
  .342E+02  .343E+02  .341E+02  .341E+02  .341E+02  .341E+02  .341E+02  .341E+02
  .341E+02  .341E+02  .341E+02  .341E+02  .341E+02  .341E+02  .344E+02  .344E+02
  .344E+02  .344E+02  .344E+02  .344E+02  .344E+02  .344E+02  .344E+02  .344E+02
  .344E+02  .344E+02  .344E+02  .344E+02  .343E+02  .343E+02  .343E+02  .343E+02
  .343E+02  .343E+02  .343E+02  .343E+02  .343E+02  .343E+02  .000E+00  .000E+00
  .000E+00  .000E+00  .000E+00  .000E+00  .000E+00  .000E+00  .000E+00  .000E+00
  .000E+00  .000E+00  .000E+00  .000E+00  .000E+00  .000E+00  .000E+00  .000E+00
  .000E+00  .000E+00  .000E+00  .000E+00
/&   ----------  End of spectral data for channel  1  ----------
Response and Fourier amplitude spectra (78 periods,  .04 -  6.0 sec)   for      
Corrected accelerogram   38695658.CI.MTA.--.HN      Chan  2: 360 Deg     from   
Uncorrected Accelerogram Data             Processed: 09/19/20, CGS  cimta--q    
Rcrd of Fri Sep 18, 2020 23:38:40.0 PDT               (Avol1 v2.0, 4/18 CSMIP)  
                                        (Origin:  To be determined)             
38695658.CI.MTA.--.HN                Start time:  9/19/20, 06:38:40.0 UTC (GPS) 
Station Id. MTA     33.427N, 117.379W    ObsMMS  s/n  558  (3 Chns of  6 at Sta)
Margarita Mountains                      SCSN   Data: Acceleration              
Chan  2: 360 Deg                                                                
Rcrd of Fri Sep 18, 2020 23:38:40.0 PDT    Fri Sep 18, 2020 23:38:40.0 PDT      
Hypocenter:  To be determined.               ML:  To be determined.             
Instr Period =  .0050 sec,  Damping =  .707,  Sensitivity = 4.99 v/g  (Nominal) 
                        Record Length =301.000 sec.                             
                                     Uncor Max  =   .002 g, at   34.650 sec.    
RMS accel of (uncor) record  =        .   Chn. metadata effective date:         
Accelerogram bandpass filtered with 3 dB pts at   .30 and 23.00 cyc/sec         
                 instrument- and base-line correcte                             
                                                                                
                                                                                
                                                                                
                                                                                
                                                                                
Rcrd of Fri Sep 18, 2020 23:38:40.0 PDT    Fri Sep 18, 2020 23:38:40.0 PDT      
                                                                                
38695658.CI.MTA.--.HN     Margarita Mountains   Chan  2: 360 Deg                
                                                                                
38695658.CI.MTA.--.HN     Margarita Mountains   Chan  2: 360 Deg                
                                                                                
Units for spectra are inches and sec, except Sa is in fraction of g.            
                                                                                
    2  100    2    6    6  100 -999    3    1    0   15  558    0    0   41    0
    6   38   40   10  263    9   19 2020   10    3  36035618   39   19   74 -999
35618 -999  100    6 -999 -999 -999 -999 -999 -999 -999 -999 -999 -999 -999 -999
 -999 -999 -999 -99915050    2 -999    0 -999   20 -999 -999    3    1 753815050
    315050    4   78    1    3    5    0    0 -999    0 -999 -999    6 -999    2
    2    2    4 -999 -999 -999 -999 -999 -999 -999 -999    1 -999 -999 -999  111
    1    1 -999 -999
      .005      .707   356.180      .000     1.000  4985.665      .002    34.650
   200.000     2.384      .478  -999.000    10.000  -999.000     4.000  -999.000
    20.000   -15.238      .000  -999.000  -999.000  -999.000  -999.000      .002
     -.002     -.004     2.000    15.000    33.427  -117.379      .010      .004
      .393     -.006     -.002   785.000  -999.000  -999.000  -999.000  -999.000
     1.000  -999.000  -999.000  -999.000  -999.000  -999.000  -999.000   120.000
     -.900     2.000     6.800   980.665      .020   301.000    31.831      .000
  -999.000    23.000  -999.000   301.000      .020      .300  -999.000  -999.000
    34.660     2.090    35.580      .062    36.660      .003      .000      .300
    23.000      .020      .020      .000      .020      .002  -999.000  -999.000
      .008      .110      .005      .005      .000      .000  -999.000  -999.000
  -999.000  -999.000  -999.000  -999.000  -999.000  -999.000  -999.000  -999.000
  -999.000  -999.000  -999.000  -999.000
      .050
      .040      .042      .044      .046      .048      .050      .055      .060
      .065      .070      .075      .080      .085      .090      .095      .100
      .110      .120      .130      .140      .150      .160      .170      .180
      .190      .200      .220      .240      .260      .280      .300      .320
      .340      .360      .380      .400      .420      .440      .460      .480
      .500      .550      .600      .650      .700      .750      .800      .850
      .900      .950     1.000     1.100     1.200     1.300     1.400     1.500
     1.600     1.700     1.800     1.900     2.000     2.200     2.400     2.600
     2.800     3.000     3.200     3.400     3.600     3.800     4.000     4.200
     4.400     4.600     4.800     5.000     5.500     6.000      .000      .000
      .000      .000      .000      .000      .000      .000      .000      .000
      .000      .000      .000      .000      .000      .000      .000      .000
      .000      .000      .000      .000
Fourier amplitude spectra in in/sec.
  .000E+00  .000E+00  .000E+00  .000E+00  .000E+00  .000E+00  .000E+00  .000E+00
  .000E+00  .000E+00  .000E+00  .000E+00  .000E+00  .000E+00  .000E+00  .000E+00
  .000E+00  .000E+00  .000E+00  .000E+00  .000E+00  .000E+00  .000E+00  .000E+00
  .000E+00  .000E+00  .000E+00  .000E+00  .000E+00  .000E+00  .000E+00  .000E+00
  .000E+00  .000E+00  .000E+00  .000E+00  .000E+00  .000E+00  .000E+00  .000E+00
  .000E+00  .000E+00  .000E+00  .000E+00  .000E+00  .000E+00  .000E+00  .000E+00
  .000E+00  .000E+00  .000E+00  .000E+00  .000E+00  .000E+00  .000E+00  .000E+00
  .000E+00  .000E+00  .000E+00  .000E+00  .000E+00  .000E+00  .000E+00  .000E+00
  .000E+00  .000E+00  .000E+00  .000E+00  .000E+00  .000E+00  .000E+00  .000E+00
  .000E+00  .000E+00  .000E+00  .000E+00  .000E+00  .000E+00  .000E+00  .000E+00
  .000E+00  .000E+00  .000E+00  .000E+00  .000E+00  .000E+00  .000E+00  .000E+00
  .000E+00  .000E+00  .000E+00  .000E+00  .000E+00  .000E+00  .000E+00  .000E+00
  .000E+00  .000E+00  .000E+00  .000E+00
Damping =  .05. Data of Sd,Sv,Sa,Pssv,ttSd,ttSv,ttSa :
  .415E-04  .464E-04  .516E-04  .588E-04  .659E-04  .692E-04  .990E-04  .138E-03
  .184E-03  .227E-03  .224E-03  .315E-03  .351E-03  .491E-03  .607E-03  .747E-03
  .985E-03  .936E-03  .106E-02  .960E-03  .108E-02  .126E-02  .167E-02  .206E-02
  .232E-02  .228E-02  .163E-02  .242E-02  .295E-02  .404E-02  .400E-02  .424E-02
  .513E-02  .539E-02  .442E-02  .343E-02  .300E-02  .256E-02  .248E-02  .254E-02
