Response and Fourier amplitude spectra (78 periods,  .04 -  6.0 sec)   for      
Corrected accelerogram   38695658.CI.MTG.--.HN      Chan  1:  90 Deg     from   
Uncorrected Accelerogram Data             Processed: 09/19/20, CGS  cimtg--d    
Rcrd of Fri Sep 18, 2020 23:38:47.0 PDT               (Avol1 v2.0, 4/18 CSMIP)  
                                        (Origin:  To be determined)             
38695658.CI.MTG.--.HN                Start time:  9/19/20, 06:38:47.0 UTC (GPS) 
Station Id. MTG     33.199N, 116.647W    ObsMMS  s/n 6931  (3 Chns of  6 at Sta)
Mataguay Scout Camp                      SCSN   Data: Acceleration              
Chan  1:  90 Deg                                                                
Rcrd of Fri Sep 18, 2020 23:38:47.0 PDT    Fri Sep 18, 2020 23:38:47.0 PDT      
Hypocenter:  To be determined.               ML:  To be determined.             
Instr Period =  .0050 sec,  Damping =  .707,  Sensitivity = 4.99 v/g  (Nominal) 
                        Record Length =301.000 sec.                             
                                     Uncor Max  =   .001 g, at   48.100 sec.    
RMS accel of (uncor) record  =        .   Chn. metadata effective date:         
Accelerogram bandpass filtered with 3 dB pts at   .30 and 23.00 cyc/sec         
                 instrument- and base-line correcte                             
                                                                                
                                                                                
                                                                                
                                                                                
                                                                                
Rcrd of Fri Sep 18, 2020 23:38:47.0 PDT    Fri Sep 18, 2020 23:38:47.0 PDT      
                                                                                
38695658.CI.MTG.--.HN     Mataguay Scout Camp   Chan  1:  90 Deg                
                                                                                
38695658.CI.MTG.--.HN     Mataguay Scout Camp   Chan  1:  90 Deg                
                                                                                
Units for spectra are inches and sec, except Sa is in fraction of g.            
                                                                                
    1  100    1    6    6  100 -999    3    1    0   15 6931    0    0   41    0
    6   38   47    3  263    9   19 2020   10    3   9036231   39   19   74 -999
36231 -999  100    6 -999 -999 -999 -999 -999 -999 -999 -999 -999 -999 -999 -999
 -999 -999 -999 -99915050    2 -999    0 -999   20 -999 -999    3    1 -99915050
    315050    4   78    1    3    5    0    0 -999    0 -999 -999    6 -999    2
    2    2    4 -999 -999 -999 -999 -999 -999 -999 -999    1 -999 -999 -999  111
    1    1 -999 -999
      .005      .707   362.310      .000     1.000  4987.482      .001    48.100
   200.000     2.384      .478  -999.000    10.000  -999.000     4.000  -999.000
    20.000   -18.803      .000  -999.000  -999.000  -999.000  -999.000      .000
      .000      .000     2.000    15.000    33.199  -116.647      .001      .001
     1.022     -.001      .000  1092.000  -999.000  -999.000  -999.000  -999.000
     1.000  -999.000    -8.000  -999.000  -999.000  -999.000  -999.000   120.000
     -.900     2.000     6.800   980.665      .020   301.000    31.831      .000
  -999.000    23.000  -999.000   301.000      .020      .300  -999.000  -999.000
    48.100      .871    45.460      .030    45.540      .001      .000      .300
    23.000      .020      .020      .000      .020      .002  -999.000  -999.000
      .004      .160      .003      .002      .000      .000  -999.000  -999.000
  -999.000  -999.000  -999.000  -999.000  -999.000  -999.000  -999.000  -999.000
  -999.000  -999.000  -999.000  -999.000
      .050
      .040      .042      .044      .046      .048      .050      .055      .060
      .065      .070      .075      .080      .085      .090      .095      .100
      .110      .120      .130      .140      .150      .160      .170      .180
      .190      .200      .220      .240      .260      .280      .300      .320
      .340      .360      .380      .400      .420      .440      .460      .480
      .500      .550      .600      .650      .700      .750      .800      .850
      .900      .950     1.000     1.100     1.200     1.300     1.400     1.500
     1.600     1.700     1.800     1.900     2.000     2.200     2.400     2.600
     2.800     3.000     3.200     3.400     3.600     3.800     4.000     4.200
     4.400     4.600     4.800     5.000     5.500     6.000      .000      .000
      .000      .000      .000      .000      .000      .000      .000      .000
      .000      .000      .000      .000      .000      .000      .000      .000
      .000      .000      .000      .000
Fourier amplitude spectra in in/sec.
  .000E+00  .000E+00  .000E+00  .000E+00  .000E+00  .000E+00  .000E+00  .000E+00
  .000E+00  .000E+00  .000E+00  .000E+00  .000E+00  .000E+00  .000E+00  .000E+00
  .000E+00  .000E+00  .000E+00  .000E+00  .000E+00  .000E+00  .000E+00  .000E+00
  .000E+00  .000E+00  .000E+00  .000E+00  .000E+00  .000E+00  .000E+00  .000E+00
  .000E+00  .000E+00  .000E+00  .000E+00  .000E+00  .000E+00  .000E+00  .000E+00
  .000E+00  .000E+00  .000E+00  .000E+00  .000E+00  .000E+00  .000E+00  .000E+00
  .000E+00  .000E+00  .000E+00  .000E+00  .000E+00  .000E+00  .000E+00  .000E+00
  .000E+00  .000E+00  .000E+00  .000E+00  .000E+00  .000E+00  .000E+00  .000E+00
  .000E+00  .000E+00  .000E+00  .000E+00  .000E+00  .000E+00  .000E+00  .000E+00
  .000E+00  .000E+00  .000E+00  .000E+00  .000E+00  .000E+00  .000E+00  .000E+00
  .000E+00  .000E+00  .000E+00  .000E+00  .000E+00  .000E+00  .000E+00  .000E+00
  .000E+00  .000E+00  .000E+00  .000E+00  .000E+00  .000E+00  .000E+00  .000E+00
  .000E+00  .000E+00  .000E+00  .000E+00
Damping =  .05. Data of Sd,Sv,Sa,Pssv,ttSd,ttSv,ttSa :
  .144E-04  .161E-04  .177E-04  .193E-04  .209E-04  .230E-04  .292E-04  .372E-04
  .498E-04  .665E-04  .831E-04  .998E-04  .121E-03  .153E-03  .179E-03  .222E-03
  .307E-03  .464E-03  .587E-03  .677E-03  .742E-03  .992E-03  .932E-03  .103E-02
  .111E-02  .103E-02  .894E-03  .117E-02  .133E-02  .161E-02  .196E-02  .196E-02
  .180E-02  .169E-02  .193E-02  .183E-02  .164E-02  .167E-02  .199E-02  .210E-02
  .215E-02  .139E-02  .109E-02  .103E-02  .881E-03  .799E-03  .804E-03  .793E-03
  .737E-03  .738E-03  .806E-03  .910E-03  .869E-03  .829E-03  .885E-03  .105E-02
  .969E-03  .871E-03  .826E-03  .921E-03  .107E-02  .943E-03  .116E-02  .142E-02
  .116E-02  .917E-03  .900E-03  .930E-03  .877E-03  .807E-03  .772E-03  .737E-03
  .706E-03  .684E-03  .673E-03  .666E-03  .629E-03  .594E-03  .000E+00  .000E+00
  .000E+00  .000E+00  .000E+00  .000E+00  .000E+00  .000E+00  .000E+00  .000E+00
  .000E+00  .000E+00  .000E+00  .000E+00  .000E+00  .000E+00  .000E+00  .000E+00
  .000E+00  .000E+00  .000E+00  .000E+00
  .591E-03  .647E-03  .716E-03  .798E-03  .902E-03  .103E-02  .127E-02  .207E-02
  .240E-02  .323E-02  .501E-02  .602E-02  .656E-02  .887E-02  .973E-02  .127E-01
  .150E-01  .223E-01  .263E-01  .265E-01  .278E-01  .358E-01  .336E-01  .353E-01
  .360E-01  .311E-01  .270E-01  .296E-01  .304E-01  .341E-01  .441E-01  .389E-01
  .374E-01  .338E-01  .358E-01  .342E-01  .269E-01  .269E-01  .315E-01  .333E-01
  .272E-01  .199E-01  .157E-01  .169E-01  .171E-01  .163E-01  .148E-01  .150E-01
  .151E-01  .152E-01  .149E-01  .139E-01  .126E-01  .125E-01  .133E-01  .130E-01
  .122E-01  .115E-01  .113E-01  .110E-01  .113E-01  .123E-01  .125E-01  .122E-01
  .113E-01  .114E-01  .115E-01  .116E-01  .118E-01  .118E-01  .118E-01  .118E-01
  .118E-01  .118E-01  .118E-01  .117E-01  .117E-01  .117E-01  .000E+00  .000E+00
  .000E+00  .000E+00  .000E+00  .000E+00  .000E+00  .000E+00  .000E+00  .000E+00
  .000E+00  .000E+00  .000E+00  .000E+00  .000E+00  .000E+00  .000E+00  .000E+00
  .000E+00  .000E+00  .000E+00  .000E+00
  .921E-03  .930E-03  .935E-03  .932E-03  .927E-03  .940E-03  .988E-03  .105E-02
  .120E-02  .138E-02  .151E-02  .160E-02  .172E-02  .195E-02  .202E-02  .232E-02
  .262E-02  .336E-02  .359E-02  .352E-02  .338E-02  .395E-02  .330E-02  .326E-02
  .314E-02  .268E-02  .186E-02  .206E-02  .203E-02  .214E-02  .222E-02  .195E-02
  .160E-02  .135E-02  .138E-02  .117E-02  .945E-03  .883E-03  .964E-03  .942E-03
  .881E-03  .476E-03  .310E-03  .256E-03  .187E-03  .149E-03  .131E-03  .114E-03
  .947E-04  .856E-04  .839E-04  .794E-04  .642E-04  .531E-04  .472E-04  .481E-04
  .398E-04  .320E-04  .273E-04  .271E-04  .285E-04  .210E-04  .216E-04  .225E-04
  .159E-04  .124E-04  .113E-04  .105E-04  .919E-05  .797E-05  .718E-05  .649E-05
  .592E-05  .546E-05  .510E-05  .481E-05  .412E-05  .358E-05  .000E+00  .000E+00
  .000E+00  .000E+00  .000E+00  .000E+00  .000E+00  .000E+00  .000E+00  .000E+00
  .000E+00  .000E+00  .000E+00  .000E+00  .000E+00  .000E+00  .000E+00  .000E+00
  .000E+00  .000E+00  .000E+00  .000E+00
  .227E-02  .241E-02  .253E-02  .264E-02  .274E-02  .288E-02  .334E-02  .389E-02
  .482E-02  .597E-02  .696E-02  .784E-02  .898E-02  .107E-01  .119E-01  .140E-01
  .175E-01  .243E-01  .284E-01  .304E-01  .311E-01  .389E-01  .345E-01  .359E-01
  .366E-01  .323E-01  .255E-01  .306E-01  .320E-01  .362E-01  .409E-01  .385E-01
  .333E-01  .295E-01  .319E-01  .288E-01  .246E-01  .239E-01  .272E-01  .275E-01
  .270E-01  .159E-01  .114E-01  .995E-02  .791E-02  .669E-02  .631E-02  .586E-02
  .514E-02  .488E-02  .507E-02  .520E-02  .455E-02  .401E-02  .397E-02  .438E-02
  .381E-02  .322E-02  .288E-02  .304E-02  .338E-02  .269E-02  .303E-02  .342E-02
  .259E-02  .192E-02  .177E-02  .172E-02  .153E-02  .133E-02  .121E-02  .110E-02
  .101E-02  .934E-03  .881E-03  .837E-03  .719E-03  .622E-03  .000E+00  .000E+00
  .000E+00  .000E+00  .000E+00  .000E+00  .000E+00  .000E+00  .000E+00  .000E+00
  .000E+00  .000E+00  .000E+00  .000E+00  .000E+00  .000E+00  .000E+00  .000E+00
  .000E+00  .000E+00  .000E+00  .000E+00
  .481E+02  .481E+02  .481E+02  .481E+02  .481E+02  .481E+02  .478E+02  .478E+02
  .481E+02  .478E+02  .478E+02  .463E+02  .465E+02  .465E+02  .471E+02  .471E+02
  .466E+02  .478E+02  .480E+02  .480E+02  .481E+02  .481E+02  .492E+02  .481E+02
  .481E+02  .481E+02  .482E+02  .456E+02  .456E+02  .456E+02  .465E+02  .461E+02
  .461E+02  .460E+02  .485E+02  .484E+02  .460E+02  .484E+02  .482E+02  .481E+02
  .481E+02  .464E+02  .464E+02  .481E+02  .481E+02  .455E+02  .455E+02  .455E+02
  .455E+02  .463E+02  .463E+02  .454E+02  .454E+02  .454E+02  .562E+02  .556E+02
  .557E+02  .457E+02  .457E+02  .536E+02  .527E+02  .527E+02  .527E+02  .530E+02
  .533E+02  .525E+02  .455E+02  .455E+02  .455E+02  .455E+02  .455E+02  .455E+02
  .455E+02  .455E+02  .455E+02  .455E+02  .455E+02  .455E+02  .000E+00  .000E+00
  .000E+00  .000E+00  .000E+00  .000E+00  .000E+00  .000E+00  .000E+00  .000E+00
  .000E+00  .000E+00  .000E+00  .000E+00  .000E+00  .000E+00  .000E+00  .000E+00
  .000E+00  .000E+00  .000E+00  .000E+00
  .465E+02  .465E+02  .477E+02  .465E+02  .465E+02  .465E+02  .513E+02  .513E+02
  .494E+02  .477E+02  .463E+02  .463E+02  .463E+02  .465E+02  .465E+02  .465E+02
  .478E+02  .478E+02  .479E+02  .480E+02  .481E+02  .482E+02  .492E+02  .482E+02
  .482E+02  .482E+02  .497E+02  .456E+02  .456E+02  .457E+02  .465E+02  .462E+02
  .461E+02  .461E+02  .488E+02  .485E+02  .485E+02  .467E+02  .481E+02  .481E+02
  .482E+02  .480E+02  .458E+02  .480E+02  .480E+02  .480E+02  .454E+02  .454E+02
  .454E+02  .454E+02  .454E+02  .454E+02  .454E+02  .480E+02  .480E+02  .480E+02
  .480E+02  .480E+02  .480E+02  .480E+02  .480E+02  .480E+02  .480E+02  .480E+02
  .480E+02  .454E+02  .454E+02  .454E+02  .454E+02  .454E+02  .454E+02  .454E+02
  .454E+02  .454E+02  .454E+02  .454E+02  .454E+02  .454E+02  .000E+00  .000E+00
  .000E+00  .000E+00  .000E+00  .000E+00  .000E+00  .000E+00  .000E+00  .000E+00
  .000E+00  .000E+00  .000E+00  .000E+00  .000E+00  .000E+00  .000E+00  .000E+00
  .000E+00  .000E+00  .000E+00  .000E+00
  .481E+02  .481E+02  .481E+02  .481E+02  .481E+02  .481E+02  .478E+02  .478E+02
  .481E+02  .481E+02  .478E+02  .463E+02  .464E+02  .465E+02  .471E+02  .471E+02
  .466E+02  .478E+02  .480E+02  .480E+02  .481E+02  .481E+02  .492E+02  .481E+02
  .481E+02  .481E+02  .482E+02  .456E+02  .456E+02  .456E+02  .465E+02  .461E+02
  .461E+02  .460E+02  .485E+02  .484E+02  .460E+02  .484E+02  .482E+02  .481E+02
  .481E+02  .464E+02  .464E+02  .481E+02  .481E+02  .455E+02  .455E+02  .455E+02
  .455E+02  .463E+02  .463E+02  .454E+02  .454E+02  .481E+02  .562E+02  .556E+02
  .550E+02  .457E+02  .457E+02  .457E+02  .527E+02  .527E+02  .527E+02  .530E+02
  .533E+02  .455E+02  .455E+02  .455E+02  .455E+02  .455E+02  .455E+02  .455E+02
  .455E+02  .455E+02  .455E+02  .455E+02  .455E+02  .455E+02  .000E+00  .000E+00
  .000E+00  .000E+00  .000E+00  .000E+00  .000E+00  .000E+00  .000E+00  .000E+00
  .000E+00  .000E+00  .000E+00  .000E+00  .000E+00  .000E+00  .000E+00  .000E+00
  .000E+00  .000E+00  .000E+00  .000E+00
/&   ----------  End of spectral data for channel  1  ----------
Response and Fourier amplitude spectra (78 periods,  .04 -  6.0 sec)   for      
Corrected accelerogram   38695658.CI.MTG.--.HN      Chan  2: 360 Deg     from   
Uncorrected Accelerogram Data             Processed: 09/19/20, CGS  cimtg--d    
Rcrd of Fri Sep 18, 2020 23:38:47.0 PDT               (Avol1 v2.0, 4/18 CSMIP)  
                                        (Origin:  To be determined)             
38695658.CI.MTG.--.HN                Start time:  9/19/20, 06:38:47.0 UTC (GPS) 
Station Id. MTG     33.199N, 116.647W    ObsMMS  s/n 6931  (3 Chns of  6 at Sta)
Mataguay Scout Camp                      SCSN   Data: Acceleration              
Chan  2: 360 Deg                                                                
Rcrd of Fri Sep 18, 2020 23:38:47.0 PDT    Fri Sep 18, 2020 23:38:47.0 PDT      
Hypocenter:  To be determined.               ML:  To be determined.             
Instr Period =  .0050 sec,  Damping =  .707,  Sensitivity = 4.98 v/g  (Nominal) 
                        Record Length =301.000 sec.                             
                                     Uncor Max  =   .001 g, at   45.730 sec.    
RMS accel of (uncor) record  =        .   Chn. metadata effective date:         
Accelerogram bandpass filtered with 3 dB pts at   .30 and 23.00 cyc/sec         
                 instrument- and base-line correcte                             
                                                                                
                                                                                
                                                                                
                                                                                
                                                                                
Rcrd of Fri Sep 18, 2020 23:38:47.0 PDT    Fri Sep 18, 2020 23:38:47.0 PDT      
                                                                                
38695658.CI.MTG.--.HN     Mataguay Scout Camp   Chan  2: 360 Deg                
                                                                                
38695658.CI.MTG.--.HN     Mataguay Scout Camp   Chan  2: 360 Deg                
                                                                                
Units for spectra are inches and sec, except Sa is in fraction of g.            
                                                                                
    2  100    2    6    6  100 -999    3    1    0   15 6931    0    0   41    0
    6   38   47    3  263    9   19 2020   10    3  36035924   39   19   74 -999
35924 -999  100    6 -999 -999 -999 -999 -999 -999 -999 -999 -999 -999 -999 -999
 -999 -999 -999 -99915050    2 -999    0 -999   20 -999 -999    3    1 -99915050
    315050    4   78    1    3    5    0    0 -999    0 -999 -999    6 -999    2
    2    2    4 -999 -999 -999 -999 -999 -999 -999 -999    1 -999 -999 -999  111
    1    1 -999 -999
      .005      .707   359.240      .000     1.000  4979.503      .001    45.730
   200.000     2.384      .479  -999.000    10.000  -999.000     4.000  -999.000
    20.000   -12.123      .000  -999.000  -999.000  -999.000  -999.000      .000
      .000      .000     2.000    15.000    33.199  -116.647      .001      .001
     1.021      .000      .000  1092.000  -999.000  -999.000  -999.000  -999.000
     1.000  -999.000  -999.000  -999.000  -999.000  -999.000  -999.000   120.000
     -.900     2.000     6.800   980.665      .020   301.000    31.831      .000
  -999.000    23.000  -999.000   301.000      .020      .300  -999.000  -999.000
    45.820    -1.312    45.780      .040    47.120     -.002      .000      .300
    23.000      .020      .020      .000      .020      .002  -999.000  -999.000
      .005      .150      .003      .003      .000      .000  -999.000  -999.000
  -999.000  -999.000  -999.000  -999.000  -999.000  -999.000  -999.000  -999.000
  -999.000  -999.000  -999.000  -999.000
      .050
      .040      .042      .044      .046      .048      .050      .055      .060
      .065      .070      .075      .080      .085      .090      .095      .100
      .110      .120      .130      .140      .150      .160      .170      .180
      .190      .200      .220      .240      .260      .280      .300      .320
      .340      .360      .380      .400      .420      .440      .460      .480
      .500      .550      .600      .650      .700      .750      .800      .850
      .900      .950     1.000     1.100     1.200     1.300     1.400     1.500
     1.600     1.700     1.800     1.900     2.000     2.200     2.400     2.600
     2.800     3.000     3.200     3.400     3.600     3.800     4.000     4.200
     4.400     4.600     4.800     5.000     5.500     6.000      .000      .000
      .000      .000      .000      .000      .000      .000      .000      .000
      .000      .000      .000      .000      .000      .000      .000      .000
      .000      .000      .000      .000
Fourier amplitude spectra in in/sec.
  .000E+00  .000E+00  .000E+00  .000E+00  .000E+00  .000E+00  .000E+00  .000E+00
  .000E+00  .000E+00  .000E+00  .000E+00  .000E+00  .000E+00  .000E+00  .000E+00
  .000E+00  .000E+00  .000E+00  .000E+00  .000E+00  .000E+00  .000E+00  .000E+00
  .000E+00  .000E+00  .000E+00  .000E+00  .000E+00  .000E+00  .000E+00  .000E+00
  .000E+00  .000E+00  .000E+00  .000E+00  .000E+00  .000E+00  .000E+00  .000E+00
  .000E+00  .000E+00  .000E+00  .000E+00  .000E+00  .000E+00  .000E+00  .000E+00
  .000E+00  .000E+00  .000E+00  .000E+00  .000E+00  .000E+00  .000E+00  .000E+00
  .000E+00  .000E+00  .000E+00  .000E+00  .000E+00  .000E+00  .000E+00  .000E+00
  .000E+00  .000E+00  .000E+00  .000E+00  .000E+00  .000E+00  .000E+00  .000E+00
  .000E+00  .000E+00  .000E+00  .000E+00  .000E+00  .000E+00  .000E+00  .000E+00
  .000E+00  .000E+00  .000E+00  .000E+00  .000E+00  .000E+00  .000E+00  .000E+00
  .000E+00  .000E+00  .000E+00  .000E+00  .000E+00  .000E+00  .000E+00  .000E+00
  .000E+00  .000E+00  .000E+00  .000E+00
Damping =  .05. Data of Sd,Sv,Sa,Pssv,ttSd,ttSv,ttSa :
  .230E-04  .256E-04  .284E-04  .313E-04  .346E-04  .382E-04  .481E-04  .613E-04
  .788E-04  .102E-03  .120E-03  .138E-03  .165E-03  .184E-03  .212E-03  .258E-03
  .369E-03  .531E-03  .753E-03  .944E-03  .118E-02  .133E-02  .124E-02  .111E-02
  .101E-02  .114E-02  .107E-02  .124E-02  .177E-02  .237E-02  .244E-02  .247E-02
  .213E-02  .258E-02  .270E-02  .252E-02  .206E-02  .181E-02  .163E-02  .148E-02
