Response and Fourier amplitude spectra (78 periods,  .04 -  6.0 sec)   for      
Corrected accelerogram   38695658.CI.MUR.--.HN      Chan  1:  90 Deg     from   
Uncorrected Accelerogram Data             Processed: 09/19/20, CGS  cimur--k    
Rcrd of Fri Sep 18, 2020 23:38:38.0 PDT               (Avol1 v2.0, 4/18 CSMIP)  
                                        (Origin:  To be determined)             
38695658.CI.MUR.--.HN                Start time:  9/19/20, 06:38:38.0 UTC (GPS) 
Station Id. MUR     33.600N, 117.195W    ObsMMS  s/n 4243  (3 Chns of  3 at Sta)
Jodan Farms Nursery, Murrieta            SCSN   Data: Acceleration              
Chan  1:  90 Deg                                                                
Rcrd of Fri Sep 18, 2020 23:38:38.0 PDT    Fri Sep 18, 2020 23:38:38.0 PDT      
Hypocenter:  To be determined.               ML:  To be determined.             
Instr Period =  .0050 sec,  Damping =  .707,  Sensitivity = 4.99 v/g  (Nominal) 
                        Record Length =301.000 sec.                             
                                     Uncor Max  =   .011 g, at   36.920 sec.    
RMS accel of (uncor) record  =        .   Chn. metadata effective date:         
Accelerogram bandpass filtered with 3 dB pts at   .30 and 23.00 cyc/sec         
                 instrument- and base-line correcte                             
                                                                                
                                                                                
                                                                                
                                                                                
                                                                                
Rcrd of Fri Sep 18, 2020 23:38:38.0 PDT    Fri Sep 18, 2020 23:38:38.0 PDT      
                                                                                
38695658.CI.MUR.--.HN     Jodan Farms Nursery, Murrieta   Chan  1:  90 Deg      
                                                                                
38695658.CI.MUR.--.HN     Jodan Farms Nursery, Murrieta   Chan  1:  90 Deg      
                                                                                
Units for spectra are inches and sec, except Sa is in fraction of g.            
                                                                                
    1  100    1    3    3  100 -999    3    1    0   15 4243    050728   41    0
    6   38   38    8  263    9   19 2020   10    3   9035638   39   29   74 -999
35638 -999  100    6 -999 -999 -999 -999 -999 -999 -999 -999 -999 -999 -999 -999
 -999 -999 -999 -99915050    2 -999    0 -999   20 -999 -999    3    1 -99915050
    315050    4   78    1    3    5    0    0 -999    0 -999 -999    6 -999    2
    2    2    4 -999 -999 -999 -999 -999 -999 -999 -999    1 -999 -999 -999  111
    1    1 -999 -999
      .005      .707   356.380      .000     1.000  4994.462      .011    36.920
   200.000     2.384      .477  -999.000    10.000  -999.000     4.000  -999.000
    20.000    34.165      .000  -999.000  -999.000  -999.000  -999.000      .000
      .001      .001     2.000    15.000    33.600  -117.195      .002      .003
     1.466      .000      .001   562.000  -999.000  -999.000  -999.000  -999.000
     1.000  -999.000    -8.000  -999.000  -999.000  -999.000  -999.000   120.000
     -.900     2.000     6.800   980.665      .020   301.000    31.831      .000
  -999.000    23.000  -999.000   301.000      .020      .300  -999.000  -999.000
    36.920    10.831    36.860     -.414    36.780      .021      .000      .300
    23.000      .020      .020      .000      .020      .012  -999.000  -999.000
      .050      .280      .028      .044      .001      .000  -999.000  -999.000
  -999.000  -999.000  -999.000  -999.000  -999.000  -999.000  -999.000  -999.000
  -999.000  -999.000  -999.000  -999.000
      .050
      .040      .042      .044      .046      .048      .050      .055      .060
      .065      .070      .075      .080      .085      .090      .095      .100
      .110      .120      .130      .140      .150      .160      .170      .180
      .190      .200      .220      .240      .260      .280      .300      .320
      .340      .360      .380      .400      .420      .440      .460      .480
      .500      .550      .600      .650      .700      .750      .800      .850
      .900      .950     1.000     1.100     1.200     1.300     1.400     1.500
     1.600     1.700     1.800     1.900     2.000     2.200     2.400     2.600
     2.800     3.000     3.200     3.400     3.600     3.800     4.000     4.200
     4.400     4.600     4.800     5.000     5.500     6.000      .000      .000
      .000      .000      .000      .000      .000      .000      .000      .000
      .000      .000      .000      .000      .000      .000      .000      .000
      .000      .000      .000      .000
Fourier amplitude spectra in in/sec.
  .000E+00  .000E+00  .000E+00  .000E+00  .000E+00  .000E+00  .000E+00  .000E+00
  .000E+00  .000E+00  .000E+00  .000E+00  .000E+00  .000E+00  .000E+00  .000E+00
  .000E+00  .000E+00  .000E+00  .000E+00  .000E+00  .000E+00  .000E+00  .000E+00
  .000E+00  .000E+00  .000E+00  .000E+00  .000E+00  .000E+00  .000E+00  .000E+00
  .000E+00  .000E+00  .000E+00  .000E+00  .000E+00  .000E+00  .000E+00  .000E+00
  .000E+00  .000E+00  .000E+00  .000E+00  .000E+00  .000E+00  .000E+00  .000E+00
  .000E+00  .000E+00  .000E+00  .000E+00  .000E+00  .000E+00  .000E+00  .000E+00
  .000E+00  .000E+00  .000E+00  .000E+00  .000E+00  .000E+00  .000E+00  .000E+00
  .000E+00  .000E+00  .000E+00  .000E+00  .000E+00  .000E+00  .000E+00  .000E+00
  .000E+00  .000E+00  .000E+00  .000E+00  .000E+00  .000E+00  .000E+00  .000E+00
  .000E+00  .000E+00  .000E+00  .000E+00  .000E+00  .000E+00  .000E+00  .000E+00
  .000E+00  .000E+00  .000E+00  .000E+00  .000E+00  .000E+00  .000E+00  .000E+00
  .000E+00  .000E+00  .000E+00  .000E+00
Damping =  .05. Data of Sd,Sv,Sa,Pssv,ttSd,ttSv,ttSa :
  .176E-03  .195E-03  .217E-03  .239E-03  .259E-03  .280E-03  .356E-03  .419E-03
  .539E-03  .713E-03  .832E-03  .107E-02  .118E-02  .137E-02  .136E-02  .159E-02
  .223E-02  .268E-02  .274E-02  .356E-02  .522E-02  .623E-02  .737E-02  .790E-02
  .101E-01  .121E-01  .120E-01  .197E-01  .278E-01  .378E-01  .366E-01  .416E-01
  .400E-01  .360E-01  .300E-01  .262E-01  .227E-01  .194E-01  .163E-01  .143E-01
  .132E-01  .123E-01  .118E-01  .111E-01  .103E-01  .947E-02  .905E-02  .858E-02
  .819E-02  .834E-02  .883E-02  .940E-02  .978E-02  .104E-01  .108E-01  .107E-01
  .109E-01  .109E-01  .107E-01  .103E-01  .102E-01  .980E-02  .907E-02  .896E-02
  .846E-02  .810E-02  .824E-02  .841E-02  .853E-02  .859E-02  .859E-02  .857E-02
  .857E-02  .858E-02  .857E-02  .855E-02  .850E-02  .846E-02  .000E+00  .000E+00
  .000E+00  .000E+00  .000E+00  .000E+00  .000E+00  .000E+00  .000E+00  .000E+00
  .000E+00  .000E+00  .000E+00  .000E+00  .000E+00  .000E+00  .000E+00  .000E+00
  .000E+00  .000E+00  .000E+00  .000E+00
  .508E-02  .571E-02  .631E-02  .755E-02  .911E-02  .114E-01  .135E-01  .149E-01
  .189E-01  .289E-01  .393E-01  .511E-01  .608E-01  .742E-01  .671E-01  .686E-01
  .103E+00  .109E+00  .823E-01  .112E+00  .170E+00  .213E+00  .252E+00  .243E+00
  .287E+00  .329E+00  .300E+00  .490E+00  .667E+00  .882E+00  .756E+00  .846E+00
  .790E+00  .698E+00  .564E+00  .488E+00  .405E+00  .359E+00  .313E+00  .278E+00
  .255E+00  .229E+00  .216E+00  .208E+00  .201E+00  .193E+00  .183E+00  .176E+00
  .170E+00  .166E+00  .164E+00  .164E+00  .163E+00  .164E+00  .166E+00  .166E+00
  .168E+00  .169E+00  .169E+00  .169E+00  .169E+00  .169E+00  .168E+00  .167E+00
  .167E+00  .166E+00  .165E+00  .165E+00  .164E+00  .164E+00  .163E+00  .163E+00
  .163E+00  .162E+00  .162E+00  .162E+00  .162E+00  .161E+00  .000E+00  .000E+00
  .000E+00  .000E+00  .000E+00  .000E+00  .000E+00  .000E+00  .000E+00  .000E+00
  .000E+00  .000E+00  .000E+00  .000E+00  .000E+00  .000E+00  .000E+00  .000E+00
  .000E+00  .000E+00  .000E+00  .000E+00
  .113E-01  .113E-01  .115E-01  .115E-01  .115E-01  .115E-01  .121E-01  .119E-01
  .130E-01  .148E-01  .152E-01  .169E-01  .167E-01  .175E-01  .156E-01  .163E-01
  .186E-01  .188E-01  .165E-01  .184E-01  .237E-01  .252E-01  .263E-01  .251E-01
  .287E-01  .308E-01  .252E-01  .353E-01  .425E-01  .497E-01  .416E-01  .415E-01
  .359E-01  .285E-01  .211E-01  .170E-01  .132E-01  .102E-01  .788E-02  .637E-02
  .540E-02  .414E-02  .334E-02  .272E-02  .218E-02  .178E-02  .150E-02  .126E-02
  .107E-02  .990E-03  .950E-03  .844E-03  .744E-03  .677E-03  .612E-03  .538E-03
  .487E-03  .434E-03  .387E-03  .341E-03  .307E-03  .251E-03  .205E-03  .174E-03
  .148E-03  .130E-03  .116E-03  .105E-03  .954E-04  .879E-04  .817E-04  .765E-04
  .719E-04  .677E-04  .641E-04  .608E-04  .541E-04  .486E-04  .000E+00  .000E+00
  .000E+00  .000E+00  .000E+00  .000E+00  .000E+00  .000E+00  .000E+00  .000E+00
  .000E+00  .000E+00  .000E+00  .000E+00  .000E+00  .000E+00  .000E+00  .000E+00
  .000E+00  .000E+00  .000E+00  .000E+00
  .277E-01  .292E-01  .309E-01  .326E-01  .340E-01  .351E-01  .407E-01  .439E-01
  .521E-01  .640E-01  .697E-01  .837E-01  .870E-01  .958E-01  .901E-01  .999E-01
  .127E+00  .140E+00  .132E+00  .160E+00  .219E+00  .245E+00  .272E+00  .276E+00
  .334E+00  .379E+00  .342E+00  .517E+00  .673E+00  .848E+00  .766E+00  .816E+00
  .740E+00  .628E+00  .496E+00  .412E+00  .339E+00  .277E+00  .223E+00  .188E+00
  .166E+00  .140E+00  .123E+00  .108E+00  .924E-01  .793E-01  .711E-01  .635E-01
  .572E-01  .552E-01  .555E-01  .537E-01  .512E-01  .500E-01  .483E-01  .449E-01
  .430E-01  .402E-01  .374E-01  .342E-01  .319E-01  .280E-01  .238E-01  .216E-01
  .190E-01  .170E-01  .162E-01  .155E-01  .149E-01  .142E-01  .135E-01  .128E-01
  .122E-01  .117E-01  .112E-01  .107E-01  .971E-02  .886E-02  .000E+00  .000E+00
  .000E+00  .000E+00  .000E+00  .000E+00  .000E+00  .000E+00  .000E+00  .000E+00
  .000E+00  .000E+00  .000E+00  .000E+00  .000E+00  .000E+00  .000E+00  .000E+00
  .000E+00  .000E+00  .000E+00  .000E+00
  .369E+02  .369E+02  .369E+02  .369E+02  .369E+02  .369E+02  .382E+02  .382E+02
  .382E+02  .382E+02  .382E+02  .382E+02  .382E+02  .382E+02  .389E+02  .389E+02
  .382E+02  .385E+02  .385E+02  .389E+02  .389E+02  .389E+02  .383E+02  .369E+02
  .391E+02  .391E+02  .386E+02  .393E+02  .394E+02  .391E+02  .374E+02  .373E+02
  .373E+02  .384E+02  .370E+02  .369E+02  .369E+02  .369E+02  .369E+02  .369E+02
  .369E+02  .369E+02  .369E+02  .369E+02  .369E+02  .368E+02  .368E+02  .368E+02
  .369E+02  .369E+02  .369E+02  .369E+02  .369E+02  .369E+02  .369E+02  .369E+02
  .369E+02  .369E+02  .369E+02  .369E+02  .369E+02  .382E+02  .369E+02  .385E+02
  .385E+02  .368E+02  .368E+02  .368E+02  .368E+02  .368E+02  .368E+02  .368E+02
  .368E+02  .368E+02  .368E+02  .368E+02  .368E+02  .368E+02  .000E+00  .000E+00
  .000E+00  .000E+00  .000E+00  .000E+00  .000E+00  .000E+00  .000E+00  .000E+00
  .000E+00  .000E+00  .000E+00  .000E+00  .000E+00  .000E+00  .000E+00  .000E+00
  .000E+00  .000E+00  .000E+00  .000E+00
  .382E+02  .391E+02  .391E+02  .388E+02  .388E+02  .388E+02  .388E+02  .374E+02
  .382E+02  .382E+02  .382E+02  .382E+02  .382E+02  .382E+02  .379E+02  .379E+02
  .382E+02  .383E+02  .384E+02  .388E+02  .388E+02  .390E+02  .383E+02  .370E+02
  .391E+02  .392E+02  .392E+02  .392E+02  .392E+02  .391E+02  .374E+02  .374E+02
  .372E+02  .385E+02  .370E+02  .370E+02  .368E+02  .368E+02  .368E+02  .368E+02
  .368E+02  .368E+02  .368E+02  .368E+02  .368E+02  .368E+02  .368E+02  .368E+02
  .368E+02  .368E+02  .368E+02  .368E+02  .368E+02  .368E+02  .368E+02  .368E+02
  .368E+02  .368E+02  .368E+02  .368E+02  .368E+02  .368E+02  .368E+02  .368E+02
  .368E+02  .368E+02  .368E+02  .368E+02  .368E+02  .368E+02  .368E+02  .368E+02
  .368E+02  .368E+02  .368E+02  .368E+02  .368E+02  .368E+02  .000E+00  .000E+00
  .000E+00  .000E+00  .000E+00  .000E+00  .000E+00  .000E+00  .000E+00  .000E+00
  .000E+00  .000E+00  .000E+00  .000E+00  .000E+00  .000E+00  .000E+00  .000E+00
  .000E+00  .000E+00  .000E+00  .000E+00
  .369E+02  .369E+02  .369E+02  .369E+02  .369E+02  .369E+02  .382E+02  .382E+02
  .382E+02  .382E+02  .382E+02  .382E+02  .382E+02  .382E+02  .389E+02  .389E+02
  .382E+02  .385E+02  .385E+02  .389E+02  .389E+02  .389E+02  .383E+02  .369E+02
  .391E+02  .391E+02  .386E+02  .393E+02  .393E+02  .392E+02  .374E+02  .373E+02
  .373E+02  .384E+02  .370E+02  .369E+02  .369E+02  .369E+02  .369E+02  .369E+02
  .369E+02  .369E+02  .369E+02  .369E+02  .369E+02  .367E+02  .367E+02  .367E+02
  .369E+02  .369E+02  .369E+02  .369E+02  .369E+02  .369E+02  .369E+02  .369E+02
  .369E+02  .369E+02  .369E+02  .369E+02  .369E+02  .369E+02  .369E+02  .369E+02
  .369E+02  .369E+02  .369E+02  .369E+02  .369E+02  .369E+02  .369E+02  .369E+02
  .369E+02  .369E+02  .369E+02  .369E+02  .369E+02  .369E+02  .000E+00  .000E+00
  .000E+00  .000E+00  .000E+00  .000E+00  .000E+00  .000E+00  .000E+00  .000E+00
  .000E+00  .000E+00  .000E+00  .000E+00  .000E+00  .000E+00  .000E+00  .000E+00
  .000E+00  .000E+00  .000E+00  .000E+00
/&   ----------  End of spectral data for channel  1  ----------
Response and Fourier amplitude spectra (78 periods,  .04 -  6.0 sec)   for      
Corrected accelerogram   38695658.CI.MUR.--.HN      Chan  2: 360 Deg     from   
Uncorrected Accelerogram Data             Processed: 09/19/20, CGS  cimur--k    
Rcrd of Fri Sep 18, 2020 23:38:38.0 PDT               (Avol1 v2.0, 4/18 CSMIP)  
                                        (Origin:  To be determined)             
38695658.CI.MUR.--.HN                Start time:  9/19/20, 06:38:38.0 UTC (GPS) 
Station Id. MUR     33.600N, 117.195W    ObsMMS  s/n 4243  (3 Chns of  3 at Sta)
Jodan Farms Nursery, Murrieta            SCSN   Data: Acceleration              
Chan  2: 360 Deg                                                                
Rcrd of Fri Sep 18, 2020 23:38:38.0 PDT    Fri Sep 18, 2020 23:38:38.0 PDT      
Hypocenter:  To be determined.               ML:  To be determined.             
Instr Period =  .0050 sec,  Damping =  .707,  Sensitivity = 5.00 v/g  (Nominal) 
                        Record Length =301.000 sec.                             
                                     Uncor Max  =  -.008 g, at   37.310 sec.    
RMS accel of (uncor) record  =        .   Chn. metadata effective date:         
Accelerogram bandpass filtered with 3 dB pts at   .30 and 23.00 cyc/sec         
                 instrument- and base-line correcte                             
                                                                                
                                                                                
                                                                                
                                                                                
                                                                                
Rcrd of Fri Sep 18, 2020 23:38:38.0 PDT    Fri Sep 18, 2020 23:38:38.0 PDT      
                                                                                
38695658.CI.MUR.--.HN     Jodan Farms Nursery, Murrieta   Chan  2: 360 Deg      
                                                                                
38695658.CI.MUR.--.HN     Jodan Farms Nursery, Murrieta   Chan  2: 360 Deg      
                                                                                
Units for spectra are inches and sec, except Sa is in fraction of g.            
                                                                                
    2  100    2    3    3  100 -999    3    1    0   15 4243    050728   41    0
    6   38   38    8  263    9   19 2020   10    3  36036031   39   29   74 -999
36031 -999  100    6 -999 -999 -999 -999 -999 -999 -999 -999 -999 -999 -999 -999
 -999 -999 -999 -99915050    2 -999    0 -999   20 -999 -999    3    1 -99915050
    315050    4   78    1    3    5    0    0 -999    0 -999 -999    6 -999    2
    2    2    4 -999 -999 -999 -999 -999 -999 -999 -999    1 -999 -999 -999  111
    1    1 -999 -999
      .005      .707   360.310      .000     1.000  4997.654     -.008    37.310
   200.000     2.384      .477  -999.000    10.000  -999.000     4.000  -999.000
    20.000   -26.185      .000  -999.000  -999.000  -999.000  -999.000      .001
      .000     -.001     2.000    15.000    33.600  -117.195      .001      .003
     2.220     -.001     -.001   562.000  -999.000  -999.000  -999.000  -999.000
     1.000  -999.000  -999.000  -999.000  -999.000  -999.000  -999.000   120.000
     -.900     2.000     6.800   980.665      .020   301.000    31.831      .000
  -999.000    23.000  -999.000   301.000      .020      .300  -999.000  -999.000
    37.320    -7.067    37.360     -.291    37.420     -.015      .000      .300
    23.000      .020      .020      .000      .020      .009  -999.000  -999.000
      .032      .180      .031      .016      .001      .000  -999.000  -999.000
  -999.000  -999.000  -999.000  -999.000  -999.000  -999.000  -999.000  -999.000
  -999.000  -999.000  -999.000  -999.000
      .050
      .040      .042      .044      .046      .048      .050      .055      .060
      .065      .070      .075      .080      .085      .090      .095      .100
      .110      .120      .130      .140      .150      .160      .170      .180
      .190      .200      .220      .240      .260      .280      .300      .320
      .340      .360      .380      .400      .420      .440      .460      .480
      .500      .550      .600      .650      .700      .750      .800      .850
      .900      .950     1.000     1.100     1.200     1.300     1.400     1.500
     1.600     1.700     1.800     1.900     2.000     2.200     2.400     2.600
     2.800     3.000     3.200     3.400     3.600     3.800     4.000     4.200
     4.400     4.600     4.800     5.000     5.500     6.000      .000      .000
      .000      .000      .000      .000      .000      .000      .000      .000
      .000      .000      .000      .000      .000      .000      .000      .000
      .000      .000      .000      .000
Fourier amplitude spectra in in/sec.
  .000E+00  .000E+00  .000E+00  .000E+00  .000E+00  .000E+00  .000E+00  .000E+00
  .000E+00  .000E+00  .000E+00  .000E+00  .000E+00  .000E+00  .000E+00  .000E+00
  .000E+00  .000E+00  .000E+00  .000E+00  .000E+00  .000E+00  .000E+00  .000E+00
  .000E+00  .000E+00  .000E+00  .000E+00  .000E+00  .000E+00  .000E+00  .000E+00
  .000E+00  .000E+00  .000E+00  .000E+00  .000E+00  .000E+00  .000E+00  .000E+00
  .000E+00  .000E+00  .000E+00  .000E+00  .000E+00  .000E+00  .000E+00  .000E+00
  .000E+00  .000E+00  .000E+00  .000E+00  .000E+00  .000E+00  .000E+00  .000E+00
  .000E+00  .000E+00  .000E+00  .000E+00  .000E+00  .000E+00  .000E+00  .000E+00
  .000E+00  .000E+00  .000E+00  .000E+00  .000E+00  .000E+00  .000E+00  .000E+00
  .000E+00  .000E+00  .000E+00  .000E+00  .000E+00  .000E+00  .000E+00  .000E+00
  .000E+00  .000E+00  .000E+00  .000E+00  .000E+00  .000E+00  .000E+00  .000E+00
  .000E+00  .000E+00  .000E+00  .000E+00  .000E+00  .000E+00  .000E+00  .000E+00
  .000E+00  .000E+00  .000E+00  .000E+00
Damping =  .05. Data of Sd,Sv,Sa,Pssv,ttSd,ttSv,ttSa :
  .120E-03  .133E-03  .145E-03  .157E-03  .174E-03  .198E-03  .257E-03  .295E-03
  .357E-03  .422E-03  .520E-03  .643E-03  .806E-03  .947E-03  .104E-02  .126E-02
  .159E-02  .230E-02  .265E-02  .331E-02  .484E-02  .653E-02  .834E-02  .101E-01
  .112E-01  .120E-01  .141E-01  .116E-01  .110E-01  .149E-01  .147E-01  .128E-01
  .129E-01  .134E-01  .152E-01  .126E-01  .102E-01  .938E-02  .827E-02  .726E-02
