Response and Fourier amplitude spectra (78 periods,  .04 -  6.0 sec)   for      
Corrected accelerogram   38695658.CI.MWC.--.HN      Chan  1:  90 Deg     from   
Uncorrected Accelerogram Data             Processed: 09/19/20, CGS  cimwc--r    
Rcrd of Fri Sep 18, 2020 23:38:25.0 PDT               (Avol1 v2.0, 4/18 CSMIP)  
                                        (Origin:  To be determined)             
38695658.CI.MWC.--.HN                Start time:  9/19/20, 06:38:25.0 UTC (GPS) 
Station Id. MWC     34.224N, 118.058W    ObsMMS  s/n 3442  (3 Chns of  3 at Sta)
Altadena, Mt. Wilson                     SCSN   Data: Acceleration              
Chan  1:  90 Deg                                                                
Rcrd of Fri Sep 18, 2020 23:38:25.0 PDT    Fri Sep 18, 2020 23:38:25.0 PDT      
Hypocenter:  To be determined.               ML:  To be determined.             
Instr Period =  .0050 sec,  Damping =  .707,  Sensitivity = 4.99 v/g  (Nominal) 
                        Record Length =301.000 sec.                             
                                     Uncor Max  =   .021 g, at   30.590 sec.    
RMS accel of (uncor) record  =        .   Chn. metadata effective date:         
Accelerogram bandpass filtered with 3 dB pts at   .30 and 23.00 cyc/sec         
                 instrument- and base-line correcte                             
                                                                                
                                                                                
                                                                                
                                                                                
                                                                                
Rcrd of Fri Sep 18, 2020 23:38:25.0 PDT    Fri Sep 18, 2020 23:38:25.0 PDT      
                                                                                
38695658.CI.MWC.--.HN     Altadena, Mt. Wilson    Chan  1:  90 Deg              
                                                                                
38695658.CI.MWC.--.HN     Altadena, Mt. Wilson    Chan  1:  90 Deg              
                                                                                
Units for spectra are inches and sec, except Sa is in fraction of g.            
                                                                                
    1  100    1    3    3  100 -999    3    1    0   15 3442    050553   41    0
    6   38   25    8  263    9   19 2020   10    3   9035877   39   20   74 -999
35877 -999  100    6 -999 -999 -999 -999 -999 -999 -999 -999 -999 -999 -999 -999
 -999 -999 -999 -99915050    2 -999    0 -999   20 -999 -999    3    1 -99915050
    315050    4   78    1    3    5    0    0 -999    0 -999 -999    6 -999    2
    2    2    4 -999 -999 -999 -999 -999 -999 -999 -999    1 -999 -999 -999  111
    1    1 -999 -999
      .005      .707   358.770      .001     1.000  4987.659      .021    30.590
   200.000     2.384      .478  -999.000    10.000  -999.000     4.000  -999.000
    20.000    -4.390      .000  -999.000  -999.000  -999.000  -999.000     -.001
      .002      .003     2.000    15.000    34.224  -118.058      .002      .002
     1.122      .003      .004  1725.000  -999.000  -999.000  -999.000  -999.000
     1.000  -999.000    -8.000  -999.000  -999.000  -999.000  -999.000   120.000
     -.900     2.000     6.800   980.665      .020   301.000    31.831      .000
  -999.000    23.000  -999.000   301.000      .020      .300  -999.000  -999.000
    30.580    20.663    30.560     -.489    30.160      .019      .000      .300
    23.000      .020      .020      .000      .020      .011  -999.000  -999.000
      .087      .170      .048      .013      .001      .000  -999.000  -999.000
  -999.000  -999.000  -999.000  -999.000  -999.000  -999.000  -999.000  -999.000
  -999.000  -999.000  -999.000  -999.000
      .050
      .040      .042      .044      .046      .048      .050      .055      .060
      .065      .070      .075      .080      .085      .090      .095      .100
      .110      .120      .130      .140      .150      .160      .170      .180
      .190      .200      .220      .240      .260      .280      .300      .320
      .340      .360      .380      .400      .420      .440      .460      .480
      .500      .550      .600      .650      .700      .750      .800      .850
      .900      .950     1.000     1.100     1.200     1.300     1.400     1.500
     1.600     1.700     1.800     1.900     2.000     2.200     2.400     2.600
     2.800     3.000     3.200     3.400     3.600     3.800     4.000     4.200
     4.400     4.600     4.800     5.000     5.500     6.000      .000      .000
      .000      .000      .000      .000      .000      .000      .000      .000
      .000      .000      .000      .000      .000      .000      .000      .000
      .000      .000      .000      .000
Fourier amplitude spectra in in/sec.
  .000E+00  .000E+00  .000E+00  .000E+00  .000E+00  .000E+00  .000E+00  .000E+00
  .000E+00  .000E+00  .000E+00  .000E+00  .000E+00  .000E+00  .000E+00  .000E+00
  .000E+00  .000E+00  .000E+00  .000E+00  .000E+00  .000E+00  .000E+00  .000E+00
  .000E+00  .000E+00  .000E+00  .000E+00  .000E+00  .000E+00  .000E+00  .000E+00
  .000E+00  .000E+00  .000E+00  .000E+00  .000E+00  .000E+00  .000E+00  .000E+00
  .000E+00  .000E+00  .000E+00  .000E+00  .000E+00  .000E+00  .000E+00  .000E+00
  .000E+00  .000E+00  .000E+00  .000E+00  .000E+00  .000E+00  .000E+00  .000E+00
  .000E+00  .000E+00  .000E+00  .000E+00  .000E+00  .000E+00  .000E+00  .000E+00
  .000E+00  .000E+00  .000E+00  .000E+00  .000E+00  .000E+00  .000E+00  .000E+00
  .000E+00  .000E+00  .000E+00  .000E+00  .000E+00  .000E+00  .000E+00  .000E+00
  .000E+00  .000E+00  .000E+00  .000E+00  .000E+00  .000E+00  .000E+00  .000E+00
  .000E+00  .000E+00  .000E+00  .000E+00  .000E+00  .000E+00  .000E+00  .000E+00
  .000E+00  .000E+00  .000E+00  .000E+00
Damping =  .05. Data of Sd,Sv,Sa,Pssv,ttSd,ttSv,ttSa :
  .354E-03  .399E-03  .419E-03  .473E-03  .542E-03  .667E-03  .105E-02  .161E-02
  .186E-02  .161E-02  .200E-02  .204E-02  .206E-02  .279E-02  .347E-02  .410E-02
  .682E-02  .817E-02  .950E-02  .980E-02  .128E-01  .198E-01  .247E-01  .244E-01
  .216E-01  .195E-01  .155E-01  .131E-01  .119E-01  .113E-01  .113E-01  .124E-01
  .131E-01  .128E-01  .145E-01  .126E-01  .135E-01  .139E-01  .136E-01  .129E-01
  .125E-01  .141E-01  .132E-01  .142E-01  .142E-01  .140E-01  .136E-01  .129E-01
  .124E-01  .121E-01  .130E-01  .146E-01  .158E-01  .149E-01  .132E-01  .112E-01
  .113E-01  .117E-01  .120E-01  .121E-01  .120E-01  .115E-01  .108E-01  .102E-01
  .973E-02  .927E-02  .884E-02  .844E-02  .809E-02  .808E-02  .806E-02  .803E-02
  .801E-02  .799E-02  .794E-02  .791E-02  .785E-02  .777E-02  .000E+00  .000E+00
  .000E+00  .000E+00  .000E+00  .000E+00  .000E+00  .000E+00  .000E+00  .000E+00
  .000E+00  .000E+00  .000E+00  .000E+00  .000E+00  .000E+00  .000E+00  .000E+00
  .000E+00  .000E+00  .000E+00  .000E+00
  .228E-01  .263E-01  .301E-01  .370E-01  .489E-01  .598E-01  .802E-01  .120E+00
  .134E+00  .105E+00  .129E+00  .124E+00  .118E+00  .159E+00  .184E+00  .202E+00
  .319E+00  .371E+00  .459E+00  .403E+00  .534E+00  .756E+00  .961E+00  .918E+00
  .788E+00  .669E+00  .490E+00  .397E+00  .359E+00  .320E+00  .322E+00  .312E+00
  .310E+00  .315E+00  .316E+00  .311E+00  .299E+00  .279E+00  .256E+00  .263E+00
  .266E+00  .269E+00  .256E+00  .245E+00  .241E+00  .223E+00  .203E+00  .206E+00
  .208E+00  .208E+00  .209E+00  .210E+00  .207E+00  .201E+00  .195E+00  .190E+00
  .186E+00  .184E+00  .184E+00  .183E+00  .182E+00  .180E+00  .179E+00  .180E+00
  .180E+00  .180E+00  .180E+00  .180E+00  .180E+00  .180E+00  .180E+00  .179E+00
  .179E+00  .179E+00  .179E+00  .178E+00  .178E+00  .178E+00  .000E+00  .000E+00
  .000E+00  .000E+00  .000E+00  .000E+00  .000E+00  .000E+00  .000E+00  .000E+00
  .000E+00  .000E+00  .000E+00  .000E+00  .000E+00  .000E+00  .000E+00  .000E+00
  .000E+00  .000E+00  .000E+00  .000E+00
  .225E-01  .231E-01  .222E-01  .228E-01  .243E-01  .273E-01  .356E-01  .465E-01
  .447E-01  .339E-01  .361E-01  .327E-01  .294E-01  .350E-01  .392E-01  .425E-01
  .586E-01  .573E-01  .587E-01  .512E-01  .589E-01  .798E-01  .875E-01  .782E-01
  .619E-01  .503E-01  .323E-01  .235E-01  .180E-01  .149E-01  .129E-01  .122E-01
  .116E-01  .103E-01  .102E-01  .796E-02  .781E-02  .746E-02  .678E-02  .597E-02
  .523E-02  .478E-02  .380E-02  .344E-02  .301E-02  .263E-02  .227E-02  .194E-02
  .166E-02  .144E-02  .139E-02  .127E-02  .114E-02  .912E-03  .696E-03  .555E-03
  .521E-03  .486E-03  .451E-03  .415E-03  .380E-03  .315E-03  .263E-03  .223E-03
  .193E-03  .170E-03  .151E-03  .135E-03  .122E-03  .111E-03  .102E-03  .946E-04
  .881E-04  .824E-04  .775E-04  .733E-04  .647E-04  .581E-04  .000E+00  .000E+00
  .000E+00  .000E+00  .000E+00  .000E+00  .000E+00  .000E+00  .000E+00  .000E+00
  .000E+00  .000E+00  .000E+00  .000E+00  .000E+00  .000E+00  .000E+00  .000E+00
  .000E+00  .000E+00  .000E+00  .000E+00
  .556E-01  .596E-01  .598E-01  .646E-01  .710E-01  .838E-01  .120E+00  .169E+00
  .180E+00  .144E+00  .168E+00  .160E+00  .152E+00  .195E+00  .229E+00  .257E+00
  .390E+00  .428E+00  .459E+00  .440E+00  .537E+00  .778E+00  .911E+00  .853E+00
  .715E+00  .614E+00  .442E+00  .342E+00  .288E+00  .253E+00  .236E+00  .244E+00
  .242E+00  .224E+00  .239E+00  .198E+00  .201E+00  .199E+00  .186E+00  .169E+00
  .157E+00  .161E+00  .138E+00  .137E+00  .127E+00  .117E+00  .107E+00  .957E-01
  .867E-01  .802E-01  .817E-01  .832E-01  .825E-01  .722E-01  .591E-01  .469E-01
  .445E-01  .434E-01  .419E-01  .399E-01  .376E-01  .328E-01  .284E-01  .247E-01
  .218E-01  .194E-01  .174E-01  .156E-01  .141E-01  .134E-01  .127E-01  .120E-01
  .114E-01  .109E-01  .104E-01  .994E-02  .897E-02  .814E-02  .000E+00  .000E+00
  .000E+00  .000E+00  .000E+00  .000E+00  .000E+00  .000E+00  .000E+00  .000E+00
  .000E+00  .000E+00  .000E+00  .000E+00  .000E+00  .000E+00  .000E+00  .000E+00
  .000E+00  .000E+00  .000E+00  .000E+00
  .306E+02  .306E+02  .306E+02  .305E+02  .305E+02  .306E+02  .306E+02  .306E+02
  .306E+02  .306E+02  .306E+02  .306E+02  .300E+02  .300E+02  .300E+02  .300E+02
  .301E+02  .301E+02  .307E+02  .302E+02  .307E+02  .307E+02  .306E+02  .306E+02
  .306E+02  .303E+02  .303E+02  .303E+02  .311E+02  .306E+02  .302E+02  .302E+02
  .302E+02  .302E+02  .321E+02  .301E+02  .301E+02  .301E+02  .301E+02  .302E+02
  .302E+02  .322E+02  .300E+02  .300E+02  .300E+02  .300E+02  .300E+02  .301E+02
  .301E+02  .302E+02  .302E+02  .309E+02  .309E+02  .309E+02  .309E+02  .309E+02
  .306E+02  .306E+02  .306E+02  .306E+02  .306E+02  .306E+02  .306E+02  .306E+02
  .306E+02  .306E+02  .306E+02  .306E+02  .298E+02  .300E+02  .300E+02  .300E+02
  .300E+02  .300E+02  .300E+02  .301E+02  .301E+02  .301E+02  .000E+00  .000E+00
  .000E+00  .000E+00  .000E+00  .000E+00  .000E+00  .000E+00  .000E+00  .000E+00
  .000E+00  .000E+00  .000E+00  .000E+00  .000E+00  .000E+00  .000E+00  .000E+00
  .000E+00  .000E+00  .000E+00  .000E+00
  .296E+02  .296E+02  .311E+02  .305E+02  .306E+02  .305E+02  .306E+02  .307E+02
  .307E+02  .306E+02  .306E+02  .306E+02  .300E+02  .300E+02  .300E+02  .300E+02
  .300E+02  .301E+02  .307E+02  .307E+02  .307E+02  .307E+02  .307E+02  .306E+02
  .305E+02  .304E+02  .303E+02  .303E+02  .303E+02  .303E+02  .306E+02  .306E+02
  .302E+02  .302E+02  .302E+02  .302E+02  .302E+02  .302E+02  .301E+02  .301E+02
  .301E+02  .301E+02  .301E+02  .305E+02  .305E+02  .305E+02  .300E+02  .300E+02
  .300E+02  .300E+02  .300E+02  .300E+02  .300E+02  .300E+02  .300E+02  .300E+02
  .300E+02  .302E+02  .302E+02  .302E+02  .302E+02  .302E+02  .305E+02  .305E+02
  .305E+02  .305E+02  .305E+02  .305E+02  .305E+02  .305E+02  .305E+02  .305E+02
  .305E+02  .305E+02  .305E+02  .305E+02  .305E+02  .305E+02  .000E+00  .000E+00
  .000E+00  .000E+00  .000E+00  .000E+00  .000E+00  .000E+00  .000E+00  .000E+00
  .000E+00  .000E+00  .000E+00  .000E+00  .000E+00  .000E+00  .000E+00  .000E+00
  .000E+00  .000E+00  .000E+00  .000E+00
  .306E+02  .306E+02  .306E+02  .307E+02  .305E+02  .306E+02  .306E+02  .306E+02
  .306E+02  .306E+02  .306E+02  .306E+02  .300E+02  .300E+02  .300E+02  .300E+02
  .301E+02  .301E+02  .307E+02  .302E+02  .307E+02  .307E+02  .306E+02  .306E+02
  .306E+02  .303E+02  .303E+02  .303E+02  .302E+02  .306E+02  .302E+02  .302E+02
  .306E+02  .302E+02  .321E+02  .301E+02  .301E+02  .301E+02  .301E+02  .301E+02
  .301E+02  .322E+02  .300E+02  .300E+02  .300E+02  .300E+02  .300E+02  .300E+02
  .300E+02  .300E+02  .302E+02  .308E+02  .308E+02  .309E+02  .309E+02  .305E+02
  .305E+02  .305E+02  .305E+02  .305E+02  .305E+02  .305E+02  .305E+02  .305E+02
  .305E+02  .305E+02  .305E+02  .305E+02  .305E+02  .305E+02  .305E+02  .305E+02
  .305E+02  .305E+02  .305E+02  .305E+02  .305E+02  .305E+02  .000E+00  .000E+00
  .000E+00  .000E+00  .000E+00  .000E+00  .000E+00  .000E+00  .000E+00  .000E+00
  .000E+00  .000E+00  .000E+00  .000E+00  .000E+00  .000E+00  .000E+00  .000E+00
  .000E+00  .000E+00  .000E+00  .000E+00
/&   ----------  End of spectral data for channel  1  ----------
Response and Fourier amplitude spectra (78 periods,  .04 -  6.0 sec)   for      
Corrected accelerogram   38695658.CI.MWC.--.HN      Chan  2: 360 Deg     from   
Uncorrected Accelerogram Data             Processed: 09/19/20, CGS  cimwc--r    
Rcrd of Fri Sep 18, 2020 23:38:25.0 PDT               (Avol1 v2.0, 4/18 CSMIP)  
                                        (Origin:  To be determined)             
38695658.CI.MWC.--.HN                Start time:  9/19/20, 06:38:25.0 UTC (GPS) 
Station Id. MWC     34.224N, 118.058W    ObsMMS  s/n 3442  (3 Chns of  3 at Sta)
Altadena, Mt. Wilson                     SCSN   Data: Acceleration              
Chan  2: 360 Deg                                                                
Rcrd of Fri Sep 18, 2020 23:38:25.0 PDT    Fri Sep 18, 2020 23:38:25.0 PDT      
Hypocenter:  To be determined.               ML:  To be determined.             
Instr Period =  .0050 sec,  Damping =  .707,  Sensitivity = 4.99 v/g  (Nominal) 
                        Record Length =301.000 sec.                             
                                     Uncor Max  =   .019 g, at   29.980 sec.    
RMS accel of (uncor) record  =        .   Chn. metadata effective date:         
Accelerogram bandpass filtered with 3 dB pts at   .30 and 23.00 cyc/sec         
                 instrument- and base-line correcte                             
                                                                                
                                                                                
                                                                                
                                                                                
                                                                                
Rcrd of Fri Sep 18, 2020 23:38:25.0 PDT    Fri Sep 18, 2020 23:38:25.0 PDT      
                                                                                
38695658.CI.MWC.--.HN     Altadena, Mt. Wilson    Chan  2: 360 Deg              
                                                                                
38695658.CI.MWC.--.HN     Altadena, Mt. Wilson    Chan  2: 360 Deg              
                                                                                
Units for spectra are inches and sec, except Sa is in fraction of g.            
                                                                                
    2  100    2    3    3  100 -999    3    1    0   15 3442    050553   41    0
    6   38   25    8  263    9   19 2020   10    3  36035930   39   20   74 -999
35930 -999  100    6 -999 -999 -999 -999 -999 -999 -999 -999 -999 -999 -999 -999
 -999 -999 -999 -99915050    2 -999    0 -999   20 -999 -999    3    1 -99915050
    315050    4   78    1    3    5    0    0 -999    0 -999 -999    6 -999    2
    2    2    4 -999 -999 -999 -999 -999 -999 -999 -999    1 -999 -999 -999  111
    1    1 -999 -999
      .005      .707   359.300      .001     1.000  4988.657      .019    29.980
   200.000     2.384      .478  -999.000    10.000  -999.000     4.000  -999.000
    20.000     -.941      .000  -999.000  -999.000  -999.000  -999.000     -.001
      .001      .001     2.000    15.000    34.224  -118.058      .001      .001
     1.022      .001      .002  1725.000  -999.000  -999.000  -999.000  -999.000
     1.000  -999.000  -999.000  -999.000  -999.000  -999.000  -999.000   120.000
     -.900     2.000     6.800   980.665      .020   301.000    31.831      .000
  -999.000    23.000  -999.000   301.000      .020      .300  -999.000  -999.000
    30.440    17.715    29.960     -.513    30.000     -.039      .000      .300
    23.000      .020      .020      .000      .020      .011  -999.000  -999.000
      .077      .120      .047      .013      .003      .000  -999.000  -999.000
  -999.000  -999.000  -999.000  -999.000  -999.000  -999.000  -999.000  -999.000
  -999.000  -999.000  -999.000  -999.000
      .050
      .040      .042      .044      .046      .048      .050      .055      .060
      .065      .070      .075      .080      .085      .090      .095      .100
      .110      .120      .130      .140      .150      .160      .170      .180
      .190      .200      .220      .240      .260      .280      .300      .320
      .340      .360      .380      .400      .420      .440      .460      .480
      .500      .550      .600      .650      .700      .750      .800      .850
      .900      .950     1.000     1.100     1.200     1.300     1.400     1.500
     1.600     1.700     1.800     1.900     2.000     2.200     2.400     2.600
     2.800     3.000     3.200     3.400     3.600     3.800     4.000     4.200
     4.400     4.600     4.800     5.000     5.500     6.000      .000      .000
      .000      .000      .000      .000      .000      .000      .000      .000
      .000      .000      .000      .000      .000      .000      .000      .000
      .000      .000      .000      .000
Fourier amplitude spectra in in/sec.
  .000E+00  .000E+00  .000E+00  .000E+00  .000E+00  .000E+00  .000E+00  .000E+00
  .000E+00  .000E+00  .000E+00  .000E+00  .000E+00  .000E+00  .000E+00  .000E+00
  .000E+00  .000E+00  .000E+00  .000E+00  .000E+00  .000E+00  .000E+00  .000E+00
  .000E+00  .000E+00  .000E+00  .000E+00  .000E+00  .000E+00  .000E+00  .000E+00
  .000E+00  .000E+00  .000E+00  .000E+00  .000E+00  .000E+00  .000E+00  .000E+00
  .000E+00  .000E+00  .000E+00  .000E+00  .000E+00  .000E+00  .000E+00  .000E+00
  .000E+00  .000E+00  .000E+00  .000E+00  .000E+00  .000E+00  .000E+00  .000E+00
  .000E+00  .000E+00  .000E+00  .000E+00  .000E+00  .000E+00  .000E+00  .000E+00
  .000E+00  .000E+00  .000E+00  .000E+00  .000E+00  .000E+00  .000E+00  .000E+00
  .000E+00  .000E+00  .000E+00  .000E+00  .000E+00  .000E+00  .000E+00  .000E+00
  .000E+00  .000E+00  .000E+00  .000E+00  .000E+00  .000E+00  .000E+00  .000E+00
  .000E+00  .000E+00  .000E+00  .000E+00  .000E+00  .000E+00  .000E+00  .000E+00
  .000E+00  .000E+00  .000E+00  .000E+00
Damping =  .05. Data of Sd,Sv,Sa,Pssv,ttSd,ttSv,ttSa :
  .296E-03  .333E-03  .377E-03  .476E-03  .561E-03  .632E-03  .711E-03  .953E-03
  .121E-02  .122E-02  .177E-02  .246E-02  .262E-02  .340E-02  .466E-02  .557E-02
  .867E-02  .110E-01  .906E-02  .900E-02  .981E-02  .112E-01  .107E-01  .120E-01
  .144E-01  .182E-01  .253E-01  .234E-01  .165E-01  .119E-01  .101E-01  .106E-01
  .106E-01  .108E-01  .105E-01  .106E-01  .132E-01  .129E-01  .119E-01  .133E-01
