Response and Fourier amplitude spectra (78 periods,  .04 -  6.0 sec)   for      
Corrected accelerogram   38695658.CI.NEN.--.HN      Chan  1:  90 Deg     from   
Uncorrected Accelerogram Data             Processed: 09/19/20, CGS  cinen--z    
Rcrd of Fri Sep 18, 2020 23:38:38.0 PDT               (Avol1 v2.0, 4/18 CSMIP)  
                                        (Origin:  To be determined)             
38695658.CI.NEN.--.HN                Start time:  9/19/20, 06:38:38.0 UTC (GPS) 
Station Id. NEN     34.775N, 118.501W    ObsMMS  s/n 1930  (3 Chns of  6 at Sta)
Neenach                                  SCSN   Data: Acceleration              
Chan  1:  90 Deg                                                                
Rcrd of Fri Sep 18, 2020 23:38:38.0 PDT    Fri Sep 18, 2020 23:38:38.0 PDT      
Hypocenter:  To be determined.               ML:  To be determined.             
Instr Period =  .0050 sec,  Damping =  .707,  Sensitivity = 4.98 v/g  (Nominal) 
                        Record Length =301.000 sec.                             
                                     Uncor Max  =   .002 g, at   36.770 sec.    
RMS accel of (uncor) record  =        .   Chn. metadata effective date:         
Accelerogram bandpass filtered with 3 dB pts at   .30 and 23.00 cyc/sec         
                 instrument- and base-line correcte                             
                                                                                
                                                                                
                                                                                
                                                                                
                                                                                
Rcrd of Fri Sep 18, 2020 23:38:38.0 PDT    Fri Sep 18, 2020 23:38:38.0 PDT      
                                                                                
38695658.CI.NEN.--.HN     Neenach   Chan  1:  90 Deg                            
                                                                                
38695658.CI.NEN.--.HN     Neenach   Chan  1:  90 Deg                            
                                                                                
Units for spectra are inches and sec, except Sa is in fraction of g.            
                                                                                
    1  100    1    6    6  100 -999    3    1    0   15 1930    0    0   41    0
    6   38   38    0  263    9   19 2020   10    3   9035702   39    7   74 -999
35702 -999  100    6 -999 -999 -999 -999 -999 -999 -999 -999 -999 -999 -999 -999
 -999 -999 -999 -99915050    2 -999    0 -999   20 -999 -999    3    1 -99915050
    315050    4   78    1    3    5    0    0 -999    0 -999 -999    6 -999    2
    2    2    4 -999 -999 -999 -999 -999 -999 -999 -999    1 -999 -999 -999  111
    1    1 -999 -999
      .005      .707   357.020      .000     1.000  4979.503      .002    36.770
   200.000     2.384      .479  -999.000    10.000  -999.000     4.000  -999.000
    20.000   -26.958      .000  -999.000  -999.000  -999.000  -999.000     -.001
      .001      .001     2.000    15.000    34.775  -118.501      .008      .016
     1.939     -.001      .003   859.000  -999.000  -999.000  -999.000  -999.000
     1.000  -999.000    -8.000  -999.000  -999.000  -999.000  -999.000   120.000
     -.900     2.000     6.800   980.665      .020   301.000    31.831      .000
  -999.000    23.000  -999.000   301.000      .020      .300  -999.000  -999.000
    36.760     1.647    36.720     -.066    36.780     -.008      .000      .300
    23.000      .020      .020      .000      .020      .005  -999.000  -999.000
      .006      .110      .006      .004      .001      .000  -999.000  -999.000
  -999.000  -999.000  -999.000  -999.000  -999.000  -999.000  -999.000  -999.000
  -999.000  -999.000  -999.000  -999.000
      .050
      .040      .042      .044      .046      .048      .050      .055      .060
      .065      .070      .075      .080      .085      .090      .095      .100
      .110      .120      .130      .140      .150      .160      .170      .180
      .190      .200      .220      .240      .260      .280      .300      .320
      .340      .360      .380      .400      .420      .440      .460      .480
      .500      .550      .600      .650      .700      .750      .800      .850
      .900      .950     1.000     1.100     1.200     1.300     1.400     1.500
     1.600     1.700     1.800     1.900     2.000     2.200     2.400     2.600
     2.800     3.000     3.200     3.400     3.600     3.800     4.000     4.200
     4.400     4.600     4.800     5.000     5.500     6.000      .000      .000
      .000      .000      .000      .000      .000      .000      .000      .000
      .000      .000      .000      .000      .000      .000      .000      .000
      .000      .000      .000      .000
Fourier amplitude spectra in in/sec.
  .000E+00  .000E+00  .000E+00  .000E+00  .000E+00  .000E+00  .000E+00  .000E+00
  .000E+00  .000E+00  .000E+00  .000E+00  .000E+00  .000E+00  .000E+00  .000E+00
  .000E+00  .000E+00  .000E+00  .000E+00  .000E+00  .000E+00  .000E+00  .000E+00
  .000E+00  .000E+00  .000E+00  .000E+00  .000E+00  .000E+00  .000E+00  .000E+00
  .000E+00  .000E+00  .000E+00  .000E+00  .000E+00  .000E+00  .000E+00  .000E+00
  .000E+00  .000E+00  .000E+00  .000E+00  .000E+00  .000E+00  .000E+00  .000E+00
  .000E+00  .000E+00  .000E+00  .000E+00  .000E+00  .000E+00  .000E+00  .000E+00
  .000E+00  .000E+00  .000E+00  .000E+00  .000E+00  .000E+00  .000E+00  .000E+00
  .000E+00  .000E+00  .000E+00  .000E+00  .000E+00  .000E+00  .000E+00  .000E+00
  .000E+00  .000E+00  .000E+00  .000E+00  .000E+00  .000E+00  .000E+00  .000E+00
  .000E+00  .000E+00  .000E+00  .000E+00  .000E+00  .000E+00  .000E+00  .000E+00
  .000E+00  .000E+00  .000E+00  .000E+00  .000E+00  .000E+00  .000E+00  .000E+00
  .000E+00  .000E+00  .000E+00  .000E+00
Damping =  .05. Data of Sd,Sv,Sa,Pssv,ttSd,ttSv,ttSa :
  .269E-04  .298E-04  .324E-04  .374E-04  .430E-04  .474E-04  .557E-04  .668E-04
  .858E-04  .115E-03  .135E-03  .161E-03  .215E-03  .263E-03  .320E-03  .418E-03
  .699E-03  .741E-03  .772E-03  .932E-03  .908E-03  .122E-02  .145E-02  .181E-02
  .192E-02  .221E-02  .270E-02  .324E-02  .290E-02  .286E-02  .326E-02  .381E-02
  .408E-02  .397E-02  .330E-02  .329E-02  .397E-02  .431E-02  .495E-02  .615E-02
  .657E-02  .721E-02  .646E-02  .661E-02  .666E-02  .768E-02  .814E-02  .765E-02
  .700E-02  .673E-02  .649E-02  .607E-02  .594E-02  .606E-02  .567E-02  .606E-02
  .574E-02  .564E-02  .541E-02  .484E-02  .499E-02  .451E-02  .401E-02  .400E-02
  .355E-02  .310E-02  .296E-02  .290E-02  .272E-02  .278E-02  .282E-02  .295E-02
  .310E-02  .321E-02  .326E-02  .328E-02  .324E-02  .322E-02  .000E+00  .000E+00
  .000E+00  .000E+00  .000E+00  .000E+00  .000E+00  .000E+00  .000E+00  .000E+00
  .000E+00  .000E+00  .000E+00  .000E+00  .000E+00  .000E+00  .000E+00  .000E+00
  .000E+00  .000E+00  .000E+00  .000E+00
  .140E-02  .166E-02  .182E-02  .200E-02  .257E-02  .332E-02  .368E-02  .548E-02
  .472E-02  .521E-02  .718E-02  .740E-02  .114E-01  .143E-01  .172E-01  .212E-01
  .323E-01  .359E-01  .380E-01  .430E-01  .400E-01  .438E-01  .502E-01  .615E-01
  .626E-01  .728E-01  .759E-01  .930E-01  .684E-01  .633E-01  .762E-01  .784E-01
  .794E-01  .727E-01  .599E-01  .569E-01  .642E-01  .701E-01  .742E-01  .830E-01
  .937E-01  .954E-01  .758E-01  .787E-01  .807E-01  .801E-01  .814E-01  .637E-01
  .552E-01  .525E-01  .526E-01  .485E-01  .426E-01  .369E-01  .353E-01  .367E-01
  .357E-01  .332E-01  .306E-01  .276E-01  .266E-01  .260E-01  .260E-01  .267E-01
  .271E-01  .267E-01  .261E-01  .258E-01  .254E-01  .253E-01  .255E-01  .256E-01
  .254E-01  .252E-01  .250E-01  .250E-01  .251E-01  .252E-01  .000E+00  .000E+00
  .000E+00  .000E+00  .000E+00  .000E+00  .000E+00  .000E+00  .000E+00  .000E+00
  .000E+00  .000E+00  .000E+00  .000E+00  .000E+00  .000E+00  .000E+00  .000E+00
  .000E+00  .000E+00  .000E+00  .000E+00
  .172E-02  .173E-02  .171E-02  .181E-02  .191E-02  .194E-02  .189E-02  .190E-02
  .208E-02  .238E-02  .245E-02  .260E-02  .306E-02  .332E-02  .363E-02  .432E-02
  .589E-02  .533E-02  .473E-02  .484E-02  .413E-02  .489E-02  .512E-02  .575E-02
  .544E-02  .580E-02  .579E-02  .578E-02  .442E-02  .371E-02  .377E-02  .389E-02
  .363E-02  .319E-02  .233E-02  .214E-02  .231E-02  .228E-02  .242E-02  .274E-02
  .272E-02  .246E-02  .185E-02  .161E-02  .140E-02  .141E-02  .131E-02  .109E-02
  .890E-03  .770E-03  .670E-03  .520E-03  .427E-03  .372E-03  .301E-03  .280E-03
  .235E-03  .208E-03  .179E-03  .146E-03  .132E-03  .994E-04  .792E-04  .683E-04
  .538E-04  .425E-04  .359E-04  .313E-04  .278E-04  .253E-04  .237E-04  .227E-04
  .218E-04  .208E-04  .197E-04  .186E-04  .159E-04  .139E-04  .000E+00  .000E+00
  .000E+00  .000E+00  .000E+00  .000E+00  .000E+00  .000E+00  .000E+00  .000E+00
  .000E+00  .000E+00  .000E+00  .000E+00  .000E+00  .000E+00  .000E+00  .000E+00
  .000E+00  .000E+00  .000E+00  .000E+00
  .422E-02  .446E-02  .463E-02  .511E-02  .563E-02  .596E-02  .637E-02  .700E-02
  .830E-02  .103E-01  .113E-01  .127E-01  .159E-01  .184E-01  .212E-01  .263E-01
  .399E-01  .388E-01  .373E-01  .418E-01  .380E-01  .477E-01  .535E-01  .634E-01
  .636E-01  .694E-01  .771E-01  .849E-01  .701E-01  .641E-01  .683E-01  .748E-01
  .753E-01  .692E-01  .546E-01  .518E-01  .593E-01  .616E-01  .676E-01  .806E-01
  .825E-01  .824E-01  .676E-01  .639E-01  .597E-01  .643E-01  .639E-01  .565E-01
  .489E-01  .445E-01  .408E-01  .347E-01  .311E-01  .293E-01  .255E-01  .254E-01
  .225E-01  .209E-01  .189E-01  .160E-01  .157E-01  .129E-01  .105E-01  .967E-02
  .797E-02  .650E-02  .581E-02  .536E-02  .474E-02  .460E-02  .443E-02  .441E-02
  .443E-02  .438E-02  .427E-02  .412E-02  .370E-02  .337E-02  .000E+00  .000E+00
  .000E+00  .000E+00  .000E+00  .000E+00  .000E+00  .000E+00  .000E+00  .000E+00
  .000E+00  .000E+00  .000E+00  .000E+00  .000E+00  .000E+00  .000E+00  .000E+00
  .000E+00  .000E+00  .000E+00  .000E+00
  .368E+02  .368E+02  .390E+02  .390E+02  .387E+02  .387E+02  .368E+02  .368E+02
  .387E+02  .387E+02  .387E+02  .387E+02  .387E+02  .389E+02  .367E+02  .368E+02
  .368E+02  .368E+02  .369E+02  .369E+02  .369E+02  .392E+02  .392E+02  .392E+02
  .392E+02  .392E+02  .393E+02  .390E+02  .403E+02  .381E+02  .377E+02  .377E+02
  .376E+02  .376E+02  .376E+02  .376E+02  .376E+02  .381E+02  .381E+02  .399E+02
  .400E+02  .388E+02  .375E+02  .375E+02  .373E+02  .373E+02  .374E+02  .387E+02
  .383E+02  .384E+02  .380E+02  .381E+02  .371E+02  .371E+02  .371E+02  .372E+02
  .372E+02  .367E+02  .367E+02  .407E+02  .407E+02  .407E+02  .368E+02  .368E+02
  .368E+02  .368E+02  .403E+02  .403E+02  .368E+02  .393E+02  .393E+02  .368E+02
  .368E+02  .368E+02  .368E+02  .368E+02  .368E+02  .368E+02  .000E+00  .000E+00
  .000E+00  .000E+00  .000E+00  .000E+00  .000E+00  .000E+00  .000E+00  .000E+00
  .000E+00  .000E+00  .000E+00  .000E+00  .000E+00  .000E+00  .000E+00  .000E+00
  .000E+00  .000E+00  .000E+00  .000E+00
  .233E+03  .233E+03  .233E+03  .233E+03  .233E+03  .233E+03  .233E+03  .233E+03
  .233E+03  .369E+02  .369E+02  .388E+02  .388E+02  .389E+02  .367E+02  .367E+02
  .367E+02  .369E+02  .369E+02  .369E+02  .368E+02  .391E+02  .391E+02  .391E+02
  .391E+02  .391E+02  .392E+02  .391E+02  .402E+02  .381E+02  .390E+02  .377E+02
  .377E+02  .376E+02  .376E+02  .402E+02  .376E+02  .376E+02  .376E+02  .400E+02
  .399E+02  .389E+02  .388E+02  .374E+02  .375E+02  .375E+02  .388E+02  .372E+02
  .372E+02  .372E+02  .373E+02  .373E+02  .373E+02  .388E+02  .388E+02  .376E+02
  .376E+02  .371E+02  .371E+02  .371E+02  .367E+02  .367E+02  .367E+02  .367E+02
  .367E+02  .367E+02  .367E+02  .367E+02  .367E+02  .388E+02  .388E+02  .388E+02
  .388E+02  .388E+02  .388E+02  .367E+02  .367E+02  .367E+02  .000E+00  .000E+00
  .000E+00  .000E+00  .000E+00  .000E+00  .000E+00  .000E+00  .000E+00  .000E+00
  .000E+00  .000E+00  .000E+00  .000E+00  .000E+00  .000E+00  .000E+00  .000E+00
  .000E+00  .000E+00  .000E+00  .000E+00
  .368E+02  .368E+02  .390E+02  .390E+02  .387E+02  .387E+02  .368E+02  .368E+02
  .387E+02  .387E+02  .387E+02  .387E+02  .387E+02  .389E+02  .367E+02  .367E+02
  .368E+02  .368E+02  .369E+02  .368E+02  .368E+02  .392E+02  .392E+02  .392E+02
  .392E+02  .392E+02  .393E+02  .390E+02  .403E+02  .381E+02  .377E+02  .377E+02
  .376E+02  .376E+02  .376E+02  .401E+02  .376E+02  .381E+02  .381E+02  .399E+02
  .400E+02  .388E+02  .375E+02  .375E+02  .373E+02  .373E+02  .373E+02  .387E+02
  .383E+02  .384E+02  .380E+02  .380E+02  .371E+02  .371E+02  .371E+02  .371E+02
  .371E+02  .367E+02  .367E+02  .367E+02  .407E+02  .407E+02  .367E+02  .367E+02
  .367E+02  .367E+02  .367E+02  .367E+02  .367E+02  .367E+02  .367E+02  .367E+02
  .367E+02  .367E+02  .367E+02  .367E+02  .367E+02  .367E+02  .000E+00  .000E+00
  .000E+00  .000E+00  .000E+00  .000E+00  .000E+00  .000E+00  .000E+00  .000E+00
  .000E+00  .000E+00  .000E+00  .000E+00  .000E+00  .000E+00  .000E+00  .000E+00
  .000E+00  .000E+00  .000E+00  .000E+00
/&   ----------  End of spectral data for channel  1  ----------
Response and Fourier amplitude spectra (78 periods,  .04 -  6.0 sec)   for      
Corrected accelerogram   38695658.CI.NEN.--.HN      Chan  2: 360 Deg     from   
Uncorrected Accelerogram Data             Processed: 09/19/20, CGS  cinen--z    
Rcrd of Fri Sep 18, 2020 23:38:38.0 PDT               (Avol1 v2.0, 4/18 CSMIP)  
                                        (Origin:  To be determined)             
38695658.CI.NEN.--.HN                Start time:  9/19/20, 06:38:38.0 UTC (GPS) 
Station Id. NEN     34.775N, 118.501W    ObsMMS  s/n 1930  (3 Chns of  6 at Sta)
Neenach                                  SCSN   Data: Acceleration              
Chan  2: 360 Deg                                                                
Rcrd of Fri Sep 18, 2020 23:38:38.0 PDT    Fri Sep 18, 2020 23:38:38.0 PDT      
Hypocenter:  To be determined.               ML:  To be determined.             
Instr Period =  .0050 sec,  Damping =  .707,  Sensitivity = 4.98 v/g  (Nominal) 
                        Record Length =301.000 sec.                             
                                     Uncor Max  =   .002 g, at   36.690 sec.    
RMS accel of (uncor) record  =        .   Chn. metadata effective date:         
Accelerogram bandpass filtered with 3 dB pts at   .30 and 23.00 cyc/sec         
                 instrument- and base-line correcte                             
                                                                                
                                                                                
                                                                                
                                                                                
                                                                                
Rcrd of Fri Sep 18, 2020 23:38:38.0 PDT    Fri Sep 18, 2020 23:38:38.0 PDT      
                                                                                
38695658.CI.NEN.--.HN     Neenach   Chan  2: 360 Deg                            
                                                                                
38695658.CI.NEN.--.HN     Neenach   Chan  2: 360 Deg                            
                                                                                
Units for spectra are inches and sec, except Sa is in fraction of g.            
                                                                                
    2  100    2    6    6  100 -999    3    1    0   15 1930    0    0   41    0
    6   38   38    0  263    9   19 2020   10    3  36035586   39    7   74 -999
35586 -999  100    6 -999 -999 -999 -999 -999 -999 -999 -999 -999 -999 -999 -999
 -999 -999 -999 -99915050    2 -999    0 -999   20 -999 -999    3    1 -99915050
    315050    4   78    1    3    5    0    0 -999    0 -999 -999    6 -999    2
    2    2    4 -999 -999 -999 -999 -999 -999 -999 -999    1 -999 -999 -999  111
    1    1 -999 -999
      .005      .707   355.860      .000     1.000  4982.495      .002    36.690
   200.000     2.384      .479  -999.000    10.000  -999.000     4.000  -999.000
    20.000   -17.573      .000  -999.000  -999.000  -999.000  -999.000     -.001
      .001      .003     2.000    15.000    34.775  -118.501      .011      .019
     1.730      .000      .005   859.000  -999.000  -999.000  -999.000  -999.000
     1.000  -999.000  -999.000  -999.000  -999.000  -999.000  -999.000   120.000
     -.900     2.000     6.800   980.665      .020   301.000    31.831      .000
  -999.000    23.000  -999.000   301.000      .020      .300  -999.000  -999.000
    36.680     1.712    36.740      .080    36.660     -.005      .000      .300
    23.000      .020      .020      .000      .020      .005  -999.000  -999.000
      .007      .130      .004      .003      .001      .000  -999.000  -999.000
  -999.000  -999.000  -999.000  -999.000  -999.000  -999.000  -999.000  -999.000
  -999.000  -999.000  -999.000  -999.000
      .050
      .040      .042      .044      .046      .048      .050      .055      .060
      .065      .070      .075      .080      .085      .090      .095      .100
      .110      .120      .130      .140      .150      .160      .170      .180
      .190      .200      .220      .240      .260      .280      .300      .320
      .340      .360      .380      .400      .420      .440      .460      .480
      .500      .550      .600      .650      .700      .750      .800      .850
      .900      .950     1.000     1.100     1.200     1.300     1.400     1.500
     1.600     1.700     1.800     1.900     2.000     2.200     2.400     2.600
     2.800     3.000     3.200     3.400     3.600     3.800     4.000     4.200
     4.400     4.600     4.800     5.000     5.500     6.000      .000      .000
      .000      .000      .000      .000      .000      .000      .000      .000
      .000      .000      .000      .000      .000      .000      .000      .000
      .000      .000      .000      .000
Fourier amplitude spectra in in/sec.
  .000E+00  .000E+00  .000E+00  .000E+00  .000E+00  .000E+00  .000E+00  .000E+00
  .000E+00  .000E+00  .000E+00  .000E+00  .000E+00  .000E+00  .000E+00  .000E+00
  .000E+00  .000E+00  .000E+00  .000E+00  .000E+00  .000E+00  .000E+00  .000E+00
  .000E+00  .000E+00  .000E+00  .000E+00  .000E+00  .000E+00  .000E+00  .000E+00
  .000E+00  .000E+00  .000E+00  .000E+00  .000E+00  .000E+00  .000E+00  .000E+00
  .000E+00  .000E+00  .000E+00  .000E+00  .000E+00  .000E+00  .000E+00  .000E+00
  .000E+00  .000E+00  .000E+00  .000E+00  .000E+00  .000E+00  .000E+00  .000E+00
  .000E+00  .000E+00  .000E+00  .000E+00  .000E+00  .000E+00  .000E+00  .000E+00
  .000E+00  .000E+00  .000E+00  .000E+00  .000E+00  .000E+00  .000E+00  .000E+00
  .000E+00  .000E+00  .000E+00  .000E+00  .000E+00  .000E+00  .000E+00  .000E+00
  .000E+00  .000E+00  .000E+00  .000E+00  .000E+00  .000E+00  .000E+00  .000E+00
  .000E+00  .000E+00  .000E+00  .000E+00  .000E+00  .000E+00  .000E+00  .000E+00
  .000E+00  .000E+00  .000E+00  .000E+00
Damping =  .05. Data of Sd,Sv,Sa,Pssv,ttSd,ttSv,ttSa :
  .290E-04  .313E-04  .332E-04  .367E-04  .415E-04  .448E-04  .620E-04  .835E-04
  .110E-03  .141E-03  .162E-03  .166E-03  .177E-03  .229E-03  .266E-03  .379E-03
  .646E-03  .892E-03  .123E-02  .116E-02  .109E-02  .108E-02  .110E-02  .134E-02
  .140E-02  .154E-02  .225E-02  .258E-02  .224E-02  .230E-02  .254E-02  .270E-02
  .242E-02  .217E-02  .257E-02  .331E-02  .397E-02  .440E-02  .497E-02  .543E-02
