Response and Fourier amplitude spectra (78 periods,  .04 -  6.0 sec)   for      
Corrected accelerogram   38695658.CI.NOT.--.HN      Chan  1:  90 Deg     from   
Uncorrected Accelerogram Data             Processed: 09/19/20, CGS  cinot--f    
Rcrd of Fri Sep 18, 2020 23:38:32.0 PDT               (Avol1 v2.0, 4/18 CSMIP)  
                                        (Origin:  To be determined)             
38695658.CI.NOT.--.HN                Start time:  9/19/20, 06:38:32.0 UTC (GPS) 
Station Id. NOT     34.229N, 118.558W    ObsMMS  s/n 1831  (3 Chns of  6 at Sta)
Northridge, Parthenia near Reseda        SCSN   Data: Acceleration              
Chan  1:  90 Deg                                                                
Rcrd of Fri Sep 18, 2020 23:38:32.0 PDT    Fri Sep 18, 2020 23:38:32.0 PDT      
Hypocenter:  To be determined.               ML:  To be determined.             
Instr Period =  .0050 sec,  Damping =  .707,  Sensitivity = 4.98 v/g  (Nominal) 
                        Record Length =301.000 sec.                             
                                     Uncor Max  =   .005 g, at   35.530 sec.    
RMS accel of (uncor) record  =        .   Chn. metadata effective date:         
Accelerogram bandpass filtered with 3 dB pts at   .30 and 23.00 cyc/sec         
                 instrument- and base-line correcte                             
                                                                                
                                                                                
                                                                                
                                                                                
                                                                                
Rcrd of Fri Sep 18, 2020 23:38:32.0 PDT    Fri Sep 18, 2020 23:38:32.0 PDT      
                                                                                
38695658.CI.NOT.--.HN     Northridge, Parthenia near Reseda   Chan  1:  90 Deg  
                                                                                
38695658.CI.NOT.--.HN     Northridge, Parthenia near Reseda   Chan  1:  90 Deg  
                                                                                
Units for spectra are inches and sec, except Sa is in fraction of g.            
                                                                                
    1  100    1    6    6  100 -999    3    1    0   15 1831    050511   41    0
    6   38   32    0  263    9   19 2020   10    3   9035626   39   33   74 -999
35626 -999  100    6 -999 -999 -999 -999 -999 -999 -999 -999 -999 -999 -999 -999
 -999 -999 -999 -99915050    2 -999    0 -999   20 -999 -999    3    1 -99915050
    315050    4   78    1    3    5    0    0 -999    0 -999 -999    6 -999    2
    2    2    4 -999 -999 -999 -999 -999 -999 -999 -999    1 -999 -999 -999  111
    1    1 -999 -999
      .005      .707   356.260      .000     1.000  4980.500      .005    35.530
   200.000     2.384      .479  -999.000    10.000  -999.000     4.000  -999.000
    20.000    -6.312      .000  -999.000  -999.000  -999.000  -999.000     -.001
      .002      .003     2.000    15.000    34.229  -118.558      .014      .020
     1.461      .000      .006   247.500  -999.000  -999.000  -999.000  -999.000
     1.000  -999.000    -8.000  -999.000  -999.000  -999.000  -999.000   120.000
     -.900     2.000     6.800   980.665      .020   301.000    31.831      .000
  -999.000    23.000  -999.000   301.000      .020      .300  -999.000  -999.000
    35.520     5.111    34.920      .269    45.900     -.033      .000      .300
    23.000      .020      .020      .000      .020      .032  -999.000  -999.000
      .021      .260      .015      .016      .004      .000  -999.000  -999.000
  -999.000  -999.000  -999.000  -999.000  -999.000  -999.000  -999.000  -999.000
  -999.000  -999.000  -999.000  -999.000
      .050
      .040      .042      .044      .046      .048      .050      .055      .060
      .065      .070      .075      .080      .085      .090      .095      .100
      .110      .120      .130      .140      .150      .160      .170      .180
      .190      .200      .220      .240      .260      .280      .300      .320
      .340      .360      .380      .400      .420      .440      .460      .480
      .500      .550      .600      .650      .700      .750      .800      .850
      .900      .950     1.000     1.100     1.200     1.300     1.400     1.500
     1.600     1.700     1.800     1.900     2.000     2.200     2.400     2.600
     2.800     3.000     3.200     3.400     3.600     3.800     4.000     4.200
     4.400     4.600     4.800     5.000     5.500     6.000      .000      .000
      .000      .000      .000      .000      .000      .000      .000      .000
      .000      .000      .000      .000      .000      .000      .000      .000
      .000      .000      .000      .000
Fourier amplitude spectra in in/sec.
  .000E+00  .000E+00  .000E+00  .000E+00  .000E+00  .000E+00  .000E+00  .000E+00
  .000E+00  .000E+00  .000E+00  .000E+00  .000E+00  .000E+00  .000E+00  .000E+00
  .000E+00  .000E+00  .000E+00  .000E+00  .000E+00  .000E+00  .000E+00  .000E+00
  .000E+00  .000E+00  .000E+00  .000E+00  .000E+00  .000E+00  .000E+00  .000E+00
  .000E+00  .000E+00  .000E+00  .000E+00  .000E+00  .000E+00  .000E+00  .000E+00
  .000E+00  .000E+00  .000E+00  .000E+00  .000E+00  .000E+00  .000E+00  .000E+00
  .000E+00  .000E+00  .000E+00  .000E+00  .000E+00  .000E+00  .000E+00  .000E+00
  .000E+00  .000E+00  .000E+00  .000E+00  .000E+00  .000E+00  .000E+00  .000E+00
  .000E+00  .000E+00  .000E+00  .000E+00  .000E+00  .000E+00  .000E+00  .000E+00
  .000E+00  .000E+00  .000E+00  .000E+00  .000E+00  .000E+00  .000E+00  .000E+00
  .000E+00  .000E+00  .000E+00  .000E+00  .000E+00  .000E+00  .000E+00  .000E+00
  .000E+00  .000E+00  .000E+00  .000E+00  .000E+00  .000E+00  .000E+00  .000E+00
  .000E+00  .000E+00  .000E+00  .000E+00
Damping =  .05. Data of Sd,Sv,Sa,Pssv,ttSd,ttSv,ttSa :
  .851E-04  .942E-04  .102E-03  .111E-03  .120E-03  .138E-03  .184E-03  .236E-03
  .291E-03  .357E-03  .462E-03  .573E-03  .725E-03  .931E-03  .104E-02  .114E-02
  .127E-02  .174E-02  .225E-02  .294E-02  .404E-02  .394E-02  .451E-02  .479E-02
  .483E-02  .550E-02  .837E-02  .115E-01  .136E-01  .122E-01  .137E-01  .159E-01
  .138E-01  .167E-01  .161E-01  .184E-01  .204E-01  .191E-01  .207E-01  .249E-01
  .302E-01  .275E-01  .273E-01  .300E-01  .313E-01  .322E-01  .308E-01  .363E-01
  .335E-01  .364E-01  .399E-01  .476E-01  .439E-01  .443E-01  .415E-01  .402E-01
  .413E-01  .391E-01  .375E-01  .342E-01  .298E-01  .291E-01  .355E-01  .269E-01
  .211E-01  .198E-01  .187E-01  .185E-01  .176E-01  .184E-01  .183E-01  .177E-01
  .170E-01  .164E-01  .156E-01  .147E-01  .140E-01  .127E-01  .000E+00  .000E+00
  .000E+00  .000E+00  .000E+00  .000E+00  .000E+00  .000E+00  .000E+00  .000E+00
  .000E+00  .000E+00  .000E+00  .000E+00  .000E+00  .000E+00  .000E+00  .000E+00
  .000E+00  .000E+00  .000E+00  .000E+00
  .367E-02  .413E-02  .485E-02  .565E-02  .650E-02  .752E-02  .107E-01  .146E-01
  .196E-01  .189E-01  .223E-01  .291E-01  .467E-01  .512E-01  .545E-01  .564E-01
  .582E-01  .696E-01  .875E-01  .106E+00  .145E+00  .138E+00  .156E+00  .155E+00
  .149E+00  .149E+00  .245E+00  .294E+00  .334E+00  .278E+00  .285E+00  .330E+00
  .250E+00  .297E+00  .283E+00  .307E+00  .323E+00  .275E+00  .283E+00  .327E+00
  .368E+00  .356E+00  .332E+00  .320E+00  .298E+00  .314E+00  .257E+00  .282E+00
  .273E+00  .315E+00  .296E+00  .266E+00  .244E+00  .222E+00  .213E+00  .190E+00
  .201E+00  .169E+00  .144E+00  .148E+00  .118E+00  .119E+00  .111E+00  .113E+00
  .115E+00  .115E+00  .114E+00  .113E+00  .112E+00  .111E+00  .110E+00  .109E+00
  .108E+00  .108E+00  .107E+00  .107E+00  .107E+00  .107E+00  .000E+00  .000E+00
  .000E+00  .000E+00  .000E+00  .000E+00  .000E+00  .000E+00  .000E+00  .000E+00
  .000E+00  .000E+00  .000E+00  .000E+00  .000E+00  .000E+00  .000E+00  .000E+00
  .000E+00  .000E+00  .000E+00  .000E+00
  .545E-02  .546E-02  .540E-02  .537E-02  .534E-02  .565E-02  .618E-02  .673E-02
  .711E-02  .751E-02  .843E-02  .922E-02  .102E-01  .118E-01  .118E-01  .119E-01
  .106E-01  .124E-01  .137E-01  .153E-01  .182E-01  .157E-01  .160E-01  .151E-01
  .138E-01  .140E-01  .180E-01  .207E-01  .209E-01  .158E-01  .155E-01  .161E-01
  .123E-01  .133E-01  .115E-01  .119E-01  .120E-01  .102E-01  .997E-02  .111E-01
  .123E-01  .930E-02  .781E-02  .727E-02  .655E-02  .588E-02  .494E-02  .516E-02
  .426E-02  .415E-02  .411E-02  .405E-02  .313E-02  .270E-02  .218E-02  .184E-02
  .166E-02  .140E-02  .119E-02  .982E-03  .767E-03  .621E-03  .638E-03  .412E-03
  .280E-03  .231E-03  .194E-03  .170E-03  .149E-03  .141E-03  .127E-03  .112E-03
  .996E-04  .887E-04  .788E-04  .696E-04  .539E-04  .455E-04  .000E+00  .000E+00
  .000E+00  .000E+00  .000E+00  .000E+00  .000E+00  .000E+00  .000E+00  .000E+00
  .000E+00  .000E+00  .000E+00  .000E+00  .000E+00  .000E+00  .000E+00  .000E+00
  .000E+00  .000E+00  .000E+00  .000E+00
  .134E-01  .141E-01  .146E-01  .152E-01  .157E-01  .173E-01  .210E-01  .247E-01
  .281E-01  .321E-01  .387E-01  .450E-01  .536E-01  .650E-01  .691E-01  .719E-01
  .723E-01  .910E-01  .109E+00  .132E+00  .169E+00  .155E+00  .167E+00  .167E+00
  .160E+00  .173E+00  .239E+00  .302E+00  .328E+00  .274E+00  .287E+00  .312E+00
  .255E+00  .291E+00  .266E+00  .289E+00  .305E+00  .273E+00  .283E+00  .326E+00
  .380E+00  .315E+00  .285E+00  .290E+00  .281E+00  .270E+00  .242E+00  .269E+00
  .234E+00  .241E+00  .251E+00  .272E+00  .230E+00  .214E+00  .186E+00  .168E+00
  .162E+00  .144E+00  .131E+00  .113E+00  .936E-01  .831E-01  .929E-01  .651E-01
  .473E-01  .416E-01  .367E-01  .342E-01  .308E-01  .305E-01  .288E-01  .264E-01
  .243E-01  .223E-01  .204E-01  .185E-01  .160E-01  .133E-01  .000E+00  .000E+00
  .000E+00  .000E+00  .000E+00  .000E+00  .000E+00  .000E+00  .000E+00  .000E+00
  .000E+00  .000E+00  .000E+00  .000E+00  .000E+00  .000E+00  .000E+00  .000E+00
  .000E+00  .000E+00  .000E+00  .000E+00
  .355E+02  .355E+02  .355E+02  .337E+02  .355E+02  .355E+02  .318E+02  .337E+02
  .318E+02  .355E+02  .355E+02  .355E+02  .332E+02  .328E+02  .328E+02  .321E+02
  .322E+02  .366E+02  .366E+02  .346E+02  .346E+02  .360E+02  .338E+02  .338E+02
  .338E+02  .328E+02  .332E+02  .322E+02  .322E+02  .368E+02  .351E+02  .351E+02
  .372E+02  .372E+02  .373E+02  .373E+02  .373E+02  .373E+02  .373E+02  .373E+02
  .371E+02  .372E+02  .370E+02  .399E+02  .400E+02  .356E+02  .572E+02  .568E+02
  .434E+02  .502E+02  .503E+02  .474E+02  .561E+02  .522E+02  .517E+02  .557E+02
  .591E+02  .472E+02  .472E+02  .472E+02  .465E+02  .586E+02  .586E+02  .587E+02
  .466E+02  .466E+02  .569E+02  .569E+02  .459E+02  .459E+02  .459E+02  .459E+02
  .459E+02  .459E+02  .459E+02  .459E+02  .533E+02  .459E+02  .000E+00  .000E+00
  .000E+00  .000E+00  .000E+00  .000E+00  .000E+00  .000E+00  .000E+00  .000E+00
  .000E+00  .000E+00  .000E+00  .000E+00  .000E+00  .000E+00  .000E+00  .000E+00
  .000E+00  .000E+00  .000E+00  .000E+00
  .356E+02  .326E+02  .326E+02  .326E+02  .326E+02  .326E+02  .326E+02  .314E+02
  .337E+02  .321E+02  .340E+02  .326E+02  .332E+02  .332E+02  .326E+02  .332E+02
  .356E+02  .342E+02  .366E+02  .345E+02  .345E+02  .360E+02  .337E+02  .338E+02
  .339E+02  .341E+02  .332E+02  .361E+02  .323E+02  .331E+02  .359E+02  .358E+02
  .358E+02  .371E+02  .372E+02  .372E+02  .372E+02  .372E+02  .372E+02  .372E+02
  .372E+02  .371E+02  .371E+02  .401E+02  .404E+02  .399E+02  .570E+02  .570E+02
  .356E+02  .356E+02  .366E+02  .477E+02  .564E+02  .519E+02  .514E+02  .560E+02
  .474E+02  .588E+02  .556E+02  .551E+02  .589E+02  .589E+02  .349E+02  .349E+02
  .349E+02  .349E+02  .349E+02  .349E+02  .349E+02  .349E+02  .349E+02  .349E+02
  .349E+02  .349E+02  .349E+02  .349E+02  .349E+02  .349E+02  .000E+00  .000E+00
  .000E+00  .000E+00  .000E+00  .000E+00  .000E+00  .000E+00  .000E+00  .000E+00
  .000E+00  .000E+00  .000E+00  .000E+00  .000E+00  .000E+00  .000E+00  .000E+00
  .000E+00  .000E+00  .000E+00  .000E+00
  .355E+02  .355E+02  .355E+02  .337E+02  .337E+02  .355E+02  .318E+02  .337E+02
  .318E+02  .355E+02  .355E+02  .355E+02  .332E+02  .328E+02  .328E+02  .321E+02
  .322E+02  .366E+02  .366E+02  .346E+02  .346E+02  .360E+02  .338E+02  .338E+02
  .338E+02  .328E+02  .332E+02  .322E+02  .324E+02  .368E+02  .351E+02  .359E+02
  .372E+02  .372E+02  .372E+02  .373E+02  .373E+02  .373E+02  .373E+02  .373E+02
  .371E+02  .372E+02  .370E+02  .399E+02  .400E+02  .356E+02  .572E+02  .568E+02
  .434E+02  .502E+02  .502E+02  .474E+02  .561E+02  .522E+02  .517E+02  .557E+02
  .590E+02  .471E+02  .472E+02  .472E+02  .465E+02  .585E+02  .586E+02  .587E+02
  .466E+02  .466E+02  .569E+02  .569E+02  .458E+02  .458E+02  .458E+02  .458E+02
  .458E+02  .458E+02  .458E+02  .458E+02  .427E+02  .458E+02  .000E+00  .000E+00
  .000E+00  .000E+00  .000E+00  .000E+00  .000E+00  .000E+00  .000E+00  .000E+00
  .000E+00  .000E+00  .000E+00  .000E+00  .000E+00  .000E+00  .000E+00  .000E+00
  .000E+00  .000E+00  .000E+00  .000E+00
/&   ----------  End of spectral data for channel  1  ----------
Response and Fourier amplitude spectra (78 periods,  .04 -  6.0 sec)   for      
Corrected accelerogram   38695658.CI.NOT.--.HN      Chan  2: 360 Deg     from   
Uncorrected Accelerogram Data             Processed: 09/19/20, CGS  cinot--f    
Rcrd of Fri Sep 18, 2020 23:38:32.0 PDT               (Avol1 v2.0, 4/18 CSMIP)  
                                        (Origin:  To be determined)             
38695658.CI.NOT.--.HN                Start time:  9/19/20, 06:38:32.0 UTC (GPS) 
Station Id. NOT     34.229N, 118.558W    ObsMMS  s/n 1831  (3 Chns of  6 at Sta)
Northridge, Parthenia near Reseda        SCSN   Data: Acceleration              
Chan  2: 360 Deg                                                                
Rcrd of Fri Sep 18, 2020 23:38:32.0 PDT    Fri Sep 18, 2020 23:38:32.0 PDT      
Hypocenter:  To be determined.               ML:  To be determined.             
Instr Period =  .0050 sec,  Damping =  .707,  Sensitivity = 4.98 v/g  (Nominal) 
                        Record Length =301.000 sec.                             
                                     Uncor Max  =   .009 g, at   31.340 sec.    
RMS accel of (uncor) record  =        .   Chn. metadata effective date:         
Accelerogram bandpass filtered with 3 dB pts at   .30 and 23.00 cyc/sec         
                 instrument- and base-line correcte                             
                                                                                
                                                                                
                                                                                
                                                                                
                                                                                
Rcrd of Fri Sep 18, 2020 23:38:32.0 PDT    Fri Sep 18, 2020 23:38:32.0 PDT      
                                                                                
38695658.CI.NOT.--.HN     Northridge, Parthenia near Reseda   Chan  2: 360 Deg  
                                                                                
38695658.CI.NOT.--.HN     Northridge, Parthenia near Reseda   Chan  2: 360 Deg  
                                                                                
Units for spectra are inches and sec, except Sa is in fraction of g.            
                                                                                
    2  100    2    6    6  100 -999    3    1    0   15 1831    050511   41    0
    6   38   32   10  263    9   19 2020   10    3  36035631   39   33   74 -999
35631 -999  100    6 -999 -999 -999 -999 -999 -999 -999 -999 -999 -999 -999 -999
 -999 -999 -999 -99915050    2 -999    0 -999   20 -999 -999    3    1 -99915050
    315050    4   78    1    3    5    0    0 -999    0 -999 -999    6 -999    2
    2    2    4 -999 -999 -999 -999 -999 -999 -999 -999    1 -999 -999 -999  111
    1    1 -999 -999
      .005      .707   356.310      .000     1.000  4977.509      .009    31.340
   200.000     2.384      .479  -999.000    10.000  -999.000     4.000  -999.000
    20.000   -10.002      .000  -999.000  -999.000  -999.000  -999.000     -.001
      .001      .002     2.000    15.000    34.229  -118.558      .014      .013
      .960     -.001      .004   247.500  -999.000  -999.000  -999.000  -999.000
     1.000  -999.000  -999.000  -999.000  -999.000  -999.000  -999.000   120.000
     -.900     2.000     6.800   980.665      .020   301.000    31.831      .000
  -999.000    23.000  -999.000   301.000      .020      .300  -999.000  -999.000
    31.340     8.559    31.400      .609    31.300     -.057      .000      .300
    23.000      .020      .020      .000      .020      .033  -999.000  -999.000
      .026      .280      .015      .024      .005      .000  -999.000  -999.000
  -999.000  -999.000  -999.000  -999.000  -999.000  -999.000  -999.000  -999.000
  -999.000  -999.000  -999.000  -999.000
      .050
      .040      .042      .044      .046      .048      .050      .055      .060
      .065      .070      .075      .080      .085      .090      .095      .100
      .110      .120      .130      .140      .150      .160      .170      .180
      .190      .200      .220      .240      .260      .280      .300      .320
      .340      .360      .380      .400      .420      .440      .460      .480
      .500      .550      .600      .650      .700      .750      .800      .850
      .900      .950     1.000     1.100     1.200     1.300     1.400     1.500
     1.600     1.700     1.800     1.900     2.000     2.200     2.400     2.600
     2.800     3.000     3.200     3.400     3.600     3.800     4.000     4.200
     4.400     4.600     4.800     5.000     5.500     6.000      .000      .000
      .000      .000      .000      .000      .000      .000      .000      .000
      .000      .000      .000      .000      .000      .000      .000      .000
      .000      .000      .000      .000
Fourier amplitude spectra in in/sec.
  .000E+00  .000E+00  .000E+00  .000E+00  .000E+00  .000E+00  .000E+00  .000E+00
  .000E+00  .000E+00  .000E+00  .000E+00  .000E+00  .000E+00  .000E+00  .000E+00
  .000E+00  .000E+00  .000E+00  .000E+00  .000E+00  .000E+00  .000E+00  .000E+00
  .000E+00  .000E+00  .000E+00  .000E+00  .000E+00  .000E+00  .000E+00  .000E+00
  .000E+00  .000E+00  .000E+00  .000E+00  .000E+00  .000E+00  .000E+00  .000E+00
  .000E+00  .000E+00  .000E+00  .000E+00  .000E+00  .000E+00  .000E+00  .000E+00
  .000E+00  .000E+00  .000E+00  .000E+00  .000E+00  .000E+00  .000E+00  .000E+00
  .000E+00  .000E+00  .000E+00  .000E+00  .000E+00  .000E+00  .000E+00  .000E+00
  .000E+00  .000E+00  .000E+00  .000E+00  .000E+00  .000E+00  .000E+00  .000E+00
  .000E+00  .000E+00  .000E+00  .000E+00  .000E+00  .000E+00  .000E+00  .000E+00
  .000E+00  .000E+00  .000E+00  .000E+00  .000E+00  .000E+00  .000E+00  .000E+00
  .000E+00  .000E+00  .000E+00  .000E+00  .000E+00  .000E+00  .000E+00  .000E+00
  .000E+00  .000E+00  .000E+00  .000E+00
Damping =  .05. Data of Sd,Sv,Sa,Pssv,ttSd,ttSv,ttSa :
  .137E-03  .154E-03  .170E-03  .191E-03  .212E-03  .229E-03  .277E-03  .350E-03
  .405E-03  .473E-03  .527E-03  .609E-03  .726E-03  .918E-03  .130E-02  .158E-02
  .186E-02  .246E-02  .309E-02  .352E-02  .347E-02  .378E-02  .412E-02  .425E-02
  .482E-02  .601E-02  .766E-02  .108E-01  .161E-01  .196E-01  .215E-01  .228E-01
  .207E-01  .204E-01  .225E-01  .245E-01  .266E-01  .294E-01  .310E-01  .312E-01
