Response and Fourier amplitude spectra (78 periods,  .04 -  6.0 sec)   for      
Corrected accelerogram   38695658.CI.NWH.--.HN      Chan  1:  90 Deg     from   
Uncorrected Accelerogram Data             Processed: 09/19/20, CGS  cinwh--c    
Rcrd of Fri Sep 18, 2020 23:38:30.0 PDT               (Avol1 v2.0, 4/18 CSMIP)  
                                        (Origin:  To be determined)             
38695658.CI.NWH.--.HN                Start time:  9/19/20, 06:38:30.0 UTC (GPS) 
Station Id. NWH     33.733N, 117.751W    ObsMMS  s/n 1115  (3 Chns of  6 at Sta)
Irvine USD, Northwood High               SCSN   Data: Acceleration              
Chan  1:  90 Deg                                                                
Rcrd of Fri Sep 18, 2020 23:38:30.0 PDT    Fri Sep 18, 2020 23:38:30.0 PDT      
Hypocenter:  To be determined.               ML:  To be determined.             
Instr Period =  .0050 sec,  Damping =  .707,  Sensitivity = 4.99 v/g  (Nominal) 
                        Record Length =301.000 sec.                             
                                     Uncor Max  =   .012 g, at   34.370 sec.    
RMS accel of (uncor) record  =        .   Chn. metadata effective date:         
Accelerogram bandpass filtered with 3 dB pts at   .30 and 23.00 cyc/sec         
                 instrument- and base-line correcte                             
                                                                                
                                                                                
                                                                                
                                                                                
                                                                                
Rcrd of Fri Sep 18, 2020 23:38:30.0 PDT    Fri Sep 18, 2020 23:38:30.0 PDT      
                                                                                
38695658.CI.NWH.--.HN     Irvine USD, Northwood High    Chan  1:  90 Deg        
                                                                                
38695658.CI.NWH.--.HN     Irvine USD, Northwood High    Chan  1:  90 Deg        
                                                                                
Units for spectra are inches and sec, except Sa is in fraction of g.            
                                                                                
    1  100    1    6    6  100 -999    3    1    0   15 1115    0    0   41    0
    6   38   30   10  263    9   19 2020   10    3   9035976   39   26   74 -999
35976 -999  100    6 -999 -999 -999 -999 -999 -999 -999 -999 -999 -999 -999 -999
 -999 -999 -999 -99915050    2 -999    0 -999   20 -999 -999    3    1 -99915050
    315050    4   78    1    3    5    0    0 -999    0 -999 -999    6 -999    2
    2    2    4 -999 -999 -999 -999 -999 -999 -999 -999    1 -999 -999 -999  111
    1    1 -999 -999
      .005      .707   359.760      .000     1.000  4987.282      .012    34.370
   200.000     2.384      .478  -999.000    10.000  -999.000     4.000  -999.000
    20.000   -10.390      .000  -999.000  -999.000  -999.000  -999.000     -.002
      .002      .004     2.000    15.000    33.733  -117.751      .004      .004
      .995      .003      .005    95.800  -999.000  -999.000  -999.000  -999.000
     1.000  -999.000    -8.000  -999.000  -999.000  -999.000  -999.000   120.000
     -.900     2.000     6.800   980.665      .020   301.000    31.831      .000
  -999.000    23.000  -999.000   301.000      .020      .300  -999.000  -999.000
    34.380    10.905    34.420      .381    34.360     -.018      .000      .300
    23.000      .020      .020      .000      .020      .011  -999.000  -999.000
      .035      .200      .034      .016      .001      .000  -999.000  -999.000
  -999.000  -999.000  -999.000  -999.000  -999.000  -999.000  -999.000  -999.000
  -999.000  -999.000  -999.000  -999.000
      .050
      .040      .042      .044      .046      .048      .050      .055      .060
      .065      .070      .075      .080      .085      .090      .095      .100
      .110      .120      .130      .140      .150      .160      .170      .180
      .190      .200      .220      .240      .260      .280      .300      .320
      .340      .360      .380      .400      .420      .440      .460      .480
      .500      .550      .600      .650      .700      .750      .800      .850
      .900      .950     1.000     1.100     1.200     1.300     1.400     1.500
     1.600     1.700     1.800     1.900     2.000     2.200     2.400     2.600
     2.800     3.000     3.200     3.400     3.600     3.800     4.000     4.200
     4.400     4.600     4.800     5.000     5.500     6.000      .000      .000
      .000      .000      .000      .000      .000      .000      .000      .000
      .000      .000      .000      .000      .000      .000      .000      .000
      .000      .000      .000      .000
Fourier amplitude spectra in in/sec.
  .000E+00  .000E+00  .000E+00  .000E+00  .000E+00  .000E+00  .000E+00  .000E+00
  .000E+00  .000E+00  .000E+00  .000E+00  .000E+00  .000E+00  .000E+00  .000E+00
  .000E+00  .000E+00  .000E+00  .000E+00  .000E+00  .000E+00  .000E+00  .000E+00
  .000E+00  .000E+00  .000E+00  .000E+00  .000E+00  .000E+00  .000E+00  .000E+00
  .000E+00  .000E+00  .000E+00  .000E+00  .000E+00  .000E+00  .000E+00  .000E+00
  .000E+00  .000E+00  .000E+00  .000E+00  .000E+00  .000E+00  .000E+00  .000E+00
  .000E+00  .000E+00  .000E+00  .000E+00  .000E+00  .000E+00  .000E+00  .000E+00
  .000E+00  .000E+00  .000E+00  .000E+00  .000E+00  .000E+00  .000E+00  .000E+00
  .000E+00  .000E+00  .000E+00  .000E+00  .000E+00  .000E+00  .000E+00  .000E+00
  .000E+00  .000E+00  .000E+00  .000E+00  .000E+00  .000E+00  .000E+00  .000E+00
  .000E+00  .000E+00  .000E+00  .000E+00  .000E+00  .000E+00  .000E+00  .000E+00
  .000E+00  .000E+00  .000E+00  .000E+00  .000E+00  .000E+00  .000E+00  .000E+00
  .000E+00  .000E+00  .000E+00  .000E+00
Damping =  .05. Data of Sd,Sv,Sa,Pssv,ttSd,ttSv,ttSa :
  .188E-03  .208E-03  .231E-03  .255E-03  .283E-03  .312E-03  .382E-03  .475E-03
  .603E-03  .665E-03  .775E-03  .972E-03  .112E-02  .150E-02  .179E-02  .212E-02
  .309E-02  .362E-02  .517E-02  .657E-02  .682E-02  .789E-02  .882E-02  .979E-02
  .117E-01  .138E-01  .157E-01  .161E-01  .161E-01  .129E-01  .155E-01  .136E-01
  .140E-01  .133E-01  .136E-01  .133E-01  .148E-01  .129E-01  .136E-01  .161E-01
  .186E-01  .163E-01  .146E-01  .121E-01  .113E-01  .979E-02  .825E-02  .846E-02
  .802E-02  .842E-02  .818E-02  .870E-02  .126E-01  .116E-01  .901E-02  .805E-02
  .777E-02  .569E-02  .669E-02  .759E-02  .792E-02  .943E-02  .900E-02  .816E-02
  .829E-02  .785E-02  .762E-02  .719E-02  .754E-02  .742E-02  .687E-02  .668E-02
  .693E-02  .712E-02  .724E-02  .729E-02  .728E-02  .724E-02  .000E+00  .000E+00
  .000E+00  .000E+00  .000E+00  .000E+00  .000E+00  .000E+00  .000E+00  .000E+00
  .000E+00  .000E+00  .000E+00  .000E+00  .000E+00  .000E+00  .000E+00  .000E+00
  .000E+00  .000E+00  .000E+00  .000E+00
  .750E-02  .833E-02  .921E-02  .101E-01  .111E-01  .115E-01  .132E-01  .196E-01
  .309E-01  .335E-01  .401E-01  .600E-01  .582E-01  .597E-01  .827E-01  .986E-01
  .128E+00  .145E+00  .199E+00  .258E+00  .263E+00  .283E+00  .300E+00  .318E+00
  .360E+00  .392E+00  .446E+00  .448E+00  .429E+00  .302E+00  .352E+00  .331E+00
  .313E+00  .278E+00  .221E+00  .241E+00  .299E+00  .286E+00  .228E+00  .232E+00
  .257E+00  .200E+00  .172E+00  .150E+00  .162E+00  .177E+00  .176E+00  .170E+00
  .161E+00  .154E+00  .152E+00  .163E+00  .171E+00  .170E+00  .161E+00  .153E+00
  .149E+00  .153E+00  .157E+00  .159E+00  .159E+00  .154E+00  .148E+00  .148E+00
  .149E+00  .148E+00  .146E+00  .145E+00  .145E+00  .146E+00  .146E+00  .147E+00
  .147E+00  .146E+00  .146E+00  .146E+00  .146E+00  .145E+00  .000E+00  .000E+00
  .000E+00  .000E+00  .000E+00  .000E+00  .000E+00  .000E+00  .000E+00  .000E+00
  .000E+00  .000E+00  .000E+00  .000E+00  .000E+00  .000E+00  .000E+00  .000E+00
  .000E+00  .000E+00  .000E+00  .000E+00
  .120E-01  .121E-01  .122E-01  .123E-01  .125E-01  .128E-01  .129E-01  .135E-01
  .146E-01  .139E-01  .141E-01  .158E-01  .158E-01  .191E-01  .204E-01  .219E-01
  .262E-01  .257E-01  .314E-01  .343E-01  .307E-01  .313E-01  .312E-01  .313E-01
  .335E-01  .352E-01  .326E-01  .285E-01  .244E-01  .171E-01  .175E-01  .137E-01
  .128E-01  .106E-01  .968E-02  .852E-02  .870E-02  .693E-02  .658E-02  .717E-02
  .767E-02  .552E-02  .420E-02  .294E-02  .239E-02  .179E-02  .133E-02  .121E-02
  .102E-02  .966E-03  .860E-03  .752E-03  .912E-03  .724E-03  .487E-03  .373E-03
  .320E-03  .243E-03  .227E-03  .224E-03  .220E-03  .225E-03  .178E-03  .138E-03
  .126E-03  .119E-03  .105E-03  .893E-04  .773E-04  .697E-04  .651E-04  .619E-04
  .589E-04  .560E-04  .530E-04  .501E-04  .435E-04  .381E-04  .000E+00  .000E+00
  .000E+00  .000E+00  .000E+00  .000E+00  .000E+00  .000E+00  .000E+00  .000E+00
  .000E+00  .000E+00  .000E+00  .000E+00  .000E+00  .000E+00  .000E+00  .000E+00
  .000E+00  .000E+00  .000E+00  .000E+00
  .295E-01  .312E-01  .329E-01  .348E-01  .370E-01  .392E-01  .436E-01  .497E-01
  .583E-01  .597E-01  .649E-01  .764E-01  .829E-01  .105E+00  .118E+00  .133E+00
  .177E+00  .190E+00  .250E+00  .295E+00  .286E+00  .310E+00  .326E+00  .342E+00
  .388E+00  .433E+00  .449E+00  .422E+00  .390E+00  .290E+00  .325E+00  .268E+00
  .259E+00  .232E+00  .225E+00  .209E+00  .221E+00  .185E+00  .186E+00  .211E+00
  .234E+00  .186E+00  .153E+00  .117E+00  .101E+00  .821E-01  .648E-01  .625E-01
  .560E-01  .557E-01  .514E-01  .497E-01  .661E-01  .563E-01  .405E-01  .337E-01
  .305E-01  .210E-01  .234E-01  .251E-01  .249E-01  .269E-01  .236E-01  .197E-01
  .186E-01  .164E-01  .150E-01  .133E-01  .132E-01  .123E-01  .108E-01  .100E-01
  .989E-02  .972E-02  .947E-02  .916E-02  .832E-02  .758E-02  .000E+00  .000E+00
  .000E+00  .000E+00  .000E+00  .000E+00  .000E+00  .000E+00  .000E+00  .000E+00
  .000E+00  .000E+00  .000E+00  .000E+00  .000E+00  .000E+00  .000E+00  .000E+00
  .000E+00  .000E+00  .000E+00  .000E+00
  .344E+02  .344E+02  .344E+02  .344E+02  .344E+02  .344E+02  .344E+02  .344E+02
  .344E+02  .344E+02  .344E+02  .351E+02  .344E+02  .344E+02  .344E+02  .344E+02
  .345E+02  .345E+02  .345E+02  .345E+02  .345E+02  .346E+02  .346E+02  .346E+02
  .347E+02  .347E+02  .348E+02  .352E+02  .350E+02  .324E+02  .345E+02  .346E+02
  .344E+02  .381E+02  .383E+02  .383E+02  .344E+02  .384E+02  .384E+02  .389E+02
  .387E+02  .385E+02  .385E+02  .380E+02  .380E+02  .380E+02  .380E+02  .380E+02
  .380E+02  .380E+02  .381E+02  .378E+02  .378E+02  .378E+02  .376E+02  .437E+02
  .437E+02  .376E+02  .358E+02  .358E+02  .378E+02  .441E+02  .433E+02  .376E+02
  .376E+02  .343E+02  .343E+02  .380E+02  .380E+02  .380E+02  .380E+02  .343E+02
  .343E+02  .343E+02  .343E+02  .343E+02  .343E+02  .343E+02  .000E+00  .000E+00
  .000E+00  .000E+00  .000E+00  .000E+00  .000E+00  .000E+00  .000E+00  .000E+00
  .000E+00  .000E+00  .000E+00  .000E+00  .000E+00  .000E+00  .000E+00  .000E+00
  .000E+00  .000E+00  .000E+00  .000E+00
  .344E+02  .344E+02  .344E+02  .344E+02  .344E+02  .344E+02  .344E+02  .321E+02
  .321E+02  .321E+02  .350E+02  .350E+02  .348E+02  .344E+02  .344E+02  .344E+02
  .344E+02  .345E+02  .345E+02  .345E+02  .345E+02  .345E+02  .345E+02  .345E+02
  .347E+02  .348E+02  .348E+02  .352E+02  .351E+02  .324E+02  .345E+02  .345E+02
  .345E+02  .344E+02  .344E+02  .345E+02  .344E+02  .344E+02  .323E+02  .383E+02
  .383E+02  .381E+02  .381E+02  .379E+02  .344E+02  .344E+02  .344E+02  .344E+02
  .344E+02  .344E+02  .344E+02  .344E+02  .344E+02  .344E+02  .344E+02  .344E+02
  .344E+02  .344E+02  .344E+02  .344E+02  .344E+02  .344E+02  .344E+02  .344E+02
  .344E+02  .344E+02  .344E+02  .344E+02  .344E+02  .344E+02  .344E+02  .344E+02
  .344E+02  .344E+02  .344E+02  .344E+02  .344E+02  .344E+02  .000E+00  .000E+00
  .000E+00  .000E+00  .000E+00  .000E+00  .000E+00  .000E+00  .000E+00  .000E+00
  .000E+00  .000E+00  .000E+00  .000E+00  .000E+00  .000E+00  .000E+00  .000E+00
  .000E+00  .000E+00  .000E+00  .000E+00
  .344E+02  .344E+02  .344E+02  .344E+02  .344E+02  .344E+02  .344E+02  .344E+02
  .344E+02  .344E+02  .344E+02  .351E+02  .344E+02  .344E+02  .344E+02  .344E+02
  .345E+02  .345E+02  .345E+02  .345E+02  .345E+02  .346E+02  .346E+02  .346E+02
  .347E+02  .347E+02  .348E+02  .352E+02  .346E+02  .324E+02  .345E+02  .345E+02
  .344E+02  .381E+02  .383E+02  .383E+02  .344E+02  .384E+02  .384E+02  .389E+02
  .387E+02  .385E+02  .385E+02  .380E+02  .380E+02  .380E+02  .380E+02  .380E+02
  .380E+02  .380E+02  .380E+02  .378E+02  .378E+02  .378E+02  .376E+02  .343E+02
  .437E+02  .344E+02  .346E+02  .378E+02  .343E+02  .343E+02  .343E+02  .376E+02
  .343E+02  .343E+02  .343E+02  .343E+02  .343E+02  .343E+02  .343E+02  .343E+02
  .343E+02  .343E+02  .343E+02  .343E+02  .343E+02  .343E+02  .000E+00  .000E+00
  .000E+00  .000E+00  .000E+00  .000E+00  .000E+00  .000E+00  .000E+00  .000E+00
  .000E+00  .000E+00  .000E+00  .000E+00  .000E+00  .000E+00  .000E+00  .000E+00
  .000E+00  .000E+00  .000E+00  .000E+00
/&   ----------  End of spectral data for channel  1  ----------
Response and Fourier amplitude spectra (78 periods,  .04 -  6.0 sec)   for      
Corrected accelerogram   38695658.CI.NWH.--.HN      Chan  2: 360 Deg     from   
Uncorrected Accelerogram Data             Processed: 09/19/20, CGS  cinwh--c    
Rcrd of Fri Sep 18, 2020 23:38:30.0 PDT               (Avol1 v2.0, 4/18 CSMIP)  
                                        (Origin:  To be determined)             
38695658.CI.NWH.--.HN                Start time:  9/19/20, 06:38:30.0 UTC (GPS) 
Station Id. NWH     33.733N, 117.751W    ObsMMS  s/n 1115  (3 Chns of  6 at Sta)
Irvine USD, Northwood High               SCSN   Data: Acceleration              
Chan  2: 360 Deg                                                                
Rcrd of Fri Sep 18, 2020 23:38:30.0 PDT    Fri Sep 18, 2020 23:38:30.0 PDT      
Hypocenter:  To be determined.               ML:  To be determined.             
Instr Period =  .0050 sec,  Damping =  .707,  Sensitivity = 5.00 v/g  (Nominal) 
                        Record Length =301.000 sec.                             
                                     Uncor Max  =  -.009 g, at   35.090 sec.    
RMS accel of (uncor) record  =        .   Chn. metadata effective date:         
Accelerogram bandpass filtered with 3 dB pts at   .30 and 23.00 cyc/sec         
                 instrument- and base-line correcte                             
                                                                                
                                                                                
                                                                                
                                                                                
                                                                                
Rcrd of Fri Sep 18, 2020 23:38:30.0 PDT    Fri Sep 18, 2020 23:38:30.0 PDT      
                                                                                
38695658.CI.NWH.--.HN     Irvine USD, Northwood High    Chan  2: 360 Deg        
                                                                                
38695658.CI.NWH.--.HN     Irvine USD, Northwood High    Chan  2: 360 Deg        
                                                                                
Units for spectra are inches and sec, except Sa is in fraction of g.            
                                                                                
    2  100    2    6    6  100 -999    3    1    0   15 1115    0    0   41    0
    6   38   30   10  263    9   19 2020   10    3  36036021   39   26   74 -999
36021 -999  100    6 -999 -999 -999 -999 -999 -999 -999 -999 -999 -999 -999 -999
 -999 -999 -999 -99915050    2 -999    0 -999   20 -999 -999    3    1 -99915050
    315050    4   78    1    3    5    0    0 -999    0 -999 -999    6 -999    2
    2    2    4 -999 -999 -999 -999 -999 -999 -999 -999    1 -999 -999 -999  111
    1    1 -999 -999
      .005      .707   360.210      .000     1.000  4997.654     -.009    35.090
   200.000     2.384      .477  -999.000    10.000  -999.000     4.000  -999.000
    20.000     9.248      .000  -999.000  -999.000  -999.000  -999.000      .000
      .001      .001     2.000    15.000    33.733  -117.751      .005      .005
     1.013      .000      .002    95.800  -999.000  -999.000  -999.000  -999.000
     1.000  -999.000  -999.000  -999.000  -999.000  -999.000  -999.000   120.000
     -.900     2.000     6.800   980.665      .020   301.000    31.831      .000
  -999.000    23.000  -999.000   301.000      .020      .300  -999.000  -999.000
    35.080    -8.250    35.060      .243    31.240      .010      .000      .300
    23.000      .020      .020      .000      .020      .010  -999.000  -999.000
      .040      .160      .025      .011      .001      .000  -999.000  -999.000
  -999.000  -999.000  -999.000  -999.000  -999.000  -999.000  -999.000  -999.000
  -999.000  -999.000  -999.000  -999.000
      .050
      .040      .042      .044      .046      .048      .050      .055      .060
      .065      .070      .075      .080      .085      .090      .095      .100
      .110      .120      .130      .140      .150      .160      .170      .180
      .190      .200      .220      .240      .260      .280      .300      .320
      .340      .360      .380      .400      .420      .440      .460      .480
      .500      .550      .600      .650      .700      .750      .800      .850
      .900      .950     1.000     1.100     1.200     1.300     1.400     1.500
     1.600     1.700     1.800     1.900     2.000     2.200     2.400     2.600
     2.800     3.000     3.200     3.400     3.600     3.800     4.000     4.200
     4.400     4.600     4.800     5.000     5.500     6.000      .000      .000
      .000      .000      .000      .000      .000      .000      .000      .000
      .000      .000      .000      .000      .000      .000      .000      .000
      .000      .000      .000      .000
Fourier amplitude spectra in in/sec.
  .000E+00  .000E+00  .000E+00  .000E+00  .000E+00  .000E+00  .000E+00  .000E+00
  .000E+00  .000E+00  .000E+00  .000E+00  .000E+00  .000E+00  .000E+00  .000E+00
  .000E+00  .000E+00  .000E+00  .000E+00  .000E+00  .000E+00  .000E+00  .000E+00
  .000E+00  .000E+00  .000E+00  .000E+00  .000E+00  .000E+00  .000E+00  .000E+00
  .000E+00  .000E+00  .000E+00  .000E+00  .000E+00  .000E+00  .000E+00  .000E+00
  .000E+00  .000E+00  .000E+00  .000E+00  .000E+00  .000E+00  .000E+00  .000E+00
  .000E+00  .000E+00  .000E+00  .000E+00  .000E+00  .000E+00  .000E+00  .000E+00
  .000E+00  .000E+00  .000E+00  .000E+00  .000E+00  .000E+00  .000E+00  .000E+00
  .000E+00  .000E+00  .000E+00  .000E+00  .000E+00  .000E+00  .000E+00  .000E+00
  .000E+00  .000E+00  .000E+00  .000E+00  .000E+00  .000E+00  .000E+00  .000E+00
  .000E+00  .000E+00  .000E+00  .000E+00  .000E+00  .000E+00  .000E+00  .000E+00
  .000E+00  .000E+00  .000E+00  .000E+00  .000E+00  .000E+00  .000E+00  .000E+00
  .000E+00  .000E+00  .000E+00  .000E+00
Damping =  .05. Data of Sd,Sv,Sa,Pssv,ttSd,ttSv,ttSa :
  .147E-03  .164E-03  .182E-03  .202E-03  .222E-03  .246E-03  .325E-03  .452E-03
  .566E-03  .654E-03  .749E-03  .859E-03  .102E-02  .105E-02  .126E-02  .146E-02
  .202E-02  .293E-02  .379E-02  .449E-02  .794E-02  .100E-01  .900E-02  .950E-02
  .104E-01  .103E-01  .824E-02  .892E-02  .951E-02  .924E-02  .102E-01  .822E-02
  .783E-02  .988E-02  .100E-01  .921E-02  .869E-02  .844E-02  .898E-02  .102E-01
