Response and Fourier amplitude spectra (78 periods,  .04 -  6.0 sec)   for      
Corrected accelerogram   38695658.CI.OAT.--.HN      Chan  1:  90 Deg     from   
Uncorrected Accelerogram Data             Processed: 09/19/20, CGS  cioat--t    
Rcrd of Fri Sep 18, 2020 23:38:35.0 PDT               (Avol1 v2.0, 4/18 CSMIP)  
                                        (Origin:  To be determined)             
38695658.CI.OAT.--.HN                Start time:  9/19/20, 06:38:35.0 UTC (GPS) 
Station Id. OAT     34.344N, 118.614W    Q330    s/n 5453  (3 Chns of  3 at Sta)
Oat Mountain                             SCSN   Data: Acceleration              
Chan  1:  90 Deg                                                                
Rcrd of Fri Sep 18, 2020 23:38:35.0 PDT    Fri Sep 18, 2020 23:38:35.0 PDT      
Hypocenter:  To be determined.               ML:  To be determined.             
Instr Period =  .0050 sec,  Damping =  .707,  Sensitivity = 4.98 v/g  (Nominal) 
                        Record Length =301.000 sec.                             
                                     Uncor Max  =  -.002 g, at   34.510 sec.    
RMS accel of (uncor) record  =        .   Chn. metadata effective date:         
Accelerogram bandpass filtered with 3 dB pts at   .30 and 23.00 cyc/sec         
                 instrument- and base-line correcte                             
                                                                                
                                                                                
                                                                                
                                                                                
                                                                                
Rcrd of Fri Sep 18, 2020 23:38:35.0 PDT    Fri Sep 18, 2020 23:38:35.0 PDT      
                                                                                
38695658.CI.OAT.--.HN     Oat Mountain    Chan  1:  90 Deg                      
                                                                                
38695658.CI.OAT.--.HN     Oat Mountain    Chan  1:  90 Deg                      
                                                                                
Units for spectra are inches and sec, except Sa is in fraction of g.            
                                                                                
    1  100    1    3    3  100 -999    3    1    0  605 5453    050807   41    0
    6   38   35    8  263    9   19 2020   10    3   9035317   39   12   74 -999
35317 -999  100    6 -999 -999 -999 -999 -999 -999 -999 -999 -999 -999 -999 -999
 -999 -999 -999 -99915050    2 -999    0 -999   20 -999 -999    3    1 -99915050
    315050    4   78    1    3    5    0    0 -999    0 -999 -999    6 -999    2
    2    2    4 -999 -999 -999 -999 -999 -999 -999 -999    1 -999 -999 -999  111
    1    1 -999 -999
      .005      .707   353.170      .000     1.000  4981.498     -.002    34.510
   200.000     2.384      .479  -999.000    10.000  -999.000     4.000  -999.000
    20.000   -19.345      .000  -999.000  -999.000  -999.000  -999.000      .000
      .000      .001     2.000    15.000    34.344  -118.614      .001      .001
     1.061      .000      .001  1089.000  -999.000  -999.000  -999.000  -999.000
     1.000  -999.000    -8.000  -999.000  -999.000  -999.000  -999.000   120.000
     -.900     2.000     6.800   980.665      .020   301.000    31.831      .000
  -999.000    23.000  -999.000   301.000      .020      .300  -999.000  -999.000
    34.500    -1.958    34.340      .134    36.560      .017      .000      .300
    23.000      .020      .020      .000      .020      .010  -999.000  -999.000
      .006      .220      .006      .004      .002      .000  -999.000  -999.000
  -999.000  -999.000  -999.000  -999.000  -999.000  -999.000  -999.000  -999.000
  -999.000  -999.000  -999.000  -999.000
      .050
      .040      .042      .044      .046      .048      .050      .055      .060
      .065      .070      .075      .080      .085      .090      .095      .100
      .110      .120      .130      .140      .150      .160      .170      .180
      .190      .200      .220      .240      .260      .280      .300      .320
      .340      .360      .380      .400      .420      .440      .460      .480
      .500      .550      .600      .650      .700      .750      .800      .850
      .900      .950     1.000     1.100     1.200     1.300     1.400     1.500
     1.600     1.700     1.800     1.900     2.000     2.200     2.400     2.600
     2.800     3.000     3.200     3.400     3.600     3.800     4.000     4.200
     4.400     4.600     4.800     5.000     5.500     6.000      .000      .000
      .000      .000      .000      .000      .000      .000      .000      .000
      .000      .000      .000      .000      .000      .000      .000      .000
      .000      .000      .000      .000
Fourier amplitude spectra in in/sec.
  .000E+00  .000E+00  .000E+00  .000E+00  .000E+00  .000E+00  .000E+00  .000E+00
  .000E+00  .000E+00  .000E+00  .000E+00  .000E+00  .000E+00  .000E+00  .000E+00
  .000E+00  .000E+00  .000E+00  .000E+00  .000E+00  .000E+00  .000E+00  .000E+00
  .000E+00  .000E+00  .000E+00  .000E+00  .000E+00  .000E+00  .000E+00  .000E+00
  .000E+00  .000E+00  .000E+00  .000E+00  .000E+00  .000E+00  .000E+00  .000E+00
  .000E+00  .000E+00  .000E+00  .000E+00  .000E+00  .000E+00  .000E+00  .000E+00
  .000E+00  .000E+00  .000E+00  .000E+00  .000E+00  .000E+00  .000E+00  .000E+00
  .000E+00  .000E+00  .000E+00  .000E+00  .000E+00  .000E+00  .000E+00  .000E+00
  .000E+00  .000E+00  .000E+00  .000E+00  .000E+00  .000E+00  .000E+00  .000E+00
  .000E+00  .000E+00  .000E+00  .000E+00  .000E+00  .000E+00  .000E+00  .000E+00
  .000E+00  .000E+00  .000E+00  .000E+00  .000E+00  .000E+00  .000E+00  .000E+00
  .000E+00  .000E+00  .000E+00  .000E+00  .000E+00  .000E+00  .000E+00  .000E+00
  .000E+00  .000E+00  .000E+00  .000E+00
Damping =  .05. Data of Sd,Sv,Sa,Pssv,ttSd,ttSv,ttSa :
  .331E-04  .368E-04  .405E-04  .441E-04  .469E-04  .501E-04  .666E-04  .782E-04
  .100E-03  .115E-03  .154E-03  .193E-03  .235E-03  .291E-03  .375E-03  .369E-03
  .451E-03  .788E-03  .750E-03  .811E-03  .952E-03  .974E-03  .134E-02  .181E-02
  .216E-02  .238E-02  .285E-02  .332E-02  .294E-02  .334E-02  .343E-02  .379E-02
  .466E-02  .475E-02  .570E-02  .645E-02  .709E-02  .800E-02  .836E-02  .891E-02
  .990E-02  .118E-01  .171E-01  .209E-01  .201E-01  .164E-01  .180E-01  .200E-01
  .213E-01  .205E-01  .210E-01  .183E-01  .181E-01  .156E-01  .170E-01  .148E-01
  .145E-01  .101E-01  .100E-01  .111E-01  .117E-01  .149E-01  .114E-01  .117E-01
  .110E-01  .972E-02  .987E-02  .100E-01  .986E-02  .948E-02  .901E-02  .854E-02
  .815E-02  .781E-02  .753E-02  .731E-02  .703E-02  .695E-02  .000E+00  .000E+00
  .000E+00  .000E+00  .000E+00  .000E+00  .000E+00  .000E+00  .000E+00  .000E+00
  .000E+00  .000E+00  .000E+00  .000E+00  .000E+00  .000E+00  .000E+00  .000E+00
  .000E+00  .000E+00  .000E+00  .000E+00
  .104E-02  .116E-02  .131E-02  .143E-02  .153E-02  .179E-02  .246E-02  .290E-02
  .425E-02  .724E-02  .832E-02  .999E-02  .115E-01  .131E-01  .160E-01  .169E-01
  .214E-01  .335E-01  .338E-01  .327E-01  .376E-01  .361E-01  .458E-01  .598E-01
  .635E-01  .676E-01  .732E-01  .792E-01  .662E-01  .735E-01  .696E-01  .680E-01
  .777E-01  .813E-01  .979E-01  .101E+00  .103E+00  .110E+00  .106E+00  .106E+00
  .122E+00  .137E+00  .189E+00  .206E+00  .191E+00  .151E+00  .157E+00  .171E+00
  .167E+00  .160E+00  .157E+00  .133E+00  .117E+00  .113E+00  .102E+00  .975E-01
  .863E-01  .780E-01  .760E-01  .748E-01  .690E-01  .614E-01  .586E-01  .578E-01
  .566E-01  .555E-01  .545E-01  .536E-01  .529E-01  .526E-01  .524E-01  .524E-01
  .524E-01  .525E-01  .525E-01  .526E-01  .527E-01  .528E-01  .000E+00  .000E+00
  .000E+00  .000E+00  .000E+00  .000E+00  .000E+00  .000E+00  .000E+00  .000E+00
  .000E+00  .000E+00  .000E+00  .000E+00  .000E+00  .000E+00  .000E+00  .000E+00
  .000E+00  .000E+00  .000E+00  .000E+00
  .212E-02  .213E-02  .214E-02  .213E-02  .208E-02  .205E-02  .225E-02  .222E-02
  .242E-02  .241E-02  .278E-02  .310E-02  .331E-02  .367E-02  .426E-02  .376E-02
  .386E-02  .565E-02  .459E-02  .428E-02  .428E-02  .392E-02  .472E-02  .574E-02
  .612E-02  .603E-02  .612E-02  .586E-02  .441E-02  .440E-02  .393E-02  .381E-02
  .413E-02  .380E-02  .408E-02  .411E-02  .413E-02  .426E-02  .408E-02  .398E-02
  .408E-02  .401E-02  .488E-02  .510E-02  .421E-02  .299E-02  .290E-02  .284E-02
  .271E-02  .234E-02  .216E-02  .156E-02  .130E-02  .956E-03  .896E-03  .679E-03
  .582E-03  .362E-03  .321E-03  .320E-03  .304E-03  .318E-03  .203E-03  .180E-03
  .149E-03  .116E-03  .104E-03  .941E-04  .833E-04  .726E-04  .630E-04  .548E-04
  .482E-04  .428E-04  .383E-04  .346E-04  .281E-04  .239E-04  .000E+00  .000E+00
  .000E+00  .000E+00  .000E+00  .000E+00  .000E+00  .000E+00  .000E+00  .000E+00
  .000E+00  .000E+00  .000E+00  .000E+00  .000E+00  .000E+00  .000E+00  .000E+00
  .000E+00  .000E+00  .000E+00  .000E+00
  .520E-02  .550E-02  .578E-02  .603E-02  .614E-02  .630E-02  .761E-02  .819E-02
  .967E-02  .104E-01  .129E-01  .151E-01  .174E-01  .203E-01  .248E-01  .232E-01
  .258E-01  .413E-01  .362E-01  .364E-01  .399E-01  .382E-01  .495E-01  .633E-01
  .713E-01  .748E-01  .815E-01  .868E-01  .711E-01  .750E-01  .718E-01  .743E-01
  .860E-01  .829E-01  .942E-01  .101E+00  .106E+00  .114E+00  .114E+00  .117E+00
  .124E+00  .135E+00  .179E+00  .202E+00  .180E+00  .137E+00  .141E+00  .148E+00
  .149E+00  .136E+00  .132E+00  .105E+00  .946E-01  .752E-01  .764E-01  .620E-01
  .569E-01  .373E-01  .350E-01  .368E-01  .368E-01  .424E-01  .297E-01  .282E-01
  .246E-01  .203E-01  .194E-01  .185E-01  .172E-01  .157E-01  .142E-01  .128E-01
  .116E-01  .107E-01  .986E-02  .919E-02  .803E-02  .728E-02  .000E+00  .000E+00
  .000E+00  .000E+00  .000E+00  .000E+00  .000E+00  .000E+00  .000E+00  .000E+00
  .000E+00  .000E+00  .000E+00  .000E+00  .000E+00  .000E+00  .000E+00  .000E+00
  .000E+00  .000E+00  .000E+00  .000E+00
  .345E+02  .345E+02  .345E+02  .345E+02  .345E+02  .345E+02  .345E+02  .345E+02
  .345E+02  .345E+02  .345E+02  .345E+02  .345E+02  .345E+02  .345E+02  .345E+02
  .342E+02  .345E+02  .337E+02  .335E+02  .328E+02  .329E+02  .335E+02  .339E+02
  .340E+02  .340E+02  .343E+02  .344E+02  .344E+02  .345E+02  .345E+02  .363E+02
  .347E+02  .347E+02  .363E+02  .360E+02  .366E+02  .369E+02  .372E+02  .372E+02
  .375E+02  .379E+02  .358E+02  .376E+02  .374E+02  .371E+02  .354E+02  .351E+02
  .351E+02  .371E+02  .368E+02  .344E+02  .345E+02  .345E+02  .369E+02  .377E+02
  .487E+02  .365E+02  .365E+02  .365E+02  .426E+02  .474E+02  .423E+02  .413E+02
  .414E+02  .402E+02  .365E+02  .365E+02  .365E+02  .365E+02  .365E+02  .365E+02
  .365E+02  .365E+02  .365E+02  .365E+02  .365E+02  .365E+02  .000E+00  .000E+00
  .000E+00  .000E+00  .000E+00  .000E+00  .000E+00  .000E+00  .000E+00  .000E+00
  .000E+00  .000E+00  .000E+00  .000E+00  .000E+00  .000E+00  .000E+00  .000E+00
  .000E+00  .000E+00  .000E+00  .000E+00
  .333E+02  .333E+02  .333E+02  .244E+02  .345E+02  .345E+02  .333E+02  .242E+02
  .333E+02  .244E+02  .245E+02  .246E+02  .242E+02  .248E+02  .246E+02  .342E+02
  .334E+02  .337E+02  .337E+02  .334E+02  .328E+02  .328E+02  .334E+02  .338E+02
  .340E+02  .340E+02  .343E+02  .344E+02  .344E+02  .344E+02  .344E+02  .364E+02
  .346E+02  .347E+02  .364E+02  .362E+02  .361E+02  .368E+02  .370E+02  .371E+02
  .381E+02  .380E+02  .357E+02  .378E+02  .375E+02  .356E+02  .356E+02  .353E+02
  .349E+02  .346E+02  .370E+02  .346E+02  .343E+02  .343E+02  .343E+02  .367E+02
  .367E+02  .367E+02  .367E+02  .367E+02  .367E+02  .343E+02  .343E+02  .343E+02
  .343E+02  .343E+02  .343E+02  .343E+02  .343E+02  .343E+02  .343E+02  .343E+02
  .343E+02  .343E+02  .343E+02  .343E+02  .343E+02  .343E+02  .000E+00  .000E+00
  .000E+00  .000E+00  .000E+00  .000E+00  .000E+00  .000E+00  .000E+00  .000E+00
  .000E+00  .000E+00  .000E+00  .000E+00  .000E+00  .000E+00  .000E+00  .000E+00
  .000E+00  .000E+00  .000E+00  .000E+00
  .345E+02  .345E+02  .345E+02  .345E+02  .345E+02  .345E+02  .345E+02  .345E+02
  .345E+02  .345E+02  .345E+02  .345E+02  .345E+02  .345E+02  .345E+02  .345E+02
  .342E+02  .345E+02  .337E+02  .335E+02  .328E+02  .329E+02  .335E+02  .339E+02
  .340E+02  .340E+02  .343E+02  .344E+02  .344E+02  .344E+02  .345E+02  .363E+02
  .347E+02  .347E+02  .363E+02  .360E+02  .366E+02  .369E+02  .372E+02  .372E+02
  .375E+02  .378E+02  .358E+02  .376E+02  .374E+02  .371E+02  .354E+02  .351E+02
  .351E+02  .371E+02  .368E+02  .344E+02  .345E+02  .345E+02  .368E+02  .377E+02
  .487E+02  .378E+02  .365E+02  .365E+02  .426E+02  .473E+02  .422E+02  .413E+02
  .401E+02  .401E+02  .365E+02  .365E+02  .365E+02  .365E+02  .365E+02  .365E+02
  .365E+02  .365E+02  .365E+02  .365E+02  .365E+02  .365E+02  .000E+00  .000E+00
  .000E+00  .000E+00  .000E+00  .000E+00  .000E+00  .000E+00  .000E+00  .000E+00
  .000E+00  .000E+00  .000E+00  .000E+00  .000E+00  .000E+00  .000E+00  .000E+00
  .000E+00  .000E+00  .000E+00  .000E+00
/&   ----------  End of spectral data for channel  1  ----------
Response and Fourier amplitude spectra (78 periods,  .04 -  6.0 sec)   for      
Corrected accelerogram   38695658.CI.OAT.--.HN      Chan  2: 360 Deg     from   
Uncorrected Accelerogram Data             Processed: 09/19/20, CGS  cioat--t    
Rcrd of Fri Sep 18, 2020 23:38:35.0 PDT               (Avol1 v2.0, 4/18 CSMIP)  
                                        (Origin:  To be determined)             
38695658.CI.OAT.--.HN                Start time:  9/19/20, 06:38:35.0 UTC (GPS) 
Station Id. OAT     34.344N, 118.614W    Q330    s/n 5453  (3 Chns of  3 at Sta)
Oat Mountain                             SCSN   Data: Acceleration              
Chan  2: 360 Deg                                                                
Rcrd of Fri Sep 18, 2020 23:38:35.0 PDT    Fri Sep 18, 2020 23:38:35.0 PDT      
Hypocenter:  To be determined.               ML:  To be determined.             
Instr Period =  .0050 sec,  Damping =  .707,  Sensitivity = 4.98 v/g  (Nominal) 
                        Record Length =301.000 sec.                             
                                     Uncor Max  =  -.002 g, at   34.100 sec.    
RMS accel of (uncor) record  =        .   Chn. metadata effective date:         
Accelerogram bandpass filtered with 3 dB pts at   .30 and 23.00 cyc/sec         
                 instrument- and base-line correcte                             
                                                                                
                                                                                
                                                                                
                                                                                
                                                                                
Rcrd of Fri Sep 18, 2020 23:38:35.0 PDT    Fri Sep 18, 2020 23:38:35.0 PDT      
                                                                                
38695658.CI.OAT.--.HN     Oat Mountain    Chan  2: 360 Deg                      
                                                                                
38695658.CI.OAT.--.HN     Oat Mountain    Chan  2: 360 Deg                      
                                                                                
Units for spectra are inches and sec, except Sa is in fraction of g.            
                                                                                
    2  100    2    3    3  100 -999    3    1    0  605 5453    050807   41    0
    6   38   35    8  263    9   19 2020   10    3  36035966   39   12   74 -999
35966 -999  100    6 -999 -999 -999 -999 -999 -999 -999 -999 -999 -999 -999 -999
 -999 -999 -999 -99915050    2 -999    0 -999   20 -999 -999    3    1 -99915050
    315050    4   78    1    3    5    0    0 -999    0 -999 -999    6 -999    2
    2    2    4 -999 -999 -999 -999 -999 -999 -999 -999    1 -999 -999 -999  111
    1    1 -999 -999
      .005      .707   359.660      .000     1.000  4981.498     -.002    34.100
   200.000     2.384      .479  -999.000    10.000  -999.000     4.000  -999.000
    20.000   -15.689      .000  -999.000  -999.000  -999.000  -999.000      .001
      .001     -.001     2.000    15.000    34.344  -118.614      .001      .001
     1.000     -.001      .000  1089.000  -999.000  -999.000  -999.000  -999.000
     1.000  -999.000  -999.000  -999.000  -999.000  -999.000  -999.000   120.000
     -.900     2.000     6.800   980.665      .020   301.000    31.831      .000
  -999.000    23.000  -999.000   301.000      .020      .300  -999.000  -999.000
    34.100    -1.717    35.160      .104    31.340     -.013      .000      .300
    23.000      .020      .020      .000      .020      .010  -999.000  -999.000
      .005      .150      .004      .004      .001      .000  -999.000  -999.000
  -999.000  -999.000  -999.000  -999.000  -999.000  -999.000  -999.000  -999.000
  -999.000  -999.000  -999.000  -999.000
      .050
      .040      .042      .044      .046      .048      .050      .055      .060
      .065      .070      .075      .080      .085      .090      .095      .100
      .110      .120      .130      .140      .150      .160      .170      .180
      .190      .200      .220      .240      .260      .280      .300      .320
      .340      .360      .380      .400      .420      .440      .460      .480
      .500      .550      .600      .650      .700      .750      .800      .850
      .900      .950     1.000     1.100     1.200     1.300     1.400     1.500
     1.600     1.700     1.800     1.900     2.000     2.200     2.400     2.600
     2.800     3.000     3.200     3.400     3.600     3.800     4.000     4.200
     4.400     4.600     4.800     5.000     5.500     6.000      .000      .000
      .000      .000      .000      .000      .000      .000      .000      .000
      .000      .000      .000      .000      .000      .000      .000      .000
      .000      .000      .000      .000
Fourier amplitude spectra in in/sec.
  .000E+00  .000E+00  .000E+00  .000E+00  .000E+00  .000E+00  .000E+00  .000E+00
  .000E+00  .000E+00  .000E+00  .000E+00  .000E+00  .000E+00  .000E+00  .000E+00
  .000E+00  .000E+00  .000E+00  .000E+00  .000E+00  .000E+00  .000E+00  .000E+00
  .000E+00  .000E+00  .000E+00  .000E+00  .000E+00  .000E+00  .000E+00  .000E+00
  .000E+00  .000E+00  .000E+00  .000E+00  .000E+00  .000E+00  .000E+00  .000E+00
  .000E+00  .000E+00  .000E+00  .000E+00  .000E+00  .000E+00  .000E+00  .000E+00
  .000E+00  .000E+00  .000E+00  .000E+00  .000E+00  .000E+00  .000E+00  .000E+00
  .000E+00  .000E+00  .000E+00  .000E+00  .000E+00  .000E+00  .000E+00  .000E+00
  .000E+00  .000E+00  .000E+00  .000E+00  .000E+00  .000E+00  .000E+00  .000E+00
  .000E+00  .000E+00  .000E+00  .000E+00  .000E+00  .000E+00  .000E+00  .000E+00
  .000E+00  .000E+00  .000E+00  .000E+00  .000E+00  .000E+00  .000E+00  .000E+00
  .000E+00  .000E+00  .000E+00  .000E+00  .000E+00  .000E+00  .000E+00  .000E+00
  .000E+00  .000E+00  .000E+00  .000E+00
Damping =  .05. Data of Sd,Sv,Sa,Pssv,ttSd,ttSv,ttSa :
  .275E-04  .305E-04  .337E-04  .374E-04  .409E-04  .443E-04  .540E-04  .647E-04
  .813E-04  .116E-03  .193E-03  .276E-03  .301E-03  .252E-03  .289E-03  .372E-03
  .435E-03  .500E-03  .713E-03  .997E-03  .121E-02  .105E-02  .128E-02  .144E-02
  .160E-02  .157E-02  .178E-02  .230E-02  .312E-02  .324E-02  .333E-02  .447E-02
  .493E-02  .562E-02  .542E-02  .551E-02  .513E-02  .473E-02  .561E-02  .690E-02
