Response and Fourier amplitude spectra (78 periods,  .04 -  6.0 sec)   for      
Corrected accelerogram   38695658.CI.OGC.--.HN      Chan  1:  90 Deg     from   
Uncorrected Accelerogram Data             Processed: 09/19/20, CGS  ciogc--k    
Rcrd of Fri Sep 18, 2020 23:38:30.0 PDT               (Avol1 v2.0, 4/18 CSMIP)  
                                        (Origin:  To be determined)             
38695658.CI.OGC.--.HN                Start time:  9/19/20, 06:38:30.0 UTC (GPS) 
Station Id. OGC     33.788N, 117.844W    ObsMMS  s/n 1915  (3 Chns of  6 at Sta)
Orange, Chapman Ave. & Cambridge St.     SCSN   Data: Acceleration              
Chan  1:  90 Deg                                                                
Rcrd of Fri Sep 18, 2020 23:38:30.0 PDT    Fri Sep 18, 2020 23:38:30.0 PDT      
Hypocenter:  To be determined.               ML:  To be determined.             
Instr Period =  .0050 sec,  Damping =  .707,  Sensitivity = 4.97 v/g  (Nominal) 
                        Record Length =301.000 sec.                             
                                     Uncor Max  =   .010 g, at   30.090 sec.    
RMS accel of (uncor) record  =        .   Chn. metadata effective date:         
Accelerogram bandpass filtered with 3 dB pts at   .30 and 23.00 cyc/sec         
                 instrument- and base-line correcte                             
                                                                                
                                                                                
                                                                                
                                                                                
                                                                                
Rcrd of Fri Sep 18, 2020 23:38:30.0 PDT    Fri Sep 18, 2020 23:38:30.0 PDT      
                                                                                
38695658.CI.OGC.--.HN     Orange, Chapman Ave. & Cambridge St.    Chan  1:  90 D
eg                                                                              
38695658.CI.OGC.--.HN     Orange, Chapman Ave. & Cambridge St.    Chan  1:  90 D
eg                                                                              
Units for spectra are inches and sec, except Sa is in fraction of g.            
                                                                                
    1  100    1    6    6  100 -999    3    1    0   15 1915    050508   41    0
    6   38   30    0  263    9   19 2020   10    3   9035808   39   36   74 -999
35808 -999  100    6 -999 -999 -999 -999 -999 -999 -999 -999 -999 -999 -999 -999
 -999 -999 -999 -99915050    2 -999    0 -999   20 -999 -999    3    1 -99915050
    315050    4   78    1    3    5    0    0 -999    0 -999 -999    6 -999    2
    2    2    4 -999 -999 -999 -999 -999 -999 -999 -999    1 -999 -999 -999  111
    1    1 -999 -999
      .005      .707   358.080      .000     1.000  4974.516      .010    30.090
   200.000     2.384      .479  -999.000    10.000  -999.000     4.000  -999.000
    20.000   -13.841      .000  -999.000  -999.000  -999.000  -999.000     -.008
      .007      .014     2.000    15.000    33.788  -117.844      .006      .008
     1.246      .013      .016    64.000  -999.000  -999.000  -999.000  -999.000
     1.000  -999.000    -8.000  -999.000  -999.000  -999.000  -999.000   120.000
     -.900     2.000     6.800   980.665      .020   301.000    31.831     -.001
  -999.000    23.000  -999.000   301.000      .020      .300  -999.000  -999.000
    30.100     9.487    30.020     -.465    29.520      .028      .000      .300
    23.000      .020      .020      .000      .020      .019  -999.000  -999.000
      .038      .240      .028      .028      .001      .000  -999.000  -999.000
  -999.000  -999.000  -999.000  -999.000  -999.000  -999.000  -999.000  -999.000
  -999.000  -999.000  -999.000  -999.000
      .050
      .040      .042      .044      .046      .048      .050      .055      .060
      .065      .070      .075      .080      .085      .090      .095      .100
      .110      .120      .130      .140      .150      .160      .170      .180
      .190      .200      .220      .240      .260      .280      .300      .320
      .340      .360      .380      .400      .420      .440      .460      .480
      .500      .550      .600      .650      .700      .750      .800      .850
      .900      .950     1.000     1.100     1.200     1.300     1.400     1.500
     1.600     1.700     1.800     1.900     2.000     2.200     2.400     2.600
     2.800     3.000     3.200     3.400     3.600     3.800     4.000     4.200
     4.400     4.600     4.800     5.000     5.500     6.000      .000      .000
      .000      .000      .000      .000      .000      .000      .000      .000
      .000      .000      .000      .000      .000      .000      .000      .000
      .000      .000      .000      .000
Fourier amplitude spectra in in/sec.
  .000E+00  .000E+00  .000E+00  .000E+00  .000E+00  .000E+00  .000E+00  .000E+00
  .000E+00  .000E+00  .000E+00  .000E+00  .000E+00  .000E+00  .000E+00  .000E+00
  .000E+00  .000E+00  .000E+00  .000E+00  .000E+00  .000E+00  .000E+00  .000E+00
  .000E+00  .000E+00  .000E+00  .000E+00  .000E+00  .000E+00  .000E+00  .000E+00
  .000E+00  .000E+00  .000E+00  .000E+00  .000E+00  .000E+00  .000E+00  .000E+00
  .000E+00  .000E+00  .000E+00  .000E+00  .000E+00  .000E+00  .000E+00  .000E+00
  .000E+00  .000E+00  .000E+00  .000E+00  .000E+00  .000E+00  .000E+00  .000E+00
  .000E+00  .000E+00  .000E+00  .000E+00  .000E+00  .000E+00  .000E+00  .000E+00
  .000E+00  .000E+00  .000E+00  .000E+00  .000E+00  .000E+00  .000E+00  .000E+00
  .000E+00  .000E+00  .000E+00  .000E+00  .000E+00  .000E+00  .000E+00  .000E+00
  .000E+00  .000E+00  .000E+00  .000E+00  .000E+00  .000E+00  .000E+00  .000E+00
  .000E+00  .000E+00  .000E+00  .000E+00  .000E+00  .000E+00  .000E+00  .000E+00
  .000E+00  .000E+00  .000E+00  .000E+00
Damping =  .05. Data of Sd,Sv,Sa,Pssv,ttSd,ttSv,ttSa :
  .165E-03  .184E-03  .205E-03  .228E-03  .253E-03  .286E-03  .370E-03  .543E-03
  .734E-03  .979E-03  .113E-02  .131E-02  .140E-02  .158E-02  .165E-02  .155E-02
  .175E-02  .271E-02  .357E-02  .489E-02  .638E-02  .655E-02  .733E-02  .781E-02
  .821E-02  .102E-01  .163E-01  .214E-01  .205E-01  .189E-01  .237E-01  .330E-01
  .378E-01  .415E-01  .420E-01  .401E-01  .373E-01  .362E-01  .352E-01  .345E-01
  .320E-01  .253E-01  .227E-01  .208E-01  .188E-01  .164E-01  .157E-01  .152E-01
  .161E-01  .137E-01  .136E-01  .128E-01  .121E-01  .120E-01  .118E-01  .127E-01
  .159E-01  .148E-01  .139E-01  .138E-01  .140E-01  .153E-01  .142E-01  .135E-01
  .132E-01  .125E-01  .125E-01  .127E-01  .126E-01  .125E-01  .123E-01  .121E-01
  .120E-01  .118E-01  .117E-01  .117E-01  .116E-01  .115E-01  .000E+00  .000E+00
  .000E+00  .000E+00  .000E+00  .000E+00  .000E+00  .000E+00  .000E+00  .000E+00
  .000E+00  .000E+00  .000E+00  .000E+00  .000E+00  .000E+00  .000E+00  .000E+00
  .000E+00  .000E+00  .000E+00  .000E+00
  .902E-02  .103E-01  .127E-01  .151E-01  .158E-01  .162E-01  .239E-01  .335E-01
  .477E-01  .619E-01  .713E-01  .680E-01  .719E-01  .801E-01  .801E-01  .622E-01
  .785E-01  .115E+00  .108E+00  .178E+00  .215E+00  .228E+00  .217E+00  .213E+00
  .216E+00  .285E+00  .455E+00  .565E+00  .504E+00  .428E+00  .512E+00  .639E+00
  .756E+00  .783E+00  .710E+00  .709E+00  .692E+00  .640E+00  .588E+00  .524E+00
  .476E+00  .411E+00  .348E+00  .299E+00  .270E+00  .258E+00  .246E+00  .236E+00
  .228E+00  .222E+00  .215E+00  .200E+00  .196E+00  .196E+00  .193E+00  .189E+00
  .184E+00  .180E+00  .182E+00  .184E+00  .185E+00  .185E+00  .185E+00  .186E+00
  .187E+00  .188E+00  .188E+00  .187E+00  .186E+00  .185E+00  .184E+00  .184E+00
  .183E+00  .183E+00  .182E+00  .182E+00  .182E+00  .181E+00  .000E+00  .000E+00
  .000E+00  .000E+00  .000E+00  .000E+00  .000E+00  .000E+00  .000E+00  .000E+00
  .000E+00  .000E+00  .000E+00  .000E+00  .000E+00  .000E+00  .000E+00  .000E+00
  .000E+00  .000E+00  .000E+00  .000E+00
  .105E-01  .107E-01  .108E-01  .110E-01  .112E-01  .117E-01  .126E-01  .154E-01
  .177E-01  .205E-01  .208E-01  .209E-01  .197E-01  .202E-01  .188E-01  .157E-01
  .147E-01  .194E-01  .218E-01  .258E-01  .293E-01  .262E-01  .261E-01  .249E-01
  .233E-01  .264E-01  .348E-01  .384E-01  .312E-01  .248E-01  .275E-01  .332E-01
  .337E-01  .330E-01  .297E-01  .259E-01  .219E-01  .192E-01  .173E-01  .153E-01
  .133E-01  .868E-02  .644E-02  .513E-02  .398E-02  .303E-02  .255E-02  .217E-02
  .206E-02  .158E-02  .142E-02  .110E-02  .875E-03  .733E-03  .666E-03  .627E-03
  .646E-03  .537E-03  .487E-03  .440E-03  .396E-03  .339E-03  .283E-03  .249E-03
  .216E-03  .185E-03  .158E-03  .136E-03  .120E-03  .108E-03  .987E-04  .921E-04
  .864E-04  .815E-04  .771E-04  .731E-04  .645E-04  .579E-04  .000E+00  .000E+00
  .000E+00  .000E+00  .000E+00  .000E+00  .000E+00  .000E+00  .000E+00  .000E+00
  .000E+00  .000E+00  .000E+00  .000E+00  .000E+00  .000E+00  .000E+00  .000E+00
  .000E+00  .000E+00  .000E+00  .000E+00
  .258E-01  .276E-01  .293E-01  .311E-01  .331E-01  .360E-01  .422E-01  .568E-01
  .710E-01  .878E-01  .945E-01  .103E+00  .104E+00  .110E+00  .109E+00  .976E-01
  .999E-01  .142E+00  .172E+00  .220E+00  .267E+00  .257E+00  .271E+00  .273E+00
  .271E+00  .319E+00  .465E+00  .559E+00  .495E+00  .423E+00  .497E+00  .649E+00
  .699E+00  .724E+00  .695E+00  .630E+00  .558E+00  .517E+00  .481E+00  .452E+00
  .402E+00  .289E+00  .237E+00  .201E+00  .169E+00  .138E+00  .124E+00  .112E+00
  .112E+00  .905E-01  .855E-01  .730E-01  .635E-01  .581E-01  .531E-01  .531E-01
  .626E-01  .546E-01  .484E-01  .458E-01  .441E-01  .438E-01  .371E-01  .326E-01
  .297E-01  .262E-01  .246E-01  .234E-01  .221E-01  .207E-01  .193E-01  .181E-01
  .171E-01  .162E-01  .154E-01  .147E-01  .133E-01  .121E-01  .000E+00  .000E+00
  .000E+00  .000E+00  .000E+00  .000E+00  .000E+00  .000E+00  .000E+00  .000E+00
  .000E+00  .000E+00  .000E+00  .000E+00  .000E+00  .000E+00  .000E+00  .000E+00
  .000E+00  .000E+00  .000E+00  .000E+00
  .301E+02  .301E+02  .301E+02  .302E+02  .302E+02  .299E+02  .299E+02  .299E+02
  .299E+02  .301E+02  .301E+02  .301E+02  .299E+02  .299E+02  .299E+02  .302E+02
  .301E+02  .301E+02  .301E+02  .302E+02  .302E+02  .299E+02  .299E+02  .299E+02
  .300E+02  .302E+02  .302E+02  .302E+02  .303E+02  .304E+02  .303E+02  .303E+02
  .303E+02  .302E+02  .302E+02  .302E+02  .302E+02  .300E+02  .301E+02  .301E+02
  .301E+02  .299E+02  .299E+02  .299E+02  .299E+02  .299E+02  .394E+02  .394E+02
  .394E+02  .297E+02  .297E+02  .297E+02  .297E+02  .391E+02  .301E+02  .301E+02
  .388E+02  .389E+02  .301E+02  .301E+02  .382E+02  .366E+02  .366E+02  .301E+02
  .301E+02  .301E+02  .295E+02  .295E+02  .295E+02  .295E+02  .295E+02  .295E+02
  .295E+02  .295E+02  .295E+02  .295E+02  .295E+02  .295E+02  .000E+00  .000E+00
  .000E+00  .000E+00  .000E+00  .000E+00  .000E+00  .000E+00  .000E+00  .000E+00
  .000E+00  .000E+00  .000E+00  .000E+00  .000E+00  .000E+00  .000E+00  .000E+00
  .000E+00  .000E+00  .000E+00  .000E+00
  .299E+02  .299E+02  .302E+02  .302E+02  .302E+02  .308E+02  .308E+02  .299E+02
  .300E+02  .300E+02  .302E+02  .300E+02  .299E+02  .299E+02  .299E+02  .299E+02
  .307E+02  .344E+02  .299E+02  .302E+02  .299E+02  .309E+02  .299E+02  .300E+02
  .300E+02  .303E+02  .303E+02  .303E+02  .303E+02  .303E+02  .303E+02  .302E+02
  .302E+02  .302E+02  .303E+02  .301E+02  .301E+02  .301E+02  .301E+02  .301E+02
  .300E+02  .300E+02  .300E+02  .300E+02  .298E+02  .298E+02  .298E+02  .298E+02
  .298E+02  .298E+02  .298E+02  .298E+02  .301E+02  .301E+02  .301E+02  .301E+02
  .301E+02  .301E+02  .300E+02  .300E+02  .300E+02  .300E+02  .300E+02  .300E+02
  .300E+02  .300E+02  .300E+02  .300E+02  .300E+02  .300E+02  .300E+02  .300E+02
  .300E+02  .300E+02  .300E+02  .300E+02  .300E+02  .300E+02  .000E+00  .000E+00
  .000E+00  .000E+00  .000E+00  .000E+00  .000E+00  .000E+00  .000E+00  .000E+00
  .000E+00  .000E+00  .000E+00  .000E+00  .000E+00  .000E+00  .000E+00  .000E+00
  .000E+00  .000E+00  .000E+00  .000E+00
  .301E+02  .301E+02  .301E+02  .302E+02  .302E+02  .299E+02  .299E+02  .299E+02
  .299E+02  .301E+02  .301E+02  .301E+02  .299E+02  .299E+02  .299E+02  .302E+02
  .301E+02  .301E+02  .301E+02  .302E+02  .302E+02  .299E+02  .299E+02  .299E+02
  .300E+02  .302E+02  .302E+02  .302E+02  .303E+02  .304E+02  .303E+02  .303E+02
  .303E+02  .302E+02  .302E+02  .302E+02  .302E+02  .300E+02  .300E+02  .301E+02
  .301E+02  .299E+02  .299E+02  .299E+02  .299E+02  .299E+02  .394E+02  .394E+02
  .394E+02  .297E+02  .297E+02  .297E+02  .297E+02  .391E+02  .300E+02  .300E+02
  .388E+02  .388E+02  .300E+02  .300E+02  .300E+02  .366E+02  .300E+02  .300E+02
  .300E+02  .300E+02  .300E+02  .300E+02  .300E+02  .295E+02  .300E+02  .300E+02
  .300E+02  .300E+02  .300E+02  .300E+02  .300E+02  .300E+02  .000E+00  .000E+00
  .000E+00  .000E+00  .000E+00  .000E+00  .000E+00  .000E+00  .000E+00  .000E+00
  .000E+00  .000E+00  .000E+00  .000E+00  .000E+00  .000E+00  .000E+00  .000E+00
  .000E+00  .000E+00  .000E+00  .000E+00
/&   ----------  End of spectral data for channel  1  ----------
Response and Fourier amplitude spectra (78 periods,  .04 -  6.0 sec)   for      
Corrected accelerogram   38695658.CI.OGC.--.HN      Chan  2: 360 Deg     from   
Uncorrected Accelerogram Data             Processed: 09/19/20, CGS  ciogc--k    
Rcrd of Fri Sep 18, 2020 23:38:30.0 PDT               (Avol1 v2.0, 4/18 CSMIP)  
                                        (Origin:  To be determined)             
38695658.CI.OGC.--.HN                Start time:  9/19/20, 06:38:30.0 UTC (GPS) 
Station Id. OGC     33.788N, 117.844W    ObsMMS  s/n 1915  (3 Chns of  6 at Sta)
Orange, Chapman Ave. & Cambridge St.     SCSN   Data: Acceleration              
Chan  2: 360 Deg                                                                
Rcrd of Fri Sep 18, 2020 23:38:30.0 PDT    Fri Sep 18, 2020 23:38:30.0 PDT      
Hypocenter:  To be determined.               ML:  To be determined.             
Instr Period =  .0050 sec,  Damping =  .707,  Sensitivity = 4.97 v/g  (Nominal) 
                        Record Length =301.000 sec.                             
                                     Uncor Max  =   .017 g, at   29.630 sec.    
RMS accel of (uncor) record  =        .   Chn. metadata effective date:         
Accelerogram bandpass filtered with 3 dB pts at   .30 and 23.00 cyc/sec         
                 instrument- and base-line correcte                             
                                                                                
                                                                                
                                                                                
                                                                                
                                                                                
Rcrd of Fri Sep 18, 2020 23:38:30.0 PDT    Fri Sep 18, 2020 23:38:30.0 PDT      
                                                                                
38695658.CI.OGC.--.HN     Orange, Chapman Ave. & Cambridge St.    Chan  2: 360 D
eg                                                                              
38695658.CI.OGC.--.HN     Orange, Chapman Ave. & Cambridge St.    Chan  2: 360 D
eg                                                                              
Units for spectra are inches and sec, except Sa is in fraction of g.            
                                                                                
    2  100    2    6    6  100 -999    3    1    0   15 1915    050508   41    0
    6   38   30    0  263    9   19 2020   10    3  36035747   39   36   74 -999
35747 -999  100    6 -999 -999 -999 -999 -999 -999 -999 -999 -999 -999 -999 -999
 -999 -999 -999 -99915050    2 -999    0 -999   20 -999 -999    3    1 -99915050
    315050    4   78    1    3    5    0    0 -999    0 -999 -999    6 -999    2
    2    2    4 -999 -999 -999 -999 -999 -999 -999 -999    1 -999 -999 -999  111
    1    1 -999 -999
      .005      .707   357.470      .001     1.000  4972.522      .017    29.630
   200.000     2.384      .479  -999.000    10.000  -999.000     4.000  -999.000
    20.000   -13.636      .000  -999.000  -999.000  -999.000  -999.000     -.014
      .014      .029     2.000    15.000    33.788  -117.844      .006      .007
     1.114      .027      .030    64.000  -999.000  -999.000  -999.000  -999.000
     1.000  -999.000  -999.000  -999.000  -999.000  -999.000  -999.000   120.000
     -.900     2.000     6.800   980.665      .020   301.000    31.831     -.002
  -999.000    23.000  -999.000   301.000      .020      .300  -999.000  -999.000
    29.640    15.503    29.580     -.710    29.900      .048      .000      .300
    23.000      .020      .020      .000      .020      .022  -999.000  -999.000
      .069      .220      .054      .045      .003      .000  -999.000  -999.000
  -999.000  -999.000  -999.000  -999.000  -999.000  -999.000  -999.000  -999.000
  -999.000  -999.000  -999.000  -999.000
      .050
      .040      .042      .044      .046      .048      .050      .055      .060
      .065      .070      .075      .080      .085      .090      .095      .100
      .110      .120      .130      .140      .150      .160      .170      .180
      .190      .200      .220      .240      .260      .280      .300      .320
      .340      .360      .380      .400      .420      .440      .460      .480
      .500      .550      .600      .650      .700      .750      .800      .850
      .900      .950     1.000     1.100     1.200     1.300     1.400     1.500
     1.600     1.700     1.800     1.900     2.000     2.200     2.400     2.600
     2.800     3.000     3.200     3.400     3.600     3.800     4.000     4.200
     4.400     4.600     4.800     5.000     5.500     6.000      .000      .000
      .000      .000      .000      .000      .000      .000      .000      .000
      .000      .000      .000      .000      .000      .000      .000      .000
      .000      .000      .000      .000
Fourier amplitude spectra in in/sec.
  .000E+00  .000E+00  .000E+00  .000E+00  .000E+00  .000E+00  .000E+00  .000E+00
  .000E+00  .000E+00  .000E+00  .000E+00  .000E+00  .000E+00  .000E+00  .000E+00
  .000E+00  .000E+00  .000E+00  .000E+00  .000E+00  .000E+00  .000E+00  .000E+00
  .000E+00  .000E+00  .000E+00  .000E+00  .000E+00  .000E+00  .000E+00  .000E+00
  .000E+00  .000E+00  .000E+00  .000E+00  .000E+00  .000E+00  .000E+00  .000E+00
  .000E+00  .000E+00  .000E+00  .000E+00  .000E+00  .000E+00  .000E+00  .000E+00
  .000E+00  .000E+00  .000E+00  .000E+00  .000E+00  .000E+00  .000E+00  .000E+00
  .000E+00  .000E+00  .000E+00  .000E+00  .000E+00  .000E+00  .000E+00  .000E+00
  .000E+00  .000E+00  .000E+00  .000E+00  .000E+00  .000E+00  .000E+00  .000E+00
  .000E+00  .000E+00  .000E+00  .000E+00  .000E+00  .000E+00  .000E+00  .000E+00
  .000E+00  .000E+00  .000E+00  .000E+00  .000E+00  .000E+00  .000E+00  .000E+00
  .000E+00  .000E+00  .000E+00  .000E+00  .000E+00  .000E+00  .000E+00  .000E+00
  .000E+00  .000E+00  .000E+00  .000E+00
Damping =  .05. Data of Sd,Sv,Sa,Pssv,ttSd,ttSv,ttSa :
  .279E-03  .311E-03  .349E-03  .389E-03  .426E-03  .468E-03  .653E-03  .719E-03
  .744E-03  .938E-03  .116E-02  .159E-02  .186E-02  .204E-02  .239E-02  .295E-02
  .360E-02  .355E-02  .385E-02  .502E-02  .596E-02  .759E-02  .873E-02  .113E-01
  .147E-01  .196E-01  .321E-01  .332E-01  .297E-01  .309E-01  .399E-01  .490E-01
  .544E-01  .574E-01  .626E-01  .643E-01  .623E-01  .584E-01  .604E-01  .603E-01
