Response and Fourier amplitude spectra (78 periods,  .04 -  6.0 sec)   for      
Corrected accelerogram   38695658.CI.OLP.--.HN      Chan  1:  90 Deg     from   
Uncorrected Accelerogram Data             Processed: 09/19/20, CGS  ciolp--q    
Rcrd of Fri Sep 18, 2020 23:38:52.0 PDT               (Avol1 v2.0, 4/18 CSMIP)  
                                        (Origin:  To be determined)             
38695658.CI.OLP.--.HN                Start time:  9/19/20, 06:38:52.0 UTC (GPS) 
Station Id. OLP     32.608N, 116.930W    Q330    s/n 4177  (3 Chns of  3 at Sta)
Chula Vista, Otay Lake Park              SCSN   Data: Acceleration              
Chan  1:  90 Deg                                                                
Rcrd of Fri Sep 18, 2020 23:38:52.0 PDT    Fri Sep 18, 2020 23:38:52.0 PDT      
Hypocenter:  To be determined.               ML:  To be determined.             
Instr Period =  .0050 sec,  Damping =  .707,  Sensitivity = 4.98 v/g  (Nominal) 
                        Record Length =301.000 sec.                             
                                     Uncor Max  =  -.001 g, at   47.510 sec.    
RMS accel of (uncor) record  =        .   Chn. metadata effective date:         
Accelerogram bandpass filtered with 3 dB pts at   .30 and 23.00 cyc/sec         
                 instrument- and base-line correcte                             
                                                                                
                                                                                
                                                                                
                                                                                
                                                                                
Rcrd of Fri Sep 18, 2020 23:38:52.0 PDT    Fri Sep 18, 2020 23:38:52.0 PDT      
                                                                                
38695658.CI.OLP.--.HN     Chula Vista, Otay Lake Park   Chan  1:  90 Deg        
                                                                                
38695658.CI.OLP.--.HN     Chula Vista, Otay Lake Park   Chan  1:  90 Deg        
                                                                                
Units for spectra are inches and sec, except Sa is in fraction of g.            
                                                                                
    1  100    1    3    3  100 -999    3    1    0  605 4177    050634   41    0
    6   38   52    8  263    9   19 2020   10    3   9035654   39   27   74 -999
35654 -999  100    6 -999 -999 -999 -999 -999 -999 -999 -999 -999 -999 -999 -999
 -999 -999 -999 -99915050    2 -999    0 -999   20 -999 -999    3    1 -99915050
    315050    4   78    1    3    5    0    0 -999    0 -999 -999    6 -999    2
    2    2    4 -999 -999 -999 -999 -999 -999 -999 -999    1 -999 -999 -999  111
    1    1 -999 -999
      .005      .707   356.540      .000     1.000  4983.293     -.001    47.510
   200.000     2.384      .478  -999.000    10.000  -999.000     4.000  -999.000
    20.000    -2.327      .000  -999.000  -999.000  -999.000  -999.000      .000
      .000      .000     2.000    15.000    32.608  -116.930      .011      .011
     1.065     -.002      .003   159.000  -999.000  -999.000  -999.000  -999.000
     1.000  -999.000    -8.000  -999.000  -999.000  -999.000  -999.000   120.000
     -.900     2.000     6.800   980.665      .020   301.000    31.831      .000
  -999.000    23.000  -999.000   301.000      .020      .300  -999.000  -999.000
    49.960     -.606    47.300     -.019    47.940     -.001      .000      .300
    23.000      .020      .020      .000      .020      .001  -999.000  -999.000
      .002      .140      .002      .002      .000      .000  -999.000  -999.000
  -999.000  -999.000  -999.000  -999.000  -999.000  -999.000  -999.000  -999.000
  -999.000  -999.000  -999.000  -999.000
      .050
      .040      .042      .044      .046      .048      .050      .055      .060
      .065      .070      .075      .080      .085      .090      .095      .100
      .110      .120      .130      .140      .150      .160      .170      .180
      .190      .200      .220      .240      .260      .280      .300      .320
      .340      .360      .380      .400      .420      .440      .460      .480
      .500      .550      .600      .650      .700      .750      .800      .850
      .900      .950     1.000     1.100     1.200     1.300     1.400     1.500
     1.600     1.700     1.800     1.900     2.000     2.200     2.400     2.600
     2.800     3.000     3.200     3.400     3.600     3.800     4.000     4.200
     4.400     4.600     4.800     5.000     5.500     6.000      .000      .000
      .000      .000      .000      .000      .000      .000      .000      .000
      .000      .000      .000      .000      .000      .000      .000      .000
      .000      .000      .000      .000
Fourier amplitude spectra in in/sec.
  .000E+00  .000E+00  .000E+00  .000E+00  .000E+00  .000E+00  .000E+00  .000E+00
  .000E+00  .000E+00  .000E+00  .000E+00  .000E+00  .000E+00  .000E+00  .000E+00
  .000E+00  .000E+00  .000E+00  .000E+00  .000E+00  .000E+00  .000E+00  .000E+00
  .000E+00  .000E+00  .000E+00  .000E+00  .000E+00  .000E+00  .000E+00  .000E+00
  .000E+00  .000E+00  .000E+00  .000E+00  .000E+00  .000E+00  .000E+00  .000E+00
  .000E+00  .000E+00  .000E+00  .000E+00  .000E+00  .000E+00  .000E+00  .000E+00
  .000E+00  .000E+00  .000E+00  .000E+00  .000E+00  .000E+00  .000E+00  .000E+00
  .000E+00  .000E+00  .000E+00  .000E+00  .000E+00  .000E+00  .000E+00  .000E+00
  .000E+00  .000E+00  .000E+00  .000E+00  .000E+00  .000E+00  .000E+00  .000E+00
  .000E+00  .000E+00  .000E+00  .000E+00  .000E+00  .000E+00  .000E+00  .000E+00
  .000E+00  .000E+00  .000E+00  .000E+00  .000E+00  .000E+00  .000E+00  .000E+00
  .000E+00  .000E+00  .000E+00  .000E+00  .000E+00  .000E+00  .000E+00  .000E+00
  .000E+00  .000E+00  .000E+00  .000E+00
Damping =  .05. Data of Sd,Sv,Sa,Pssv,ttSd,ttSv,ttSa :
  .120E-04  .134E-04  .148E-04  .163E-04  .175E-04  .190E-04  .278E-04  .368E-04
  .541E-04  .679E-04  .899E-04  .843E-04  .984E-04  .125E-03  .141E-03  .166E-03
  .180E-03  .301E-03  .392E-03  .451E-03  .412E-03  .483E-03  .369E-03  .371E-03
  .566E-03  .684E-03  .810E-03  .112E-02  .142E-02  .144E-02  .128E-02  .136E-02
  .142E-02  .127E-02  .120E-02  .123E-02  .135E-02  .128E-02  .119E-02  .113E-02
  .107E-02  .915E-03  .841E-03  .686E-03  .623E-03  .528E-03  .514E-03  .448E-03
  .421E-03  .434E-03  .538E-03  .625E-03  .578E-03  .683E-03  .661E-03  .601E-03
  .630E-03  .529E-03  .546E-03  .659E-03  .736E-03  .715E-03  .687E-03  .648E-03
  .605E-03  .514E-03  .465E-03  .449E-03  .440E-03  .437E-03  .433E-03  .416E-03
  .388E-03  .370E-03  .370E-03  .365E-03  .340E-03  .355E-03  .000E+00  .000E+00
  .000E+00  .000E+00  .000E+00  .000E+00  .000E+00  .000E+00  .000E+00  .000E+00
  .000E+00  .000E+00  .000E+00  .000E+00  .000E+00  .000E+00  .000E+00  .000E+00
  .000E+00  .000E+00  .000E+00  .000E+00
  .726E-03  .802E-03  .885E-03  .100E-02  .123E-02  .140E-02  .193E-02  .230E-02
  .391E-02  .485E-02  .572E-02  .507E-02  .544E-02  .724E-02  .847E-02  .931E-02
  .959E-02  .154E-01  .186E-01  .196E-01  .171E-01  .200E-01  .150E-01  .126E-01
  .170E-01  .194E-01  .230E-01  .287E-01  .354E-01  .343E-01  .271E-01  .279E-01
  .293E-01  .258E-01  .243E-01  .244E-01  .220E-01  .195E-01  .183E-01  .183E-01
  .190E-01  .160E-01  .128E-01  .112E-01  .990E-02  .101E-01  .971E-02  .914E-02
  .913E-02  .925E-02  .899E-02  .801E-02  .789E-02  .774E-02  .796E-02  .815E-02
  .767E-02  .755E-02  .766E-02  .765E-02  .752E-02  .761E-02  .759E-02  .737E-02
  .736E-02  .749E-02  .751E-02  .750E-02  .748E-02  .750E-02  .752E-02  .753E-02
  .749E-02  .749E-02  .749E-02  .750E-02  .748E-02  .747E-02  .000E+00  .000E+00
  .000E+00  .000E+00  .000E+00  .000E+00  .000E+00  .000E+00  .000E+00  .000E+00
  .000E+00  .000E+00  .000E+00  .000E+00  .000E+00  .000E+00  .000E+00  .000E+00
  .000E+00  .000E+00  .000E+00  .000E+00
  .766E-03  .776E-03  .781E-03  .791E-03  .780E-03  .777E-03  .937E-03  .104E-02
  .132E-02  .143E-02  .162E-02  .136E-02  .138E-02  .157E-02  .161E-02  .170E-02
  .154E-02  .218E-02  .239E-02  .239E-02  .190E-02  .192E-02  .133E-02  .117E-02
  .162E-02  .174E-02  .169E-02  .200E-02  .216E-02  .187E-02  .146E-02  .135E-02
  .126E-02  .101E-02  .855E-03  .794E-03  .784E-03  .695E-03  .573E-03  .502E-03
  .440E-03  .313E-03  .239E-03  .169E-03  .133E-03  .991E-04  .831E-04  .656E-04
  .558E-04  .504E-04  .563E-04  .540E-04  .422E-04  .427E-04  .364E-04  .283E-04
  .270E-04  .206E-04  .174E-04  .189E-04  .191E-04  .157E-04  .129E-04  .107E-04
  .825E-05  .639E-05  .558E-05  .498E-05  .451E-05  .424E-05  .410E-05  .402E-05
  .373E-05  .343E-05  .325E-05  .307E-05  .263E-05  .240E-05  .000E+00  .000E+00
  .000E+00  .000E+00  .000E+00  .000E+00  .000E+00  .000E+00  .000E+00  .000E+00
  .000E+00  .000E+00  .000E+00  .000E+00  .000E+00  .000E+00  .000E+00  .000E+00
  .000E+00  .000E+00  .000E+00  .000E+00
  .189E-02  .200E-02  .211E-02  .223E-02  .229E-02  .239E-02  .318E-02  .385E-02
  .523E-02  .609E-02  .753E-02  .662E-02  .727E-02  .871E-02  .935E-02  .104E-01
  .103E-01  .158E-01  .189E-01  .202E-01  .172E-01  .190E-01  .136E-01  .130E-01
  .187E-01  .215E-01  .231E-01  .293E-01  .343E-01  .323E-01  .269E-01  .268E-01
  .263E-01  .221E-01  .198E-01  .194E-01  .202E-01  .183E-01  .162E-01  .147E-01
  .134E-01  .104E-01  .880E-02  .663E-02  .559E-02  .443E-02  .404E-02  .331E-02
  .294E-02  .287E-02  .338E-02  .357E-02  .303E-02  .330E-02  .297E-02  .252E-02
  .247E-02  .196E-02  .191E-02  .218E-02  .231E-02  .204E-02  .180E-02  .157E-02
  .136E-02  .108E-02  .912E-03  .830E-03  .768E-03  .722E-03  .680E-03  .622E-03
  .554E-03  .505E-03  .484E-03  .459E-03  .388E-03  .372E-03  .000E+00  .000E+00
  .000E+00  .000E+00  .000E+00  .000E+00  .000E+00  .000E+00  .000E+00  .000E+00
  .000E+00  .000E+00  .000E+00  .000E+00  .000E+00  .000E+00  .000E+00  .000E+00
  .000E+00  .000E+00  .000E+00  .000E+00
  .475E+02  .475E+02  .475E+02  .475E+02  .475E+02  .490E+02  .490E+02  .488E+02
  .500E+02  .500E+02  .500E+02  .472E+02  .475E+02  .475E+02  .488E+02  .485E+02
  .479E+02  .490E+02  .490E+02  .492E+02  .492E+02  .492E+02  .481E+02  .474E+02
  .474E+02  .474E+02  .476E+02  .478E+02  .480E+02  .483E+02  .483E+02  .483E+02
  .482E+02  .476E+02  .476E+02  .475E+02  .475E+02  .475E+02  .475E+02  .480E+02
  .481E+02  .479E+02  .479E+02  .479E+02  .479E+02  .495E+02  .521E+02  .521E+02
  .474E+02  .508E+02  .508E+02  .521E+02  .521E+02  .537E+02  .519E+02  .549E+02
  .506E+02  .506E+02  .620E+02  .620E+02  .613E+02  .596E+02  .554E+02  .554E+02
  .559E+02  .547E+02  .547E+02  .547E+02  .547E+02  .547E+02  .547E+02  .469E+02
  .473E+02  .473E+02  .473E+02  .473E+02  .469E+02  .469E+02  .000E+00  .000E+00
  .000E+00  .000E+00  .000E+00  .000E+00  .000E+00  .000E+00  .000E+00  .000E+00
  .000E+00  .000E+00  .000E+00  .000E+00  .000E+00  .000E+00  .000E+00  .000E+00
  .000E+00  .000E+00  .000E+00  .000E+00
  .499E+02  .499E+02  .499E+02  .499E+02  .489E+02  .489E+02  .489E+02  .488E+02
  .499E+02  .490E+02  .500E+02  .500E+02  .475E+02  .475E+02  .489E+02  .485E+02
  .479E+02  .490E+02  .490E+02  .492E+02  .492E+02  .492E+02  .491E+02  .489E+02
  .474E+02  .474E+02  .476E+02  .477E+02  .480E+02  .483E+02  .484E+02  .482E+02
  .480E+02  .480E+02  .475E+02  .475E+02  .475E+02  .474E+02  .474E+02  .482E+02
  .480E+02  .480E+02  .480E+02  .473E+02  .478E+02  .473E+02  .473E+02  .473E+02
  .473E+02  .473E+02  .473E+02  .479E+02  .479E+02  .473E+02  .473E+02  .473E+02
  .473E+02  .473E+02  .473E+02  .473E+02  .473E+02  .473E+02  .473E+02  .473E+02
  .480E+02  .480E+02  .480E+02  .480E+02  .480E+02  .480E+02  .480E+02  .480E+02
  .473E+02  .473E+02  .473E+02  .473E+02  .473E+02  .473E+02  .000E+00  .000E+00
  .000E+00  .000E+00  .000E+00  .000E+00  .000E+00  .000E+00  .000E+00  .000E+00
  .000E+00  .000E+00  .000E+00  .000E+00  .000E+00  .000E+00  .000E+00  .000E+00
  .000E+00  .000E+00  .000E+00  .000E+00
  .475E+02  .475E+02  .475E+02  .475E+02  .475E+02  .475E+02  .490E+02  .488E+02
  .500E+02  .500E+02  .500E+02  .472E+02  .475E+02  .475E+02  .488E+02  .485E+02
  .479E+02  .490E+02  .490E+02  .492E+02  .492E+02  .492E+02  .481E+02  .474E+02
  .474E+02  .474E+02  .476E+02  .478E+02  .480E+02  .483E+02  .483E+02  .483E+02
  .482E+02  .476E+02  .476E+02  .475E+02  .475E+02  .475E+02  .475E+02  .480E+02
  .481E+02  .479E+02  .479E+02  .479E+02  .479E+02  .479E+02  .521E+02  .479E+02
  .473E+02  .508E+02  .508E+02  .521E+02  .521E+02  .536E+02  .519E+02  .548E+02
  .506E+02  .506E+02  .620E+02  .620E+02  .613E+02  .596E+02  .554E+02  .554E+02
  .547E+02  .469E+02  .469E+02  .469E+02  .473E+02  .473E+02  .473E+02  .473E+02
  .473E+02  .473E+02  .473E+02  .473E+02  .473E+02  .473E+02  .000E+00  .000E+00
  .000E+00  .000E+00  .000E+00  .000E+00  .000E+00  .000E+00  .000E+00  .000E+00
  .000E+00  .000E+00  .000E+00  .000E+00  .000E+00  .000E+00  .000E+00  .000E+00
  .000E+00  .000E+00  .000E+00  .000E+00
/&   ----------  End of spectral data for channel  1  ----------
Response and Fourier amplitude spectra (78 periods,  .04 -  6.0 sec)   for      
Corrected accelerogram   38695658.CI.OLP.--.HN      Chan  2: 360 Deg     from   
Uncorrected Accelerogram Data             Processed: 09/19/20, CGS  ciolp--q    
Rcrd of Fri Sep 18, 2020 23:38:52.0 PDT               (Avol1 v2.0, 4/18 CSMIP)  
                                        (Origin:  To be determined)             
38695658.CI.OLP.--.HN                Start time:  9/19/20, 06:38:52.0 UTC (GPS) 
Station Id. OLP     32.608N, 116.930W    Q330    s/n 4177  (3 Chns of  3 at Sta)
Chula Vista, Otay Lake Park              SCSN   Data: Acceleration              
Chan  2: 360 Deg                                                                
Rcrd of Fri Sep 18, 2020 23:38:52.0 PDT    Fri Sep 18, 2020 23:38:52.0 PDT      
Hypocenter:  To be determined.               ML:  To be determined.             
Instr Period =  .0050 sec,  Damping =  .707,  Sensitivity = 5.00 v/g  (Nominal) 
                        Record Length =301.000 sec.                             
                                     Uncor Max  =  -.001 g, at   48.180 sec.    
RMS accel of (uncor) record  =        .   Chn. metadata effective date:         
Accelerogram bandpass filtered with 3 dB pts at   .30 and 23.00 cyc/sec         
                 instrument- and base-line correcte                             
                                                                                
                                                                                
                                                                                
                                                                                
                                                                                
Rcrd of Fri Sep 18, 2020 23:38:52.0 PDT    Fri Sep 18, 2020 23:38:52.0 PDT      
                                                                                
38695658.CI.OLP.--.HN     Chula Vista, Otay Lake Park   Chan  2: 360 Deg        
                                                                                
38695658.CI.OLP.--.HN     Chula Vista, Otay Lake Park   Chan  2: 360 Deg        
                                                                                
Units for spectra are inches and sec, except Sa is in fraction of g.            
                                                                                
    2  100    2    3    3  100 -999    3    1    0  605 4177    050634   41    0
    6   38   52    8  263    9   19 2020   10    3  36035616   39   27   74 -999
35616 -999  100    6 -999 -999 -999 -999 -999 -999 -999 -999 -999 -999 -999 -999
 -999 -999 -999 -99915050    2 -999    0 -999   20 -999 -999    3    1 -99915050
    315050    4   78    1    3    5    0    0 -999    0 -999 -999    6 -999    2
    2    2    4 -999 -999 -999 -999 -999 -999 -999 -999    1 -999 -999 -999  111
    1    1 -999 -999
      .005      .707   356.160      .000     1.000  4996.856     -.001    48.180
   200.000     2.384      .477  -999.000    10.000  -999.000     4.000  -999.000
    20.000    -2.138      .000  -999.000  -999.000  -999.000  -999.000      .000
      .000      .000     2.000    15.000    32.608  -116.930      .017      .015
      .892     -.003      .003   159.000  -999.000  -999.000  -999.000  -999.000
     1.000  -999.000  -999.000  -999.000  -999.000  -999.000  -999.000   120.000
     -.900     2.000     6.800   980.665      .020   301.000    31.831      .000
  -999.000    23.000  -999.000   301.000      .020      .300  -999.000  -999.000
    48.180     -.968    48.220     -.039    47.180      .001      .000      .300
    23.000      .020      .020      .000      .020      .002  -999.000  -999.000
      .004      .240      .003      .003      .000      .000  -999.000  -999.000
  -999.000  -999.000  -999.000  -999.000  -999.000  -999.000  -999.000  -999.000
  -999.000  -999.000  -999.000  -999.000
      .050
      .040      .042      .044      .046      .048      .050      .055      .060
      .065      .070      .075      .080      .085      .090      .095      .100
      .110      .120      .130      .140      .150      .160      .170      .180
      .190      .200      .220      .240      .260      .280      .300      .320
      .340      .360      .380      .400      .420      .440      .460      .480
      .500      .550      .600      .650      .700      .750      .800      .850
      .900      .950     1.000     1.100     1.200     1.300     1.400     1.500
     1.600     1.700     1.800     1.900     2.000     2.200     2.400     2.600
     2.800     3.000     3.200     3.400     3.600     3.800     4.000     4.200
     4.400     4.600     4.800     5.000     5.500     6.000      .000      .000
      .000      .000      .000      .000      .000      .000      .000      .000
      .000      .000      .000      .000      .000      .000      .000      .000
      .000      .000      .000      .000
Fourier amplitude spectra in in/sec.
  .000E+00  .000E+00  .000E+00  .000E+00  .000E+00  .000E+00  .000E+00  .000E+00
  .000E+00  .000E+00  .000E+00  .000E+00  .000E+00  .000E+00  .000E+00  .000E+00
  .000E+00  .000E+00  .000E+00  .000E+00  .000E+00  .000E+00  .000E+00  .000E+00
  .000E+00  .000E+00  .000E+00  .000E+00  .000E+00  .000E+00  .000E+00  .000E+00
  .000E+00  .000E+00  .000E+00  .000E+00  .000E+00  .000E+00  .000E+00  .000E+00
  .000E+00  .000E+00  .000E+00  .000E+00  .000E+00  .000E+00  .000E+00  .000E+00
  .000E+00  .000E+00  .000E+00  .000E+00  .000E+00  .000E+00  .000E+00  .000E+00
  .000E+00  .000E+00  .000E+00  .000E+00  .000E+00  .000E+00  .000E+00  .000E+00
  .000E+00  .000E+00  .000E+00  .000E+00  .000E+00  .000E+00  .000E+00  .000E+00
  .000E+00  .000E+00  .000E+00  .000E+00  .000E+00  .000E+00  .000E+00  .000E+00
  .000E+00  .000E+00  .000E+00  .000E+00  .000E+00  .000E+00  .000E+00  .000E+00
  .000E+00  .000E+00  .000E+00  .000E+00  .000E+00  .000E+00  .000E+00  .000E+00
  .000E+00  .000E+00  .000E+00  .000E+00
Damping =  .05. Data of Sd,Sv,Sa,Pssv,ttSd,ttSv,ttSa :
  .156E-04  .173E-04  .192E-04  .214E-04  .234E-04  .257E-04  .354E-04  .528E-04
  .648E-04  .670E-04  .753E-04  .924E-04  .112E-03  .158E-03  .207E-03  .258E-03
  .227E-03  .293E-03  .366E-03  .514E-03  .568E-03  .607E-03  .570E-03  .638E-03
  .951E-03  .107E-02  .144E-02  .196E-02  .214E-02  .183E-02  .264E-02  .327E-02
  .311E-02  .291E-02  .247E-02  .222E-02  .209E-02  .208E-02  .199E-02  .194E-02
