Response and Fourier amplitude spectra (78 periods,  .04 -  6.0 sec)   for      
Corrected accelerogram   38695658.CI.OLI.--.HN      Chan  1:  90 Deg     from   
Uncorrected Accelerogram Data             Processed: 09/19/20, CGS  cioli--b    
Rcrd of Fri Sep 18, 2020 23:38:26.0 PDT               (Avol1 v2.0, 4/18 CSMIP)  
                                        (Origin:  To be determined)             
38695658.CI.OLI.--.HN                Start time:  9/19/20, 06:38:26.0 UTC (GPS) 
Station Id. OLI     33.945N, 117.924W    Q330    s/n 4169  (3 Chns of  3 at Sta)
La Habra, Harbor Blvd at county line     SCSN   Data: Acceleration              
Chan  1:  90 Deg                                                                
Rcrd of Fri Sep 18, 2020 23:38:26.0 PDT    Fri Sep 18, 2020 23:38:26.0 PDT      
Hypocenter:  To be determined.               ML:  To be determined.             
Instr Period =  .0050 sec,  Damping =  .707,  Sensitivity = 4.99 v/g  (Nominal) 
                        Record Length =301.000 sec.                             
                                     Uncor Max  =  -.061 g, at   29.630 sec.    
RMS accel of (uncor) record  =        .   Chn. metadata effective date:         
Accelerogram bandpass filtered with 3 dB pts at   .30 and 23.00 cyc/sec         
                 instrument- and base-line correcte                             
                                                                                
                                                                                
                                                                                
                                                                                
                                                                                
Rcrd of Fri Sep 18, 2020 23:38:26.0 PDT    Fri Sep 18, 2020 23:38:26.0 PDT      
                                                                                
38695658.CI.OLI.--.HN     La Habra, Harbor Blvd at county line    Chan  1:  90 D
eg                                                                              
38695658.CI.OLI.--.HN     La Habra, Harbor Blvd at county line    Chan  1:  90 D
eg                                                                              
Units for spectra are inches and sec, except Sa is in fraction of g.            
                                                                                
    1  100    1    3    3  100 -999    3    1    0  605 4169    050633   41    0
    6   38   26    8  263    9   19 2020   10    3   9035771   39   36   74 -999
35771 -999  100    6 -999 -999 -999 -999 -999 -999 -999 -999 -999 -999 -999 -999
 -999 -999 -999 -99915050    2 -999    0 -999   20 -999 -999    3    1 -99915050
    315050    4   78    1    3    5    0    0 -999    0 -999 -999    6 -999    2
    2    2    4 -999 -999 -999 -999 -999 -999 -999 -999    1 -999 -999 -999  111
    1    1 -999 -999
      .005      .707   357.710      .002     1.000  4994.462     -.061    29.630
   200.000     2.384      .477  -999.000    10.000  -999.000     4.000  -999.000
    20.000   -32.196      .000  -999.000  -999.000  -999.000  -999.000      .001
     -.001     -.002     2.000    15.000    33.945  -117.924      .002      .002
      .851     -.002     -.001   162.000  -999.000  -999.000  -999.000  -999.000
     1.000  -999.000    -8.000  -999.000  -999.000  -999.000  -999.000   120.000
     -.900     2.000     6.800   980.665      .020   301.000    31.831      .000
  -999.000    23.000  -999.000   301.000      .020      .300  -999.000  -999.000
    29.640   -58.312    29.460    -1.890    29.520     -.095      .000      .300
    23.000      .020      .020      .000      .040      .040  -999.000  -999.000
      .256      .220      .235      .111      .004      .001  -999.000  -999.000
  -999.000  -999.000  -999.000  -999.000  -999.000  -999.000  -999.000  -999.000
  -999.000  -999.000  -999.000  -999.000
      .050
      .040      .042      .044      .046      .048      .050      .055      .060
      .065      .070      .075      .080      .085      .090      .095      .100
      .110      .120      .130      .140      .150      .160      .170      .180
      .190      .200      .220      .240      .260      .280      .300      .320
      .340      .360      .380      .400      .420      .440      .460      .480
      .500      .550      .600      .650      .700      .750      .800      .850
      .900      .950     1.000     1.100     1.200     1.300     1.400     1.500
     1.600     1.700     1.800     1.900     2.000     2.200     2.400     2.600
     2.800     3.000     3.200     3.400     3.600     3.800     4.000     4.200
     4.400     4.600     4.800     5.000     5.500     6.000      .000      .000
      .000      .000      .000      .000      .000      .000      .000      .000
      .000      .000      .000      .000      .000      .000      .000      .000
      .000      .000      .000      .000
Fourier amplitude spectra in in/sec.
  .000E+00  .000E+00  .000E+00  .000E+00  .000E+00  .000E+00  .000E+00  .000E+00
  .000E+00  .000E+00  .000E+00  .000E+00  .000E+00  .000E+00  .000E+00  .000E+00
  .000E+00  .000E+00  .000E+00  .000E+00  .000E+00  .000E+00  .000E+00  .000E+00
  .000E+00  .000E+00  .000E+00  .000E+00  .000E+00  .000E+00  .000E+00  .000E+00
  .000E+00  .000E+00  .000E+00  .000E+00  .000E+00  .000E+00  .000E+00  .000E+00
  .000E+00  .000E+00  .000E+00  .000E+00  .000E+00  .000E+00  .000E+00  .000E+00
  .000E+00  .000E+00  .000E+00  .000E+00  .000E+00  .000E+00  .000E+00  .000E+00
  .000E+00  .000E+00  .000E+00  .000E+00  .000E+00  .000E+00  .000E+00  .000E+00
  .000E+00  .000E+00  .000E+00  .000E+00  .000E+00  .000E+00  .000E+00  .000E+00
  .000E+00  .000E+00  .000E+00  .000E+00  .000E+00  .000E+00  .000E+00  .000E+00
  .000E+00  .000E+00  .000E+00  .000E+00  .000E+00  .000E+00  .000E+00  .000E+00
  .000E+00  .000E+00  .000E+00  .000E+00  .000E+00  .000E+00  .000E+00  .000E+00
  .000E+00  .000E+00  .000E+00  .000E+00
Damping =  .05. Data of Sd,Sv,Sa,Pssv,ttSd,ttSv,ttSa :
  .100E-02  .110E-02  .120E-02  .137E-02  .165E-02  .195E-02  .238E-02  .280E-02
  .423E-02  .410E-02  .471E-02  .597E-02  .708E-02  .763E-02  .889E-02  .111E-01
  .130E-01  .153E-01  .201E-01  .268E-01  .315E-01  .358E-01  .454E-01  .566E-01
  .713E-01  .948E-01  .122E+00  .113E+00  .925E-01  .826E-01  .100E+00  .108E+00
  .972E-01  .117E+00  .118E+00  .106E+00  .108E+00  .108E+00  .129E+00  .128E+00
  .108E+00  .821E-01  .638E-01  .607E-01  .539E-01  .486E-01  .431E-01  .395E-01
  .398E-01  .384E-01  .382E-01  .395E-01  .366E-01  .336E-01  .351E-01  .367E-01
  .421E-01  .459E-01  .461E-01  .432E-01  .426E-01  .435E-01  .438E-01  .440E-01
  .439E-01  .436E-01  .432E-01  .427E-01  .422E-01  .416E-01  .411E-01  .406E-01
  .402E-01  .398E-01  .394E-01  .391E-01  .385E-01  .381E-01  .000E+00  .000E+00
  .000E+00  .000E+00  .000E+00  .000E+00  .000E+00  .000E+00  .000E+00  .000E+00
  .000E+00  .000E+00  .000E+00  .000E+00  .000E+00  .000E+00  .000E+00  .000E+00
  .000E+00  .000E+00  .000E+00  .000E+00
  .436E-01  .490E-01  .582E-01  .736E-01  .881E-01  .975E-01  .123E+00  .184E+00
  .229E+00  .251E+00  .302E+00  .349E+00  .342E+00  .385E+00  .441E+00  .572E+00
  .575E+00  .585E+00  .752E+00  .964E+00  .117E+01  .115E+01  .143E+01  .175E+01
  .216E+01  .291E+01  .348E+01  .307E+01  .241E+01  .205E+01  .206E+01  .219E+01
  .206E+01  .209E+01  .194E+01  .180E+01  .183E+01  .188E+01  .194E+01  .194E+01
  .186E+01  .122E+01  .106E+01  .975E+00  .957E+00  .934E+00  .901E+00  .864E+00
  .832E+00  .806E+00  .785E+00  .755E+00  .739E+00  .741E+00  .742E+00  .740E+00
  .737E+00  .732E+00  .727E+00  .723E+00  .725E+00  .729E+00  .732E+00  .734E+00
  .735E+00  .736E+00  .737E+00  .737E+00  .737E+00  .737E+00  .737E+00  .737E+00
  .736E+00  .736E+00  .735E+00  .735E+00  .734E+00  .733E+00  .000E+00  .000E+00
  .000E+00  .000E+00  .000E+00  .000E+00  .000E+00  .000E+00  .000E+00  .000E+00
  .000E+00  .000E+00  .000E+00  .000E+00  .000E+00  .000E+00  .000E+00  .000E+00
  .000E+00  .000E+00  .000E+00  .000E+00
  .639E-01  .640E-01  .636E-01  .659E-01  .729E-01  .796E-01  .803E-01  .794E-01
  .102E+00  .854E-01  .862E-01  .956E-01  .101E+00  .961E-01  .100E+00  .113E+00
  .111E+00  .109E+00  .122E+00  .140E+00  .144E+00  .144E+00  .161E+00  .179E+00
  .202E+00  .247E+00  .256E+00  .205E+00  .138E+00  .109E+00  .115E+00  .108E+00
  .861E-01  .931E-01  .831E-01  .681E-01  .636E-01  .579E-01  .624E-01  .568E-01
  .448E-01  .280E-01  .181E-01  .147E-01  .113E-01  .893E-02  .700E-02  .580E-02
  .520E-02  .454E-02  .409E-02  .350E-02  .275E-02  .226E-02  .205E-02  .189E-02
  .180E-02  .174E-02  .157E-02  .139E-02  .128E-02  .110E-02  .962E-03  .851E-03
  .758E-03  .680E-03  .614E-03  .557E-03  .508E-03  .467E-03  .431E-03  .399E-03
  .372E-03  .348E-03  .327E-03  .308E-03  .270E-03  .239E-03  .000E+00  .000E+00
  .000E+00  .000E+00  .000E+00  .000E+00  .000E+00  .000E+00  .000E+00  .000E+00
  .000E+00  .000E+00  .000E+00  .000E+00  .000E+00  .000E+00  .000E+00  .000E+00
  .000E+00  .000E+00  .000E+00  .000E+00
  .157E+00  .165E+00  .172E+00  .187E+00  .216E+00  .245E+00  .272E+00  .294E+00
  .409E+00  .368E+00  .395E+00  .469E+00  .523E+00  .533E+00  .588E+00  .699E+00
  .743E+00  .799E+00  .972E+00  .120E+01  .132E+01  .141E+01  .168E+01  .197E+01
  .236E+01  .298E+01  .348E+01  .297E+01  .224E+01  .185E+01  .210E+01  .212E+01
  .180E+01  .205E+01  .195E+01  .166E+01  .161E+01  .155E+01  .176E+01  .167E+01
  .135E+01  .938E+00  .668E+00  .587E+00  .484E+00  .407E+00  .339E+00  .292E+00
  .278E+00  .254E+00  .240E+00  .226E+00  .192E+00  .162E+00  .158E+00  .154E+00
  .165E+00  .170E+00  .161E+00  .143E+00  .134E+00  .124E+00  .115E+00  .106E+00
  .985E-01  .914E-01  .848E-01  .789E-01  .736E-01  .688E-01  .646E-01  .607E-01
  .573E-01  .543E-01  .516E-01  .491E-01  .440E-01  .399E-01  .000E+00  .000E+00
  .000E+00  .000E+00  .000E+00  .000E+00  .000E+00  .000E+00  .000E+00  .000E+00
  .000E+00  .000E+00  .000E+00  .000E+00  .000E+00  .000E+00  .000E+00  .000E+00
  .000E+00  .000E+00  .000E+00  .000E+00
  .296E+02  .296E+02  .296E+02  .296E+02  .296E+02  .296E+02  .296E+02  .296E+02
  .296E+02  .296E+02  .296E+02  .296E+02  .296E+02  .296E+02  .296E+02  .297E+02
  .297E+02  .294E+02  .297E+02  .297E+02  .297E+02  .294E+02  .294E+02  .295E+02
  .295E+02  .297E+02  .300E+02  .299E+02  .297E+02  .297E+02  .315E+02  .316E+02
  .321E+02  .320E+02  .320E+02  .324E+02  .324E+02  .315E+02  .313E+02  .313E+02
  .311E+02  .323E+02  .323E+02  .319E+02  .295E+02  .295E+02  .295E+02  .319E+02
  .319E+02  .319E+02  .319E+02  .319E+02  .319E+02  .295E+02  .295E+02  .295E+02
  .319E+02  .319E+02  .319E+02  .319E+02  .295E+02  .295E+02  .295E+02  .295E+02
  .295E+02  .295E+02  .295E+02  .295E+02  .295E+02  .295E+02  .295E+02  .295E+02
  .295E+02  .295E+02  .295E+02  .295E+02  .295E+02  .295E+02  .000E+00  .000E+00
  .000E+00  .000E+00  .000E+00  .000E+00  .000E+00  .000E+00  .000E+00  .000E+00
  .000E+00  .000E+00  .000E+00  .000E+00  .000E+00  .000E+00  .000E+00  .000E+00
  .000E+00  .000E+00  .000E+00  .000E+00
  .296E+02  .296E+02  .296E+02  .296E+02  .296E+02  .296E+02  .292E+02  .293E+02
  .299E+02  .299E+02  .299E+02  .299E+02  .299E+02  .297E+02  .297E+02  .297E+02
  .299E+02  .293E+02  .297E+02  .298E+02  .298E+02  .293E+02  .294E+02  .295E+02
  .298E+02  .298E+02  .299E+02  .300E+02  .298E+02  .296E+02  .316E+02  .315E+02
  .297E+02  .321E+02  .319E+02  .325E+02  .319E+02  .314E+02  .314E+02  .312E+02
  .312E+02  .296E+02  .296E+02  .294E+02  .294E+02  .294E+02  .294E+02  .294E+02
  .294E+02  .294E+02  .294E+02  .294E+02  .296E+02  .296E+02  .296E+02  .296E+02
  .296E+02  .296E+02  .296E+02  .294E+02  .294E+02  .294E+02  .294E+02  .294E+02
  .294E+02  .294E+02  .294E+02  .294E+02  .294E+02  .294E+02  .294E+02  .294E+02
  .294E+02  .294E+02  .294E+02  .294E+02  .294E+02  .294E+02  .000E+00  .000E+00
  .000E+00  .000E+00  .000E+00  .000E+00  .000E+00  .000E+00  .000E+00  .000E+00
  .000E+00  .000E+00  .000E+00  .000E+00  .000E+00  .000E+00  .000E+00  .000E+00
  .000E+00  .000E+00  .000E+00  .000E+00
  .296E+02  .296E+02  .296E+02  .296E+02  .296E+02  .296E+02  .296E+02  .296E+02
  .296E+02  .296E+02  .296E+02  .296E+02  .296E+02  .296E+02  .296E+02  .297E+02
  .297E+02  .294E+02  .297E+02  .297E+02  .297E+02  .294E+02  .294E+02  .295E+02
  .295E+02  .297E+02  .299E+02  .300E+02  .297E+02  .297E+02  .315E+02  .316E+02
  .319E+02  .320E+02  .320E+02  .324E+02  .324E+02  .315E+02  .313E+02  .313E+02
  .311E+02  .323E+02  .295E+02  .319E+02  .295E+02  .295E+02  .295E+02  .293E+02
  .319E+02  .319E+02  .319E+02  .319E+02  .319E+02  .295E+02  .295E+02  .295E+02
  .319E+02  .319E+02  .319E+02  .295E+02  .295E+02  .295E+02  .295E+02  .295E+02
  .295E+02  .295E+02  .295E+02  .295E+02  .295E+02  .295E+02  .295E+02  .295E+02
  .295E+02  .295E+02  .295E+02  .295E+02  .295E+02  .295E+02  .000E+00  .000E+00
  .000E+00  .000E+00  .000E+00  .000E+00  .000E+00  .000E+00  .000E+00  .000E+00
  .000E+00  .000E+00  .000E+00  .000E+00  .000E+00  .000E+00  .000E+00  .000E+00
  .000E+00  .000E+00  .000E+00  .000E+00
/&   ----------  End of spectral data for channel  1  ----------
Response and Fourier amplitude spectra (78 periods,  .04 -  6.0 sec)   for      
Corrected accelerogram   38695658.CI.OLI.--.HN      Chan  2: 360 Deg     from   
Uncorrected Accelerogram Data             Processed: 09/19/20, CGS  cioli--b    
Rcrd of Fri Sep 18, 2020 23:38:26.0 PDT               (Avol1 v2.0, 4/18 CSMIP)  
                                        (Origin:  To be determined)             
38695658.CI.OLI.--.HN                Start time:  9/19/20, 06:38:26.0 UTC (GPS) 
Station Id. OLI     33.945N, 117.924W    Q330    s/n 4169  (3 Chns of  3 at Sta)
La Habra, Harbor Blvd at county line     SCSN   Data: Acceleration              
Chan  2: 360 Deg                                                                
Rcrd of Fri Sep 18, 2020 23:38:26.0 PDT    Fri Sep 18, 2020 23:38:26.0 PDT      
Hypocenter:  To be determined.               ML:  To be determined.             
Instr Period =  .0050 sec,  Damping =  .707,  Sensitivity = 5.00 v/g  (Nominal) 
                        Record Length =301.000 sec.                             
                                     Uncor Max  =  -.089 g, at   29.320 sec.    
RMS accel of (uncor) record  =        .   Chn. metadata effective date:         
Accelerogram bandpass filtered with 3 dB pts at   .30 and 23.00 cyc/sec         
                 instrument- and base-line correcte                             
                                                                                
                                                                                
                                                                                
                                                                                
                                                                                
Rcrd of Fri Sep 18, 2020 23:38:26.0 PDT    Fri Sep 18, 2020 23:38:26.0 PDT      
                                                                                
38695658.CI.OLI.--.HN     La Habra, Harbor Blvd at county line    Chan  2: 360 D
eg                                                                              
38695658.CI.OLI.--.HN     La Habra, Harbor Blvd at county line    Chan  2: 360 D
eg                                                                              
Units for spectra are inches and sec, except Sa is in fraction of g.            
                                                                                
    2  100    2    3    3  100 -999    3    1    0  605 4169    050633   41    0
    6   38   26    8  263    9   19 2020   10    3  36035673   39   36   74 -999
35673 -999  100    6 -999 -999 -999 -999 -999 -999 -999 -999 -999 -999 -999 -999
 -999 -999 -999 -99915050    2 -999    0 -999   20 -999 -999    3    1 -99915050
    315050    4   78    1    3    5    0    0 -999    0 -999 -999    6 -999    2
    2    2    4 -999 -999 -999 -999 -999 -999 -999 -999    1 -999 -999 -999  111
    1    1 -999 -999
      .005      .707   356.730      .003     1.000  4997.654     -.089    29.320
   200.000     2.384      .477  -999.000    10.000  -999.000     4.000  -999.000
    20.000    15.572      .000  -999.000  -999.000  -999.000  -999.000      .002
     -.001     -.003     2.000    15.000    33.945  -117.924      .003      .002
      .969     -.004     -.003   162.000  -999.000  -999.000  -999.000  -999.000
     1.000  -999.000  -999.000  -999.000  -999.000  -999.000  -999.000   120.000
     -.900     2.000     6.800   980.665      .020   301.000    31.831      .000
  -999.000    23.000  -999.000   301.000      .020      .300  -999.000  -999.000
    29.320   -86.226    29.380    -3.507    29.320      .176      .000      .300
    23.000      .020      .020      .000      .600      .044  -999.000  -999.000
      .306      .220      .278      .145      .010      .001  -999.000  -999.000
  -999.000  -999.000  -999.000  -999.000  -999.000  -999.000  -999.000  -999.000
  -999.000  -999.000  -999.000  -999.000
      .050
      .040      .042      .044      .046      .048      .050      .055      .060
      .065      .070      .075      .080      .085      .090      .095      .100
      .110      .120      .130      .140      .150      .160      .170      .180
      .190      .200      .220      .240      .260      .280      .300      .320
      .340      .360      .380      .400      .420      .440      .460      .480
      .500      .550      .600      .650      .700      .750      .800      .850
      .900      .950     1.000     1.100     1.200     1.300     1.400     1.500
     1.600     1.700     1.800     1.900     2.000     2.200     2.400     2.600
     2.800     3.000     3.200     3.400     3.600     3.800     4.000     4.200
     4.400     4.600     4.800     5.000     5.500     6.000      .000      .000
      .000      .000      .000      .000      .000      .000      .000      .000
      .000      .000      .000      .000      .000      .000      .000      .000
      .000      .000      .000      .000
Fourier amplitude spectra in in/sec.
  .000E+00  .000E+00  .000E+00  .000E+00  .000E+00  .000E+00  .000E+00  .000E+00
  .000E+00  .000E+00  .000E+00  .000E+00  .000E+00  .000E+00  .000E+00  .000E+00
  .000E+00  .000E+00  .000E+00  .000E+00  .000E+00  .000E+00  .000E+00  .000E+00
  .000E+00  .000E+00  .000E+00  .000E+00  .000E+00  .000E+00  .000E+00  .000E+00
  .000E+00  .000E+00  .000E+00  .000E+00  .000E+00  .000E+00  .000E+00  .000E+00
  .000E+00  .000E+00  .000E+00  .000E+00  .000E+00  .000E+00  .000E+00  .000E+00
  .000E+00  .000E+00  .000E+00  .000E+00  .000E+00  .000E+00  .000E+00  .000E+00
  .000E+00  .000E+00  .000E+00  .000E+00  .000E+00  .000E+00  .000E+00  .000E+00
  .000E+00  .000E+00  .000E+00  .000E+00  .000E+00  .000E+00  .000E+00  .000E+00
  .000E+00  .000E+00  .000E+00  .000E+00  .000E+00  .000E+00  .000E+00  .000E+00
  .000E+00  .000E+00  .000E+00  .000E+00  .000E+00  .000E+00  .000E+00  .000E+00
  .000E+00  .000E+00  .000E+00  .000E+00  .000E+00  .000E+00  .000E+00  .000E+00
  .000E+00  .000E+00  .000E+00  .000E+00
Damping =  .05. Data of Sd,Sv,Sa,Pssv,ttSd,ttSv,ttSa :
  .143E-02  .161E-02  .182E-02  .202E-02  .231E-02  .262E-02  .340E-02  .418E-02
  .550E-02  .711E-02  .800E-02  .806E-02  .888E-02  .980E-02  .114E-01  .136E-01
  .178E-01  .195E-01  .259E-01  .388E-01  .468E-01  .566E-01  .637E-01  .762E-01
  .908E-01  .104E+00  .145E+00  .142E+00  .134E+00  .131E+00  .124E+00  .123E+00
  .117E+00  .116E+00  .129E+00  .146E+00  .151E+00  .147E+00  .147E+00  .154E+00
