Response and Fourier amplitude spectra (78 periods,  .04 -  6.0 sec)   for      
Corrected accelerogram   38695658.CI.PASC.00.H      Chan  1:  90 Deg     from   
Uncorrected Accelerogram Data             Processed: 09/19/20, CGS  cipasc-k    
Rcrd of Fri Sep 18, 2020 23:38:24.0 PDT               (Avol1 v2.0, 4/18 CSMIP)  
                                        (Origin:  To be determined)             
38695658.CI.PASC.00.H                Start time:  9/19/20, 06:38:24.0 UTC (GPS) 
Station Id. PASC    34.171N, 118.185W    ObsMMS  s/n 1839  (6 Chns of  3 at Sta)
Art Center College of Design (GSN-affili SCSN   Data: Acceleration              
Chan  1:  90 Deg                                                                
Rcrd of Fri Sep 18, 2020 23:38:24.0 PDT    Fri Sep 18, 2020 23:38:24.0 PDT      
Hypocenter:  To be determined.               ML:  To be determined.             
Instr Period =  .0050 sec,  Damping =  .707,  Sensitivity = 5.24 v/g  (Nominal) 
                        Record Length =301.000 sec.                             
                                     Uncor Max  =  -.019 g, at   30.160 sec.    
RMS accel of (uncor) record  =        .   Chn. metadata effective date:         
Accelerogram bandpass filtered with 3 dB pts at   .30 and 23.00 cyc/sec         
                 instrument- and base-line correcte                             
                                                                                
                                                                                
                                                                                
                                                                                
                                                                                
Rcrd of Fri Sep 18, 2020 23:38:24.0 PDT    Fri Sep 18, 2020 23:38:24.0 PDT      
                                                                                
38695658.CI.PASC.00.H     Art Center College of Design (GSN-affili SCSChan  1:  
90 Deg                                                                          
38695658.CI.PASC.00.H     Art Center College of Design (GSN-affili SCSChan  1:  
90 Deg                                                                          
Units for spectra are inches and sec, except Sa is in fraction of g.            
                                                                                
    1  100    1    3    3  100 -999    3    1    0   15 1839    0    0   41    0
    6   38   24    8  263    9   19 2020   10    3   9036031   39   40   74 -999
36031 -999  100    6 -999 -999 -999 -999 -999 -999 -999 -999 -999 -999 -999 -999
 -999 -999 -999 -99915050    2 -999    0 -999    0 -999 -999    3    1 -99915050
    315050    4   78    1    6    5    0    0 -999    0 -999 -999    6 -999    2
    2    2    4 -999 -999 -999 -999 -999 -999 -999 -999    1 -999 -999 -999  111
    1    1 -999 -999
      .005      .707   360.310      .001     1.000  5235.808     -.019    30.160
   200.000     2.384      .455  -999.000    10.000  -999.000     4.000  -999.000
    20.000   -16.340      .000  -999.000  -999.000  -999.000  -999.000      .000
      .000      .000     2.000    15.000    34.171  -118.185      .000      .001
     1.196      .000      .000   341.000  -999.000  -999.000  -999.000  -999.000
     1.000  -999.000    -8.000  -999.000  -999.000  -999.000  -999.000   120.000
     -.900     2.000     6.800   980.665      .020   301.000    31.831      .000
  -999.000    23.000  -999.000   301.000      .020      .300  -999.000  -999.000
    30.160   -18.377    30.020     -.487    29.740      .028      .000      .300
    23.000      .020      .020      .000      .020      .008  -999.000  -999.000
      .065      .110      .047      .031      .002      .000  -999.000  -999.000
  -999.000  -999.000  -999.000  -999.000  -999.000  -999.000  -999.000  -999.000
  -999.000  -999.000  -999.000  -999.000
      .050
      .040      .042      .044      .046      .048      .050      .055      .060
      .065      .070      .075      .080      .085      .090      .095      .100
      .110      .120      .130      .140      .150      .160      .170      .180
      .190      .200      .220      .240      .260      .280      .300      .320
      .340      .360      .380      .400      .420      .440      .460      .480
      .500      .550      .600      .650      .700      .750      .800      .850
      .900      .950     1.000     1.100     1.200     1.300     1.400     1.500
     1.600     1.700     1.800     1.900     2.000     2.200     2.400     2.600
     2.800     3.000     3.200     3.400     3.600     3.800     4.000     4.200
     4.400     4.600     4.800     5.000     5.500     6.000      .000      .000
      .000      .000      .000      .000      .000      .000      .000      .000
      .000      .000      .000      .000      .000      .000      .000      .000
      .000      .000      .000      .000
Fourier amplitude spectra in in/sec.
  .000E+00  .000E+00  .000E+00  .000E+00  .000E+00  .000E+00  .000E+00  .000E+00
  .000E+00  .000E+00  .000E+00  .000E+00  .000E+00  .000E+00  .000E+00  .000E+00
  .000E+00  .000E+00  .000E+00  .000E+00  .000E+00  .000E+00  .000E+00  .000E+00
  .000E+00  .000E+00  .000E+00  .000E+00  .000E+00  .000E+00  .000E+00  .000E+00
  .000E+00  .000E+00  .000E+00  .000E+00  .000E+00  .000E+00  .000E+00  .000E+00
  .000E+00  .000E+00  .000E+00  .000E+00  .000E+00  .000E+00  .000E+00  .000E+00
  .000E+00  .000E+00  .000E+00  .000E+00  .000E+00  .000E+00  .000E+00  .000E+00
  .000E+00  .000E+00  .000E+00  .000E+00  .000E+00  .000E+00  .000E+00  .000E+00
  .000E+00  .000E+00  .000E+00  .000E+00  .000E+00  .000E+00  .000E+00  .000E+00
  .000E+00  .000E+00  .000E+00  .000E+00  .000E+00  .000E+00  .000E+00  .000E+00
  .000E+00  .000E+00  .000E+00  .000E+00  .000E+00  .000E+00  .000E+00  .000E+00
  .000E+00  .000E+00  .000E+00  .000E+00  .000E+00  .000E+00  .000E+00  .000E+00
  .000E+00  .000E+00  .000E+00  .000E+00
Damping =  .05. Data of Sd,Sv,Sa,Pssv,ttSd,ttSv,ttSa :
  .336E-03  .385E-03  .446E-03  .516E-03  .601E-03  .690E-03  .787E-03  .999E-03
  .127E-02  .192E-02  .222E-02  .269E-02  .334E-02  .414E-02  .512E-02  .629E-02
  .767E-02  .828E-02  .758E-02  .861E-02  .105E-01  .117E-01  .128E-01  .140E-01
  .160E-01  .172E-01  .233E-01  .289E-01  .304E-01  .270E-01  .261E-01  .284E-01
  .249E-01  .196E-01  .186E-01  .189E-01  .187E-01  .184E-01  .198E-01  .211E-01
  .220E-01  .254E-01  .252E-01  .253E-01  .258E-01  .247E-01  .231E-01  .231E-01
  .241E-01  .242E-01  .240E-01  .223E-01  .207E-01  .190E-01  .173E-01  .161E-01
  .159E-01  .156E-01  .154E-01  .151E-01  .149E-01  .147E-01  .144E-01  .141E-01
  .137E-01  .133E-01  .129E-01  .126E-01  .123E-01  .120E-01  .118E-01  .117E-01
  .116E-01  .115E-01  .114E-01  .113E-01  .112E-01  .112E-01  .000E+00  .000E+00
  .000E+00  .000E+00  .000E+00  .000E+00  .000E+00  .000E+00  .000E+00  .000E+00
  .000E+00  .000E+00  .000E+00  .000E+00  .000E+00  .000E+00  .000E+00  .000E+00
  .000E+00  .000E+00  .000E+00  .000E+00
  .239E-01  .261E-01  .324E-01  .418E-01  .566E-01  .633E-01  .617E-01  .877E-01
  .108E+00  .128E+00  .138E+00  .164E+00  .212E+00  .253E+00  .315E+00  .378E+00
  .419E+00  .424E+00  .358E+00  .402E+00  .432E+00  .469E+00  .525E+00  .547E+00
  .558E+00  .603E+00  .764E+00  .701E+00  .740E+00  .751E+00  .643E+00  .563E+00
  .501E+00  .465E+00  .438E+00  .412E+00  .388E+00  .363E+00  .348E+00  .358E+00
  .351E+00  .341E+00  .348E+00  .314E+00  .300E+00  .297E+00  .303E+00  .302E+00
  .294E+00  .279E+00  .261E+00  .238E+00  .238E+00  .237E+00  .234E+00  .230E+00
  .226E+00  .221E+00  .217E+00  .214E+00  .211E+00  .206E+00  .202E+00  .199E+00
  .196E+00  .194E+00  .192E+00  .191E+00  .190E+00  .190E+00  .189E+00  .189E+00
  .189E+00  .188E+00  .188E+00  .188E+00  .188E+00  .188E+00  .000E+00  .000E+00
  .000E+00  .000E+00  .000E+00  .000E+00  .000E+00  .000E+00  .000E+00  .000E+00
  .000E+00  .000E+00  .000E+00  .000E+00  .000E+00  .000E+00  .000E+00  .000E+00
  .000E+00  .000E+00  .000E+00  .000E+00
  .216E-01  .222E-01  .236E-01  .249E-01  .267E-01  .281E-01  .266E-01  .286E-01
  .308E-01  .405E-01  .402E-01  .432E-01  .480E-01  .521E-01  .587E-01  .638E-01
  .653E-01  .597E-01  .467E-01  .448E-01  .478E-01  .473E-01  .456E-01  .445E-01
  .459E-01  .457E-01  .498E-01  .522E-01  .460E-01  .348E-01  .295E-01  .283E-01
  .218E-01  .157E-01  .131E-01  .121E-01  .110E-01  .100E-01  .962E-02  .948E-02
  .915E-02  .874E-02  .723E-02  .623E-02  .544E-02  .452E-02  .374E-02  .331E-02
  .312E-02  .286E-02  .255E-02  .198E-02  .155E-02  .123E-02  .979E-03  .779E-03
  .663E-03  .580E-03  .511E-03  .454E-03  .407E-03  .334E-03  .280E-03  .238E-03
  .207E-03  .185E-03  .165E-03  .148E-03  .134E-03  .123E-03  .113E-03  .104E-03
  .970E-04  .906E-04  .851E-04  .802E-04  .701E-04  .623E-04  .000E+00  .000E+00
  .000E+00  .000E+00  .000E+00  .000E+00  .000E+00  .000E+00  .000E+00  .000E+00
  .000E+00  .000E+00  .000E+00  .000E+00  .000E+00  .000E+00  .000E+00  .000E+00
  .000E+00  .000E+00  .000E+00  .000E+00
  .527E-01  .577E-01  .636E-01  .705E-01  .786E-01  .867E-01  .900E-01  .105E+00
  .123E+00  .173E+00  .186E+00  .212E+00  .247E+00  .289E+00  .339E+00  .395E+00
  .438E+00  .433E+00  .367E+00  .387E+00  .438E+00  .459E+00  .472E+00  .490E+00
  .531E+00  .540E+00  .665E+00  .756E+00  .735E+00  .605E+00  .547E+00  .559E+00
  .460E+00  .342E+00  .307E+00  .296E+00  .279E+00  .262E+00  .271E+00  .276E+00
  .277E+00  .291E+00  .264E+00  .244E+00  .232E+00  .207E+00  .182E+00  .170E+00
  .168E+00  .160E+00  .151E+00  .128E+00  .108E+00  .921E-01  .775E-01  .674E-01
  .625E-01  .578E-01  .536E-01  .500E-01  .469E-01  .419E-01  .377E-01  .341E-01
  .308E-01  .279E-01  .254E-01  .233E-01  .215E-01  .199E-01  .186E-01  .175E-01
  .165E-01  .157E-01  .149E-01  .142E-01  .128E-01  .117E-01  .000E+00  .000E+00
  .000E+00  .000E+00  .000E+00  .000E+00  .000E+00  .000E+00  .000E+00  .000E+00
  .000E+00  .000E+00  .000E+00  .000E+00  .000E+00  .000E+00  .000E+00  .000E+00
  .000E+00  .000E+00  .000E+00  .000E+00
  .301E+02  .302E+02  .302E+02  .302E+02  .302E+02  .302E+02  .302E+02  .302E+02
  .306E+02  .302E+02  .302E+02  .302E+02  .302E+02  .302E+02  .302E+02  .303E+02
  .303E+02  .303E+02  .303E+02  .307E+02  .307E+02  .303E+02  .303E+02  .302E+02
  .302E+02  .302E+02  .301E+02  .301E+02  .301E+02  .302E+02  .305E+02  .305E+02
  .306E+02  .299E+02  .298E+02  .298E+02  .298E+02  .298E+02  .316E+02  .314E+02
  .304E+02  .305E+02  .308E+02  .303E+02  .303E+02  .303E+02  .303E+02  .301E+02
  .301E+02  .301E+02  .301E+02  .301E+02  .301E+02  .301E+02  .301E+02  .297E+02
  .297E+02  .297E+02  .297E+02  .297E+02  .297E+02  .297E+02  .297E+02  .297E+02
  .297E+02  .297E+02  .297E+02  .297E+02  .297E+02  .297E+02  .297E+02  .297E+02
  .297E+02  .297E+02  .297E+02  .297E+02  .297E+02  .297E+02  .000E+00  .000E+00
  .000E+00  .000E+00  .000E+00  .000E+00  .000E+00  .000E+00  .000E+00  .000E+00
  .000E+00  .000E+00  .000E+00  .000E+00  .000E+00  .000E+00  .000E+00  .000E+00
  .000E+00  .000E+00  .000E+00  .000E+00
  .301E+02  .302E+02  .302E+02  .302E+02  .302E+02  .302E+02  .304E+02  .304E+02
  .304E+02  .302E+02  .302E+02  .302E+02  .302E+02  .302E+02  .302E+02  .302E+02
  .303E+02  .303E+02  .303E+02  .307E+02  .307E+02  .303E+02  .302E+02  .302E+02
  .302E+02  .301E+02  .302E+02  .302E+02  .301E+02  .301E+02  .301E+02  .306E+02
  .305E+02  .299E+02  .299E+02  .299E+02  .299E+02  .299E+02  .305E+02  .305E+02
  .305E+02  .304E+02  .304E+02  .304E+02  .301E+02  .302E+02  .302E+02  .302E+02
  .302E+02  .302E+02  .302E+02  .300E+02  .300E+02  .300E+02  .300E+02  .300E+02
  .300E+02  .300E+02  .300E+02  .300E+02  .300E+02  .300E+02  .300E+02  .300E+02
  .300E+02  .300E+02  .300E+02  .300E+02  .300E+02  .300E+02  .300E+02  .300E+02
  .300E+02  .300E+02  .300E+02  .300E+02  .300E+02  .300E+02  .000E+00  .000E+00
  .000E+00  .000E+00  .000E+00  .000E+00  .000E+00  .000E+00  .000E+00  .000E+00
  .000E+00  .000E+00  .000E+00  .000E+00  .000E+00  .000E+00  .000E+00  .000E+00
  .000E+00  .000E+00  .000E+00  .000E+00
  .301E+02  .302E+02  .302E+02  .302E+02  .301E+02  .302E+02  .302E+02  .302E+02
  .306E+02  .302E+02  .302E+02  .302E+02  .302E+02  .302E+02  .302E+02  .303E+02
  .303E+02  .303E+02  .303E+02  .307E+02  .307E+02  .303E+02  .303E+02  .302E+02
  .302E+02  .302E+02  .301E+02  .301E+02  .301E+02  .302E+02  .305E+02  .305E+02
  .306E+02  .299E+02  .298E+02  .298E+02  .298E+02  .298E+02  .316E+02  .314E+02
  .304E+02  .305E+02  .308E+02  .303E+02  .303E+02  .303E+02  .303E+02  .301E+02
  .301E+02  .301E+02  .301E+02  .301E+02  .301E+02  .301E+02  .301E+02  .301E+02
  .297E+02  .297E+02  .297E+02  .297E+02  .297E+02  .297E+02  .297E+02  .297E+02
  .299E+02  .299E+02  .299E+02  .299E+02  .299E+02  .299E+02  .299E+02  .299E+02
  .299E+02  .299E+02  .299E+02  .299E+02  .299E+02  .299E+02  .000E+00  .000E+00
  .000E+00  .000E+00  .000E+00  .000E+00  .000E+00  .000E+00  .000E+00  .000E+00
  .000E+00  .000E+00  .000E+00  .000E+00  .000E+00  .000E+00  .000E+00  .000E+00
  .000E+00  .000E+00  .000E+00  .000E+00
/&   ----------  End of spectral data for channel  1  ----------
Response and Fourier amplitude spectra (78 periods,  .04 -  6.0 sec)   for      
Corrected accelerogram   38695658.CI.PASC.00.H      Chan  2: 360 Deg     from   
Uncorrected Accelerogram Data             Processed: 09/19/20, CGS  cipasc-k    
Rcrd of Fri Sep 18, 2020 23:38:24.0 PDT               (Avol1 v2.0, 4/18 CSMIP)  
                                        (Origin:  To be determined)             
38695658.CI.PASC.00.H                Start time:  9/19/20, 06:38:24.0 UTC (GPS) 
Station Id. PASC    34.171N, 118.185W    ObsMMS  s/n 1839  (6 Chns of  3 at Sta)
Art Center College of Design (GSN-affili SCSN   Data: Acceleration              
Chan  2: 360 Deg                                                                
Rcrd of Fri Sep 18, 2020 23:38:24.0 PDT    Fri Sep 18, 2020 23:38:24.0 PDT      
Hypocenter:  To be determined.               ML:  To be determined.             
Instr Period =  .0050 sec,  Damping =  .707,  Sensitivity = 5.15 v/g  (Nominal) 
                        Record Length =301.000 sec.                             
                                     Uncor Max  =  -.034 g, at   30.330 sec.    
RMS accel of (uncor) record  =        .   Chn. metadata effective date:         
Accelerogram bandpass filtered with 3 dB pts at   .30 and 23.00 cyc/sec         
                 instrument- and base-line correcte                             
                                                                                
                                                                                
                                                                                
                                                                                
                                                                                
Rcrd of Fri Sep 18, 2020 23:38:24.0 PDT    Fri Sep 18, 2020 23:38:24.0 PDT      
                                                                                
38695658.CI.PASC.00.H     Art Center College of Design (GSN-affili SCSChan  2: 3
60 Deg                                                                          
38695658.CI.PASC.00.H     Art Center College of Design (GSN-affili SCSChan  2: 3
60 Deg                                                                          
Units for spectra are inches and sec, except Sa is in fraction of g.            
                                                                                
    2  100    2    3    3  100 -999    3    1    0   15 1839    0    0   41    0
    6   38   24    8  263    9   19 2020   10    3  36035887   39   40   74 -999
35887 -999  100    6 -999 -999 -999 -999 -999 -999 -999 -999 -999 -999 -999 -999
 -999 -999 -999 -99915050    2 -999    0 -999    0 -999 -999    3    1 -99915050
    315050    4   78    1    6    5    0    0 -999    0 -999 -999    6 -999    2
    2    2    4 -999 -999 -999 -999 -999 -999 -999 -999    1 -999 -999 -999  111
    1    1 -999 -999
      .005      .707   358.870      .001     1.000  5153.033     -.034    30.330
   200.000     2.384      .463  -999.000    10.000  -999.000     4.000  -999.000
    20.000     -.027      .000  -999.000  -999.000  -999.000  -999.000     -.003
      .000      .003     2.000    15.000    34.171  -118.185      .000      .001
     1.225      .003      .003   341.000  -999.000  -999.000  -999.000  -999.000
     1.000  -999.000  -999.000  -999.000  -999.000  -999.000  -999.000   120.000
     -.900     2.000     6.800   980.665      .020   301.000    31.831      .000
  -999.000    23.000  -999.000   301.000      .020      .300  -999.000  -999.000
    30.320   -26.184    30.360     -.721    30.000     -.054      .000      .300
    23.000      .020      .020      .000      .020      .008  -999.000  -999.000
      .106      .095      .054      .025      .004      .000  -999.000  -999.000
  -999.000  -999.000  -999.000  -999.000  -999.000  -999.000  -999.000  -999.000
  -999.000  -999.000  -999.000  -999.000
      .050
      .040      .042      .044      .046      .048      .050      .055      .060
      .065      .070      .075      .080      .085      .090      .095      .100
      .110      .120      .130      .140      .150      .160      .170      .180
      .190      .200      .220      .240      .260      .280      .300      .320
      .340      .360      .380      .400      .420      .440      .460      .480
      .500      .550      .600      .650      .700      .750      .800      .850
      .900      .950     1.000     1.100     1.200     1.300     1.400     1.500
     1.600     1.700     1.800     1.900     2.000     2.200     2.400     2.600
     2.800     3.000     3.200     3.400     3.600     3.800     4.000     4.200
     4.400     4.600     4.800     5.000     5.500     6.000      .000      .000
      .000      .000      .000      .000      .000      .000      .000      .000
      .000      .000      .000      .000      .000      .000      .000      .000
      .000      .000      .000      .000
Fourier amplitude spectra in in/sec.
  .000E+00  .000E+00  .000E+00  .000E+00  .000E+00  .000E+00  .000E+00  .000E+00
  .000E+00  .000E+00  .000E+00  .000E+00  .000E+00  .000E+00  .000E+00  .000E+00
  .000E+00  .000E+00  .000E+00  .000E+00  .000E+00  .000E+00  .000E+00  .000E+00
  .000E+00  .000E+00  .000E+00  .000E+00  .000E+00  .000E+00  .000E+00  .000E+00
  .000E+00  .000E+00  .000E+00  .000E+00  .000E+00  .000E+00  .000E+00  .000E+00
  .000E+00  .000E+00  .000E+00  .000E+00  .000E+00  .000E+00  .000E+00  .000E+00
  .000E+00  .000E+00  .000E+00  .000E+00  .000E+00  .000E+00  .000E+00  .000E+00
  .000E+00  .000E+00  .000E+00  .000E+00  .000E+00  .000E+00  .000E+00  .000E+00
  .000E+00  .000E+00  .000E+00  .000E+00  .000E+00  .000E+00  .000E+00  .000E+00
  .000E+00  .000E+00  .000E+00  .000E+00  .000E+00  .000E+00  .000E+00  .000E+00
  .000E+00  .000E+00  .000E+00  .000E+00  .000E+00  .000E+00  .000E+00  .000E+00
  .000E+00  .000E+00  .000E+00  .000E+00  .000E+00  .000E+00  .000E+00  .000E+00
  .000E+00  .000E+00  .000E+00  .000E+00
Damping =  .05. Data of Sd,Sv,Sa,Pssv,ttSd,ttSv,ttSa :
  .595E-03  .680E-03  .791E-03  .908E-03  .114E-02  .153E-02  .195E-02  .258E-02
  .282E-02  .292E-02  .290E-02  .349E-02  .470E-02  .721E-02  .944E-02  .985E-02
  .109E-01  .130E-01  .108E-01  .854E-02  .985E-02  .119E-01  .152E-01  .198E-01
  .225E-01  .230E-01  .192E-01  .201E-01  .211E-01  .203E-01  .199E-01  .245E-01
  .261E-01  .269E-01  .265E-01  .228E-01  .203E-01  .213E-01  .227E-01  .236E-01
