Response and Fourier amplitude spectra (78 periods,  .04 -  6.0 sec)   for      
Corrected accelerogram   38695658.CI.PALA.--.H      Chan  1:  90 Deg     from   
Uncorrected Accelerogram Data             Processed: 09/19/20, CGS  cipala-x    
Rcrd of Fri Sep 18, 2020 23:38:41.0 PDT               (Avol1 v2.0, 4/18 CSMIP)  
                                        (Origin:  To be determined)             
38695658.CI.PALA.--.H                Start time:  9/19/20, 06:38:41.0 UTC (GPS) 
Station Id. PALA    33.389N, 117.032W    ObsMMS  s/n 5454  (3 Chns of  3 at Sta)
Pala                                     SCSN   Data: Acceleration              
Chan  1:  90 Deg                                                                
Rcrd of Fri Sep 18, 2020 23:38:41.0 PDT    Fri Sep 18, 2020 23:38:41.0 PDT      
Hypocenter:  To be determined.               ML:  To be determined.             
Instr Period =  .0050 sec,  Damping =  .707,  Sensitivity = 4.98 v/g  (Nominal) 
                        Record Length =301.000 sec.                             
                                     Uncor Max  =  -.004 g, at   41.300 sec.    
RMS accel of (uncor) record  =        .   Chn. metadata effective date:         
Accelerogram bandpass filtered with 3 dB pts at   .30 and 23.00 cyc/sec         
                 instrument- and base-line correcte                             
                                                                                
                                                                                
                                                                                
                                                                                
                                                                                
Rcrd of Fri Sep 18, 2020 23:38:41.0 PDT    Fri Sep 18, 2020 23:38:41.0 PDT      
                                                                                
38695658.CI.PALA.--.H     Pala    Chan  1:  90 Deg                              
                                                                                
38695658.CI.PALA.--.H     Pala    Chan  1:  90 Deg                              
                                                                                
Units for spectra are inches and sec, except Sa is in fraction of g.            
                                                                                
    1  100    1    3    3  100 -999    3    1    0   15 5454    0    0   41    0
    6   38   41    8  263    9   19 2020   10    3   9036166   39    4   74 -999
36166 -999  100    6 -999 -999 -999 -999 -999 -999 -999 -999 -999 -999 -999 -999
 -999 -999 -999 -99915050    2 -999    0 -999   20 -999 -999    3    1 -99915050
    315050    4   78    1    3    5    0    0 -999    0 -999 -999    6 -999    2
    2    2    4 -999 -999 -999 -999 -999 -999 -999 -999    1 -999 -999 -999  111
    1    1 -999 -999
      .005      .707   361.660      .000     1.000  4981.498     -.004    41.300
   200.000     2.384      .479  -999.000    10.000  -999.000     4.000  -999.000
    20.000   -14.632      .000  -999.000  -999.000  -999.000  -999.000      .001
      .001      .000     2.000    15.000    33.389  -117.032      .001      .001
     1.065      .000      .000   552.000  -999.000  -999.000  -999.000  -999.000
     1.000  -999.000    -8.000  -999.000  -999.000  -999.000  -999.000   120.000
     -.900     2.000     6.800   980.665      .020   301.000    31.831      .000
  -999.000    23.000  -999.000   301.000      .020      .300  -999.000  -999.000
    41.300    -3.514    41.260      .161    41.180     -.010      .000      .300
    23.000      .020      .020      .000      .020      .007  -999.000  -999.000
      .016      .150      .008      .012      .001      .000  -999.000  -999.000
  -999.000  -999.000  -999.000  -999.000  -999.000  -999.000  -999.000  -999.000
  -999.000  -999.000  -999.000  -999.000
      .050
      .040      .042      .044      .046      .048      .050      .055      .060
      .065      .070      .075      .080      .085      .090      .095      .100
      .110      .120      .130      .140      .150      .160      .170      .180
      .190      .200      .220      .240      .260      .280      .300      .320
      .340      .360      .380      .400      .420      .440      .460      .480
      .500      .550      .600      .650      .700      .750      .800      .850
      .900      .950     1.000     1.100     1.200     1.300     1.400     1.500
     1.600     1.700     1.800     1.900     2.000     2.200     2.400     2.600
     2.800     3.000     3.200     3.400     3.600     3.800     4.000     4.200
     4.400     4.600     4.800     5.000     5.500     6.000      .000      .000
      .000      .000      .000      .000      .000      .000      .000      .000
      .000      .000      .000      .000      .000      .000      .000      .000
      .000      .000      .000      .000
Fourier amplitude spectra in in/sec.
  .000E+00  .000E+00  .000E+00  .000E+00  .000E+00  .000E+00  .000E+00  .000E+00
  .000E+00  .000E+00  .000E+00  .000E+00  .000E+00  .000E+00  .000E+00  .000E+00
  .000E+00  .000E+00  .000E+00  .000E+00  .000E+00  .000E+00  .000E+00  .000E+00
  .000E+00  .000E+00  .000E+00  .000E+00  .000E+00  .000E+00  .000E+00  .000E+00
  .000E+00  .000E+00  .000E+00  .000E+00  .000E+00  .000E+00  .000E+00  .000E+00
  .000E+00  .000E+00  .000E+00  .000E+00  .000E+00  .000E+00  .000E+00  .000E+00
  .000E+00  .000E+00  .000E+00  .000E+00  .000E+00  .000E+00  .000E+00  .000E+00
  .000E+00  .000E+00  .000E+00  .000E+00  .000E+00  .000E+00  .000E+00  .000E+00
  .000E+00  .000E+00  .000E+00  .000E+00  .000E+00  .000E+00  .000E+00  .000E+00
  .000E+00  .000E+00  .000E+00  .000E+00  .000E+00  .000E+00  .000E+00  .000E+00
  .000E+00  .000E+00  .000E+00  .000E+00  .000E+00  .000E+00  .000E+00  .000E+00
  .000E+00  .000E+00  .000E+00  .000E+00  .000E+00  .000E+00  .000E+00  .000E+00
  .000E+00  .000E+00  .000E+00  .000E+00
Damping =  .05. Data of Sd,Sv,Sa,Pssv,ttSd,ttSv,ttSa :
  .580E-04  .646E-04  .714E-04  .791E-04  .869E-04  .937E-04  .115E-03  .138E-03
  .178E-03  .241E-03  .296E-03  .373E-03  .517E-03  .665E-03  .751E-03  .873E-03
  .101E-02  .127E-02  .183E-02  .255E-02  .355E-02  .309E-02  .272E-02  .293E-02
  .336E-02  .275E-02  .387E-02  .548E-02  .812E-02  .922E-02  .105E-01  .113E-01
  .130E-01  .130E-01  .118E-01  .107E-01  .121E-01  .132E-01  .134E-01  .130E-01
  .116E-01  .843E-02  .686E-02  .660E-02  .668E-02  .743E-02  .706E-02  .677E-02
  .679E-02  .696E-02  .763E-02  .102E-01  .794E-02  .806E-02  .718E-02  .604E-02
  .623E-02  .601E-02  .574E-02  .550E-02  .509E-02  .512E-02  .503E-02  .509E-02
  .493E-02  .466E-02  .442E-02  .444E-02  .438E-02  .432E-02  .428E-02  .424E-02
  .420E-02  .414E-02  .409E-02  .407E-02  .403E-02  .400E-02  .000E+00  .000E+00
  .000E+00  .000E+00  .000E+00  .000E+00  .000E+00  .000E+00  .000E+00  .000E+00
  .000E+00  .000E+00  .000E+00  .000E+00  .000E+00  .000E+00  .000E+00  .000E+00
  .000E+00  .000E+00  .000E+00  .000E+00
  .235E-02  .261E-02  .290E-02  .313E-02  .344E-02  .392E-02  .542E-02  .733E-02
  .932E-02  .122E-01  .137E-01  .199E-01  .292E-01  .363E-01  .381E-01  .418E-01
  .451E-01  .554E-01  .753E-01  .984E-01  .143E+00  .118E+00  .983E-01  .960E-01
  .106E+00  .833E-01  .106E+00  .143E+00  .193E+00  .201E+00  .208E+00  .242E+00
  .251E+00  .238E+00  .204E+00  .178E+00  .185E+00  .206E+00  .213E+00  .189E+00
  .165E+00  .143E+00  .115E+00  .110E+00  .117E+00  .112E+00  .969E-01  .890E-01
  .875E-01  .882E-01  .919E-01  .895E-01  .848E-01  .738E-01  .701E-01  .690E-01
  .662E-01  .625E-01  .593E-01  .600E-01  .615E-01  .633E-01  .645E-01  .646E-01
  .643E-01  .638E-01  .633E-01  .628E-01  .624E-01  .622E-01  .620E-01  .619E-01
  .618E-01  .617E-01  .617E-01  .617E-01  .616E-01  .615E-01  .000E+00  .000E+00
  .000E+00  .000E+00  .000E+00  .000E+00  .000E+00  .000E+00  .000E+00  .000E+00
  .000E+00  .000E+00  .000E+00  .000E+00  .000E+00  .000E+00  .000E+00  .000E+00
  .000E+00  .000E+00  .000E+00  .000E+00
  .372E-02  .374E-02  .377E-02  .382E-02  .386E-02  .385E-02  .391E-02  .393E-02
  .433E-02  .502E-02  .541E-02  .600E-02  .733E-02  .837E-02  .855E-02  .906E-02
  .866E-02  .908E-02  .110E-01  .132E-01  .164E-01  .124E-01  .973E-02  .923E-02
  .964E-02  .701E-02  .831E-02  .995E-02  .125E-01  .122E-01  .119E-01  .114E-01
  .116E-01  .105E-01  .842E-02  .692E-02  .701E-02  .700E-02  .652E-02  .579E-02
  .477E-02  .287E-02  .198E-02  .162E-02  .141E-02  .137E-02  .114E-02  .973E-03
  .878E-03  .812E-03  .800E-03  .875E-03  .578E-03  .504E-03  .391E-03  .283E-03
  .258E-03  .223E-03  .191E-03  .166E-03  .141E-03  .117E-03  .101E-03  .886E-04
  .759E-04  .644E-04  .550E-04  .498E-04  .451E-04  .411E-04  .377E-04  .349E-04
  .323E-04  .300E-04  .280E-04  .263E-04  .228E-04  .201E-04  .000E+00  .000E+00
  .000E+00  .000E+00  .000E+00  .000E+00  .000E+00  .000E+00  .000E+00  .000E+00
  .000E+00  .000E+00  .000E+00  .000E+00  .000E+00  .000E+00  .000E+00  .000E+00
  .000E+00  .000E+00  .000E+00  .000E+00
  .910E-02  .966E-02  .102E-01  .108E-01  .114E-01  .118E-01  .131E-01  .145E-01
  .172E-01  .216E-01  .248E-01  .293E-01  .382E-01  .464E-01  .497E-01  .549E-01
  .580E-01  .663E-01  .885E-01  .114E+00  .149E+00  .121E+00  .101E+00  .102E+00
  .111E+00  .864E-01  .110E+00  .143E+00  .196E+00  .207E+00  .220E+00  .222E+00
  .241E+00  .227E+00  .194E+00  .167E+00  .180E+00  .188E+00  .183E+00  .171E+00
  .146E+00  .963E-01  .718E-01  .638E-01  .600E-01  .623E-01  .554E-01  .501E-01
  .474E-01  .460E-01  .479E-01  .585E-01  .416E-01  .389E-01  .322E-01  .253E-01
  .245E-01  .222E-01  .200E-01  .182E-01  .160E-01  .146E-01  .132E-01  .123E-01
  .111E-01  .975E-02  .869E-02  .821E-02  .765E-02  .715E-02  .672E-02  .635E-02
  .599E-02  .566E-02  .536E-02  .512E-02  .461E-02  .419E-02  .000E+00  .000E+00
  .000E+00  .000E+00  .000E+00  .000E+00  .000E+00  .000E+00  .000E+00  .000E+00
  .000E+00  .000E+00  .000E+00  .000E+00  .000E+00  .000E+00  .000E+00  .000E+00
  .000E+00  .000E+00  .000E+00  .000E+00
  .413E+02  .413E+02  .413E+02  .413E+02  .413E+02  .413E+02  .435E+02  .435E+02
  .413E+02  .413E+02  .413E+02  .413E+02  .413E+02  .427E+02  .427E+02  .427E+02
  .413E+02  .436E+02  .437E+02  .428E+02  .437E+02  .437E+02  .433E+02  .430E+02
  .430E+02  .430E+02  .430E+02  .438E+02  .420E+02  .421E+02  .421E+02  .429E+02
  .414E+02  .414E+02  .414E+02  .425E+02  .423E+02  .421E+02  .422E+02  .420E+02
  .440E+02  .413E+02  .440E+02  .413E+02  .413E+02  .411E+02  .420E+02  .420E+02
  .420E+02  .420E+02  .420E+02  .438E+02  .412E+02  .418E+02  .418E+02  .438E+02
  .438E+02  .409E+02  .409E+02  .409E+02  .409E+02  .438E+02  .418E+02  .418E+02
  .418E+02  .418E+02  .412E+02  .412E+02  .412E+02  .412E+02  .412E+02  .412E+02
  .412E+02  .412E+02  .412E+02  .412E+02  .412E+02  .412E+02  .000E+00  .000E+00
  .000E+00  .000E+00  .000E+00  .000E+00  .000E+00  .000E+00  .000E+00  .000E+00
  .000E+00  .000E+00  .000E+00  .000E+00  .000E+00  .000E+00  .000E+00  .000E+00
  .000E+00  .000E+00  .000E+00  .000E+00
  .413E+02  .413E+02  .413E+02  .413E+02  .413E+02  .413E+02  .413E+02  .435E+02
  .413E+02  .435E+02  .413E+02  .427E+02  .427E+02  .427E+02  .427E+02  .427E+02
  .413E+02  .436E+02  .436E+02  .428E+02  .436E+02  .437E+02  .434E+02  .430E+02
  .429E+02  .416E+02  .429E+02  .433E+02  .421E+02  .421E+02  .421E+02  .428E+02
  .415E+02  .415E+02  .413E+02  .413E+02  .422E+02  .420E+02  .421E+02  .421E+02
  .412E+02  .412E+02  .412E+02  .412E+02  .412E+02  .412E+02  .412E+02  .412E+02
  .412E+02  .412E+02  .412E+02  .412E+02  .419E+02  .419E+02  .411E+02  .411E+02
  .411E+02  .411E+02  .411E+02  .412E+02  .412E+02  .412E+02  .412E+02  .412E+02
  .412E+02  .412E+02  .412E+02  .412E+02  .412E+02  .412E+02  .412E+02  .412E+02
  .412E+02  .412E+02  .412E+02  .412E+02  .412E+02  .412E+02  .000E+00  .000E+00
  .000E+00  .000E+00  .000E+00  .000E+00  .000E+00  .000E+00  .000E+00  .000E+00
  .000E+00  .000E+00  .000E+00  .000E+00  .000E+00  .000E+00  .000E+00  .000E+00
  .000E+00  .000E+00  .000E+00  .000E+00
  .413E+02  .413E+02  .413E+02  .413E+02  .413E+02  .413E+02  .435E+02  .413E+02
  .413E+02  .413E+02  .413E+02  .413E+02  .413E+02  .427E+02  .427E+02  .427E+02
  .413E+02  .436E+02  .437E+02  .428E+02  .437E+02  .437E+02  .433E+02  .430E+02
  .430E+02  .430E+02  .430E+02  .438E+02  .420E+02  .421E+02  .421E+02  .429E+02
  .414E+02  .414E+02  .414E+02  .425E+02  .423E+02  .421E+02  .422E+02  .420E+02
  .439E+02  .413E+02  .440E+02  .413E+02  .413E+02  .411E+02  .420E+02  .420E+02
  .420E+02  .420E+02  .420E+02  .438E+02  .411E+02  .418E+02  .418E+02  .438E+02
  .438E+02  .409E+02  .409E+02  .409E+02  .409E+02  .438E+02  .418E+02  .418E+02
  .418E+02  .418E+02  .411E+02  .411E+02  .411E+02  .411E+02  .411E+02  .411E+02
  .411E+02  .411E+02  .411E+02  .411E+02  .411E+02  .411E+02  .000E+00  .000E+00
  .000E+00  .000E+00  .000E+00  .000E+00  .000E+00  .000E+00  .000E+00  .000E+00
  .000E+00  .000E+00  .000E+00  .000E+00  .000E+00  .000E+00  .000E+00  .000E+00
  .000E+00  .000E+00  .000E+00  .000E+00
/&   ----------  End of spectral data for channel  1  ----------
Response and Fourier amplitude spectra (78 periods,  .04 -  6.0 sec)   for      
Corrected accelerogram   38695658.CI.PALA.--.H      Chan  2: 360 Deg     from   
Uncorrected Accelerogram Data             Processed: 09/19/20, CGS  cipala-x    
Rcrd of Fri Sep 18, 2020 23:38:41.0 PDT               (Avol1 v2.0, 4/18 CSMIP)  
                                        (Origin:  To be determined)             
38695658.CI.PALA.--.H                Start time:  9/19/20, 06:38:41.0 UTC (GPS) 
Station Id. PALA    33.389N, 117.032W    ObsMMS  s/n 5454  (3 Chns of  3 at Sta)
Pala                                     SCSN   Data: Acceleration              
Chan  2: 360 Deg                                                                
Rcrd of Fri Sep 18, 2020 23:38:41.0 PDT    Fri Sep 18, 2020 23:38:41.0 PDT      
Hypocenter:  To be determined.               ML:  To be determined.             
Instr Period =  .0050 sec,  Damping =  .707,  Sensitivity = 4.99 v/g  (Nominal) 
                        Record Length =301.000 sec.                             
                                     Uncor Max  =  -.005 g, at   41.680 sec.    
RMS accel of (uncor) record  =        .   Chn. metadata effective date:         
Accelerogram bandpass filtered with 3 dB pts at   .30 and 23.00 cyc/sec         
                 instrument- and base-line correcte                             
                                                                                
                                                                                
                                                                                
                                                                                
                                                                                
Rcrd of Fri Sep 18, 2020 23:38:41.0 PDT    Fri Sep 18, 2020 23:38:41.0 PDT      
                                                                                
38695658.CI.PALA.--.H     Pala    Chan  2: 360 Deg                              
                                                                                
38695658.CI.PALA.--.H     Pala    Chan  2: 360 Deg                              
                                                                                
Units for spectra are inches and sec, except Sa is in fraction of g.            
                                                                                
    2  100    2    3    3  100 -999    3    1    0   15 5454    0    0   41    0
    6   38   41    8  263    9   19 2020   10    3  36035624   39    4   74 -999
35624 -999  100    6 -999 -999 -999 -999 -999 -999 -999 -999 -999 -999 -999 -999
 -999 -999 -999 -99915050    2 -999    0 -999   20 -999 -999    3    1 -99915050
    315050    4   78    1    3    5    0    0 -999    0 -999 -999    6 -999    2
    2    2    4 -999 -999 -999 -999 -999 -999 -999 -999    1 -999 -999 -999  111
    1    1 -999 -999
      .005      .707   356.240      .000     1.000  4985.487     -.005    41.680
   200.000     2.384      .478  -999.000    10.000  -999.000     4.000  -999.000
    20.000    -7.746      .000  -999.000  -999.000  -999.000  -999.000      .000
      .000      .000     2.000    15.000    33.389  -117.032      .001      .001
     1.004      .000      .000   552.000  -999.000  -999.000  -999.000  -999.000
     1.000  -999.000  -999.000  -999.000  -999.000  -999.000  -999.000   120.000
     -.900     2.000     6.800   980.665      .020   301.000    31.831      .000
  -999.000    23.000  -999.000   301.000      .020      .300  -999.000  -999.000
    41.680    -4.502    41.920      .179    41.680      .012      .000      .300
    23.000      .020      .020      .000      .020      .007  -999.000  -999.000
      .019      .280      .011      .015      .001      .000  -999.000  -999.000
  -999.000  -999.000  -999.000  -999.000  -999.000  -999.000  -999.000  -999.000
  -999.000  -999.000  -999.000  -999.000
      .050
      .040      .042      .044      .046      .048      .050      .055      .060
      .065      .070      .075      .080      .085      .090      .095      .100
      .110      .120      .130      .140      .150      .160      .170      .180
      .190      .200      .220      .240      .260      .280      .300      .320
      .340      .360      .380      .400      .420      .440      .460      .480
      .500      .550      .600      .650      .700      .750      .800      .850
      .900      .950     1.000     1.100     1.200     1.300     1.400     1.500
     1.600     1.700     1.800     1.900     2.000     2.200     2.400     2.600
     2.800     3.000     3.200     3.400     3.600     3.800     4.000     4.200
     4.400     4.600     4.800     5.000     5.500     6.000      .000      .000
      .000      .000      .000      .000      .000      .000      .000      .000
      .000      .000      .000      .000      .000      .000      .000      .000
      .000      .000      .000      .000
Fourier amplitude spectra in in/sec.
  .000E+00  .000E+00  .000E+00  .000E+00  .000E+00  .000E+00  .000E+00  .000E+00
  .000E+00  .000E+00  .000E+00  .000E+00  .000E+00  .000E+00  .000E+00  .000E+00
  .000E+00  .000E+00  .000E+00  .000E+00  .000E+00  .000E+00  .000E+00  .000E+00
  .000E+00  .000E+00  .000E+00  .000E+00  .000E+00  .000E+00  .000E+00  .000E+00
  .000E+00  .000E+00  .000E+00  .000E+00  .000E+00  .000E+00  .000E+00  .000E+00
  .000E+00  .000E+00  .000E+00  .000E+00  .000E+00  .000E+00  .000E+00  .000E+00
  .000E+00  .000E+00  .000E+00  .000E+00  .000E+00  .000E+00  .000E+00  .000E+00
  .000E+00  .000E+00  .000E+00  .000E+00  .000E+00  .000E+00  .000E+00  .000E+00
  .000E+00  .000E+00  .000E+00  .000E+00  .000E+00  .000E+00  .000E+00  .000E+00
  .000E+00  .000E+00  .000E+00  .000E+00  .000E+00  .000E+00  .000E+00  .000E+00
  .000E+00  .000E+00  .000E+00  .000E+00  .000E+00  .000E+00  .000E+00  .000E+00
  .000E+00  .000E+00  .000E+00  .000E+00  .000E+00  .000E+00  .000E+00  .000E+00
  .000E+00  .000E+00  .000E+00  .000E+00
Damping =  .05. Data of Sd,Sv,Sa,Pssv,ttSd,ttSv,ttSa :
  .720E-04  .801E-04  .884E-04  .965E-04  .105E-03  .115E-03  .139E-03  .176E-03
  .216E-03  .256E-03  .282E-03  .350E-03  .430E-03  .571E-03  .589E-03  .660E-03
  .941E-03  .137E-02  .178E-02  .238E-02  .233E-02  .242E-02  .294E-02  .347E-02
  .402E-02  .391E-02  .489E-02  .786E-02  .112E-01  .145E-01  .121E-01  .120E-01
  .136E-01  .161E-01  .185E-01  .215E-01  .222E-01  .197E-01  .176E-01  .145E-01
