Response and Fourier amplitude spectra (78 periods,  .04 -  6.0 sec)   for      
Corrected accelerogram   38695658.CI.PDU.--.HN      Chan  1:  90 Deg     from   
Uncorrected Accelerogram Data             Processed: 09/19/20, CGS  cipdu--g    
Rcrd of Fri Sep 18, 2020 23:38:31.0 PDT               (Avol1 v2.0, 4/18 CSMIP)  
                                        (Origin:  To be determined)             
38695658.CI.PDU.--.HN                Start time:  9/19/20, 06:38:31.0 UTC (GPS) 
Station Id. PDU     34.121N, 117.638W    ObsMMS  s/n 4174  (3 Chns of  3 at Sta)
Upland, Euclid Ave and Foothill Blvd     SCSN   Data: Acceleration              
Chan  1:  90 Deg                                                                
Rcrd of Fri Sep 18, 2020 23:38:31.0 PDT    Fri Sep 18, 2020 23:38:31.0 PDT      
Hypocenter:  To be determined.               ML:  To be determined.             
Instr Period =  .0050 sec,  Damping =  .707,  Sensitivity = 5.00 v/g  (Nominal) 
                        Record Length =301.000 sec.                             
                                     Uncor Max  =  -.005 g, at   30.040 sec.    
RMS accel of (uncor) record  =        .   Chn. metadata effective date:         
Accelerogram bandpass filtered with 3 dB pts at   .30 and 23.00 cyc/sec         
                 instrument- and base-line correcte                             
                                                                                
                                                                                
                                                                                
                                                                                
                                                                                
Rcrd of Fri Sep 18, 2020 23:38:31.0 PDT    Fri Sep 18, 2020 23:38:31.0 PDT      
                                                                                
38695658.CI.PDU.--.HN     Upland, Euclid Ave and Foothill Blvd    Chan  1:  90 D
eg                                                                              
38695658.CI.PDU.--.HN     Upland, Euclid Ave and Foothill Blvd    Chan  1:  90 D
eg                                                                              
Units for spectra are inches and sec, except Sa is in fraction of g.            
                                                                                
    1  100    1    3    3  100 -999    3    1    0   15 4174    050637   41    0
    6   38   31    8  263    9   19 2020   10    3   9035896   39   36   74 -999
35896 -999  100    6 -999 -999 -999 -999 -999 -999 -999 -999 -999 -999 -999 -999
 -999 -999 -999 -99915050    2 -999    0 -999   20 -999 -999    3    1 -99915050
    315050    4   78    1    3    5    0    0 -999    0 -999 -999    6 -999    2
    2    2    4 -999 -999 -999 -999 -999 -999 -999 -999    1 -999 -999 -999  111
    1    1 -999 -999
      .005      .707   358.960      .000     1.000  4998.452     -.005    30.040
   200.000     2.384      .477  -999.000    10.000  -999.000     4.000  -999.000
    20.000    -3.920      .000  -999.000  -999.000  -999.000  -999.000      .000
     -.001     -.001     2.000    15.000    34.121  -117.638      .003      .003
     1.129     -.001      .000   445.000  -999.000  -999.000  -999.000  -999.000
     1.000  -999.000    -8.000  -999.000  -999.000  -999.000  -999.000   120.000
     -.900     2.000     6.800   980.665      .020   301.000    31.831      .000
  -999.000    23.000  -999.000   301.000      .020      .300  -999.000  -999.000
    30.040    -5.071    30.000      .224    30.660      .011      .000      .300
    23.000      .020      .020      .000      .020      .007  -999.000  -999.000
      .022      .280      .012      .019      .001      .000  -999.000  -999.000
  -999.000  -999.000  -999.000  -999.000  -999.000  -999.000  -999.000  -999.000
  -999.000  -999.000  -999.000  -999.000
      .050
      .040      .042      .044      .046      .048      .050      .055      .060
      .065      .070      .075      .080      .085      .090      .095      .100
      .110      .120      .130      .140      .150      .160      .170      .180
      .190      .200      .220      .240      .260      .280      .300      .320
      .340      .360      .380      .400      .420      .440      .460      .480
      .500      .550      .600      .650      .700      .750      .800      .850
      .900      .950     1.000     1.100     1.200     1.300     1.400     1.500
     1.600     1.700     1.800     1.900     2.000     2.200     2.400     2.600
     2.800     3.000     3.200     3.400     3.600     3.800     4.000     4.200
     4.400     4.600     4.800     5.000     5.500     6.000      .000      .000
      .000      .000      .000      .000      .000      .000      .000      .000
      .000      .000      .000      .000      .000      .000      .000      .000
      .000      .000      .000      .000
Fourier amplitude spectra in in/sec.
  .000E+00  .000E+00  .000E+00  .000E+00  .000E+00  .000E+00  .000E+00  .000E+00
  .000E+00  .000E+00  .000E+00  .000E+00  .000E+00  .000E+00  .000E+00  .000E+00
  .000E+00  .000E+00  .000E+00  .000E+00  .000E+00  .000E+00  .000E+00  .000E+00
  .000E+00  .000E+00  .000E+00  .000E+00  .000E+00  .000E+00  .000E+00  .000E+00
  .000E+00  .000E+00  .000E+00  .000E+00  .000E+00  .000E+00  .000E+00  .000E+00
  .000E+00  .000E+00  .000E+00  .000E+00  .000E+00  .000E+00  .000E+00  .000E+00
  .000E+00  .000E+00  .000E+00  .000E+00  .000E+00  .000E+00  .000E+00  .000E+00
  .000E+00  .000E+00  .000E+00  .000E+00  .000E+00  .000E+00  .000E+00  .000E+00
  .000E+00  .000E+00  .000E+00  .000E+00  .000E+00  .000E+00  .000E+00  .000E+00
  .000E+00  .000E+00  .000E+00  .000E+00  .000E+00  .000E+00  .000E+00  .000E+00
  .000E+00  .000E+00  .000E+00  .000E+00  .000E+00  .000E+00  .000E+00  .000E+00
  .000E+00  .000E+00  .000E+00  .000E+00  .000E+00  .000E+00  .000E+00  .000E+00
  .000E+00  .000E+00  .000E+00  .000E+00
Damping =  .05. Data of Sd,Sv,Sa,Pssv,ttSd,ttSv,ttSa :
  .810E-04  .939E-04  .109E-03  .121E-03  .128E-03  .159E-03  .245E-03  .356E-03
  .399E-03  .467E-03  .612E-03  .705E-03  .732E-03  .877E-03  .982E-03  .107E-02
  .198E-02  .215E-02  .208E-02  .181E-02  .208E-02  .263E-02  .284E-02  .312E-02
  .360E-02  .432E-02  .666E-02  .938E-02  .135E-01  .167E-01  .173E-01  .149E-01
  .133E-01  .108E-01  .984E-02  .889E-02  .959E-02  .105E-01  .100E-01  .926E-02
  .972E-02  .110E-01  .104E-01  .102E-01  .930E-02  .795E-02  .818E-02  .806E-02
  .766E-02  .721E-02  .668E-02  .623E-02  .651E-02  .602E-02  .605E-02  .789E-02
  .862E-02  .895E-02  .909E-02  .926E-02  .872E-02  .734E-02  .657E-02  .607E-02
  .563E-02  .528E-02  .496E-02  .469E-02  .460E-02  .453E-02  .447E-02  .441E-02
  .435E-02  .432E-02  .432E-02  .432E-02  .429E-02  .427E-02  .000E+00  .000E+00
  .000E+00  .000E+00  .000E+00  .000E+00  .000E+00  .000E+00  .000E+00  .000E+00
  .000E+00  .000E+00  .000E+00  .000E+00  .000E+00  .000E+00  .000E+00  .000E+00
  .000E+00  .000E+00  .000E+00  .000E+00
  .488E-02  .535E-02  .643E-02  .787E-02  .105E-01  .130E-01  .192E-01  .277E-01
  .271E-01  .259E-01  .339E-01  .396E-01  .404E-01  .543E-01  .580E-01  .637E-01
  .931E-01  .101E+00  .949E-01  .643E-01  .664E-01  .864E-01  .890E-01  .923E-01
  .982E-01  .113E+00  .174E+00  .234E+00  .313E+00  .375E+00  .369E+00  .326E+00
  .258E+00  .211E+00  .203E+00  .194E+00  .185E+00  .177E+00  .173E+00  .164E+00
  .169E+00  .151E+00  .149E+00  .148E+00  .137E+00  .131E+00  .125E+00  .113E+00
  .101E+00  .908E-01  .851E-01  .795E-01  .773E-01  .820E-01  .860E-01  .874E-01
  .888E-01  .906E-01  .920E-01  .927E-01  .929E-01  .928E-01  .924E-01  .918E-01
  .912E-01  .906E-01  .901E-01  .898E-01  .894E-01  .891E-01  .888E-01  .886E-01
  .883E-01  .881E-01  .880E-01  .879E-01  .877E-01  .875E-01  .000E+00  .000E+00
  .000E+00  .000E+00  .000E+00  .000E+00  .000E+00  .000E+00  .000E+00  .000E+00
  .000E+00  .000E+00  .000E+00  .000E+00  .000E+00  .000E+00  .000E+00  .000E+00
  .000E+00  .000E+00  .000E+00  .000E+00
  .518E-02  .544E-02  .576E-02  .585E-02  .571E-02  .650E-02  .828E-02  .101E-01
  .980E-02  .973E-02  .111E-01  .112E-01  .105E-01  .111E-01  .111E-01  .111E-01
  .167E-01  .155E-01  .125E-01  .943E-02  .956E-02  .106E-01  .101E-01  .982E-02
  .103E-01  .113E-01  .143E-01  .169E-01  .206E-01  .219E-01  .200E-01  .152E-01
  .118E-01  .859E-02  .700E-02  .570E-02  .563E-02  .557E-02  .489E-02  .420E-02
  .399E-02  .372E-02  .302E-02  .249E-02  .197E-02  .147E-02  .132E-02  .116E-02
  .994E-03  .840E-03  .703E-03  .532E-03  .466E-03  .376E-03  .340E-03  .364E-03
  .352E-03  .324E-03  .292E-03  .267E-03  .229E-03  .163E-03  .121E-03  .990E-04
  .821E-04  .687E-04  .613E-04  .562E-04  .520E-04  .481E-04  .447E-04  .417E-04
  .390E-04  .365E-04  .343E-04  .324E-04  .285E-04  .257E-04  .000E+00  .000E+00
  .000E+00  .000E+00  .000E+00  .000E+00  .000E+00  .000E+00  .000E+00  .000E+00
  .000E+00  .000E+00  .000E+00  .000E+00  .000E+00  .000E+00  .000E+00  .000E+00
  .000E+00  .000E+00  .000E+00  .000E+00
  .127E-01  .140E-01  .155E-01  .165E-01  .168E-01  .200E-01  .280E-01  .372E-01
  .386E-01  .419E-01  .512E-01  .553E-01  .541E-01  .612E-01  .649E-01  .675E-01
  .113E+00  .112E+00  .101E+00  .810E-01  .873E-01  .103E+00  .105E+00  .109E+00
  .119E+00  .136E+00  .190E+00  .246E+00  .326E+00  .374E+00  .361E+00  .293E+00
  .246E+00  .189E+00  .163E+00  .140E+00  .143E+00  .149E+00  .137E+00  .121E+00
  .122E+00  .126E+00  .108E+00  .984E-01  .835E-01  .666E-01  .642E-01  .596E-01
  .535E-01  .477E-01  .420E-01  .356E-01  .341E-01  .291E-01  .272E-01  .330E-01
  .339E-01  .331E-01  .317E-01  .306E-01  .274E-01  .210E-01  .172E-01  .147E-01
  .126E-01  .111E-01  .975E-02  .866E-02  .802E-02  .749E-02  .703E-02  .660E-02
  .622E-02  .590E-02  .565E-02  .542E-02  .490E-02  .447E-02  .000E+00  .000E+00
  .000E+00  .000E+00  .000E+00  .000E+00  .000E+00  .000E+00  .000E+00  .000E+00
  .000E+00  .000E+00  .000E+00  .000E+00  .000E+00  .000E+00  .000E+00  .000E+00
  .000E+00  .000E+00  .000E+00  .000E+00
  .300E+02  .300E+02  .300E+02  .300E+02  .300E+02  .295E+02  .299E+02  .302E+02
  .302E+02  .300E+02  .300E+02  .300E+02  .300E+02  .300E+02  .300E+02  .340E+02
  .302E+02  .302E+02  .301E+02  .296E+02  .296E+02  .296E+02  .297E+02  .298E+02
  .298E+02  .298E+02  .299E+02  .301E+02  .301E+02  .305E+02  .306E+02  .302E+02
  .302E+02  .302E+02  .300E+02  .299E+02  .297E+02  .298E+02  .298E+02  .298E+02
  .296E+02  .296E+02  .296E+02  .300E+02  .301E+02  .295E+02  .295E+02  .295E+02
  .295E+02  .295E+02  .295E+02  .413E+02  .468E+02  .305E+02  .301E+02  .349E+02
  .349E+02  .344E+02  .328E+02  .329E+02  .330E+02  .331E+02  .324E+02  .324E+02
  .314E+02  .314E+02  .314E+02  .314E+02  .306E+02  .306E+02  .306E+02  .306E+02
  .306E+02  .306E+02  .306E+02  .306E+02  .306E+02  .306E+02  .000E+00  .000E+00
  .000E+00  .000E+00  .000E+00  .000E+00  .000E+00  .000E+00  .000E+00  .000E+00
  .000E+00  .000E+00  .000E+00  .000E+00  .000E+00  .000E+00  .000E+00  .000E+00
  .000E+00  .000E+00  .000E+00  .000E+00
  .301E+02  .301E+02  .310E+02  .302E+02  .302E+02  .302E+02  .302E+02  .302E+02
  .302E+02  .299E+02  .300E+02  .300E+02  .300E+02  .346E+02  .340E+02  .340E+02
  .302E+02  .303E+02  .303E+02  .303E+02  .297E+02  .297E+02  .297E+02  .297E+02
  .297E+02  .297E+02  .299E+02  .299E+02  .303E+02  .303E+02  .302E+02  .302E+02
  .303E+02  .300E+02  .300E+02  .300E+02  .298E+02  .298E+02  .297E+02  .297E+02
  .297E+02  .297E+02  .296E+02  .296E+02  .296E+02  .300E+02  .300E+02  .300E+02
  .300E+02  .300E+02  .298E+02  .298E+02  .300E+02  .300E+02  .300E+02  .300E+02
  .300E+02  .300E+02  .300E+02  .300E+02  .300E+02  .300E+02  .300E+02  .300E+02
  .300E+02  .300E+02  .300E+02  .300E+02  .300E+02  .300E+02  .300E+02  .300E+02
  .300E+02  .300E+02  .300E+02  .300E+02  .300E+02  .300E+02  .000E+00  .000E+00
  .000E+00  .000E+00  .000E+00  .000E+00  .000E+00  .000E+00  .000E+00  .000E+00
  .000E+00  .000E+00  .000E+00  .000E+00  .000E+00  .000E+00  .000E+00  .000E+00
  .000E+00  .000E+00  .000E+00  .000E+00
  .300E+02  .300E+02  .300E+02  .300E+02  .300E+02  .295E+02  .299E+02  .302E+02
  .302E+02  .300E+02  .300E+02  .300E+02  .300E+02  .300E+02  .300E+02  .340E+02
  .302E+02  .302E+02  .301E+02  .296E+02  .296E+02  .296E+02  .297E+02  .298E+02
  .298E+02  .298E+02  .299E+02  .301E+02  .304E+02  .305E+02  .307E+02  .302E+02
  .302E+02  .302E+02  .300E+02  .299E+02  .297E+02  .297E+02  .298E+02  .298E+02
  .296E+02  .296E+02  .296E+02  .300E+02  .300E+02  .295E+02  .295E+02  .295E+02
  .295E+02  .295E+02  .295E+02  .413E+02  .467E+02  .305E+02  .300E+02  .348E+02
  .349E+02  .344E+02  .328E+02  .329E+02  .330E+02  .330E+02  .324E+02  .314E+02
  .314E+02  .314E+02  .296E+02  .296E+02  .296E+02  .296E+02  .296E+02  .296E+02
  .296E+02  .296E+02  .296E+02  .296E+02  .296E+02  .300E+02  .000E+00  .000E+00
  .000E+00  .000E+00  .000E+00  .000E+00  .000E+00  .000E+00  .000E+00  .000E+00
  .000E+00  .000E+00  .000E+00  .000E+00  .000E+00  .000E+00  .000E+00  .000E+00
  .000E+00  .000E+00  .000E+00  .000E+00
/&   ----------  End of spectral data for channel  1  ----------
Response and Fourier amplitude spectra (78 periods,  .04 -  6.0 sec)   for      
Corrected accelerogram   38695658.CI.PDU.--.HN      Chan  2: 360 Deg     from   
Uncorrected Accelerogram Data             Processed: 09/19/20, CGS  cipdu--g    
Rcrd of Fri Sep 18, 2020 23:38:31.0 PDT               (Avol1 v2.0, 4/18 CSMIP)  
                                        (Origin:  To be determined)             
38695658.CI.PDU.--.HN                Start time:  9/19/20, 06:38:31.0 UTC (GPS) 
Station Id. PDU     34.121N, 117.638W    ObsMMS  s/n 4174  (3 Chns of  3 at Sta)
Upland, Euclid Ave and Foothill Blvd     SCSN   Data: Acceleration              
Chan  2: 360 Deg                                                                
Rcrd of Fri Sep 18, 2020 23:38:31.0 PDT    Fri Sep 18, 2020 23:38:31.0 PDT      
Hypocenter:  To be determined.               ML:  To be determined.             
Instr Period =  .0050 sec,  Damping =  .707,  Sensitivity = 4.99 v/g  (Nominal) 
                        Record Length =301.000 sec.                             
                                     Uncor Max  =   .005 g, at   29.430 sec.    
RMS accel of (uncor) record  =        .   Chn. metadata effective date:         
Accelerogram bandpass filtered with 3 dB pts at   .30 and 23.00 cyc/sec         
                 instrument- and base-line correcte                             
                                                                                
                                                                                
                                                                                
                                                                                
                                                                                
Rcrd of Fri Sep 18, 2020 23:38:31.0 PDT    Fri Sep 18, 2020 23:38:31.0 PDT      
                                                                                
38695658.CI.PDU.--.HN     Upland, Euclid Ave and Foothill Blvd    Chan  2: 360 D
eg                                                                              
38695658.CI.PDU.--.HN     Upland, Euclid Ave and Foothill Blvd    Chan  2: 360 D
eg                                                                              
Units for spectra are inches and sec, except Sa is in fraction of g.            
                                                                                
    2  100    2    3    3  100 -999    3    1    0   15 4174    050637   41    0
    6   38   31    8  263    9   19 2020   10    3  36035731   39   36   74 -999
35731 -999  100    6 -999 -999 -999 -999 -999 -999 -999 -999 -999 -999 -999 -999
 -999 -999 -999 -99915050    2 -999    0 -999   20 -999 -999    3    1 -99915050
    315050    4   78    1    3    5    0    0 -999    0 -999 -999    6 -999    2
    2    2    4 -999 -999 -999 -999 -999 -999 -999 -999    1 -999 -999 -999  111
    1    1 -999 -999
      .005      .707   357.310      .000     1.000  4986.484      .005    29.430
   200.000     2.384      .478  -999.000    10.000  -999.000     4.000  -999.000
    20.000   -10.544      .000  -999.000  -999.000  -999.000  -999.000      .000
      .001      .000     2.000    15.000    34.121  -117.638      .002      .003
     1.434      .000      .001   445.000  -999.000  -999.000  -999.000  -999.000
     1.000  -999.000  -999.000  -999.000  -999.000  -999.000  -999.000   120.000
     -.900     2.000     6.800   980.665      .020   301.000    31.831      .000
  -999.000    23.000  -999.000   301.000      .020      .300  -999.000  -999.000
    29.420     4.493    29.000     -.134    29.080     -.010      .000      .300
    23.000      .020      .020      .000      .020      .006  -999.000  -999.000
      .014      .070      .010      .011      .001      .000  -999.000  -999.000
  -999.000  -999.000  -999.000  -999.000  -999.000  -999.000  -999.000  -999.000
  -999.000  -999.000  -999.000  -999.000
      .050
      .040      .042      .044      .046      .048      .050      .055      .060
      .065      .070      .075      .080      .085      .090      .095      .100
      .110      .120      .130      .140      .150      .160      .170      .180
      .190      .200      .220      .240      .260      .280      .300      .320
      .340      .360      .380      .400      .420      .440      .460      .480
      .500      .550      .600      .650      .700      .750      .800      .850
      .900      .950     1.000     1.100     1.200     1.300     1.400     1.500
     1.600     1.700     1.800     1.900     2.000     2.200     2.400     2.600
     2.800     3.000     3.200     3.400     3.600     3.800     4.000     4.200
     4.400     4.600     4.800     5.000     5.500     6.000      .000      .000
      .000      .000      .000      .000      .000      .000      .000      .000
      .000      .000      .000      .000      .000      .000      .000      .000
      .000      .000      .000      .000
Fourier amplitude spectra in in/sec.
  .000E+00  .000E+00  .000E+00  .000E+00  .000E+00  .000E+00  .000E+00  .000E+00
  .000E+00  .000E+00  .000E+00  .000E+00  .000E+00  .000E+00  .000E+00  .000E+00
  .000E+00  .000E+00  .000E+00  .000E+00  .000E+00  .000E+00  .000E+00  .000E+00
  .000E+00  .000E+00  .000E+00  .000E+00  .000E+00  .000E+00  .000E+00  .000E+00
  .000E+00  .000E+00  .000E+00  .000E+00  .000E+00  .000E+00  .000E+00  .000E+00
  .000E+00  .000E+00  .000E+00  .000E+00  .000E+00  .000E+00  .000E+00  .000E+00
  .000E+00  .000E+00  .000E+00  .000E+00  .000E+00  .000E+00  .000E+00  .000E+00
  .000E+00  .000E+00  .000E+00  .000E+00  .000E+00  .000E+00  .000E+00  .000E+00
  .000E+00  .000E+00  .000E+00  .000E+00  .000E+00  .000E+00  .000E+00  .000E+00
  .000E+00  .000E+00  .000E+00  .000E+00  .000E+00  .000E+00  .000E+00  .000E+00
  .000E+00  .000E+00  .000E+00  .000E+00  .000E+00  .000E+00  .000E+00  .000E+00
  .000E+00  .000E+00  .000E+00  .000E+00  .000E+00  .000E+00  .000E+00  .000E+00
  .000E+00  .000E+00  .000E+00  .000E+00
Damping =  .05. Data of Sd,Sv,Sa,Pssv,ttSd,ttSv,ttSa :
  .753E-04  .874E-04  .104E-03  .120E-03  .140E-03  .166E-03  .222E-03  .286E-03
  .520E-03  .689E-03  .755E-03  .699E-03  .742E-03  .738E-03  .848E-03  .985E-03
  .126E-02  .134E-02  .179E-02  .220E-02  .202E-02  .236E-02  .276E-02  .327E-02
  .410E-02  .417E-02  .322E-02  .419E-02  .578E-02  .782E-02  .993E-02  .116E-01
  .122E-01  .107E-01  .969E-02  .920E-02  .955E-02  .948E-02  .887E-02  .888E-02
