Response and Fourier amplitude spectra (78 periods,  .04 -  6.0 sec)   for      
Corrected accelerogram   38695658.CI.PDR.--.HN      Chan  1:  90 Deg     from   
Uncorrected Accelerogram Data             Processed: 09/19/20, CGS  cipdr--o    
Rcrd of Fri Sep 18, 2020 23:38:28.0 PDT               (Avol1 v2.0, 4/18 CSMIP)  
                                        (Origin:  To be determined)             
38695658.CI.PDR.--.HN                Start time:  9/19/20, 06:38:28.0 UTC (GPS) 
Station Id. PDR     33.963N, 118.437W    ObsMMS  s/n 4173  (3 Chns of  3 at Sta)
Playa del Rey, Weschester and Culver     SCSN   Data: Acceleration              
Chan  1:  90 Deg                                                                
Rcrd of Fri Sep 18, 2020 23:38:28.0 PDT    Fri Sep 18, 2020 23:38:28.0 PDT      
Hypocenter:  To be determined.               ML:  To be determined.             
Instr Period =  .0050 sec,  Damping =  .707,  Sensitivity = 5.00 v/g  (Nominal) 
                        Record Length =301.000 sec.                             
                                     Uncor Max  =  -.011 g, at   31.610 sec.    
RMS accel of (uncor) record  =        .   Chn. metadata effective date:         
Accelerogram bandpass filtered with 3 dB pts at   .30 and 23.00 cyc/sec         
                 instrument- and base-line correcte                             
                                                                                
                                                                                
                                                                                
                                                                                
                                                                                
Rcrd of Fri Sep 18, 2020 23:38:28.0 PDT    Fri Sep 18, 2020 23:38:28.0 PDT      
                                                                                
38695658.CI.PDR.--.HN     Playa del Rey, Weschester and Culver    Chan  1:  90 D
eg                                                                              
38695658.CI.PDR.--.HN     Playa del Rey, Weschester and Culver    Chan  1:  90 D
eg                                                                              
Units for spectra are inches and sec, except Sa is in fraction of g.            
                                                                                
    1  100    1    3    3  100 -999    3    1    0   15 4173    050636   41    0
    6   38   28    3  263    9   19 2020   10    3   9035795   39   36   74 -999
35795 -999  100    6 -999 -999 -999 -999 -999 -999 -999 -999 -999 -999 -999 -999
 -999 -999 -999 -99915050    2 -999    0 -999   20 -999 -999    3    1 -99915050
    315050    4   78    1    3    5    0    0 -999    0 -999 -999    6 -999    2
    2    2    4 -999 -999 -999 -999 -999 -999 -999 -999    1 -999 -999 -999  111
    1    1 -999 -999
      .005      .707   357.950      .000     1.000  4995.260     -.011    31.610
   200.000     2.384      .477  -999.000    10.000  -999.000     4.000  -999.000
    20.000    -6.089      .000  -999.000  -999.000  -999.000  -999.000      .000
      .000      .000     2.000    15.000    33.963  -118.437      .004      .004
     1.063     -.001      .001    45.000  -999.000  -999.000  -999.000  -999.000
     1.000  -999.000    -8.000  -999.000  -999.000  -999.000  -999.000   120.000
     -.900     2.000     6.800   980.665      .020   301.000    31.831      .000
  -999.000    23.000  -999.000   301.000      .020      .300  -999.000  -999.000
    31.620    -9.930    31.580      .347    46.340      .029      .000      .300
    23.000      .020      .020      .000      .020      .028  -999.000  -999.000
      .031      .200      .029      .014      .002      .000  -999.000  -999.000
  -999.000  -999.000  -999.000  -999.000  -999.000  -999.000  -999.000  -999.000
  -999.000  -999.000  -999.000  -999.000
      .050
      .040      .042      .044      .046      .048      .050      .055      .060
      .065      .070      .075      .080      .085      .090      .095      .100
      .110      .120      .130      .140      .150      .160      .170      .180
      .190      .200      .220      .240      .260      .280      .300      .320
      .340      .360      .380      .400      .420      .440      .460      .480
      .500      .550      .600      .650      .700      .750      .800      .850
      .900      .950     1.000     1.100     1.200     1.300     1.400     1.500
     1.600     1.700     1.800     1.900     2.000     2.200     2.400     2.600
     2.800     3.000     3.200     3.400     3.600     3.800     4.000     4.200
     4.400     4.600     4.800     5.000     5.500     6.000      .000      .000
      .000      .000      .000      .000      .000      .000      .000      .000
      .000      .000      .000      .000      .000      .000      .000      .000
      .000      .000      .000      .000
Fourier amplitude spectra in in/sec.
  .000E+00  .000E+00  .000E+00  .000E+00  .000E+00  .000E+00  .000E+00  .000E+00
  .000E+00  .000E+00  .000E+00  .000E+00  .000E+00  .000E+00  .000E+00  .000E+00
  .000E+00  .000E+00  .000E+00  .000E+00  .000E+00  .000E+00  .000E+00  .000E+00
  .000E+00  .000E+00  .000E+00  .000E+00  .000E+00  .000E+00  .000E+00  .000E+00
  .000E+00  .000E+00  .000E+00  .000E+00  .000E+00  .000E+00  .000E+00  .000E+00
  .000E+00  .000E+00  .000E+00  .000E+00  .000E+00  .000E+00  .000E+00  .000E+00
  .000E+00  .000E+00  .000E+00  .000E+00  .000E+00  .000E+00  .000E+00  .000E+00
  .000E+00  .000E+00  .000E+00  .000E+00  .000E+00  .000E+00  .000E+00  .000E+00
  .000E+00  .000E+00  .000E+00  .000E+00  .000E+00  .000E+00  .000E+00  .000E+00
  .000E+00  .000E+00  .000E+00  .000E+00  .000E+00  .000E+00  .000E+00  .000E+00
  .000E+00  .000E+00  .000E+00  .000E+00  .000E+00  .000E+00  .000E+00  .000E+00
  .000E+00  .000E+00  .000E+00  .000E+00  .000E+00  .000E+00  .000E+00  .000E+00
  .000E+00  .000E+00  .000E+00  .000E+00
Damping =  .05. Data of Sd,Sv,Sa,Pssv,ttSd,ttSv,ttSa :
  .178E-03  .198E-03  .219E-03  .243E-03  .263E-03  .287E-03  .381E-03  .473E-03
  .694E-03  .109E-02  .109E-02  .124E-02  .157E-02  .185E-02  .181E-02  .183E-02
  .250E-02  .305E-02  .335E-02  .450E-02  .579E-02  .623E-02  .753E-02  .926E-02
  .107E-01  .122E-01  .122E-01  .116E-01  .111E-01  .112E-01  .132E-01  .135E-01
  .180E-01  .226E-01  .211E-01  .181E-01  .158E-01  .144E-01  .124E-01  .114E-01
  .961E-02  .117E-01  .143E-01  .114E-01  .130E-01  .139E-01  .181E-01  .219E-01
  .255E-01  .224E-01  .233E-01  .230E-01  .302E-01  .296E-01  .287E-01  .323E-01
  .356E-01  .334E-01  .354E-01  .304E-01  .289E-01  .356E-01  .310E-01  .271E-01
  .333E-01  .323E-01  .290E-01  .293E-01  .252E-01  .194E-01  .185E-01  .171E-01
  .155E-01  .139E-01  .130E-01  .134E-01  .133E-01  .128E-01  .000E+00  .000E+00
  .000E+00  .000E+00  .000E+00  .000E+00  .000E+00  .000E+00  .000E+00  .000E+00
  .000E+00  .000E+00  .000E+00  .000E+00  .000E+00  .000E+00  .000E+00  .000E+00
  .000E+00  .000E+00  .000E+00  .000E+00
  .947E-02  .102E-01  .133E-01  .163E-01  .220E-01  .259E-01  .317E-01  .461E-01
  .624E-01  .827E-01  .860E-01  .799E-01  .101E+00  .118E+00  .113E+00  .104E+00
  .118E+00  .151E+00  .162E+00  .197E+00  .240E+00  .243E+00  .273E+00  .335E+00
  .386E+00  .385E+00  .340E+00  .343E+00  .326E+00  .317E+00  .302E+00  .266E+00
  .339E+00  .411E+00  .355E+00  .314E+00  .277E+00  .244E+00  .203E+00  .176E+00
  .169E+00  .158E+00  .152E+00  .148E+00  .141E+00  .134E+00  .147E+00  .167E+00
  .166E+00  .152E+00  .149E+00  .151E+00  .171E+00  .155E+00  .151E+00  .152E+00
  .147E+00  .144E+00  .140E+00  .141E+00  .142E+00  .143E+00  .141E+00  .140E+00
  .140E+00  .139E+00  .138E+00  .137E+00  .137E+00  .137E+00  .136E+00  .136E+00
  .136E+00  .136E+00  .135E+00  .135E+00  .134E+00  .134E+00  .000E+00  .000E+00
  .000E+00  .000E+00  .000E+00  .000E+00  .000E+00  .000E+00  .000E+00  .000E+00
  .000E+00  .000E+00  .000E+00  .000E+00  .000E+00  .000E+00  .000E+00  .000E+00
  .000E+00  .000E+00  .000E+00  .000E+00
  .114E-01  .115E-01  .116E-01  .117E-01  .117E-01  .118E-01  .128E-01  .135E-01
  .170E-01  .230E-01  .200E-01  .195E-01  .227E-01  .233E-01  .204E-01  .191E-01
  .209E-01  .221E-01  .204E-01  .233E-01  .263E-01  .251E-01  .266E-01  .297E-01
  .309E-01  .314E-01  .254E-01  .211E-01  .167E-01  .145E-01  .152E-01  .137E-01
  .160E-01  .180E-01  .151E-01  .116E-01  .924E-02  .770E-02  .607E-02  .512E-02
  .397E-02  .396E-02  .407E-02  .277E-02  .272E-02  .254E-02  .290E-02  .311E-02
  .325E-02  .255E-02  .240E-02  .195E-02  .216E-02  .180E-02  .150E-02  .147E-02
  .144E-02  .120E-02  .113E-02  .868E-03  .748E-03  .760E-03  .558E-03  .420E-03
  .443E-03  .371E-03  .291E-03  .263E-03  .204E-03  .149E-03  .126E-03  .107E-03
  .896E-04  .753E-04  .649E-04  .586E-04  .489E-04  .402E-04  .000E+00  .000E+00
  .000E+00  .000E+00  .000E+00  .000E+00  .000E+00  .000E+00  .000E+00  .000E+00
  .000E+00  .000E+00  .000E+00  .000E+00  .000E+00  .000E+00  .000E+00  .000E+00
  .000E+00  .000E+00  .000E+00  .000E+00
  .280E-01  .296E-01  .313E-01  .331E-01  .345E-01  .361E-01  .435E-01  .495E-01
  .670E-01  .978E-01  .909E-01  .971E-01  .116E+00  .129E+00  .120E+00  .115E+00
  .143E+00  .160E+00  .162E+00  .202E+00  .242E+00  .245E+00  .278E+00  .323E+00
  .355E+00  .382E+00  .348E+00  .304E+00  .269E+00  .251E+00  .276E+00  .265E+00
  .332E+00  .395E+00  .349E+00  .285E+00  .237E+00  .206E+00  .170E+00  .150E+00
  .121E+00  .133E+00  .149E+00  .110E+00  .117E+00  .116E+00  .142E+00  .162E+00
  .178E+00  .148E+00  .147E+00  .131E+00  .158E+00  .143E+00  .129E+00  .135E+00
  .140E+00  .124E+00  .123E+00  .101E+00  .908E-01  .102E+00  .812E-01  .656E-01
  .747E-01  .676E-01  .569E-01  .541E-01  .440E-01  .321E-01  .290E-01  .256E-01
  .221E-01  .190E-01  .170E-01  .168E-01  .152E-01  .135E-01  .000E+00  .000E+00
  .000E+00  .000E+00  .000E+00  .000E+00  .000E+00  .000E+00  .000E+00  .000E+00
  .000E+00  .000E+00  .000E+00  .000E+00  .000E+00  .000E+00  .000E+00  .000E+00
  .000E+00  .000E+00  .000E+00  .000E+00
  .316E+02  .316E+02  .316E+02  .316E+02  .316E+02  .316E+02  .344E+02  .345E+02
  .345E+02  .347E+02  .344E+02  .343E+02  .344E+02  .344E+02  .344E+02  .317E+02
  .370E+02  .373E+02  .317E+02  .317E+02  .317E+02  .317E+02  .317E+02  .317E+02
  .317E+02  .316E+02  .317E+02  .317E+02  .317E+02  .316E+02  .386E+02  .386E+02
  .386E+02  .383E+02  .383E+02  .383E+02  .382E+02  .382E+02  .464E+02  .465E+02
  .499E+02  .558E+02  .559E+02  .559E+02  .559E+02  .644E+02  .649E+02  .622E+02
  .623E+02  .623E+02  .650E+02  .647E+02  .648E+02  .620E+02  .620E+02  .542E+02
  .544E+02  .483E+02  .476E+02  .565E+02  .530E+02  .523E+02  .516E+02  .469E+02
  .469E+02  .471E+02  .462E+02  .463E+02  .463E+02  .452E+02  .419E+02  .419E+02
  .419E+02  .419E+02  .463E+02  .463E+02  .463E+02  .463E+02  .000E+00  .000E+00
  .000E+00  .000E+00  .000E+00  .000E+00  .000E+00  .000E+00  .000E+00  .000E+00
  .000E+00  .000E+00  .000E+00  .000E+00  .000E+00  .000E+00  .000E+00  .000E+00
  .000E+00  .000E+00  .000E+00  .000E+00
  .347E+02  .347E+02  .345E+02  .344E+02  .344E+02  .344E+02  .344E+02  .345E+02
  .345E+02  .345E+02  .345E+02  .344E+02  .343E+02  .343E+02  .343E+02  .317E+02
  .370E+02  .317E+02  .317E+02  .317E+02  .317E+02  .318E+02  .317E+02  .317E+02
  .317E+02  .317E+02  .317E+02  .316E+02  .316E+02  .316E+02  .316E+02  .316E+02
  .385E+02  .384E+02  .384E+02  .383E+02  .383E+02  .381E+02  .381E+02  .316E+02
  .316E+02  .316E+02  .316E+02  .316E+02  .316E+02  .316E+02  .651E+02  .624E+02
  .620E+02  .621E+02  .370E+02  .649E+02  .645E+02  .617E+02  .617E+02  .553E+02
  .549E+02  .618E+02  .316E+02  .316E+02  .316E+02  .316E+02  .316E+02  .316E+02
  .316E+02  .316E+02  .316E+02  .316E+02  .316E+02  .316E+02  .316E+02  .316E+02
  .316E+02  .316E+02  .316E+02  .316E+02  .316E+02  .316E+02  .000E+00  .000E+00
  .000E+00  .000E+00  .000E+00  .000E+00  .000E+00  .000E+00  .000E+00  .000E+00
  .000E+00  .000E+00  .000E+00  .000E+00  .000E+00  .000E+00  .000E+00  .000E+00
  .000E+00  .000E+00  .000E+00  .000E+00
  .316E+02  .316E+02  .316E+02  .316E+02  .316E+02  .316E+02  .344E+02  .345E+02
  .345E+02  .347E+02  .344E+02  .343E+02  .343E+02  .344E+02  .344E+02  .317E+02
  .370E+02  .373E+02  .318E+02  .317E+02  .317E+02  .317E+02  .317E+02  .317E+02
  .317E+02  .316E+02  .317E+02  .317E+02  .317E+02  .317E+02  .386E+02  .386E+02
  .386E+02  .385E+02  .383E+02  .383E+02  .382E+02  .382E+02  .464E+02  .465E+02
  .499E+02  .558E+02  .558E+02  .559E+02  .559E+02  .643E+02  .649E+02  .622E+02
  .622E+02  .623E+02  .650E+02  .646E+02  .647E+02  .619E+02  .620E+02  .542E+02
  .544E+02  .483E+02  .476E+02  .565E+02  .529E+02  .522E+02  .468E+02  .468E+02
  .468E+02  .470E+02  .462E+02  .463E+02  .463E+02  .451E+02  .419E+02  .419E+02
  .419E+02  .422E+02  .422E+02  .463E+02  .463E+02  .463E+02  .000E+00  .000E+00
  .000E+00  .000E+00  .000E+00  .000E+00  .000E+00  .000E+00  .000E+00  .000E+00
  .000E+00  .000E+00  .000E+00  .000E+00  .000E+00  .000E+00  .000E+00  .000E+00
  .000E+00  .000E+00  .000E+00  .000E+00
/&   ----------  End of spectral data for channel  1  ----------
Response and Fourier amplitude spectra (78 periods,  .04 -  6.0 sec)   for      
Corrected accelerogram   38695658.CI.PDR.--.HN      Chan  2: 360 Deg     from   
Uncorrected Accelerogram Data             Processed: 09/19/20, CGS  cipdr--o    
Rcrd of Fri Sep 18, 2020 23:38:28.0 PDT               (Avol1 v2.0, 4/18 CSMIP)  
                                        (Origin:  To be determined)             
38695658.CI.PDR.--.HN                Start time:  9/19/20, 06:38:28.0 UTC (GPS) 
Station Id. PDR     33.963N, 118.437W    ObsMMS  s/n 4173  (3 Chns of  3 at Sta)
Playa del Rey, Weschester and Culver     SCSN   Data: Acceleration              
Chan  2: 360 Deg                                                                
Rcrd of Fri Sep 18, 2020 23:38:28.0 PDT    Fri Sep 18, 2020 23:38:28.0 PDT      
Hypocenter:  To be determined.               ML:  To be determined.             
Instr Period =  .0050 sec,  Damping =  .707,  Sensitivity = 4.99 v/g  (Nominal) 
                        Record Length =301.000 sec.                             
                                     Uncor Max  =  -.007 g, at   35.790 sec.    
RMS accel of (uncor) record  =        .   Chn. metadata effective date:         
Accelerogram bandpass filtered with 3 dB pts at   .30 and 23.00 cyc/sec         
                 instrument- and base-line correcte                             
                                                                                
                                                                                
                                                                                
                                                                                
                                                                                
Rcrd of Fri Sep 18, 2020 23:38:28.0 PDT    Fri Sep 18, 2020 23:38:28.0 PDT      
                                                                                
38695658.CI.PDR.--.HN     Playa del Rey, Weschester and Culver    Chan  2: 360 D
eg                                                                              
38695658.CI.PDR.--.HN     Playa del Rey, Weschester and Culver    Chan  2: 360 D
eg                                                                              
Units for spectra are inches and sec, except Sa is in fraction of g.            
                                                                                
    2  100    2    3    3  100 -999    3    1    0   15 4173    050636   41    0
    6   38   28    3  263    9   19 2020   10    3  36036131   39   36   74 -999
36131 -999  100    6 -999 -999 -999 -999 -999 -999 -999 -999 -999 -999 -999 -999
 -999 -999 -999 -99915050    2 -999    0 -999   20 -999 -999    3    1 -99915050
    315050    4   78    1    3    5    0    0 -999    0 -999 -999    6 -999    2
    2    2    4 -999 -999 -999 -999 -999 -999 -999 -999    1 -999 -999 -999  111
    1    1 -999 -999
      .005      .707   361.310      .000     1.000  4994.462     -.007    35.790
   200.000     2.384      .477  -999.000    10.000  -999.000     4.000  -999.000
    20.000   -17.743      .000  -999.000  -999.000  -999.000  -999.000     -.001
      .001      .001     2.000    15.000    33.963  -118.437      .004      .004
     1.143      .000      .002    45.000  -999.000  -999.000  -999.000  -999.000
     1.000  -999.000  -999.000  -999.000  -999.000  -999.000  -999.000   120.000
     -.900     2.000     6.800   980.665      .020   301.000    31.831      .000
  -999.000    23.000  -999.000   301.000      .020      .300  -999.000  -999.000
    35.780    -6.549    42.300     -.194    42.160      .021      .000      .300
    23.000      .020      .020      .000      .020      .021  -999.000  -999.000
      .024      .095      .013      .013      .002      .000  -999.000  -999.000
  -999.000  -999.000  -999.000  -999.000  -999.000  -999.000  -999.000  -999.000
  -999.000  -999.000  -999.000  -999.000
      .050
      .040      .042      .044      .046      .048      .050      .055      .060
      .065      .070      .075      .080      .085      .090      .095      .100
      .110      .120      .130      .140      .150      .160      .170      .180
      .190      .200      .220      .240      .260      .280      .300      .320
      .340      .360      .380      .400      .420      .440      .460      .480
      .500      .550      .600      .650      .700      .750      .800      .850
      .900      .950     1.000     1.100     1.200     1.300     1.400     1.500
     1.600     1.700     1.800     1.900     2.000     2.200     2.400     2.600
     2.800     3.000     3.200     3.400     3.600     3.800     4.000     4.200
     4.400     4.600     4.800     5.000     5.500     6.000      .000      .000
      .000      .000      .000      .000      .000      .000      .000      .000
      .000      .000      .000      .000      .000      .000      .000      .000
      .000      .000      .000      .000
Fourier amplitude spectra in in/sec.
  .000E+00  .000E+00  .000E+00  .000E+00  .000E+00  .000E+00  .000E+00  .000E+00
  .000E+00  .000E+00  .000E+00  .000E+00  .000E+00  .000E+00  .000E+00  .000E+00
  .000E+00  .000E+00  .000E+00  .000E+00  .000E+00  .000E+00  .000E+00  .000E+00
  .000E+00  .000E+00  .000E+00  .000E+00  .000E+00  .000E+00  .000E+00  .000E+00
  .000E+00  .000E+00  .000E+00  .000E+00  .000E+00  .000E+00  .000E+00  .000E+00
  .000E+00  .000E+00  .000E+00  .000E+00  .000E+00  .000E+00  .000E+00  .000E+00
  .000E+00  .000E+00  .000E+00  .000E+00  .000E+00  .000E+00  .000E+00  .000E+00
  .000E+00  .000E+00  .000E+00  .000E+00  .000E+00  .000E+00  .000E+00  .000E+00
  .000E+00  .000E+00  .000E+00  .000E+00  .000E+00  .000E+00  .000E+00  .000E+00
  .000E+00  .000E+00  .000E+00  .000E+00  .000E+00  .000E+00  .000E+00  .000E+00
  .000E+00  .000E+00  .000E+00  .000E+00  .000E+00  .000E+00  .000E+00  .000E+00
  .000E+00  .000E+00  .000E+00  .000E+00  .000E+00  .000E+00  .000E+00  .000E+00
  .000E+00  .000E+00  .000E+00  .000E+00
Damping =  .05. Data of Sd,Sv,Sa,Pssv,ttSd,ttSv,ttSa :
  .116E-03  .129E-03  .150E-03  .186E-03  .231E-03  .266E-03  .343E-03  .449E-03
  .772E-03  .924E-03  .109E-02  .105E-02  .118E-02  .159E-02  .206E-02  .209E-02
  .216E-02  .275E-02  .344E-02  .308E-02  .309E-02  .438E-02  .430E-02  .400E-02
  .443E-02  .556E-02  .622E-02  .714E-02  .832E-02  .102E-01  .100E-01  .132E-01
  .136E-01  .130E-01  .122E-01  .114E-01  .136E-01  .126E-01  .115E-01  .113E-01
