Response and Fourier amplitude spectra (78 periods,  .04 -  6.0 sec)   for      
Corrected accelerogram   38695658.CI.PDE.--.HN      Chan  1:  90 Deg     from   
Uncorrected Accelerogram Data             Processed: 09/19/20, CGS  cipde--w    
Rcrd of Fri Sep 18, 2020 23:38:35.0 PDT               (Avol1 v2.0, 4/18 CSMIP)  
                                        (Origin:  To be determined)             
38695658.CI.PDE.--.HN                Start time:  9/19/20, 06:38:35.0 UTC (GPS) 
Station Id. PDE     34.442N, 118.582W    ObsMMS  s/n 4201  (3 Chns of  6 at Sta)
Valencia, I-5 and Hwy 126                SCSN   Data: Acceleration              
Chan  1:  90 Deg                                                                
Rcrd of Fri Sep 18, 2020 23:38:35.0 PDT    Fri Sep 18, 2020 23:38:35.0 PDT      
Hypocenter:  To be determined.               ML:  To be determined.             
Instr Period =  .0050 sec,  Damping =  .707,  Sensitivity = 5.00 v/g  (Nominal) 
                        Record Length =301.000 sec.                             
                                     Uncor Max  =   .002 g, at   39.010 sec.    
RMS accel of (uncor) record  =        .   Chn. metadata effective date:         
Accelerogram bandpass filtered with 3 dB pts at   .30 and 23.00 cyc/sec         
                 instrument- and base-line correcte                             
                                                                                
                                                                                
                                                                                
                                                                                
                                                                                
Rcrd of Fri Sep 18, 2020 23:38:35.0 PDT    Fri Sep 18, 2020 23:38:35.0 PDT      
                                                                                
38695658.CI.PDE.--.HN     Valencia, I-5 and Hwy 126   Chan  1:  90 Deg          
                                                                                
38695658.CI.PDE.--.HN     Valencia, I-5 and Hwy 126   Chan  1:  90 Deg          
                                                                                
Units for spectra are inches and sec, except Sa is in fraction of g.            
                                                                                
    1  100    1    6    6  100 -999    3    1    0   15 4201    050556   41    0
    6   38   35    8  263    9   19 2020   10    3   9035641   39   25   74 -999
35641 -999  100    6 -999 -999 -999 -999 -999 -999 -999 -999 -999 -999 -999 -999
 -999 -999 -999 -99915050    2 -999    0 -999   20 -999 -999    3    1 -99915050
    315050    4   78    1    3    5    0    0 -999    0 -999 -999    6 -999    2
    2    2    4 -999 -999 -999 -999 -999 -999 -999 -999    1 -999 -999 -999  111
    1    1 -999 -999
      .005      .707   356.410      .000     1.000  4998.452      .002    39.010
   200.000     2.384      .477  -999.000    10.000  -999.000     4.000  -999.000
    20.000   -23.305      .000  -999.000  -999.000  -999.000  -999.000     -.001
      .000      .002     2.000    15.000    34.442  -118.582      .004      .004
     1.221      .001      .002   328.000  -999.000  -999.000  -999.000  -999.000
     1.000  -999.000    -8.000  -999.000  -999.000  -999.000  -999.000   120.000
     -.900     2.000     6.800   980.665      .020   301.000    31.831      .000
  -999.000    23.000  -999.000   301.000      .020      .300  -999.000  -999.000
    39.000     2.146    40.400      .124    45.040     -.012      .000      .300
    23.000      .020      .020      .000      .020      .011  -999.000  -999.000
      .007      .440      .005      .005      .002      .000  -999.000  -999.000
  -999.000  -999.000  -999.000  -999.000  -999.000  -999.000  -999.000  -999.000
  -999.000  -999.000  -999.000  -999.000
      .050
      .040      .042      .044      .046      .048      .050      .055      .060
      .065      .070      .075      .080      .085      .090      .095      .100
      .110      .120      .130      .140      .150      .160      .170      .180
      .190      .200      .220      .240      .260      .280      .300      .320
      .340      .360      .380      .400      .420      .440      .460      .480
      .500      .550      .600      .650      .700      .750      .800      .850
      .900      .950     1.000     1.100     1.200     1.300     1.400     1.500
     1.600     1.700     1.800     1.900     2.000     2.200     2.400     2.600
     2.800     3.000     3.200     3.400     3.600     3.800     4.000     4.200
     4.400     4.600     4.800     5.000     5.500     6.000      .000      .000
      .000      .000      .000      .000      .000      .000      .000      .000
      .000      .000      .000      .000      .000      .000      .000      .000
      .000      .000      .000      .000
Fourier amplitude spectra in in/sec.
  .000E+00  .000E+00  .000E+00  .000E+00  .000E+00  .000E+00  .000E+00  .000E+00
  .000E+00  .000E+00  .000E+00  .000E+00  .000E+00  .000E+00  .000E+00  .000E+00
  .000E+00  .000E+00  .000E+00  .000E+00  .000E+00  .000E+00  .000E+00  .000E+00
  .000E+00  .000E+00  .000E+00  .000E+00  .000E+00  .000E+00  .000E+00  .000E+00
  .000E+00  .000E+00  .000E+00  .000E+00  .000E+00  .000E+00  .000E+00  .000E+00
  .000E+00  .000E+00  .000E+00  .000E+00  .000E+00  .000E+00  .000E+00  .000E+00
  .000E+00  .000E+00  .000E+00  .000E+00  .000E+00  .000E+00  .000E+00  .000E+00
  .000E+00  .000E+00  .000E+00  .000E+00  .000E+00  .000E+00  .000E+00  .000E+00
  .000E+00  .000E+00  .000E+00  .000E+00  .000E+00  .000E+00  .000E+00  .000E+00
  .000E+00  .000E+00  .000E+00  .000E+00  .000E+00  .000E+00  .000E+00  .000E+00
  .000E+00  .000E+00  .000E+00  .000E+00  .000E+00  .000E+00  .000E+00  .000E+00
  .000E+00  .000E+00  .000E+00  .000E+00  .000E+00  .000E+00  .000E+00  .000E+00
  .000E+00  .000E+00  .000E+00  .000E+00
Damping =  .05. Data of Sd,Sv,Sa,Pssv,ttSd,ttSv,ttSa :
  .354E-04  .391E-04  .430E-04  .472E-04  .515E-04  .555E-04  .661E-04  .826E-04
  .972E-04  .126E-03  .155E-03  .188E-03  .212E-03  .246E-03  .322E-03  .421E-03
  .595E-03  .838E-03  .108E-02  .114E-02  .143E-02  .131E-02  .142E-02  .144E-02
  .155E-02  .173E-02  .275E-02  .290E-02  .366E-02  .425E-02  .446E-02  .497E-02
  .481E-02  .525E-02  .596E-02  .884E-02  .116E-01  .134E-01  .122E-01  .112E-01
  .114E-01  .116E-01  .135E-01  .137E-01  .133E-01  .151E-01  .170E-01  .188E-01
  .160E-01  .158E-01  .163E-01  .148E-01  .160E-01  .133E-01  .137E-01  .123E-01
  .121E-01  .126E-01  .109E-01  .118E-01  .995E-02  .928E-02  .887E-02  .114E-01
  .973E-02  .964E-02  .913E-02  .881E-02  .855E-02  .810E-02  .757E-02  .708E-02
  .672E-02  .648E-02  .627E-02  .606E-02  .564E-02  .539E-02  .000E+00  .000E+00
  .000E+00  .000E+00  .000E+00  .000E+00  .000E+00  .000E+00  .000E+00  .000E+00
  .000E+00  .000E+00  .000E+00  .000E+00  .000E+00  .000E+00  .000E+00  .000E+00
  .000E+00  .000E+00  .000E+00  .000E+00
  .109E-02  .118E-02  .127E-02  .145E-02  .163E-02  .175E-02  .281E-02  .375E-02
  .482E-02  .565E-02  .743E-02  .960E-02  .118E-01  .123E-01  .159E-01  .193E-01
  .317E-01  .404E-01  .489E-01  .463E-01  .498E-01  .410E-01  .422E-01  .417E-01
  .402E-01  .413E-01  .596E-01  .705E-01  .792E-01  .873E-01  .866E-01  .898E-01
  .824E-01  .816E-01  .928E-01  .134E+00  .171E+00  .188E+00  .171E+00  .151E+00
  .142E+00  .143E+00  .156E+00  .151E+00  .138E+00  .146E+00  .152E+00  .152E+00
  .123E+00  .115E+00  .107E+00  .110E+00  .888E-01  .777E-01  .832E-01  .680E-01
  .643E-01  .717E-01  .696E-01  .634E-01  .643E-01  .542E-01  .511E-01  .496E-01
  .481E-01  .497E-01  .504E-01  .499E-01  .492E-01  .487E-01  .483E-01  .479E-01
  .477E-01  .478E-01  .478E-01  .478E-01  .478E-01  .478E-01  .000E+00  .000E+00
  .000E+00  .000E+00  .000E+00  .000E+00  .000E+00  .000E+00  .000E+00  .000E+00
  .000E+00  .000E+00  .000E+00  .000E+00  .000E+00  .000E+00  .000E+00  .000E+00
  .000E+00  .000E+00  .000E+00  .000E+00
  .227E-02  .227E-02  .227E-02  .228E-02  .229E-02  .227E-02  .224E-02  .235E-02
  .236E-02  .264E-02  .279E-02  .303E-02  .304E-02  .310E-02  .368E-02  .426E-02
  .506E-02  .602E-02  .660E-02  .592E-02  .650E-02  .520E-02  .506E-02  .454E-02
  .441E-02  .444E-02  .574E-02  .508E-02  .555E-02  .554E-02  .508E-02  .500E-02
  .426E-02  .412E-02  .427E-02  .570E-02  .669E-02  .712E-02  .595E-02  .504E-02
  .469E-02  .396E-02  .385E-02  .332E-02  .278E-02  .277E-02  .273E-02  .267E-02
  .203E-02  .180E-02  .167E-02  .125E-02  .114E-02  .812E-03  .724E-03  .565E-03
  .486E-03  .450E-03  .349E-03  .337E-03  .260E-03  .200E-03  .159E-03  .176E-03
  .130E-03  .111E-03  .929E-04  .811E-04  .705E-04  .602E-04  .511E-04  .437E-04
  .382E-04  .341E-04  .306E-04  .277E-04  .237E-04  .209E-04  .000E+00  .000E+00
  .000E+00  .000E+00  .000E+00  .000E+00  .000E+00  .000E+00  .000E+00  .000E+00
  .000E+00  .000E+00  .000E+00  .000E+00  .000E+00  .000E+00  .000E+00  .000E+00
  .000E+00  .000E+00  .000E+00  .000E+00
  .557E-02  .585E-02  .614E-02  .645E-02  .674E-02  .697E-02  .755E-02  .865E-02
  .940E-02  .113E-01  .130E-01  .148E-01  .157E-01  .172E-01  .213E-01  .264E-01
  .340E-01  .439E-01  .523E-01  .513E-01  .598E-01  .513E-01  .523E-01  .502E-01
  .513E-01  .542E-01  .784E-01  .759E-01  .885E-01  .954E-01  .935E-01  .976E-01
  .889E-01  .916E-01  .985E-01  .139E+00  .173E+00  .191E+00  .167E+00  .147E+00
  .143E+00  .132E+00  .142E+00  .132E+00  .119E+00  .127E+00  .134E+00  .139E+00
  .111E+00  .104E+00  .102E+00  .843E-01  .838E-01  .643E-01  .617E-01  .514E-01
  .475E-01  .465E-01  .380E-01  .389E-01  .313E-01  .265E-01  .232E-01  .277E-01
  .218E-01  .202E-01  .179E-01  .163E-01  .149E-01  .134E-01  .119E-01  .106E-01
  .960E-02  .886E-02  .820E-02  .762E-02  .644E-02  .565E-02  .000E+00  .000E+00
  .000E+00  .000E+00  .000E+00  .000E+00  .000E+00  .000E+00  .000E+00  .000E+00
  .000E+00  .000E+00  .000E+00  .000E+00  .000E+00  .000E+00  .000E+00  .000E+00
  .000E+00  .000E+00  .000E+00  .000E+00
  .390E+02  .390E+02  .390E+02  .390E+02  .390E+02  .390E+02  .390E+02  .390E+02
  .390E+02  .328E+02  .329E+02  .329E+02  .329E+02  .340E+02  .340E+02  .340E+02
  .337E+02  .337E+02  .340E+02  .340E+02  .340E+02  .340E+02  .340E+02  .340E+02
  .405E+02  .405E+02  .405E+02  .361E+02  .405E+02  .407E+02  .363E+02  .363E+02
  .363E+02  .392E+02  .392E+02  .407E+02  .408E+02  .413E+02  .391E+02  .383E+02
  .383E+02  .411E+02  .409E+02  .407E+02  .392E+02  .471E+02  .471E+02  .453E+02
  .453E+02  .453E+02  .562E+02  .548E+02  .549E+02  .453E+02  .429E+02  .429E+02
  .545E+02  .539E+02  .387E+02  .388E+02  .388E+02  .465E+02  .558E+02  .539E+02
  .502E+02  .535E+02  .492E+02  .450E+02  .450E+02  .450E+02  .450E+02  .450E+02
  .450E+02  .450E+02  .450E+02  .450E+02  .450E+02  .450E+02  .000E+00  .000E+00
  .000E+00  .000E+00  .000E+00  .000E+00  .000E+00  .000E+00  .000E+00  .000E+00
  .000E+00  .000E+00  .000E+00  .000E+00  .000E+00  .000E+00  .000E+00  .000E+00
  .000E+00  .000E+00  .000E+00  .000E+00
  .334E+02  .334E+02  .334E+02  .332E+02  .332E+02  .332E+02  .332E+02  .332E+02
  .336E+02  .254E+02  .329E+02  .329E+02  .329E+02  .352E+02  .253E+02  .253E+02
  .337E+02  .337E+02  .333E+02  .333E+02  .340E+02  .340E+02  .340E+02  .340E+02
  .340E+02  .330E+02  .404E+02  .361E+02  .349E+02  .406E+02  .363E+02  .364E+02
  .364E+02  .392E+02  .392E+02  .406E+02  .407E+02  .412E+02  .390E+02  .390E+02
  .382E+02  .412E+02  .411E+02  .405E+02  .390E+02  .391E+02  .391E+02  .459E+02
  .406E+02  .406E+02  .448E+02  .389E+02  .546E+02  .389E+02  .452E+02  .448E+02
  .406E+02  .406E+02  .389E+02  .404E+02  .404E+02  .404E+02  .404E+02  .404E+02
  .537E+02  .406E+02  .406E+02  .406E+02  .406E+02  .406E+02  .406E+02  .406E+02
  .404E+02  .404E+02  .404E+02  .404E+02  .404E+02  .404E+02  .000E+00  .000E+00
  .000E+00  .000E+00  .000E+00  .000E+00  .000E+00  .000E+00  .000E+00  .000E+00
  .000E+00  .000E+00  .000E+00  .000E+00  .000E+00  .000E+00  .000E+00  .000E+00
  .000E+00  .000E+00  .000E+00  .000E+00
  .390E+02  .390E+02  .390E+02  .390E+02  .390E+02  .390E+02  .390E+02  .390E+02
  .390E+02  .328E+02  .329E+02  .329E+02  .329E+02  .340E+02  .340E+02  .340E+02
  .337E+02  .337E+02  .340E+02  .340E+02  .340E+02  .340E+02  .340E+02  .340E+02
  .405E+02  .405E+02  .405E+02  .361E+02  .405E+02  .407E+02  .363E+02  .363E+02
  .363E+02  .392E+02  .392E+02  .407E+02  .408E+02  .413E+02  .391E+02  .383E+02
  .383E+02  .411E+02  .409E+02  .410E+02  .392E+02  .471E+02  .471E+02  .452E+02
  .453E+02  .453E+02  .561E+02  .548E+02  .549E+02  .453E+02  .428E+02  .429E+02
  .545E+02  .539E+02  .387E+02  .387E+02  .388E+02  .465E+02  .558E+02  .539E+02
  .502E+02  .534E+02  .491E+02  .449E+02  .449E+02  .449E+02  .449E+02  .449E+02
  .449E+02  .449E+02  .449E+02  .449E+02  .404E+02  .404E+02  .000E+00  .000E+00
  .000E+00  .000E+00  .000E+00  .000E+00  .000E+00  .000E+00  .000E+00  .000E+00
  .000E+00  .000E+00  .000E+00  .000E+00  .000E+00  .000E+00  .000E+00  .000E+00
  .000E+00  .000E+00  .000E+00  .000E+00
/&   ----------  End of spectral data for channel  1  ----------
Response and Fourier amplitude spectra (78 periods,  .04 -  6.0 sec)   for      
Corrected accelerogram   38695658.CI.PDE.--.HN      Chan  2: 360 Deg     from   
Uncorrected Accelerogram Data             Processed: 09/19/20, CGS  cipde--w    
Rcrd of Fri Sep 18, 2020 23:38:35.0 PDT               (Avol1 v2.0, 4/18 CSMIP)  
                                        (Origin:  To be determined)             
38695658.CI.PDE.--.HN                Start time:  9/19/20, 06:38:35.0 UTC (GPS) 
Station Id. PDE     34.442N, 118.582W    ObsMMS  s/n 4201  (3 Chns of  6 at Sta)
Valencia, I-5 and Hwy 126                SCSN   Data: Acceleration              
Chan  2: 360 Deg                                                                
Rcrd of Fri Sep 18, 2020 23:38:35.0 PDT    Fri Sep 18, 2020 23:38:35.0 PDT      
Hypocenter:  To be determined.               ML:  To be determined.             
Instr Period =  .0050 sec,  Damping =  .707,  Sensitivity = 4.99 v/g  (Nominal) 
                        Record Length =301.000 sec.                             
                                     Uncor Max  =  -.002 g, at   38.540 sec.    
RMS accel of (uncor) record  =        .   Chn. metadata effective date:         
Accelerogram bandpass filtered with 3 dB pts at   .30 and 23.00 cyc/sec         
                 instrument- and base-line correcte                             
                                                                                
                                                                                
                                                                                
                                                                                
                                                                                
Rcrd of Fri Sep 18, 2020 23:38:35.0 PDT    Fri Sep 18, 2020 23:38:35.0 PDT      
                                                                                
38695658.CI.PDE.--.HN     Valencia, I-5 and Hwy 126   Chan  2: 360 Deg          
                                                                                
38695658.CI.PDE.--.HN     Valencia, I-5 and Hwy 126   Chan  2: 360 Deg          
                                                                                
Units for spectra are inches and sec, except Sa is in fraction of g.            
                                                                                
    2  100    2    6    6  100 -999    3    1    0   15 4201    050556   41    0
    6   38   35    8  263    9   19 2020   10    3  36035932   39   25   74 -999
35932 -999  100    6 -999 -999 -999 -999 -999 -999 -999 -999 -999 -999 -999 -999
 -999 -999 -999 -99915050    2 -999    0 -999   20 -999 -999    3    1 -99915050
    315050    4   78    1    3    5    0    0 -999    0 -999 -999    6 -999    2
    2    2    4 -999 -999 -999 -999 -999 -999 -999 -999    1 -999 -999 -999  111
    1    1 -999 -999
      .005      .707   359.320      .000     1.000  4990.473     -.002    38.540
   200.000     2.384      .478  -999.000    10.000  -999.000     4.000  -999.000
    20.000     8.622      .000  -999.000  -999.000  -999.000  -999.000     -.002
      .001      .003     2.000    15.000    34.442  -118.582      .004      .003
      .795      .002      .003   328.000  -999.000  -999.000  -999.000  -999.000
     1.000  -999.000  -999.000  -999.000  -999.000  -999.000  -999.000   120.000
     -.900     2.000     6.800   980.665      .020   301.000    31.831      .000
  -999.000    23.000  -999.000   301.000      .020      .300  -999.000  -999.000
    38.540    -1.610    38.460      .098    38.540      .015      .000      .300
    23.000      .020      .020      .000      .020      .009  -999.000  -999.000
      .006      .280      .004      .005      .001      .000  -999.000  -999.000
  -999.000  -999.000  -999.000  -999.000  -999.000  -999.000  -999.000  -999.000
  -999.000  -999.000  -999.000  -999.000
      .050
      .040      .042      .044      .046      .048      .050      .055      .060
      .065      .070      .075      .080      .085      .090      .095      .100
      .110      .120      .130      .140      .150      .160      .170      .180
      .190      .200      .220      .240      .260      .280      .300      .320
      .340      .360      .380      .400      .420      .440      .460      .480
      .500      .550      .600      .650      .700      .750      .800      .850
      .900      .950     1.000     1.100     1.200     1.300     1.400     1.500
     1.600     1.700     1.800     1.900     2.000     2.200     2.400     2.600
     2.800     3.000     3.200     3.400     3.600     3.800     4.000     4.200
     4.400     4.600     4.800     5.000     5.500     6.000      .000      .000
      .000      .000      .000      .000      .000      .000      .000      .000
      .000      .000      .000      .000      .000      .000      .000      .000
      .000      .000      .000      .000
Fourier amplitude spectra in in/sec.
  .000E+00  .000E+00  .000E+00  .000E+00  .000E+00  .000E+00  .000E+00  .000E+00
  .000E+00  .000E+00  .000E+00  .000E+00  .000E+00  .000E+00  .000E+00  .000E+00
  .000E+00  .000E+00  .000E+00  .000E+00  .000E+00  .000E+00  .000E+00  .000E+00
  .000E+00  .000E+00  .000E+00  .000E+00  .000E+00  .000E+00  .000E+00  .000E+00
  .000E+00  .000E+00  .000E+00  .000E+00  .000E+00  .000E+00  .000E+00  .000E+00
  .000E+00  .000E+00  .000E+00  .000E+00  .000E+00  .000E+00  .000E+00  .000E+00
  .000E+00  .000E+00  .000E+00  .000E+00  .000E+00  .000E+00  .000E+00  .000E+00
  .000E+00  .000E+00  .000E+00  .000E+00  .000E+00  .000E+00  .000E+00  .000E+00
  .000E+00  .000E+00  .000E+00  .000E+00  .000E+00  .000E+00  .000E+00  .000E+00
  .000E+00  .000E+00  .000E+00  .000E+00  .000E+00  .000E+00  .000E+00  .000E+00
  .000E+00  .000E+00  .000E+00  .000E+00  .000E+00  .000E+00  .000E+00  .000E+00
  .000E+00  .000E+00  .000E+00  .000E+00  .000E+00  .000E+00  .000E+00  .000E+00
  .000E+00  .000E+00  .000E+00  .000E+00
Damping =  .05. Data of Sd,Sv,Sa,Pssv,ttSd,ttSv,ttSa :
  .265E-04  .293E-04  .324E-04  .358E-04  .395E-04  .436E-04  .554E-04  .660E-04
  .756E-04  .855E-04  .103E-03  .132E-03  .156E-03  .192E-03  .255E-03  .282E-03
  .464E-03  .656E-03  .863E-03  .867E-03  .117E-02  .106E-02  .106E-02  .101E-02
  .115E-02  .155E-02  .268E-02  .326E-02  .395E-02  .492E-02  .465E-02  .455E-02
  .399E-02  .529E-02  .793E-02  .885E-02  .743E-02  .609E-02  .729E-02  .684E-02
