Response and Fourier amplitude spectra (78 periods,  .04 -  6.0 sec)   for      
Corrected accelerogram   38695658.CI.Q0071.01.      Chan  1:  90 Deg     from   
Uncorrected Accelerogram Data             Processed: 09/19/20, CGS  ciq0071p    
Rcrd of Fri Sep 18, 2020 23:38:41.0 PDT               (Avol1 v2.0, 4/18 CSMIP)  
                                        (Origin:  To be determined)             
38695658.CI.Q0071.01.                Start time:  9/19/20, 06:38:41.0 UTC (GPS) 
Station Id. Q0071   33.535N, 117.334W    ObsMMS  s/n  269  (3 Chns of  3 at Sta)
Hombre Lane, Murrieta CA                 SCSN   Data: Acceleration              
Chan  1:  90 Deg                                                                
Rcrd of Fri Sep 18, 2020 23:38:41.0 PDT    Fri Sep 18, 2020 23:38:41.0 PDT      
Hypocenter:  To be determined.               ML:  To be determined.             
Instr Period =  .0050 sec,  Damping =  .707,  Sensitivity = 3.32 v/g  (Nominal) 
                        Record Length = 88.000 sec.                             
                                     Uncor Max  =   .017 g, at   32.785 sec.    
RMS accel of (uncor) record  =        .   Chn. metadata effective date:         
Accelerogram bandpass filtered with 3 dB pts at   .30 and 40.00 cyc/sec         
                 instrument- and base-line correcte                             
                                                                                
                                                                                
                                                                                
                                                                                
                                                                                
Rcrd of Fri Sep 18, 2020 23:38:41.0 PDT    Fri Sep 18, 2020 23:38:41.0 PDT      
                                                                                
38695658.CI.Q0071.01.     Hombre Lane, Murrieta CA    Chan  1:  90 Deg          
                                                                                
38695658.CI.Q0071.01.     Hombre Lane, Murrieta CA    Chan  1:  90 Deg          
                                                                                
Units for spectra are inches and sec, except Sa is in fraction of g.            
                                                                                
    1  100    1    3    3  200 -999    3    1    0   15  269    0    0   41    0
    6   38   41    0  263    9   19 2020   10    3   9017600   39   24   74 -999
17600 -999  100    6 -999 -999 -999 -999 -999 -999 -999 -999 -999 -999 -999 -999
 -999 -999 -999 -999 8800    2 -999    0 -999    0 -999 -999    3    1  269 8800
    3 8800    4   78    1    3    5    0    0 -999    0 -999 -999    6 -999    2
    2    2    4 -999 -999 -999 -999 -999 -999 -999 -999    1 -999 -999 -999  111
    1    1 -999 -999
      .005      .707    88.000      .001     1.000  3320.998      .017    32.785
   200.000     1.325      .399  -999.000     5.000  -999.000     3.000  -999.000
    10.000    13.922      .000  -999.000  -999.000  -999.000  -999.000      .002
     -.001     -.003     2.000    15.000    33.535  -117.334      .008      .018
     2.239     -.004     -.001   602.000  -999.000  -999.000  -999.000  -999.000
     1.000  -999.000    -8.000  -999.000  -999.000  -999.000  -999.000   120.000
     -.900     2.000     6.800   980.665      .010    88.000    31.831      .000
  -999.000    40.000  -999.000    88.000      .010      .300  -999.000  -999.000
    32.780    16.056    32.760     -.259    31.890     -.006      .000      .300
    40.000      .010      .010      .000      .010      .005  -999.000  -999.000
      .116      .090      .011      .008      .000      .000  -999.000  -999.000
  -999.000  -999.000  -999.000  -999.000  -999.000  -999.000  -999.000  -999.000
  -999.000  -999.000  -999.000  -999.000
      .050
      .040      .042      .044      .046      .048      .050      .055      .060
      .065      .070      .075      .080      .085      .090      .095      .100
      .110      .120      .130      .140      .150      .160      .170      .180
      .190      .200      .220      .240      .260      .280      .300      .320
      .340      .360      .380      .400      .420      .440      .460      .480
      .500      .550      .600      .650      .700      .750      .800      .850
      .900      .950     1.000     1.100     1.200     1.300     1.400     1.500
     1.600     1.700     1.800     1.900     2.000     2.200     2.400     2.600
     2.800     3.000     3.200     3.400     3.600     3.800     4.000     4.200
     4.400     4.600     4.800     5.000     5.500     6.000      .000      .000
      .000      .000      .000      .000      .000      .000      .000      .000
      .000      .000      .000      .000      .000      .000      .000      .000
      .000      .000      .000      .000
Fourier amplitude spectra in in/sec.
  .000E+00  .000E+00  .000E+00  .000E+00  .000E+00  .000E+00  .000E+00  .000E+00
  .000E+00  .000E+00  .000E+00  .000E+00  .000E+00  .000E+00  .000E+00  .000E+00
  .000E+00  .000E+00  .000E+00  .000E+00  .000E+00  .000E+00  .000E+00  .000E+00
  .000E+00  .000E+00  .000E+00  .000E+00  .000E+00  .000E+00  .000E+00  .000E+00
  .000E+00  .000E+00  .000E+00  .000E+00  .000E+00  .000E+00  .000E+00  .000E+00
  .000E+00  .000E+00  .000E+00  .000E+00  .000E+00  .000E+00  .000E+00  .000E+00
  .000E+00  .000E+00  .000E+00  .000E+00  .000E+00  .000E+00  .000E+00  .000E+00
  .000E+00  .000E+00  .000E+00  .000E+00  .000E+00  .000E+00  .000E+00  .000E+00
  .000E+00  .000E+00  .000E+00  .000E+00  .000E+00  .000E+00  .000E+00  .000E+00
  .000E+00  .000E+00  .000E+00  .000E+00  .000E+00  .000E+00  .000E+00  .000E+00
  .000E+00  .000E+00  .000E+00  .000E+00  .000E+00  .000E+00  .000E+00  .000E+00
  .000E+00  .000E+00  .000E+00  .000E+00  .000E+00  .000E+00  .000E+00  .000E+00
  .000E+00  .000E+00  .000E+00  .000E+00
Damping =  .05. Data of Sd,Sv,Sa,Pssv,ttSd,ttSv,ttSa :
  .308E-03  .347E-03  .398E-03  .447E-03  .512E-03  .578E-03  .733E-03  .980E-03
  .149E-02  .207E-02  .291E-02  .433E-02  .714E-02  .925E-02  .871E-02  .691E-02
  .523E-02  .469E-02  .495E-02  .414E-02  .372E-02  .309E-02  .329E-02  .348E-02
  .371E-02  .418E-02  .492E-02  .522E-02  .589E-02  .694E-02  .579E-02  .664E-02
  .622E-02  .592E-02  .570E-02  .566E-02  .534E-02  .535E-02  .516E-02  .511E-02
  .481E-02  .413E-02  .397E-02  .378E-02  .383E-02  .384E-02  .378E-02  .382E-02
  .384E-02  .390E-02  .401E-02  .439E-02  .441E-02  .413E-02  .437E-02  .439E-02
  .454E-02  .427E-02  .409E-02  .404E-02  .387E-02  .325E-02  .342E-02  .342E-02
  .322E-02  .300E-02  .276E-02  .265E-02  .255E-02  .257E-02  .248E-02  .244E-02
  .249E-02  .266E-02  .277E-02  .276E-02  .274E-02  .261E-02  .000E+00  .000E+00
  .000E+00  .000E+00  .000E+00  .000E+00  .000E+00  .000E+00  .000E+00  .000E+00
  .000E+00  .000E+00  .000E+00  .000E+00  .000E+00  .000E+00  .000E+00  .000E+00
  .000E+00  .000E+00  .000E+00  .000E+00
  .222E-01  .245E-01  .266E-01  .306E-01  .351E-01  .389E-01  .504E-01  .794E-01
  .113E+00  .146E+00  .209E+00  .305E+00  .501E+00  .631E+00  .579E+00  .467E+00
  .333E+00  .256E+00  .271E+00  .215E+00  .193E+00  .170E+00  .172E+00  .158E+00
  .146E+00  .151E+00  .198E+00  .170E+00  .172E+00  .186E+00  .199E+00  .163E+00
  .173E+00  .178E+00  .166E+00  .153E+00  .143E+00  .133E+00  .134E+00  .123E+00
  .122E+00  .120E+00  .115E+00  .114E+00  .109E+00  .107E+00  .106E+00  .102E+00
  .101E+00  .102E+00  .106E+00  .108E+00  .107E+00  .105E+00  .102E+00  .996E-01
  .101E+00  .104E+00  .105E+00  .105E+00  .106E+00  .104E+00  .104E+00  .103E+00
  .102E+00  .101E+00  .100E+00  .995E-01  .994E-01  .991E-01  .987E-01  .987E-01
  .985E-01  .982E-01  .981E-01  .982E-01  .982E-01  .984E-01  .000E+00  .000E+00
  .000E+00  .000E+00  .000E+00  .000E+00  .000E+00  .000E+00  .000E+00  .000E+00
  .000E+00  .000E+00  .000E+00  .000E+00  .000E+00  .000E+00  .000E+00  .000E+00
  .000E+00  .000E+00  .000E+00  .000E+00
  .198E-01  .202E-01  .211E-01  .218E-01  .228E-01  .238E-01  .247E-01  .280E-01
  .363E-01  .435E-01  .526E-01  .696E-01  .102E+00  .116E+00  .981E-01  .719E-01
  .451E-01  .332E-01  .298E-01  .215E-01  .171E-01  .122E-01  .119E-01  .113E-01
  .104E-01  .107E-01  .104E-01  .928E-02  .909E-02  .912E-02  .675E-02  .666E-02
  .566E-02  .478E-02  .408E-02  .366E-02  .315E-02  .285E-02  .253E-02  .229E-02
  .201E-02  .141E-02  .115E-02  .941E-03  .824E-03  .721E-03  .627E-03  .563E-03
  .507E-03  .467E-03  .433E-03  .412E-03  .356E-03  .307E-03  .288E-03  .259E-03
  .240E-03  .209E-03  .177E-03  .161E-03  .145E-03  .109E-03  .909E-04  .755E-04
  .648E-04  .596E-04  .530E-04  .506E-04  .470E-04  .454E-04  .426E-04  .401E-04
  .385E-04  .365E-04  .340E-04  .322E-04  .300E-04  .277E-04  .000E+00  .000E+00
  .000E+00  .000E+00  .000E+00  .000E+00  .000E+00  .000E+00  .000E+00  .000E+00
  .000E+00  .000E+00  .000E+00  .000E+00  .000E+00  .000E+00  .000E+00  .000E+00
  .000E+00  .000E+00  .000E+00  .000E+00
  .484E-01  .519E-01  .568E-01  .611E-01  .670E-01  .726E-01  .837E-01  .103E+00
  .144E+00  .186E+00  .244E+00  .340E+00  .527E+00  .646E+00  .576E+00  .434E+00
  .299E+00  .245E+00  .239E+00  .186E+00  .156E+00  .121E+00  .122E+00  .121E+00
  .123E+00  .131E+00  .141E+00  .137E+00  .142E+00  .156E+00  .121E+00  .130E+00
  .115E+00  .103E+00  .943E-01  .890E-01  .799E-01  .764E-01  .704E-01  .669E-01
  .605E-01  .472E-01  .415E-01  .365E-01  .344E-01  .321E-01  .297E-01  .282E-01
  .268E-01  .258E-01  .252E-01  .251E-01  .231E-01  .200E-01  .196E-01  .184E-01
  .178E-01  .158E-01  .143E-01  .134E-01  .122E-01  .929E-02  .894E-02  .825E-02
  .722E-02  .629E-02  .541E-02  .489E-02  .446E-02  .424E-02  .389E-02  .364E-02
  .355E-02  .364E-02  .362E-02  .347E-02  .313E-02  .274E-02  .000E+00  .000E+00
  .000E+00  .000E+00  .000E+00  .000E+00  .000E+00  .000E+00  .000E+00  .000E+00
  .000E+00  .000E+00  .000E+00  .000E+00  .000E+00  .000E+00  .000E+00  .000E+00
  .000E+00  .000E+00  .000E+00  .000E+00
  .329E+02  .329E+02  .329E+02  .329E+02  .329E+02  .329E+02  .328E+02  .327E+02
  .327E+02  .328E+02  .328E+02  .328E+02  .329E+02  .330E+02  .330E+02  .330E+02
  .330E+02  .333E+02  .333E+02  .332E+02  .344E+02  .334E+02  .328E+02  .331E+02
  .331E+02  .344E+02  .331E+02  .336E+02  .334E+02  .334E+02  .329E+02  .328E+02
  .328E+02  .334E+02  .333E+02  .325E+02  .324E+02  .324E+02  .322E+02  .322E+02
  .322E+02  .322E+02  .320E+02  .320E+02  .320E+02  .320E+02  .320E+02  .320E+02
  .320E+02  .320E+02  .320E+02  .332E+02  .332E+02  .332E+02  .328E+02  .328E+02
  .328E+02  .328E+02  .330E+02  .330E+02  .330E+02  .320E+02  .324E+02  .324E+02
  .324E+02  .324E+02  .324E+02  .324E+02  .324E+02  .324E+02  .319E+02  .319E+02
  .319E+02  .319E+02  .319E+02  .319E+02  .319E+02  .319E+02  .000E+00  .000E+00
  .000E+00  .000E+00  .000E+00  .000E+00  .000E+00  .000E+00  .000E+00  .000E+00
  .000E+00  .000E+00  .000E+00  .000E+00  .000E+00  .000E+00  .000E+00  .000E+00
  .000E+00  .000E+00  .000E+00  .000E+00
  .328E+02  .328E+02  .328E+02  .328E+02  .328E+02  .328E+02  .326E+02  .327E+02
  .328E+02  .328E+02  .328E+02  .328E+02  .329E+02  .330E+02  .330E+02  .330E+02
  .330E+02  .329E+02  .333E+02  .332E+02  .328E+02  .328E+02  .328E+02  .332E+02
  .332E+02  .328E+02  .331E+02  .334E+02  .336E+02  .329E+02  .329E+02  .328E+02
  .329E+02  .328E+02  .328E+02  .326E+02  .326E+02  .329E+02  .329E+02  .329E+02
  .328E+02  .329E+02  .328E+02  .328E+02  .328E+02  .329E+02  .329E+02  .329E+02
  .332E+02  .332E+02  .329E+02  .329E+02  .329E+02  .329E+02  .329E+02  .329E+02
  .328E+02  .328E+02  .328E+02  .328E+02  .328E+02  .328E+02  .328E+02  .328E+02
  .328E+02  .328E+02  .328E+02  .328E+02  .328E+02  .328E+02  .328E+02  .328E+02
  .328E+02  .328E+02  .328E+02  .328E+02  .328E+02  .328E+02  .000E+00  .000E+00
  .000E+00  .000E+00  .000E+00  .000E+00  .000E+00  .000E+00  .000E+00  .000E+00
  .000E+00  .000E+00  .000E+00  .000E+00  .000E+00  .000E+00  .000E+00  .000E+00
  .000E+00  .000E+00  .000E+00  .000E+00
  .329E+02  .329E+02  .329E+02  .329E+02  .329E+02  .329E+02  .328E+02  .327E+02
  .327E+02  .328E+02  .328E+02  .328E+02  .329E+02  .330E+02  .330E+02  .330E+02
  .330E+02  .333E+02  .333E+02  .332E+02  .344E+02  .334E+02  .328E+02  .331E+02
  .331E+02  .344E+02  .330E+02  .336E+02  .334E+02  .334E+02  .329E+02  .328E+02
  .328E+02  .326E+02  .332E+02  .325E+02  .324E+02  .324E+02  .322E+02  .322E+02
  .322E+02  .322E+02  .320E+02  .320E+02  .320E+02  .320E+02  .320E+02  .320E+02
  .320E+02  .329E+02  .320E+02  .332E+02  .332E+02  .328E+02  .328E+02  .328E+02
  .328E+02  .328E+02  .330E+02  .330E+02  .330E+02  .330E+02  .332E+02  .332E+02
  .326E+02  .326E+02  .329E+02  .329E+02  .329E+02  .329E+02  .329E+02  .329E+02
  .329E+02  .329E+02  .329E+02  .328E+02  .328E+02  .328E+02  .000E+00  .000E+00
  .000E+00  .000E+00  .000E+00  .000E+00  .000E+00  .000E+00  .000E+00  .000E+00
  .000E+00  .000E+00  .000E+00  .000E+00  .000E+00  .000E+00  .000E+00  .000E+00
  .000E+00  .000E+00  .000E+00  .000E+00
/&   ----------  End of spectral data for channel  1  ----------
Response and Fourier amplitude spectra (78 periods,  .04 -  6.0 sec)   for      
Corrected accelerogram   38695658.CI.Q0071.01.      Chan  2: 360 Deg     from   
Uncorrected Accelerogram Data             Processed: 09/19/20, CGS  ciq0071p    
Rcrd of Fri Sep 18, 2020 23:38:41.0 PDT               (Avol1 v2.0, 4/18 CSMIP)  
                                        (Origin:  To be determined)             
38695658.CI.Q0071.01.                Start time:  9/19/20, 06:38:41.0 UTC (GPS) 
Station Id. Q0071   33.535N, 117.334W    ObsMMS  s/n  269  (3 Chns of  3 at Sta)
Hombre Lane, Murrieta CA                 SCSN   Data: Acceleration              
Chan  2: 360 Deg                                                                
Rcrd of Fri Sep 18, 2020 23:38:41.0 PDT    Fri Sep 18, 2020 23:38:41.0 PDT      
Hypocenter:  To be determined.               ML:  To be determined.             
Instr Period =  .0050 sec,  Damping =  .707,  Sensitivity = 3.32 v/g  (Nominal) 
                        Record Length = 88.000 sec.                             
                                     Uncor Max  =   .011 g, at   33.405 sec.    
RMS accel of (uncor) record  =        .   Chn. metadata effective date:         
Accelerogram bandpass filtered with 3 dB pts at   .30 and 40.00 cyc/sec         
                 instrument- and base-line correcte                             
                                                                                
                                                                                
                                                                                
                                                                                
                                                                                
Rcrd of Fri Sep 18, 2020 23:38:41.0 PDT    Fri Sep 18, 2020 23:38:41.0 PDT      
                                                                                
38695658.CI.Q0071.01.     Hombre Lane, Murrieta CA    Chan  2: 360 Deg          
                                                                                
38695658.CI.Q0071.01.     Hombre Lane, Murrieta CA    Chan  2: 360 Deg          
                                                                                
Units for spectra are inches and sec, except Sa is in fraction of g.            
                                                                                
    2  100    2    3    3  200 -999    3    1    0   15  269    0    0   41    0
    6   38   41    0  263    9   19 2020   10    3  36017600   39   24   74 -999
17600 -999  100    6 -999 -999 -999 -999 -999 -999 -999 -999 -999 -999 -999 -999
 -999 -999 -999 -999 8800    2 -999    0 -999    0 -999 -999    3    1  269 8800
    3 8800    4   78    1    3    5    0    0 -999    0 -999 -999    6 -999    2
    2    2    4 -999 -999 -999 -999 -999 -999 -999 -999    1 -999 -999 -999  111
    1    1 -999 -999
      .005      .707    88.000      .001     1.000  3320.998      .011    33.405
   200.000     1.325      .399  -999.000     5.000  -999.000     3.000  -999.000
    10.000   -18.055      .000  -999.000  -999.000  -999.000  -999.000     -.002
      .004      .006     2.000    15.000    33.535  -117.334      .007      .018
     2.535      .005      .008   602.000  -999.000  -999.000  -999.000  -999.000
     1.000  -999.000  -999.000  -999.000  -999.000  -999.000  -999.000   120.000
     -.900     2.000     6.800   980.665      .010    88.000    31.831      .000
  -999.000    40.000  -999.000    88.000      .010      .300  -999.000  -999.000
    33.400    10.465    32.660      .194    32.710      .005      .000      .300
    40.000      .010      .010      .000      .010      .004  -999.000  -999.000
      .039      .110      .013      .009      .000      .000  -999.000  -999.000
  -999.000  -999.000  -999.000  -999.000  -999.000  -999.000  -999.000  -999.000
  -999.000  -999.000  -999.000  -999.000
      .050
      .040      .042      .044      .046      .048      .050      .055      .060
      .065      .070      .075      .080      .085      .090      .095      .100
      .110      .120      .130      .140      .150      .160      .170      .180
      .190      .200      .220      .240      .260      .280      .300      .320
      .340      .360      .380      .400      .420      .440      .460      .480
      .500      .550      .600      .650      .700      .750      .800      .850
      .900      .950     1.000     1.100     1.200     1.300     1.400     1.500
     1.600     1.700     1.800     1.900     2.000     2.200     2.400     2.600
     2.800     3.000     3.200     3.400     3.600     3.800     4.000     4.200
     4.400     4.600     4.800     5.000     5.500     6.000      .000      .000
      .000      .000      .000      .000      .000      .000      .000      .000
      .000      .000      .000      .000      .000      .000      .000      .000
      .000      .000      .000      .000
Fourier amplitude spectra in in/sec.
  .000E+00  .000E+00  .000E+00  .000E+00  .000E+00  .000E+00  .000E+00  .000E+00
  .000E+00  .000E+00  .000E+00  .000E+00  .000E+00  .000E+00  .000E+00  .000E+00
  .000E+00  .000E+00  .000E+00  .000E+00  .000E+00  .000E+00  .000E+00  .000E+00
  .000E+00  .000E+00  .000E+00  .000E+00  .000E+00  .000E+00  .000E+00  .000E+00
  .000E+00  .000E+00  .000E+00  .000E+00  .000E+00  .000E+00  .000E+00  .000E+00
  .000E+00  .000E+00  .000E+00  .000E+00  .000E+00  .000E+00  .000E+00  .000E+00
  .000E+00  .000E+00  .000E+00  .000E+00  .000E+00  .000E+00  .000E+00  .000E+00
  .000E+00  .000E+00  .000E+00  .000E+00  .000E+00  .000E+00  .000E+00  .000E+00
  .000E+00  .000E+00  .000E+00  .000E+00  .000E+00  .000E+00  .000E+00  .000E+00
  .000E+00  .000E+00  .000E+00  .000E+00  .000E+00  .000E+00  .000E+00  .000E+00
  .000E+00  .000E+00  .000E+00  .000E+00  .000E+00  .000E+00  .000E+00  .000E+00
  .000E+00  .000E+00  .000E+00  .000E+00  .000E+00  .000E+00  .000E+00  .000E+00
  .000E+00  .000E+00  .000E+00  .000E+00
Damping =  .05. Data of Sd,Sv,Sa,Pssv,ttSd,ttSv,ttSa :
  .225E-03  .249E-03  .315E-03  .366E-03  .402E-03  .476E-03  .700E-03  .843E-03
  .832E-03  .832E-03  .104E-02  .125E-02  .187E-02  .251E-02  .303E-02  .331E-02
  .467E-02  .481E-02  .337E-02  .279E-02  .310E-02  .293E-02  .267E-02  .307E-02
  .378E-02  .461E-02  .720E-02  .628E-02  .795E-02  .846E-02  .751E-02  .700E-02
  .640E-02  .472E-02  .357E-02  .422E-02  .488E-02  .481E-02  .464E-02  .435E-02
