Response and Fourier amplitude spectra (78 periods,  .04 -  6.0 sec)   for      
Corrected accelerogram   38695658.CI.Q0074.01.      Chan  1:  90 Deg     from   
Uncorrected Accelerogram Data             Processed: 09/19/20, CGS  ciq0074x    
Rcrd of Fri Sep 18, 2020 23:38:33.0 PDT               (Avol1 v2.0, 4/18 CSMIP)  
                                        (Origin:  To be determined)             
38695658.CI.Q0074.01.                Start time:  9/19/20, 06:38:33.0 UTC (GPS) 
Station Id. Q0074   33.886N, 118.373W    ObsMMS  s/n  272  (3 Chns of  3 at Sta)
Warfield Avenue                          SCSN   Data: Acceleration              
Chan  1:  90 Deg                                                                
Rcrd of Fri Sep 18, 2020 23:38:33.0 PDT    Fri Sep 18, 2020 23:38:33.0 PDT      
Hypocenter:  To be determined.               ML:  To be determined.             
Instr Period =  .0050 sec,  Damping =  .707,  Sensitivity = 3.32 v/g  (Nominal) 
                        Record Length = 96.000 sec.                             
                                     Uncor Max  =   .010 g, at   33.640 sec.    
RMS accel of (uncor) record  =        .   Chn. metadata effective date:         
Accelerogram bandpass filtered with 3 dB pts at   .30 and 40.00 cyc/sec         
                 instrument- and base-line correcte                             
                                                                                
                                                                                
                                                                                
                                                                                
                                                                                
Rcrd of Fri Sep 18, 2020 23:38:33.0 PDT    Fri Sep 18, 2020 23:38:33.0 PDT      
                                                                                
38695658.CI.Q0074.01.     Warfield Avenue   Chan  1:  90 Deg                    
                                                                                
38695658.CI.Q0074.01.     Warfield Avenue   Chan  1:  90 Deg                    
                                                                                
Units for spectra are inches and sec, except Sa is in fraction of g.            
                                                                                
    1  100    1    3    3  200 -999    3    1    0   15  272    0    0   41    0
    6   38   33    0  263    9   19 2020   10    3   9019200   39   15   74 -999
19200 -999  100    6 -999 -999 -999 -999 -999 -999 -999 -999 -999 -999 -999 -999
 -999 -999 -999 -999 9600    2 -999    0 -999    0 -999 -999    3    1  272 9600
    3 9600    4   78    1    3    5    0    0 -999    0 -999 -999    6 -999    2
    2    2    4 -999 -999 -999 -999 -999 -999 -999 -999    1 -999 -999 -999  111
    1    1 -999 -999
      .005      .707    96.000      .001     1.000  3320.998      .010    33.640
   200.000     1.325      .399  -999.000     5.000  -999.000     3.000  -999.000
    10.000    11.006      .000  -999.000  -999.000  -999.000  -999.000      .003
      .000     -.004     2.000    15.000    33.886  -118.373      .010      .072
     7.153     -.008      .001    22.000  -999.000  -999.000  -999.000  -999.000
     1.000  -999.000    -8.000  -999.000  -999.000  -999.000  -999.000   120.000
     -.900     2.000     6.800   980.665      .010    96.000    31.831      .000
  -999.000    40.000  -999.000    96.000      .010      .300  -999.000  -999.000
    33.640    10.175    38.830     -.471    38.950     -.043      .000      .300
    40.000      .010      .010      .000      .010      .025  -999.000  -999.000
      .045      .130      .029      .030      .003      .000  -999.000  -999.000
  -999.000  -999.000  -999.000  -999.000  -999.000  -999.000  -999.000  -999.000
  -999.000  -999.000  -999.000  -999.000
      .050
      .040      .042      .044      .046      .048      .050      .055      .060
      .065      .070      .075      .080      .085      .090      .095      .100
      .110      .120      .130      .140      .150      .160      .170      .180
      .190      .200      .220      .240      .260      .280      .300      .320
      .340      .360      .380      .400      .420      .440      .460      .480
      .500      .550      .600      .650      .700      .750      .800      .850
      .900      .950     1.000     1.100     1.200     1.300     1.400     1.500
     1.600     1.700     1.800     1.900     2.000     2.200     2.400     2.600
     2.800     3.000     3.200     3.400     3.600     3.800     4.000     4.200
     4.400     4.600     4.800     5.000     5.500     6.000      .000      .000
      .000      .000      .000      .000      .000      .000      .000      .000
      .000      .000      .000      .000      .000      .000      .000      .000
      .000      .000      .000      .000
Fourier amplitude spectra in in/sec.
  .000E+00  .000E+00  .000E+00  .000E+00  .000E+00  .000E+00  .000E+00  .000E+00
  .000E+00  .000E+00  .000E+00  .000E+00  .000E+00  .000E+00  .000E+00  .000E+00
  .000E+00  .000E+00  .000E+00  .000E+00  .000E+00  .000E+00  .000E+00  .000E+00
  .000E+00  .000E+00  .000E+00  .000E+00  .000E+00  .000E+00  .000E+00  .000E+00
  .000E+00  .000E+00  .000E+00  .000E+00  .000E+00  .000E+00  .000E+00  .000E+00
  .000E+00  .000E+00  .000E+00  .000E+00  .000E+00  .000E+00  .000E+00  .000E+00
  .000E+00  .000E+00  .000E+00  .000E+00  .000E+00  .000E+00  .000E+00  .000E+00
  .000E+00  .000E+00  .000E+00  .000E+00  .000E+00  .000E+00  .000E+00  .000E+00
  .000E+00  .000E+00  .000E+00  .000E+00  .000E+00  .000E+00  .000E+00  .000E+00
  .000E+00  .000E+00  .000E+00  .000E+00  .000E+00  .000E+00  .000E+00  .000E+00
  .000E+00  .000E+00  .000E+00  .000E+00  .000E+00  .000E+00  .000E+00  .000E+00
  .000E+00  .000E+00  .000E+00  .000E+00  .000E+00  .000E+00  .000E+00  .000E+00
  .000E+00  .000E+00  .000E+00  .000E+00
Damping =  .05. Data of Sd,Sv,Sa,Pssv,ttSd,ttSv,ttSa :
  .229E-03  .296E-03  .346E-03  .355E-03  .347E-03  .341E-03  .532E-03  .761E-03
  .101E-02  .148E-02  .180E-02  .189E-02  .261E-02  .296E-02  .252E-02  .280E-02
  .419E-02  .613E-02  .734E-02  .718E-02  .805E-02  .772E-02  .862E-02  .961E-02
  .107E-01  .120E-01  .116E-01  .152E-01  .165E-01  .233E-01  .252E-01  .313E-01
  .353E-01  .363E-01  .361E-01  .315E-01  .366E-01  .396E-01  .399E-01  .445E-01
  .478E-01  .368E-01  .304E-01  .200E-01  .218E-01  .215E-01  .228E-01  .244E-01
  .205E-01  .212E-01  .224E-01  .348E-01  .318E-01  .321E-01  .410E-01  .491E-01
  .448E-01  .381E-01  .369E-01  .331E-01  .385E-01  .361E-01  .291E-01  .227E-01
  .259E-01  .322E-01  .303E-01  .265E-01  .249E-01  .239E-01  .219E-01  .197E-01
  .181E-01  .175E-01  .177E-01  .181E-01  .184E-01  .185E-01  .000E+00  .000E+00
  .000E+00  .000E+00  .000E+00  .000E+00  .000E+00  .000E+00  .000E+00  .000E+00
  .000E+00  .000E+00  .000E+00  .000E+00  .000E+00  .000E+00  .000E+00  .000E+00
  .000E+00  .000E+00  .000E+00  .000E+00
  .182E-01  .239E-01  .272E-01  .287E-01  .263E-01  .277E-01  .426E-01  .622E-01
  .836E-01  .119E+00  .139E+00  .126E+00  .167E+00  .195E+00  .165E+00  .163E+00
  .223E+00  .307E+00  .341E+00  .313E+00  .328E+00  .306E+00  .288E+00  .268E+00
  .355E+00  .396E+00  .289E+00  .380E+00  .398E+00  .486E+00  .491E+00  .597E+00
  .630E+00  .658E+00  .620E+00  .502E+00  .577E+00  .602E+00  .565E+00  .593E+00
  .693E+00  .498E+00  .366E+00  .299E+00  .259E+00  .232E+00  .234E+00  .232E+00
  .256E+00  .233E+00  .219E+00  .239E+00  .263E+00  .250E+00  .317E+00  .314E+00
  .226E+00  .207E+00  .211E+00  .197E+00  .198E+00  .228E+00  .220E+00  .205E+00
  .190E+00  .199E+00  .209E+00  .207E+00  .205E+00  .204E+00  .203E+00  .201E+00
  .198E+00  .195E+00  .193E+00  .192E+00  .191E+00  .190E+00  .000E+00  .000E+00
  .000E+00  .000E+00  .000E+00  .000E+00  .000E+00  .000E+00  .000E+00  .000E+00
  .000E+00  .000E+00  .000E+00  .000E+00  .000E+00  .000E+00  .000E+00  .000E+00
  .000E+00  .000E+00  .000E+00  .000E+00
  .146E-01  .172E-01  .182E-01  .171E-01  .154E-01  .139E-01  .182E-01  .215E-01
  .248E-01  .307E-01  .333E-01  .301E-01  .372E-01  .373E-01  .289E-01  .286E-01
  .355E-01  .434E-01  .452E-01  .376E-01  .365E-01  .315E-01  .306E-01  .305E-01
  .308E-01  .310E-01  .247E-01  .270E-01  .252E-01  .305E-01  .287E-01  .315E-01
  .314E-01  .288E-01  .258E-01  .203E-01  .213E-01  .210E-01  .194E-01  .199E-01
  .196E-01  .125E-01  .869E-02  .490E-02  .460E-02  .395E-02  .369E-02  .349E-02
  .262E-02  .244E-02  .232E-02  .298E-02  .229E-02  .197E-02  .216E-02  .226E-02
  .183E-02  .138E-02  .120E-02  .972E-03  .102E-02  .799E-03  .552E-03  .376E-03
  .369E-03  .398E-03  .335E-03  .266E-03  .227E-03  .199E-03  .169E-03  .142E-03
  .123E-03  .112E-03  .105E-03  .100E-03  .868E-04  .762E-04  .000E+00  .000E+00
  .000E+00  .000E+00  .000E+00  .000E+00  .000E+00  .000E+00  .000E+00  .000E+00
  .000E+00  .000E+00  .000E+00  .000E+00  .000E+00  .000E+00  .000E+00  .000E+00
  .000E+00  .000E+00  .000E+00  .000E+00
  .360E-01  .443E-01  .494E-01  .485E-01  .454E-01  .428E-01  .608E-01  .797E-01
  .981E-01  .133E+00  .151E+00  .149E+00  .193E+00  .206E+00  .167E+00  .176E+00
  .240E+00  .321E+00  .355E+00  .322E+00  .337E+00  .303E+00  .319E+00  .335E+00
  .355E+00  .376E+00  .330E+00  .397E+00  .399E+00  .522E+00  .528E+00  .615E+00
  .653E+00  .633E+00  .597E+00  .495E+00  .547E+00  .566E+00  .545E+00  .583E+00
  .600E+00  .421E+00  .318E+00  .193E+00  .196E+00  .180E+00  .179E+00  .180E+00
  .143E+00  .140E+00  .141E+00  .199E+00  .167E+00  .155E+00  .184E+00  .206E+00
  .176E+00  .141E+00  .129E+00  .110E+00  .121E+00  .103E+00  .763E-01  .549E-01
  .581E-01  .675E-01  .596E-01  .490E-01  .434E-01  .395E-01  .345E-01  .294E-01
  .258E-01  .239E-01  .232E-01  .228E-01  .211E-01  .194E-01  .000E+00  .000E+00
  .000E+00  .000E+00  .000E+00  .000E+00  .000E+00  .000E+00  .000E+00  .000E+00
  .000E+00  .000E+00  .000E+00  .000E+00  .000E+00  .000E+00  .000E+00  .000E+00
  .000E+00  .000E+00  .000E+00  .000E+00
  .281E+02  .281E+02  .281E+02  .280E+02  .281E+02  .273E+02  .278E+02  .278E+02
  .278E+02  .278E+02  .279E+02  .312E+02  .312E+02  .296E+02  .297E+02  .274E+02
  .282E+02  .283E+02  .285E+02  .285E+02  .286E+02  .286E+02  .324E+02  .324E+02
  .319E+02  .318E+02  .325E+02  .325E+02  .330E+02  .332E+02  .332E+02  .332E+02
  .334E+02  .338E+02  .337E+02  .337E+02  .394E+02  .393E+02  .393E+02  .337E+02
  .338E+02  .336E+02  .334E+02  .323E+02  .391E+02  .391E+02  .391E+02  .391E+02
  .392E+02  .378E+02  .391E+02  .392E+02  .392E+02  .392E+02  .394E+02  .389E+02
  .389E+02  .389E+02  .389E+02  .389E+02  .389E+02  .390E+02  .390E+02  .389E+02
  .389E+02  .389E+02  .390E+02  .390E+02  .390E+02  .390E+02  .390E+02  .390E+02
  .390E+02  .390E+02  .389E+02  .389E+02  .389E+02  .389E+02  .000E+00  .000E+00
  .000E+00  .000E+00  .000E+00  .000E+00  .000E+00  .000E+00  .000E+00  .000E+00
  .000E+00  .000E+00  .000E+00  .000E+00  .000E+00  .000E+00  .000E+00  .000E+00
  .000E+00  .000E+00  .000E+00  .000E+00
  .281E+02  .281E+02  .281E+02  .281E+02  .277E+02  .273E+02  .278E+02  .278E+02
  .278E+02  .278E+02  .278E+02  .297E+02  .312E+02  .296E+02  .296E+02  .274E+02
  .282E+02  .282E+02  .285E+02  .285E+02  .285E+02  .284E+02  .323E+02  .323E+02
  .318E+02  .318E+02  .326E+02  .327E+02  .328E+02  .331E+02  .331E+02  .331E+02
  .335E+02  .337E+02  .338E+02  .338E+02  .393E+02  .394E+02  .394E+02  .392E+02
  .336E+02  .337E+02  .333E+02  .324E+02  .392E+02  .392E+02  .324E+02  .324E+02
  .324E+02  .324E+02  .324E+02  .390E+02  .390E+02  .390E+02  .390E+02  .390E+02
  .391E+02  .323E+02  .388E+02  .388E+02  .388E+02  .388E+02  .388E+02  .388E+02
  .388E+02  .388E+02  .388E+02  .388E+02  .388E+02  .388E+02  .388E+02  .388E+02
  .388E+02  .388E+02  .388E+02  .388E+02  .388E+02  .388E+02  .000E+00  .000E+00
  .000E+00  .000E+00  .000E+00  .000E+00  .000E+00  .000E+00  .000E+00  .000E+00
  .000E+00  .000E+00  .000E+00  .000E+00  .000E+00  .000E+00  .000E+00  .000E+00
  .000E+00  .000E+00  .000E+00  .000E+00
  .281E+02  .281E+02  .281E+02  .280E+02  .281E+02  .273E+02  .278E+02  .278E+02
  .278E+02  .278E+02  .279E+02  .312E+02  .312E+02  .296E+02  .297E+02  .274E+02
  .282E+02  .283E+02  .285E+02  .285E+02  .286E+02  .286E+02  .324E+02  .324E+02
  .319E+02  .318E+02  .325E+02  .325E+02  .330E+02  .332E+02  .332E+02  .332E+02
  .334E+02  .338E+02  .337E+02  .337E+02  .394E+02  .393E+02  .393E+02  .337E+02
  .337E+02  .336E+02  .334E+02  .323E+02  .391E+02  .391E+02  .391E+02  .391E+02
  .391E+02  .378E+02  .391E+02  .391E+02  .392E+02  .392E+02  .394E+02  .389E+02
  .389E+02  .389E+02  .389E+02  .389E+02  .389E+02  .389E+02  .389E+02  .389E+02
  .389E+02  .389E+02  .389E+02  .389E+02  .389E+02  .389E+02  .389E+02  .389E+02
  .389E+02  .389E+02  .389E+02  .389E+02  .389E+02  .389E+02  .000E+00  .000E+00
  .000E+00  .000E+00  .000E+00  .000E+00  .000E+00  .000E+00  .000E+00  .000E+00
  .000E+00  .000E+00  .000E+00  .000E+00  .000E+00  .000E+00  .000E+00  .000E+00
  .000E+00  .000E+00  .000E+00  .000E+00
/&   ----------  End of spectral data for channel  1  ----------
Response and Fourier amplitude spectra (78 periods,  .04 -  6.0 sec)   for      
Corrected accelerogram   38695658.CI.Q0074.01.      Chan  2: 360 Deg     from   
Uncorrected Accelerogram Data             Processed: 09/19/20, CGS  ciq0074x    
Rcrd of Fri Sep 18, 2020 23:38:33.0 PDT               (Avol1 v2.0, 4/18 CSMIP)  
                                        (Origin:  To be determined)             
38695658.CI.Q0074.01.                Start time:  9/19/20, 06:38:33.0 UTC (GPS) 
Station Id. Q0074   33.886N, 118.373W    ObsMMS  s/n  272  (3 Chns of  3 at Sta)
Warfield Avenue                          SCSN   Data: Acceleration              
Chan  2: 360 Deg                                                                
Rcrd of Fri Sep 18, 2020 23:38:33.0 PDT    Fri Sep 18, 2020 23:38:33.0 PDT      
Hypocenter:  To be determined.               ML:  To be determined.             
Instr Period =  .0050 sec,  Damping =  .707,  Sensitivity = 3.32 v/g  (Nominal) 
                        Record Length = 96.000 sec.                             
                                     Uncor Max  =   .018 g, at   29.430 sec.    
RMS accel of (uncor) record  =        .   Chn. metadata effective date:         
Accelerogram bandpass filtered with 3 dB pts at   .30 and 40.00 cyc/sec         
                 instrument- and base-line correcte                             
                                                                                
                                                                                
                                                                                
                                                                                
                                                                                
Rcrd of Fri Sep 18, 2020 23:38:33.0 PDT    Fri Sep 18, 2020 23:38:33.0 PDT      
                                                                                
38695658.CI.Q0074.01.     Warfield Avenue   Chan  2: 360 Deg                    
                                                                                
38695658.CI.Q0074.01.     Warfield Avenue   Chan  2: 360 Deg                    
                                                                                
Units for spectra are inches and sec, except Sa is in fraction of g.            
                                                                                
    2  100    2    3    3  200 -999    3    1    0   15  272    0    0   41    0
    6   38   33    0  263    9   19 2020   10    3  36019200   39   15   74 -999
19200 -999  100    6 -999 -999 -999 -999 -999 -999 -999 -999 -999 -999 -999 -999
 -999 -999 -999 -999 9600    2 -999    0 -999    0 -999 -999    3    1  272 9600
    3 9600    4   78    1    3    5    0    0 -999    0 -999 -999    6 -999    2
    2    2    4 -999 -999 -999 -999 -999 -999 -999 -999    1 -999 -999 -999  111
    1    1 -999 -999
      .005      .707    96.000      .001     1.000  3320.998      .018    29.430
   200.000     1.325      .399  -999.000     5.000  -999.000     3.000  -999.000
    10.000     -.328      .000  -999.000  -999.000  -999.000  -999.000     -.008
      .002      .009     2.000    15.000    33.886  -118.373      .011      .084
     7.673      .004      .014    22.000  -999.000  -999.000  -999.000  -999.000
     1.000  -999.000  -999.000  -999.000  -999.000  -999.000  -999.000   120.000
     -.900     2.000     6.800   980.665      .010    96.000    31.831      .000
  -999.000    40.000  -999.000    96.000      .010      .300  -999.000  -999.000
    29.430    17.549    32.720      .546    33.190     -.035      .000      .300
    40.000      .010      .010      .000      .010      .029  -999.000  -999.000
      .051      .280      .046      .045      .003      .000  -999.000  -999.000
  -999.000  -999.000  -999.000  -999.000  -999.000  -999.000  -999.000  -999.000
  -999.000  -999.000  -999.000  -999.000
      .050
      .040      .042      .044      .046      .048      .050      .055      .060
      .065      .070      .075      .080      .085      .090      .095      .100
      .110      .120      .130      .140      .150      .160      .170      .180
      .190      .200      .220      .240      .260      .280      .300      .320
      .340      .360      .380      .400      .420      .440      .460      .480
      .500      .550      .600      .650      .700      .750      .800      .850
      .900      .950     1.000     1.100     1.200     1.300     1.400     1.500
     1.600     1.700     1.800     1.900     2.000     2.200     2.400     2.600
     2.800     3.000     3.200     3.400     3.600     3.800     4.000     4.200
     4.400     4.600     4.800     5.000     5.500     6.000      .000      .000
      .000      .000      .000      .000      .000      .000      .000      .000
      .000      .000      .000      .000      .000      .000      .000      .000
      .000      .000      .000      .000
Fourier amplitude spectra in in/sec.
  .000E+00  .000E+00  .000E+00  .000E+00  .000E+00  .000E+00  .000E+00  .000E+00
  .000E+00  .000E+00  .000E+00  .000E+00  .000E+00  .000E+00  .000E+00  .000E+00
  .000E+00  .000E+00  .000E+00  .000E+00  .000E+00  .000E+00  .000E+00  .000E+00
  .000E+00  .000E+00  .000E+00  .000E+00  .000E+00  .000E+00  .000E+00  .000E+00
  .000E+00  .000E+00  .000E+00  .000E+00  .000E+00  .000E+00  .000E+00  .000E+00
  .000E+00  .000E+00  .000E+00  .000E+00  .000E+00  .000E+00  .000E+00  .000E+00
  .000E+00  .000E+00  .000E+00  .000E+00  .000E+00  .000E+00  .000E+00  .000E+00
  .000E+00  .000E+00  .000E+00  .000E+00  .000E+00  .000E+00  .000E+00  .000E+00
  .000E+00  .000E+00  .000E+00  .000E+00  .000E+00  .000E+00  .000E+00  .000E+00
  .000E+00  .000E+00  .000E+00  .000E+00  .000E+00  .000E+00  .000E+00  .000E+00
  .000E+00  .000E+00  .000E+00  .000E+00  .000E+00  .000E+00  .000E+00  .000E+00
  .000E+00  .000E+00  .000E+00  .000E+00  .000E+00  .000E+00  .000E+00  .000E+00
  .000E+00  .000E+00  .000E+00  .000E+00
Damping =  .05. Data of Sd,Sv,Sa,Pssv,ttSd,ttSv,ttSa :
  .328E-03  .370E-03  .408E-03  .456E-03  .545E-03  .650E-03  .918E-03  .114E-02
  .149E-02  .237E-02  .240E-02  .207E-02  .256E-02  .268E-02  .367E-02  .475E-02
  .460E-02  .430E-02  .458E-02  .578E-02  .770E-02  .109E-01  .116E-01  .124E-01
  .142E-01  .188E-01  .233E-01  .241E-01  .267E-01  .388E-01  .400E-01  .391E-01
  .345E-01  .350E-01  .274E-01  .307E-01  .297E-01  .295E-01  .310E-01  .323E-01
