Response and Fourier amplitude spectra (78 periods,  .04 -  6.0 sec)   for      
Corrected accelerogram   38695658.CI.Q0073.01.      Chan  1:  90 Deg     from   
Uncorrected Accelerogram Data             Processed: 09/19/20, CGS  ciq0073l    
Rcrd of Fri Sep 18, 2020 23:38:36.0 PDT               (Avol1 v2.0, 4/18 CSMIP)  
                                        (Origin:  To be determined)             
38695658.CI.Q0073.01.                Start time:  9/19/20, 06:38:36.0 UTC (GPS) 
Station Id. Q0073   34.084N, 118.651W    ObsMMS  s/n  277  (3 Chns of  3 at Sta)
Stunt Road                               SCSN   Data: Acceleration              
Chan  1:  90 Deg                                                                
Rcrd of Fri Sep 18, 2020 23:38:36.0 PDT    Fri Sep 18, 2020 23:38:36.0 PDT      
Hypocenter:  To be determined.               ML:  To be determined.             
Instr Period =  .0050 sec,  Damping =  .707,  Sensitivity = 3.32 v/g  (Nominal) 
                        Record Length = 85.000 sec.                             
                                     Uncor Max  =   .006 g, at   29.765 sec.    
RMS accel of (uncor) record  =        .   Chn. metadata effective date:         
Accelerogram bandpass filtered with 3 dB pts at   .30 and 40.00 cyc/sec         
                 instrument- and base-line correcte                             
                                                                                
                                                                                
                                                                                
                                                                                
                                                                                
Rcrd of Fri Sep 18, 2020 23:38:36.0 PDT    Fri Sep 18, 2020 23:38:36.0 PDT      
                                                                                
38695658.CI.Q0073.01.     Stunt Road    Chan  1:  90 Deg                        
                                                                                
38695658.CI.Q0073.01.     Stunt Road    Chan  1:  90 Deg                        
                                                                                
Units for spectra are inches and sec, except Sa is in fraction of g.            
                                                                                
    1  100    1    3    3  200 -999    3    1    0   15  277    0    0   41    0
    6   38   36    0  263    9   19 2020   10    3   9017000   39   10   74 -999
17000 -999  100    6 -999 -999 -999 -999 -999 -999 -999 -999 -999 -999 -999 -999
 -999 -999 -999 -999 8500    2 -999    0 -999    0 -999 -999    3    1  277 8500
    3 8500    4   78    1    3    5    0    0 -999    0 -999 -999    6 -999    2
    2    2    4 -999 -999 -999 -999 -999 -999 -999 -999    1 -999 -999 -999  111
    1    1 -999 -999
      .005      .707    85.000      .001     1.000  3320.998      .006    29.765
   200.000     1.325      .399  -999.000     5.000  -999.000     3.000  -999.000
    10.000    13.896      .000  -999.000  -999.000  -999.000  -999.000      .007
      .000     -.006     2.000    15.000    34.084  -118.651      .008      .057
     7.329     -.010     -.002   643.000  -999.000  -999.000  -999.000  -999.000
     1.000  -999.000    -8.000  -999.000  -999.000  -999.000  -999.000   120.000
     -.900     2.000     6.800   980.665      .010    85.000    31.831      .000
  -999.000    40.000  -999.000    85.000      .010      .300  -999.000  -999.000
    29.770     5.479    28.440      .170    28.480      .010      .000      .300
    40.000      .010      .010      .000      .010      .010  -999.000  -999.000
      .018      .200      .018      .014      .001      .000  -999.000  -999.000
  -999.000  -999.000  -999.000  -999.000  -999.000  -999.000  -999.000  -999.000
  -999.000  -999.000  -999.000  -999.000
      .050
      .040      .042      .044      .046      .048      .050      .055      .060
      .065      .070      .075      .080      .085      .090      .095      .100
      .110      .120      .130      .140      .150      .160      .170      .180
      .190      .200      .220      .240      .260      .280      .300      .320
      .340      .360      .380      .400      .420      .440      .460      .480
      .500      .550      .600      .650      .700      .750      .800      .850
      .900      .950     1.000     1.100     1.200     1.300     1.400     1.500
     1.600     1.700     1.800     1.900     2.000     2.200     2.400     2.600
     2.800     3.000     3.200     3.400     3.600     3.800     4.000     4.200
     4.400     4.600     4.800     5.000     5.500     6.000      .000      .000
      .000      .000      .000      .000      .000      .000      .000      .000
      .000      .000      .000      .000      .000      .000      .000      .000
      .000      .000      .000      .000
Fourier amplitude spectra in in/sec.
  .000E+00  .000E+00  .000E+00  .000E+00  .000E+00  .000E+00  .000E+00  .000E+00
  .000E+00  .000E+00  .000E+00  .000E+00  .000E+00  .000E+00  .000E+00  .000E+00
  .000E+00  .000E+00  .000E+00  .000E+00  .000E+00  .000E+00  .000E+00  .000E+00
  .000E+00  .000E+00  .000E+00  .000E+00  .000E+00  .000E+00  .000E+00  .000E+00
  .000E+00  .000E+00  .000E+00  .000E+00  .000E+00  .000E+00  .000E+00  .000E+00
  .000E+00  .000E+00  .000E+00  .000E+00  .000E+00  .000E+00  .000E+00  .000E+00
  .000E+00  .000E+00  .000E+00  .000E+00  .000E+00  .000E+00  .000E+00  .000E+00
  .000E+00  .000E+00  .000E+00  .000E+00  .000E+00  .000E+00  .000E+00  .000E+00
  .000E+00  .000E+00  .000E+00  .000E+00  .000E+00  .000E+00  .000E+00  .000E+00
  .000E+00  .000E+00  .000E+00  .000E+00  .000E+00  .000E+00  .000E+00  .000E+00
  .000E+00  .000E+00  .000E+00  .000E+00  .000E+00  .000E+00  .000E+00  .000E+00
  .000E+00  .000E+00  .000E+00  .000E+00  .000E+00  .000E+00  .000E+00  .000E+00
  .000E+00  .000E+00  .000E+00  .000E+00
Damping =  .05. Data of Sd,Sv,Sa,Pssv,ttSd,ttSv,ttSa :
  .971E-04  .106E-03  .117E-03  .125E-03  .137E-03  .153E-03  .215E-03  .256E-03
  .354E-03  .376E-03  .564E-03  .857E-03  .102E-02  .124E-02  .131E-02  .140E-02
  .204E-02  .174E-02  .211E-02  .263E-02  .355E-02  .348E-02  .332E-02  .452E-02
  .627E-02  .715E-02  .792E-02  .719E-02  .981E-02  .116E-01  .137E-01  .121E-01
  .899E-02  .933E-02  .110E-01  .131E-01  .126E-01  .975E-02  .975E-02  .103E-01
  .119E-01  .965E-02  .101E-01  .104E-01  .110E-01  .110E-01  .109E-01  .146E-01
  .123E-01  .107E-01  .986E-02  .828E-02  .925E-02  .880E-02  .802E-02  .769E-02
  .697E-02  .658E-02  .626E-02  .565E-02  .507E-02  .472E-02  .439E-02  .426E-02
  .409E-02  .399E-02  .407E-02  .417E-02  .404E-02  .407E-02  .426E-02  .454E-02
  .489E-02  .521E-02  .533E-02  .524E-02  .475E-02  .442E-02  .000E+00  .000E+00
  .000E+00  .000E+00  .000E+00  .000E+00  .000E+00  .000E+00  .000E+00  .000E+00
  .000E+00  .000E+00  .000E+00  .000E+00  .000E+00  .000E+00  .000E+00  .000E+00
  .000E+00  .000E+00  .000E+00  .000E+00
  .668E-02  .684E-02  .712E-02  .718E-02  .765E-02  .832E-02  .107E-01  .166E-01
  .195E-01  .241E-01  .360E-01  .494E-01  .697E-01  .688E-01  .731E-01  .763E-01
  .109E+00  .816E-01  .984E-01  .101E+00  .134E+00  .121E+00  .122E+00  .161E+00
  .193E+00  .209E+00  .223E+00  .184E+00  .235E+00  .255E+00  .300E+00  .271E+00
  .192E+00  .178E+00  .192E+00  .215E+00  .207E+00  .162E+00  .163E+00  .158E+00
  .162E+00  .142E+00  .130E+00  .113E+00  .120E+00  .128E+00  .136E+00  .126E+00
  .111E+00  .955E-01  .842E-01  .785E-01  .778E-01  .775E-01  .760E-01  .750E-01
  .738E-01  .711E-01  .694E-01  .687E-01  .687E-01  .687E-01  .675E-01  .678E-01
  .670E-01  .670E-01  .674E-01  .675E-01  .672E-01  .676E-01  .678E-01  .679E-01
  .678E-01  .674E-01  .668E-01  .667E-01  .671E-01  .670E-01  .000E+00  .000E+00
  .000E+00  .000E+00  .000E+00  .000E+00  .000E+00  .000E+00  .000E+00  .000E+00
  .000E+00  .000E+00  .000E+00  .000E+00  .000E+00  .000E+00  .000E+00  .000E+00
  .000E+00  .000E+00  .000E+00  .000E+00
  .621E-02  .612E-02  .616E-02  .604E-02  .608E-02  .624E-02  .726E-02  .725E-02
  .857E-02  .784E-02  .102E-01  .137E-01  .145E-01  .156E-01  .148E-01  .142E-01
  .175E-01  .124E-01  .126E-01  .139E-01  .162E-01  .141E-01  .118E-01  .145E-01
  .177E-01  .185E-01  .168E-01  .128E-01  .149E-01  .152E-01  .156E-01  .122E-01
  .800E-02  .738E-02  .786E-02  .847E-02  .736E-02  .519E-02  .476E-02  .460E-02
  .490E-02  .328E-02  .288E-02  .254E-02  .232E-02  .204E-02  .177E-02  .209E-02
  .157E-02  .122E-02  .102E-02  .706E-03  .673E-03  .548E-03  .428E-03  .358E-03
  .288E-03  .242E-03  .208E-03  .170E-03  .151E-03  .123E-03  .100E-03  .858E-04
  .718E-04  .655E-04  .582E-04  .558E-04  .503E-04  .462E-04  .444E-04  .430E-04
  .421E-04  .410E-04  .392E-04  .366E-04  .303E-04  .259E-04  .000E+00  .000E+00
  .000E+00  .000E+00  .000E+00  .000E+00  .000E+00  .000E+00  .000E+00  .000E+00
  .000E+00  .000E+00  .000E+00  .000E+00  .000E+00  .000E+00  .000E+00  .000E+00
  .000E+00  .000E+00  .000E+00  .000E+00
  .153E-01  .158E-01  .167E-01  .170E-01  .179E-01  .192E-01  .246E-01  .268E-01
  .342E-01  .337E-01  .473E-01  .673E-01  .752E-01  .868E-01  .866E-01  .882E-01
  .116E+00  .913E-01  .102E+00  .118E+00  .149E+00  .137E+00  .123E+00  .158E+00
  .207E+00  .225E+00  .226E+00  .188E+00  .237E+00  .261E+00  .287E+00  .237E+00
  .166E+00  .163E+00  .183E+00  .206E+00  .189E+00  .139E+00  .133E+00  .134E+00
  .150E+00  .110E+00  .106E+00  .101E+00  .990E-01  .925E-01  .854E-01  .108E+00
  .860E-01  .705E-01  .620E-01  .473E-01  .484E-01  .425E-01  .360E-01  .322E-01
  .274E-01  .243E-01  .219E-01  .187E-01  .159E-01  .135E-01  .115E-01  .103E-01
  .917E-02  .836E-02  .799E-02  .771E-02  .706E-02  .674E-02  .669E-02  .679E-02
  .698E-02  .712E-02  .698E-02  .659E-02  .543E-02  .463E-02  .000E+00  .000E+00
  .000E+00  .000E+00  .000E+00  .000E+00  .000E+00  .000E+00  .000E+00  .000E+00
  .000E+00  .000E+00  .000E+00  .000E+00  .000E+00  .000E+00  .000E+00  .000E+00
  .000E+00  .000E+00  .000E+00  .000E+00
  .298E+02  .298E+02  .298E+02  .298E+02  .298E+02  .285E+02  .298E+02  .298E+02
  .298E+02  .298E+02  .285E+02  .285E+02  .311E+02  .298E+02  .298E+02  .298E+02
  .298E+02  .285E+02  .298E+02  .285E+02  .286E+02  .286E+02  .291E+02  .291E+02
  .286E+02  .287E+02  .288E+02  .288E+02  .291E+02  .291E+02  .291E+02  .292E+02
  .290E+02  .305E+02  .302E+02  .302E+02  .301E+02  .301E+02  .286E+02  .301E+02
  .359E+02  .371E+02  .277E+02  .278E+02  .340E+02  .286E+02  .311E+02  .350E+02
  .351E+02  .335E+02  .335E+02  .323E+02  .319E+02  .308E+02  .335E+02  .332E+02
  .332E+02  .332E+02  .332E+02  .332E+02  .332E+02  .285E+02  .285E+02  .285E+02
  .270E+02  .285E+02  .270E+02  .285E+02  .285E+02  .270E+02  .285E+02  .285E+02
  .285E+02  .285E+02  .285E+02  .285E+02  .285E+02  .285E+02  .000E+00  .000E+00
  .000E+00  .000E+00  .000E+00  .000E+00  .000E+00  .000E+00  .000E+00  .000E+00
  .000E+00  .000E+00  .000E+00  .000E+00  .000E+00  .000E+00  .000E+00  .000E+00
  .000E+00  .000E+00  .000E+00  .000E+00
  .223E+02  .209E+02  .209E+02  .271E+02  .217E+02  .297E+02  .209E+02  .209E+02
  .210E+02  .292E+02  .284E+02  .284E+02  .311E+02  .298E+02  .298E+02  .298E+02
  .298E+02  .294E+02  .298E+02  .271E+02  .285E+02  .297E+02  .291E+02  .291E+02
  .296E+02  .287E+02  .287E+02  .287E+02  .287E+02  .299E+02  .291E+02  .291E+02
  .291E+02  .303E+02  .303E+02  .302E+02  .302E+02  .286E+02  .287E+02  .285E+02
  .285E+02  .278E+02  .278E+02  .286E+02  .338E+02  .285E+02  .285E+02  .285E+02
  .290E+02  .336E+02  .285E+02  .285E+02  .285E+02  .285E+02  .285E+02  .285E+02
  .285E+02  .285E+02  .285E+02  .285E+02  .285E+02  .284E+02  .284E+02  .284E+02
  .284E+02  .285E+02  .285E+02  .285E+02  .285E+02  .285E+02  .285E+02  .285E+02
  .285E+02  .285E+02  .285E+02  .284E+02  .284E+02  .284E+02  .000E+00  .000E+00
  .000E+00  .000E+00  .000E+00  .000E+00  .000E+00  .000E+00  .000E+00  .000E+00
  .000E+00  .000E+00  .000E+00  .000E+00  .000E+00  .000E+00  .000E+00  .000E+00
  .000E+00  .000E+00  .000E+00  .000E+00
  .298E+02  .298E+02  .298E+02  .298E+02  .298E+02  .285E+02  .298E+02  .298E+02
  .298E+02  .298E+02  .285E+02  .285E+02  .311E+02  .298E+02  .298E+02  .298E+02
  .298E+02  .285E+02  .298E+02  .285E+02  .286E+02  .286E+02  .291E+02  .291E+02
  .286E+02  .287E+02  .288E+02  .288E+02  .291E+02  .291E+02  .291E+02  .292E+02
  .290E+02  .305E+02  .302E+02  .302E+02  .301E+02  .301E+02  .286E+02  .301E+02
  .359E+02  .371E+02  .277E+02  .278E+02  .339E+02  .286E+02  .290E+02  .350E+02
  .350E+02  .335E+02  .335E+02  .323E+02  .319E+02  .308E+02  .335E+02  .331E+02
  .332E+02  .332E+02  .332E+02  .332E+02  .284E+02  .284E+02  .284E+02  .284E+02
  .284E+02  .284E+02  .284E+02  .284E+02  .284E+02  .284E+02  .284E+02  .284E+02
  .284E+02  .284E+02  .284E+02  .284E+02  .284E+02  .284E+02  .000E+00  .000E+00
  .000E+00  .000E+00  .000E+00  .000E+00  .000E+00  .000E+00  .000E+00  .000E+00
  .000E+00  .000E+00  .000E+00  .000E+00  .000E+00  .000E+00  .000E+00  .000E+00
  .000E+00  .000E+00  .000E+00  .000E+00
/&   ----------  End of spectral data for channel  1  ----------
Response and Fourier amplitude spectra (78 periods,  .04 -  6.0 sec)   for      
Corrected accelerogram   38695658.CI.Q0073.01.      Chan  2: 360 Deg     from   
Uncorrected Accelerogram Data             Processed: 09/19/20, CGS  ciq0073l    
Rcrd of Fri Sep 18, 2020 23:38:36.0 PDT               (Avol1 v2.0, 4/18 CSMIP)  
                                        (Origin:  To be determined)             
38695658.CI.Q0073.01.                Start time:  9/19/20, 06:38:36.0 UTC (GPS) 
Station Id. Q0073   34.084N, 118.651W    ObsMMS  s/n  277  (3 Chns of  3 at Sta)
Stunt Road                               SCSN   Data: Acceleration              
Chan  2: 360 Deg                                                                
Rcrd of Fri Sep 18, 2020 23:38:36.0 PDT    Fri Sep 18, 2020 23:38:36.0 PDT      
Hypocenter:  To be determined.               ML:  To be determined.             
Instr Period =  .0050 sec,  Damping =  .707,  Sensitivity = 3.32 v/g  (Nominal) 
                        Record Length = 85.000 sec.                             
                                     Uncor Max  =  -.005 g, at   28.020 sec.    
RMS accel of (uncor) record  =        .   Chn. metadata effective date:         
Accelerogram bandpass filtered with 3 dB pts at   .30 and 40.00 cyc/sec         
                 instrument- and base-line correcte                             
                                                                                
                                                                                
                                                                                
                                                                                
                                                                                
Rcrd of Fri Sep 18, 2020 23:38:36.0 PDT    Fri Sep 18, 2020 23:38:36.0 PDT      
                                                                                
38695658.CI.Q0073.01.     Stunt Road    Chan  2: 360 Deg                        
                                                                                
38695658.CI.Q0073.01.     Stunt Road    Chan  2: 360 Deg                        
                                                                                
Units for spectra are inches and sec, except Sa is in fraction of g.            
                                                                                
    2  100    2    3    3  200 -999    3    1    0   15  277    0    0   41    0
    6   38   36    0  263    9   19 2020   10    3  36017000   39   10   74 -999
17000 -999  100    6 -999 -999 -999 -999 -999 -999 -999 -999 -999 -999 -999 -999
 -999 -999 -999 -999 8500    2 -999    0 -999    0 -999 -999    3    1  277 8500
    3 8500    4   78    1    3    5    0    0 -999    0 -999 -999    6 -999    2
    2    2    4 -999 -999 -999 -999 -999 -999 -999 -999    1 -999 -999 -999  111
    1    1 -999 -999
      .005      .707    85.000      .001     1.000  3320.998     -.005    28.020
   200.000     1.325      .399  -999.000     5.000  -999.000     3.000  -999.000
    10.000    -9.593      .000  -999.000  -999.000  -999.000  -999.000     -.002
     -.005     -.003     2.000    15.000    34.084  -118.651      .008      .044
     5.532     -.006     -.001   643.000  -999.000  -999.000  -999.000  -999.000
     1.000  -999.000  -999.000  -999.000  -999.000  -999.000  -999.000   120.000
     -.900     2.000     6.800   980.665      .010    85.000    31.831      .000
  -999.000    40.000  -999.000    85.000      .010      .300  -999.000  -999.000
    28.020    -5.153    28.180      .159    29.970      .010      .000      .300
    40.000      .010      .010      .000      .010      .008  -999.000  -999.000
      .024      .220      .023      .010      .001      .000  -999.000  -999.000
  -999.000  -999.000  -999.000  -999.000  -999.000  -999.000  -999.000  -999.000
  -999.000  -999.000  -999.000  -999.000
      .050
      .040      .042      .044      .046      .048      .050      .055      .060
      .065      .070      .075      .080      .085      .090      .095      .100
      .110      .120      .130      .140      .150      .160      .170      .180
      .190      .200      .220      .240      .260      .280      .300      .320
      .340      .360      .380      .400      .420      .440      .460      .480
      .500      .550      .600      .650      .700      .750      .800      .850
      .900      .950     1.000     1.100     1.200     1.300     1.400     1.500
     1.600     1.700     1.800     1.900     2.000     2.200     2.400     2.600
     2.800     3.000     3.200     3.400     3.600     3.800     4.000     4.200
     4.400     4.600     4.800     5.000     5.500     6.000      .000      .000
      .000      .000      .000      .000      .000      .000      .000      .000
      .000      .000      .000      .000      .000      .000      .000      .000
      .000      .000      .000      .000
Fourier amplitude spectra in in/sec.
  .000E+00  .000E+00  .000E+00  .000E+00  .000E+00  .000E+00  .000E+00  .000E+00
  .000E+00  .000E+00  .000E+00  .000E+00  .000E+00  .000E+00  .000E+00  .000E+00
  .000E+00  .000E+00  .000E+00  .000E+00  .000E+00  .000E+00  .000E+00  .000E+00
  .000E+00  .000E+00  .000E+00  .000E+00  .000E+00  .000E+00  .000E+00  .000E+00
  .000E+00  .000E+00  .000E+00  .000E+00  .000E+00  .000E+00  .000E+00  .000E+00
  .000E+00  .000E+00  .000E+00  .000E+00  .000E+00  .000E+00  .000E+00  .000E+00
  .000E+00  .000E+00  .000E+00  .000E+00  .000E+00  .000E+00  .000E+00  .000E+00
  .000E+00  .000E+00  .000E+00  .000E+00  .000E+00  .000E+00  .000E+00  .000E+00
  .000E+00  .000E+00  .000E+00  .000E+00  .000E+00  .000E+00  .000E+00  .000E+00
  .000E+00  .000E+00  .000E+00  .000E+00  .000E+00  .000E+00  .000E+00  .000E+00
  .000E+00  .000E+00  .000E+00  .000E+00  .000E+00  .000E+00  .000E+00  .000E+00
  .000E+00  .000E+00  .000E+00  .000E+00  .000E+00  .000E+00  .000E+00  .000E+00
  .000E+00  .000E+00  .000E+00  .000E+00
Damping =  .05. Data of Sd,Sv,Sa,Pssv,ttSd,ttSv,ttSa :
  .971E-04  .106E-03  .122E-03  .132E-03  .150E-03  .184E-03  .197E-03  .249E-03
  .325E-03  .445E-03  .543E-03  .743E-03  .982E-03  .100E-02  .946E-03  .109E-02
  .123E-02  .165E-02  .170E-02  .232E-02  .341E-02  .340E-02  .403E-02  .586E-02
  .736E-02  .884E-02  .113E-01  .115E-01  .107E-01  .994E-02  .876E-02  .784E-02
  .711E-02  .715E-02  .702E-02  .600E-02  .743E-02  .845E-02  .815E-02  .729E-02
