Response and Fourier amplitude spectra (78 periods,  .04 -  6.0 sec)   for      
Corrected accelerogram   38695658.CI.Q0077.01.      Chan  1:  90 Deg     from   
Uncorrected Accelerogram Data             Processed: 09/19/20, CGS  ciq0077d    
Rcrd of Fri Sep 18, 2020 23:38:45.0 PDT               (Avol1 v2.0, 4/18 CSMIP)  
                                        (Origin:  To be determined)             
38695658.CI.Q0077.01.                Start time:  9/19/20, 06:38:45.0 UTC (GPS) 
Station Id. Q0077   34.231N, 119.030W    ObsMMS  s/n  258  (3 Chns of  3 at Sta)
Dwight Avenue                            SCSN   Data: Acceleration              
Chan  1:  90 Deg                                                                
Rcrd of Fri Sep 18, 2020 23:38:45.0 PDT    Fri Sep 18, 2020 23:38:45.0 PDT      
Hypocenter:  To be determined.               ML:  To be determined.             
Instr Period =  .0050 sec,  Damping =  .707,  Sensitivity = 3.32 v/g  (Nominal) 
                        Record Length = 93.000 sec.                             
                                     Uncor Max  =   .005 g, at   32.720 sec.    
RMS accel of (uncor) record  =        .   Chn. metadata effective date:         
Accelerogram bandpass filtered with 3 dB pts at   .30 and 40.00 cyc/sec         
                 instrument- and base-line correcte                             
                                                                                
                                                                                
                                                                                
                                                                                
                                                                                
Rcrd of Fri Sep 18, 2020 23:38:45.0 PDT    Fri Sep 18, 2020 23:38:45.0 PDT      
                                                                                
38695658.CI.Q0077.01.     Dwight Avenue   Chan  1:  90 Deg                      
                                                                                
38695658.CI.Q0077.01.     Dwight Avenue   Chan  1:  90 Deg                      
                                                                                
Units for spectra are inches and sec, except Sa is in fraction of g.            
                                                                                
    1  100    1    3    3  200 -999    3    1    0   15  258    0    0   41    0
    6   38   45    0  263    9   19 2020   10    3   9018600   39   13   74 -999
18600 -999  100    6 -999 -999 -999 -999 -999 -999 -999 -999 -999 -999 -999 -999
 -999 -999 -999 -999 9300    2 -999    0 -999    0 -999 -999    3    1  258 9300
    3 9300    4   78    1    3    5    0    0 -999    0 -999 -999    6 -999    2
    2    2    4 -999 -999 -999 -999 -999 -999 -999 -999    1 -999 -999 -999  111
    1    1 -999 -999
      .005      .707    93.000      .000     1.000  3320.998      .005    32.720
   200.000     1.325      .399  -999.000     5.000  -999.000     3.000  -999.000
    10.000    43.709      .000  -999.000  -999.000  -999.000  -999.000     -.002
     -.002      .000     2.000    15.000    34.231  -119.030      .015      .051
     3.330     -.004      .003    51.000  -999.000  -999.000  -999.000  -999.000
     1.000  -999.000    -8.000  -999.000  -999.000  -999.000  -999.000   120.000
     -.900     2.000     6.800   980.665      .010    93.000    31.831      .000
  -999.000    40.000  -999.000    93.000      .010      .300  -999.000  -999.000
    32.720     4.687    32.820      .236    32.900      .013      .000      .300
    40.000      .010      .010      .000      .010      .015  -999.000  -999.000
      .020      .280      .009      .018      .002      .000  -999.000  -999.000
  -999.000  -999.000  -999.000  -999.000  -999.000  -999.000  -999.000  -999.000
  -999.000  -999.000  -999.000  -999.000
      .050
      .040      .042      .044      .046      .048      .050      .055      .060
      .065      .070      .075      .080      .085      .090      .095      .100
      .110      .120      .130      .140      .150      .160      .170      .180
      .190      .200      .220      .240      .260      .280      .300      .320
      .340      .360      .380      .400      .420      .440      .460      .480
      .500      .550      .600      .650      .700      .750      .800      .850
      .900      .950     1.000     1.100     1.200     1.300     1.400     1.500
     1.600     1.700     1.800     1.900     2.000     2.200     2.400     2.600
     2.800     3.000     3.200     3.400     3.600     3.800     4.000     4.200
     4.400     4.600     4.800     5.000     5.500     6.000      .000      .000
      .000      .000      .000      .000      .000      .000      .000      .000
      .000      .000      .000      .000      .000      .000      .000      .000
      .000      .000      .000      .000
Fourier amplitude spectra in in/sec.
  .000E+00  .000E+00  .000E+00  .000E+00  .000E+00  .000E+00  .000E+00  .000E+00
  .000E+00  .000E+00  .000E+00  .000E+00  .000E+00  .000E+00  .000E+00  .000E+00
  .000E+00  .000E+00  .000E+00  .000E+00  .000E+00  .000E+00  .000E+00  .000E+00
  .000E+00  .000E+00  .000E+00  .000E+00  .000E+00  .000E+00  .000E+00  .000E+00
  .000E+00  .000E+00  .000E+00  .000E+00  .000E+00  .000E+00  .000E+00  .000E+00
  .000E+00  .000E+00  .000E+00  .000E+00  .000E+00  .000E+00  .000E+00  .000E+00
  .000E+00  .000E+00  .000E+00  .000E+00  .000E+00  .000E+00  .000E+00  .000E+00
  .000E+00  .000E+00  .000E+00  .000E+00  .000E+00  .000E+00  .000E+00  .000E+00
  .000E+00  .000E+00  .000E+00  .000E+00  .000E+00  .000E+00  .000E+00  .000E+00
  .000E+00  .000E+00  .000E+00  .000E+00  .000E+00  .000E+00  .000E+00  .000E+00
  .000E+00  .000E+00  .000E+00  .000E+00  .000E+00  .000E+00  .000E+00  .000E+00
  .000E+00  .000E+00  .000E+00  .000E+00  .000E+00  .000E+00  .000E+00  .000E+00
  .000E+00  .000E+00  .000E+00  .000E+00
Damping =  .05. Data of Sd,Sv,Sa,Pssv,ttSd,ttSv,ttSa :
  .843E-04  .959E-04  .109E-03  .127E-03  .147E-03  .168E-03  .211E-03  .224E-03
  .310E-03  .399E-03  .482E-03  .489E-03  .595E-03  .754E-03  .802E-03  .897E-03
  .108E-02  .150E-02  .178E-02  .237E-02  .254E-02  .285E-02  .303E-02  .270E-02
  .291E-02  .343E-02  .510E-02  .722E-02  .109E-01  .151E-01  .167E-01  .151E-01
  .130E-01  .132E-01  .128E-01  .122E-01  .147E-01  .197E-01  .243E-01  .240E-01
  .226E-01  .207E-01  .188E-01  .163E-01  .143E-01  .129E-01  .144E-01  .124E-01
  .122E-01  .143E-01  .141E-01  .176E-01  .136E-01  .138E-01  .110E-01  .158E-01
  .151E-01  .141E-01  .115E-01  .129E-01  .152E-01  .159E-01  .115E-01  .971E-02
  .819E-02  .692E-02  .749E-02  .619E-02  .594E-02  .576E-02  .551E-02  .541E-02
  .537E-02  .532E-02  .529E-02  .527E-02  .506E-02  .527E-02  .000E+00  .000E+00
  .000E+00  .000E+00  .000E+00  .000E+00  .000E+00  .000E+00  .000E+00  .000E+00
  .000E+00  .000E+00  .000E+00  .000E+00  .000E+00  .000E+00  .000E+00  .000E+00
  .000E+00  .000E+00  .000E+00  .000E+00
  .373E-02  .438E-02  .511E-02  .633E-02  .734E-02  .836E-02  .976E-02  .927E-02
  .142E-01  .194E-01  .273E-01  .277E-01  .311E-01  .372E-01  .409E-01  .454E-01
  .523E-01  .619E-01  .609E-01  .814E-01  .919E-01  .950E-01  .939E-01  .807E-01
  .796E-01  .103E+00  .134E+00  .190E+00  .243E+00  .325E+00  .354E+00  .303E+00
  .237E+00  .226E+00  .232E+00  .206E+00  .232E+00  .298E+00  .334E+00  .348E+00
  .321E+00  .250E+00  .240E+00  .210E+00  .188E+00  .153E+00  .140E+00  .124E+00
  .121E+00  .102E+00  .927E-01  .112E+00  .109E+00  .122E+00  .111E+00  .101E+00
  .928E-01  .940E-01  .956E-01  .978E-01  .986E-01  .977E-01  .949E-01  .944E-01
  .948E-01  .951E-01  .945E-01  .944E-01  .935E-01  .929E-01  .932E-01  .933E-01
  .932E-01  .932E-01  .931E-01  .930E-01  .927E-01  .927E-01  .000E+00  .000E+00
  .000E+00  .000E+00  .000E+00  .000E+00  .000E+00  .000E+00  .000E+00  .000E+00
  .000E+00  .000E+00  .000E+00  .000E+00  .000E+00  .000E+00  .000E+00  .000E+00
  .000E+00  .000E+00  .000E+00  .000E+00
  .539E-02  .556E-02  .576E-02  .613E-02  .655E-02  .692E-02  .716E-02  .635E-02
  .756E-02  .832E-02  .887E-02  .787E-02  .850E-02  .951E-02  .912E-02  .923E-02
  .916E-02  .108E-01  .108E-01  .125E-01  .115E-01  .115E-01  .109E-01  .860E-02
  .832E-02  .882E-02  .108E-01  .130E-01  .165E-01  .199E-01  .191E-01  .151E-01
  .115E-01  .104E-01  .914E-02  .783E-02  .854E-02  .105E-01  .118E-01  .107E-01
  .930E-02  .703E-02  .538E-02  .397E-02  .301E-02  .237E-02  .231E-02  .176E-02
  .154E-02  .163E-02  .146E-02  .150E-02  .973E-03  .841E-03  .582E-03  .720E-03
  .606E-03  .503E-03  .367E-03  .367E-03  .391E-03  .337E-03  .205E-03  .148E-03
  .107E-03  .801E-04  .754E-04  .628E-04  .582E-04  .535E-04  .514E-04  .477E-04
  .446E-04  .420E-04  .394E-04  .370E-04  .328E-04  .301E-04  .000E+00  .000E+00
  .000E+00  .000E+00  .000E+00  .000E+00  .000E+00  .000E+00  .000E+00  .000E+00
  .000E+00  .000E+00  .000E+00  .000E+00  .000E+00  .000E+00  .000E+00  .000E+00
  .000E+00  .000E+00  .000E+00  .000E+00
  .132E-01  .143E-01  .156E-01  .173E-01  .192E-01  .211E-01  .241E-01  .235E-01
  .299E-01  .358E-01  .404E-01  .384E-01  .440E-01  .526E-01  .531E-01  .564E-01
  .616E-01  .784E-01  .862E-01  .106E+00  .106E+00  .112E+00  .112E+00  .943E-01
  .962E-01  .108E+00  .146E+00  .189E+00  .263E+00  .340E+00  .351E+00  .296E+00
  .240E+00  .230E+00  .212E+00  .192E+00  .219E+00  .281E+00  .332E+00  .315E+00
  .284E+00  .236E+00  .197E+00  .157E+00  .129E+00  .108E+00  .113E+00  .916E-01
  .849E-01  .947E-01  .889E-01  .100E+00  .712E-01  .666E-01  .496E-01  .660E-01
  .592E-01  .522E-01  .402E-01  .426E-01  .478E-01  .453E-01  .301E-01  .235E-01
  .184E-01  .145E-01  .147E-01  .114E-01  .104E-01  .952E-02  .866E-02  .809E-02
  .767E-02  .726E-02  .693E-02  .663E-02  .578E-02  .552E-02  .000E+00  .000E+00
  .000E+00  .000E+00  .000E+00  .000E+00  .000E+00  .000E+00  .000E+00  .000E+00
  .000E+00  .000E+00  .000E+00  .000E+00  .000E+00  .000E+00  .000E+00  .000E+00
  .000E+00  .000E+00  .000E+00  .000E+00
  .327E+02  .327E+02  .327E+02  .327E+02  .327E+02  .327E+02  .327E+02  .327E+02
  .327E+02  .327E+02  .327E+02  .329E+02  .329E+02  .329E+02  .322E+02  .322E+02
  .329E+02  .329E+02  .327E+02  .327E+02  .346E+02  .322E+02  .322E+02  .322E+02
  .329E+02  .320E+02  .351E+02  .351E+02  .329E+02  .329E+02  .331E+02  .331E+02
  .324E+02  .324E+02  .325E+02  .332E+02  .332E+02  .330E+02  .330E+02  .330E+02
  .329E+02  .322E+02  .320E+02  .367E+02  .318E+02  .318E+02  .429E+02  .462E+02
  .617E+02  .618E+02  .501E+02  .514E+02  .498E+02  .615E+02  .615E+02  .684E+02
  .685E+02  .686E+02  .679E+02  .729E+02  .730E+02  .722E+02  .724E+02  .714E+02
  .715E+02  .715E+02  .716E+02  .495E+02  .495E+02  .495E+02  .426E+02  .426E+02
  .426E+02  .426E+02  .426E+02  .426E+02  .329E+02  .329E+02  .000E+00  .000E+00
  .000E+00  .000E+00  .000E+00  .000E+00  .000E+00  .000E+00  .000E+00  .000E+00
  .000E+00  .000E+00  .000E+00  .000E+00  .000E+00  .000E+00  .000E+00  .000E+00
  .000E+00  .000E+00  .000E+00  .000E+00
  .327E+02  .327E+02  .327E+02  .327E+02  .327E+02  .327E+02  .327E+02  .327E+02
  .327E+02  .327E+02  .328E+02  .328E+02  .328E+02  .328E+02  .345E+02  .308E+02
  .305E+02  .319E+02  .328E+02  .327E+02  .346E+02  .322E+02  .323E+02  .347E+02
  .343E+02  .325E+02  .351E+02  .351E+02  .303E+02  .330E+02  .330E+02  .331E+02
  .325E+02  .324E+02  .324E+02  .324E+02  .324E+02  .331E+02  .331E+02  .330E+02
  .330E+02  .321E+02  .321E+02  .319E+02  .319E+02  .328E+02  .328E+02  .328E+02
  .328E+02  .425E+02  .616E+02  .516E+02  .328E+02  .328E+02  .328E+02  .328E+02
  .328E+02  .328E+02  .328E+02  .328E+02  .328E+02  .328E+02  .328E+02  .328E+02
  .328E+02  .328E+02  .328E+02  .328E+02  .328E+02  .328E+02  .328E+02  .328E+02
  .328E+02  .328E+02  .328E+02  .328E+02  .328E+02  .328E+02  .000E+00  .000E+00
  .000E+00  .000E+00  .000E+00  .000E+00  .000E+00  .000E+00  .000E+00  .000E+00
  .000E+00  .000E+00  .000E+00  .000E+00  .000E+00  .000E+00  .000E+00  .000E+00
  .000E+00  .000E+00  .000E+00  .000E+00
  .327E+02  .327E+02  .327E+02  .327E+02  .327E+02  .327E+02  .327E+02  .327E+02
  .327E+02  .327E+02  .327E+02  .329E+02  .329E+02  .329E+02  .322E+02  .322E+02
  .329E+02  .329E+02  .327E+02  .327E+02  .346E+02  .322E+02  .322E+02  .322E+02
  .329E+02  .320E+02  .351E+02  .351E+02  .329E+02  .329E+02  .331E+02  .331E+02
  .324E+02  .324E+02  .325E+02  .332E+02  .332E+02  .330E+02  .330E+02  .330E+02
  .328E+02  .322E+02  .320E+02  .367E+02  .318E+02  .318E+02  .429E+02  .462E+02
  .617E+02  .618E+02  .501E+02  .514E+02  .498E+02  .615E+02  .615E+02  .684E+02
  .685E+02  .686E+02  .557E+02  .728E+02  .730E+02  .722E+02  .723E+02  .714E+02
  .715E+02  .328E+02  .715E+02  .328E+02  .327E+02  .328E+02  .328E+02  .328E+02
  .328E+02  .328E+02  .328E+02  .328E+02  .328E+02  .328E+02  .000E+00  .000E+00
  .000E+00  .000E+00  .000E+00  .000E+00  .000E+00  .000E+00  .000E+00  .000E+00
  .000E+00  .000E+00  .000E+00  .000E+00  .000E+00  .000E+00  .000E+00  .000E+00
  .000E+00  .000E+00  .000E+00  .000E+00
/&   ----------  End of spectral data for channel  1  ----------
Response and Fourier amplitude spectra (78 periods,  .04 -  6.0 sec)   for      
Corrected accelerogram   38695658.CI.Q0077.01.      Chan  2: 360 Deg     from   
Uncorrected Accelerogram Data             Processed: 09/19/20, CGS  ciq0077d    
Rcrd of Fri Sep 18, 2020 23:38:45.0 PDT               (Avol1 v2.0, 4/18 CSMIP)  
                                        (Origin:  To be determined)             
38695658.CI.Q0077.01.                Start time:  9/19/20, 06:38:45.0 UTC (GPS) 
Station Id. Q0077   34.231N, 119.030W    ObsMMS  s/n  258  (3 Chns of  3 at Sta)
Dwight Avenue                            SCSN   Data: Acceleration              
Chan  2: 360 Deg                                                                
Rcrd of Fri Sep 18, 2020 23:38:45.0 PDT    Fri Sep 18, 2020 23:38:45.0 PDT      
Hypocenter:  To be determined.               ML:  To be determined.             
Instr Period =  .0050 sec,  Damping =  .707,  Sensitivity = 3.32 v/g  (Nominal) 
                        Record Length = 93.000 sec.                             
                                     Uncor Max  =   .004 g, at   32.160 sec.    
RMS accel of (uncor) record  =        .   Chn. metadata effective date:         
Accelerogram bandpass filtered with 3 dB pts at   .30 and 40.00 cyc/sec         
                 instrument- and base-line correcte                             
                                                                                
                                                                                
                                                                                
                                                                                
                                                                                
Rcrd of Fri Sep 18, 2020 23:38:45.0 PDT    Fri Sep 18, 2020 23:38:45.0 PDT      
                                                                                
38695658.CI.Q0077.01.     Dwight Avenue   Chan  2: 360 Deg                      
                                                                                
38695658.CI.Q0077.01.     Dwight Avenue   Chan  2: 360 Deg                      
                                                                                
Units for spectra are inches and sec, except Sa is in fraction of g.            
                                                                                
    2  100    2    3    3  200 -999    3    1    0   15  258    0    0   41    0
    6   38   45    0  263    9   19 2020   10    3  36018600   39   13   74 -999
18600 -999  100    6 -999 -999 -999 -999 -999 -999 -999 -999 -999 -999 -999 -999
 -999 -999 -999 -999 9300    2 -999    0 -999    0 -999 -999    3    1  258 9300
    3 9300    4   78    1    3    5    0    0 -999    0 -999 -999    6 -999    2
    2    2    4 -999 -999 -999 -999 -999 -999 -999 -999    1 -999 -999 -999  111
    1    1 -999 -999
      .005      .707    93.000      .000     1.000  3320.998      .004    32.160
   200.000     1.325      .399  -999.000     5.000  -999.000     3.000  -999.000
    10.000     3.207      .000  -999.000  -999.000  -999.000  -999.000      .000
     -.002     -.002     2.000    15.000    34.231  -119.030      .012      .057
     4.629     -.006      .002    51.000  -999.000  -999.000  -999.000  -999.000
     1.000  -999.000  -999.000  -999.000  -999.000  -999.000  -999.000   120.000
     -.900     2.000     6.800   980.665      .010    93.000    31.831      .000
  -999.000    40.000  -999.000    93.000      .010      .300  -999.000  -999.000
    32.160     3.547    32.230      .167    39.340     -.013      .000      .300
    40.000      .010      .010      .000      .010      .015  -999.000  -999.000
      .017      .240      .011      .013      .002      .000  -999.000  -999.000
  -999.000  -999.000  -999.000  -999.000  -999.000  -999.000  -999.000  -999.000
  -999.000  -999.000  -999.000  -999.000
      .050
      .040      .042      .044      .046      .048      .050      .055      .060
      .065      .070      .075      .080      .085      .090      .095      .100
      .110      .120      .130      .140      .150      .160      .170      .180
      .190      .200      .220      .240      .260      .280      .300      .320
      .340      .360      .380      .400      .420      .440      .460      .480
      .500      .550      .600      .650      .700      .750      .800      .850
      .900      .950     1.000     1.100     1.200     1.300     1.400     1.500
     1.600     1.700     1.800     1.900     2.000     2.200     2.400     2.600
     2.800     3.000     3.200     3.400     3.600     3.800     4.000     4.200
     4.400     4.600     4.800     5.000     5.500     6.000      .000      .000
      .000      .000      .000      .000      .000      .000      .000      .000
      .000      .000      .000      .000      .000      .000      .000      .000
      .000      .000      .000      .000
Fourier amplitude spectra in in/sec.
  .000E+00  .000E+00  .000E+00  .000E+00  .000E+00  .000E+00  .000E+00  .000E+00
  .000E+00  .000E+00  .000E+00  .000E+00  .000E+00  .000E+00  .000E+00  .000E+00
  .000E+00  .000E+00  .000E+00  .000E+00  .000E+00  .000E+00  .000E+00  .000E+00
  .000E+00  .000E+00  .000E+00  .000E+00  .000E+00  .000E+00  .000E+00  .000E+00
  .000E+00  .000E+00  .000E+00  .000E+00  .000E+00  .000E+00  .000E+00  .000E+00
  .000E+00  .000E+00  .000E+00  .000E+00  .000E+00  .000E+00  .000E+00  .000E+00
  .000E+00  .000E+00  .000E+00  .000E+00  .000E+00  .000E+00  .000E+00  .000E+00
  .000E+00  .000E+00  .000E+00  .000E+00  .000E+00  .000E+00  .000E+00  .000E+00
  .000E+00  .000E+00  .000E+00  .000E+00  .000E+00  .000E+00  .000E+00  .000E+00
  .000E+00  .000E+00  .000E+00  .000E+00  .000E+00  .000E+00  .000E+00  .000E+00
  .000E+00  .000E+00  .000E+00  .000E+00  .000E+00  .000E+00  .000E+00  .000E+00
  .000E+00  .000E+00  .000E+00  .000E+00  .000E+00  .000E+00  .000E+00  .000E+00
  .000E+00  .000E+00  .000E+00  .000E+00
Damping =  .05. Data of Sd,Sv,Sa,Pssv,ttSd,ttSv,ttSa :
  .589E-04  .665E-04  .753E-04  .884E-04  .100E-03  .106E-03  .139E-03  .196E-03
  .269E-03  .355E-03  .411E-03  .461E-03  .541E-03  .624E-03  .731E-03  .953E-03
  .131E-02  .138E-02  .174E-02  .196E-02  .250E-02  .291E-02  .303E-02  .349E-02
  .375E-02  .374E-02  .652E-02  .979E-02  .112E-01  .109E-01  .103E-01  .132E-01
  .939E-02  .836E-02  .992E-02  .113E-01  .122E-01  .128E-01  .106E-01  .950E-02
