Response and Fourier amplitude spectra (78 periods,  .04 -  6.0 sec)   for      
Corrected accelerogram   38695658.CI.QUG.--.HN      Chan  1:  90 Deg     from   
Uncorrected Accelerogram Data             Processed: 09/19/20, CGS  ciqug--c    
Rcrd of Fri Sep 18, 2020 23:38:34.0 PDT               (Avol1 v2.0, 4/18 CSMIP)  
                                        (Origin:  To be determined)             
38695658.CI.QUG.--.HN                Start time:  9/19/20, 06:38:34.0 UTC (GPS) 
Station Id. QUG     34.396N, 118.498W    ObsMMS  s/n  656  (3 Chns of  6 at Sta)
Valencia, Sierra Hwy                     SCSN   Data: Acceleration              
Chan  1:  90 Deg                                                                
Rcrd of Fri Sep 18, 2020 23:38:34.0 PDT    Fri Sep 18, 2020 23:38:34.0 PDT      
Hypocenter:  To be determined.               ML:  To be determined.             
Instr Period =  .0050 sec,  Damping =  .707,  Sensitivity = 2.49 v/g  (Nominal) 
                        Record Length =301.000 sec.                             
                                     Uncor Max  =   .002 g, at   30.520 sec.    
RMS accel of (uncor) record  =        .   Chn. metadata effective date:         
Accelerogram bandpass filtered with 3 dB pts at   .30 and 23.00 cyc/sec         
                 instrument- and base-line correcte                             
                                                                                
                                                                                
                                                                                
                                                                                
                                                                                
Rcrd of Fri Sep 18, 2020 23:38:34.0 PDT    Fri Sep 18, 2020 23:38:34.0 PDT      
                                                                                
38695658.CI.QUG.--.HN     Valencia, Sierra Hwy    Chan  1:  90 Deg              
                                                                                
38695658.CI.QUG.--.HN     Valencia, Sierra Hwy    Chan  1:  90 Deg              
                                                                                
Units for spectra are inches and sec, except Sa is in fraction of g.            
                                                                                
    1  100    1    6    6  100 -999    3    1    0   15  656    050638   41    0
    6   38   34    0  263    9   19 2020   10    3   9035540   39   20   74 -999
35540 -999  100    6 -999 -999 -999 -999 -999 -999 -999 -999 -999 -999 -999 -999
 -999 -999 -999 -99915050    2 -999    0 -999    0 -999 -999    3    1  65615050
    315050    4   78    1    3    5    0    0 -999    0 -999 -999    6 -999    2
    2    2    4 -999 -999 -999 -999 -999 -999 -999 -999    1 -999 -999 -999  111
    1    1 -999 -999
      .005      .707   355.400      .000     1.000  2489.253      .002    30.520
   200.000      .596      .239  -999.000    10.000  -999.000     2.000  -999.000
     5.000    11.828      .000  -999.000  -999.000  -999.000  -999.000      .004
     -.004     -.008     2.000    15.000    34.396  -118.498      .092      .104
     1.124     -.026      .010   515.000  -999.000  -999.000  -999.000  -999.000
     1.000  -999.000    -8.000  -999.000  -999.000  -999.000  -999.000   120.000
     -.900     2.000     6.800   980.665      .020   301.000    31.831      .001
  -999.000    23.000  -999.000   301.000      .020      .300  -999.000  -999.000
    30.520     1.664    31.860      .078    31.940      .012      .000      .300
    23.000      .020      .020      .000      .020      .008  -999.000  -999.000
      .009      .140      .004      .003      .001      .000  -999.000  -999.000
  -999.000  -999.000  -999.000  -999.000  -999.000  -999.000  -999.000  -999.000
  -999.000  -999.000  -999.000  -999.000
      .050
      .040      .042      .044      .046      .048      .050      .055      .060
      .065      .070      .075      .080      .085      .090      .095      .100
      .110      .120      .130      .140      .150      .160      .170      .180
      .190      .200      .220      .240      .260      .280      .300      .320
      .340      .360      .380      .400      .420      .440      .460      .480
      .500      .550      .600      .650      .700      .750      .800      .850
      .900      .950     1.000     1.100     1.200     1.300     1.400     1.500
     1.600     1.700     1.800     1.900     2.000     2.200     2.400     2.600
     2.800     3.000     3.200     3.400     3.600     3.800     4.000     4.200
     4.400     4.600     4.800     5.000     5.500     6.000      .000      .000
      .000      .000      .000      .000      .000      .000      .000      .000
      .000      .000      .000      .000      .000      .000      .000      .000
      .000      .000      .000      .000
Fourier amplitude spectra in in/sec.
  .000E+00  .000E+00  .000E+00  .000E+00  .000E+00  .000E+00  .000E+00  .000E+00
  .000E+00  .000E+00  .000E+00  .000E+00  .000E+00  .000E+00  .000E+00  .000E+00
  .000E+00  .000E+00  .000E+00  .000E+00  .000E+00  .000E+00  .000E+00  .000E+00
  .000E+00  .000E+00  .000E+00  .000E+00  .000E+00  .000E+00  .000E+00  .000E+00
  .000E+00  .000E+00  .000E+00  .000E+00  .000E+00  .000E+00  .000E+00  .000E+00
  .000E+00  .000E+00  .000E+00  .000E+00  .000E+00  .000E+00  .000E+00  .000E+00
  .000E+00  .000E+00  .000E+00  .000E+00  .000E+00  .000E+00  .000E+00  .000E+00
  .000E+00  .000E+00  .000E+00  .000E+00  .000E+00  .000E+00  .000E+00  .000E+00
  .000E+00  .000E+00  .000E+00  .000E+00  .000E+00  .000E+00  .000E+00  .000E+00
  .000E+00  .000E+00  .000E+00  .000E+00  .000E+00  .000E+00  .000E+00  .000E+00
  .000E+00  .000E+00  .000E+00  .000E+00  .000E+00  .000E+00  .000E+00  .000E+00
  .000E+00  .000E+00  .000E+00  .000E+00  .000E+00  .000E+00  .000E+00  .000E+00
  .000E+00  .000E+00  .000E+00  .000E+00
Damping =  .05. Data of Sd,Sv,Sa,Pssv,ttSd,ttSv,ttSa :
  .327E-04  .354E-04  .369E-04  .385E-04  .430E-04  .497E-04  .596E-04  .692E-04
  .831E-04  .122E-03  .142E-03  .209E-03  .259E-03  .315E-03  .361E-03  .444E-03
  .530E-03  .791E-03  .114E-02  .176E-02  .188E-02  .157E-02  .139E-02  .113E-02
  .126E-02  .141E-02  .228E-02  .229E-02  .215E-02  .263E-02  .295E-02  .347E-02
  .354E-02  .344E-02  .416E-02  .544E-02  .669E-02  .670E-02  .611E-02  .557E-02
  .597E-02  .577E-02  .707E-02  .654E-02  .777E-02  .849E-02  .102E-01  .111E-01
  .151E-01  .153E-01  .131E-01  .967E-02  .880E-02  .112E-01  .871E-02  .849E-02
  .100E-01  .129E-01  .128E-01  .116E-01  .109E-01  .123E-01  .111E-01  .919E-02
  .814E-02  .724E-02  .706E-02  .730E-02  .737E-02  .731E-02  .710E-02  .680E-02
  .666E-02  .652E-02  .634E-02  .615E-02  .575E-02  .547E-02  .000E+00  .000E+00
  .000E+00  .000E+00  .000E+00  .000E+00  .000E+00  .000E+00  .000E+00  .000E+00
  .000E+00  .000E+00  .000E+00  .000E+00  .000E+00  .000E+00  .000E+00  .000E+00
  .000E+00  .000E+00  .000E+00  .000E+00
  .241E-02  .234E-02  .214E-02  .232E-02  .250E-02  .281E-02  .291E-02  .355E-02
  .461E-02  .656E-02  .951E-02  .123E-01  .152E-01  .183E-01  .206E-01  .225E-01
  .258E-01  .373E-01  .534E-01  .764E-01  .776E-01  .662E-01  .544E-01  .424E-01
  .387E-01  .391E-01  .619E-01  .604E-01  .507E-01  .593E-01  .660E-01  .615E-01
  .602E-01  .524E-01  .615E-01  .813E-01  .937E-01  .933E-01  .777E-01  .683E-01
  .724E-01  .694E-01  .794E-01  .725E-01  .811E-01  .819E-01  .859E-01  .842E-01
  .947E-01  .111E+00  .102E+00  .731E-01  .591E-01  .581E-01  .520E-01  .498E-01
  .479E-01  .475E-01  .532E-01  .489E-01  .541E-01  .509E-01  .456E-01  .440E-01
  .431E-01  .414E-01  .390E-01  .367E-01  .348E-01  .331E-01  .317E-01  .305E-01
  .297E-01  .301E-01  .303E-01  .305E-01  .306E-01  .305E-01  .000E+00  .000E+00
  .000E+00  .000E+00  .000E+00  .000E+00  .000E+00  .000E+00  .000E+00  .000E+00
  .000E+00  .000E+00  .000E+00  .000E+00  .000E+00  .000E+00  .000E+00  .000E+00
  .000E+00  .000E+00  .000E+00  .000E+00
  .208E-02  .207E-02  .195E-02  .186E-02  .191E-02  .204E-02  .202E-02  .197E-02
  .202E-02  .252E-02  .262E-02  .331E-02  .364E-02  .403E-02  .412E-02  .450E-02
  .452E-02  .560E-02  .695E-02  .917E-02  .848E-02  .624E-02  .488E-02  .359E-02
  .356E-02  .360E-02  .478E-02  .415E-02  .328E-02  .340E-02  .343E-02  .350E-02
  .317E-02  .273E-02  .296E-02  .349E-02  .387E-02  .354E-02  .296E-02  .247E-02
  .245E-02  .197E-02  .203E-02  .159E-02  .164E-02  .155E-02  .163E-02  .158E-02
  .192E-02  .175E-02  .135E-02  .822E-03  .629E-03  .681E-03  .459E-03  .389E-03
  .403E-03  .461E-03  .407E-03  .330E-03  .282E-03  .263E-03  .201E-03  .143E-03
  .110E-03  .860E-04  .740E-04  .673E-04  .607E-04  .542E-04  .491E-04  .446E-04
  .405E-04  .368E-04  .334E-04  .304E-04  .245E-04  .205E-04  .000E+00  .000E+00
  .000E+00  .000E+00  .000E+00  .000E+00  .000E+00  .000E+00  .000E+00  .000E+00
  .000E+00  .000E+00  .000E+00  .000E+00  .000E+00  .000E+00  .000E+00  .000E+00
  .000E+00  .000E+00  .000E+00  .000E+00
  .513E-02  .529E-02  .527E-02  .526E-02  .563E-02  .625E-02  .681E-02  .724E-02
  .804E-02  .109E-01  .119E-01  .164E-01  .191E-01  .220E-01  .239E-01  .279E-01
  .303E-01  .414E-01  .551E-01  .788E-01  .786E-01  .616E-01  .513E-01  .396E-01
  .417E-01  .443E-01  .651E-01  .599E-01  .520E-01  .590E-01  .619E-01  .682E-01
  .654E-01  .600E-01  .687E-01  .854E-01  .100E+00  .956E-01  .834E-01  .729E-01
  .750E-01  .660E-01  .741E-01  .633E-01  .698E-01  .711E-01  .798E-01  .820E-01
  .106E+00  .101E+00  .826E-01  .552E-01  .461E-01  .540E-01  .391E-01  .356E-01
  .395E-01  .477E-01  .447E-01  .384E-01  .343E-01  .350E-01  .292E-01  .222E-01
  .183E-01  .152E-01  .139E-01  .135E-01  .129E-01  .121E-01  .112E-01  .102E-01
  .951E-02  .891E-02  .830E-02  .772E-02  .657E-02  .573E-02  .000E+00  .000E+00
  .000E+00  .000E+00  .000E+00  .000E+00  .000E+00  .000E+00  .000E+00  .000E+00
  .000E+00  .000E+00  .000E+00  .000E+00  .000E+00  .000E+00  .000E+00  .000E+00
  .000E+00  .000E+00  .000E+00  .000E+00
  .309E+02  .309E+02  .309E+02  .309E+02  .309E+02  .309E+02  .309E+02  .309E+02
  .306E+02  .306E+02  .307E+02  .308E+02  .308E+02  .309E+02  .309E+02  .309E+02
  .310E+02  .310E+02  .310E+02  .310E+02  .312E+02  .308E+02  .306E+02  .306E+02
  .324E+02  .324E+02  .324E+02  .324E+02  .342E+02  .342E+02  .341E+02  .320E+02
  .320E+02  .326E+02  .326E+02  .327E+02  .327E+02  .330E+02  .330E+02  .420E+02
  .420E+02  .411E+02  .338E+02  .411E+02  .338E+02  .335E+02  .336E+02  .336E+02
  .336E+02  .336E+02  .337E+02  .401E+02  .438E+02  .416E+02  .334E+02  .329E+02
  .438E+02  .474E+02  .468E+02  .517E+02  .509E+02  .325E+02  .326E+02  .326E+02
  .326E+02  .326E+02  .334E+02  .334E+02  .334E+02  .334E+02  .334E+02  .334E+02
  .319E+02  .319E+02  .319E+02  .319E+02  .319E+02  .319E+02  .000E+00  .000E+00
  .000E+00  .000E+00  .000E+00  .000E+00  .000E+00  .000E+00  .000E+00  .000E+00
  .000E+00  .000E+00  .000E+00  .000E+00  .000E+00  .000E+00  .000E+00  .000E+00
  .000E+00  .000E+00  .000E+00  .000E+00
  .310E+02  .310E+02  .308E+02  .308E+02  .308E+02  .305E+02  .306E+02  .306E+02
  .305E+02  .306E+02  .308E+02  .308E+02  .308E+02  .308E+02  .309E+02  .309E+02
  .310E+02  .310E+02  .310E+02  .311E+02  .310E+02  .308E+02  .308E+02  .306E+02
  .313E+02  .312E+02  .323E+02  .323E+02  .341E+02  .342E+02  .342E+02  .321E+02
  .319E+02  .325E+02  .339E+02  .338E+02  .326E+02  .328E+02  .329E+02  .421E+02
  .421E+02  .412E+02  .336E+02  .323E+02  .337E+02  .337E+02  .337E+02  .337E+02
  .338E+02  .335E+02  .335E+02  .335E+02  .335E+02  .336E+02  .336E+02  .408E+02
  .333E+02  .327E+02  .473E+02  .327E+02  .327E+02  .328E+02  .322E+02  .336E+02
  .336E+02  .336E+02  .336E+02  .336E+02  .336E+02  .336E+02  .336E+02  .336E+02
  .318E+02  .318E+02  .318E+02  .318E+02  .318E+02  .318E+02  .000E+00  .000E+00
  .000E+00  .000E+00  .000E+00  .000E+00  .000E+00  .000E+00  .000E+00  .000E+00
  .000E+00  .000E+00  .000E+00  .000E+00  .000E+00  .000E+00  .000E+00  .000E+00
  .000E+00  .000E+00  .000E+00  .000E+00
  .309E+02  .309E+02  .309E+02  .309E+02  .309E+02  .309E+02  .309E+02  .309E+02
  .306E+02  .306E+02  .307E+02  .308E+02  .308E+02  .309E+02  .309E+02  .309E+02
  .310E+02  .310E+02  .311E+02  .310E+02  .312E+02  .308E+02  .306E+02  .306E+02
  .324E+02  .324E+02  .324E+02  .324E+02  .342E+02  .342E+02  .341E+02  .320E+02
  .320E+02  .326E+02  .326E+02  .327E+02  .327E+02  .330E+02  .330E+02  .420E+02
  .420E+02  .411E+02  .338E+02  .411E+02  .338E+02  .335E+02  .336E+02  .336E+02
  .336E+02  .336E+02  .337E+02  .401E+02  .438E+02  .416E+02  .334E+02  .329E+02
  .438E+02  .474E+02  .467E+02  .517E+02  .508E+02  .325E+02  .325E+02  .326E+02
  .326E+02  .326E+02  .319E+02  .333E+02  .333E+02  .333E+02  .319E+02  .319E+02
  .319E+02  .319E+02  .319E+02  .319E+02  .319E+02  .319E+02  .000E+00  .000E+00
  .000E+00  .000E+00  .000E+00  .000E+00  .000E+00  .000E+00  .000E+00  .000E+00
  .000E+00  .000E+00  .000E+00  .000E+00  .000E+00  .000E+00  .000E+00  .000E+00
  .000E+00  .000E+00  .000E+00  .000E+00
/&   ----------  End of spectral data for channel  1  ----------
Response and Fourier amplitude spectra (78 periods,  .04 -  6.0 sec)   for      
Corrected accelerogram   38695658.CI.QUG.--.HN      Chan  2: 360 Deg     from   
Uncorrected Accelerogram Data             Processed: 09/19/20, CGS  ciqug--c    
Rcrd of Fri Sep 18, 2020 23:38:34.0 PDT               (Avol1 v2.0, 4/18 CSMIP)  
                                        (Origin:  To be determined)             
38695658.CI.QUG.--.HN                Start time:  9/19/20, 06:38:34.0 UTC (GPS) 
Station Id. QUG     34.396N, 118.498W    ObsMMS  s/n  656  (3 Chns of  6 at Sta)
Valencia, Sierra Hwy                     SCSN   Data: Acceleration              
Chan  2: 360 Deg                                                                
Rcrd of Fri Sep 18, 2020 23:38:34.0 PDT    Fri Sep 18, 2020 23:38:34.0 PDT      
Hypocenter:  To be determined.               ML:  To be determined.             
Instr Period =  .0050 sec,  Damping =  .707,  Sensitivity = 2.49 v/g  (Nominal) 
                        Record Length =301.000 sec.                             
                                     Uncor Max  =   .003 g, at   30.710 sec.    
RMS accel of (uncor) record  =        .   Chn. metadata effective date:         
Accelerogram bandpass filtered with 3 dB pts at   .30 and 23.00 cyc/sec         
                 instrument- and base-line correcte                             
                                                                                
                                                                                
                                                                                
                                                                                
                                                                                
Rcrd of Fri Sep 18, 2020 23:38:34.0 PDT    Fri Sep 18, 2020 23:38:34.0 PDT      
                                                                                
38695658.CI.QUG.--.HN     Valencia, Sierra Hwy    Chan  2: 360 Deg              
                                                                                
38695658.CI.QUG.--.HN     Valencia, Sierra Hwy    Chan  2: 360 Deg              
                                                                                
Units for spectra are inches and sec, except Sa is in fraction of g.            
                                                                                
    2  100    2    6    6  100 -999    3    1    0   15  656    050638   41    0
    6   38   34    0  263    9   19 2020   10    3  36035396   39   20   74 -999
35396 -999  100    6 -999 -999 -999 -999 -999 -999 -999 -999 -999 -999 -999 -999
 -999 -999 -999 -99915050    2 -999    0 -999    0 -999 -999    3    1  65615050
    315050    4   78    1    3    5    0    0 -999    0 -999 -999    6 -999    2
    2    2    4 -999 -999 -999 -999 -999 -999 -999 -999    1 -999 -999 -999  111
    1    1 -999 -999
      .005      .707   353.960      .000     1.000  2493.242      .003    30.710
   200.000      .596      .239  -999.000    10.000  -999.000     2.000  -999.000
     5.000    20.767      .000  -999.000  -999.000  -999.000  -999.000     -.002
      .002      .005     2.000    15.000    34.396  -118.498      .100      .110
     1.108     -.015      .024   515.000  -999.000  -999.000  -999.000  -999.000
     1.000  -999.000  -999.000  -999.000  -999.000  -999.000  -999.000   120.000
     -.900     2.000     6.800   980.665      .020   301.000    31.831      .000
  -999.000    23.000  -999.000   301.000      .020      .300  -999.000  -999.000
    30.700     2.049    33.280      .100    37.540      .010      .000      .300
    23.000      .020      .020      .000      .020      .009  -999.000  -999.000
      .010      .120      .004      .003      .001      .000  -999.000  -999.000
  -999.000  -999.000  -999.000  -999.000  -999.000  -999.000  -999.000  -999.000
  -999.000  -999.000  -999.000  -999.000
      .050
      .040      .042      .044      .046      .048      .050      .055      .060
      .065      .070      .075      .080      .085      .090      .095      .100
      .110      .120      .130      .140      .150      .160      .170      .180
      .190      .200      .220      .240      .260      .280      .300      .320
      .340      .360      .380      .400      .420      .440      .460      .480
      .500      .550      .600      .650      .700      .750      .800      .850
      .900      .950     1.000     1.100     1.200     1.300     1.400     1.500
     1.600     1.700     1.800     1.900     2.000     2.200     2.400     2.600
     2.800     3.000     3.200     3.400     3.600     3.800     4.000     4.200
     4.400     4.600     4.800     5.000     5.500     6.000      .000      .000
      .000      .000      .000      .000      .000      .000      .000      .000
      .000      .000      .000      .000      .000      .000      .000      .000
      .000      .000      .000      .000
Fourier amplitude spectra in in/sec.
  .000E+00  .000E+00  .000E+00  .000E+00  .000E+00  .000E+00  .000E+00  .000E+00
  .000E+00  .000E+00  .000E+00  .000E+00  .000E+00  .000E+00  .000E+00  .000E+00
  .000E+00  .000E+00  .000E+00  .000E+00  .000E+00  .000E+00  .000E+00  .000E+00
  .000E+00  .000E+00  .000E+00  .000E+00  .000E+00  .000E+00  .000E+00  .000E+00
  .000E+00  .000E+00  .000E+00  .000E+00  .000E+00  .000E+00  .000E+00  .000E+00
  .000E+00  .000E+00  .000E+00  .000E+00  .000E+00  .000E+00  .000E+00  .000E+00
  .000E+00  .000E+00  .000E+00  .000E+00  .000E+00  .000E+00  .000E+00  .000E+00
  .000E+00  .000E+00  .000E+00  .000E+00  .000E+00  .000E+00  .000E+00  .000E+00
  .000E+00  .000E+00  .000E+00  .000E+00  .000E+00  .000E+00  .000E+00  .000E+00
  .000E+00  .000E+00  .000E+00  .000E+00  .000E+00  .000E+00  .000E+00  .000E+00
  .000E+00  .000E+00  .000E+00  .000E+00  .000E+00  .000E+00  .000E+00  .000E+00
  .000E+00  .000E+00  .000E+00  .000E+00  .000E+00  .000E+00  .000E+00  .000E+00
  .000E+00  .000E+00  .000E+00  .000E+00
Damping =  .05. Data of Sd,Sv,Sa,Pssv,ttSd,ttSv,ttSa :
  .385E-04  .414E-04  .452E-04  .487E-04  .516E-04  .552E-04  .821E-04  .102E-03
  .125E-03  .150E-03  .164E-03  .216E-03  .254E-03  .350E-03  .457E-03  .603E-03
  .105E-02  .146E-02  .160E-02  .159E-02  .193E-02  .197E-02  .158E-02  .139E-02
  .155E-02  .154E-02  .169E-02  .219E-02  .253E-02  .238E-02  .283E-02  .362E-02
  .348E-02  .285E-02  .298E-02  .408E-02  .474E-02  .511E-02  .650E-02  .753E-02
