Response and Fourier amplitude spectra (78 periods,  .04 -  6.0 sec)   for      
Corrected accelerogram   38695658.CI.RCU.--.HN      Chan  1:  90 Deg     from   
Uncorrected Accelerogram Data             Processed: 09/19/20, CGS  circu--o    
Rcrd of Fri Sep 18, 2020 23:38:33.0 PDT               (Avol1 v2.0, 4/18 CSMIP)  
                                        (Origin:  To be determined)             
38695658.CI.RCU.--.HN                Start time:  9/19/20, 06:38:33.0 UTC (GPS) 
Station Id. RCU     34.083N, 117.524W    ObsMMS  s/n 1125  (3 Chns of  6 at Sta)
Rancho Cucamonga                         SCSN   Data: Acceleration              
Chan  1:  90 Deg                                                                
Rcrd of Fri Sep 18, 2020 23:38:33.0 PDT    Fri Sep 18, 2020 23:38:33.0 PDT      
Hypocenter:  To be determined.               ML:  To be determined.             
Instr Period =  .0050 sec,  Damping =  .707,  Sensitivity = 4.99 v/g  (Nominal) 
                        Record Length =301.000 sec.                             
                                     Uncor Max  =   .009 g, at   32.290 sec.    
RMS accel of (uncor) record  =        .   Chn. metadata effective date:         
Accelerogram bandpass filtered with 3 dB pts at   .30 and 23.00 cyc/sec         
                 instrument- and base-line correcte                             
                                                                                
                                                                                
                                                                                
                                                                                
                                                                                
Rcrd of Fri Sep 18, 2020 23:38:33.0 PDT    Fri Sep 18, 2020 23:38:33.0 PDT      
                                                                                
38695658.CI.RCU.--.HN     Rancho Cucamonga    Chan  1:  90 Deg                  
                                                                                
38695658.CI.RCU.--.HN     Rancho Cucamonga    Chan  1:  90 Deg                  
                                                                                
Units for spectra are inches and sec, except Sa is in fraction of g.            
                                                                                
    1  100    1    6    6  100 -999    3    1    0   15 1125    0    0   41    0
    6   38   33   10  263    9   19 2020   10    3   9035521   39   16   74 -999
35521 -999  100    6 -999 -999 -999 -999 -999 -999 -999 -999 -999 -999 -999 -999
 -999 -999 -999 -99915050    2 -999    0 -999   20 -999 -999    3    1 -99915050
    315050    4   78    1    3    5    0    0 -999    0 -999 -999    6 -999    2
    2    2    4 -999 -999 -999 -999 -999 -999 -999 -999    1 -999 -999 -999  111
    1    1 -999 -999
      .005      .707   355.210      .000     1.000  4991.271      .009    32.290
   200.000     2.384      .478  -999.000    10.000  -999.000     4.000  -999.000
    20.000    -9.504      .000  -999.000  -999.000  -999.000  -999.000     -.001
      .001      .002     2.000    15.000    34.083  -117.524      .050      .048
      .969     -.008      .011   329.900  -999.000  -999.000  -999.000  -999.000
     1.000  -999.000    -8.000  -999.000  -999.000  -999.000  -999.000   120.000
     -.900     2.000     6.800   980.665      .020   301.000    31.831      .000
  -999.000    23.000  -999.000   301.000      .020      .300  -999.000  -999.000
    29.960    -8.694    30.080     -.190    30.120     -.009      .000      .300
    23.000      .020      .020      .000      .020      .010  -999.000  -999.000
      .036      .110      .011      .009      .001      .000  -999.000  -999.000
  -999.000  -999.000  -999.000  -999.000  -999.000  -999.000  -999.000  -999.000
  -999.000  -999.000  -999.000  -999.000
      .050
      .040      .042      .044      .046      .048      .050      .055      .060
      .065      .070      .075      .080      .085      .090      .095      .100
      .110      .120      .130      .140      .150      .160      .170      .180
      .190      .200      .220      .240      .260      .280      .300      .320
      .340      .360      .380      .400      .420      .440      .460      .480
      .500      .550      .600      .650      .700      .750      .800      .850
      .900      .950     1.000     1.100     1.200     1.300     1.400     1.500
     1.600     1.700     1.800     1.900     2.000     2.200     2.400     2.600
     2.800     3.000     3.200     3.400     3.600     3.800     4.000     4.200
     4.400     4.600     4.800     5.000     5.500     6.000      .000      .000
      .000      .000      .000      .000      .000      .000      .000      .000
      .000      .000      .000      .000      .000      .000      .000      .000
      .000      .000      .000      .000
Fourier amplitude spectra in in/sec.
  .000E+00  .000E+00  .000E+00  .000E+00  .000E+00  .000E+00  .000E+00  .000E+00
  .000E+00  .000E+00  .000E+00  .000E+00  .000E+00  .000E+00  .000E+00  .000E+00
  .000E+00  .000E+00  .000E+00  .000E+00  .000E+00  .000E+00  .000E+00  .000E+00
  .000E+00  .000E+00  .000E+00  .000E+00  .000E+00  .000E+00  .000E+00  .000E+00
  .000E+00  .000E+00  .000E+00  .000E+00  .000E+00  .000E+00  .000E+00  .000E+00
  .000E+00  .000E+00  .000E+00  .000E+00  .000E+00  .000E+00  .000E+00  .000E+00
  .000E+00  .000E+00  .000E+00  .000E+00  .000E+00  .000E+00  .000E+00  .000E+00
  .000E+00  .000E+00  .000E+00  .000E+00  .000E+00  .000E+00  .000E+00  .000E+00
  .000E+00  .000E+00  .000E+00  .000E+00  .000E+00  .000E+00  .000E+00  .000E+00
  .000E+00  .000E+00  .000E+00  .000E+00  .000E+00  .000E+00  .000E+00  .000E+00
  .000E+00  .000E+00  .000E+00  .000E+00  .000E+00  .000E+00  .000E+00  .000E+00
  .000E+00  .000E+00  .000E+00  .000E+00  .000E+00  .000E+00  .000E+00  .000E+00
  .000E+00  .000E+00  .000E+00  .000E+00
Damping =  .05. Data of Sd,Sv,Sa,Pssv,ttSd,ttSv,ttSa :
  .170E-03  .194E-03  .212E-03  .243E-03  .300E-03  .383E-03  .539E-03  .643E-03
  .791E-03  .886E-03  .142E-02  .192E-02  .205E-02  .242E-02  .253E-02  .274E-02
  .411E-02  .458E-02  .347E-02  .322E-02  .341E-02  .344E-02  .354E-02  .312E-02
  .372E-02  .421E-02  .566E-02  .596E-02  .746E-02  .824E-02  .782E-02  .797E-02
  .662E-02  .580E-02  .533E-02  .675E-02  .783E-02  .807E-02  .784E-02  .757E-02
  .937E-02  .995E-02  .943E-02  .891E-02  .830E-02  .845E-02  .798E-02  .724E-02
  .643E-02  .590E-02  .564E-02  .588E-02  .578E-02  .783E-02  .100E-01  .126E-01
  .102E-01  .820E-02  .923E-02  .828E-02  .623E-02  .515E-02  .489E-02  .514E-02
  .395E-02  .394E-02  .394E-02  .389E-02  .385E-02  .384E-02  .381E-02  .378E-02
  .376E-02  .374E-02  .371E-02  .369E-02  .365E-02  .363E-02  .000E+00  .000E+00
  .000E+00  .000E+00  .000E+00  .000E+00  .000E+00  .000E+00  .000E+00  .000E+00
  .000E+00  .000E+00  .000E+00  .000E+00  .000E+00  .000E+00  .000E+00  .000E+00
  .000E+00  .000E+00  .000E+00  .000E+00
  .143E-01  .160E-01  .166E-01  .193E-01  .252E-01  .337E-01  .495E-01  .619E-01
  .688E-01  .669E-01  .109E+00  .140E+00  .145E+00  .153E+00  .150E+00  .157E+00
  .218E+00  .244E+00  .180E+00  .151E+00  .148E+00  .146E+00  .137E+00  .131E+00
  .122E+00  .125E+00  .157E+00  .159E+00  .171E+00  .178E+00  .186E+00  .169E+00
  .152E+00  .124E+00  .108E+00  .119E+00  .125E+00  .139E+00  .130E+00  .119E+00
  .126E+00  .139E+00  .137E+00  .123E+00  .114E+00  .960E-01  .915E-01  .872E-01
  .847E-01  .829E-01  .815E-01  .820E-01  .792E-01  .783E-01  .776E-01  .734E-01
  .700E-01  .692E-01  .695E-01  .698E-01  .697E-01  .692E-01  .688E-01  .689E-01
  .692E-01  .693E-01  .694E-01  .695E-01  .695E-01  .694E-01  .694E-01  .694E-01
  .694E-01  .694E-01  .694E-01  .693E-01  .693E-01  .692E-01  .000E+00  .000E+00
  .000E+00  .000E+00  .000E+00  .000E+00  .000E+00  .000E+00  .000E+00  .000E+00
  .000E+00  .000E+00  .000E+00  .000E+00  .000E+00  .000E+00  .000E+00  .000E+00
  .000E+00  .000E+00  .000E+00  .000E+00
  .109E-01  .113E-01  .113E-01  .118E-01  .134E-01  .156E-01  .185E-01  .182E-01
  .192E-01  .187E-01  .260E-01  .314E-01  .288E-01  .308E-01  .291E-01  .284E-01
  .355E-01  .329E-01  .211E-01  .168E-01  .154E-01  .139E-01  .125E-01  .987E-02
  .106E-01  .106E-01  .118E-01  .105E-01  .112E-01  .107E-01  .908E-02  .799E-02
  .589E-02  .457E-02  .382E-02  .439E-02  .451E-02  .427E-02  .384E-02  .343E-02
  .383E-02  .341E-02  .276E-02  .218E-02  .178E-02  .156E-02  .129E-02  .106E-02
  .846E-03  .701E-03  .607E-03  .499E-03  .412E-03  .476E-03  .527E-03  .573E-03
  .410E-03  .292E-03  .294E-03  .236E-03  .161E-03  .113E-03  .896E-04  .819E-04
  .736E-04  .661E-04  .598E-04  .541E-04  .492E-04  .453E-04  .418E-04  .388E-04
  .361E-04  .338E-04  .317E-04  .298E-04  .261E-04  .234E-04  .000E+00  .000E+00
  .000E+00  .000E+00  .000E+00  .000E+00  .000E+00  .000E+00  .000E+00  .000E+00
  .000E+00  .000E+00  .000E+00  .000E+00  .000E+00  .000E+00  .000E+00  .000E+00
  .000E+00  .000E+00  .000E+00  .000E+00
  .267E-01  .290E-01  .302E-01  .331E-01  .393E-01  .481E-01  .616E-01  .673E-01
  .765E-01  .795E-01  .119E+00  .151E+00  .152E+00  .169E+00  .168E+00  .172E+00
  .235E+00  .240E+00  .168E+00  .145E+00  .143E+00  .135E+00  .131E+00  .109E+00
  .123E+00  .132E+00  .162E+00  .156E+00  .180E+00  .185E+00  .164E+00  .157E+00
  .122E+00  .101E+00  .882E-01  .106E+00  .117E+00  .115E+00  .107E+00  .991E-01
  .118E+00  .114E+00  .988E-01  .861E-01  .745E-01  .708E-01  .627E-01  .535E-01
  .449E-01  .390E-01  .354E-01  .336E-01  .302E-01  .378E-01  .451E-01  .526E-01
  .400E-01  .303E-01  .322E-01  .274E-01  .196E-01  .147E-01  .128E-01  .124E-01
  .886E-02  .826E-02  .774E-02  .720E-02  .672E-02  .634E-02  .598E-02  .565E-02
  .537E-02  .510E-02  .486E-02  .464E-02  .418E-02  .380E-02  .000E+00  .000E+00
  .000E+00  .000E+00  .000E+00  .000E+00  .000E+00  .000E+00  .000E+00  .000E+00
  .000E+00  .000E+00  .000E+00  .000E+00  .000E+00  .000E+00  .000E+00  .000E+00
  .000E+00  .000E+00  .000E+00  .000E+00
  .323E+02  .323E+02  .323E+02  .323E+02  .323E+02  .323E+02  .323E+02  .325E+02
  .325E+02  .335E+02  .335E+02  .335E+02  .335E+02  .301E+02  .301E+02  .301E+02
  .301E+02  .301E+02  .300E+02  .305E+02  .336E+02  .336E+02  .305E+02  .304E+02
  .327E+02  .327E+02  .329E+02  .329E+02  .302E+02  .302E+02  .302E+02  .333E+02
  .333E+02  .332E+02  .332E+02  .332E+02  .332E+02  .328E+02  .328E+02  .328E+02
  .328E+02  .327E+02  .309E+02  .303E+02  .301E+02  .301E+02  .301E+02  .301E+02
  .301E+02  .301E+02  .301E+02  .553E+02  .568E+02  .629E+02  .605E+02  .564E+02
  .566E+02  .566E+02  .559E+02  .552E+02  .552E+02  .363E+02  .553E+02  .545E+02
  .301E+02  .301E+02  .301E+02  .301E+02  .301E+02  .301E+02  .301E+02  .301E+02
  .301E+02  .301E+02  .301E+02  .301E+02  .301E+02  .301E+02  .000E+00  .000E+00
  .000E+00  .000E+00  .000E+00  .000E+00  .000E+00  .000E+00  .000E+00  .000E+00
  .000E+00  .000E+00  .000E+00  .000E+00  .000E+00  .000E+00  .000E+00  .000E+00
  .000E+00  .000E+00  .000E+00  .000E+00
  .323E+02  .323E+02  .323E+02  .323E+02  .323E+02  .323E+02  .323E+02  .325E+02
  .325E+02  .334E+02  .335E+02  .335E+02  .335E+02  .301E+02  .301E+02  .323E+02
  .301E+02  .302E+02  .300E+02  .338E+02  .336E+02  .336E+02  .304E+02  .304E+02
  .335E+02  .332E+02  .328E+02  .330E+02  .302E+02  .301E+02  .301E+02  .332E+02
  .332E+02  .332E+02  .332E+02  .299E+02  .329E+02  .331E+02  .331E+02  .331E+02
  .329E+02  .304E+02  .301E+02  .301E+02  .326E+02  .326E+02  .300E+02  .300E+02
  .301E+02  .301E+02  .301E+02  .301E+02  .301E+02  .301E+02  .301E+02  .301E+02
  .301E+02  .301E+02  .301E+02  .301E+02  .301E+02  .301E+02  .301E+02  .301E+02
  .301E+02  .301E+02  .301E+02  .301E+02  .301E+02  .301E+02  .301E+02  .301E+02
  .301E+02  .301E+02  .301E+02  .301E+02  .301E+02  .301E+02  .000E+00  .000E+00
  .000E+00  .000E+00  .000E+00  .000E+00  .000E+00  .000E+00  .000E+00  .000E+00
  .000E+00  .000E+00  .000E+00  .000E+00  .000E+00  .000E+00  .000E+00  .000E+00
  .000E+00  .000E+00  .000E+00  .000E+00
  .323E+02  .323E+02  .323E+02  .323E+02  .323E+02  .323E+02  .323E+02  .325E+02
  .325E+02  .335E+02  .335E+02  .335E+02  .335E+02  .301E+02  .301E+02  .301E+02
  .301E+02  .301E+02  .300E+02  .305E+02  .336E+02  .336E+02  .305E+02  .304E+02
  .327E+02  .327E+02  .329E+02  .329E+02  .302E+02  .302E+02  .302E+02  .333E+02
  .333E+02  .332E+02  .332E+02  .332E+02  .332E+02  .328E+02  .328E+02  .304E+02
  .328E+02  .327E+02  .309E+02  .303E+02  .301E+02  .301E+02  .301E+02  .301E+02
  .301E+02  .301E+02  .301E+02  .553E+02  .568E+02  .629E+02  .605E+02  .564E+02
  .565E+02  .566E+02  .559E+02  .551E+02  .552E+02  .362E+02  .301E+02  .301E+02
  .301E+02  .301E+02  .301E+02  .301E+02  .301E+02  .301E+02  .301E+02  .301E+02
  .301E+02  .301E+02  .301E+02  .301E+02  .301E+02  .301E+02  .000E+00  .000E+00
  .000E+00  .000E+00  .000E+00  .000E+00  .000E+00  .000E+00  .000E+00  .000E+00
  .000E+00  .000E+00  .000E+00  .000E+00  .000E+00  .000E+00  .000E+00  .000E+00
  .000E+00  .000E+00  .000E+00  .000E+00
/&   ----------  End of spectral data for channel  1  ----------
Response and Fourier amplitude spectra (78 periods,  .04 -  6.0 sec)   for      
Corrected accelerogram   38695658.CI.RCU.--.HN      Chan  2: 360 Deg     from   
Uncorrected Accelerogram Data             Processed: 09/19/20, CGS  circu--o    
Rcrd of Fri Sep 18, 2020 23:38:33.0 PDT               (Avol1 v2.0, 4/18 CSMIP)  
                                        (Origin:  To be determined)             
38695658.CI.RCU.--.HN                Start time:  9/19/20, 06:38:33.0 UTC (GPS) 
Station Id. RCU     34.083N, 117.524W    ObsMMS  s/n 1125  (3 Chns of  6 at Sta)
Rancho Cucamonga                         SCSN   Data: Acceleration              
Chan  2: 360 Deg                                                                
Rcrd of Fri Sep 18, 2020 23:38:33.0 PDT    Fri Sep 18, 2020 23:38:33.0 PDT      
Hypocenter:  To be determined.               ML:  To be determined.             
Instr Period =  .0050 sec,  Damping =  .707,  Sensitivity = 4.99 v/g  (Nominal) 
                        Record Length =301.000 sec.                             
                                     Uncor Max  =  -.008 g, at   29.860 sec.    
RMS accel of (uncor) record  =        .   Chn. metadata effective date:         
Accelerogram bandpass filtered with 3 dB pts at   .30 and 23.00 cyc/sec         
                 instrument- and base-line correcte                             
                                                                                
                                                                                
                                                                                
                                                                                
                                                                                
Rcrd of Fri Sep 18, 2020 23:38:33.0 PDT    Fri Sep 18, 2020 23:38:33.0 PDT      
                                                                                
38695658.CI.RCU.--.HN     Rancho Cucamonga    Chan  2: 360 Deg                  
                                                                                
38695658.CI.RCU.--.HN     Rancho Cucamonga    Chan  2: 360 Deg                  
                                                                                
Units for spectra are inches and sec, except Sa is in fraction of g.            
                                                                                
    2  100    2    6    6  100 -999    3    1    0   15 1125    0    0   41    0
    6   38   33   10  263    9   19 2020   10    3  36035624   39   16   74 -999
35624 -999  100    6 -999 -999 -999 -999 -999 -999 -999 -999 -999 -999 -999 -999
 -999 -999 -999 -99915050    2 -999    0 -999   20 -999 -999    3    1 -99915050
    315050    4   78    1    3    5    0    0 -999    0 -999 -999    6 -999    2
    2    2    4 -999 -999 -999 -999 -999 -999 -999 -999    1 -999 -999 -999  111
    1    1 -999 -999
      .005      .707   356.240      .000     1.000  4987.282     -.008    29.860
   200.000     2.384      .478  -999.000    10.000  -999.000     4.000  -999.000
    20.000    -7.125      .000  -999.000  -999.000  -999.000  -999.000      .100
      .032     -.069     2.000    15.000    34.083  -117.524      .035      .077
     2.191     -.077     -.061   329.900  -999.000  -999.000  -999.000  -999.000
     1.000  -999.000  -999.000  -999.000  -999.000  -999.000  -999.000   120.000
     -.900     2.000     6.800   980.665      .020   301.000    31.831      .015
  -999.000    23.000  -999.000   301.000      .020      .300  -999.000  -999.000
    29.860    -8.049    29.580      .231   241.840      .009      .001      .300
    23.000      .020      .020      .001      .020      .016  -999.000  -999.000
      .033      .095      .017      .013      .001      .000  -999.000  -999.000
  -999.000  -999.000  -999.000  -999.000  -999.000  -999.000  -999.000  -999.000
  -999.000  -999.000  -999.000  -999.000
      .050
      .040      .042      .044      .046      .048      .050      .055      .060
      .065      .070      .075      .080      .085      .090      .095      .100
      .110      .120      .130      .140      .150      .160      .170      .180
      .190      .200      .220      .240      .260      .280      .300      .320
      .340      .360      .380      .400      .420      .440      .460      .480
      .500      .550      .600      .650      .700      .750      .800      .850
      .900      .950     1.000     1.100     1.200     1.300     1.400     1.500
     1.600     1.700     1.800     1.900     2.000     2.200     2.400     2.600
     2.800     3.000     3.200     3.400     3.600     3.800     4.000     4.200
     4.400     4.600     4.800     5.000     5.500     6.000      .000      .000
      .000      .000      .000      .000      .000      .000      .000      .000
      .000      .000      .000      .000      .000      .000      .000      .000
      .000      .000      .000      .000
Fourier amplitude spectra in in/sec.
  .000E+00  .000E+00  .000E+00  .000E+00  .000E+00  .000E+00  .000E+00  .000E+00
  .000E+00  .000E+00  .000E+00  .000E+00  .000E+00  .000E+00  .000E+00  .000E+00
  .000E+00  .000E+00  .000E+00  .000E+00  .000E+00  .000E+00  .000E+00  .000E+00
  .000E+00  .000E+00  .000E+00  .000E+00  .000E+00  .000E+00  .000E+00  .000E+00
  .000E+00  .000E+00  .000E+00  .000E+00  .000E+00  .000E+00  .000E+00  .000E+00
  .000E+00  .000E+00  .000E+00  .000E+00  .000E+00  .000E+00  .000E+00  .000E+00
  .000E+00  .000E+00  .000E+00  .000E+00  .000E+00  .000E+00  .000E+00  .000E+00
  .000E+00  .000E+00  .000E+00  .000E+00  .000E+00  .000E+00  .000E+00  .000E+00
  .000E+00  .000E+00  .000E+00  .000E+00  .000E+00  .000E+00  .000E+00  .000E+00
  .000E+00  .000E+00  .000E+00  .000E+00  .000E+00  .000E+00  .000E+00  .000E+00
  .000E+00  .000E+00  .000E+00  .000E+00  .000E+00  .000E+00  .000E+00  .000E+00
  .000E+00  .000E+00  .000E+00  .000E+00  .000E+00  .000E+00  .000E+00  .000E+00
  .000E+00  .000E+00  .000E+00  .000E+00
Damping =  .05. Data of Sd,Sv,Sa,Pssv,ttSd,ttSv,ttSa :
  .136E-03  .155E-03  .180E-03  .210E-03  .271E-03  .328E-03  .398E-03  .740E-03
  .106E-02  .111E-02  .133E-02  .154E-02  .169E-02  .232E-02  .287E-02  .299E-02
  .331E-02  .373E-02  .411E-02  .382E-02  .418E-02  .580E-02  .497E-02  .477E-02
  .558E-02  .627E-02  .953E-02  .122E-01  .138E-01  .131E-01  .112E-01  .870E-02
  .745E-02  .808E-02  .861E-02  .838E-02  .881E-02  .790E-02  .813E-02  .799E-02
