Response and Fourier amplitude spectra (78 periods,  .04 -  6.0 sec)   for      
Corrected accelerogram   38695658.CI.RHC2.--.H      Chan  1:  90 Deg     from   
Uncorrected Accelerogram Data             Processed: 09/19/20, CGS  cirhc2-r    
Rcrd of Fri Sep 18, 2020 23:38:26.0 PDT               (Avol1 v2.0, 4/18 CSMIP)  
                                        (Origin:  To be determined)             
38695658.CI.RHC2.--.H                Start time:  9/19/20, 06:38:26.0 UTC (GPS) 
Station Id. RHC2    34.001N, 118.013W    ObsMMS  s/n 5339  (3 Chns of  3 at Sta)
Rose Hills Cemetery 2                    SCSN   Data: Acceleration              
Chan  1:  90 Deg                                                                
Rcrd of Fri Sep 18, 2020 23:38:26.0 PDT    Fri Sep 18, 2020 23:38:26.0 PDT      
Hypocenter:  To be determined.               ML:  To be determined.             
Instr Period =  .0050 sec,  Damping =  .707,  Sensitivity = 4.99 v/g  (Nominal) 
                        Record Length =301.000 sec.                             
                                     Uncor Max  =  -.044 g, at   27.550 sec.    
RMS accel of (uncor) record  =        .   Chn. metadata effective date:         
Accelerogram bandpass filtered with 3 dB pts at   .30 and 23.00 cyc/sec         
                 instrument- and base-line correcte                             
                                                                                
                                                                                
                                                                                
                                                                                
                                                                                
Rcrd of Fri Sep 18, 2020 23:38:26.0 PDT    Fri Sep 18, 2020 23:38:26.0 PDT      
                                                                                
38695658.CI.RHC2.--.H     Rose Hills Cemetery 2   Chan  1:  90 Deg              
                                                                                
38695658.CI.RHC2.--.H     Rose Hills Cemetery 2   Chan  1:  90 Deg              
                                                                                
Units for spectra are inches and sec, except Sa is in fraction of g.            
                                                                                
    1  100    1    3    3  100 -999    3    1    0   15 5339    0    0   41    0
    6   38   26    8  263    9   19 2020   10    3   9035824   39   21   74 -999
35824 -999  100    6 -999 -999 -999 -999 -999 -999 -999 -999 -999 -999 -999 -999
 -999 -999 -999 -99915050    2 -999    0 -999   20 -999 -999    3    1 -99915050
    315050    4   78    1    3    5    0    0 -999    0 -999 -999    6 -999    2
    2    2    4 -999 -999 -999 -999 -999 -999 -999 -999    1 -999 -999 -999  111
    1    1 -999 -999
      .005      .707   358.240      .001     1.000  4989.476     -.044    27.550
   200.000     2.384      .478  -999.000    10.000  -999.000     4.000  -999.000
    20.000   -23.021      .000  -999.000  -999.000  -999.000  -999.000     -.003
      .001      .004     2.000    15.000    34.001  -118.013      .001      .001
     1.075      .004      .004   362.000  -999.000  -999.000  -999.000  -999.000
     1.000  -999.000    -8.000  -999.000  -999.000  -999.000  -999.000   120.000
     -.900     2.000     6.800   980.665      .020   301.000    31.831      .000
  -999.000    23.000  -999.000   301.000      .020      .300  -999.000  -999.000
    27.540   -40.768    27.920     1.195    27.400     -.063      .000      .300
    23.000      .020      .020      .000      .020      .038  -999.000  -999.000
      .116      .090      .098      .048      .003      .001  -999.000  -999.000
  -999.000  -999.000  -999.000  -999.000  -999.000  -999.000  -999.000  -999.000
  -999.000  -999.000  -999.000  -999.000
      .050
      .040      .042      .044      .046      .048      .050      .055      .060
      .065      .070      .075      .080      .085      .090      .095      .100
      .110      .120      .130      .140      .150      .160      .170      .180
      .190      .200      .220      .240      .260      .280      .300      .320
      .340      .360      .380      .400      .420      .440      .460      .480
      .500      .550      .600      .650      .700      .750      .800      .850
      .900      .950     1.000     1.100     1.200     1.300     1.400     1.500
     1.600     1.700     1.800     1.900     2.000     2.200     2.400     2.600
     2.800     3.000     3.200     3.400     3.600     3.800     4.000     4.200
     4.400     4.600     4.800     5.000     5.500     6.000      .000      .000
      .000      .000      .000      .000      .000      .000      .000      .000
      .000      .000      .000      .000      .000      .000      .000      .000
      .000      .000      .000      .000
Fourier amplitude spectra in in/sec.
  .000E+00  .000E+00  .000E+00  .000E+00  .000E+00  .000E+00  .000E+00  .000E+00
  .000E+00  .000E+00  .000E+00  .000E+00  .000E+00  .000E+00  .000E+00  .000E+00
  .000E+00  .000E+00  .000E+00  .000E+00  .000E+00  .000E+00  .000E+00  .000E+00
  .000E+00  .000E+00  .000E+00  .000E+00  .000E+00  .000E+00  .000E+00  .000E+00
  .000E+00  .000E+00  .000E+00  .000E+00  .000E+00  .000E+00  .000E+00  .000E+00
  .000E+00  .000E+00  .000E+00  .000E+00  .000E+00  .000E+00  .000E+00  .000E+00
  .000E+00  .000E+00  .000E+00  .000E+00  .000E+00  .000E+00  .000E+00  .000E+00
  .000E+00  .000E+00  .000E+00  .000E+00  .000E+00  .000E+00  .000E+00  .000E+00
  .000E+00  .000E+00  .000E+00  .000E+00  .000E+00  .000E+00  .000E+00  .000E+00
  .000E+00  .000E+00  .000E+00  .000E+00  .000E+00  .000E+00  .000E+00  .000E+00
  .000E+00  .000E+00  .000E+00  .000E+00  .000E+00  .000E+00  .000E+00  .000E+00
  .000E+00  .000E+00  .000E+00  .000E+00  .000E+00  .000E+00  .000E+00  .000E+00
  .000E+00  .000E+00  .000E+00  .000E+00
Damping =  .05. Data of Sd,Sv,Sa,Pssv,ttSd,ttSv,ttSa :
  .724E-03  .795E-03  .888E-03  .102E-02  .112E-02  .114E-02  .142E-02  .195E-02
  .221E-02  .313E-02  .393E-02  .591E-02  .708E-02  .922E-02  .952E-02  .968E-02
  .875E-02  .994E-02  .144E-01  .150E-01  .160E-01  .186E-01  .228E-01  .297E-01
  .327E-01  .359E-01  .500E-01  .564E-01  .566E-01  .479E-01  .382E-01  .384E-01
  .445E-01  .556E-01  .644E-01  .858E-01  .906E-01  .892E-01  .927E-01  .951E-01
  .937E-01  .848E-01  .703E-01  .578E-01  .453E-01  .382E-01  .367E-01  .330E-01
  .307E-01  .296E-01  .307E-01  .342E-01  .393E-01  .467E-01  .436E-01  .426E-01
  .406E-01  .384E-01  .374E-01  .397E-01  .414E-01  .439E-01  .449E-01  .441E-01
  .418E-01  .385E-01  .349E-01  .339E-01  .343E-01  .343E-01  .339E-01  .333E-01
  .327E-01  .320E-01  .313E-01  .306E-01  .293E-01  .282E-01  .000E+00  .000E+00
  .000E+00  .000E+00  .000E+00  .000E+00  .000E+00  .000E+00  .000E+00  .000E+00
  .000E+00  .000E+00  .000E+00  .000E+00  .000E+00  .000E+00  .000E+00  .000E+00
  .000E+00  .000E+00  .000E+00  .000E+00
  .357E-01  .411E-01  .449E-01  .495E-01  .656E-01  .801E-01  .109E+00  .137E+00
  .149E+00  .172E+00  .233E+00  .390E+00  .504E+00  .559E+00  .577E+00  .577E+00
  .432E+00  .486E+00  .646E+00  .604E+00  .646E+00  .676E+00  .882E+00  .105E+01
  .962E+00  .104E+01  .140E+01  .155E+01  .134E+01  .107E+01  .922E+00  .881E+00
  .821E+00  .101E+01  .112E+01  .132E+01  .148E+01  .143E+01  .153E+01  .142E+01
  .132E+01  .110E+01  .107E+01  .838E+00  .667E+00  .610E+00  .577E+00  .552E+00
  .541E+00  .536E+00  .528E+00  .490E+00  .455E+00  .447E+00  .459E+00  .468E+00
  .472E+00  .471E+00  .469E+00  .466E+00  .464E+00  .466E+00  .478E+00  .487E+00
  .493E+00  .495E+00  .495E+00  .492E+00  .489E+00  .485E+00  .482E+00  .478E+00
  .476E+00  .473E+00  .471E+00  .469E+00  .467E+00  .465E+00  .000E+00  .000E+00
  .000E+00  .000E+00  .000E+00  .000E+00  .000E+00  .000E+00  .000E+00  .000E+00
  .000E+00  .000E+00  .000E+00  .000E+00  .000E+00  .000E+00  .000E+00  .000E+00
  .000E+00  .000E+00  .000E+00  .000E+00
  .463E-01  .461E-01  .469E-01  .492E-01  .500E-01  .469E-01  .483E-01  .557E-01
  .539E-01  .658E-01  .712E-01  .954E-01  .102E+00  .116E+00  .108E+00  .975E-01
  .731E-01  .716E-01  .862E-01  .787E-01  .729E-01  .740E-01  .814E-01  .938E-01
  .937E-01  .934E-01  .106E+00  .101E+00  .848E-01  .624E-01  .438E-01  .389E-01
  .400E-01  .441E-01  .458E-01  .557E-01  .530E-01  .472E-01  .454E-01  .425E-01
  .391E-01  .288E-01  .200E-01  .141E-01  .974E-02  .719E-02  .600E-02  .486E-02
  .404E-02  .348E-02  .325E-02  .302E-02  .293E-02  .292E-02  .243E-02  .210E-02
  .179E-02  .153E-02  .132E-02  .122E-02  .116E-02  .103E-02  .892E-03  .760E-03
  .637E-03  .527E-03  .436E-03  .364E-03  .310E-03  .282E-03  .256E-03  .232E-03
  .210E-03  .192E-03  .175E-03  .161E-03  .142E-03  .130E-03  .000E+00  .000E+00
  .000E+00  .000E+00  .000E+00  .000E+00  .000E+00  .000E+00  .000E+00  .000E+00
  .000E+00  .000E+00  .000E+00  .000E+00  .000E+00  .000E+00  .000E+00  .000E+00
  .000E+00  .000E+00  .000E+00  .000E+00
  .114E+00  .119E+00  .127E+00  .139E+00  .147E+00  .143E+00  .163E+00  .205E+00
  .213E+00  .281E+00  .329E+00  .465E+00  .523E+00  .644E+00  .630E+00  .608E+00
  .500E+00  .520E+00  .697E+00  .674E+00  .671E+00  .732E+00  .841E+00  .104E+01
  .108E+01  .113E+01  .143E+01  .148E+01  .137E+01  .108E+01  .800E+00  .754E+00
  .823E+00  .971E+00  .106E+01  .135E+01  .136E+01  .127E+01  .127E+01  .125E+01
  .118E+01  .969E+00  .736E+00  .559E+00  .407E+00  .320E+00  .288E+00  .244E+00
  .215E+00  .196E+00  .193E+00  .196E+00  .206E+00  .226E+00  .196E+00  .178E+00
  .159E+00  .142E+00  .131E+00  .131E+00  .130E+00  .125E+00  .117E+00  .107E+00
  .938E-01  .807E-01  .686E-01  .627E-01  .599E-01  .567E-01  .533E-01  .499E-01
  .467E-01  .437E-01  .410E-01  .385E-01  .334E-01  .295E-01  .000E+00  .000E+00
  .000E+00  .000E+00  .000E+00  .000E+00  .000E+00  .000E+00  .000E+00  .000E+00
  .000E+00  .000E+00  .000E+00  .000E+00  .000E+00  .000E+00  .000E+00  .000E+00
  .000E+00  .000E+00  .000E+00  .000E+00
  .275E+02  .275E+02  .275E+02  .275E+02  .275E+02  .275E+02  .275E+02  .275E+02
  .274E+02  .275E+02  .275E+02  .275E+02  .277E+02  .277E+02  .278E+02  .278E+02
  .290E+02  .290E+02  .274E+02  .275E+02  .285E+02  .285E+02  .276E+02  .276E+02
  .279E+02  .280E+02  .280E+02  .280E+02  .282E+02  .282E+02  .276E+02  .276E+02
  .282E+02  .282E+02  .287E+02  .303E+02  .302E+02  .285E+02  .281E+02  .284E+02
  .284E+02  .280E+02  .280E+02  .275E+02  .275E+02  .275E+02  .301E+02  .275E+02
  .275E+02  .275E+02  .278E+02  .275E+02  .275E+02  .301E+02  .275E+02  .275E+02
  .275E+02  .275E+02  .280E+02  .280E+02  .280E+02  .280E+02  .280E+02  .280E+02
  .280E+02  .280E+02  .280E+02  .274E+02  .274E+02  .274E+02  .274E+02  .274E+02
  .274E+02  .274E+02  .274E+02  .274E+02  .274E+02  .274E+02  .000E+00  .000E+00
  .000E+00  .000E+00  .000E+00  .000E+00  .000E+00  .000E+00  .000E+00  .000E+00
  .000E+00  .000E+00  .000E+00  .000E+00  .000E+00  .000E+00  .000E+00  .000E+00
  .000E+00  .000E+00  .000E+00  .000E+00
  .276E+02  .276E+02  .276E+02  .276E+02  .276E+02  .276E+02  .271E+02  .271E+02
  .253E+02  .276E+02  .276E+02  .276E+02  .276E+02  .277E+02  .278E+02  .278E+02
  .290E+02  .290E+02  .275E+02  .275E+02  .276E+02  .285E+02  .276E+02  .276E+02
  .278E+02  .279E+02  .285E+02  .285E+02  .283E+02  .282E+02  .277E+02  .277E+02
  .282E+02  .282E+02  .282E+02  .302E+02  .303E+02  .285E+02  .285E+02  .285E+02
  .280E+02  .281E+02  .279E+02  .279E+02  .279E+02  .279E+02  .279E+02  .279E+02
  .279E+02  .279E+02  .279E+02  .279E+02  .284E+02  .284E+02  .274E+02  .274E+02
  .274E+02  .274E+02  .274E+02  .274E+02  .274E+02  .279E+02  .279E+02  .279E+02
  .279E+02  .279E+02  .279E+02  .279E+02  .279E+02  .279E+02  .279E+02  .279E+02
  .279E+02  .279E+02  .279E+02  .279E+02  .279E+02  .279E+02  .000E+00  .000E+00
  .000E+00  .000E+00  .000E+00  .000E+00  .000E+00  .000E+00  .000E+00  .000E+00
  .000E+00  .000E+00  .000E+00  .000E+00  .000E+00  .000E+00  .000E+00  .000E+00
  .000E+00  .000E+00  .000E+00  .000E+00
  .275E+02  .275E+02  .275E+02  .275E+02  .275E+02  .275E+02  .275E+02  .275E+02
  .274E+02  .275E+02  .275E+02  .275E+02  .277E+02  .277E+02  .278E+02  .278E+02
  .290E+02  .290E+02  .274E+02  .275E+02  .285E+02  .285E+02  .275E+02  .276E+02
  .279E+02  .280E+02  .286E+02  .280E+02  .282E+02  .282E+02  .276E+02  .276E+02
  .282E+02  .282E+02  .287E+02  .303E+02  .301E+02  .285E+02  .281E+02  .284E+02
  .284E+02  .280E+02  .280E+02  .275E+02  .275E+02  .275E+02  .300E+02  .275E+02
  .275E+02  .275E+02  .278E+02  .275E+02  .275E+02  .300E+02  .275E+02  .275E+02
  .275E+02  .275E+02  .275E+02  .280E+02  .280E+02  .280E+02  .280E+02  .280E+02
  .280E+02  .280E+02  .280E+02  .280E+02  .274E+02  .274E+02  .274E+02  .274E+02
  .274E+02  .274E+02  .274E+02  .274E+02  .279E+02  .279E+02  .000E+00  .000E+00
  .000E+00  .000E+00  .000E+00  .000E+00  .000E+00  .000E+00  .000E+00  .000E+00
  .000E+00  .000E+00  .000E+00  .000E+00  .000E+00  .000E+00  .000E+00  .000E+00
  .000E+00  .000E+00  .000E+00  .000E+00
/&   ----------  End of spectral data for channel  1  ----------
Response and Fourier amplitude spectra (78 periods,  .04 -  6.0 sec)   for      
Corrected accelerogram   38695658.CI.RHC2.--.H      Chan  2: 360 Deg     from   
Uncorrected Accelerogram Data             Processed: 09/19/20, CGS  cirhc2-r    
Rcrd of Fri Sep 18, 2020 23:38:26.0 PDT               (Avol1 v2.0, 4/18 CSMIP)  
                                        (Origin:  To be determined)             
38695658.CI.RHC2.--.H                Start time:  9/19/20, 06:38:26.0 UTC (GPS) 
Station Id. RHC2    34.001N, 118.013W    ObsMMS  s/n 5339  (3 Chns of  3 at Sta)
Rose Hills Cemetery 2                    SCSN   Data: Acceleration              
Chan  2: 360 Deg                                                                
Rcrd of Fri Sep 18, 2020 23:38:26.0 PDT    Fri Sep 18, 2020 23:38:26.0 PDT      
Hypocenter:  To be determined.               ML:  To be determined.             
Instr Period =  .0050 sec,  Damping =  .707,  Sensitivity = 4.98 v/g  (Nominal) 
                        Record Length =301.000 sec.                             
                                     Uncor Max  =   .036 g, at   27.470 sec.    
RMS accel of (uncor) record  =        .   Chn. metadata effective date:         
Accelerogram bandpass filtered with 3 dB pts at   .30 and 23.00 cyc/sec         
                 instrument- and base-line correcte                             
                                                                                
                                                                                
                                                                                
                                                                                
                                                                                
Rcrd of Fri Sep 18, 2020 23:38:26.0 PDT    Fri Sep 18, 2020 23:38:26.0 PDT      
                                                                                
38695658.CI.RHC2.--.H     Rose Hills Cemetery 2   Chan  2: 360 Deg              
                                                                                
38695658.CI.RHC2.--.H     Rose Hills Cemetery 2   Chan  2: 360 Deg              
                                                                                
Units for spectra are inches and sec, except Sa is in fraction of g.            
                                                                                
    2  100    2    3    3  100 -999    3    1    0   15 5339    0    0   41    0
    6   38   26    8  263    9   19 2020   10    3  36036045   39   21   74 -999
36045 -999  100    6 -999 -999 -999 -999 -999 -999 -999 -999 -999 -999 -999 -999
 -999 -999 -999 -99915050    2 -999    0 -999   20 -999 -999    3    1 -99915050
    315050    4   78    1    3    5    0    0 -999    0 -999 -999    6 -999    2
    2    2    4 -999 -999 -999 -999 -999 -999 -999 -999    1 -999 -999 -999  111
    1    1 -999 -999
      .005      .707   360.450      .002     1.000  4980.500      .036    27.470
   200.000     2.384      .479  -999.000    10.000  -999.000     4.000  -999.000
    20.000   -22.375      .000  -999.000  -999.000  -999.000  -999.000     -.001
      .000      .001     2.000    15.000    34.001  -118.013      .001      .001
      .993      .001      .001   362.000  -999.000  -999.000  -999.000  -999.000
     1.000  -999.000  -999.000  -999.000  -999.000  -999.000  -999.000   120.000
     -.900     2.000     6.800   980.665      .020   301.000    31.831      .000
  -999.000    23.000  -999.000   301.000      .020      .300  -999.000  -999.000
    27.460    31.188    27.180     1.434    27.280      .123      .000      .300
    23.000      .020      .020      .000      .020      .057  -999.000  -999.000
      .136      .240      .096      .100      .006      .001  -999.000  -999.000
  -999.000  -999.000  -999.000  -999.000  -999.000  -999.000  -999.000  -999.000
  -999.000  -999.000  -999.000  -999.000
      .050
      .040      .042      .044      .046      .048      .050      .055      .060
      .065      .070      .075      .080      .085      .090      .095      .100
      .110      .120      .130      .140      .150      .160      .170      .180
      .190      .200      .220      .240      .260      .280      .300      .320
      .340      .360      .380      .400      .420      .440      .460      .480
      .500      .550      .600      .650      .700      .750      .800      .850
      .900      .950     1.000     1.100     1.200     1.300     1.400     1.500
     1.600     1.700     1.800     1.900     2.000     2.200     2.400     2.600
     2.800     3.000     3.200     3.400     3.600     3.800     4.000     4.200
     4.400     4.600     4.800     5.000     5.500     6.000      .000      .000
      .000      .000      .000      .000      .000      .000      .000      .000
      .000      .000      .000      .000      .000      .000      .000      .000
      .000      .000      .000      .000
Fourier amplitude spectra in in/sec.
  .000E+00  .000E+00  .000E+00  .000E+00  .000E+00  .000E+00  .000E+00  .000E+00
  .000E+00  .000E+00  .000E+00  .000E+00  .000E+00  .000E+00  .000E+00  .000E+00
  .000E+00  .000E+00  .000E+00  .000E+00  .000E+00  .000E+00  .000E+00  .000E+00
  .000E+00  .000E+00  .000E+00  .000E+00  .000E+00  .000E+00  .000E+00  .000E+00
  .000E+00  .000E+00  .000E+00  .000E+00  .000E+00  .000E+00  .000E+00  .000E+00
  .000E+00  .000E+00  .000E+00  .000E+00  .000E+00  .000E+00  .000E+00  .000E+00
  .000E+00  .000E+00  .000E+00  .000E+00  .000E+00  .000E+00  .000E+00  .000E+00
  .000E+00  .000E+00  .000E+00  .000E+00  .000E+00  .000E+00  .000E+00  .000E+00
  .000E+00  .000E+00  .000E+00  .000E+00  .000E+00  .000E+00  .000E+00  .000E+00
  .000E+00  .000E+00  .000E+00  .000E+00  .000E+00  .000E+00  .000E+00  .000E+00
  .000E+00  .000E+00  .000E+00  .000E+00  .000E+00  .000E+00  .000E+00  .000E+00
  .000E+00  .000E+00  .000E+00  .000E+00  .000E+00  .000E+00  .000E+00  .000E+00
  .000E+00  .000E+00  .000E+00  .000E+00
Damping =  .05. Data of Sd,Sv,Sa,Pssv,ttSd,ttSv,ttSa :
  .612E-03  .677E-03  .743E-03  .817E-03  .944E-03  .107E-02  .128E-02  .177E-02
  .234E-02  .348E-02  .473E-02  .557E-02  .596E-02  .645E-02  .595E-02  .726E-02
  .985E-02  .114E-01  .115E-01  .137E-01  .155E-01  .231E-01  .330E-01  .346E-01
  .298E-01  .342E-01  .553E-01  .774E-01  .551E-01  .627E-01  .900E-01  .113E+00
  .130E+00  .136E+00  .121E+00  .119E+00  .127E+00  .132E+00  .134E+00  .139E+00
