Response and Fourier amplitude spectra (78 periods,  .04 -  6.0 sec)   for      
Corrected accelerogram   38695658.CI.RHR.--.HN      Chan  1:  90 Deg     from   
Uncorrected Accelerogram Data             Processed: 09/19/20, CGS  cirhr--d    
Rcrd of Fri Sep 18, 2020 23:38:43.0 PDT               (Avol1 v2.0, 4/18 CSMIP)  
                                        (Origin:  To be determined)             
38695658.CI.RHR.--.HN                Start time:  9/19/20, 06:38:43.0 UTC (GPS) 
Station Id. RHR     33.290N, 117.176W    ObsMMS  s/n 5842  (3 Chns of  6 at Sta)
Rawhide Ranch                            SCSN   Data: Acceleration              
Chan  1:  90 Deg                                                                
Rcrd of Fri Sep 18, 2020 23:38:43.0 PDT    Fri Sep 18, 2020 23:38:43.0 PDT      
Hypocenter:  To be determined.               ML:  To be determined.             
Instr Period =  .0050 sec,  Damping =  .707,  Sensitivity = 4.98 v/g  (Nominal) 
                        Record Length =301.000 sec.                             
                                     Uncor Max  =   .006 g, at   38.390 sec.    
RMS accel of (uncor) record  =        .   Chn. metadata effective date:         
Accelerogram bandpass filtered with 3 dB pts at   .30 and 23.00 cyc/sec         
                 instrument- and base-line correcte                             
                                                                                
                                                                                
                                                                                
                                                                                
                                                                                
Rcrd of Fri Sep 18, 2020 23:38:43.0 PDT    Fri Sep 18, 2020 23:38:43.0 PDT      
                                                                                
38695658.CI.RHR.--.HN     Rawhide Ranch   Chan  1:  90 Deg                      
                                                                                
38695658.CI.RHR.--.HN     Rawhide Ranch   Chan  1:  90 Deg                      
                                                                                
Units for spectra are inches and sec, except Sa is in fraction of g.            
                                                                                
    1  100    1    6    6  100 -999    3    1    0   15 5842    0    0   41    0
    6   38   43    3  263    9   19 2020   10    3   9035852   39   13   74 -999
35852 -999  100    6 -999 -999 -999 -999 -999 -999 -999 -999 -999 -999 -999 -999
 -999 -999 -999 -99915050    2 -999    0 -999   20 -999 -999    3    1 -99915050
    315050    4   78    1    3    5    0    0 -999    0 -999 -999    6 -999    2
    2    2    4 -999 -999 -999 -999 -999 -999 -999 -999    1 -999 -999 -999  111
    1    1 -999 -999
      .005      .707   358.520      .000     1.000  4980.678      .006    38.390
   200.000     2.384      .479  -999.000    10.000  -999.000     4.000  -999.000
    20.000   -21.834      .000  -999.000  -999.000  -999.000  -999.000     -.021
      .020      .040     2.000    15.000    33.290  -117.176      .001      .001
     1.492      .040      .040   173.000  -999.000  -999.000  -999.000  -999.000
     1.000  -999.000    -8.000  -999.000  -999.000  -999.000  -999.000   120.000
     -.900     2.000     6.800   980.665      .020   301.000    31.831     -.003
  -999.000    23.000  -999.000   301.000      .020      .300  -999.000  -999.000
    37.780     6.456    37.800      .106    36.860      .005      .000      .300
    23.000      .020      .020      .000      .020      .003  -999.000  -999.000
      .027      .075      .005      .005      .000      .000  -999.000  -999.000
  -999.000  -999.000  -999.000  -999.000  -999.000  -999.000  -999.000  -999.000
  -999.000  -999.000  -999.000  -999.000
      .050
      .040      .042      .044      .046      .048      .050      .055      .060
      .065      .070      .075      .080      .085      .090      .095      .100
      .110      .120      .130      .140      .150      .160      .170      .180
      .190      .200      .220      .240      .260      .280      .300      .320
      .340      .360      .380      .400      .420      .440      .460      .480
      .500      .550      .600      .650      .700      .750      .800      .850
      .900      .950     1.000     1.100     1.200     1.300     1.400     1.500
     1.600     1.700     1.800     1.900     2.000     2.200     2.400     2.600
     2.800     3.000     3.200     3.400     3.600     3.800     4.000     4.200
     4.400     4.600     4.800     5.000     5.500     6.000      .000      .000
      .000      .000      .000      .000      .000      .000      .000      .000
      .000      .000      .000      .000      .000      .000      .000      .000
      .000      .000      .000      .000
Fourier amplitude spectra in in/sec.
  .000E+00  .000E+00  .000E+00  .000E+00  .000E+00  .000E+00  .000E+00  .000E+00
  .000E+00  .000E+00  .000E+00  .000E+00  .000E+00  .000E+00  .000E+00  .000E+00
  .000E+00  .000E+00  .000E+00  .000E+00  .000E+00  .000E+00  .000E+00  .000E+00
  .000E+00  .000E+00  .000E+00  .000E+00  .000E+00  .000E+00  .000E+00  .000E+00
  .000E+00  .000E+00  .000E+00  .000E+00  .000E+00  .000E+00  .000E+00  .000E+00
  .000E+00  .000E+00  .000E+00  .000E+00  .000E+00  .000E+00  .000E+00  .000E+00
  .000E+00  .000E+00  .000E+00  .000E+00  .000E+00  .000E+00  .000E+00  .000E+00
  .000E+00  .000E+00  .000E+00  .000E+00  .000E+00  .000E+00  .000E+00  .000E+00
  .000E+00  .000E+00  .000E+00  .000E+00  .000E+00  .000E+00  .000E+00  .000E+00
  .000E+00  .000E+00  .000E+00  .000E+00  .000E+00  .000E+00  .000E+00  .000E+00
  .000E+00  .000E+00  .000E+00  .000E+00  .000E+00  .000E+00  .000E+00  .000E+00
  .000E+00  .000E+00  .000E+00  .000E+00  .000E+00  .000E+00  .000E+00  .000E+00
  .000E+00  .000E+00  .000E+00  .000E+00
Damping =  .05. Data of Sd,Sv,Sa,Pssv,ttSd,ttSv,ttSa :
  .128E-03  .153E-03  .192E-03  .233E-03  .291E-03  .358E-03  .448E-03  .530E-03
  .733E-03  .915E-03  .146E-02  .152E-02  .158E-02  .198E-02  .191E-02  .184E-02
  .275E-02  .257E-02  .216E-02  .176E-02  .162E-02  .144E-02  .153E-02  .145E-02
  .172E-02  .207E-02  .245E-02  .271E-02  .310E-02  .398E-02  .464E-02  .594E-02
  .739E-02  .827E-02  .730E-02  .605E-02  .540E-02  .486E-02  .428E-02  .379E-02
  .333E-02  .261E-02  .234E-02  .213E-02  .205E-02  .206E-02  .226E-02  .248E-02
  .252E-02  .244E-02  .223E-02  .286E-02  .305E-02  .305E-02  .306E-02  .314E-02
  .325E-02  .323E-02  .324E-02  .312E-02  .299E-02  .296E-02  .304E-02  .313E-02
  .294E-02  .277E-02  .259E-02  .238E-02  .228E-02  .224E-02  .219E-02  .213E-02
  .215E-02  .214E-02  .215E-02  .215E-02  .210E-02  .210E-02  .000E+00  .000E+00
  .000E+00  .000E+00  .000E+00  .000E+00  .000E+00  .000E+00  .000E+00  .000E+00
  .000E+00  .000E+00  .000E+00  .000E+00  .000E+00  .000E+00  .000E+00  .000E+00
  .000E+00  .000E+00  .000E+00  .000E+00
  .117E-01  .138E-01  .179E-01  .221E-01  .297E-01  .349E-01  .456E-01  .466E-01
  .637E-01  .748E-01  .118E+00  .120E+00  .117E+00  .137E+00  .131E+00  .117E+00
  .160E+00  .148E+00  .112E+00  .904E-01  .899E-01  .714E-01  .701E-01  .732E-01
  .724E-01  .708E-01  .861E-01  .746E-01  .833E-01  .769E-01  .923E-01  .144E+00
  .162E+00  .143E+00  .133E+00  .124E+00  .104E+00  .935E-01  .850E-01  .748E-01
  .670E-01  .544E-01  .479E-01  .449E-01  .451E-01  .465E-01  .459E-01  .447E-01
  .423E-01  .408E-01  .422E-01  .424E-01  .461E-01  .469E-01  .460E-01  .443E-01
  .425E-01  .418E-01  .421E-01  .429E-01  .428E-01  .424E-01  .420E-01  .413E-01
  .400E-01  .392E-01  .385E-01  .380E-01  .378E-01  .377E-01  .375E-01  .373E-01
  .373E-01  .372E-01  .371E-01  .371E-01  .371E-01  .371E-01  .000E+00  .000E+00
  .000E+00  .000E+00  .000E+00  .000E+00  .000E+00  .000E+00  .000E+00  .000E+00
  .000E+00  .000E+00  .000E+00  .000E+00  .000E+00  .000E+00  .000E+00  .000E+00
  .000E+00  .000E+00  .000E+00  .000E+00
  .818E-02  .886E-02  .102E-01  .113E-01  .128E-01  .146E-01  .151E-01  .151E-01
  .176E-01  .188E-01  .273E-01  .241E-01  .221E-01  .251E-01  .221E-01  .188E-01
  .233E-01  .184E-01  .133E-01  .928E-02  .724E-02  .573E-02  .562E-02  .453E-02
  .491E-02  .539E-02  .537E-02  .482E-02  .477E-02  .525E-02  .522E-02  .600E-02
  .651E-02  .652E-02  .519E-02  .394E-02  .314E-02  .260E-02  .209E-02  .172E-02
  .136E-02  .894E-03  .683E-03  .529E-03  .434E-03  .387E-03  .379E-03  .367E-03
  .332E-03  .290E-03  .241E-03  .247E-03  .226E-03  .196E-03  .172E-03  .154E-03
  .141E-03  .121E-03  .108E-03  .981E-04  .895E-04  .739E-04  .636E-04  .567E-04
  .469E-04  .396E-04  .340E-04  .297E-04  .265E-04  .243E-04  .224E-04  .206E-04
  .189E-04  .177E-04  .165E-04  .153E-04  .136E-04  .120E-04  .000E+00  .000E+00
  .000E+00  .000E+00  .000E+00  .000E+00  .000E+00  .000E+00  .000E+00  .000E+00
  .000E+00  .000E+00  .000E+00  .000E+00  .000E+00  .000E+00  .000E+00  .000E+00
  .000E+00  .000E+00  .000E+00  .000E+00
  .201E-01  .229E-01  .275E-01  .318E-01  .380E-01  .450E-01  .512E-01  .555E-01
  .709E-01  .821E-01  .122E+00  .120E+00  .117E+00  .138E+00  .126E+00  .116E+00
  .157E+00  .135E+00  .104E+00  .790E-01  .680E-01  .565E-01  .567E-01  .504E-01
  .569E-01  .651E-01  .698E-01  .710E-01  .749E-01  .893E-01  .972E-01  .117E+00
  .137E+00  .144E+00  .121E+00  .950E-01  .808E-01  .694E-01  .584E-01  .496E-01
  .419E-01  .298E-01  .245E-01  .206E-01  .184E-01  .173E-01  .177E-01  .183E-01
  .176E-01  .161E-01  .140E-01  .163E-01  .160E-01  .148E-01  .138E-01  .131E-01
  .128E-01  .119E-01  .113E-01  .103E-01  .938E-02  .846E-02  .795E-02  .758E-02
  .659E-02  .580E-02  .509E-02  .440E-02  .398E-02  .370E-02  .344E-02  .319E-02
  .307E-02  .292E-02  .282E-02  .270E-02  .240E-02  .220E-02  .000E+00  .000E+00
  .000E+00  .000E+00  .000E+00  .000E+00  .000E+00  .000E+00  .000E+00  .000E+00
  .000E+00  .000E+00  .000E+00  .000E+00  .000E+00  .000E+00  .000E+00  .000E+00
  .000E+00  .000E+00  .000E+00  .000E+00
  .384E+02  .384E+02  .384E+02  .384E+02  .384E+02  .384E+02  .384E+02  .385E+02
  .385E+02  .385E+02  .385E+02  .385E+02  .378E+02  .383E+02  .383E+02  .383E+02
  .378E+02  .382E+02  .381E+02  .381E+02  .378E+02  .384E+02  .384E+02  .384E+02
  .381E+02  .381E+02  .382E+02  .377E+02  .372E+02  .372E+02  .372E+02  .381E+02
  .381E+02  .380E+02  .377E+02  .377E+02  .375E+02  .375E+02  .373E+02  .374E+02
  .372E+02  .370E+02  .370E+02  .368E+02  .368E+02  .374E+02  .372E+02  .372E+02
  .372E+02  .372E+02  .372E+02  .370E+02  .370E+02  .370E+02  .370E+02  .370E+02
  .370E+02  .379E+02  .389E+02  .389E+02  .382E+02  .373E+02  .374E+02  .374E+02
  .374E+02  .374E+02  .374E+02  .374E+02  .374E+02  .374E+02  .374E+02  .368E+02
  .368E+02  .368E+02  .368E+02  .368E+02  .368E+02  .368E+02  .000E+00  .000E+00
  .000E+00  .000E+00  .000E+00  .000E+00  .000E+00  .000E+00  .000E+00  .000E+00
  .000E+00  .000E+00  .000E+00  .000E+00  .000E+00  .000E+00  .000E+00  .000E+00
  .000E+00  .000E+00  .000E+00  .000E+00
  .384E+02  .384E+02  .384E+02  .384E+02  .384E+02  .384E+02  .384E+02  .385E+02
  .385E+02  .385E+02  .385E+02  .385E+02  .385E+02  .383E+02  .383E+02  .383E+02
  .382E+02  .381E+02  .381E+02  .378E+02  .377E+02  .377E+02  .384E+02  .384E+02
  .384E+02  .381E+02  .377E+02  .377E+02  .372E+02  .372E+02  .372E+02  .377E+02
  .380E+02  .381E+02  .378E+02  .378E+02  .378E+02  .374E+02  .374E+02  .374E+02
  .373E+02  .373E+02  .373E+02  .374E+02  .374E+02  .380E+02  .373E+02  .373E+02
  .373E+02  .371E+02  .371E+02  .371E+02  .380E+02  .380E+02  .380E+02  .380E+02
  .374E+02  .378E+02  .378E+02  .378E+02  .378E+02  .378E+02  .378E+02  .378E+02
  .378E+02  .378E+02  .378E+02  .378E+02  .378E+02  .378E+02  .378E+02  .378E+02
  .378E+02  .378E+02  .378E+02  .378E+02  .378E+02  .378E+02  .000E+00  .000E+00
  .000E+00  .000E+00  .000E+00  .000E+00  .000E+00  .000E+00  .000E+00  .000E+00
  .000E+00  .000E+00  .000E+00  .000E+00  .000E+00  .000E+00  .000E+00  .000E+00
  .000E+00  .000E+00  .000E+00  .000E+00
  .384E+02  .384E+02  .384E+02  .384E+02  .384E+02  .384E+02  .384E+02  .385E+02
  .385E+02  .385E+02  .385E+02  .385E+02  .378E+02  .383E+02  .383E+02  .383E+02
  .378E+02  .381E+02  .381E+02  .381E+02  .378E+02  .384E+02  .384E+02  .381E+02
  .381E+02  .381E+02  .382E+02  .377E+02  .372E+02  .372E+02  .372E+02  .381E+02
  .381E+02  .380E+02  .377E+02  .377E+02  .375E+02  .375E+02  .373E+02  .373E+02
  .372E+02  .370E+02  .370E+02  .368E+02  .368E+02  .373E+02  .371E+02  .371E+02
  .371E+02  .371E+02  .371E+02  .370E+02  .370E+02  .370E+02  .370E+02  .370E+02
  .370E+02  .388E+02  .389E+02  .381E+02  .381E+02  .381E+02  .373E+02  .373E+02
  .373E+02  .373E+02  .376E+02  .376E+02  .376E+02  .376E+02  .376E+02  .376E+02
  .376E+02  .376E+02  .376E+02  .376E+02  .373E+02  .373E+02  .000E+00  .000E+00
  .000E+00  .000E+00  .000E+00  .000E+00  .000E+00  .000E+00  .000E+00  .000E+00
  .000E+00  .000E+00  .000E+00  .000E+00  .000E+00  .000E+00  .000E+00  .000E+00
  .000E+00  .000E+00  .000E+00  .000E+00
/&   ----------  End of spectral data for channel  1  ----------
Response and Fourier amplitude spectra (78 periods,  .04 -  6.0 sec)   for      
Corrected accelerogram   38695658.CI.RHR.--.HN      Chan  2: 360 Deg     from   
Uncorrected Accelerogram Data             Processed: 09/19/20, CGS  cirhr--d    
Rcrd of Fri Sep 18, 2020 23:38:43.0 PDT               (Avol1 v2.0, 4/18 CSMIP)  
                                        (Origin:  To be determined)             
38695658.CI.RHR.--.HN                Start time:  9/19/20, 06:38:43.0 UTC (GPS) 
Station Id. RHR     33.290N, 117.176W    ObsMMS  s/n 5842  (3 Chns of  6 at Sta)
Rawhide Ranch                            SCSN   Data: Acceleration              
Chan  2: 360 Deg                                                                
Rcrd of Fri Sep 18, 2020 23:38:43.0 PDT    Fri Sep 18, 2020 23:38:43.0 PDT      
Hypocenter:  To be determined.               ML:  To be determined.             
Instr Period =  .0050 sec,  Damping =  .707,  Sensitivity = 4.98 v/g  (Nominal) 
                        Record Length =301.000 sec.                             
                                     Uncor Max  =   .006 g, at   38.120 sec.    
RMS accel of (uncor) record  =        .   Chn. metadata effective date:         
Accelerogram bandpass filtered with 3 dB pts at   .30 and 23.00 cyc/sec         
                 instrument- and base-line correcte                             
                                                                                
                                                                                
                                                                                
                                                                                
                                                                                
Rcrd of Fri Sep 18, 2020 23:38:43.0 PDT    Fri Sep 18, 2020 23:38:43.0 PDT      
                                                                                
38695658.CI.RHR.--.HN     Rawhide Ranch   Chan  2: 360 Deg                      
                                                                                
38695658.CI.RHR.--.HN     Rawhide Ranch   Chan  2: 360 Deg                      
                                                                                
Units for spectra are inches and sec, except Sa is in fraction of g.            
                                                                                
    2  100    2    6    6  100 -999    3    1    0   15 5842    0    0   41    0
    6   38   43    3  263    9   19 2020   10    3  36035466   39   13   74 -999
35466 -999  100    6 -999 -999 -999 -999 -999 -999 -999 -999 -999 -999 -999 -999
 -999 -999 -999 -99915050    2 -999    0 -999   20 -999 -999    3    1 -99915050
    315050    4   78    1    3    5    0    0 -999    0 -999 -999    6 -999    2
    2    2    4 -999 -999 -999 -999 -999 -999 -999 -999    1 -999 -999 -999  111
    1    1 -999 -999
      .005      .707   354.660      .000     1.000  4978.683      .006    38.120
   200.000     2.384      .479  -999.000    10.000  -999.000     4.000  -999.000
    20.000   -16.121      .000  -999.000  -999.000  -999.000  -999.000      .014
     -.012     -.026     2.000    15.000    33.290  -117.176      .001      .001
     1.566     -.026     -.025   173.000  -999.000  -999.000  -999.000  -999.000
     1.000  -999.000  -999.000  -999.000  -999.000  -999.000  -999.000   120.000
     -.900     2.000     6.800   980.665      .020   301.000    31.831      .002
  -999.000    23.000  -999.000   301.000      .020      .300  -999.000  -999.000
    38.120     6.779    38.140      .137    38.600      .004      .000      .300
    23.000      .020      .020      .000      .020      .003  -999.000  -999.000
      .032      .075      .005      .005      .000      .000  -999.000  -999.000
  -999.000  -999.000  -999.000  -999.000  -999.000  -999.000  -999.000  -999.000
  -999.000  -999.000  -999.000  -999.000
      .050
      .040      .042      .044      .046      .048      .050      .055      .060
      .065      .070      .075      .080      .085      .090      .095      .100
      .110      .120      .130      .140      .150      .160      .170      .180
      .190      .200      .220      .240      .260      .280      .300      .320
      .340      .360      .380      .400      .420      .440      .460      .480
      .500      .550      .600      .650      .700      .750      .800      .850
      .900      .950     1.000     1.100     1.200     1.300     1.400     1.500
     1.600     1.700     1.800     1.900     2.000     2.200     2.400     2.600
     2.800     3.000     3.200     3.400     3.600     3.800     4.000     4.200
     4.400     4.600     4.800     5.000     5.500     6.000      .000      .000
      .000      .000      .000      .000      .000      .000      .000      .000
      .000      .000      .000      .000      .000      .000      .000      .000
      .000      .000      .000      .000
Fourier amplitude spectra in in/sec.
  .000E+00  .000E+00  .000E+00  .000E+00  .000E+00  .000E+00  .000E+00  .000E+00
  .000E+00  .000E+00  .000E+00  .000E+00  .000E+00  .000E+00  .000E+00  .000E+00
  .000E+00  .000E+00  .000E+00  .000E+00  .000E+00  .000E+00  .000E+00  .000E+00
  .000E+00  .000E+00  .000E+00  .000E+00  .000E+00  .000E+00  .000E+00  .000E+00
  .000E+00  .000E+00  .000E+00  .000E+00  .000E+00  .000E+00  .000E+00  .000E+00
  .000E+00  .000E+00  .000E+00  .000E+00  .000E+00  .000E+00  .000E+00  .000E+00
  .000E+00  .000E+00  .000E+00  .000E+00  .000E+00  .000E+00  .000E+00  .000E+00
  .000E+00  .000E+00  .000E+00  .000E+00  .000E+00  .000E+00  .000E+00  .000E+00
  .000E+00  .000E+00  .000E+00  .000E+00  .000E+00  .000E+00  .000E+00  .000E+00
  .000E+00  .000E+00  .000E+00  .000E+00  .000E+00  .000E+00  .000E+00  .000E+00
  .000E+00  .000E+00  .000E+00  .000E+00  .000E+00  .000E+00  .000E+00  .000E+00
  .000E+00  .000E+00  .000E+00  .000E+00  .000E+00  .000E+00  .000E+00  .000E+00
  .000E+00  .000E+00  .000E+00  .000E+00
Damping =  .05. Data of Sd,Sv,Sa,Pssv,ttSd,ttSv,ttSa :
  .109E-03  .130E-03  .155E-03  .178E-03  .202E-03  .234E-03  .312E-03  .461E-03
  .580E-03  .100E-02  .180E-02  .180E-02  .172E-02  .202E-02  .213E-02  .183E-02
  .157E-02  .153E-02  .189E-02  .230E-02  .160E-02  .125E-02  .104E-02  .110E-02
  .135E-02  .166E-02  .268E-02  .287E-02  .285E-02  .314E-02  .431E-02  .587E-02
  .736E-02  .692E-02  .632E-02  .509E-02  .431E-02  .366E-02  .321E-02  .285E-02
