Response and Fourier amplitude spectra (78 periods,  .04 -  6.0 sec)   for      
Corrected accelerogram   38695658.CI.RIO.--.HN      Chan  1:  90 Deg     from   
Uncorrected Accelerogram Data             Processed: 09/19/20, CGS  cirio--m    
Rcrd of Fri Sep 18, 2020 23:38:27.0 PDT               (Avol1 v2.0, 4/18 CSMIP)  
                                        (Origin:  To be determined)             
38695658.CI.RIO.--.HN                Start time:  9/19/20, 06:38:27.0 UTC (GPS) 
Station Id. RIO     34.105N, 117.980W    ObsMMS  s/n 4122  (3 Chns of  6 at Sta)
Irwindale, I-605 and Arrow Hwy           SCSN   Data: Acceleration              
Chan  1:  90 Deg                                                                
Rcrd of Fri Sep 18, 2020 23:38:27.0 PDT    Fri Sep 18, 2020 23:38:27.0 PDT      
Hypocenter:  To be determined.               ML:  To be determined.             
Instr Period =  .0050 sec,  Damping =  .707,  Sensitivity = 5.00 v/g  (Nominal) 
                        Record Length =301.000 sec.                             
                                     Uncor Max  =   .027 g, at   26.930 sec.    
RMS accel of (uncor) record  =        .   Chn. metadata effective date:         
Accelerogram bandpass filtered with 3 dB pts at   .30 and 23.00 cyc/sec         
                 instrument- and base-line correcte                             
                                                                                
                                                                                
                                                                                
                                                                                
                                                                                
Rcrd of Fri Sep 18, 2020 23:38:27.0 PDT    Fri Sep 18, 2020 23:38:27.0 PDT      
                                                                                
38695658.CI.RIO.--.HN     Irwindale, I-605 and Arrow Hwy    Chan  1:  90 Deg    
                                                                                
38695658.CI.RIO.--.HN     Irwindale, I-605 and Arrow Hwy    Chan  1:  90 Deg    
                                                                                
Units for spectra are inches and sec, except Sa is in fraction of g.            
                                                                                
    1  100    1    6    6  100 -999    3    1    0   15 4122    050640   41    0
    6   38   27    8  263    9   19 2020   10    3   9035520   39   30   74 -999
35520 -999  100    6 -999 -999 -999 -999 -999 -999 -999 -999 -999 -999 -999 -999
 -999 -999 -999 -99915050    2 -999    0 -999   20 -999 -999    3    1 -99915050
    315050    4   78    1    3    5    0    0 -999    0 -999 -999    6 -999    2
    2    2    4 -999 -999 -999 -999 -999 -999 -999 -999    1 -999 -999 -999  111
    1    1 -999 -999
      .005      .707   355.200      .001     1.000  4996.058      .027    26.930
   200.000     2.384      .477  -999.000    10.000  -999.000     4.000  -999.000
    20.000      .886      .000  -999.000  -999.000  -999.000  -999.000      .000
      .000      .001     2.000    15.000    34.105  -117.980      .018      .018
      .982     -.003      .004   118.000  -999.000  -999.000  -999.000  -999.000
     1.000  -999.000    -8.000  -999.000  -999.000  -999.000  -999.000   120.000
     -.900     2.000     6.800   980.665      .020   301.000    31.831      .000
  -999.000    23.000  -999.000   301.000      .020      .300  -999.000  -999.000
    26.920    23.027    26.900     -.617    27.020     -.044      .000      .300
    23.000      .020      .020      .000      .020      .017  -999.000  -999.000
      .093      .100      .027      .034      .003      .000  -999.000  -999.000
  -999.000  -999.000  -999.000  -999.000  -999.000  -999.000  -999.000  -999.000
  -999.000  -999.000  -999.000  -999.000
      .050
      .040      .042      .044      .046      .048      .050      .055      .060
      .065      .070      .075      .080      .085      .090      .095      .100
      .110      .120      .130      .140      .150      .160      .170      .180
      .190      .200      .220      .240      .260      .280      .300      .320
      .340      .360      .380      .400      .420      .440      .460      .480
      .500      .550      .600      .650      .700      .750      .800      .850
      .900      .950     1.000     1.100     1.200     1.300     1.400     1.500
     1.600     1.700     1.800     1.900     2.000     2.200     2.400     2.600
     2.800     3.000     3.200     3.400     3.600     3.800     4.000     4.200
     4.400     4.600     4.800     5.000     5.500     6.000      .000      .000
      .000      .000      .000      .000      .000      .000      .000      .000
      .000      .000      .000      .000      .000      .000      .000      .000
      .000      .000      .000      .000
Fourier amplitude spectra in in/sec.
  .000E+00  .000E+00  .000E+00  .000E+00  .000E+00  .000E+00  .000E+00  .000E+00
  .000E+00  .000E+00  .000E+00  .000E+00  .000E+00  .000E+00  .000E+00  .000E+00
  .000E+00  .000E+00  .000E+00  .000E+00  .000E+00  .000E+00  .000E+00  .000E+00
  .000E+00  .000E+00  .000E+00  .000E+00  .000E+00  .000E+00  .000E+00  .000E+00
  .000E+00  .000E+00  .000E+00  .000E+00  .000E+00  .000E+00  .000E+00  .000E+00
  .000E+00  .000E+00  .000E+00  .000E+00  .000E+00  .000E+00  .000E+00  .000E+00
  .000E+00  .000E+00  .000E+00  .000E+00  .000E+00  .000E+00  .000E+00  .000E+00
  .000E+00  .000E+00  .000E+00  .000E+00  .000E+00  .000E+00  .000E+00  .000E+00
  .000E+00  .000E+00  .000E+00  .000E+00  .000E+00  .000E+00  .000E+00  .000E+00
  .000E+00  .000E+00  .000E+00  .000E+00  .000E+00  .000E+00  .000E+00  .000E+00
  .000E+00  .000E+00  .000E+00  .000E+00  .000E+00  .000E+00  .000E+00  .000E+00
  .000E+00  .000E+00  .000E+00  .000E+00  .000E+00  .000E+00  .000E+00  .000E+00
  .000E+00  .000E+00  .000E+00  .000E+00
Damping =  .05. Data of Sd,Sv,Sa,Pssv,ttSd,ttSv,ttSa :
  .512E-03  .550E-03  .588E-03  .684E-03  .856E-03  .991E-03  .102E-02  .157E-02
  .197E-02  .253E-02  .341E-02  .371E-02  .516E-02  .681E-02  .819E-02  .887E-02
  .979E-02  .994E-02  .997E-02  .996E-02  .105E-01  .984E-02  .899E-02  .871E-02
  .878E-02  .107E-01  .126E-01  .166E-01  .229E-01  .303E-01  .301E-01  .293E-01
  .271E-01  .271E-01  .269E-01  .255E-01  .222E-01  .188E-01  .183E-01  .183E-01
  .193E-01  .192E-01  .188E-01  .204E-01  .275E-01  .330E-01  .354E-01  .345E-01
  .286E-01  .326E-01  .315E-01  .222E-01  .272E-01  .270E-01  .221E-01  .207E-01
  .196E-01  .253E-01  .242E-01  .246E-01  .219E-01  .233E-01  .241E-01  .246E-01
  .248E-01  .248E-01  .246E-01  .242E-01  .238E-01  .233E-01  .227E-01  .222E-01
  .217E-01  .212E-01  .208E-01  .204E-01  .195E-01  .189E-01  .000E+00  .000E+00
  .000E+00  .000E+00  .000E+00  .000E+00  .000E+00  .000E+00  .000E+00  .000E+00
  .000E+00  .000E+00  .000E+00  .000E+00  .000E+00  .000E+00  .000E+00  .000E+00
  .000E+00  .000E+00  .000E+00  .000E+00
  .437E-01  .481E-01  .516E-01  .585E-01  .745E-01  .888E-01  .842E-01  .135E+00
  .162E+00  .194E+00  .248E+00  .251E+00  .330E+00  .439E+00  .502E+00  .524E+00
  .508E+00  .500E+00  .484E+00  .442E+00  .443E+00  .418E+00  .382E+00  .361E+00
  .380E+00  .360E+00  .433E+00  .476E+00  .563E+00  .644E+00  .709E+00  .674E+00
  .623E+00  .572E+00  .501E+00  .489E+00  .453E+00  .409E+00  .369E+00  .348E+00
  .331E+00  .270E+00  .265E+00  .241E+00  .244E+00  .287E+00  .329E+00  .269E+00
  .263E+00  .273E+00  .281E+00  .292E+00  .292E+00  .283E+00  .271E+00  .261E+00
  .254E+00  .249E+00  .244E+00  .240E+00  .235E+00  .226E+00  .221E+00  .224E+00
  .227E+00  .229E+00  .230E+00  .232E+00  .232E+00  .233E+00  .233E+00  .233E+00
  .233E+00  .233E+00  .233E+00  .232E+00  .232E+00  .231E+00  .000E+00  .000E+00
  .000E+00  .000E+00  .000E+00  .000E+00  .000E+00  .000E+00  .000E+00  .000E+00
  .000E+00  .000E+00  .000E+00  .000E+00  .000E+00  .000E+00  .000E+00  .000E+00
  .000E+00  .000E+00  .000E+00  .000E+00
  .329E-01  .323E-01  .309E-01  .333E-01  .378E-01  .403E-01  .346E-01  .451E-01
  .483E-01  .532E-01  .619E-01  .603E-01  .725E-01  .859E-01  .928E-01  .930E-01
  .822E-01  .695E-01  .610E-01  .522E-01  .488E-01  .401E-01  .317E-01  .278E-01
  .254E-01  .270E-01  .274E-01  .293E-01  .349E-01  .391E-01  .340E-01  .295E-01
  .240E-01  .215E-01  .192E-01  .166E-01  .129E-01  .994E-02  .880E-02  .805E-02
  .788E-02  .673E-02  .537E-02  .494E-02  .576E-02  .606E-02  .569E-02  .492E-02
  .364E-02  .373E-02  .324E-02  .196E-02  .195E-02  .166E-02  .119E-02  .979E-03
  .818E-03  .909E-03  .773E-03  .705E-03  .619E-03  .552E-03  .487E-03  .429E-03
  .379E-03  .336E-03  .299E-03  .266E-03  .238E-03  .214E-03  .193E-03  .175E-03
  .159E-03  .145E-03  .134E-03  .123E-03  .103E-03  .883E-04  .000E+00  .000E+00
  .000E+00  .000E+00  .000E+00  .000E+00  .000E+00  .000E+00  .000E+00  .000E+00
  .000E+00  .000E+00  .000E+00  .000E+00  .000E+00  .000E+00  .000E+00  .000E+00
  .000E+00  .000E+00  .000E+00  .000E+00
  .805E-01  .823E-01  .840E-01  .934E-01  .112E+00  .125E+00  .117E+00  .164E+00
  .190E+00  .227E+00  .286E+00  .291E+00  .381E+00  .475E+00  .542E+00  .557E+00
  .559E+00  .520E+00  .482E+00  .447E+00  .440E+00  .386E+00  .332E+00  .304E+00
  .290E+00  .335E+00  .360E+00  .434E+00  .552E+00  .680E+00  .631E+00  .575E+00
  .501E+00  .474E+00  .445E+00  .401E+00  .333E+00  .268E+00  .249E+00  .239E+00
  .242E+00  .219E+00  .197E+00  .197E+00  .247E+00  .277E+00  .278E+00  .255E+00
  .199E+00  .215E+00  .198E+00  .127E+00  .143E+00  .131E+00  .991E-01  .866E-01
  .769E-01  .934E-01  .843E-01  .813E-01  .688E-01  .666E-01  .632E-01  .594E-01
  .556E-01  .519E-01  .483E-01  .448E-01  .415E-01  .385E-01  .357E-01  .332E-01
  .310E-01  .290E-01  .272E-01  .256E-01  .223E-01  .198E-01  .000E+00  .000E+00
  .000E+00  .000E+00  .000E+00  .000E+00  .000E+00  .000E+00  .000E+00  .000E+00
  .000E+00  .000E+00  .000E+00  .000E+00  .000E+00  .000E+00  .000E+00  .000E+00
  .000E+00  .000E+00  .000E+00  .000E+00
  .269E+02  .269E+02  .269E+02  .270E+02  .270E+02  .270E+02  .270E+02  .270E+02
  .270E+02  .270E+02  .270E+02  .270E+02  .270E+02  .270E+02  .270E+02  .270E+02
  .270E+02  .271E+02  .271E+02  .272E+02  .273E+02  .273E+02  .273E+02  .273E+02
  .269E+02  .273E+02  .273E+02  .272E+02  .272E+02  .272E+02  .272E+02  .296E+02
  .271E+02  .271E+02  .271E+02  .271E+02  .271E+02  .270E+02  .268E+02  .268E+02
  .268E+02  .268E+02  .327E+02  .331E+02  .331E+02  .332E+02  .332E+02  .329E+02
  .330E+02  .325E+02  .326E+02  .278E+02  .322E+02  .318E+02  .274E+02  .274E+02
  .355E+02  .319E+02  .319E+02  .412E+02  .270E+02  .270E+02  .270E+02  .270E+02
  .270E+02  .270E+02  .270E+02  .270E+02  .270E+02  .270E+02  .270E+02  .270E+02
  .270E+02  .270E+02  .270E+02  .270E+02  .270E+02  .270E+02  .000E+00  .000E+00
  .000E+00  .000E+00  .000E+00  .000E+00  .000E+00  .000E+00  .000E+00  .000E+00
  .000E+00  .000E+00  .000E+00  .000E+00  .000E+00  .000E+00  .000E+00  .000E+00
  .000E+00  .000E+00  .000E+00  .000E+00
  .269E+02  .269E+02  .269E+02  .269E+02  .270E+02  .270E+02  .270E+02  .270E+02
  .270E+02  .270E+02  .270E+02  .270E+02  .270E+02  .270E+02  .270E+02  .270E+02
  .270E+02  .271E+02  .271E+02  .273E+02  .273E+02  .269E+02  .269E+02  .269E+02
  .269E+02  .272E+02  .272E+02  .272E+02  .272E+02  .274E+02  .272E+02  .272E+02
  .272E+02  .272E+02  .270E+02  .271E+02  .271E+02  .269E+02  .269E+02  .269E+02
  .269E+02  .268E+02  .268E+02  .268E+02  .326E+02  .330E+02  .330E+02  .331E+02
  .271E+02  .271E+02  .271E+02  .271E+02  .271E+02  .271E+02  .271E+02  .271E+02
  .271E+02  .271E+02  .271E+02  .271E+02  .271E+02  .271E+02  .269E+02  .269E+02
  .269E+02  .269E+02  .269E+02  .269E+02  .269E+02  .269E+02  .269E+02  .269E+02
  .269E+02  .269E+02  .269E+02  .269E+02  .269E+02  .269E+02  .000E+00  .000E+00
  .000E+00  .000E+00  .000E+00  .000E+00  .000E+00  .000E+00  .000E+00  .000E+00
  .000E+00  .000E+00  .000E+00  .000E+00  .000E+00  .000E+00  .000E+00  .000E+00
  .000E+00  .000E+00  .000E+00  .000E+00
  .269E+02  .269E+02  .269E+02  .270E+02  .270E+02  .270E+02  .270E+02  .270E+02
  .270E+02  .270E+02  .270E+02  .270E+02  .270E+02  .270E+02  .270E+02  .270E+02
  .270E+02  .271E+02  .271E+02  .272E+02  .272E+02  .273E+02  .273E+02  .273E+02
  .269E+02  .273E+02  .273E+02  .272E+02  .272E+02  .272E+02  .272E+02  .296E+02
  .271E+02  .271E+02  .271E+02  .271E+02  .271E+02  .268E+02  .322E+02  .268E+02
  .268E+02  .268E+02  .327E+02  .331E+02  .331E+02  .332E+02  .332E+02  .329E+02
  .329E+02  .325E+02  .326E+02  .271E+02  .322E+02  .318E+02  .274E+02  .274E+02
  .274E+02  .318E+02  .319E+02  .412E+02  .270E+02  .270E+02  .270E+02  .270E+02
  .270E+02  .270E+02  .270E+02  .270E+02  .270E+02  .270E+02  .270E+02  .270E+02
  .270E+02  .270E+02  .270E+02  .270E+02  .270E+02  .270E+02  .000E+00  .000E+00
  .000E+00  .000E+00  .000E+00  .000E+00  .000E+00  .000E+00  .000E+00  .000E+00
  .000E+00  .000E+00  .000E+00  .000E+00  .000E+00  .000E+00  .000E+00  .000E+00
  .000E+00  .000E+00  .000E+00  .000E+00
/&   ----------  End of spectral data for channel  1  ----------
Response and Fourier amplitude spectra (78 periods,  .04 -  6.0 sec)   for      
Corrected accelerogram   38695658.CI.RIO.--.HN      Chan  2: 360 Deg     from   
Uncorrected Accelerogram Data             Processed: 09/19/20, CGS  cirio--m    
Rcrd of Fri Sep 18, 2020 23:38:27.0 PDT               (Avol1 v2.0, 4/18 CSMIP)  
                                        (Origin:  To be determined)             
38695658.CI.RIO.--.HN                Start time:  9/19/20, 06:38:27.0 UTC (GPS) 
Station Id. RIO     34.105N, 117.980W    ObsMMS  s/n 4122  (3 Chns of  6 at Sta)
Irwindale, I-605 and Arrow Hwy           SCSN   Data: Acceleration              
Chan  2: 360 Deg                                                                
Rcrd of Fri Sep 18, 2020 23:38:27.0 PDT    Fri Sep 18, 2020 23:38:27.0 PDT      
Hypocenter:  To be determined.               ML:  To be determined.             
Instr Period =  .0050 sec,  Damping =  .707,  Sensitivity = 4.99 v/g  (Nominal) 
                        Record Length =301.000 sec.                             
                                     Uncor Max  =   .029 g, at   26.980 sec.    
RMS accel of (uncor) record  =        .   Chn. metadata effective date:         
Accelerogram bandpass filtered with 3 dB pts at   .30 and 23.00 cyc/sec         
                 instrument- and base-line correcte                             
                                                                                
                                                                                
                                                                                
                                                                                
                                                                                
Rcrd of Fri Sep 18, 2020 23:38:27.0 PDT    Fri Sep 18, 2020 23:38:27.0 PDT      
                                                                                
38695658.CI.RIO.--.HN     Irwindale, I-605 and Arrow Hwy    Chan  2: 360 Deg    
                                                                                
38695658.CI.RIO.--.HN     Irwindale, I-605 and Arrow Hwy    Chan  2: 360 Deg    
                                                                                
Units for spectra are inches and sec, except Sa is in fraction of g.            
                                                                                
    2  100    2    6    6  100 -999    3    1    0   15 4122    050640   41    0
    6   38   27    8  263    9   19 2020   10    3  36035681   39   30   74 -999
35681 -999  100    6 -999 -999 -999 -999 -999 -999 -999 -999 -999 -999 -999 -999
 -999 -999 -999 -99915050    2 -999    0 -999   20 -999 -999    3    1 -99915050
    315050    4   78    1    3    5    0    0 -999    0 -999 -999    6 -999    2
    2    2    4 -999 -999 -999 -999 -999 -999 -999 -999    1 -999 -999 -999  111
    1    1 -999 -999
      .005      .707   356.810      .001     1.000  4992.867      .029    26.980
   200.000     2.384      .478  -999.000    10.000  -999.000     4.000  -999.000
    20.000   -17.012      .000  -999.000  -999.000  -999.000  -999.000      .001
     -.001     -.002     2.000    15.000    34.105  -117.980      .018      .018
      .971     -.006      .001   118.000  -999.000  -999.000  -999.000  -999.000
     1.000  -999.000  -999.000  -999.000  -999.000  -999.000  -999.000   120.000
     -.900     2.000     6.800   980.665      .020   301.000    31.831      .000
  -999.000    23.000  -999.000   301.000      .020      .300  -999.000  -999.000
    26.980    28.546    26.600    -1.123    26.680     -.081      .000      .300
    23.000      .020      .020      .000      .020      .018  -999.000  -999.000
      .085      .100      .050      .068      .005      .001  -999.000  -999.000
  -999.000  -999.000  -999.000  -999.000  -999.000  -999.000  -999.000  -999.000
  -999.000  -999.000  -999.000  -999.000
      .050
      .040      .042      .044      .046      .048      .050      .055      .060
      .065      .070      .075      .080      .085      .090      .095      .100
      .110      .120      .130      .140      .150      .160      .170      .180
      .190      .200      .220      .240      .260      .280      .300      .320
      .340      .360      .380      .400      .420      .440      .460      .480
      .500      .550      .600      .650      .700      .750      .800      .850
      .900      .950     1.000     1.100     1.200     1.300     1.400     1.500
     1.600     1.700     1.800     1.900     2.000     2.200     2.400     2.600
     2.800     3.000     3.200     3.400     3.600     3.800     4.000     4.200
     4.400     4.600     4.800     5.000     5.500     6.000      .000      .000
      .000      .000      .000      .000      .000      .000      .000      .000
      .000      .000      .000      .000      .000      .000      .000      .000
      .000      .000      .000      .000
Fourier amplitude spectra in in/sec.
  .000E+00  .000E+00  .000E+00  .000E+00  .000E+00  .000E+00  .000E+00  .000E+00
  .000E+00  .000E+00  .000E+00  .000E+00  .000E+00  .000E+00  .000E+00  .000E+00
  .000E+00  .000E+00  .000E+00  .000E+00  .000E+00  .000E+00  .000E+00  .000E+00
  .000E+00  .000E+00  .000E+00  .000E+00  .000E+00  .000E+00  .000E+00  .000E+00
  .000E+00  .000E+00  .000E+00  .000E+00  .000E+00  .000E+00  .000E+00  .000E+00
  .000E+00  .000E+00  .000E+00  .000E+00  .000E+00  .000E+00  .000E+00  .000E+00
  .000E+00  .000E+00  .000E+00  .000E+00  .000E+00  .000E+00  .000E+00  .000E+00
  .000E+00  .000E+00  .000E+00  .000E+00  .000E+00  .000E+00  .000E+00  .000E+00
  .000E+00  .000E+00  .000E+00  .000E+00  .000E+00  .000E+00  .000E+00  .000E+00
  .000E+00  .000E+00  .000E+00  .000E+00  .000E+00  .000E+00  .000E+00  .000E+00
  .000E+00  .000E+00  .000E+00  .000E+00  .000E+00  .000E+00  .000E+00  .000E+00
  .000E+00  .000E+00  .000E+00  .000E+00  .000E+00  .000E+00  .000E+00  .000E+00
  .000E+00  .000E+00  .000E+00  .000E+00
Damping =  .05. Data of Sd,Sv,Sa,Pssv,ttSd,ttSv,ttSa :
  .519E-03  .598E-03  .686E-03  .763E-03  .887E-03  .101E-02  .107E-02  .136E-02
  .219E-02  .267E-02  .380E-02  .468E-02  .535E-02  .602E-02  .747E-02  .828E-02
  .932E-02  .101E-01  .111E-01  .973E-02  .827E-02  .900E-02  .113E-01  .133E-01
  .154E-01  .188E-01  .280E-01  .371E-01  .477E-01  .564E-01  .603E-01  .600E-01
  .570E-01  .551E-01  .552E-01  .560E-01  .570E-01  .578E-01  .572E-01  .559E-01
