Response and Fourier amplitude spectra (78 periods,  .04 -  6.0 sec)   for      
Corrected accelerogram   38695658.CI.RINB.01.H      Chan  1:  90 Deg     from   
Uncorrected Accelerogram Data             Processed: 09/19/20, CGS  cirinb-w    
Rcrd of Fri Sep 18, 2020 23:38:30.0 PDT               (Avol1 v2.0, 4/18 CSMIP)  
                                        (Origin:  To be determined)             
38695658.CI.RINB.01.H                Start time:  9/19/20, 06:38:30.0 UTC (GPS) 
Station Id. RINB    34.282N, 118.479W    Q330    s/n 2121  (3 Chns of  3 at Sta)
San Fernando, junction of I-405 and I-5  SCSN   Data: Acceleration              
Chan  1:  90 Deg                                                                
Rcrd of Fri Sep 18, 2020 23:38:30.0 PDT    Fri Sep 18, 2020 23:38:30.0 PDT      
Hypocenter:  To be determined.               ML:  To be determined.             
Instr Period =  .0050 sec,  Damping =  .707,  Sensitivity = 9.99 v/g  (Nominal) 
                        Record Length =301.000 sec.                             
                                     Uncor Max  =  -.011 g, at   32.830 sec.    
RMS accel of (uncor) record  =        .   Chn. metadata effective date:         
Accelerogram bandpass filtered with 3 dB pts at   .30 and 23.00 cyc/sec         
                 instrument- and base-line correcte                             
                                                                                
                                                                                
                                                                                
                                                                                
                                                                                
Rcrd of Fri Sep 18, 2020 23:38:30.0 PDT    Fri Sep 18, 2020 23:38:30.0 PDT      
                                                                                
38695658.CI.RINB.01.H     San Fernando, junction of I-405 and I-5  SChan  1:  90
 Deg                                                                            
38695658.CI.RINB.01.H     San Fernando, junction of I-405 and I-5  SChan  1:  90
 Deg                                                                            
Units for spectra are inches and sec, except Sa is in fraction of g.            
                                                                                
    1  100    1    3    3  100 -999    3    1   24  605 2121    050701   41    0
    6   38   30    8  263    9   19 2020   10    3   9035993   39   39   74 -999
35993 -999  100    6 -999 -999 -999 -999 -999 -999 -999 -999 -999 -999 -999 -999
 -999 -999 -999 -99915050    2 -999    0 -999    0 -999 -999    3    1 -99915050
    315050    4   78    1    3    5    0    0 -999    0 -999 -999    6 -999    2
    2    2    4 -999 -999 -999 -999 -999 -999 -999 -999    1 -999 -999 -999  111
    1    1 -999 -999
      .005      .707   359.930      .000     1.000  9985.734     -.011    32.830
   200.000     2.384      .239  -999.000    10.000  -999.000     2.000  -999.000
    20.000   -94.665    20.000  -999.000  -999.000  -999.000  -999.000     -.001
      .000      .000     2.000    15.000    34.282  -118.479      .004      .003
      .849      .000      .001   304.000  -999.000  -999.000  -999.000  -999.000
     1.000  -999.000    -8.000  -999.000  -999.000  -999.000  -999.000   120.000
     -.900     2.000     6.800   980.665      .020   301.000    31.831      .000
  -999.000    23.000  -999.000   301.000      .020      .300  -999.000  -999.000
    32.840   -10.210    32.800      .305    40.020     -.020      .000      .300
    23.000      .020      .020      .000      .020      .013  -999.000  -999.000
      .029      .090      .021      .019      .002      .000  -999.000  -999.000
  -999.000  -999.000  -999.000  -999.000  -999.000  -999.000  -999.000  -999.000
  -999.000  -999.000  -999.000  -999.000
      .050
      .040      .042      .044      .046      .048      .050      .055      .060
      .065      .070      .075      .080      .085      .090      .095      .100
      .110      .120      .130      .140      .150      .160      .170      .180
      .190      .200      .220      .240      .260      .280      .300      .320
      .340      .360      .380      .400      .420      .440      .460      .480
      .500      .550      .600      .650      .700      .750      .800      .850
      .900      .950     1.000     1.100     1.200     1.300     1.400     1.500
     1.600     1.700     1.800     1.900     2.000     2.200     2.400     2.600
     2.800     3.000     3.200     3.400     3.600     3.800     4.000     4.200
     4.400     4.600     4.800     5.000     5.500     6.000      .000      .000
      .000      .000      .000      .000      .000      .000      .000      .000
      .000      .000      .000      .000      .000      .000      .000      .000
      .000      .000      .000      .000
Fourier amplitude spectra in in/sec.
  .000E+00  .000E+00  .000E+00  .000E+00  .000E+00  .000E+00  .000E+00  .000E+00
  .000E+00  .000E+00  .000E+00  .000E+00  .000E+00  .000E+00  .000E+00  .000E+00
  .000E+00  .000E+00  .000E+00  .000E+00  .000E+00  .000E+00  .000E+00  .000E+00
  .000E+00  .000E+00  .000E+00  .000E+00  .000E+00  .000E+00  .000E+00  .000E+00
  .000E+00  .000E+00  .000E+00  .000E+00  .000E+00  .000E+00  .000E+00  .000E+00
  .000E+00  .000E+00  .000E+00  .000E+00  .000E+00  .000E+00  .000E+00  .000E+00
  .000E+00  .000E+00  .000E+00  .000E+00  .000E+00  .000E+00  .000E+00  .000E+00
  .000E+00  .000E+00  .000E+00  .000E+00  .000E+00  .000E+00  .000E+00  .000E+00
  .000E+00  .000E+00  .000E+00  .000E+00  .000E+00  .000E+00  .000E+00  .000E+00
  .000E+00  .000E+00  .000E+00  .000E+00  .000E+00  .000E+00  .000E+00  .000E+00
  .000E+00  .000E+00  .000E+00  .000E+00  .000E+00  .000E+00  .000E+00  .000E+00
  .000E+00  .000E+00  .000E+00  .000E+00  .000E+00  .000E+00  .000E+00  .000E+00
  .000E+00  .000E+00  .000E+00  .000E+00
Damping =  .05. Data of Sd,Sv,Sa,Pssv,ttSd,ttSv,ttSa :
  .184E-03  .205E-03  .229E-03  .252E-03  .269E-03  .303E-03  .438E-03  .549E-03
  .684E-03  .904E-03  .111E-02  .134E-02  .174E-02  .229E-02  .255E-02  .260E-02
  .318E-02  .308E-02  .372E-02  .463E-02  .496E-02  .569E-02  .691E-02  .830E-02
  .875E-02  .753E-02  .893E-02  .108E-01  .157E-01  .168E-01  .167E-01  .169E-01
  .159E-01  .141E-01  .135E-01  .129E-01  .123E-01  .115E-01  .107E-01  .983E-02
  .982E-02  .109E-01  .107E-01  .103E-01  .985E-02  .998E-02  .110E-01  .105E-01
  .125E-01  .134E-01  .130E-01  .199E-01  .308E-01  .286E-01  .309E-01  .318E-01
  .220E-01  .231E-01  .207E-01  .197E-01  .184E-01  .188E-01  .155E-01  .184E-01
  .175E-01  .139E-01  .136E-01  .101E-01  .104E-01  .105E-01  .108E-01  .104E-01
  .984E-02  .920E-02  .872E-02  .840E-02  .861E-02  .841E-02  .000E+00  .000E+00
  .000E+00  .000E+00  .000E+00  .000E+00  .000E+00  .000E+00  .000E+00  .000E+00
  .000E+00  .000E+00  .000E+00  .000E+00  .000E+00  .000E+00  .000E+00  .000E+00
  .000E+00  .000E+00  .000E+00  .000E+00
  .911E-02  .100E-01  .109E-01  .121E-01  .149E-01  .185E-01  .240E-01  .266E-01
  .346E-01  .503E-01  .625E-01  .770E-01  .103E+00  .137E+00  .152E+00  .152E+00
  .181E+00  .159E+00  .153E+00  .175E+00  .183E+00  .206E+00  .248E+00  .285E+00
  .293E+00  .255E+00  .235E+00  .297E+00  .376E+00  .422E+00  .400E+00  .347E+00
  .312E+00  .299E+00  .290E+00  .268E+00  .242E+00  .239E+00  .232E+00  .223E+00
  .214E+00  .201E+00  .162E+00  .138E+00  .134E+00  .125E+00  .113E+00  .109E+00
  .103E+00  .970E-01  .959E-01  .108E+00  .166E+00  .143E+00  .143E+00  .143E+00
  .118E+00  .118E+00  .119E+00  .121E+00  .121E+00  .118E+00  .117E+00  .117E+00
  .117E+00  .117E+00  .117E+00  .117E+00  .116E+00  .116E+00  .116E+00  .115E+00
  .115E+00  .115E+00  .114E+00  .114E+00  .114E+00  .114E+00  .000E+00  .000E+00
  .000E+00  .000E+00  .000E+00  .000E+00  .000E+00  .000E+00  .000E+00  .000E+00
  .000E+00  .000E+00  .000E+00  .000E+00  .000E+00  .000E+00  .000E+00  .000E+00
  .000E+00  .000E+00  .000E+00  .000E+00
  .117E-01  .119E-01  .121E-01  .122E-01  .119E-01  .124E-01  .149E-01  .156E-01
  .165E-01  .190E-01  .202E-01  .216E-01  .250E-01  .291E-01  .289E-01  .261E-01
  .275E-01  .222E-01  .223E-01  .241E-01  .225E-01  .231E-01  .245E-01  .264E-01
  .250E-01  .198E-01  .188E-01  .195E-01  .240E-01  .222E-01  .187E-01  .173E-01
  .140E-01  .113E-01  .976E-02  .825E-02  .718E-02  .619E-02  .518E-02  .439E-02
  .406E-02  .373E-02  .310E-02  .250E-02  .207E-02  .183E-02  .177E-02  .150E-02
  .159E-02  .153E-02  .134E-02  .169E-02  .220E-02  .174E-02  .162E-02  .145E-02
  .884E-03  .824E-03  .659E-03  .563E-03  .475E-03  .401E-03  .276E-03  .282E-03
  .232E-03  .162E-03  .139E-03  .936E-04  .862E-04  .794E-04  .732E-04  .677E-04
  .629E-04  .584E-04  .544E-04  .508E-04  .437E-04  .382E-04  .000E+00  .000E+00
  .000E+00  .000E+00  .000E+00  .000E+00  .000E+00  .000E+00  .000E+00  .000E+00
  .000E+00  .000E+00  .000E+00  .000E+00  .000E+00  .000E+00  .000E+00  .000E+00
  .000E+00  .000E+00  .000E+00  .000E+00
  .288E-01  .306E-01  .327E-01  .344E-01  .352E-01  .380E-01  .500E-01  .575E-01
  .661E-01  .811E-01  .933E-01  .105E+00  .129E+00  .160E+00  .169E+00  .163E+00
  .181E+00  .161E+00  .180E+00  .208E+00  .208E+00  .224E+00  .256E+00  .290E+00
  .289E+00  .237E+00  .255E+00  .284E+00  .379E+00  .377E+00  .350E+00  .333E+00
  .295E+00  .246E+00  .223E+00  .203E+00  .185E+00  .164E+00  .146E+00  .129E+00
  .123E+00  .125E+00  .112E+00  .992E-01  .884E-01  .836E-01  .866E-01  .779E-01
  .873E-01  .888E-01  .816E-01  .114E+00  .161E+00  .138E+00  .139E+00  .133E+00
  .864E-01  .854E-01  .722E-01  .651E-01  .577E-01  .537E-01  .406E-01  .444E-01
  .392E-01  .292E-01  .268E-01  .186E-01  .181E-01  .173E-01  .169E-01  .156E-01
  .140E-01  .126E-01  .114E-01  .106E-01  .983E-02  .881E-02  .000E+00  .000E+00
  .000E+00  .000E+00  .000E+00  .000E+00  .000E+00  .000E+00  .000E+00  .000E+00
  .000E+00  .000E+00  .000E+00  .000E+00  .000E+00  .000E+00  .000E+00  .000E+00
  .000E+00  .000E+00  .000E+00  .000E+00
  .328E+02  .328E+02  .328E+02  .328E+02  .328E+02  .328E+02  .328E+02  .328E+02
  .328E+02  .328E+02  .328E+02  .328E+02  .328E+02  .328E+02  .328E+02  .328E+02
  .328E+02  .329E+02  .327E+02  .327E+02  .327E+02  .327E+02  .329E+02  .330E+02
  .329E+02  .330E+02  .324E+02  .329E+02  .329E+02  .329E+02  .328E+02  .328E+02
  .328E+02  .327E+02  .327E+02  .327E+02  .327E+02  .327E+02  .327E+02  .327E+02
  .326E+02  .326E+02  .326E+02  .402E+02  .416E+02  .535E+02  .535E+02  .536E+02
  .500E+02  .501E+02  .342E+02  .478E+02  .474E+02  .475E+02  .518E+02  .499E+02
  .499E+02  .493E+02  .494E+02  .471E+02  .471E+02  .415E+02  .478E+02  .471E+02
  .471E+02  .464E+02  .465E+02  .410E+02  .410E+02  .400E+02  .400E+02  .400E+02
  .400E+02  .400E+02  .400E+02  .400E+02  .465E+02  .465E+02  .000E+00  .000E+00
  .000E+00  .000E+00  .000E+00  .000E+00  .000E+00  .000E+00  .000E+00  .000E+00
  .000E+00  .000E+00  .000E+00  .000E+00  .000E+00  .000E+00  .000E+00  .000E+00
  .000E+00  .000E+00  .000E+00  .000E+00
  .328E+02  .328E+02  .328E+02  .328E+02  .328E+02  .328E+02  .328E+02  .328E+02
  .328E+02  .329E+02  .329E+02  .329E+02  .329E+02  .329E+02  .329E+02  .329E+02
  .329E+02  .329E+02  .327E+02  .327E+02  .327E+02  .327E+02  .329E+02  .329E+02
  .329E+02  .329E+02  .325E+02  .329E+02  .329E+02  .328E+02  .329E+02  .329E+02
  .328E+02  .328E+02  .328E+02  .328E+02  .328E+02  .326E+02  .326E+02  .326E+02
  .326E+02  .326E+02  .326E+02  .326E+02  .326E+02  .326E+02  .329E+02  .329E+02
  .329E+02  .324E+02  .328E+02  .328E+02  .477E+02  .477E+02  .472E+02  .495E+02
  .328E+02  .328E+02  .328E+02  .328E+02  .328E+02  .328E+02  .328E+02  .328E+02
  .328E+02  .328E+02  .328E+02  .328E+02  .328E+02  .328E+02  .328E+02  .328E+02
  .328E+02  .328E+02  .328E+02  .328E+02  .328E+02  .328E+02  .000E+00  .000E+00
  .000E+00  .000E+00  .000E+00  .000E+00  .000E+00  .000E+00  .000E+00  .000E+00
  .000E+00  .000E+00  .000E+00  .000E+00  .000E+00  .000E+00  .000E+00  .000E+00
  .000E+00  .000E+00  .000E+00  .000E+00
  .328E+02  .328E+02  .328E+02  .328E+02  .328E+02  .328E+02  .328E+02  .328E+02
  .328E+02  .328E+02  .328E+02  .328E+02  .328E+02  .328E+02  .328E+02  .328E+02
  .328E+02  .329E+02  .327E+02  .327E+02  .327E+02  .327E+02  .328E+02  .330E+02
  .329E+02  .330E+02  .324E+02  .329E+02  .329E+02  .329E+02  .328E+02  .328E+02
  .328E+02  .328E+02  .327E+02  .327E+02  .327E+02  .327E+02  .327E+02  .327E+02
  .326E+02  .326E+02  .326E+02  .402E+02  .416E+02  .326E+02  .535E+02  .536E+02
  .500E+02  .501E+02  .342E+02  .478E+02  .473E+02  .474E+02  .518E+02  .498E+02
  .499E+02  .493E+02  .493E+02  .470E+02  .471E+02  .415E+02  .478E+02  .470E+02
  .471E+02  .463E+02  .464E+02  .324E+02  .324E+02  .324E+02  .324E+02  .324E+02
  .324E+02  .324E+02  .324E+02  .324E+02  .324E+02  .324E+02  .000E+00  .000E+00
  .000E+00  .000E+00  .000E+00  .000E+00  .000E+00  .000E+00  .000E+00  .000E+00
  .000E+00  .000E+00  .000E+00  .000E+00  .000E+00  .000E+00  .000E+00  .000E+00
  .000E+00  .000E+00  .000E+00  .000E+00
/&   ----------  End of spectral data for channel  1  ----------
Response and Fourier amplitude spectra (78 periods,  .04 -  6.0 sec)   for      
Corrected accelerogram   38695658.CI.RINB.01.H      Chan  2: 360 Deg     from   
Uncorrected Accelerogram Data             Processed: 09/19/20, CGS  cirinb-w    
Rcrd of Fri Sep 18, 2020 23:38:30.0 PDT               (Avol1 v2.0, 4/18 CSMIP)  
                                        (Origin:  To be determined)             
38695658.CI.RINB.01.H                Start time:  9/19/20, 06:38:30.0 UTC (GPS) 
Station Id. RINB    34.282N, 118.479W    Q330    s/n 2121  (3 Chns of  3 at Sta)
San Fernando, junction of I-405 and I-5  SCSN   Data: Acceleration              
Chan  2: 360 Deg                                                                
Rcrd of Fri Sep 18, 2020 23:38:30.0 PDT    Fri Sep 18, 2020 23:38:30.0 PDT      
Hypocenter:  To be determined.               ML:  To be determined.             
Instr Period =  .0050 sec,  Damping =  .707,  Sensitivity = 9.98 v/g  (Nominal) 
                        Record Length =301.000 sec.                             
                                     Uncor Max  =   .009 g, at   33.090 sec.    
RMS accel of (uncor) record  =        .   Chn. metadata effective date:         
Accelerogram bandpass filtered with 3 dB pts at   .30 and 23.00 cyc/sec         
                 instrument- and base-line correcte                             
                                                                                
                                                                                
                                                                                
                                                                                
                                                                                
Rcrd of Fri Sep 18, 2020 23:38:30.0 PDT    Fri Sep 18, 2020 23:38:30.0 PDT      
                                                                                
38695658.CI.RINB.01.H     San Fernando, junction of I-405 and I-5  SChan  2: 360
 Deg                                                                            
38695658.CI.RINB.01.H     San Fernando, junction of I-405 and I-5  SChan  2: 360
 Deg                                                                            
Units for spectra are inches and sec, except Sa is in fraction of g.            
                                                                                
    2  100    2    3    3  100 -999    3    1   24  605 2121    050701   41    0
    6   38   30    8  263    9   19 2020   10    3  36036014   39   39   74 -999
36014 -999  100    6 -999 -999 -999 -999 -999 -999 -999 -999 -999 -999 -999 -999
 -999 -999 -999 -99915050    2 -999    0 -999    0 -999 -999    3    1 -99915050
    315050    4   78    1    3    5    0    0 -999    0 -999 -999    6 -999    2
    2    2    4 -999 -999 -999 -999 -999 -999 -999 -999    1 -999 -999 -999  111
    1    1 -999 -999
      .005      .707   360.140      .000     1.000  9975.362      .009    33.090
   200.000     2.384      .239  -999.000    10.000  -999.000     2.000  -999.000
    20.000    81.829    20.000  -999.000  -999.000  -999.000  -999.000     -.001
     -.004     -.003     2.000    15.000    34.282  -118.479      .003      .004
     1.068     -.004     -.002   304.000  -999.000  -999.000  -999.000  -999.000
     1.000  -999.000  -999.000  -999.000  -999.000  -999.000  -999.000   120.000
     -.900     2.000     6.800   980.665      .020   301.000    31.831      .000
  -999.000    23.000  -999.000   301.000      .020      .300  -999.000  -999.000
    33.080     9.271    32.620      .368    32.960      .033      .000      .300
    23.000      .020      .020      .000      .020      .013  -999.000  -999.000
      .040      .170      .021      .014      .003      .000  -999.000  -999.000
  -999.000  -999.000  -999.000  -999.000  -999.000  -999.000  -999.000  -999.000
  -999.000  -999.000  -999.000  -999.000
      .050
      .040      .042      .044      .046      .048      .050      .055      .060
      .065      .070      .075      .080      .085      .090      .095      .100
      .110      .120      .130      .140      .150      .160      .170      .180
      .190      .200      .220      .240      .260      .280      .300      .320
      .340      .360      .380      .400      .420      .440      .460      .480
      .500      .550      .600      .650      .700      .750      .800      .850
      .900      .950     1.000     1.100     1.200     1.300     1.400     1.500
     1.600     1.700     1.800     1.900     2.000     2.200     2.400     2.600
     2.800     3.000     3.200     3.400     3.600     3.800     4.000     4.200
     4.400     4.600     4.800     5.000     5.500     6.000      .000      .000
      .000      .000      .000      .000      .000      .000      .000      .000
      .000      .000      .000      .000      .000      .000      .000      .000
      .000      .000      .000      .000
Fourier amplitude spectra in in/sec.
  .000E+00  .000E+00  .000E+00  .000E+00  .000E+00  .000E+00  .000E+00  .000E+00
  .000E+00  .000E+00  .000E+00  .000E+00  .000E+00  .000E+00  .000E+00  .000E+00
  .000E+00  .000E+00  .000E+00  .000E+00  .000E+00  .000E+00  .000E+00  .000E+00
  .000E+00  .000E+00  .000E+00  .000E+00  .000E+00  .000E+00  .000E+00  .000E+00
  .000E+00  .000E+00  .000E+00  .000E+00  .000E+00  .000E+00  .000E+00  .000E+00
  .000E+00  .000E+00  .000E+00  .000E+00  .000E+00  .000E+00  .000E+00  .000E+00
  .000E+00  .000E+00  .000E+00  .000E+00  .000E+00  .000E+00  .000E+00  .000E+00
  .000E+00  .000E+00  .000E+00  .000E+00  .000E+00  .000E+00  .000E+00  .000E+00
  .000E+00  .000E+00  .000E+00  .000E+00  .000E+00  .000E+00  .000E+00  .000E+00
  .000E+00  .000E+00  .000E+00  .000E+00  .000E+00  .000E+00  .000E+00  .000E+00
  .000E+00  .000E+00  .000E+00  .000E+00  .000E+00  .000E+00  .000E+00  .000E+00
  .000E+00  .000E+00  .000E+00  .000E+00  .000E+00  .000E+00  .000E+00  .000E+00
  .000E+00  .000E+00  .000E+00  .000E+00
Damping =  .05. Data of Sd,Sv,Sa,Pssv,ttSd,ttSv,ttSa :
  .152E-03  .172E-03  .190E-03  .209E-03  .237E-03  .263E-03  .340E-03  .426E-03
  .547E-03  .760E-03  .111E-02  .126E-02  .132E-02  .158E-02  .183E-02  .179E-02
  .249E-02  .262E-02  .249E-02  .334E-02  .534E-02  .867E-02  .112E-01  .984E-02
  .945E-02  .739E-02  .761E-02  .104E-01  .128E-01  .138E-01  .120E-01  .998E-02
  .830E-02  .700E-02  .643E-02  .692E-02  .855E-02  .814E-02  .810E-02  .814E-02
