Response and Fourier amplitude spectra (78 periods,  .04 -  6.0 sec)   for      
Corrected accelerogram   38695658.CI.RIN.--.HN      Chan  1:  90 Deg     from   
Uncorrected Accelerogram Data             Processed: 09/19/20, CGS  cirin--d    
Rcrd of Fri Sep 18, 2020 23:38:32.0 PDT               (Avol1 v2.0, 4/18 CSMIP)  
                                        (Origin:  To be determined)             
38695658.CI.RIN.--.HN                Start time:  9/19/20, 06:38:32.0 UTC (GPS) 
Station Id. RIN     34.282N, 118.479W    ObsMMS  s/n 4311  (3 Chns of  6 at Sta)
San Fernando, junction of I-405 and I-5  SCSN   Data: Acceleration              
Chan  1:  90 Deg                                                                
Rcrd of Fri Sep 18, 2020 23:38:32.0 PDT    Fri Sep 18, 2020 23:38:32.0 PDT      
Hypocenter:  To be determined.               ML:  To be determined.             
Instr Period =  .0050 sec,  Damping =  .707,  Sensitivity = 4.98 v/g  (Nominal) 
                        Record Length =301.000 sec.                             
                                     Uncor Max  =   .031 g, at   30.570 sec.    
RMS accel of (uncor) record  =        .   Chn. metadata effective date:         
Accelerogram bandpass filtered with 3 dB pts at   .30 and 23.00 cyc/sec         
                 instrument- and base-line correcte                             
                                                                                
                                                                                
                                                                                
                                                                                
                                                                                
Rcrd of Fri Sep 18, 2020 23:38:32.0 PDT    Fri Sep 18, 2020 23:38:32.0 PDT      
                                                                                
38695658.CI.RIN.--.HN     San Fernando, junction of I-405 and I-5  SChan  1:  90
 Deg                                                                            
38695658.CI.RIN.--.HN     San Fernando, junction of I-405 and I-5  SChan  1:  90
 Deg                                                                            
Units for spectra are inches and sec, except Sa is in fraction of g.            
                                                                                
    1  100    1    6    6  100 -999    3    1    0   15 4311    050639   41    0
    6   38   32    8  263    9   19 2020   10    3   9035432   39   39   74 -999
35432 -999  100    6 -999 -999 -999 -999 -999 -999 -999 -999 -999 -999 -999 -999
 -999 -999 -999 -99915050    2 -999    0 -999   20 -999 -999    3    1 -99915050
    315050    4   78    1    3    5    0    0 -999    0 -999 -999    6 -999    2
    2    2    4 -999 -999 -999 -999 -999 -999 -999 -999    1 -999 -999 -999  111
    1    1 -999 -999
      .005      .707   354.320      .001     1.000  4983.670      .031    30.570
   200.000     2.384      .478  -999.000    10.000  -999.000     4.000  -999.000
    20.000   -20.108      .000  -999.000  -999.000  -999.000  -999.000     -.003
      .002      .005     2.000    15.000    34.282  -118.479      .050      .057
     1.141     -.005      .015   304.000  -999.000  -999.000  -999.000  -999.000
     1.000  -999.000    -8.000  -999.000  -999.000  -999.000  -999.000   120.000
     -.900     2.000     6.800   980.665      .020   301.000    31.831      .000
  -999.000    23.000  -999.000   301.000      .020      .300  -999.000  -999.000
    30.660   -30.194    30.620     1.145    30.580     -.062      .000      .300
    23.000      .020      .020      .000      .020      .027  -999.000  -999.000
      .115      .200      .112      .052      .003      .000  -999.000  -999.000
  -999.000  -999.000  -999.000  -999.000  -999.000  -999.000  -999.000  -999.000
  -999.000  -999.000  -999.000  -999.000
      .050
      .040      .042      .044      .046      .048      .050      .055      .060
      .065      .070      .075      .080      .085      .090      .095      .100
      .110      .120      .130      .140      .150      .160      .170      .180
      .190      .200      .220      .240      .260      .280      .300      .320
      .340      .360      .380      .400      .420      .440      .460      .480
      .500      .550      .600      .650      .700      .750      .800      .850
      .900      .950     1.000     1.100     1.200     1.300     1.400     1.500
     1.600     1.700     1.800     1.900     2.000     2.200     2.400     2.600
     2.800     3.000     3.200     3.400     3.600     3.800     4.000     4.200
     4.400     4.600     4.800     5.000     5.500     6.000      .000      .000
      .000      .000      .000      .000      .000      .000      .000      .000
      .000      .000      .000      .000      .000      .000      .000      .000
      .000      .000      .000      .000
Fourier amplitude spectra in in/sec.
  .000E+00  .000E+00  .000E+00  .000E+00  .000E+00  .000E+00  .000E+00  .000E+00
  .000E+00  .000E+00  .000E+00  .000E+00  .000E+00  .000E+00  .000E+00  .000E+00
  .000E+00  .000E+00  .000E+00  .000E+00  .000E+00  .000E+00  .000E+00  .000E+00
  .000E+00  .000E+00  .000E+00  .000E+00  .000E+00  .000E+00  .000E+00  .000E+00
  .000E+00  .000E+00  .000E+00  .000E+00  .000E+00  .000E+00  .000E+00  .000E+00
  .000E+00  .000E+00  .000E+00  .000E+00  .000E+00  .000E+00  .000E+00  .000E+00
  .000E+00  .000E+00  .000E+00  .000E+00  .000E+00  .000E+00  .000E+00  .000E+00
  .000E+00  .000E+00  .000E+00  .000E+00  .000E+00  .000E+00  .000E+00  .000E+00
  .000E+00  .000E+00  .000E+00  .000E+00  .000E+00  .000E+00  .000E+00  .000E+00
  .000E+00  .000E+00  .000E+00  .000E+00  .000E+00  .000E+00  .000E+00  .000E+00
  .000E+00  .000E+00  .000E+00  .000E+00  .000E+00  .000E+00  .000E+00  .000E+00
  .000E+00  .000E+00  .000E+00  .000E+00  .000E+00  .000E+00  .000E+00  .000E+00
  .000E+00  .000E+00  .000E+00  .000E+00
Damping =  .05. Data of Sd,Sv,Sa,Pssv,ttSd,ttSv,ttSa :
  .492E-03  .548E-03  .608E-03  .674E-03  .734E-03  .797E-03  .116E-02  .163E-02
  .197E-02  .238E-02  .325E-02  .446E-02  .607E-02  .715E-02  .779E-02  .845E-02
  .107E-01  .129E-01  .166E-01  .151E-01  .189E-01  .185E-01  .229E-01  .294E-01
  .385E-01  .436E-01  .515E-01  .557E-01  .505E-01  .465E-01  .459E-01  .441E-01
  .418E-01  .400E-01  .374E-01  .354E-01  .342E-01  .355E-01  .357E-01  .354E-01
  .347E-01  .325E-01  .365E-01  .337E-01  .309E-01  .297E-01  .314E-01  .291E-01
  .269E-01  .261E-01  .260E-01  .272E-01  .379E-01  .371E-01  .373E-01  .387E-01
  .269E-01  .269E-01  .258E-01  .261E-01  .263E-01  .260E-01  .252E-01  .250E-01
  .250E-01  .252E-01  .252E-01  .253E-01  .254E-01  .255E-01  .255E-01  .254E-01
  .254E-01  .253E-01  .252E-01  .251E-01  .249E-01  .248E-01  .000E+00  .000E+00
  .000E+00  .000E+00  .000E+00  .000E+00  .000E+00  .000E+00  .000E+00  .000E+00
  .000E+00  .000E+00  .000E+00  .000E+00  .000E+00  .000E+00  .000E+00  .000E+00
  .000E+00  .000E+00  .000E+00  .000E+00
  .287E-01  .320E-01  .362E-01  .415E-01  .506E-01  .610E-01  .856E-01  .107E+00
  .124E+00  .142E+00  .220E+00  .297E+00  .394E+00  .462E+00  .495E+00  .500E+00
  .580E+00  .633E+00  .801E+00  .725E+00  .814E+00  .701E+00  .870E+00  .110E+01
  .132E+01  .144E+01  .157E+01  .148E+01  .139E+01  .115E+01  .104E+01  .915E+00
  .905E+00  .886E+00  .848E+00  .804E+00  .780E+00  .757E+00  .726E+00  .692E+00
  .663E+00  .636E+00  .683E+00  .650E+00  .599E+00  .579E+00  .574E+00  .566E+00
  .546E+00  .533E+00  .528E+00  .516E+00  .505E+00  .489E+00  .476E+00  .471E+00
  .466E+00  .462E+00  .461E+00  .459E+00  .456E+00  .451E+00  .448E+00  .447E+00
  .446E+00  .445E+00  .444E+00  .443E+00  .443E+00  .442E+00  .441E+00  .440E+00
  .440E+00  .440E+00  .439E+00  .439E+00  .438E+00  .438E+00  .000E+00  .000E+00
  .000E+00  .000E+00  .000E+00  .000E+00  .000E+00  .000E+00  .000E+00  .000E+00
  .000E+00  .000E+00  .000E+00  .000E+00  .000E+00  .000E+00  .000E+00  .000E+00
  .000E+00  .000E+00  .000E+00  .000E+00
  .315E-01  .319E-01  .322E-01  .325E-01  .325E-01  .325E-01  .394E-01  .466E-01
  .474E-01  .495E-01  .600E-01  .715E-01  .853E-01  .896E-01  .881E-01  .860E-01
  .907E-01  .928E-01  .101E+00  .804E-01  .875E-01  .731E-01  .824E-01  .921E-01
  .109E+00  .115E+00  .111E+00  .100E+00  .768E-01  .601E-01  .520E-01  .446E-01
  .380E-01  .320E-01  .262E-01  .225E-01  .197E-01  .191E-01  .174E-01  .159E-01
  .142E-01  .110E-01  .104E-01  .818E-02  .656E-02  .545E-02  .505E-02  .417E-02
  .354E-02  .311E-02  .280E-02  .243E-02  .270E-02  .226E-02  .196E-02  .177E-02
  .119E-02  .105E-02  .947E-03  .871E-03  .805E-03  .677E-03  .573E-03  .499E-03
  .443E-03  .399E-03  .361E-03  .329E-03  .302E-03  .278E-03  .257E-03  .239E-03
  .223E-03  .208E-03  .195E-03  .183E-03  .159E-03  .142E-03  .000E+00  .000E+00
  .000E+00  .000E+00  .000E+00  .000E+00  .000E+00  .000E+00  .000E+00  .000E+00
  .000E+00  .000E+00  .000E+00  .000E+00  .000E+00  .000E+00  .000E+00  .000E+00
  .000E+00  .000E+00  .000E+00  .000E+00
  .773E-01  .820E-01  .868E-01  .921E-01  .960E-01  .100E+00  .132E+00  .171E+00
  .190E+00  .214E+00  .273E+00  .351E+00  .449E+00  .499E+00  .515E+00  .531E+00
  .611E+00  .677E+00  .802E+00  .678E+00  .792E+00  .726E+00  .847E+00  .103E+01
  .127E+01  .137E+01  .147E+01  .146E+01  .122E+01  .104E+01  .960E+00  .866E+00
  .772E+00  .697E+00  .619E+00  .556E+00  .512E+00  .507E+00  .488E+00  .463E+00
  .436E+00  .371E+00  .382E+00  .326E+00  .277E+00  .249E+00  .246E+00  .215E+00
  .188E+00  .173E+00  .164E+00  .155E+00  .198E+00  .179E+00  .167E+00  .162E+00
  .106E+00  .994E-01  .900E-01  .862E-01  .827E-01  .742E-01  .661E-01  .604E-01
  .562E-01  .527E-01  .496E-01  .468E-01  .444E-01  .421E-01  .400E-01  .380E-01
  .362E-01  .346E-01  .330E-01  .315E-01  .284E-01  .259E-01  .000E+00  .000E+00
  .000E+00  .000E+00  .000E+00  .000E+00  .000E+00  .000E+00  .000E+00  .000E+00
  .000E+00  .000E+00  .000E+00  .000E+00  .000E+00  .000E+00  .000E+00  .000E+00
  .000E+00  .000E+00  .000E+00  .000E+00
  .307E+02  .307E+02  .306E+02  .306E+02  .306E+02  .307E+02  .309E+02  .309E+02
  .307E+02  .306E+02  .309E+02  .309E+02  .310E+02  .310E+02  .310E+02  .310E+02
  .324E+02  .311E+02  .314E+02  .308E+02  .321E+02  .308E+02  .308E+02  .308E+02
  .308E+02  .308E+02  .307E+02  .307E+02  .307E+02  .306E+02  .306E+02  .306E+02
  .306E+02  .307E+02  .307E+02  .307E+02  .313E+02  .316E+02  .312E+02  .312E+02
  .312E+02  .312E+02  .331E+02  .311E+02  .311E+02  .331E+02  .331E+02  .328E+02
  .305E+02  .305E+02  .305E+02  .305E+02  .459E+02  .455E+02  .477E+02  .478E+02
  .479E+02  .473E+02  .306E+02  .306E+02  .306E+02  .306E+02  .306E+02  .306E+02
  .306E+02  .306E+02  .306E+02  .306E+02  .306E+02  .306E+02  .306E+02  .306E+02
  .306E+02  .306E+02  .306E+02  .306E+02  .306E+02  .306E+02  .000E+00  .000E+00
  .000E+00  .000E+00  .000E+00  .000E+00  .000E+00  .000E+00  .000E+00  .000E+00
  .000E+00  .000E+00  .000E+00  .000E+00  .000E+00  .000E+00  .000E+00  .000E+00
  .000E+00  .000E+00  .000E+00  .000E+00
  .309E+02  .309E+02  .309E+02  .309E+02  .309E+02  .309E+02  .309E+02  .309E+02
  .309E+02  .309E+02  .309E+02  .309E+02  .309E+02  .310E+02  .310E+02  .310E+02
  .323E+02  .311E+02  .314E+02  .309E+02  .322E+02  .308E+02  .308E+02  .308E+02
  .308E+02  .307E+02  .308E+02  .307E+02  .307E+02  .307E+02  .307E+02  .306E+02
  .306E+02  .306E+02  .306E+02  .306E+02  .306E+02  .306E+02  .306E+02  .306E+02
  .306E+02  .306E+02  .306E+02  .306E+02  .306E+02  .306E+02  .306E+02  .306E+02
  .306E+02  .306E+02  .306E+02  .306E+02  .306E+02  .306E+02  .306E+02  .306E+02
  .306E+02  .306E+02  .306E+02  .306E+02  .306E+02  .306E+02  .306E+02  .306E+02
  .306E+02  .306E+02  .306E+02  .306E+02  .306E+02  .306E+02  .306E+02  .306E+02
  .306E+02  .306E+02  .306E+02  .306E+02  .306E+02  .306E+02  .000E+00  .000E+00
  .000E+00  .000E+00  .000E+00  .000E+00  .000E+00  .000E+00  .000E+00  .000E+00
  .000E+00  .000E+00  .000E+00  .000E+00  .000E+00  .000E+00  .000E+00  .000E+00
  .000E+00  .000E+00  .000E+00  .000E+00
  .307E+02  .307E+02  .306E+02  .306E+02  .306E+02  .307E+02  .309E+02  .309E+02
  .306E+02  .306E+02  .309E+02  .309E+02  .310E+02  .310E+02  .310E+02  .310E+02
  .323E+02  .311E+02  .314E+02  .308E+02  .321E+02  .308E+02  .308E+02  .308E+02
  .308E+02  .308E+02  .307E+02  .307E+02  .306E+02  .306E+02  .306E+02  .306E+02
  .306E+02  .306E+02  .306E+02  .307E+02  .313E+02  .313E+02  .312E+02  .312E+02
  .312E+02  .312E+02  .331E+02  .310E+02  .311E+02  .331E+02  .331E+02  .328E+02
  .305E+02  .305E+02  .305E+02  .305E+02  .459E+02  .455E+02  .477E+02  .478E+02
  .305E+02  .305E+02  .305E+02  .305E+02  .305E+02  .305E+02  .305E+02  .305E+02
  .305E+02  .305E+02  .305E+02  .305E+02  .305E+02  .305E+02  .305E+02  .305E+02
  .305E+02  .305E+02  .305E+02  .305E+02  .305E+02  .305E+02  .000E+00  .000E+00
  .000E+00  .000E+00  .000E+00  .000E+00  .000E+00  .000E+00  .000E+00  .000E+00
  .000E+00  .000E+00  .000E+00  .000E+00  .000E+00  .000E+00  .000E+00  .000E+00
  .000E+00  .000E+00  .000E+00  .000E+00
/&   ----------  End of spectral data for channel  1  ----------
Response and Fourier amplitude spectra (78 periods,  .04 -  6.0 sec)   for      
Corrected accelerogram   38695658.CI.RIN.--.HN      Chan  2: 360 Deg     from   
Uncorrected Accelerogram Data             Processed: 09/19/20, CGS  cirin--d    
Rcrd of Fri Sep 18, 2020 23:38:32.0 PDT               (Avol1 v2.0, 4/18 CSMIP)  
                                        (Origin:  To be determined)             
38695658.CI.RIN.--.HN                Start time:  9/19/20, 06:38:32.0 UTC (GPS) 
Station Id. RIN     34.282N, 118.479W    ObsMMS  s/n 4311  (3 Chns of  6 at Sta)
San Fernando, junction of I-405 and I-5  SCSN   Data: Acceleration              
Chan  2: 360 Deg                                                                
Rcrd of Fri Sep 18, 2020 23:38:32.0 PDT    Fri Sep 18, 2020 23:38:32.0 PDT      
Hypocenter:  To be determined.               ML:  To be determined.             
Instr Period =  .0050 sec,  Damping =  .707,  Sensitivity = 4.98 v/g  (Nominal) 
                        Record Length =301.000 sec.                             
                                     Uncor Max  =   .028 g, at   30.410 sec.    
RMS accel of (uncor) record  =        .   Chn. metadata effective date:         
Accelerogram bandpass filtered with 3 dB pts at   .30 and 23.00 cyc/sec         
                 instrument- and base-line correcte                             
                                                                                
                                                                                
                                                                                
                                                                                
                                                                                
Rcrd of Fri Sep 18, 2020 23:38:32.0 PDT    Fri Sep 18, 2020 23:38:32.0 PDT      
                                                                                
38695658.CI.RIN.--.HN     San Fernando, junction of I-405 and I-5  SChan  2: 360
 Deg                                                                            
38695658.CI.RIN.--.HN     San Fernando, junction of I-405 and I-5  SChan  2: 360
 Deg                                                                            
Units for spectra are inches and sec, except Sa is in fraction of g.            
                                                                                
    2  100    2    6    6  100 -999    3    1    0   15 4311    050639   41    0
    6   38   32    8  263    9   19 2020   10    3  36035441   39   39   74 -999
35441 -999  100    6 -999 -999 -999 -999 -999 -999 -999 -999 -999 -999 -999 -999
 -999 -999 -999 -99915050    2 -999    0 -999   20 -999 -999    3    1 -99915050
    315050    4   78    1    3    5    0    0 -999    0 -999 -999    6 -999    2
    2    2    4 -999 -999 -999 -999 -999 -999 -999 -999    1 -999 -999 -999  111
    1    1 -999 -999
      .005      .707   354.410      .001     1.000  4980.678      .028    30.410
   200.000     2.384      .479  -999.000    10.000  -999.000     4.000  -999.000
    20.000   -19.570      .000  -999.000  -999.000  -999.000  -999.000     -.005
      .005      .010     2.000    15.000    34.282  -118.479      .051      .058
     1.151      .000      .020   304.000  -999.000  -999.000  -999.000  -999.000
     1.000  -999.000  -999.000  -999.000  -999.000  -999.000  -999.000   120.000
     -.900     2.000     6.800   980.665      .020   301.000    31.831     -.001
  -999.000    23.000  -999.000   301.000      .020      .300  -999.000  -999.000
    30.420    25.873    30.880     -.892    30.420     -.068      .000      .300
    23.000      .020      .020      .000      .020      .027  -999.000  -999.000
      .131      .170      .069      .032      .004      .000  -999.000  -999.000
  -999.000  -999.000  -999.000  -999.000  -999.000  -999.000  -999.000  -999.000
  -999.000  -999.000  -999.000  -999.000
      .050
      .040      .042      .044      .046      .048      .050      .055      .060
      .065      .070      .075      .080      .085      .090      .095      .100
      .110      .120      .130      .140      .150      .160      .170      .180
      .190      .200      .220      .240      .260      .280      .300      .320
      .340      .360      .380      .400      .420      .440      .460      .480
      .500      .550      .600      .650      .700      .750      .800      .850
      .900      .950     1.000     1.100     1.200     1.300     1.400     1.500
     1.600     1.700     1.800     1.900     2.000     2.200     2.400     2.600
     2.800     3.000     3.200     3.400     3.600     3.800     4.000     4.200
     4.400     4.600     4.800     5.000     5.500     6.000      .000      .000
      .000      .000      .000      .000      .000      .000      .000      .000
      .000      .000      .000      .000      .000      .000      .000      .000
      .000      .000      .000      .000
Fourier amplitude spectra in in/sec.
  .000E+00  .000E+00  .000E+00  .000E+00  .000E+00  .000E+00  .000E+00  .000E+00
  .000E+00  .000E+00  .000E+00  .000E+00  .000E+00  .000E+00  .000E+00  .000E+00
  .000E+00  .000E+00  .000E+00  .000E+00  .000E+00  .000E+00  .000E+00  .000E+00
  .000E+00  .000E+00  .000E+00  .000E+00  .000E+00  .000E+00  .000E+00  .000E+00
  .000E+00  .000E+00  .000E+00  .000E+00  .000E+00  .000E+00  .000E+00  .000E+00
  .000E+00  .000E+00  .000E+00  .000E+00  .000E+00  .000E+00  .000E+00  .000E+00
  .000E+00  .000E+00  .000E+00  .000E+00  .000E+00  .000E+00  .000E+00  .000E+00
  .000E+00  .000E+00  .000E+00  .000E+00  .000E+00  .000E+00  .000E+00  .000E+00
  .000E+00  .000E+00  .000E+00  .000E+00  .000E+00  .000E+00  .000E+00  .000E+00
  .000E+00  .000E+00  .000E+00  .000E+00  .000E+00  .000E+00  .000E+00  .000E+00
  .000E+00  .000E+00  .000E+00  .000E+00  .000E+00  .000E+00  .000E+00  .000E+00
  .000E+00  .000E+00  .000E+00  .000E+00  .000E+00  .000E+00  .000E+00  .000E+00
  .000E+00  .000E+00  .000E+00  .000E+00
Damping =  .05. Data of Sd,Sv,Sa,Pssv,ttSd,ttSv,ttSa :
  .457E-03  .508E-03  .570E-03  .643E-03  .726E-03  .804E-03  .986E-03  .119E-02
  .160E-02  .202E-02  .226E-02  .319E-02  .388E-02  .498E-02  .571E-02  .581E-02
  .724E-02  .921E-02  .142E-01  .164E-01  .206E-01  .285E-01  .372E-01  .372E-01
  .309E-01  .267E-01  .246E-01  .261E-01  .319E-01  .308E-01  .280E-01  .251E-01
  .218E-01  .203E-01  .203E-01  .208E-01  .282E-01  .390E-01  .352E-01  .311E-01
