Response and Fourier amplitude spectra (78 periods,  .04 -  6.0 sec)   for      
Corrected accelerogram   38695658.CI.RKMO.--.H      Chan  1:  90 Deg     from   
Uncorrected Accelerogram Data             Processed: 09/19/20, CGS  cirkmo-b    
Rcrd of Fri Sep 18, 2020 23:38:36.0 PDT               (Avol1 v2.0, 4/18 CSMIP)  
                                        (Origin:  To be determined)             
38695658.CI.RKMO.--.H                Start time:  9/19/20, 06:38:36.0 UTC (GPS) 
Station Id. RKMO    33.674N, 117.609W    ObsMMS  s/n 3814  (3 Chns of  6 at Sta)
Ramakrishna Monastery                    SCSN   Data: Acceleration              
Chan  1:  90 Deg                                                                
Rcrd of Fri Sep 18, 2020 23:38:36.0 PDT    Fri Sep 18, 2020 23:38:36.0 PDT      
Hypocenter:  To be determined.               ML:  To be determined.             
Instr Period =  .0050 sec,  Damping =  .707,  Sensitivity = 4.98 v/g  (Nominal) 
                        Record Length =301.000 sec.                             
                                     Uncor Max  =   .007 g, at   31.260 sec.    
RMS accel of (uncor) record  =        .   Chn. metadata effective date:         
Accelerogram bandpass filtered with 3 dB pts at   .30 and 23.00 cyc/sec         
                 instrument- and base-line correcte                             
                                                                                
                                                                                
                                                                                
                                                                                
                                                                                
Rcrd of Fri Sep 18, 2020 23:38:36.0 PDT    Fri Sep 18, 2020 23:38:36.0 PDT      
                                                                                
38695658.CI.RKMO.--.H     Ramakrishna Monastery   Chan  1:  90 Deg              
                                                                                
38695658.CI.RKMO.--.H     Ramakrishna Monastery   Chan  1:  90 Deg              
                                                                                
Units for spectra are inches and sec, except Sa is in fraction of g.            
                                                                                
    1  100    1    6    6  100 -999    3    1    0   15 3814    0    0   41    0
    6   38   36    8  263    9   19 2020   10    3   9035531   39   21   74 -999
35531 -999  100    6 -999 -999 -999 -999 -999 -999 -999 -999 -999 -999 -999 -999
 -999 -999 -999 -99915050    2 -999    0 -999   20 -999 -999    3    1 -99915050
    315050    4   78    1    3    5    0    0 -999    0 -999 -999    6 -999    2
    2    2    4 -999 -999 -999 -999 -999 -999 -999 -999    1 -999 -999 -999  111
    1    1 -999 -999
      .005      .707   355.310      .000     1.000  4980.500      .007    31.260
   200.000     2.384      .479  -999.000    10.000  -999.000     4.000  -999.000
    20.000   -31.373      .000  -999.000  -999.000  -999.000  -999.000      .000
      .000      .000     2.000    15.000    33.674  -117.609      .001      .001
     1.057      .000      .001   408.000  -999.000  -999.000  -999.000  -999.000
     1.000  -999.000    -8.000  -999.000  -999.000  -999.000  -999.000   120.000
     -.900     2.000     6.800   980.665      .020   301.000    31.831      .000
  -999.000    23.000  -999.000   301.000      .020      .300  -999.000  -999.000
    31.260     6.498    31.560      .234    31.500     -.010      .000      .300
    23.000      .020      .020      .000      .020      .007  -999.000  -999.000
      .028      .240      .018      .017      .001      .000  -999.000  -999.000
  -999.000  -999.000  -999.000  -999.000  -999.000  -999.000  -999.000  -999.000
  -999.000  -999.000  -999.000  -999.000
      .050
      .040      .042      .044      .046      .048      .050      .055      .060
      .065      .070      .075      .080      .085      .090      .095      .100
      .110      .120      .130      .140      .150      .160      .170      .180
      .190      .200      .220      .240      .260      .280      .300      .320
      .340      .360      .380      .400      .420      .440      .460      .480
      .500      .550      .600      .650      .700      .750      .800      .850
      .900      .950     1.000     1.100     1.200     1.300     1.400     1.500
     1.600     1.700     1.800     1.900     2.000     2.200     2.400     2.600
     2.800     3.000     3.200     3.400     3.600     3.800     4.000     4.200
     4.400     4.600     4.800     5.000     5.500     6.000      .000      .000
      .000      .000      .000      .000      .000      .000      .000      .000
      .000      .000      .000      .000      .000      .000      .000      .000
      .000      .000      .000      .000
Fourier amplitude spectra in in/sec.
  .000E+00  .000E+00  .000E+00  .000E+00  .000E+00  .000E+00  .000E+00  .000E+00
  .000E+00  .000E+00  .000E+00  .000E+00  .000E+00  .000E+00  .000E+00  .000E+00
  .000E+00  .000E+00  .000E+00  .000E+00  .000E+00  .000E+00  .000E+00  .000E+00
  .000E+00  .000E+00  .000E+00  .000E+00  .000E+00  .000E+00  .000E+00  .000E+00
  .000E+00  .000E+00  .000E+00  .000E+00  .000E+00  .000E+00  .000E+00  .000E+00
  .000E+00  .000E+00  .000E+00  .000E+00  .000E+00  .000E+00  .000E+00  .000E+00
  .000E+00  .000E+00  .000E+00  .000E+00  .000E+00  .000E+00  .000E+00  .000E+00
  .000E+00  .000E+00  .000E+00  .000E+00  .000E+00  .000E+00  .000E+00  .000E+00
  .000E+00  .000E+00  .000E+00  .000E+00  .000E+00  .000E+00  .000E+00  .000E+00
  .000E+00  .000E+00  .000E+00  .000E+00  .000E+00  .000E+00  .000E+00  .000E+00
  .000E+00  .000E+00  .000E+00  .000E+00  .000E+00  .000E+00  .000E+00  .000E+00
  .000E+00  .000E+00  .000E+00  .000E+00  .000E+00  .000E+00  .000E+00  .000E+00
  .000E+00  .000E+00  .000E+00  .000E+00
Damping =  .05. Data of Sd,Sv,Sa,Pssv,ttSd,ttSv,ttSa :
  .107E-03  .120E-03  .134E-03  .147E-03  .160E-03  .172E-03  .219E-03  .293E-03
  .341E-03  .458E-03  .530E-03  .653E-03  .833E-03  .982E-03  .138E-02  .141E-02
  .147E-02  .255E-02  .361E-02  .325E-02  .355E-02  .447E-02  .425E-02  .437E-02
  .479E-02  .651E-02  .115E-01  .152E-01  .156E-01  .151E-01  .156E-01  .121E-01
  .102E-01  .113E-01  .990E-02  .796E-02  .833E-02  .866E-02  .774E-02  .732E-02
  .808E-02  .852E-02  .756E-02  .622E-02  .668E-02  .622E-02  .585E-02  .573E-02
  .579E-02  .611E-02  .655E-02  .635E-02  .613E-02  .541E-02  .541E-02  .474E-02
  .437E-02  .458E-02  .567E-02  .547E-02  .485E-02  .465E-02  .481E-02  .434E-02
  .442E-02  .439E-02  .411E-02  .444E-02  .447E-02  .437E-02  .430E-02  .430E-02
  .435E-02  .442E-02  .446E-02  .448E-02  .442E-02  .430E-02  .000E+00  .000E+00
  .000E+00  .000E+00  .000E+00  .000E+00  .000E+00  .000E+00  .000E+00  .000E+00
  .000E+00  .000E+00  .000E+00  .000E+00  .000E+00  .000E+00  .000E+00  .000E+00
  .000E+00  .000E+00  .000E+00  .000E+00
  .484E-02  .531E-02  .595E-02  .675E-02  .773E-02  .883E-02  .905E-02  .131E-01
  .154E-01  .235E-01  .294E-01  .370E-01  .458E-01  .505E-01  .697E-01  .606E-01
  .544E-01  .105E+00  .147E+00  .123E+00  .120E+00  .150E+00  .139E+00  .138E+00
  .147E+00  .184E+00  .314E+00  .400E+00  .377E+00  .350E+00  .345E+00  .280E+00
  .232E+00  .234E+00  .204E+00  .165E+00  .161E+00  .167E+00  .161E+00  .149E+00
  .154E+00  .164E+00  .131E+00  .118E+00  .114E+00  .114E+00  .109E+00  .104E+00
  .102E+00  .101E+00  .981E-01  .962E-01  .962E-01  .967E-01  .966E-01  .965E-01
  .964E-01  .959E-01  .945E-01  .930E-01  .911E-01  .904E-01  .927E-01  .932E-01
  .934E-01  .938E-01  .936E-01  .928E-01  .921E-01  .916E-01  .914E-01  .913E-01
  .912E-01  .911E-01  .909E-01  .907E-01  .904E-01  .902E-01  .000E+00  .000E+00
  .000E+00  .000E+00  .000E+00  .000E+00  .000E+00  .000E+00  .000E+00  .000E+00
  .000E+00  .000E+00  .000E+00  .000E+00  .000E+00  .000E+00  .000E+00  .000E+00
  .000E+00  .000E+00  .000E+00  .000E+00
  .687E-02  .695E-02  .705E-02  .712E-02  .714E-02  .702E-02  .744E-02  .836E-02
  .830E-02  .957E-02  .966E-02  .104E-01  .117E-01  .124E-01  .156E-01  .144E-01
  .125E-01  .182E-01  .223E-01  .168E-01  .160E-01  .178E-01  .151E-01  .140E-01
  .136E-01  .164E-01  .242E-01  .275E-01  .234E-01  .197E-01  .180E-01  .123E-01
  .896E-02  .895E-02  .715E-02  .519E-02  .496E-02  .457E-02  .373E-02  .323E-02
  .330E-02  .287E-02  .220E-02  .155E-02  .143E-02  .115E-02  .960E-03  .835E-03
  .756E-03  .718E-03  .695E-03  .563E-03  .438E-03  .357E-03  .311E-03  .243E-03
  .202E-03  .164E-03  .180E-03  .157E-03  .126E-03  .125E-03  .104E-03  .869E-04
  .768E-04  .662E-04  .568E-04  .548E-04  .508E-04  .464E-04  .428E-04  .401E-04
  .379E-04  .360E-04  .343E-04  .326E-04  .286E-04  .253E-04  .000E+00  .000E+00
  .000E+00  .000E+00  .000E+00  .000E+00  .000E+00  .000E+00  .000E+00  .000E+00
  .000E+00  .000E+00  .000E+00  .000E+00  .000E+00  .000E+00  .000E+00  .000E+00
  .000E+00  .000E+00  .000E+00  .000E+00
  .168E-01  .179E-01  .191E-01  .201E-01  .210E-01  .216E-01  .250E-01  .307E-01
  .330E-01  .411E-01  .444E-01  .513E-01  .616E-01  .685E-01  .912E-01  .885E-01
  .841E-01  .134E+00  .174E+00  .146E+00  .149E+00  .176E+00  .157E+00  .153E+00
  .158E+00  .205E+00  .327E+00  .398E+00  .377E+00  .339E+00  .328E+00  .237E+00
  .188E+00  .198E+00  .164E+00  .125E+00  .125E+00  .124E+00  .106E+00  .959E-01
  .102E+00  .974E-01  .792E-01  .602E-01  .600E-01  .521E-01  .459E-01  .424E-01
  .404E-01  .404E-01  .411E-01  .363E-01  .321E-01  .262E-01  .243E-01  .198E-01
  .172E-01  .169E-01  .198E-01  .181E-01  .152E-01  .133E-01  .126E-01  .105E-01
  .992E-02  .919E-02  .806E-02  .821E-02  .780E-02  .723E-02  .676E-02  .643E-02
  .621E-02  .603E-02  .584E-02  .563E-02  .505E-02  .450E-02  .000E+00  .000E+00
  .000E+00  .000E+00  .000E+00  .000E+00  .000E+00  .000E+00  .000E+00  .000E+00
  .000E+00  .000E+00  .000E+00  .000E+00  .000E+00  .000E+00  .000E+00  .000E+00
  .000E+00  .000E+00  .000E+00  .000E+00
  .312E+02  .313E+02  .313E+02  .313E+02  .313E+02  .313E+02  .312E+02  .313E+02
  .313E+02  .313E+02  .313E+02  .313E+02  .313E+02  .313E+02  .313E+02  .313E+02
  .313E+02  .313E+02  .313E+02  .314E+02  .314E+02  .314E+02  .315E+02  .322E+02
  .322E+02  .315E+02  .317E+02  .318E+02  .318E+02  .321E+02  .321E+02  .320E+02
  .320E+02  .316E+02  .316E+02  .316E+02  .316E+02  .316E+02  .316E+02  .316E+02
  .316E+02  .315E+02  .315E+02  .315E+02  .315E+02  .315E+02  .313E+02  .313E+02
  .313E+02  .313E+02  .313E+02  .313E+02  .416E+02  .313E+02  .316E+02  .316E+02
  .316E+02  .444E+02  .437E+02  .430E+02  .431E+02  .313E+02  .432E+02  .319E+02
  .319E+02  .319E+02  .315E+02  .315E+02  .315E+02  .315E+02  .315E+02  .315E+02
  .315E+02  .315E+02  .315E+02  .315E+02  .315E+02  .315E+02  .000E+00  .000E+00
  .000E+00  .000E+00  .000E+00  .000E+00  .000E+00  .000E+00  .000E+00  .000E+00
  .000E+00  .000E+00  .000E+00  .000E+00  .000E+00  .000E+00  .000E+00  .000E+00
  .000E+00  .000E+00  .000E+00  .000E+00
  .313E+02  .313E+02  .313E+02  .313E+02  .313E+02  .313E+02  .313E+02  .313E+02
  .313E+02  .313E+02  .313E+02  .313E+02  .313E+02  .313E+02  .313E+02  .313E+02
  .313E+02  .313E+02  .313E+02  .317E+02  .317E+02  .314E+02  .314E+02  .322E+02
  .322E+02  .314E+02  .317E+02  .317E+02  .317E+02  .322E+02  .321E+02  .316E+02
  .316E+02  .316E+02  .315E+02  .315E+02  .315E+02  .315E+02  .315E+02  .315E+02
  .315E+02  .315E+02  .315E+02  .315E+02  .315E+02  .314E+02  .314E+02  .314E+02
  .314E+02  .314E+02  .314E+02  .313E+02  .313E+02  .313E+02  .313E+02  .315E+02
  .315E+02  .315E+02  .315E+02  .315E+02  .315E+02  .315E+02  .315E+02  .315E+02
  .315E+02  .315E+02  .315E+02  .315E+02  .315E+02  .315E+02  .315E+02  .315E+02
  .315E+02  .315E+02  .315E+02  .315E+02  .315E+02  .315E+02  .000E+00  .000E+00
  .000E+00  .000E+00  .000E+00  .000E+00  .000E+00  .000E+00  .000E+00  .000E+00
  .000E+00  .000E+00  .000E+00  .000E+00  .000E+00  .000E+00  .000E+00  .000E+00
  .000E+00  .000E+00  .000E+00  .000E+00
  .312E+02  .312E+02  .313E+02  .313E+02  .313E+02  .313E+02  .312E+02  .313E+02
  .313E+02  .313E+02  .313E+02  .313E+02  .313E+02  .313E+02  .313E+02  .313E+02
  .313E+02  .313E+02  .313E+02  .314E+02  .314E+02  .314E+02  .315E+02  .322E+02
  .322E+02  .315E+02  .316E+02  .318E+02  .318E+02  .321E+02  .321E+02  .320E+02
  .320E+02  .316E+02  .316E+02  .316E+02  .316E+02  .316E+02  .316E+02  .316E+02
  .316E+02  .315E+02  .315E+02  .315E+02  .315E+02  .315E+02  .313E+02  .313E+02
  .313E+02  .313E+02  .313E+02  .313E+02  .416E+02  .313E+02  .316E+02  .316E+02
  .316E+02  .443E+02  .437E+02  .430E+02  .430E+02  .313E+02  .316E+02  .316E+02
  .316E+02  .316E+02  .314E+02  .314E+02  .314E+02  .314E+02  .314E+02  .314E+02
  .314E+02  .314E+02  .314E+02  .314E+02  .314E+02  .313E+02  .000E+00  .000E+00
  .000E+00  .000E+00  .000E+00  .000E+00  .000E+00  .000E+00  .000E+00  .000E+00
  .000E+00  .000E+00  .000E+00  .000E+00  .000E+00  .000E+00  .000E+00  .000E+00
  .000E+00  .000E+00  .000E+00  .000E+00
/&   ----------  End of spectral data for channel  1  ----------
Response and Fourier amplitude spectra (78 periods,  .04 -  6.0 sec)   for      
Corrected accelerogram   38695658.CI.RKMO.--.H      Chan  2: 360 Deg     from   
Uncorrected Accelerogram Data             Processed: 09/19/20, CGS  cirkmo-b    
Rcrd of Fri Sep 18, 2020 23:38:36.0 PDT               (Avol1 v2.0, 4/18 CSMIP)  
                                        (Origin:  To be determined)             
38695658.CI.RKMO.--.H                Start time:  9/19/20, 06:38:36.0 UTC (GPS) 
Station Id. RKMO    33.674N, 117.609W    ObsMMS  s/n 3814  (3 Chns of  6 at Sta)
Ramakrishna Monastery                    SCSN   Data: Acceleration              
Chan  2: 360 Deg                                                                
Rcrd of Fri Sep 18, 2020 23:38:36.0 PDT    Fri Sep 18, 2020 23:38:36.0 PDT      
Hypocenter:  To be determined.               ML:  To be determined.             
Instr Period =  .0050 sec,  Damping =  .707,  Sensitivity = 4.99 v/g  (Nominal) 
                        Record Length =301.000 sec.                             
                                     Uncor Max  =  -.004 g, at   29.940 sec.    
RMS accel of (uncor) record  =        .   Chn. metadata effective date:         
Accelerogram bandpass filtered with 3 dB pts at   .30 and 23.00 cyc/sec         
                 instrument- and base-line correcte                             
                                                                                
                                                                                
                                                                                
                                                                                
                                                                                
Rcrd of Fri Sep 18, 2020 23:38:36.0 PDT    Fri Sep 18, 2020 23:38:36.0 PDT      
                                                                                
38695658.CI.RKMO.--.H     Ramakrishna Monastery   Chan  2: 360 Deg              
                                                                                
38695658.CI.RKMO.--.H     Ramakrishna Monastery   Chan  2: 360 Deg              
                                                                                
Units for spectra are inches and sec, except Sa is in fraction of g.            
                                                                                
    2  100    2    6    6  100 -999    3    1    0   15 3814    0    0   41    0
    6   38   36    8  263    9   19 2020   10    3  36035380   39   21   74 -999
35380 -999  100    6 -999 -999 -999 -999 -999 -999 -999 -999 -999 -999 -999 -999
 -999 -999 -999 -99915050    2 -999    0 -999   20 -999 -999    3    1 -99915050
    315050    4   78    1    3    5    0    0 -999    0 -999 -999    6 -999    2
    2    2    4 -999 -999 -999 -999 -999 -999 -999 -999    1 -999 -999 -999  111
    1    1 -999 -999
      .005      .707   353.800      .000     1.000  4986.484     -.004    29.940
   200.000     2.384      .478  -999.000    10.000  -999.000     4.000  -999.000
    20.000   -20.688      .000  -999.000  -999.000  -999.000  -999.000      .000
     -.001      .000     2.000    15.000    33.674  -117.609      .001      .001
     1.020     -.001      .000   408.000  -999.000  -999.000  -999.000  -999.000
     1.000  -999.000  -999.000  -999.000  -999.000  -999.000  -999.000   120.000
     -.900     2.000     6.800   980.665      .020   301.000    31.831      .000
  -999.000    23.000  -999.000   301.000      .020      .300  -999.000  -999.000
    29.940    -4.270    31.100      .181    30.080     -.011      .000      .300
    23.000      .020      .020      .000      .020      .007  -999.000  -999.000
      .014      .300      .012      .014      .001      .000  -999.000  -999.000
  -999.000  -999.000  -999.000  -999.000  -999.000  -999.000  -999.000  -999.000
  -999.000  -999.000  -999.000  -999.000
      .050
      .040      .042      .044      .046      .048      .050      .055      .060
      .065      .070      .075      .080      .085      .090      .095      .100
      .110      .120      .130      .140      .150      .160      .170      .180
      .190      .200      .220      .240      .260      .280      .300      .320
      .340      .360      .380      .400      .420      .440      .460      .480
      .500      .550      .600      .650      .700      .750      .800      .850
      .900      .950     1.000     1.100     1.200     1.300     1.400     1.500
     1.600     1.700     1.800     1.900     2.000     2.200     2.400     2.600
     2.800     3.000     3.200     3.400     3.600     3.800     4.000     4.200
     4.400     4.600     4.800     5.000     5.500     6.000      .000      .000
      .000      .000      .000      .000      .000      .000      .000      .000
      .000      .000      .000      .000      .000      .000      .000      .000
      .000      .000      .000      .000
Fourier amplitude spectra in in/sec.
  .000E+00  .000E+00  .000E+00  .000E+00  .000E+00  .000E+00  .000E+00  .000E+00
  .000E+00  .000E+00  .000E+00  .000E+00  .000E+00  .000E+00  .000E+00  .000E+00
  .000E+00  .000E+00  .000E+00  .000E+00  .000E+00  .000E+00  .000E+00  .000E+00
  .000E+00  .000E+00  .000E+00  .000E+00  .000E+00  .000E+00  .000E+00  .000E+00
  .000E+00  .000E+00  .000E+00  .000E+00  .000E+00  .000E+00  .000E+00  .000E+00
  .000E+00  .000E+00  .000E+00  .000E+00  .000E+00  .000E+00  .000E+00  .000E+00
  .000E+00  .000E+00  .000E+00  .000E+00  .000E+00  .000E+00  .000E+00  .000E+00
  .000E+00  .000E+00  .000E+00  .000E+00  .000E+00  .000E+00  .000E+00  .000E+00
  .000E+00  .000E+00  .000E+00  .000E+00  .000E+00  .000E+00  .000E+00  .000E+00
  .000E+00  .000E+00  .000E+00  .000E+00  .000E+00  .000E+00  .000E+00  .000E+00
  .000E+00  .000E+00  .000E+00  .000E+00  .000E+00  .000E+00  .000E+00  .000E+00
  .000E+00  .000E+00  .000E+00  .000E+00  .000E+00  .000E+00  .000E+00  .000E+00
  .000E+00  .000E+00  .000E+00  .000E+00
Damping =  .05. Data of Sd,Sv,Sa,Pssv,ttSd,ttSv,ttSa :
  .699E-04  .777E-04  .866E-04  .958E-04  .105E-03  .113E-03  .149E-03  .182E-03
  .253E-03  .312E-03  .378E-03  .501E-03  .624E-03  .811E-03  .994E-03  .118E-02
  .152E-02  .188E-02  .223E-02  .250E-02  .308E-02  .293E-02  .254E-02  .318E-02
  .415E-02  .481E-02  .566E-02  .669E-02  .767E-02  .106E-01  .125E-01  .135E-01
  .123E-01  .983E-02  .828E-02  .982E-02  .102E-01  .896E-02  .999E-02  .106E-01
