Response and Fourier amplitude spectra (78 periods,  .04 -  6.0 sec)   for      
Corrected accelerogram   38695658.CI.RMM.--.HN      Chan  1:  90 Deg     from   
Uncorrected Accelerogram Data             Processed: 09/19/20, CGS  cirmm--s    
Rcrd of Fri Sep 18, 2020 23:38:46.0 PDT               (Avol1 v2.0, 4/18 CSMIP)  
                                        (Origin:  To be determined)             
38695658.CI.RMM.--.HN                Start time:  9/19/20, 06:38:46.0 UTC (GPS) 
Station Id. RMM     34.644N, 116.624W    ObsMMS  s/n  243  (3 Chns of  6 at Sta)
Rodman Mountain                          SCSN   Data: Acceleration              
Chan  1:  90 Deg                                                                
Rcrd of Fri Sep 18, 2020 23:38:46.0 PDT    Fri Sep 18, 2020 23:38:46.0 PDT      
Hypocenter:  To be determined.               ML:  To be determined.             
Instr Period =  .0050 sec,  Damping =  .707,  Sensitivity = 4.99 v/g  (Nominal) 
                        Record Length =301.000 sec.                             
                                     Uncor Max  =   .002 g, at   45.230 sec.    
RMS accel of (uncor) record  =        .   Chn. metadata effective date:         
Accelerogram bandpass filtered with 3 dB pts at   .30 and 23.00 cyc/sec         
                 instrument- and base-line correcte                             
                                                                                
                                                                                
                                                                                
                                                                                
                                                                                
Rcrd of Fri Sep 18, 2020 23:38:46.0 PDT    Fri Sep 18, 2020 23:38:46.0 PDT      
                                                                                
38695658.CI.RMM.--.HN     Rodman Mountain   Chan  1:  90 Deg                    
                                                                                
38695658.CI.RMM.--.HN     Rodman Mountain   Chan  1:  90 Deg                    
                                                                                
Units for spectra are inches and sec, except Sa is in fraction of g.            
                                                                                
    1  100    1    6    6  100 -999    3    1    0   15  243    050822   41    0
    6   38   46    0  263    9   19 2020   10    3   9035937   39   15   74 -999
35937 -999  100    6 -999 -999 -999 -999 -999 -999 -999 -999 -999 -999 -999 -999
 -999 -999 -999 -99915050    2 -999    0 -999   20 -999 -999    3    1 -99915050
    315050    4   78    1    3    5    0    0 -999    0 -999 -999    6 -999    2
    2    2    4 -999 -999 -999 -999 -999 -999 -999 -999    1 -999 -999 -999  111
    1    1 -999 -999
      .005      .707   359.370      .000     1.000  4993.665      .002    45.230
   200.000     2.384      .477  -999.000    10.000  -999.000     4.000  -999.000
    20.000   -23.344      .000  -999.000  -999.000  -999.000  -999.000     -.003
      .003      .007     2.000    15.000    34.644  -116.624      .004      .004
      .866      .006      .008  1777.000  -999.000  -999.000  -999.000  -999.000
     1.000  -999.000    -8.000  -999.000  -999.000  -999.000  -999.000   120.000
     -.900     2.000     6.800   980.665      .020   301.000    31.831     -.001
  -999.000    23.000  -999.000   301.000      .020      .300  -999.000  -999.000
    45.240     1.821    45.280      .110    45.200     -.008      .000      .300
    23.000      .020      .020      .000      .020      .004  -999.000  -999.000
      .007      .220      .006      .005      .000      .000  -999.000  -999.000
  -999.000  -999.000  -999.000  -999.000  -999.000  -999.000  -999.000  -999.000
  -999.000  -999.000  -999.000  -999.000
      .050
      .040      .042      .044      .046      .048      .050      .055      .060
      .065      .070      .075      .080      .085      .090      .095      .100
      .110      .120      .130      .140      .150      .160      .170      .180
      .190      .200      .220      .240      .260      .280      .300      .320
      .340      .360      .380      .400      .420      .440      .460      .480
      .500      .550      .600      .650      .700      .750      .800      .850
      .900      .950     1.000     1.100     1.200     1.300     1.400     1.500
     1.600     1.700     1.800     1.900     2.000     2.200     2.400     2.600
     2.800     3.000     3.200     3.400     3.600     3.800     4.000     4.200
     4.400     4.600     4.800     5.000     5.500     6.000      .000      .000
      .000      .000      .000      .000      .000      .000      .000      .000
      .000      .000      .000      .000      .000      .000      .000      .000
      .000      .000      .000      .000
Fourier amplitude spectra in in/sec.
  .000E+00  .000E+00  .000E+00  .000E+00  .000E+00  .000E+00  .000E+00  .000E+00
  .000E+00  .000E+00  .000E+00  .000E+00  .000E+00  .000E+00  .000E+00  .000E+00
  .000E+00  .000E+00  .000E+00  .000E+00  .000E+00  .000E+00  .000E+00  .000E+00
  .000E+00  .000E+00  .000E+00  .000E+00  .000E+00  .000E+00  .000E+00  .000E+00
  .000E+00  .000E+00  .000E+00  .000E+00  .000E+00  .000E+00  .000E+00  .000E+00
  .000E+00  .000E+00  .000E+00  .000E+00  .000E+00  .000E+00  .000E+00  .000E+00
  .000E+00  .000E+00  .000E+00  .000E+00  .000E+00  .000E+00  .000E+00  .000E+00
  .000E+00  .000E+00  .000E+00  .000E+00  .000E+00  .000E+00  .000E+00  .000E+00
  .000E+00  .000E+00  .000E+00  .000E+00  .000E+00  .000E+00  .000E+00  .000E+00
  .000E+00  .000E+00  .000E+00  .000E+00  .000E+00  .000E+00  .000E+00  .000E+00
  .000E+00  .000E+00  .000E+00  .000E+00  .000E+00  .000E+00  .000E+00  .000E+00
  .000E+00  .000E+00  .000E+00  .000E+00  .000E+00  .000E+00  .000E+00  .000E+00
  .000E+00  .000E+00  .000E+00  .000E+00
Damping =  .05. Data of Sd,Sv,Sa,Pssv,ttSd,ttSv,ttSa :
  .300E-04  .333E-04  .370E-04  .404E-04  .436E-04  .473E-04  .581E-04  .795E-04
  .903E-04  .115E-03  .154E-03  .210E-03  .234E-03  .254E-03  .274E-03  .332E-03
  .507E-03  .617E-03  .679E-03  .905E-03  .105E-02  .134E-02  .135E-02  .165E-02
  .210E-02  .237E-02  .316E-02  .259E-02  .301E-02  .406E-02  .396E-02  .435E-02
  .580E-02  .653E-02  .663E-02  .713E-02  .686E-02  .607E-02  .537E-02  .523E-02
  .546E-02  .564E-02  .617E-02  .696E-02  .692E-02  .648E-02  .577E-02  .524E-02
  .484E-02  .464E-02  .443E-02  .432E-02  .422E-02  .381E-02  .372E-02  .405E-02
  .446E-02  .433E-02  .427E-02  .439E-02  .421E-02  .385E-02  .390E-02  .369E-02
  .364E-02  .351E-02  .349E-02  .344E-02  .341E-02  .336E-02  .334E-02  .333E-02
  .331E-02  .328E-02  .325E-02  .322E-02  .315E-02  .313E-02  .000E+00  .000E+00
  .000E+00  .000E+00  .000E+00  .000E+00  .000E+00  .000E+00  .000E+00  .000E+00
  .000E+00  .000E+00  .000E+00  .000E+00  .000E+00  .000E+00  .000E+00  .000E+00
  .000E+00  .000E+00  .000E+00  .000E+00
  .121E-02  .133E-02  .148E-02  .171E-02  .186E-02  .209E-02  .286E-02  .372E-02
  .486E-02  .679E-02  .822E-02  .109E-01  .111E-01  .126E-01  .132E-01  .167E-01
  .239E-01  .264E-01  .293E-01  .346E-01  .369E-01  .427E-01  .428E-01  .501E-01
  .635E-01  .706E-01  .886E-01  .668E-01  .745E-01  .892E-01  .795E-01  .826E-01
  .112E+00  .125E+00  .120E+00  .109E+00  .997E-01  .885E-01  .783E-01  .725E-01
  .717E-01  .731E-01  .882E-01  .805E-01  .699E-01  .712E-01  .712E-01  .678E-01
  .639E-01  .624E-01  .605E-01  .583E-01  .583E-01  .563E-01  .565E-01  .553E-01
  .535E-01  .510E-01  .498E-01  .486E-01  .469E-01  .460E-01  .451E-01  .446E-01
  .441E-01  .438E-01  .437E-01  .435E-01  .434E-01  .433E-01  .432E-01  .431E-01
  .431E-01  .430E-01  .429E-01  .429E-01  .429E-01  .428E-01  .000E+00  .000E+00
  .000E+00  .000E+00  .000E+00  .000E+00  .000E+00  .000E+00  .000E+00  .000E+00
  .000E+00  .000E+00  .000E+00  .000E+00  .000E+00  .000E+00  .000E+00  .000E+00
  .000E+00  .000E+00  .000E+00  .000E+00
  .192E-02  .193E-02  .195E-02  .195E-02  .194E-02  .193E-02  .198E-02  .225E-02
  .219E-02  .239E-02  .280E-02  .335E-02  .334E-02  .323E-02  .312E-02  .335E-02
  .436E-02  .434E-02  .413E-02  .471E-02  .477E-02  .541E-02  .481E-02  .524E-02
  .599E-02  .608E-02  .664E-02  .467E-02  .453E-02  .530E-02  .452E-02  .443E-02
  .510E-02  .519E-02  .473E-02  .457E-02  .400E-02  .324E-02  .259E-02  .235E-02
  .223E-02  .192E-02  .175E-02  .170E-02  .145E-02  .118E-02  .933E-03  .749E-03
  .615E-03  .532E-03  .460E-03  .371E-03  .304E-03  .235E-03  .199E-03  .189E-03
  .184E-03  .159E-03  .141E-03  .130E-03  .113E-03  .868E-04  .745E-04  .611E-04
  .526E-04  .448E-04  .397E-04  .353E-04  .318E-04  .287E-04  .262E-04  .241E-04
  .223E-04  .206E-04  .191E-04  .178E-04  .150E-04  .131E-04  .000E+00  .000E+00
  .000E+00  .000E+00  .000E+00  .000E+00  .000E+00  .000E+00  .000E+00  .000E+00
  .000E+00  .000E+00  .000E+00  .000E+00  .000E+00  .000E+00  .000E+00  .000E+00
  .000E+00  .000E+00  .000E+00  .000E+00
  .470E-02  .497E-02  .528E-02  .552E-02  .571E-02  .594E-02  .664E-02  .833E-02
  .873E-02  .103E-01  .129E-01  .165E-01  .173E-01  .177E-01  .181E-01  .209E-01
  .289E-01  .323E-01  .328E-01  .406E-01  .440E-01  .525E-01  .498E-01  .575E-01
  .696E-01  .746E-01  .901E-01  .678E-01  .727E-01  .912E-01  .830E-01  .853E-01
  .107E+00  .114E+00  .110E+00  .112E+00  .103E+00  .866E-01  .734E-01  .685E-01
  .686E-01  .644E-01  .646E-01  .673E-01  .621E-01  .543E-01  .453E-01  .387E-01
  .338E-01  .307E-01  .278E-01  .247E-01  .221E-01  .184E-01  .167E-01  .169E-01
  .175E-01  .160E-01  .149E-01  .145E-01  .132E-01  .110E-01  .102E-01  .893E-02
  .817E-02  .734E-02  .686E-02  .635E-02  .595E-02  .555E-02  .525E-02  .498E-02
  .472E-02  .449E-02  .426E-02  .404E-02  .359E-02  .328E-02  .000E+00  .000E+00
  .000E+00  .000E+00  .000E+00  .000E+00  .000E+00  .000E+00  .000E+00  .000E+00
  .000E+00  .000E+00  .000E+00  .000E+00  .000E+00  .000E+00  .000E+00  .000E+00
  .000E+00  .000E+00  .000E+00  .000E+00
  .452E+02  .452E+02  .452E+02  .452E+02  .452E+02  .452E+02  .459E+02  .459E+02
  .452E+02  .466E+02  .464E+02  .464E+02  .459E+02  .459E+02  .459E+02  .459E+02
  .453E+02  .453E+02  .468E+02  .464E+02  .465E+02  .465E+02  .465E+02  .465E+02
  .465E+02  .466E+02  .466E+02  .479E+02  .486E+02  .466E+02  .470E+02  .470E+02
  .470E+02  .469E+02  .464E+02  .455E+02  .455E+02  .455E+02  .455E+02  .455E+02
  .458E+02  .456E+02  .456E+02  .463E+02  .463E+02  .461E+02  .454E+02  .478E+02
  .454E+02  .454E+02  .454E+02  .454E+02  .454E+02  .454E+02  .452E+02  .452E+02
  .452E+02  .452E+02  .452E+02  .452E+02  .452E+02  .452E+02  .452E+02  .452E+02
  .452E+02  .452E+02  .452E+02  .452E+02  .452E+02  .452E+02  .452E+02  .452E+02
  .452E+02  .452E+02  .452E+02  .452E+02  .452E+02  .452E+02  .000E+00  .000E+00
  .000E+00  .000E+00  .000E+00  .000E+00  .000E+00  .000E+00  .000E+00  .000E+00
  .000E+00  .000E+00  .000E+00  .000E+00  .000E+00  .000E+00  .000E+00  .000E+00
  .000E+00  .000E+00  .000E+00  .000E+00
  .464E+02  .464E+02  .464E+02  .464E+02  .464E+02  .458E+02  .459E+02  .461E+02
  .461E+02  .470E+02  .464E+02  .466E+02  .459E+02  .460E+02  .460E+02  .461E+02
  .453E+02  .455E+02  .469E+02  .469E+02  .484E+02  .465E+02  .465E+02  .465E+02
  .465E+02  .465E+02  .467E+02  .481E+02  .480E+02  .467E+02  .470E+02  .471E+02
  .469E+02  .466E+02  .465E+02  .464E+02  .454E+02  .454E+02  .459E+02  .459E+02
  .454E+02  .454E+02  .464E+02  .464E+02  .469E+02  .453E+02  .453E+02  .453E+02
  .453E+02  .453E+02  .453E+02  .453E+02  .453E+02  .453E+02  .453E+02  .453E+02
  .453E+02  .453E+02  .453E+02  .453E+02  .453E+02  .453E+02  .453E+02  .453E+02
  .453E+02  .453E+02  .453E+02  .453E+02  .453E+02  .453E+02  .453E+02  .453E+02
  .453E+02  .453E+02  .453E+02  .453E+02  .453E+02  .453E+02  .000E+00  .000E+00
  .000E+00  .000E+00  .000E+00  .000E+00  .000E+00  .000E+00  .000E+00  .000E+00
  .000E+00  .000E+00  .000E+00  .000E+00  .000E+00  .000E+00  .000E+00  .000E+00
  .000E+00  .000E+00  .000E+00  .000E+00
  .452E+02  .452E+02  .452E+02  .452E+02  .452E+02  .452E+02  .459E+02  .459E+02
  .452E+02  .466E+02  .464E+02  .464E+02  .459E+02  .459E+02  .463E+02  .459E+02
  .453E+02  .453E+02  .468E+02  .464E+02  .464E+02  .465E+02  .465E+02  .465E+02
  .465E+02  .466E+02  .466E+02  .479E+02  .480E+02  .466E+02  .470E+02  .470E+02
  .470E+02  .469E+02  .464E+02  .455E+02  .455E+02  .455E+02  .455E+02  .458E+02
  .458E+02  .455E+02  .456E+02  .463E+02  .463E+02  .461E+02  .454E+02  .477E+02
  .454E+02  .454E+02  .454E+02  .454E+02  .454E+02  .454E+02  .451E+02  .451E+02
  .451E+02  .451E+02  .451E+02  .451E+02  .451E+02  .451E+02  .451E+02  .451E+02
  .451E+02  .451E+02  .451E+02  .451E+02  .451E+02  .451E+02  .451E+02  .451E+02
  .451E+02  .451E+02  .451E+02  .451E+02  .451E+02  .451E+02  .000E+00  .000E+00
  .000E+00  .000E+00  .000E+00  .000E+00  .000E+00  .000E+00  .000E+00  .000E+00
  .000E+00  .000E+00  .000E+00  .000E+00  .000E+00  .000E+00  .000E+00  .000E+00
  .000E+00  .000E+00  .000E+00  .000E+00
/&   ----------  End of spectral data for channel  1  ----------
Response and Fourier amplitude spectra (78 periods,  .04 -  6.0 sec)   for      
Corrected accelerogram   38695658.CI.RMM.--.HN      Chan  2: 360 Deg     from   
Uncorrected Accelerogram Data             Processed: 09/19/20, CGS  cirmm--s    
Rcrd of Fri Sep 18, 2020 23:38:46.0 PDT               (Avol1 v2.0, 4/18 CSMIP)  
                                        (Origin:  To be determined)             
38695658.CI.RMM.--.HN                Start time:  9/19/20, 06:38:46.0 UTC (GPS) 
Station Id. RMM     34.644N, 116.624W    ObsMMS  s/n  243  (3 Chns of  6 at Sta)
Rodman Mountain                          SCSN   Data: Acceleration              
Chan  2: 360 Deg                                                                
Rcrd of Fri Sep 18, 2020 23:38:46.0 PDT    Fri Sep 18, 2020 23:38:46.0 PDT      
Hypocenter:  To be determined.               ML:  To be determined.             
Instr Period =  .0050 sec,  Damping =  .707,  Sensitivity = 4.98 v/g  (Nominal) 
                        Record Length =301.000 sec.                             
                                     Uncor Max  =   .002 g, at   46.310 sec.    
RMS accel of (uncor) record  =        .   Chn. metadata effective date:         
Accelerogram bandpass filtered with 3 dB pts at   .30 and 23.00 cyc/sec         
                 instrument- and base-line correcte                             
                                                                                
                                                                                
                                                                                
                                                                                
                                                                                
Rcrd of Fri Sep 18, 2020 23:38:46.0 PDT    Fri Sep 18, 2020 23:38:46.0 PDT      
                                                                                
38695658.CI.RMM.--.HN     Rodman Mountain   Chan  2: 360 Deg                    
                                                                                
38695658.CI.RMM.--.HN     Rodman Mountain   Chan  2: 360 Deg                    
                                                                                
Units for spectra are inches and sec, except Sa is in fraction of g.            
                                                                                
    2  100    2    6    6  100 -999    3    1    0   15  243    050822   41    0
    6   38   46   10  263    9   19 2020   10    3  36036053   39   15   74 -999
36053 -999  100    6 -999 -999 -999 -999 -999 -999 -999 -999 -999 -999 -999 -999
 -999 -999 -999 -99915050    2 -999    0 -999   20 -999 -999    3    1 -99915050
    315050    4   78    1    3    5    0    0 -999    0 -999 -999    6 -999    2
    2    2    4 -999 -999 -999 -999 -999 -999 -999 -999    1 -999 -999 -999  111
    1    1 -999 -999
      .005      .707   360.530      .000     1.000  4984.091      .002    46.310
   200.000     2.384      .478  -999.000    10.000  -999.000     4.000  -999.000
    20.000     9.387      .000  -999.000  -999.000  -999.000  -999.000      .002
     -.002     -.004     2.000    15.000    34.644  -116.624      .004      .003
      .863     -.005     -.004  1777.000  -999.000  -999.000  -999.000  -999.000
     1.000  -999.000  -999.000  -999.000  -999.000  -999.000  -999.000   120.000
     -.900     2.000     6.800   980.665      .020   301.000    31.831      .000
  -999.000    23.000  -999.000   301.000      .020      .300  -999.000  -999.000
    46.080     2.375    46.380      .110    46.300     -.007      .000      .300
    23.000      .020      .020      .000      .020      .006  -999.000  -999.000
      .013      .220      .009      .009      .001      .000  -999.000  -999.000
  -999.000  -999.000  -999.000  -999.000  -999.000  -999.000  -999.000  -999.000
  -999.000  -999.000  -999.000  -999.000
      .050
      .040      .042      .044      .046      .048      .050      .055      .060
      .065      .070      .075      .080      .085      .090      .095      .100
      .110      .120      .130      .140      .150      .160      .170      .180
      .190      .200      .220      .240      .260      .280      .300      .320
      .340      .360      .380      .400      .420      .440      .460      .480
      .500      .550      .600      .650      .700      .750      .800      .850
      .900      .950     1.000     1.100     1.200     1.300     1.400     1.500
     1.600     1.700     1.800     1.900     2.000     2.200     2.400     2.600
     2.800     3.000     3.200     3.400     3.600     3.800     4.000     4.200
     4.400     4.600     4.800     5.000     5.500     6.000      .000      .000
      .000      .000      .000      .000      .000      .000      .000      .000
      .000      .000      .000      .000      .000      .000      .000      .000
      .000      .000      .000      .000
Fourier amplitude spectra in in/sec.
  .000E+00  .000E+00  .000E+00  .000E+00  .000E+00  .000E+00  .000E+00  .000E+00
  .000E+00  .000E+00  .000E+00  .000E+00  .000E+00  .000E+00  .000E+00  .000E+00
  .000E+00  .000E+00  .000E+00  .000E+00  .000E+00  .000E+00  .000E+00  .000E+00
  .000E+00  .000E+00  .000E+00  .000E+00  .000E+00  .000E+00  .000E+00  .000E+00
  .000E+00  .000E+00  .000E+00  .000E+00  .000E+00  .000E+00  .000E+00  .000E+00
  .000E+00  .000E+00  .000E+00  .000E+00  .000E+00  .000E+00  .000E+00  .000E+00
  .000E+00  .000E+00  .000E+00  .000E+00  .000E+00  .000E+00  .000E+00  .000E+00
  .000E+00  .000E+00  .000E+00  .000E+00  .000E+00  .000E+00  .000E+00  .000E+00
  .000E+00  .000E+00  .000E+00  .000E+00  .000E+00  .000E+00  .000E+00  .000E+00
  .000E+00  .000E+00  .000E+00  .000E+00  .000E+00  .000E+00  .000E+00  .000E+00
  .000E+00  .000E+00  .000E+00  .000E+00  .000E+00  .000E+00  .000E+00  .000E+00
  .000E+00  .000E+00  .000E+00  .000E+00  .000E+00  .000E+00  .000E+00  .000E+00
  .000E+00  .000E+00  .000E+00  .000E+00
Damping =  .05. Data of Sd,Sv,Sa,Pssv,ttSd,ttSv,ttSa :
  .386E-04  .426E-04  .474E-04  .520E-04  .568E-04  .626E-04  .829E-04  .963E-04
  .120E-03  .142E-03  .179E-03  .203E-03  .260E-03  .290E-03  .323E-03  .426E-03
  .548E-03  .631E-03  .755E-03  .930E-03  .103E-02  .126E-02  .151E-02  .188E-02
  .229E-02  .306E-02  .623E-02  .553E-02  .581E-02  .772E-02  .714E-02  .834E-02
  .707E-02  .668E-02  .618E-02  .575E-02  .633E-02  .612E-02  .687E-02  .763E-02
