Response and Fourier amplitude spectra (78 periods,  .04 -  6.0 sec)   for      
Corrected accelerogram   38695658.CI.RPV.--.HN      Chan  1:  90 Deg     from   
Uncorrected Accelerogram Data             Processed: 09/19/20, CGS  cirpv--q    
Rcrd of Fri Sep 18, 2020 23:38:29.0 PDT               (Avol1 v2.0, 4/18 CSMIP)  
                                        (Origin:  To be determined)             
38695658.CI.RPV.--.HN                Start time:  9/19/20, 06:38:29.0 UTC (GPS) 
Station Id. RPV     33.743N, 118.404W    ObsMMS  s/n 3567  (3 Chns of  6 at Sta)
Rancho Palos Verdes, Point Viscente Park SCSN   Data: Acceleration              
Chan  1:  90 Deg                                                                
Rcrd of Fri Sep 18, 2020 23:38:29.0 PDT    Fri Sep 18, 2020 23:38:29.0 PDT      
Hypocenter:  To be determined.               ML:  To be determined.             
Instr Period =  .0050 sec,  Damping =  .707,  Sensitivity = 4.99 v/g  (Nominal) 
                        Record Length =301.000 sec.                             
                                     Uncor Max  =  -.008 g, at   35.690 sec.    
RMS accel of (uncor) record  =        .   Chn. metadata effective date:         
Accelerogram bandpass filtered with 3 dB pts at   .30 and 23.00 cyc/sec         
                 instrument- and base-line correcte                             
                                                                                
                                                                                
                                                                                
                                                                                
                                                                                
Rcrd of Fri Sep 18, 2020 23:38:29.0 PDT    Fri Sep 18, 2020 23:38:29.0 PDT      
                                                                                
38695658.CI.RPV.--.HN     Rancho Palos Verdes, Point Viscente Park SCSChan  1:  
90 Deg                                                                          
38695658.CI.RPV.--.HN     Rancho Palos Verdes, Point Viscente Park SCSChan  1:  
90 Deg                                                                          
Units for spectra are inches and sec, except Sa is in fraction of g.            
                                                                                
    1  100    1    6    6  100 -999    3    1    0   15 3567    050562   41    0
    6   38   29    8  263    9   19 2020   10    3   9035958   39   40   74 -999
35958 -999  100    6 -999 -999 -999 -999 -999 -999 -999 -999 -999 -999 -999 -999
 -999 -999 -999 -99915050    2 -999    0 -999   20 -999 -999    3    1 -99915050
    315050    4   78    1    3    5    0    0 -999    0 -999 -999    6 -999    2
    2    2    4 -999 -999 -999 -999 -999 -999 -999 -999    1 -999 -999 -999  111
    1    1 -999 -999
      .005      .707   359.580      .000     1.000  4988.878     -.008    35.690
   200.000     2.384      .478  -999.000    10.000  -999.000     4.000  -999.000
    20.000    -8.480      .000  -999.000  -999.000  -999.000  -999.000      .000
      .000      .000     2.000    15.000    33.743  -118.404      .003      .002
      .555     -.001      .000   107.000  -999.000  -999.000  -999.000  -999.000
     1.000  -999.000    -8.000  -999.000  -999.000  -999.000  -999.000   120.000
     -.900     2.000     6.800   980.665      .020   301.000    31.831      .000
  -999.000    23.000  -999.000   301.000      .020      .300  -999.000  -999.000
    35.680    -7.272    35.740     -.217    40.400     -.013      .000      .300
    23.000      .020      .020      .000      .020      .013  -999.000  -999.000
      .034      .160      .027      .013      .001      .000  -999.000  -999.000
  -999.000  -999.000  -999.000  -999.000  -999.000  -999.000  -999.000  -999.000
  -999.000  -999.000  -999.000  -999.000
      .050
      .040      .042      .044      .046      .048      .050      .055      .060
      .065      .070      .075      .080      .085      .090      .095      .100
      .110      .120      .130      .140      .150      .160      .170      .180
      .190      .200      .220      .240      .260      .280      .300      .320
      .340      .360      .380      .400      .420      .440      .460      .480
      .500      .550      .600      .650      .700      .750      .800      .850
      .900      .950     1.000     1.100     1.200     1.300     1.400     1.500
     1.600     1.700     1.800     1.900     2.000     2.200     2.400     2.600
     2.800     3.000     3.200     3.400     3.600     3.800     4.000     4.200
     4.400     4.600     4.800     5.000     5.500     6.000      .000      .000
      .000      .000      .000      .000      .000      .000      .000      .000
      .000      .000      .000      .000      .000      .000      .000      .000
      .000      .000      .000      .000
Fourier amplitude spectra in in/sec.
  .000E+00  .000E+00  .000E+00  .000E+00  .000E+00  .000E+00  .000E+00  .000E+00
  .000E+00  .000E+00  .000E+00  .000E+00  .000E+00  .000E+00  .000E+00  .000E+00
  .000E+00  .000E+00  .000E+00  .000E+00  .000E+00  .000E+00  .000E+00  .000E+00
  .000E+00  .000E+00  .000E+00  .000E+00  .000E+00  .000E+00  .000E+00  .000E+00
  .000E+00  .000E+00  .000E+00  .000E+00  .000E+00  .000E+00  .000E+00  .000E+00
  .000E+00  .000E+00  .000E+00  .000E+00  .000E+00  .000E+00  .000E+00  .000E+00
  .000E+00  .000E+00  .000E+00  .000E+00  .000E+00  .000E+00  .000E+00  .000E+00
  .000E+00  .000E+00  .000E+00  .000E+00  .000E+00  .000E+00  .000E+00  .000E+00
  .000E+00  .000E+00  .000E+00  .000E+00  .000E+00  .000E+00  .000E+00  .000E+00
  .000E+00  .000E+00  .000E+00  .000E+00  .000E+00  .000E+00  .000E+00  .000E+00
  .000E+00  .000E+00  .000E+00  .000E+00  .000E+00  .000E+00  .000E+00  .000E+00
  .000E+00  .000E+00  .000E+00  .000E+00  .000E+00  .000E+00  .000E+00  .000E+00
  .000E+00  .000E+00  .000E+00  .000E+00
Damping =  .05. Data of Sd,Sv,Sa,Pssv,ttSd,ttSv,ttSa :
  .126E-03  .139E-03  .151E-03  .166E-03  .179E-03  .189E-03  .272E-03  .333E-03
  .380E-03  .598E-03  .669E-03  .738E-03  .810E-03  .928E-03  .117E-02  .144E-02
  .194E-02  .244E-02  .286E-02  .444E-02  .682E-02  .863E-02  .907E-02  .993E-02
  .113E-01  .110E-01  .938E-02  .109E-01  .113E-01  .981E-02  .125E-01  .123E-01
  .108E-01  .125E-01  .118E-01  .127E-01  .111E-01  .962E-02  .114E-01  .130E-01
  .140E-01  .173E-01  .141E-01  .139E-01  .114E-01  .100E-01  .118E-01  .120E-01
  .977E-02  .821E-02  .796E-02  .889E-02  .125E-01  .146E-01  .121E-01  .889E-02
  .826E-02  .999E-02  .955E-02  .970E-02  .108E-01  .108E-01  .888E-02  .919E-02
  .982E-02  .104E-01  .985E-02  .821E-02  .711E-02  .695E-02  .726E-02  .753E-02
  .755E-02  .737E-02  .709E-02  .678E-02  .611E-02  .573E-02  .000E+00  .000E+00
  .000E+00  .000E+00  .000E+00  .000E+00  .000E+00  .000E+00  .000E+00  .000E+00
  .000E+00  .000E+00  .000E+00  .000E+00  .000E+00  .000E+00  .000E+00  .000E+00
  .000E+00  .000E+00  .000E+00  .000E+00
  .535E-02  .609E-02  .707E-02  .798E-02  .942E-02  .111E-01  .154E-01  .222E-01
  .289E-01  .312E-01  .402E-01  .360E-01  .409E-01  .456E-01  .575E-01  .637E-01
  .952E-01  .119E+00  .119E+00  .177E+00  .269E+00  .333E+00  .336E+00  .343E+00
  .390E+00  .376E+00  .269E+00  .302E+00  .311E+00  .236E+00  .263E+00  .234E+00
  .211E+00  .242E+00  .248E+00  .214E+00  .209E+00  .204E+00  .189E+00  .167E+00
  .179E+00  .218E+00  .183E+00  .183E+00  .136E+00  .128E+00  .127E+00  .125E+00
  .103E+00  .100E+00  .951E-01  .108E+00  .999E-01  .883E-01  .876E-01  .891E-01
  .879E-01  .839E-01  .834E-01  .841E-01  .835E-01  .914E-01  .947E-01  .932E-01
  .902E-01  .867E-01  .839E-01  .823E-01  .821E-01  .825E-01  .831E-01  .837E-01
  .841E-01  .843E-01  .844E-01  .845E-01  .844E-01  .843E-01  .000E+00  .000E+00
  .000E+00  .000E+00  .000E+00  .000E+00  .000E+00  .000E+00  .000E+00  .000E+00
  .000E+00  .000E+00  .000E+00  .000E+00  .000E+00  .000E+00  .000E+00  .000E+00
  .000E+00  .000E+00  .000E+00  .000E+00
  .809E-02  .804E-02  .796E-02  .800E-02  .794E-02  .777E-02  .921E-02  .949E-02
  .921E-02  .125E-01  .122E-01  .118E-01  .116E-01  .117E-01  .133E-01  .147E-01
  .164E-01  .177E-01  .174E-01  .231E-01  .313E-01  .344E-01  .322E-01  .314E-01
  .327E-01  .290E-01  .196E-01  .194E-01  .172E-01  .128E-01  .145E-01  .123E-01
  .975E-02  .988E-02  .837E-02  .808E-02  .660E-02  .511E-02  .553E-02  .580E-02
  .575E-02  .592E-02  .404E-02  .342E-02  .243E-02  .187E-02  .190E-02  .171E-02
  .125E-02  .939E-03  .832E-03  .759E-03  .898E-03  .889E-03  .637E-03  .413E-03
  .332E-03  .356E-03  .305E-03  .282E-03  .282E-03  .233E-03  .161E-03  .142E-03
  .132E-03  .130E-03  .111E-03  .852E-04  .685E-04  .614E-04  .583E-04  .553E-04
  .513E-04  .468E-04  .425E-04  .385E-04  .310E-04  .263E-04  .000E+00  .000E+00
  .000E+00  .000E+00  .000E+00  .000E+00  .000E+00  .000E+00  .000E+00  .000E+00
  .000E+00  .000E+00  .000E+00  .000E+00  .000E+00  .000E+00  .000E+00  .000E+00
  .000E+00  .000E+00  .000E+00  .000E+00
  .198E-01  .208E-01  .215E-01  .226E-01  .234E-01  .237E-01  .311E-01  .349E-01
  .367E-01  .536E-01  .561E-01  .580E-01  .599E-01  .648E-01  .773E-01  .902E-01
  .111E+00  .128E+00  .138E+00  .199E+00  .286E+00  .339E+00  .335E+00  .347E+00
  .375E+00  .347E+00  .268E+00  .286E+00  .272E+00  .220E+00  .263E+00  .242E+00
  .200E+00  .219E+00  .195E+00  .199E+00  .165E+00  .137E+00  .155E+00  .170E+00
  .177E+00  .198E+00  .147E+00  .134E+00  .103E+00  .841E-01  .924E-01  .884E-01
  .682E-01  .543E-01  .500E-01  .508E-01  .655E-01  .704E-01  .542E-01  .372E-01
  .324E-01  .369E-01  .333E-01  .321E-01  .339E-01  .307E-01  .233E-01  .222E-01
  .220E-01  .217E-01  .193E-01  .152E-01  .124E-01  .115E-01  .114E-01  .113E-01
  .108E-01  .101E-01  .929E-02  .852E-02  .698E-02  .600E-02  .000E+00  .000E+00
  .000E+00  .000E+00  .000E+00  .000E+00  .000E+00  .000E+00  .000E+00  .000E+00
  .000E+00  .000E+00  .000E+00  .000E+00  .000E+00  .000E+00  .000E+00  .000E+00
  .000E+00  .000E+00  .000E+00  .000E+00
  .357E+02  .357E+02  .357E+02  .357E+02  .357E+02  .349E+02  .357E+02  .357E+02
  .357E+02  .357E+02  .357E+02  .357E+02  .351E+02  .351E+02  .349E+02  .349E+02
  .357E+02  .364E+02  .349E+02  .350E+02  .351E+02  .345E+02  .358E+02  .353E+02
  .353E+02  .351E+02  .345E+02  .344E+02  .351E+02  .409E+02  .404E+02  .404E+02
  .336E+02  .342E+02  .342E+02  .349E+02  .349E+02  .348E+02  .412E+02  .410E+02
  .410E+02  .408E+02  .404E+02  .404E+02  .402E+02  .402E+02  .402E+02  .396E+02
  .396E+02  .446E+02  .327E+02  .459E+02  .459E+02  .460E+02  .456E+02  .410E+02
  .472E+02  .472E+02  .473E+02  .457E+02  .457E+02  .411E+02  .411E+02  .411E+02
  .469E+02  .404E+02  .404E+02  .404E+02  .404E+02  .404E+02  .404E+02  .404E+02
  .404E+02  .404E+02  .404E+02  .404E+02  .404E+02  .404E+02  .000E+00  .000E+00
  .000E+00  .000E+00  .000E+00  .000E+00  .000E+00  .000E+00  .000E+00  .000E+00
  .000E+00  .000E+00  .000E+00  .000E+00  .000E+00  .000E+00  .000E+00  .000E+00
  .000E+00  .000E+00  .000E+00  .000E+00
  .344E+02  .344E+02  .344E+02  .344E+02  .345E+02  .345E+02  .302E+02  .302E+02
  .302E+02  .299E+02  .302E+02  .302E+02  .351E+02  .351E+02  .362E+02  .362E+02
  .357E+02  .364E+02  .350E+02  .351E+02  .351E+02  .345E+02  .345E+02  .358E+02
  .353E+02  .351E+02  .345E+02  .343E+02  .350E+02  .343E+02  .405E+02  .405E+02
  .337E+02  .343E+02  .349E+02  .350E+02  .348E+02  .349E+02  .349E+02  .411E+02
  .409E+02  .410E+02  .402E+02  .402E+02  .334E+02  .334E+02  .401E+02  .401E+02
  .328E+02  .333E+02  .333E+02  .357E+02  .357E+02  .357E+02  .357E+02  .357E+02
  .357E+02  .357E+02  .349E+02  .349E+02  .357E+02  .357E+02  .357E+02  .357E+02
  .357E+02  .357E+02  .357E+02  .357E+02  .357E+02  .357E+02  .357E+02  .357E+02
  .357E+02  .357E+02  .357E+02  .357E+02  .357E+02  .357E+02  .000E+00  .000E+00
  .000E+00  .000E+00  .000E+00  .000E+00  .000E+00  .000E+00  .000E+00  .000E+00
  .000E+00  .000E+00  .000E+00  .000E+00  .000E+00  .000E+00  .000E+00  .000E+00
  .000E+00  .000E+00  .000E+00  .000E+00
  .357E+02  .357E+02  .357E+02  .357E+02  .357E+02  .349E+02  .357E+02  .357E+02
  .357E+02  .357E+02  .357E+02  .357E+02  .351E+02  .351E+02  .349E+02  .349E+02
  .357E+02  .364E+02  .349E+02  .350E+02  .351E+02  .345E+02  .358E+02  .353E+02
  .353E+02  .351E+02  .345E+02  .344E+02  .351E+02  .409E+02  .404E+02  .404E+02
  .336E+02  .342E+02  .342E+02  .349E+02  .349E+02  .405E+02  .412E+02  .410E+02
  .410E+02  .408E+02  .403E+02  .404E+02  .402E+02  .402E+02  .402E+02  .396E+02
  .396E+02  .445E+02  .327E+02  .459E+02  .459E+02  .460E+02  .456E+02  .410E+02
  .472E+02  .472E+02  .472E+02  .393E+02  .456E+02  .410E+02  .411E+02  .411E+02
  .456E+02  .403E+02  .403E+02  .403E+02  .403E+02  .403E+02  .403E+02  .403E+02
  .403E+02  .403E+02  .403E+02  .403E+02  .403E+02  .403E+02  .000E+00  .000E+00
  .000E+00  .000E+00  .000E+00  .000E+00  .000E+00  .000E+00  .000E+00  .000E+00
  .000E+00  .000E+00  .000E+00  .000E+00  .000E+00  .000E+00  .000E+00  .000E+00
  .000E+00  .000E+00  .000E+00  .000E+00
/&   ----------  End of spectral data for channel  1  ----------
Response and Fourier amplitude spectra (78 periods,  .04 -  6.0 sec)   for      
Corrected accelerogram   38695658.CI.RPV.--.HN      Chan  2: 360 Deg     from   
Uncorrected Accelerogram Data             Processed: 09/19/20, CGS  cirpv--q    
Rcrd of Fri Sep 18, 2020 23:38:29.0 PDT               (Avol1 v2.0, 4/18 CSMIP)  
                                        (Origin:  To be determined)             
38695658.CI.RPV.--.HN                Start time:  9/19/20, 06:38:29.0 UTC (GPS) 
Station Id. RPV     33.743N, 118.404W    ObsMMS  s/n 3567  (3 Chns of  6 at Sta)
Rancho Palos Verdes, Point Viscente Park SCSN   Data: Acceleration              
Chan  2: 360 Deg                                                                
Rcrd of Fri Sep 18, 2020 23:38:29.0 PDT    Fri Sep 18, 2020 23:38:29.0 PDT      
Hypocenter:  To be determined.               ML:  To be determined.             
Instr Period =  .0050 sec,  Damping =  .707,  Sensitivity = 5.00 v/g  (Nominal) 
                        Record Length =301.000 sec.                             
                                     Uncor Max  =  -.007 g, at   33.640 sec.    
RMS accel of (uncor) record  =        .   Chn. metadata effective date:         
Accelerogram bandpass filtered with 3 dB pts at   .30 and 23.00 cyc/sec         
                 instrument- and base-line correcte                             
                                                                                
                                                                                
                                                                                
                                                                                
                                                                                
Rcrd of Fri Sep 18, 2020 23:38:29.0 PDT    Fri Sep 18, 2020 23:38:29.0 PDT      
                                                                                
38695658.CI.RPV.--.HN     Rancho Palos Verdes, Point Viscente Park SCSChan  2: 3
60 Deg                                                                          
38695658.CI.RPV.--.HN     Rancho Palos Verdes, Point Viscente Park SCSChan  2: 3
60 Deg                                                                          
Units for spectra are inches and sec, except Sa is in fraction of g.            
                                                                                
    2  100    2    6    6  100 -999    3    1    0   15 3567    050562   41    0
    6   38   29    8  263    9   19 2020   10    3  36035786   39   40   74 -999
35786 -999  100    6 -999 -999 -999 -999 -999 -999 -999 -999 -999 -999 -999 -999
 -999 -999 -999 -99915050    2 -999    0 -999   20 -999 -999    3    1 -99915050
    315050    4   78    1    3    5    0    0 -999    0 -999 -999    6 -999    2
    2    2    4 -999 -999 -999 -999 -999 -999 -999 -999    1 -999 -999 -999  111
    1    1 -999 -999
      .005      .707   357.860      .000     1.000  4997.654     -.007    33.640
   200.000     2.384      .477  -999.000    10.000  -999.000     4.000  -999.000
    20.000   -13.680      .000  -999.000  -999.000  -999.000  -999.000      .000
      .000      .000     2.000    15.000    33.743  -118.404      .002      .001
      .546      .000      .001   107.000  -999.000  -999.000  -999.000  -999.000
     1.000  -999.000  -999.000  -999.000  -999.000  -999.000  -999.000   120.000
     -.900     2.000     6.800   980.665      .020   301.000    31.831      .000
  -999.000    23.000  -999.000   301.000      .020      .300  -999.000  -999.000
    33.640    -6.679    35.340      .225    34.320      .010      .000      .300
    23.000      .020      .020      .000      .020      .011  -999.000  -999.000
      .032      .180      .026      .010      .001      .000  -999.000  -999.000
  -999.000  -999.000  -999.000  -999.000  -999.000  -999.000  -999.000  -999.000
  -999.000  -999.000  -999.000  -999.000
      .050
      .040      .042      .044      .046      .048      .050      .055      .060
      .065      .070      .075      .080      .085      .090      .095      .100
      .110      .120      .130      .140      .150      .160      .170      .180
      .190      .200      .220      .240      .260      .280      .300      .320
      .340      .360      .380      .400      .420      .440      .460      .480
      .500      .550      .600      .650      .700      .750      .800      .850
      .900      .950     1.000     1.100     1.200     1.300     1.400     1.500
     1.600     1.700     1.800     1.900     2.000     2.200     2.400     2.600
     2.800     3.000     3.200     3.400     3.600     3.800     4.000     4.200
     4.400     4.600     4.800     5.000     5.500     6.000      .000      .000
      .000      .000      .000      .000      .000      .000      .000      .000
      .000      .000      .000      .000      .000      .000      .000      .000
      .000      .000      .000      .000
Fourier amplitude spectra in in/sec.
  .000E+00  .000E+00  .000E+00  .000E+00  .000E+00  .000E+00  .000E+00  .000E+00
  .000E+00  .000E+00  .000E+00  .000E+00  .000E+00  .000E+00  .000E+00  .000E+00
  .000E+00  .000E+00  .000E+00  .000E+00  .000E+00  .000E+00  .000E+00  .000E+00
  .000E+00  .000E+00  .000E+00  .000E+00  .000E+00  .000E+00  .000E+00  .000E+00
  .000E+00  .000E+00  .000E+00  .000E+00  .000E+00  .000E+00  .000E+00  .000E+00
  .000E+00  .000E+00  .000E+00  .000E+00  .000E+00  .000E+00  .000E+00  .000E+00
  .000E+00  .000E+00  .000E+00  .000E+00  .000E+00  .000E+00  .000E+00  .000E+00
  .000E+00  .000E+00  .000E+00  .000E+00  .000E+00  .000E+00  .000E+00  .000E+00
  .000E+00  .000E+00  .000E+00  .000E+00  .000E+00  .000E+00  .000E+00  .000E+00
  .000E+00  .000E+00  .000E+00  .000E+00  .000E+00  .000E+00  .000E+00  .000E+00
  .000E+00  .000E+00  .000E+00  .000E+00  .000E+00  .000E+00  .000E+00  .000E+00
  .000E+00  .000E+00  .000E+00  .000E+00  .000E+00  .000E+00  .000E+00  .000E+00
  .000E+00  .000E+00  .000E+00  .000E+00
Damping =  .05. Data of Sd,Sv,Sa,Pssv,ttSd,ttSv,ttSa :
  .110E-03  .123E-03  .137E-03  .152E-03  .167E-03  .182E-03  .224E-03  .304E-03
  .362E-03  .452E-03  .585E-03  .648E-03  .738E-03  .969E-03  .114E-02  .133E-02
  .151E-02  .241E-02  .283E-02  .363E-02  .484E-02  .706E-02  .726E-02  .101E-01
  .987E-02  .103E-01  .114E-01  .900E-02  .905E-02  .932E-02  .891E-02  .759E-02
  .911E-02  .103E-01  .103E-01  .756E-02  .736E-02  .704E-02  .701E-02  .780E-02
