Response and Fourier amplitude spectra (78 periods,  .04 -  6.0 sec)   for      
Corrected accelerogram   38695658.CI.RRX.--.HN      Chan  1:  90 Deg     from   
Uncorrected Accelerogram Data             Processed: 09/19/20, CGS  cirrx--i    
Rcrd of Fri Sep 18, 2020 23:38:44.0 PDT               (Avol1 v2.0, 4/18 CSMIP)  
                                        (Origin:  To be determined)             
38695658.CI.RRX.--.HN                Start time:  9/19/20, 06:38:44.0 UTC (GPS) 
Station Id. RRX     34.875N, 116.997W    ObsMMS  s/n 4321  (3 Chns of  3 at Sta)
Barstow, Main St.                        SCSN   Data: Acceleration              
Chan  1:  90 Deg                                                                
Rcrd of Fri Sep 18, 2020 23:38:44.0 PDT    Fri Sep 18, 2020 23:38:44.0 PDT      
Hypocenter:  To be determined.               ML:  To be determined.             
Instr Period =  .0050 sec,  Damping =  .707,  Sensitivity = 4.99 v/g  (Nominal) 
                        Record Length =301.000 sec.                             
                                     Uncor Max  =   .002 g, at   43.090 sec.    
RMS accel of (uncor) record  =        .   Chn. metadata effective date:         
Accelerogram bandpass filtered with 3 dB pts at   .30 and 23.00 cyc/sec         
                 instrument- and base-line correcte                             
                                                                                
                                                                                
                                                                                
                                                                                
                                                                                
Rcrd of Fri Sep 18, 2020 23:38:44.0 PDT    Fri Sep 18, 2020 23:38:44.0 PDT      
                                                                                
38695658.CI.RRX.--.HN     Barstow, Main St.   Chan  1:  90 Deg                  
                                                                                
38695658.CI.RRX.--.HN     Barstow, Main St.   Chan  1:  90 Deg                  
                                                                                
Units for spectra are inches and sec, except Sa is in fraction of g.            
                                                                                
    1  100    1    3    3  100 -999    3    1    0   15 4321    050641   41    0
    6   38   44    8  263    9   19 2020   10    3   9035759   39   17   74 -999
35759 -999  100    6 -999 -999 -999 -999 -999 -999 -999 -999 -999 -999 -999 -999
 -999 -999 -999 -99915050    2 -999    0 -999   20 -999 -999    3    1 -99915050
    315050    4   78    1    3    5    0    0 -999    0 -999 -999    6 -999    2
    2    2    4 -999 -999 -999 -999 -999 -999 -999 -999    1 -999 -999 -999  111
    1    1 -999 -999
      .005      .707   357.590      .000     1.000  4994.462      .002    43.090
   200.000     2.384      .477  -999.000    10.000  -999.000     4.000  -999.000
    20.000    -9.600      .000  -999.000  -999.000  -999.000  -999.000     -.001
      .000      .001     2.000    15.000    34.875  -116.997      .001      .001
      .803      .001      .002   676.200  -999.000  -999.000  -999.000  -999.000
     1.000  -999.000    -8.000  -999.000  -999.000  -999.000  -999.000   120.000
     -.900     2.000     6.800   980.665      .020   301.000    31.831      .000
  -999.000    23.000  -999.000   301.000      .020      .300  -999.000  -999.000
    43.100     2.195    42.660     -.142    42.560      .012      .000      .300
    23.000      .020      .020      .000      .020      .006  -999.000  -999.000
      .010      .340      .006      .009      .001      .000  -999.000  -999.000
  -999.000  -999.000  -999.000  -999.000  -999.000  -999.000  -999.000  -999.000
  -999.000  -999.000  -999.000  -999.000
      .050
      .040      .042      .044      .046      .048      .050      .055      .060
      .065      .070      .075      .080      .085      .090      .095      .100
      .110      .120      .130      .140      .150      .160      .170      .180
      .190      .200      .220      .240      .260      .280      .300      .320
      .340      .360      .380      .400      .420      .440      .460      .480
      .500      .550      .600      .650      .700      .750      .800      .850
      .900      .950     1.000     1.100     1.200     1.300     1.400     1.500
     1.600     1.700     1.800     1.900     2.000     2.200     2.400     2.600
     2.800     3.000     3.200     3.400     3.600     3.800     4.000     4.200
     4.400     4.600     4.800     5.000     5.500     6.000      .000      .000
      .000      .000      .000      .000      .000      .000      .000      .000
      .000      .000      .000      .000      .000      .000      .000      .000
      .000      .000      .000      .000
Fourier amplitude spectra in in/sec.
  .000E+00  .000E+00  .000E+00  .000E+00  .000E+00  .000E+00  .000E+00  .000E+00
  .000E+00  .000E+00  .000E+00  .000E+00  .000E+00  .000E+00  .000E+00  .000E+00
  .000E+00  .000E+00  .000E+00  .000E+00  .000E+00  .000E+00  .000E+00  .000E+00
  .000E+00  .000E+00  .000E+00  .000E+00  .000E+00  .000E+00  .000E+00  .000E+00
  .000E+00  .000E+00  .000E+00  .000E+00  .000E+00  .000E+00  .000E+00  .000E+00
  .000E+00  .000E+00  .000E+00  .000E+00  .000E+00  .000E+00  .000E+00  .000E+00
  .000E+00  .000E+00  .000E+00  .000E+00  .000E+00  .000E+00  .000E+00  .000E+00
  .000E+00  .000E+00  .000E+00  .000E+00  .000E+00  .000E+00  .000E+00  .000E+00
  .000E+00  .000E+00  .000E+00  .000E+00  .000E+00  .000E+00  .000E+00  .000E+00
  .000E+00  .000E+00  .000E+00  .000E+00  .000E+00  .000E+00  .000E+00  .000E+00
  .000E+00  .000E+00  .000E+00  .000E+00  .000E+00  .000E+00  .000E+00  .000E+00
  .000E+00  .000E+00  .000E+00  .000E+00  .000E+00  .000E+00  .000E+00  .000E+00
  .000E+00  .000E+00  .000E+00  .000E+00
Damping =  .05. Data of Sd,Sv,Sa,Pssv,ttSd,ttSv,ttSa :
  .359E-04  .397E-04  .437E-04  .480E-04  .524E-04  .568E-04  .692E-04  .840E-04
  .980E-04  .114E-03  .131E-03  .149E-03  .171E-03  .189E-03  .225E-03  .265E-03
  .330E-03  .429E-03  .493E-03  .574E-03  .676E-03  .785E-03  .101E-02  .133E-02
  .184E-02  .228E-02  .290E-02  .295E-02  .368E-02  .546E-02  .800E-02  .101E-01
  .114E-01  .123E-01  .121E-01  .113E-01  .991E-02  .907E-02  .854E-02  .841E-02
  .835E-02  .928E-02  .939E-02  .906E-02  .970E-02  .106E-01  .111E-01  .112E-01
  .107E-01  .100E-01  .938E-02  .100E-01  .101E-01  .120E-01  .102E-01  .830E-02
  .754E-02  .875E-02  .111E-01  .136E-01  .159E-01  .161E-01  .140E-01  .922E-02
  .714E-02  .610E-02  .575E-02  .550E-02  .517E-02  .492E-02  .492E-02  .494E-02
  .498E-02  .501E-02  .501E-02  .498E-02  .489E-02  .485E-02  .000E+00  .000E+00
  .000E+00  .000E+00  .000E+00  .000E+00  .000E+00  .000E+00  .000E+00  .000E+00
  .000E+00  .000E+00  .000E+00  .000E+00  .000E+00  .000E+00  .000E+00  .000E+00
  .000E+00  .000E+00  .000E+00  .000E+00
  .774E-03  .854E-03  .943E-03  .104E-02  .112E-02  .119E-02  .149E-02  .192E-02
  .225E-02  .257E-02  .310E-02  .357E-02  .405E-02  .509E-02  .592E-02  .629E-02
  .702E-02  .924E-02  .118E-01  .134E-01  .163E-01  .174E-01  .237E-01  .331E-01
  .434E-01  .566E-01  .726E-01  .623E-01  .721E-01  .108E+00  .153E+00  .185E+00
  .207E+00  .213E+00  .207E+00  .187E+00  .164E+00  .144E+00  .139E+00  .136E+00
  .134E+00  .126E+00  .106E+00  .102E+00  .984E-01  .984E-01  .931E-01  .938E-01
  .962E-01  .959E-01  .930E-01  .864E-01  .709E-01  .680E-01  .695E-01  .695E-01
  .675E-01  .654E-01  .663E-01  .685E-01  .682E-01  .658E-01  .649E-01  .629E-01
  .617E-01  .609E-01  .603E-01  .599E-01  .594E-01  .589E-01  .585E-01  .582E-01
  .580E-01  .577E-01  .574E-01  .572E-01  .568E-01  .565E-01  .000E+00  .000E+00
  .000E+00  .000E+00  .000E+00  .000E+00  .000E+00  .000E+00  .000E+00  .000E+00
  .000E+00  .000E+00  .000E+00  .000E+00  .000E+00  .000E+00  .000E+00  .000E+00
  .000E+00  .000E+00  .000E+00  .000E+00
  .230E-02  .230E-02  .231E-02  .232E-02  .233E-02  .232E-02  .234E-02  .239E-02
  .237E-02  .237E-02  .238E-02  .239E-02  .242E-02  .239E-02  .254E-02  .271E-02
  .281E-02  .304E-02  .300E-02  .301E-02  .307E-02  .315E-02  .357E-02  .423E-02
  .524E-02  .576E-02  .610E-02  .524E-02  .553E-02  .721E-02  .920E-02  .101E-01
  .101E-01  .975E-02  .866E-02  .732E-02  .579E-02  .483E-02  .420E-02  .372E-02
  .346E-02  .317E-02  .267E-02  .220E-02  .203E-02  .194E-02  .179E-02  .160E-02
  .136E-02  .114E-02  .965E-03  .854E-03  .719E-03  .728E-03  .534E-03  .387E-03
  .311E-03  .312E-03  .354E-03  .387E-03  .409E-03  .345E-03  .251E-03  .142E-03
  .957E-04  .730E-04  .610E-04  .510E-04  .435E-04  .398E-04  .363E-04  .335E-04
  .311E-04  .290E-04  .269E-04  .250E-04  .210E-04  .181E-04  .000E+00  .000E+00
  .000E+00  .000E+00  .000E+00  .000E+00  .000E+00  .000E+00  .000E+00  .000E+00
  .000E+00  .000E+00  .000E+00  .000E+00  .000E+00  .000E+00  .000E+00  .000E+00
  .000E+00  .000E+00  .000E+00  .000E+00
  .565E-02  .594E-02  .624E-02  .655E-02  .686E-02  .714E-02  .790E-02  .880E-02
  .947E-02  .102E-01  .110E-01  .117E-01  .126E-01  .132E-01  .148E-01  .166E-01
  .189E-01  .225E-01  .238E-01  .257E-01  .283E-01  .308E-01  .373E-01  .465E-01
  .609E-01  .716E-01  .827E-01  .773E-01  .888E-01  .123E+00  .167E+00  .198E+00
  .211E+00  .215E+00  .199E+00  .178E+00  .148E+00  .130E+00  .117E+00  .110E+00
  .105E+00  .106E+00  .983E-01  .876E-01  .871E-01  .889E-01  .872E-01  .831E-01
  .746E-01  .663E-01  .589E-01  .574E-01  .527E-01  .579E-01  .456E-01  .348E-01
  .296E-01  .323E-01  .388E-01  .449E-01  .498E-01  .461E-01  .366E-01  .223E-01
  .160E-01  .128E-01  .113E-01  .102E-01  .902E-02  .813E-02  .772E-02  .739E-02
  .711E-02  .684E-02  .655E-02  .626E-02  .558E-02  .508E-02  .000E+00  .000E+00
  .000E+00  .000E+00  .000E+00  .000E+00  .000E+00  .000E+00  .000E+00  .000E+00
  .000E+00  .000E+00  .000E+00  .000E+00  .000E+00  .000E+00  .000E+00  .000E+00
  .000E+00  .000E+00  .000E+00  .000E+00
  .431E+02  .431E+02  .431E+02  .431E+02  .431E+02  .431E+02  .431E+02  .431E+02
  .431E+02  .431E+02  .431E+02  .431E+02  .431E+02  .431E+02  .431E+02  .431E+02
  .431E+02  .431E+02  .431E+02  .431E+02  .431E+02  .429E+02  .430E+02  .431E+02
  .431E+02  .431E+02  .432E+02  .433E+02  .428E+02  .433E+02  .433E+02  .433E+02
  .433E+02  .435E+02  .434E+02  .434E+02  .434E+02  .431E+02  .431E+02  .431E+02
  .429E+02  .429E+02  .429E+02  .447E+02  .441E+02  .442E+02  .439E+02  .439E+02
  .439E+02  .525E+02  .525E+02  .517E+02  .517E+02  .512E+02  .513E+02  .428E+02
  .428E+02  .513E+02  .552E+02  .553E+02  .554E+02  .507E+02  .508E+02  .501E+02
  .502E+02  .444E+02  .445E+02  .502E+02  .502E+02  .425E+02  .425E+02  .425E+02
  .425E+02  .425E+02  .425E+02  .425E+02  .425E+02  .425E+02  .000E+00  .000E+00
  .000E+00  .000E+00  .000E+00  .000E+00  .000E+00  .000E+00  .000E+00  .000E+00
  .000E+00  .000E+00  .000E+00  .000E+00  .000E+00  .000E+00  .000E+00  .000E+00
  .000E+00  .000E+00  .000E+00  .000E+00
  .430E+02  .430E+02  .430E+02  .430E+02  .430E+02  .430E+02  .430E+02  .430E+02
  .430E+02  .430E+02  .430E+02  .430E+02  .430E+02  .430E+02  .430E+02  .430E+02
  .430E+02  .431E+02  .431E+02  .431E+02  .431E+02  .434E+02  .430E+02  .430E+02
  .430E+02  .432E+02  .432E+02  .432E+02  .427E+02  .432E+02  .432E+02  .434E+02
  .434E+02  .435E+02  .435E+02  .435E+02  .431E+02  .432E+02  .430E+02  .430E+02
  .430E+02  .430E+02  .430E+02  .428E+02  .428E+02  .428E+02  .440E+02  .433E+02
  .434E+02  .434E+02  .434E+02  .434E+02  .434E+02  .515E+02  .431E+02  .426E+02
  .426E+02  .426E+02  .426E+02  .426E+02  .426E+02  .426E+02  .426E+02  .426E+02
  .426E+02  .426E+02  .426E+02  .426E+02  .426E+02  .426E+02  .426E+02  .426E+02
  .426E+02  .426E+02  .426E+02  .426E+02  .426E+02  .426E+02  .000E+00  .000E+00
  .000E+00  .000E+00  .000E+00  .000E+00  .000E+00  .000E+00  .000E+00  .000E+00
  .000E+00  .000E+00  .000E+00  .000E+00  .000E+00  .000E+00  .000E+00  .000E+00
  .000E+00  .000E+00  .000E+00  .000E+00
  .431E+02  .431E+02  .431E+02  .431E+02  .431E+02  .431E+02  .431E+02  .431E+02
  .431E+02  .431E+02  .431E+02  .431E+02  .431E+02  .431E+02  .431E+02  .431E+02
  .431E+02  .431E+02  .431E+02  .431E+02  .431E+02  .429E+02  .430E+02  .431E+02
  .431E+02  .431E+02  .432E+02  .433E+02  .428E+02  .433E+02  .433E+02  .433E+02
  .435E+02  .435E+02  .436E+02  .434E+02  .434E+02  .431E+02  .431E+02  .431E+02
  .429E+02  .429E+02  .429E+02  .447E+02  .441E+02  .441E+02  .438E+02  .439E+02
  .439E+02  .525E+02  .525E+02  .517E+02  .517E+02  .512E+02  .513E+02  .427E+02
  .427E+02  .513E+02  .552E+02  .553E+02  .553E+02  .507E+02  .508E+02  .501E+02
  .501E+02  .444E+02  .444E+02  .501E+02  .425E+02  .425E+02  .425E+02  .425E+02
  .425E+02  .425E+02  .425E+02  .425E+02  .425E+02  .425E+02  .000E+00  .000E+00
  .000E+00  .000E+00  .000E+00  .000E+00  .000E+00  .000E+00  .000E+00  .000E+00
  .000E+00  .000E+00  .000E+00  .000E+00  .000E+00  .000E+00  .000E+00  .000E+00
  .000E+00  .000E+00  .000E+00  .000E+00
/&   ----------  End of spectral data for channel  1  ----------
Response and Fourier amplitude spectra (78 periods,  .04 -  6.0 sec)   for      
Corrected accelerogram   38695658.CI.RRX.--.HN      Chan  2: 360 Deg     from   
Uncorrected Accelerogram Data             Processed: 09/19/20, CGS  cirrx--i    
Rcrd of Fri Sep 18, 2020 23:38:44.0 PDT               (Avol1 v2.0, 4/18 CSMIP)  
                                        (Origin:  To be determined)             
38695658.CI.RRX.--.HN                Start time:  9/19/20, 06:38:44.0 UTC (GPS) 
Station Id. RRX     34.875N, 116.997W    ObsMMS  s/n 4321  (3 Chns of  3 at Sta)
Barstow, Main St.                        SCSN   Data: Acceleration              
Chan  2: 360 Deg                                                                
Rcrd of Fri Sep 18, 2020 23:38:44.0 PDT    Fri Sep 18, 2020 23:38:44.0 PDT      
Hypocenter:  To be determined.               ML:  To be determined.             
Instr Period =  .0050 sec,  Damping =  .707,  Sensitivity = 4.99 v/g  (Nominal) 
                        Record Length =301.000 sec.                             
                                     Uncor Max  =   .001 g, at   43.660 sec.    
RMS accel of (uncor) record  =        .   Chn. metadata effective date:         
Accelerogram bandpass filtered with 3 dB pts at   .30 and 23.00 cyc/sec         
                 instrument- and base-line correcte                             
                                                                                
                                                                                
                                                                                
                                                                                
                                                                                
Rcrd of Fri Sep 18, 2020 23:38:44.0 PDT    Fri Sep 18, 2020 23:38:44.0 PDT      
                                                                                
38695658.CI.RRX.--.HN     Barstow, Main St.   Chan  2: 360 Deg                  
                                                                                
38695658.CI.RRX.--.HN     Barstow, Main St.   Chan  2: 360 Deg                  
                                                                                
Units for spectra are inches and sec, except Sa is in fraction of g.            
                                                                                
    2  100    2    3    3  100 -999    3    1    0   15 4321    050641   41    0
    6   38   44    8  263    9   19 2020   10    3  36035903   39   17   74 -999
35903 -999  100    6 -999 -999 -999 -999 -999 -999 -999 -999 -999 -999 -999 -999
 -999 -999 -999 -99915050    2 -999    0 -999   20 -999 -999    3    1 -99915050
    315050    4   78    1    3    5    0    0 -999    0 -999 -999    6 -999    2
    2    2    4 -999 -999 -999 -999 -999 -999 -999 -999    1 -999 -999 -999  111
    1    1 -999 -999
      .005      .707   359.030      .000     1.000  4992.069      .001    43.660
   200.000     2.384      .478  -999.000    10.000  -999.000     4.000  -999.000
    20.000   -12.854      .000  -999.000  -999.000  -999.000  -999.000     -.002
      .000      .002     2.000    15.000    34.875  -116.997      .001      .001
     1.555      .002      .002   676.200  -999.000  -999.000  -999.000  -999.000
     1.000  -999.000  -999.000  -999.000  -999.000  -999.000  -999.000   120.000
     -.900     2.000     6.800   980.665      .020   301.000    31.831      .000
  -999.000    23.000  -999.000   301.000      .020      .300  -999.000  -999.000
    43.660      .866    42.920      .064    47.560     -.010      .000      .300
    23.000      .020      .020      .000      .020      .005  -999.000  -999.000
      .004      .320      .003      .003      .001      .000  -999.000  -999.000
  -999.000  -999.000  -999.000  -999.000  -999.000  -999.000  -999.000  -999.000
  -999.000  -999.000  -999.000  -999.000
      .050
      .040      .042      .044      .046      .048      .050      .055      .060
      .065      .070      .075      .080      .085      .090      .095      .100
      .110      .120      .130      .140      .150      .160      .170      .180
      .190      .200      .220      .240      .260      .280      .300      .320
      .340      .360      .380      .400      .420      .440      .460      .480
      .500      .550      .600      .650      .700      .750      .800      .850
      .900      .950     1.000     1.100     1.200     1.300     1.400     1.500
     1.600     1.700     1.800     1.900     2.000     2.200     2.400     2.600
     2.800     3.000     3.200     3.400     3.600     3.800     4.000     4.200
     4.400     4.600     4.800     5.000     5.500     6.000      .000      .000
      .000      .000      .000      .000      .000      .000      .000      .000
      .000      .000      .000      .000      .000      .000      .000      .000
      .000      .000      .000      .000
Fourier amplitude spectra in in/sec.
  .000E+00  .000E+00  .000E+00  .000E+00  .000E+00  .000E+00  .000E+00  .000E+00
  .000E+00  .000E+00  .000E+00  .000E+00  .000E+00  .000E+00  .000E+00  .000E+00
  .000E+00  .000E+00  .000E+00  .000E+00  .000E+00  .000E+00  .000E+00  .000E+00
  .000E+00  .000E+00  .000E+00  .000E+00  .000E+00  .000E+00  .000E+00  .000E+00
  .000E+00  .000E+00  .000E+00  .000E+00  .000E+00  .000E+00  .000E+00  .000E+00
  .000E+00  .000E+00  .000E+00  .000E+00  .000E+00  .000E+00  .000E+00  .000E+00
  .000E+00  .000E+00  .000E+00  .000E+00  .000E+00  .000E+00  .000E+00  .000E+00
  .000E+00  .000E+00  .000E+00  .000E+00  .000E+00  .000E+00  .000E+00  .000E+00
  .000E+00  .000E+00  .000E+00  .000E+00  .000E+00  .000E+00  .000E+00  .000E+00
  .000E+00  .000E+00  .000E+00  .000E+00  .000E+00  .000E+00  .000E+00  .000E+00
  .000E+00  .000E+00  .000E+00  .000E+00  .000E+00  .000E+00  .000E+00  .000E+00
  .000E+00  .000E+00  .000E+00  .000E+00  .000E+00  .000E+00  .000E+00  .000E+00
  .000E+00  .000E+00  .000E+00  .000E+00
Damping =  .05. Data of Sd,Sv,Sa,Pssv,ttSd,ttSv,ttSa :
  .139E-04  .153E-04  .169E-04  .187E-04  .206E-04  .224E-04  .276E-04  .385E-04
  .452E-04  .554E-04  .727E-04  .841E-04  .931E-04  .103E-03  .136E-03  .167E-03
  .189E-03  .245E-03  .305E-03  .359E-03  .478E-03  .539E-03  .659E-03  .873E-03
  .106E-02  .111E-02  .126E-02  .144E-02  .156E-02  .183E-02  .288E-02  .374E-02
  .339E-02  .385E-02  .459E-02  .528E-02  .442E-02  .410E-02  .502E-02  .516E-02
