Response and Fourier amplitude spectra (78 periods,  .04 -  6.0 sec)   for      
Corrected accelerogram   38695658.CI.RSS.--.HN      Chan  1:  90 Deg     from   
Uncorrected Accelerogram Data             Processed: 09/19/20, CGS  cirss--d    
Rcrd of Fri Sep 18, 2020 23:38:35.0 PDT               (Avol1 v2.0, 4/18 CSMIP)  
                                        (Origin:  To be determined)             
38695658.CI.RSS.--.HN                Start time:  9/19/20, 06:38:35.0 UTC (GPS) 
Station Id. RSS     33.973N, 117.327W    ObsMMS  s/n 4307  (3 Chns of  3 at Sta)
Riverside, UCR campus                    SCSN   Data: Acceleration              
Chan  1:  90 Deg                                                                
Rcrd of Fri Sep 18, 2020 23:38:35.0 PDT    Fri Sep 18, 2020 23:38:35.0 PDT      
Hypocenter:  To be determined.               ML:  To be determined.             
Instr Period =  .0050 sec,  Damping =  .707,  Sensitivity = 5.00 v/g  (Nominal) 
                        Record Length =301.000 sec.                             
                                     Uncor Max  =  -.010 g, at   33.240 sec.    
RMS accel of (uncor) record  =        .   Chn. metadata effective date:         
Accelerogram bandpass filtered with 3 dB pts at   .30 and 23.00 cyc/sec         
                 instrument- and base-line correcte                             
                                                                                
                                                                                
                                                                                
                                                                                
                                                                                
Rcrd of Fri Sep 18, 2020 23:38:35.0 PDT    Fri Sep 18, 2020 23:38:35.0 PDT      
                                                                                
38695658.CI.RSS.--.HN     Riverside, UCR campus   Chan  1:  90 Deg              
                                                                                
38695658.CI.RSS.--.HN     Riverside, UCR campus   Chan  1:  90 Deg              
                                                                                
Units for spectra are inches and sec, except Sa is in fraction of g.            
                                                                                
    1  100    1    3    3  100 -999    3    1    0   15 4307    050643   41    0
    6   38   35    8  263    9   19 2020   10    3   9035704   39   21   74 -999
35704 -999  100    6 -999 -999 -999 -999 -999 -999 -999 -999 -999 -999 -999 -999
 -999 -999 -999 -99915050    2 -999    0 -999   20 -999 -999    3    1 -99915050
    315050    4   78    1    3    5    0    0 -999    0 -999 -999    6 -999    2
    2    2    4 -999 -999 -999 -999 -999 -999 -999 -999    1 -999 -999 -999  111
    1    1 -999 -999
      .005      .707   357.040      .000     1.000  4996.058     -.010    33.240
   200.000     2.384      .477  -999.000    10.000  -999.000     4.000  -999.000
    20.000     -.963      .000  -999.000  -999.000  -999.000  -999.000     -.003
      .004      .007     2.000    15.000    33.973  -117.327      .016      .014
      .898      .004      .010   298.000  -999.000  -999.000  -999.000  -999.000
     1.000  -999.000    -8.000  -999.000  -999.000  -999.000  -999.000   120.000
     -.900     2.000     6.800   980.665      .020   301.000    31.831     -.001
  -999.000    23.000  -999.000   301.000      .020      .300  -999.000  -999.000
    33.240    -9.954    33.280     -.203    33.240      .009      .000      .300
    23.000      .020      .020      .000      .020      .008  -999.000  -999.000
      .027      .160      .022      .013      .000      .000  -999.000  -999.000
  -999.000  -999.000  -999.000  -999.000  -999.000  -999.000  -999.000  -999.000
  -999.000  -999.000  -999.000  -999.000
      .050
      .040      .042      .044      .046      .048      .050      .055      .060
      .065      .070      .075      .080      .085      .090      .095      .100
      .110      .120      .130      .140      .150      .160      .170      .180
      .190      .200      .220      .240      .260      .280      .300      .320
      .340      .360      .380      .400      .420      .440      .460      .480
      .500      .550      .600      .650      .700      .750      .800      .850
      .900      .950     1.000     1.100     1.200     1.300     1.400     1.500
     1.600     1.700     1.800     1.900     2.000     2.200     2.400     2.600
     2.800     3.000     3.200     3.400     3.600     3.800     4.000     4.200
     4.400     4.600     4.800     5.000     5.500     6.000      .000      .000
      .000      .000      .000      .000      .000      .000      .000      .000
      .000      .000      .000      .000      .000      .000      .000      .000
      .000      .000      .000      .000
Fourier amplitude spectra in in/sec.
  .000E+00  .000E+00  .000E+00  .000E+00  .000E+00  .000E+00  .000E+00  .000E+00
  .000E+00  .000E+00  .000E+00  .000E+00  .000E+00  .000E+00  .000E+00  .000E+00
  .000E+00  .000E+00  .000E+00  .000E+00  .000E+00  .000E+00  .000E+00  .000E+00
  .000E+00  .000E+00  .000E+00  .000E+00  .000E+00  .000E+00  .000E+00  .000E+00
  .000E+00  .000E+00  .000E+00  .000E+00  .000E+00  .000E+00  .000E+00  .000E+00
  .000E+00  .000E+00  .000E+00  .000E+00  .000E+00  .000E+00  .000E+00  .000E+00
  .000E+00  .000E+00  .000E+00  .000E+00  .000E+00  .000E+00  .000E+00  .000E+00
  .000E+00  .000E+00  .000E+00  .000E+00  .000E+00  .000E+00  .000E+00  .000E+00
  .000E+00  .000E+00  .000E+00  .000E+00  .000E+00  .000E+00  .000E+00  .000E+00
  .000E+00  .000E+00  .000E+00  .000E+00  .000E+00  .000E+00  .000E+00  .000E+00
  .000E+00  .000E+00  .000E+00  .000E+00  .000E+00  .000E+00  .000E+00  .000E+00
  .000E+00  .000E+00  .000E+00  .000E+00  .000E+00  .000E+00  .000E+00  .000E+00
  .000E+00  .000E+00  .000E+00  .000E+00
Damping =  .05. Data of Sd,Sv,Sa,Pssv,ttSd,ttSv,ttSa :
  .173E-03  .196E-03  .216E-03  .256E-03  .319E-03  .378E-03  .440E-03  .529E-03
  .720E-03  .675E-03  .903E-03  .127E-02  .168E-02  .188E-02  .190E-02  .198E-02
  .250E-02  .314E-02  .399E-02  .381E-02  .499E-02  .666E-02  .664E-02  .698E-02
  .795E-02  .868E-02  .103E-01  .986E-02  .115E-01  .123E-01  .109E-01  .921E-02
  .756E-02  .810E-02  .791E-02  .883E-02  .924E-02  .926E-02  .960E-02  .804E-02
  .659E-02  .539E-02  .529E-02  .484E-02  .440E-02  .427E-02  .417E-02  .394E-02
  .383E-02  .378E-02  .378E-02  .379E-02  .394E-02  .407E-02  .407E-02  .388E-02
  .350E-02  .341E-02  .346E-02  .339E-02  .328E-02  .328E-02  .331E-02  .323E-02
  .325E-02  .331E-02  .339E-02  .343E-02  .347E-02  .347E-02  .345E-02  .344E-02
  .343E-02  .342E-02  .341E-02  .342E-02  .344E-02  .345E-02  .000E+00  .000E+00
  .000E+00  .000E+00  .000E+00  .000E+00  .000E+00  .000E+00  .000E+00  .000E+00
  .000E+00  .000E+00  .000E+00  .000E+00  .000E+00  .000E+00  .000E+00  .000E+00
  .000E+00  .000E+00  .000E+00  .000E+00
  .109E-01  .123E-01  .130E-01  .158E-01  .213E-01  .274E-01  .385E-01  .466E-01
  .582E-01  .480E-01  .588E-01  .910E-01  .106E+00  .118E+00  .120E+00  .121E+00
  .138E+00  .158E+00  .185E+00  .169E+00  .197E+00  .255E+00  .248E+00  .224E+00
  .249E+00  .272E+00  .297E+00  .284E+00  .282E+00  .285E+00  .277E+00  .220E+00
  .164E+00  .174E+00  .172E+00  .166E+00  .171E+00  .173E+00  .161E+00  .152E+00
  .141E+00  .122E+00  .110E+00  .989E-01  .954E-01  .935E-01  .900E-01  .885E-01
  .877E-01  .873E-01  .866E-01  .866E-01  .851E-01  .840E-01  .823E-01  .806E-01
  .801E-01  .806E-01  .806E-01  .803E-01  .803E-01  .806E-01  .804E-01  .804E-01
  .805E-01  .805E-01  .805E-01  .804E-01  .802E-01  .801E-01  .800E-01  .800E-01
  .799E-01  .799E-01  .799E-01  .799E-01  .798E-01  .798E-01  .000E+00  .000E+00
  .000E+00  .000E+00  .000E+00  .000E+00  .000E+00  .000E+00  .000E+00  .000E+00
  .000E+00  .000E+00  .000E+00  .000E+00  .000E+00  .000E+00  .000E+00  .000E+00
  .000E+00  .000E+00  .000E+00  .000E+00
  .110E-01  .113E-01  .115E-01  .124E-01  .143E-01  .156E-01  .150E-01  .152E-01
  .173E-01  .140E-01  .165E-01  .203E-01  .237E-01  .237E-01  .214E-01  .199E-01
  .211E-01  .222E-01  .243E-01  .203E-01  .225E-01  .267E-01  .233E-01  .224E-01
  .229E-01  .225E-01  .217E-01  .176E-01  .177E-01  .165E-01  .125E-01  .939E-02
  .670E-02  .633E-02  .562E-02  .577E-02  .532E-02  .503E-02  .464E-02  .366E-02
  .278E-02  .187E-02  .152E-02  .117E-02  .948E-03  .790E-03  .681E-03  .575E-03
  .503E-03  .451E-03  .411E-03  .346E-03  .307E-03  .273E-03  .240E-03  .203E-03
  .167E-03  .147E-03  .135E-03  .121E-03  .108E-03  .926E-04  .809E-04  .701E-04
  .626E-04  .568E-04  .522E-04  .480E-04  .443E-04  .408E-04  .377E-04  .350E-04
  .326E-04  .305E-04  .287E-04  .271E-04  .237E-04  .210E-04  .000E+00  .000E+00
  .000E+00  .000E+00  .000E+00  .000E+00  .000E+00  .000E+00  .000E+00  .000E+00
  .000E+00  .000E+00  .000E+00  .000E+00  .000E+00  .000E+00  .000E+00  .000E+00
  .000E+00  .000E+00  .000E+00  .000E+00
  .272E-01  .293E-01  .309E-01  .349E-01  .418E-01  .474E-01  .503E-01  .554E-01
  .696E-01  .606E-01  .757E-01  .998E-01  .124E+00  .131E+00  .125E+00  .125E+00
  .143E+00  .164E+00  .193E+00  .171E+00  .209E+00  .262E+00  .246E+00  .244E+00
  .263E+00  .273E+00  .293E+00  .258E+00  .279E+00  .277E+00  .229E+00  .181E+00
  .140E+00  .141E+00  .131E+00  .139E+00  .138E+00  .132E+00  .131E+00  .105E+00
  .829E-01  .616E-01  .554E-01  .467E-01  .395E-01  .357E-01  .327E-01  .291E-01
  .267E-01  .250E-01  .238E-01  .216E-01  .207E-01  .197E-01  .183E-01  .162E-01
  .138E-01  .126E-01  .121E-01  .112E-01  .103E-01  .936E-02  .865E-02  .781E-02
  .730E-02  .694E-02  .665E-02  .635E-02  .606E-02  .574E-02  .542E-02  .515E-02
  .490E-02  .467E-02  .447E-02  .430E-02  .393E-02  .361E-02  .000E+00  .000E+00
  .000E+00  .000E+00  .000E+00  .000E+00  .000E+00  .000E+00  .000E+00  .000E+00
  .000E+00  .000E+00  .000E+00  .000E+00  .000E+00  .000E+00  .000E+00  .000E+00
  .000E+00  .000E+00  .000E+00  .000E+00
  .332E+02  .332E+02  .332E+02  .332E+02  .332E+02  .332E+02  .332E+02  .332E+02
  .333E+02  .331E+02  .331E+02  .351E+02  .333E+02  .333E+02  .333E+02  .344E+02
  .344E+02  .349E+02  .351E+02  .355E+02  .341E+02  .341E+02  .343E+02  .333E+02
  .334E+02  .334E+02  .361E+02  .338E+02  .342E+02  .342E+02  .346E+02  .344E+02
  .333E+02  .345E+02  .341E+02  .341E+02  .342E+02  .340E+02  .340E+02  .340E+02
  .340E+02  .332E+02  .332E+02  .332E+02  .332E+02  .332E+02  .332E+02  .332E+02
  .332E+02  .332E+02  .332E+02  .332E+02  .332E+02  .332E+02  .332E+02  .332E+02
  .332E+02  .332E+02  .332E+02  .332E+02  .332E+02  .332E+02  .332E+02  .332E+02
  .332E+02  .332E+02  .332E+02  .332E+02  .332E+02  .332E+02  .332E+02  .332E+02
  .332E+02  .332E+02  .332E+02  .332E+02  .332E+02  .332E+02  .000E+00  .000E+00
  .000E+00  .000E+00  .000E+00  .000E+00  .000E+00  .000E+00  .000E+00  .000E+00
  .000E+00  .000E+00  .000E+00  .000E+00  .000E+00  .000E+00  .000E+00  .000E+00
  .000E+00  .000E+00  .000E+00  .000E+00
  .333E+02  .333E+02  .333E+02  .337E+02  .337E+02  .333E+02  .328E+02  .330E+02
  .338E+02  .338E+02  .350E+02  .350E+02  .333E+02  .333E+02  .347E+02  .343E+02
  .343E+02  .349E+02  .351E+02  .351E+02  .341E+02  .341E+02  .343E+02  .334E+02
  .334E+02  .334E+02  .361E+02  .338E+02  .343E+02  .342E+02  .342E+02  .342E+02
  .334E+02  .342E+02  .342E+02  .341E+02  .341E+02  .341E+02  .333E+02  .333E+02
  .333E+02  .333E+02  .333E+02  .333E+02  .333E+02  .333E+02  .333E+02  .333E+02
  .333E+02  .333E+02  .333E+02  .333E+02  .333E+02  .333E+02  .333E+02  .333E+02
  .333E+02  .333E+02  .333E+02  .333E+02  .333E+02  .333E+02  .333E+02  .333E+02
  .333E+02  .333E+02  .333E+02  .333E+02  .333E+02  .333E+02  .333E+02  .333E+02
  .333E+02  .333E+02  .333E+02  .333E+02  .333E+02  .333E+02  .000E+00  .000E+00
  .000E+00  .000E+00  .000E+00  .000E+00  .000E+00  .000E+00  .000E+00  .000E+00
  .000E+00  .000E+00  .000E+00  .000E+00  .000E+00  .000E+00  .000E+00  .000E+00
  .000E+00  .000E+00  .000E+00  .000E+00
  .332E+02  .332E+02  .332E+02  .332E+02  .332E+02  .332E+02  .332E+02  .330E+02
  .333E+02  .331E+02  .331E+02  .350E+02  .333E+02  .333E+02  .333E+02  .344E+02
  .344E+02  .349E+02  .351E+02  .355E+02  .341E+02  .341E+02  .343E+02  .333E+02
  .334E+02  .334E+02  .361E+02  .338E+02  .342E+02  .342E+02  .342E+02  .346E+02
  .333E+02  .345E+02  .341E+02  .341E+02  .341E+02  .340E+02  .340E+02  .340E+02
  .340E+02  .332E+02  .332E+02  .332E+02  .360E+02  .332E+02  .332E+02  .332E+02
  .332E+02  .332E+02  .332E+02  .332E+02  .332E+02  .332E+02  .332E+02  .332E+02
  .332E+02  .332E+02  .332E+02  .332E+02  .332E+02  .332E+02  .332E+02  .332E+02
  .332E+02  .332E+02  .332E+02  .332E+02  .332E+02  .332E+02  .332E+02  .332E+02
  .332E+02  .332E+02  .332E+02  .332E+02  .332E+02  .332E+02  .000E+00  .000E+00
  .000E+00  .000E+00  .000E+00  .000E+00  .000E+00  .000E+00  .000E+00  .000E+00
  .000E+00  .000E+00  .000E+00  .000E+00  .000E+00  .000E+00  .000E+00  .000E+00
  .000E+00  .000E+00  .000E+00  .000E+00
/&   ----------  End of spectral data for channel  1  ----------
Response and Fourier amplitude spectra (78 periods,  .04 -  6.0 sec)   for      
Corrected accelerogram   38695658.CI.RSS.--.HN      Chan  2: 360 Deg     from   
Uncorrected Accelerogram Data             Processed: 09/19/20, CGS  cirss--d    
Rcrd of Fri Sep 18, 2020 23:38:35.0 PDT               (Avol1 v2.0, 4/18 CSMIP)  
                                        (Origin:  To be determined)             
38695658.CI.RSS.--.HN                Start time:  9/19/20, 06:38:35.0 UTC (GPS) 
Station Id. RSS     33.973N, 117.327W    ObsMMS  s/n 4307  (3 Chns of  3 at Sta)
Riverside, UCR campus                    SCSN   Data: Acceleration              
Chan  2: 360 Deg                                                                
Rcrd of Fri Sep 18, 2020 23:38:35.0 PDT    Fri Sep 18, 2020 23:38:35.0 PDT      
Hypocenter:  To be determined.               ML:  To be determined.             
Instr Period =  .0050 sec,  Damping =  .707,  Sensitivity = 5.00 v/g  (Nominal) 
                        Record Length =301.000 sec.                             
                                     Uncor Max  =  -.013 g, at   34.300 sec.    
RMS accel of (uncor) record  =        .   Chn. metadata effective date:         
Accelerogram bandpass filtered with 3 dB pts at   .30 and 23.00 cyc/sec         
                 instrument- and base-line correcte                             
                                                                                
                                                                                
                                                                                
                                                                                
                                                                                
Rcrd of Fri Sep 18, 2020 23:38:35.0 PDT    Fri Sep 18, 2020 23:38:35.0 PDT      
                                                                                
38695658.CI.RSS.--.HN     Riverside, UCR campus   Chan  2: 360 Deg              
                                                                                
38695658.CI.RSS.--.HN     Riverside, UCR campus   Chan  2: 360 Deg              
                                                                                
Units for spectra are inches and sec, except Sa is in fraction of g.            
                                                                                
    2  100    2    3    3  100 -999    3    1    0   15 4307    050643   41    0
    6   38   35    8  263    9   19 2020   10    3  36035584   39   21   74 -999
35584 -999  100    6 -999 -999 -999 -999 -999 -999 -999 -999 -999 -999 -999 -999
 -999 -999 -999 -99915050    2 -999    0 -999   20 -999 -999    3    1 -99915050
    315050    4   78    1    3    5    0    0 -999    0 -999 -999    6 -999    2
    2    2    4 -999 -999 -999 -999 -999 -999 -999 -999    1 -999 -999 -999  111
    1    1 -999 -999
      .005      .707   355.840      .000     1.000  4998.452     -.013    34.300
   200.000     2.384      .477  -999.000    10.000  -999.000     4.000  -999.000
    20.000    -9.131      .000  -999.000  -999.000  -999.000  -999.000     -.005
      .004      .009     2.000    15.000    33.973  -117.327      .017      .017
      .991      .006      .012   298.000  -999.000  -999.000  -999.000  -999.000
     1.000  -999.000  -999.000  -999.000  -999.000  -999.000  -999.000   120.000
     -.900     2.000     6.800   980.665      .020   301.000    31.831     -.001
  -999.000    23.000  -999.000   301.000      .020      .300  -999.000  -999.000
    34.300   -12.616    33.660     -.258    33.740     -.010      .000      .300
    23.000      .020      .020      .000      .020      .008  -999.000  -999.000
      .040      .120      .028      .014      .000      .000  -999.000  -999.000
  -999.000  -999.000  -999.000  -999.000  -999.000  -999.000  -999.000  -999.000
  -999.000  -999.000  -999.000  -999.000
      .050
      .040      .042      .044      .046      .048      .050      .055      .060
      .065      .070      .075      .080      .085      .090      .095      .100
      .110      .120      .130      .140      .150      .160      .170      .180
      .190      .200      .220      .240      .260      .280      .300      .320
      .340      .360      .380      .400      .420      .440      .460      .480
      .500      .550      .600      .650      .700      .750      .800      .850
      .900      .950     1.000     1.100     1.200     1.300     1.400     1.500
     1.600     1.700     1.800     1.900     2.000     2.200     2.400     2.600
     2.800     3.000     3.200     3.400     3.600     3.800     4.000     4.200
     4.400     4.600     4.800     5.000     5.500     6.000      .000      .000
      .000      .000      .000      .000      .000      .000      .000      .000
      .000      .000      .000      .000      .000      .000      .000      .000
      .000      .000      .000      .000
Fourier amplitude spectra in in/sec.
  .000E+00  .000E+00  .000E+00  .000E+00  .000E+00  .000E+00  .000E+00  .000E+00
  .000E+00  .000E+00  .000E+00  .000E+00  .000E+00  .000E+00  .000E+00  .000E+00
  .000E+00  .000E+00  .000E+00  .000E+00  .000E+00  .000E+00  .000E+00  .000E+00
  .000E+00  .000E+00  .000E+00  .000E+00  .000E+00  .000E+00  .000E+00  .000E+00
  .000E+00  .000E+00  .000E+00  .000E+00  .000E+00  .000E+00  .000E+00  .000E+00
  .000E+00  .000E+00  .000E+00  .000E+00  .000E+00  .000E+00  .000E+00  .000E+00
  .000E+00  .000E+00  .000E+00  .000E+00  .000E+00  .000E+00  .000E+00  .000E+00
  .000E+00  .000E+00  .000E+00  .000E+00  .000E+00  .000E+00  .000E+00  .000E+00
  .000E+00  .000E+00  .000E+00  .000E+00  .000E+00  .000E+00  .000E+00  .000E+00
  .000E+00  .000E+00  .000E+00  .000E+00  .000E+00  .000E+00  .000E+00  .000E+00
  .000E+00  .000E+00  .000E+00  .000E+00  .000E+00  .000E+00  .000E+00  .000E+00
  .000E+00  .000E+00  .000E+00  .000E+00  .000E+00  .000E+00  .000E+00  .000E+00
  .000E+00  .000E+00  .000E+00  .000E+00
Damping =  .05. Data of Sd,Sv,Sa,Pssv,ttSd,ttSv,ttSa :
  .216E-03  .247E-03  .280E-03  .304E-03  .325E-03  .346E-03  .465E-03  .623E-03
  .779E-03  .830E-03  .103E-02  .131E-02  .176E-02  .222E-02  .254E-02  .285E-02
  .455E-02  .563E-02  .601E-02  .518E-02  .479E-02  .649E-02  .946E-02  .107E-01
  .972E-02  .998E-02  .145E-01  .113E-01  .115E-01  .129E-01  .113E-01  .110E-01
  .966E-02  .962E-02  .104E-01  .119E-01  .123E-01  .158E-01  .163E-01  .137E-01
