Response and Fourier amplitude spectra (78 periods,  .04 -  6.0 sec)   for      
Corrected accelerogram   38695658.CI.RSB.01.HN      Chan  1:  90 Deg     from   
Uncorrected Accelerogram Data             Processed: 09/19/20, CGS  cirsb--z    
Rcrd of Fri Sep 18, 2020 23:38:33.0 PDT               (Avol1 v2.0, 4/18 CSMIP)  
                                        (Origin:  To be determined)             
38695658.CI.RSB.01.HN                Start time:  9/19/20, 06:38:33.0 UTC (GPS) 
Station Id. RSB     33.973N, 117.327W    ObsMMS  s/n 4343  (6 Chns of  6 at Sta)
Riverside, UCR campus                    SCSN   Data: Acceleration              
Chan  1:  90 Deg                                                                
Rcrd of Fri Sep 18, 2020 23:38:33.0 PDT    Fri Sep 18, 2020 23:38:33.0 PDT      
Hypocenter:  To be determined.               ML:  To be determined.             
Instr Period =  .0050 sec,  Damping =  .707,  Sensitivity = 9.98 v/g  (Nominal) 
                        Record Length =301.000 sec.                             
                                     Uncor Max  =   .004 g, at   36.250 sec.    
RMS accel of (uncor) record  =        .   Chn. metadata effective date:         
Accelerogram bandpass filtered with 3 dB pts at   .30 and 23.00 cyc/sec         
                 instrument- and base-line correcte                             
                                                                                
                                                                                
                                                                                
                                                                                
                                                                                
Rcrd of Fri Sep 18, 2020 23:38:33.0 PDT    Fri Sep 18, 2020 23:38:33.0 PDT      
                                                                                
38695658.CI.RSB.01.HN     Riverside, UCR campus   Chan  1:  90 Deg              
                                                                                
38695658.CI.RSB.01.HN     Riverside, UCR campus   Chan  1:  90 Deg              
                                                                                
Units for spectra are inches and sec, except Sa is in fraction of g.            
                                                                                
    1  100    1    6    6  100 -999    3    1    0   15 4343    050642   41    0
    6   38   33    8  263    9   19 2020   10    3   9035812   39   21   74 -999
35812 -999  100    6 -999 -999 -999 -999 -999 -999 -999 -999 -999 -999 -999 -999
 -999 -999 -999 -99915050    2 -999    0 -999    0 -999 -999    3    1 -99915050
    315050    4   78    1    6    5    0    0 -999    0 -999 -999    6 -999    2
    2    2    4 -999 -999 -999 -999 -999 -999 -999 -999    1 -999 -999 -999  111
    1    1 -999 -999
      .005      .707   358.120      .000     1.000  9975.120      .004    36.250
   200.000     2.384      .239  -999.000    10.000  -999.000     1.000  -999.000
    10.000     3.266      .000  -999.000  -999.000  -999.000  -999.000      .000
      .000      .000     2.000    15.000    33.973  -117.327      .007      .005
      .679     -.001      .002   297.000  -999.000  -999.000  -999.000  -999.000
     1.000  -999.000    -8.000  -999.000  -999.000  -999.000  -999.000   120.000
     -.900     2.000     6.800   980.665      .020   301.000    31.831      .000
  -999.000    23.000  -999.000   301.000      .020      .300  -999.000  -999.000
    36.240     4.209    36.280      .122    36.240     -.005      .000      .300
    23.000      .020      .020      .000      .020      .004  -999.000  -999.000
      .016      .170      .011      .007      .000      .000  -999.000  -999.000
  -999.000  -999.000  -999.000  -999.000  -999.000  -999.000  -999.000  -999.000
  -999.000  -999.000  -999.000  -999.000
      .050
      .040      .042      .044      .046      .048      .050      .055      .060
      .065      .070      .075      .080      .085      .090      .095      .100
      .110      .120      .130      .140      .150      .160      .170      .180
      .190      .200      .220      .240      .260      .280      .300      .320
      .340      .360      .380      .400      .420      .440      .460      .480
      .500      .550      .600      .650      .700      .750      .800      .850
      .900      .950     1.000     1.100     1.200     1.300     1.400     1.500
     1.600     1.700     1.800     1.900     2.000     2.200     2.400     2.600
     2.800     3.000     3.200     3.400     3.600     3.800     4.000     4.200
     4.400     4.600     4.800     5.000     5.500     6.000      .000      .000
      .000      .000      .000      .000      .000      .000      .000      .000
      .000      .000      .000      .000      .000      .000      .000      .000
      .000      .000      .000      .000
Fourier amplitude spectra in in/sec.
  .000E+00  .000E+00  .000E+00  .000E+00  .000E+00  .000E+00  .000E+00  .000E+00
  .000E+00  .000E+00  .000E+00  .000E+00  .000E+00  .000E+00  .000E+00  .000E+00
  .000E+00  .000E+00  .000E+00  .000E+00  .000E+00  .000E+00  .000E+00  .000E+00
  .000E+00  .000E+00  .000E+00  .000E+00  .000E+00  .000E+00  .000E+00  .000E+00
  .000E+00  .000E+00  .000E+00  .000E+00  .000E+00  .000E+00  .000E+00  .000E+00
  .000E+00  .000E+00  .000E+00  .000E+00  .000E+00  .000E+00  .000E+00  .000E+00
  .000E+00  .000E+00  .000E+00  .000E+00  .000E+00  .000E+00  .000E+00  .000E+00
  .000E+00  .000E+00  .000E+00  .000E+00  .000E+00  .000E+00  .000E+00  .000E+00
  .000E+00  .000E+00  .000E+00  .000E+00  .000E+00  .000E+00  .000E+00  .000E+00
  .000E+00  .000E+00  .000E+00  .000E+00  .000E+00  .000E+00  .000E+00  .000E+00
  .000E+00  .000E+00  .000E+00  .000E+00  .000E+00  .000E+00  .000E+00  .000E+00
  .000E+00  .000E+00  .000E+00  .000E+00  .000E+00  .000E+00  .000E+00  .000E+00
  .000E+00  .000E+00  .000E+00  .000E+00
Damping =  .05. Data of Sd,Sv,Sa,Pssv,ttSd,ttSv,ttSa :
  .721E-04  .797E-04  .884E-04  .100E-03  .109E-03  .126E-03  .175E-03  .267E-03
  .292E-03  .346E-03  .416E-03  .492E-03  .599E-03  .770E-03  .888E-03  .113E-02
  .113E-02  .166E-02  .252E-02  .291E-02  .258E-02  .294E-02  .438E-02  .416E-02
  .398E-02  .439E-02  .440E-02  .433E-02  .552E-02  .511E-02  .607E-02  .632E-02
  .527E-02  .511E-02  .524E-02  .533E-02  .517E-02  .550E-02  .517E-02  .405E-02
  .402E-02  .294E-02  .279E-02  .244E-02  .233E-02  .232E-02  .236E-02  .207E-02
  .223E-02  .233E-02  .250E-02  .272E-02  .294E-02  .290E-02  .252E-02  .206E-02
  .199E-02  .213E-02  .207E-02  .204E-02  .211E-02  .207E-02  .195E-02  .192E-02
  .187E-02  .199E-02  .207E-02  .210E-02  .208E-02  .205E-02  .203E-02  .202E-02
  .204E-02  .205E-02  .206E-02  .206E-02  .205E-02  .203E-02  .000E+00  .000E+00
  .000E+00  .000E+00  .000E+00  .000E+00  .000E+00  .000E+00  .000E+00  .000E+00
  .000E+00  .000E+00  .000E+00  .000E+00  .000E+00  .000E+00  .000E+00  .000E+00
  .000E+00  .000E+00  .000E+00  .000E+00
  .431E-02  .459E-02  .507E-02  .613E-02  .761E-02  .957E-02  .153E-01  .205E-01
  .214E-01  .193E-01  .247E-01  .286E-01  .349E-01  .457E-01  .523E-01  .640E-01
  .568E-01  .839E-01  .117E+00  .125E+00  .106E+00  .120E+00  .166E+00  .160E+00
  .145E+00  .151E+00  .132E+00  .126E+00  .140E+00  .134E+00  .143E+00  .130E+00
  .115E+00  .113E+00  .108E+00  .112E+00  .115E+00  .106E+00  .829E-01  .705E-01
  .618E-01  .492E-01  .536E-01  .511E-01  .480E-01  .460E-01  .449E-01  .458E-01
  .467E-01  .470E-01  .477E-01  .482E-01  .505E-01  .521E-01  .524E-01  .511E-01
  .495E-01  .494E-01  .494E-01  .490E-01  .489E-01  .492E-01  .490E-01  .489E-01
  .488E-01  .486E-01  .483E-01  .480E-01  .477E-01  .476E-01  .475E-01  .475E-01
  .474E-01  .474E-01  .473E-01  .473E-01  .472E-01  .471E-01  .000E+00  .000E+00
  .000E+00  .000E+00  .000E+00  .000E+00  .000E+00  .000E+00  .000E+00  .000E+00
  .000E+00  .000E+00  .000E+00  .000E+00  .000E+00  .000E+00  .000E+00  .000E+00
  .000E+00  .000E+00  .000E+00  .000E+00
  .464E-02  .464E-02  .468E-02  .487E-02  .485E-02  .513E-02  .594E-02  .750E-02
  .709E-02  .728E-02  .764E-02  .785E-02  .843E-02  .986E-02  .101E-01  .113E-01
  .964E-02  .120E-01  .155E-01  .153E-01  .119E-01  .119E-01  .155E-01  .133E-01
  .113E-01  .113E-01  .935E-02  .787E-02  .838E-02  .658E-02  .693E-02  .627E-02
  .475E-02  .409E-02  .371E-02  .349E-02  .302E-02  .297E-02  .250E-02  .181E-02
  .166E-02  .995E-03  .800E-03  .598E-03  .493E-03  .426E-03  .379E-03  .305E-03
  .295E-03  .276E-03  .267E-03  .240E-03  .219E-03  .185E-03  .140E-03  .103E-03
  .879E-04  .845E-04  .749E-04  .677E-04  .642E-04  .541E-04  .451E-04  .386E-04
  .341E-04  .320E-04  .297E-04  .272E-04  .248E-04  .225E-04  .207E-04  .192E-04
  .179E-04  .168E-04  .158E-04  .150E-04  .136E-04  .125E-04  .000E+00  .000E+00
  .000E+00  .000E+00  .000E+00  .000E+00  .000E+00  .000E+00  .000E+00  .000E+00
  .000E+00  .000E+00  .000E+00  .000E+00  .000E+00  .000E+00  .000E+00  .000E+00
  .000E+00  .000E+00  .000E+00  .000E+00
  .113E-01  .119E-01  .126E-01  .137E-01  .143E-01  .158E-01  .200E-01  .279E-01
  .282E-01  .311E-01  .349E-01  .387E-01  .443E-01  .537E-01  .587E-01  .708E-01
  .645E-01  .871E-01  .122E+00  .131E+00  .108E+00  .115E+00  .162E+00  .145E+00
  .132E+00  .138E+00  .126E+00  .113E+00  .133E+00  .115E+00  .127E+00  .124E+00
  .974E-01  .891E-01  .867E-01  .838E-01  .774E-01  .786E-01  .706E-01  .530E-01
  .505E-01  .336E-01  .292E-01  .236E-01  .209E-01  .194E-01  .185E-01  .153E-01
  .156E-01  .154E-01  .157E-01  .155E-01  .154E-01  .140E-01  .113E-01  .862E-02
  .781E-02  .789E-02  .724E-02  .674E-02  .664E-02  .591E-02  .511E-02  .465E-02
  .419E-02  .417E-02  .407E-02  .388E-02  .364E-02  .339E-02  .318E-02  .303E-02
  .291E-02  .280E-02  .269E-02  .259E-02  .234E-02  .213E-02  .000E+00  .000E+00
  .000E+00  .000E+00  .000E+00  .000E+00  .000E+00  .000E+00  .000E+00  .000E+00
  .000E+00  .000E+00  .000E+00  .000E+00  .000E+00  .000E+00  .000E+00  .000E+00
  .000E+00  .000E+00  .000E+00  .000E+00
  .367E+02  .367E+02  .367E+02  .362E+02  .362E+02  .362E+02  .357E+02  .357E+02
  .357E+02  .367E+02  .367E+02  .367E+02  .370E+02  .367E+02  .368E+02  .368E+02
  .363E+02  .368E+02  .370E+02  .370E+02  .371E+02  .363E+02  .367E+02  .368E+02
  .367E+02  .366E+02  .366E+02  .365E+02  .365E+02  .365E+02  .364E+02  .364E+02
  .364E+02  .363E+02  .363E+02  .363E+02  .363E+02  .362E+02  .362E+02  .360E+02
  .381E+02  .396E+02  .394E+02  .392E+02  .380E+02  .380E+02  .378E+02  .378E+02
  .363E+02  .363E+02  .363E+02  .363E+02  .363E+02  .363E+02  .363E+02  .363E+02
  .363E+02  .363E+02  .363E+02  .363E+02  .363E+02  .363E+02  .363E+02  .405E+02
  .362E+02  .362E+02  .362E+02  .362E+02  .362E+02  .362E+02  .362E+02  .362E+02
  .362E+02  .362E+02  .362E+02  .362E+02  .362E+02  .362E+02  .000E+00  .000E+00
  .000E+00  .000E+00  .000E+00  .000E+00  .000E+00  .000E+00  .000E+00  .000E+00
  .000E+00  .000E+00  .000E+00  .000E+00  .000E+00  .000E+00  .000E+00  .000E+00
  .000E+00  .000E+00  .000E+00  .000E+00
  .352E+02  .352E+02  .352E+02  .352E+02  .352E+02  .353E+02  .357E+02  .357E+02
  .357E+02  .367E+02  .367E+02  .367E+02  .370E+02  .367E+02  .367E+02  .368E+02
  .365E+02  .368E+02  .370E+02  .370E+02  .370E+02  .368E+02  .368E+02  .367E+02
  .367E+02  .366E+02  .366E+02  .366E+02  .365E+02  .365E+02  .365E+02  .364E+02
  .364E+02  .364E+02  .364E+02  .363E+02  .363E+02  .363E+02  .363E+02  .359E+02
  .359E+02  .364E+02  .363E+02  .363E+02  .363E+02  .363E+02  .364E+02  .363E+02
  .363E+02  .363E+02  .363E+02  .363E+02  .363E+02  .363E+02  .363E+02  .363E+02
  .363E+02  .363E+02  .363E+02  .363E+02  .363E+02  .363E+02  .363E+02  .363E+02
  .363E+02  .363E+02  .363E+02  .363E+02  .363E+02  .363E+02  .363E+02  .363E+02
  .363E+02  .363E+02  .363E+02  .363E+02  .363E+02  .363E+02  .000E+00  .000E+00
  .000E+00  .000E+00  .000E+00  .000E+00  .000E+00  .000E+00  .000E+00  .000E+00
  .000E+00  .000E+00  .000E+00  .000E+00  .000E+00  .000E+00  .000E+00  .000E+00
  .000E+00  .000E+00  .000E+00  .000E+00
  .367E+02  .367E+02  .367E+02  .362E+02  .362E+02  .362E+02  .357E+02  .357E+02
  .357E+02  .367E+02  .367E+02  .367E+02  .370E+02  .367E+02  .368E+02  .368E+02
  .363E+02  .368E+02  .370E+02  .370E+02  .363E+02  .363E+02  .367E+02  .367E+02
  .367E+02  .367E+02  .366E+02  .365E+02  .365E+02  .365E+02  .364E+02  .364E+02
  .364E+02  .363E+02  .363E+02  .363E+02  .363E+02  .362E+02  .362E+02  .360E+02
  .381E+02  .396E+02  .394E+02  .392E+02  .380E+02  .380E+02  .378E+02  .363E+02
  .363E+02  .363E+02  .363E+02  .363E+02  .363E+02  .363E+02  .363E+02  .363E+02
  .363E+02  .363E+02  .363E+02  .363E+02  .363E+02  .363E+02  .363E+02  .363E+02
  .362E+02  .362E+02  .362E+02  .362E+02  .362E+02  .362E+02  .362E+02  .362E+02
  .362E+02  .362E+02  .362E+02  .363E+02  .363E+02  .363E+02  .000E+00  .000E+00
  .000E+00  .000E+00  .000E+00  .000E+00  .000E+00  .000E+00  .000E+00  .000E+00
  .000E+00  .000E+00  .000E+00  .000E+00  .000E+00  .000E+00  .000E+00  .000E+00
  .000E+00  .000E+00  .000E+00  .000E+00
/&   ----------  End of spectral data for channel  1  ----------
Response and Fourier amplitude spectra (78 periods,  .04 -  6.0 sec)   for      
Corrected accelerogram   38695658.CI.RSB.01.HN      Chan  2: 360 Deg     from   
Uncorrected Accelerogram Data             Processed: 09/19/20, CGS  cirsb--z    
Rcrd of Fri Sep 18, 2020 23:38:33.0 PDT               (Avol1 v2.0, 4/18 CSMIP)  
                                        (Origin:  To be determined)             
38695658.CI.RSB.01.HN                Start time:  9/19/20, 06:38:33.0 UTC (GPS) 
Station Id. RSB     33.973N, 117.327W    ObsMMS  s/n 4343  (6 Chns of  6 at Sta)
Riverside, UCR campus                    SCSN   Data: Acceleration              
Chan  2: 360 Deg                                                                
Rcrd of Fri Sep 18, 2020 23:38:33.0 PDT    Fri Sep 18, 2020 23:38:33.0 PDT      
Hypocenter:  To be determined.               ML:  To be determined.             
Instr Period =  .0050 sec,  Damping =  .707,  Sensitivity = 9.98 v/g  (Nominal) 
                        Record Length =301.000 sec.                             
                                     Uncor Max  =  -.003 g, at   35.970 sec.    
RMS accel of (uncor) record  =        .   Chn. metadata effective date:         
Accelerogram bandpass filtered with 3 dB pts at   .30 and 23.00 cyc/sec         
                 instrument- and base-line correcte                             
                                                                                
                                                                                
                                                                                
                                                                                
                                                                                
Rcrd of Fri Sep 18, 2020 23:38:33.0 PDT    Fri Sep 18, 2020 23:38:33.0 PDT      
                                                                                
38695658.CI.RSB.01.HN     Riverside, UCR campus   Chan  2: 360 Deg              
                                                                                
38695658.CI.RSB.01.HN     Riverside, UCR campus   Chan  2: 360 Deg              
                                                                                
Units for spectra are inches and sec, except Sa is in fraction of g.            
                                                                                
    2  100    2    6    6  100 -999    3    1    0   15 4343    050642   41    0
    6   38   33    8  263    9   19 2020   10    3  36035933   39   21   74 -999
35933 -999  100    6 -999 -999 -999 -999 -999 -999 -999 -999 -999 -999 -999 -999
 -999 -999 -999 -99915050    2 -999    0 -999    0 -999 -999    3    1 -99915050
    315050    4   78    1    6    5    0    0 -999    0 -999 -999    6 -999    2
    2    2    4 -999 -999 -999 -999 -999 -999 -999 -999    1 -999 -999 -999  111
    1    1 -999 -999
      .005      .707   359.330      .000     1.000  9982.946     -.003    35.970
   200.000     2.384      .239  -999.000    10.000  -999.000     1.000  -999.000
    10.000   -26.893      .000  -999.000  -999.000  -999.000  -999.000     -.028
      .003      .031     2.000    15.000    33.973  -117.327      .005      .004
      .863      .030      .032   297.000  -999.000  -999.000  -999.000  -999.000
     1.000  -999.000  -999.000  -999.000  -999.000  -999.000  -999.000   120.000
     -.900     2.000     6.800   980.665      .020   301.000    31.831     -.001
  -999.000    23.000  -999.000   301.000      .020      .300  -999.000  -999.000
    35.080    -3.016    36.040     -.102    35.780     -.006      .000      .300
    23.000      .020      .020      .000      .020      .004  -999.000  -999.000
      .014      .150      .007      .007      .000      .000  -999.000  -999.000
  -999.000  -999.000  -999.000  -999.000  -999.000  -999.000  -999.000  -999.000
  -999.000  -999.000  -999.000  -999.000
      .050
      .040      .042      .044      .046      .048      .050      .055      .060
      .065      .070      .075      .080      .085      .090      .095      .100
      .110      .120      .130      .140      .150      .160      .170      .180
      .190      .200      .220      .240      .260      .280      .300      .320
      .340      .360      .380      .400      .420      .440      .460      .480
      .500      .550      .600      .650      .700      .750      .800      .850
      .900      .950     1.000     1.100     1.200     1.300     1.400     1.500
     1.600     1.700     1.800     1.900     2.000     2.200     2.400     2.600
     2.800     3.000     3.200     3.400     3.600     3.800     4.000     4.200
     4.400     4.600     4.800     5.000     5.500     6.000      .000      .000
      .000      .000      .000      .000      .000      .000      .000      .000
      .000      .000      .000      .000      .000      .000      .000      .000
      .000      .000      .000      .000
Fourier amplitude spectra in in/sec.
  .000E+00  .000E+00  .000E+00  .000E+00  .000E+00  .000E+00  .000E+00  .000E+00
  .000E+00  .000E+00  .000E+00  .000E+00  .000E+00  .000E+00  .000E+00  .000E+00
  .000E+00  .000E+00  .000E+00  .000E+00  .000E+00  .000E+00  .000E+00  .000E+00
  .000E+00  .000E+00  .000E+00  .000E+00  .000E+00  .000E+00  .000E+00  .000E+00
  .000E+00  .000E+00  .000E+00  .000E+00  .000E+00  .000E+00  .000E+00  .000E+00
  .000E+00  .000E+00  .000E+00  .000E+00  .000E+00  .000E+00  .000E+00  .000E+00
  .000E+00  .000E+00  .000E+00  .000E+00  .000E+00  .000E+00  .000E+00  .000E+00
  .000E+00  .000E+00  .000E+00  .000E+00  .000E+00  .000E+00  .000E+00  .000E+00
  .000E+00  .000E+00  .000E+00  .000E+00  .000E+00  .000E+00  .000E+00  .000E+00
  .000E+00  .000E+00  .000E+00  .000E+00  .000E+00  .000E+00  .000E+00  .000E+00
  .000E+00  .000E+00  .000E+00  .000E+00  .000E+00  .000E+00  .000E+00  .000E+00
  .000E+00  .000E+00  .000E+00  .000E+00  .000E+00  .000E+00  .000E+00  .000E+00
  .000E+00  .000E+00  .000E+00  .000E+00
Damping =  .05. Data of Sd,Sv,Sa,Pssv,ttSd,ttSv,ttSa :
  .543E-04  .616E-04  .721E-04  .843E-04  .113E-03  .140E-03  .189E-03  .226E-03
  .283E-03  .351E-03  .428E-03  .428E-03  .525E-03  .633E-03  .815E-03  .935E-03
  .140E-02  .155E-02  .208E-02  .198E-02  .302E-02  .281E-02  .308E-02  .323E-02
  .279E-02  .231E-02  .273E-02  .300E-02  .402E-02  .587E-02  .665E-02  .582E-02
  .461E-02  .485E-02  .547E-02  .623E-02  .758E-02  .904E-02  .968E-02  .877E-02
