Response and Fourier amplitude spectra (78 periods,  .04 -  6.0 sec)   for      
Corrected accelerogram   38695658.CI.RVR.--.HN      Chan  1:  90 Deg     from   
Uncorrected Accelerogram Data             Processed: 09/19/20, CGS  cirvr--h    
Rcrd of Fri Sep 18, 2020 23:38:34.0 PDT               (Avol1 v2.0, 4/18 CSMIP)  
                                        (Origin:  To be determined)             
38695658.CI.RVR.--.HN                Start time:  9/19/20, 06:38:34.0 UTC (GPS) 
Station Id. RVR     33.994N, 117.375W    ObsMMS  s/n 3937  (3 Chns of  3 at Sta)
Riverside, Lake Evans                    SCSN   Data: Acceleration              
Chan  1:  90 Deg                                                                
Rcrd of Fri Sep 18, 2020 23:38:34.0 PDT    Fri Sep 18, 2020 23:38:34.0 PDT      
Hypocenter:  To be determined.               ML:  To be determined.             
Instr Period =  .0050 sec,  Damping =  .707,  Sensitivity = 4.99 v/g  (Nominal) 
                        Record Length =301.000 sec.                             
                                     Uncor Max  =   .010 g, at   33.270 sec.    
RMS accel of (uncor) record  =        .   Chn. metadata effective date:         
Accelerogram bandpass filtered with 3 dB pts at   .30 and 23.00 cyc/sec         
                 instrument- and base-line correcte                             
                                                                                
                                                                                
                                                                                
                                                                                
                                                                                
Rcrd of Fri Sep 18, 2020 23:38:34.0 PDT    Fri Sep 18, 2020 23:38:34.0 PDT      
                                                                                
38695658.CI.RVR.--.HN     Riverside, Lake Evans   Chan  1:  90 Deg              
                                                                                
38695658.CI.RVR.--.HN     Riverside, Lake Evans   Chan  1:  90 Deg              
                                                                                
Units for spectra are inches and sec, except Sa is in fraction of g.            
                                                                                
    1  100    1    3    3  100 -999    3    1    0   15 3937    050564   41    0
    6   38   34    8  263    9   19 2020   10    3   9035525   39   21   74 -999
35525 -999  100    6 -999 -999 -999 -999 -999 -999 -999 -999 -999 -999 -999 -999
 -999 -999 -999 -99915050    2 -999    0 -999   20 -999 -999    3    1 -99915050
    315050    4   78    1    3    5    0    0 -999    0 -999 -999    6 -999    2
    2    2    4 -999 -999 -999 -999 -999 -999 -999 -999    1 -999 -999 -999  111
    1    1 -999 -999
      .005      .707   355.250      .000     1.000  4992.069      .010    33.270
   200.000     2.384      .478  -999.000    10.000  -999.000     4.000  -999.000
    20.000    -6.806      .000  -999.000  -999.000  -999.000  -999.000      .000
      .001      .001     2.000    15.000    33.994  -117.376      .004      .003
      .655      .000      .002   266.000  -999.000  -999.000  -999.000  -999.000
     1.000  -999.000    -8.000  -999.000  -999.000  -999.000  -999.000   120.000
     -.900     2.000     6.800   980.665      .020   301.000    31.831      .000
  -999.000    23.000  -999.000   301.000      .020      .300  -999.000  -999.000
    33.620    -7.417    33.600      .126    34.240     -.004      .000      .300
    23.000      .020      .020      .000      .020      .003  -999.000  -999.000
      .025      .065      .009      .003      .000      .000  -999.000  -999.000
  -999.000  -999.000  -999.000  -999.000  -999.000  -999.000  -999.000  -999.000
  -999.000  -999.000  -999.000  -999.000
      .050
      .040      .042      .044      .046      .048      .050      .055      .060
      .065      .070      .075      .080      .085      .090      .095      .100
      .110      .120      .130      .140      .150      .160      .170      .180
      .190      .200      .220      .240      .260      .280      .300      .320
      .340      .360      .380      .400      .420      .440      .460      .480
      .500      .550      .600      .650      .700      .750      .800      .850
      .900      .950     1.000     1.100     1.200     1.300     1.400     1.500
     1.600     1.700     1.800     1.900     2.000     2.200     2.400     2.600
     2.800     3.000     3.200     3.400     3.600     3.800     4.000     4.200
     4.400     4.600     4.800     5.000     5.500     6.000      .000      .000
      .000      .000      .000      .000      .000      .000      .000      .000
      .000      .000      .000      .000      .000      .000      .000      .000
      .000      .000      .000      .000
Fourier amplitude spectra in in/sec.
  .000E+00  .000E+00  .000E+00  .000E+00  .000E+00  .000E+00  .000E+00  .000E+00
  .000E+00  .000E+00  .000E+00  .000E+00  .000E+00  .000E+00  .000E+00  .000E+00
  .000E+00  .000E+00  .000E+00  .000E+00  .000E+00  .000E+00  .000E+00  .000E+00
  .000E+00  .000E+00  .000E+00  .000E+00  .000E+00  .000E+00  .000E+00  .000E+00
  .000E+00  .000E+00  .000E+00  .000E+00  .000E+00  .000E+00  .000E+00  .000E+00
  .000E+00  .000E+00  .000E+00  .000E+00  .000E+00  .000E+00  .000E+00  .000E+00
  .000E+00  .000E+00  .000E+00  .000E+00  .000E+00  .000E+00  .000E+00  .000E+00
  .000E+00  .000E+00  .000E+00  .000E+00  .000E+00  .000E+00  .000E+00  .000E+00
  .000E+00  .000E+00  .000E+00  .000E+00  .000E+00  .000E+00  .000E+00  .000E+00
  .000E+00  .000E+00  .000E+00  .000E+00  .000E+00  .000E+00  .000E+00  .000E+00
  .000E+00  .000E+00  .000E+00  .000E+00  .000E+00  .000E+00  .000E+00  .000E+00
  .000E+00  .000E+00  .000E+00  .000E+00  .000E+00  .000E+00  .000E+00  .000E+00
  .000E+00  .000E+00  .000E+00  .000E+00
Damping =  .05. Data of Sd,Sv,Sa,Pssv,ttSd,ttSv,ttSa :
  .222E-03  .238E-03  .239E-03  .284E-03  .340E-03  .388E-03  .719E-03  .872E-03
  .102E-02  .925E-03  .115E-02  .136E-02  .131E-02  .152E-02  .193E-02  .207E-02
  .210E-02  .263E-02  .383E-02  .429E-02  .394E-02  .309E-02  .310E-02  .311E-02
  .307E-02  .315E-02  .558E-02  .582E-02  .403E-02  .292E-02  .281E-02  .214E-02
  .178E-02  .196E-02  .227E-02  .220E-02  .189E-02  .197E-02  .189E-02  .169E-02
  .186E-02  .182E-02  .152E-02  .203E-02  .221E-02  .184E-02  .178E-02  .180E-02
  .172E-02  .161E-02  .159E-02  .188E-02  .196E-02  .182E-02  .162E-02  .164E-02
  .179E-02  .196E-02  .193E-02  .192E-02  .201E-02  .177E-02  .164E-02  .157E-02
  .152E-02  .150E-02  .147E-02  .143E-02  .138E-02  .134E-02  .135E-02  .138E-02
  .139E-02  .139E-02  .139E-02  .140E-02  .141E-02  .142E-02  .000E+00  .000E+00
  .000E+00  .000E+00  .000E+00  .000E+00  .000E+00  .000E+00  .000E+00  .000E+00
  .000E+00  .000E+00  .000E+00  .000E+00  .000E+00  .000E+00  .000E+00  .000E+00
  .000E+00  .000E+00  .000E+00  .000E+00
  .241E-01  .244E-01  .235E-01  .255E-01  .304E-01  .322E-01  .667E-01  .863E-01
  .962E-01  .727E-01  .943E-01  .107E+00  .924E-01  .958E-01  .124E+00  .121E+00
  .114E+00  .135E+00  .190E+00  .204E+00  .175E+00  .138E+00  .126E+00  .123E+00
  .123E+00  .106E+00  .163E+00  .153E+00  .123E+00  .915E-01  .811E-01  .747E-01
  .609E-01  .617E-01  .670E-01  .713E-01  .705E-01  .649E-01  .584E-01  .525E-01
  .503E-01  .503E-01  .550E-01  .553E-01  .524E-01  .482E-01  .465E-01  .453E-01
  .452E-01  .455E-01  .467E-01  .462E-01  .455E-01  .431E-01  .430E-01  .435E-01
  .437E-01  .432E-01  .431E-01  .432E-01  .430E-01  .425E-01  .425E-01  .427E-01
  .428E-01  .428E-01  .430E-01  .431E-01  .432E-01  .433E-01  .434E-01  .433E-01
  .433E-01  .434E-01  .434E-01  .434E-01  .434E-01  .434E-01  .000E+00  .000E+00
  .000E+00  .000E+00  .000E+00  .000E+00  .000E+00  .000E+00  .000E+00  .000E+00
  .000E+00  .000E+00  .000E+00  .000E+00  .000E+00  .000E+00  .000E+00  .000E+00
  .000E+00  .000E+00  .000E+00  .000E+00
  .144E-01  .137E-01  .127E-01  .139E-01  .151E-01  .159E-01  .242E-01  .244E-01
  .250E-01  .193E-01  .209E-01  .216E-01  .184E-01  .194E-01  .218E-01  .216E-01
  .180E-01  .188E-01  .236E-01  .225E-01  .179E-01  .124E-01  .110E-01  .100E-01
  .888E-02  .790E-02  .116E-01  .103E-01  .605E-02  .376E-02  .313E-02  .219E-02
  .161E-02  .157E-02  .158E-02  .137E-02  .116E-02  .107E-02  .909E-03  .799E-03
  .755E-03  .603E-03  .482E-03  .493E-03  .459E-03  .341E-03  .292E-03  .260E-03
  .222E-03  .188E-03  .168E-03  .164E-03  .145E-03  .123E-03  .100E-03  .906E-04
  .867E-04  .841E-04  .753E-04  .683E-04  .633E-04  .498E-04  .428E-04  .371E-04
  .326E-04  .292E-04  .261E-04  .236E-04  .215E-04  .201E-04  .187E-04  .177E-04
  .167E-04  .158E-04  .150E-04  .143E-04  .128E-04  .115E-04  .000E+00  .000E+00
  .000E+00  .000E+00  .000E+00  .000E+00  .000E+00  .000E+00  .000E+00  .000E+00
  .000E+00  .000E+00  .000E+00  .000E+00  .000E+00  .000E+00  .000E+00  .000E+00
  .000E+00  .000E+00  .000E+00  .000E+00
  .348E-01  .355E-01  .342E-01  .388E-01  .445E-01  .487E-01  .821E-01  .913E-01
  .983E-01  .830E-01  .963E-01  .107E+00  .966E-01  .106E+00  .127E+00  .130E+00
  .120E+00  .138E+00  .185E+00  .192E+00  .165E+00  .121E+00  .115E+00  .108E+00
  .102E+00  .991E-01  .159E+00  .152E+00  .975E-01  .655E-01  .588E-01  .419E-01
  .328E-01  .342E-01  .376E-01  .346E-01  .282E-01  .281E-01  .258E-01  .222E-01
  .233E-01  .207E-01  .159E-01  .196E-01  .199E-01  .154E-01  .140E-01  .133E-01
  .120E-01  .107E-01  .999E-02  .107E-01  .103E-01  .881E-02  .726E-02  .687E-02
  .702E-02  .725E-02  .675E-02  .636E-02  .632E-02  .504E-02  .429E-02  .381E-02
  .341E-02  .315E-02  .289E-02  .265E-02  .241E-02  .222E-02  .212E-02  .206E-02
  .198E-02  .189E-02  .182E-02  .176E-02  .162E-02  .148E-02  .000E+00  .000E+00
  .000E+00  .000E+00  .000E+00  .000E+00  .000E+00  .000E+00  .000E+00  .000E+00
  .000E+00  .000E+00  .000E+00  .000E+00  .000E+00  .000E+00  .000E+00  .000E+00
  .000E+00  .000E+00  .000E+00  .000E+00
  .333E+02  .333E+02  .336E+02  .336E+02  .336E+02  .336E+02  .336E+02  .338E+02
  .336E+02  .336E+02  .336E+02  .336E+02  .331E+02  .339E+02  .336E+02  .336E+02
  .336E+02  .335E+02  .334E+02  .334E+02  .337E+02  .337E+02  .338E+02  .334E+02
  .333E+02  .343E+02  .344E+02  .343E+02  .343E+02  .340E+02  .336E+02  .343E+02
  .343E+02  .336E+02  .336E+02  .342E+02  .335E+02  .335E+02  .335E+02  .339E+02
  .342E+02  .342E+02  .342E+02  .342E+02  .342E+02  .342E+02  .341E+02  .341E+02
  .341E+02  .341E+02  .341E+02  .341E+02  .341E+02  .343E+02  .337E+02  .346E+02
  .346E+02  .346E+02  .346E+02  .346E+02  .386E+02  .378E+02  .340E+02  .340E+02
  .340E+02  .342E+02  .342E+02  .342E+02  .342E+02  .342E+02  .342E+02  .342E+02
  .342E+02  .342E+02  .342E+02  .342E+02  .342E+02  .342E+02  .000E+00  .000E+00
  .000E+00  .000E+00  .000E+00  .000E+00  .000E+00  .000E+00  .000E+00  .000E+00
  .000E+00  .000E+00  .000E+00  .000E+00  .000E+00  .000E+00  .000E+00  .000E+00
  .000E+00  .000E+00  .000E+00  .000E+00
  .333E+02  .333E+02  .333E+02  .333E+02  .333E+02  .336E+02  .336E+02  .339E+02
  .337E+02  .335E+02  .335E+02  .335E+02  .331E+02  .339E+02  .337E+02  .337E+02
  .336E+02  .334E+02  .335E+02  .334E+02  .336E+02  .336E+02  .338E+02  .333E+02
  .334E+02  .333E+02  .343E+02  .343E+02  .342E+02  .339E+02  .336E+02  .336E+02
  .336E+02  .342E+02  .336E+02  .336E+02  .336E+02  .336E+02  .336E+02  .336E+02
  .336E+02  .336E+02  .336E+02  .336E+02  .336E+02  .336E+02  .336E+02  .336E+02
  .336E+02  .336E+02  .336E+02  .336E+02  .336E+02  .336E+02  .336E+02  .336E+02
  .336E+02  .336E+02  .336E+02  .336E+02  .336E+02  .336E+02  .336E+02  .336E+02
  .336E+02  .336E+02  .336E+02  .336E+02  .336E+02  .336E+02  .336E+02  .336E+02
  .336E+02  .336E+02  .336E+02  .336E+02  .336E+02  .336E+02  .000E+00  .000E+00
  .000E+00  .000E+00  .000E+00  .000E+00  .000E+00  .000E+00  .000E+00  .000E+00
  .000E+00  .000E+00  .000E+00  .000E+00  .000E+00  .000E+00  .000E+00  .000E+00
  .000E+00  .000E+00  .000E+00  .000E+00
  .333E+02  .333E+02  .336E+02  .336E+02  .336E+02  .336E+02  .336E+02  .338E+02
  .336E+02  .336E+02  .336E+02  .336E+02  .331E+02  .339E+02  .340E+02  .336E+02
  .336E+02  .335E+02  .334E+02  .334E+02  .337E+02  .337E+02  .338E+02  .334E+02
  .333E+02  .343E+02  .344E+02  .343E+02  .343E+02  .340E+02  .336E+02  .332E+02
  .339E+02  .336E+02  .336E+02  .342E+02  .335E+02  .335E+02  .335E+02  .339E+02
  .342E+02  .332E+02  .332E+02  .342E+02  .342E+02  .342E+02  .341E+02  .341E+02
  .341E+02  .341E+02  .341E+02  .341E+02  .341E+02  .343E+02  .345E+02  .345E+02
  .345E+02  .345E+02  .345E+02  .345E+02  .345E+02  .339E+02  .339E+02  .339E+02
  .339E+02  .339E+02  .339E+02  .339E+02  .336E+02  .336E+02  .339E+02  .339E+02
  .339E+02  .339E+02  .339E+02  .339E+02  .339E+02  .339E+02  .000E+00  .000E+00
  .000E+00  .000E+00  .000E+00  .000E+00  .000E+00  .000E+00  .000E+00  .000E+00
  .000E+00  .000E+00  .000E+00  .000E+00  .000E+00  .000E+00  .000E+00  .000E+00
  .000E+00  .000E+00  .000E+00  .000E+00
/&   ----------  End of spectral data for channel  1  ----------
Response and Fourier amplitude spectra (78 periods,  .04 -  6.0 sec)   for      
Corrected accelerogram   38695658.CI.RVR.--.HN      Chan  2: 360 Deg     from   
Uncorrected Accelerogram Data             Processed: 09/19/20, CGS  cirvr--h    
Rcrd of Fri Sep 18, 2020 23:38:34.0 PDT               (Avol1 v2.0, 4/18 CSMIP)  
                                        (Origin:  To be determined)             
38695658.CI.RVR.--.HN                Start time:  9/19/20, 06:38:34.0 UTC (GPS) 
Station Id. RVR     33.994N, 117.375W    ObsMMS  s/n 3937  (3 Chns of  3 at Sta)
Riverside, Lake Evans                    SCSN   Data: Acceleration              
Chan  2: 360 Deg                                                                
Rcrd of Fri Sep 18, 2020 23:38:34.0 PDT    Fri Sep 18, 2020 23:38:34.0 PDT      
Hypocenter:  To be determined.               ML:  To be determined.             
Instr Period =  .0050 sec,  Damping =  .707,  Sensitivity = 4.99 v/g  (Nominal) 
                        Record Length =301.000 sec.                             
                                     Uncor Max  =   .010 g, at   33.480 sec.    
RMS accel of (uncor) record  =        .   Chn. metadata effective date:         
Accelerogram bandpass filtered with 3 dB pts at   .30 and 23.00 cyc/sec         
                 instrument- and base-line correcte                             
                                                                                
                                                                                
                                                                                
                                                                                
                                                                                
Rcrd of Fri Sep 18, 2020 23:38:34.0 PDT    Fri Sep 18, 2020 23:38:34.0 PDT      
                                                                                
38695658.CI.RVR.--.HN     Riverside, Lake Evans   Chan  2: 360 Deg              
                                                                                
38695658.CI.RVR.--.HN     Riverside, Lake Evans   Chan  2: 360 Deg              
                                                                                
Units for spectra are inches and sec, except Sa is in fraction of g.            
                                                                                
    2  100    2    3    3  100 -999    3    1    0   15 3937    050564   41    0
    6   38   34    8  263    9   19 2020   10    3  36035590   39   21   74 -999
35590 -999  100    6 -999 -999 -999 -999 -999 -999 -999 -999 -999 -999 -999 -999
 -999 -999 -999 -99915050    2 -999    0 -999   20 -999 -999    3    1 -99915050
    315050    4   78    1    3    5    0    0 -999    0 -999 -999    6 -999    2
    2    2    4 -999 -999 -999 -999 -999 -999 -999 -999    1 -999 -999 -999  111
    1    1 -999 -999
      .005      .707   355.900      .000     1.000  4987.282      .010    33.480
   200.000     2.384      .478  -999.000    10.000  -999.000     4.000  -999.000
    20.000   -10.740      .000  -999.000  -999.000  -999.000  -999.000      .001
      .000     -.001     2.000    15.000    33.994  -117.376      .003      .002
      .788     -.001      .000   266.000  -999.000  -999.000  -999.000  -999.000
     1.000  -999.000  -999.000  -999.000  -999.000  -999.000  -999.000   120.000
     -.900     2.000     6.800   980.665      .020   301.000    31.831      .000
  -999.000    23.000  -999.000   301.000      .020      .300  -999.000  -999.000
    33.480     8.940    33.460     -.141    33.980     -.004      .000      .300
    23.000      .020      .020      .000      .020      .004  -999.000  -999.000
      .041      .095      .009      .003      .000      .000  -999.000  -999.000
  -999.000  -999.000  -999.000  -999.000  -999.000  -999.000  -999.000  -999.000
  -999.000  -999.000  -999.000  -999.000
      .050
      .040      .042      .044      .046      .048      .050      .055      .060
      .065      .070      .075      .080      .085      .090      .095      .100
      .110      .120      .130      .140      .150      .160      .170      .180
      .190      .200      .220      .240      .260      .280      .300      .320
      .340      .360      .380      .400      .420      .440      .460      .480
      .500      .550      .600      .650      .700      .750      .800      .850
      .900      .950     1.000     1.100     1.200     1.300     1.400     1.500
     1.600     1.700     1.800     1.900     2.000     2.200     2.400     2.600
     2.800     3.000     3.200     3.400     3.600     3.800     4.000     4.200
     4.400     4.600     4.800     5.000     5.500     6.000      .000      .000
      .000      .000      .000      .000      .000      .000      .000      .000
      .000      .000      .000      .000      .000      .000      .000      .000
      .000      .000      .000      .000
Fourier amplitude spectra in in/sec.
  .000E+00  .000E+00  .000E+00  .000E+00  .000E+00  .000E+00  .000E+00  .000E+00
  .000E+00  .000E+00  .000E+00  .000E+00  .000E+00  .000E+00  .000E+00  .000E+00
  .000E+00  .000E+00  .000E+00  .000E+00  .000E+00  .000E+00  .000E+00  .000E+00
  .000E+00  .000E+00  .000E+00  .000E+00  .000E+00  .000E+00  .000E+00  .000E+00
  .000E+00  .000E+00  .000E+00  .000E+00  .000E+00  .000E+00  .000E+00  .000E+00
  .000E+00  .000E+00  .000E+00  .000E+00  .000E+00  .000E+00  .000E+00  .000E+00
  .000E+00  .000E+00  .000E+00  .000E+00  .000E+00  .000E+00  .000E+00  .000E+00
  .000E+00  .000E+00  .000E+00  .000E+00  .000E+00  .000E+00  .000E+00  .000E+00
  .000E+00  .000E+00  .000E+00  .000E+00  .000E+00  .000E+00  .000E+00  .000E+00
  .000E+00  .000E+00  .000E+00  .000E+00  .000E+00  .000E+00  .000E+00  .000E+00
  .000E+00  .000E+00  .000E+00  .000E+00  .000E+00  .000E+00  .000E+00  .000E+00
  .000E+00  .000E+00  .000E+00  .000E+00  .000E+00  .000E+00  .000E+00  .000E+00
  .000E+00  .000E+00  .000E+00  .000E+00
Damping =  .05. Data of Sd,Sv,Sa,Pssv,ttSd,ttSv,ttSa :
  .235E-03  .243E-03  .227E-03  .230E-03  .249E-03  .271E-03  .358E-03  .542E-03
  .776E-03  .995E-03  .134E-02  .202E-02  .247E-02  .307E-02  .361E-02  .342E-02
  .298E-02  .341E-02  .371E-02  .311E-02  .237E-02  .221E-02  .268E-02  .289E-02
  .315E-02  .321E-02  .503E-02  .424E-02  .314E-02  .313E-02  .262E-02  .235E-02
  .208E-02  .184E-02  .181E-02  .159E-02  .187E-02  .203E-02  .211E-02  .234E-02
