Response and Fourier amplitude spectra (78 periods,  .04 -  6.0 sec)   for      
Corrected accelerogram   38695658.CI.SAN.--.HN      Chan  1:  90 Deg     from   
Uncorrected Accelerogram Data             Processed: 09/19/20, CGS  cisan--n    
Rcrd of Fri Sep 18, 2020 23:38:32.0 PDT               (Avol1 v2.0, 4/18 CSMIP)  
                                        (Origin:  To be determined)             
38695658.CI.SAN.--.HN                Start time:  9/19/20, 06:38:32.0 UTC (GPS) 
Station Id. SAN     33.704N, 117.886W    ObsMMS  s/n 1133  (3 Chns of  6 at Sta)
3220 Bristol ave. , Santa Ana            SCSN   Data: Acceleration              
Chan  1:  90 Deg                                                                
Rcrd of Fri Sep 18, 2020 23:38:32.0 PDT    Fri Sep 18, 2020 23:38:32.0 PDT      
Hypocenter:  To be determined.               ML:  To be determined.             
Instr Period =  .0050 sec,  Damping =  .707,  Sensitivity = 4.99 v/g  (Nominal) 
                        Record Length =301.000 sec.                             
                                     Uncor Max  =  -.007 g, at   32.920 sec.    
RMS accel of (uncor) record  =        .   Chn. metadata effective date:         
Accelerogram bandpass filtered with 3 dB pts at   .30 and 23.00 cyc/sec         
                 instrument- and base-line correcte                             
                                                                                
                                                                                
                                                                                
                                                                                
                                                                                
Rcrd of Fri Sep 18, 2020 23:38:32.0 PDT    Fri Sep 18, 2020 23:38:32.0 PDT      
                                                                                
38695658.CI.SAN.--.HN     3220 Bristol ave. , Santa Ana   Chan  1:  90 Deg      
                                                                                
38695658.CI.SAN.--.HN     3220 Bristol ave. , Santa Ana   Chan  1:  90 Deg      
                                                                                
Units for spectra are inches and sec, except Sa is in fraction of g.            
                                                                                
    1  100    1    6    6  100 -999    3    1    0   15 1133    050644   41    0
    6   38   32    0  263    9   19 2020   10    3   9035622   39   29   74 -999
35622 -999  100    6 -999 -999 -999 -999 -999 -999 -999 -999 -999 -999 -999 -999
 -999 -999 -999 -99915050    2 -999    0 -999   20 -999 -999    3    1 505815050
    315050    4   78    1    3    5    0    0 -999    0 -999 -999    6 -999    2
    2    2    4 -999 -999 -999 -999 -999 -999 -999 -999    1 -999 -999 -999  111
    1    1 -999 -999
      .005      .707   356.220      .000     1.000  4991.271     -.007    32.920
   200.000     2.384      .478  -999.000    10.000  -999.000     4.000  -999.000
    20.000   -10.285      .000  -999.000  -999.000  -999.000  -999.000     -.001
      .000      .000     2.000    15.000    33.704  -117.886      .004      .004
     1.163      .000      .001    11.000  -999.000  -999.000  -999.000  -999.000
     1.000  -999.000    -8.000  -999.000  -999.000  -999.000  -999.000   120.000
     -.900     2.000     6.800   980.665      .020   301.000    31.831      .000
  -999.000    23.000  -999.000   301.000      .020      .300  -999.000  -999.000
    32.920    -6.522    29.260     -.193    40.500      .016      .000      .300
    23.000      .020      .020      .000      .020      .021  -999.000  -999.000
      .025      .095      .017      .012      .001      .000  -999.000  -999.000
  -999.000  -999.000  -999.000  -999.000  -999.000  -999.000  -999.000  -999.000
  -999.000  -999.000  -999.000  -999.000
      .050
      .040      .042      .044      .046      .048      .050      .055      .060
      .065      .070      .075      .080      .085      .090      .095      .100
      .110      .120      .130      .140      .150      .160      .170      .180
      .190      .200      .220      .240      .260      .280      .300      .320
      .340      .360      .380      .400      .420      .440      .460      .480
      .500      .550      .600      .650      .700      .750      .800      .850
      .900      .950     1.000     1.100     1.200     1.300     1.400     1.500
     1.600     1.700     1.800     1.900     2.000     2.200     2.400     2.600
     2.800     3.000     3.200     3.400     3.600     3.800     4.000     4.200
     4.400     4.600     4.800     5.000     5.500     6.000      .000      .000
      .000      .000      .000      .000      .000      .000      .000      .000
      .000      .000      .000      .000      .000      .000      .000      .000
      .000      .000      .000      .000
Fourier amplitude spectra in in/sec.
  .000E+00  .000E+00  .000E+00  .000E+00  .000E+00  .000E+00  .000E+00  .000E+00
  .000E+00  .000E+00  .000E+00  .000E+00  .000E+00  .000E+00  .000E+00  .000E+00
  .000E+00  .000E+00  .000E+00  .000E+00  .000E+00  .000E+00  .000E+00  .000E+00
  .000E+00  .000E+00  .000E+00  .000E+00  .000E+00  .000E+00  .000E+00  .000E+00
  .000E+00  .000E+00  .000E+00  .000E+00  .000E+00  .000E+00  .000E+00  .000E+00
  .000E+00  .000E+00  .000E+00  .000E+00  .000E+00  .000E+00  .000E+00  .000E+00
  .000E+00  .000E+00  .000E+00  .000E+00  .000E+00  .000E+00  .000E+00  .000E+00
  .000E+00  .000E+00  .000E+00  .000E+00  .000E+00  .000E+00  .000E+00  .000E+00
  .000E+00  .000E+00  .000E+00  .000E+00  .000E+00  .000E+00  .000E+00  .000E+00
  .000E+00  .000E+00  .000E+00  .000E+00  .000E+00  .000E+00  .000E+00  .000E+00
  .000E+00  .000E+00  .000E+00  .000E+00  .000E+00  .000E+00  .000E+00  .000E+00
  .000E+00  .000E+00  .000E+00  .000E+00  .000E+00  .000E+00  .000E+00  .000E+00
  .000E+00  .000E+00  .000E+00  .000E+00
Damping =  .05. Data of Sd,Sv,Sa,Pssv,ttSd,ttSv,ttSa :
  .105E-03  .119E-03  .134E-03  .147E-03  .168E-03  .200E-03  .255E-03  .344E-03
  .609E-03  .845E-03  .872E-03  .840E-03  .105E-02  .173E-02  .214E-02  .186E-02
  .257E-02  .312E-02  .372E-02  .409E-02  .421E-02  .389E-02  .377E-02  .513E-02
  .565E-02  .626E-02  .844E-02  .830E-02  .992E-02  .885E-02  .112E-01  .117E-01
  .938E-02  .966E-02  .114E-01  .131E-01  .140E-01  .140E-01  .140E-01  .146E-01
  .148E-01  .147E-01  .127E-01  .136E-01  .155E-01  .113E-01  .975E-02  .105E-01
  .112E-01  .117E-01  .131E-01  .172E-01  .148E-01  .143E-01  .170E-01  .139E-01
  .155E-01  .161E-01  .139E-01  .137E-01  .121E-01  .111E-01  .133E-01  .146E-01
  .143E-01  .123E-01  .110E-01  .106E-01  .110E-01  .105E-01  .933E-02  .816E-02
  .722E-02  .672E-02  .657E-02  .653E-02  .666E-02  .683E-02  .000E+00  .000E+00
  .000E+00  .000E+00  .000E+00  .000E+00  .000E+00  .000E+00  .000E+00  .000E+00
  .000E+00  .000E+00  .000E+00  .000E+00  .000E+00  .000E+00  .000E+00  .000E+00
  .000E+00  .000E+00  .000E+00  .000E+00
  .718E-02  .784E-02  .855E-02  .975E-02  .113E-01  .125E-01  .163E-01  .273E-01
  .449E-01  .585E-01  .580E-01  .559E-01  .647E-01  .109E+00  .139E+00  .112E+00
  .132E+00  .157E+00  .176E+00  .185E+00  .173E+00  .147E+00  .146E+00  .157E+00
  .179E+00  .192E+00  .235E+00  .218E+00  .272E+00  .214E+00  .277E+00  .225E+00
  .202E+00  .205E+00  .211E+00  .211E+00  .217E+00  .225E+00  .229E+00  .222E+00
  .211E+00  .206E+00  .182E+00  .142E+00  .145E+00  .109E+00  .104E+00  .103E+00
  .106E+00  .110E+00  .109E+00  .114E+00  .107E+00  .113E+00  .111E+00  .101E+00
  .986E-01  .952E-01  .922E-01  .899E-01  .879E-01  .847E-01  .829E-01  .821E-01
  .817E-01  .810E-01  .799E-01  .786E-01  .775E-01  .766E-01  .761E-01  .758E-01
  .755E-01  .754E-01  .753E-01  .753E-01  .753E-01  .753E-01  .000E+00  .000E+00
  .000E+00  .000E+00  .000E+00  .000E+00  .000E+00  .000E+00  .000E+00  .000E+00
  .000E+00  .000E+00  .000E+00  .000E+00  .000E+00  .000E+00  .000E+00  .000E+00
  .000E+00  .000E+00  .000E+00  .000E+00
  .674E-02  .692E-02  .710E-02  .709E-02  .749E-02  .815E-02  .868E-02  .988E-02
  .147E-01  .175E-01  .162E-01  .134E-01  .149E-01  .219E-01  .245E-01  .191E-01
  .215E-01  .223E-01  .230E-01  .216E-01  .192E-01  .157E-01  .132E-01  .163E-01
  .159E-01  .161E-01  .177E-01  .147E-01  .153E-01  .114E-01  .127E-01  .118E-01
  .847E-02  .774E-02  .803E-02  .846E-02  .821E-02  .733E-02  .677E-02  .655E-02
  .604E-02  .505E-02  .365E-02  .331E-02  .323E-02  .208E-02  .157E-02  .151E-02
  .142E-02  .134E-02  .135E-02  .146E-02  .106E-02  .871E-03  .897E-03  .641E-03
  .624E-03  .573E-03  .438E-03  .395E-03  .312E-03  .239E-03  .239E-03  .227E-03
  .191E-03  .144E-03  .115E-03  .989E-04  .916E-04  .797E-04  .646E-04  .514E-04
  .445E-04  .405E-04  .372E-04  .343E-04  .288E-04  .249E-04  .000E+00  .000E+00
  .000E+00  .000E+00  .000E+00  .000E+00  .000E+00  .000E+00  .000E+00  .000E+00
  .000E+00  .000E+00  .000E+00  .000E+00  .000E+00  .000E+00  .000E+00  .000E+00
  .000E+00  .000E+00  .000E+00  .000E+00
  .165E-01  .178E-01  .192E-01  .201E-01  .220E-01  .251E-01  .291E-01  .361E-01
  .589E-01  .759E-01  .731E-01  .660E-01  .779E-01  .121E+00  .141E+00  .117E+00
  .147E+00  .163E+00  .180E+00  .183E+00  .176E+00  .153E+00  .139E+00  .179E+00
  .187E+00  .197E+00  .241E+00  .217E+00  .240E+00  .199E+00  .235E+00  .230E+00
  .173E+00  .169E+00  .188E+00  .205E+00  .209E+00  .199E+00  .191E+00  .191E+00
  .186E+00  .168E+00  .133E+00  .131E+00  .139E+00  .949E-01  .766E-01  .779E-01
  .779E-01  .772E-01  .822E-01  .985E-01  .773E-01  .689E-01  .764E-01  .582E-01
  .607E-01  .596E-01  .484E-01  .455E-01  .381E-01  .317E-01  .349E-01  .354E-01
  .321E-01  .257E-01  .215E-01  .196E-01  .191E-01  .174E-01  .147E-01  .122E-01
  .103E-01  .917E-02  .859E-02  .821E-02  .761E-02  .715E-02  .000E+00  .000E+00
  .000E+00  .000E+00  .000E+00  .000E+00  .000E+00  .000E+00  .000E+00  .000E+00
  .000E+00  .000E+00  .000E+00  .000E+00  .000E+00  .000E+00  .000E+00  .000E+00
  .000E+00  .000E+00  .000E+00  .000E+00
  .329E+02  .329E+02  .329E+02  .296E+02  .296E+02  .333E+02  .300E+02  .329E+02
  .329E+02  .329E+02  .333E+02  .333E+02  .333E+02  .329E+02  .329E+02  .330E+02
  .322E+02  .323E+02  .325E+02  .326E+02  .326E+02  .327E+02  .324E+02  .342E+02
  .296E+02  .296E+02  .300E+02  .346E+02  .322E+02  .322E+02  .333E+02  .333E+02
  .300E+02  .298E+02  .298E+02  .299E+02  .299E+02  .299E+02  .297E+02  .297E+02
  .297E+02  .297E+02  .301E+02  .569E+02  .566E+02  .567E+02  .364E+02  .364E+02
  .410E+02  .361E+02  .416E+02  .412E+02  .413E+02  .413E+02  .408E+02  .355E+02
  .408E+02  .768E+02  .518E+02  .494E+02  .867E+02  .419E+02  .433E+02  .433E+02
  .411E+02  .403E+02  .403E+02  .403E+02  .403E+02  .403E+02  .405E+02  .405E+02
  .405E+02  .403E+02  .403E+02  .403E+02  .403E+02  .403E+02  .000E+00  .000E+00
  .000E+00  .000E+00  .000E+00  .000E+00  .000E+00  .000E+00  .000E+00  .000E+00
  .000E+00  .000E+00  .000E+00  .000E+00  .000E+00  .000E+00  .000E+00  .000E+00
  .000E+00  .000E+00  .000E+00  .000E+00
  .333E+02  .333E+02  .333E+02  .333E+02  .333E+02  .327E+02  .324E+02  .328E+02
  .329E+02  .329E+02  .329E+02  .329E+02  .329E+02  .330E+02  .330E+02  .330E+02
  .322E+02  .322E+02  .325E+02  .327E+02  .327E+02  .324E+02  .324E+02  .341E+02
  .297E+02  .297E+02  .301E+02  .346E+02  .322E+02  .322E+02  .333E+02  .343E+02
  .299E+02  .299E+02  .299E+02  .299E+02  .298E+02  .298E+02  .298E+02  .298E+02
  .298E+02  .296E+02  .297E+02  .297E+02  .565E+02  .292E+02  .292E+02  .292E+02
  .292E+02  .292E+02  .292E+02  .415E+02  .292E+02  .333E+02  .356E+02  .292E+02
  .292E+02  .292E+02  .292E+02  .292E+02  .292E+02  .292E+02  .292E+02  .292E+02
  .292E+02  .292E+02  .292E+02  .292E+02  .292E+02  .292E+02  .292E+02  .292E+02
  .292E+02  .292E+02  .292E+02  .292E+02  .292E+02  .292E+02  .000E+00  .000E+00
  .000E+00  .000E+00  .000E+00  .000E+00  .000E+00  .000E+00  .000E+00  .000E+00
  .000E+00  .000E+00  .000E+00  .000E+00  .000E+00  .000E+00  .000E+00  .000E+00
  .000E+00  .000E+00  .000E+00  .000E+00
  .329E+02  .329E+02  .329E+02  .296E+02  .296E+02  .333E+02  .300E+02  .329E+02
  .329E+02  .329E+02  .333E+02  .333E+02  .333E+02  .329E+02  .329E+02  .322E+02
  .322E+02  .323E+02  .325E+02  .326E+02  .326E+02  .327E+02  .324E+02  .342E+02
  .296E+02  .297E+02  .300E+02  .300E+02  .322E+02  .321E+02  .333E+02  .333E+02
  .300E+02  .298E+02  .298E+02  .298E+02  .299E+02  .299E+02  .297E+02  .297E+02
  .297E+02  .297E+02  .301E+02  .569E+02  .566E+02  .567E+02  .364E+02  .364E+02
  .410E+02  .361E+02  .415E+02  .412E+02  .413E+02  .413E+02  .407E+02  .355E+02
  .408E+02  .768E+02  .517E+02  .494E+02  .866E+02  .419E+02  .443E+02  .433E+02
  .411E+02  .402E+02  .402E+02  .402E+02  .403E+02  .403E+02  .403E+02  .403E+02
  .291E+02  .296E+02  .296E+02  .296E+02  .296E+02  .296E+02  .000E+00  .000E+00
  .000E+00  .000E+00  .000E+00  .000E+00  .000E+00  .000E+00  .000E+00  .000E+00
  .000E+00  .000E+00  .000E+00  .000E+00  .000E+00  .000E+00  .000E+00  .000E+00
  .000E+00  .000E+00  .000E+00  .000E+00
/&   ----------  End of spectral data for channel  1  ----------
Response and Fourier amplitude spectra (78 periods,  .04 -  6.0 sec)   for      
Corrected accelerogram   38695658.CI.SAN.--.HN      Chan  2: 360 Deg     from   
Uncorrected Accelerogram Data             Processed: 09/19/20, CGS  cisan--n    
Rcrd of Fri Sep 18, 2020 23:38:32.0 PDT               (Avol1 v2.0, 4/18 CSMIP)  
                                        (Origin:  To be determined)             
38695658.CI.SAN.--.HN                Start time:  9/19/20, 06:38:32.0 UTC (GPS) 
Station Id. SAN     33.704N, 117.886W    ObsMMS  s/n 1133  (3 Chns of  6 at Sta)
3220 Bristol ave. , Santa Ana            SCSN   Data: Acceleration              
Chan  2: 360 Deg                                                                
Rcrd of Fri Sep 18, 2020 23:38:32.0 PDT    Fri Sep 18, 2020 23:38:32.0 PDT      
Hypocenter:  To be determined.               ML:  To be determined.             
Instr Period =  .0050 sec,  Damping =  .707,  Sensitivity = 4.99 v/g  (Nominal) 
                        Record Length =301.000 sec.                             
                                     Uncor Max  =   .007 g, at   32.590 sec.    
RMS accel of (uncor) record  =        .   Chn. metadata effective date:         
Accelerogram bandpass filtered with 3 dB pts at   .30 and 23.00 cyc/sec         
                 instrument- and base-line correcte                             
                                                                                
                                                                                
                                                                                
                                                                                
                                                                                
Rcrd of Fri Sep 18, 2020 23:38:32.0 PDT    Fri Sep 18, 2020 23:38:32.0 PDT      
                                                                                
38695658.CI.SAN.--.HN     3220 Bristol ave. , Santa Ana   Chan  2: 360 Deg      
                                                                                
38695658.CI.SAN.--.HN     3220 Bristol ave. , Santa Ana   Chan  2: 360 Deg      
                                                                                
Units for spectra are inches and sec, except Sa is in fraction of g.            
                                                                                
    2  100    2    6    6  100 -999    3    1    0   15 1133    050644   41    0
    6   38   32    0  263    9   19 2020   10    3  36035698   39   29   74 -999
35698 -999  100    6 -999 -999 -999 -999 -999 -999 -999 -999 -999 -999 -999 -999
 -999 -999 -999 -99915050    2 -999    0 -999   20 -999 -999    3    1 505815050
    315050    4   78    1    3    5    0    0 -999    0 -999 -999    6 -999    2
    2    2    4 -999 -999 -999 -999 -999 -999 -999 -999    1 -999 -999 -999  111
    1    1 -999 -999
      .005      .707   356.980      .000     1.000  4991.271      .007    32.590
   200.000     2.384      .478  -999.000    10.000  -999.000     4.000  -999.000
    20.000    -8.656      .000  -999.000  -999.000  -999.000  -999.000      .002
      .000     -.003     2.000    15.000    33.704  -117.886      .007      .008
     1.122     -.004     -.001    11.000  -999.000  -999.000  -999.000  -999.000
     1.000  -999.000  -999.000  -999.000  -999.000  -999.000  -999.000   120.000
     -.900     2.000     6.800   980.665      .020   301.000    31.831      .000
  -999.000    23.000  -999.000   301.000      .020      .300  -999.000  -999.000
    29.400     6.441    29.440      .293    36.400     -.022      .000      .300
    23.000      .020      .020      .000      .020      .024  -999.000  -999.000
      .026      .120      .017      .011      .002      .000  -999.000  -999.000
  -999.000  -999.000  -999.000  -999.000  -999.000  -999.000  -999.000  -999.000
  -999.000  -999.000  -999.000  -999.000
      .050
      .040      .042      .044      .046      .048      .050      .055      .060
      .065      .070      .075      .080      .085      .090      .095      .100
      .110      .120      .130      .140      .150      .160      .170      .180
      .190      .200      .220      .240      .260      .280      .300      .320
      .340      .360      .380      .400      .420      .440      .460      .480
      .500      .550      .600      .650      .700      .750      .800      .850
      .900      .950     1.000     1.100     1.200     1.300     1.400     1.500
     1.600     1.700     1.800     1.900     2.000     2.200     2.400     2.600
     2.800     3.000     3.200     3.400     3.600     3.800     4.000     4.200
     4.400     4.600     4.800     5.000     5.500     6.000      .000      .000
      .000      .000      .000      .000      .000      .000      .000      .000
      .000      .000      .000      .000      .000      .000      .000      .000
      .000      .000      .000      .000
Fourier amplitude spectra in in/sec.
  .000E+00  .000E+00  .000E+00  .000E+00  .000E+00  .000E+00  .000E+00  .000E+00
  .000E+00  .000E+00  .000E+00  .000E+00  .000E+00  .000E+00  .000E+00  .000E+00
  .000E+00  .000E+00  .000E+00  .000E+00  .000E+00  .000E+00  .000E+00  .000E+00
  .000E+00  .000E+00  .000E+00  .000E+00  .000E+00  .000E+00  .000E+00  .000E+00
  .000E+00  .000E+00  .000E+00  .000E+00  .000E+00  .000E+00  .000E+00  .000E+00
  .000E+00  .000E+00  .000E+00  .000E+00  .000E+00  .000E+00  .000E+00  .000E+00
  .000E+00  .000E+00  .000E+00  .000E+00  .000E+00  .000E+00  .000E+00  .000E+00
  .000E+00  .000E+00  .000E+00  .000E+00  .000E+00  .000E+00  .000E+00  .000E+00
  .000E+00  .000E+00  .000E+00  .000E+00  .000E+00  .000E+00  .000E+00  .000E+00
  .000E+00  .000E+00  .000E+00  .000E+00  .000E+00  .000E+00  .000E+00  .000E+00
  .000E+00  .000E+00  .000E+00  .000E+00  .000E+00  .000E+00  .000E+00  .000E+00
  .000E+00  .000E+00  .000E+00  .000E+00  .000E+00  .000E+00  .000E+00  .000E+00
  .000E+00  .000E+00  .000E+00  .000E+00
Damping =  .05. Data of Sd,Sv,Sa,Pssv,ttSd,ttSv,ttSa :
  .122E-03  .136E-03  .155E-03  .179E-03  .204E-03  .223E-03  .264E-03  .392E-03
  .513E-03  .551E-03  .581E-03  .771E-03  .103E-02  .136E-02  .161E-02  .159E-02
  .208E-02  .369E-02  .364E-02  .443E-02  .514E-02  .526E-02  .538E-02  .566E-02
  .627E-02  .664E-02  .788E-02  .812E-02  .869E-02  .772E-02  .100E-01  .115E-01
  .114E-01  .144E-01  .160E-01  .176E-01  .188E-01  .186E-01  .153E-01  .153E-01
