Response and Fourier amplitude spectra (78 periods,  .04 -  6.0 sec)   for      
Corrected accelerogram   38695658.CI.SBB2.--.H      Chan  1:  90 Deg     from   
Uncorrected Accelerogram Data             Processed: 09/19/20, CGS  cisbb2-s    
Rcrd of Fri Sep 18, 2020 23:38:33.0 PDT               (Avol1 v2.0, 4/18 CSMIP)  
                                        (Origin:  To be determined)             
38695658.CI.SBB2.--.H                Start time:  9/19/20, 06:38:33.0 UTC (GPS) 
Station Id. SBB2    34.688N, 117.824W    ObsMMS  s/n 3778  (3 Chns of  6 at Sta)
Saddleback Butte State Park Ranger Stn   SCSN   Data: Acceleration              
Chan  1:  90 Deg                                                                
Rcrd of Fri Sep 18, 2020 23:38:33.0 PDT    Fri Sep 18, 2020 23:38:33.0 PDT      
Hypocenter:  To be determined.               ML:  To be determined.             
Instr Period =  .0050 sec,  Damping =  .707,  Sensitivity = 5.00 v/g  (Nominal) 
                        Record Length =301.000 sec.                             
                                     Uncor Max  =  -.001 g, at   38.960 sec.    
RMS accel of (uncor) record  =        .   Chn. metadata effective date:         
Accelerogram bandpass filtered with 3 dB pts at   .30 and 23.00 cyc/sec         
                 instrument- and base-line correcte                             
                                                                                
                                                                                
                                                                                
                                                                                
                                                                                
Rcrd of Fri Sep 18, 2020 23:38:33.0 PDT    Fri Sep 18, 2020 23:38:33.0 PDT      
                                                                                
38695658.CI.SBB2.--.H     Saddleback Butte State Park Ranger Stn   SChan  1:  90
 Deg                                                                            
38695658.CI.SBB2.--.H     Saddleback Butte State Park Ranger Stn   SChan  1:  90
 Deg                                                                            
Units for spectra are inches and sec, except Sa is in fraction of g.            
                                                                                
    1  100    1    6    6  100 -999    3    1    0   15 3778    050718   41    0
    6   38   33    8  263    9   19 2020   10    3   9036087   39   38   74 -999
36087 -999  100    6 -999 -999 -999 -999 -999 -999 -999 -999 -999 -999 -999 -999
 -999 -999 -999 -99915050    2 -999    0 -999   20 -999 -999    3    1 -99915050
    315050    4   78    1    3    5    0    0 -999    0 -999 -999    6 -999    2
    2    2    4 -999 -999 -999 -999 -999 -999 -999 -999    1 -999 -999 -999  111
    1    1 -999 -999
      .005      .707   360.870      .000     1.000  4997.654     -.001    38.960
   200.000     2.384      .477  -999.000    10.000  -999.000     4.000  -999.000
    20.000   -44.542      .000  -999.000  -999.000  -999.000  -999.000     -.007
      .007      .014     2.000    15.000    34.688  -117.824      .001      .001
     1.148      .014      .014   825.000  -999.000  -999.000  -999.000  -999.000
     1.000  -999.000    -8.000  -999.000  -999.000  -999.000  -999.000   120.000
     -.900     2.000     6.800   980.665      .020   301.000    31.831     -.001
  -999.000    23.000  -999.000   301.000      .020      .300  -999.000  -999.000
    37.160     -.890    38.620     -.025    38.780     -.002      .000      .300
    23.000      .020      .020      .000      .020      .001  -999.000  -999.000
      .004      .065      .001      .001      .000      .000  -999.000  -999.000
  -999.000  -999.000  -999.000  -999.000  -999.000  -999.000  -999.000  -999.000
  -999.000  -999.000  -999.000  -999.000
      .050
      .040      .042      .044      .046      .048      .050      .055      .060
      .065      .070      .075      .080      .085      .090      .095      .100
      .110      .120      .130      .140      .150      .160      .170      .180
      .190      .200      .220      .240      .260      .280      .300      .320
      .340      .360      .380      .400      .420      .440      .460      .480
      .500      .550      .600      .650      .700      .750      .800      .850
      .900      .950     1.000     1.100     1.200     1.300     1.400     1.500
     1.600     1.700     1.800     1.900     2.000     2.200     2.400     2.600
     2.800     3.000     3.200     3.400     3.600     3.800     4.000     4.200
     4.400     4.600     4.800     5.000     5.500     6.000      .000      .000
      .000      .000      .000      .000      .000      .000      .000      .000
      .000      .000      .000      .000      .000      .000      .000      .000
      .000      .000      .000      .000
Fourier amplitude spectra in in/sec.
  .000E+00  .000E+00  .000E+00  .000E+00  .000E+00  .000E+00  .000E+00  .000E+00
  .000E+00  .000E+00  .000E+00  .000E+00  .000E+00  .000E+00  .000E+00  .000E+00
  .000E+00  .000E+00  .000E+00  .000E+00  .000E+00  .000E+00  .000E+00  .000E+00
  .000E+00  .000E+00  .000E+00  .000E+00  .000E+00  .000E+00  .000E+00  .000E+00
  .000E+00  .000E+00  .000E+00  .000E+00  .000E+00  .000E+00  .000E+00  .000E+00
  .000E+00  .000E+00  .000E+00  .000E+00  .000E+00  .000E+00  .000E+00  .000E+00
  .000E+00  .000E+00  .000E+00  .000E+00  .000E+00  .000E+00  .000E+00  .000E+00
  .000E+00  .000E+00  .000E+00  .000E+00  .000E+00  .000E+00  .000E+00  .000E+00
  .000E+00  .000E+00  .000E+00  .000E+00  .000E+00  .000E+00  .000E+00  .000E+00
  .000E+00  .000E+00  .000E+00  .000E+00  .000E+00  .000E+00  .000E+00  .000E+00
  .000E+00  .000E+00  .000E+00  .000E+00  .000E+00  .000E+00  .000E+00  .000E+00
  .000E+00  .000E+00  .000E+00  .000E+00  .000E+00  .000E+00  .000E+00  .000E+00
  .000E+00  .000E+00  .000E+00  .000E+00
Damping =  .05. Data of Sd,Sv,Sa,Pssv,ttSd,ttSv,ttSa :
  .191E-04  .223E-04  .281E-04  .381E-04  .535E-04  .725E-04  .100E-03  .120E-03
  .154E-03  .162E-03  .154E-03  .177E-03  .198E-03  .223E-03  .226E-03  .248E-03
  .246E-03  .306E-03  .328E-03  .336E-03  .286E-03  .273E-03  .232E-03  .247E-03
  .323E-03  .367E-03  .414E-03  .467E-03  .820E-03  .117E-02  .118E-02  .146E-02
  .173E-02  .188E-02  .206E-02  .215E-02  .208E-02  .200E-02  .198E-02  .194E-02
  .179E-02  .187E-02  .194E-02  .177E-02  .146E-02  .145E-02  .190E-02  .196E-02
  .212E-02  .175E-02  .172E-02  .221E-02  .210E-02  .210E-02  .177E-02  .152E-02
  .176E-02  .219E-02  .234E-02  .263E-02  .287E-02  .283E-02  .224E-02  .191E-02
  .177E-02  .148E-02  .139E-02  .138E-02  .135E-02  .128E-02  .115E-02  .102E-02
  .962E-03  .945E-03  .942E-03  .931E-03  .948E-03  .948E-03  .000E+00  .000E+00
  .000E+00  .000E+00  .000E+00  .000E+00  .000E+00  .000E+00  .000E+00  .000E+00
  .000E+00  .000E+00  .000E+00  .000E+00  .000E+00  .000E+00  .000E+00  .000E+00
  .000E+00  .000E+00  .000E+00  .000E+00
  .228E-02  .255E-02  .316E-02  .435E-02  .604E-02  .841E-02  .103E-01  .117E-01
  .145E-01  .132E-01  .126E-01  .129E-01  .139E-01  .155E-01  .154E-01  .161E-01
  .145E-01  .149E-01  .157E-01  .155E-01  .131E-01  .107E-01  .103E-01  .933E-02
  .114E-01  .120E-01  .110E-01  .119E-01  .211E-01  .248E-01  .252E-01  .285E-01
  .316E-01  .362E-01  .349E-01  .356E-01  .333E-01  .314E-01  .307E-01  .303E-01
  .268E-01  .261E-01  .221E-01  .213E-01  .167E-01  .186E-01  .168E-01  .196E-01
  .174E-01  .145E-01  .135E-01  .171E-01  .180E-01  .155E-01  .121E-01  .117E-01
  .111E-01  .103E-01  .108E-01  .111E-01  .111E-01  .108E-01  .111E-01  .111E-01
  .105E-01  .102E-01  .101E-01  .101E-01  .101E-01  .101E-01  .101E-01  .101E-01
  .999E-02  .993E-02  .990E-02  .987E-02  .979E-02  .979E-02  .000E+00  .000E+00
  .000E+00  .000E+00  .000E+00  .000E+00  .000E+00  .000E+00  .000E+00  .000E+00
  .000E+00  .000E+00  .000E+00  .000E+00  .000E+00  .000E+00  .000E+00  .000E+00
  .000E+00  .000E+00  .000E+00  .000E+00
  .121E-02  .129E-02  .148E-02  .185E-02  .238E-02  .294E-02  .339E-02  .347E-02
  .378E-02  .340E-02  .287E-02  .283E-02  .284E-02  .284E-02  .255E-02  .261E-02
  .207E-02  .217E-02  .201E-02  .179E-02  .131E-02  .108E-02  .834E-03  .778E-03
  .913E-03  .935E-03  .880E-03  .832E-03  .126E-02  .154E-02  .136E-02  .146E-02
  .156E-02  .149E-02  .148E-02  .140E-02  .122E-02  .106E-02  .961E-03  .865E-03
  .737E-03  .634E-03  .557E-03  .430E-03  .307E-03  .267E-03  .307E-03  .279E-03
  .271E-03  .202E-03  .179E-03  .189E-03  .152E-03  .129E-03  .943E-04  .697E-04
  .711E-04  .783E-04  .743E-04  .754E-04  .741E-04  .604E-04  .406E-04  .295E-04
  .233E-04  .171E-04  .142E-04  .124E-04  .108E-04  .954E-05  .850E-05  .750E-05
  .676E-05  .619E-05  .575E-05  .533E-05  .461E-05  .402E-05  .000E+00  .000E+00
  .000E+00  .000E+00  .000E+00  .000E+00  .000E+00  .000E+00  .000E+00  .000E+00
  .000E+00  .000E+00  .000E+00  .000E+00  .000E+00  .000E+00  .000E+00  .000E+00
  .000E+00  .000E+00  .000E+00  .000E+00
  .299E-02  .334E-02  .401E-02  .520E-02  .700E-02  .911E-02  .115E-01  .126E-01
  .149E-01  .145E-01  .129E-01  .139E-01  .146E-01  .156E-01  .149E-01  .156E-01
  .141E-01  .160E-01  .158E-01  .151E-01  .120E-01  .107E-01  .859E-02  .863E-02
  .107E-01  .115E-01  .118E-01  .122E-01  .198E-01  .262E-01  .247E-01  .287E-01
  .319E-01  .329E-01  .341E-01  .338E-01  .311E-01  .286E-01  .270E-01  .254E-01
  .225E-01  .213E-01  .203E-01  .171E-01  .131E-01  .121E-01  .149E-01  .145E-01
  .148E-01  .116E-01  .108E-01  .126E-01  .110E-01  .101E-01  .792E-02  .635E-02
  .690E-02  .808E-02  .817E-02  .870E-02  .903E-02  .809E-02  .587E-02  .461E-02
  .397E-02  .310E-02  .273E-02  .254E-02  .235E-02  .212E-02  .180E-02  .152E-02
  .137E-02  .129E-02  .123E-02  .117E-02  .108E-02  .993E-03  .000E+00  .000E+00
  .000E+00  .000E+00  .000E+00  .000E+00  .000E+00  .000E+00  .000E+00  .000E+00
  .000E+00  .000E+00  .000E+00  .000E+00  .000E+00  .000E+00  .000E+00  .000E+00
  .000E+00  .000E+00  .000E+00  .000E+00
  .392E+02  .391E+02  .391E+02  .391E+02  .391E+02  .392E+02  .392E+02  .374E+02
  .374E+02  .410E+02  .410E+02  .379E+02  .379E+02  .411E+02  .411E+02  .379E+02
  .379E+02  .388E+02  .388E+02  .388E+02  .397E+02  .398E+02  .392E+02  .392E+02
  .385E+02  .384E+02  .415E+02  .372E+02  .376E+02  .378E+02  .393E+02  .401E+02
  .402E+02  .393E+02  .390E+02  .388E+02  .389E+02  .389E+02  .389E+02  .389E+02
  .385E+02  .379E+02  .377E+02  .400E+02  .401E+02  .386E+02  .401E+02  .398E+02
  .394E+02  .394E+02  .394E+02  .394E+02  .391E+02  .392E+02  .387E+02  .434E+02
  .436E+02  .455E+02  .456E+02  .457E+02  .457E+02  .482E+02  .474E+02  .474E+02
  .452E+02  .452E+02  .443E+02  .444E+02  .444E+02  .444E+02  .444E+02  .444E+02
  .388E+02  .388E+02  .388E+02  .388E+02  .388E+02  .388E+02  .000E+00  .000E+00
  .000E+00  .000E+00  .000E+00  .000E+00  .000E+00  .000E+00  .000E+00  .000E+00
  .000E+00  .000E+00  .000E+00  .000E+00  .000E+00  .000E+00  .000E+00  .000E+00
  .000E+00  .000E+00  .000E+00  .000E+00
  .390E+02  .390E+02  .390E+02  .390E+02  .391E+02  .392E+02  .392E+02  .374E+02
  .374E+02  .410E+02  .411E+02  .379E+02  .379E+02  .411E+02  .411E+02  .379E+02
  .379E+02  .389E+02  .388E+02  .388E+02  .398E+02  .398E+02  .395E+02  .392E+02
  .385E+02  .385E+02  .385E+02  .378E+02  .378E+02  .388E+02  .395E+02  .402E+02
  .402E+02  .394E+02  .391E+02  .391E+02  .388E+02  .388E+02  .388E+02  .388E+02
  .386E+02  .372E+02  .379E+02  .401E+02  .384E+02  .384E+02  .414E+02  .400E+02
  .400E+02  .371E+02  .397E+02  .393E+02  .393E+02  .388E+02  .365E+02  .365E+02
  .365E+02  .365E+02  .388E+02  .388E+02  .454E+02  .386E+02  .386E+02  .386E+02
  .386E+02  .386E+02  .386E+02  .386E+02  .386E+02  .386E+02  .386E+02  .386E+02
  .386E+02  .386E+02  .386E+02  .386E+02  .386E+02  .386E+02  .000E+00  .000E+00
  .000E+00  .000E+00  .000E+00  .000E+00  .000E+00  .000E+00  .000E+00  .000E+00
  .000E+00  .000E+00  .000E+00  .000E+00  .000E+00  .000E+00  .000E+00  .000E+00
  .000E+00  .000E+00  .000E+00  .000E+00
  .392E+02  .391E+02  .391E+02  .391E+02  .391E+02  .392E+02  .392E+02  .374E+02
  .374E+02  .410E+02  .410E+02  .379E+02  .379E+02  .411E+02  .411E+02  .379E+02
  .379E+02  .388E+02  .388E+02  .388E+02  .397E+02  .398E+02  .392E+02  .392E+02
  .385E+02  .384E+02  .415E+02  .372E+02  .376E+02  .378E+02  .397E+02  .401E+02
  .401E+02  .393E+02  .388E+02  .388E+02  .389E+02  .389E+02  .389E+02  .389E+02
  .385E+02  .377E+02  .377E+02  .400E+02  .400E+02  .386E+02  .401E+02  .398E+02
  .394E+02  .394E+02  .394E+02  .394E+02  .391E+02  .392E+02  .387E+02  .433E+02
  .436E+02  .454E+02  .456E+02  .456E+02  .457E+02  .481E+02  .473E+02  .450E+02
  .451E+02  .452E+02  .443E+02  .443E+02  .444E+02  .387E+02  .387E+02  .387E+02
  .387E+02  .387E+02  .387E+02  .387E+02  .387E+02  .387E+02  .000E+00  .000E+00
  .000E+00  .000E+00  .000E+00  .000E+00  .000E+00  .000E+00  .000E+00  .000E+00
  .000E+00  .000E+00  .000E+00  .000E+00  .000E+00  .000E+00  .000E+00  .000E+00
  .000E+00  .000E+00  .000E+00  .000E+00
/&   ----------  End of spectral data for channel  1  ----------
Response and Fourier amplitude spectra (78 periods,  .04 -  6.0 sec)   for      
Corrected accelerogram   38695658.CI.SBB2.--.H      Chan  2: 360 Deg     from   
Uncorrected Accelerogram Data             Processed: 09/19/20, CGS  cisbb2-s    
Rcrd of Fri Sep 18, 2020 23:38:33.0 PDT               (Avol1 v2.0, 4/18 CSMIP)  
                                        (Origin:  To be determined)             
38695658.CI.SBB2.--.H                Start time:  9/19/20, 06:38:33.0 UTC (GPS) 
Station Id. SBB2    34.688N, 117.824W    ObsMMS  s/n 3778  (3 Chns of  6 at Sta)
Saddleback Butte State Park Ranger Stn   SCSN   Data: Acceleration              
Chan  2: 360 Deg                                                                
Rcrd of Fri Sep 18, 2020 23:38:33.0 PDT    Fri Sep 18, 2020 23:38:33.0 PDT      
Hypocenter:  To be determined.               ML:  To be determined.             
Instr Period =  .0050 sec,  Damping =  .707,  Sensitivity = 4.98 v/g  (Nominal) 
                        Record Length =301.000 sec.                             
                                     Uncor Max  =  -.001 g, at   37.820 sec.    
RMS accel of (uncor) record  =        .   Chn. metadata effective date:         
Accelerogram bandpass filtered with 3 dB pts at   .30 and 23.00 cyc/sec         
                 instrument- and base-line correcte                             
                                                                                
                                                                                
                                                                                
                                                                                
                                                                                
Rcrd of Fri Sep 18, 2020 23:38:33.0 PDT    Fri Sep 18, 2020 23:38:33.0 PDT      
                                                                                
38695658.CI.SBB2.--.H     Saddleback Butte State Park Ranger Stn   SChan  2: 360
 Deg                                                                            
38695658.CI.SBB2.--.H     Saddleback Butte State Park Ranger Stn   SChan  2: 360
 Deg                                                                            
Units for spectra are inches and sec, except Sa is in fraction of g.            
                                                                                
    2  100    2    6    6  100 -999    3    1    0   15 3778    050718   41    0
    6   38   33    8  263    9   19 2020   10    3  36036031   39   38   74 -999
36031 -999  100    6 -999 -999 -999 -999 -999 -999 -999 -999 -999 -999 -999 -999
 -999 -999 -999 -99915050    2 -999    0 -999   20 -999 -999    3    1 -99915050
    315050    4   78    1    3    5    0    0 -999    0 -999 -999    6 -999    2
    2    2    4 -999 -999 -999 -999 -999 -999 -999 -999    1 -999 -999 -999  111
    1    1 -999 -999
      .005      .707   360.310      .000     1.000  4982.495     -.001    37.820
   200.000     2.384      .479  -999.000    10.000  -999.000     4.000  -999.000
    20.000   -18.569      .000  -999.000  -999.000  -999.000  -999.000     -.003
      .004      .007     2.000    15.000    34.688  -117.824      .001      .001
     1.018      .007      .007   825.000  -999.000  -999.000  -999.000  -999.000
     1.000  -999.000  -999.000  -999.000  -999.000  -999.000  -999.000   120.000
     -.900     2.000     6.800   980.665      .020   301.000    31.831     -.001
  -999.000    23.000  -999.000   301.000      .020      .300  -999.000  -999.000
    38.860    -1.023    38.700      .022    41.760      .002      .000      .300
    23.000      .020      .020      .000      .020      .001  -999.000  -999.000
      .004      .055      .001      .001      .000      .000  -999.000  -999.000
  -999.000  -999.000  -999.000  -999.000  -999.000  -999.000  -999.000  -999.000
  -999.000  -999.000  -999.000  -999.000
      .050
      .040      .042      .044      .046      .048      .050      .055      .060
      .065      .070      .075      .080      .085      .090      .095      .100
      .110      .120      .130      .140      .150      .160      .170      .180
      .190      .200      .220      .240      .260      .280      .300      .320
      .340      .360      .380      .400      .420      .440      .460      .480
      .500      .550      .600      .650      .700      .750      .800      .850
      .900      .950     1.000     1.100     1.200     1.300     1.400     1.500
     1.600     1.700     1.800     1.900     2.000     2.200     2.400     2.600
     2.800     3.000     3.200     3.400     3.600     3.800     4.000     4.200
     4.400     4.600     4.800     5.000     5.500     6.000      .000      .000
      .000      .000      .000      .000      .000      .000      .000      .000
      .000      .000      .000      .000      .000      .000      .000      .000
      .000      .000      .000      .000
Fourier amplitude spectra in in/sec.
  .000E+00  .000E+00  .000E+00  .000E+00  .000E+00  .000E+00  .000E+00  .000E+00
  .000E+00  .000E+00  .000E+00  .000E+00  .000E+00  .000E+00  .000E+00  .000E+00
  .000E+00  .000E+00  .000E+00  .000E+00  .000E+00  .000E+00  .000E+00  .000E+00
  .000E+00  .000E+00  .000E+00  .000E+00  .000E+00  .000E+00  .000E+00  .000E+00
  .000E+00  .000E+00  .000E+00  .000E+00  .000E+00  .000E+00  .000E+00  .000E+00
  .000E+00  .000E+00  .000E+00  .000E+00  .000E+00  .000E+00  .000E+00  .000E+00
  .000E+00  .000E+00  .000E+00  .000E+00  .000E+00  .000E+00  .000E+00  .000E+00
  .000E+00  .000E+00  .000E+00  .000E+00  .000E+00  .000E+00  .000E+00  .000E+00
  .000E+00  .000E+00  .000E+00  .000E+00  .000E+00  .000E+00  .000E+00  .000E+00
  .000E+00  .000E+00  .000E+00  .000E+00  .000E+00  .000E+00  .000E+00  .000E+00
  .000E+00  .000E+00  .000E+00  .000E+00  .000E+00  .000E+00  .000E+00  .000E+00
  .000E+00  .000E+00  .000E+00  .000E+00  .000E+00  .000E+00  .000E+00  .000E+00
  .000E+00  .000E+00  .000E+00  .000E+00
Damping =  .05. Data of Sd,Sv,Sa,Pssv,ttSd,ttSv,ttSa :
  .233E-04  .268E-04  .342E-04  .444E-04  .527E-04  .677E-04  .113E-03  .123E-03
  .134E-03  .140E-03  .178E-03  .185E-03  .244E-03  .281E-03  .245E-03  .235E-03
  .230E-03  .300E-03  .250E-03  .251E-03  .322E-03  .427E-03  .374E-03  .372E-03
  .405E-03  .461E-03  .548E-03  .851E-03  .103E-02  .912E-03  .110E-02  .111E-02
  .122E-02  .944E-03  .905E-03  .113E-02  .118E-02  .956E-03  .947E-03  .105E-02
