Response and Fourier amplitude spectra (78 periods,  .04 -  6.0 sec)   for      
Corrected accelerogram   38695658.CI.SBI.--.HN      Chan  1:  90 Deg     from   
Uncorrected Accelerogram Data             Processed: 09/19/20, CGS  cisbi--k    
Rcrd of Fri Sep 18, 2020 23:38:40.0 PDT               (Avol1 v2.0, 4/18 CSMIP)  
                                        (Origin:  To be determined)             
38695658.CI.SBI.--.HN                Start time:  9/19/20, 06:38:40.0 UTC (GPS) 
Station Id. SBI     33.480N, 119.030W    ObsMMS  s/n 4364  (3 Chns of  3 at Sta)
Santa Barbara Island, NPS Building       SCSN   Data: Acceleration              
Chan  1:  90 Deg                                                                
Rcrd of Fri Sep 18, 2020 23:38:40.0 PDT    Fri Sep 18, 2020 23:38:40.0 PDT      
Hypocenter:  To be determined.               ML:  To be determined.             
Instr Period =  .0050 sec,  Damping =  .707,  Sensitivity = 4.99 v/g  (Nominal) 
                        Record Length =301.000 sec.                             
                                     Uncor Max  =  -.001 g, at   39.580 sec.    
RMS accel of (uncor) record  =        .   Chn. metadata effective date:         
Accelerogram bandpass filtered with 3 dB pts at   .30 and 23.00 cyc/sec         
                 instrument- and base-line correcte                             
                                                                                
                                                                                
                                                                                
                                                                                
                                                                                
Rcrd of Fri Sep 18, 2020 23:38:40.0 PDT    Fri Sep 18, 2020 23:38:40.0 PDT      
                                                                                
38695658.CI.SBI.--.HN     Santa Barbara Island, NPS Building    Chan  1:  90 Deg
                                                                                
38695658.CI.SBI.--.HN     Santa Barbara Island, NPS Building    Chan  1:  90 Deg
                                                                                
Units for spectra are inches and sec, except Sa is in fraction of g.            
                                                                                
    1  100    1    3    3  100 -999    3    1    0   15 4364    050707   41    0
    6   38   40    8  263    9   19 2020   10    3   9035896   39   34   74 -999
35896 -999  100    6 -999 -999 -999 -999 -999 -999 -999 -999 -999 -999 -999 -999
 -999 -999 -999 -99915050    2 -999    0 -999   20 -999 -999    3    1 -99915050
    315050    4   78    1    3    5    0    0 -999    0 -999 -999    6 -999    2
    2    2    4 -999 -999 -999 -999 -999 -999 -999 -999    1 -999 -999 -999  111
    1    1 -999 -999
      .005      .707   358.960      .000     1.000  4989.676     -.001    39.580
   200.000     2.384      .478  -999.000    10.000  -999.000     4.000  -999.000
    20.000   -41.923      .000  -999.000  -999.000  -999.000  -999.000     -.001
      .001      .002     2.000    15.000    33.480  -119.030      .003      .001
      .357      .001      .002    41.000  -999.000  -999.000  -999.000  -999.000
     1.000  -999.000    -8.000  -999.000  -999.000  -999.000  -999.000   120.000
     -.900     2.000     6.800   980.665      .020   301.000    31.831      .000
  -999.000    23.000  -999.000   301.000      .020      .300  -999.000  -999.000
    39.580     -.764    40.020     -.027    47.180     -.004      .000      .300
    23.000      .020      .020      .000      .020      .002  -999.000  -999.000
      .003      .220      .002      .001      .000      .000  -999.000  -999.000
  -999.000  -999.000  -999.000  -999.000  -999.000  -999.000  -999.000  -999.000
  -999.000  -999.000  -999.000  -999.000
      .050
      .040      .042      .044      .046      .048      .050      .055      .060
      .065      .070      .075      .080      .085      .090      .095      .100
      .110      .120      .130      .140      .150      .160      .170      .180
      .190      .200      .220      .240      .260      .280      .300      .320
      .340      .360      .380      .400      .420      .440      .460      .480
      .500      .550      .600      .650      .700      .750      .800      .850
      .900      .950     1.000     1.100     1.200     1.300     1.400     1.500
     1.600     1.700     1.800     1.900     2.000     2.200     2.400     2.600
     2.800     3.000     3.200     3.400     3.600     3.800     4.000     4.200
     4.400     4.600     4.800     5.000     5.500     6.000      .000      .000
      .000      .000      .000      .000      .000      .000      .000      .000
      .000      .000      .000      .000      .000      .000      .000      .000
      .000      .000      .000      .000
Fourier amplitude spectra in in/sec.
  .000E+00  .000E+00  .000E+00  .000E+00  .000E+00  .000E+00  .000E+00  .000E+00
  .000E+00  .000E+00  .000E+00  .000E+00  .000E+00  .000E+00  .000E+00  .000E+00
  .000E+00  .000E+00  .000E+00  .000E+00  .000E+00  .000E+00  .000E+00  .000E+00
  .000E+00  .000E+00  .000E+00  .000E+00  .000E+00  .000E+00  .000E+00  .000E+00
  .000E+00  .000E+00  .000E+00  .000E+00  .000E+00  .000E+00  .000E+00  .000E+00
  .000E+00  .000E+00  .000E+00  .000E+00  .000E+00  .000E+00  .000E+00  .000E+00
  .000E+00  .000E+00  .000E+00  .000E+00  .000E+00  .000E+00  .000E+00  .000E+00
  .000E+00  .000E+00  .000E+00  .000E+00  .000E+00  .000E+00  .000E+00  .000E+00
  .000E+00  .000E+00  .000E+00  .000E+00  .000E+00  .000E+00  .000E+00  .000E+00
  .000E+00  .000E+00  .000E+00  .000E+00  .000E+00  .000E+00  .000E+00  .000E+00
  .000E+00  .000E+00  .000E+00  .000E+00  .000E+00  .000E+00  .000E+00  .000E+00
  .000E+00  .000E+00  .000E+00  .000E+00  .000E+00  .000E+00  .000E+00  .000E+00
  .000E+00  .000E+00  .000E+00  .000E+00
Damping =  .05. Data of Sd,Sv,Sa,Pssv,ttSd,ttSv,ttSa :
  .130E-04  .145E-04  .160E-04  .188E-04  .215E-04  .236E-04  .343E-04  .455E-04
  .671E-04  .904E-04  .101E-03  .115E-03  .147E-03  .165E-03  .199E-03  .179E-03
  .143E-03  .193E-03  .267E-03  .301E-03  .328E-03  .350E-03  .430E-03  .583E-03
  .721E-03  .841E-03  .121E-02  .139E-02  .154E-02  .136E-02  .118E-02  .122E-02
  .162E-02  .170E-02  .158E-02  .159E-02  .163E-02  .158E-02  .151E-02  .135E-02
  .123E-02  .115E-02  .145E-02  .207E-02  .212E-02  .201E-02  .209E-02  .278E-02
  .323E-02  .318E-02  .294E-02  .300E-02  .258E-02  .281E-02  .345E-02  .322E-02
  .326E-02  .338E-02  .370E-02  .338E-02  .311E-02  .395E-02  .388E-02  .237E-02
  .253E-02  .323E-02  .305E-02  .237E-02  .234E-02  .217E-02  .200E-02  .193E-02
  .189E-02  .186E-02  .186E-02  .185E-02  .179E-02  .170E-02  .000E+00  .000E+00
  .000E+00  .000E+00  .000E+00  .000E+00  .000E+00  .000E+00  .000E+00  .000E+00
  .000E+00  .000E+00  .000E+00  .000E+00  .000E+00  .000E+00  .000E+00  .000E+00
  .000E+00  .000E+00  .000E+00  .000E+00
  .102E-02  .114E-02  .127E-02  .134E-02  .149E-02  .168E-02  .282E-02  .335E-02
  .431E-02  .562E-02  .618E-02  .721E-02  .978E-02  .111E-01  .130E-01  .111E-01
  .724E-02  .933E-02  .130E-01  .138E-01  .146E-01  .125E-01  .150E-01  .185E-01
  .219E-01  .267E-01  .352E-01  .348E-01  .357E-01  .302E-01  .255E-01  .249E-01
  .286E-01  .330E-01  .298E-01  .296E-01  .250E-01  .230E-01  .207E-01  .191E-01
  .156E-01  .188E-01  .213E-01  .223E-01  .209E-01  .179E-01  .185E-01  .214E-01
  .227E-01  .263E-01  .260E-01  .194E-01  .160E-01  .162E-01  .172E-01  .169E-01
  .170E-01  .173E-01  .185E-01  .175E-01  .162E-01  .165E-01  .150E-01  .113E-01
  .101E-01  .115E-01  .122E-01  .114E-01  .111E-01  .111E-01  .110E-01  .109E-01
  .108E-01  .107E-01  .107E-01  .106E-01  .105E-01  .104E-01  .000E+00  .000E+00
  .000E+00  .000E+00  .000E+00  .000E+00  .000E+00  .000E+00  .000E+00  .000E+00
  .000E+00  .000E+00  .000E+00  .000E+00  .000E+00  .000E+00  .000E+00  .000E+00
  .000E+00  .000E+00  .000E+00  .000E+00
  .832E-03  .837E-03  .847E-03  .908E-03  .957E-03  .966E-03  .117E-02  .131E-02
  .162E-02  .192E-02  .186E-02  .183E-02  .207E-02  .210E-02  .223E-02  .183E-02
  .119E-02  .140E-02  .163E-02  .157E-02  .149E-02  .140E-02  .152E-02  .184E-02
  .204E-02  .220E-02  .256E-02  .243E-02  .231E-02  .179E-02  .134E-02  .123E-02
  .143E-02  .135E-02  .115E-02  .104E-02  .939E-03  .845E-03  .738E-03  .600E-03
  .503E-03  .391E-03  .415E-03  .509E-03  .444E-03  .367E-03  .335E-03  .395E-03
  .409E-03  .362E-03  .302E-03  .255E-03  .184E-03  .171E-03  .181E-03  .147E-03
  .131E-03  .121E-03  .118E-03  .966E-04  .801E-04  .844E-04  .705E-04  .375E-04
  .344E-04  .381E-04  .319E-04  .224E-04  .194E-04  .163E-04  .137E-04  .121E-04
  .108E-04  .984E-05  .907E-05  .839E-05  .684E-05  .561E-05  .000E+00  .000E+00
  .000E+00  .000E+00  .000E+00  .000E+00  .000E+00  .000E+00  .000E+00  .000E+00
  .000E+00  .000E+00  .000E+00  .000E+00  .000E+00  .000E+00  .000E+00  .000E+00
  .000E+00  .000E+00  .000E+00  .000E+00
  .204E-02  .216E-02  .228E-02  .257E-02  .282E-02  .297E-02  .392E-02  .477E-02
  .649E-02  .811E-02  .847E-02  .905E-02  .109E-01  .115E-01  .132E-01  .113E-01
  .816E-02  .101E-01  .129E-01  .135E-01  .137E-01  .138E-01  .159E-01  .203E-01
  .238E-01  .264E-01  .346E-01  .363E-01  .373E-01  .304E-01  .247E-01  .239E-01
  .299E-01  .296E-01  .262E-01  .250E-01  .243E-01  .226E-01  .207E-01  .176E-01
  .155E-01  .131E-01  .152E-01  .200E-01  .191E-01  .169E-01  .164E-01  .206E-01
  .225E-01  .210E-01  .185E-01  .171E-01  .135E-01  .136E-01  .155E-01  .135E-01
  .128E-01  .125E-01  .129E-01  .112E-01  .976E-02  .113E-01  .102E-01  .574E-02
  .568E-02  .676E-02  .598E-02  .438E-02  .409E-02  .359E-02  .315E-02  .289E-02
  .270E-02  .255E-02  .243E-02  .233E-02  .204E-02  .178E-02  .000E+00  .000E+00
  .000E+00  .000E+00  .000E+00  .000E+00  .000E+00  .000E+00  .000E+00  .000E+00
  .000E+00  .000E+00  .000E+00  .000E+00  .000E+00  .000E+00  .000E+00  .000E+00
  .000E+00  .000E+00  .000E+00  .000E+00
  .389E+02  .389E+02  .389E+02  .390E+02  .390E+02  .390E+02  .390E+02  .390E+02
  .390E+02  .390E+02  .390E+02  .390E+02  .399E+02  .398E+02  .398E+02  .398E+02
  .395E+02  .396E+02  .396E+02  .397E+02  .397E+02  .399E+02  .388E+02  .389E+02
  .389E+02  .390E+02  .392E+02  .392E+02  .392E+02  .392E+02  .392E+02  .392E+02
  .401E+02  .402E+02  .391E+02  .395E+02  .481E+02  .481E+02  .482E+02  .482E+02
  .476E+02  .405E+02  .476E+02  .400E+02  .474E+02  .482E+02  .483E+02  .483E+02
  .484E+02  .484E+02  .485E+02  .394E+02  .486E+02  .486E+02  .508E+02  .502E+02
  .481E+02  .482E+02  .482E+02  .483E+02  .483E+02  .477E+02  .477E+02  .478E+02
  .477E+02  .477E+02  .478E+02  .478E+02  .471E+02  .471E+02  .471E+02  .471E+02
  .471E+02  .471E+02  .471E+02  .471E+02  .472E+02  .472E+02  .000E+00  .000E+00
  .000E+00  .000E+00  .000E+00  .000E+00  .000E+00  .000E+00  .000E+00  .000E+00
  .000E+00  .000E+00  .000E+00  .000E+00  .000E+00  .000E+00  .000E+00  .000E+00
  .000E+00  .000E+00  .000E+00  .000E+00
  .396E+02  .396E+02  .396E+02  .396E+02  .396E+02  .396E+02  .398E+02  .398E+02
  .398E+02  .390E+02  .391E+02  .396E+02  .398E+02  .398E+02  .398E+02  .398E+02
  .271E+02  .396E+02  .396E+02  .396E+02  .396E+02  .396E+02  .388E+02  .388E+02
  .390E+02  .402E+02  .396E+02  .393E+02  .393E+02  .392E+02  .392E+02  .392E+02
  .402E+02  .401E+02  .392E+02  .391E+02  .391E+02  .389E+02  .480E+02  .389E+02
  .390E+02  .401E+02  .401E+02  .401E+02  .475E+02  .391E+02  .384E+02  .481E+02
  .481E+02  .400E+02  .400E+02  .397E+02  .392E+02  .496E+02  .512E+02  .478E+02
  .478E+02  .478E+02  .478E+02  .479E+02  .479E+02  .480E+02  .473E+02  .473E+02
  .473E+02  .473E+02  .473E+02  .473E+02  .400E+02  .400E+02  .400E+02  .400E+02
  .400E+02  .400E+02  .400E+02  .400E+02  .400E+02  .400E+02  .000E+00  .000E+00
  .000E+00  .000E+00  .000E+00  .000E+00  .000E+00  .000E+00  .000E+00  .000E+00
  .000E+00  .000E+00  .000E+00  .000E+00  .000E+00  .000E+00  .000E+00  .000E+00
  .000E+00  .000E+00  .000E+00  .000E+00
  .389E+02  .389E+02  .389E+02  .390E+02  .390E+02  .390E+02  .390E+02  .390E+02
  .390E+02  .390E+02  .390E+02  .390E+02  .399E+02  .398E+02  .398E+02  .398E+02
  .395E+02  .396E+02  .396E+02  .397E+02  .397E+02  .399E+02  .388E+02  .389E+02
  .389E+02  .390E+02  .392E+02  .392E+02  .392E+02  .392E+02  .392E+02  .392E+02
  .401E+02  .402E+02  .391E+02  .395E+02  .481E+02  .481E+02  .481E+02  .482E+02
  .476E+02  .405E+02  .476E+02  .400E+02  .474E+02  .482E+02  .483E+02  .483E+02
  .484E+02  .484E+02  .485E+02  .394E+02  .486E+02  .486E+02  .508E+02  .502E+02
  .481E+02  .481E+02  .482E+02  .483E+02  .483E+02  .477E+02  .477E+02  .477E+02
  .477E+02  .477E+02  .477E+02  .477E+02  .471E+02  .471E+02  .471E+02  .471E+02
  .471E+02  .471E+02  .471E+02  .471E+02  .471E+02  .471E+02  .000E+00  .000E+00
  .000E+00  .000E+00  .000E+00  .000E+00  .000E+00  .000E+00  .000E+00  .000E+00
  .000E+00  .000E+00  .000E+00  .000E+00  .000E+00  .000E+00  .000E+00  .000E+00
  .000E+00  .000E+00  .000E+00  .000E+00
/&   ----------  End of spectral data for channel  1  ----------
Response and Fourier amplitude spectra (78 periods,  .04 -  6.0 sec)   for      
Corrected accelerogram   38695658.CI.SBI.--.HN      Chan  2: 360 Deg     from   
Uncorrected Accelerogram Data             Processed: 09/19/20, CGS  cisbi--k    
Rcrd of Fri Sep 18, 2020 23:38:40.0 PDT               (Avol1 v2.0, 4/18 CSMIP)  
                                        (Origin:  To be determined)             
38695658.CI.SBI.--.HN                Start time:  9/19/20, 06:38:40.0 UTC (GPS) 
Station Id. SBI     33.480N, 119.030W    ObsMMS  s/n 4364  (3 Chns of  3 at Sta)
Santa Barbara Island, NPS Building       SCSN   Data: Acceleration              
Chan  2: 360 Deg                                                                
Rcrd of Fri Sep 18, 2020 23:38:40.0 PDT    Fri Sep 18, 2020 23:38:40.0 PDT      
Hypocenter:  To be determined.               ML:  To be determined.             
Instr Period =  .0050 sec,  Damping =  .707,  Sensitivity = 4.98 v/g  (Nominal) 
                        Record Length =301.000 sec.                             
                                     Uncor Max  =   .002 g, at   38.870 sec.    
RMS accel of (uncor) record  =        .   Chn. metadata effective date:         
Accelerogram bandpass filtered with 3 dB pts at   .30 and 23.00 cyc/sec         
                 instrument- and base-line correcte                             
                                                                                
                                                                                
                                                                                
                                                                                
                                                                                
Rcrd of Fri Sep 18, 2020 23:38:40.0 PDT    Fri Sep 18, 2020 23:38:40.0 PDT      
                                                                                
38695658.CI.SBI.--.HN     Santa Barbara Island, NPS Building    Chan  2: 360 Deg
                                                                                
38695658.CI.SBI.--.HN     Santa Barbara Island, NPS Building    Chan  2: 360 Deg
                                                                                
Units for spectra are inches and sec, except Sa is in fraction of g.            
                                                                                
    2  100    2    3    3  100 -999    3    1    0   15 4364    050707   41    0
    6   38   40    8  263    9   19 2020   10    3  36036187   39   34   74 -999
36187 -999  100    6 -999 -999 -999 -999 -999 -999 -999 -999 -999 -999 -999 -999
 -999 -999 -999 -99915050    2 -999    0 -999   20 -999 -999    3    1 -99915050
    315050    4   78    1    3    5    0    0 -999    0 -999 -999    6 -999    2
    2    2    4 -999 -999 -999 -999 -999 -999 -999 -999    1 -999 -999 -999  111
    1    1 -999 -999
      .005      .707   361.870      .000     1.000  4984.889      .002    38.870
   200.000     2.384      .478  -999.000    10.000  -999.000     4.000  -999.000
    20.000   -52.042      .000  -999.000  -999.000  -999.000  -999.000      .001
      .000      .000     2.000    15.000    33.480  -119.030      .003      .001
      .316     -.001      .000    41.000  -999.000  -999.000  -999.000  -999.000
     1.000  -999.000  -999.000  -999.000  -999.000  -999.000  -999.000   120.000
     -.900     2.000     6.800   980.665      .020   301.000    31.831      .000
  -999.000    23.000  -999.000   301.000      .020      .300  -999.000  -999.000
    38.860     1.982    38.800     -.069    39.080     -.006      .000      .300
    23.000      .020      .020      .000      .020      .002  -999.000  -999.000
      .009      .220      .008      .002      .000      .000  -999.000  -999.000
  -999.000  -999.000  -999.000  -999.000  -999.000  -999.000  -999.000  -999.000
  -999.000  -999.000  -999.000  -999.000
      .050
      .040      .042      .044      .046      .048      .050      .055      .060
      .065      .070      .075      .080      .085      .090      .095      .100
      .110      .120      .130      .140      .150      .160      .170      .180
      .190      .200      .220      .240      .260      .280      .300      .320
      .340      .360      .380      .400      .420      .440      .460      .480
      .500      .550      .600      .650      .700      .750      .800      .850
      .900      .950     1.000     1.100     1.200     1.300     1.400     1.500
     1.600     1.700     1.800     1.900     2.000     2.200     2.400     2.600
     2.800     3.000     3.200     3.400     3.600     3.800     4.000     4.200
     4.400     4.600     4.800     5.000     5.500     6.000      .000      .000
      .000      .000      .000      .000      .000      .000      .000      .000
      .000      .000      .000      .000      .000      .000      .000      .000
      .000      .000      .000      .000
Fourier amplitude spectra in in/sec.
  .000E+00  .000E+00  .000E+00  .000E+00  .000E+00  .000E+00  .000E+00  .000E+00
  .000E+00  .000E+00  .000E+00  .000E+00  .000E+00  .000E+00  .000E+00  .000E+00
  .000E+00  .000E+00  .000E+00  .000E+00  .000E+00  .000E+00  .000E+00  .000E+00
  .000E+00  .000E+00  .000E+00  .000E+00  .000E+00  .000E+00  .000E+00  .000E+00
  .000E+00  .000E+00  .000E+00  .000E+00  .000E+00  .000E+00  .000E+00  .000E+00
  .000E+00  .000E+00  .000E+00  .000E+00  .000E+00  .000E+00  .000E+00  .000E+00
  .000E+00  .000E+00  .000E+00  .000E+00  .000E+00  .000E+00  .000E+00  .000E+00
  .000E+00  .000E+00  .000E+00  .000E+00  .000E+00  .000E+00  .000E+00  .000E+00
  .000E+00  .000E+00  .000E+00  .000E+00  .000E+00  .000E+00  .000E+00  .000E+00
  .000E+00  .000E+00  .000E+00  .000E+00  .000E+00  .000E+00  .000E+00  .000E+00
  .000E+00  .000E+00  .000E+00  .000E+00  .000E+00  .000E+00  .000E+00  .000E+00
  .000E+00  .000E+00  .000E+00  .000E+00  .000E+00  .000E+00  .000E+00  .000E+00
  .000E+00  .000E+00  .000E+00  .000E+00
Damping =  .05. Data of Sd,Sv,Sa,Pssv,ttSd,ttSv,ttSa :
  .329E-04  .364E-04  .402E-04  .451E-04  .500E-04  .551E-04  .749E-04  .893E-04
  .992E-04  .122E-03  .161E-03  .168E-03  .180E-03  .211E-03  .302E-03  .345E-03
  .411E-03  .473E-03  .546E-03  .755E-03  .103E-02  .123E-02  .144E-02  .195E-02
  .270E-02  .318E-02  .424E-02  .396E-02  .277E-02  .204E-02  .174E-02  .197E-02
  .193E-02  .172E-02  .186E-02  .201E-02  .201E-02  .203E-02  .194E-02  .178E-02
