Response and Fourier amplitude spectra (78 periods,  .04 -  6.0 sec)   for      
Corrected accelerogram   38695658.CI.SBPX.--.H      Chan  1:  90 Deg     from   
Uncorrected Accelerogram Data             Processed: 09/19/20, CGS  cisbpx-k    
Rcrd of Fri Sep 18, 2020 23:38:36.0 PDT               (Avol1 v2.0, 4/18 CSMIP)  
                                        (Origin:  To be determined)             
38695658.CI.SBPX.--.H                Start time:  9/19/20, 06:38:36.0 UTC (GPS) 
Station Id. SBPX    34.232N, 117.235W    ObsMMS  s/n 6916  (3 Chns of  6 at Sta)
Rimforest (Lake Arrowhead)               SCSN   Data: Acceleration              
Chan  1:  90 Deg                                                                
Rcrd of Fri Sep 18, 2020 23:38:36.0 PDT    Fri Sep 18, 2020 23:38:36.0 PDT      
Hypocenter:  To be determined.               ML:  To be determined.             
Instr Period =  .0050 sec,  Damping =  .707,  Sensitivity = 5.00 v/g  (Nominal) 
                        Record Length =301.000 sec.                             
                                     Uncor Max  =  -.002 g, at   37.490 sec.    
RMS accel of (uncor) record  =        .   Chn. metadata effective date:         
Accelerogram bandpass filtered with 3 dB pts at   .30 and 23.00 cyc/sec         
                 instrument- and base-line correcte                             
                                                                                
                                                                                
                                                                                
                                                                                
                                                                                
Rcrd of Fri Sep 18, 2020 23:38:36.0 PDT    Fri Sep 18, 2020 23:38:36.0 PDT      
                                                                                
38695658.CI.SBPX.--.H     Rimforest (Lake Arrowhead)    Chan  1:  90 Deg        
                                                                                
38695658.CI.SBPX.--.H     Rimforest (Lake Arrowhead)    Chan  1:  90 Deg        
                                                                                
Units for spectra are inches and sec, except Sa is in fraction of g.            
                                                                                
    1  100    1    6    6  100 -999    3    1    0   15 6916    050567   41    0
    6   38   36    3  263    9   19 2020   10    3   9035900   39   26   74 -999
35900 -999  100    6 -999 -999 -999 -999 -999 -999 -999 -999 -999 -999 -999 -999
 -999 -999 -999 -99915050    2 -999    0 -999   20 -999 -999    3    1 -99915050
    315050    4   78    1    3    5    0    0 -999    0 -999 -999    6 -999    2
    2    2    4 -999 -999 -999 -999 -999 -999 -999 -999    1 -999 -999 -999  111
    1    1 -999 -999
      .005      .707   359.000      .000     1.000  4996.058     -.002    37.490
   200.000     2.384      .477  -999.000    10.000  -999.000     4.000  -999.000
    20.000   -24.588      .000  -999.000  -999.000  -999.000  -999.000     -.003
      .001      .005     2.000    15.000    34.232  -117.235      .021      .015
      .703      .001      .009  1860.000  -999.000  -999.000  -999.000  -999.000
     1.000  -999.000    -8.000  -999.000  -999.000  -999.000  -999.000   120.000
     -.900     2.000     6.800   980.665      .020   301.000    31.831     -.001
  -999.000    23.000  -999.000   301.000      .020      .300  -999.000  -999.000
    36.520    -2.269    37.460      .048    36.520      .003      .000      .300
    23.000      .020      .020      .000      .020      .003  -999.000  -999.000
      .009      .080      .004      .002      .000      .000  -999.000  -999.000
  -999.000  -999.000  -999.000  -999.000  -999.000  -999.000  -999.000  -999.000
  -999.000  -999.000  -999.000  -999.000
      .050
      .040      .042      .044      .046      .048      .050      .055      .060
      .065      .070      .075      .080      .085      .090      .095      .100
      .110      .120      .130      .140      .150      .160      .170      .180
      .190      .200      .220      .240      .260      .280      .300      .320
      .340      .360      .380      .400      .420      .440      .460      .480
      .500      .550      .600      .650      .700      .750      .800      .850
      .900      .950     1.000     1.100     1.200     1.300     1.400     1.500
     1.600     1.700     1.800     1.900     2.000     2.200     2.400     2.600
     2.800     3.000     3.200     3.400     3.600     3.800     4.000     4.200
     4.400     4.600     4.800     5.000     5.500     6.000      .000      .000
      .000      .000      .000      .000      .000      .000      .000      .000
      .000      .000      .000      .000      .000      .000      .000      .000
      .000      .000      .000      .000
Fourier amplitude spectra in in/sec.
  .000E+00  .000E+00  .000E+00  .000E+00  .000E+00  .000E+00  .000E+00  .000E+00
  .000E+00  .000E+00  .000E+00  .000E+00  .000E+00  .000E+00  .000E+00  .000E+00
  .000E+00  .000E+00  .000E+00  .000E+00  .000E+00  .000E+00  .000E+00  .000E+00
  .000E+00  .000E+00  .000E+00  .000E+00  .000E+00  .000E+00  .000E+00  .000E+00
  .000E+00  .000E+00  .000E+00  .000E+00  .000E+00  .000E+00  .000E+00  .000E+00
  .000E+00  .000E+00  .000E+00  .000E+00  .000E+00  .000E+00  .000E+00  .000E+00
  .000E+00  .000E+00  .000E+00  .000E+00  .000E+00  .000E+00  .000E+00  .000E+00
  .000E+00  .000E+00  .000E+00  .000E+00  .000E+00  .000E+00  .000E+00  .000E+00
  .000E+00  .000E+00  .000E+00  .000E+00  .000E+00  .000E+00  .000E+00  .000E+00
  .000E+00  .000E+00  .000E+00  .000E+00  .000E+00  .000E+00  .000E+00  .000E+00
  .000E+00  .000E+00  .000E+00  .000E+00  .000E+00  .000E+00  .000E+00  .000E+00
  .000E+00  .000E+00  .000E+00  .000E+00  .000E+00  .000E+00  .000E+00  .000E+00
  .000E+00  .000E+00  .000E+00  .000E+00
Damping =  .05. Data of Sd,Sv,Sa,Pssv,ttSd,ttSv,ttSa :
  .412E-04  .459E-04  .534E-04  .630E-04  .716E-04  .838E-04  .112E-03  .137E-03
  .203E-03  .303E-03  .395E-03  .555E-03  .580E-03  .563E-03  .627E-03  .532E-03
  .615E-03  .809E-03  .932E-03  .118E-02  .142E-02  .183E-02  .178E-02  .152E-02
  .178E-02  .164E-02  .147E-02  .140E-02  .170E-02  .165E-02  .161E-02  .135E-02
  .212E-02  .245E-02  .213E-02  .212E-02  .253E-02  .239E-02  .200E-02  .187E-02
  .192E-02  .226E-02  .183E-02  .184E-02  .197E-02  .209E-02  .214E-02  .218E-02
  .190E-02  .180E-02  .164E-02  .139E-02  .172E-02  .171E-02  .143E-02  .146E-02
  .144E-02  .146E-02  .120E-02  .113E-02  .117E-02  .116E-02  .136E-02  .128E-02
  .128E-02  .130E-02  .125E-02  .124E-02  .125E-02  .128E-02  .130E-02  .132E-02
  .133E-02  .134E-02  .136E-02  .137E-02  .136E-02  .134E-02  .000E+00  .000E+00
  .000E+00  .000E+00  .000E+00  .000E+00  .000E+00  .000E+00  .000E+00  .000E+00
  .000E+00  .000E+00  .000E+00  .000E+00  .000E+00  .000E+00  .000E+00  .000E+00
  .000E+00  .000E+00  .000E+00  .000E+00
  .286E-02  .316E-02  .354E-02  .443E-02  .557E-02  .684E-02  .991E-02  .108E-01
  .151E-01  .216E-01  .287E-01  .415E-01  .401E-01  .365E-01  .389E-01  .331E-01
  .321E-01  .422E-01  .408E-01  .504E-01  .624E-01  .726E-01  .739E-01  .605E-01
  .625E-01  .540E-01  .424E-01  .435E-01  .467E-01  .384E-01  .412E-01  .330E-01
  .427E-01  .483E-01  .386E-01  .393E-01  .386E-01  .372E-01  .342E-01  .370E-01
  .354E-01  .386E-01  .265E-01  .237E-01  .287E-01  .256E-01  .317E-01  .295E-01
  .267E-01  .244E-01  .217E-01  .202E-01  .215E-01  .209E-01  .193E-01  .187E-01
  .191E-01  .186E-01  .184E-01  .184E-01  .185E-01  .187E-01  .181E-01  .178E-01
  .175E-01  .173E-01  .172E-01  .172E-01  .171E-01  .170E-01  .169E-01  .169E-01
  .169E-01  .169E-01  .169E-01  .169E-01  .168E-01  .169E-01  .000E+00  .000E+00
  .000E+00  .000E+00  .000E+00  .000E+00  .000E+00  .000E+00  .000E+00  .000E+00
  .000E+00  .000E+00  .000E+00  .000E+00  .000E+00  .000E+00  .000E+00  .000E+00
  .000E+00  .000E+00  .000E+00  .000E+00
  .265E-02  .268E-02  .281E-02  .305E-02  .320E-02  .343E-02  .376E-02  .391E-02
  .490E-02  .645E-02  .734E-02  .897E-02  .821E-02  .718E-02  .714E-02  .536E-02
  .516E-02  .566E-02  .558E-02  .623E-02  .657E-02  .725E-02  .629E-02  .487E-02
  .507E-02  .439E-02  .312E-02  .253E-02  .262E-02  .216E-02  .180E-02  .136E-02
  .187E-02  .195E-02  .154E-02  .138E-02  .147E-02  .128E-02  .980E-03  .826E-03
  .803E-03  .763E-03  .529E-03  .448E-03  .413E-03  .389E-03  .350E-03  .316E-03
  .248E-03  .207E-03  .173E-03  .124E-03  .125E-03  .104E-03  .798E-04  .713E-04
  .626E-04  .526E-04  .430E-04  .371E-04  .322E-04  .283E-04  .269E-04  .235E-04
  .212E-04  .191E-04  .167E-04  .151E-04  .138E-04  .129E-04  .120E-04  .113E-04
  .105E-04  .991E-05  .936E-05  .883E-05  .763E-05  .666E-05  .000E+00  .000E+00
  .000E+00  .000E+00  .000E+00  .000E+00  .000E+00  .000E+00  .000E+00  .000E+00
  .000E+00  .000E+00  .000E+00  .000E+00  .000E+00  .000E+00  .000E+00  .000E+00
  .000E+00  .000E+00  .000E+00  .000E+00
  .647E-02  .687E-02  .762E-02  .860E-02  .937E-02  .105E-01  .128E-01  .144E-01
  .196E-01  .272E-01  .331E-01  .436E-01  .429E-01  .393E-01  .415E-01  .335E-01
  .351E-01  .424E-01  .450E-01  .528E-01  .595E-01  .717E-01  .658E-01  .531E-01
  .589E-01  .516E-01  .421E-01  .366E-01  .410E-01  .371E-01  .337E-01  .265E-01
  .392E-01  .428E-01  .353E-01  .333E-01  .378E-01  .342E-01  .274E-01  .245E-01
  .241E-01  .258E-01  .192E-01  .178E-01  .177E-01  .175E-01  .168E-01  .161E-01
  .133E-01  .119E-01  .103E-01  .796E-02  .902E-02  .826E-02  .643E-02  .611E-02
  .565E-02  .541E-02  .420E-02  .373E-02  .366E-02  .331E-02  .356E-02  .310E-02
  .288E-02  .272E-02  .246E-02  .229E-02  .218E-02  .211E-02  .204E-02  .197E-02
  .190E-02  .183E-02  .178E-02  .172E-02  .155E-02  .141E-02  .000E+00  .000E+00
  .000E+00  .000E+00  .000E+00  .000E+00  .000E+00  .000E+00  .000E+00  .000E+00
  .000E+00  .000E+00  .000E+00  .000E+00  .000E+00  .000E+00  .000E+00  .000E+00
  .000E+00  .000E+00  .000E+00  .000E+00
  .375E+02  .375E+02  .365E+02  .365E+02  .365E+02  .365E+02  .375E+02  .375E+02
  .375E+02  .375E+02  .376E+02  .377E+02  .377E+02  .273E+02  .273E+02  .273E+02
  .375E+02  .377E+02  .374E+02  .374E+02  .374E+02  .377E+02  .376E+02  .376E+02
  .376E+02  .376E+02  .358E+02  .358E+02  .376E+02  .367E+02  .367E+02  .386E+02
  .386E+02  .385E+02  .385E+02  .385E+02  .385E+02  .385E+02  .386E+02  .366E+02
  .385E+02  .450E+02  .360E+02  .358E+02  .361E+02  .374E+02  .371E+02  .384E+02
  .372E+02  .373E+02  .365E+02  .365E+02  .406E+02  .401E+02  .384E+02  .384E+02
  .384E+02  .600E+02  .469E+02  .384E+02  .681E+02  .397E+02  .397E+02  .397E+02
  .365E+02  .365E+02  .365E+02  .365E+02  .365E+02  .365E+02  .365E+02  .365E+02
  .365E+02  .365E+02  .365E+02  .365E+02  .365E+02  .365E+02  .000E+00  .000E+00
  .000E+00  .000E+00  .000E+00  .000E+00  .000E+00  .000E+00  .000E+00  .000E+00
  .000E+00  .000E+00  .000E+00  .000E+00  .000E+00  .000E+00  .000E+00  .000E+00
  .000E+00  .000E+00  .000E+00  .000E+00
  .365E+02  .365E+02  .365E+02  .365E+02  .365E+02  .365E+02  .365E+02  .366E+02
  .375E+02  .375E+02  .376E+02  .377E+02  .377E+02  .375E+02  .273E+02  .273E+02
  .375E+02  .377E+02  .374E+02  .374E+02  .374E+02  .377E+02  .377E+02  .377E+02
  .377E+02  .376E+02  .359E+02  .376E+02  .375E+02  .366E+02  .366E+02  .366E+02
  .386E+02  .386E+02  .392E+02  .365E+02  .365E+02  .385E+02  .385E+02  .365E+02
  .365E+02  .385E+02  .364E+02  .385E+02  .374E+02  .365E+02  .373E+02  .373E+02
  .373E+02  .365E+02  .365E+02  .365E+02  .385E+02  .385E+02  .385E+02  .385E+02
  .374E+02  .374E+02  .374E+02  .374E+02  .374E+02  .374E+02  .374E+02  .374E+02
  .374E+02  .374E+02  .374E+02  .374E+02  .374E+02  .374E+02  .374E+02  .373E+02
  .373E+02  .373E+02  .373E+02  .373E+02  .373E+02  .374E+02  .000E+00  .000E+00
  .000E+00  .000E+00  .000E+00  .000E+00  .000E+00  .000E+00  .000E+00  .000E+00
  .000E+00  .000E+00  .000E+00  .000E+00  .000E+00  .000E+00  .000E+00  .000E+00
  .000E+00  .000E+00  .000E+00  .000E+00
  .375E+02  .375E+02  .365E+02  .365E+02  .365E+02  .365E+02  .375E+02  .375E+02
  .375E+02  .375E+02  .376E+02  .377E+02  .377E+02  .375E+02  .273E+02  .273E+02
  .375E+02  .377E+02  .374E+02  .374E+02  .374E+02  .377E+02  .376E+02  .376E+02
  .376E+02  .376E+02  .358E+02  .358E+02  .376E+02  .367E+02  .366E+02  .382E+02
  .386E+02  .385E+02  .385E+02  .385E+02  .385E+02  .385E+02  .385E+02  .366E+02
  .385E+02  .450E+02  .360E+02  .357E+02  .361E+02  .374E+02  .371E+02  .384E+02
  .371E+02  .373E+02  .365E+02  .365E+02  .405E+02  .401E+02  .384E+02  .384E+02
  .384E+02  .600E+02  .365E+02  .365E+02  .365E+02  .365E+02  .365E+02  .365E+02
  .365E+02  .365E+02  .365E+02  .365E+02  .365E+02  .365E+02  .365E+02  .365E+02
  .365E+02  .365E+02  .365E+02  .365E+02  .365E+02  .365E+02  .000E+00  .000E+00
  .000E+00  .000E+00  .000E+00  .000E+00  .000E+00  .000E+00  .000E+00  .000E+00
  .000E+00  .000E+00  .000E+00  .000E+00  .000E+00  .000E+00  .000E+00  .000E+00
  .000E+00  .000E+00  .000E+00  .000E+00
/&   ----------  End of spectral data for channel  1  ----------
Response and Fourier amplitude spectra (78 periods,  .04 -  6.0 sec)   for      
Corrected accelerogram   38695658.CI.SBPX.--.H      Chan  2: 360 Deg     from   
Uncorrected Accelerogram Data             Processed: 09/19/20, CGS  cisbpx-k    
Rcrd of Fri Sep 18, 2020 23:38:36.0 PDT               (Avol1 v2.0, 4/18 CSMIP)  
                                        (Origin:  To be determined)             
38695658.CI.SBPX.--.H                Start time:  9/19/20, 06:38:36.0 UTC (GPS) 
Station Id. SBPX    34.232N, 117.235W    ObsMMS  s/n 6916  (3 Chns of  6 at Sta)
Rimforest (Lake Arrowhead)               SCSN   Data: Acceleration              
Chan  2: 360 Deg                                                                
Rcrd of Fri Sep 18, 2020 23:38:36.0 PDT    Fri Sep 18, 2020 23:38:36.0 PDT      
Hypocenter:  To be determined.               ML:  To be determined.             
Instr Period =  .0050 sec,  Damping =  .707,  Sensitivity = 4.99 v/g  (Nominal) 
                        Record Length =301.000 sec.                             
                                     Uncor Max  =   .002 g, at   36.600 sec.    
RMS accel of (uncor) record  =        .   Chn. metadata effective date:         
Accelerogram bandpass filtered with 3 dB pts at   .30 and 23.00 cyc/sec         
                 instrument- and base-line correcte                             
                                                                                
                                                                                
                                                                                
                                                                                
                                                                                
Rcrd of Fri Sep 18, 2020 23:38:36.0 PDT    Fri Sep 18, 2020 23:38:36.0 PDT      
                                                                                
38695658.CI.SBPX.--.H     Rimforest (Lake Arrowhead)    Chan  2: 360 Deg        
                                                                                
38695658.CI.SBPX.--.H     Rimforest (Lake Arrowhead)    Chan  2: 360 Deg        
                                                                                
Units for spectra are inches and sec, except Sa is in fraction of g.            
                                                                                
    2  100    2    6    6  100 -999    3    1    0   15 6916    050567   41    0
    6   38   36    3  263    9   19 2020   10    3  36035904   39   26   74 -999
35904 -999  100    6 -999 -999 -999 -999 -999 -999 -999 -999 -999 -999 -999 -999
 -999 -999 -999 -99915050    2 -999    0 -999   20 -999 -999    3    1 -99915050
    315050    4   78    1    3    5    0    0 -999    0 -999 -999    6 -999    2
    2    2    4 -999 -999 -999 -999 -999 -999 -999 -999    1 -999 -999 -999  111
    1    1 -999 -999
      .005      .707   359.040      .000     1.000  4994.462      .002    36.600
   200.000     2.384      .477  -999.000    10.000  -999.000     4.000  -999.000
    20.000     9.482      .000  -999.000  -999.000  -999.000  -999.000     -.003
      .000      .002     2.000    15.000    34.232  -117.235      .023      .014
      .602     -.002      .007  1860.000  -999.000  -999.000  -999.000  -999.000
     1.000  -999.000  -999.000  -999.000  -999.000  -999.000  -999.000   120.000
     -.900     2.000     6.800   980.665      .020   301.000    31.831     -.001
  -999.000    23.000  -999.000   301.000      .020      .300  -999.000  -999.000
    36.600     2.183    37.440      .059    36.540      .005      .000      .300
    23.000      .020      .020      .000      .020      .004  -999.000  -999.000
      .009      .090      .004      .003      .000      .000  -999.000  -999.000
  -999.000  -999.000  -999.000  -999.000  -999.000  -999.000  -999.000  -999.000
  -999.000  -999.000  -999.000  -999.000
      .050
      .040      .042      .044      .046      .048      .050      .055      .060
      .065      .070      .075      .080      .085      .090      .095      .100
      .110      .120      .130      .140      .150      .160      .170      .180
      .190      .200      .220      .240      .260      .280      .300      .320
      .340      .360      .380      .400      .420      .440      .460      .480
      .500      .550      .600      .650      .700      .750      .800      .850
      .900      .950     1.000     1.100     1.200     1.300     1.400     1.500
     1.600     1.700     1.800     1.900     2.000     2.200     2.400     2.600
     2.800     3.000     3.200     3.400     3.600     3.800     4.000     4.200
     4.400     4.600     4.800     5.000     5.500     6.000      .000      .000
      .000      .000      .000      .000      .000      .000      .000      .000
      .000      .000      .000      .000      .000      .000      .000      .000
      .000      .000      .000      .000
Fourier amplitude spectra in in/sec.
  .000E+00  .000E+00  .000E+00  .000E+00  .000E+00  .000E+00  .000E+00  .000E+00
  .000E+00  .000E+00  .000E+00  .000E+00  .000E+00  .000E+00  .000E+00  .000E+00
  .000E+00  .000E+00  .000E+00  .000E+00  .000E+00  .000E+00  .000E+00  .000E+00
  .000E+00  .000E+00  .000E+00  .000E+00  .000E+00  .000E+00  .000E+00  .000E+00
  .000E+00  .000E+00  .000E+00  .000E+00  .000E+00  .000E+00  .000E+00  .000E+00
  .000E+00  .000E+00  .000E+00  .000E+00  .000E+00  .000E+00  .000E+00  .000E+00
  .000E+00  .000E+00  .000E+00  .000E+00  .000E+00  .000E+00  .000E+00  .000E+00
  .000E+00  .000E+00  .000E+00  .000E+00  .000E+00  .000E+00  .000E+00  .000E+00
  .000E+00  .000E+00  .000E+00  .000E+00  .000E+00  .000E+00  .000E+00  .000E+00
  .000E+00  .000E+00  .000E+00  .000E+00  .000E+00  .000E+00  .000E+00  .000E+00
  .000E+00  .000E+00  .000E+00  .000E+00  .000E+00  .000E+00  .000E+00  .000E+00
  .000E+00  .000E+00  .000E+00  .000E+00  .000E+00  .000E+00  .000E+00  .000E+00
  .000E+00  .000E+00  .000E+00  .000E+00
Damping =  .05. Data of Sd,Sv,Sa,Pssv,ttSd,ttSv,ttSa :
  .411E-04  .469E-04  .529E-04  .623E-04  .724E-04  .840E-04  .108E-03  .145E-03
  .194E-03  .208E-03  .273E-03  .355E-03  .481E-03  .726E-03  .806E-03  .723E-03
  .853E-03  .103E-02  .128E-02  .102E-02  .946E-03  .101E-02  .105E-02  .129E-02
  .158E-02  .181E-02  .163E-02  .145E-02  .155E-02  .217E-02  .229E-02  .237E-02
  .323E-02  .347E-02  .316E-02  .341E-02  .402E-02  .405E-02  .409E-02  .444E-02
