Response and Fourier amplitude spectra (78 periods,  .04 -  6.0 sec)   for      
Corrected accelerogram   38695658.CI.SCI2.--.H      Chan  1:  90 Deg     from   
Uncorrected Accelerogram Data             Processed: 09/19/20, CGS  cisci2-l    
Rcrd of Fri Sep 18, 2020 23:38:43.0 PDT               (Avol1 v2.0, 4/18 CSMIP)  
                                        (Origin:  To be determined)             
38695658.CI.SCI2.--.H                Start time:  9/19/20, 06:38:43.0 UTC (GPS) 
Station Id. SCI2    32.980N, 118.547W    ObsMMS  s/n 5321  (3 Chns of  6 at Sta)
San Clemente Island                      SCSN   Data: Acceleration              
Chan  1:  90 Deg                                                                
Rcrd of Fri Sep 18, 2020 23:38:43.0 PDT    Fri Sep 18, 2020 23:38:43.0 PDT      
Hypocenter:  To be determined.               ML:  To be determined.             
Instr Period =  .0050 sec,  Damping =  .707,  Sensitivity = 4.99 v/g  (Nominal) 
                        Record Length =301.000 sec.                             
                                     Uncor Max  =   .001 g, at   26.580 sec.    
RMS accel of (uncor) record  =        .   Chn. metadata effective date:         
Accelerogram bandpass filtered with 3 dB pts at   .30 and 23.00 cyc/sec         
                 instrument- and base-line correcte                             
                                                                                
                                                                                
                                                                                
                                                                                
                                                                                
Rcrd of Fri Sep 18, 2020 23:38:43.0 PDT    Fri Sep 18, 2020 23:38:43.0 PDT      
                                                                                
38695658.CI.SCI2.--.H     San Clemente Island   Chan  1:  90 Deg                
                                                                                
38695658.CI.SCI2.--.H     San Clemente Island   Chan  1:  90 Deg                
                                                                                
Units for spectra are inches and sec, except Sa is in fraction of g.            
                                                                                
    1  100    1    6    6  100 -999    3    1    0   15 5321    050710   41    0
    6   38   43    8  263    9   19 2020   10    3   9035802   39   19   74 -999
35802 -999  100    6 -999 -999 -999 -999 -999 -999 -999 -999 -999 -999 -999 -999
 -999 -999 -999 -99915050    2 -999    0 -999   20 -999 -999    3    1 -99915050
    315050    4   78    1    3    5    0    0 -999    0 -999 -999    6 -999    2
    2    2    4 -999 -999 -999 -999 -999 -999 -999 -999    1 -999 -999 -999  111
    1    1 -999 -999
      .005      .707   358.020      .000     1.000  4989.676      .001    26.580
   200.000     2.384      .478  -999.000    10.000  -999.000     4.000  -999.000
    20.000    13.175      .000  -999.000  -999.000  -999.000  -999.000     -.005
      .005      .011     2.000    15.000    32.980  -118.547      .006      .007
     1.120      .010      .012   199.000  -999.000  -999.000  -999.000  -999.000
     1.000  -999.000    -8.000  -999.000  -999.000  -999.000  -999.000   120.000
     -.900     2.000     6.800   980.665      .020   301.000    31.831     -.001
  -999.000    23.000  -999.000   301.000      .020      .300  -999.000  -999.000
    26.580     1.042    41.440     -.037    49.320     -.005      .000      .300
    23.000      .020      .020      .000      .020      .004  -999.000  -999.000
      .004      .110      .003      .002      .000      .000  -999.000  -999.000
  -999.000  -999.000  -999.000  -999.000  -999.000  -999.000  -999.000  -999.000
  -999.000  -999.000  -999.000  -999.000
      .050
      .040      .042      .044      .046      .048      .050      .055      .060
      .065      .070      .075      .080      .085      .090      .095      .100
      .110      .120      .130      .140      .150      .160      .170      .180
      .190      .200      .220      .240      .260      .280      .300      .320
      .340      .360      .380      .400      .420      .440      .460      .480
      .500      .550      .600      .650      .700      .750      .800      .850
      .900      .950     1.000     1.100     1.200     1.300     1.400     1.500
     1.600     1.700     1.800     1.900     2.000     2.200     2.400     2.600
     2.800     3.000     3.200     3.400     3.600     3.800     4.000     4.200
     4.400     4.600     4.800     5.000     5.500     6.000      .000      .000
      .000      .000      .000      .000      .000      .000      .000      .000
      .000      .000      .000      .000      .000      .000      .000      .000
      .000      .000      .000      .000
Fourier amplitude spectra in in/sec.
  .000E+00  .000E+00  .000E+00  .000E+00  .000E+00  .000E+00  .000E+00  .000E+00
  .000E+00  .000E+00  .000E+00  .000E+00  .000E+00  .000E+00  .000E+00  .000E+00
  .000E+00  .000E+00  .000E+00  .000E+00  .000E+00  .000E+00  .000E+00  .000E+00
  .000E+00  .000E+00  .000E+00  .000E+00  .000E+00  .000E+00  .000E+00  .000E+00
  .000E+00  .000E+00  .000E+00  .000E+00  .000E+00  .000E+00  .000E+00  .000E+00
  .000E+00  .000E+00  .000E+00  .000E+00  .000E+00  .000E+00  .000E+00  .000E+00
  .000E+00  .000E+00  .000E+00  .000E+00  .000E+00  .000E+00  .000E+00  .000E+00
  .000E+00  .000E+00  .000E+00  .000E+00  .000E+00  .000E+00  .000E+00  .000E+00
  .000E+00  .000E+00  .000E+00  .000E+00  .000E+00  .000E+00  .000E+00  .000E+00
  .000E+00  .000E+00  .000E+00  .000E+00  .000E+00  .000E+00  .000E+00  .000E+00
  .000E+00  .000E+00  .000E+00  .000E+00  .000E+00  .000E+00  .000E+00  .000E+00
  .000E+00  .000E+00  .000E+00  .000E+00  .000E+00  .000E+00  .000E+00  .000E+00
  .000E+00  .000E+00  .000E+00  .000E+00
Damping =  .05. Data of Sd,Sv,Sa,Pssv,ttSd,ttSv,ttSa :
  .172E-04  .194E-04  .218E-04  .244E-04  .262E-04  .284E-04  .375E-04  .533E-04
  .656E-04  .764E-04  .107E-03  .149E-03  .193E-03  .230E-03  .287E-03  .346E-03
  .488E-03  .561E-03  .600E-03  .538E-03  .675E-03  .696E-03  .768E-03  .702E-03
  .872E-03  .103E-02  .130E-02  .128E-02  .167E-02  .182E-02  .163E-02  .197E-02
  .225E-02  .204E-02  .230E-02  .234E-02  .243E-02  .272E-02  .316E-02  .331E-02
  .336E-02  .331E-02  .258E-02  .279E-02  .270E-02  .215E-02  .206E-02  .194E-02
  .213E-02  .216E-02  .241E-02  .297E-02  .297E-02  .339E-02  .355E-02  .328E-02
  .381E-02  .375E-02  .387E-02  .416E-02  .456E-02  .589E-02  .628E-02  .469E-02
  .316E-02  .325E-02  .325E-02  .351E-02  .333E-02  .288E-02  .238E-02  .248E-02
  .248E-02  .228E-02  .207E-02  .194E-02  .186E-02  .188E-02  .000E+00  .000E+00
  .000E+00  .000E+00  .000E+00  .000E+00  .000E+00  .000E+00  .000E+00  .000E+00
  .000E+00  .000E+00  .000E+00  .000E+00  .000E+00  .000E+00  .000E+00  .000E+00
  .000E+00  .000E+00  .000E+00  .000E+00
  .985E-03  .108E-02  .118E-02  .122E-02  .135E-02  .163E-02  .237E-02  .358E-02
  .447E-02  .506E-02  .656E-02  .862E-02  .114E-01  .142E-01  .176E-01  .202E-01
  .273E-01  .298E-01  .290E-01  .260E-01  .260E-01  .242E-01  .264E-01  .244E-01
  .277E-01  .333E-01  .387E-01  .330E-01  .433E-01  .435E-01  .322E-01  .390E-01
  .405E-01  .352E-01  .386E-01  .418E-01  .381E-01  .419E-01  .486E-01  .518E-01
  .490E-01  .406E-01  .348E-01  .310E-01  .279E-01  .214E-01  .213E-01  .239E-01
  .229E-01  .197E-01  .178E-01  .182E-01  .190E-01  .223E-01  .215E-01  .182E-01
  .195E-01  .176E-01  .165E-01  .168E-01  .167E-01  .204E-01  .229E-01  .172E-01
  .170E-01  .165E-01  .163E-01  .161E-01  .158E-01  .157E-01  .155E-01  .153E-01
  .151E-01  .150E-01  .149E-01  .148E-01  .147E-01  .146E-01  .000E+00  .000E+00
  .000E+00  .000E+00  .000E+00  .000E+00  .000E+00  .000E+00  .000E+00  .000E+00
  .000E+00  .000E+00  .000E+00  .000E+00  .000E+00  .000E+00  .000E+00  .000E+00
  .000E+00  .000E+00  .000E+00  .000E+00
  .111E-02  .113E-02  .116E-02  .118E-02  .116E-02  .116E-02  .127E-02  .151E-02
  .160E-02  .160E-02  .194E-02  .241E-02  .273E-02  .296E-02  .327E-02  .351E-02
  .411E-02  .409E-02  .371E-02  .283E-02  .307E-02  .280E-02  .273E-02  .225E-02
  .251E-02  .257E-02  .277E-02  .225E-02  .255E-02  .236E-02  .186E-02  .197E-02
  .201E-02  .161E-02  .163E-02  .150E-02  .142E-02  .145E-02  .154E-02  .148E-02
  .138E-02  .112E-02  .740E-03  .681E-03  .566E-03  .393E-03  .332E-03  .278E-03
  .271E-03  .248E-03  .248E-03  .252E-03  .211E-03  .207E-03  .186E-03  .151E-03
  .153E-03  .134E-03  .123E-03  .119E-03  .118E-03  .126E-03  .113E-03  .720E-04
  .427E-04  .390E-04  .341E-04  .329E-04  .281E-04  .222E-04  .170E-04  .154E-04
  .141E-04  .120E-04  .102E-04  .897E-05  .779E-05  .682E-05  .000E+00  .000E+00
  .000E+00  .000E+00  .000E+00  .000E+00  .000E+00  .000E+00  .000E+00  .000E+00
  .000E+00  .000E+00  .000E+00  .000E+00  .000E+00  .000E+00  .000E+00  .000E+00
  .000E+00  .000E+00  .000E+00  .000E+00
  .271E-02  .291E-02  .312E-02  .333E-02  .343E-02  .357E-02  .429E-02  .558E-02
  .635E-02  .686E-02  .895E-02  .117E-01  .143E-01  .161E-01  .190E-01  .218E-01
  .279E-01  .294E-01  .290E-01  .241E-01  .283E-01  .273E-01  .284E-01  .245E-01
  .288E-01  .324E-01  .372E-01  .335E-01  .405E-01  .408E-01  .342E-01  .387E-01
  .417E-01  .356E-01  .381E-01  .367E-01  .363E-01  .389E-01  .432E-01  .433E-01
  .422E-01  .378E-01  .270E-01  .269E-01  .243E-01  .180E-01  .162E-01  .144E-01
  .149E-01  .143E-01  .151E-01  .169E-01  .155E-01  .164E-01  .160E-01  .138E-01
  .150E-01  .139E-01  .135E-01  .137E-01  .143E-01  .168E-01  .164E-01  .113E-01
  .710E-02  .681E-02  .638E-02  .649E-02  .581E-02  .476E-02  .374E-02  .371E-02
  .354E-02  .311E-02  .271E-02  .243E-02  .212E-02  .197E-02  .000E+00  .000E+00
  .000E+00  .000E+00  .000E+00  .000E+00  .000E+00  .000E+00  .000E+00  .000E+00
  .000E+00  .000E+00  .000E+00  .000E+00  .000E+00  .000E+00  .000E+00  .000E+00
  .000E+00  .000E+00  .000E+00  .000E+00
  .266E+02  .266E+02  .266E+02  .266E+02  .266E+02  .266E+02  .266E+02  .266E+02
  .266E+02  .266E+02  .266E+02  .266E+02  .266E+02  .266E+02  .266E+02  .266E+02
  .269E+02  .269E+02  .269E+02  .269E+02  .455E+02  .456E+02  .456E+02  .275E+02
  .263E+02  .267E+02  .274E+02  .456E+02  .456E+02  .416E+02  .431E+02  .437E+02
  .439E+02  .439E+02  .528E+02  .438E+02  .416E+02  .416E+02  .416E+02  .417E+02
  .415E+02  .423E+02  .515E+02  .504E+02  .505E+02  .495E+02  .607E+02  .410E+02
  .634E+02  .631E+02  .577E+02  .578E+02  .586E+02  .587E+02  .546E+02  .604E+02
  .605E+02  .600E+02  .600E+02  .640E+02  .641E+02  .601E+02  .583E+02  .584E+02
  .575E+02  .502E+02  .493E+02  .493E+02  .493E+02  .493E+02  .493E+02  .575E+02
  .575E+02  .575E+02  .575E+02  .575E+02  .493E+02  .493E+02  .000E+00  .000E+00
  .000E+00  .000E+00  .000E+00  .000E+00  .000E+00  .000E+00  .000E+00  .000E+00
  .000E+00  .000E+00  .000E+00  .000E+00  .000E+00  .000E+00  .000E+00  .000E+00
  .000E+00  .000E+00  .000E+00  .000E+00
  .266E+02  .266E+02  .266E+02  .266E+02  .266E+02  .265E+02  .266E+02  .397E+02
  .397E+02  .424E+02  .270E+02  .266E+02  .266E+02  .266E+02  .266E+02  .266E+02
  .270E+02  .269E+02  .269E+02  .269E+02  .454E+02  .456E+02  .456E+02  .275E+02
  .262E+02  .266E+02  .266E+02  .266E+02  .456E+02  .416E+02  .430E+02  .439E+02
  .440E+02  .438E+02  .438E+02  .439E+02  .528E+02  .455E+02  .415E+02  .416E+02
  .416E+02  .430E+02  .414E+02  .414E+02  .503E+02  .504E+02  .414E+02  .413E+02
  .413E+02  .413E+02  .494E+02  .576E+02  .576E+02  .526E+02  .514E+02  .514E+02
  .602E+02  .603E+02  .603E+02  .504E+02  .414E+02  .639E+02  .599E+02  .414E+02
  .414E+02  .414E+02  .414E+02  .414E+02  .414E+02  .414E+02  .414E+02  .414E+02
  .414E+02  .414E+02  .414E+02  .414E+02  .414E+02  .414E+02  .000E+00  .000E+00
  .000E+00  .000E+00  .000E+00  .000E+00  .000E+00  .000E+00  .000E+00  .000E+00
  .000E+00  .000E+00  .000E+00  .000E+00  .000E+00  .000E+00  .000E+00  .000E+00
  .000E+00  .000E+00  .000E+00  .000E+00
  .266E+02  .266E+02  .266E+02  .266E+02  .266E+02  .266E+02  .266E+02  .266E+02
  .266E+02  .266E+02  .266E+02  .266E+02  .266E+02  .266E+02  .266E+02  .266E+02
  .271E+02  .269E+02  .269E+02  .454E+02  .455E+02  .455E+02  .456E+02  .275E+02
  .263E+02  .267E+02  .274E+02  .456E+02  .456E+02  .416E+02  .431E+02  .437E+02
  .439E+02  .439E+02  .528E+02  .438E+02  .416E+02  .416E+02  .416E+02  .417E+02
  .415E+02  .423E+02  .515E+02  .504E+02  .505E+02  .495E+02  .606E+02  .410E+02
  .634E+02  .631E+02  .577E+02  .578E+02  .586E+02  .587E+02  .546E+02  .604E+02
  .605E+02  .599E+02  .600E+02  .640E+02  .640E+02  .601E+02  .583E+02  .583E+02
  .525E+02  .502E+02  .492E+02  .492E+02  .493E+02  .493E+02  .493E+02  .574E+02
  .574E+02  .574E+02  .574E+02  .492E+02  .492E+02  .492E+02  .000E+00  .000E+00
  .000E+00  .000E+00  .000E+00  .000E+00  .000E+00  .000E+00  .000E+00  .000E+00
  .000E+00  .000E+00  .000E+00  .000E+00  .000E+00  .000E+00  .000E+00  .000E+00
  .000E+00  .000E+00  .000E+00  .000E+00
/&   ----------  End of spectral data for channel  1  ----------
Response and Fourier amplitude spectra (78 periods,  .04 -  6.0 sec)   for      
Corrected accelerogram   38695658.CI.SCI2.--.H      Chan  2: 360 Deg     from   
Uncorrected Accelerogram Data             Processed: 09/19/20, CGS  cisci2-l    
Rcrd of Fri Sep 18, 2020 23:38:43.0 PDT               (Avol1 v2.0, 4/18 CSMIP)  
                                        (Origin:  To be determined)             
38695658.CI.SCI2.--.H                Start time:  9/19/20, 06:38:43.0 UTC (GPS) 
Station Id. SCI2    32.980N, 118.547W    ObsMMS  s/n 5321  (3 Chns of  6 at Sta)
San Clemente Island                      SCSN   Data: Acceleration              
Chan  2: 360 Deg                                                                
Rcrd of Fri Sep 18, 2020 23:38:43.0 PDT    Fri Sep 18, 2020 23:38:43.0 PDT      
Hypocenter:  To be determined.               ML:  To be determined.             
Instr Period =  .0050 sec,  Damping =  .707,  Sensitivity = 4.99 v/g  (Nominal) 
                        Record Length =301.000 sec.                             
                                     Uncor Max  =  -.001 g, at   41.870 sec.    
RMS accel of (uncor) record  =        .   Chn. metadata effective date:         
Accelerogram bandpass filtered with 3 dB pts at   .30 and 23.00 cyc/sec         
                 instrument- and base-line correcte                             
                                                                                
                                                                                
                                                                                
                                                                                
                                                                                
Rcrd of Fri Sep 18, 2020 23:38:43.0 PDT    Fri Sep 18, 2020 23:38:43.0 PDT      
                                                                                
38695658.CI.SCI2.--.H     San Clemente Island   Chan  2: 360 Deg                
                                                                                
38695658.CI.SCI2.--.H     San Clemente Island   Chan  2: 360 Deg                
                                                                                
Units for spectra are inches and sec, except Sa is in fraction of g.            
                                                                                
    2  100    2    6    6  100 -999    3    1    0   15 5321    050710   41    0
    6   38   43    8  263    9   19 2020   10    3  36035618   39   19   74 -999
35618 -999  100    6 -999 -999 -999 -999 -999 -999 -999 -999 -999 -999 -999 -999
 -999 -999 -999 -99915050    2 -999    0 -999   20 -999 -999    3    1 -99915050
    315050    4   78    1    3    5    0    0 -999    0 -999 -999    6 -999    2
    2    2    4 -999 -999 -999 -999 -999 -999 -999 -999    1 -999 -999 -999  111
    1    1 -999 -999
      .005      .707   356.180      .000     1.000  4994.462     -.001    41.870
   200.000     2.384      .477  -999.000    10.000  -999.000     4.000  -999.000
    20.000     5.128      .000  -999.000  -999.000  -999.000  -999.000     -.004
      .005      .009     2.000    15.000    32.980  -118.547      .007      .007
     1.074      .007      .010   199.000  -999.000  -999.000  -999.000  -999.000
     1.000  -999.000  -999.000  -999.000  -999.000  -999.000  -999.000   120.000
     -.900     2.000     6.800   980.665      .020   301.000    31.831     -.001
  -999.000    23.000  -999.000   301.000      .020      .300  -999.000  -999.000
    41.860    -1.156    45.140      .041    50.200      .003      .000      .300
    23.000      .020      .020      .000      .020      .004  -999.000  -999.000
      .004      .150      .003      .003      .000      .000  -999.000  -999.000
  -999.000  -999.000  -999.000  -999.000  -999.000  -999.000  -999.000  -999.000
  -999.000  -999.000  -999.000  -999.000
      .050
      .040      .042      .044      .046      .048      .050      .055      .060
      .065      .070      .075      .080      .085      .090      .095      .100
      .110      .120      .130      .140      .150      .160      .170      .180
      .190      .200      .220      .240      .260      .280      .300      .320
      .340      .360      .380      .400      .420      .440      .460      .480
      .500      .550      .600      .650      .700      .750      .800      .850
      .900      .950     1.000     1.100     1.200     1.300     1.400     1.500
     1.600     1.700     1.800     1.900     2.000     2.200     2.400     2.600
     2.800     3.000     3.200     3.400     3.600     3.800     4.000     4.200
     4.400     4.600     4.800     5.000     5.500     6.000      .000      .000
      .000      .000      .000      .000      .000      .000      .000      .000
      .000      .000      .000      .000      .000      .000      .000      .000
      .000      .000      .000      .000
Fourier amplitude spectra in in/sec.
  .000E+00  .000E+00  .000E+00  .000E+00  .000E+00  .000E+00  .000E+00  .000E+00
  .000E+00  .000E+00  .000E+00  .000E+00  .000E+00  .000E+00  .000E+00  .000E+00
  .000E+00  .000E+00  .000E+00  .000E+00  .000E+00  .000E+00  .000E+00  .000E+00
  .000E+00  .000E+00  .000E+00  .000E+00  .000E+00  .000E+00  .000E+00  .000E+00
  .000E+00  .000E+00  .000E+00  .000E+00  .000E+00  .000E+00  .000E+00  .000E+00
  .000E+00  .000E+00  .000E+00  .000E+00  .000E+00  .000E+00  .000E+00  .000E+00
  .000E+00  .000E+00  .000E+00  .000E+00  .000E+00  .000E+00  .000E+00  .000E+00
  .000E+00  .000E+00  .000E+00  .000E+00  .000E+00  .000E+00  .000E+00  .000E+00
  .000E+00  .000E+00  .000E+00  .000E+00  .000E+00  .000E+00  .000E+00  .000E+00
  .000E+00  .000E+00  .000E+00  .000E+00  .000E+00  .000E+00  .000E+00  .000E+00
  .000E+00  .000E+00  .000E+00  .000E+00  .000E+00  .000E+00  .000E+00  .000E+00
  .000E+00  .000E+00  .000E+00  .000E+00  .000E+00  .000E+00  .000E+00  .000E+00
  .000E+00  .000E+00  .000E+00  .000E+00
Damping =  .05. Data of Sd,Sv,Sa,Pssv,ttSd,ttSv,ttSa :
  .194E-04  .219E-04  .247E-04  .277E-04  .306E-04  .336E-04  .406E-04  .503E-04
  .682E-04  .918E-04  .142E-03  .193E-03  .201E-03  .179E-03  .204E-03  .239E-03
  .438E-03  .478E-03  .501E-03  .644E-03  .881E-03  .843E-03  .867E-03  .886E-03
  .859E-03  .108E-02  .125E-02  .191E-02  .243E-02  .290E-02  .268E-02  .244E-02
  .338E-02  .419E-02  .381E-02  .387E-02  .459E-02  .452E-02  .473E-02  .444E-02
