Response and Fourier amplitude spectra (78 periods,  .04 -  6.0 sec)   for      
Corrected accelerogram   38695658.CI.SDD.--.HN      Chan  1:  90 Deg     from   
Uncorrected Accelerogram Data             Processed: 09/19/20, CGS  cisdd--q    
Rcrd of Fri Sep 18, 2020 23:38:36.0 PDT               (Avol1 v2.0, 4/18 CSMIP)  
                                        (Origin:  To be determined)             
38695658.CI.SDD.--.HN                Start time:  9/19/20, 06:38:36.0 UTC (GPS) 
Station Id. SDD     33.553N, 117.662W    ObsMMS  s/n 3457  (3 Chns of  3 at Sta)
Mission Viejo, Saddleback College        SCSN   Data: Acceleration              
Chan  1:  90 Deg                                                                
Rcrd of Fri Sep 18, 2020 23:38:36.0 PDT    Fri Sep 18, 2020 23:38:36.0 PDT      
Hypocenter:  To be determined.               ML:  To be determined.             
Instr Period =  .0050 sec,  Damping =  .707,  Sensitivity = 4.99 v/g  (Nominal) 
                        Record Length =301.000 sec.                             
                                     Uncor Max  =   .004 g, at   33.200 sec.    
RMS accel of (uncor) record  =        .   Chn. metadata effective date:         
Accelerogram bandpass filtered with 3 dB pts at   .30 and 23.00 cyc/sec         
                 instrument- and base-line correcte                             
                                                                                
                                                                                
                                                                                
                                                                                
                                                                                
Rcrd of Fri Sep 18, 2020 23:38:36.0 PDT    Fri Sep 18, 2020 23:38:36.0 PDT      
                                                                                
38695658.CI.SDD.--.HN     Mission Viejo, Saddleback College   Chan  1:  90 Deg  
                                                                                
38695658.CI.SDD.--.HN     Mission Viejo, Saddleback College   Chan  1:  90 Deg  
                                                                                
Units for spectra are inches and sec, except Sa is in fraction of g.            
                                                                                
    1  100    1    3    3  100 -999    3    1    0   15 3457    050569   41    0
    6   38   36    8  263    9   19 2020   10    3   9035694   39   33   74 -999
35694 -999  100    6 -999 -999 -999 -999 -999 -999 -999 -999 -999 -999 -999 -999
 -999 -999 -999 -99915050    2 -999    0 -999   20 -999 -999    3    1 -99915050
    315050    4   78    1    3    5    0    0 -999    0 -999 -999    6 -999    2
    2    2    4 -999 -999 -999 -999 -999 -999 -999 -999    1 -999 -999 -999  111
    1    1 -999 -999
      .005      .707   356.940      .000     1.000  4994.462      .004    33.200
   200.000     2.384      .477  -999.000    10.000  -999.000     4.000  -999.000
    20.000   -14.165      .000  -999.000  -999.000  -999.000  -999.000      .000
      .000     -.001     2.000    15.000    33.553  -117.662      .002      .001
      .610     -.001      .000   120.000  -999.000  -999.000  -999.000  -999.000
     1.000  -999.000    -8.000  -999.000  -999.000  -999.000  -999.000   120.000
     -.900     2.000     6.800   980.665      .020   301.000    31.831      .000
  -999.000    23.000  -999.000   301.000      .020      .300  -999.000  -999.000
    33.200     3.738    33.240      .141    33.180     -.012      .000      .300
    23.000      .020      .020      .000      .020      .010  -999.000  -999.000
      .012      .240      .010      .007      .001      .000  -999.000  -999.000
  -999.000  -999.000  -999.000  -999.000  -999.000  -999.000  -999.000  -999.000
  -999.000  -999.000  -999.000  -999.000
      .050
      .040      .042      .044      .046      .048      .050      .055      .060
      .065      .070      .075      .080      .085      .090      .095      .100
      .110      .120      .130      .140      .150      .160      .170      .180
      .190      .200      .220      .240      .260      .280      .300      .320
      .340      .360      .380      .400      .420      .440      .460      .480
      .500      .550      .600      .650      .700      .750      .800      .850
      .900      .950     1.000     1.100     1.200     1.300     1.400     1.500
     1.600     1.700     1.800     1.900     2.000     2.200     2.400     2.600
     2.800     3.000     3.200     3.400     3.600     3.800     4.000     4.200
     4.400     4.600     4.800     5.000     5.500     6.000      .000      .000
      .000      .000      .000      .000      .000      .000      .000      .000
      .000      .000      .000      .000      .000      .000      .000      .000
      .000      .000      .000      .000
Fourier amplitude spectra in in/sec.
  .000E+00  .000E+00  .000E+00  .000E+00  .000E+00  .000E+00  .000E+00  .000E+00
  .000E+00  .000E+00  .000E+00  .000E+00  .000E+00  .000E+00  .000E+00  .000E+00
  .000E+00  .000E+00  .000E+00  .000E+00  .000E+00  .000E+00  .000E+00  .000E+00
  .000E+00  .000E+00  .000E+00  .000E+00  .000E+00  .000E+00  .000E+00  .000E+00
  .000E+00  .000E+00  .000E+00  .000E+00  .000E+00  .000E+00  .000E+00  .000E+00
  .000E+00  .000E+00  .000E+00  .000E+00  .000E+00  .000E+00  .000E+00  .000E+00
  .000E+00  .000E+00  .000E+00  .000E+00  .000E+00  .000E+00  .000E+00  .000E+00
  .000E+00  .000E+00  .000E+00  .000E+00  .000E+00  .000E+00  .000E+00  .000E+00
  .000E+00  .000E+00  .000E+00  .000E+00  .000E+00  .000E+00  .000E+00  .000E+00
  .000E+00  .000E+00  .000E+00  .000E+00  .000E+00  .000E+00  .000E+00  .000E+00
  .000E+00  .000E+00  .000E+00  .000E+00  .000E+00  .000E+00  .000E+00  .000E+00
  .000E+00  .000E+00  .000E+00  .000E+00  .000E+00  .000E+00  .000E+00  .000E+00
  .000E+00  .000E+00  .000E+00  .000E+00
Damping =  .05. Data of Sd,Sv,Sa,Pssv,ttSd,ttSv,ttSa :
  .605E-04  .679E-04  .758E-04  .830E-04  .898E-04  .971E-04  .126E-03  .153E-03
  .201E-03  .242E-03  .308E-03  .389E-03  .435E-03  .503E-03  .665E-03  .886E-03
  .105E-02  .144E-02  .148E-02  .174E-02  .192E-02  .265E-02  .268E-02  .260E-02
  .328E-02  .427E-02  .491E-02  .662E-02  .506E-02  .505E-02  .713E-02  .767E-02
  .888E-02  .758E-02  .634E-02  .815E-02  .108E-01  .117E-01  .108E-01  .106E-01
  .115E-01  .898E-02  .883E-02  .839E-02  .827E-02  .823E-02  .724E-02  .699E-02
  .638E-02  .623E-02  .691E-02  .761E-02  .827E-02  .870E-02  .831E-02  .809E-02
  .731E-02  .100E-01  .119E-01  .106E-01  .966E-02  .806E-02  .786E-02  .736E-02
  .616E-02  .523E-02  .529E-02  .556E-02  .561E-02  .554E-02  .545E-02  .540E-02
  .540E-02  .541E-02  .540E-02  .539E-02  .529E-02  .515E-02  .000E+00  .000E+00
  .000E+00  .000E+00  .000E+00  .000E+00  .000E+00  .000E+00  .000E+00  .000E+00
  .000E+00  .000E+00  .000E+00  .000E+00  .000E+00  .000E+00  .000E+00  .000E+00
  .000E+00  .000E+00  .000E+00  .000E+00
  .258E-02  .289E-02  .332E-02  .380E-02  .432E-02  .479E-02  .621E-02  .721E-02
  .109E-01  .152E-01  .207E-01  .215E-01  .227E-01  .274E-01  .374E-01  .494E-01
  .514E-01  .692E-01  .650E-01  .731E-01  .696E-01  .103E+00  .969E-01  .803E-01
  .958E-01  .115E+00  .128E+00  .172E+00  .123E+00  .110E+00  .155E+00  .162E+00
  .160E+00  .127E+00  .108E+00  .141E+00  .174E+00  .177E+00  .176E+00  .146E+00
  .157E+00  .114E+00  .947E-01  .955E-01  .886E-01  .780E-01  .734E-01  .702E-01
  .682E-01  .655E-01  .609E-01  .577E-01  .671E-01  .715E-01  .727E-01  .745E-01
  .738E-01  .709E-01  .667E-01  .645E-01  .647E-01  .641E-01  .632E-01  .633E-01
  .627E-01  .619E-01  .608E-01  .596E-01  .585E-01  .577E-01  .572E-01  .568E-01
  .565E-01  .563E-01  .560E-01  .557E-01  .552E-01  .549E-01  .000E+00  .000E+00
  .000E+00  .000E+00  .000E+00  .000E+00  .000E+00  .000E+00  .000E+00  .000E+00
  .000E+00  .000E+00  .000E+00  .000E+00  .000E+00  .000E+00  .000E+00  .000E+00
  .000E+00  .000E+00  .000E+00  .000E+00
  .387E-02  .394E-02  .401E-02  .403E-02  .399E-02  .398E-02  .428E-02  .432E-02
  .488E-02  .513E-02  .560E-02  .617E-02  .616E-02  .639E-02  .761E-02  .910E-02
  .882E-02  .104E-01  .909E-02  .910E-02  .877E-02  .107E-01  .953E-02  .831E-02
  .937E-02  .111E-01  .106E-01  .116E-01  .764E-02  .656E-02  .809E-02  .764E-02
  .782E-02  .596E-02  .455E-02  .526E-02  .631E-02  .628E-02  .520E-02  .471E-02
  .474E-02  .304E-02  .253E-02  .205E-02  .173E-02  .151E-02  .116E-02  .100E-02
  .812E-03  .713E-03  .711E-03  .655E-03  .600E-03  .533E-03  .439E-03  .371E-03
  .295E-03  .359E-03  .380E-03  .303E-03  .250E-03  .181E-03  .142E-03  .113E-03
  .885E-04  .692E-04  .622E-04  .554E-04  .492E-04  .442E-04  .397E-04  .360E-04
  .332E-04  .307E-04  .285E-04  .264E-04  .221E-04  .185E-04  .000E+00  .000E+00
  .000E+00  .000E+00  .000E+00  .000E+00  .000E+00  .000E+00  .000E+00  .000E+00
  .000E+00  .000E+00  .000E+00  .000E+00  .000E+00  .000E+00  .000E+00  .000E+00
  .000E+00  .000E+00  .000E+00  .000E+00
  .950E-02  .102E-01  .108E-01  .113E-01  .118E-01  .122E-01  .144E-01  .160E-01
  .194E-01  .217E-01  .258E-01  .305E-01  .322E-01  .351E-01  .440E-01  .557E-01
  .600E-01  .753E-01  .716E-01  .783E-01  .803E-01  .104E+00  .990E-01  .909E-01
  .108E+00  .134E+00  .140E+00  .173E+00  .122E+00  .113E+00  .149E+00  .151E+00
  .164E+00  .132E+00  .105E+00  .128E+00  .162E+00  .167E+00  .147E+00  .138E+00
  .145E+00  .103E+00  .925E-01  .811E-01  .742E-01  .690E-01  .568E-01  .517E-01
  .445E-01  .412E-01  .434E-01  .435E-01  .433E-01  .420E-01  .373E-01  .339E-01
  .287E-01  .370E-01  .416E-01  .350E-01  .303E-01  .230E-01  .206E-01  .178E-01
  .138E-01  .109E-01  .104E-01  .103E-01  .980E-02  .916E-02  .856E-02  .807E-02
  .771E-02  .739E-02  .707E-02  .677E-02  .605E-02  .539E-02  .000E+00  .000E+00
  .000E+00  .000E+00  .000E+00  .000E+00  .000E+00  .000E+00  .000E+00  .000E+00
  .000E+00  .000E+00  .000E+00  .000E+00  .000E+00  .000E+00  .000E+00  .000E+00
  .000E+00  .000E+00  .000E+00  .000E+00
  .332E+02  .332E+02  .332E+02  .332E+02  .332E+02  .332E+02  .332E+02  .328E+02
  .332E+02  .328E+02  .329E+02  .332E+02  .332E+02  .319E+02  .319E+02  .319E+02
  .319E+02  .333E+02  .321E+02  .339E+02  .339E+02  .325E+02  .325E+02  .327E+02
  .327E+02  .328E+02  .328E+02  .330E+02  .367E+02  .342E+02  .341E+02  .341E+02
  .332E+02  .334E+02  .368E+02  .352E+02  .350E+02  .350E+02  .349E+02  .340E+02
  .340E+02  .421E+02  .387E+02  .387E+02  .385E+02  .420E+02  .420E+02  .382E+02
  .345E+02  .337E+02  .337E+02  .337E+02  .338E+02  .334E+02  .334E+02  .334E+02
  .334E+02  .424E+02  .417E+02  .418E+02  .539E+02  .367E+02  .521E+02  .414E+02
  .349E+02  .349E+02  .332E+02  .332E+02  .332E+02  .332E+02  .332E+02  .332E+02
  .332E+02  .332E+02  .332E+02  .332E+02  .332E+02  .332E+02  .000E+00  .000E+00
  .000E+00  .000E+00  .000E+00  .000E+00  .000E+00  .000E+00  .000E+00  .000E+00
  .000E+00  .000E+00  .000E+00  .000E+00  .000E+00  .000E+00  .000E+00  .000E+00
  .000E+00  .000E+00  .000E+00  .000E+00
  .325E+02  .325E+02  .325E+02  .325E+02  .325E+02  .325E+02  .325E+02  .319E+02
  .341E+02  .329E+02  .329E+02  .319E+02  .326E+02  .326E+02  .319E+02  .319E+02
  .319E+02  .333E+02  .321E+02  .341E+02  .338E+02  .325E+02  .325E+02  .325E+02
  .327E+02  .328E+02  .329E+02  .329E+02  .329E+02  .342E+02  .342E+02  .341E+02
  .333E+02  .334E+02  .369E+02  .351E+02  .351E+02  .350E+02  .350E+02  .341E+02
  .339E+02  .332E+02  .391E+02  .338E+02  .383E+02  .421E+02  .415E+02  .338E+02
  .338E+02  .338E+02  .338E+02  .341E+02  .336E+02  .332E+02  .332E+02  .332E+02
  .332E+02  .332E+02  .332E+02  .332E+02  .332E+02  .332E+02  .332E+02  .332E+02
  .332E+02  .332E+02  .332E+02  .332E+02  .332E+02  .332E+02  .332E+02  .332E+02
  .332E+02  .332E+02  .332E+02  .332E+02  .332E+02  .332E+02  .000E+00  .000E+00
  .000E+00  .000E+00  .000E+00  .000E+00  .000E+00  .000E+00  .000E+00  .000E+00
  .000E+00  .000E+00  .000E+00  .000E+00  .000E+00  .000E+00  .000E+00  .000E+00
  .000E+00  .000E+00  .000E+00  .000E+00
  .332E+02  .332E+02  .332E+02  .332E+02  .332E+02  .332E+02  .332E+02  .328E+02
  .332E+02  .328E+02  .329E+02  .332E+02  .332E+02  .319E+02  .319E+02  .319E+02
  .319E+02  .333E+02  .321E+02  .339E+02  .339E+02  .325E+02  .325E+02  .327E+02
  .327E+02  .328E+02  .328E+02  .330E+02  .330E+02  .342E+02  .341E+02  .334E+02
  .332E+02  .334E+02  .368E+02  .352E+02  .350E+02  .350E+02  .349E+02  .340E+02
  .340E+02  .421E+02  .386E+02  .387E+02  .384E+02  .419E+02  .420E+02  .382E+02
  .345E+02  .337E+02  .337E+02  .337E+02  .337E+02  .334E+02  .334E+02  .334E+02
  .334E+02  .423E+02  .416E+02  .417E+02  .520E+02  .367E+02  .520E+02  .413E+02
  .349E+02  .327E+02  .327E+02  .327E+02  .331E+02  .331E+02  .331E+02  .331E+02
  .331E+02  .331E+02  .331E+02  .331E+02  .331E+02  .331E+02  .000E+00  .000E+00
  .000E+00  .000E+00  .000E+00  .000E+00  .000E+00  .000E+00  .000E+00  .000E+00
  .000E+00  .000E+00  .000E+00  .000E+00  .000E+00  .000E+00  .000E+00  .000E+00
  .000E+00  .000E+00  .000E+00  .000E+00
/&   ----------  End of spectral data for channel  1  ----------
Response and Fourier amplitude spectra (78 periods,  .04 -  6.0 sec)   for      
Corrected accelerogram   38695658.CI.SDD.--.HN      Chan  2: 360 Deg     from   
Uncorrected Accelerogram Data             Processed: 09/19/20, CGS  cisdd--q    
Rcrd of Fri Sep 18, 2020 23:38:36.0 PDT               (Avol1 v2.0, 4/18 CSMIP)  
                                        (Origin:  To be determined)             
38695658.CI.SDD.--.HN                Start time:  9/19/20, 06:38:36.0 UTC (GPS) 
Station Id. SDD     33.553N, 117.662W    ObsMMS  s/n 3457  (3 Chns of  3 at Sta)
Mission Viejo, Saddleback College        SCSN   Data: Acceleration              
Chan  2: 360 Deg                                                                
Rcrd of Fri Sep 18, 2020 23:38:36.0 PDT    Fri Sep 18, 2020 23:38:36.0 PDT      
Hypocenter:  To be determined.               ML:  To be determined.             
Instr Period =  .0050 sec,  Damping =  .707,  Sensitivity = 4.98 v/g  (Nominal) 
                        Record Length =301.000 sec.                             
                                     Uncor Max  =   .004 g, at   32.800 sec.    
RMS accel of (uncor) record  =        .   Chn. metadata effective date:         
Accelerogram bandpass filtered with 3 dB pts at   .30 and 23.00 cyc/sec         
                 instrument- and base-line correcte                             
                                                                                
                                                                                
                                                                                
                                                                                
                                                                                
Rcrd of Fri Sep 18, 2020 23:38:36.0 PDT    Fri Sep 18, 2020 23:38:36.0 PDT      
                                                                                
38695658.CI.SDD.--.HN     Mission Viejo, Saddleback College   Chan  2: 360 Deg  
                                                                                
38695658.CI.SDD.--.HN     Mission Viejo, Saddleback College   Chan  2: 360 Deg  
                                                                                
Units for spectra are inches and sec, except Sa is in fraction of g.            
                                                                                
    2  100    2    3    3  100 -999    3    1    0   15 3457    050569   41    0
    6   38   36    8  263    9   19 2020   10    3  36035917   39   33   74 -999
35917 -999  100    6 -999 -999 -999 -999 -999 -999 -999 -999 -999 -999 -999 -999
 -999 -999 -999 -99915050    2 -999    0 -999   20 -999 -999    3    1 -99915050
    315050    4   78    1    3    5    0    0 -999    0 -999 -999    6 -999    2
    2    2    4 -999 -999 -999 -999 -999 -999 -999 -999    1 -999 -999 -999  111
    1    1 -999 -999
      .005      .707   359.170      .000     1.000  4984.091      .004    32.800
   200.000     2.384      .478  -999.000    10.000  -999.000     4.000  -999.000
    20.000   -10.823      .000  -999.000  -999.000  -999.000  -999.000      .000
      .001      .002     2.000    15.000    33.553  -117.662      .002      .001
      .661      .001      .002   120.000  -999.000  -999.000  -999.000  -999.000
     1.000  -999.000  -999.000  -999.000  -999.000  -999.000  -999.000   120.000
     -.900     2.000     6.800   980.665      .020   301.000    31.831      .000
  -999.000    23.000  -999.000   301.000      .020      .300  -999.000  -999.000
    32.800     3.798    32.920      .170    32.820     -.010      .000      .300
    23.000      .020      .020      .000      .020      .010  -999.000  -999.000
      .017      .280      .008      .015      .001      .000  -999.000  -999.000
  -999.000  -999.000  -999.000  -999.000  -999.000  -999.000  -999.000  -999.000
  -999.000  -999.000  -999.000  -999.000
      .050
      .040      .042      .044      .046      .048      .050      .055      .060
      .065      .070      .075      .080      .085      .090      .095      .100
      .110      .120      .130      .140      .150      .160      .170      .180
      .190      .200      .220      .240      .260      .280      .300      .320
      .340      .360      .380      .400      .420      .440      .460      .480
      .500      .550      .600      .650      .700      .750      .800      .850
      .900      .950     1.000     1.100     1.200     1.300     1.400     1.500
     1.600     1.700     1.800     1.900     2.000     2.200     2.400     2.600
     2.800     3.000     3.200     3.400     3.600     3.800     4.000     4.200
     4.400     4.600     4.800     5.000     5.500     6.000      .000      .000
      .000      .000      .000      .000      .000      .000      .000      .000
      .000      .000      .000      .000      .000      .000      .000      .000
      .000      .000      .000      .000
Fourier amplitude spectra in in/sec.
  .000E+00  .000E+00  .000E+00  .000E+00  .000E+00  .000E+00  .000E+00  .000E+00
  .000E+00  .000E+00  .000E+00  .000E+00  .000E+00  .000E+00  .000E+00  .000E+00
  .000E+00  .000E+00  .000E+00  .000E+00  .000E+00  .000E+00  .000E+00  .000E+00
  .000E+00  .000E+00  .000E+00  .000E+00  .000E+00  .000E+00  .000E+00  .000E+00
  .000E+00  .000E+00  .000E+00  .000E+00  .000E+00  .000E+00  .000E+00  .000E+00
  .000E+00  .000E+00  .000E+00  .000E+00  .000E+00  .000E+00  .000E+00  .000E+00
  .000E+00  .000E+00  .000E+00  .000E+00  .000E+00  .000E+00  .000E+00  .000E+00
  .000E+00  .000E+00  .000E+00  .000E+00  .000E+00  .000E+00  .000E+00  .000E+00
  .000E+00  .000E+00  .000E+00  .000E+00  .000E+00  .000E+00  .000E+00  .000E+00
  .000E+00  .000E+00  .000E+00  .000E+00  .000E+00  .000E+00  .000E+00  .000E+00
  .000E+00  .000E+00  .000E+00  .000E+00  .000E+00  .000E+00  .000E+00  .000E+00
  .000E+00  .000E+00  .000E+00  .000E+00  .000E+00  .000E+00  .000E+00  .000E+00
  .000E+00  .000E+00  .000E+00  .000E+00
Damping =  .05. Data of Sd,Sv,Sa,Pssv,ttSd,ttSv,ttSa :
  .617E-04  .687E-04  .763E-04  .847E-04  .954E-04  .107E-03  .133E-03  .174E-03
  .218E-03  .296E-03  .338E-03  .382E-03  .518E-03  .661E-03  .798E-03  .931E-03
  .134E-02  .144E-02  .185E-02  .211E-02  .255E-02  .275E-02  .246E-02  .219E-02
  .248E-02  .333E-02  .403E-02  .573E-02  .101E-01  .130E-01  .137E-01  .113E-01
  .864E-02  .777E-02  .754E-02  .789E-02  .723E-02  .674E-02  .726E-02  .768E-02
