Response and Fourier amplitude spectra (78 periods,  .04 -  6.0 sec)   for      
Corrected accelerogram   38695658.CI.SES.--.HN      Chan  1:  90 Deg     from   
Uncorrected Accelerogram Data             Processed: 09/19/20, CGS  cises--v    
Rcrd of Fri Sep 18, 2020 23:38:37.0 PDT               (Avol1 v2.0, 4/18 CSMIP)  
                                        (Origin:  To be determined)             
38695658.CI.SES.--.HN                Start time:  9/19/20, 06:38:37.0 UTC (GPS) 
Station Id. SES     34.437N, 119.137W    ObsMMS  s/n 4333  (3 Chns of  6 at Sta)
Ojai, Hwy 150                            SCSN   Data: Acceleration              
Chan  1:  90 Deg                                                                
Rcrd of Fri Sep 18, 2020 23:38:37.0 PDT    Fri Sep 18, 2020 23:38:37.0 PDT      
Hypocenter:  To be determined.               ML:  To be determined.             
Instr Period =  .0050 sec,  Damping =  .707,  Sensitivity = 4.99 v/g  (Nominal) 
                        Record Length =301.000 sec.                             
                                     Uncor Max  =   .001 g, at   45.370 sec.    
RMS accel of (uncor) record  =        .   Chn. metadata effective date:         
Accelerogram bandpass filtered with 3 dB pts at   .30 and 23.00 cyc/sec         
                 instrument- and base-line correcte                             
                                                                                
                                                                                
                                                                                
                                                                                
                                                                                
Rcrd of Fri Sep 18, 2020 23:38:37.0 PDT    Fri Sep 18, 2020 23:38:37.0 PDT      
                                                                                
38695658.CI.SES.--.HN     Ojai, Hwy 150   Chan  1:  90 Deg                      
                                                                                
38695658.CI.SES.--.HN     Ojai, Hwy 150   Chan  1:  90 Deg                      
                                                                                
Units for spectra are inches and sec, except Sa is in fraction of g.            
                                                                                
    1  100    1    6    6  100 -999    3    1    0   15 4333    050647   41    0
    6   38   37    8  263    9   19 2020   10    3   9036310   39   13   74 -999
36310 -999  100    6 -999 -999 -999 -999 -999 -999 -999 -999 -999 -999 -999 -999
 -999 -999 -999 -99915050    2 -999    0 -999   20 -999 -999    3    1 -99915050
    315050    4   78    1    3    5    0    0 -999    0 -999 -999    6 -999    2
    2    2    4 -999 -999 -999 -999 -999 -999 -999 -999    1 -999 -999 -999  111
    1    1 -999 -999
      .005      .707   363.100      .000     1.000  4987.282      .001    45.370
   200.000     2.384      .478  -999.000    10.000  -999.000     4.000  -999.000
    20.000    -4.013      .000  -999.000  -999.000  -999.000  -999.000      .000
     -.001     -.001     2.000    15.000    34.437  -119.137      .001      .001
     1.029     -.001     -.001   480.000  -999.000  -999.000  -999.000  -999.000
     1.000  -999.000    -8.000  -999.000  -999.000  -999.000  -999.000   120.000
     -.900     2.000     6.800   980.665      .020   301.000    31.831      .000
  -999.000    23.000  -999.000   301.000      .020      .300  -999.000  -999.000
    45.380     1.371    45.280     -.130    44.080      .016      .000      .300
    23.000      .020      .020      .000      .020      .007  -999.000  -999.000
      .005      .480      .002      .003      .002      .000  -999.000  -999.000
  -999.000  -999.000  -999.000  -999.000  -999.000  -999.000  -999.000  -999.000
  -999.000  -999.000  -999.000  -999.000
      .050
      .040      .042      .044      .046      .048      .050      .055      .060
      .065      .070      .075      .080      .085      .090      .095      .100
      .110      .120      .130      .140      .150      .160      .170      .180
      .190      .200      .220      .240      .260      .280      .300      .320
      .340      .360      .380      .400      .420      .440      .460      .480
      .500      .550      .600      .650      .700      .750      .800      .850
      .900      .950     1.000     1.100     1.200     1.300     1.400     1.500
     1.600     1.700     1.800     1.900     2.000     2.200     2.400     2.600
     2.800     3.000     3.200     3.400     3.600     3.800     4.000     4.200
     4.400     4.600     4.800     5.000     5.500     6.000      .000      .000
      .000      .000      .000      .000      .000      .000      .000      .000
      .000      .000      .000      .000      .000      .000      .000      .000
      .000      .000      .000      .000
Fourier amplitude spectra in in/sec.
  .000E+00  .000E+00  .000E+00  .000E+00  .000E+00  .000E+00  .000E+00  .000E+00
  .000E+00  .000E+00  .000E+00  .000E+00  .000E+00  .000E+00  .000E+00  .000E+00
  .000E+00  .000E+00  .000E+00  .000E+00  .000E+00  .000E+00  .000E+00  .000E+00
  .000E+00  .000E+00  .000E+00  .000E+00  .000E+00  .000E+00  .000E+00  .000E+00
  .000E+00  .000E+00  .000E+00  .000E+00  .000E+00  .000E+00  .000E+00  .000E+00
  .000E+00  .000E+00  .000E+00  .000E+00  .000E+00  .000E+00  .000E+00  .000E+00
  .000E+00  .000E+00  .000E+00  .000E+00  .000E+00  .000E+00  .000E+00  .000E+00
  .000E+00  .000E+00  .000E+00  .000E+00  .000E+00  .000E+00  .000E+00  .000E+00
  .000E+00  .000E+00  .000E+00  .000E+00  .000E+00  .000E+00  .000E+00  .000E+00
  .000E+00  .000E+00  .000E+00  .000E+00  .000E+00  .000E+00  .000E+00  .000E+00
  .000E+00  .000E+00  .000E+00  .000E+00  .000E+00  .000E+00  .000E+00  .000E+00
  .000E+00  .000E+00  .000E+00  .000E+00  .000E+00  .000E+00  .000E+00  .000E+00
  .000E+00  .000E+00  .000E+00  .000E+00
Damping =  .05. Data of Sd,Sv,Sa,Pssv,ttSd,ttSv,ttSa :
  .220E-04  .243E-04  .267E-04  .291E-04  .318E-04  .345E-04  .418E-04  .504E-04
  .586E-04  .696E-04  .787E-04  .946E-04  .112E-03  .133E-03  .164E-03  .192E-03
  .216E-03  .252E-03  .354E-03  .501E-03  .650E-03  .704E-03  .744E-03  .681E-03
  .741E-03  .925E-03  .138E-02  .189E-02  .249E-02  .295E-02  .288E-02  .273E-02
  .316E-02  .384E-02  .467E-02  .570E-02  .686E-02  .861E-02  .109E-01  .123E-01
  .131E-01  .149E-01  .146E-01  .134E-01  .155E-01  .161E-01  .232E-01  .245E-01
  .217E-01  .184E-01  .164E-01  .168E-01  .183E-01  .179E-01  .167E-01  .178E-01
  .175E-01  .168E-01  .162E-01  .151E-01  .140E-01  .129E-01  .113E-01  .945E-02
  .895E-02  .893E-02  .887E-02  .892E-02  .894E-02  .879E-02  .856E-02  .830E-02
  .806E-02  .786E-02  .770E-02  .758E-02  .735E-02  .716E-02  .000E+00  .000E+00
  .000E+00  .000E+00  .000E+00  .000E+00  .000E+00  .000E+00  .000E+00  .000E+00
  .000E+00  .000E+00  .000E+00  .000E+00  .000E+00  .000E+00  .000E+00  .000E+00
  .000E+00  .000E+00  .000E+00  .000E+00
  .413E-03  .457E-03  .508E-03  .562E-03  .618E-03  .680E-03  .877E-03  .118E-02
  .140E-02  .154E-02  .193E-02  .231E-02  .282E-02  .377E-02  .460E-02  .545E-02
  .590E-02  .719E-02  .984E-02  .134E-01  .184E-01  .196E-01  .199E-01  .170E-01
  .165E-01  .163E-01  .272E-01  .394E-01  .515E-01  .524E-01  .505E-01  .459E-01
  .503E-01  .603E-01  .692E-01  .807E-01  .830E-01  .110E+00  .135E+00  .149E+00
  .152E+00  .165E+00  .160E+00  .127E+00  .140E+00  .141E+00  .184E+00  .191E+00
  .169E+00  .136E+00  .114E+00  .100E+00  .111E+00  .121E+00  .122E+00  .112E+00
  .973E-01  .849E-01  .790E-01  .815E-01  .816E-01  .754E-01  .699E-01  .676E-01
  .645E-01  .614E-01  .593E-01  .577E-01  .560E-01  .545E-01  .533E-01  .531E-01
  .529E-01  .527E-01  .525E-01  .524E-01  .520E-01  .518E-01  .000E+00  .000E+00
  .000E+00  .000E+00  .000E+00  .000E+00  .000E+00  .000E+00  .000E+00  .000E+00
  .000E+00  .000E+00  .000E+00  .000E+00  .000E+00  .000E+00  .000E+00  .000E+00
  .000E+00  .000E+00  .000E+00  .000E+00
  .141E-02  .141E-02  .141E-02  .141E-02  .141E-02  .141E-02  .142E-02  .143E-02
  .142E-02  .145E-02  .143E-02  .151E-02  .158E-02  .168E-02  .186E-02  .195E-02
  .184E-02  .179E-02  .215E-02  .264E-02  .297E-02  .280E-02  .262E-02  .217E-02
  .210E-02  .239E-02  .292E-02  .338E-02  .377E-02  .383E-02  .328E-02  .273E-02
  .278E-02  .308E-02  .334E-02  .366E-02  .401E-02  .459E-02  .526E-02  .547E-02
  .533E-02  .504E-02  .415E-02  .327E-02  .325E-02  .295E-02  .371E-02  .349E-02
  .276E-02  .210E-02  .170E-02  .143E-02  .131E-02  .109E-02  .881E-03  .820E-03
  .708E-03  .603E-03  .518E-03  .434E-03  .363E-03  .275E-03  .202E-03  .145E-03
  .120E-03  .104E-03  .912E-04  .814E-04  .730E-04  .647E-04  .571E-04  .505E-04
  .449E-04  .403E-04  .365E-04  .334E-04  .273E-04  .229E-04  .000E+00  .000E+00
  .000E+00  .000E+00  .000E+00  .000E+00  .000E+00  .000E+00  .000E+00  .000E+00
  .000E+00  .000E+00  .000E+00  .000E+00  .000E+00  .000E+00  .000E+00  .000E+00
  .000E+00  .000E+00  .000E+00  .000E+00
  .346E-02  .364E-02  .381E-02  .398E-02  .416E-02  .434E-02  .478E-02  .528E-02
  .567E-02  .625E-02  .659E-02  .743E-02  .827E-02  .925E-02  .108E-01  .120E-01
  .124E-01  .132E-01  .171E-01  .225E-01  .272E-01  .277E-01  .275E-01  .238E-01
  .245E-01  .291E-01  .395E-01  .494E-01  .601E-01  .662E-01  .603E-01  .537E-01
  .584E-01  .671E-01  .773E-01  .896E-01  .103E+00  .123E+00  .148E+00  .162E+00
  .164E+00  .170E+00  .153E+00  .129E+00  .139E+00  .135E+00  .182E+00  .181E+00
  .151E+00  .122E+00  .103E+00  .958E-01  .958E-01  .863E-01  .751E-01  .747E-01
  .687E-01  .621E-01  .564E-01  .498E-01  .439E-01  .367E-01  .295E-01  .228E-01
  .201E-01  .187E-01  .174E-01  .165E-01  .156E-01  .145E-01  .134E-01  .124E-01
  .115E-01  .107E-01  .101E-01  .952E-02  .839E-02  .750E-02  .000E+00  .000E+00
  .000E+00  .000E+00  .000E+00  .000E+00  .000E+00  .000E+00  .000E+00  .000E+00
  .000E+00  .000E+00  .000E+00  .000E+00  .000E+00  .000E+00  .000E+00  .000E+00
  .000E+00  .000E+00  .000E+00  .000E+00
  .454E+02  .454E+02  .454E+02  .454E+02  .454E+02  .454E+02  .454E+02  .454E+02
  .454E+02  .454E+02  .454E+02  .454E+02  .454E+02  .448E+02  .448E+02  .454E+02
  .444E+02  .444E+02  .448E+02  .448E+02  .449E+02  .449E+02  .449E+02  .449E+02
  .454E+02  .454E+02  .454E+02  .454E+02  .454E+02  .467E+02  .467E+02  .467E+02
  .467E+02  .467E+02  .451E+02  .470E+02  .451E+02  .454E+02  .454E+02  .455E+02
  .455E+02  .455E+02  .456E+02  .445E+02  .446E+02  .475E+02  .472E+02  .469E+02
  .470E+02  .462E+02  .453E+02  .454E+02  .454E+02  .454E+02  .450E+02  .450E+02
  .451E+02  .451E+02  .451E+02  .451E+02  .444E+02  .445E+02  .445E+02  .445E+02
  .440E+02  .440E+02  .440E+02  .440E+02  .440E+02  .440E+02  .440E+02  .440E+02
  .440E+02  .440E+02  .440E+02  .440E+02  .440E+02  .440E+02  .000E+00  .000E+00
  .000E+00  .000E+00  .000E+00  .000E+00  .000E+00  .000E+00  .000E+00  .000E+00
  .000E+00  .000E+00  .000E+00  .000E+00  .000E+00  .000E+00  .000E+00  .000E+00
  .000E+00  .000E+00  .000E+00  .000E+00
  .448E+02  .448E+02  .448E+02  .448E+02  .448E+02  .448E+02  .448E+02  .448E+02
  .448E+02  .448E+02  .448E+02  .448E+02  .448E+02  .448E+02  .448E+02  .450E+02
  .442E+02  .442E+02  .448E+02  .448E+02  .449E+02  .449E+02  .449E+02  .449E+02
  .449E+02  .449E+02  .454E+02  .455E+02  .455E+02  .466E+02  .468E+02  .468E+02
  .468E+02  .468E+02  .469E+02  .469E+02  .450E+02  .455E+02  .455E+02  .456E+02
  .456E+02  .454E+02  .454E+02  .447E+02  .444E+02  .485E+02  .474E+02  .471E+02
  .468E+02  .468E+02  .455E+02  .456E+02  .452E+02  .452E+02  .453E+02  .453E+02
  .453E+02  .453E+02  .449E+02  .449E+02  .449E+02  .449E+02  .442E+02  .442E+02
  .443E+02  .443E+02  .443E+02  .443E+02  .443E+02  .443E+02  .443E+02  .453E+02
  .453E+02  .453E+02  .453E+02  .453E+02  .453E+02  .453E+02  .000E+00  .000E+00
  .000E+00  .000E+00  .000E+00  .000E+00  .000E+00  .000E+00  .000E+00  .000E+00
  .000E+00  .000E+00  .000E+00  .000E+00  .000E+00  .000E+00  .000E+00  .000E+00
  .000E+00  .000E+00  .000E+00  .000E+00
  .454E+02  .454E+02  .454E+02  .454E+02  .454E+02  .454E+02  .454E+02  .454E+02
  .454E+02  .454E+02  .454E+02  .453E+02  .454E+02  .448E+02  .448E+02  .454E+02
  .444E+02  .444E+02  .448E+02  .448E+02  .448E+02  .449E+02  .449E+02  .449E+02
  .454E+02  .454E+02  .454E+02  .454E+02  .454E+02  .467E+02  .467E+02  .467E+02
  .467E+02  .467E+02  .451E+02  .470E+02  .451E+02  .454E+02  .454E+02  .455E+02
  .455E+02  .455E+02  .456E+02  .445E+02  .446E+02  .475E+02  .472E+02  .469E+02
  .470E+02  .457E+02  .453E+02  .453E+02  .454E+02  .454E+02  .450E+02  .450E+02
  .450E+02  .451E+02  .451E+02  .451E+02  .444E+02  .444E+02  .445E+02  .445E+02
  .439E+02  .440E+02  .440E+02  .440E+02  .440E+02  .440E+02  .440E+02  .440E+02
  .440E+02  .440E+02  .440E+02  .440E+02  .439E+02  .439E+02  .000E+00  .000E+00
  .000E+00  .000E+00  .000E+00  .000E+00  .000E+00  .000E+00  .000E+00  .000E+00
  .000E+00  .000E+00  .000E+00  .000E+00  .000E+00  .000E+00  .000E+00  .000E+00
  .000E+00  .000E+00  .000E+00  .000E+00
/&   ----------  End of spectral data for channel  1  ----------
Response and Fourier amplitude spectra (78 periods,  .04 -  6.0 sec)   for      
Corrected accelerogram   38695658.CI.SES.--.HN      Chan  2: 360 Deg     from   
Uncorrected Accelerogram Data             Processed: 09/19/20, CGS  cises--v    
Rcrd of Fri Sep 18, 2020 23:38:37.0 PDT               (Avol1 v2.0, 4/18 CSMIP)  
                                        (Origin:  To be determined)             
38695658.CI.SES.--.HN                Start time:  9/19/20, 06:38:37.0 UTC (GPS) 
Station Id. SES     34.437N, 119.137W    ObsMMS  s/n 4333  (3 Chns of  6 at Sta)
Ojai, Hwy 150                            SCSN   Data: Acceleration              
Chan  2: 360 Deg                                                                
Rcrd of Fri Sep 18, 2020 23:38:37.0 PDT    Fri Sep 18, 2020 23:38:37.0 PDT      
Hypocenter:  To be determined.               ML:  To be determined.             
Instr Period =  .0050 sec,  Damping =  .707,  Sensitivity = 5.00 v/g  (Nominal) 
                        Record Length =301.000 sec.                             
                                     Uncor Max  =   .001 g, at   45.540 sec.    
RMS accel of (uncor) record  =        .   Chn. metadata effective date:         
Accelerogram bandpass filtered with 3 dB pts at   .30 and 23.00 cyc/sec         
                 instrument- and base-line correcte                             
                                                                                
                                                                                
                                                                                
                                                                                
                                                                                
Rcrd of Fri Sep 18, 2020 23:38:37.0 PDT    Fri Sep 18, 2020 23:38:37.0 PDT      
                                                                                
38695658.CI.SES.--.HN     Ojai, Hwy 150   Chan  2: 360 Deg                      
                                                                                
38695658.CI.SES.--.HN     Ojai, Hwy 150   Chan  2: 360 Deg                      
                                                                                
Units for spectra are inches and sec, except Sa is in fraction of g.            
                                                                                
    2  100    2    6    6  100 -999    3    1    0   15 4333    050647   41    0
    6   38   37    8  263    9   19 2020   10    3  36036117   39   13   74 -999
36117 -999  100    6 -999 -999 -999 -999 -999 -999 -999 -999 -999 -999 -999 -999
 -999 -999 -999 -99915050    2 -999    0 -999   20 -999 -999    3    1 -99915050
    315050    4   78    1    3    5    0    0 -999    0 -999 -999    6 -999    2
    2    2    4 -999 -999 -999 -999 -999 -999 -999 -999    1 -999 -999 -999  111
    1    1 -999 -999
      .005      .707   361.170      .000     1.000  4998.452      .001    45.540
   200.000     2.384      .477  -999.000    10.000  -999.000     4.000  -999.000
    20.000   -10.021      .000  -999.000  -999.000  -999.000  -999.000      .000
      .000      .000     2.000    15.000    34.437  -119.137      .001      .001
      .922      .000      .000   480.000  -999.000  -999.000  -999.000  -999.000
     1.000  -999.000  -999.000  -999.000  -999.000  -999.000  -999.000   120.000
     -.900     2.000     6.800   980.665      .020   301.000    31.831      .000
  -999.000    23.000  -999.000   301.000      .020      .300  -999.000  -999.000
    45.540      .904    48.380     -.079    48.240      .010      .000      .300
    23.000      .020      .020      .000      .020      .007  -999.000  -999.000
      .003      .320      .002      .003      .002      .000  -999.000  -999.000
  -999.000  -999.000  -999.000  -999.000  -999.000  -999.000  -999.000  -999.000
  -999.000  -999.000  -999.000  -999.000
      .050
      .040      .042      .044      .046      .048      .050      .055      .060
      .065      .070      .075      .080      .085      .090      .095      .100
      .110      .120      .130      .140      .150      .160      .170      .180
      .190      .200      .220      .240      .260      .280      .300      .320
      .340      .360      .380      .400      .420      .440      .460      .480
      .500      .550      .600      .650      .700      .750      .800      .850
      .900      .950     1.000     1.100     1.200     1.300     1.400     1.500
     1.600     1.700     1.800     1.900     2.000     2.200     2.400     2.600
     2.800     3.000     3.200     3.400     3.600     3.800     4.000     4.200
     4.400     4.600     4.800     5.000     5.500     6.000      .000      .000
      .000      .000      .000      .000      .000      .000      .000      .000
      .000      .000      .000      .000      .000      .000      .000      .000
      .000      .000      .000      .000
Fourier amplitude spectra in in/sec.
  .000E+00  .000E+00  .000E+00  .000E+00  .000E+00  .000E+00  .000E+00  .000E+00
  .000E+00  .000E+00  .000E+00  .000E+00  .000E+00  .000E+00  .000E+00  .000E+00
  .000E+00  .000E+00  .000E+00  .000E+00  .000E+00  .000E+00  .000E+00  .000E+00
  .000E+00  .000E+00  .000E+00  .000E+00  .000E+00  .000E+00  .000E+00  .000E+00
  .000E+00  .000E+00  .000E+00  .000E+00  .000E+00  .000E+00  .000E+00  .000E+00
  .000E+00  .000E+00  .000E+00  .000E+00  .000E+00  .000E+00  .000E+00  .000E+00
  .000E+00  .000E+00  .000E+00  .000E+00  .000E+00  .000E+00  .000E+00  .000E+00
  .000E+00  .000E+00  .000E+00  .000E+00  .000E+00  .000E+00  .000E+00  .000E+00
  .000E+00  .000E+00  .000E+00  .000E+00  .000E+00  .000E+00  .000E+00  .000E+00
  .000E+00  .000E+00  .000E+00  .000E+00  .000E+00  .000E+00  .000E+00  .000E+00
  .000E+00  .000E+00  .000E+00  .000E+00  .000E+00  .000E+00  .000E+00  .000E+00
  .000E+00  .000E+00  .000E+00  .000E+00  .000E+00  .000E+00  .000E+00  .000E+00
  .000E+00  .000E+00  .000E+00  .000E+00
Damping =  .05. Data of Sd,Sv,Sa,Pssv,ttSd,ttSv,ttSa :
  .147E-04  .162E-04  .179E-04  .196E-04  .214E-04  .234E-04  .288E-04  .357E-04
  .423E-04  .497E-04  .580E-04  .691E-04  .822E-04  .913E-04  .100E-03  .114E-03
  .141E-03  .215E-03  .284E-03  .323E-03  .328E-03  .393E-03  .529E-03  .549E-03
  .670E-03  .737E-03  .847E-03  .103E-02  .147E-02  .219E-02  .282E-02  .340E-02
  .382E-02  .414E-02  .417E-02  .422E-02  .459E-02  .534E-02  .660E-02  .743E-02
