Response and Fourier amplitude spectra (78 periods,  .04 -  6.0 sec)   for      
Corrected accelerogram   38695658.CI.SHU.--.HN      Chan  1:  90 Deg     from   
Uncorrected Accelerogram Data             Processed: 09/19/20, CGS  cishu--c    
Rcrd of Fri Sep 18, 2020 23:38:36.0 PDT               (Avol1 v2.0, 4/18 CSMIP)  
                                        (Origin:  To be determined)             
38695658.CI.SHU.--.HN                Start time:  9/19/20, 06:38:36.0 UTC (GPS) 
Station Id. SHU     34.643N, 118.165W    ObsMMS  s/n 1843  (3 Chns of  6 at Sta)
Shuttle                                  SCSN   Data: Acceleration              
Chan  1:  90 Deg                                                                
Rcrd of Fri Sep 18, 2020 23:38:36.0 PDT    Fri Sep 18, 2020 23:38:36.0 PDT      
Hypocenter:  To be determined.               ML:  To be determined.             
Instr Period =  .0050 sec,  Damping =  .707,  Sensitivity = 4.99 v/g  (Nominal) 
                        Record Length =301.000 sec.                             
                                     Uncor Max  =  -.003 g, at   32.860 sec.    
RMS accel of (uncor) record  =        .   Chn. metadata effective date:         
Accelerogram bandpass filtered with 3 dB pts at   .30 and 23.00 cyc/sec         
                 instrument- and base-line correcte                             
                                                                                
                                                                                
                                                                                
                                                                                
                                                                                
Rcrd of Fri Sep 18, 2020 23:38:36.0 PDT    Fri Sep 18, 2020 23:38:36.0 PDT      
                                                                                
38695658.CI.SHU.--.HN     Shuttle   Chan  1:  90 Deg                            
                                                                                
38695658.CI.SHU.--.HN     Shuttle   Chan  1:  90 Deg                            
                                                                                
Units for spectra are inches and sec, except Sa is in fraction of g.            
                                                                                
    1  100    1    6    6  100 -999    3    1    0   15 1843    0    0   41    0
    6   38   36    0  263    9   19 2020   10    3   9035529   39    7   74 -999
35529 -999  100    6 -999 -999 -999 -999 -999 -999 -999 -999 -999 -999 -999 -999
 -999 -999 -999 -99915050    2 -999    0 -999   20 -999 -999    3    1 -99915050
    315050    4   78    1    3    5    0    0 -999    0 -999 -999    6 -999    2
    2    2    4 -999 -999 -999 -999 -999 -999 -999 -999    1 -999 -999 -999  111
    1    1 -999 -999
      .005      .707   355.290      .000     1.000  4987.482     -.003    32.860
   200.000     2.384      .478  -999.000    10.000  -999.000     4.000  -999.000
    20.000   -55.467      .000  -999.000  -999.000  -999.000  -999.000     -.014
      .013      .027     2.000    15.000    34.643  -118.164      .019      .019
      .985      .023      .031   774.000  -999.000  -999.000  -999.000  -999.000
     1.000  -999.000    -8.000  -999.000  -999.000  -999.000  -999.000   120.000
     -.900     2.000     6.800   980.665      .020   301.000    31.831     -.002
  -999.000    23.000  -999.000   301.000      .020      .300  -999.000  -999.000
    32.860    -2.837    32.820      .110    34.620      .012      .000      .300
    23.000      .020      .020      .000      .020      .006  -999.000  -999.000
      .010      .110      .006      .005      .001      .000  -999.000  -999.000
  -999.000  -999.000  -999.000  -999.000  -999.000  -999.000  -999.000  -999.000
  -999.000  -999.000  -999.000  -999.000
      .050
      .040      .042      .044      .046      .048      .050      .055      .060
      .065      .070      .075      .080      .085      .090      .095      .100
      .110      .120      .130      .140      .150      .160      .170      .180
      .190      .200      .220      .240      .260      .280      .300      .320
      .340      .360      .380      .400      .420      .440      .460      .480
      .500      .550      .600      .650      .700      .750      .800      .850
      .900      .950     1.000     1.100     1.200     1.300     1.400     1.500
     1.600     1.700     1.800     1.900     2.000     2.200     2.400     2.600
     2.800     3.000     3.200     3.400     3.600     3.800     4.000     4.200
     4.400     4.600     4.800     5.000     5.500     6.000      .000      .000
      .000      .000      .000      .000      .000      .000      .000      .000
      .000      .000      .000      .000      .000      .000      .000      .000
      .000      .000      .000      .000
Fourier amplitude spectra in in/sec.
  .000E+00  .000E+00  .000E+00  .000E+00  .000E+00  .000E+00  .000E+00  .000E+00
  .000E+00  .000E+00  .000E+00  .000E+00  .000E+00  .000E+00  .000E+00  .000E+00
  .000E+00  .000E+00  .000E+00  .000E+00  .000E+00  .000E+00  .000E+00  .000E+00
  .000E+00  .000E+00  .000E+00  .000E+00  .000E+00  .000E+00  .000E+00  .000E+00
  .000E+00  .000E+00  .000E+00  .000E+00  .000E+00  .000E+00  .000E+00  .000E+00
  .000E+00  .000E+00  .000E+00  .000E+00  .000E+00  .000E+00  .000E+00  .000E+00
  .000E+00  .000E+00  .000E+00  .000E+00  .000E+00  .000E+00  .000E+00  .000E+00
  .000E+00  .000E+00  .000E+00  .000E+00  .000E+00  .000E+00  .000E+00  .000E+00
  .000E+00  .000E+00  .000E+00  .000E+00  .000E+00  .000E+00  .000E+00  .000E+00
  .000E+00  .000E+00  .000E+00  .000E+00  .000E+00  .000E+00  .000E+00  .000E+00
  .000E+00  .000E+00  .000E+00  .000E+00  .000E+00  .000E+00  .000E+00  .000E+00
  .000E+00  .000E+00  .000E+00  .000E+00  .000E+00  .000E+00  .000E+00  .000E+00
  .000E+00  .000E+00  .000E+00  .000E+00
Damping =  .05. Data of Sd,Sv,Sa,Pssv,ttSd,ttSv,ttSa :
  .546E-04  .632E-04  .717E-04  .804E-04  .852E-04  .945E-04  .159E-03  .245E-03
  .340E-03  .406E-03  .456E-03  .600E-03  .667E-03  .706E-03  .882E-03  .946E-03
  .120E-02  .125E-02  .159E-02  .165E-02  .178E-02  .196E-02  .197E-02  .228E-02
  .233E-02  .223E-02  .277E-02  .301E-02  .336E-02  .501E-02  .407E-02  .416E-02
  .464E-02  .519E-02  .479E-02  .479E-02  .425E-02  .385E-02  .376E-02  .364E-02
  .337E-02  .496E-02  .737E-02  .107E-01  .114E-01  .110E-01  .157E-01  .168E-01
  .147E-01  .113E-01  .860E-02  .746E-02  .681E-02  .691E-02  .726E-02  .660E-02
  .593E-02  .570E-02  .566E-02  .540E-02  .514E-02  .477E-02  .479E-02  .482E-02
  .491E-02  .504E-02  .517E-02  .527E-02  .527E-02  .525E-02  .519E-02  .508E-02
  .501E-02  .497E-02  .491E-02  .488E-02  .484E-02  .474E-02  .000E+00  .000E+00
  .000E+00  .000E+00  .000E+00  .000E+00  .000E+00  .000E+00  .000E+00  .000E+00
  .000E+00  .000E+00  .000E+00  .000E+00  .000E+00  .000E+00  .000E+00  .000E+00
  .000E+00  .000E+00  .000E+00  .000E+00
  .523E-02  .582E-02  .657E-02  .765E-02  .804E-02  .892E-02  .134E-01  .233E-01
  .304E-01  .293E-01  .320E-01  .410E-01  .445E-01  .444E-01  .538E-01  .580E-01
  .676E-01  .694E-01  .768E-01  .799E-01  .792E-01  .833E-01  .745E-01  .709E-01
  .695E-01  .673E-01  .770E-01  .800E-01  .886E-01  .112E+00  .910E-01  .841E-01
  .872E-01  .903E-01  .809E-01  .767E-01  .698E-01  .653E-01  .645E-01  .651E-01
  .612E-01  .630E-01  .765E-01  .100E+00  .106E+00  .103E+00  .128E+00  .141E+00
  .113E+00  .950E-01  .733E-01  .586E-01  .555E-01  .552E-01  .577E-01  .518E-01
  .484E-01  .464E-01  .455E-01  .451E-01  .453E-01  .457E-01  .452E-01  .447E-01
  .444E-01  .441E-01  .439E-01  .436E-01  .433E-01  .431E-01  .430E-01  .428E-01
  .428E-01  .428E-01  .427E-01  .427E-01  .427E-01  .426E-01  .000E+00  .000E+00
  .000E+00  .000E+00  .000E+00  .000E+00  .000E+00  .000E+00  .000E+00  .000E+00
  .000E+00  .000E+00  .000E+00  .000E+00  .000E+00  .000E+00  .000E+00  .000E+00
  .000E+00  .000E+00  .000E+00  .000E+00
  .349E-02  .367E-02  .380E-02  .391E-02  .382E-02  .391E-02  .537E-02  .691E-02
  .833E-02  .842E-02  .838E-02  .951E-02  .937E-02  .900E-02  .992E-02  .974E-02
  .103E-01  .887E-02  .982E-02  .874E-02  .816E-02  .787E-02  .710E-02  .733E-02
  .666E-02  .583E-02  .591E-02  .540E-02  .515E-02  .662E-02  .463E-02  .413E-02
  .416E-02  .414E-02  .345E-02  .305E-02  .250E-02  .208E-02  .183E-02  .162E-02
  .138E-02  .171E-02  .211E-02  .260E-02  .240E-02  .200E-02  .252E-02  .238E-02
  .186E-02  .129E-02  .893E-03  .641E-03  .493E-03  .425E-03  .388E-03  .310E-03
  .246E-03  .208E-03  .185E-03  .160E-03  .140E-03  .109E-03  .916E-04  .807E-04
  .715E-04  .645E-04  .586E-04  .534E-04  .482E-04  .436E-04  .394E-04  .356E-04
  .324E-04  .297E-04  .273E-04  .254E-04  .216E-04  .184E-04  .000E+00  .000E+00
  .000E+00  .000E+00  .000E+00  .000E+00  .000E+00  .000E+00  .000E+00  .000E+00
  .000E+00  .000E+00  .000E+00  .000E+00  .000E+00  .000E+00  .000E+00  .000E+00
  .000E+00  .000E+00  .000E+00  .000E+00
  .857E-02  .945E-02  .102E-01  .110E-01  .112E-01  .119E-01  .182E-01  .257E-01
  .329E-01  .364E-01  .382E-01  .471E-01  .493E-01  .493E-01  .583E-01  .594E-01
  .687E-01  .652E-01  .767E-01  .742E-01  .744E-01  .771E-01  .728E-01  .797E-01
  .770E-01  .699E-01  .792E-01  .787E-01  .811E-01  .113E+00  .853E-01  .816E-01
  .857E-01  .906E-01  .791E-01  .753E-01  .636E-01  .550E-01  .514E-01  .477E-01
  .423E-01  .566E-01  .772E-01  .103E+00  .102E+00  .920E-01  .123E+00  .124E+00
  .103E+00  .745E-01  .540E-01  .426E-01  .356E-01  .334E-01  .326E-01  .276E-01
  .233E-01  .211E-01  .198E-01  .178E-01  .162E-01  .136E-01  .125E-01  .116E-01
  .110E-01  .106E-01  .101E-01  .974E-02  .919E-02  .868E-02  .815E-02  .761E-02
  .716E-02  .678E-02  .642E-02  .613E-02  .553E-02  .496E-02  .000E+00  .000E+00
  .000E+00  .000E+00  .000E+00  .000E+00  .000E+00  .000E+00  .000E+00  .000E+00
  .000E+00  .000E+00  .000E+00  .000E+00  .000E+00  .000E+00  .000E+00  .000E+00
  .000E+00  .000E+00  .000E+00  .000E+00
  .330E+02  .330E+02  .330E+02  .330E+02  .330E+02  .337E+02  .338E+02  .307E+02
  .307E+02  .338E+02  .338E+02  .338E+02  .338E+02  .338E+02  .338E+02  .333E+02
  .333E+02  .330E+02  .306E+02  .306E+02  .305E+02  .334E+02  .329E+02  .329E+02
  .329E+02  .329E+02  .346E+02  .329E+02  .332E+02  .355E+02  .336E+02  .335E+02
  .331E+02  .330E+02  .330E+02  .330E+02  .330E+02  .330E+02  .330E+02  .330E+02
  .347E+02  .347E+02  .373E+02  .387E+02  .388E+02  .351E+02  .352E+02  .378E+02
  .375E+02  .371E+02  .354E+02  .354E+02  .354E+02  .350E+02  .371E+02  .372E+02
  .372E+02  .350E+02  .368E+02  .368E+02  .346E+02  .346E+02  .350E+02  .346E+02
  .346E+02  .346E+02  .346E+02  .346E+02  .346E+02  .346E+02  .346E+02  .346E+02
  .346E+02  .346E+02  .346E+02  .346E+02  .346E+02  .346E+02  .000E+00  .000E+00
  .000E+00  .000E+00  .000E+00  .000E+00  .000E+00  .000E+00  .000E+00  .000E+00
  .000E+00  .000E+00  .000E+00  .000E+00  .000E+00  .000E+00  .000E+00  .000E+00
  .000E+00  .000E+00  .000E+00  .000E+00
  .307E+02  .307E+02  .307E+02  .307E+02  .307E+02  .307E+02  .337E+02  .307E+02
  .307E+02  .337E+02  .338E+02  .338E+02  .338E+02  .338E+02  .338E+02  .340E+02
  .333E+02  .307E+02  .307E+02  .306E+02  .305E+02  .305E+02  .304E+02  .329E+02
  .328E+02  .328E+02  .348E+02  .329E+02  .329E+02  .354E+02  .336E+02  .335E+02
  .336E+02  .331E+02  .331E+02  .331E+02  .330E+02  .330E+02  .330E+02  .330E+02
  .330E+02  .352E+02  .352E+02  .389E+02  .389E+02  .357E+02  .357E+02  .380E+02
  .351E+02  .374E+02  .347E+02  .347E+02  .347E+02  .374E+02  .374E+02  .328E+02
  .328E+02  .328E+02  .328E+02  .328E+02  .328E+02  .328E+02  .328E+02  .328E+02
  .328E+02  .328E+02  .328E+02  .328E+02  .328E+02  .328E+02  .328E+02  .328E+02
  .328E+02  .328E+02  .328E+02  .328E+02  .328E+02  .328E+02  .000E+00  .000E+00
  .000E+00  .000E+00  .000E+00  .000E+00  .000E+00  .000E+00  .000E+00  .000E+00
  .000E+00  .000E+00  .000E+00  .000E+00  .000E+00  .000E+00  .000E+00  .000E+00
  .000E+00  .000E+00  .000E+00  .000E+00
  .330E+02  .330E+02  .330E+02  .330E+02  .330E+02  .337E+02  .338E+02  .307E+02
  .307E+02  .338E+02  .338E+02  .338E+02  .338E+02  .338E+02  .338E+02  .333E+02
  .333E+02  .330E+02  .306E+02  .306E+02  .305E+02  .334E+02  .329E+02  .329E+02
  .329E+02  .329E+02  .346E+02  .329E+02  .332E+02  .355E+02  .336E+02  .336E+02
  .331E+02  .330E+02  .330E+02  .330E+02  .330E+02  .330E+02  .330E+02  .330E+02
  .347E+02  .347E+02  .373E+02  .387E+02  .388E+02  .351E+02  .352E+02  .378E+02
  .375E+02  .371E+02  .354E+02  .354E+02  .354E+02  .375E+02  .371E+02  .371E+02
  .371E+02  .350E+02  .368E+02  .368E+02  .346E+02  .346E+02  .346E+02  .346E+02
  .346E+02  .346E+02  .346E+02  .346E+02  .346E+02  .346E+02  .346E+02  .346E+02
  .346E+02  .346E+02  .346E+02  .346E+02  .346E+02  .346E+02  .000E+00  .000E+00
  .000E+00  .000E+00  .000E+00  .000E+00  .000E+00  .000E+00  .000E+00  .000E+00
  .000E+00  .000E+00  .000E+00  .000E+00  .000E+00  .000E+00  .000E+00  .000E+00
  .000E+00  .000E+00  .000E+00  .000E+00
/&   ----------  End of spectral data for channel  1  ----------
Response and Fourier amplitude spectra (78 periods,  .04 -  6.0 sec)   for      
Corrected accelerogram   38695658.CI.SHU.--.HN      Chan  2: 360 Deg     from   
Uncorrected Accelerogram Data             Processed: 09/19/20, CGS  cishu--c    
Rcrd of Fri Sep 18, 2020 23:38:36.0 PDT               (Avol1 v2.0, 4/18 CSMIP)  
                                        (Origin:  To be determined)             
38695658.CI.SHU.--.HN                Start time:  9/19/20, 06:38:36.0 UTC (GPS) 
Station Id. SHU     34.643N, 118.165W    ObsMMS  s/n 1843  (3 Chns of  6 at Sta)
Shuttle                                  SCSN   Data: Acceleration              
Chan  2: 360 Deg                                                                
Rcrd of Fri Sep 18, 2020 23:38:36.0 PDT    Fri Sep 18, 2020 23:38:36.0 PDT      
Hypocenter:  To be determined.               ML:  To be determined.             
Instr Period =  .0050 sec,  Damping =  .707,  Sensitivity = 4.99 v/g  (Nominal) 
                        Record Length =301.000 sec.                             
                                     Uncor Max  =   .003 g, at   33.230 sec.    
RMS accel of (uncor) record  =        .   Chn. metadata effective date:         
Accelerogram bandpass filtered with 3 dB pts at   .30 and 23.00 cyc/sec         
                 instrument- and base-line correcte                             
                                                                                
                                                                                
                                                                                
                                                                                
                                                                                
Rcrd of Fri Sep 18, 2020 23:38:36.0 PDT    Fri Sep 18, 2020 23:38:36.0 PDT      
                                                                                
38695658.CI.SHU.--.HN     Shuttle   Chan  2: 360 Deg                            
                                                                                
38695658.CI.SHU.--.HN     Shuttle   Chan  2: 360 Deg                            
                                                                                
Units for spectra are inches and sec, except Sa is in fraction of g.            
                                                                                
    2  100    2    6    6  100 -999    3    1    0   15 1843    0    0   41    0
    6   38   36    0  263    9   19 2020   10    3  36035503   39    7   74 -999
35503 -999  100    6 -999 -999 -999 -999 -999 -999 -999 -999 -999 -999 -999 -999
 -999 -999 -999 -99915050    2 -999    0 -999   20 -999 -999    3    1 -99915050
    315050    4   78    1    3    5    0    0 -999    0 -999 -999    6 -999    2
    2    2    4 -999 -999 -999 -999 -999 -999 -999 -999    1 -999 -999 -999  111
    1    1 -999 -999
      .005      .707   355.030      .000     1.000  4989.476      .003    33.230
   200.000     2.384      .478  -999.000    10.000  -999.000     4.000  -999.000
    20.000   -31.176      .000  -999.000  -999.000  -999.000  -999.000     -.026
      .025      .052     2.000    15.000    34.643  -118.164      .018      .016
      .883      .048      .055   774.000  -999.000  -999.000  -999.000  -999.000
     1.000  -999.000  -999.000  -999.000  -999.000  -999.000  -999.000   120.000
     -.900     2.000     6.800   980.665      .020   301.000    31.831     -.004
  -999.000    23.000  -999.000   301.000      .020      .300  -999.000  -999.000
    33.220     3.091    33.200     -.098    35.980      .009      .000      .300
    23.000      .020      .020      .000      .020      .006  -999.000  -999.000
      .009      .150      .006      .005      .001      .000  -999.000  -999.000
  -999.000  -999.000  -999.000  -999.000  -999.000  -999.000  -999.000  -999.000
  -999.000  -999.000  -999.000  -999.000
      .050
      .040      .042      .044      .046      .048      .050      .055      .060
      .065      .070      .075      .080      .085      .090      .095      .100
      .110      .120      .130      .140      .150      .160      .170      .180
      .190      .200      .220      .240      .260      .280      .300      .320
      .340      .360      .380      .400      .420      .440      .460      .480
      .500      .550      .600      .650      .700      .750      .800      .850
      .900      .950     1.000     1.100     1.200     1.300     1.400     1.500
     1.600     1.700     1.800     1.900     2.000     2.200     2.400     2.600
     2.800     3.000     3.200     3.400     3.600     3.800     4.000     4.200
     4.400     4.600     4.800     5.000     5.500     6.000      .000      .000
      .000      .000      .000      .000      .000      .000      .000      .000
      .000      .000      .000      .000      .000      .000      .000      .000
      .000      .000      .000      .000
Fourier amplitude spectra in in/sec.
  .000E+00  .000E+00  .000E+00  .000E+00  .000E+00  .000E+00  .000E+00  .000E+00
  .000E+00  .000E+00  .000E+00  .000E+00  .000E+00  .000E+00  .000E+00  .000E+00
  .000E+00  .000E+00  .000E+00  .000E+00  .000E+00  .000E+00  .000E+00  .000E+00
  .000E+00  .000E+00  .000E+00  .000E+00  .000E+00  .000E+00  .000E+00  .000E+00
  .000E+00  .000E+00  .000E+00  .000E+00  .000E+00  .000E+00  .000E+00  .000E+00
  .000E+00  .000E+00  .000E+00  .000E+00  .000E+00  .000E+00  .000E+00  .000E+00
  .000E+00  .000E+00  .000E+00  .000E+00  .000E+00  .000E+00  .000E+00  .000E+00
  .000E+00  .000E+00  .000E+00  .000E+00  .000E+00  .000E+00  .000E+00  .000E+00
  .000E+00  .000E+00  .000E+00  .000E+00  .000E+00  .000E+00  .000E+00  .000E+00
  .000E+00  .000E+00  .000E+00  .000E+00  .000E+00  .000E+00  .000E+00  .000E+00
  .000E+00  .000E+00  .000E+00  .000E+00  .000E+00  .000E+00  .000E+00  .000E+00
  .000E+00  .000E+00  .000E+00  .000E+00  .000E+00  .000E+00  .000E+00  .000E+00
  .000E+00  .000E+00  .000E+00  .000E+00
Damping =  .05. Data of Sd,Sv,Sa,Pssv,ttSd,ttSv,ttSa :
  .562E-04  .641E-04  .708E-04  .755E-04  .881E-04  .107E-03  .160E-03  .220E-03
  .256E-03  .333E-03  .451E-03  .409E-03  .414E-03  .506E-03  .633E-03  .753E-03
  .100E-02  .107E-02  .997E-03  .136E-02  .191E-02  .212E-02  .190E-02  .162E-02
  .164E-02  .224E-02  .324E-02  .386E-02  .328E-02  .349E-02  .410E-02  .439E-02
  .354E-02  .269E-02  .265E-02  .222E-02  .241E-02  .304E-02  .363E-02  .341E-02
