Response and Fourier amplitude spectra (78 periods,  .04 -  6.0 sec)   for      
Corrected accelerogram   38695658.CI.SIL.--.HN      Chan  1:  90 Deg     from   
Uncorrected Accelerogram Data             Processed: 09/19/20, CGS  cisil--p    
Rcrd of Fri Sep 18, 2020 23:38:41.0 PDT               (Avol1 v2.0, 4/18 CSMIP)  
                                        (Origin:  To be determined)             
38695658.CI.SIL.--.HN                Start time:  9/19/20, 06:38:41.0 UTC (GPS) 
Station Id. SIL     34.348N, 116.827W    ObsMMS  s/n 1124  (3 Chns of  6 at Sta)
Silver Peak                              SCSN   Data: Acceleration              
Chan  1:  90 Deg                                                                
Rcrd of Fri Sep 18, 2020 23:38:41.0 PDT    Fri Sep 18, 2020 23:38:41.0 PDT      
Hypocenter:  To be determined.               ML:  To be determined.             
Instr Period =  .0050 sec,  Damping =  .707,  Sensitivity = 4.99 v/g  (Nominal) 
                        Record Length =301.000 sec.                             
                                     Uncor Max  =  -.001 g, at   41.050 sec.    
RMS accel of (uncor) record  =        .   Chn. metadata effective date:         
Accelerogram bandpass filtered with 3 dB pts at   .30 and 23.00 cyc/sec         
                 instrument- and base-line correcte                             
                                                                                
                                                                                
                                                                                
                                                                                
                                                                                
Rcrd of Fri Sep 18, 2020 23:38:41.0 PDT    Fri Sep 18, 2020 23:38:41.0 PDT      
                                                                                
38695658.CI.SIL.--.HN     Silver Peak   Chan  1:  90 Deg                        
                                                                                
38695658.CI.SIL.--.HN     Silver Peak   Chan  1:  90 Deg                        
                                                                                
Units for spectra are inches and sec, except Sa is in fraction of g.            
                                                                                
    1  100    1    6    6  100 -999    3    1    0   15 1124    050833   41    0
    6   38   41    0  263    9   19 2020   10    3   9036082   39   11   74 -999
36082 -999  100    6 -999 -999 -999 -999 -999 -999 -999 -999 -999 -999 -999 -999
 -999 -999 -999 -99915050    2 -999    0 -999   20 -999 -999    3    1 -99915050
    315050    4   78    1    3    5    0    0 -999    0 -999 -999    6 -999    2
    2    2    4 -999 -999 -999 -999 -999 -999 -999 -999    1 -999 -999 -999  111
    1    1 -999 -999
      .005      .707   360.820      .000     1.000  4989.676     -.001    41.050
   200.000     2.384      .478  -999.000    10.000  -999.000     4.000  -999.000
    20.000    -6.684      .000  -999.000  -999.000  -999.000  -999.000      .003
     -.002     -.005     2.000    15.000    34.348  -116.827      .001      .001
     1.052     -.005     -.005  1698.000  -999.000  -999.000  -999.000  -999.000
     1.000  -999.000    -8.000  -999.000  -999.000  -999.000  -999.000   120.000
     -.900     2.000     6.800   980.665      .020   301.000    31.831      .000
  -999.000    23.000  -999.000   301.000      .020      .300  -999.000  -999.000
    41.060    -1.207    27.320     -.037    41.540      .003      .000      .300
    23.000      .020      .020      .000      .020      .003  -999.000  -999.000
      .006      .220      .005      .003      .000      .000  -999.000  -999.000
  -999.000  -999.000  -999.000  -999.000  -999.000  -999.000  -999.000  -999.000
  -999.000  -999.000  -999.000  -999.000
      .050
      .040      .042      .044      .046      .048      .050      .055      .060
      .065      .070      .075      .080      .085      .090      .095      .100
      .110      .120      .130      .140      .150      .160      .170      .180
      .190      .200      .220      .240      .260      .280      .300      .320
      .340      .360      .380      .400      .420      .440      .460      .480
      .500      .550      .600      .650      .700      .750      .800      .850
      .900      .950     1.000     1.100     1.200     1.300     1.400     1.500
     1.600     1.700     1.800     1.900     2.000     2.200     2.400     2.600
     2.800     3.000     3.200     3.400     3.600     3.800     4.000     4.200
     4.400     4.600     4.800     5.000     5.500     6.000      .000      .000
      .000      .000      .000      .000      .000      .000      .000      .000
      .000      .000      .000      .000      .000      .000      .000      .000
      .000      .000      .000      .000
Fourier amplitude spectra in in/sec.
  .000E+00  .000E+00  .000E+00  .000E+00  .000E+00  .000E+00  .000E+00  .000E+00
  .000E+00  .000E+00  .000E+00  .000E+00  .000E+00  .000E+00  .000E+00  .000E+00
  .000E+00  .000E+00  .000E+00  .000E+00  .000E+00  .000E+00  .000E+00  .000E+00
  .000E+00  .000E+00  .000E+00  .000E+00  .000E+00  .000E+00  .000E+00  .000E+00
  .000E+00  .000E+00  .000E+00  .000E+00  .000E+00  .000E+00  .000E+00  .000E+00
  .000E+00  .000E+00  .000E+00  .000E+00  .000E+00  .000E+00  .000E+00  .000E+00
  .000E+00  .000E+00  .000E+00  .000E+00  .000E+00  .000E+00  .000E+00  .000E+00
  .000E+00  .000E+00  .000E+00  .000E+00  .000E+00  .000E+00  .000E+00  .000E+00
  .000E+00  .000E+00  .000E+00  .000E+00  .000E+00  .000E+00  .000E+00  .000E+00
  .000E+00  .000E+00  .000E+00  .000E+00  .000E+00  .000E+00  .000E+00  .000E+00
  .000E+00  .000E+00  .000E+00  .000E+00  .000E+00  .000E+00  .000E+00  .000E+00
  .000E+00  .000E+00  .000E+00  .000E+00  .000E+00  .000E+00  .000E+00  .000E+00
  .000E+00  .000E+00  .000E+00  .000E+00
Damping =  .05. Data of Sd,Sv,Sa,Pssv,ttSd,ttSv,ttSa :
  .203E-04  .226E-04  .253E-04  .280E-04  .308E-04  .330E-04  .431E-04  .506E-04
  .683E-04  .872E-04  .108E-03  .141E-03  .159E-03  .181E-03  .201E-03  .207E-03
  .246E-03  .337E-03  .473E-03  .667E-03  .762E-03  .107E-02  .109E-02  .127E-02
  .171E-02  .174E-02  .263E-02  .254E-02  .207E-02  .211E-02  .199E-02  .241E-02
  .224E-02  .174E-02  .175E-02  .196E-02  .211E-02  .207E-02  .219E-02  .240E-02
  .229E-02  .243E-02  .263E-02  .276E-02  .310E-02  .339E-02  .230E-02  .231E-02
  .250E-02  .234E-02  .254E-02  .212E-02  .207E-02  .214E-02  .258E-02  .307E-02
  .327E-02  .325E-02  .333E-02  .360E-02  .358E-02  .282E-02  .244E-02  .213E-02
  .189E-02  .177E-02  .186E-02  .177E-02  .161E-02  .154E-02  .155E-02  .155E-02
  .156E-02  .152E-02  .146E-02  .141E-02  .133E-02  .136E-02  .000E+00  .000E+00
  .000E+00  .000E+00  .000E+00  .000E+00  .000E+00  .000E+00  .000E+00  .000E+00
  .000E+00  .000E+00  .000E+00  .000E+00  .000E+00  .000E+00  .000E+00  .000E+00
  .000E+00  .000E+00  .000E+00  .000E+00
  .785E-03  .865E-03  .947E-03  .110E-02  .132E-02  .139E-02  .173E-02  .244E-02
  .373E-02  .429E-02  .522E-02  .732E-02  .840E-02  .958E-02  .997E-02  .966E-02
  .113E-01  .128E-01  .193E-01  .275E-01  .287E-01  .408E-01  .400E-01  .402E-01
  .535E-01  .520E-01  .742E-01  .702E-01  .522E-01  .500E-01  .420E-01  .471E-01
  .438E-01  .345E-01  .333E-01  .356E-01  .356E-01  .342E-01  .348E-01  .331E-01
  .273E-01  .371E-01  .330E-01  .335E-01  .311E-01  .340E-01  .281E-01  .265E-01
  .250E-01  .213E-01  .195E-01  .177E-01  .159E-01  .173E-01  .207E-01  .210E-01
  .224E-01  .225E-01  .217E-01  .210E-01  .197E-01  .176E-01  .174E-01  .166E-01
  .156E-01  .152E-01  .146E-01  .145E-01  .146E-01  .145E-01  .144E-01  .144E-01
  .144E-01  .145E-01  .145E-01  .145E-01  .143E-01  .142E-01  .000E+00  .000E+00
  .000E+00  .000E+00  .000E+00  .000E+00  .000E+00  .000E+00  .000E+00  .000E+00
  .000E+00  .000E+00  .000E+00  .000E+00  .000E+00  .000E+00  .000E+00  .000E+00
  .000E+00  .000E+00  .000E+00  .000E+00
  .130E-02  .131E-02  .134E-02  .136E-02  .136E-02  .135E-02  .146E-02  .144E-02
  .165E-02  .183E-02  .194E-02  .225E-02  .225E-02  .231E-02  .231E-02  .212E-02
  .207E-02  .237E-02  .286E-02  .353E-02  .345E-02  .425E-02  .392E-02  .403E-02
  .483E-02  .445E-02  .558E-02  .452E-02  .320E-02  .279E-02  .229E-02  .244E-02
  .198E-02  .140E-02  .125E-02  .127E-02  .123E-02  .111E-02  .106E-02  .108E-02
  .942E-03  .824E-03  .760E-03  .685E-03  .655E-03  .621E-03  .370E-03  .329E-03
  .319E-03  .269E-03  .265E-03  .181E-03  .148E-03  .134E-03  .135E-03  .141E-03
  .133E-03  .117E-03  .109E-03  .105E-03  .955E-04  .630E-04  .474E-04  .362E-04
  .272E-04  .229E-04  .211E-04  .181E-04  .151E-04  .133E-04  .122E-04  .112E-04
  .104E-04  .949E-05  .855E-05  .779E-05  .669E-05  .589E-05  .000E+00  .000E+00
  .000E+00  .000E+00  .000E+00  .000E+00  .000E+00  .000E+00  .000E+00  .000E+00
  .000E+00  .000E+00  .000E+00  .000E+00  .000E+00  .000E+00  .000E+00  .000E+00
  .000E+00  .000E+00  .000E+00  .000E+00
  .319E-02  .338E-02  .361E-02  .382E-02  .403E-02  .415E-02  .492E-02  .530E-02
  .660E-02  .783E-02  .904E-02  .111E-01  .118E-01  .126E-01  .133E-01  .130E-01
  .140E-01  .176E-01  .229E-01  .299E-01  .319E-01  .421E-01  .404E-01  .442E-01
  .565E-01  .546E-01  .751E-01  .666E-01  .500E-01  .473E-01  .418E-01  .473E-01
  .413E-01  .304E-01  .289E-01  .309E-01  .316E-01  .296E-01  .299E-01  .314E-01
  .287E-01  .277E-01  .275E-01  .267E-01  .278E-01  .284E-01  .180E-01  .171E-01
  .174E-01  .155E-01  .160E-01  .121E-01  .108E-01  .103E-01  .116E-01  .129E-01
  .128E-01  .120E-01  .116E-01  .119E-01  .112E-01  .806E-02  .640E-02  .515E-02
  .424E-02  .370E-02  .366E-02  .327E-02  .281E-02  .255E-02  .243E-02  .232E-02
  .222E-02  .208E-02  .191E-02  .177E-02  .151E-02  .143E-02  .000E+00  .000E+00
  .000E+00  .000E+00  .000E+00  .000E+00  .000E+00  .000E+00  .000E+00  .000E+00
  .000E+00  .000E+00  .000E+00  .000E+00  .000E+00  .000E+00  .000E+00  .000E+00
  .000E+00  .000E+00  .000E+00  .000E+00
  .410E+02  .410E+02  .410E+02  .410E+02  .411E+02  .410E+02  .410E+02  .410E+02
  .426E+02  .426E+02  .426E+02  .427E+02  .434E+02  .434E+02  .434E+02  .411E+02
  .434E+02  .274E+02  .427E+02  .428E+02  .428E+02  .429E+02  .430E+02  .434E+02
  .441E+02  .441E+02  .275E+02  .274E+02  .437E+02  .412E+02  .448E+02  .448E+02
  .449E+02  .427E+02  .427E+02  .470E+02  .468E+02  .466E+02  .465E+02  .465E+02
  .465E+02  .445E+02  .426E+02  .426E+02  .464E+02  .461E+02  .424E+02  .418E+02
  .459E+02  .455E+02  .448E+02  .418E+02  .419E+02  .448E+02  .444E+02  .444E+02
  .446E+02  .456E+02  .441E+02  .441E+02  .441E+02  .441E+02  .434E+02  .434E+02
  .415E+02  .415E+02  .415E+02  .415E+02  .415E+02  .415E+02  .415E+02  .415E+02
  .415E+02  .415E+02  .415E+02  .415E+02  .415E+02  .415E+02  .000E+00  .000E+00
  .000E+00  .000E+00  .000E+00  .000E+00  .000E+00  .000E+00  .000E+00  .000E+00
  .000E+00  .000E+00  .000E+00  .000E+00  .000E+00  .000E+00  .000E+00  .000E+00
  .000E+00  .000E+00  .000E+00  .000E+00
  .426E+02  .426E+02  .426E+02  .426E+02  .426E+02  .273E+02  .273E+02  .273E+02
  .426E+02  .426E+02  .434E+02  .427E+02  .436E+02  .436E+02  .434E+02  .411E+02
  .435E+02  .274E+02  .427E+02  .427E+02  .430E+02  .430E+02  .430E+02  .275E+02
  .441E+02  .275E+02  .276E+02  .274E+02  .274E+02  .412E+02  .412E+02  .449E+02
  .448E+02  .435E+02  .427E+02  .469E+02  .469E+02  .465E+02  .466E+02  .466E+02
  .464E+02  .427E+02  .427E+02  .465E+02  .469E+02  .460E+02  .460E+02  .460E+02
  .460E+02  .448E+02  .434E+02  .447E+02  .417E+02  .447E+02  .447E+02  .447E+02
  .434E+02  .435E+02  .435E+02  .435E+02  .435E+02  .440E+02  .440E+02  .440E+02
  .440E+02  .440E+02  .424E+02  .440E+02  .440E+02  .440E+02  .440E+02  .440E+02
  .440E+02  .440E+02  .440E+02  .440E+02  .440E+02  .440E+02  .000E+00  .000E+00
  .000E+00  .000E+00  .000E+00  .000E+00  .000E+00  .000E+00  .000E+00  .000E+00
  .000E+00  .000E+00  .000E+00  .000E+00  .000E+00  .000E+00  .000E+00  .000E+00
  .000E+00  .000E+00  .000E+00  .000E+00
  .410E+02  .410E+02  .410E+02  .410E+02  .411E+02  .410E+02  .410E+02  .410E+02
  .426E+02  .426E+02  .426E+02  .426E+02  .434E+02  .434E+02  .434E+02  .411E+02
  .434E+02  .274E+02  .426E+02  .427E+02  .428E+02  .429E+02  .430E+02  .434E+02
  .441E+02  .441E+02  .275E+02  .274E+02  .437E+02  .412E+02  .448E+02  .448E+02
  .449E+02  .427E+02  .427E+02  .470E+02  .468E+02  .466E+02  .465E+02  .465E+02
  .465E+02  .445E+02  .426E+02  .426E+02  .464E+02  .461E+02  .424E+02  .418E+02
  .459E+02  .455E+02  .447E+02  .418E+02  .418E+02  .448E+02  .443E+02  .444E+02
  .446E+02  .455E+02  .440E+02  .441E+02  .441E+02  .441E+02  .434E+02  .434E+02
  .415E+02  .424E+02  .415E+02  .415E+02  .415E+02  .415E+02  .415E+02  .415E+02
  .415E+02  .415E+02  .415E+02  .434E+02  .434E+02  .424E+02  .000E+00  .000E+00
  .000E+00  .000E+00  .000E+00  .000E+00  .000E+00  .000E+00  .000E+00  .000E+00
  .000E+00  .000E+00  .000E+00  .000E+00  .000E+00  .000E+00  .000E+00  .000E+00
  .000E+00  .000E+00  .000E+00  .000E+00
/&   ----------  End of spectral data for channel  1  ----------
Response and Fourier amplitude spectra (78 periods,  .04 -  6.0 sec)   for      
Corrected accelerogram   38695658.CI.SIL.--.HN      Chan  2: 360 Deg     from   
Uncorrected Accelerogram Data             Processed: 09/19/20, CGS  cisil--p    
Rcrd of Fri Sep 18, 2020 23:38:41.0 PDT               (Avol1 v2.0, 4/18 CSMIP)  
                                        (Origin:  To be determined)             
38695658.CI.SIL.--.HN                Start time:  9/19/20, 06:38:41.0 UTC (GPS) 
Station Id. SIL     34.348N, 116.827W    ObsMMS  s/n 1124  (3 Chns of  6 at Sta)
Silver Peak                              SCSN   Data: Acceleration              
Chan  2: 360 Deg                                                                
Rcrd of Fri Sep 18, 2020 23:38:41.0 PDT    Fri Sep 18, 2020 23:38:41.0 PDT      
Hypocenter:  To be determined.               ML:  To be determined.             
Instr Period =  .0050 sec,  Damping =  .707,  Sensitivity = 4.99 v/g  (Nominal) 
                        Record Length =301.000 sec.                             
                                     Uncor Max  =  -.001 g, at   42.330 sec.    
RMS accel of (uncor) record  =        .   Chn. metadata effective date:         
Accelerogram bandpass filtered with 3 dB pts at   .30 and 23.00 cyc/sec         
                 instrument- and base-line correcte                             
                                                                                
                                                                                
                                                                                
                                                                                
                                                                                
Rcrd of Fri Sep 18, 2020 23:38:41.0 PDT    Fri Sep 18, 2020 23:38:41.0 PDT      
                                                                                
38695658.CI.SIL.--.HN     Silver Peak   Chan  2: 360 Deg                        
                                                                                
38695658.CI.SIL.--.HN     Silver Peak   Chan  2: 360 Deg                        
                                                                                
Units for spectra are inches and sec, except Sa is in fraction of g.            
                                                                                
    2  100    2    6    6  100 -999    3    1    0   15 1124    050833   41    0
    6   38   41   10  263    9   19 2020   10    3  36035943   39   11   74 -999
35943 -999  100    6 -999 -999 -999 -999 -999 -999 -999 -999 -999 -999 -999 -999
 -999 -999 -999 -99915050    2 -999    0 -999   20 -999 -999    3    1 -99915050
    315050    4   78    1    3    5    0    0 -999    0 -999 -999    6 -999    2
    2    2    4 -999 -999 -999 -999 -999 -999 -999 -999    1 -999 -999 -999  111
    1    1 -999 -999
      .005      .707   359.430      .000     1.000  4990.473     -.001    42.330
   200.000     2.384      .478  -999.000    10.000  -999.000     4.000  -999.000
    20.000   -17.104      .000  -999.000  -999.000  -999.000  -999.000     -.004
      .004      .008     2.000    15.000    34.348  -116.827      .001      .001
     1.012      .008      .008  1698.000  -999.000  -999.000  -999.000  -999.000
     1.000  -999.000  -999.000  -999.000  -999.000  -999.000  -999.000   120.000
     -.900     2.000     6.800   980.665      .020   301.000    31.831     -.001
  -999.000    23.000  -999.000   301.000      .020      .300  -999.000  -999.000
    42.320    -1.086    44.700     -.038    41.580     -.005      .000      .300
    23.000      .020      .020      .000      .020      .003  -999.000  -999.000
      .004      .180      .004      .002      .000      .000  -999.000  -999.000
  -999.000  -999.000  -999.000  -999.000  -999.000  -999.000  -999.000  -999.000
  -999.000  -999.000  -999.000  -999.000
      .050
      .040      .042      .044      .046      .048      .050      .055      .060
      .065      .070      .075      .080      .085      .090      .095      .100
      .110      .120      .130      .140      .150      .160      .170      .180
      .190      .200      .220      .240      .260      .280      .300      .320
      .340      .360      .380      .400      .420      .440      .460      .480
      .500      .550      .600      .650      .700      .750      .800      .850
      .900      .950     1.000     1.100     1.200     1.300     1.400     1.500
     1.600     1.700     1.800     1.900     2.000     2.200     2.400     2.600
     2.800     3.000     3.200     3.400     3.600     3.800     4.000     4.200
     4.400     4.600     4.800     5.000     5.500     6.000      .000      .000
      .000      .000      .000      .000      .000      .000      .000      .000
      .000      .000      .000      .000      .000      .000      .000      .000
      .000      .000      .000      .000
Fourier amplitude spectra in in/sec.
  .000E+00  .000E+00  .000E+00  .000E+00  .000E+00  .000E+00  .000E+00  .000E+00
  .000E+00  .000E+00  .000E+00  .000E+00  .000E+00  .000E+00  .000E+00  .000E+00
  .000E+00  .000E+00  .000E+00  .000E+00  .000E+00  .000E+00  .000E+00  .000E+00
  .000E+00  .000E+00  .000E+00  .000E+00  .000E+00  .000E+00  .000E+00  .000E+00
  .000E+00  .000E+00  .000E+00  .000E+00  .000E+00  .000E+00  .000E+00  .000E+00
  .000E+00  .000E+00  .000E+00  .000E+00  .000E+00  .000E+00  .000E+00  .000E+00
  .000E+00  .000E+00  .000E+00  .000E+00  .000E+00  .000E+00  .000E+00  .000E+00
  .000E+00  .000E+00  .000E+00  .000E+00  .000E+00  .000E+00  .000E+00  .000E+00
  .000E+00  .000E+00  .000E+00  .000E+00  .000E+00  .000E+00  .000E+00  .000E+00
  .000E+00  .000E+00  .000E+00  .000E+00  .000E+00  .000E+00  .000E+00  .000E+00
  .000E+00  .000E+00  .000E+00  .000E+00  .000E+00  .000E+00  .000E+00  .000E+00
  .000E+00  .000E+00  .000E+00  .000E+00  .000E+00  .000E+00  .000E+00  .000E+00
  .000E+00  .000E+00  .000E+00  .000E+00
Damping =  .05. Data of Sd,Sv,Sa,Pssv,ttSd,ttSv,ttSa :
  .198E-04  .219E-04  .240E-04  .267E-04  .300E-04  .327E-04  .366E-04  .492E-04
  .610E-04  .744E-04  .807E-04  .102E-03  .114E-03  .137E-03  .171E-03  .234E-03
  .285E-03  .379E-03  .502E-03  .521E-03  .602E-03  .742E-03  .109E-02  .142E-02
  .153E-02  .151E-02  .212E-02  .195E-02  .195E-02  .187E-02  .199E-02  .227E-02
  .206E-02  .276E-02  .308E-02  .253E-02  .284E-02  .262E-02  .282E-02  .337E-02
