Response and Fourier amplitude spectra (78 periods,  .04 -  6.0 sec)   for      
Corrected accelerogram   38695658.CI.SLR.--.HN      Chan  1:  90 Deg     from   
Uncorrected Accelerogram Data             Processed: 09/19/20, CGS  cislr--d    
Rcrd of Fri Sep 18, 2020 23:38:40.0 PDT               (Avol1 v2.0, 4/18 CSMIP)  
                                        (Origin:  To be determined)             
38695658.CI.SLR.--.HN                Start time:  9/19/20, 06:38:40.0 UTC (GPS) 
Station Id. SLR     33.834N, 116.797W    ObsMMS  s/n 4888  (3 Chns of  3 at Sta)
Banning, Hwy 243, San Jacinto Mtns.      SCSN   Data: Acceleration              
Chan  1:  90 Deg                                                                
Rcrd of Fri Sep 18, 2020 23:38:40.0 PDT    Fri Sep 18, 2020 23:38:40.0 PDT      
Hypocenter:  To be determined.               ML:  To be determined.             
Instr Period =  .0050 sec,  Damping =  .707,  Sensitivity = 5.00 v/g  (Nominal) 
                        Record Length =301.000 sec.                             
                                     Uncor Max  =   .002 g, at   42.910 sec.    
RMS accel of (uncor) record  =        .   Chn. metadata effective date:         
Accelerogram bandpass filtered with 3 dB pts at   .30 and 23.00 cyc/sec         
                 instrument- and base-line correcte                             
                                                                                
                                                                                
                                                                                
                                                                                
                                                                                
Rcrd of Fri Sep 18, 2020 23:38:40.0 PDT    Fri Sep 18, 2020 23:38:40.0 PDT      
                                                                                
38695658.CI.SLR.--.HN     Banning, Hwy 243, San Jacinto Mtns.   Chan  1:  90 Deg
                                                                                
38695658.CI.SLR.--.HN     Banning, Hwy 243, San Jacinto Mtns.   Chan  1:  90 Deg
                                                                                
Units for spectra are inches and sec, except Sa is in fraction of g.            
                                                                                
    1  100    1    3    3  100 -999    3    1    0   15 4888    050686   41    0
    6   38   40    3  263    9   19 2020   10    3   9035808   39   35   74 -999
35808 -999  100    6 -999 -999 -999 -999 -999 -999 -999 -999 -999 -999 -999 -999
 -999 -999 -999 -99915050    2 -999    0 -999   20 -999 -999    3    1 -99915050
    315050    4   78    1    3    5    0    0 -999    0 -999 -999    6 -999    2
    2    2    4 -999 -999 -999 -999 -999 -999 -999 -999    1 -999 -999 -999  111
    1    1 -999 -999
      .005      .707   358.080      .000     1.000  4996.457      .002    42.910
   200.000     2.384      .477  -999.000    10.000  -999.000     4.000  -999.000
    20.000    -8.548      .000  -999.000  -999.000  -999.000  -999.000      .000
      .000      .000     2.000    15.000    33.834  -116.797      .002      .002
     1.306      .000      .000  1567.000  -999.000  -999.000  -999.000  -999.000
     1.000  -999.000    -8.000  -999.000  -999.000  -999.000  -999.000   120.000
     -.900     2.000     6.800   980.665      .020   301.000    31.831      .000
  -999.000    23.000  -999.000   301.000      .020      .300  -999.000  -999.000
    43.000    -1.705    43.040     -.050    41.220      .004      .000      .300
    23.000      .020      .020      .000      .020      .003  -999.000  -999.000
      .009      .150      .005      .003      .000      .000  -999.000  -999.000
  -999.000  -999.000  -999.000  -999.000  -999.000  -999.000  -999.000  -999.000
  -999.000  -999.000  -999.000  -999.000
      .050
      .040      .042      .044      .046      .048      .050      .055      .060
      .065      .070      .075      .080      .085      .090      .095      .100
      .110      .120      .130      .140      .150      .160      .170      .180
      .190      .200      .220      .240      .260      .280      .300      .320
      .340      .360      .380      .400      .420      .440      .460      .480
      .500      .550      .600      .650      .700      .750      .800      .850
      .900      .950     1.000     1.100     1.200     1.300     1.400     1.500
     1.600     1.700     1.800     1.900     2.000     2.200     2.400     2.600
     2.800     3.000     3.200     3.400     3.600     3.800     4.000     4.200
     4.400     4.600     4.800     5.000     5.500     6.000      .000      .000
      .000      .000      .000      .000      .000      .000      .000      .000
      .000      .000      .000      .000      .000      .000      .000      .000
      .000      .000      .000      .000
Fourier amplitude spectra in in/sec.
  .000E+00  .000E+00  .000E+00  .000E+00  .000E+00  .000E+00  .000E+00  .000E+00
  .000E+00  .000E+00  .000E+00  .000E+00  .000E+00  .000E+00  .000E+00  .000E+00
  .000E+00  .000E+00  .000E+00  .000E+00  .000E+00  .000E+00  .000E+00  .000E+00
  .000E+00  .000E+00  .000E+00  .000E+00  .000E+00  .000E+00  .000E+00  .000E+00
  .000E+00  .000E+00  .000E+00  .000E+00  .000E+00  .000E+00  .000E+00  .000E+00
  .000E+00  .000E+00  .000E+00  .000E+00  .000E+00  .000E+00  .000E+00  .000E+00
  .000E+00  .000E+00  .000E+00  .000E+00  .000E+00  .000E+00  .000E+00  .000E+00
  .000E+00  .000E+00  .000E+00  .000E+00  .000E+00  .000E+00  .000E+00  .000E+00
  .000E+00  .000E+00  .000E+00  .000E+00  .000E+00  .000E+00  .000E+00  .000E+00
  .000E+00  .000E+00  .000E+00  .000E+00  .000E+00  .000E+00  .000E+00  .000E+00
  .000E+00  .000E+00  .000E+00  .000E+00  .000E+00  .000E+00  .000E+00  .000E+00
  .000E+00  .000E+00  .000E+00  .000E+00  .000E+00  .000E+00  .000E+00  .000E+00
  .000E+00  .000E+00  .000E+00  .000E+00
Damping =  .05. Data of Sd,Sv,Sa,Pssv,ttSd,ttSv,ttSa :
  .376E-04  .423E-04  .480E-04  .559E-04  .650E-04  .750E-04  .101E-03  .154E-03
  .181E-03  .170E-03  .226E-03  .257E-03  .327E-03  .377E-03  .429E-03  .469E-03
  .527E-03  .700E-03  .984E-03  .158E-02  .193E-02  .177E-02  .170E-02  .169E-02
  .195E-02  .194E-02  .175E-02  .255E-02  .272E-02  .310E-02  .269E-02  .237E-02
  .274E-02  .234E-02  .191E-02  .175E-02  .183E-02  .193E-02  .208E-02  .213E-02
  .195E-02  .234E-02  .184E-02  .241E-02  .314E-02  .363E-02  .371E-02  .400E-02
  .437E-02  .422E-02  .386E-02  .396E-02  .383E-02  .318E-02  .302E-02  .305E-02
  .302E-02  .304E-02  .296E-02  .274E-02  .252E-02  .229E-02  .207E-02  .196E-02
  .190E-02  .168E-02  .172E-02  .167E-02  .166E-02  .165E-02  .163E-02  .160E-02
  .157E-02  .154E-02  .152E-02  .151E-02  .150E-02  .148E-02  .000E+00  .000E+00
  .000E+00  .000E+00  .000E+00  .000E+00  .000E+00  .000E+00  .000E+00  .000E+00
  .000E+00  .000E+00  .000E+00  .000E+00  .000E+00  .000E+00  .000E+00  .000E+00
  .000E+00  .000E+00  .000E+00  .000E+00
  .215E-02  .240E-02  .275E-02  .341E-02  .407E-02  .499E-02  .824E-02  .137E-01
  .155E-01  .140E-01  .173E-01  .183E-01  .214E-01  .229E-01  .251E-01  .260E-01
  .263E-01  .351E-01  .449E-01  .638E-01  .809E-01  .713E-01  .613E-01  .578E-01
  .630E-01  .664E-01  .523E-01  .670E-01  .723E-01  .758E-01  .635E-01  .594E-01
  .558E-01  .471E-01  .374E-01  .339E-01  .309E-01  .280E-01  .321E-01  .371E-01
  .382E-01  .343E-01  .351E-01  .294E-01  .298E-01  .362E-01  .399E-01  .461E-01
  .407E-01  .422E-01  .433E-01  .343E-01  .289E-01  .270E-01  .250E-01  .238E-01
  .224E-01  .229E-01  .242E-01  .242E-01  .235E-01  .222E-01  .209E-01  .202E-01
  .195E-01  .190E-01  .191E-01  .192E-01  .192E-01  .193E-01  .194E-01  .194E-01
  .194E-01  .194E-01  .194E-01  .194E-01  .194E-01  .194E-01  .000E+00  .000E+00
  .000E+00  .000E+00  .000E+00  .000E+00  .000E+00  .000E+00  .000E+00  .000E+00
  .000E+00  .000E+00  .000E+00  .000E+00  .000E+00  .000E+00  .000E+00  .000E+00
  .000E+00  .000E+00  .000E+00  .000E+00
  .239E-02  .244E-02  .252E-02  .269E-02  .289E-02  .306E-02  .343E-02  .440E-02
  .438E-02  .356E-02  .416E-02  .407E-02  .470E-02  .482E-02  .483E-02  .485E-02
  .454E-02  .500E-02  .595E-02  .816E-02  .893E-02  .706E-02  .608E-02  .542E-02
  .558E-02  .511E-02  .371E-02  .454E-02  .415E-02  .407E-02  .303E-02  .240E-02
  .247E-02  .189E-02  .135E-02  .111E-02  .108E-02  .105E-02  .101E-02  .956E-03
  .814E-03  .814E-03  .530E-03  .582E-03  .663E-03  .671E-03  .603E-03  .572E-03
  .559E-03  .483E-03  .397E-03  .339E-03  .279E-03  .199E-03  .163E-03  .144E-03
  .126E-03  .113E-03  .993E-04  .838E-04  .704E-04  .542E-04  .424E-04  .350E-04
  .299E-04  .240E-04  .197E-04  .173E-04  .154E-04  .138E-04  .125E-04  .114E-04
  .106E-04  .995E-05  .931E-05  .872E-05  .747E-05  .655E-05  .000E+00  .000E+00
  .000E+00  .000E+00  .000E+00  .000E+00  .000E+00  .000E+00  .000E+00  .000E+00
  .000E+00  .000E+00  .000E+00  .000E+00  .000E+00  .000E+00  .000E+00  .000E+00
  .000E+00  .000E+00  .000E+00  .000E+00
  .590E-02  .633E-02  .685E-02  .764E-02  .851E-02  .943E-02  .115E-01  .161E-01
  .175E-01  .153E-01  .190E-01  .202E-01  .242E-01  .263E-01  .284E-01  .295E-01
  .301E-01  .366E-01  .476E-01  .707E-01  .807E-01  .696E-01  .630E-01  .590E-01
  .645E-01  .611E-01  .501E-01  .667E-01  .658E-01  .695E-01  .563E-01  .466E-01
  .506E-01  .409E-01  .315E-01  .275E-01  .274E-01  .276E-01  .284E-01  .279E-01
  .245E-01  .267E-01  .192E-01  .233E-01  .282E-01  .304E-01  .292E-01  .296E-01
  .305E-01  .279E-01  .243E-01  .226E-01  .200E-01  .154E-01  .135E-01  .128E-01
  .118E-01  .112E-01  .103E-01  .908E-02  .791E-02  .654E-02  .543E-02  .474E-02
  .426E-02  .352E-02  .337E-02  .308E-02  .289E-02  .273E-02  .256E-02  .240E-02
  .224E-02  .210E-02  .199E-02  .190E-02  .171E-02  .154E-02  .000E+00  .000E+00
  .000E+00  .000E+00  .000E+00  .000E+00  .000E+00  .000E+00  .000E+00  .000E+00
  .000E+00  .000E+00  .000E+00  .000E+00  .000E+00  .000E+00  .000E+00  .000E+00
  .000E+00  .000E+00  .000E+00  .000E+00
  .429E+02  .429E+02  .429E+02  .429E+02  .429E+02  .429E+02  .427E+02  .440E+02
  .430E+02  .437E+02  .440E+02  .433E+02  .430E+02  .430E+02  .428E+02  .428E+02
  .433E+02  .425E+02  .441E+02  .433E+02  .433E+02  .431E+02  .431E+02  .417E+02
  .418E+02  .417E+02  .439E+02  .439E+02  .438E+02  .439E+02  .436E+02  .436E+02
  .435E+02  .434E+02  .446E+02  .441E+02  .441E+02  .441E+02  .441E+02  .441E+02
  .433E+02  .433E+02  .420E+02  .420E+02  .420E+02  .421E+02  .421E+02  .431E+02
  .431E+02  .432E+02  .419E+02  .419E+02  .419E+02  .419E+02  .415E+02  .415E+02
  .415E+02  .415E+02  .415E+02  .415E+02  .415E+02  .415E+02  .415E+02  .415E+02
  .415E+02  .412E+02  .412E+02  .412E+02  .412E+02  .412E+02  .412E+02  .412E+02
  .412E+02  .412E+02  .412E+02  .412E+02  .412E+02  .412E+02  .000E+00  .000E+00
  .000E+00  .000E+00  .000E+00  .000E+00  .000E+00  .000E+00  .000E+00  .000E+00
  .000E+00  .000E+00  .000E+00  .000E+00  .000E+00  .000E+00  .000E+00  .000E+00
  .000E+00  .000E+00  .000E+00  .000E+00
  .429E+02  .429E+02  .429E+02  .429E+02  .429E+02  .429E+02  .439E+02  .439E+02
  .429E+02  .437E+02  .440E+02  .434E+02  .429E+02  .430E+02  .427E+02  .427E+02
  .428E+02  .425E+02  .441E+02  .433E+02  .433E+02  .432E+02  .432E+02  .418E+02
  .417E+02  .417E+02  .416E+02  .439E+02  .439E+02  .437E+02  .436E+02  .436E+02
  .436E+02  .433E+02  .441E+02  .441E+02  .441E+02  .441E+02  .440E+02  .440E+02
  .440E+02  .432E+02  .432E+02  .421E+02  .419E+02  .419E+02  .432E+02  .432E+02
  .432E+02  .430E+02  .430E+02  .430E+02  .417E+02  .417E+02  .417E+02  .417E+02
  .417E+02  .430E+02  .430E+02  .430E+02  .430E+02  .430E+02  .430E+02  .430E+02
  .430E+02  .430E+02  .430E+02  .430E+02  .430E+02  .430E+02  .430E+02  .430E+02
  .430E+02  .430E+02  .430E+02  .430E+02  .430E+02  .430E+02  .000E+00  .000E+00
  .000E+00  .000E+00  .000E+00  .000E+00  .000E+00  .000E+00  .000E+00  .000E+00
  .000E+00  .000E+00  .000E+00  .000E+00  .000E+00  .000E+00  .000E+00  .000E+00
  .000E+00  .000E+00  .000E+00  .000E+00
  .429E+02  .429E+02  .429E+02  .429E+02  .429E+02  .429E+02  .427E+02  .440E+02
  .430E+02  .437E+02  .440E+02  .433E+02  .430E+02  .430E+02  .428E+02  .428E+02
  .433E+02  .425E+02  .441E+02  .433E+02  .433E+02  .431E+02  .431E+02  .417E+02
  .417E+02  .417E+02  .439E+02  .439E+02  .438E+02  .439E+02  .436E+02  .436E+02
  .435E+02  .434E+02  .446E+02  .441E+02  .441E+02  .441E+02  .441E+02  .441E+02
  .432E+02  .433E+02  .420E+02  .420E+02  .420E+02  .420E+02  .421E+02  .430E+02
  .431E+02  .432E+02  .418E+02  .419E+02  .419E+02  .419E+02  .415E+02  .415E+02
  .415E+02  .415E+02  .415E+02  .415E+02  .415E+02  .415E+02  .415E+02  .415E+02
  .415E+02  .415E+02  .415E+02  .415E+02  .415E+02  .415E+02  .415E+02  .415E+02
  .415E+02  .415E+02  .415E+02  .415E+02  .415E+02  .415E+02  .000E+00  .000E+00
  .000E+00  .000E+00  .000E+00  .000E+00  .000E+00  .000E+00  .000E+00  .000E+00
  .000E+00  .000E+00  .000E+00  .000E+00  .000E+00  .000E+00  .000E+00  .000E+00
  .000E+00  .000E+00  .000E+00  .000E+00
/&   ----------  End of spectral data for channel  1  ----------
Response and Fourier amplitude spectra (78 periods,  .04 -  6.0 sec)   for      
Corrected accelerogram   38695658.CI.SLR.--.HN      Chan  2: 360 Deg     from   
Uncorrected Accelerogram Data             Processed: 09/19/20, CGS  cislr--d    
Rcrd of Fri Sep 18, 2020 23:38:40.0 PDT               (Avol1 v2.0, 4/18 CSMIP)  
                                        (Origin:  To be determined)             
38695658.CI.SLR.--.HN                Start time:  9/19/20, 06:38:40.0 UTC (GPS) 
Station Id. SLR     33.834N, 116.797W    ObsMMS  s/n 4888  (3 Chns of  3 at Sta)
Banning, Hwy 243, San Jacinto Mtns.      SCSN   Data: Acceleration              
Chan  2: 360 Deg                                                                
Rcrd of Fri Sep 18, 2020 23:38:40.0 PDT    Fri Sep 18, 2020 23:38:40.0 PDT      
Hypocenter:  To be determined.               ML:  To be determined.             
Instr Period =  .0050 sec,  Damping =  .707,  Sensitivity = 4.99 v/g  (Nominal) 
                        Record Length =301.000 sec.                             
                                     Uncor Max  =   .002 g, at   43.140 sec.    
RMS accel of (uncor) record  =        .   Chn. metadata effective date:         
Accelerogram bandpass filtered with 3 dB pts at   .30 and 23.00 cyc/sec         
                 instrument- and base-line correcte                             
                                                                                
                                                                                
                                                                                
                                                                                
                                                                                
Rcrd of Fri Sep 18, 2020 23:38:40.0 PDT    Fri Sep 18, 2020 23:38:40.0 PDT      
                                                                                
38695658.CI.SLR.--.HN     Banning, Hwy 243, San Jacinto Mtns.   Chan  2: 360 Deg
                                                                                
38695658.CI.SLR.--.HN     Banning, Hwy 243, San Jacinto Mtns.   Chan  2: 360 Deg
                                                                                
Units for spectra are inches and sec, except Sa is in fraction of g.            
                                                                                
    2  100    2    3    3  100 -999    3    1    0   15 4888    050686   41    0
    6   38   40    3  263    9   19 2020   10    3  36036256   39   35   74 -999
36256 -999  100    6 -999 -999 -999 -999 -999 -999 -999 -999 -999 -999 -999 -999
 -999 -999 -999 -99915050    2 -999    0 -999   20 -999 -999    3    1 -99915050
    315050    4   78    1    3    5    0    0 -999    0 -999 -999    6 -999    2
    2    2    4 -999 -999 -999 -999 -999 -999 -999 -999    1 -999 -999 -999  111
    1    1 -999 -999
      .005      .707   362.560      .000     1.000  4988.479      .002    43.140
   200.000     2.384      .478  -999.000    10.000  -999.000     4.000  -999.000
    20.000   -23.492      .000  -999.000  -999.000  -999.000  -999.000      .000
      .000      .000     2.000    15.000    33.834  -116.797      .002      .002
     1.208      .000      .000  1567.000  -999.000  -999.000  -999.000  -999.000
     1.000  -999.000  -999.000  -999.000  -999.000  -999.000  -999.000   120.000
     -.900     2.000     6.800   980.665      .020   301.000    31.831      .000
  -999.000    23.000  -999.000   301.000      .020      .300  -999.000  -999.000
    43.140     1.982    42.200      .057    41.860      .003      .000      .300
    23.000      .020      .020      .000      .020      .003  -999.000  -999.000
      .006      .120      .004      .003      .000      .000  -999.000  -999.000
  -999.000  -999.000  -999.000  -999.000  -999.000  -999.000  -999.000  -999.000
  -999.000  -999.000  -999.000  -999.000
      .050
      .040      .042      .044      .046      .048      .050      .055      .060
      .065      .070      .075      .080      .085      .090      .095      .100
      .110      .120      .130      .140      .150      .160      .170      .180
      .190      .200      .220      .240      .260      .280      .300      .320
      .340      .360      .380      .400      .420      .440      .460      .480
      .500      .550      .600      .650      .700      .750      .800      .850
      .900      .950     1.000     1.100     1.200     1.300     1.400     1.500
     1.600     1.700     1.800     1.900     2.000     2.200     2.400     2.600
     2.800     3.000     3.200     3.400     3.600     3.800     4.000     4.200
     4.400     4.600     4.800     5.000     5.500     6.000      .000      .000
      .000      .000      .000      .000      .000      .000      .000      .000
      .000      .000      .000      .000      .000      .000      .000      .000
      .000      .000      .000      .000
Fourier amplitude spectra in in/sec.
  .000E+00  .000E+00  .000E+00  .000E+00  .000E+00  .000E+00  .000E+00  .000E+00
  .000E+00  .000E+00  .000E+00  .000E+00  .000E+00  .000E+00  .000E+00  .000E+00
  .000E+00  .000E+00  .000E+00  .000E+00  .000E+00  .000E+00  .000E+00  .000E+00
  .000E+00  .000E+00  .000E+00  .000E+00  .000E+00  .000E+00  .000E+00  .000E+00
  .000E+00  .000E+00  .000E+00  .000E+00  .000E+00  .000E+00  .000E+00  .000E+00
  .000E+00  .000E+00  .000E+00  .000E+00  .000E+00  .000E+00  .000E+00  .000E+00
  .000E+00  .000E+00  .000E+00  .000E+00  .000E+00  .000E+00  .000E+00  .000E+00
  .000E+00  .000E+00  .000E+00  .000E+00  .000E+00  .000E+00  .000E+00  .000E+00
  .000E+00  .000E+00  .000E+00  .000E+00  .000E+00  .000E+00  .000E+00  .000E+00
  .000E+00  .000E+00  .000E+00  .000E+00  .000E+00  .000E+00  .000E+00  .000E+00
  .000E+00  .000E+00  .000E+00  .000E+00  .000E+00  .000E+00  .000E+00  .000E+00
  .000E+00  .000E+00  .000E+00  .000E+00  .000E+00  .000E+00  .000E+00  .000E+00
  .000E+00  .000E+00  .000E+00  .000E+00
Damping =  .05. Data of Sd,Sv,Sa,Pssv,ttSd,ttSv,ttSa :
  .319E-04  .359E-04  .406E-04  .446E-04  .504E-04  .573E-04  .704E-04  .839E-04
  .129E-03  .193E-03  .220E-03  .251E-03  .321E-03  .381E-03  .495E-03  .556E-03
  .718E-03  .912E-03  .763E-03  .989E-03  .116E-02  .136E-02  .151E-02  .132E-02
  .148E-02  .180E-02  .185E-02  .292E-02  .251E-02  .294E-02  .356E-02  .247E-02
  .233E-02  .298E-02  .416E-02  .457E-02  .412E-02  .434E-02  .437E-02  .423E-02
