Response and Fourier amplitude spectra (78 periods,  .04 -  6.0 sec)   for      
Corrected accelerogram   38695658.CI.SLM.--.HN      Chan  1:  90 Deg     from   
Uncorrected Accelerogram Data             Processed: 09/19/20, CGS  cislm--a    
Rcrd of Fri Sep 18, 2020 23:38:33.0 PDT               (Avol1 v2.0, 4/18 CSMIP)  
                                        (Origin:  To be determined)             
38695658.CI.SLM.--.HN                Start time:  9/19/20, 06:38:33.0 UTC (GPS) 
Station Id. SLM     34.452N, 118.423W    ObsMMS  s/n 1844  (3 Chns of  6 at Sta)
Solemint                                 SCSN   Data: Acceleration              
Chan  1:  90 Deg                                                                
Rcrd of Fri Sep 18, 2020 23:38:33.0 PDT    Fri Sep 18, 2020 23:38:33.0 PDT      
Hypocenter:  To be determined.               ML:  To be determined.             
Instr Period =  .0050 sec,  Damping =  .707,  Sensitivity = 4.99 v/g  (Nominal) 
                        Record Length =301.000 sec.                             
                                     Uncor Max  =  -.012 g, at   31.860 sec.    
RMS accel of (uncor) record  =        .   Chn. metadata effective date:         
Accelerogram bandpass filtered with 3 dB pts at   .30 and 23.00 cyc/sec         
                 instrument- and base-line correcte                             
                                                                                
                                                                                
                                                                                
                                                                                
                                                                                
Rcrd of Fri Sep 18, 2020 23:38:33.0 PDT    Fri Sep 18, 2020 23:38:33.0 PDT      
                                                                                
38695658.CI.SLM.--.HN     Solemint    Chan  1:  90 Deg                          
                                                                                
38695658.CI.SLM.--.HN     Solemint    Chan  1:  90 Deg                          
                                                                                
Units for spectra are inches and sec, except Sa is in fraction of g.            
                                                                                
    1  100    1    6    6  100 -999    3    1    0   15 1844    0    0   41    0
    6   38   33    0  263    9   19 2020   10    3   9035468   39    8   74 -999
35468 -999  100    6 -999 -999 -999 -999 -999 -999 -999 -999 -999 -999 -999 -999
 -999 -999 -999 -99915050    2 -999    0 -999   20 -999 -999    3    1 -99915050
    315050    4   78    1    3    5    0    0 -999    0 -999 -999    6 -999    2
    2    2    4 -999 -999 -999 -999 -999 -999 -999 -999    1 -999 -999 -999  111
    1    1 -999 -999
      .005      .707   354.680      .000     1.000  4992.468     -.012    31.860
   200.000     2.384      .478  -999.000    10.000  -999.000     4.000  -999.000
    20.000   -11.099      .000  -999.000  -999.000  -999.000  -999.000      .006
     -.006     -.012     2.000    15.000    34.452  -118.423      .019      .026
     1.372     -.016     -.008   523.000  -999.000  -999.000  -999.000  -999.000
     1.000  -999.000    -8.000  -999.000  -999.000  -999.000  -999.000   120.000
     -.900     2.000     6.800   980.665      .020   301.000    31.831      .001
  -999.000    23.000  -999.000   301.000      .020      .300  -999.000  -999.000
    31.860   -11.386    31.400      .280    31.360     -.023      .000      .300
    23.000      .020      .020      .000      .020      .010  -999.000  -999.000
      .046      .140      .021      .008      .001      .000  -999.000  -999.000
  -999.000  -999.000  -999.000  -999.000  -999.000  -999.000  -999.000  -999.000
  -999.000  -999.000  -999.000  -999.000
      .050
      .040      .042      .044      .046      .048      .050      .055      .060
      .065      .070      .075      .080      .085      .090      .095      .100
      .110      .120      .130      .140      .150      .160      .170      .180
      .190      .200      .220      .240      .260      .280      .300      .320
      .340      .360      .380      .400      .420      .440      .460      .480
      .500      .550      .600      .650      .700      .750      .800      .850
      .900      .950     1.000     1.100     1.200     1.300     1.400     1.500
     1.600     1.700     1.800     1.900     2.000     2.200     2.400     2.600
     2.800     3.000     3.200     3.400     3.600     3.800     4.000     4.200
     4.400     4.600     4.800     5.000     5.500     6.000      .000      .000
      .000      .000      .000      .000      .000      .000      .000      .000
      .000      .000      .000      .000      .000      .000      .000      .000
      .000      .000      .000      .000
Fourier amplitude spectra in in/sec.
  .000E+00  .000E+00  .000E+00  .000E+00  .000E+00  .000E+00  .000E+00  .000E+00
  .000E+00  .000E+00  .000E+00  .000E+00  .000E+00  .000E+00  .000E+00  .000E+00
  .000E+00  .000E+00  .000E+00  .000E+00  .000E+00  .000E+00  .000E+00  .000E+00
  .000E+00  .000E+00  .000E+00  .000E+00  .000E+00  .000E+00  .000E+00  .000E+00
  .000E+00  .000E+00  .000E+00  .000E+00  .000E+00  .000E+00  .000E+00  .000E+00
  .000E+00  .000E+00  .000E+00  .000E+00  .000E+00  .000E+00  .000E+00  .000E+00
  .000E+00  .000E+00  .000E+00  .000E+00  .000E+00  .000E+00  .000E+00  .000E+00
  .000E+00  .000E+00  .000E+00  .000E+00  .000E+00  .000E+00  .000E+00  .000E+00
  .000E+00  .000E+00  .000E+00  .000E+00  .000E+00  .000E+00  .000E+00  .000E+00
  .000E+00  .000E+00  .000E+00  .000E+00  .000E+00  .000E+00  .000E+00  .000E+00
  .000E+00  .000E+00  .000E+00  .000E+00  .000E+00  .000E+00  .000E+00  .000E+00
  .000E+00  .000E+00  .000E+00  .000E+00  .000E+00  .000E+00  .000E+00  .000E+00
  .000E+00  .000E+00  .000E+00  .000E+00
Damping =  .05. Data of Sd,Sv,Sa,Pssv,ttSd,ttSv,ttSa :
  .192E-03  .214E-03  .235E-03  .259E-03  .289E-03  .318E-03  .409E-03  .588E-03
  .745E-03  .960E-03  .138E-02  .171E-02  .194E-02  .207E-02  .253E-02  .361E-02
  .483E-02  .504E-02  .577E-02  .872E-02  .985E-02  .815E-02  .812E-02  .905E-02
  .887E-02  .835E-02  .783E-02  .813E-02  .649E-02  .667E-02  .745E-02  .767E-02
  .785E-02  .811E-02  .829E-02  .989E-02  .103E-01  .107E-01  .115E-01  .123E-01
  .140E-01  .165E-01  .159E-01  .169E-01  .175E-01  .197E-01  .170E-01  .136E-01
  .126E-01  .123E-01  .137E-01  .131E-01  .136E-01  .130E-01  .120E-01  .114E-01
  .120E-01  .113E-01  .104E-01  .979E-02  .975E-02  .862E-02  .823E-02  .838E-02
  .817E-02  .841E-02  .852E-02  .848E-02  .848E-02  .853E-02  .865E-02  .883E-02
  .901E-02  .918E-02  .930E-02  .936E-02  .938E-02  .934E-02  .000E+00  .000E+00
  .000E+00  .000E+00  .000E+00  .000E+00  .000E+00  .000E+00  .000E+00  .000E+00
  .000E+00  .000E+00  .000E+00  .000E+00  .000E+00  .000E+00  .000E+00  .000E+00
  .000E+00  .000E+00  .000E+00  .000E+00
  .118E-01  .129E-01  .143E-01  .161E-01  .184E-01  .209E-01  .317E-01  .388E-01
  .489E-01  .635E-01  .102E+00  .116E+00  .119E+00  .137E+00  .135E+00  .193E+00
  .266E+00  .253E+00  .280E+00  .373E+00  .414E+00  .335E+00  .315E+00  .341E+00
  .323E+00  .290E+00  .283E+00  .259E+00  .216E+00  .171E+00  .179E+00  .163E+00
  .175E+00  .186E+00  .187E+00  .178E+00  .179E+00  .208E+00  .242E+00  .259E+00
  .257E+00  .194E+00  .183E+00  .190E+00  .204E+00  .206E+00  .187E+00  .148E+00
  .141E+00  .142E+00  .144E+00  .144E+00  .138E+00  .127E+00  .125E+00  .126E+00
  .122E+00  .119E+00  .118E+00  .119E+00  .119E+00  .116E+00  .114E+00  .113E+00
  .113E+00  .112E+00  .111E+00  .111E+00  .110E+00  .110E+00  .110E+00  .110E+00
  .109E+00  .109E+00  .108E+00  .108E+00  .107E+00  .107E+00  .000E+00  .000E+00
  .000E+00  .000E+00  .000E+00  .000E+00  .000E+00  .000E+00  .000E+00  .000E+00
  .000E+00  .000E+00  .000E+00  .000E+00  .000E+00  .000E+00  .000E+00  .000E+00
  .000E+00  .000E+00  .000E+00  .000E+00
  .123E-01  .124E-01  .125E-01  .126E-01  .129E-01  .130E-01  .139E-01  .166E-01
  .180E-01  .199E-01  .253E-01  .278E-01  .275E-01  .263E-01  .289E-01  .366E-01
  .418E-01  .361E-01  .353E-01  .458E-01  .446E-01  .326E-01  .292E-01  .284E-01
  .256E-01  .213E-01  .171E-01  .144E-01  .983E-02  .892E-02  .838E-02  .761E-02
  .696E-02  .650E-02  .599E-02  .633E-02  .600E-02  .578E-02  .564E-02  .547E-02
  .576E-02  .564E-02  .457E-02  .418E-02  .368E-02  .359E-02  .273E-02  .194E-02
  .160E-02  .142E-02  .141E-02  .112E-02  .981E-03  .810E-03  .641E-03  .538E-03
  .500E-03  .420E-03  .350E-03  .304E-03  .276E-03  .208E-03  .172E-03  .152E-03
  .131E-03  .110E-03  .987E-04  .881E-04  .795E-04  .727E-04  .673E-04  .629E-04
  .590E-04  .555E-04  .522E-04  .490E-04  .419E-04  .361E-04  .000E+00  .000E+00
  .000E+00  .000E+00  .000E+00  .000E+00  .000E+00  .000E+00  .000E+00  .000E+00
  .000E+00  .000E+00  .000E+00  .000E+00  .000E+00  .000E+00  .000E+00  .000E+00
  .000E+00  .000E+00  .000E+00  .000E+00
  .301E-01  .320E-01  .336E-01  .353E-01  .379E-01  .399E-01  .467E-01  .616E-01
  .720E-01  .861E-01  .115E+00  .135E+00  .143E+00  .145E+00  .167E+00  .227E+00
  .276E+00  .264E+00  .279E+00  .391E+00  .412E+00  .320E+00  .300E+00  .316E+00
  .293E+00  .262E+00  .224E+00  .213E+00  .157E+00  .150E+00  .156E+00  .151E+00
  .145E+00  .141E+00  .137E+00  .155E+00  .154E+00  .152E+00  .158E+00  .161E+00
  .175E+00  .188E+00  .166E+00  .163E+00  .157E+00  .165E+00  .133E+00  .101E+00
  .877E-01  .816E-01  .859E-01  .751E-01  .712E-01  .630E-01  .540E-01  .479E-01
  .471E-01  .417E-01  .363E-01  .324E-01  .306E-01  .246E-01  .215E-01  .203E-01
  .183E-01  .176E-01  .167E-01  .157E-01  .148E-01  .141E-01  .136E-01  .132E-01
  .129E-01  .125E-01  .122E-01  .118E-01  .107E-01  .978E-02  .000E+00  .000E+00
  .000E+00  .000E+00  .000E+00  .000E+00  .000E+00  .000E+00  .000E+00  .000E+00
  .000E+00  .000E+00  .000E+00  .000E+00  .000E+00  .000E+00  .000E+00  .000E+00
  .000E+00  .000E+00  .000E+00  .000E+00
  .314E+02  .314E+02  .314E+02  .314E+02  .319E+02  .319E+02  .316E+02  .319E+02
  .319E+02  .314E+02  .316E+02  .318E+02  .318E+02  .314E+02  .319E+02  .319E+02
  .319E+02  .317E+02  .317E+02  .319E+02  .320E+02  .320E+02  .320E+02  .320E+02
  .319E+02  .319E+02  .319E+02  .318E+02  .318E+02  .340E+02  .314E+02  .316E+02
  .316E+02  .353E+02  .355E+02  .343E+02  .341E+02  .318E+02  .314E+02  .314E+02
  .317E+02  .318E+02  .318E+02  .318E+02  .336E+02  .349E+02  .346E+02  .346E+02
  .376E+02  .347E+02  .347E+02  .410E+02  .335E+02  .335E+02  .335E+02  .331E+02
  .331E+02  .331E+02  .331E+02  .317E+02  .317E+02  .317E+02  .317E+02  .317E+02
  .317E+02  .313E+02  .313E+02  .313E+02  .313E+02  .313E+02  .313E+02  .313E+02
  .313E+02  .313E+02  .313E+02  .313E+02  .313E+02  .313E+02  .000E+00  .000E+00
  .000E+00  .000E+00  .000E+00  .000E+00  .000E+00  .000E+00  .000E+00  .000E+00
  .000E+00  .000E+00  .000E+00  .000E+00  .000E+00  .000E+00  .000E+00  .000E+00
  .000E+00  .000E+00  .000E+00  .000E+00
  .319E+02  .319E+02  .319E+02  .319E+02  .319E+02  .316E+02  .244E+02  .319E+02
  .316E+02  .314E+02  .316E+02  .316E+02  .318E+02  .315E+02  .315E+02  .319E+02
  .320E+02  .316E+02  .317E+02  .320E+02  .319E+02  .319E+02  .319E+02  .319E+02
  .319E+02  .319E+02  .319E+02  .319E+02  .318E+02  .316E+02  .316E+02  .316E+02
  .319E+02  .319E+02  .319E+02  .342E+02  .318E+02  .318E+02  .318E+02  .318E+02
  .318E+02  .318E+02  .319E+02  .319E+02  .314E+02  .314E+02  .314E+02  .314E+02
  .314E+02  .314E+02  .319E+02  .319E+02  .319E+02  .319E+02  .319E+02  .319E+02
  .319E+02  .314E+02  .314E+02  .314E+02  .314E+02  .314E+02  .314E+02  .314E+02
  .314E+02  .314E+02  .314E+02  .314E+02  .314E+02  .314E+02  .314E+02  .314E+02
  .314E+02  .314E+02  .314E+02  .314E+02  .314E+02  .314E+02  .000E+00  .000E+00
  .000E+00  .000E+00  .000E+00  .000E+00  .000E+00  .000E+00  .000E+00  .000E+00
  .000E+00  .000E+00  .000E+00  .000E+00  .000E+00  .000E+00  .000E+00  .000E+00
  .000E+00  .000E+00  .000E+00  .000E+00
  .314E+02  .314E+02  .314E+02  .314E+02  .319E+02  .319E+02  .316E+02  .319E+02
  .319E+02  .314E+02  .316E+02  .318E+02  .318E+02  .314E+02  .319E+02  .319E+02
  .319E+02  .317E+02  .317E+02  .319E+02  .319E+02  .320E+02  .320E+02  .320E+02
  .319E+02  .319E+02  .319E+02  .318E+02  .317E+02  .340E+02  .314E+02  .314E+02
  .316E+02  .355E+02  .316E+02  .343E+02  .341E+02  .318E+02  .314E+02  .314E+02
  .317E+02  .317E+02  .318E+02  .318E+02  .336E+02  .349E+02  .346E+02  .346E+02
  .376E+02  .346E+02  .346E+02  .410E+02  .334E+02  .335E+02  .335E+02  .331E+02
  .331E+02  .331E+02  .331E+02  .316E+02  .316E+02  .316E+02  .316E+02  .316E+02
  .316E+02  .316E+02  .313E+02  .313E+02  .313E+02  .313E+02  .313E+02  .313E+02
  .313E+02  .313E+02  .313E+02  .313E+02  .313E+02  .313E+02  .000E+00  .000E+00
  .000E+00  .000E+00  .000E+00  .000E+00  .000E+00  .000E+00  .000E+00  .000E+00
  .000E+00  .000E+00  .000E+00  .000E+00  .000E+00  .000E+00  .000E+00  .000E+00
  .000E+00  .000E+00  .000E+00  .000E+00
/&   ----------  End of spectral data for channel  1  ----------
Response and Fourier amplitude spectra (78 periods,  .04 -  6.0 sec)   for      
Corrected accelerogram   38695658.CI.SLM.--.HN      Chan  2: 360 Deg     from   
Uncorrected Accelerogram Data             Processed: 09/19/20, CGS  cislm--a    
Rcrd of Fri Sep 18, 2020 23:38:33.0 PDT               (Avol1 v2.0, 4/18 CSMIP)  
                                        (Origin:  To be determined)             
38695658.CI.SLM.--.HN                Start time:  9/19/20, 06:38:33.0 UTC (GPS) 
Station Id. SLM     34.452N, 118.423W    ObsMMS  s/n 1844  (3 Chns of  6 at Sta)
Solemint                                 SCSN   Data: Acceleration              
Chan  2: 360 Deg                                                                
Rcrd of Fri Sep 18, 2020 23:38:33.0 PDT    Fri Sep 18, 2020 23:38:33.0 PDT      
Hypocenter:  To be determined.               ML:  To be determined.             
Instr Period =  .0050 sec,  Damping =  .707,  Sensitivity = 4.99 v/g  (Nominal) 
                        Record Length =301.000 sec.                             
                                     Uncor Max  =   .009 g, at   31.880 sec.    
RMS accel of (uncor) record  =        .   Chn. metadata effective date:         
Accelerogram bandpass filtered with 3 dB pts at   .30 and 23.00 cyc/sec         
                 instrument- and base-line correcte                             
                                                                                
                                                                                
                                                                                
                                                                                
                                                                                
Rcrd of Fri Sep 18, 2020 23:38:33.0 PDT    Fri Sep 18, 2020 23:38:33.0 PDT      
                                                                                
38695658.CI.SLM.--.HN     Solemint    Chan  2: 360 Deg                          
                                                                                
38695658.CI.SLM.--.HN     Solemint    Chan  2: 360 Deg                          
                                                                                
Units for spectra are inches and sec, except Sa is in fraction of g.            
                                                                                
    2  100    2    6    6  100 -999    3    1    0   15 1844    0    0   41    0
    6   38   33   10  263    9   19 2020   10    3  36035688   39    8   74 -999
35688 -999  100    6 -999 -999 -999 -999 -999 -999 -999 -999 -999 -999 -999 -999
 -999 -999 -999 -99915050    2 -999    0 -999   20 -999 -999    3    1 -99915050
    315050    4   78    1    3    5    0    0 -999    0 -999 -999    6 -999    2
    2    2    4 -999 -999 -999 -999 -999 -999 -999 -999    1 -999 -999 -999  111
    1    1 -999 -999
      .005      .707   356.880      .000     1.000  4992.468      .009    31.880
   200.000     2.384      .478  -999.000    10.000  -999.000     4.000  -999.000
    20.000    -4.754      .000  -999.000  -999.000  -999.000  -999.000     -.001
      .000      .001     2.000    15.000    34.452  -118.423      .005      .012
     2.509      .000      .002   523.000  -999.000  -999.000  -999.000  -999.000
     1.000  -999.000  -999.000  -999.000  -999.000  -999.000  -999.000   120.000
     -.900     2.000     6.800   980.665      .020   301.000    31.831      .000
  -999.000    23.000  -999.000   301.000      .020      .300  -999.000  -999.000
    31.880     9.144    30.980     -.229    31.400      .016      .000      .300
    23.000      .020      .020      .000      .020      .010  -999.000  -999.000
      .033      .150      .015      .007      .001      .000  -999.000  -999.000
  -999.000  -999.000  -999.000  -999.000  -999.000  -999.000  -999.000  -999.000
  -999.000  -999.000  -999.000  -999.000
      .050
      .040      .042      .044      .046      .048      .050      .055      .060
      .065      .070      .075      .080      .085      .090      .095      .100
      .110      .120      .130      .140      .150      .160      .170      .180
      .190      .200      .220      .240      .260      .280      .300      .320
      .340      .360      .380      .400      .420      .440      .460      .480
      .500      .550      .600      .650      .700      .750      .800      .850
      .900      .950     1.000     1.100     1.200     1.300     1.400     1.500
     1.600     1.700     1.800     1.900     2.000     2.200     2.400     2.600
     2.800     3.000     3.200     3.400     3.600     3.800     4.000     4.200
     4.400     4.600     4.800     5.000     5.500     6.000      .000      .000
      .000      .000      .000      .000      .000      .000      .000      .000
      .000      .000      .000      .000      .000      .000      .000      .000
      .000      .000      .000      .000
Fourier amplitude spectra in in/sec.
  .000E+00  .000E+00  .000E+00  .000E+00  .000E+00  .000E+00  .000E+00  .000E+00
  .000E+00  .000E+00  .000E+00  .000E+00  .000E+00  .000E+00  .000E+00  .000E+00
  .000E+00  .000E+00  .000E+00  .000E+00  .000E+00  .000E+00  .000E+00  .000E+00
  .000E+00  .000E+00  .000E+00  .000E+00  .000E+00  .000E+00  .000E+00  .000E+00
  .000E+00  .000E+00  .000E+00  .000E+00  .000E+00  .000E+00  .000E+00  .000E+00
  .000E+00  .000E+00  .000E+00  .000E+00  .000E+00  .000E+00  .000E+00  .000E+00
  .000E+00  .000E+00  .000E+00  .000E+00  .000E+00  .000E+00  .000E+00  .000E+00
  .000E+00  .000E+00  .000E+00  .000E+00  .000E+00  .000E+00  .000E+00  .000E+00
  .000E+00  .000E+00  .000E+00  .000E+00  .000E+00  .000E+00  .000E+00  .000E+00
  .000E+00  .000E+00  .000E+00  .000E+00  .000E+00  .000E+00  .000E+00  .000E+00
  .000E+00  .000E+00  .000E+00  .000E+00  .000E+00  .000E+00  .000E+00  .000E+00
  .000E+00  .000E+00  .000E+00  .000E+00  .000E+00  .000E+00  .000E+00  .000E+00
  .000E+00  .000E+00  .000E+00  .000E+00
Damping =  .05. Data of Sd,Sv,Sa,Pssv,ttSd,ttSv,ttSa :
  .155E-03  .176E-03  .203E-03  .225E-03  .257E-03  .299E-03  .441E-03  .642E-03
  .824E-03  .108E-02  .173E-02  .196E-02  .200E-02  .196E-02  .233E-02  .288E-02
  .381E-02  .340E-02  .359E-02  .495E-02  .710E-02  .792E-02  .739E-02  .686E-02
  .603E-02  .618E-02  .547E-02  .542E-02  .564E-02  .561E-02  .604E-02  .646E-02
  .709E-02  .879E-02  .924E-02  .921E-02  .112E-01  .145E-01  .152E-01  .133E-01
