Response and Fourier amplitude spectra (78 periods,  .04 -  6.0 sec)   for      
Corrected accelerogram   38695658.CI.SMT.--.HN      Chan  1:  90 Deg     from   
Uncorrected Accelerogram Data             Processed: 09/19/20, CGS  cismt--s    
Rcrd of Fri Sep 18, 2020 23:38:40.0 PDT               (Avol1 v2.0, 4/18 CSMIP)  
                                        (Origin:  To be determined)             
38695658.CI.SMT.--.HN                Start time:  9/19/20, 06:38:40.0 UTC (GPS) 
Station Id. SMT     34.334N, 119.014W    ObsMMS  s/n 1931  (3 Chns of  6 at Sta)
South Mountain                           SCSN   Data: Acceleration              
Chan  1:  90 Deg                                                                
Rcrd of Fri Sep 18, 2020 23:38:40.0 PDT    Fri Sep 18, 2020 23:38:40.0 PDT      
Hypocenter:  To be determined.               ML:  To be determined.             
Instr Period =  .0050 sec,  Damping =  .707,  Sensitivity = 4.99 v/g  (Nominal) 
                        Record Length =301.000 sec.                             
                                     Uncor Max  =   .005 g, at   39.520 sec.    
RMS accel of (uncor) record  =        .   Chn. metadata effective date:         
Accelerogram bandpass filtered with 3 dB pts at   .30 and 23.00 cyc/sec         
                 instrument- and base-line correcte                             
                                                                                
                                                                                
                                                                                
                                                                                
                                                                                
Rcrd of Fri Sep 18, 2020 23:38:40.0 PDT    Fri Sep 18, 2020 23:38:40.0 PDT      
                                                                                
38695658.CI.SMT.--.HN     South Mountain    Chan  1:  90 Deg                    
                                                                                
38695658.CI.SMT.--.HN     South Mountain    Chan  1:  90 Deg                    
                                                                                
Units for spectra are inches and sec, except Sa is in fraction of g.            
                                                                                
    1  100    1    6    6  100 -999    3    1    0   15 1931    0    0   41    0
    6   38   40    0  263    9   19 2020   10    3   9035460   39   14   74 -999
35460 -999  100    6 -999 -999 -999 -999 -999 -999 -999 -999 -999 -999 -999 -999
 -999 -999 -999 -99915050    2 -999    0 -999   20 -999 -999    3    1 -99915050
    315050    4   78    1    3    5    0    0 -999    0 -999 -999    6 -999    2
    2    2    4 -999 -999 -999 -999 -999 -999 -999 -999    1 -999 -999 -999  111
    1    1 -999 -999
      .005      .707   354.600      .000     1.000  4987.482      .005    39.520
   200.000     2.384      .478  -999.000    10.000  -999.000     4.000  -999.000
    20.000    -9.986      .000  -999.000  -999.000  -999.000  -999.000      .003
     -.009     -.012     2.000    15.000    34.334  -119.014      .029      .004
      .150     -.017     -.007   683.000  -999.000  -999.000  -999.000  -999.000
     1.000  -999.000    -8.000  -999.000  -999.000  -999.000  -999.000   120.000
     -.900     2.000     6.800   980.665      .020   301.000    31.831      .001
  -999.000    23.000  -999.000   301.000      .020      .300  -999.000  -999.000
    39.520     4.614    39.600      .365    39.480     -.033      .000      .300
    23.000      .020      .020      .000      .020      .028  -999.000  -999.000
      .017      .420      .010      .013      .003      .000  -999.000  -999.000
  -999.000  -999.000  -999.000  -999.000  -999.000  -999.000  -999.000  -999.000
  -999.000  -999.000  -999.000  -999.000
      .050
      .040      .042      .044      .046      .048      .050      .055      .060
      .065      .070      .075      .080      .085      .090      .095      .100
      .110      .120      .130      .140      .150      .160      .170      .180
      .190      .200      .220      .240      .260      .280      .300      .320
      .340      .360      .380      .400      .420      .440      .460      .480
      .500      .550      .600      .650      .700      .750      .800      .850
      .900      .950     1.000     1.100     1.200     1.300     1.400     1.500
     1.600     1.700     1.800     1.900     2.000     2.200     2.400     2.600
     2.800     3.000     3.200     3.400     3.600     3.800     4.000     4.200
     4.400     4.600     4.800     5.000     5.500     6.000      .000      .000
      .000      .000      .000      .000      .000      .000      .000      .000
      .000      .000      .000      .000      .000      .000      .000      .000
      .000      .000      .000      .000
Fourier amplitude spectra in in/sec.
  .000E+00  .000E+00  .000E+00  .000E+00  .000E+00  .000E+00  .000E+00  .000E+00
  .000E+00  .000E+00  .000E+00  .000E+00  .000E+00  .000E+00  .000E+00  .000E+00
  .000E+00  .000E+00  .000E+00  .000E+00  .000E+00  .000E+00  .000E+00  .000E+00
  .000E+00  .000E+00  .000E+00  .000E+00  .000E+00  .000E+00  .000E+00  .000E+00
  .000E+00  .000E+00  .000E+00  .000E+00  .000E+00  .000E+00  .000E+00  .000E+00
  .000E+00  .000E+00  .000E+00  .000E+00  .000E+00  .000E+00  .000E+00  .000E+00
  .000E+00  .000E+00  .000E+00  .000E+00  .000E+00  .000E+00  .000E+00  .000E+00
  .000E+00  .000E+00  .000E+00  .000E+00  .000E+00  .000E+00  .000E+00  .000E+00
  .000E+00  .000E+00  .000E+00  .000E+00  .000E+00  .000E+00  .000E+00  .000E+00
  .000E+00  .000E+00  .000E+00  .000E+00  .000E+00  .000E+00  .000E+00  .000E+00
  .000E+00  .000E+00  .000E+00  .000E+00  .000E+00  .000E+00  .000E+00  .000E+00
  .000E+00  .000E+00  .000E+00  .000E+00  .000E+00  .000E+00  .000E+00  .000E+00
  .000E+00  .000E+00  .000E+00  .000E+00
Damping =  .05. Data of Sd,Sv,Sa,Pssv,ttSd,ttSv,ttSa :
  .750E-04  .830E-04  .916E-04  .101E-03  .111E-03  .122E-03  .144E-03  .171E-03
  .205E-03  .242E-03  .284E-03  .333E-03  .380E-03  .444E-03  .486E-03  .549E-03
  .683E-03  .918E-03  .104E-02  .131E-02  .143E-02  .178E-02  .202E-02  .225E-02
  .296E-02  .352E-02  .591E-02  .852E-02  .974E-02  .108E-01  .109E-01  .115E-01
  .125E-01  .164E-01  .222E-01  .248E-01  .290E-01  .289E-01  .269E-01  .281E-01
  .342E-01  .488E-01  .404E-01  .384E-01  .371E-01  .360E-01  .357E-01  .376E-01
  .317E-01  .294E-01  .287E-01  .399E-01  .369E-01  .277E-01  .245E-01  .238E-01
  .211E-01  .216E-01  .221E-01  .189E-01  .182E-01  .162E-01  .157E-01  .152E-01
  .122E-01  .126E-01  .127E-01  .124E-01  .124E-01  .128E-01  .130E-01  .131E-01
  .132E-01  .132E-01  .133E-01  .132E-01  .131E-01  .130E-01  .000E+00  .000E+00
  .000E+00  .000E+00  .000E+00  .000E+00  .000E+00  .000E+00  .000E+00  .000E+00
  .000E+00  .000E+00  .000E+00  .000E+00  .000E+00  .000E+00  .000E+00  .000E+00
  .000E+00  .000E+00  .000E+00  .000E+00
  .125E-02  .137E-02  .153E-02  .171E-02  .197E-02  .226E-02  .265E-02  .299E-02
  .345E-02  .426E-02  .535E-02  .662E-02  .790E-02  .101E-01  .123E-01  .143E-01
  .170E-01  .242E-01  .280E-01  .360E-01  .395E-01  .503E-01  .562E-01  .648E-01
  .690E-01  .927E-01  .151E+00  .211E+00  .220E+00  .206E+00  .217E+00  .200E+00
  .208E+00  .272E+00  .361E+00  .377E+00  .390E+00  .393E+00  .354E+00  .363E+00
  .418E+00  .580E+00  .418E+00  .387E+00  .336E+00  .339E+00  .328E+00  .324E+00
  .286E+00  .246E+00  .223E+00  .268E+00  .226E+00  .218E+00  .198E+00  .187E+00
  .183E+00  .176E+00  .170E+00  .167E+00  .165E+00  .156E+00  .149E+00  .147E+00
  .148E+00  .149E+00  .150E+00  .150E+00  .150E+00  .149E+00  .149E+00  .148E+00
  .148E+00  .147E+00  .147E+00  .146E+00  .146E+00  .145E+00  .000E+00  .000E+00
  .000E+00  .000E+00  .000E+00  .000E+00  .000E+00  .000E+00  .000E+00  .000E+00
  .000E+00  .000E+00  .000E+00  .000E+00  .000E+00  .000E+00  .000E+00  .000E+00
  .000E+00  .000E+00  .000E+00  .000E+00
  .480E-02  .481E-02  .484E-02  .488E-02  .493E-02  .498E-02  .486E-02  .486E-02
  .497E-02  .504E-02  .516E-02  .534E-02  .540E-02  .559E-02  .552E-02  .566E-02
  .578E-02  .654E-02  .634E-02  .681E-02  .653E-02  .711E-02  .715E-02  .713E-02
  .839E-02  .918E-02  .126E-01  .151E-01  .146E-01  .140E-01  .126E-01  .115E-01
  .111E-01  .128E-01  .159E-01  .160E-01  .169E-01  .153E-01  .130E-01  .125E-01
  .140E-01  .166E-01  .116E-01  .938E-02  .777E-02  .660E-02  .573E-02  .535E-02
  .403E-02  .336E-02  .296E-02  .340E-02  .264E-02  .169E-02  .130E-02  .110E-02
  .859E-03  .780E-03  .710E-03  .550E-03  .479E-03  .354E-03  .290E-03  .238E-03
  .175E-03  .162E-03  .146E-03  .129E-03  .113E-03  .101E-03  .916E-04  .846E-04
  .781E-04  .721E-04  .668E-04  .620E-04  .525E-04  .466E-04  .000E+00  .000E+00
  .000E+00  .000E+00  .000E+00  .000E+00  .000E+00  .000E+00  .000E+00  .000E+00
  .000E+00  .000E+00  .000E+00  .000E+00  .000E+00  .000E+00  .000E+00  .000E+00
  .000E+00  .000E+00  .000E+00  .000E+00
  .118E-01  .124E-01  .131E-01  .138E-01  .145E-01  .153E-01  .164E-01  .179E-01
  .199E-01  .217E-01  .238E-01  .262E-01  .281E-01  .310E-01  .322E-01  .345E-01
  .390E-01  .480E-01  .503E-01  .586E-01  .599E-01  .699E-01  .745E-01  .785E-01
  .978E-01  .111E+00  .169E+00  .223E+00  .235E+00  .242E+00  .229E+00  .225E+00
  .231E+00  .286E+00  .367E+00  .389E+00  .435E+00  .413E+00  .367E+00  .368E+00
  .429E+00  .558E+00  .424E+00  .371E+00  .333E+00  .302E+00  .280E+00  .278E+00
  .221E+00  .195E+00  .180E+00  .228E+00  .193E+00  .134E+00  .110E+00  .997E-01
  .829E-01  .800E-01  .772E-01  .627E-01  .571E-01  .463E-01  .410E-01  .367E-01
  .274E-01  .263E-01  .250E-01  .229E-01  .217E-01  .211E-01  .204E-01  .196E-01
  .189E-01  .181E-01  .174E-01  .166E-01  .150E-01  .136E-01  .000E+00  .000E+00
  .000E+00  .000E+00  .000E+00  .000E+00  .000E+00  .000E+00  .000E+00  .000E+00
  .000E+00  .000E+00  .000E+00  .000E+00  .000E+00  .000E+00  .000E+00  .000E+00
  .000E+00  .000E+00  .000E+00  .000E+00
  .395E+02  .395E+02  .395E+02  .395E+02  .395E+02  .395E+02  .395E+02  .395E+02
  .395E+02  .395E+02  .395E+02  .395E+02  .395E+02  .395E+02  .395E+02  .379E+02
  .395E+02  .395E+02  .395E+02  .395E+02  .395E+02  .395E+02  .418E+02  .418E+02
  .392E+02  .418E+02  .421E+02  .422E+02  .423E+02  .398E+02  .394E+02  .381E+02
  .381E+02  .394E+02  .394E+02  .395E+02  .398E+02  .400E+02  .400E+02  .382E+02
  .401E+02  .399E+02  .477E+02  .478E+02  .399E+02  .400E+02  .424E+02  .397E+02
  .397E+02  .488E+02  .457E+02  .457E+02  .454E+02  .454E+02  .450E+02  .450E+02
  .450E+02  .503E+02  .503E+02  .450E+02  .450E+02  .395E+02  .450E+02  .614E+02
  .614E+02  .397E+02  .397E+02  .397E+02  .395E+02  .395E+02  .395E+02  .395E+02
  .395E+02  .395E+02  .395E+02  .395E+02  .395E+02  .395E+02  .000E+00  .000E+00
  .000E+00  .000E+00  .000E+00  .000E+00  .000E+00  .000E+00  .000E+00  .000E+00
  .000E+00  .000E+00  .000E+00  .000E+00  .000E+00  .000E+00  .000E+00  .000E+00
  .000E+00  .000E+00  .000E+00  .000E+00
  .379E+02  .379E+02  .379E+02  .379E+02  .379E+02  .379E+02  .395E+02  .379E+02
  .395E+02  .395E+02  .391E+02  .395E+02  .395E+02  .396E+02  .396E+02  .379E+02
  .379E+02  .396E+02  .396E+02  .396E+02  .396E+02  .396E+02  .396E+02  .396E+02
  .419E+02  .419E+02  .421E+02  .422E+02  .422E+02  .398E+02  .393E+02  .381E+02
  .383E+02  .393E+02  .393E+02  .394E+02  .399E+02  .401E+02  .402E+02  .383E+02
  .402E+02  .400E+02  .478E+02  .379E+02  .398E+02  .398E+02  .398E+02  .398E+02
  .396E+02  .396E+02  .396E+02  .456E+02  .396E+02  .396E+02  .396E+02  .396E+02
  .396E+02  .396E+02  .396E+02  .396E+02  .396E+02  .396E+02  .396E+02  .396E+02
  .396E+02  .396E+02  .396E+02  .396E+02  .396E+02  .396E+02  .396E+02  .396E+02
  .396E+02  .396E+02  .396E+02  .396E+02  .396E+02  .396E+02  .000E+00  .000E+00
  .000E+00  .000E+00  .000E+00  .000E+00  .000E+00  .000E+00  .000E+00  .000E+00
  .000E+00  .000E+00  .000E+00  .000E+00  .000E+00  .000E+00  .000E+00  .000E+00
  .000E+00  .000E+00  .000E+00  .000E+00
  .395E+02  .395E+02  .395E+02  .395E+02  .395E+02  .395E+02  .395E+02  .395E+02
  .395E+02  .395E+02  .395E+02  .395E+02  .395E+02  .395E+02  .395E+02  .379E+02
  .395E+02  .395E+02  .395E+02  .395E+02  .395E+02  .395E+02  .418E+02  .418E+02
  .392E+02  .418E+02  .421E+02  .422E+02  .422E+02  .397E+02  .394E+02  .381E+02
  .381E+02  .394E+02  .394E+02  .395E+02  .398E+02  .400E+02  .400E+02  .381E+02
  .400E+02  .399E+02  .477E+02  .477E+02  .399E+02  .399E+02  .424E+02  .397E+02
  .397E+02  .488E+02  .457E+02  .457E+02  .454E+02  .454E+02  .449E+02  .450E+02
  .450E+02  .502E+02  .503E+02  .450E+02  .450E+02  .394E+02  .450E+02  .613E+02
  .397E+02  .397E+02  .397E+02  .397E+02  .397E+02  .397E+02  .394E+02  .394E+02
  .394E+02  .394E+02  .394E+02  .394E+02  .396E+02  .396E+02  .000E+00  .000E+00
  .000E+00  .000E+00  .000E+00  .000E+00  .000E+00  .000E+00  .000E+00  .000E+00
  .000E+00  .000E+00  .000E+00  .000E+00  .000E+00  .000E+00  .000E+00  .000E+00
  .000E+00  .000E+00  .000E+00  .000E+00
/&   ----------  End of spectral data for channel  1  ----------
Response and Fourier amplitude spectra (78 periods,  .04 -  6.0 sec)   for      
Corrected accelerogram   38695658.CI.SMT.--.HN      Chan  2: 360 Deg     from   
Uncorrected Accelerogram Data             Processed: 09/19/20, CGS  cismt--s    
Rcrd of Fri Sep 18, 2020 23:38:40.0 PDT               (Avol1 v2.0, 4/18 CSMIP)  
                                        (Origin:  To be determined)             
38695658.CI.SMT.--.HN                Start time:  9/19/20, 06:38:40.0 UTC (GPS) 
Station Id. SMT     34.334N, 119.014W    ObsMMS  s/n 1931  (3 Chns of  6 at Sta)
South Mountain                           SCSN   Data: Acceleration              
Chan  2: 360 Deg                                                                
Rcrd of Fri Sep 18, 2020 23:38:40.0 PDT    Fri Sep 18, 2020 23:38:40.0 PDT      
Hypocenter:  To be determined.               ML:  To be determined.             
Instr Period =  .0050 sec,  Damping =  .707,  Sensitivity = 4.98 v/g  (Nominal) 
                        Record Length =301.000 sec.                             
                                     Uncor Max  =   .006 g, at   38.740 sec.    
RMS accel of (uncor) record  =        .   Chn. metadata effective date:         
Accelerogram bandpass filtered with 3 dB pts at   .30 and 23.00 cyc/sec         
                 instrument- and base-line correcte                             
                                                                                
                                                                                
                                                                                
                                                                                
                                                                                
Rcrd of Fri Sep 18, 2020 23:38:40.0 PDT    Fri Sep 18, 2020 23:38:40.0 PDT      
                                                                                
38695658.CI.SMT.--.HN     South Mountain    Chan  2: 360 Deg                    
                                                                                
38695658.CI.SMT.--.HN     South Mountain    Chan  2: 360 Deg                    
                                                                                
Units for spectra are inches and sec, except Sa is in fraction of g.            
                                                                                
    2  100    2    6    6  100 -999    3    1    0   15 1931    0    0   41    0
    6   38   40    0  263    9   19 2020   10    3  36035603   39   14   74 -999
35603 -999  100    6 -999 -999 -999 -999 -999 -999 -999 -999 -999 -999 -999 -999
 -999 -999 -999 -99915050    2 -999    0 -999   20 -999 -999    3    1 -99915050
    315050    4   78    1    3    5    0    0 -999    0 -999 -999    6 -999    2
    2    2    4 -999 -999 -999 -999 -999 -999 -999 -999    1 -999 -999 -999  111
    1    1 -999 -999
      .005      .707   356.030      .000     1.000  4984.489      .006    38.740
   200.000     2.384      .478  -999.000    10.000  -999.000     4.000  -999.000
    20.000   -13.443      .000  -999.000  -999.000  -999.000  -999.000      .002
      .004      .002     2.000    15.000    34.334  -119.014      .044      .005
      .114     -.006      .010   683.000  -999.000  -999.000  -999.000  -999.000
     1.000  -999.000  -999.000  -999.000  -999.000  -999.000  -999.000   120.000
     -.900     2.000     6.800   980.665      .020   301.000    31.831      .000
  -999.000    23.000  -999.000   301.000      .020      .300  -999.000  -999.000
    38.740     5.809    39.940     -.409    40.100     -.035      .000      .300
    23.000      .020      .020      .000      .020      .032  -999.000  -999.000
      .022      .240      .015      .020      .004      .000  -999.000  -999.000
  -999.000  -999.000  -999.000  -999.000  -999.000  -999.000  -999.000  -999.000
  -999.000  -999.000  -999.000  -999.000
      .050
      .040      .042      .044      .046      .048      .050      .055      .060
      .065      .070      .075      .080      .085      .090      .095      .100
      .110      .120      .130      .140      .150      .160      .170      .180
      .190      .200      .220      .240      .260      .280      .300      .320
      .340      .360      .380      .400      .420      .440      .460      .480
      .500      .550      .600      .650      .700      .750      .800      .850
      .900      .950     1.000     1.100     1.200     1.300     1.400     1.500
     1.600     1.700     1.800     1.900     2.000     2.200     2.400     2.600
     2.800     3.000     3.200     3.400     3.600     3.800     4.000     4.200
     4.400     4.600     4.800     5.000     5.500     6.000      .000      .000
      .000      .000      .000      .000      .000      .000      .000      .000
      .000      .000      .000      .000      .000      .000      .000      .000
      .000      .000      .000      .000
Fourier amplitude spectra in in/sec.
  .000E+00  .000E+00  .000E+00  .000E+00  .000E+00  .000E+00  .000E+00  .000E+00
  .000E+00  .000E+00  .000E+00  .000E+00  .000E+00  .000E+00  .000E+00  .000E+00
  .000E+00  .000E+00  .000E+00  .000E+00  .000E+00  .000E+00  .000E+00  .000E+00
  .000E+00  .000E+00  .000E+00  .000E+00  .000E+00  .000E+00  .000E+00  .000E+00
  .000E+00  .000E+00  .000E+00  .000E+00  .000E+00  .000E+00  .000E+00  .000E+00
  .000E+00  .000E+00  .000E+00  .000E+00  .000E+00  .000E+00  .000E+00  .000E+00
  .000E+00  .000E+00  .000E+00  .000E+00  .000E+00  .000E+00  .000E+00  .000E+00
  .000E+00  .000E+00  .000E+00  .000E+00  .000E+00  .000E+00  .000E+00  .000E+00
  .000E+00  .000E+00  .000E+00  .000E+00  .000E+00  .000E+00  .000E+00  .000E+00
  .000E+00  .000E+00  .000E+00  .000E+00  .000E+00  .000E+00  .000E+00  .000E+00
  .000E+00  .000E+00  .000E+00  .000E+00  .000E+00  .000E+00  .000E+00  .000E+00
  .000E+00  .000E+00  .000E+00  .000E+00  .000E+00  .000E+00  .000E+00  .000E+00
  .000E+00  .000E+00  .000E+00  .000E+00
Damping =  .05. Data of Sd,Sv,Sa,Pssv,ttSd,ttSv,ttSa :
  .931E-04  .103E-03  .112E-03  .123E-03  .134E-03  .148E-03  .186E-03  .221E-03
  .263E-03  .307E-03  .357E-03  .418E-03  .473E-03  .526E-03  .583E-03  .626E-03
  .792E-03  .107E-02  .129E-02  .161E-02  .200E-02  .244E-02  .304E-02  .385E-02
  .470E-02  .557E-02  .816E-02  .126E-01  .144E-01  .141E-01  .190E-01  .207E-01
  .204E-01  .182E-01  .178E-01  .197E-01  .228E-01  .237E-01  .278E-01  .237E-01
