Response and Fourier amplitude spectra (78 periods,  .04 -  6.0 sec)   for      
Corrected accelerogram   38695658.CI.SMV.--.HN      Chan  1:  90 Deg     from   
Uncorrected Accelerogram Data             Processed: 09/19/20, CGS  cismv--i    
Rcrd of Fri Sep 18, 2020 23:38:34.0 PDT               (Avol1 v2.0, 4/18 CSMIP)  
                                        (Origin:  To be determined)             
38695658.CI.SMV.--.HN                Start time:  9/19/20, 06:38:34.0 UTC (GPS) 
Station Id. SMV     34.271N, 118.744W    ObsMMS  s/n 1131  (3 Chns of  6 at Sta)
Simi Valley, Los Angeles St.             SCSN   Data: Acceleration              
Chan  1:  90 Deg                                                                
Rcrd of Fri Sep 18, 2020 23:38:34.0 PDT    Fri Sep 18, 2020 23:38:34.0 PDT      
Hypocenter:  To be determined.               ML:  To be determined.             
Instr Period =  .0050 sec,  Damping =  .707,  Sensitivity = 4.99 v/g  (Nominal) 
                        Record Length =301.000 sec.                             
                                     Uncor Max  =  -.002 g, at   36.680 sec.    
RMS accel of (uncor) record  =        .   Chn. metadata effective date:         
Accelerogram bandpass filtered with 3 dB pts at   .30 and 23.00 cyc/sec         
                 instrument- and base-line correcte                             
                                                                                
                                                                                
                                                                                
                                                                                
                                                                                
Rcrd of Fri Sep 18, 2020 23:38:34.0 PDT    Fri Sep 18, 2020 23:38:34.0 PDT      
                                                                                
38695658.CI.SMV.--.HN     Simi Valley, Los Angeles St.    Chan  1:  90 Deg      
                                                                                
38695658.CI.SMV.--.HN     Simi Valley, Los Angeles St.    Chan  1:  90 Deg      
                                                                                
Units for spectra are inches and sec, except Sa is in fraction of g.            
                                                                                
    1  100    1    6    6  100 -999    3    1    0   15 1131    050510   41    0
    6   38   34   10  263    9   19 2020   10    3   9035498   39   28   74 -999
35498 -999  100    6 -999 -999 -999 -999 -999 -999 -999 -999 -999 -999 -999 -999
 -999 -999 -999 -99915050    2 -999    0 -999   20 -999 -999    3    1 -99915050
    315050    4   78    1    3    5    0    0 -999    0 -999 -999    6 -999    2
    2    2    4 -999 -999 -999 -999 -999 -999 -999 -999    1 -999 -999 -999  111
    1    1 -999 -999
      .005      .707   354.980      .000     1.000  4990.473     -.002    36.680
   200.000     2.384      .478  -999.000    10.000  -999.000     4.000  -999.000
    20.000   -18.941      .000  -999.000  -999.000  -999.000  -999.000      .000
      .000      .000     2.000    15.000    34.271  -118.744      .010      .014
     1.388     -.002      .002   276.000  -999.000  -999.000  -999.000  -999.000
     1.000  -999.000    -8.000  -999.000  -999.000  -999.000  -999.000   120.000
     -.900     2.000     6.800   980.665      .020   301.000    31.831      .000
  -999.000    23.000  -999.000   301.000      .020      .300  -999.000  -999.000
    36.680    -1.701    43.200     -.136    43.020      .017      .000      .300
    23.000      .020      .020      .000      .020      .013  -999.000  -999.000
      .008      .280      .004      .006      .003      .000  -999.000  -999.000
  -999.000  -999.000  -999.000  -999.000  -999.000  -999.000  -999.000  -999.000
  -999.000  -999.000  -999.000  -999.000
      .050
      .040      .042      .044      .046      .048      .050      .055      .060
      .065      .070      .075      .080      .085      .090      .095      .100
      .110      .120      .130      .140      .150      .160      .170      .180
      .190      .200      .220      .240      .260      .280      .300      .320
      .340      .360      .380      .400      .420      .440      .460      .480
      .500      .550      .600      .650      .700      .750      .800      .850
      .900      .950     1.000     1.100     1.200     1.300     1.400     1.500
     1.600     1.700     1.800     1.900     2.000     2.200     2.400     2.600
     2.800     3.000     3.200     3.400     3.600     3.800     4.000     4.200
     4.400     4.600     4.800     5.000     5.500     6.000      .000      .000
      .000      .000      .000      .000      .000      .000      .000      .000
      .000      .000      .000      .000      .000      .000      .000      .000
      .000      .000      .000      .000
Fourier amplitude spectra in in/sec.
  .000E+00  .000E+00  .000E+00  .000E+00  .000E+00  .000E+00  .000E+00  .000E+00
  .000E+00  .000E+00  .000E+00  .000E+00  .000E+00  .000E+00  .000E+00  .000E+00
  .000E+00  .000E+00  .000E+00  .000E+00  .000E+00  .000E+00  .000E+00  .000E+00
  .000E+00  .000E+00  .000E+00  .000E+00  .000E+00  .000E+00  .000E+00  .000E+00
  .000E+00  .000E+00  .000E+00  .000E+00  .000E+00  .000E+00  .000E+00  .000E+00
  .000E+00  .000E+00  .000E+00  .000E+00  .000E+00  .000E+00  .000E+00  .000E+00
  .000E+00  .000E+00  .000E+00  .000E+00  .000E+00  .000E+00  .000E+00  .000E+00
  .000E+00  .000E+00  .000E+00  .000E+00  .000E+00  .000E+00  .000E+00  .000E+00
  .000E+00  .000E+00  .000E+00  .000E+00  .000E+00  .000E+00  .000E+00  .000E+00
  .000E+00  .000E+00  .000E+00  .000E+00  .000E+00  .000E+00  .000E+00  .000E+00
  .000E+00  .000E+00  .000E+00  .000E+00  .000E+00  .000E+00  .000E+00  .000E+00
  .000E+00  .000E+00  .000E+00  .000E+00  .000E+00  .000E+00  .000E+00  .000E+00
  .000E+00  .000E+00  .000E+00  .000E+00
Damping =  .05. Data of Sd,Sv,Sa,Pssv,ttSd,ttSv,ttSa :
  .276E-04  .304E-04  .334E-04  .367E-04  .403E-04  .440E-04  .552E-04  .679E-04
  .866E-04  .997E-04  .114E-03  .140E-03  .177E-03  .201E-03  .210E-03  .248E-03
  .405E-03  .523E-03  .655E-03  .900E-03  .111E-02  .115E-02  .126E-02  .143E-02
  .131E-02  .142E-02  .214E-02  .304E-02  .458E-02  .620E-02  .523E-02  .416E-02
  .413E-02  .508E-02  .593E-02  .832E-02  .114E-01  .115E-01  .993E-02  .846E-02
  .783E-02  .104E-01  .137E-01  .143E-01  .148E-01  .221E-01  .320E-01  .319E-01
  .280E-01  .310E-01  .306E-01  .218E-01  .142E-01  .143E-01  .137E-01  .138E-01
  .181E-01  .168E-01  .161E-01  .116E-01  .109E-01  .132E-01  .130E-01  .104E-01
  .102E-01  .879E-02  .862E-02  .805E-02  .786E-02  .729E-02  .685E-02  .661E-02
  .655E-02  .662E-02  .668E-02  .674E-02  .682E-02  .689E-02  .000E+00  .000E+00
  .000E+00  .000E+00  .000E+00  .000E+00  .000E+00  .000E+00  .000E+00  .000E+00
  .000E+00  .000E+00  .000E+00  .000E+00  .000E+00  .000E+00  .000E+00  .000E+00
  .000E+00  .000E+00  .000E+00  .000E+00
  .844E-03  .916E-03  .100E-02  .112E-02  .123E-02  .136E-02  .175E-02  .244E-02
  .294E-02  .420E-02  .436E-02  .529E-02  .739E-02  .897E-02  .869E-02  .107E-01
  .168E-01  .217E-01  .284E-01  .369E-01  .394E-01  .393E-01  .341E-01  .374E-01
  .328E-01  .326E-01  .555E-01  .728E-01  .107E+00  .134E+00  .108E+00  .776E-01
  .843E-01  .976E-01  .996E-01  .121E+00  .164E+00  .161E+00  .133E+00  .106E+00
  .952E-01  .120E+00  .142E+00  .142E+00  .130E+00  .182E+00  .250E+00  .259E+00
  .225E+00  .222E+00  .198E+00  .153E+00  .958E-01  .106E+00  .937E-01  .887E-01
  .985E-01  .109E+00  .864E-01  .684E-01  .655E-01  .582E-01  .603E-01  .656E-01
  .616E-01  .551E-01  .559E-01  .564E-01  .552E-01  .559E-01  .562E-01  .561E-01
  .559E-01  .557E-01  .555E-01  .553E-01  .550E-01  .546E-01  .000E+00  .000E+00
  .000E+00  .000E+00  .000E+00  .000E+00  .000E+00  .000E+00  .000E+00  .000E+00
  .000E+00  .000E+00  .000E+00  .000E+00  .000E+00  .000E+00  .000E+00  .000E+00
  .000E+00  .000E+00  .000E+00  .000E+00
  .177E-02  .177E-02  .176E-02  .177E-02  .179E-02  .180E-02  .187E-02  .193E-02
  .209E-02  .209E-02  .207E-02  .223E-02  .250E-02  .255E-02  .239E-02  .256E-02
  .347E-02  .370E-02  .398E-02  .474E-02  .502E-02  .464E-02  .445E-02  .453E-02
  .371E-02  .366E-02  .456E-02  .533E-02  .700E-02  .804E-02  .590E-02  .414E-02
  .364E-02  .408E-02  .419E-02  .538E-02  .660E-02  .610E-02  .486E-02  .380E-02
  .320E-02  .355E-02  .390E-02  .348E-02  .310E-02  .404E-02  .514E-02  .453E-02
  .356E-02  .354E-02  .315E-02  .186E-02  .102E-02  .875E-03  .723E-03  .634E-03
  .730E-03  .597E-03  .513E-03  .335E-03  .284E-03  .281E-03  .235E-03  .162E-03
  .137E-03  .105E-03  .893E-04  .743E-04  .645E-04  .548E-04  .485E-04  .431E-04
  .391E-04  .359E-04  .330E-04  .307E-04  .261E-04  .225E-04  .000E+00  .000E+00
  .000E+00  .000E+00  .000E+00  .000E+00  .000E+00  .000E+00  .000E+00  .000E+00
  .000E+00  .000E+00  .000E+00  .000E+00  .000E+00  .000E+00  .000E+00  .000E+00
  .000E+00  .000E+00  .000E+00  .000E+00
  .434E-02  .455E-02  .477E-02  .501E-02  .528E-02  .553E-02  .630E-02  .711E-02
  .838E-02  .895E-02  .955E-02  .110E-01  .131E-01  .140E-01  .139E-01  .156E-01
  .231E-01  .274E-01  .317E-01  .404E-01  .464E-01  .451E-01  .466E-01  .500E-01
  .432E-01  .445E-01  .611E-01  .796E-01  .111E+00  .139E+00  .110E+00  .817E-01
  .763E-01  .886E-01  .980E-01  .131E+00  .170E+00  .165E+00  .136E+00  .111E+00
  .984E-01  .119E+00  .143E+00  .138E+00  .133E+00  .185E+00  .252E+00  .236E+00
  .196E+00  .205E+00  .192E+00  .125E+00  .743E-01  .691E-01  .615E-01  .579E-01
  .710E-01  .619E-01  .561E-01  .385E-01  .344E-01  .376E-01  .341E-01  .252E-01
  .228E-01  .184E-01  .169E-01  .149E-01  .137E-01  .121E-01  .108E-01  .988E-02
  .935E-02  .905E-02  .875E-02  .846E-02  .780E-02  .721E-02  .000E+00  .000E+00
  .000E+00  .000E+00  .000E+00  .000E+00  .000E+00  .000E+00  .000E+00  .000E+00
  .000E+00  .000E+00  .000E+00  .000E+00  .000E+00  .000E+00  .000E+00  .000E+00
  .000E+00  .000E+00  .000E+00  .000E+00
  .376E+02  .376E+02  .367E+02  .367E+02  .367E+02  .367E+02  .367E+02  .367E+02
  .367E+02  .367E+02  .376E+02  .367E+02  .377E+02  .377E+02  .344E+02  .398E+02
  .356E+02  .351E+02  .367E+02  .358E+02  .349E+02  .349E+02  .349E+02  .350E+02
  .350E+02  .349E+02  .350E+02  .352E+02  .359E+02  .361E+02  .362E+02  .438E+02
  .379E+02  .353E+02  .379E+02  .379E+02  .380E+02  .380E+02  .380E+02  .380E+02
  .438E+02  .438E+02  .381E+02  .385E+02  .449E+02  .439E+02  .439E+02  .440E+02
  .440E+02  .437E+02  .437E+02  .433E+02  .421E+02  .433E+02  .433E+02  .383E+02
  .434E+02  .429E+02  .430E+02  .430E+02  .472E+02  .531E+02  .510E+02  .511E+02
  .430E+02  .430E+02  .424E+02  .425E+02  .468E+02  .468E+02  .434E+02  .434E+02
  .430E+02  .430E+02  .430E+02  .430E+02  .430E+02  .430E+02  .000E+00  .000E+00
  .000E+00  .000E+00  .000E+00  .000E+00  .000E+00  .000E+00  .000E+00  .000E+00
  .000E+00  .000E+00  .000E+00  .000E+00  .000E+00  .000E+00  .000E+00  .000E+00
  .000E+00  .000E+00  .000E+00  .000E+00
  .349E+02  .349E+02  .354E+02  .367E+02  .367E+02  .367E+02  .349E+02  .351E+02
  .367E+02  .367E+02  .355E+02  .355E+02  .367E+02  .367E+02  .397E+02  .356E+02
  .356E+02  .351E+02  .367E+02  .368E+02  .368E+02  .368E+02  .349E+02  .349E+02
  .391E+02  .350E+02  .351E+02  .352E+02  .355E+02  .360E+02  .361E+02  .361E+02
  .354E+02  .354E+02  .353E+02  .378E+02  .379E+02  .379E+02  .379E+02  .379E+02
  .439E+02  .439E+02  .383E+02  .387E+02  .440E+02  .440E+02  .437E+02  .438E+02
  .438E+02  .438E+02  .435E+02  .431E+02  .436E+02  .436E+02  .436E+02  .436E+02
  .436E+02  .432E+02  .432E+02  .432E+02  .432E+02  .432E+02  .436E+02  .432E+02
  .432E+02  .432E+02  .436E+02  .436E+02  .436E+02  .432E+02  .432E+02  .432E+02
  .432E+02  .432E+02  .432E+02  .432E+02  .432E+02  .432E+02  .000E+00  .000E+00
  .000E+00  .000E+00  .000E+00  .000E+00  .000E+00  .000E+00  .000E+00  .000E+00
  .000E+00  .000E+00  .000E+00  .000E+00  .000E+00  .000E+00  .000E+00  .000E+00
  .000E+00  .000E+00  .000E+00  .000E+00
  .376E+02  .376E+02  .367E+02  .367E+02  .367E+02  .367E+02  .367E+02  .367E+02
  .367E+02  .367E+02  .376E+02  .367E+02  .377E+02  .377E+02  .344E+02  .398E+02
  .356E+02  .351E+02  .367E+02  .358E+02  .349E+02  .349E+02  .349E+02  .350E+02
  .350E+02  .349E+02  .351E+02  .352E+02  .359E+02  .361E+02  .362E+02  .438E+02
  .379E+02  .353E+02  .379E+02  .379E+02  .380E+02  .380E+02  .380E+02  .380E+02
  .438E+02  .438E+02  .381E+02  .385E+02  .449E+02  .438E+02  .439E+02  .440E+02
  .440E+02  .436E+02  .437E+02  .433E+02  .420E+02  .433E+02  .433E+02  .383E+02
  .433E+02  .429E+02  .430E+02  .430E+02  .472E+02  .530E+02  .510E+02  .511E+02
  .430E+02  .430E+02  .424E+02  .424E+02  .467E+02  .433E+02  .433E+02  .433E+02
  .339E+02  .339E+02  .339E+02  .429E+02  .429E+02  .429E+02  .000E+00  .000E+00
  .000E+00  .000E+00  .000E+00  .000E+00  .000E+00  .000E+00  .000E+00  .000E+00
  .000E+00  .000E+00  .000E+00  .000E+00  .000E+00  .000E+00  .000E+00  .000E+00
  .000E+00  .000E+00  .000E+00  .000E+00
/&   ----------  End of spectral data for channel  1  ----------
Response and Fourier amplitude spectra (78 periods,  .04 -  6.0 sec)   for      
Corrected accelerogram   38695658.CI.SMV.--.HN      Chan  2: 360 Deg     from   
Uncorrected Accelerogram Data             Processed: 09/19/20, CGS  cismv--i    
Rcrd of Fri Sep 18, 2020 23:38:34.0 PDT               (Avol1 v2.0, 4/18 CSMIP)  
                                        (Origin:  To be determined)             
38695658.CI.SMV.--.HN                Start time:  9/19/20, 06:38:34.0 UTC (GPS) 
Station Id. SMV     34.271N, 118.744W    ObsMMS  s/n 1131  (3 Chns of  6 at Sta)
Simi Valley, Los Angeles St.             SCSN   Data: Acceleration              
Chan  2: 360 Deg                                                                
Rcrd of Fri Sep 18, 2020 23:38:34.0 PDT    Fri Sep 18, 2020 23:38:34.0 PDT      
Hypocenter:  To be determined.               ML:  To be determined.             
Instr Period =  .0050 sec,  Damping =  .707,  Sensitivity = 4.97 v/g  (Nominal) 
                        Record Length =301.000 sec.                             
                                     Uncor Max  =   .002 g, at   38.530 sec.    
RMS accel of (uncor) record  =        .   Chn. metadata effective date:         
Accelerogram bandpass filtered with 3 dB pts at   .30 and 23.00 cyc/sec         
                 instrument- and base-line correcte                             
                                                                                
                                                                                
                                                                                
                                                                                
                                                                                
Rcrd of Fri Sep 18, 2020 23:38:34.0 PDT    Fri Sep 18, 2020 23:38:34.0 PDT      
                                                                                
38695658.CI.SMV.--.HN     Simi Valley, Los Angeles St.    Chan  2: 360 Deg      
                                                                                
38695658.CI.SMV.--.HN     Simi Valley, Los Angeles St.    Chan  2: 360 Deg      
                                                                                
Units for spectra are inches and sec, except Sa is in fraction of g.            
                                                                                
    2  100    2    6    6  100 -999    3    1    0   15 1131    050510   41    0
    6   38   34    0  263    9   19 2020   10    3  36035571   39   28   74 -999
35571 -999  100    6 -999 -999 -999 -999 -999 -999 -999 -999 -999 -999 -999 -999
 -999 -999 -999 -99915050    2 -999    0 -999   20 -999 -999    3    1 -99915050
    315050    4   78    1    3    5    0    0 -999    0 -999 -999    6 -999    2
    2    2    4 -999 -999 -999 -999 -999 -999 -999 -999    1 -999 -999 -999  111
    1    1 -999 -999
      .005      .707   355.710      .000     1.000  4973.519      .002    38.530
   200.000     2.384      .479  -999.000    10.000  -999.000     4.000  -999.000
    20.000   -10.318      .000  -999.000  -999.000  -999.000  -999.000      .000
      .000      .000     2.000    15.000    34.271  -118.744      .011      .012
     1.124     -.002      .002   276.000  -999.000  -999.000  -999.000  -999.000
     1.000  -999.000  -999.000  -999.000  -999.000  -999.000  -999.000   120.000
     -.900     2.000     6.800   980.665      .020   301.000    31.831      .000
  -999.000    23.000  -999.000   301.000      .020      .300  -999.000  -999.000
    38.520     1.765    39.780      .155    39.560     -.021      .000      .300
    23.000      .020      .020      .000      .020      .013  -999.000  -999.000
      .007      .420      .004      .005      .002      .000  -999.000  -999.000
  -999.000  -999.000  -999.000  -999.000  -999.000  -999.000  -999.000  -999.000
  -999.000  -999.000  -999.000  -999.000
      .050
      .040      .042      .044      .046      .048      .050      .055      .060
      .065      .070      .075      .080      .085      .090      .095      .100
      .110      .120      .130      .140      .150      .160      .170      .180
      .190      .200      .220      .240      .260      .280      .300      .320
      .340      .360      .380      .400      .420      .440      .460      .480
      .500      .550      .600      .650      .700      .750      .800      .850
      .900      .950     1.000     1.100     1.200     1.300     1.400     1.500
     1.600     1.700     1.800     1.900     2.000     2.200     2.400     2.600
     2.800     3.000     3.200     3.400     3.600     3.800     4.000     4.200
     4.400     4.600     4.800     5.000     5.500     6.000      .000      .000
      .000      .000      .000      .000      .000      .000      .000      .000
      .000      .000      .000      .000      .000      .000      .000      .000
      .000      .000      .000      .000
Fourier amplitude spectra in in/sec.
  .000E+00  .000E+00  .000E+00  .000E+00  .000E+00  .000E+00  .000E+00  .000E+00
  .000E+00  .000E+00  .000E+00  .000E+00  .000E+00  .000E+00  .000E+00  .000E+00
  .000E+00  .000E+00  .000E+00  .000E+00  .000E+00  .000E+00  .000E+00  .000E+00
  .000E+00  .000E+00  .000E+00  .000E+00  .000E+00  .000E+00  .000E+00  .000E+00
  .000E+00  .000E+00  .000E+00  .000E+00  .000E+00  .000E+00  .000E+00  .000E+00
  .000E+00  .000E+00  .000E+00  .000E+00  .000E+00  .000E+00  .000E+00  .000E+00
  .000E+00  .000E+00  .000E+00  .000E+00  .000E+00  .000E+00  .000E+00  .000E+00
  .000E+00  .000E+00  .000E+00  .000E+00  .000E+00  .000E+00  .000E+00  .000E+00
  .000E+00  .000E+00  .000E+00  .000E+00  .000E+00  .000E+00  .000E+00  .000E+00
  .000E+00  .000E+00  .000E+00  .000E+00  .000E+00  .000E+00  .000E+00  .000E+00
  .000E+00  .000E+00  .000E+00  .000E+00  .000E+00  .000E+00  .000E+00  .000E+00
  .000E+00  .000E+00  .000E+00  .000E+00  .000E+00  .000E+00  .000E+00  .000E+00
  .000E+00  .000E+00  .000E+00  .000E+00
Damping =  .05. Data of Sd,Sv,Sa,Pssv,ttSd,ttSv,ttSa :
  .292E-04  .321E-04  .351E-04  .382E-04  .416E-04  .452E-04  .567E-04  .677E-04
  .791E-04  .102E-03  .127E-03  .136E-03  .154E-03  .216E-03  .285E-03  .312E-03
  .328E-03  .352E-03  .447E-03  .624E-03  .723E-03  .919E-03  .907E-03  .109E-02
  .110E-02  .121E-02  .213E-02  .313E-02  .382E-02  .374E-02  .345E-02  .560E-02
  .579E-02  .553E-02  .615E-02  .885E-02  .112E-01  .115E-01  .977E-02  .110E-01
