Response and Fourier amplitude spectra (78 periods,  .04 -  6.0 sec)   for      
Corrected accelerogram   38695658.CI.SNO.--.HN      Chan  1:  90 Deg     from   
Uncorrected Accelerogram Data             Processed: 09/19/20, CGS  cisno--s    
Rcrd of Fri Sep 18, 2020 23:38:41.0 PDT               (Avol1 v2.0, 4/18 CSMIP)  
                                        (Origin:  To be determined)             
38695658.CI.SNO.--.HN                Start time:  9/19/20, 06:38:41.0 UTC (GPS) 
Station Id. SNO     34.035N, 116.808W    Q330    s/n 3066  (3 Chns of  3 at Sta)
Snow Peak                                SCSN   Data: Acceleration              
Chan  1:  90 Deg                                                                
Rcrd of Fri Sep 18, 2020 23:38:41.0 PDT    Fri Sep 18, 2020 23:38:41.0 PDT      
Hypocenter:  To be determined.               ML:  To be determined.             
Instr Period =  .0050 sec,  Damping =  .707,  Sensitivity = 5.00 v/g  (Nominal) 
                        Record Length =301.000 sec.                             
                                     Uncor Max  =   .001 g, at   41.270 sec.    
RMS accel of (uncor) record  =        .   Chn. metadata effective date:         
Accelerogram bandpass filtered with 3 dB pts at   .30 and 23.00 cyc/sec         
                 instrument- and base-line correcte                             
                                                                                
                                                                                
                                                                                
                                                                                
                                                                                
Rcrd of Fri Sep 18, 2020 23:38:41.0 PDT    Fri Sep 18, 2020 23:38:41.0 PDT      
                                                                                
38695658.CI.SNO.--.HN     Snow Peak   Chan  1:  90 Deg                          
                                                                                
38695658.CI.SNO.--.HN     Snow Peak   Chan  1:  90 Deg                          
                                                                                
Units for spectra are inches and sec, except Sa is in fraction of g.            
                                                                                
    1  100    1    3    3  100 -999    3    1   24  605 3066    0    0   41    0
    6   38   41    8  263    9   19 2020   10    3   9035996   39    9   74 -999
35996 -999  100    6 -999 -999 -999 -999 -999 -999 -999 -999 -999 -999 -999 -999
 -999 -999 -999 -99915050    2 -999    0 -999   20 -999 -999    3    1 -99915050
    315050    4   78    1    3    5    0    0 -999    0 -999 -999    6 -999    2
    2    2    4 -999 -999 -999 -999 -999 -999 -999 -999    1 -999 -999 -999  111
    1    1 -999 -999
      .005      .707   359.960      .000     1.000  4996.058      .001    41.270
   200.000     2.384      .477  -999.000    10.000  -999.000     4.000  -999.000
    20.000    -7.695    20.000  -999.000  -999.000  -999.000  -999.000      .000
      .000      .000     2.000    15.000    34.035  -116.808      .001      .004
     2.773     -.001      .000  2339.000  -999.000  -999.000  -999.000  -999.000
     1.000  -999.000    -8.000  -999.000  -999.000  -999.000  -999.000   120.000
     -.900     2.000     6.800   980.665      .020   301.000    31.831      .000
  -999.000    23.000  -999.000   301.000      .020      .300  -999.000  -999.000
    41.260      .923    41.320      .042    40.480      .004      .000      .300
    23.000      .020      .020      .000      .020      .003  -999.000  -999.000
      .003      .200      .003      .003      .000      .000  -999.000  -999.000
  -999.000  -999.000  -999.000  -999.000  -999.000  -999.000  -999.000  -999.000
  -999.000  -999.000  -999.000  -999.000
      .050
      .040      .042      .044      .046      .048      .050      .055      .060
      .065      .070      .075      .080      .085      .090      .095      .100
      .110      .120      .130      .140      .150      .160      .170      .180
      .190      .200      .220      .240      .260      .280      .300      .320
      .340      .360      .380      .400      .420      .440      .460      .480
      .500      .550      .600      .650      .700      .750      .800      .850
      .900      .950     1.000     1.100     1.200     1.300     1.400     1.500
     1.600     1.700     1.800     1.900     2.000     2.200     2.400     2.600
     2.800     3.000     3.200     3.400     3.600     3.800     4.000     4.200
     4.400     4.600     4.800     5.000     5.500     6.000      .000      .000
      .000      .000      .000      .000      .000      .000      .000      .000
      .000      .000      .000      .000      .000      .000      .000      .000
      .000      .000      .000      .000
Fourier amplitude spectra in in/sec.
  .000E+00  .000E+00  .000E+00  .000E+00  .000E+00  .000E+00  .000E+00  .000E+00
  .000E+00  .000E+00  .000E+00  .000E+00  .000E+00  .000E+00  .000E+00  .000E+00
  .000E+00  .000E+00  .000E+00  .000E+00  .000E+00  .000E+00  .000E+00  .000E+00
  .000E+00  .000E+00  .000E+00  .000E+00  .000E+00  .000E+00  .000E+00  .000E+00
  .000E+00  .000E+00  .000E+00  .000E+00  .000E+00  .000E+00  .000E+00  .000E+00
  .000E+00  .000E+00  .000E+00  .000E+00  .000E+00  .000E+00  .000E+00  .000E+00
  .000E+00  .000E+00  .000E+00  .000E+00  .000E+00  .000E+00  .000E+00  .000E+00
  .000E+00  .000E+00  .000E+00  .000E+00  .000E+00  .000E+00  .000E+00  .000E+00
  .000E+00  .000E+00  .000E+00  .000E+00  .000E+00  .000E+00  .000E+00  .000E+00
  .000E+00  .000E+00  .000E+00  .000E+00  .000E+00  .000E+00  .000E+00  .000E+00
  .000E+00  .000E+00  .000E+00  .000E+00  .000E+00  .000E+00  .000E+00  .000E+00
  .000E+00  .000E+00  .000E+00  .000E+00  .000E+00  .000E+00  .000E+00  .000E+00
  .000E+00  .000E+00  .000E+00  .000E+00
Damping =  .05. Data of Sd,Sv,Sa,Pssv,ttSd,ttSv,ttSa :
  .156E-04  .172E-04  .190E-04  .212E-04  .236E-04  .256E-04  .303E-04  .397E-04
  .490E-04  .576E-04  .678E-04  .847E-04  .975E-04  .106E-03  .119E-03  .135E-03
  .214E-03  .293E-03  .418E-03  .425E-03  .555E-03  .676E-03  .736E-03  .828E-03
  .107E-02  .125E-02  .138E-02  .150E-02  .191E-02  .246E-02  .252E-02  .216E-02
  .167E-02  .156E-02  .148E-02  .119E-02  .116E-02  .148E-02  .175E-02  .216E-02
  .246E-02  .241E-02  .213E-02  .248E-02  .251E-02  .273E-02  .329E-02  .262E-02
  .249E-02  .261E-02  .318E-02  .340E-02  .335E-02  .344E-02  .365E-02  .357E-02
  .379E-02  .391E-02  .366E-02  .412E-02  .411E-02  .377E-02  .313E-02  .273E-02
  .244E-02  .236E-02  .220E-02  .201E-02  .193E-02  .197E-02  .198E-02  .195E-02
  .191E-02  .186E-02  .186E-02  .185E-02  .181E-02  .182E-02  .000E+00  .000E+00
  .000E+00  .000E+00  .000E+00  .000E+00  .000E+00  .000E+00  .000E+00  .000E+00
  .000E+00  .000E+00  .000E+00  .000E+00  .000E+00  .000E+00  .000E+00  .000E+00
  .000E+00  .000E+00  .000E+00  .000E+00
  .511E-03  .560E-03  .630E-03  .747E-03  .870E-03  .982E-03  .127E-02  .149E-02
  .195E-02  .232E-02  .258E-02  .357E-02  .458E-02  .467E-02  .600E-02  .600E-02
  .961E-02  .127E-01  .184E-01  .174E-01  .201E-01  .230E-01  .234E-01  .265E-01
  .330E-01  .345E-01  .355E-01  .399E-01  .471E-01  .560E-01  .566E-01  .446E-01
  .367E-01  .302E-01  .259E-01  .250E-01  .226E-01  .259E-01  .304E-01  .327E-01
  .341E-01  .345E-01  .284E-01  .261E-01  .245E-01  .265E-01  .270E-01  .210E-01
  .208E-01  .244E-01  .252E-01  .214E-01  .229E-01  .251E-01  .249E-01  .235E-01
  .252E-01  .264E-01  .263E-01  .254E-01  .245E-01  .230E-01  .214E-01  .204E-01
  .194E-01  .184E-01  .176E-01  .172E-01  .170E-01  .168E-01  .167E-01  .166E-01
  .166E-01  .166E-01  .166E-01  .166E-01  .165E-01  .165E-01  .000E+00  .000E+00
  .000E+00  .000E+00  .000E+00  .000E+00  .000E+00  .000E+00  .000E+00  .000E+00
  .000E+00  .000E+00  .000E+00  .000E+00  .000E+00  .000E+00  .000E+00  .000E+00
  .000E+00  .000E+00  .000E+00  .000E+00
  .100E-02  .100E-02  .100E-02  .103E-02  .105E-02  .105E-02  .102E-02  .113E-02
  .119E-02  .120E-02  .123E-02  .136E-02  .139E-02  .135E-02  .136E-02  .140E-02
  .179E-02  .210E-02  .256E-02  .222E-02  .252E-02  .271E-02  .262E-02  .262E-02
  .306E-02  .321E-02  .291E-02  .262E-02  .292E-02  .320E-02  .285E-02  .215E-02
  .151E-02  .125E-02  .105E-02  .778E-03  .673E-03  .787E-03  .851E-03  .968E-03
  .101E-02  .828E-03  .607E-03  .603E-03  .526E-03  .499E-03  .529E-03  .373E-03
  .316E-03  .298E-03  .331E-03  .291E-03  .240E-03  .212E-03  .194E-03  .165E-03
  .155E-03  .142E-03  .120E-03  .117E-03  .106E-03  .805E-04  .570E-04  .417E-04
  .333E-04  .293E-04  .244E-04  .202E-04  .175E-04  .154E-04  .138E-04  .124E-04
  .112E-04  .101E-04  .931E-05  .861E-05  .713E-05  .615E-05  .000E+00  .000E+00
  .000E+00  .000E+00  .000E+00  .000E+00  .000E+00  .000E+00  .000E+00  .000E+00
  .000E+00  .000E+00  .000E+00  .000E+00  .000E+00  .000E+00  .000E+00  .000E+00
  .000E+00  .000E+00  .000E+00  .000E+00
  .246E-02  .258E-02  .271E-02  .290E-02  .309E-02  .322E-02  .346E-02  .415E-02
  .474E-02  .517E-02  .568E-02  .665E-02  .721E-02  .742E-02  .786E-02  .848E-02
  .122E-01  .153E-01  .202E-01  .191E-01  .232E-01  .265E-01  .272E-01  .289E-01
  .354E-01  .391E-01  .395E-01  .393E-01  .462E-01  .552E-01  .527E-01  .424E-01
  .308E-01  .273E-01  .244E-01  .187E-01  .173E-01  .211E-01  .239E-01  .283E-01
  .309E-01  .275E-01  .223E-01  .240E-01  .225E-01  .229E-01  .259E-01  .194E-01
  .174E-01  .172E-01  .200E-01  .194E-01  .175E-01  .166E-01  .164E-01  .149E-01
  .149E-01  .144E-01  .128E-01  .136E-01  .129E-01  .108E-01  .821E-02  .659E-02
  .548E-02  .495E-02  .432E-02  .372E-02  .338E-02  .325E-02  .311E-02  .292E-02
  .273E-02  .255E-02  .243E-02  .232E-02  .207E-02  .190E-02  .000E+00  .000E+00
  .000E+00  .000E+00  .000E+00  .000E+00  .000E+00  .000E+00  .000E+00  .000E+00
  .000E+00  .000E+00  .000E+00  .000E+00  .000E+00  .000E+00  .000E+00  .000E+00
  .000E+00  .000E+00  .000E+00  .000E+00
  .413E+02  .413E+02  .413E+02  .413E+02  .413E+02  .413E+02  .413E+02  .413E+02
  .413E+02  .416E+02  .416E+02  .416E+02  .416E+02  .413E+02  .418E+02  .418E+02
  .418E+02  .413E+02  .418E+02  .416E+02  .414E+02  .414E+02  .414E+02  .416E+02
  .416E+02  .416E+02  .416E+02  .417E+02  .418E+02  .418E+02  .415E+02  .415E+02
  .415E+02  .431E+02  .431E+02  .414E+02  .408E+02  .408E+02  .413E+02  .414E+02
  .419E+02  .419E+02  .470E+02  .491E+02  .492E+02  .492E+02  .472E+02  .445E+02
  .430E+02  .422E+02  .418E+02  .418E+02  .418E+02  .414E+02  .414E+02  .414E+02
  .416E+02  .416E+02  .416E+02  .528E+02  .529E+02  .530E+02  .469E+02  .471E+02
  .409E+02  .412E+02  .412E+02  .412E+02  .405E+02  .405E+02  .405E+02  .405E+02
  .405E+02  .405E+02  .405E+02  .405E+02  .405E+02  .405E+02  .000E+00  .000E+00
  .000E+00  .000E+00  .000E+00  .000E+00  .000E+00  .000E+00  .000E+00  .000E+00
  .000E+00  .000E+00  .000E+00  .000E+00  .000E+00  .000E+00  .000E+00  .000E+00
  .000E+00  .000E+00  .000E+00  .000E+00
  .416E+02  .416E+02  .416E+02  .416E+02  .416E+02  .416E+02  .416E+02  .416E+02
  .416E+02  .413E+02  .416E+02  .416E+02  .416E+02  .410E+02  .417E+02  .418E+02
  .418E+02  .418E+02  .418E+02  .417E+02  .413E+02  .413E+02  .413E+02  .417E+02
  .417E+02  .417E+02  .416E+02  .416E+02  .416E+02  .416E+02  .415E+02  .414E+02
  .414E+02  .414E+02  .414E+02  .414E+02  .414E+02  .414E+02  .414E+02  .414E+02
  .413E+02  .413E+02  .413E+02  .493E+02  .412E+02  .449E+02  .470E+02  .446E+02
  .419E+02  .429E+02  .429E+02  .416E+02  .416E+02  .417E+02  .417E+02  .413E+02
  .413E+02  .413E+02  .413E+02  .413E+02  .413E+02  .413E+02  .413E+02  .413E+02
  .413E+02  .413E+02  .413E+02  .413E+02  .413E+02  .413E+02  .413E+02  .413E+02
  .413E+02  .413E+02  .413E+02  .413E+02  .413E+02  .413E+02  .000E+00  .000E+00
  .000E+00  .000E+00  .000E+00  .000E+00  .000E+00  .000E+00  .000E+00  .000E+00
  .000E+00  .000E+00  .000E+00  .000E+00  .000E+00  .000E+00  .000E+00  .000E+00
  .000E+00  .000E+00  .000E+00  .000E+00
  .413E+02  .413E+02  .413E+02  .413E+02  .413E+02  .413E+02  .413E+02  .413E+02
  .413E+02  .416E+02  .416E+02  .416E+02  .416E+02  .413E+02  .418E+02  .418E+02
  .418E+02  .413E+02  .418E+02  .416E+02  .414E+02  .414E+02  .414E+02  .416E+02
  .416E+02  .416E+02  .416E+02  .417E+02  .418E+02  .418E+02  .415E+02  .415E+02
  .415E+02  .431E+02  .431E+02  .413E+02  .408E+02  .408E+02  .413E+02  .413E+02
  .419E+02  .419E+02  .470E+02  .491E+02  .492E+02  .492E+02  .471E+02  .444E+02
  .429E+02  .422E+02  .417E+02  .418E+02  .418E+02  .414E+02  .414E+02  .414E+02
  .415E+02  .416E+02  .416E+02  .528E+02  .529E+02  .530E+02  .469E+02  .470E+02
  .409E+02  .412E+02  .412E+02  .412E+02  .412E+02  .412E+02  .404E+02  .404E+02
  .404E+02  .404E+02  .404E+02  .404E+02  .404E+02  .404E+02  .000E+00  .000E+00
  .000E+00  .000E+00  .000E+00  .000E+00  .000E+00  .000E+00  .000E+00  .000E+00
  .000E+00  .000E+00  .000E+00  .000E+00  .000E+00  .000E+00  .000E+00  .000E+00
  .000E+00  .000E+00  .000E+00  .000E+00
/&   ----------  End of spectral data for channel  1  ----------
Response and Fourier amplitude spectra (78 periods,  .04 -  6.0 sec)   for      
Corrected accelerogram   38695658.CI.SNO.--.HN      Chan  2: 360 Deg     from   
Uncorrected Accelerogram Data             Processed: 09/19/20, CGS  cisno--s    
Rcrd of Fri Sep 18, 2020 23:38:41.0 PDT               (Avol1 v2.0, 4/18 CSMIP)  
                                        (Origin:  To be determined)             
38695658.CI.SNO.--.HN                Start time:  9/19/20, 06:38:41.0 UTC (GPS) 
Station Id. SNO     34.035N, 116.808W    Q330    s/n 3066  (3 Chns of  3 at Sta)
Snow Peak                                SCSN   Data: Acceleration              
Chan  2: 360 Deg                                                                
Rcrd of Fri Sep 18, 2020 23:38:41.0 PDT    Fri Sep 18, 2020 23:38:41.0 PDT      
Hypocenter:  To be determined.               ML:  To be determined.             
Instr Period =  .0050 sec,  Damping =  .707,  Sensitivity = 5.00 v/g  (Nominal) 
                        Record Length =301.000 sec.                             
                                     Uncor Max  =   .001 g, at   41.110 sec.    
RMS accel of (uncor) record  =        .   Chn. metadata effective date:         
Accelerogram bandpass filtered with 3 dB pts at   .30 and 23.00 cyc/sec         
                 instrument- and base-line correcte                             
                                                                                
                                                                                
                                                                                
                                                                                
                                                                                
Rcrd of Fri Sep 18, 2020 23:38:41.0 PDT    Fri Sep 18, 2020 23:38:41.0 PDT      
                                                                                
38695658.CI.SNO.--.HN     Snow Peak   Chan  2: 360 Deg                          
                                                                                
38695658.CI.SNO.--.HN     Snow Peak   Chan  2: 360 Deg                          
                                                                                
Units for spectra are inches and sec, except Sa is in fraction of g.            
                                                                                
    2  100    2    3    3  100 -999    3    1   24  605 3066    0    0   41    0
    6   38   41    8  263    9   19 2020   10    3  36035840   39    9   74 -999
35840 -999  100    6 -999 -999 -999 -999 -999 -999 -999 -999 -999 -999 -999 -999
 -999 -999 -999 -99915050    2 -999    0 -999   20 -999 -999    3    1 -99915050
    315050    4   78    1    3    5    0    0 -999    0 -999 -999    6 -999    2
    2    2    4 -999 -999 -999 -999 -999 -999 -999 -999    1 -999 -999 -999  111
    1    1 -999 -999
      .005      .707   358.400      .000     1.000  4996.856      .001    41.110
   200.000     2.384      .477  -999.000    10.000  -999.000     4.000  -999.000
    20.000     5.645    20.000  -999.000  -999.000  -999.000  -999.000      .001
      .001      .000     2.000    15.000    34.035  -116.808      .001      .004
     2.582      .000      .000  2339.000  -999.000  -999.000  -999.000  -999.000
     1.000  -999.000  -999.000  -999.000  -999.000  -999.000  -999.000   120.000
     -.900     2.000     6.800   980.665      .020   301.000    31.831      .000
  -999.000    23.000  -999.000   301.000      .020      .300  -999.000  -999.000
    41.100     1.035    41.040     -.046    40.360      .004      .000      .300
    23.000      .020      .020      .000      .020      .003  -999.000  -999.000
      .004      .280      .003      .004      .000      .000  -999.000  -999.000
  -999.000  -999.000  -999.000  -999.000  -999.000  -999.000  -999.000  -999.000
  -999.000  -999.000  -999.000  -999.000
      .050
      .040      .042      .044      .046      .048      .050      .055      .060
      .065      .070      .075      .080      .085      .090      .095      .100
      .110      .120      .130      .140      .150      .160      .170      .180
      .190      .200      .220      .240      .260      .280      .300      .320
      .340      .360      .380      .400      .420      .440      .460      .480
      .500      .550      .600      .650      .700      .750      .800      .850
      .900      .950     1.000     1.100     1.200     1.300     1.400     1.500
     1.600     1.700     1.800     1.900     2.000     2.200     2.400     2.600
     2.800     3.000     3.200     3.400     3.600     3.800     4.000     4.200
     4.400     4.600     4.800     5.000     5.500     6.000      .000      .000
      .000      .000      .000      .000      .000      .000      .000      .000
      .000      .000      .000      .000      .000      .000      .000      .000
      .000      .000      .000      .000
Fourier amplitude spectra in in/sec.
  .000E+00  .000E+00  .000E+00  .000E+00  .000E+00  .000E+00  .000E+00  .000E+00
  .000E+00  .000E+00  .000E+00  .000E+00  .000E+00  .000E+00  .000E+00  .000E+00
  .000E+00  .000E+00  .000E+00  .000E+00  .000E+00  .000E+00  .000E+00  .000E+00
  .000E+00  .000E+00  .000E+00  .000E+00  .000E+00  .000E+00  .000E+00  .000E+00
  .000E+00  .000E+00  .000E+00  .000E+00  .000E+00  .000E+00  .000E+00  .000E+00
  .000E+00  .000E+00  .000E+00  .000E+00  .000E+00  .000E+00  .000E+00  .000E+00
  .000E+00  .000E+00  .000E+00  .000E+00  .000E+00  .000E+00  .000E+00  .000E+00
  .000E+00  .000E+00  .000E+00  .000E+00  .000E+00  .000E+00  .000E+00  .000E+00
  .000E+00  .000E+00  .000E+00  .000E+00  .000E+00  .000E+00  .000E+00  .000E+00
  .000E+00  .000E+00  .000E+00  .000E+00  .000E+00  .000E+00  .000E+00  .000E+00
  .000E+00  .000E+00  .000E+00  .000E+00  .000E+00  .000E+00  .000E+00  .000E+00
  .000E+00  .000E+00  .000E+00  .000E+00  .000E+00  .000E+00  .000E+00  .000E+00
  .000E+00  .000E+00  .000E+00  .000E+00
Damping =  .05. Data of Sd,Sv,Sa,Pssv,ttSd,ttSv,ttSa :
  .174E-04  .192E-04  .209E-04  .226E-04  .244E-04  .263E-04  .306E-04  .385E-04
  .481E-04  .620E-04  .661E-04  .771E-04  .111E-03  .133E-03  .166E-03  .214E-03
  .292E-03  .314E-03  .367E-03  .455E-03  .548E-03  .627E-03  .715E-03  .787E-03
  .916E-03  .103E-02  .136E-02  .148E-02  .193E-02  .294E-02  .334E-02  .281E-02
  .200E-02  .184E-02  .169E-02  .174E-02  .164E-02  .183E-02  .229E-02  .257E-02
