Response and Fourier amplitude spectra (78 periods,  .04 -  6.0 sec)   for      
Corrected accelerogram   38695658.CI.SOC.--.HN      Chan  1:  90 Deg     from   
Uncorrected Accelerogram Data             Processed: 09/19/20, CGS  cisoc--c    
Rcrd of Fri Sep 18, 2020 23:38:36.0 PDT               (Avol1 v2.0, 4/18 CSMIP)  
                                        (Origin:  To be determined)             
38695658.CI.SOC.--.HN                Start time:  9/19/20, 06:38:36.0 UTC (GPS) 
Station Id. SOC     33.388N, 117.580W    ObsMMS  s/n 5770  (3 Chns of  6 at Sta)
San Onofre Canyon                        SCSN   Data: Acceleration              
Chan  1:  90 Deg                                                                
Rcrd of Fri Sep 18, 2020 23:38:36.0 PDT    Fri Sep 18, 2020 23:38:36.0 PDT      
Hypocenter:  To be determined.               ML:  To be determined.             
Instr Period =  .0050 sec,  Damping =  .707,  Sensitivity = 4.98 v/g  (Nominal) 
                        Record Length =301.000 sec.                             
                                     Uncor Max  =   .003 g, at   40.080 sec.    
RMS accel of (uncor) record  =        .   Chn. metadata effective date:         
Accelerogram bandpass filtered with 3 dB pts at   .30 and 23.00 cyc/sec         
                 instrument- and base-line correcte                             
                                                                                
                                                                                
                                                                                
                                                                                
                                                                                
Rcrd of Fri Sep 18, 2020 23:38:36.0 PDT    Fri Sep 18, 2020 23:38:36.0 PDT      
                                                                                
38695658.CI.SOC.--.HN     San Onofre Canyon   Chan  1:  90 Deg                  
                                                                                
38695658.CI.SOC.--.HN     San Onofre Canyon   Chan  1:  90 Deg                  
                                                                                
Units for spectra are inches and sec, except Sa is in fraction of g.            
                                                                                
    1  100    1    6    6  100 -999    3    1    0   15 5770    0    0   41    0
    6   38   36    3  263    9   19 2020   10    3   9035972   39   17   74 -999
35972 -999  100    6 -999 -999 -999 -999 -999 -999 -999 -999 -999 -999 -999 -999
 -999 -999 -999 -99915050    2 -999    0 -999   20 -999 -999    3    1 -99915050
    315050    4   78    1    3    5    0    0 -999    0 -999 -999    6 -999    2
    2    2    4 -999 -999 -999 -999 -999 -999 -999 -999    1 -999 -999 -999  111
    1    1 -999 -999
      .005      .707   359.720      .000     1.000  4981.676      .003    40.080
   200.000     2.384      .479  -999.000    10.000  -999.000     4.000  -999.000
    20.000   -16.242      .000  -999.000  -999.000  -999.000  -999.000     -.017
      .016      .033     2.000    15.000    33.388  -117.580      .003      .005
     1.920      .033      .034    52.000  -999.000  -999.000  -999.000  -999.000
     1.000  -999.000    -8.000  -999.000  -999.000  -999.000  -999.000   120.000
     -.900     2.000     6.800   980.665      .020   301.000    31.831     -.003
  -999.000    23.000  -999.000   301.000      .020      .300  -999.000  -999.000
    40.080     2.455    38.780      .084    37.400     -.009      .000      .300
    23.000      .020      .020      .000      .020      .006  -999.000  -999.000
      .009      .150      .005      .004      .001      .000  -999.000  -999.000
  -999.000  -999.000  -999.000  -999.000  -999.000  -999.000  -999.000  -999.000
  -999.000  -999.000  -999.000  -999.000
      .050
      .040      .042      .044      .046      .048      .050      .055      .060
      .065      .070      .075      .080      .085      .090      .095      .100
      .110      .120      .130      .140      .150      .160      .170      .180
      .190      .200      .220      .240      .260      .280      .300      .320
      .340      .360      .380      .400      .420      .440      .460      .480
      .500      .550      .600      .650      .700      .750      .800      .850
      .900      .950     1.000     1.100     1.200     1.300     1.400     1.500
     1.600     1.700     1.800     1.900     2.000     2.200     2.400     2.600
     2.800     3.000     3.200     3.400     3.600     3.800     4.000     4.200
     4.400     4.600     4.800     5.000     5.500     6.000      .000      .000
      .000      .000      .000      .000      .000      .000      .000      .000
      .000      .000      .000      .000      .000      .000      .000      .000
      .000      .000      .000      .000
Fourier amplitude spectra in in/sec.
  .000E+00  .000E+00  .000E+00  .000E+00  .000E+00  .000E+00  .000E+00  .000E+00
  .000E+00  .000E+00  .000E+00  .000E+00  .000E+00  .000E+00  .000E+00  .000E+00
  .000E+00  .000E+00  .000E+00  .000E+00  .000E+00  .000E+00  .000E+00  .000E+00
  .000E+00  .000E+00  .000E+00  .000E+00  .000E+00  .000E+00  .000E+00  .000E+00
  .000E+00  .000E+00  .000E+00  .000E+00  .000E+00  .000E+00  .000E+00  .000E+00
  .000E+00  .000E+00  .000E+00  .000E+00  .000E+00  .000E+00  .000E+00  .000E+00
  .000E+00  .000E+00  .000E+00  .000E+00  .000E+00  .000E+00  .000E+00  .000E+00
  .000E+00  .000E+00  .000E+00  .000E+00  .000E+00  .000E+00  .000E+00  .000E+00
  .000E+00  .000E+00  .000E+00  .000E+00  .000E+00  .000E+00  .000E+00  .000E+00
  .000E+00  .000E+00  .000E+00  .000E+00  .000E+00  .000E+00  .000E+00  .000E+00
  .000E+00  .000E+00  .000E+00  .000E+00  .000E+00  .000E+00  .000E+00  .000E+00
  .000E+00  .000E+00  .000E+00  .000E+00  .000E+00  .000E+00  .000E+00  .000E+00
  .000E+00  .000E+00  .000E+00  .000E+00
Damping =  .05. Data of Sd,Sv,Sa,Pssv,ttSd,ttSv,ttSa :
  .412E-04  .466E-04  .527E-04  .590E-04  .656E-04  .724E-04  .987E-04  .121E-03
  .176E-03  .197E-03  .224E-03  .268E-03  .342E-03  .416E-03  .488E-03  .604E-03
  .810E-03  .899E-03  .112E-02  .140E-02  .197E-02  .197E-02  .151E-02  .147E-02
  .177E-02  .218E-02  .271E-02  .343E-02  .391E-02  .365E-02  .321E-02  .409E-02
  .420E-02  .361E-02  .353E-02  .359E-02  .336E-02  .360E-02  .363E-02  .298E-02
  .296E-02  .303E-02  .249E-02  .310E-02  .248E-02  .274E-02  .337E-02  .415E-02
  .514E-02  .584E-02  .637E-02  .879E-02  .859E-02  .774E-02  .724E-02  .716E-02
  .738E-02  .767E-02  .764E-02  .735E-02  .693E-02  .665E-02  .679E-02  .895E-02
  .652E-02  .647E-02  .604E-02  .553E-02  .517E-02  .493E-02  .474E-02  .457E-02
  .440E-02  .429E-02  .418E-02  .410E-02  .401E-02  .386E-02  .000E+00  .000E+00
  .000E+00  .000E+00  .000E+00  .000E+00  .000E+00  .000E+00  .000E+00  .000E+00
  .000E+00  .000E+00  .000E+00  .000E+00  .000E+00  .000E+00  .000E+00  .000E+00
  .000E+00  .000E+00  .000E+00  .000E+00
  .226E-02  .248E-02  .264E-02  .291E-02  .320E-02  .356E-02  .536E-02  .816E-02
  .104E-01  .136E-01  .167E-01  .199E-01  .183E-01  .229E-01  .267E-01  .303E-01
  .411E-01  .409E-01  .524E-01  .618E-01  .854E-01  .810E-01  .609E-01  .532E-01
  .605E-01  .672E-01  .734E-01  .912E-01  .933E-01  .854E-01  .667E-01  .834E-01
  .931E-01  .731E-01  .611E-01  .628E-01  .589E-01  .575E-01  .641E-01  .607E-01
  .519E-01  .388E-01  .332E-01  .333E-01  .308E-01  .300E-01  .329E-01  .348E-01
  .429E-01  .509E-01  .528E-01  .537E-01  .573E-01  .634E-01  .611E-01  .555E-01
  .480E-01  .436E-01  .445E-01  .458E-01  .462E-01  .448E-01  .421E-01  .401E-01
  .387E-01  .367E-01  .346E-01  .343E-01  .343E-01  .343E-01  .342E-01  .340E-01
  .338E-01  .337E-01  .335E-01  .334E-01  .332E-01  .329E-01  .000E+00  .000E+00
  .000E+00  .000E+00  .000E+00  .000E+00  .000E+00  .000E+00  .000E+00  .000E+00
  .000E+00  .000E+00  .000E+00  .000E+00  .000E+00  .000E+00  .000E+00  .000E+00
  .000E+00  .000E+00  .000E+00  .000E+00
  .265E-02  .271E-02  .278E-02  .285E-02  .292E-02  .297E-02  .333E-02  .344E-02
  .424E-02  .412E-02  .414E-02  .432E-02  .481E-02  .525E-02  .558E-02  .620E-02
  .699E-02  .635E-02  .689E-02  .726E-02  .905E-02  .786E-02  .544E-02  .468E-02
  .503E-02  .563E-02  .576E-02  .618E-02  .592E-02  .479E-02  .372E-02  .407E-02
  .371E-02  .292E-02  .251E-02  .234E-02  .195E-02  .189E-02  .181E-02  .132E-02
  .121E-02  .102E-02  .713E-03  .752E-03  .522E-03  .505E-03  .540E-03  .592E-03
  .659E-03  .674E-03  .659E-03  .754E-03  .623E-03  .470E-03  .382E-03  .333E-03
  .299E-03  .277E-03  .248E-03  .216E-03  .182E-03  .143E-03  .122E-03  .137E-03
  .884E-04  .771E-04  .641E-04  .526E-04  .444E-04  .383E-04  .336E-04  .297E-04
  .263E-04  .236E-04  .214E-04  .195E-04  .160E-04  .133E-04  .000E+00  .000E+00
  .000E+00  .000E+00  .000E+00  .000E+00  .000E+00  .000E+00  .000E+00  .000E+00
  .000E+00  .000E+00  .000E+00  .000E+00  .000E+00  .000E+00  .000E+00  .000E+00
  .000E+00  .000E+00  .000E+00  .000E+00
  .648E-02  .697E-02  .753E-02  .805E-02  .859E-02  .910E-02  .113E-01  .127E-01
  .170E-01  .177E-01  .188E-01  .211E-01  .253E-01  .291E-01  .323E-01  .380E-01
  .463E-01  .471E-01  .543E-01  .629E-01  .825E-01  .775E-01  .559E-01  .513E-01
  .586E-01  .686E-01  .773E-01  .898E-01  .944E-01  .820E-01  .673E-01  .802E-01
  .776E-01  .631E-01  .583E-01  .565E-01  .503E-01  .514E-01  .496E-01  .390E-01
  .372E-01  .346E-01  .260E-01  .300E-01  .223E-01  .229E-01  .265E-01  .307E-01
  .359E-01  .386E-01  .400E-01  .502E-01  .450E-01  .374E-01  .325E-01  .300E-01
  .290E-01  .283E-01  .267E-01  .243E-01  .218E-01  .190E-01  .178E-01  .216E-01
  .146E-01  .136E-01  .119E-01  .102E-01  .902E-02  .815E-02  .744E-02  .683E-02
  .628E-02  .586E-02  .548E-02  .515E-02  .458E-02  .404E-02  .000E+00  .000E+00
  .000E+00  .000E+00  .000E+00  .000E+00  .000E+00  .000E+00  .000E+00  .000E+00
  .000E+00  .000E+00  .000E+00  .000E+00  .000E+00  .000E+00  .000E+00  .000E+00
  .000E+00  .000E+00  .000E+00  .000E+00
  .401E+02  .401E+02  .401E+02  .401E+02  .401E+02  .401E+02  .401E+02  .401E+02
  .401E+02  .401E+02  .383E+02  .383E+02  .401E+02  .401E+02  .403E+02  .403E+02
  .403E+02  .388E+02  .383E+02  .383E+02  .381E+02  .381E+02  .380E+02  .408E+02
  .404E+02  .404E+02  .404E+02  .405E+02  .416E+02  .416E+02  .396E+02  .394E+02
  .389E+02  .388E+02  .486E+02  .487E+02  .445E+02  .388E+02  .388E+02  .387E+02
  .375E+02  .375E+02  .432E+02  .541E+02  .542E+02  .459E+02  .375E+02  .385E+02
  .385E+02  .385E+02  .452E+02  .388E+02  .388E+02  .384E+02  .384E+02  .378E+02
  .379E+02  .379E+02  .379E+02  .379E+02  .381E+02  .374E+02  .539E+02  .529E+02
  .374E+02  .374E+02  .374E+02  .374E+02  .374E+02  .374E+02  .374E+02  .374E+02
  .374E+02  .374E+02  .374E+02  .374E+02  .374E+02  .374E+02  .000E+00  .000E+00
  .000E+00  .000E+00  .000E+00  .000E+00  .000E+00  .000E+00  .000E+00  .000E+00
  .000E+00  .000E+00  .000E+00  .000E+00  .000E+00  .000E+00  .000E+00  .000E+00
  .000E+00  .000E+00  .000E+00  .000E+00
  .389E+02  .389E+02  .401E+02  .401E+02  .401E+02  .383E+02  .383E+02  .383E+02
  .383E+02  .383E+02  .383E+02  .383E+02  .383E+02  .401E+02  .380E+02  .378E+02
  .403E+02  .389E+02  .383E+02  .383E+02  .381E+02  .380E+02  .380E+02  .407E+02
  .408E+02  .405E+02  .405E+02  .404E+02  .418E+02  .417E+02  .397E+02  .388E+02
  .388E+02  .388E+02  .448E+02  .486E+02  .446E+02  .377E+02  .387E+02  .387E+02
  .388E+02  .407E+02  .431E+02  .388E+02  .452E+02  .460E+02  .386E+02  .378E+02
  .388E+02  .388E+02  .388E+02  .400E+02  .387E+02  .387E+02  .388E+02  .388E+02
  .388E+02  .382E+02  .377E+02  .377E+02  .377E+02  .377E+02  .377E+02  .377E+02
  .377E+02  .377E+02  .377E+02  .388E+02  .388E+02  .388E+02  .388E+02  .388E+02
  .388E+02  .388E+02  .388E+02  .388E+02  .388E+02  .388E+02  .000E+00  .000E+00
  .000E+00  .000E+00  .000E+00  .000E+00  .000E+00  .000E+00  .000E+00  .000E+00
  .000E+00  .000E+00  .000E+00  .000E+00  .000E+00  .000E+00  .000E+00  .000E+00
  .000E+00  .000E+00  .000E+00  .000E+00
  .401E+02  .401E+02  .401E+02  .401E+02  .401E+02  .401E+02  .401E+02  .401E+02
  .401E+02  .401E+02  .383E+02  .383E+02  .401E+02  .401E+02  .403E+02  .403E+02
  .403E+02  .388E+02  .383E+02  .383E+02  .381E+02  .381E+02  .380E+02  .408E+02
  .404E+02  .404E+02  .404E+02  .405E+02  .416E+02  .416E+02  .396E+02  .394E+02
  .389E+02  .388E+02  .486E+02  .487E+02  .447E+02  .388E+02  .388E+02  .386E+02
  .375E+02  .375E+02  .432E+02  .541E+02  .542E+02  .485E+02  .375E+02  .385E+02
  .385E+02  .385E+02  .452E+02  .388E+02  .388E+02  .384E+02  .384E+02  .378E+02
  .379E+02  .379E+02  .379E+02  .379E+02  .379E+02  .373E+02  .538E+02  .529E+02
  .374E+02  .374E+02  .374E+02  .374E+02  .374E+02  .374E+02  .374E+02  .374E+02
  .374E+02  .374E+02  .374E+02  .374E+02  .373E+02  .373E+02  .000E+00  .000E+00
  .000E+00  .000E+00  .000E+00  .000E+00  .000E+00  .000E+00  .000E+00  .000E+00
  .000E+00  .000E+00  .000E+00  .000E+00  .000E+00  .000E+00  .000E+00  .000E+00
  .000E+00  .000E+00  .000E+00  .000E+00
/&   ----------  End of spectral data for channel  1  ----------
Response and Fourier amplitude spectra (78 periods,  .04 -  6.0 sec)   for      
Corrected accelerogram   38695658.CI.SOC.--.HN      Chan  2: 360 Deg     from   
Uncorrected Accelerogram Data             Processed: 09/19/20, CGS  cisoc--c    
Rcrd of Fri Sep 18, 2020 23:38:36.0 PDT               (Avol1 v2.0, 4/18 CSMIP)  
                                        (Origin:  To be determined)             
38695658.CI.SOC.--.HN                Start time:  9/19/20, 06:38:36.0 UTC (GPS) 
Station Id. SOC     33.388N, 117.580W    ObsMMS  s/n 5770  (3 Chns of  6 at Sta)
San Onofre Canyon                        SCSN   Data: Acceleration              
Chan  2: 360 Deg                                                                
Rcrd of Fri Sep 18, 2020 23:38:36.0 PDT    Fri Sep 18, 2020 23:38:36.0 PDT      
Hypocenter:  To be determined.               ML:  To be determined.             
Instr Period =  .0050 sec,  Damping =  .707,  Sensitivity = 4.98 v/g  (Nominal) 
                        Record Length =301.000 sec.                             
                                     Uncor Max  =   .002 g, at   39.940 sec.    
RMS accel of (uncor) record  =        .   Chn. metadata effective date:         
Accelerogram bandpass filtered with 3 dB pts at   .30 and 23.00 cyc/sec         
                 instrument- and base-line correcte                             
                                                                                
                                                                                
                                                                                
                                                                                
                                                                                
Rcrd of Fri Sep 18, 2020 23:38:36.0 PDT    Fri Sep 18, 2020 23:38:36.0 PDT      
                                                                                
38695658.CI.SOC.--.HN     San Onofre Canyon   Chan  2: 360 Deg                  
                                                                                
38695658.CI.SOC.--.HN     San Onofre Canyon   Chan  2: 360 Deg                  
                                                                                
Units for spectra are inches and sec, except Sa is in fraction of g.            
                                                                                
    2  100    2    6    6  100 -999    3    1    0   15 5770    0    0   41    0
    6   38   36    3  263    9   19 2020   10    3  36035971   39   17   74 -999
35971 -999  100    6 -999 -999 -999 -999 -999 -999 -999 -999 -999 -999 -999 -999
 -999 -999 -999 -99915050    2 -999    0 -999   20 -999 -999    3    1 -99915050
    315050    4   78    1    3    5    0    0 -999    0 -999 -999    6 -999    2
    2    2    4 -999 -999 -999 -999 -999 -999 -999 -999    1 -999 -999 -999  111
    1    1 -999 -999
      .005      .707   359.710      .000     1.000  4982.673      .002    39.940
   200.000     2.384      .478  -999.000    10.000  -999.000     4.000  -999.000
    20.000    -3.584      .000  -999.000  -999.000  -999.000  -999.000      .000
      .000     -.001     2.000    15.000    33.388  -117.580      .003      .006
     2.309     -.001      .000    52.000  -999.000  -999.000  -999.000  -999.000
     1.000  -999.000  -999.000  -999.000  -999.000  -999.000  -999.000   120.000
     -.900     2.000     6.800   980.665      .020   301.000    31.831      .000
  -999.000    23.000  -999.000   301.000      .020      .300  -999.000  -999.000
    39.940     2.203    40.240      .064    43.060     -.008      .000      .300
    23.000      .020      .020      .000      .020      .006  -999.000  -999.000
      .008      .130      .007      .004      .000      .000  -999.000  -999.000
  -999.000  -999.000  -999.000  -999.000  -999.000  -999.000  -999.000  -999.000
  -999.000  -999.000  -999.000  -999.000
      .050
      .040      .042      .044      .046      .048      .050      .055      .060
      .065      .070      .075      .080      .085      .090      .095      .100
      .110      .120      .130      .140      .150      .160      .170      .180
      .190      .200      .220      .240      .260      .280      .300      .320
      .340      .360      .380      .400      .420      .440      .460      .480
      .500      .550      .600      .650      .700      .750      .800      .850
      .900      .950     1.000     1.100     1.200     1.300     1.400     1.500
     1.600     1.700     1.800     1.900     2.000     2.200     2.400     2.600
     2.800     3.000     3.200     3.400     3.600     3.800     4.000     4.200
     4.400     4.600     4.800     5.000     5.500     6.000      .000      .000
      .000      .000      .000      .000      .000      .000      .000      .000
      .000      .000      .000      .000      .000      .000      .000      .000
      .000      .000      .000      .000
Fourier amplitude spectra in in/sec.
  .000E+00  .000E+00  .000E+00  .000E+00  .000E+00  .000E+00  .000E+00  .000E+00
  .000E+00  .000E+00  .000E+00  .000E+00  .000E+00  .000E+00  .000E+00  .000E+00
  .000E+00  .000E+00  .000E+00  .000E+00  .000E+00  .000E+00  .000E+00  .000E+00
  .000E+00  .000E+00  .000E+00  .000E+00  .000E+00  .000E+00  .000E+00  .000E+00
  .000E+00  .000E+00  .000E+00  .000E+00  .000E+00  .000E+00  .000E+00  .000E+00
  .000E+00  .000E+00  .000E+00  .000E+00  .000E+00  .000E+00  .000E+00  .000E+00
  .000E+00  .000E+00  .000E+00  .000E+00  .000E+00  .000E+00  .000E+00  .000E+00
  .000E+00  .000E+00  .000E+00  .000E+00  .000E+00  .000E+00  .000E+00  .000E+00
  .000E+00  .000E+00  .000E+00  .000E+00  .000E+00  .000E+00  .000E+00  .000E+00
  .000E+00  .000E+00  .000E+00  .000E+00  .000E+00  .000E+00  .000E+00  .000E+00
  .000E+00  .000E+00  .000E+00  .000E+00  .000E+00  .000E+00  .000E+00  .000E+00
  .000E+00  .000E+00  .000E+00  .000E+00  .000E+00  .000E+00  .000E+00  .000E+00
  .000E+00  .000E+00  .000E+00  .000E+00
Damping =  .05. Data of Sd,Sv,Sa,Pssv,ttSd,ttSv,ttSa :
  .354E-04  .394E-04  .429E-04  .493E-04  .561E-04  .632E-04  .762E-04  .102E-03
  .146E-03  .139E-03  .197E-03  .258E-03  .318E-03  .398E-03  .470E-03  .596E-03
  .618E-03  .918E-03  .129E-02  .129E-02  .133E-02  .128E-02  .141E-02  .171E-02
  .226E-02  .260E-02  .303E-02  .334E-02  .402E-02  .389E-02  .381E-02  .341E-02
  .415E-02  .447E-02  .493E-02  .473E-02  .451E-02  .411E-02  .348E-02  .366E-02
