Response and Fourier amplitude spectra (78 periods,  .04 -  6.0 sec)   for      
Corrected accelerogram   38695658.CI.SRN.--.HN      Chan  1:  90 Deg     from   
Uncorrected Accelerogram Data             Processed: 09/19/20, CGS  cisrn--c    
Rcrd of Fri Sep 18, 2020 23:38:28.0 PDT               (Avol1 v2.0, 4/18 CSMIP)  
                                        (Origin:  To be determined)             
38695658.CI.SRN.--.HN                Start time:  9/19/20, 06:38:28.0 UTC (GPS) 
Station Id. SRN     33.829N, 117.789W    ObsMMS  s/n 4195  (3 Chns of  6 at Sta)
Cerro Villa Heights                      SCSN   Data: Acceleration              
Chan  1:  90 Deg                                                                
Rcrd of Fri Sep 18, 2020 23:38:28.0 PDT    Fri Sep 18, 2020 23:38:28.0 PDT      
Hypocenter:  To be determined.               ML:  To be determined.             
Instr Period =  .0050 sec,  Damping =  .707,  Sensitivity = 4.99 v/g  (Nominal) 
                        Record Length =301.000 sec.                             
                                     Uncor Max  =  -.011 g, at   34.430 sec.    
RMS accel of (uncor) record  =        .   Chn. metadata effective date:         
Accelerogram bandpass filtered with 3 dB pts at   .30 and 23.00 cyc/sec         
                 instrument- and base-line correcte                             
                                                                                
                                                                                
                                                                                
                                                                                
                                                                                
Rcrd of Fri Sep 18, 2020 23:38:28.0 PDT    Fri Sep 18, 2020 23:38:28.0 PDT      
                                                                                
38695658.CI.SRN.--.HN     Cerro Villa Heights   Chan  1:  90 Deg                
                                                                                
38695658.CI.SRN.--.HN     Cerro Villa Heights   Chan  1:  90 Deg                
                                                                                
Units for spectra are inches and sec, except Sa is in fraction of g.            
                                                                                
    1  100    1    6    6  100 -999    3    1    0   15 4195    050652   41    0
    6   38   28    8  263    9   19 2020   10    3   9035669   39   19   74 -999
35669 -999  100    6 -999 -999 -999 -999 -999 -999 -999 -999 -999 -999 -999 -999
 -999 -999 -999 -99915050    2 -999    0 -999   20 -999 -999    3    1 -99915050
    315050    4   78    1    3    5    0    0 -999    0 -999 -999    6 -999    2
    2    2    4 -999 -999 -999 -999 -999 -999 -999 -999    1 -999 -999 -999  111
    1    1 -999 -999
      .005      .707   356.690      .000     1.000  4992.867     -.011    34.430
   200.000     2.384      .478  -999.000    10.000  -999.000     4.000  -999.000
    20.000   -16.167      .000  -999.000  -999.000  -999.000  -999.000      .000
     -.001     -.001     2.000    15.000    33.829  -117.789      .004      .005
     1.218     -.002      .000   208.000  -999.000  -999.000  -999.000  -999.000
     1.000  -999.000    -8.000  -999.000  -999.000  -999.000  -999.000   120.000
     -.900     2.000     6.800   980.665      .020   301.000    31.831      .000
  -999.000    23.000  -999.000   301.000      .020      .300  -999.000  -999.000
    34.360    10.099    31.660     -.337    31.940     -.015      .000      .300
    23.000      .020      .020      .000      .020      .013  -999.000  -999.000
      .040      .220      .037      .018      .001      .000  -999.000  -999.000
  -999.000  -999.000  -999.000  -999.000  -999.000  -999.000  -999.000  -999.000
  -999.000  -999.000  -999.000  -999.000
      .050
      .040      .042      .044      .046      .048      .050      .055      .060
      .065      .070      .075      .080      .085      .090      .095      .100
      .110      .120      .130      .140      .150      .160      .170      .180
      .190      .200      .220      .240      .260      .280      .300      .320
      .340      .360      .380      .400      .420      .440      .460      .480
      .500      .550      .600      .650      .700      .750      .800      .850
      .900      .950     1.000     1.100     1.200     1.300     1.400     1.500
     1.600     1.700     1.800     1.900     2.000     2.200     2.400     2.600
     2.800     3.000     3.200     3.400     3.600     3.800     4.000     4.200
     4.400     4.600     4.800     5.000     5.500     6.000      .000      .000
      .000      .000      .000      .000      .000      .000      .000      .000
      .000      .000      .000      .000      .000      .000      .000      .000
      .000      .000      .000      .000
Fourier amplitude spectra in in/sec.
  .000E+00  .000E+00  .000E+00  .000E+00  .000E+00  .000E+00  .000E+00  .000E+00
  .000E+00  .000E+00  .000E+00  .000E+00  .000E+00  .000E+00  .000E+00  .000E+00
  .000E+00  .000E+00  .000E+00  .000E+00  .000E+00  .000E+00  .000E+00  .000E+00
  .000E+00  .000E+00  .000E+00  .000E+00  .000E+00  .000E+00  .000E+00  .000E+00
  .000E+00  .000E+00  .000E+00  .000E+00  .000E+00  .000E+00  .000E+00  .000E+00
  .000E+00  .000E+00  .000E+00  .000E+00  .000E+00  .000E+00  .000E+00  .000E+00
  .000E+00  .000E+00  .000E+00  .000E+00  .000E+00  .000E+00  .000E+00  .000E+00
  .000E+00  .000E+00  .000E+00  .000E+00  .000E+00  .000E+00  .000E+00  .000E+00
  .000E+00  .000E+00  .000E+00  .000E+00  .000E+00  .000E+00  .000E+00  .000E+00
  .000E+00  .000E+00  .000E+00  .000E+00  .000E+00  .000E+00  .000E+00  .000E+00
  .000E+00  .000E+00  .000E+00  .000E+00  .000E+00  .000E+00  .000E+00  .000E+00
  .000E+00  .000E+00  .000E+00  .000E+00  .000E+00  .000E+00  .000E+00  .000E+00
  .000E+00  .000E+00  .000E+00  .000E+00
Damping =  .05. Data of Sd,Sv,Sa,Pssv,ttSd,ttSv,ttSa :
  .175E-03  .195E-03  .216E-03  .236E-03  .253E-03  .271E-03  .344E-03  .478E-03
  .578E-03  .723E-03  .881E-03  .112E-02  .142E-02  .187E-02  .236E-02  .309E-02
  .371E-02  .395E-02  .551E-02  .661E-02  .746E-02  .712E-02  .813E-02  .964E-02
  .118E-01  .149E-01  .189E-01  .189E-01  .144E-01  .135E-01  .165E-01  .163E-01
  .166E-01  .162E-01  .150E-01  .138E-01  .133E-01  .126E-01  .132E-01  .163E-01
  .175E-01  .138E-01  .139E-01  .127E-01  .100E-01  .969E-02  .850E-02  .759E-02
  .696E-02  .726E-02  .730E-02  .755E-02  .850E-02  .919E-02  .944E-02  .840E-02
  .859E-02  .896E-02  .915E-02  .928E-02  .907E-02  .858E-02  .851E-02  .886E-02
  .896E-02  .862E-02  .803E-02  .744E-02  .694E-02  .660E-02  .639E-02  .628E-02
  .623E-02  .623E-02  .622E-02  .619E-02  .614E-02  .606E-02  .000E+00  .000E+00
  .000E+00  .000E+00  .000E+00  .000E+00  .000E+00  .000E+00  .000E+00  .000E+00
  .000E+00  .000E+00  .000E+00  .000E+00  .000E+00  .000E+00  .000E+00  .000E+00
  .000E+00  .000E+00  .000E+00  .000E+00
  .800E-02  .894E-02  .103E-01  .118E-01  .131E-01  .144E-01  .214E-01  .333E-01
  .329E-01  .456E-01  .468E-01  .674E-01  .935E-01  .970E-01  .128E+00  .165E+00
  .195E+00  .198E+00  .239E+00  .277E+00  .302E+00  .275E+00  .288E+00  .330E+00
  .366E+00  .466E+00  .543E+00  .500E+00  .387E+00  .353E+00  .373E+00  .349E+00
  .343E+00  .306E+00  .306E+00  .288E+00  .280E+00  .277E+00  .270E+00  .259E+00
  .240E+00  .216E+00  .193E+00  .181E+00  .170E+00  .161E+00  .152E+00  .145E+00
  .137E+00  .129E+00  .127E+00  .122E+00  .131E+00  .125E+00  .125E+00  .127E+00
  .128E+00  .130E+00  .132E+00  .134E+00  .135E+00  .134E+00  .133E+00  .134E+00
  .134E+00  .135E+00  .134E+00  .133E+00  .133E+00  .132E+00  .131E+00  .131E+00
  .130E+00  .130E+00  .130E+00  .130E+00  .129E+00  .129E+00  .000E+00  .000E+00
  .000E+00  .000E+00  .000E+00  .000E+00  .000E+00  .000E+00  .000E+00  .000E+00
  .000E+00  .000E+00  .000E+00  .000E+00  .000E+00  .000E+00  .000E+00  .000E+00
  .000E+00  .000E+00  .000E+00  .000E+00
  .112E-01  .113E-01  .114E-01  .114E-01  .113E-01  .111E-01  .117E-01  .136E-01
  .140E-01  .150E-01  .160E-01  .178E-01  .203E-01  .235E-01  .272E-01  .321E-01
  .317E-01  .287E-01  .337E-01  .351E-01  .338E-01  .285E-01  .292E-01  .305E-01
  .335E-01  .390E-01  .397E-01  .337E-01  .217E-01  .180E-01  .191E-01  .162E-01
  .149E-01  .131E-01  .109E-01  .877E-02  .772E-02  .672E-02  .650E-02  .731E-02
  .727E-02  .475E-02  .401E-02  .308E-02  .214E-02  .177E-02  .139E-02  .109E-02
  .937E-03  .883E-03  .808E-03  .654E-03  .617E-03  .587E-03  .523E-03  .427E-03
  .389E-03  .363E-03  .335E-03  .299E-03  .261E-03  .208E-03  .178E-03  .161E-03
  .144E-03  .124E-03  .106E-03  .913E-04  .796E-04  .709E-04  .644E-04  .592E-04
  .551E-04  .525E-04  .501E-04  .479E-04  .429E-04  .388E-04  .000E+00  .000E+00
  .000E+00  .000E+00  .000E+00  .000E+00  .000E+00  .000E+00  .000E+00  .000E+00
  .000E+00  .000E+00  .000E+00  .000E+00  .000E+00  .000E+00  .000E+00  .000E+00
  .000E+00  .000E+00  .000E+00  .000E+00
  .275E-01  .291E-01  .308E-01  .322E-01  .331E-01  .341E-01  .393E-01  .501E-01
  .559E-01  .649E-01  .738E-01  .880E-01  .105E+00  .131E+00  .156E+00  .194E+00
  .212E+00  .207E+00  .266E+00  .297E+00  .313E+00  .280E+00  .301E+00  .337E+00
  .389E+00  .468E+00  .538E+00  .496E+00  .348E+00  .303E+00  .346E+00  .321E+00
  .306E+00  .282E+00  .247E+00  .216E+00  .199E+00  .180E+00  .181E+00  .214E+00
  .220E+00  .158E+00  .146E+00  .123E+00  .899E-01  .811E-01  .668E-01  .561E-01
  .486E-01  .480E-01  .459E-01  .431E-01  .445E-01  .444E-01  .424E-01  .352E-01
  .338E-01  .331E-01  .320E-01  .307E-01  .285E-01  .245E-01  .223E-01  .214E-01
  .201E-01  .181E-01  .158E-01  .137E-01  .121E-01  .109E-01  .100E-01  .939E-02
  .890E-02  .850E-02  .814E-02  .778E-02  .701E-02  .634E-02  .000E+00  .000E+00
  .000E+00  .000E+00  .000E+00  .000E+00  .000E+00  .000E+00  .000E+00  .000E+00
  .000E+00  .000E+00  .000E+00  .000E+00  .000E+00  .000E+00  .000E+00  .000E+00
  .000E+00  .000E+00  .000E+00  .000E+00
  .344E+02  .344E+02  .344E+02  .344E+02  .344E+02  .344E+02  .313E+02  .313E+02
  .313E+02  .313E+02  .313E+02  .344E+02  .313E+02  .313E+02  .313E+02  .317E+02
  .317E+02  .353E+02  .350E+02  .318E+02  .345E+02  .326E+02  .315E+02  .361E+02
  .348E+02  .348E+02  .348E+02  .320E+02  .320E+02  .320E+02  .351E+02  .332E+02
  .324E+02  .325E+02  .318E+02  .318E+02  .318E+02  .317E+02  .374E+02  .374E+02
  .374E+02  .342E+02  .323E+02  .324E+02  .324E+02  .416E+02  .365E+02  .366E+02
  .312E+02  .312E+02  .313E+02  .322E+02  .322E+02  .329E+02  .329E+02  .317E+02
  .317E+02  .317E+02  .317E+02  .402E+02  .319E+02  .319E+02  .319E+02  .319E+02
  .319E+02  .319E+02  .319E+02  .319E+02  .319E+02  .319E+02  .319E+02  .319E+02
  .319E+02  .319E+02  .319E+02  .319E+02  .319E+02  .319E+02  .000E+00  .000E+00
  .000E+00  .000E+00  .000E+00  .000E+00  .000E+00  .000E+00  .000E+00  .000E+00
  .000E+00  .000E+00  .000E+00  .000E+00  .000E+00  .000E+00  .000E+00  .000E+00
  .000E+00  .000E+00  .000E+00  .000E+00
  .325E+02  .325E+02  .325E+02  .325E+02  .325E+02  .312E+02  .312E+02  .325E+02
  .322E+02  .326E+02  .326E+02  .326E+02  .326E+02  .313E+02  .313E+02  .317E+02
  .313E+02  .353E+02  .350E+02  .345E+02  .345E+02  .326E+02  .353E+02  .361E+02
  .348E+02  .348E+02  .347E+02  .319E+02  .319E+02  .319E+02  .352E+02  .331E+02
  .325E+02  .319E+02  .317E+02  .317E+02  .317E+02  .317E+02  .317E+02  .317E+02
  .317E+02  .349E+02  .316E+02  .316E+02  .316E+02  .316E+02  .316E+02  .316E+02
  .316E+02  .316E+02  .315E+02  .317E+02  .350E+02  .350E+02  .316E+02  .316E+02
  .316E+02  .316E+02  .316E+02  .316E+02  .316E+02  .316E+02  .316E+02  .316E+02
  .316E+02  .316E+02  .316E+02  .316E+02  .316E+02  .316E+02  .316E+02  .316E+02
  .316E+02  .316E+02  .316E+02  .316E+02  .316E+02  .316E+02  .000E+00  .000E+00
  .000E+00  .000E+00  .000E+00  .000E+00  .000E+00  .000E+00  .000E+00  .000E+00
  .000E+00  .000E+00  .000E+00  .000E+00  .000E+00  .000E+00  .000E+00  .000E+00
  .000E+00  .000E+00  .000E+00  .000E+00
  .344E+02  .344E+02  .344E+02  .344E+02  .344E+02  .344E+02  .313E+02  .313E+02
  .313E+02  .313E+02  .313E+02  .344E+02  .313E+02  .313E+02  .313E+02  .317E+02
  .317E+02  .353E+02  .350E+02  .318E+02  .318E+02  .326E+02  .315E+02  .361E+02
  .348E+02  .348E+02  .348E+02  .320E+02  .320E+02  .320E+02  .351E+02  .332E+02
  .324E+02  .324E+02  .318E+02  .318E+02  .318E+02  .317E+02  .317E+02  .374E+02
  .374E+02  .331E+02  .323E+02  .323E+02  .324E+02  .416E+02  .365E+02  .365E+02
  .312E+02  .312E+02  .312E+02  .322E+02  .322E+02  .329E+02  .329E+02  .317E+02
  .317E+02  .317E+02  .317E+02  .317E+02  .317E+02  .319E+02  .319E+02  .319E+02
  .319E+02  .319E+02  .319E+02  .319E+02  .319E+02  .319E+02  .319E+02  .319E+02
  .319E+02  .316E+02  .316E+02  .316E+02  .316E+02  .316E+02  .000E+00  .000E+00
  .000E+00  .000E+00  .000E+00  .000E+00  .000E+00  .000E+00  .000E+00  .000E+00
  .000E+00  .000E+00  .000E+00  .000E+00  .000E+00  .000E+00  .000E+00  .000E+00
  .000E+00  .000E+00  .000E+00  .000E+00
/&   ----------  End of spectral data for channel  1  ----------
Response and Fourier amplitude spectra (78 periods,  .04 -  6.0 sec)   for      
Corrected accelerogram   38695658.CI.SRN.--.HN      Chan  2: 360 Deg     from   
Uncorrected Accelerogram Data             Processed: 09/19/20, CGS  cisrn--c    
Rcrd of Fri Sep 18, 2020 23:38:28.0 PDT               (Avol1 v2.0, 4/18 CSMIP)  
                                        (Origin:  To be determined)             
38695658.CI.SRN.--.HN                Start time:  9/19/20, 06:38:28.0 UTC (GPS) 
Station Id. SRN     33.829N, 117.789W    ObsMMS  s/n 4195  (3 Chns of  6 at Sta)
Cerro Villa Heights                      SCSN   Data: Acceleration              
Chan  2: 360 Deg                                                                
Rcrd of Fri Sep 18, 2020 23:38:28.0 PDT    Fri Sep 18, 2020 23:38:28.0 PDT      
Hypocenter:  To be determined.               ML:  To be determined.             
Instr Period =  .0050 sec,  Damping =  .707,  Sensitivity = 4.99 v/g  (Nominal) 
                        Record Length =301.000 sec.                             
                                     Uncor Max  =   .016 g, at   31.450 sec.    
RMS accel of (uncor) record  =        .   Chn. metadata effective date:         
Accelerogram bandpass filtered with 3 dB pts at   .30 and 23.00 cyc/sec         
                 instrument- and base-line correcte                             
                                                                                
                                                                                
                                                                                
                                                                                
                                                                                
Rcrd of Fri Sep 18, 2020 23:38:28.0 PDT    Fri Sep 18, 2020 23:38:28.0 PDT      
                                                                                
38695658.CI.SRN.--.HN     Cerro Villa Heights   Chan  2: 360 Deg                
                                                                                
38695658.CI.SRN.--.HN     Cerro Villa Heights   Chan  2: 360 Deg                
                                                                                
Units for spectra are inches and sec, except Sa is in fraction of g.            
                                                                                
    2  100    2    6    6  100 -999    3    1    0   15 4195    050652   41    0
    6   38   28    8  263    9   19 2020   10    3  36035708   39   19   74 -999
35708 -999  100    6 -999 -999 -999 -999 -999 -999 -999 -999 -999 -999 -999 -999
 -999 -999 -999 -99915050    2 -999    0 -999   20 -999 -999    3    1 -99915050
    315050    4   78    1    3    5    0    0 -999    0 -999 -999    6 -999    2
    2    2    4 -999 -999 -999 -999 -999 -999 -999 -999    1 -999 -999 -999  111
    1    1 -999 -999
      .005      .707   357.080      .001     1.000  4991.271      .016    31.450
   200.000     2.384      .478  -999.000    10.000  -999.000     4.000  -999.000
    20.000   -24.410      .000  -999.000  -999.000  -999.000  -999.000     -.001
      .002      .003     2.000    15.000    33.829  -117.789      .003      .003
     1.320      .003      .004   208.000  -999.000  -999.000  -999.000  -999.000
     1.000  -999.000  -999.000  -999.000  -999.000  -999.000  -999.000   120.000
     -.900     2.000     6.800   980.665      .020   301.000    31.831      .000
  -999.000    23.000  -999.000   301.000      .020      .300  -999.000  -999.000
    31.440    15.417    31.480      .455    31.820      .024      .000      .300
    23.000      .020      .020      .000      .020      .014  -999.000  -999.000
      .077      .160      .055      .019      .001      .000  -999.000  -999.000
  -999.000  -999.000  -999.000  -999.000  -999.000  -999.000  -999.000  -999.000
  -999.000  -999.000  -999.000  -999.000
      .050
      .040      .042      .044      .046      .048      .050      .055      .060
      .065      .070      .075      .080      .085      .090      .095      .100
      .110      .120      .130      .140      .150      .160      .170      .180
      .190      .200      .220      .240      .260      .280      .300      .320
      .340      .360      .380      .400      .420      .440      .460      .480
      .500      .550      .600      .650      .700      .750      .800      .850
      .900      .950     1.000     1.100     1.200     1.300     1.400     1.500
     1.600     1.700     1.800     1.900     2.000     2.200     2.400     2.600
     2.800     3.000     3.200     3.400     3.600     3.800     4.000     4.200
     4.400     4.600     4.800     5.000     5.500     6.000      .000      .000
      .000      .000      .000      .000      .000      .000      .000      .000
      .000      .000      .000      .000      .000      .000      .000      .000
      .000      .000      .000      .000
Fourier amplitude spectra in in/sec.
  .000E+00  .000E+00  .000E+00  .000E+00  .000E+00  .000E+00  .000E+00  .000E+00
  .000E+00  .000E+00  .000E+00  .000E+00  .000E+00  .000E+00  .000E+00  .000E+00
  .000E+00  .000E+00  .000E+00  .000E+00  .000E+00  .000E+00  .000E+00  .000E+00
  .000E+00  .000E+00  .000E+00  .000E+00  .000E+00  .000E+00  .000E+00  .000E+00
  .000E+00  .000E+00  .000E+00  .000E+00  .000E+00  .000E+00  .000E+00  .000E+00
  .000E+00  .000E+00  .000E+00  .000E+00  .000E+00  .000E+00  .000E+00  .000E+00
  .000E+00  .000E+00  .000E+00  .000E+00  .000E+00  .000E+00  .000E+00  .000E+00
  .000E+00  .000E+00  .000E+00  .000E+00  .000E+00  .000E+00  .000E+00  .000E+00
  .000E+00  .000E+00  .000E+00  .000E+00  .000E+00  .000E+00  .000E+00  .000E+00
  .000E+00  .000E+00  .000E+00  .000E+00  .000E+00  .000E+00  .000E+00  .000E+00
  .000E+00  .000E+00  .000E+00  .000E+00  .000E+00  .000E+00  .000E+00  .000E+00
  .000E+00  .000E+00  .000E+00  .000E+00  .000E+00  .000E+00  .000E+00  .000E+00
  .000E+00  .000E+00  .000E+00  .000E+00
Damping =  .05. Data of Sd,Sv,Sa,Pssv,ttSd,ttSv,ttSa :
  .263E-03  .290E-03  .316E-03  .351E-03  .398E-03  .436E-03  .579E-03  .636E-03
  .761E-03  .931E-03  .115E-02  .147E-02  .179E-02  .204E-02  .257E-02  .331E-02
  .338E-02  .514E-02  .721E-02  .100E-01  .135E-01  .192E-01  .206E-01  .174E-01
  .188E-01  .212E-01  .268E-01  .261E-01  .200E-01  .180E-01  .158E-01  .152E-01
  .159E-01  .165E-01  .164E-01  .172E-01  .160E-01  .149E-01  .155E-01  .150E-01
