Response and Fourier amplitude spectra (78 periods,  .04 -  6.0 sec)   for      
Corrected accelerogram   38695658.CI.SSS.--.HN      Chan  1:  90 Deg     from   
Uncorrected Accelerogram Data             Processed: 09/19/20, CGS  cisss--a    
Rcrd of Fri Sep 18, 2020 23:38:31.0 PDT               (Avol1 v2.0, 4/18 CSMIP)  
                                        (Origin:  To be determined)             
38695658.CI.SSS.--.HN                Start time:  9/19/20, 06:38:31.0 UTC (GPS) 
Station Id. SSS     34.031N, 117.455W    ObsMMS  s/n 1832  (3 Chns of  6 at Sta)
Stringfellow Superfund Site Jurupa Mount SCSN   Data: Acceleration              
Chan  1:  90 Deg                                                                
Rcrd of Fri Sep 18, 2020 23:38:31.0 PDT    Fri Sep 18, 2020 23:38:31.0 PDT      
Hypocenter:  To be determined.               ML:  To be determined.             
Instr Period =  .0050 sec,  Damping =  .707,  Sensitivity = 4.99 v/g  (Nominal) 
                        Record Length =301.000 sec.                             
                                     Uncor Max  =  -.010 g, at   35.180 sec.    
RMS accel of (uncor) record  =        .   Chn. metadata effective date:         
Accelerogram bandpass filtered with 3 dB pts at   .30 and 23.00 cyc/sec         
                 instrument- and base-line correcte                             
                                                                                
                                                                                
                                                                                
                                                                                
                                                                                
Rcrd of Fri Sep 18, 2020 23:38:31.0 PDT    Fri Sep 18, 2020 23:38:31.0 PDT      
                                                                                
38695658.CI.SSS.--.HN     Stringfellow Superfund Site Jurupa Mount SCSChan  1:  
90 Deg                                                                          
38695658.CI.SSS.--.HN     Stringfellow Superfund Site Jurupa Mount SCSChan  1:  
90 Deg                                                                          
Units for spectra are inches and sec, except Sa is in fraction of g.            
                                                                                
    1  100    1    6    6  100 -999    3    1    0   15 1832    0    0   41    0
    6   38   31    0  263    9   19 2020   10    3   9036163   39   40   74 -999
36163 -999  100    6 -999 -999 -999 -999 -999 -999 -999 -999 -999 -999 -999 -999
 -999 -999 -999 -99915050    2 -999    0 -999   20 -999 -999    3    1 -99915050
    315050    4   78    1    3    5    0    0 -999    0 -999 -999    6 -999    2
    2    2    4 -999 -999 -999 -999 -999 -999 -999 -999    1 -999 -999 -999  111
    1    1 -999 -999
      .005      .707   361.630      .000     1.000  4986.484     -.010    35.180
   200.000     2.384      .478  -999.000    10.000  -999.000     4.000  -999.000
    20.000    -8.656      .000  -999.000  -999.000  -999.000  -999.000     -.008
      .007      .014     2.000    15.000    34.031  -117.455      .004      .004
     1.162      .014      .015   337.100  -999.000  -999.000  -999.000  -999.000
     1.000  -999.000    -8.000  -999.000  -999.000  -999.000  -999.000   120.000
     -.900     2.000     6.800   980.665      .020   301.000    31.831     -.001
  -999.000    23.000  -999.000   301.000      .020      .300  -999.000  -999.000
    35.180    -8.185    35.160      .120    35.180      .003      .000      .300
    23.000      .020      .020      .000      .020      .004  -999.000  -999.000
      .026      .065      .006      .002      .000      .000  -999.000  -999.000
  -999.000  -999.000  -999.000  -999.000  -999.000  -999.000  -999.000  -999.000
  -999.000  -999.000  -999.000  -999.000
      .050
      .040      .042      .044      .046      .048      .050      .055      .060
      .065      .070      .075      .080      .085      .090      .095      .100
      .110      .120      .130      .140      .150      .160      .170      .180
      .190      .200      .220      .240      .260      .280      .300      .320
      .340      .360      .380      .400      .420      .440      .460      .480
      .500      .550      .600      .650      .700      .750      .800      .850
      .900      .950     1.000     1.100     1.200     1.300     1.400     1.500
     1.600     1.700     1.800     1.900     2.000     2.200     2.400     2.600
     2.800     3.000     3.200     3.400     3.600     3.800     4.000     4.200
     4.400     4.600     4.800     5.000     5.500     6.000      .000      .000
      .000      .000      .000      .000      .000      .000      .000      .000
      .000      .000      .000      .000      .000      .000      .000      .000
      .000      .000      .000      .000
Fourier amplitude spectra in in/sec.
  .000E+00  .000E+00  .000E+00  .000E+00  .000E+00  .000E+00  .000E+00  .000E+00
  .000E+00  .000E+00  .000E+00  .000E+00  .000E+00  .000E+00  .000E+00  .000E+00
  .000E+00  .000E+00  .000E+00  .000E+00  .000E+00  .000E+00  .000E+00  .000E+00
  .000E+00  .000E+00  .000E+00  .000E+00  .000E+00  .000E+00  .000E+00  .000E+00
  .000E+00  .000E+00  .000E+00  .000E+00  .000E+00  .000E+00  .000E+00  .000E+00
  .000E+00  .000E+00  .000E+00  .000E+00  .000E+00  .000E+00  .000E+00  .000E+00
  .000E+00  .000E+00  .000E+00  .000E+00  .000E+00  .000E+00  .000E+00  .000E+00
  .000E+00  .000E+00  .000E+00  .000E+00  .000E+00  .000E+00  .000E+00  .000E+00
  .000E+00  .000E+00  .000E+00  .000E+00  .000E+00  .000E+00  .000E+00  .000E+00
  .000E+00  .000E+00  .000E+00  .000E+00  .000E+00  .000E+00  .000E+00  .000E+00
  .000E+00  .000E+00  .000E+00  .000E+00  .000E+00  .000E+00  .000E+00  .000E+00
  .000E+00  .000E+00  .000E+00  .000E+00  .000E+00  .000E+00  .000E+00  .000E+00
  .000E+00  .000E+00  .000E+00  .000E+00
Damping =  .05. Data of Sd,Sv,Sa,Pssv,ttSd,ttSv,ttSa :
  .175E-03  .198E-03  .246E-03  .290E-03  .349E-03  .378E-03  .500E-03  .754E-03
  .105E-02  .104E-02  .826E-03  .772E-03  .930E-03  .947E-03  .890E-03  .944E-03
  .137E-02  .218E-02  .393E-02  .366E-02  .289E-02  .330E-02  .289E-02  .243E-02
  .241E-02  .244E-02  .211E-02  .272E-02  .272E-02  .217E-02  .179E-02  .224E-02
  .198E-02  .170E-02  .146E-02  .125E-02  .126E-02  .117E-02  .123E-02  .176E-02
  .218E-02  .192E-02  .184E-02  .155E-02  .169E-02  .164E-02  .145E-02  .140E-02
  .135E-02  .134E-02  .132E-02  .125E-02  .118E-02  .125E-02  .135E-02  .122E-02
  .145E-02  .152E-02  .168E-02  .180E-02  .170E-02  .133E-02  .118E-02  .134E-02
  .124E-02  .121E-02  .113E-02  .125E-02  .122E-02  .114E-02  .110E-02  .976E-03
  .103E-02  .108E-02  .101E-02  .977E-03  .100E-02  .109E-02  .000E+00  .000E+00
  .000E+00  .000E+00  .000E+00  .000E+00  .000E+00  .000E+00  .000E+00  .000E+00
  .000E+00  .000E+00  .000E+00  .000E+00  .000E+00  .000E+00  .000E+00  .000E+00
  .000E+00  .000E+00  .000E+00  .000E+00
  .241E-01  .256E-01  .312E-01  .362E-01  .405E-01  .404E-01  .520E-01  .733E-01
  .960E-01  .920E-01  .676E-01  .606E-01  .680E-01  .701E-01  .624E-01  .619E-01
  .694E-01  .113E+00  .190E+00  .166E+00  .123E+00  .136E+00  .129E+00  .105E+00
  .102E+00  .104E+00  .832E-01  .956E-01  .753E-01  .696E-01  .540E-01  .610E-01
  .625E-01  .602E-01  .533E-01  .476E-01  .477E-01  .466E-01  .447E-01  .428E-01
  .463E-01  .578E-01  .528E-01  .490E-01  .480E-01  .458E-01  .440E-01  .435E-01
  .431E-01  .431E-01  .432E-01  .428E-01  .441E-01  .415E-01  .423E-01  .437E-01
  .438E-01  .434E-01  .428E-01  .419E-01  .421E-01  .425E-01  .421E-01  .420E-01
  .418E-01  .413E-01  .409E-01  .409E-01  .412E-01  .412E-01  .413E-01  .413E-01
  .411E-01  .412E-01  .413E-01  .412E-01  .412E-01  .412E-01  .000E+00  .000E+00
  .000E+00  .000E+00  .000E+00  .000E+00  .000E+00  .000E+00  .000E+00  .000E+00
  .000E+00  .000E+00  .000E+00  .000E+00  .000E+00  .000E+00  .000E+00  .000E+00
  .000E+00  .000E+00  .000E+00  .000E+00
  .114E-01  .114E-01  .130E-01  .142E-01  .155E-01  .153E-01  .169E-01  .215E-01
  .259E-01  .216E-01  .154E-01  .124E-01  .131E-01  .123E-01  .102E-01  .982E-02
  .116E-01  .158E-01  .240E-01  .191E-01  .131E-01  .134E-01  .104E-01  .762E-02
  .684E-02  .639E-02  .439E-02  .491E-02  .401E-02  .283E-02  .199E-02  .221E-02
  .178E-02  .134E-02  .104E-02  .792E-03  .725E-03  .605E-03  .602E-03  .748E-03
  .879E-03  .677E-03  .545E-03  .393E-03  .369E-03  .313E-03  .247E-03  .215E-03
  .188E-03  .170E-03  .153E-03  .124E-03  .102E-03  .998E-04  .948E-04  .764E-04
  .680E-04  .694E-04  .684E-04  .661E-04  .584E-04  .424E-04  .338E-04  .311E-04
  .304E-04  .307E-04  .275E-04  .266E-04  .246E-04  .224E-04  .209E-04  .190E-04
  .182E-04  .176E-04  .164E-04  .155E-04  .140E-04  .129E-04  .000E+00  .000E+00
  .000E+00  .000E+00  .000E+00  .000E+00  .000E+00  .000E+00  .000E+00  .000E+00
  .000E+00  .000E+00  .000E+00  .000E+00  .000E+00  .000E+00  .000E+00  .000E+00
  .000E+00  .000E+00  .000E+00  .000E+00
  .276E-01  .296E-01  .351E-01  .396E-01  .456E-01  .475E-01  .572E-01  .789E-01
  .102E+00  .938E-01  .692E-01  .607E-01  .688E-01  .661E-01  .588E-01  .593E-01
  .785E-01  .114E+00  .190E+00  .164E+00  .121E+00  .130E+00  .107E+00  .847E-01
  .796E-01  .766E-01  .603E-01  .713E-01  .656E-01  .487E-01  .374E-01  .440E-01
  .366E-01  .296E-01  .241E-01  .196E-01  .188E-01  .166E-01  .168E-01  .230E-01
  .274E-01  .219E-01  .193E-01  .150E-01  .151E-01  .137E-01  .114E-01  .104E-01
  .941E-02  .889E-02  .830E-02  .717E-02  .619E-02  .605E-02  .607E-02  .509E-02
  .567E-02  .560E-02  .586E-02  .594E-02  .533E-02  .380E-02  .309E-02  .323E-02
  .278E-02  .254E-02  .222E-02  .230E-02  .212E-02  .188E-02  .173E-02  .146E-02
  .147E-02  .147E-02  .133E-02  .123E-02  .115E-02  .114E-02  .000E+00  .000E+00
  .000E+00  .000E+00  .000E+00  .000E+00  .000E+00  .000E+00  .000E+00  .000E+00
  .000E+00  .000E+00  .000E+00  .000E+00  .000E+00  .000E+00  .000E+00  .000E+00
  .000E+00  .000E+00  .000E+00  .000E+00
  .333E+02  .334E+02  .335E+02  .344E+02  .344E+02  .344E+02  .344E+02  .348E+02
  .352E+02  .352E+02  .352E+02  .352E+02  .352E+02  .340E+02  .360E+02  .357E+02
  .351E+02  .351E+02  .352E+02  .352E+02  .353E+02  .353E+02  .353E+02  .353E+02
  .352E+02  .352E+02  .352E+02  .352E+02  .352E+02  .352E+02  .352E+02  .352E+02
  .352E+02  .351E+02  .351E+02  .352E+02  .352E+02  .352E+02  .343E+02  .352E+02
  .352E+02  .352E+02  .351E+02  .351E+02  .351E+02  .351E+02  .351E+02  .351E+02
  .351E+02  .351E+02  .351E+02  .351E+02  .329E+02  .352E+02  .352E+02  .346E+02
  .430E+02  .351E+02  .351E+02  .351E+02  .351E+02  .351E+02  .392E+02  .461E+02
  .451E+02  .352E+02  .352E+02  .352E+02  .352E+02  .352E+02  .352E+02  .352E+02
  .352E+02  .352E+02  .352E+02  .352E+02  .352E+02  .352E+02  .000E+00  .000E+00
  .000E+00  .000E+00  .000E+00  .000E+00  .000E+00  .000E+00  .000E+00  .000E+00
  .000E+00  .000E+00  .000E+00  .000E+00  .000E+00  .000E+00  .000E+00  .000E+00
  .000E+00  .000E+00  .000E+00  .000E+00
  .333E+02  .334E+02  .334E+02  .335E+02  .335E+02  .344E+02  .344E+02  .348E+02
  .353E+02  .352E+02  .352E+02  .340E+02  .352E+02  .340E+02  .360E+02  .357E+02
  .352E+02  .352E+02  .352E+02  .352E+02  .352E+02  .352E+02  .352E+02  .352E+02
  .352E+02  .352E+02  .352E+02  .352E+02  .351E+02  .351E+02  .351E+02  .351E+02
  .351E+02  .351E+02  .350E+02  .350E+02  .351E+02  .350E+02  .350E+02  .352E+02
  .351E+02  .351E+02  .351E+02  .351E+02  .351E+02  .351E+02  .350E+02  .350E+02
  .350E+02  .350E+02  .350E+02  .350E+02  .350E+02  .350E+02  .351E+02  .351E+02
  .351E+02  .351E+02  .351E+02  .351E+02  .350E+02  .350E+02  .350E+02  .350E+02
  .350E+02  .350E+02  .350E+02  .350E+02  .351E+02  .351E+02  .351E+02  .351E+02
  .351E+02  .351E+02  .351E+02  .351E+02  .351E+02  .351E+02  .000E+00  .000E+00
  .000E+00  .000E+00  .000E+00  .000E+00  .000E+00  .000E+00  .000E+00  .000E+00
  .000E+00  .000E+00  .000E+00  .000E+00  .000E+00  .000E+00  .000E+00  .000E+00
  .000E+00  .000E+00  .000E+00  .000E+00
  .333E+02  .334E+02  .334E+02  .344E+02  .344E+02  .344E+02  .344E+02  .348E+02
  .352E+02  .352E+02  .352E+02  .352E+02  .352E+02  .340E+02  .360E+02  .357E+02
  .351E+02  .351E+02  .352E+02  .352E+02  .353E+02  .353E+02  .353E+02  .353E+02
  .352E+02  .352E+02  .352E+02  .352E+02  .352E+02  .352E+02  .352E+02  .352E+02
  .352E+02  .351E+02  .351E+02  .352E+02  .352E+02  .352E+02  .350E+02  .352E+02
  .352E+02  .352E+02  .351E+02  .351E+02  .351E+02  .351E+02  .351E+02  .351E+02
  .351E+02  .351E+02  .351E+02  .351E+02  .329E+02  .351E+02  .351E+02  .351E+02
  .351E+02  .351E+02  .351E+02  .351E+02  .351E+02  .351E+02  .351E+02  .351E+02
  .351E+02  .351E+02  .351E+02  .351E+02  .351E+02  .351E+02  .351E+02  .351E+02
  .351E+02  .351E+02  .351E+02  .351E+02  .351E+02  .351E+02  .000E+00  .000E+00
  .000E+00  .000E+00  .000E+00  .000E+00  .000E+00  .000E+00  .000E+00  .000E+00
  .000E+00  .000E+00  .000E+00  .000E+00  .000E+00  .000E+00  .000E+00  .000E+00
  .000E+00  .000E+00  .000E+00  .000E+00
/&   ----------  End of spectral data for channel  1  ----------
Response and Fourier amplitude spectra (78 periods,  .04 -  6.0 sec)   for      
Corrected accelerogram   38695658.CI.SSS.--.HN      Chan  2: 360 Deg     from   
Uncorrected Accelerogram Data             Processed: 09/19/20, CGS  cisss--a    
Rcrd of Fri Sep 18, 2020 23:38:31.0 PDT               (Avol1 v2.0, 4/18 CSMIP)  
                                        (Origin:  To be determined)             
38695658.CI.SSS.--.HN                Start time:  9/19/20, 06:38:31.0 UTC (GPS) 
Station Id. SSS     34.031N, 117.455W    ObsMMS  s/n 1832  (3 Chns of  6 at Sta)
Stringfellow Superfund Site Jurupa Mount SCSN   Data: Acceleration              
Chan  2: 360 Deg                                                                
Rcrd of Fri Sep 18, 2020 23:38:31.0 PDT    Fri Sep 18, 2020 23:38:31.0 PDT      
Hypocenter:  To be determined.               ML:  To be determined.             
Instr Period =  .0050 sec,  Damping =  .707,  Sensitivity = 4.98 v/g  (Nominal) 
                        Record Length =301.000 sec.                             
                                     Uncor Max  =  -.018 g, at   33.460 sec.    
RMS accel of (uncor) record  =        .   Chn. metadata effective date:         
Accelerogram bandpass filtered with 3 dB pts at   .30 and 23.00 cyc/sec         
                 instrument- and base-line correcte                             
                                                                                
                                                                                
                                                                                
                                                                                
                                                                                
Rcrd of Fri Sep 18, 2020 23:38:31.0 PDT    Fri Sep 18, 2020 23:38:31.0 PDT      
                                                                                
38695658.CI.SSS.--.HN     Stringfellow Superfund Site Jurupa Mount SCSChan  2: 3
60 Deg                                                                          
38695658.CI.SSS.--.HN     Stringfellow Superfund Site Jurupa Mount SCSChan  2: 3
60 Deg                                                                          
Units for spectra are inches and sec, except Sa is in fraction of g.            
                                                                                
    2  100    2    6    6  100 -999    3    1    0   15 1832    0    0   41    0
    6   38   31    0  263    9   19 2020   10    3  36035887   39   40   74 -999
35887 -999  100    6 -999 -999 -999 -999 -999 -999 -999 -999 -999 -999 -999 -999
 -999 -999 -999 -99915050    2 -999    0 -999   20 -999 -999    3    1 -99915050
    315050    4   78    1    3    5    0    0 -999    0 -999 -999    6 -999    2
    2    2    4 -999 -999 -999 -999 -999 -999 -999 -999    1 -999 -999 -999  111
    1    1 -999 -999
      .005      .707   358.870      .001     1.000  4981.697     -.018    33.460
   200.000     2.384      .479  -999.000    10.000  -999.000     4.000  -999.000
    20.000     5.848      .000  -999.000  -999.000  -999.000  -999.000      .020
     -.019     -.039     2.000    15.000    34.031  -117.455      .005      .006
     1.128     -.040     -.038   337.100  -999.000  -999.000  -999.000  -999.000
     1.000  -999.000  -999.000  -999.000  -999.000  -999.000  -999.000   120.000
     -.900     2.000     6.800   980.665      .020   301.000    31.831      .003
  -999.000    23.000  -999.000   301.000      .020      .300  -999.000  -999.000
    33.460   -13.261    35.160      .134    35.180      .002      .000      .300
    23.000      .020      .020      .000      .020      .004  -999.000  -999.000
      .048      .060      .004      .002      .000      .000  -999.000  -999.000
  -999.000  -999.000  -999.000  -999.000  -999.000  -999.000  -999.000  -999.000
  -999.000  -999.000  -999.000  -999.000
      .050
      .040      .042      .044      .046      .048      .050      .055      .060
      .065      .070      .075      .080      .085      .090      .095      .100
      .110      .120      .130      .140      .150      .160      .170      .180
      .190      .200      .220      .240      .260      .280      .300      .320
      .340      .360      .380      .400      .420      .440      .460      .480
      .500      .550      .600      .650      .700      .750      .800      .850
      .900      .950     1.000     1.100     1.200     1.300     1.400     1.500
     1.600     1.700     1.800     1.900     2.000     2.200     2.400     2.600
     2.800     3.000     3.200     3.400     3.600     3.800     4.000     4.200
     4.400     4.600     4.800     5.000     5.500     6.000      .000      .000
      .000      .000      .000      .000      .000      .000      .000      .000
      .000      .000      .000      .000      .000      .000      .000      .000
      .000      .000      .000      .000
Fourier amplitude spectra in in/sec.
  .000E+00  .000E+00  .000E+00  .000E+00  .000E+00  .000E+00  .000E+00  .000E+00
  .000E+00  .000E+00  .000E+00  .000E+00  .000E+00  .000E+00  .000E+00  .000E+00
  .000E+00  .000E+00  .000E+00  .000E+00  .000E+00  .000E+00  .000E+00  .000E+00
  .000E+00  .000E+00  .000E+00  .000E+00  .000E+00  .000E+00  .000E+00  .000E+00
  .000E+00  .000E+00  .000E+00  .000E+00  .000E+00  .000E+00  .000E+00  .000E+00
  .000E+00  .000E+00  .000E+00  .000E+00  .000E+00  .000E+00  .000E+00  .000E+00
  .000E+00  .000E+00  .000E+00  .000E+00  .000E+00  .000E+00  .000E+00  .000E+00
  .000E+00  .000E+00  .000E+00  .000E+00  .000E+00  .000E+00  .000E+00  .000E+00
  .000E+00  .000E+00  .000E+00  .000E+00  .000E+00  .000E+00  .000E+00  .000E+00
  .000E+00  .000E+00  .000E+00  .000E+00  .000E+00  .000E+00  .000E+00  .000E+00
  .000E+00  .000E+00  .000E+00  .000E+00  .000E+00  .000E+00  .000E+00  .000E+00
  .000E+00  .000E+00  .000E+00  .000E+00  .000E+00  .000E+00  .000E+00  .000E+00
  .000E+00  .000E+00  .000E+00  .000E+00
Damping =  .05. Data of Sd,Sv,Sa,Pssv,ttSd,ttSv,ttSa :
  .325E-03  .393E-03  .529E-03  .644E-03  .711E-03  .787E-03  .133E-02  .167E-02
  .146E-02  .156E-02  .134E-02  .125E-02  .139E-02  .128E-02  .150E-02  .178E-02
  .183E-02  .165E-02  .218E-02  .298E-02  .260E-02  .272E-02  .201E-02  .167E-02
  .188E-02  .171E-02  .143E-02  .160E-02  .168E-02  .169E-02  .158E-02  .200E-02
  .176E-02  .197E-02  .170E-02  .151E-02  .131E-02  .156E-02  .183E-02  .170E-02
