Response and Fourier amplitude spectra (78 periods,  .04 -  6.0 sec)   for      
Corrected accelerogram   38695658.CI.STS.--.HN      Chan  1:  90 Deg     from   
Uncorrected Accelerogram Data             Processed: 09/19/20, CGS  cists--n    
Rcrd of Fri Sep 18, 2020 23:38:30.0 PDT               (Avol1 v2.0, 4/18 CSMIP)  
                                        (Origin:  To be determined)             
38695658.CI.STS.--.HN                Start time:  9/19/20, 06:38:30.0 UTC (GPS) 
Station Id. STS     33.790N, 118.199W    ObsMMS  s/n 4168  (3 Chns of  3 at Sta)
Long Beach, I-405 & Pacific Coast Hwy    SCSN   Data: Acceleration              
Chan  1:  90 Deg                                                                
Rcrd of Fri Sep 18, 2020 23:38:30.0 PDT    Fri Sep 18, 2020 23:38:30.0 PDT      
Hypocenter:  To be determined.               ML:  To be determined.             
Instr Period =  .0050 sec,  Damping =  .707,  Sensitivity = 4.98 v/g  (Nominal) 
                        Record Length =301.000 sec.                             
                                     Uncor Max  =  -.030 g, at   29.400 sec.    
RMS accel of (uncor) record  =        .   Chn. metadata effective date:         
Accelerogram bandpass filtered with 3 dB pts at   .30 and 23.00 cyc/sec         
                 instrument- and base-line correcte                             
                                                                                
                                                                                
                                                                                
                                                                                
                                                                                
Rcrd of Fri Sep 18, 2020 23:38:30.0 PDT    Fri Sep 18, 2020 23:38:30.0 PDT      
                                                                                
38695658.CI.STS.--.HN     Long Beach, I-405 & Pacific Coast Hwy   Chan  1:  90 D
eg                                                                              
38695658.CI.STS.--.HN     Long Beach, I-405 & Pacific Coast Hwy   Chan  1:  90 D
eg                                                                              
Units for spectra are inches and sec, except Sa is in fraction of g.            
                                                                                
    1  100    1    3    3  100 -999    3    1    0   15 4168    050576   41    0
    6   38   30    8  263    9   19 2020   10    3   9035488   39   37   74 -999
35488 -999  100    6 -999 -999 -999 -999 -999 -999 -999 -999 -999 -999 -999 -999
 -999 -999 -999 -99915050    2 -999    0 -999   20 -999 -999    3    1 -99915050
    315050    4   78    1    3    5    0    0 -999    0 -999 -999    6 -999    2
    2    2    4 -999 -999 -999 -999 -999 -999 -999 -999    1 -999 -999 -999  111
    1    1 -999 -999
      .005      .707   354.880      .001     1.000  4984.091     -.030    29.400
   200.000     2.384      .478  -999.000    10.000  -999.000     4.000  -999.000
    20.000    -6.729      .000  -999.000  -999.000  -999.000  -999.000      .000
      .001      .001     2.000    15.000    33.790  -118.199      .008      .011
     1.428      .000      .003     4.000  -999.000  -999.000  -999.000  -999.000
     1.000  -999.000    -8.000  -999.000  -999.000  -999.000  -999.000   120.000
     -.900     2.000     6.800   980.665      .020   301.000    31.831      .000
  -999.000    23.000  -999.000   301.000      .020      .300  -999.000  -999.000
    29.400   -28.887    36.680     1.324    36.840      .103      .000      .300
    23.000      .020      .020      .000      .020      .045  -999.000  -999.000
      .095      .120      .039      .029      .005      .001  -999.000  -999.000
  -999.000  -999.000  -999.000  -999.000  -999.000  -999.000  -999.000  -999.000
  -999.000  -999.000  -999.000  -999.000
      .050
      .040      .042      .044      .046      .048      .050      .055      .060
      .065      .070      .075      .080      .085      .090      .095      .100
      .110      .120      .130      .140      .150      .160      .170      .180
      .190      .200      .220      .240      .260      .280      .300      .320
      .340      .360      .380      .400      .420      .440      .460      .480
      .500      .550      .600      .650      .700      .750      .800      .850
      .900      .950     1.000     1.100     1.200     1.300     1.400     1.500
     1.600     1.700     1.800     1.900     2.000     2.200     2.400     2.600
     2.800     3.000     3.200     3.400     3.600     3.800     4.000     4.200
     4.400     4.600     4.800     5.000     5.500     6.000      .000      .000
      .000      .000      .000      .000      .000      .000      .000      .000
      .000      .000      .000      .000      .000      .000      .000      .000
      .000      .000      .000      .000
Fourier amplitude spectra in in/sec.
  .000E+00  .000E+00  .000E+00  .000E+00  .000E+00  .000E+00  .000E+00  .000E+00
  .000E+00  .000E+00  .000E+00  .000E+00  .000E+00  .000E+00  .000E+00  .000E+00
  .000E+00  .000E+00  .000E+00  .000E+00  .000E+00  .000E+00  .000E+00  .000E+00
  .000E+00  .000E+00  .000E+00  .000E+00  .000E+00  .000E+00  .000E+00  .000E+00
  .000E+00  .000E+00  .000E+00  .000E+00  .000E+00  .000E+00  .000E+00  .000E+00
  .000E+00  .000E+00  .000E+00  .000E+00  .000E+00  .000E+00  .000E+00  .000E+00
  .000E+00  .000E+00  .000E+00  .000E+00  .000E+00  .000E+00  .000E+00  .000E+00
  .000E+00  .000E+00  .000E+00  .000E+00  .000E+00  .000E+00  .000E+00  .000E+00
  .000E+00  .000E+00  .000E+00  .000E+00  .000E+00  .000E+00  .000E+00  .000E+00
  .000E+00  .000E+00  .000E+00  .000E+00  .000E+00  .000E+00  .000E+00  .000E+00
  .000E+00  .000E+00  .000E+00  .000E+00  .000E+00  .000E+00  .000E+00  .000E+00
  .000E+00  .000E+00  .000E+00  .000E+00  .000E+00  .000E+00  .000E+00  .000E+00
  .000E+00  .000E+00  .000E+00  .000E+00
Damping =  .05. Data of Sd,Sv,Sa,Pssv,ttSd,ttSv,ttSa :
  .472E-03  .530E-03  .592E-03  .671E-03  .746E-03  .828E-03  .117E-02  .147E-02
  .202E-02  .213E-02  .298E-02  .364E-02  .507E-02  .671E-02  .732E-02  .672E-02
  .104E-01  .132E-01  .146E-01  .166E-01  .203E-01  .208E-01  .211E-01  .181E-01
  .157E-01  .134E-01  .181E-01  .196E-01  .240E-01  .254E-01  .238E-01  .266E-01
  .320E-01  .404E-01  .505E-01  .695E-01  .914E-01  .109E+00  .121E+00  .129E+00
  .130E+00  .141E+00  .137E+00  .110E+00  .915E-01  .807E-01  .733E-01  .657E-01
  .600E-01  .564E-01  .535E-01  .438E-01  .396E-01  .421E-01  .400E-01  .403E-01
  .423E-01  .497E-01  .533E-01  .523E-01  .495E-01  .545E-01  .642E-01  .603E-01
  .533E-01  .520E-01  .538E-01  .543E-01  .530E-01  .507E-01  .483E-01  .463E-01
  .450E-01  .441E-01  .437E-01  .435E-01  .433E-01  .429E-01  .000E+00  .000E+00
  .000E+00  .000E+00  .000E+00  .000E+00  .000E+00  .000E+00  .000E+00  .000E+00
  .000E+00  .000E+00  .000E+00  .000E+00  .000E+00  .000E+00  .000E+00  .000E+00
  .000E+00  .000E+00  .000E+00  .000E+00
  .336E-01  .372E-01  .407E-01  .440E-01  .475E-01  .562E-01  .738E-01  .943E-01
  .146E+00  .153E+00  .219E+00  .210E+00  .308E+00  .434E+00  .453E+00  .396E+00
  .572E+00  .699E+00  .729E+00  .770E+00  .913E+00  .877E+00  .783E+00  .705E+00
  .573E+00  .480E+00  .531E+00  .555E+00  .484E+00  .488E+00  .480E+00  .478E+00
  .531E+00  .605E+00  .719E+00  .934E+00  .122E+01  .151E+01  .171E+01  .180E+01
  .175E+01  .163E+01  .153E+01  .132E+01  .114E+01  .977E+00  .911E+00  .841E+00
  .748E+00  .693E+00  .625E+00  .578E+00  .553E+00  .561E+00  .540E+00  .527E+00
  .547E+00  .545E+00  .525E+00  .533E+00  .526E+00  .512E+00  .538E+00  .555E+00
  .547E+00  .538E+00  .537E+00  .539E+00  .541E+00  .541E+00  .539E+00  .536E+00
  .533E+00  .531E+00  .529E+00  .527E+00  .525E+00  .524E+00  .000E+00  .000E+00
  .000E+00  .000E+00  .000E+00  .000E+00  .000E+00  .000E+00  .000E+00  .000E+00
  .000E+00  .000E+00  .000E+00  .000E+00  .000E+00  .000E+00  .000E+00  .000E+00
  .000E+00  .000E+00  .000E+00  .000E+00
  .303E-01  .308E-01  .314E-01  .324E-01  .331E-01  .338E-01  .395E-01  .417E-01
  .487E-01  .451E-01  .552E-01  .586E-01  .725E-01  .851E-01  .823E-01  .683E-01
  .892E-01  .953E-01  .887E-01  .874E-01  .940E-01  .842E-01  .748E-01  .575E-01
  .447E-01  .339E-01  .382E-01  .346E-01  .363E-01  .329E-01  .272E-01  .270E-01
  .287E-01  .317E-01  .356E-01  .447E-01  .530E-01  .573E-01  .588E-01  .580E-01
  .534E-01  .481E-01  .391E-01  .268E-01  .192E-01  .148E-01  .118E-01  .938E-02
  .766E-02  .650E-02  .555E-02  .375E-02  .286E-02  .259E-02  .214E-02  .187E-02
  .173E-02  .180E-02  .172E-02  .153E-02  .131E-02  .119E-02  .118E-02  .962E-03
  .742E-03  .635E-03  .579E-03  .523E-03  .460E-03  .400E-03  .348E-03  .307E-03
  .275E-03  .250E-03  .230E-03  .214E-03  .187E-03  .166E-03  .000E+00  .000E+00
  .000E+00  .000E+00  .000E+00  .000E+00  .000E+00  .000E+00  .000E+00  .000E+00
  .000E+00  .000E+00  .000E+00  .000E+00  .000E+00  .000E+00  .000E+00  .000E+00
  .000E+00  .000E+00  .000E+00  .000E+00
  .741E-01  .793E-01  .845E-01  .916E-01  .976E-01  .104E+00  .134E+00  .154E+00
  .195E+00  .192E+00  .250E+00  .286E+00  .375E+00  .468E+00  .484E+00  .422E+00
  .594E+00  .691E+00  .703E+00  .744E+00  .850E+00  .818E+00  .781E+00  .632E+00
  .518E+00  .420E+00  .518E+00  .514E+00  .580E+00  .570E+00  .498E+00  .521E+00
  .592E+00  .706E+00  .836E+00  .109E+01  .137E+01  .155E+01  .165E+01  .169E+01
  .163E+01  .162E+01  .144E+01  .106E+01  .821E+00  .676E+00  .576E+00  .485E+00
  .419E+00  .373E+00  .336E+00  .250E+00  .207E+00  .204E+00  .179E+00  .169E+00
  .166E+00  .184E+00  .186E+00  .173E+00  .156E+00  .156E+00  .168E+00  .146E+00
  .120E+00  .109E+00  .106E+00  .100E+00  .925E-01  .838E-01  .758E-01  .693E-01
  .642E-01  .603E-01  .572E-01  .547E-01  .495E-01  .449E-01  .000E+00  .000E+00
  .000E+00  .000E+00  .000E+00  .000E+00  .000E+00  .000E+00  .000E+00  .000E+00
  .000E+00  .000E+00  .000E+00  .000E+00  .000E+00  .000E+00  .000E+00  .000E+00
  .000E+00  .000E+00  .000E+00  .000E+00
  .293E+02  .293E+02  .293E+02  .293E+02  .293E+02  .294E+02  .294E+02  .294E+02
  .294E+02  .300E+02  .300E+02  .293E+02  .294E+02  .295E+02  .295E+02  .295E+02
  .297E+02  .295E+02  .294E+02  .294E+02  .294E+02  .299E+02  .300E+02  .300E+02
  .370E+02  .365E+02  .370E+02  .368E+02  .368E+02  .368E+02  .370E+02  .371E+02
  .371E+02  .371E+02  .371E+02  .371E+02  .371E+02  .371E+02  .371E+02  .372E+02
  .372E+02  .370E+02  .370E+02  .370E+02  .368E+02  .368E+02  .368E+02  .365E+02
  .365E+02  .366E+02  .366E+02  .363E+02  .363E+02  .368E+02  .368E+02  .363E+02
  .368E+02  .368E+02  .368E+02  .368E+02  .368E+02  .368E+02  .368E+02  .368E+02
  .368E+02  .368E+02  .368E+02  .368E+02  .368E+02  .368E+02  .368E+02  .368E+02
  .368E+02  .368E+02  .368E+02  .368E+02  .368E+02  .368E+02  .000E+00  .000E+00
  .000E+00  .000E+00  .000E+00  .000E+00  .000E+00  .000E+00  .000E+00  .000E+00
  .000E+00  .000E+00  .000E+00  .000E+00  .000E+00  .000E+00  .000E+00  .000E+00
  .000E+00  .000E+00  .000E+00  .000E+00
  .294E+02  .294E+02  .294E+02  .294E+02  .294E+02  .294E+02  .294E+02  .294E+02
  .294E+02  .299E+02  .300E+02  .297E+02  .294E+02  .294E+02  .295E+02  .295E+02
  .295E+02  .294E+02  .294E+02  .295E+02  .294E+02  .300E+02  .300E+02  .299E+02
  .299E+02  .299E+02  .299E+02  .299E+02  .367E+02  .299E+02  .299E+02  .371E+02
  .371E+02  .371E+02  .371E+02  .372E+02  .370E+02  .370E+02  .370E+02  .370E+02
  .370E+02  .371E+02  .369E+02  .369E+02  .369E+02  .369E+02  .367E+02  .367E+02
  .367E+02  .367E+02  .367E+02  .369E+02  .369E+02  .369E+02  .367E+02  .369E+02
  .369E+02  .369E+02  .367E+02  .367E+02  .367E+02  .367E+02  .367E+02  .367E+02
  .367E+02  .367E+02  .367E+02  .367E+02  .367E+02  .367E+02  .367E+02  .367E+02
  .367E+02  .367E+02  .367E+02  .367E+02  .367E+02  .367E+02  .000E+00  .000E+00
  .000E+00  .000E+00  .000E+00  .000E+00  .000E+00  .000E+00  .000E+00  .000E+00
  .000E+00  .000E+00  .000E+00  .000E+00  .000E+00  .000E+00  .000E+00  .000E+00
  .000E+00  .000E+00  .000E+00  .000E+00
  .293E+02  .293E+02  .293E+02  .293E+02  .293E+02  .294E+02  .294E+02  .294E+02
  .294E+02  .300E+02  .300E+02  .293E+02  .294E+02  .294E+02  .295E+02  .295E+02
  .297E+02  .295E+02  .294E+02  .294E+02  .294E+02  .299E+02  .299E+02  .300E+02
  .370E+02  .365E+02  .370E+02  .368E+02  .368E+02  .368E+02  .370E+02  .370E+02
  .370E+02  .370E+02  .371E+02  .371E+02  .371E+02  .371E+02  .371E+02  .371E+02
  .372E+02  .370E+02  .370E+02  .370E+02  .368E+02  .368E+02  .368E+02  .365E+02
  .365E+02  .365E+02  .365E+02  .363E+02  .363E+02  .368E+02  .368E+02  .363E+02
  .363E+02  .368E+02  .368E+02  .368E+02  .368E+02  .368E+02  .368E+02  .368E+02
  .368E+02  .368E+02  .368E+02  .368E+02  .368E+02  .368E+02  .368E+02  .368E+02
  .368E+02  .368E+02  .368E+02  .367E+02  .367E+02  .367E+02  .000E+00  .000E+00
  .000E+00  .000E+00  .000E+00  .000E+00  .000E+00  .000E+00  .000E+00  .000E+00
  .000E+00  .000E+00  .000E+00  .000E+00  .000E+00  .000E+00  .000E+00  .000E+00
  .000E+00  .000E+00  .000E+00  .000E+00
/&   ----------  End of spectral data for channel  1  ----------
Response and Fourier amplitude spectra (78 periods,  .04 -  6.0 sec)   for      
Corrected accelerogram   38695658.CI.STS.--.HN      Chan  2: 360 Deg     from   
Uncorrected Accelerogram Data             Processed: 09/19/20, CGS  cists--n    
Rcrd of Fri Sep 18, 2020 23:38:30.0 PDT               (Avol1 v2.0, 4/18 CSMIP)  
                                        (Origin:  To be determined)             
38695658.CI.STS.--.HN                Start time:  9/19/20, 06:38:30.0 UTC (GPS) 
Station Id. STS     33.790N, 118.199W    ObsMMS  s/n 4168  (3 Chns of  3 at Sta)
Long Beach, I-405 & Pacific Coast Hwy    SCSN   Data: Acceleration              
Chan  2: 360 Deg                                                                
Rcrd of Fri Sep 18, 2020 23:38:30.0 PDT    Fri Sep 18, 2020 23:38:30.0 PDT      
Hypocenter:  To be determined.               ML:  To be determined.             
Instr Period =  .0050 sec,  Damping =  .707,  Sensitivity = 4.99 v/g  (Nominal) 
                        Record Length =301.000 sec.                             
                                     Uncor Max  =   .023 g, at   29.750 sec.    
RMS accel of (uncor) record  =        .   Chn. metadata effective date:         
Accelerogram bandpass filtered with 3 dB pts at   .30 and 23.00 cyc/sec         
                 instrument- and base-line correcte                             
                                                                                
                                                                                
                                                                                
                                                                                
                                                                                
Rcrd of Fri Sep 18, 2020 23:38:30.0 PDT    Fri Sep 18, 2020 23:38:30.0 PDT      
                                                                                
38695658.CI.STS.--.HN     Long Beach, I-405 & Pacific Coast Hwy   Chan  2: 360 D
eg                                                                              
38695658.CI.STS.--.HN     Long Beach, I-405 & Pacific Coast Hwy   Chan  2: 360 D
eg                                                                              
Units for spectra are inches and sec, except Sa is in fraction of g.            
                                                                                
    2  100    2    3    3  100 -999    3    1    0   15 4168    050576   41    0
    6   38   30    8  263    9   19 2020   10    3  36035563   39   37   74 -999
35563 -999  100    6 -999 -999 -999 -999 -999 -999 -999 -999 -999 -999 -999 -999
 -999 -999 -999 -99915050    2 -999    0 -999   20 -999 -999    3    1 -99915050
    315050    4   78    1    3    5    0    0 -999    0 -999 -999    6 -999    2
    2    2    4 -999 -999 -999 -999 -999 -999 -999 -999    1 -999 -999 -999  111
    1    1 -999 -999
      .005      .707   355.630      .001     1.000  4991.271      .023    29.750
   200.000     2.384      .478  -999.000    10.000  -999.000     4.000  -999.000
    20.000   -13.453      .000  -999.000  -999.000  -999.000  -999.000     -.001
     -.001      .000     2.000    15.000    33.790  -118.199      .009      .013
     1.435     -.002      .002     4.000  -999.000  -999.000  -999.000  -999.000
     1.000  -999.000  -999.000  -999.000  -999.000  -999.000  -999.000   120.000
     -.900     2.000     6.800   980.665      .020   301.000    31.831      .000
  -999.000    23.000  -999.000   301.000      .020      .300  -999.000  -999.000
    36.880    19.521    36.940     1.438    37.100      .122      .000      .300
    23.000      .020      .020      .000      .020      .047  -999.000  -999.000
      .071      .110      .034      .030      .006      .001  -999.000  -999.000
  -999.000  -999.000  -999.000  -999.000  -999.000  -999.000  -999.000  -999.000
  -999.000  -999.000  -999.000  -999.000
      .050
      .040      .042      .044      .046      .048      .050      .055      .060
      .065      .070      .075      .080      .085      .090      .095      .100
      .110      .120      .130      .140      .150      .160      .170      .180
      .190      .200      .220      .240      .260      .280      .300      .320
      .340      .360      .380      .400      .420      .440      .460      .480
      .500      .550      .600      .650      .700      .750      .800      .850
      .900      .950     1.000     1.100     1.200     1.300     1.400     1.500
     1.600     1.700     1.800     1.900     2.000     2.200     2.400     2.600
     2.800     3.000     3.200     3.400     3.600     3.800     4.000     4.200
     4.400     4.600     4.800     5.000     5.500     6.000      .000      .000
      .000      .000      .000      .000      .000      .000      .000      .000
      .000      .000      .000      .000      .000      .000      .000      .000
      .000      .000      .000      .000
Fourier amplitude spectra in in/sec.
  .000E+00  .000E+00  .000E+00  .000E+00  .000E+00  .000E+00  .000E+00  .000E+00
  .000E+00  .000E+00  .000E+00  .000E+00  .000E+00  .000E+00  .000E+00  .000E+00
  .000E+00  .000E+00  .000E+00  .000E+00  .000E+00  .000E+00  .000E+00  .000E+00
  .000E+00  .000E+00  .000E+00  .000E+00  .000E+00  .000E+00  .000E+00  .000E+00
  .000E+00  .000E+00  .000E+00  .000E+00  .000E+00  .000E+00  .000E+00  .000E+00
  .000E+00  .000E+00  .000E+00  .000E+00  .000E+00  .000E+00  .000E+00  .000E+00
  .000E+00  .000E+00  .000E+00  .000E+00  .000E+00  .000E+00  .000E+00  .000E+00
  .000E+00  .000E+00  .000E+00  .000E+00  .000E+00  .000E+00  .000E+00  .000E+00
  .000E+00  .000E+00  .000E+00  .000E+00  .000E+00  .000E+00  .000E+00  .000E+00
  .000E+00  .000E+00  .000E+00  .000E+00  .000E+00  .000E+00  .000E+00  .000E+00
  .000E+00  .000E+00  .000E+00  .000E+00  .000E+00  .000E+00  .000E+00  .000E+00
  .000E+00  .000E+00  .000E+00  .000E+00  .000E+00  .000E+00  .000E+00  .000E+00
  .000E+00  .000E+00  .000E+00  .000E+00
Damping =  .05. Data of Sd,Sv,Sa,Pssv,ttSd,ttSv,ttSa :
  .402E-03  .450E-03  .492E-03  .539E-03  .618E-03  .691E-03  .869E-03  .977E-03
  .143E-02  .199E-02  .251E-02  .310E-02  .357E-02  .396E-02  .468E-02  .657E-02
  .838E-02  .802E-02  .943E-02  .890E-02  .128E-01  .140E-01  .144E-01  .154E-01
  .122E-01  .130E-01  .165E-01  .207E-01  .222E-01  .235E-01  .265E-01  .285E-01
  .351E-01  .380E-01  .457E-01  .570E-01  .744E-01  .965E-01  .115E+00  .130E+00
