Response and Fourier amplitude spectra (78 periods,  .04 -  6.0 sec)   for      
Corrected accelerogram   38695658.CI.STC.--.HN      Chan  1:  90 Deg     from   
Uncorrected Accelerogram Data             Processed: 09/19/20, CGS  cistc--l    
Rcrd of Fri Sep 18, 2020 23:38:38.0 PDT               (Avol1 v2.0, 4/18 CSMIP)  
                                        (Origin:  To be determined)             
38695658.CI.STC.--.HN                Start time:  9/19/20, 06:38:38.0 UTC (GPS) 
Station Id. STC     34.303N, 119.187W    ObsMMS  s/n 4303  (3 Chns of  3 at Sta)
Ventura, Foothill Rd.                    SCSN   Data: Acceleration              
Chan  1:  90 Deg                                                                
Rcrd of Fri Sep 18, 2020 23:38:38.0 PDT    Fri Sep 18, 2020 23:38:38.0 PDT      
Hypocenter:  To be determined.               ML:  To be determined.             
Instr Period =  .0050 sec,  Damping =  .707,  Sensitivity = 4.98 v/g  (Nominal) 
                        Record Length =301.000 sec.                             
                                     Uncor Max  =  -.006 g, at   42.910 sec.    
RMS accel of (uncor) record  =        .   Chn. metadata effective date:         
Accelerogram bandpass filtered with 3 dB pts at   .30 and 23.00 cyc/sec         
                 instrument- and base-line correcte                             
                                                                                
                                                                                
                                                                                
                                                                                
                                                                                
Rcrd of Fri Sep 18, 2020 23:38:38.0 PDT    Fri Sep 18, 2020 23:38:38.0 PDT      
                                                                                
38695658.CI.STC.--.HN     Ventura, Foothill Rd.   Chan  1:  90 Deg              
                                                                                
38695658.CI.STC.--.HN     Ventura, Foothill Rd.   Chan  1:  90 Deg              
                                                                                
Units for spectra are inches and sec, except Sa is in fraction of g.            
                                                                                
    1  100    1    3    3  100 -999    3    1    0   15 4303    050653   41    0
    6   38   38    8  263    9   19 2020   10    3   9036086   39   21   74 -999
36086 -999  100    6 -999 -999 -999 -999 -999 -999 -999 -999 -999 -999 -999 -999
 -999 -999 -999 -99915050    2 -999    0 -999   20 -999 -999    3    1 -99915050
    315050    4   78    1    3    5    0    0 -999    0 -999 -999    6 -999    2
    2    2    4 -999 -999 -999 -999 -999 -999 -999 -999    1 -999 -999 -999  111
    1    1 -999 -999
      .005      .707   360.860      .000     1.000  4981.697     -.006    42.910
   200.000     2.384      .479  -999.000    10.000  -999.000     4.000  -999.000
    20.000    -8.956      .000  -999.000  -999.000  -999.000  -999.000      .001
      .000     -.001     2.000    15.000    34.303  -119.187      .001      .002
     1.627     -.001      .000   180.000  -999.000  -999.000  -999.000  -999.000
     1.000  -999.000    -8.000  -999.000  -999.000  -999.000  -999.000   120.000
     -.900     2.000     6.800   980.665      .020   301.000    31.831      .000
  -999.000    23.000  -999.000   301.000      .020      .300  -999.000  -999.000
    42.900    -5.594    43.120      .226    42.620      .017      .000      .300
    23.000      .020      .020      .000      .020      .012  -999.000  -999.000
      .028      .260      .015      .020      .001      .000  -999.000  -999.000
  -999.000  -999.000  -999.000  -999.000  -999.000  -999.000  -999.000  -999.000
  -999.000  -999.000  -999.000  -999.000
      .050
      .040      .042      .044      .046      .048      .050      .055      .060
      .065      .070      .075      .080      .085      .090      .095      .100
      .110      .120      .130      .140      .150      .160      .170      .180
      .190      .200      .220      .240      .260      .280      .300      .320
      .340      .360      .380      .400      .420      .440      .460      .480
      .500      .550      .600      .650      .700      .750      .800      .850
      .900      .950     1.000     1.100     1.200     1.300     1.400     1.500
     1.600     1.700     1.800     1.900     2.000     2.200     2.400     2.600
     2.800     3.000     3.200     3.400     3.600     3.800     4.000     4.200
     4.400     4.600     4.800     5.000     5.500     6.000      .000      .000
      .000      .000      .000      .000      .000      .000      .000      .000
      .000      .000      .000      .000      .000      .000      .000      .000
      .000      .000      .000      .000
Fourier amplitude spectra in in/sec.
  .000E+00  .000E+00  .000E+00  .000E+00  .000E+00  .000E+00  .000E+00  .000E+00
  .000E+00  .000E+00  .000E+00  .000E+00  .000E+00  .000E+00  .000E+00  .000E+00
  .000E+00  .000E+00  .000E+00  .000E+00  .000E+00  .000E+00  .000E+00  .000E+00
  .000E+00  .000E+00  .000E+00  .000E+00  .000E+00  .000E+00  .000E+00  .000E+00
  .000E+00  .000E+00  .000E+00  .000E+00  .000E+00  .000E+00  .000E+00  .000E+00
  .000E+00  .000E+00  .000E+00  .000E+00  .000E+00  .000E+00  .000E+00  .000E+00
  .000E+00  .000E+00  .000E+00  .000E+00  .000E+00  .000E+00  .000E+00  .000E+00
  .000E+00  .000E+00  .000E+00  .000E+00  .000E+00  .000E+00  .000E+00  .000E+00
  .000E+00  .000E+00  .000E+00  .000E+00  .000E+00  .000E+00  .000E+00  .000E+00
  .000E+00  .000E+00  .000E+00  .000E+00  .000E+00  .000E+00  .000E+00  .000E+00
  .000E+00  .000E+00  .000E+00  .000E+00  .000E+00  .000E+00  .000E+00  .000E+00
  .000E+00  .000E+00  .000E+00  .000E+00  .000E+00  .000E+00  .000E+00  .000E+00
  .000E+00  .000E+00  .000E+00  .000E+00
Damping =  .05. Data of Sd,Sv,Sa,Pssv,ttSd,ttSv,ttSa :
  .943E-04  .104E-03  .115E-03  .126E-03  .138E-03  .151E-03  .186E-03  .223E-03
  .276E-03  .346E-03  .417E-03  .488E-03  .641E-03  .731E-03  .837E-03  .904E-03
  .120E-02  .187E-02  .213E-02  .228E-02  .244E-02  .295E-02  .365E-02  .417E-02
  .500E-02  .573E-02  .754E-02  .128E-01  .182E-01  .189E-01  .175E-01  .167E-01
  .161E-01  .147E-01  .142E-01  .148E-01  .142E-01  .137E-01  .123E-01  .118E-01
  .114E-01  .101E-01  .952E-02  .888E-02  .106E-01  .109E-01  .109E-01  .103E-01
  .881E-02  .804E-02  .879E-02  .104E-01  .113E-01  .107E-01  .128E-01  .116E-01
  .117E-01  .118E-01  .116E-01  .118E-01  .161E-01  .162E-01  .135E-01  .112E-01
  .102E-01  .981E-02  .932E-02  .893E-02  .860E-02  .832E-02  .806E-02  .782E-02
  .764E-02  .752E-02  .740E-02  .726E-02  .707E-02  .696E-02  .000E+00  .000E+00
  .000E+00  .000E+00  .000E+00  .000E+00  .000E+00  .000E+00  .000E+00  .000E+00
  .000E+00  .000E+00  .000E+00  .000E+00  .000E+00  .000E+00  .000E+00  .000E+00
  .000E+00  .000E+00  .000E+00  .000E+00
  .291E-02  .320E-02  .350E-02  .379E-02  .404E-02  .440E-02  .586E-02  .769E-02
  .985E-02  .133E-01  .157E-01  .229E-01  .287E-01  .320E-01  .368E-01  .448E-01
  .552E-01  .749E-01  .871E-01  .836E-01  .952E-01  .101E+00  .118E+00  .125E+00
  .143E+00  .152E+00  .196E+00  .314E+00  .444E+00  .438E+00  .395E+00  .359E+00
  .325E+00  .306E+00  .291E+00  .266E+00  .235E+00  .240E+00  .230E+00  .213E+00
  .198E+00  .162E+00  .142E+00  .128E+00  .124E+00  .130E+00  .145E+00  .148E+00
  .140E+00  .130E+00  .122E+00  .122E+00  .125E+00  .121E+00  .120E+00  .113E+00
  .104E+00  .995E-01  .987E-01  .101E+00  .103E+00  .102E+00  .986E-01  .958E-01
  .928E-01  .904E-01  .885E-01  .872E-01  .863E-01  .856E-01  .861E-01  .865E-01
  .867E-01  .869E-01  .870E-01  .871E-01  .872E-01  .872E-01  .000E+00  .000E+00
  .000E+00  .000E+00  .000E+00  .000E+00  .000E+00  .000E+00  .000E+00  .000E+00
  .000E+00  .000E+00  .000E+00  .000E+00  .000E+00  .000E+00  .000E+00  .000E+00
  .000E+00  .000E+00  .000E+00  .000E+00
  .603E-02  .606E-02  .609E-02  .611E-02  .614E-02  .618E-02  .629E-02  .633E-02
  .669E-02  .724E-02  .755E-02  .776E-02  .910E-02  .931E-02  .952E-02  .930E-02
  .102E-01  .134E-01  .128E-01  .120E-01  .111E-01  .118E-01  .129E-01  .133E-01
  .142E-01  .147E-01  .160E-01  .232E-01  .275E-01  .245E-01  .199E-01  .166E-01
  .145E-01  .117E-01  .101E-01  .939E-02  .838E-02  .727E-02  .599E-02  .527E-02
  .472E-02  .344E-02  .271E-02  .220E-02  .224E-02  .202E-02  .177E-02  .146E-02
  .112E-02  .917E-03  .905E-03  .888E-03  .808E-03  .651E-03  .670E-03  .546E-03
  .489E-03  .435E-03  .382E-03  .337E-03  .414E-03  .345E-03  .244E-03  .173E-03
  .145E-03  .123E-03  .105E-03  .904E-04  .791E-04  .700E-04  .623E-04  .559E-04
  .507E-04  .464E-04  .427E-04  .393E-04  .332E-04  .288E-04  .000E+00  .000E+00
  .000E+00  .000E+00  .000E+00  .000E+00  .000E+00  .000E+00  .000E+00  .000E+00
  .000E+00  .000E+00  .000E+00  .000E+00  .000E+00  .000E+00  .000E+00  .000E+00
  .000E+00  .000E+00  .000E+00  .000E+00
  .148E-01  .156E-01  .164E-01  .172E-01  .181E-01  .190E-01  .213E-01  .234E-01
  .267E-01  .311E-01  .349E-01  .383E-01  .474E-01  .511E-01  .554E-01  .568E-01
  .684E-01  .978E-01  .103E+00  .102E+00  .102E+00  .116E+00  .135E+00  .146E+00
  .165E+00  .180E+00  .215E+00  .336E+00  .439E+00  .424E+00  .367E+00  .328E+00
  .298E+00  .257E+00  .234E+00  .232E+00  .213E+00  .196E+00  .168E+00  .155E+00
  .143E+00  .116E+00  .997E-01  .858E-01  .953E-01  .916E-01  .855E-01  .760E-01
  .615E-01  .531E-01  .552E-01  .595E-01  .592E-01  .516E-01  .573E-01  .486E-01
  .461E-01  .436E-01  .403E-01  .390E-01  .504E-01  .462E-01  .353E-01  .271E-01
  .229E-01  .205E-01  .183E-01  .165E-01  .150E-01  .138E-01  .127E-01  .117E-01
  .109E-01  .103E-01  .968E-02  .913E-02  .808E-02  .729E-02  .000E+00  .000E+00
  .000E+00  .000E+00  .000E+00  .000E+00  .000E+00  .000E+00  .000E+00  .000E+00
  .000E+00  .000E+00  .000E+00  .000E+00  .000E+00  .000E+00  .000E+00  .000E+00
  .000E+00  .000E+00  .000E+00  .000E+00
  .429E+02  .429E+02  .429E+02  .429E+02  .429E+02  .429E+02  .429E+02  .429E+02
  .429E+02  .429E+02  .429E+02  .429E+02  .429E+02  .429E+02  .434E+02  .431E+02
  .432E+02  .434E+02  .434E+02  .432E+02  .443E+02  .430E+02  .430E+02  .430E+02
  .430E+02  .430E+02  .432E+02  .435E+02  .435E+02  .434E+02  .434E+02  .433E+02
  .431E+02  .432E+02  .430E+02  .429E+02  .429E+02  .429E+02  .429E+02  .427E+02
  .427E+02  .428E+02  .428E+02  .432E+02  .432E+02  .432E+02  .432E+02  .441E+02
  .441E+02  .547E+02  .547E+02  .544E+02  .645E+02  .615E+02  .616E+02  .430E+02
  .430E+02  .430E+02  .430E+02  .639E+02  .612E+02  .614E+02  .606E+02  .606E+02
  .426E+02  .426E+02  .426E+02  .426E+02  .426E+02  .426E+02  .426E+02  .426E+02
  .426E+02  .426E+02  .426E+02  .426E+02  .426E+02  .426E+02  .000E+00  .000E+00
  .000E+00  .000E+00  .000E+00  .000E+00  .000E+00  .000E+00  .000E+00  .000E+00
  .000E+00  .000E+00  .000E+00  .000E+00  .000E+00  .000E+00  .000E+00  .000E+00
  .000E+00  .000E+00  .000E+00  .000E+00
  .434E+02  .434E+02  .434E+02  .434E+02  .434E+02  .434E+02  .431E+02  .434E+02
  .434E+02  .434E+02  .434E+02  .434E+02  .434E+02  .434E+02  .440E+02  .440E+02
  .438E+02  .434E+02  .435E+02  .432E+02  .443E+02  .430E+02  .430E+02  .430E+02
  .430E+02  .430E+02  .432E+02  .434E+02  .434E+02  .434E+02  .433E+02  .432E+02
  .432E+02  .431E+02  .429E+02  .430E+02  .430E+02  .428E+02  .428E+02  .428E+02
  .428E+02  .428E+02  .428E+02  .428E+02  .428E+02  .431E+02  .431E+02  .431E+02
  .431E+02  .431E+02  .431E+02  .431E+02  .431E+02  .431E+02  .431E+02  .431E+02
  .431E+02  .427E+02  .429E+02  .429E+02  .429E+02  .429E+02  .429E+02  .429E+02
  .429E+02  .429E+02  .429E+02  .429E+02  .429E+02  .431E+02  .431E+02  .431E+02
  .431E+02  .431E+02  .431E+02  .431E+02  .431E+02  .431E+02  .000E+00  .000E+00
  .000E+00  .000E+00  .000E+00  .000E+00  .000E+00  .000E+00  .000E+00  .000E+00
  .000E+00  .000E+00  .000E+00  .000E+00  .000E+00  .000E+00  .000E+00  .000E+00
  .000E+00  .000E+00  .000E+00  .000E+00
  .429E+02  .429E+02  .429E+02  .429E+02  .429E+02  .429E+02  .429E+02  .429E+02
  .429E+02  .429E+02  .429E+02  .429E+02  .429E+02  .429E+02  .434E+02  .431E+02
  .432E+02  .434E+02  .434E+02  .432E+02  .443E+02  .429E+02  .430E+02  .430E+02
  .430E+02  .430E+02  .432E+02  .434E+02  .435E+02  .434E+02  .434E+02  .433E+02
  .431E+02  .432E+02  .430E+02  .429E+02  .429E+02  .429E+02  .429E+02  .427E+02
  .427E+02  .427E+02  .428E+02  .431E+02  .431E+02  .432E+02  .432E+02  .441E+02
  .441E+02  .546E+02  .547E+02  .544E+02  .644E+02  .615E+02  .616E+02  .430E+02
  .430E+02  .430E+02  .430E+02  .639E+02  .611E+02  .613E+02  .606E+02  .606E+02
  .426E+02  .426E+02  .426E+02  .426E+02  .426E+02  .426E+02  .426E+02  .426E+02
  .426E+02  .426E+02  .426E+02  .426E+02  .425E+02  .425E+02  .000E+00  .000E+00
  .000E+00  .000E+00  .000E+00  .000E+00  .000E+00  .000E+00  .000E+00  .000E+00
  .000E+00  .000E+00  .000E+00  .000E+00  .000E+00  .000E+00  .000E+00  .000E+00
  .000E+00  .000E+00  .000E+00  .000E+00
/&   ----------  End of spectral data for channel  1  ----------
Response and Fourier amplitude spectra (78 periods,  .04 -  6.0 sec)   for      
Corrected accelerogram   38695658.CI.STC.--.HN      Chan  2: 360 Deg     from   
Uncorrected Accelerogram Data             Processed: 09/19/20, CGS  cistc--l    
Rcrd of Fri Sep 18, 2020 23:38:38.0 PDT               (Avol1 v2.0, 4/18 CSMIP)  
                                        (Origin:  To be determined)             
38695658.CI.STC.--.HN                Start time:  9/19/20, 06:38:38.0 UTC (GPS) 
Station Id. STC     34.303N, 119.187W    ObsMMS  s/n 4303  (3 Chns of  3 at Sta)
Ventura, Foothill Rd.                    SCSN   Data: Acceleration              
Chan  2: 360 Deg                                                                
Rcrd of Fri Sep 18, 2020 23:38:38.0 PDT    Fri Sep 18, 2020 23:38:38.0 PDT      
Hypocenter:  To be determined.               ML:  To be determined.             
Instr Period =  .0050 sec,  Damping =  .707,  Sensitivity = 4.98 v/g  (Nominal) 
                        Record Length =301.000 sec.                             
                                     Uncor Max  =  -.004 g, at   43.250 sec.    
RMS accel of (uncor) record  =        .   Chn. metadata effective date:         
Accelerogram bandpass filtered with 3 dB pts at   .30 and 23.00 cyc/sec         
                 instrument- and base-line correcte                             
                                                                                
                                                                                
                                                                                
                                                                                
                                                                                
Rcrd of Fri Sep 18, 2020 23:38:38.0 PDT    Fri Sep 18, 2020 23:38:38.0 PDT      
                                                                                
38695658.CI.STC.--.HN     Ventura, Foothill Rd.   Chan  2: 360 Deg              
                                                                                
38695658.CI.STC.--.HN     Ventura, Foothill Rd.   Chan  2: 360 Deg              
                                                                                
Units for spectra are inches and sec, except Sa is in fraction of g.            
                                                                                
    2  100    2    3    3  100 -999    3    1    0   15 4303    050653   41    0
    6   38   38    8  263    9   19 2020   10    3  36035896   39   21   74 -999
35896 -999  100    6 -999 -999 -999 -999 -999 -999 -999 -999 -999 -999 -999 -999
 -999 -999 -999 -99915050    2 -999    0 -999   20 -999 -999    3    1 -99915050
    315050    4   78    1    3    5    0    0 -999    0 -999 -999    6 -999    2
    2    2    4 -999 -999 -999 -999 -999 -999 -999 -999    1 -999 -999 -999  111
    1    1 -999 -999
      .005      .707   358.960      .000     1.000  4981.697     -.004    43.250
   200.000     2.384      .479  -999.000    10.000  -999.000     4.000  -999.000
    20.000   -20.395      .000  -999.000  -999.000  -999.000  -999.000      .000
      .000     -.001     2.000    15.000    34.303  -119.187      .001      .002
     1.650     -.001      .000   180.000  -999.000  -999.000  -999.000  -999.000
     1.000  -999.000  -999.000  -999.000  -999.000  -999.000  -999.000   120.000
     -.900     2.000     6.800   980.665      .020   301.000    31.831      .000
  -999.000    23.000  -999.000   301.000      .020      .300  -999.000  -999.000
    43.240    -4.327    43.200      .166    41.940     -.008      .000      .300
    23.000      .020      .020      .000      .020      .010  -999.000  -999.000
      .021      .240      .016      .009      .001      .000  -999.000  -999.000
  -999.000  -999.000  -999.000  -999.000  -999.000  -999.000  -999.000  -999.000
  -999.000  -999.000  -999.000  -999.000
      .050
      .040      .042      .044      .046      .048      .050      .055      .060
      .065      .070      .075      .080      .085      .090      .095      .100
      .110      .120      .130      .140      .150      .160      .170      .180
      .190      .200      .220      .240      .260      .280      .300      .320
      .340      .360      .380      .400      .420      .440      .460      .480
      .500      .550      .600      .650      .700      .750      .800      .850
      .900      .950     1.000     1.100     1.200     1.300     1.400     1.500
     1.600     1.700     1.800     1.900     2.000     2.200     2.400     2.600
     2.800     3.000     3.200     3.400     3.600     3.800     4.000     4.200
     4.400     4.600     4.800     5.000     5.500     6.000      .000      .000
      .000      .000      .000      .000      .000      .000      .000      .000
      .000      .000      .000      .000      .000      .000      .000      .000
      .000      .000      .000      .000
Fourier amplitude spectra in in/sec.
  .000E+00  .000E+00  .000E+00  .000E+00  .000E+00  .000E+00  .000E+00  .000E+00
  .000E+00  .000E+00  .000E+00  .000E+00  .000E+00  .000E+00  .000E+00  .000E+00
  .000E+00  .000E+00  .000E+00  .000E+00  .000E+00  .000E+00  .000E+00  .000E+00
  .000E+00  .000E+00  .000E+00  .000E+00  .000E+00  .000E+00  .000E+00  .000E+00
  .000E+00  .000E+00  .000E+00  .000E+00  .000E+00  .000E+00  .000E+00  .000E+00
  .000E+00  .000E+00  .000E+00  .000E+00  .000E+00  .000E+00  .000E+00  .000E+00
  .000E+00  .000E+00  .000E+00  .000E+00  .000E+00  .000E+00  .000E+00  .000E+00
  .000E+00  .000E+00  .000E+00  .000E+00  .000E+00  .000E+00  .000E+00  .000E+00
  .000E+00  .000E+00  .000E+00  .000E+00  .000E+00  .000E+00  .000E+00  .000E+00
  .000E+00  .000E+00  .000E+00  .000E+00  .000E+00  .000E+00  .000E+00  .000E+00
  .000E+00  .000E+00  .000E+00  .000E+00  .000E+00  .000E+00  .000E+00  .000E+00
  .000E+00  .000E+00  .000E+00  .000E+00  .000E+00  .000E+00  .000E+00  .000E+00
  .000E+00  .000E+00  .000E+00  .000E+00
Damping =  .05. Data of Sd,Sv,Sa,Pssv,ttSd,ttSv,ttSa :
  .707E-04  .785E-04  .868E-04  .955E-04  .105E-03  .115E-03  .142E-03  .177E-03
  .212E-03  .248E-03  .302E-03  .371E-03  .431E-03  .520E-03  .747E-03  .886E-03
  .122E-02  .127E-02  .180E-02  .186E-02  .237E-02  .359E-02  .395E-02  .388E-02
  .470E-02  .603E-02  .935E-02  .117E-01  .856E-02  .781E-02  .772E-02  .786E-02
  .759E-02  .723E-02  .733E-02  .762E-02  .798E-02  .813E-02  .931E-02  .109E-01
