Response and Fourier amplitude spectra (78 periods,  .04 -  6.0 sec)   for      
Corrected accelerogram   38695658.CI.STG.--.HN      Chan  1:  90 Deg     from   
Uncorrected Accelerogram Data             Processed: 09/19/20, CGS  cistg--e    
Rcrd of Fri Sep 18, 2020 23:38:33.0 PDT               (Avol1 v2.0, 4/18 CSMIP)  
                                        (Origin:  To be determined)             
38695658.CI.STG.--.HN                Start time:  9/19/20, 06:38:33.0 UTC (GPS) 
Station Id. STG     33.664N, 117.769W    ObsMMS  s/n 4108  (3 Chns of  3 at Sta)
Irvine, Sand Canyon Rd.                  SCSN   Data: Acceleration              
Chan  1:  90 Deg                                                                
Rcrd of Fri Sep 18, 2020 23:38:33.0 PDT    Fri Sep 18, 2020 23:38:33.0 PDT      
Hypocenter:  To be determined.               ML:  To be determined.             
Instr Period =  .0050 sec,  Damping =  .707,  Sensitivity = 4.99 v/g  (Nominal) 
                        Record Length =301.000 sec.                             
                                     Uncor Max  =   .008 g, at   32.400 sec.    
RMS accel of (uncor) record  =        .   Chn. metadata effective date:         
Accelerogram bandpass filtered with 3 dB pts at   .30 and 23.00 cyc/sec         
                 instrument- and base-line correcte                             
                                                                                
                                                                                
                                                                                
                                                                                
                                                                                
Rcrd of Fri Sep 18, 2020 23:38:33.0 PDT    Fri Sep 18, 2020 23:38:33.0 PDT      
                                                                                
38695658.CI.STG.--.HN     Irvine, Sand Canyon Rd.   Chan  1:  90 Deg            
                                                                                
38695658.CI.STG.--.HN     Irvine, Sand Canyon Rd.   Chan  1:  90 Deg            
                                                                                
Units for spectra are inches and sec, except Sa is in fraction of g.            
                                                                                
    1  100    1    3    3  100 -999    3    1    0   15 4108    050654   41    0
    6   38   33    8  263    9   19 2020   10    3   9035881   39   23   74 -999
35881 -999  100    6 -999 -999 -999 -999 -999 -999 -999 -999 -999 -999 -999 -999
 -999 -999 -999 -99915050    2 -999    0 -999   20 -999 -999    3    1 -99915050
    315050    4   78    1    3    5    0    0 -999    0 -999 -999    6 -999    2
    2    2    4 -999 -999 -999 -999 -999 -999 -999 -999    1 -999 -999 -999  111
    1    1 -999 -999
      .005      .707   358.810      .000     1.000  4990.473      .008    32.400
   200.000     2.384      .478  -999.000    10.000  -999.000     4.000  -999.000
    20.000     2.785      .000  -999.000  -999.000  -999.000  -999.000     -.001
      .000      .001     2.000    15.000    33.664  -117.769      .002      .002
     1.058      .001      .002    49.000  -999.000  -999.000  -999.000  -999.000
     1.000  -999.000    -8.000  -999.000  -999.000  -999.000  -999.000   120.000
     -.900     2.000     6.800   980.665      .020   301.000    31.831      .000
  -999.000    23.000  -999.000   301.000      .020      .300  -999.000  -999.000
    32.400     7.540    32.360     -.204    32.780      .011      .000      .300
    23.000      .020      .020      .000      .020      .012  -999.000  -999.000
      .033      .120      .009      .009      .001      .000  -999.000  -999.000
  -999.000  -999.000  -999.000  -999.000  -999.000  -999.000  -999.000  -999.000
  -999.000  -999.000  -999.000  -999.000
      .050
      .040      .042      .044      .046      .048      .050      .055      .060
      .065      .070      .075      .080      .085      .090      .095      .100
      .110      .120      .130      .140      .150      .160      .170      .180
      .190      .200      .220      .240      .260      .280      .300      .320
      .340      .360      .380      .400      .420      .440      .460      .480
      .500      .550      .600      .650      .700      .750      .800      .850
      .900      .950     1.000     1.100     1.200     1.300     1.400     1.500
     1.600     1.700     1.800     1.900     2.000     2.200     2.400     2.600
     2.800     3.000     3.200     3.400     3.600     3.800     4.000     4.200
     4.400     4.600     4.800     5.000     5.500     6.000      .000      .000
      .000      .000      .000      .000      .000      .000      .000      .000
      .000      .000      .000      .000      .000      .000      .000      .000
      .000      .000      .000      .000
Fourier amplitude spectra in in/sec.
  .000E+00  .000E+00  .000E+00  .000E+00  .000E+00  .000E+00  .000E+00  .000E+00
  .000E+00  .000E+00  .000E+00  .000E+00  .000E+00  .000E+00  .000E+00  .000E+00
  .000E+00  .000E+00  .000E+00  .000E+00  .000E+00  .000E+00  .000E+00  .000E+00
  .000E+00  .000E+00  .000E+00  .000E+00  .000E+00  .000E+00  .000E+00  .000E+00
  .000E+00  .000E+00  .000E+00  .000E+00  .000E+00  .000E+00  .000E+00  .000E+00
  .000E+00  .000E+00  .000E+00  .000E+00  .000E+00  .000E+00  .000E+00  .000E+00
  .000E+00  .000E+00  .000E+00  .000E+00  .000E+00  .000E+00  .000E+00  .000E+00
  .000E+00  .000E+00  .000E+00  .000E+00  .000E+00  .000E+00  .000E+00  .000E+00
  .000E+00  .000E+00  .000E+00  .000E+00  .000E+00  .000E+00  .000E+00  .000E+00
  .000E+00  .000E+00  .000E+00  .000E+00  .000E+00  .000E+00  .000E+00  .000E+00
  .000E+00  .000E+00  .000E+00  .000E+00  .000E+00  .000E+00  .000E+00  .000E+00
  .000E+00  .000E+00  .000E+00  .000E+00  .000E+00  .000E+00  .000E+00  .000E+00
  .000E+00  .000E+00  .000E+00  .000E+00
Damping =  .05. Data of Sd,Sv,Sa,Pssv,ttSd,ttSv,ttSa :
  .125E-03  .139E-03  .156E-03  .174E-03  .193E-03  .214E-03  .280E-03  .375E-03
  .492E-03  .622E-03  .102E-02  .124E-02  .143E-02  .146E-02  .176E-02  .227E-02
  .365E-02  .461E-02  .471E-02  .467E-02  .359E-02  .344E-02  .342E-02  .312E-02
  .343E-02  .309E-02  .428E-02  .652E-02  .706E-02  .836E-02  .764E-02  .804E-02
  .864E-02  .889E-02  .963E-02  .108E-01  .106E-01  .119E-01  .153E-01  .178E-01
  .229E-01  .214E-01  .173E-01  .117E-01  .977E-02  .109E-01  .989E-02  .908E-02
  .807E-02  .813E-02  .890E-02  .840E-02  .778E-02  .612E-02  .578E-02  .589E-02
  .701E-02  .805E-02  .733E-02  .633E-02  .596E-02  .606E-02  .608E-02  .534E-02
  .498E-02  .506E-02  .498E-02  .521E-02  .543E-02  .554E-02  .546E-02  .523E-02
  .495E-02  .471E-02  .454E-02  .441E-02  .424E-02  .424E-02  .000E+00  .000E+00
  .000E+00  .000E+00  .000E+00  .000E+00  .000E+00  .000E+00  .000E+00  .000E+00
  .000E+00  .000E+00  .000E+00  .000E+00  .000E+00  .000E+00  .000E+00  .000E+00
  .000E+00  .000E+00  .000E+00  .000E+00
  .670E-02  .738E-02  .803E-02  .887E-02  .984E-02  .107E-01  .152E-01  .209E-01
  .311E-01  .422E-01  .707E-01  .875E-01  .980E-01  .909E-01  .102E+00  .127E+00
  .202E+00  .245E+00  .239E+00  .222E+00  .160E+00  .143E+00  .139E+00  .133E+00
  .112E+00  .112E+00  .114E+00  .162E+00  .159E+00  .187E+00  .178E+00  .147E+00
  .147E+00  .147E+00  .144E+00  .150E+00  .155E+00  .178E+00  .212E+00  .242E+00
  .306E+00  .259E+00  .199E+00  .149E+00  .114E+00  .124E+00  .120E+00  .103E+00
  .955E-01  .941E-01  .922E-01  .870E-01  .905E-01  .819E-01  .808E-01  .856E-01
  .847E-01  .805E-01  .767E-01  .754E-01  .755E-01  .771E-01  .804E-01  .811E-01
  .793E-01  .778E-01  .770E-01  .764E-01  .758E-01  .753E-01  .749E-01  .748E-01
  .749E-01  .751E-01  .753E-01  .755E-01  .758E-01  .759E-01  .000E+00  .000E+00
  .000E+00  .000E+00  .000E+00  .000E+00  .000E+00  .000E+00  .000E+00  .000E+00
  .000E+00  .000E+00  .000E+00  .000E+00  .000E+00  .000E+00  .000E+00  .000E+00
  .000E+00  .000E+00  .000E+00  .000E+00
  .796E-02  .807E-02  .821E-02  .842E-02  .857E-02  .878E-02  .950E-02  .106E-01
  .120E-01  .129E-01  .187E-01  .202E-01  .207E-01  .186E-01  .200E-01  .238E-01
  .316E-01  .329E-01  .288E-01  .243E-01  .167E-01  .136E-01  .121E-01  .981E-02
  .967E-02  .789E-02  .899E-02  .116E-01  .106E-01  .109E-01  .886E-02  .798E-02
  .768E-02  .705E-02  .691E-02  .698E-02  .622E-02  .631E-02  .745E-02  .790E-02
  .948E-02  .725E-02  .493E-02  .286E-02  .207E-02  .201E-02  .160E-02  .131E-02
  .104E-02  .946E-03  .932E-03  .724E-03  .567E-03  .396E-03  .306E-03  .280E-03
  .294E-03  .299E-03  .242E-03  .190E-03  .163E-03  .133E-03  .116E-03  .935E-04
  .710E-04  .651E-04  .612E-04  .573E-04  .539E-04  .501E-04  .456E-04  .409E-04
  .364E-04  .328E-04  .299E-04  .276E-04  .233E-04  .206E-04  .000E+00  .000E+00
  .000E+00  .000E+00  .000E+00  .000E+00  .000E+00  .000E+00  .000E+00  .000E+00
  .000E+00  .000E+00  .000E+00  .000E+00  .000E+00  .000E+00  .000E+00  .000E+00
  .000E+00  .000E+00  .000E+00  .000E+00
  .196E-01  .209E-01  .222E-01  .238E-01  .253E-01  .269E-01  .320E-01  .393E-01
  .475E-01  .558E-01  .859E-01  .977E-01  .106E+00  .102E+00  .117E+00  .143E+00
  .209E+00  .241E+00  .228E+00  .209E+00  .150E+00  .135E+00  .127E+00  .109E+00
  .113E+00  .971E-01  .122E+00  .171E+00  .171E+00  .188E+00  .160E+00  .158E+00
  .160E+00  .155E+00  .159E+00  .169E+00  .159E+00  .170E+00  .210E+00  .233E+00
  .288E+00  .245E+00  .181E+00  .113E+00  .877E-01  .913E-01  .777E-01  .671E-01
  .563E-01  .538E-01  .559E-01  .480E-01  .407E-01  .296E-01  .259E-01  .247E-01
  .275E-01  .297E-01  .256E-01  .209E-01  .187E-01  .173E-01  .159E-01  .129E-01
  .112E-01  .106E-01  .977E-02  .963E-02  .947E-02  .916E-02  .857E-02  .782E-02
  .707E-02  .643E-02  .594E-02  .555E-02  .485E-02  .444E-02  .000E+00  .000E+00
  .000E+00  .000E+00  .000E+00  .000E+00  .000E+00  .000E+00  .000E+00  .000E+00
  .000E+00  .000E+00  .000E+00  .000E+00  .000E+00  .000E+00  .000E+00  .000E+00
  .000E+00  .000E+00  .000E+00  .000E+00
  .324E+02  .324E+02  .324E+02  .324E+02  .324E+02  .324E+02  .324E+02  .324E+02
  .324E+02  .324E+02  .328E+02  .328E+02  .329E+02  .322E+02  .323E+02  .323E+02
  .325E+02  .325E+02  .325E+02  .324E+02  .324E+02  .324E+02  .324E+02  .338E+02
  .339E+02  .339E+02  .343E+02  .343E+02  .343E+02  .343E+02  .344E+02  .363E+02
  .363E+02  .364E+02  .366E+02  .366E+02  .371E+02  .330E+02  .331E+02  .331E+02
  .369E+02  .384E+02  .368E+02  .363E+02  .365E+02  .382E+02  .361E+02  .361E+02
  .361E+02  .361E+02  .361E+02  .368E+02  .366E+02  .328E+02  .459E+02  .574E+02
  .361E+02  .382E+02  .382E+02  .366E+02  .366E+02  .379E+02  .363E+02  .330E+02
  .380E+02  .380E+02  .328E+02  .328E+02  .328E+02  .328E+02  .328E+02  .328E+02
  .328E+02  .328E+02  .328E+02  .328E+02  .328E+02  .363E+02  .000E+00  .000E+00
  .000E+00  .000E+00  .000E+00  .000E+00  .000E+00  .000E+00  .000E+00  .000E+00
  .000E+00  .000E+00  .000E+00  .000E+00  .000E+00  .000E+00  .000E+00  .000E+00
  .000E+00  .000E+00  .000E+00  .000E+00
  .324E+02  .324E+02  .324E+02  .324E+02  .324E+02  .324E+02  .327E+02  .324E+02
  .324E+02  .324E+02  .327E+02  .328E+02  .328E+02  .321E+02  .323E+02  .323E+02
  .325E+02  .325E+02  .325E+02  .325E+02  .325E+02  .324E+02  .324E+02  .324E+02
  .324E+02  .324E+02  .343E+02  .344E+02  .343E+02  .343E+02  .343E+02  .339E+02
  .324E+02  .324E+02  .367E+02  .367E+02  .324E+02  .327E+02  .330E+02  .330E+02
  .371E+02  .382E+02  .369E+02  .362E+02  .362E+02  .362E+02  .362E+02  .362E+02
  .323E+02  .323E+02  .323E+02  .329E+02  .329E+02  .329E+02  .323E+02  .323E+02
  .323E+02  .323E+02  .323E+02  .323E+02  .323E+02  .323E+02  .323E+02  .323E+02
  .323E+02  .323E+02  .323E+02  .323E+02  .323E+02  .323E+02  .323E+02  .323E+02
  .323E+02  .323E+02  .323E+02  .323E+02  .323E+02  .323E+02  .000E+00  .000E+00
  .000E+00  .000E+00  .000E+00  .000E+00  .000E+00  .000E+00  .000E+00  .000E+00
  .000E+00  .000E+00  .000E+00  .000E+00  .000E+00  .000E+00  .000E+00  .000E+00
  .000E+00  .000E+00  .000E+00  .000E+00
  .324E+02  .324E+02  .324E+02  .324E+02  .324E+02  .324E+02  .324E+02  .324E+02
  .324E+02  .324E+02  .328E+02  .328E+02  .329E+02  .322E+02  .323E+02  .323E+02
  .325E+02  .325E+02  .325E+02  .324E+02  .324E+02  .324E+02  .324E+02  .338E+02
  .339E+02  .339E+02  .343E+02  .343E+02  .343E+02  .343E+02  .342E+02  .363E+02
  .363E+02  .364E+02  .366E+02  .366E+02  .371E+02  .371E+02  .331E+02  .331E+02
  .369E+02  .384E+02  .368E+02  .363E+02  .365E+02  .382E+02  .360E+02  .361E+02
  .361E+02  .361E+02  .361E+02  .368E+02  .365E+02  .327E+02  .459E+02  .360E+02
  .361E+02  .382E+02  .382E+02  .365E+02  .365E+02  .379E+02  .363E+02  .329E+02
  .329E+02  .327E+02  .327E+02  .327E+02  .327E+02  .327E+02  .327E+02  .327E+02
  .327E+02  .327E+02  .327E+02  .327E+02  .327E+02  .324E+02  .000E+00  .000E+00
  .000E+00  .000E+00  .000E+00  .000E+00  .000E+00  .000E+00  .000E+00  .000E+00
  .000E+00  .000E+00  .000E+00  .000E+00  .000E+00  .000E+00  .000E+00  .000E+00
  .000E+00  .000E+00  .000E+00  .000E+00
/&   ----------  End of spectral data for channel  1  ----------
Response and Fourier amplitude spectra (78 periods,  .04 -  6.0 sec)   for      
Corrected accelerogram   38695658.CI.STG.--.HN      Chan  2: 360 Deg     from   
Uncorrected Accelerogram Data             Processed: 09/19/20, CGS  cistg--e    
Rcrd of Fri Sep 18, 2020 23:38:33.0 PDT               (Avol1 v2.0, 4/18 CSMIP)  
                                        (Origin:  To be determined)             
38695658.CI.STG.--.HN                Start time:  9/19/20, 06:38:33.0 UTC (GPS) 
Station Id. STG     33.664N, 117.769W    ObsMMS  s/n 4108  (3 Chns of  3 at Sta)
Irvine, Sand Canyon Rd.                  SCSN   Data: Acceleration              
Chan  2: 360 Deg                                                                
Rcrd of Fri Sep 18, 2020 23:38:33.0 PDT    Fri Sep 18, 2020 23:38:33.0 PDT      
Hypocenter:  To be determined.               ML:  To be determined.             
Instr Period =  .0050 sec,  Damping =  .707,  Sensitivity = 4.99 v/g  (Nominal) 
                        Record Length =301.000 sec.                             
                                     Uncor Max  =   .007 g, at   32.380 sec.    
RMS accel of (uncor) record  =        .   Chn. metadata effective date:         
Accelerogram bandpass filtered with 3 dB pts at   .30 and 23.00 cyc/sec         
                 instrument- and base-line correcte                             
                                                                                
                                                                                
                                                                                
                                                                                
                                                                                
Rcrd of Fri Sep 18, 2020 23:38:33.0 PDT    Fri Sep 18, 2020 23:38:33.0 PDT      
                                                                                
38695658.CI.STG.--.HN     Irvine, Sand Canyon Rd.   Chan  2: 360 Deg            
                                                                                
38695658.CI.STG.--.HN     Irvine, Sand Canyon Rd.   Chan  2: 360 Deg            
                                                                                
Units for spectra are inches and sec, except Sa is in fraction of g.            
                                                                                
    2  100    2    3    3  100 -999    3    1    0   15 4108    050654   41    0
    6   38   33    8  263    9   19 2020   10    3  36035455   39   23   74 -999
35455 -999  100    6 -999 -999 -999 -999 -999 -999 -999 -999 -999 -999 -999 -999
 -999 -999 -999 -99915050    2 -999    0 -999   20 -999 -999    3    1 -99915050
    315050    4   78    1    3    5    0    0 -999    0 -999 -999    6 -999    2
    2    2    4 -999 -999 -999 -999 -999 -999 -999 -999    1 -999 -999 -999  111
    1    1 -999 -999
      .005      .707   354.550      .000     1.000  4988.080      .007    32.380
   200.000     2.384      .478  -999.000    10.000  -999.000     4.000  -999.000
    20.000    -7.539      .000  -999.000  -999.000  -999.000  -999.000      .000
      .001      .001     2.000    15.000    33.664  -117.769      .002      .002
     1.088      .001      .002    49.000  -999.000  -999.000  -999.000  -999.000
     1.000  -999.000  -999.000  -999.000  -999.000  -999.000  -999.000   120.000
     -.900     2.000     6.800   980.665      .020   301.000    31.831      .000
  -999.000    23.000  -999.000   301.000      .020      .300  -999.000  -999.000
    32.380     6.990    32.240      .182    36.000     -.013      .000      .300
    23.000      .020      .020      .000      .020      .011  -999.000  -999.000
      .030      .140      .021      .010      .001      .000  -999.000  -999.000
  -999.000  -999.000  -999.000  -999.000  -999.000  -999.000  -999.000  -999.000
  -999.000  -999.000  -999.000  -999.000
      .050
      .040      .042      .044      .046      .048      .050      .055      .060
      .065      .070      .075      .080      .085      .090      .095      .100
      .110      .120      .130      .140      .150      .160      .170      .180
      .190      .200      .220      .240      .260      .280      .300      .320
      .340      .360      .380      .400      .420      .440      .460      .480
      .500      .550      .600      .650      .700      .750      .800      .850
      .900      .950     1.000     1.100     1.200     1.300     1.400     1.500
     1.600     1.700     1.800     1.900     2.000     2.200     2.400     2.600
     2.800     3.000     3.200     3.400     3.600     3.800     4.000     4.200
     4.400     4.600     4.800     5.000     5.500     6.000      .000      .000
      .000      .000      .000      .000      .000      .000      .000      .000
      .000      .000      .000      .000      .000      .000      .000      .000
      .000      .000      .000      .000
Fourier amplitude spectra in in/sec.
  .000E+00  .000E+00  .000E+00  .000E+00  .000E+00  .000E+00  .000E+00  .000E+00
  .000E+00  .000E+00  .000E+00  .000E+00  .000E+00  .000E+00  .000E+00  .000E+00
  .000E+00  .000E+00  .000E+00  .000E+00  .000E+00  .000E+00  .000E+00  .000E+00
  .000E+00  .000E+00  .000E+00  .000E+00  .000E+00  .000E+00  .000E+00  .000E+00
  .000E+00  .000E+00  .000E+00  .000E+00  .000E+00  .000E+00  .000E+00  .000E+00
  .000E+00  .000E+00  .000E+00  .000E+00  .000E+00  .000E+00  .000E+00  .000E+00
  .000E+00  .000E+00  .000E+00  .000E+00  .000E+00  .000E+00  .000E+00  .000E+00
  .000E+00  .000E+00  .000E+00  .000E+00  .000E+00  .000E+00  .000E+00  .000E+00
  .000E+00  .000E+00  .000E+00  .000E+00  .000E+00  .000E+00  .000E+00  .000E+00
  .000E+00  .000E+00  .000E+00  .000E+00  .000E+00  .000E+00  .000E+00  .000E+00
  .000E+00  .000E+00  .000E+00  .000E+00  .000E+00  .000E+00  .000E+00  .000E+00
  .000E+00  .000E+00  .000E+00  .000E+00  .000E+00  .000E+00  .000E+00  .000E+00
  .000E+00  .000E+00  .000E+00  .000E+00
Damping =  .05. Data of Sd,Sv,Sa,Pssv,ttSd,ttSv,ttSa :
  .116E-03  .130E-03  .142E-03  .154E-03  .168E-03  .186E-03  .238E-03  .302E-03
  .338E-03  .472E-03  .643E-03  .757E-03  .101E-02  .105E-02  .111E-02  .140E-02
  .208E-02  .373E-02  .482E-02  .560E-02  .543E-02  .530E-02  .591E-02  .619E-02
  .714E-02  .880E-02  .937E-02  .912E-02  .920E-02  .962E-02  .923E-02  .830E-02
  .898E-02  .903E-02  .949E-02  .110E-01  .115E-01  .120E-01  .132E-01  .157E-01
