Response and Fourier amplitude spectra (78 periods,  .04 -  6.0 sec)   for      
Corrected accelerogram   38695658.CI.SVD.--.HN      Chan  1:  90 Deg     from   
Uncorrected Accelerogram Data             Processed: 09/19/20, CGS  cisvd--b    
Rcrd of Fri Sep 18, 2020 23:38:39.0 PDT               (Avol1 v2.0, 4/18 CSMIP)  
                                        (Origin:  To be determined)             
38695658.CI.SVD.--.HN                Start time:  9/19/20, 06:38:39.0 UTC (GPS) 
Station Id. SVD     34.106N, 117.098W    Q330    s/n 3055  (3 Chns of  3 at Sta)
Mentone, Greenspot Rd.                   SCSN   Data: Acceleration              
Chan  1:  90 Deg                                                                
Rcrd of Fri Sep 18, 2020 23:38:39.0 PDT    Fri Sep 18, 2020 23:38:39.0 PDT      
Hypocenter:  To be determined.               ML:  To be determined.             
Instr Period =  .0050 sec,  Damping =  .707,  Sensitivity = 5.00 v/g  (Nominal) 
                        Record Length =301.000 sec.                             
                                     Uncor Max  =   .003 g, at   35.390 sec.    
RMS accel of (uncor) record  =        .   Chn. metadata effective date:         
Accelerogram bandpass filtered with 3 dB pts at   .30 and 23.00 cyc/sec         
                 instrument- and base-line correcte                             
                                                                                
                                                                                
                                                                                
                                                                                
                                                                                
Rcrd of Fri Sep 18, 2020 23:38:39.0 PDT    Fri Sep 18, 2020 23:38:39.0 PDT      
                                                                                
38695658.CI.SVD.--.HN     Mentone, Greenspot Rd.    Chan  1:  90 Deg            
                                                                                
38695658.CI.SVD.--.HN     Mentone, Greenspot Rd.    Chan  1:  90 Deg            
                                                                                
Units for spectra are inches and sec, except Sa is in fraction of g.            
                                                                                
    1  100    1    3    3  100 -999    3    1   24  605 3055    050577   41    0
    6   38   39    8  263    9   19 2020   10    3   9036024   39   22   74 -999
36024 -999  100    6 -999 -999 -999 -999 -999 -999 -999 -999 -999 -999 -999 -999
 -999 -999 -999 -99915050    2 -999    0 -999   20 -999 -999    3    1 -99915050
    315050    4   78    1    3    5    0    0 -999    0 -999 -999    6 -999    2
    2    2    4 -999 -999 -999 -999 -999 -999 -999 -999    1 -999 -999 -999  111
    1    1 -999 -999
      .005      .707   360.240      .000     1.000  4995.260      .003    35.390
   200.000     2.384      .477  -999.000    10.000  -999.000     4.000  -999.000
    20.000    -4.778    20.000  -999.000  -999.000  -999.000  -999.000      .000
     -.001     -.001     2.000    15.000    34.106  -117.098      .001      .001
     1.127     -.001     -.001   605.000  -999.000  -999.000  -999.000  -999.000
     1.000  -999.000    -8.000  -999.000  -999.000  -999.000  -999.000   120.000
     -.900     2.000     6.800   980.665      .020   301.000    31.831      .000
  -999.000    23.000  -999.000   301.000      .020      .300  -999.000  -999.000
    39.560    -2.451    39.600     -.073    35.480      .003      .000      .300
    23.000      .020      .020      .000      .020      .003  -999.000  -999.000
      .011      .140      .008      .004      .000      .000  -999.000  -999.000
  -999.000  -999.000  -999.000  -999.000  -999.000  -999.000  -999.000  -999.000
  -999.000  -999.000  -999.000  -999.000
      .050
      .040      .042      .044      .046      .048      .050      .055      .060
      .065      .070      .075      .080      .085      .090      .095      .100
      .110      .120      .130      .140      .150      .160      .170      .180
      .190      .200      .220      .240      .260      .280      .300      .320
      .340      .360      .380      .400      .420      .440      .460      .480
      .500      .550      .600      .650      .700      .750      .800      .850
      .900      .950     1.000     1.100     1.200     1.300     1.400     1.500
     1.600     1.700     1.800     1.900     2.000     2.200     2.400     2.600
     2.800     3.000     3.200     3.400     3.600     3.800     4.000     4.200
     4.400     4.600     4.800     5.000     5.500     6.000      .000      .000
      .000      .000      .000      .000      .000      .000      .000      .000
      .000      .000      .000      .000      .000      .000      .000      .000
      .000      .000      .000      .000
Fourier amplitude spectra in in/sec.
  .000E+00  .000E+00  .000E+00  .000E+00  .000E+00  .000E+00  .000E+00  .000E+00
  .000E+00  .000E+00  .000E+00  .000E+00  .000E+00  .000E+00  .000E+00  .000E+00
  .000E+00  .000E+00  .000E+00  .000E+00  .000E+00  .000E+00  .000E+00  .000E+00
  .000E+00  .000E+00  .000E+00  .000E+00  .000E+00  .000E+00  .000E+00  .000E+00
  .000E+00  .000E+00  .000E+00  .000E+00  .000E+00  .000E+00  .000E+00  .000E+00
  .000E+00  .000E+00  .000E+00  .000E+00  .000E+00  .000E+00  .000E+00  .000E+00
  .000E+00  .000E+00  .000E+00  .000E+00  .000E+00  .000E+00  .000E+00  .000E+00
  .000E+00  .000E+00  .000E+00  .000E+00  .000E+00  .000E+00  .000E+00  .000E+00
  .000E+00  .000E+00  .000E+00  .000E+00  .000E+00  .000E+00  .000E+00  .000E+00
  .000E+00  .000E+00  .000E+00  .000E+00  .000E+00  .000E+00  .000E+00  .000E+00
  .000E+00  .000E+00  .000E+00  .000E+00  .000E+00  .000E+00  .000E+00  .000E+00
  .000E+00  .000E+00  .000E+00  .000E+00  .000E+00  .000E+00  .000E+00  .000E+00
  .000E+00  .000E+00  .000E+00  .000E+00
Damping =  .05. Data of Sd,Sv,Sa,Pssv,ttSd,ttSv,ttSa :
  .405E-04  .442E-04  .484E-04  .509E-04  .565E-04  .658E-04  .906E-04  .110E-03
  .155E-03  .195E-03  .296E-03  .387E-03  .476E-03  .493E-03  .602E-03  .855E-03
  .110E-02  .123E-02  .137E-02  .205E-02  .159E-02  .192E-02  .256E-02  .279E-02
  .293E-02  .322E-02  .296E-02  .309E-02  .288E-02  .291E-02  .358E-02  .297E-02
  .219E-02  .173E-02  .147E-02  .169E-02  .181E-02  .180E-02  .175E-02  .167E-02
  .181E-02  .143E-02  .157E-02  .136E-02  .140E-02  .161E-02  .159E-02  .171E-02
  .200E-02  .204E-02  .203E-02  .277E-02  .316E-02  .339E-02  .329E-02  .262E-02
  .258E-02  .248E-02  .231E-02  .211E-02  .194E-02  .171E-02  .146E-02  .127E-02
  .125E-02  .135E-02  .133E-02  .128E-02  .126E-02  .126E-02  .123E-02  .122E-02
  .125E-02  .126E-02  .126E-02  .127E-02  .126E-02  .125E-02  .000E+00  .000E+00
  .000E+00  .000E+00  .000E+00  .000E+00  .000E+00  .000E+00  .000E+00  .000E+00
  .000E+00  .000E+00  .000E+00  .000E+00  .000E+00  .000E+00  .000E+00  .000E+00
  .000E+00  .000E+00  .000E+00  .000E+00
  .222E-02  .250E-02  .285E-02  .323E-02  .357E-02  .404E-02  .572E-02  .795E-02
  .111E-01  .140E-01  .199E-01  .251E-01  .316E-01  .312E-01  .342E-01  .501E-01
  .636E-01  .612E-01  .651E-01  .869E-01  .657E-01  .739E-01  .948E-01  .100E+00
  .990E-01  .111E+00  .846E-01  .843E-01  .753E-01  .711E-01  .804E-01  .717E-01
  .523E-01  .460E-01  .396E-01  .406E-01  .440E-01  .429E-01  .394E-01  .353E-01
  .365E-01  .378E-01  .357E-01  .288E-01  .287E-01  .281E-01  .321E-01  .326E-01
  .308E-01  .324E-01  .325E-01  .339E-01  .335E-01  .295E-01  .334E-01  .316E-01
  .280E-01  .262E-01  .266E-01  .281E-01  .293E-01  .297E-01  .287E-01  .281E-01
  .276E-01  .275E-01  .277E-01  .278E-01  .278E-01  .279E-01  .279E-01  .279E-01
  .279E-01  .278E-01  .278E-01  .277E-01  .277E-01  .276E-01  .000E+00  .000E+00
  .000E+00  .000E+00  .000E+00  .000E+00  .000E+00  .000E+00  .000E+00  .000E+00
  .000E+00  .000E+00  .000E+00  .000E+00  .000E+00  .000E+00  .000E+00  .000E+00
  .000E+00  .000E+00  .000E+00  .000E+00
  .260E-02  .257E-02  .257E-02  .246E-02  .250E-02  .269E-02  .307E-02  .313E-02
  .378E-02  .409E-02  .541E-02  .629E-02  .665E-02  .625E-02  .682E-02  .894E-02
  .942E-02  .880E-02  .831E-02  .108E-01  .723E-02  .771E-02  .912E-02  .891E-02
  .834E-02  .817E-02  .624E-02  .553E-02  .431E-02  .380E-02  .404E-02  .298E-02
  .193E-02  .136E-02  .105E-02  .109E-02  .109E-02  .954E-03  .859E-03  .736E-03
  .744E-03  .481E-03  .457E-03  .344E-03  .303E-03  .304E-03  .261E-03  .247E-03
  .258E-03  .242E-03  .219E-03  .242E-03  .233E-03  .210E-03  .180E-03  .125E-03
  .107E-03  .915E-04  .767E-04  .660E-04  .571E-04  .438E-04  .332E-04  .265E-04
  .229E-04  .203E-04  .182E-04  .164E-04  .153E-04  .143E-04  .133E-04  .122E-04
  .112E-04  .105E-04  .995E-05  .947E-05  .861E-05  .789E-05  .000E+00  .000E+00
  .000E+00  .000E+00  .000E+00  .000E+00  .000E+00  .000E+00  .000E+00  .000E+00
  .000E+00  .000E+00  .000E+00  .000E+00  .000E+00  .000E+00  .000E+00  .000E+00
  .000E+00  .000E+00  .000E+00  .000E+00
  .636E-02  .661E-02  .692E-02  .696E-02  .740E-02  .827E-02  .104E-01  .115E-01
  .150E-01  .175E-01  .248E-01  .304E-01  .352E-01  .344E-01  .398E-01  .537E-01
  .629E-01  .643E-01  .660E-01  .920E-01  .664E-01  .756E-01  .946E-01  .974E-01
  .969E-01  .101E+00  .845E-01  .809E-01  .695E-01  .653E-01  .749E-01  .583E-01
  .404E-01  .302E-01  .243E-01  .266E-01  .271E-01  .257E-01  .239E-01  .218E-01
  .228E-01  .163E-01  .165E-01  .132E-01  .125E-01  .135E-01  .125E-01  .126E-01
  .140E-01  .135E-01  .127E-01  .158E-01  .165E-01  .164E-01  .148E-01  .110E-01
  .101E-01  .916E-02  .806E-02  .698E-02  .608E-02  .490E-02  .382E-02  .306E-02
  .281E-02  .282E-02  .261E-02  .237E-02  .219E-02  .208E-02  .194E-02  .183E-02
  .179E-02  .172E-02  .165E-02  .159E-02  .144E-02  .131E-02  .000E+00  .000E+00
  .000E+00  .000E+00  .000E+00  .000E+00  .000E+00  .000E+00  .000E+00  .000E+00
  .000E+00  .000E+00  .000E+00  .000E+00  .000E+00  .000E+00  .000E+00  .000E+00
  .000E+00  .000E+00  .000E+00  .000E+00
  .354E+02  .356E+02  .356E+02  .354E+02  .395E+02  .356E+02  .395E+02  .356E+02
  .388E+02  .395E+02  .395E+02  .396E+02  .363E+02  .363E+02  .358E+02  .358E+02
  .358E+02  .355E+02  .368E+02  .397E+02  .398E+02  .357E+02  .357E+02  .376E+02
  .379E+02  .382E+02  .397E+02  .380E+02  .379E+02  .379E+02  .378E+02  .379E+02
  .367E+02  .379E+02  .412E+02  .379E+02  .396E+02  .396E+02  .377E+02  .367E+02
  .367E+02  .396E+02  .395E+02  .378E+02  .356E+02  .360E+02  .360E+02  .367E+02
  .367E+02  .367E+02  .367E+02  .375E+02  .382E+02  .377E+02  .378E+02  .366E+02
  .366E+02  .366E+02  .366E+02  .366E+02  .368E+02  .368E+02  .360E+02  .368E+02
  .360E+02  .378E+02  .378E+02  .355E+02  .378E+02  .378E+02  .378E+02  .355E+02
  .355E+02  .355E+02  .355E+02  .355E+02  .355E+02  .355E+02  .000E+00  .000E+00
  .000E+00  .000E+00  .000E+00  .000E+00  .000E+00  .000E+00  .000E+00  .000E+00
  .000E+00  .000E+00  .000E+00  .000E+00  .000E+00  .000E+00  .000E+00  .000E+00
  .000E+00  .000E+00  .000E+00  .000E+00
  .395E+02  .395E+02  .395E+02  .354E+02  .354E+02  .395E+02  .373E+02  .384E+02
  .362E+02  .362E+02  .362E+02  .362E+02  .363E+02  .363E+02  .358E+02  .358E+02
  .358E+02  .354E+02  .365E+02  .397E+02  .397E+02  .385E+02  .356E+02  .357E+02
  .383E+02  .382E+02  .382E+02  .380E+02  .379E+02  .379E+02  .379E+02  .378E+02
  .367E+02  .378E+02  .378E+02  .378E+02  .378E+02  .396E+02  .396E+02  .367E+02
  .396E+02  .396E+02  .396E+02  .395E+02  .396E+02  .396E+02  .396E+02  .396E+02
  .396E+02  .396E+02  .396E+02  .378E+02  .378E+02  .366E+02  .396E+02  .396E+02
  .396E+02  .396E+02  .396E+02  .396E+02  .396E+02  .396E+02  .396E+02  .396E+02
  .396E+02  .396E+02  .396E+02  .396E+02  .396E+02  .396E+02  .396E+02  .396E+02
  .396E+02  .396E+02  .396E+02  .396E+02  .396E+02  .396E+02  .000E+00  .000E+00
  .000E+00  .000E+00  .000E+00  .000E+00  .000E+00  .000E+00  .000E+00  .000E+00
  .000E+00  .000E+00  .000E+00  .000E+00  .000E+00  .000E+00  .000E+00  .000E+00
  .000E+00  .000E+00  .000E+00  .000E+00
  .354E+02  .354E+02  .356E+02  .354E+02  .395E+02  .356E+02  .395E+02  .356E+02
  .388E+02  .395E+02  .395E+02  .396E+02  .363E+02  .363E+02  .358E+02  .358E+02
  .358E+02  .355E+02  .368E+02  .397E+02  .398E+02  .357E+02  .357E+02  .376E+02
  .377E+02  .382E+02  .397E+02  .381E+02  .379E+02  .379E+02  .378E+02  .378E+02
  .367E+02  .378E+02  .378E+02  .378E+02  .396E+02  .396E+02  .377E+02  .367E+02
  .367E+02  .396E+02  .395E+02  .377E+02  .360E+02  .360E+02  .360E+02  .367E+02
  .367E+02  .367E+02  .367E+02  .375E+02  .382E+02  .377E+02  .377E+02  .377E+02
  .366E+02  .366E+02  .366E+02  .367E+02  .367E+02  .367E+02  .367E+02  .367E+02
  .367E+02  .377E+02  .377E+02  .396E+02  .396E+02  .396E+02  .396E+02  .396E+02
  .396E+02  .396E+02  .396E+02  .396E+02  .396E+02  .396E+02  .000E+00  .000E+00
  .000E+00  .000E+00  .000E+00  .000E+00  .000E+00  .000E+00  .000E+00  .000E+00
  .000E+00  .000E+00  .000E+00  .000E+00  .000E+00  .000E+00  .000E+00  .000E+00
  .000E+00  .000E+00  .000E+00  .000E+00
/&   ----------  End of spectral data for channel  1  ----------
Response and Fourier amplitude spectra (78 periods,  .04 -  6.0 sec)   for      
Corrected accelerogram   38695658.CI.SVD.--.HN      Chan  2: 360 Deg     from   
Uncorrected Accelerogram Data             Processed: 09/19/20, CGS  cisvd--b    
Rcrd of Fri Sep 18, 2020 23:38:39.0 PDT               (Avol1 v2.0, 4/18 CSMIP)  
                                        (Origin:  To be determined)             
38695658.CI.SVD.--.HN                Start time:  9/19/20, 06:38:39.0 UTC (GPS) 
Station Id. SVD     34.106N, 117.098W    Q330    s/n 3055  (3 Chns of  3 at Sta)
Mentone, Greenspot Rd.                   SCSN   Data: Acceleration              
Chan  2: 360 Deg                                                                
Rcrd of Fri Sep 18, 2020 23:38:39.0 PDT    Fri Sep 18, 2020 23:38:39.0 PDT      
Hypocenter:  To be determined.               ML:  To be determined.             
Instr Period =  .0050 sec,  Damping =  .707,  Sensitivity = 4.99 v/g  (Nominal) 
                        Record Length =301.000 sec.                             
                                     Uncor Max  =   .003 g, at   35.870 sec.    
RMS accel of (uncor) record  =        .   Chn. metadata effective date:         
Accelerogram bandpass filtered with 3 dB pts at   .30 and 23.00 cyc/sec         
                 instrument- and base-line correcte                             
                                                                                
                                                                                
                                                                                
                                                                                
                                                                                
Rcrd of Fri Sep 18, 2020 23:38:39.0 PDT    Fri Sep 18, 2020 23:38:39.0 PDT      
                                                                                
38695658.CI.SVD.--.HN     Mentone, Greenspot Rd.    Chan  2: 360 Deg            
                                                                                
38695658.CI.SVD.--.HN     Mentone, Greenspot Rd.    Chan  2: 360 Deg            
                                                                                
Units for spectra are inches and sec, except Sa is in fraction of g.            
                                                                                
    2  100    2    3    3  100 -999    3    1   24  605 3055    050577   41    0
    6   38   39    8  263    9   19 2020   10    3  36035637   39   22   74 -999
35637 -999  100    6 -999 -999 -999 -999 -999 -999 -999 -999 -999 -999 -999 -999
 -999 -999 -999 -99915050    2 -999    0 -999   20 -999 -999    3    1 -99915050
    315050    4   78    1    3    5    0    0 -999    0 -999 -999    6 -999    2
    2    2    4 -999 -999 -999 -999 -999 -999 -999 -999    1 -999 -999 -999  111
    1    1 -999 -999
      .005      .707   356.370      .000     1.000  4994.462      .003    35.870
   200.000     2.384      .477  -999.000    10.000  -999.000     4.000  -999.000
    20.000   -18.728    20.000  -999.000  -999.000  -999.000  -999.000     -.002
      .001      .003     2.000    15.000    34.106  -117.098      .002      .002
     1.087      .003      .004   605.000  -999.000  -999.000  -999.000  -999.000
     1.000  -999.000  -999.000  -999.000  -999.000  -999.000  -999.000   120.000
     -.900     2.000     6.800   980.665      .020   301.000    31.831      .000
  -999.000    23.000  -999.000   301.000      .020      .300  -999.000  -999.000
    37.100    -2.710    37.140     -.059    36.300     -.002      .000      .300
    23.000      .020      .020      .000      .020      .003  -999.000  -999.000
      .011      .140      .007      .003      .000      .000  -999.000  -999.000
  -999.000  -999.000  -999.000  -999.000  -999.000  -999.000  -999.000  -999.000
  -999.000  -999.000  -999.000  -999.000
      .050
      .040      .042      .044      .046      .048      .050      .055      .060
      .065      .070      .075      .080      .085      .090      .095      .100
      .110      .120      .130      .140      .150      .160      .170      .180
      .190      .200      .220      .240      .260      .280      .300      .320
      .340      .360      .380      .400      .420      .440      .460      .480
      .500      .550      .600      .650      .700      .750      .800      .850
      .900      .950     1.000     1.100     1.200     1.300     1.400     1.500
     1.600     1.700     1.800     1.900     2.000     2.200     2.400     2.600
     2.800     3.000     3.200     3.400     3.600     3.800     4.000     4.200
     4.400     4.600     4.800     5.000     5.500     6.000      .000      .000
      .000      .000      .000      .000      .000      .000      .000      .000
      .000      .000      .000      .000      .000      .000      .000      .000
      .000      .000      .000      .000
Fourier amplitude spectra in in/sec.
  .000E+00  .000E+00  .000E+00  .000E+00  .000E+00  .000E+00  .000E+00  .000E+00
  .000E+00  .000E+00  .000E+00  .000E+00  .000E+00  .000E+00  .000E+00  .000E+00
  .000E+00  .000E+00  .000E+00  .000E+00  .000E+00  .000E+00  .000E+00  .000E+00
  .000E+00  .000E+00  .000E+00  .000E+00  .000E+00  .000E+00  .000E+00  .000E+00
  .000E+00  .000E+00  .000E+00  .000E+00  .000E+00  .000E+00  .000E+00  .000E+00
  .000E+00  .000E+00  .000E+00  .000E+00  .000E+00  .000E+00  .000E+00  .000E+00
  .000E+00  .000E+00  .000E+00  .000E+00  .000E+00  .000E+00  .000E+00  .000E+00
  .000E+00  .000E+00  .000E+00  .000E+00  .000E+00  .000E+00  .000E+00  .000E+00
  .000E+00  .000E+00  .000E+00  .000E+00  .000E+00  .000E+00  .000E+00  .000E+00
  .000E+00  .000E+00  .000E+00  .000E+00  .000E+00  .000E+00  .000E+00  .000E+00
  .000E+00  .000E+00  .000E+00  .000E+00  .000E+00  .000E+00  .000E+00  .000E+00
  .000E+00  .000E+00  .000E+00  .000E+00  .000E+00  .000E+00  .000E+00  .000E+00
  .000E+00  .000E+00  .000E+00  .000E+00
Damping =  .05. Data of Sd,Sv,Sa,Pssv,ttSd,ttSv,ttSa :
  .481E-04  .537E-04  .601E-04  .690E-04  .767E-04  .846E-04  .117E-03  .172E-03
  .241E-03  .330E-03  .396E-03  .467E-03  .521E-03  .590E-03  .732E-03  .744E-03
  .117E-02  .117E-02  .161E-02  .207E-02  .221E-02  .215E-02  .222E-02  .242E-02
  .294E-02  .272E-02  .320E-02  .304E-02  .266E-02  .248E-02  .259E-02  .185E-02
  .177E-02  .179E-02  .158E-02  .155E-02  .135E-02  .126E-02  .125E-02  .132E-02
