Response and Fourier amplitude spectra (78 periods,  .04 -  6.0 sec)   for      
Corrected accelerogram   38695658.CI.TA2.--.HN      Chan  1:  90 Deg     from   
Uncorrected Accelerogram Data             Processed: 09/19/20, CGS  cita2--d    
Rcrd of Fri Sep 18, 2020 23:38:31.0 PDT               (Avol1 v2.0, 4/18 CSMIP)  
                                        (Origin:  To be determined)             
38695658.CI.TA2.--.HN                Start time:  9/19/20, 06:38:31.0 UTC (GPS) 
Station Id. TA2     34.382N, 117.678W    Q330    s/n 3059  (3 Chns of  3 at Sta)
Wrightwood, Big Pines Hwy.               SCSN   Data: Acceleration              
Chan  1:  90 Deg                                                                
Rcrd of Fri Sep 18, 2020 23:38:31.0 PDT    Fri Sep 18, 2020 23:38:31.0 PDT      
Hypocenter:  To be determined.               ML:  To be determined.             
Instr Period =  .0050 sec,  Damping =  .707,  Sensitivity = 5.00 v/g  (Nominal) 
                        Record Length =301.000 sec.                             
                                     Uncor Max  =   .007 g, at   32.600 sec.    
RMS accel of (uncor) record  =        .   Chn. metadata effective date:         
Accelerogram bandpass filtered with 3 dB pts at   .30 and 23.00 cyc/sec         
                 instrument- and base-line correcte                             
                                                                                
                                                                                
                                                                                
                                                                                
                                                                                
Rcrd of Fri Sep 18, 2020 23:38:31.0 PDT    Fri Sep 18, 2020 23:38:31.0 PDT      
                                                                                
38695658.CI.TA2.--.HN     Wrightwood, Big Pines Hwy.    Chan  1:  90 Deg        
                                                                                
38695658.CI.TA2.--.HN     Wrightwood, Big Pines Hwy.    Chan  1:  90 Deg        
                                                                                
Units for spectra are inches and sec, except Sa is in fraction of g.            
                                                                                
    1  100    1    3    3  100 -999    3    1   24  605 3059    050524   41    0
    6   38   31    8  263    9   19 2020   10    3   9036133   39   26   74 -999
36133 -999  100    6 -999 -999 -999 -999 -999 -999 -999 -999 -999 -999 -999 -999
 -999 -999 -999 -99915050    2 -999    0 -999   20 -999 -999    3    1 -99915050
    315050    4   78    1    3    5    0    0 -999    0 -999 -999    6 -999    2
    2    2    4 -999 -999 -999 -999 -999 -999 -999 -999    1 -999 -999 -999  111
    1    1 -999 -999
      .005      .707   361.330      .000     1.000  4998.452      .007    32.600
   200.000     2.384      .477  -999.000    10.000  -999.000     4.000  -999.000
    20.000   -15.642    20.000  -999.000  -999.000  -999.000  -999.000     -.001
     -.001      .000     2.000    15.000    34.382  -117.678      .001      .003
     2.209     -.001      .000  2249.000  -999.000  -999.000  -999.000  -999.000
     1.000  -999.000    -8.000  -999.000  -999.000  -999.000  -999.000   120.000
     -.900     2.000     6.800   980.665      .020   301.000    31.831      .000
  -999.000    23.000  -999.000   301.000      .020      .300  -999.000  -999.000
    32.600     7.226    32.620      .217    32.060      .011      .000      .300
    23.000      .020      .020      .000      .020      .008  -999.000  -999.000
      .032      .130      .013      .008      .001      .000  -999.000  -999.000
  -999.000  -999.000  -999.000  -999.000  -999.000  -999.000  -999.000  -999.000
  -999.000  -999.000  -999.000  -999.000
      .050
      .040      .042      .044      .046      .048      .050      .055      .060
      .065      .070      .075      .080      .085      .090      .095      .100
      .110      .120      .130      .140      .150      .160      .170      .180
      .190      .200      .220      .240      .260      .280      .300      .320
      .340      .360      .380      .400      .420      .440      .460      .480
      .500      .550      .600      .650      .700      .750      .800      .850
      .900      .950     1.000     1.100     1.200     1.300     1.400     1.500
     1.600     1.700     1.800     1.900     2.000     2.200     2.400     2.600
     2.800     3.000     3.200     3.400     3.600     3.800     4.000     4.200
     4.400     4.600     4.800     5.000     5.500     6.000      .000      .000
      .000      .000      .000      .000      .000      .000      .000      .000
      .000      .000      .000      .000      .000      .000      .000      .000
      .000      .000      .000      .000
Fourier amplitude spectra in in/sec.
  .000E+00  .000E+00  .000E+00  .000E+00  .000E+00  .000E+00  .000E+00  .000E+00
  .000E+00  .000E+00  .000E+00  .000E+00  .000E+00  .000E+00  .000E+00  .000E+00
  .000E+00  .000E+00  .000E+00  .000E+00  .000E+00  .000E+00  .000E+00  .000E+00
  .000E+00  .000E+00  .000E+00  .000E+00  .000E+00  .000E+00  .000E+00  .000E+00
  .000E+00  .000E+00  .000E+00  .000E+00  .000E+00  .000E+00  .000E+00  .000E+00
  .000E+00  .000E+00  .000E+00  .000E+00  .000E+00  .000E+00  .000E+00  .000E+00
  .000E+00  .000E+00  .000E+00  .000E+00  .000E+00  .000E+00  .000E+00  .000E+00
  .000E+00  .000E+00  .000E+00  .000E+00  .000E+00  .000E+00  .000E+00  .000E+00
  .000E+00  .000E+00  .000E+00  .000E+00  .000E+00  .000E+00  .000E+00  .000E+00
  .000E+00  .000E+00  .000E+00  .000E+00  .000E+00  .000E+00  .000E+00  .000E+00
  .000E+00  .000E+00  .000E+00  .000E+00  .000E+00  .000E+00  .000E+00  .000E+00
  .000E+00  .000E+00  .000E+00  .000E+00  .000E+00  .000E+00  .000E+00  .000E+00
  .000E+00  .000E+00  .000E+00  .000E+00
Damping =  .05. Data of Sd,Sv,Sa,Pssv,ttSd,ttSv,ttSa :
  .118E-03  .135E-03  .155E-03  .172E-03  .186E-03  .200E-03  .284E-03  .398E-03
  .568E-03  .822E-03  .109E-02  .132E-02  .165E-02  .193E-02  .217E-02  .245E-02
  .261E-02  .379E-02  .519E-02  .408E-02  .296E-02  .265E-02  .308E-02  .382E-02
  .422E-02  .489E-02  .637E-02  .694E-02  .613E-02  .560E-02  .691E-02  .864E-02
  .946E-02  .111E-01  .976E-02  .101E-01  .117E-01  .126E-01  .123E-01  .111E-01
  .120E-01  .127E-01  .128E-01  .137E-01  .118E-01  .121E-01  .123E-01  .126E-01
  .124E-01  .117E-01  .108E-01  .944E-02  .968E-02  .123E-01  .144E-01  .164E-01
  .161E-01  .148E-01  .124E-01  .101E-01  .931E-02  .817E-02  .723E-02  .641E-02
  .590E-02  .576E-02  .554E-02  .549E-02  .541E-02  .537E-02  .535E-02  .528E-02
  .519E-02  .511E-02  .503E-02  .495E-02  .480E-02  .474E-02  .000E+00  .000E+00
  .000E+00  .000E+00  .000E+00  .000E+00  .000E+00  .000E+00  .000E+00  .000E+00
  .000E+00  .000E+00  .000E+00  .000E+00  .000E+00  .000E+00  .000E+00  .000E+00
  .000E+00  .000E+00  .000E+00  .000E+00
  .840E-02  .941E-02  .111E-01  .133E-01  .143E-01  .157E-01  .183E-01  .301E-01
  .377E-01  .528E-01  .664E-01  .818E-01  .106E+00  .126E+00  .132E+00  .146E+00
  .156E+00  .190E+00  .255E+00  .185E+00  .126E+00  .111E+00  .121E+00  .133E+00
  .149E+00  .164E+00  .200E+00  .199E+00  .164E+00  .136E+00  .149E+00  .178E+00
  .197E+00  .206E+00  .165E+00  .160E+00  .169E+00  .179E+00  .188E+00  .176E+00
  .189E+00  .188E+00  .186E+00  .178E+00  .169E+00  .154E+00  .139E+00  .123E+00
  .128E+00  .129E+00  .128E+00  .126E+00  .121E+00  .113E+00  .106E+00  .997E-01
  .963E-01  .933E-01  .900E-01  .875E-01  .860E-01  .841E-01  .813E-01  .802E-01
  .815E-01  .820E-01  .822E-01  .821E-01  .819E-01  .817E-01  .815E-01  .813E-01
  .810E-01  .808E-01  .806E-01  .804E-01  .801E-01  .799E-01  .000E+00  .000E+00
  .000E+00  .000E+00  .000E+00  .000E+00  .000E+00  .000E+00  .000E+00  .000E+00
  .000E+00  .000E+00  .000E+00  .000E+00  .000E+00  .000E+00  .000E+00  .000E+00
  .000E+00  .000E+00  .000E+00  .000E+00
  .752E-02  .783E-02  .818E-02  .833E-02  .823E-02  .817E-02  .961E-02  .113E-01
  .139E-01  .172E-01  .197E-01  .209E-01  .238E-01  .245E-01  .245E-01  .251E-01
  .225E-01  .272E-01  .321E-01  .215E-01  .133E-01  .107E-01  .108E-01  .122E-01
  .121E-01  .129E-01  .137E-01  .122E-01  .946E-02  .747E-02  .776E-02  .871E-02
  .838E-02  .888E-02  .705E-02  .648E-02  .678E-02  .669E-02  .600E-02  .496E-02
  .490E-02  .430E-02  .364E-02  .337E-02  .247E-02  .225E-02  .200E-02  .182E-02
  .159E-02  .135E-02  .113E-02  .832E-03  .696E-03  .753E-03  .762E-03  .763E-03
  .652E-03  .534E-03  .399E-03  .296E-03  .246E-03  .184E-03  .140E-03  .109E-03
  .912E-04  .772E-04  .657E-04  .579E-04  .519E-04  .471E-04  .431E-04  .394E-04
  .360E-04  .331E-04  .306E-04  .283E-04  .241E-04  .214E-04  .000E+00  .000E+00
  .000E+00  .000E+00  .000E+00  .000E+00  .000E+00  .000E+00  .000E+00  .000E+00
  .000E+00  .000E+00  .000E+00  .000E+00  .000E+00  .000E+00  .000E+00  .000E+00
  .000E+00  .000E+00  .000E+00  .000E+00
  .185E-01  .201E-01  .221E-01  .235E-01  .243E-01  .252E-01  .324E-01  .417E-01
  .549E-01  .738E-01  .911E-01  .104E+00  .122E+00  .135E+00  .144E+00  .154E+00
  .149E+00  .199E+00  .251E+00  .183E+00  .124E+00  .104E+00  .114E+00  .133E+00
  .140E+00  .154E+00  .182E+00  .182E+00  .148E+00  .126E+00  .145E+00  .170E+00
  .175E+00  .194E+00  .161E+00  .158E+00  .174E+00  .181E+00  .168E+00  .145E+00
  .151E+00  .145E+00  .134E+00  .132E+00  .106E+00  .102E+00  .963E-01  .934E-01
  .865E-01  .775E-01  .681E-01  .539E-01  .507E-01  .593E-01  .646E-01  .688E-01
  .633E-01  .549E-01  .431E-01  .333E-01  .293E-01  .233E-01  .189E-01  .155E-01
  .132E-01  .121E-01  .109E-01  .101E-01  .944E-02  .887E-02  .840E-02  .791E-02
  .742E-02  .698E-02  .659E-02  .621E-02  .548E-02  .496E-02  .000E+00  .000E+00
  .000E+00  .000E+00  .000E+00  .000E+00  .000E+00  .000E+00  .000E+00  .000E+00
  .000E+00  .000E+00  .000E+00  .000E+00  .000E+00  .000E+00  .000E+00  .000E+00
  .000E+00  .000E+00  .000E+00  .000E+00
  .326E+02  .326E+02  .326E+02  .326E+02  .326E+02  .326E+02  .326E+02  .326E+02
  .327E+02  .327E+02  .327E+02  .327E+02  .327E+02  .327E+02  .332E+02  .330E+02
  .330E+02  .338E+02  .337E+02  .332E+02  .332E+02  .332E+02  .328E+02  .328E+02
  .328E+02  .328E+02  .328E+02  .328E+02  .329E+02  .329E+02  .329E+02  .334E+02
  .329E+02  .363E+02  .364E+02  .364E+02  .364E+02  .364E+02  .364E+02  .364E+02
  .364E+02  .331E+02  .335E+02  .335E+02  .333E+02  .333E+02  .327E+02  .327E+02
  .327E+02  .327E+02  .327E+02  .327E+02  .384E+02  .359E+02  .368E+02  .363E+02
  .356E+02  .357E+02  .349E+02  .349E+02  .344E+02  .344E+02  .337E+02  .337E+02
  .330E+02  .330E+02  .330E+02  .320E+02  .320E+02  .320E+02  .320E+02  .320E+02
  .320E+02  .320E+02  .320E+02  .320E+02  .320E+02  .320E+02  .000E+00  .000E+00
  .000E+00  .000E+00  .000E+00  .000E+00  .000E+00  .000E+00  .000E+00  .000E+00
  .000E+00  .000E+00  .000E+00  .000E+00  .000E+00  .000E+00  .000E+00  .000E+00
  .000E+00  .000E+00  .000E+00  .000E+00
  .326E+02  .326E+02  .326E+02  .326E+02  .326E+02  .326E+02  .326E+02  .326E+02
  .327E+02  .327E+02  .327E+02  .328E+02  .328E+02  .328E+02  .332E+02  .329E+02
  .330E+02  .337E+02  .337E+02  .332E+02  .332E+02  .332E+02  .329E+02  .329E+02
  .332E+02  .332E+02  .331E+02  .328E+02  .328E+02  .328E+02  .336E+02  .336E+02
  .334E+02  .364E+02  .364E+02  .365E+02  .365E+02  .363E+02  .363E+02  .363E+02
  .363E+02  .327E+02  .327E+02  .327E+02  .327E+02  .327E+02  .328E+02  .326E+02
  .326E+02  .326E+02  .326E+02  .326E+02  .326E+02  .326E+02  .326E+02  .326E+02
  .326E+02  .326E+02  .326E+02  .326E+02  .326E+02  .326E+02  .326E+02  .327E+02
  .327E+02  .327E+02  .327E+02  .327E+02  .327E+02  .327E+02  .327E+02  .327E+02
  .327E+02  .327E+02  .327E+02  .327E+02  .327E+02  .327E+02  .000E+00  .000E+00
  .000E+00  .000E+00  .000E+00  .000E+00  .000E+00  .000E+00  .000E+00  .000E+00
  .000E+00  .000E+00  .000E+00  .000E+00  .000E+00  .000E+00  .000E+00  .000E+00
  .000E+00  .000E+00  .000E+00  .000E+00
  .326E+02  .326E+02  .326E+02  .326E+02  .326E+02  .326E+02  .326E+02  .326E+02
  .327E+02  .327E+02  .327E+02  .327E+02  .327E+02  .327E+02  .332E+02  .330E+02
  .329E+02  .338E+02  .338E+02  .332E+02  .332E+02  .332E+02  .328E+02  .328E+02
  .328E+02  .328E+02  .328E+02  .328E+02  .328E+02  .329E+02  .329E+02  .334E+02
  .329E+02  .363E+02  .364E+02  .364E+02  .364E+02  .364E+02  .364E+02  .364E+02
  .364E+02  .331E+02  .335E+02  .335E+02  .335E+02  .333E+02  .327E+02  .327E+02
  .327E+02  .327E+02  .327E+02  .327E+02  .384E+02  .359E+02  .367E+02  .362E+02
  .356E+02  .356E+02  .349E+02  .349E+02  .343E+02  .333E+02  .337E+02  .337E+02
  .329E+02  .329E+02  .329E+02  .320E+02  .320E+02  .320E+02  .320E+02  .320E+02
  .320E+02  .320E+02  .320E+02  .320E+02  .333E+02  .333E+02  .000E+00  .000E+00
  .000E+00  .000E+00  .000E+00  .000E+00  .000E+00  .000E+00  .000E+00  .000E+00
  .000E+00  .000E+00  .000E+00  .000E+00  .000E+00  .000E+00  .000E+00  .000E+00
  .000E+00  .000E+00  .000E+00  .000E+00
/&   ----------  End of spectral data for channel  1  ----------
Response and Fourier amplitude spectra (78 periods,  .04 -  6.0 sec)   for      
Corrected accelerogram   38695658.CI.TA2.--.HN      Chan  2: 360 Deg     from   
Uncorrected Accelerogram Data             Processed: 09/19/20, CGS  cita2--d    
Rcrd of Fri Sep 18, 2020 23:38:31.0 PDT               (Avol1 v2.0, 4/18 CSMIP)  
                                        (Origin:  To be determined)             
38695658.CI.TA2.--.HN                Start time:  9/19/20, 06:38:31.0 UTC (GPS) 
Station Id. TA2     34.382N, 117.678W    Q330    s/n 3059  (3 Chns of  3 at Sta)
Wrightwood, Big Pines Hwy.               SCSN   Data: Acceleration              
Chan  2: 360 Deg                                                                
Rcrd of Fri Sep 18, 2020 23:38:31.0 PDT    Fri Sep 18, 2020 23:38:31.0 PDT      
Hypocenter:  To be determined.               ML:  To be determined.             
Instr Period =  .0050 sec,  Damping =  .707,  Sensitivity = 4.99 v/g  (Nominal) 
                        Record Length =301.000 sec.                             
                                     Uncor Max  =   .007 g, at   33.120 sec.    
RMS accel of (uncor) record  =        .   Chn. metadata effective date:         
Accelerogram bandpass filtered with 3 dB pts at   .30 and 23.00 cyc/sec         
                 instrument- and base-line correcte                             
                                                                                
                                                                                
                                                                                
                                                                                
                                                                                
Rcrd of Fri Sep 18, 2020 23:38:31.0 PDT    Fri Sep 18, 2020 23:38:31.0 PDT      
                                                                                
38695658.CI.TA2.--.HN     Wrightwood, Big Pines Hwy.    Chan  2: 360 Deg        
                                                                                
38695658.CI.TA2.--.HN     Wrightwood, Big Pines Hwy.    Chan  2: 360 Deg        
                                                                                
Units for spectra are inches and sec, except Sa is in fraction of g.            
                                                                                
    2  100    2    3    3  100 -999    3    1   24  605 3059    050524   41    0
    6   38   31    8  263    9   19 2020   10    3  36035666   39   26   74 -999
35666 -999  100    6 -999 -999 -999 -999 -999 -999 -999 -999 -999 -999 -999 -999
 -999 -999 -999 -99915050    2 -999    0 -999   20 -999 -999    3    1 -99915050
    315050    4   78    1    3    5    0    0 -999    0 -999 -999    6 -999    2
    2    2    4 -999 -999 -999 -999 -999 -999 -999 -999    1 -999 -999 -999  111
    1    1 -999 -999
      .005      .707   356.660      .000     1.000  4990.473      .007    33.120
   200.000     2.384      .478  -999.000    10.000  -999.000     4.000  -999.000
    20.000    -8.381    20.000  -999.000  -999.000  -999.000  -999.000     -.002
      .003      .005     2.000    15.000    34.382  -117.678      .001      .003
     1.936      .005      .005  2249.000  -999.000  -999.000  -999.000  -999.000
     1.000  -999.000  -999.000  -999.000  -999.000  -999.000  -999.000   120.000
     -.900     2.000     6.800   980.665      .020   301.000    31.831      .000
  -999.000    23.000  -999.000   301.000      .020      .300  -999.000  -999.000
    33.120     7.097    32.900      .208    33.960     -.011      .000      .300
    23.000      .020      .020      .000      .020      .008  -999.000  -999.000
      .022      .075      .010      .007      .001      .000  -999.000  -999.000
  -999.000  -999.000  -999.000  -999.000  -999.000  -999.000  -999.000  -999.000
  -999.000  -999.000  -999.000  -999.000
      .050
      .040      .042      .044      .046      .048      .050      .055      .060
      .065      .070      .075      .080      .085      .090      .095      .100
      .110      .120      .130      .140      .150      .160      .170      .180
      .190      .200      .220      .240      .260      .280      .300      .320
      .340      .360      .380      .400      .420      .440      .460      .480
      .500      .550      .600      .650      .700      .750      .800      .850
      .900      .950     1.000     1.100     1.200     1.300     1.400     1.500
     1.600     1.700     1.800     1.900     2.000     2.200     2.400     2.600
     2.800     3.000     3.200     3.400     3.600     3.800     4.000     4.200
     4.400     4.600     4.800     5.000     5.500     6.000      .000      .000
      .000      .000      .000      .000      .000      .000      .000      .000
      .000      .000      .000      .000      .000      .000      .000      .000
      .000      .000      .000      .000
Fourier amplitude spectra in in/sec.
  .000E+00  .000E+00  .000E+00  .000E+00  .000E+00  .000E+00  .000E+00  .000E+00
  .000E+00  .000E+00  .000E+00  .000E+00  .000E+00  .000E+00  .000E+00  .000E+00
  .000E+00  .000E+00  .000E+00  .000E+00  .000E+00  .000E+00  .000E+00  .000E+00
  .000E+00  .000E+00  .000E+00  .000E+00  .000E+00  .000E+00  .000E+00  .000E+00
  .000E+00  .000E+00  .000E+00  .000E+00  .000E+00  .000E+00  .000E+00  .000E+00
  .000E+00  .000E+00  .000E+00  .000E+00  .000E+00  .000E+00  .000E+00  .000E+00
  .000E+00  .000E+00  .000E+00  .000E+00  .000E+00  .000E+00  .000E+00  .000E+00
  .000E+00  .000E+00  .000E+00  .000E+00  .000E+00  .000E+00  .000E+00  .000E+00
  .000E+00  .000E+00  .000E+00  .000E+00  .000E+00  .000E+00  .000E+00  .000E+00
  .000E+00  .000E+00  .000E+00  .000E+00  .000E+00  .000E+00  .000E+00  .000E+00
  .000E+00  .000E+00  .000E+00  .000E+00  .000E+00  .000E+00  .000E+00  .000E+00
  .000E+00  .000E+00  .000E+00  .000E+00  .000E+00  .000E+00  .000E+00  .000E+00
  .000E+00  .000E+00  .000E+00  .000E+00
Damping =  .05. Data of Sd,Sv,Sa,Pssv,ttSd,ttSv,ttSa :
  .126E-03  .148E-03  .178E-03  .209E-03  .232E-03  .254E-03  .373E-03  .543E-03
  .739E-03  .102E-02  .123E-02  .110E-02  .117E-02  .134E-02  .139E-02  .135E-02
  .142E-02  .201E-02  .280E-02  .289E-02  .301E-02  .267E-02  .238E-02  .295E-02
  .391E-02  .428E-02  .378E-02  .465E-02  .470E-02  .509E-02  .621E-02  .827E-02
  .119E-01  .148E-01  .149E-01  .117E-01  .107E-01  .115E-01  .110E-01  .113E-01
