Response and Fourier amplitude spectra (78 periods,  .04 -  6.0 sec)   for      
Corrected accelerogram   38695658.CI.THC.--.HN      Chan  1:  90 Deg     from   
Uncorrected Accelerogram Data             Processed: 09/19/20, CGS  cithc--m    
Rcrd of Fri Sep 18, 2020 23:38:39.0 PDT               (Avol1 v2.0, 4/18 CSMIP)  
                                        (Origin:  To be determined)             
38695658.CI.THC.--.HN                Start time:  9/19/20, 06:38:39.0 UTC (GPS) 
Station Id. THC     34.909N, 118.664W    ObsMMS  s/n  244  (3 Chns of  6 at Sta)
Tehachapi                                SCSN   Data: Acceleration              
Chan  1:  90 Deg                                                                
Rcrd of Fri Sep 18, 2020 23:38:39.0 PDT    Fri Sep 18, 2020 23:38:39.0 PDT      
Hypocenter:  To be determined.               ML:  To be determined.             
Instr Period =  .0050 sec,  Damping =  .707,  Sensitivity = 5.00 v/g  (Nominal) 
                        Record Length =301.000 sec.                             
                                     Uncor Max  =   .001 g, at   41.890 sec.    
RMS accel of (uncor) record  =        .   Chn. metadata effective date:         
Accelerogram bandpass filtered with 3 dB pts at   .30 and 23.00 cyc/sec         
                 instrument- and base-line correcte                             
                                                                                
                                                                                
                                                                                
                                                                                
                                                                                
Rcrd of Fri Sep 18, 2020 23:38:39.0 PDT    Fri Sep 18, 2020 23:38:39.0 PDT      
                                                                                
38695658.CI.THC.--.HN     Tehachapi   Chan  1:  90 Deg                          
                                                                                
38695658.CI.THC.--.HN     Tehachapi   Chan  1:  90 Deg                          
                                                                                
Units for spectra are inches and sec, except Sa is in fraction of g.            
                                                                                
    1  100    1    6    6  100 -999    3    1    0   15  244    050854   41    0
    6   38   39   10  263    9   19 2020   10    3   9035996   39    9   74 -999
35996 -999  100    6 -999 -999 -999 -999 -999 -999 -999 -999 -999 -999 -999 -999
 -999 -999 -999 -99915050    2 -999    0 -999   20 -999 -999    3    1 -99915050
    315050    4   78    1    3    5    0    0 -999    0 -999 -999    6 -999    2
    2    2    4 -999 -999 -999 -999 -999 -999 -999 -999    1 -999 -999 -999  111
    1    1 -999 -999
      .005      .707   359.960      .000     1.000  4997.654      .001    41.890
   200.000     2.384      .477  -999.000    10.000  -999.000     4.000  -999.000
    20.000    11.912      .000  -999.000  -999.000  -999.000  -999.000     -.009
      .009      .018     2.000    15.000    34.909  -118.664      .001      .001
      .970      .017      .018  1688.000  -999.000  -999.000  -999.000  -999.000
     1.000  -999.000    -8.000  -999.000  -999.000  -999.000  -999.000   120.000
     -.900     2.000     6.800   980.665      .020   301.000    31.831     -.001
  -999.000    23.000  -999.000   301.000      .020      .300  -999.000  -999.000
    41.880     1.103    41.980      .049    41.880     -.006      .000      .300
    23.000      .020      .020      .000      .020      .003  -999.000  -999.000
      .004      .220      .004      .004      .001      .000  -999.000  -999.000
  -999.000  -999.000  -999.000  -999.000  -999.000  -999.000  -999.000  -999.000
  -999.000  -999.000  -999.000  -999.000
      .050
      .040      .042      .044      .046      .048      .050      .055      .060
      .065      .070      .075      .080      .085      .090      .095      .100
      .110      .120      .130      .140      .150      .160      .170      .180
      .190      .200      .220      .240      .260      .280      .300      .320
      .340      .360      .380      .400      .420      .440      .460      .480
      .500      .550      .600      .650      .700      .750      .800      .850
      .900      .950     1.000     1.100     1.200     1.300     1.400     1.500
     1.600     1.700     1.800     1.900     2.000     2.200     2.400     2.600
     2.800     3.000     3.200     3.400     3.600     3.800     4.000     4.200
     4.400     4.600     4.800     5.000     5.500     6.000      .000      .000
      .000      .000      .000      .000      .000      .000      .000      .000
      .000      .000      .000      .000      .000      .000      .000      .000
      .000      .000      .000      .000
Fourier amplitude spectra in in/sec.
  .000E+00  .000E+00  .000E+00  .000E+00  .000E+00  .000E+00  .000E+00  .000E+00
  .000E+00  .000E+00  .000E+00  .000E+00  .000E+00  .000E+00  .000E+00  .000E+00
  .000E+00  .000E+00  .000E+00  .000E+00  .000E+00  .000E+00  .000E+00  .000E+00
  .000E+00  .000E+00  .000E+00  .000E+00  .000E+00  .000E+00  .000E+00  .000E+00
  .000E+00  .000E+00  .000E+00  .000E+00  .000E+00  .000E+00  .000E+00  .000E+00
  .000E+00  .000E+00  .000E+00  .000E+00  .000E+00  .000E+00  .000E+00  .000E+00
  .000E+00  .000E+00  .000E+00  .000E+00  .000E+00  .000E+00  .000E+00  .000E+00
  .000E+00  .000E+00  .000E+00  .000E+00  .000E+00  .000E+00  .000E+00  .000E+00
  .000E+00  .000E+00  .000E+00  .000E+00  .000E+00  .000E+00  .000E+00  .000E+00
  .000E+00  .000E+00  .000E+00  .000E+00  .000E+00  .000E+00  .000E+00  .000E+00
  .000E+00  .000E+00  .000E+00  .000E+00  .000E+00  .000E+00  .000E+00  .000E+00
  .000E+00  .000E+00  .000E+00  .000E+00  .000E+00  .000E+00  .000E+00  .000E+00
  .000E+00  .000E+00  .000E+00  .000E+00
Damping =  .05. Data of Sd,Sv,Sa,Pssv,ttSd,ttSv,ttSa :
  .192E-04  .213E-04  .237E-04  .263E-04  .290E-04  .314E-04  .395E-04  .549E-04
  .787E-04  .115E-03  .160E-03  .218E-03  .265E-03  .282E-03  .282E-03  .248E-03
  .278E-03  .324E-03  .379E-03  .514E-03  .621E-03  .668E-03  .770E-03  .110E-02
  .140E-02  .158E-02  .205E-02  .208E-02  .208E-02  .281E-02  .355E-02  .380E-02
  .289E-02  .224E-02  .228E-02  .277E-02  .285E-02  .250E-02  .200E-02  .194E-02
  .204E-02  .213E-02  .219E-02  .238E-02  .348E-02  .423E-02  .546E-02  .686E-02
  .771E-02  .810E-02  .788E-02  .682E-02  .581E-02  .537E-02  .511E-02  .460E-02
  .387E-02  .361E-02  .331E-02  .292E-02  .338E-02  .344E-02  .307E-02  .294E-02
  .265E-02  .252E-02  .245E-02  .241E-02  .242E-02  .236E-02  .231E-02  .225E-02
  .219E-02  .216E-02  .216E-02  .214E-02  .213E-02  .218E-02  .000E+00  .000E+00
  .000E+00  .000E+00  .000E+00  .000E+00  .000E+00  .000E+00  .000E+00  .000E+00
  .000E+00  .000E+00  .000E+00  .000E+00  .000E+00  .000E+00  .000E+00  .000E+00
  .000E+00  .000E+00  .000E+00  .000E+00
  .103E-02  .116E-02  .133E-02  .149E-02  .165E-02  .184E-02  .247E-02  .362E-02
  .534E-02  .829E-02  .121E-01  .161E-01  .189E-01  .195E-01  .180E-01  .156E-01
  .133E-01  .134E-01  .148E-01  .181E-01  .229E-01  .241E-01  .233E-01  .348E-01
  .429E-01  .466E-01  .578E-01  .539E-01  .499E-01  .589E-01  .778E-01  .811E-01
  .576E-01  .432E-01  .418E-01  .457E-01  .438E-01  .370E-01  .337E-01  .327E-01
  .306E-01  .334E-01  .252E-01  .319E-01  .314E-01  .421E-01  .515E-01  .525E-01
  .567E-01  .634E-01  .650E-01  .563E-01  .452E-01  .368E-01  .316E-01  .267E-01
  .248E-01  .232E-01  .229E-01  .214E-01  .217E-01  .216E-01  .208E-01  .204E-01
  .198E-01  .197E-01  .197E-01  .197E-01  .196E-01  .197E-01  .198E-01  .198E-01
  .198E-01  .198E-01  .198E-01  .198E-01  .198E-01  .197E-01  .000E+00  .000E+00
  .000E+00  .000E+00  .000E+00  .000E+00  .000E+00  .000E+00  .000E+00  .000E+00
  .000E+00  .000E+00  .000E+00  .000E+00  .000E+00  .000E+00  .000E+00  .000E+00
  .000E+00  .000E+00  .000E+00  .000E+00
  .123E-02  .124E-02  .125E-02  .127E-02  .129E-02  .128E-02  .134E-02  .157E-02
  .193E-02  .243E-02  .295E-02  .352E-02  .376E-02  .356E-02  .325E-02  .255E-02
  .234E-02  .230E-02  .227E-02  .266E-02  .284E-02  .268E-02  .272E-02  .347E-02
  .398E-02  .396E-02  .432E-02  .367E-02  .320E-02  .364E-02  .410E-02  .386E-02
  .257E-02  .179E-02  .163E-02  .177E-02  .165E-02  .131E-02  .970E-03  .862E-03
  .843E-03  .730E-03  .625E-03  .582E-03  .736E-03  .774E-03  .878E-03  .977E-03
  .983E-03  .926E-03  .813E-03  .579E-03  .416E-03  .329E-03  .271E-03  .214E-03
  .160E-03  .133E-03  .109E-03  .870E-04  .906E-04  .771E-04  .591E-04  .488E-04
  .387E-04  .325E-04  .283E-04  .250E-04  .226E-04  .201E-04  .180E-04  .163E-04
  .148E-04  .136E-04  .126E-04  .118E-04  .979E-05  .855E-05  .000E+00  .000E+00
  .000E+00  .000E+00  .000E+00  .000E+00  .000E+00  .000E+00  .000E+00  .000E+00
  .000E+00  .000E+00  .000E+00  .000E+00  .000E+00  .000E+00  .000E+00  .000E+00
  .000E+00  .000E+00  .000E+00  .000E+00
  .302E-02  .319E-02  .338E-02  .360E-02  .380E-02  .395E-02  .451E-02  .575E-02
  .761E-02  .103E-01  .134E-01  .172E-01  .196E-01  .197E-01  .187E-01  .156E-01
  .159E-01  .170E-01  .183E-01  .230E-01  .260E-01  .262E-01  .284E-01  .383E-01
  .462E-01  .495E-01  .585E-01  .545E-01  .503E-01  .630E-01  .744E-01  .746E-01
  .533E-01  .392E-01  .377E-01  .435E-01  .426E-01  .357E-01  .273E-01  .254E-01
  .256E-01  .244E-01  .230E-01  .230E-01  .313E-01  .354E-01  .429E-01  .507E-01
  .538E-01  .536E-01  .495E-01  .389E-01  .304E-01  .260E-01  .229E-01  .193E-01
  .152E-01  .133E-01  .116E-01  .966E-02  .106E-01  .983E-02  .805E-02  .711E-02
  .594E-02  .527E-02  .481E-02  .446E-02  .422E-02  .390E-02  .362E-02  .336E-02
  .313E-02  .295E-02  .282E-02  .269E-02  .243E-02  .229E-02  .000E+00  .000E+00
  .000E+00  .000E+00  .000E+00  .000E+00  .000E+00  .000E+00  .000E+00  .000E+00
  .000E+00  .000E+00  .000E+00  .000E+00  .000E+00  .000E+00  .000E+00  .000E+00
  .000E+00  .000E+00  .000E+00  .000E+00
  .419E+02  .419E+02  .419E+02  .419E+02  .419E+02  .419E+02  .271E+02  .271E+02
  .271E+02  .271E+02  .272E+02  .272E+02  .272E+02  .272E+02  .277E+02  .278E+02
  .428E+02  .423E+02  .423E+02  .414E+02  .423E+02  .423E+02  .428E+02  .429E+02
  .430E+02  .430E+02  .431E+02  .432E+02  .436E+02  .419E+02  .421E+02  .429E+02
  .421E+02  .412E+02  .421E+02  .422E+02  .422E+02  .420E+02  .408E+02  .422E+02
  .422E+02  .420E+02  .427E+02  .415E+02  .427E+02  .424E+02  .424E+02  .433E+02
  .429E+02  .425E+02  .431E+02  .422E+02  .418E+02  .418E+02  .418E+02  .419E+02
  .419E+02  .419E+02  .414E+02  .419E+02  .419E+02  .414E+02  .414E+02  .414E+02
  .414E+02  .414E+02  .414E+02  .414E+02  .414E+02  .414E+02  .414E+02  .414E+02
  .414E+02  .414E+02  .414E+02  .414E+02  .409E+02  .419E+02  .000E+00  .000E+00
  .000E+00  .000E+00  .000E+00  .000E+00  .000E+00  .000E+00  .000E+00  .000E+00
  .000E+00  .000E+00  .000E+00  .000E+00  .000E+00  .000E+00  .000E+00  .000E+00
  .000E+00  .000E+00  .000E+00  .000E+00
  .272E+02  .272E+02  .272E+02  .272E+02  .272E+02  .272E+02  .271E+02  .271E+02
  .272E+02  .272E+02  .272E+02  .272E+02  .272E+02  .272E+02  .272E+02  .272E+02
  .272E+02  .290E+02  .423E+02  .414E+02  .424E+02  .424E+02  .406E+02  .430E+02
  .430E+02  .430E+02  .431E+02  .431E+02  .437E+02  .417E+02  .429E+02  .428E+02
  .427E+02  .427E+02  .422E+02  .421E+02  .421E+02  .419E+02  .407E+02  .407E+02
  .407E+02  .427E+02  .416E+02  .416E+02  .421E+02  .426E+02  .426E+02  .426E+02
  .436E+02  .428E+02  .428E+02  .419E+02  .420E+02  .420E+02  .420E+02  .410E+02
  .410E+02  .410E+02  .410E+02  .420E+02  .420E+02  .428E+02  .410E+02  .410E+02
  .410E+02  .419E+02  .419E+02  .419E+02  .419E+02  .419E+02  .419E+02  .419E+02
  .419E+02  .419E+02  .419E+02  .419E+02  .419E+02  .419E+02  .000E+00  .000E+00
  .000E+00  .000E+00  .000E+00  .000E+00  .000E+00  .000E+00  .000E+00  .000E+00
  .000E+00  .000E+00  .000E+00  .000E+00  .000E+00  .000E+00  .000E+00  .000E+00
  .000E+00  .000E+00  .000E+00  .000E+00
  .419E+02  .419E+02  .419E+02  .419E+02  .419E+02  .419E+02  .271E+02  .271E+02
  .271E+02  .271E+02  .272E+02  .272E+02  .272E+02  .272E+02  .277E+02  .278E+02
  .428E+02  .423E+02  .423E+02  .414E+02  .429E+02  .423E+02  .428E+02  .429E+02
  .430E+02  .430E+02  .432E+02  .432E+02  .436E+02  .419E+02  .421E+02  .429E+02
  .420E+02  .412E+02  .421E+02  .422E+02  .422E+02  .420E+02  .408E+02  .422E+02
  .422E+02  .420E+02  .427E+02  .415E+02  .427E+02  .427E+02  .424E+02  .433E+02
  .429E+02  .425E+02  .431E+02  .422E+02  .418E+02  .418E+02  .418E+02  .418E+02
  .418E+02  .418E+02  .413E+02  .418E+02  .418E+02  .413E+02  .413E+02  .413E+02
  .413E+02  .413E+02  .413E+02  .413E+02  .413E+02  .413E+02  .413E+02  .413E+02
  .413E+02  .413E+02  .413E+02  .413E+02  .413E+02  .418E+02  .000E+00  .000E+00
  .000E+00  .000E+00  .000E+00  .000E+00  .000E+00  .000E+00  .000E+00  .000E+00
  .000E+00  .000E+00  .000E+00  .000E+00  .000E+00  .000E+00  .000E+00  .000E+00
  .000E+00  .000E+00  .000E+00  .000E+00
/&   ----------  End of spectral data for channel  1  ----------
Response and Fourier amplitude spectra (78 periods,  .04 -  6.0 sec)   for      
Corrected accelerogram   38695658.CI.THC.--.HN      Chan  2: 360 Deg     from   
Uncorrected Accelerogram Data             Processed: 09/19/20, CGS  cithc--m    
Rcrd of Fri Sep 18, 2020 23:38:39.0 PDT               (Avol1 v2.0, 4/18 CSMIP)  
                                        (Origin:  To be determined)             
38695658.CI.THC.--.HN                Start time:  9/19/20, 06:38:39.0 UTC (GPS) 
Station Id. THC     34.909N, 118.664W    ObsMMS  s/n  244  (3 Chns of  6 at Sta)
Tehachapi                                SCSN   Data: Acceleration              
Chan  2: 360 Deg                                                                
Rcrd of Fri Sep 18, 2020 23:38:39.0 PDT    Fri Sep 18, 2020 23:38:39.0 PDT      
Hypocenter:  To be determined.               ML:  To be determined.             
Instr Period =  .0050 sec,  Damping =  .707,  Sensitivity = 5.00 v/g  (Nominal) 
                        Record Length =301.000 sec.                             
                                     Uncor Max  =   .001 g, at   27.290 sec.    
RMS accel of (uncor) record  =        .   Chn. metadata effective date:         
Accelerogram bandpass filtered with 3 dB pts at   .30 and 23.00 cyc/sec         
                 instrument- and base-line correcte                             
                                                                                
                                                                                
                                                                                
                                                                                
                                                                                
Rcrd of Fri Sep 18, 2020 23:38:39.0 PDT    Fri Sep 18, 2020 23:38:39.0 PDT      
                                                                                
38695658.CI.THC.--.HN     Tehachapi   Chan  2: 360 Deg                          
                                                                                
38695658.CI.THC.--.HN     Tehachapi   Chan  2: 360 Deg                          
                                                                                
Units for spectra are inches and sec, except Sa is in fraction of g.            
                                                                                
    2  100    2    6    6  100 -999    3    1    0   15  244    050854   41    0
    6   38   39    0  263    9   19 2020   10    3  36036197   39    9   74 -999
36197 -999  100    6 -999 -999 -999 -999 -999 -999 -999 -999 -999 -999 -999 -999
 -999 -999 -999 -99915050    2 -999    0 -999   20 -999 -999    3    1 -99915050
    315050    4   78    1    3    5    0    0 -999    0 -999 -999    6 -999    2
    2    2    4 -999 -999 -999 -999 -999 -999 -999 -999    1 -999 -999 -999  111
    1    1 -999 -999
      .005      .707   361.970      .000     1.000  4998.452      .001    27.290
   200.000     2.384      .477  -999.000    10.000  -999.000     4.000  -999.000
    20.000    37.673      .000  -999.000  -999.000  -999.000  -999.000      .001
     -.002     -.003     2.000    15.000    34.909  -118.664      .001      .001
     1.130     -.003     -.003  1688.000  -999.000  -999.000  -999.000  -999.000
     1.000  -999.000  -999.000  -999.000  -999.000  -999.000  -999.000   120.000
     -.900     2.000     6.800   980.665      .020   301.000    31.831      .000
  -999.000    23.000  -999.000   301.000      .020      .300  -999.000  -999.000
    27.280      .941    41.760      .043    41.840      .005      .000      .300
    23.000      .020      .020      .000      .020      .002  -999.000  -999.000
      .004      .085      .003      .003      .001      .000  -999.000  -999.000
  -999.000  -999.000  -999.000  -999.000  -999.000  -999.000  -999.000  -999.000
  -999.000  -999.000  -999.000  -999.000
      .050
      .040      .042      .044      .046      .048      .050      .055      .060
      .065      .070      .075      .080      .085      .090      .095      .100
      .110      .120      .130      .140      .150      .160      .170      .180
      .190      .200      .220      .240      .260      .280      .300      .320
      .340      .360      .380      .400      .420      .440      .460      .480
      .500      .550      .600      .650      .700      .750      .800      .850
      .900      .950     1.000     1.100     1.200     1.300     1.400     1.500
     1.600     1.700     1.800     1.900     2.000     2.200     2.400     2.600
     2.800     3.000     3.200     3.400     3.600     3.800     4.000     4.200
     4.400     4.600     4.800     5.000     5.500     6.000      .000      .000
      .000      .000      .000      .000      .000      .000      .000      .000
      .000      .000      .000      .000      .000      .000      .000      .000
      .000      .000      .000      .000
Fourier amplitude spectra in in/sec.
  .000E+00  .000E+00  .000E+00  .000E+00  .000E+00  .000E+00  .000E+00  .000E+00
  .000E+00  .000E+00  .000E+00  .000E+00  .000E+00  .000E+00  .000E+00  .000E+00
  .000E+00  .000E+00  .000E+00  .000E+00  .000E+00  .000E+00  .000E+00  .000E+00
  .000E+00  .000E+00  .000E+00  .000E+00  .000E+00  .000E+00  .000E+00  .000E+00
  .000E+00  .000E+00  .000E+00  .000E+00  .000E+00  .000E+00  .000E+00  .000E+00
  .000E+00  .000E+00  .000E+00  .000E+00  .000E+00  .000E+00  .000E+00  .000E+00
  .000E+00  .000E+00  .000E+00  .000E+00  .000E+00  .000E+00  .000E+00  .000E+00
  .000E+00  .000E+00  .000E+00  .000E+00  .000E+00  .000E+00  .000E+00  .000E+00
  .000E+00  .000E+00  .000E+00  .000E+00  .000E+00  .000E+00  .000E+00  .000E+00
  .000E+00  .000E+00  .000E+00  .000E+00  .000E+00  .000E+00  .000E+00  .000E+00
  .000E+00  .000E+00  .000E+00  .000E+00  .000E+00  .000E+00  .000E+00  .000E+00
  .000E+00  .000E+00  .000E+00  .000E+00  .000E+00  .000E+00  .000E+00  .000E+00
  .000E+00  .000E+00  .000E+00  .000E+00
Damping =  .05. Data of Sd,Sv,Sa,Pssv,ttSd,ttSv,ttSa :
  .167E-04  .187E-04  .210E-04  .238E-04  .267E-04  .296E-04  .392E-04  .542E-04
  .733E-04  .103E-03  .169E-03  .238E-03  .281E-03  .304E-03  .303E-03  .283E-03
  .344E-03  .336E-03  .535E-03  .655E-03  .624E-03  .587E-03  .747E-03  .769E-03
  .964E-03  .118E-02  .127E-02  .148E-02  .180E-02  .224E-02  .247E-02  .250E-02
  .204E-02  .206E-02  .222E-02  .261E-02  .310E-02  .321E-02  .342E-02  .330E-02
