Response and Fourier amplitude spectra (78 periods,  .04 -  6.0 sec)   for      
Corrected accelerogram   38695658.CI.TJR.--.HN      Chan  1:  90 Deg     from   
Uncorrected Accelerogram Data             Processed: 09/19/20, CGS  citjr--s    
Rcrd of Fri Sep 18, 2020 23:38:41.0 PDT               (Avol1 v2.0, 4/18 CSMIP)  
                                        (Origin:  To be determined)             
38695658.CI.TJR.--.HN                Start time:  9/19/20, 06:38:41.0 UTC (GPS) 
Station Id. TJR     35.027N, 118.744W    ObsMMS  s/n 1118  (3 Chns of  6 at Sta)
Tejon Ranch                              SCSN   Data: Acceleration              
Chan  1:  90 Deg                                                                
Rcrd of Fri Sep 18, 2020 23:38:41.0 PDT    Fri Sep 18, 2020 23:38:41.0 PDT      
Hypocenter:  To be determined.               ML:  To be determined.             
Instr Period =  .0050 sec,  Damping =  .707,  Sensitivity = 4.99 v/g  (Nominal) 
                        Record Length =301.000 sec.                             
                                     Uncor Max  =   .002 g, at   42.890 sec.    
RMS accel of (uncor) record  =        .   Chn. metadata effective date:         
Accelerogram bandpass filtered with 3 dB pts at   .30 and 23.00 cyc/sec         
                 instrument- and base-line correcte                             
                                                                                
                                                                                
                                                                                
                                                                                
                                                                                
Rcrd of Fri Sep 18, 2020 23:38:41.0 PDT    Fri Sep 18, 2020 23:38:41.0 PDT      
                                                                                
38695658.CI.TJR.--.HN     Tejon Ranch   Chan  1:  90 Deg                        
                                                                                
38695658.CI.TJR.--.HN     Tejon Ranch   Chan  1:  90 Deg                        
                                                                                
Units for spectra are inches and sec, except Sa is in fraction of g.            
                                                                                
    1  100    1    6    6  100 -999    3    1    0   15 1118    050855   41    0
    6   38   41    0  263    9   19 2020   10    3   9036028   39   11   74 -999
36028 -999  100    6 -999 -999 -999 -999 -999 -999 -999 -999 -999 -999 -999 -999
 -999 -999 -999 -99915050    2 -999    0 -999   20 -999 -999    3    1 -99915050
    315050    4   78    1    3    5    0    0 -999    0 -999 -999    6 -999    2
    2    2    4 -999 -999 -999 -999 -999 -999 -999 -999    1 -999 -999 -999  111
    1    1 -999 -999
      .005      .707   360.280      .000     1.000  4993.665      .002    42.890
   200.000     2.384      .477  -999.000    10.000  -999.000     4.000  -999.000
    20.000   -17.490      .000  -999.000  -999.000  -999.000  -999.000      .010
     -.001     -.011     2.000    15.000    35.027  -118.744      .001      .001
      .968     -.012     -.011   398.000  -999.000  -999.000  -999.000  -999.000
     1.000  -999.000    -8.000  -999.000  -999.000  -999.000  -999.000   120.000
     -.900     2.000     6.800   980.665      .020   301.000    31.831      .000
  -999.000    23.000  -999.000   301.000      .020      .300  -999.000  -999.000
    42.880     1.774    42.760     -.154    42.880     -.014      .000      .300
    23.000      .020      .020      .000      .020      .004  -999.000  -999.000
      .007      .240      .005      .004      .002      .000  -999.000  -999.000
  -999.000  -999.000  -999.000  -999.000  -999.000  -999.000  -999.000  -999.000
  -999.000  -999.000  -999.000  -999.000
      .050
      .040      .042      .044      .046      .048      .050      .055      .060
      .065      .070      .075      .080      .085      .090      .095      .100
      .110      .120      .130      .140      .150      .160      .170      .180
      .190      .200      .220      .240      .260      .280      .300      .320
      .340      .360      .380      .400      .420      .440      .460      .480
      .500      .550      .600      .650      .700      .750      .800      .850
      .900      .950     1.000     1.100     1.200     1.300     1.400     1.500
     1.600     1.700     1.800     1.900     2.000     2.200     2.400     2.600
     2.800     3.000     3.200     3.400     3.600     3.800     4.000     4.200
     4.400     4.600     4.800     5.000     5.500     6.000      .000      .000
      .000      .000      .000      .000      .000      .000      .000      .000
      .000      .000      .000      .000      .000      .000      .000      .000
      .000      .000      .000      .000
Fourier amplitude spectra in in/sec.
  .000E+00  .000E+00  .000E+00  .000E+00  .000E+00  .000E+00  .000E+00  .000E+00
  .000E+00  .000E+00  .000E+00  .000E+00  .000E+00  .000E+00  .000E+00  .000E+00
  .000E+00  .000E+00  .000E+00  .000E+00  .000E+00  .000E+00  .000E+00  .000E+00
  .000E+00  .000E+00  .000E+00  .000E+00  .000E+00  .000E+00  .000E+00  .000E+00
  .000E+00  .000E+00  .000E+00  .000E+00  .000E+00  .000E+00  .000E+00  .000E+00
  .000E+00  .000E+00  .000E+00  .000E+00  .000E+00  .000E+00  .000E+00  .000E+00
  .000E+00  .000E+00  .000E+00  .000E+00  .000E+00  .000E+00  .000E+00  .000E+00
  .000E+00  .000E+00  .000E+00  .000E+00  .000E+00  .000E+00  .000E+00  .000E+00
  .000E+00  .000E+00  .000E+00  .000E+00  .000E+00  .000E+00  .000E+00  .000E+00
  .000E+00  .000E+00  .000E+00  .000E+00  .000E+00  .000E+00  .000E+00  .000E+00
  .000E+00  .000E+00  .000E+00  .000E+00  .000E+00  .000E+00  .000E+00  .000E+00
  .000E+00  .000E+00  .000E+00  .000E+00  .000E+00  .000E+00  .000E+00  .000E+00
  .000E+00  .000E+00  .000E+00  .000E+00
Damping =  .05. Data of Sd,Sv,Sa,Pssv,ttSd,ttSv,ttSa :
  .285E-04  .316E-04  .349E-04  .384E-04  .422E-04  .457E-04  .558E-04  .672E-04
  .879E-04  .104E-03  .111E-03  .139E-03  .155E-03  .189E-03  .225E-03  .269E-03
  .402E-03  .578E-03  .685E-03  .743E-03  .806E-03  .970E-03  .108E-02  .113E-02
  .144E-02  .188E-02  .301E-02  .399E-02  .413E-02  .355E-02  .309E-02  .289E-02
  .316E-02  .339E-02  .379E-02  .460E-02  .571E-02  .707E-02  .859E-02  .101E-01
  .115E-01  .149E-01  .177E-01  .193E-01  .198E-01  .199E-01  .188E-01  .179E-01
  .173E-01  .160E-01  .150E-01  .142E-01  .128E-01  .114E-01  .105E-01  .933E-02
  .857E-02  .794E-02  .784E-02  .753E-02  .731E-02  .698E-02  .681E-02  .646E-02
  .631E-02  .620E-02  .613E-02  .600E-02  .586E-02  .584E-02  .581E-02  .572E-02
  .562E-02  .556E-02  .554E-02  .553E-02  .547E-02  .539E-02  .000E+00  .000E+00
  .000E+00  .000E+00  .000E+00  .000E+00  .000E+00  .000E+00  .000E+00  .000E+00
  .000E+00  .000E+00  .000E+00  .000E+00  .000E+00  .000E+00  .000E+00  .000E+00
  .000E+00  .000E+00  .000E+00  .000E+00
  .975E-03  .109E-02  .124E-02  .138E-02  .151E-02  .162E-02  .205E-02  .276E-02
  .361E-02  .430E-02  .419E-02  .455E-02  .517E-02  .641E-02  .781E-02  .921E-02
  .146E-01  .218E-01  .261E-01  .271E-01  .267E-01  .306E-01  .310E-01  .294E-01
  .370E-01  .466E-01  .705E-01  .880E-01  .868E-01  .740E-01  .629E-01  .547E-01
  .552E-01  .555E-01  .575E-01  .657E-01  .752E-01  .915E-01  .113E+00  .130E+00
  .142E+00  .172E+00  .188E+00  .186E+00  .190E+00  .189E+00  .171E+00  .148E+00
  .142E+00  .132E+00  .122E+00  .100E+00  .945E-01  .908E-01  .878E-01  .839E-01
  .811E-01  .780E-01  .763E-01  .733E-01  .716E-01  .687E-01  .668E-01  .652E-01
  .644E-01  .637E-01  .631E-01  .625E-01  .622E-01  .620E-01  .617E-01  .614E-01
  .612E-01  .611E-01  .611E-01  .610E-01  .608E-01  .607E-01  .000E+00  .000E+00
  .000E+00  .000E+00  .000E+00  .000E+00  .000E+00  .000E+00  .000E+00  .000E+00
  .000E+00  .000E+00  .000E+00  .000E+00  .000E+00  .000E+00  .000E+00  .000E+00
  .000E+00  .000E+00  .000E+00  .000E+00
  .182E-02  .183E-02  .184E-02  .186E-02  .187E-02  .187E-02  .189E-02  .192E-02
  .213E-02  .217E-02  .202E-02  .222E-02  .220E-02  .239E-02  .258E-02  .274E-02
  .342E-02  .412E-02  .417E-02  .393E-02  .371E-02  .389E-02  .385E-02  .358E-02
  .407E-02  .477E-02  .632E-02  .721E-02  .625E-02  .463E-02  .357E-02  .293E-02
  .282E-02  .271E-02  .270E-02  .294E-02  .333E-02  .372E-02  .417E-02  .452E-02
  .475E-02  .506E-02  .503E-02  .471E-02  .417E-02  .365E-02  .301E-02  .254E-02
  .219E-02  .182E-02  .155E-02  .121E-02  .922E-03  .702E-03  .562E-03  .435E-03
  .353E-03  .291E-03  .255E-03  .221E-03  .194E-03  .155E-03  .128E-03  .105E-03
  .892E-04  .772E-04  .679E-04  .597E-04  .526E-04  .477E-04  .435E-04  .396E-04
  .360E-04  .331E-04  .309E-04  .291E-04  .253E-04  .225E-04  .000E+00  .000E+00
  .000E+00  .000E+00  .000E+00  .000E+00  .000E+00  .000E+00  .000E+00  .000E+00
  .000E+00  .000E+00  .000E+00  .000E+00  .000E+00  .000E+00  .000E+00  .000E+00
  .000E+00  .000E+00  .000E+00  .000E+00
  .448E-02  .472E-02  .498E-02  .525E-02  .552E-02  .574E-02  .637E-02  .703E-02
  .850E-02  .930E-02  .930E-02  .109E-01  .115E-01  .132E-01  .149E-01  .169E-01
  .230E-01  .302E-01  .331E-01  .333E-01  .338E-01  .381E-01  .399E-01  .395E-01
  .477E-01  .590E-01  .859E-01  .105E+00  .998E-01  .796E-01  .647E-01  .567E-01
  .583E-01  .592E-01  .626E-01  .723E-01  .854E-01  .101E+00  .117E+00  .132E+00
  .145E+00  .170E+00  .185E+00  .187E+00  .178E+00  .167E+00  .147E+00  .132E+00
  .120E+00  .105E+00  .940E-01  .810E-01  .671E-01  .551E-01  .473E-01  .391E-01
  .337E-01  .294E-01  .274E-01  .249E-01  .230E-01  .199E-01  .178E-01  .156E-01
  .142E-01  .130E-01  .120E-01  .111E-01  .102E-01  .965E-02  .913E-02  .856E-02
  .803E-02  .759E-02  .725E-02  .694E-02  .624E-02  .564E-02  .000E+00  .000E+00
  .000E+00  .000E+00  .000E+00  .000E+00  .000E+00  .000E+00  .000E+00  .000E+00
  .000E+00  .000E+00  .000E+00  .000E+00  .000E+00  .000E+00  .000E+00  .000E+00
  .000E+00  .000E+00  .000E+00  .000E+00
  .429E+02  .429E+02  .429E+02  .429E+02  .429E+02  .429E+02  .429E+02  .423E+02
  .423E+02  .423E+02  .423E+02  .429E+02  .423E+02  .423E+02  .423E+02  .423E+02
  .423E+02  .423E+02  .423E+02  .431E+02  .432E+02  .425E+02  .425E+02  .425E+02
  .428E+02  .428E+02  .428E+02  .429E+02  .429E+02  .429E+02  .429E+02  .429E+02
  .429E+02  .429E+02  .431E+02  .432E+02  .432E+02  .432E+02  .432E+02  .432E+02
  .432E+02  .438E+02  .436E+02  .436E+02  .434E+02  .434E+02  .431E+02  .431E+02
  .431E+02  .432E+02  .428E+02  .428E+02  .428E+02  .429E+02  .429E+02  .429E+02
  .429E+02  .429E+02  .425E+02  .425E+02  .425E+02  .425E+02  .425E+02  .425E+02
  .425E+02  .425E+02  .425E+02  .425E+02  .425E+02  .425E+02  .425E+02  .425E+02
  .425E+02  .425E+02  .425E+02  .425E+02  .425E+02  .425E+02  .000E+00  .000E+00
  .000E+00  .000E+00  .000E+00  .000E+00  .000E+00  .000E+00  .000E+00  .000E+00
  .000E+00  .000E+00  .000E+00  .000E+00  .000E+00  .000E+00  .000E+00  .000E+00
  .000E+00  .000E+00  .000E+00  .000E+00
  .423E+02  .423E+02  .423E+02  .423E+02  .423E+02  .423E+02  .423E+02  .423E+02
  .424E+02  .424E+02  .424E+02  .431E+02  .423E+02  .423E+02  .423E+02  .423E+02
  .424E+02  .424E+02  .424E+02  .424E+02  .424E+02  .424E+02  .424E+02  .424E+02
  .428E+02  .428E+02  .428E+02  .428E+02  .430E+02  .430E+02  .430E+02  .430E+02
  .430E+02  .430E+02  .430E+02  .430E+02  .430E+02  .433E+02  .433E+02  .433E+02
  .434E+02  .437E+02  .437E+02  .438E+02  .435E+02  .432E+02  .433E+02  .429E+02
  .429E+02  .430E+02  .430E+02  .430E+02  .427E+02  .427E+02  .427E+02  .427E+02
  .427E+02  .427E+02  .427E+02  .427E+02  .427E+02  .427E+02  .427E+02  .427E+02
  .427E+02  .427E+02  .427E+02  .427E+02  .427E+02  .427E+02  .427E+02  .427E+02
  .427E+02  .427E+02  .427E+02  .427E+02  .427E+02  .427E+02  .000E+00  .000E+00
  .000E+00  .000E+00  .000E+00  .000E+00  .000E+00  .000E+00  .000E+00  .000E+00
  .000E+00  .000E+00  .000E+00  .000E+00  .000E+00  .000E+00  .000E+00  .000E+00
  .000E+00  .000E+00  .000E+00  .000E+00
  .429E+02  .429E+02  .429E+02  .429E+02  .429E+02  .429E+02  .429E+02  .423E+02
  .423E+02  .423E+02  .423E+02  .429E+02  .423E+02  .423E+02  .423E+02  .423E+02
  .423E+02  .423E+02  .423E+02  .431E+02  .432E+02  .425E+02  .425E+02  .425E+02
  .428E+02  .428E+02  .428E+02  .429E+02  .429E+02  .429E+02  .429E+02  .429E+02
  .429E+02  .429E+02  .431E+02  .431E+02  .432E+02  .432E+02  .432E+02  .432E+02
  .432E+02  .438E+02  .436E+02  .436E+02  .434E+02  .434E+02  .431E+02  .431E+02
  .431E+02  .431E+02  .428E+02  .428E+02  .428E+02  .428E+02  .428E+02  .428E+02
  .428E+02  .428E+02  .425E+02  .425E+02  .425E+02  .425E+02  .425E+02  .425E+02
  .425E+02  .425E+02  .425E+02  .425E+02  .425E+02  .424E+02  .424E+02  .424E+02
  .424E+02  .424E+02  .428E+02  .428E+02  .428E+02  .428E+02  .000E+00  .000E+00
  .000E+00  .000E+00  .000E+00  .000E+00  .000E+00  .000E+00  .000E+00  .000E+00
  .000E+00  .000E+00  .000E+00  .000E+00  .000E+00  .000E+00  .000E+00  .000E+00
  .000E+00  .000E+00  .000E+00  .000E+00
/&   ----------  End of spectral data for channel  1  ----------
Response and Fourier amplitude spectra (78 periods,  .04 -  6.0 sec)   for      
Corrected accelerogram   38695658.CI.TJR.--.HN      Chan  2: 360 Deg     from   
Uncorrected Accelerogram Data             Processed: 09/19/20, CGS  citjr--s    
Rcrd of Fri Sep 18, 2020 23:38:41.0 PDT               (Avol1 v2.0, 4/18 CSMIP)  
                                        (Origin:  To be determined)             
38695658.CI.TJR.--.HN                Start time:  9/19/20, 06:38:41.0 UTC (GPS) 
Station Id. TJR     35.027N, 118.744W    ObsMMS  s/n 1118  (3 Chns of  6 at Sta)
Tejon Ranch                              SCSN   Data: Acceleration              
Chan  2: 360 Deg                                                                
Rcrd of Fri Sep 18, 2020 23:38:41.0 PDT    Fri Sep 18, 2020 23:38:41.0 PDT      
Hypocenter:  To be determined.               ML:  To be determined.             
Instr Period =  .0050 sec,  Damping =  .707,  Sensitivity = 5.00 v/g  (Nominal) 
                        Record Length =301.000 sec.                             
                                     Uncor Max  =   .001 g, at   42.560 sec.    
RMS accel of (uncor) record  =        .   Chn. metadata effective date:         
Accelerogram bandpass filtered with 3 dB pts at   .30 and 23.00 cyc/sec         
                 instrument- and base-line correcte                             
                                                                                
                                                                                
                                                                                
                                                                                
                                                                                
Rcrd of Fri Sep 18, 2020 23:38:41.0 PDT    Fri Sep 18, 2020 23:38:41.0 PDT      
                                                                                
38695658.CI.TJR.--.HN     Tejon Ranch   Chan  2: 360 Deg                        
                                                                                
38695658.CI.TJR.--.HN     Tejon Ranch   Chan  2: 360 Deg                        
                                                                                
Units for spectra are inches and sec, except Sa is in fraction of g.            
                                                                                
    2  100    2    6    6  100 -999    3    1    0   15 1118    050855   41    0
    6   38   41    0  263    9   19 2020   10    3  36036055   39   11   74 -999
36055 -999  100    6 -999 -999 -999 -999 -999 -999 -999 -999 -999 -999 -999 -999
 -999 -999 -999 -99915050    2 -999    0 -999   20 -999 -999    3    1 -99915050
    315050    4   78    1    3    5    0    0 -999    0 -999 -999    6 -999    2
    2    2    4 -999 -999 -999 -999 -999 -999 -999 -999    1 -999 -999 -999  111
    1    1 -999 -999
      .005      .707   360.550      .000     1.000  4997.654      .001    42.560
   200.000     2.384      .477  -999.000    10.000  -999.000     4.000  -999.000
    20.000   -11.229      .000  -999.000  -999.000  -999.000  -999.000      .003
     -.002     -.005     2.000    15.000    35.027  -118.744      .001      .001
     1.059     -.005     -.005   398.000  -999.000  -999.000  -999.000  -999.000
     1.000  -999.000  -999.000  -999.000  -999.000  -999.000  -999.000   120.000
     -.900     2.000     6.800   980.665      .020   301.000    31.831      .000
  -999.000    23.000  -999.000   301.000      .020      .300  -999.000  -999.000
    42.560     1.037    42.680      .084    42.820      .011      .000      .300
    23.000      .020      .020      .000      .020      .004  -999.000  -999.000
      .003      .140      .003      .002      .001      .000  -999.000  -999.000
  -999.000  -999.000  -999.000  -999.000  -999.000  -999.000  -999.000  -999.000
  -999.000  -999.000  -999.000  -999.000
      .050
      .040      .042      .044      .046      .048      .050      .055      .060
      .065      .070      .075      .080      .085      .090      .095      .100
      .110      .120      .130      .140      .150      .160      .170      .180
      .190      .200      .220      .240      .260      .280      .300      .320
      .340      .360      .380      .400      .420      .440      .460      .480
      .500      .550      .600      .650      .700      .750      .800      .850
      .900      .950     1.000     1.100     1.200     1.300     1.400     1.500
     1.600     1.700     1.800     1.900     2.000     2.200     2.400     2.600
     2.800     3.000     3.200     3.400     3.600     3.800     4.000     4.200
     4.400     4.600     4.800     5.000     5.500     6.000      .000      .000
      .000      .000      .000      .000      .000      .000      .000      .000
      .000      .000      .000      .000      .000      .000      .000      .000
      .000      .000      .000      .000
Fourier amplitude spectra in in/sec.
  .000E+00  .000E+00  .000E+00  .000E+00  .000E+00  .000E+00  .000E+00  .000E+00
  .000E+00  .000E+00  .000E+00  .000E+00  .000E+00  .000E+00  .000E+00  .000E+00
  .000E+00  .000E+00  .000E+00  .000E+00  .000E+00  .000E+00  .000E+00  .000E+00
  .000E+00  .000E+00  .000E+00  .000E+00  .000E+00  .000E+00  .000E+00  .000E+00
  .000E+00  .000E+00  .000E+00  .000E+00  .000E+00  .000E+00  .000E+00  .000E+00
  .000E+00  .000E+00  .000E+00  .000E+00  .000E+00  .000E+00  .000E+00  .000E+00
  .000E+00  .000E+00  .000E+00  .000E+00  .000E+00  .000E+00  .000E+00  .000E+00
  .000E+00  .000E+00  .000E+00  .000E+00  .000E+00  .000E+00  .000E+00  .000E+00
  .000E+00  .000E+00  .000E+00  .000E+00  .000E+00  .000E+00  .000E+00  .000E+00
  .000E+00  .000E+00  .000E+00  .000E+00  .000E+00  .000E+00  .000E+00  .000E+00
  .000E+00  .000E+00  .000E+00  .000E+00  .000E+00  .000E+00  .000E+00  .000E+00
  .000E+00  .000E+00  .000E+00  .000E+00  .000E+00  .000E+00  .000E+00  .000E+00
  .000E+00  .000E+00  .000E+00  .000E+00
Damping =  .05. Data of Sd,Sv,Sa,Pssv,ttSd,ttSv,ttSa :
  .168E-04  .187E-04  .208E-04  .228E-04  .246E-04  .272E-04  .367E-04  .465E-04
  .571E-04  .767E-04  .956E-04  .114E-03  .142E-03  .188E-03  .234E-03  .260E-03
  .340E-03  .445E-03  .479E-03  .663E-03  .697E-03  .816E-03  .879E-03  .872E-03
  .108E-02  .105E-02  .996E-03  .135E-02  .161E-02  .171E-02  .183E-02  .202E-02
  .276E-02  .384E-02  .455E-02  .425E-02  .441E-02  .548E-02  .649E-02  .726E-02
