Response and Fourier amplitude spectra (78 periods,  .04 -  6.0 sec)   for      
Corrected accelerogram   38695658.CI.TPO.--.HN      Chan  1:  90 Deg     from   
Uncorrected Accelerogram Data             Processed: 09/19/20, CGS  citpo--s    
Rcrd of Fri Sep 18, 2020 23:38:37.0 PDT               (Avol1 v2.0, 4/18 CSMIP)  
                                        (Origin:  To be determined)             
38695658.CI.TPO.--.HN                Start time:  9/19/20, 06:38:37.0 UTC (GPS) 
Station Id. TPO     34.879N, 118.229W    ObsMMS  s/n 5320  (3 Chns of  6 at Sta)
Tropico Hills                            SCSN   Data: Acceleration              
Chan  1:  90 Deg                                                                
Rcrd of Fri Sep 18, 2020 23:38:37.0 PDT    Fri Sep 18, 2020 23:38:37.0 PDT      
Hypocenter:  To be determined.               ML:  To be determined.             
Instr Period =  .0050 sec,  Damping =  .707,  Sensitivity = 4.98 v/g  (Nominal) 
                        Record Length =301.000 sec.                             
                                     Uncor Max  =  -.001 g, at   41.080 sec.    
RMS accel of (uncor) record  =        .   Chn. metadata effective date:         
Accelerogram bandpass filtered with 3 dB pts at   .30 and 23.00 cyc/sec         
                 instrument- and base-line correcte                             
                                                                                
                                                                                
                                                                                
                                                                                
                                                                                
Rcrd of Fri Sep 18, 2020 23:38:37.0 PDT    Fri Sep 18, 2020 23:38:37.0 PDT      
                                                                                
38695658.CI.TPO.--.HN     Tropico Hills   Chan  1:  90 Deg                      
                                                                                
38695658.CI.TPO.--.HN     Tropico Hills   Chan  1:  90 Deg                      
                                                                                
Units for spectra are inches and sec, except Sa is in fraction of g.            
                                                                                
    1  100    1    6    6  100 -999    3    1    0   15 5320    050860   41    0
    6   38   37    8  263    9   19 2020   10    3   9035759   39   13   74 -999
35759 -999  100    6 -999 -999 -999 -999 -999 -999 -999 -999 -999 -999 -999 -999
 -999 -999 -999 -99915050    2 -999    0 -999   20 -999 -999    3    1 -99915050
    315050    4   78    1    3    5    0    0 -999    0 -999 -999    6 -999    2
    2    2    4 -999 -999 -999 -999 -999 -999 -999 -999    1 -999 -999 -999  111
    1    1 -999 -999
      .005      .707   357.590      .000     1.000  4981.498     -.001    41.080
   200.000     2.384      .479  -999.000    10.000  -999.000     4.000  -999.000
    20.000   -14.866      .000  -999.000  -999.000  -999.000  -999.000      .000
      .000      .000     2.000    15.000    34.879  -118.229      .001      .001
     1.007      .000      .000   769.000  -999.000  -999.000  -999.000  -999.000
     1.000  -999.000    -8.000  -999.000  -999.000  -999.000  -999.000   120.000
     -.900     2.000     6.800   980.665      .020   301.000    31.831      .000
  -999.000    23.000  -999.000   301.000      .020      .300  -999.000  -999.000
    41.080    -1.091    39.200     -.093    38.600     -.010      .000      .300
    23.000      .020      .020      .000      .020      .003  -999.000  -999.000
      .004      .360      .003      .003      .001      .000  -999.000  -999.000
  -999.000  -999.000  -999.000  -999.000  -999.000  -999.000  -999.000  -999.000
  -999.000  -999.000  -999.000  -999.000
      .050
      .040      .042      .044      .046      .048      .050      .055      .060
      .065      .070      .075      .080      .085      .090      .095      .100
      .110      .120      .130      .140      .150      .160      .170      .180
      .190      .200      .220      .240      .260      .280      .300      .320
      .340      .360      .380      .400      .420      .440      .460      .480
      .500      .550      .600      .650      .700      .750      .800      .850
      .900      .950     1.000     1.100     1.200     1.300     1.400     1.500
     1.600     1.700     1.800     1.900     2.000     2.200     2.400     2.600
     2.800     3.000     3.200     3.400     3.600     3.800     4.000     4.200
     4.400     4.600     4.800     5.000     5.500     6.000      .000      .000
      .000      .000      .000      .000      .000      .000      .000      .000
      .000      .000      .000      .000      .000      .000      .000      .000
      .000      .000      .000      .000
Fourier amplitude spectra in in/sec.
  .000E+00  .000E+00  .000E+00  .000E+00  .000E+00  .000E+00  .000E+00  .000E+00
  .000E+00  .000E+00  .000E+00  .000E+00  .000E+00  .000E+00  .000E+00  .000E+00
  .000E+00  .000E+00  .000E+00  .000E+00  .000E+00  .000E+00  .000E+00  .000E+00
  .000E+00  .000E+00  .000E+00  .000E+00  .000E+00  .000E+00  .000E+00  .000E+00
  .000E+00  .000E+00  .000E+00  .000E+00  .000E+00  .000E+00  .000E+00  .000E+00
  .000E+00  .000E+00  .000E+00  .000E+00  .000E+00  .000E+00  .000E+00  .000E+00
  .000E+00  .000E+00  .000E+00  .000E+00  .000E+00  .000E+00  .000E+00  .000E+00
  .000E+00  .000E+00  .000E+00  .000E+00  .000E+00  .000E+00  .000E+00  .000E+00
  .000E+00  .000E+00  .000E+00  .000E+00  .000E+00  .000E+00  .000E+00  .000E+00
  .000E+00  .000E+00  .000E+00  .000E+00  .000E+00  .000E+00  .000E+00  .000E+00
  .000E+00  .000E+00  .000E+00  .000E+00  .000E+00  .000E+00  .000E+00  .000E+00
  .000E+00  .000E+00  .000E+00  .000E+00  .000E+00  .000E+00  .000E+00  .000E+00
  .000E+00  .000E+00  .000E+00  .000E+00
Damping =  .05. Data of Sd,Sv,Sa,Pssv,ttSd,ttSv,ttSa :
  .192E-04  .214E-04  .235E-04  .258E-04  .289E-04  .312E-04  .383E-04  .559E-04
  .827E-04  .107E-03  .109E-03  .106E-03  .119E-03  .149E-03  .160E-03  .190E-03
  .204E-03  .240E-03  .336E-03  .487E-03  .536E-03  .488E-03  .590E-03  .589E-03
  .823E-03  .108E-02  .176E-02  .184E-02  .202E-02  .208E-02  .261E-02  .345E-02
  .425E-02  .488E-02  .517E-02  .493E-02  .443E-02  .475E-02  .496E-02  .501E-02
  .507E-02  .506E-02  .678E-02  .866E-02  .983E-02  .993E-02  .100E-01  .100E-01
  .106E-01  .110E-01  .109E-01  .111E-01  .940E-02  .759E-02  .711E-02  .681E-02
  .602E-02  .585E-02  .591E-02  .616E-02  .611E-02  .568E-02  .509E-02  .466E-02
  .457E-02  .448E-02  .439E-02  .431E-02  .427E-02  .418E-02  .410E-02  .402E-02
  .401E-02  .401E-02  .398E-02  .399E-02  .397E-02  .396E-02  .000E+00  .000E+00
  .000E+00  .000E+00  .000E+00  .000E+00  .000E+00  .000E+00  .000E+00  .000E+00
  .000E+00  .000E+00  .000E+00  .000E+00  .000E+00  .000E+00  .000E+00  .000E+00
  .000E+00  .000E+00  .000E+00  .000E+00
  .104E-02  .110E-02  .141E-02  .175E-02  .217E-02  .279E-02  .312E-02  .503E-02
  .549E-02  .742E-02  .761E-02  .759E-02  .752E-02  .828E-02  .886E-02  .943E-02
  .999E-02  .115E-01  .143E-01  .179E-01  .177E-01  .166E-01  .192E-01  .175E-01
  .228E-01  .300E-01  .490E-01  .465E-01  .473E-01  .438E-01  .470E-01  .618E-01
  .734E-01  .809E-01  .834E-01  .797E-01  .688E-01  .661E-01  .665E-01  .662E-01
  .652E-01  .627E-01  .772E-01  .840E-01  .866E-01  .887E-01  .915E-01  .910E-01
  .878E-01  .799E-01  .719E-01  .748E-01  .732E-01  .655E-01  .635E-01  .596E-01
  .560E-01  .533E-01  .520E-01  .501E-01  .475E-01  .434E-01  .412E-01  .396E-01
  .389E-01  .385E-01  .383E-01  .381E-01  .379E-01  .378E-01  .378E-01  .377E-01
  .375E-01  .374E-01  .372E-01  .371E-01  .369E-01  .368E-01  .000E+00  .000E+00
  .000E+00  .000E+00  .000E+00  .000E+00  .000E+00  .000E+00  .000E+00  .000E+00
  .000E+00  .000E+00  .000E+00  .000E+00  .000E+00  .000E+00  .000E+00  .000E+00
  .000E+00  .000E+00  .000E+00  .000E+00
  .123E-02  .124E-02  .124E-02  .125E-02  .129E-02  .128E-02  .130E-02  .159E-02
  .201E-02  .228E-02  .201E-02  .169E-02  .168E-02  .189E-02  .182E-02  .196E-02
  .174E-02  .172E-02  .203E-02  .256E-02  .245E-02  .195E-02  .208E-02  .188E-02
  .235E-02  .282E-02  .371E-02  .332E-02  .312E-02  .270E-02  .298E-02  .348E-02
  .378E-02  .383E-02  .367E-02  .316E-02  .260E-02  .253E-02  .240E-02  .225E-02
  .209E-02  .171E-02  .193E-02  .211E-02  .207E-02  .181E-02  .162E-02  .143E-02
  .135E-02  .125E-02  .113E-02  .945E-03  .676E-03  .466E-03  .376E-03  .312E-03
  .242E-03  .209E-03  .190E-03  .178E-03  .159E-03  .123E-03  .929E-04  .734E-04
  .632E-04  .545E-04  .474E-04  .416E-04  .372E-04  .330E-04  .295E-04  .266E-04
  .242E-04  .224E-04  .209E-04  .195E-04  .166E-04  .143E-04  .000E+00  .000E+00
  .000E+00  .000E+00  .000E+00  .000E+00  .000E+00  .000E+00  .000E+00  .000E+00
  .000E+00  .000E+00  .000E+00  .000E+00  .000E+00  .000E+00  .000E+00  .000E+00
  .000E+00  .000E+00  .000E+00  .000E+00
  .302E-02  .320E-02  .336E-02  .352E-02  .378E-02  .392E-02  .438E-02  .586E-02
  .800E-02  .964E-02  .915E-02  .833E-02  .877E-02  .104E-01  .106E-01  .119E-01
  .117E-01  .125E-01  .162E-01  .219E-01  .225E-01  .192E-01  .218E-01  .206E-01
  .272E-01  .338E-01  .503E-01  .482E-01  .487E-01  .466E-01  .547E-01  .677E-01
  .785E-01  .851E-01  .855E-01  .774E-01  .662E-01  .679E-01  .678E-01  .656E-01
  .637E-01  .578E-01  .710E-01  .837E-01  .882E-01  .832E-01  .789E-01  .740E-01
  .742E-01  .725E-01  .687E-01  .632E-01  .492E-01  .367E-01  .319E-01  .285E-01
  .236E-01  .216E-01  .206E-01  .204E-01  .192E-01  .162E-01  .133E-01  .113E-01
  .103E-01  .938E-02  .862E-02  .797E-02  .746E-02  .691E-02  .644E-02  .601E-02
  .572E-02  .548E-02  .521E-02  .501E-02  .453E-02  .415E-02  .000E+00  .000E+00
  .000E+00  .000E+00  .000E+00  .000E+00  .000E+00  .000E+00  .000E+00  .000E+00
  .000E+00  .000E+00  .000E+00  .000E+00  .000E+00  .000E+00  .000E+00  .000E+00
  .000E+00  .000E+00  .000E+00  .000E+00
  .411E+02  .411E+02  .411E+02  .411E+02  .411E+02  .411E+02  .386E+02  .411E+02
  .411E+02  .411E+02  .411E+02  .409E+02  .386E+02  .402E+02  .393E+02  .393E+02
  .391E+02  .394E+02  .394E+02  .393E+02  .393E+02  .402E+02  .402E+02  .393E+02
  .409E+02  .409E+02  .412E+02  .413E+02  .414E+02  .414E+02  .393E+02  .393E+02
  .394E+02  .394E+02  .394E+02  .396E+02  .389E+02  .389E+02  .389E+02  .389E+02
  .389E+02  .390E+02  .397E+02  .395E+02  .395E+02  .395E+02  .396E+02  .396E+02
  .392E+02  .393E+02  .393E+02  .393E+02  .393E+02  .393E+02  .394E+02  .432E+02
  .427E+02  .428E+02  .390E+02  .390E+02  .390E+02  .390E+02  .390E+02  .390E+02
  .386E+02  .386E+02  .386E+02  .386E+02  .386E+02  .386E+02  .386E+02  .386E+02
  .390E+02  .390E+02  .390E+02  .386E+02  .386E+02  .386E+02  .000E+00  .000E+00
  .000E+00  .000E+00  .000E+00  .000E+00  .000E+00  .000E+00  .000E+00  .000E+00
  .000E+00  .000E+00  .000E+00  .000E+00  .000E+00  .000E+00  .000E+00  .000E+00
  .000E+00  .000E+00  .000E+00  .000E+00
  .299E+02  .311E+02  .311E+02  .311E+02  .300E+02  .300E+02  .300E+02  .300E+02
  .301E+02  .411E+02  .411E+02  .411E+02  .397E+02  .402E+02  .405E+02  .409E+02
  .408E+02  .396E+02  .396E+02  .394E+02  .392E+02  .404E+02  .402E+02  .402E+02
  .408E+02  .410E+02  .413E+02  .413E+02  .414E+02  .412E+02  .392E+02  .392E+02
  .394E+02  .395E+02  .395E+02  .395E+02  .395E+02  .388E+02  .388E+02  .388E+02
  .388E+02  .389E+02  .396E+02  .396E+02  .393E+02  .394E+02  .394E+02  .394E+02
  .394E+02  .394E+02  .395E+02  .392E+02  .392E+02  .392E+02  .392E+02  .392E+02
  .392E+02  .392E+02  .392E+02  .392E+02  .392E+02  .392E+02  .387E+02  .387E+02
  .392E+02  .392E+02  .392E+02  .392E+02  .392E+02  .392E+02  .392E+02  .392E+02
  .392E+02  .392E+02  .392E+02  .392E+02  .392E+02  .392E+02  .000E+00  .000E+00
  .000E+00  .000E+00  .000E+00  .000E+00  .000E+00  .000E+00  .000E+00  .000E+00
  .000E+00  .000E+00  .000E+00  .000E+00  .000E+00  .000E+00  .000E+00  .000E+00
  .000E+00  .000E+00  .000E+00  .000E+00
  .411E+02  .411E+02  .411E+02  .411E+02  .411E+02  .411E+02  .386E+02  .411E+02
  .411E+02  .411E+02  .411E+02  .409E+02  .386E+02  .402E+02  .393E+02  .393E+02
  .391E+02  .394E+02  .394E+02  .393E+02  .393E+02  .402E+02  .402E+02  .393E+02
  .409E+02  .409E+02  .412E+02  .413E+02  .414E+02  .414E+02  .393E+02  .393E+02
  .393E+02  .394E+02  .396E+02  .396E+02  .389E+02  .389E+02  .389E+02  .389E+02
  .389E+02  .390E+02  .397E+02  .394E+02  .395E+02  .395E+02  .395E+02  .396E+02
  .392E+02  .393E+02  .393E+02  .393E+02  .393E+02  .393E+02  .393E+02  .432E+02
  .427E+02  .428E+02  .390E+02  .390E+02  .390E+02  .390E+02  .390E+02  .385E+02
  .385E+02  .385E+02  .385E+02  .385E+02  .385E+02  .385E+02  .385E+02  .385E+02
  .385E+02  .385E+02  .385E+02  .385E+02  .385E+02  .385E+02  .000E+00  .000E+00
  .000E+00  .000E+00  .000E+00  .000E+00  .000E+00  .000E+00  .000E+00  .000E+00
  .000E+00  .000E+00  .000E+00  .000E+00  .000E+00  .000E+00  .000E+00  .000E+00
  .000E+00  .000E+00  .000E+00  .000E+00
/&   ----------  End of spectral data for channel  1  ----------
Response and Fourier amplitude spectra (78 periods,  .04 -  6.0 sec)   for      
Corrected accelerogram   38695658.CI.TPO.--.HN      Chan  2: 360 Deg     from   
Uncorrected Accelerogram Data             Processed: 09/19/20, CGS  citpo--s    
Rcrd of Fri Sep 18, 2020 23:38:37.0 PDT               (Avol1 v2.0, 4/18 CSMIP)  
                                        (Origin:  To be determined)             
38695658.CI.TPO.--.HN                Start time:  9/19/20, 06:38:37.0 UTC (GPS) 
Station Id. TPO     34.879N, 118.229W    ObsMMS  s/n 5320  (3 Chns of  6 at Sta)
Tropico Hills                            SCSN   Data: Acceleration              
Chan  2: 360 Deg                                                                
Rcrd of Fri Sep 18, 2020 23:38:37.0 PDT    Fri Sep 18, 2020 23:38:37.0 PDT      
Hypocenter:  To be determined.               ML:  To be determined.             
Instr Period =  .0050 sec,  Damping =  .707,  Sensitivity = 4.99 v/g  (Nominal) 
                        Record Length =301.000 sec.                             
                                     Uncor Max  =  -.001 g, at   38.870 sec.    
RMS accel of (uncor) record  =        .   Chn. metadata effective date:         
Accelerogram bandpass filtered with 3 dB pts at   .30 and 23.00 cyc/sec         
                 instrument- and base-line correcte                             
                                                                                
                                                                                
                                                                                
                                                                                
                                                                                
Rcrd of Fri Sep 18, 2020 23:38:37.0 PDT    Fri Sep 18, 2020 23:38:37.0 PDT      
                                                                                
38695658.CI.TPO.--.HN     Tropico Hills   Chan  2: 360 Deg                      
                                                                                
38695658.CI.TPO.--.HN     Tropico Hills   Chan  2: 360 Deg                      
                                                                                
Units for spectra are inches and sec, except Sa is in fraction of g.            
                                                                                
    2  100    2    6    6  100 -999    3    1    0   15 5320    050860   41    0
    6   38   37    8  263    9   19 2020   10    3  36035858   39   13   74 -999
35858 -999  100    6 -999 -999 -999 -999 -999 -999 -999 -999 -999 -999 -999 -999
 -999 -999 -999 -99915050    2 -999    0 -999   20 -999 -999    3    1 -99915050
    315050    4   78    1    3    5    0    0 -999    0 -999 -999    6 -999    2
    2    2    4 -999 -999 -999 -999 -999 -999 -999 -999    1 -999 -999 -999  111
    1    1 -999 -999
      .005      .707   358.580      .000     1.000  4985.487     -.001    38.870
   200.000     2.384      .478  -999.000    10.000  -999.000     4.000  -999.000
    20.000   -11.855      .000  -999.000  -999.000  -999.000  -999.000      .000
      .000      .000     2.000    15.000    34.879  -118.229      .001      .001
     1.044      .000      .001   769.000  -999.000  -999.000  -999.000  -999.000
     1.000  -999.000  -999.000  -999.000  -999.000  -999.000  -999.000   120.000
     -.900     2.000     6.800   980.665      .020   301.000    31.831      .000
  -999.000    23.000  -999.000   301.000      .020      .300  -999.000  -999.000
    38.880    -1.327    38.980     -.103    38.860      .013      .000      .300
    23.000      .020      .020      .000      .020      .004  -999.000  -999.000
      .004      .460      .002      .003      .001      .000  -999.000  -999.000
  -999.000  -999.000  -999.000  -999.000  -999.000  -999.000  -999.000  -999.000
  -999.000  -999.000  -999.000  -999.000
      .050
      .040      .042      .044      .046      .048      .050      .055      .060
      .065      .070      .075      .080      .085      .090      .095      .100
      .110      .120      .130      .140      .150      .160      .170      .180
      .190      .200      .220      .240      .260      .280      .300      .320
      .340      .360      .380      .400      .420      .440      .460      .480
      .500      .550      .600      .650      .700      .750      .800      .850
      .900      .950     1.000     1.100     1.200     1.300     1.400     1.500
     1.600     1.700     1.800     1.900     2.000     2.200     2.400     2.600
     2.800     3.000     3.200     3.400     3.600     3.800     4.000     4.200
     4.400     4.600     4.800     5.000     5.500     6.000      .000      .000
      .000      .000      .000      .000      .000      .000      .000      .000
      .000      .000      .000      .000      .000      .000      .000      .000
      .000      .000      .000      .000
Fourier amplitude spectra in in/sec.
  .000E+00  .000E+00  .000E+00  .000E+00  .000E+00  .000E+00  .000E+00  .000E+00
  .000E+00  .000E+00  .000E+00  .000E+00  .000E+00  .000E+00  .000E+00  .000E+00
  .000E+00  .000E+00  .000E+00  .000E+00  .000E+00  .000E+00  .000E+00  .000E+00
  .000E+00  .000E+00  .000E+00  .000E+00  .000E+00  .000E+00  .000E+00  .000E+00
  .000E+00  .000E+00  .000E+00  .000E+00  .000E+00  .000E+00  .000E+00  .000E+00
  .000E+00  .000E+00  .000E+00  .000E+00  .000E+00  .000E+00  .000E+00  .000E+00
  .000E+00  .000E+00  .000E+00  .000E+00  .000E+00  .000E+00  .000E+00  .000E+00
  .000E+00  .000E+00  .000E+00  .000E+00  .000E+00  .000E+00  .000E+00  .000E+00
  .000E+00  .000E+00  .000E+00  .000E+00  .000E+00  .000E+00  .000E+00  .000E+00
  .000E+00  .000E+00  .000E+00  .000E+00  .000E+00  .000E+00  .000E+00  .000E+00
  .000E+00  .000E+00  .000E+00  .000E+00  .000E+00  .000E+00  .000E+00  .000E+00
  .000E+00  .000E+00  .000E+00  .000E+00  .000E+00  .000E+00  .000E+00  .000E+00
  .000E+00  .000E+00  .000E+00  .000E+00
Damping =  .05. Data of Sd,Sv,Sa,Pssv,ttSd,ttSv,ttSa :
  .223E-04  .245E-04  .269E-04  .295E-04  .325E-04  .354E-04  .433E-04  .542E-04
  .781E-04  .878E-04  .120E-03  .136E-03  .154E-03  .152E-03  .201E-03  .250E-03
  .264E-03  .359E-03  .385E-03  .399E-03  .496E-03  .535E-03  .627E-03  .657E-03
  .717E-03  .775E-03  .116E-02  .160E-02  .205E-02  .257E-02  .282E-02  .304E-02
  .383E-02  .366E-02  .341E-02  .404E-02  .541E-02  .656E-02  .746E-02  .808E-02
