Response and Fourier amplitude spectra (78 periods,  .04 -  6.0 sec)   for      
Corrected accelerogram   38695658.CI.USC.--.HN      Chan  1:  90 Deg     from   
Uncorrected Accelerogram Data             Processed: 09/19/20, CGS  ciusc--g    
Rcrd of Fri Sep 18, 2020 23:38:29.0 PDT               (Avol1 v2.0, 4/18 CSMIP)  
                                        (Origin:  To be determined)             
38695658.CI.USC.--.HN                Start time:  9/19/20, 06:38:29.0 UTC (GPS) 
Station Id. USC     34.019N, 118.286W    ObsMMS  s/n 3450  (3 Chns of  3 at Sta)
Los Angeles, USC campus                  SCSN   Data: Acceleration              
Chan  1:  90 Deg                                                                
Rcrd of Fri Sep 18, 2020 23:38:29.0 PDT    Fri Sep 18, 2020 23:38:29.0 PDT      
Hypocenter:  To be determined.               ML:  To be determined.             
Instr Period =  .0050 sec,  Damping =  .707,  Sensitivity = 4.99 v/g  (Nominal) 
                        Record Length =301.000 sec.                             
                                     Uncor Max  =  -.024 g, at   27.130 sec.    
RMS accel of (uncor) record  =        .   Chn. metadata effective date:         
Accelerogram bandpass filtered with 3 dB pts at   .30 and 23.00 cyc/sec         
                 instrument- and base-line correcte                             
                                                                                
                                                                                
                                                                                
                                                                                
                                                                                
Rcrd of Fri Sep 18, 2020 23:38:29.0 PDT    Fri Sep 18, 2020 23:38:29.0 PDT      
                                                                                
38695658.CI.USC.--.HN     Los Angeles, USC campus   Chan  1:  90 Deg            
                                                                                
38695658.CI.USC.--.HN     Los Angeles, USC campus   Chan  1:  90 Deg            
                                                                                
Units for spectra are inches and sec, except Sa is in fraction of g.            
                                                                                
    1  100    1    3    3  100 -999    3    1    0   15 3450    050582   41    0
    6   38   29    8  263    9   19 2020   10    3   9035336   39   23   74 -999
35336 -999  100    6 -999 -999 -999 -999 -999 -999 -999 -999 -999 -999 -999 -999
 -999 -999 -999 -99915050    2 -999    0 -999   20 -999 -999    3    1 -99915050
    315050    4   78    1    3    5    0    0 -999    0 -999 -999    6 -999    2
    2    2    4 -999 -999 -999 -999 -999 -999 -999 -999    1 -999 -999 -999  111
    1    1 -999 -999
      .005      .707   353.360      .001     1.000  4992.069     -.024    27.130
   200.000     2.384      .478  -999.000    10.000  -999.000     4.000  -999.000
    20.000   -20.226      .000  -999.000  -999.000  -999.000  -999.000      .002
      .001     -.001     2.000    15.000    34.019  -118.286      .013      .012
      .932     -.003      .002    58.000  -999.000  -999.000  -999.000  -999.000
     1.000  -999.000    -8.000  -999.000  -999.000  -999.000  -999.000   120.000
     -.900     2.000     6.800   980.665      .020   301.000    31.831      .000
  -999.000    23.000  -999.000   301.000      .020      .300  -999.000  -999.000
    27.140   -20.803    31.420      .664    31.320     -.077      .000      .300
    23.000      .020      .020      .000      .020      .026  -999.000  -999.000
      .068      .200      .065      .025      .005      .001  -999.000  -999.000
  -999.000  -999.000  -999.000  -999.000  -999.000  -999.000  -999.000  -999.000
  -999.000  -999.000  -999.000  -999.000
      .050
      .040      .042      .044      .046      .048      .050      .055      .060
      .065      .070      .075      .080      .085      .090      .095      .100
      .110      .120      .130      .140      .150      .160      .170      .180
      .190      .200      .220      .240      .260      .280      .300      .320
      .340      .360      .380      .400      .420      .440      .460      .480
      .500      .550      .600      .650      .700      .750      .800      .850
      .900      .950     1.000     1.100     1.200     1.300     1.400     1.500
     1.600     1.700     1.800     1.900     2.000     2.200     2.400     2.600
     2.800     3.000     3.200     3.400     3.600     3.800     4.000     4.200
     4.400     4.600     4.800     5.000     5.500     6.000      .000      .000
      .000      .000      .000      .000      .000      .000      .000      .000
      .000      .000      .000      .000      .000      .000      .000      .000
      .000      .000      .000      .000
Fourier amplitude spectra in in/sec.
  .000E+00  .000E+00  .000E+00  .000E+00  .000E+00  .000E+00  .000E+00  .000E+00
  .000E+00  .000E+00  .000E+00  .000E+00  .000E+00  .000E+00  .000E+00  .000E+00
  .000E+00  .000E+00  .000E+00  .000E+00  .000E+00  .000E+00  .000E+00  .000E+00
  .000E+00  .000E+00  .000E+00  .000E+00  .000E+00  .000E+00  .000E+00  .000E+00
  .000E+00  .000E+00  .000E+00  .000E+00  .000E+00  .000E+00  .000E+00  .000E+00
  .000E+00  .000E+00  .000E+00  .000E+00  .000E+00  .000E+00  .000E+00  .000E+00
  .000E+00  .000E+00  .000E+00  .000E+00  .000E+00  .000E+00  .000E+00  .000E+00
  .000E+00  .000E+00  .000E+00  .000E+00  .000E+00  .000E+00  .000E+00  .000E+00
  .000E+00  .000E+00  .000E+00  .000E+00  .000E+00  .000E+00  .000E+00  .000E+00
  .000E+00  .000E+00  .000E+00  .000E+00  .000E+00  .000E+00  .000E+00  .000E+00
  .000E+00  .000E+00  .000E+00  .000E+00  .000E+00  .000E+00  .000E+00  .000E+00
  .000E+00  .000E+00  .000E+00  .000E+00  .000E+00  .000E+00  .000E+00  .000E+00
  .000E+00  .000E+00  .000E+00  .000E+00
Damping =  .05. Data of Sd,Sv,Sa,Pssv,ttSd,ttSv,ttSa :
  .404E-03  .448E-03  .487E-03  .530E-03  .588E-03  .650E-03  .922E-03  .101E-02
  .124E-02  .172E-02  .265E-02  .335E-02  .383E-02  .449E-02  .539E-02  .624E-02
  .726E-02  .815E-02  .835E-02  .918E-02  .955E-02  .113E-01  .152E-01  .198E-01
  .235E-01  .260E-01  .278E-01  .259E-01  .210E-01  .184E-01  .217E-01  .267E-01
  .382E-01  .477E-01  .577E-01  .573E-01  .566E-01  .554E-01  .535E-01  .509E-01
  .464E-01  .430E-01  .339E-01  .346E-01  .319E-01  .392E-01  .510E-01  .464E-01
  .477E-01  .567E-01  .555E-01  .430E-01  .611E-01  .584E-01  .528E-01  .422E-01
  .376E-01  .444E-01  .521E-01  .588E-01  .565E-01  .376E-01  .341E-01  .350E-01
  .456E-01  .519E-01  .529E-01  .498E-01  .451E-01  .406E-01  .368E-01  .340E-01
  .322E-01  .311E-01  .305E-01  .303E-01  .306E-01  .310E-01  .000E+00  .000E+00
  .000E+00  .000E+00  .000E+00  .000E+00  .000E+00  .000E+00  .000E+00  .000E+00
  .000E+00  .000E+00  .000E+00  .000E+00  .000E+00  .000E+00  .000E+00  .000E+00
  .000E+00  .000E+00  .000E+00  .000E+00
  .172E-01  .205E-01  .248E-01  .296E-01  .381E-01  .485E-01  .580E-01  .730E-01
  .726E-01  .108E+00  .170E+00  .187E+00  .208E+00  .252E+00  .298E+00  .336E+00
  .384E+00  .414E+00  .404E+00  .411E+00  .402E+00  .429E+00  .535E+00  .680E+00
  .815E+00  .883E+00  .915E+00  .744E+00  .647E+00  .547E+00  .437E+00  .492E+00
  .696E+00  .859E+00  .973E+00  .935E+00  .934E+00  .860E+00  .782E+00  .686E+00
  .596E+00  .566E+00  .451E+00  .460E+00  .415E+00  .470E+00  .502E+00  .417E+00
  .409E+00  .450E+00  .489E+00  .400E+00  .478E+00  .530E+00  .418E+00  .332E+00
  .355E+00  .408E+00  .418E+00  .381E+00  .330E+00  .279E+00  .295E+00  .318E+00
  .319E+00  .303E+00  .283E+00  .269E+00  .272E+00  .272E+00  .269E+00  .266E+00
  .262E+00  .259E+00  .258E+00  .259E+00  .261E+00  .261E+00  .000E+00  .000E+00
  .000E+00  .000E+00  .000E+00  .000E+00  .000E+00  .000E+00  .000E+00  .000E+00
  .000E+00  .000E+00  .000E+00  .000E+00  .000E+00  .000E+00  .000E+00  .000E+00
  .000E+00  .000E+00  .000E+00  .000E+00
  .257E-01  .260E-01  .258E-01  .257E-01  .262E-01  .266E-01  .312E-01  .286E-01
  .299E-01  .362E-01  .486E-01  .541E-01  .541E-01  .573E-01  .608E-01  .637E-01
  .607E-01  .574E-01  .506E-01  .488E-01  .438E-01  .447E-01  .541E-01  .623E-01
  .668E-01  .685E-01  .606E-01  .474E-01  .317E-01  .245E-01  .247E-01  .265E-01
  .337E-01  .379E-01  .410E-01  .366E-01  .329E-01  .292E-01  .263E-01  .227E-01
  .193E-01  .147E-01  .966E-02  .849E-02  .673E-02  .719E-02  .819E-02  .666E-02
  .611E-02  .648E-02  .574E-02  .368E-02  .438E-02  .355E-02  .281E-02  .193E-02
  .155E-02  .160E-02  .166E-02  .171E-02  .150E-02  .846E-03  .648E-03  .573E-03
  .639E-03  .636E-03  .575E-03  .487E-03  .402E-03  .332E-03  .279E-03  .241E-03
  .213E-03  .193E-03  .177E-03  .165E-03  .143E-03  .125E-03  .000E+00  .000E+00
  .000E+00  .000E+00  .000E+00  .000E+00  .000E+00  .000E+00  .000E+00  .000E+00
  .000E+00  .000E+00  .000E+00  .000E+00  .000E+00  .000E+00  .000E+00  .000E+00
  .000E+00  .000E+00  .000E+00  .000E+00
  .635E-01  .671E-01  .695E-01  .725E-01  .769E-01  .816E-01  .105E+00  .105E+00
  .120E+00  .155E+00  .222E+00  .263E+00  .283E+00  .313E+00  .357E+00  .392E+00
  .415E+00  .427E+00  .404E+00  .412E+00  .400E+00  .442E+00  .562E+00  .691E+00
  .778E+00  .816E+00  .794E+00  .678E+00  .508E+00  .413E+00  .455E+00  .524E+00
  .706E+00  .833E+00  .954E+00  .901E+00  .847E+00  .791E+00  .731E+00  .666E+00
  .582E+00  .491E+00  .355E+00  .334E+00  .286E+00  .329E+00  .400E+00  .343E+00
  .333E+00  .375E+00  .349E+00  .245E+00  .320E+00  .282E+00  .237E+00  .177E+00
  .148E+00  .164E+00  .182E+00  .194E+00  .177E+00  .108E+00  .892E-01  .845E-01
  .102E+00  .109E+00  .104E+00  .920E-01  .788E-01  .671E-01  .577E-01  .509E-01
  .460E-01  .425E-01  .400E-01  .381E-01  .350E-01  .325E-01  .000E+00  .000E+00
  .000E+00  .000E+00  .000E+00  .000E+00  .000E+00  .000E+00  .000E+00  .000E+00
  .000E+00  .000E+00  .000E+00  .000E+00  .000E+00  .000E+00  .000E+00  .000E+00
  .000E+00  .000E+00  .000E+00  .000E+00
  .271E+02  .271E+02  .271E+02  .271E+02  .271E+02  .271E+02  .271E+02  .271E+02
  .271E+02  .271E+02  .271E+02  .271E+02  .271E+02  .271E+02  .271E+02  .271E+02
  .271E+02  .272E+02  .272E+02  .277E+02  .272E+02  .272E+02  .272E+02  .273E+02
  .273E+02  .272E+02  .272E+02  .271E+02  .270E+02  .270E+02  .315E+02  .319E+02
  .319E+02  .319E+02  .318E+02  .318E+02  .316E+02  .316E+02  .317E+02  .317E+02
  .317E+02  .317E+02  .317E+02  .317E+02  .315E+02  .315E+02  .315E+02  .315E+02
  .315E+02  .315E+02  .315E+02  .315E+02  .315E+02  .361E+02  .313E+02  .415E+02
  .281E+02  .318E+02  .372E+02  .313E+02  .313E+02  .313E+02  .276E+02  .313E+02
  .313E+02  .313E+02  .313E+02  .313E+02  .313E+02  .313E+02  .313E+02  .313E+02
  .313E+02  .313E+02  .313E+02  .313E+02  .313E+02  .313E+02  .000E+00  .000E+00
  .000E+00  .000E+00  .000E+00  .000E+00  .000E+00  .000E+00  .000E+00  .000E+00
  .000E+00  .000E+00  .000E+00  .000E+00  .000E+00  .000E+00  .000E+00  .000E+00
  .000E+00  .000E+00  .000E+00  .000E+00
  .276E+02  .276E+02  .276E+02  .276E+02  .276E+02  .276E+02  .271E+02  .276E+02
  .271E+02  .271E+02  .271E+02  .271E+02  .272E+02  .272E+02  .272E+02  .272E+02
  .272E+02  .274E+02  .273E+02  .277E+02  .273E+02  .273E+02  .273E+02  .272E+02
  .272E+02  .272E+02  .271E+02  .272E+02  .271E+02  .271E+02  .271E+02  .320E+02
  .318E+02  .318E+02  .319E+02  .317E+02  .317E+02  .317E+02  .317E+02  .318E+02
  .316E+02  .316E+02  .316E+02  .316E+02  .316E+02  .316E+02  .316E+02  .314E+02
  .316E+02  .314E+02  .314E+02  .314E+02  .314E+02  .314E+02  .314E+02  .314E+02
  .314E+02  .314E+02  .314E+02  .314E+02  .314E+02  .312E+02  .314E+02  .314E+02
  .314E+02  .314E+02  .314E+02  .312E+02  .312E+02  .312E+02  .312E+02  .312E+02
  .312E+02  .312E+02  .314E+02  .314E+02  .314E+02  .314E+02  .000E+00  .000E+00
  .000E+00  .000E+00  .000E+00  .000E+00  .000E+00  .000E+00  .000E+00  .000E+00
  .000E+00  .000E+00  .000E+00  .000E+00  .000E+00  .000E+00  .000E+00  .000E+00
  .000E+00  .000E+00  .000E+00  .000E+00
  .271E+02  .271E+02  .271E+02  .271E+02  .271E+02  .271E+02  .271E+02  .271E+02
  .271E+02  .271E+02  .271E+02  .271E+02  .271E+02  .271E+02  .271E+02  .271E+02
  .271E+02  .272E+02  .272E+02  .277E+02  .272E+02  .272E+02  .272E+02  .273E+02
  .273E+02  .272E+02  .272E+02  .271E+02  .271E+02  .270E+02  .315E+02  .319E+02
  .319E+02  .317E+02  .318E+02  .318E+02  .316E+02  .316E+02  .316E+02  .317E+02
  .317E+02  .317E+02  .317E+02  .317E+02  .315E+02  .315E+02  .315E+02  .315E+02
  .315E+02  .315E+02  .315E+02  .315E+02  .315E+02  .361E+02  .313E+02  .414E+02
  .281E+02  .318E+02  .372E+02  .313E+02  .313E+02  .313E+02  .276E+02  .313E+02
  .312E+02  .313E+02  .313E+02  .313E+02  .313E+02  .313E+02  .312E+02  .312E+02
  .312E+02  .312E+02  .312E+02  .312E+02  .312E+02  .312E+02  .000E+00  .000E+00
  .000E+00  .000E+00  .000E+00  .000E+00  .000E+00  .000E+00  .000E+00  .000E+00
  .000E+00  .000E+00  .000E+00  .000E+00  .000E+00  .000E+00  .000E+00  .000E+00
  .000E+00  .000E+00  .000E+00  .000E+00
/&   ----------  End of spectral data for channel  1  ----------
Response and Fourier amplitude spectra (78 periods,  .04 -  6.0 sec)   for      
Corrected accelerogram   38695658.CI.USC.--.HN      Chan  2: 360 Deg     from   
Uncorrected Accelerogram Data             Processed: 09/19/20, CGS  ciusc--g    
Rcrd of Fri Sep 18, 2020 23:38:29.0 PDT               (Avol1 v2.0, 4/18 CSMIP)  
                                        (Origin:  To be determined)             
38695658.CI.USC.--.HN                Start time:  9/19/20, 06:38:29.0 UTC (GPS) 
Station Id. USC     34.019N, 118.286W    ObsMMS  s/n 3450  (3 Chns of  3 at Sta)
Los Angeles, USC campus                  SCSN   Data: Acceleration              
Chan  2: 360 Deg                                                                
Rcrd of Fri Sep 18, 2020 23:38:29.0 PDT    Fri Sep 18, 2020 23:38:29.0 PDT      
Hypocenter:  To be determined.               ML:  To be determined.             
Instr Period =  .0050 sec,  Damping =  .707,  Sensitivity = 5.00 v/g  (Nominal) 
                        Record Length =301.000 sec.                             
                                     Uncor Max  =   .018 g, at   27.190 sec.    
RMS accel of (uncor) record  =        .   Chn. metadata effective date:         
Accelerogram bandpass filtered with 3 dB pts at   .30 and 23.00 cyc/sec         
                 instrument- and base-line correcte                             
                                                                                
                                                                                
                                                                                
                                                                                
                                                                                
Rcrd of Fri Sep 18, 2020 23:38:29.0 PDT    Fri Sep 18, 2020 23:38:29.0 PDT      
                                                                                
38695658.CI.USC.--.HN     Los Angeles, USC campus   Chan  2: 360 Deg            
                                                                                
38695658.CI.USC.--.HN     Los Angeles, USC campus   Chan  2: 360 Deg            
                                                                                
Units for spectra are inches and sec, except Sa is in fraction of g.            
                                                                                
    2  100    2    3    3  100 -999    3    1    0   15 3450    050582   41    0
    6   38   29    8  263    9   19 2020   10    3  36035636   39   23   74 -999
35636 -999  100    6 -999 -999 -999 -999 -999 -999 -999 -999 -999 -999 -999 -999
 -999 -999 -999 -99915050    2 -999    0 -999   20 -999 -999    3    1 -99915050
    315050    4   78    1    3    5    0    0 -999    0 -999 -999    6 -999    2
    2    2    4 -999 -999 -999 -999 -999 -999 -999 -999    1 -999 -999 -999  111
    1    1 -999 -999
      .005      .707   356.360      .001     1.000  4995.260      .018    27.190
   200.000     2.384      .477  -999.000    10.000  -999.000     4.000  -999.000
    20.000   -23.641      .000  -999.000  -999.000  -999.000  -999.000     -.001
     -.001      .000     2.000    15.000    34.019  -118.286      .011      .011
     1.036     -.002      .002    58.000  -999.000  -999.000  -999.000  -999.000
     1.000  -999.000  -999.000  -999.000  -999.000  -999.000  -999.000   120.000
     -.900     2.000     6.800   980.665      .020   301.000    31.831      .000
  -999.000    23.000  -999.000   301.000      .020      .300  -999.000  -999.000
    27.180    17.649    31.240      .670    31.340      .059      .000      .300
    23.000      .020      .020      .000      .020      .023  -999.000  -999.000
      .067      .130      .045      .033      .004      .000  -999.000  -999.000
  -999.000  -999.000  -999.000  -999.000  -999.000  -999.000  -999.000  -999.000
  -999.000  -999.000  -999.000  -999.000
      .050
      .040      .042      .044      .046      .048      .050      .055      .060
      .065      .070      .075      .080      .085      .090      .095      .100
      .110      .120      .130      .140      .150      .160      .170      .180
      .190      .200      .220      .240      .260      .280      .300      .320
      .340      .360      .380      .400      .420      .440      .460      .480
      .500      .550      .600      .650      .700      .750      .800      .850
      .900      .950     1.000     1.100     1.200     1.300     1.400     1.500
     1.600     1.700     1.800     1.900     2.000     2.200     2.400     2.600
     2.800     3.000     3.200     3.400     3.600     3.800     4.000     4.200
     4.400     4.600     4.800     5.000     5.500     6.000      .000      .000
      .000      .000      .000      .000      .000      .000      .000      .000
      .000      .000      .000      .000      .000      .000      .000      .000
      .000      .000      .000      .000
Fourier amplitude spectra in in/sec.
  .000E+00  .000E+00  .000E+00  .000E+00  .000E+00  .000E+00  .000E+00  .000E+00
  .000E+00  .000E+00  .000E+00  .000E+00  .000E+00  .000E+00  .000E+00  .000E+00
  .000E+00  .000E+00  .000E+00  .000E+00  .000E+00  .000E+00  .000E+00  .000E+00
  .000E+00  .000E+00  .000E+00  .000E+00  .000E+00  .000E+00  .000E+00  .000E+00
  .000E+00  .000E+00  .000E+00  .000E+00  .000E+00  .000E+00  .000E+00  .000E+00
  .000E+00  .000E+00  .000E+00  .000E+00  .000E+00  .000E+00  .000E+00  .000E+00
  .000E+00  .000E+00  .000E+00  .000E+00  .000E+00  .000E+00  .000E+00  .000E+00
  .000E+00  .000E+00  .000E+00  .000E+00  .000E+00  .000E+00  .000E+00  .000E+00
  .000E+00  .000E+00  .000E+00  .000E+00  .000E+00  .000E+00  .000E+00  .000E+00
  .000E+00  .000E+00  .000E+00  .000E+00  .000E+00  .000E+00  .000E+00  .000E+00
  .000E+00  .000E+00  .000E+00  .000E+00  .000E+00  .000E+00  .000E+00  .000E+00
  .000E+00  .000E+00  .000E+00  .000E+00  .000E+00  .000E+00  .000E+00  .000E+00
  .000E+00  .000E+00  .000E+00  .000E+00
Damping =  .05. Data of Sd,Sv,Sa,Pssv,ttSd,ttSv,ttSa :
  .317E-03  .347E-03  .391E-03  .454E-03  .521E-03  .609E-03  .738E-03  .104E-02
  .157E-02  .232E-02  .318E-02  .393E-02  .414E-02  .434E-02  .435E-02  .402E-02
  .444E-02  .780E-02  .110E-01  .125E-01  .119E-01  .105E-01  .121E-01  .172E-01
  .191E-01  .173E-01  .161E-01  .184E-01  .215E-01  .249E-01  .302E-01  .330E-01
  .354E-01  .375E-01  .390E-01  .400E-01  .387E-01  .371E-01  .376E-01  .388E-01
