Response and Fourier amplitude spectra (78 periods,  .04 -  6.0 sec)   for      
Corrected accelerogram   38695658.CI.VCP.--.HN      Chan  1:  90 Deg     from   
Uncorrected Accelerogram Data             Processed: 09/19/20, CGS  civcp--c    
Rcrd of Fri Sep 18, 2020 23:38:43.0 PDT               (Avol1 v2.0, 4/18 CSMIP)  
                                        (Origin:  To be determined)             
38695658.CI.VCP.--.HN                Start time:  9/19/20, 06:38:43.0 UTC (GPS) 
Station Id. VCP     33.239N, 117.021W    ObsMMS  s/n 1860  (3 Chns of  6 at Sta)
Valley Center-Pauma Unified School Distr SCSN   Data: Acceleration              
Chan  1:  90 Deg                                                                
Rcrd of Fri Sep 18, 2020 23:38:43.0 PDT    Fri Sep 18, 2020 23:38:43.0 PDT      
Hypocenter:  To be determined.               ML:  To be determined.             
Instr Period =  .0050 sec,  Damping =  .707,  Sensitivity = 4.98 v/g  (Nominal) 
                        Record Length =301.000 sec.                             
                                     Uncor Max  =  -.003 g, at   43.420 sec.    
RMS accel of (uncor) record  =        .   Chn. metadata effective date:         
Accelerogram bandpass filtered with 3 dB pts at   .30 and 23.00 cyc/sec         
                 instrument- and base-line correcte                             
                                                                                
                                                                                
                                                                                
                                                                                
                                                                                
Rcrd of Fri Sep 18, 2020 23:38:43.0 PDT    Fri Sep 18, 2020 23:38:43.0 PDT      
                                                                                
38695658.CI.VCP.--.HN     Valley Center-Pauma Unified School Distr SCSChan  1:  
90 Deg                                                                          
38695658.CI.VCP.--.HN     Valley Center-Pauma Unified School Distr SCSChan  1:  
90 Deg                                                                          
Units for spectra are inches and sec, except Sa is in fraction of g.            
                                                                                
    1  100    1    6    6  100 -999    3    1    0   15 1860    0    0   41    0
    6   38   43    0  263    9   19 2020   10    3   9035773   39   40   74 -999
35773 -999  100    6 -999 -999 -999 -999 -999 -999 -999 -999 -999 -999 -999 -999
 -999 -999 -999 -99915050    2 -999    0 -999   20 -999 -999    3    1 753415050
    315050    4   78    1    3    5    0    0 -999    0 -999 -999    6 -999    2
    2    2    4 -999 -999 -999 -999 -999 -999 -999 -999    1 -999 -999 -999  111
    1    1 -999 -999
      .005      .707   357.730      .000     1.000  4981.676     -.003    43.420
   200.000     2.384      .479  -999.000    10.000  -999.000     4.000  -999.000
    20.000   -10.534      .000  -999.000  -999.000  -999.000  -999.000     -.004
      .003      .008     2.000    15.000    33.239  -117.021      .001      .001
     1.338      .007      .008   426.900  -999.000  -999.000  -999.000  -999.000
     1.000  -999.000    -8.000  -999.000  -999.000  -999.000  -999.000   120.000
     -.900     2.000     6.800   980.665      .020   301.000    31.831     -.001
  -999.000    23.000  -999.000   301.000      .020      .300  -999.000  -999.000
    43.420    -2.166    42.440      .027    40.220      .002      .000      .300
    23.000      .020      .020      .000      .020      .001  -999.000  -999.000
      .012      .065      .003      .002      .000      .000  -999.000  -999.000
  -999.000  -999.000  -999.000  -999.000  -999.000  -999.000  -999.000  -999.000
  -999.000  -999.000  -999.000  -999.000
      .050
      .040      .042      .044      .046      .048      .050      .055      .060
      .065      .070      .075      .080      .085      .090      .095      .100
      .110      .120      .130      .140      .150      .160      .170      .180
      .190      .200      .220      .240      .260      .280      .300      .320
      .340      .360      .380      .400      .420      .440      .460      .480
      .500      .550      .600      .650      .700      .750      .800      .850
      .900      .950     1.000     1.100     1.200     1.300     1.400     1.500
     1.600     1.700     1.800     1.900     2.000     2.200     2.400     2.600
     2.800     3.000     3.200     3.400     3.600     3.800     4.000     4.200
     4.400     4.600     4.800     5.000     5.500     6.000      .000      .000
      .000      .000      .000      .000      .000      .000      .000      .000
      .000      .000      .000      .000      .000      .000      .000      .000
      .000      .000      .000      .000
Fourier amplitude spectra in in/sec.
  .000E+00  .000E+00  .000E+00  .000E+00  .000E+00  .000E+00  .000E+00  .000E+00
  .000E+00  .000E+00  .000E+00  .000E+00  .000E+00  .000E+00  .000E+00  .000E+00
  .000E+00  .000E+00  .000E+00  .000E+00  .000E+00  .000E+00  .000E+00  .000E+00
  .000E+00  .000E+00  .000E+00  .000E+00  .000E+00  .000E+00  .000E+00  .000E+00
  .000E+00  .000E+00  .000E+00  .000E+00  .000E+00  .000E+00  .000E+00  .000E+00
  .000E+00  .000E+00  .000E+00  .000E+00  .000E+00  .000E+00  .000E+00  .000E+00
  .000E+00  .000E+00  .000E+00  .000E+00  .000E+00  .000E+00  .000E+00  .000E+00
  .000E+00  .000E+00  .000E+00  .000E+00  .000E+00  .000E+00  .000E+00  .000E+00
  .000E+00  .000E+00  .000E+00  .000E+00  .000E+00  .000E+00  .000E+00  .000E+00
  .000E+00  .000E+00  .000E+00  .000E+00  .000E+00  .000E+00  .000E+00  .000E+00
  .000E+00  .000E+00  .000E+00  .000E+00  .000E+00  .000E+00  .000E+00  .000E+00
  .000E+00  .000E+00  .000E+00  .000E+00  .000E+00  .000E+00  .000E+00  .000E+00
  .000E+00  .000E+00  .000E+00  .000E+00
Damping =  .05. Data of Sd,Sv,Sa,Pssv,ttSd,ttSv,ttSa :
  .486E-04  .573E-04  .711E-04  .869E-04  .976E-04  .123E-03  .194E-03  .260E-03
  .496E-03  .467E-03  .310E-03  .257E-03  .276E-03  .235E-03  .305E-03  .343E-03
  .405E-03  .500E-03  .430E-03  .388E-03  .470E-03  .486E-03  .505E-03  .693E-03
  .911E-03  .107E-02  .110E-02  .108E-02  .103E-02  .131E-02  .153E-02  .127E-02
  .105E-02  .115E-02  .149E-02  .160E-02  .158E-02  .140E-02  .113E-02  .106E-02
  .981E-03  .791E-03  .771E-03  .864E-03  .914E-03  .918E-03  .901E-03  .888E-03
  .908E-03  .103E-02  .124E-02  .159E-02  .186E-02  .178E-02  .161E-02  .140E-02
  .142E-02  .130E-02  .128E-02  .140E-02  .171E-02  .219E-02  .216E-02  .178E-02
  .155E-02  .133E-02  .136E-02  .132E-02  .120E-02  .109E-02  .103E-02  .100E-02
  .101E-02  .102E-02  .101E-02  .989E-03  .970E-03  .942E-03  .000E+00  .000E+00
  .000E+00  .000E+00  .000E+00  .000E+00  .000E+00  .000E+00  .000E+00  .000E+00
  .000E+00  .000E+00  .000E+00  .000E+00  .000E+00  .000E+00  .000E+00  .000E+00
  .000E+00  .000E+00  .000E+00  .000E+00
  .548E-02  .621E-02  .763E-02  .926E-02  .107E-01  .130E-01  .207E-01  .257E-01
  .479E-01  .437E-01  .288E-01  .248E-01  .234E-01  .183E-01  .223E-01  .227E-01
  .225E-01  .290E-01  .239E-01  .174E-01  .232E-01  .204E-01  .242E-01  .224E-01
  .275E-01  .301E-01  .366E-01  .287E-01  .264E-01  .301E-01  .371E-01  .256E-01
  .266E-01  .266E-01  .276E-01  .330E-01  .275E-01  .247E-01  .225E-01  .191E-01
  .158E-01  .128E-01  .117E-01  .128E-01  .136E-01  .127E-01  .113E-01  .114E-01
  .118E-01  .123E-01  .139E-01  .170E-01  .152E-01  .156E-01  .163E-01  .149E-01
  .138E-01  .131E-01  .129E-01  .125E-01  .128E-01  .133E-01  .130E-01  .123E-01
  .119E-01  .115E-01  .112E-01  .112E-01  .115E-01  .114E-01  .114E-01  .113E-01
  .113E-01  .113E-01  .112E-01  .112E-01  .111E-01  .111E-01  .000E+00  .000E+00
  .000E+00  .000E+00  .000E+00  .000E+00  .000E+00  .000E+00  .000E+00  .000E+00
  .000E+00  .000E+00  .000E+00  .000E+00  .000E+00  .000E+00  .000E+00  .000E+00
  .000E+00  .000E+00  .000E+00  .000E+00
  .313E-02  .333E-02  .377E-02  .425E-02  .441E-02  .504E-02  .658E-02  .739E-02
  .120E-01  .963E-02  .573E-02  .425E-02  .391E-02  .297E-02  .345E-02  .350E-02
  .340E-02  .350E-02  .261E-02  .200E-02  .216E-02  .195E-02  .180E-02  .220E-02
  .257E-02  .271E-02  .232E-02  .190E-02  .153E-02  .172E-02  .173E-02  .127E-02
  .952E-03  .926E-03  .105E-02  .102E-02  .932E-03  .751E-03  .553E-03  .469E-03
  .404E-03  .274E-03  .221E-03  .214E-03  .199E-03  .175E-03  .151E-03  .132E-03
  .120E-03  .123E-03  .131E-03  .136E-03  .135E-03  .114E-03  .880E-04  .670E-04
  .574E-04  .475E-04  .426E-04  .404E-04  .441E-04  .473E-04  .395E-04  .283E-04
  .224E-04  .174E-04  .159E-04  .140E-04  .112E-04  .916E-05  .792E-05  .702E-05
  .631E-05  .588E-05  .542E-05  .498E-05  .417E-05  .369E-05  .000E+00  .000E+00
  .000E+00  .000E+00  .000E+00  .000E+00  .000E+00  .000E+00  .000E+00  .000E+00
  .000E+00  .000E+00  .000E+00  .000E+00  .000E+00  .000E+00  .000E+00  .000E+00
  .000E+00  .000E+00  .000E+00  .000E+00
  .764E-02  .857E-02  .101E-01  .119E-01  .128E-01  .154E-01  .222E-01  .272E-01
  .479E-01  .419E-01  .260E-01  .202E-01  .204E-01  .164E-01  .202E-01  .216E-01
  .231E-01  .262E-01  .208E-01  .174E-01  .197E-01  .191E-01  .187E-01  .242E-01
  .301E-01  .337E-01  .313E-01  .283E-01  .248E-01  .293E-01  .320E-01  .249E-01
  .194E-01  .201E-01  .247E-01  .251E-01  .237E-01  .200E-01  .154E-01  .139E-01
  .123E-01  .904E-02  .808E-02  .835E-02  .820E-02  .769E-02  .707E-02  .657E-02
  .634E-02  .684E-02  .782E-02  .910E-02  .975E-02  .859E-02  .720E-02  .586E-02
  .558E-02  .482E-02  .446E-02  .462E-02  .537E-02  .624E-02  .565E-02  .429E-02
  .347E-02  .278E-02  .266E-02  .244E-02  .210E-02  .180E-02  .161E-02  .150E-02
  .144E-02  .139E-02  .132E-02  .124E-02  .111E-02  .986E-03  .000E+00  .000E+00
  .000E+00  .000E+00  .000E+00  .000E+00  .000E+00  .000E+00  .000E+00  .000E+00
  .000E+00  .000E+00  .000E+00  .000E+00  .000E+00  .000E+00  .000E+00  .000E+00
  .000E+00  .000E+00  .000E+00  .000E+00
  .434E+02  .434E+02  .434E+02  .434E+02  .434E+02  .434E+02  .435E+02  .435E+02
  .434E+02  .435E+02  .434E+02  .434E+02  .433E+02  .433E+02  .420E+02  .420E+02
  .420E+02  .420E+02  .420E+02  .414E+02  .414E+02  .409E+02  .431E+02  .425E+02
  .425E+02  .432E+02  .431E+02  .427E+02  .427E+02  .427E+02  .426E+02  .426E+02
  .426E+02  .414E+02  .426E+02  .425E+02  .424E+02  .413E+02  .414E+02  .410E+02
  .410E+02  .410E+02  .404E+02  .404E+02  .404E+02  .404E+02  .404E+02  .404E+02
  .404E+02  .404E+02  .410E+02  .428E+02  .425E+02  .425E+02  .414E+02  .414E+02
  .511E+02  .511E+02  .415E+02  .489E+02  .491E+02  .474E+02  .454E+02  .455E+02
  .445E+02  .435E+02  .425E+02  .425E+02  .412E+02  .412E+02  .402E+02  .402E+02
  .402E+02  .402E+02  .402E+02  .402E+02  .402E+02  .402E+02  .000E+00  .000E+00
  .000E+00  .000E+00  .000E+00  .000E+00  .000E+00  .000E+00  .000E+00  .000E+00
  .000E+00  .000E+00  .000E+00  .000E+00  .000E+00  .000E+00  .000E+00  .000E+00
  .000E+00  .000E+00  .000E+00  .000E+00
  .433E+02  .434E+02  .434E+02  .434E+02  .434E+02  .434E+02  .434E+02  .434E+02
  .434E+02  .434E+02  .434E+02  .434E+02  .433E+02  .433E+02  .420E+02  .420E+02
  .420E+02  .420E+02  .420E+02  .418E+02  .414E+02  .432E+02  .432E+02  .433E+02
  .432E+02  .433E+02  .431E+02  .428E+02  .428E+02  .427E+02  .427E+02  .424E+02
  .431E+02  .431E+02  .414E+02  .424E+02  .424E+02  .423E+02  .413E+02  .413E+02
  .413E+02  .409E+02  .419E+02  .424E+02  .423E+02  .423E+02  .429E+02  .431E+02
  .431E+02  .431E+02  .431E+02  .431E+02  .421E+02  .424E+02  .424E+02  .424E+02
  .424E+02  .419E+02  .419E+02  .419E+02  .419E+02  .413E+02  .413E+02  .413E+02
  .413E+02  .413E+02  .413E+02  .424E+02  .424E+02  .424E+02  .424E+02  .424E+02
  .424E+02  .424E+02  .424E+02  .424E+02  .424E+02  .424E+02  .000E+00  .000E+00
  .000E+00  .000E+00  .000E+00  .000E+00  .000E+00  .000E+00  .000E+00  .000E+00
  .000E+00  .000E+00  .000E+00  .000E+00  .000E+00  .000E+00  .000E+00  .000E+00
  .000E+00  .000E+00  .000E+00  .000E+00
  .434E+02  .434E+02  .434E+02  .434E+02  .434E+02  .434E+02  .435E+02  .435E+02
  .435E+02  .435E+02  .434E+02  .434E+02  .433E+02  .433E+02  .420E+02  .420E+02
  .420E+02  .420E+02  .420E+02  .414E+02  .414E+02  .409E+02  .431E+02  .425E+02
  .425E+02  .432E+02  .431E+02  .427E+02  .427E+02  .427E+02  .426E+02  .426E+02
  .426E+02  .414E+02  .426E+02  .425E+02  .424E+02  .413E+02  .413E+02  .410E+02
  .410E+02  .410E+02  .404E+02  .404E+02  .404E+02  .404E+02  .404E+02  .404E+02
  .404E+02  .404E+02  .410E+02  .428E+02  .425E+02  .420E+02  .413E+02  .413E+02
  .510E+02  .415E+02  .415E+02  .489E+02  .490E+02  .474E+02  .464E+02  .445E+02
  .445E+02  .435E+02  .425E+02  .425E+02  .425E+02  .425E+02  .425E+02  .425E+02
  .402E+02  .402E+02  .402E+02  .402E+02  .402E+02  .424E+02  .000E+00  .000E+00
  .000E+00  .000E+00  .000E+00  .000E+00  .000E+00  .000E+00  .000E+00  .000E+00
  .000E+00  .000E+00  .000E+00  .000E+00  .000E+00  .000E+00  .000E+00  .000E+00
  .000E+00  .000E+00  .000E+00  .000E+00
/&   ----------  End of spectral data for channel  1  ----------
Response and Fourier amplitude spectra (78 periods,  .04 -  6.0 sec)   for      
Corrected accelerogram   38695658.CI.VCP.--.HN      Chan  2: 360 Deg     from   
Uncorrected Accelerogram Data             Processed: 09/19/20, CGS  civcp--c    
Rcrd of Fri Sep 18, 2020 23:38:43.0 PDT               (Avol1 v2.0, 4/18 CSMIP)  
                                        (Origin:  To be determined)             
38695658.CI.VCP.--.HN                Start time:  9/19/20, 06:38:43.0 UTC (GPS) 
Station Id. VCP     33.239N, 117.021W    ObsMMS  s/n 1860  (3 Chns of  6 at Sta)
Valley Center-Pauma Unified School Distr SCSN   Data: Acceleration              
Chan  2: 360 Deg                                                                
Rcrd of Fri Sep 18, 2020 23:38:43.0 PDT    Fri Sep 18, 2020 23:38:43.0 PDT      
Hypocenter:  To be determined.               ML:  To be determined.             
Instr Period =  .0050 sec,  Damping =  .707,  Sensitivity = 4.98 v/g  (Nominal) 
                        Record Length =301.000 sec.                             
                                     Uncor Max  =  -.002 g, at   42.010 sec.    
RMS accel of (uncor) record  =        .   Chn. metadata effective date:         
Accelerogram bandpass filtered with 3 dB pts at   .30 and 23.00 cyc/sec         
                 instrument- and base-line correcte                             
                                                                                
                                                                                
                                                                                
                                                                                
                                                                                
Rcrd of Fri Sep 18, 2020 23:38:43.0 PDT    Fri Sep 18, 2020 23:38:43.0 PDT      
                                                                                
38695658.CI.VCP.--.HN     Valley Center-Pauma Unified School Distr SCSChan  2: 3
60 Deg                                                                          
38695658.CI.VCP.--.HN     Valley Center-Pauma Unified School Distr SCSChan  2: 3
60 Deg                                                                          
Units for spectra are inches and sec, except Sa is in fraction of g.            
                                                                                
    2  100    2    6    6  100 -999    3    1    0   15 1860    0    0   41    0
    6   38   43   10  263    9   19 2020   10    3  36036009   39   40   74 -999
36009 -999  100    6 -999 -999 -999 -999 -999 -999 -999 -999 -999 -999 -999 -999
 -999 -999 -999 -99915050    2 -999    0 -999   20 -999 -999    3    1 753415050
    315050    4   78    1    3    5    0    0 -999    0 -999 -999    6 -999    2
    2    2    4 -999 -999 -999 -999 -999 -999 -999 -999    1 -999 -999 -999  111
    1    1 -999 -999
      .005      .707   360.090      .000     1.000  4977.686     -.002    42.010
   200.000     2.384      .479  -999.000    10.000  -999.000     4.000  -999.000
    20.000   -14.713      .000  -999.000  -999.000  -999.000  -999.000     -.005
      .004      .009     2.000    15.000    33.239  -117.021      .001      .002
     1.271      .008      .009   426.900  -999.000  -999.000  -999.000  -999.000
     1.000  -999.000  -999.000  -999.000  -999.000  -999.000  -999.000   120.000
     -.900     2.000     6.800   980.665      .020   301.000    31.831     -.001
  -999.000    23.000  -999.000   301.000      .020      .300  -999.000  -999.000
    41.940    -2.104    42.580     -.043    40.120      .002      .000      .300
    23.000      .020      .020      .000      .020      .001  -999.000  -999.000
      .008      .065      .002      .003      .000      .000  -999.000  -999.000
  -999.000  -999.000  -999.000  -999.000  -999.000  -999.000  -999.000  -999.000
  -999.000  -999.000  -999.000  -999.000
      .050
      .040      .042      .044      .046      .048      .050      .055      .060
      .065      .070      .075      .080      .085      .090      .095      .100
      .110      .120      .130      .140      .150      .160      .170      .180
      .190      .200      .220      .240      .260      .280      .300      .320
      .340      .360      .380      .400      .420      .440      .460      .480
      .500      .550      .600      .650      .700      .750      .800      .850
      .900      .950     1.000     1.100     1.200     1.300     1.400     1.500
     1.600     1.700     1.800     1.900     2.000     2.200     2.400     2.600
     2.800     3.000     3.200     3.400     3.600     3.800     4.000     4.200
     4.400     4.600     4.800     5.000     5.500     6.000      .000      .000
      .000      .000      .000      .000      .000      .000      .000      .000
      .000      .000      .000      .000      .000      .000      .000      .000
      .000      .000      .000      .000
Fourier amplitude spectra in in/sec.
  .000E+00  .000E+00  .000E+00  .000E+00  .000E+00  .000E+00  .000E+00  .000E+00
  .000E+00  .000E+00  .000E+00  .000E+00  .000E+00  .000E+00  .000E+00  .000E+00
  .000E+00  .000E+00  .000E+00  .000E+00  .000E+00  .000E+00  .000E+00  .000E+00
  .000E+00  .000E+00  .000E+00  .000E+00  .000E+00  .000E+00  .000E+00  .000E+00
  .000E+00  .000E+00  .000E+00  .000E+00  .000E+00  .000E+00  .000E+00  .000E+00
  .000E+00  .000E+00  .000E+00  .000E+00  .000E+00  .000E+00  .000E+00  .000E+00
  .000E+00  .000E+00  .000E+00  .000E+00  .000E+00  .000E+00  .000E+00  .000E+00
  .000E+00  .000E+00  .000E+00  .000E+00  .000E+00  .000E+00  .000E+00  .000E+00
  .000E+00  .000E+00  .000E+00  .000E+00  .000E+00  .000E+00  .000E+00  .000E+00
  .000E+00  .000E+00  .000E+00  .000E+00  .000E+00  .000E+00  .000E+00  .000E+00
  .000E+00  .000E+00  .000E+00  .000E+00  .000E+00  .000E+00  .000E+00  .000E+00
  .000E+00  .000E+00  .000E+00  .000E+00  .000E+00  .000E+00  .000E+00  .000E+00
  .000E+00  .000E+00  .000E+00  .000E+00
Damping =  .05. Data of Sd,Sv,Sa,Pssv,ttSd,ttSv,ttSa :
  .416E-04  .487E-04  .530E-04  .609E-04  .725E-04  .878E-04  .129E-03  .176E-03
  .318E-03  .335E-03  .380E-03  .467E-03  .506E-03  .517E-03  .423E-03  .333E-03
  .421E-03  .484E-03  .384E-03  .435E-03  .474E-03  .605E-03  .651E-03  .668E-03
  .783E-03  .728E-03  .108E-02  .173E-02  .196E-02  .199E-02  .241E-02  .214E-02
  .193E-02  .165E-02  .166E-02  .160E-02  .129E-02  .112E-02  .105E-02  .124E-02
