Response and Fourier amplitude spectra (78 periods,  .04 -  6.0 sec)   for      
Corrected accelerogram   38695658.CI.VCS.--.HN      Chan  1:  90 Deg     from   
Uncorrected Accelerogram Data             Processed: 09/19/20, CGS  civcs--w    
Rcrd of Fri Sep 18, 2020 23:38:30.0 PDT               (Avol1 v2.0, 4/18 CSMIP)  
                                        (Origin:  To be determined)             
38695658.CI.VCS.--.HN                Start time:  9/19/20, 06:38:30.0 UTC (GPS) 
Station Id. VCS     34.484N, 118.118W    ObsMMS  s/n 4317  (3 Chns of  6 at Sta)
Palmdale, Angeles Forest Hwy             SCSN   Data: Acceleration              
Chan  1:  90 Deg                                                                
Rcrd of Fri Sep 18, 2020 23:38:30.0 PDT    Fri Sep 18, 2020 23:38:30.0 PDT      
Hypocenter:  To be determined.               ML:  To be determined.             
Instr Period =  .0050 sec,  Damping =  .707,  Sensitivity = 5.00 v/g  (Nominal) 
                        Record Length =301.000 sec.                             
                                     Uncor Max  =   .011 g, at   32.020 sec.    
RMS accel of (uncor) record  =        .   Chn. metadata effective date:         
Accelerogram bandpass filtered with 3 dB pts at   .30 and 23.00 cyc/sec         
                 instrument- and base-line correcte                             
                                                                                
                                                                                
                                                                                
                                                                                
                                                                                
Rcrd of Fri Sep 18, 2020 23:38:30.0 PDT    Fri Sep 18, 2020 23:38:30.0 PDT      
                                                                                
38695658.CI.VCS.--.HN     Palmdale, Angeles Forest Hwy    Chan  1:  90 Deg      
                                                                                
38695658.CI.VCS.--.HN     Palmdale, Angeles Forest Hwy    Chan  1:  90 Deg      
                                                                                
Units for spectra are inches and sec, except Sa is in fraction of g.            
                                                                                
    1  100    1    6    6  100 -999    3    1    0   15 4317    050583   41    0
    6   38   30    8  263    9   19 2020   10    3   9036210   39   28   74 -999
36210 -999  100    6 -999 -999 -999 -999 -999 -999 -999 -999 -999 -999 -999 -999
 -999 -999 -999 -99915050    2 -999    0 -999   20 -999 -999    3    1 -99915050
    315050    4   78    1    3    5    0    0 -999    0 -999 -999    6 -999    2
    2    2    4 -999 -999 -999 -999 -999 -999 -999 -999    1 -999 -999 -999  111
    1    1 -999 -999
      .005      .707   362.100      .000     1.000  4997.654      .011    32.020
   200.000     2.384      .477  -999.000    10.000  -999.000     4.000  -999.000
    20.000   -40.209      .000  -999.000  -999.000  -999.000  -999.000      .000
      .001      .001     2.000    15.000    34.484  -118.118      .001      .001
     1.152      .001      .001   992.000  -999.000  -999.000  -999.000  -999.000
     1.000  -999.000    -8.000  -999.000  -999.000  -999.000  -999.000   120.000
     -.900     2.000     6.800   980.665      .020   301.000    31.831      .000
  -999.000    23.000  -999.000   301.000      .020      .300  -999.000  -999.000
    32.020    10.089    32.000     -.169    31.960      .007      .000      .300
    23.000      .020      .020      .000      .020      .006  -999.000  -999.000
      .038      .120      .007      .006      .001      .000  -999.000  -999.000
  -999.000  -999.000  -999.000  -999.000  -999.000  -999.000  -999.000  -999.000
  -999.000  -999.000  -999.000  -999.000
      .050
      .040      .042      .044      .046      .048      .050      .055      .060
      .065      .070      .075      .080      .085      .090      .095      .100
      .110      .120      .130      .140      .150      .160      .170      .180
      .190      .200      .220      .240      .260      .280      .300      .320
      .340      .360      .380      .400      .420      .440      .460      .480
      .500      .550      .600      .650      .700      .750      .800      .850
      .900      .950     1.000     1.100     1.200     1.300     1.400     1.500
     1.600     1.700     1.800     1.900     2.000     2.200     2.400     2.600
     2.800     3.000     3.200     3.400     3.600     3.800     4.000     4.200
     4.400     4.600     4.800     5.000     5.500     6.000      .000      .000
      .000      .000      .000      .000      .000      .000      .000      .000
      .000      .000      .000      .000      .000      .000      .000      .000
      .000      .000      .000      .000
Fourier amplitude spectra in in/sec.
  .000E+00  .000E+00  .000E+00  .000E+00  .000E+00  .000E+00  .000E+00  .000E+00
  .000E+00  .000E+00  .000E+00  .000E+00  .000E+00  .000E+00  .000E+00  .000E+00
  .000E+00  .000E+00  .000E+00  .000E+00  .000E+00  .000E+00  .000E+00  .000E+00
  .000E+00  .000E+00  .000E+00  .000E+00  .000E+00  .000E+00  .000E+00  .000E+00
  .000E+00  .000E+00  .000E+00  .000E+00  .000E+00  .000E+00  .000E+00  .000E+00
  .000E+00  .000E+00  .000E+00  .000E+00  .000E+00  .000E+00  .000E+00  .000E+00
  .000E+00  .000E+00  .000E+00  .000E+00  .000E+00  .000E+00  .000E+00  .000E+00
  .000E+00  .000E+00  .000E+00  .000E+00  .000E+00  .000E+00  .000E+00  .000E+00
  .000E+00  .000E+00  .000E+00  .000E+00  .000E+00  .000E+00  .000E+00  .000E+00
  .000E+00  .000E+00  .000E+00  .000E+00  .000E+00  .000E+00  .000E+00  .000E+00
  .000E+00  .000E+00  .000E+00  .000E+00  .000E+00  .000E+00  .000E+00  .000E+00
  .000E+00  .000E+00  .000E+00  .000E+00  .000E+00  .000E+00  .000E+00  .000E+00
  .000E+00  .000E+00  .000E+00  .000E+00
Damping =  .05. Data of Sd,Sv,Sa,Pssv,ttSd,ttSv,ttSa :
  .164E-03  .184E-03  .205E-03  .218E-03  .247E-03  .307E-03  .462E-03  .615E-03
  .643E-03  .939E-03  .125E-02  .126E-02  .125E-02  .137E-02  .159E-02  .194E-02
  .366E-02  .535E-02  .564E-02  .466E-02  .360E-02  .323E-02  .306E-02  .283E-02
  .261E-02  .290E-02  .254E-02  .337E-02  .446E-02  .506E-02  .528E-02  .650E-02
  .545E-02  .578E-02  .554E-02  .604E-02  .699E-02  .735E-02  .584E-02  .440E-02
  .366E-02  .339E-02  .407E-02  .422E-02  .465E-02  .441E-02  .492E-02  .582E-02
  .566E-02  .518E-02  .558E-02  .831E-02  .845E-02  .732E-02  .621E-02  .507E-02
  .518E-02  .507E-02  .564E-02  .614E-02  .593E-02  .571E-02  .480E-02  .405E-02
  .370E-02  .349E-02  .342E-02  .335E-02  .326E-02  .318E-02  .313E-02  .307E-02
  .301E-02  .295E-02  .292E-02  .290E-02  .283E-02  .279E-02  .000E+00  .000E+00
  .000E+00  .000E+00  .000E+00  .000E+00  .000E+00  .000E+00  .000E+00  .000E+00
  .000E+00  .000E+00  .000E+00  .000E+00  .000E+00  .000E+00  .000E+00  .000E+00
  .000E+00  .000E+00  .000E+00  .000E+00
  .143E-01  .159E-01  .174E-01  .196E-01  .222E-01  .245E-01  .429E-01  .578E-01
  .589E-01  .753E-01  .944E-01  .920E-01  .846E-01  .880E-01  .100E+00  .121E+00
  .204E+00  .272E+00  .283E+00  .238E+00  .175E+00  .152E+00  .137E+00  .115E+00
  .113E+00  .102E+00  .846E-01  .899E-01  .991E-01  .117E+00  .117E+00  .132E+00
  .106E+00  .118E+00  .106E+00  .105E+00  .100E+00  .109E+00  .104E+00  .830E-01
  .677E-01  .621E-01  .704E-01  .686E-01  .633E-01  .602E-01  .639E-01  .645E-01
  .731E-01  .760E-01  .747E-01  .730E-01  .700E-01  .686E-01  .689E-01  .687E-01
  .677E-01  .669E-01  .666E-01  .666E-01  .664E-01  .649E-01  .631E-01  .618E-01
  .610E-01  .604E-01  .600E-01  .597E-01  .595E-01  .593E-01  .592E-01  .591E-01
  .590E-01  .590E-01  .590E-01  .590E-01  .589E-01  .589E-01  .000E+00  .000E+00
  .000E+00  .000E+00  .000E+00  .000E+00  .000E+00  .000E+00  .000E+00  .000E+00
  .000E+00  .000E+00  .000E+00  .000E+00  .000E+00  .000E+00  .000E+00  .000E+00
  .000E+00  .000E+00  .000E+00  .000E+00
  .105E-01  .107E-01  .108E-01  .105E-01  .110E-01  .125E-01  .159E-01  .173E-01
  .157E-01  .199E-01  .231E-01  .203E-01  .177E-01  .175E-01  .184E-01  .204E-01
  .309E-01  .375E-01  .342E-01  .245E-01  .164E-01  .130E-01  .110E-01  .909E-02
  .749E-02  .735E-02  .539E-02  .604E-02  .667E-02  .662E-02  .611E-02  .649E-02
  .485E-02  .453E-02  .394E-02  .383E-02  .411E-02  .391E-02  .287E-02  .197E-02
  .153E-02  .115E-02  .118E-02  .104E-02  .992E-03  .810E-03  .792E-03  .837E-03
  .717E-03  .590E-03  .578E-03  .716E-03  .614E-03  .449E-03  .330E-03  .241E-03
  .214E-03  .186E-03  .181E-03  .178E-03  .157E-03  .136E-03  .952E-04  .736E-04
  .634E-04  .552E-04  .490E-04  .437E-04  .393E-04  .356E-04  .326E-04  .300E-04
  .277E-04  .257E-04  .241E-04  .227E-04  .196E-04  .173E-04  .000E+00  .000E+00
  .000E+00  .000E+00  .000E+00  .000E+00  .000E+00  .000E+00  .000E+00  .000E+00
  .000E+00  .000E+00  .000E+00  .000E+00  .000E+00  .000E+00  .000E+00  .000E+00
  .000E+00  .000E+00  .000E+00  .000E+00
  .257E-01  .276E-01  .292E-01  .298E-01  .323E-01  .386E-01  .528E-01  .644E-01
  .621E-01  .843E-01  .104E+00  .992E-01  .925E-01  .959E-01  .105E+00  .122E+00
  .209E+00  .280E+00  .273E+00  .209E+00  .151E+00  .127E+00  .113E+00  .987E-01
  .863E-01  .912E-01  .725E-01  .882E-01  .108E+00  .114E+00  .111E+00  .128E+00
  .101E+00  .101E+00  .916E-01  .949E-01  .105E+00  .105E+00  .797E-01  .576E-01
  .460E-01  .387E-01  .426E-01  .408E-01  .417E-01  .370E-01  .386E-01  .430E-01
  .395E-01  .343E-01  .350E-01  .474E-01  .442E-01  .354E-01  .279E-01  .212E-01
  .203E-01  .187E-01  .197E-01  .203E-01  .186E-01  .163E-01  .126E-01  .980E-02
  .831E-02  .730E-02  .672E-02  .618E-02  .569E-02  .526E-02  .491E-02  .460E-02
  .430E-02  .404E-02  .383E-02  .365E-02  .323E-02  .292E-02  .000E+00  .000E+00
  .000E+00  .000E+00  .000E+00  .000E+00  .000E+00  .000E+00  .000E+00  .000E+00
  .000E+00  .000E+00  .000E+00  .000E+00  .000E+00  .000E+00  .000E+00  .000E+00
  .000E+00  .000E+00  .000E+00  .000E+00
  .320E+02  .320E+02  .320E+02  .320E+02  .320E+02  .320E+02  .321E+02  .321E+02
  .322E+02  .320E+02  .320E+02  .321E+02  .321E+02  .321E+02  .321E+02  .321E+02
  .320E+02  .320E+02  .320E+02  .321E+02  .319E+02  .318E+02  .318E+02  .317E+02
  .348E+02  .278E+02  .397E+02  .371E+02  .373E+02  .400E+02  .384E+02  .404E+02
  .404E+02  .339E+02  .376E+02  .372E+02  .372E+02  .372E+02  .371E+02  .371E+02
  .380E+02  .380E+02  .373E+02  .343E+02  .343E+02  .349E+02  .349E+02  .355E+02
  .356E+02  .380E+02  .356E+02  .363E+02  .369E+02  .354E+02  .402E+02  .397E+02
  .383E+02  .378E+02  .354E+02  .354E+02  .354E+02  .348E+02  .348E+02  .379E+02
  .342E+02  .319E+02  .319E+02  .319E+02  .319E+02  .319E+02  .319E+02  .319E+02
  .319E+02  .319E+02  .319E+02  .319E+02  .319E+02  .319E+02  .000E+00  .000E+00
  .000E+00  .000E+00  .000E+00  .000E+00  .000E+00  .000E+00  .000E+00  .000E+00
  .000E+00  .000E+00  .000E+00  .000E+00  .000E+00  .000E+00  .000E+00  .000E+00
  .000E+00  .000E+00  .000E+00  .000E+00
  .320E+02  .320E+02  .320E+02  .321E+02  .321E+02  .322E+02  .322E+02  .322E+02
  .322E+02  .336E+02  .320E+02  .321E+02  .321E+02  .321E+02  .321E+02  .320E+02
  .320E+02  .321E+02  .320E+02  .320E+02  .320E+02  .318E+02  .318E+02  .321E+02
  .320E+02  .320E+02  .320E+02  .373E+02  .399E+02  .399E+02  .385E+02  .405E+02
  .403E+02  .338E+02  .373E+02  .373E+02  .373E+02  .372E+02  .372E+02  .372E+02
  .372E+02  .320E+02  .320E+02  .320E+02  .372E+02  .372E+02  .347E+02  .320E+02
  .320E+02  .320E+02  .320E+02  .320E+02  .320E+02  .320E+02  .320E+02  .320E+02
  .320E+02  .320E+02  .320E+02  .320E+02  .320E+02  .320E+02  .320E+02  .320E+02
  .320E+02  .320E+02  .320E+02  .320E+02  .320E+02  .320E+02  .320E+02  .320E+02
  .320E+02  .320E+02  .320E+02  .320E+02  .320E+02  .320E+02  .000E+00  .000E+00
  .000E+00  .000E+00  .000E+00  .000E+00  .000E+00  .000E+00  .000E+00  .000E+00
  .000E+00  .000E+00  .000E+00  .000E+00  .000E+00  .000E+00  .000E+00  .000E+00
  .000E+00  .000E+00  .000E+00  .000E+00
  .320E+02  .320E+02  .320E+02  .320E+02  .320E+02  .320E+02  .321E+02  .321E+02
  .321E+02  .320E+02  .320E+02  .321E+02  .321E+02  .321E+02  .321E+02  .321E+02
  .321E+02  .320E+02  .320E+02  .321E+02  .319E+02  .318E+02  .318E+02  .317E+02
  .348E+02  .278E+02  .396E+02  .371E+02  .373E+02  .399E+02  .384E+02  .404E+02
  .404E+02  .339E+02  .376E+02  .372E+02  .372E+02  .372E+02  .371E+02  .371E+02
  .380E+02  .380E+02  .372E+02  .343E+02  .343E+02  .371E+02  .349E+02  .355E+02
  .356E+02  .380E+02  .356E+02  .363E+02  .369E+02  .353E+02  .401E+02  .337E+02
  .383E+02  .361E+02  .354E+02  .354E+02  .354E+02  .347E+02  .348E+02  .318E+02
  .318E+02  .318E+02  .318E+02  .318E+02  .318E+02  .318E+02  .318E+02  .318E+02
  .318E+02  .318E+02  .318E+02  .318E+02  .318E+02  .318E+02  .000E+00  .000E+00
  .000E+00  .000E+00  .000E+00  .000E+00  .000E+00  .000E+00  .000E+00  .000E+00
  .000E+00  .000E+00  .000E+00  .000E+00  .000E+00  .000E+00  .000E+00  .000E+00
  .000E+00  .000E+00  .000E+00  .000E+00
/&   ----------  End of spectral data for channel  1  ----------
Response and Fourier amplitude spectra (78 periods,  .04 -  6.0 sec)   for      
Corrected accelerogram   38695658.CI.VCS.--.HN      Chan  2: 360 Deg     from   
Uncorrected Accelerogram Data             Processed: 09/19/20, CGS  civcs--w    
Rcrd of Fri Sep 18, 2020 23:38:30.0 PDT               (Avol1 v2.0, 4/18 CSMIP)  
                                        (Origin:  To be determined)             
38695658.CI.VCS.--.HN                Start time:  9/19/20, 06:38:30.0 UTC (GPS) 
Station Id. VCS     34.484N, 118.118W    ObsMMS  s/n 4317  (3 Chns of  6 at Sta)
Palmdale, Angeles Forest Hwy             SCSN   Data: Acceleration              
Chan  2: 360 Deg                                                                
Rcrd of Fri Sep 18, 2020 23:38:30.0 PDT    Fri Sep 18, 2020 23:38:30.0 PDT      
Hypocenter:  To be determined.               ML:  To be determined.             
Instr Period =  .0050 sec,  Damping =  .707,  Sensitivity = 4.99 v/g  (Nominal) 
                        Record Length =301.000 sec.                             
                                     Uncor Max  =   .005 g, at   31.800 sec.    
RMS accel of (uncor) record  =        .   Chn. metadata effective date:         
Accelerogram bandpass filtered with 3 dB pts at   .30 and 23.00 cyc/sec         
                 instrument- and base-line correcte                             
                                                                                
                                                                                
                                                                                
                                                                                
                                                                                
Rcrd of Fri Sep 18, 2020 23:38:30.0 PDT    Fri Sep 18, 2020 23:38:30.0 PDT      
                                                                                
38695658.CI.VCS.--.HN     Palmdale, Angeles Forest Hwy    Chan  2: 360 Deg      
                                                                                
38695658.CI.VCS.--.HN     Palmdale, Angeles Forest Hwy    Chan  2: 360 Deg      
                                                                                
Units for spectra are inches and sec, except Sa is in fraction of g.            
                                                                                
    2  100    2    6    6  100 -999    3    1    0   15 4317    050583   41    0
    6   38   30    8  263    9   19 2020   10    3  36036217   39   28   74 -999
36217 -999  100    6 -999 -999 -999 -999 -999 -999 -999 -999 -999 -999 -999 -999
 -999 -999 -999 -99915050    2 -999    0 -999   20 -999 -999    3    1 -99915050
    315050    4   78    1    3    5    0    0 -999    0 -999 -999    6 -999    2
    2    2    4 -999 -999 -999 -999 -999 -999 -999 -999    1 -999 -999 -999  111
    1    1 -999 -999
      .005      .707   362.170      .000     1.000  4994.462      .005    31.800
   200.000     2.384      .477  -999.000    10.000  -999.000     4.000  -999.000
    20.000   -35.218      .000  -999.000  -999.000  -999.000  -999.000      .000
      .002      .002     2.000    15.000    34.484  -118.118      .001      .001
      .971      .002      .002   992.000  -999.000  -999.000  -999.000  -999.000
     1.000  -999.000  -999.000  -999.000  -999.000  -999.000  -999.000   120.000
     -.900     2.000     6.800   980.665      .020   301.000    31.831      .000
  -999.000    23.000  -999.000   301.000      .020      .300  -999.000  -999.000
    31.800     4.660    33.780     -.120    32.660     -.009      .000      .300
    23.000      .020      .020      .000      .020      .006  -999.000  -999.000
      .017      .075      .009      .007      .001      .000  -999.000  -999.000
  -999.000  -999.000  -999.000  -999.000  -999.000  -999.000  -999.000  -999.000
  -999.000  -999.000  -999.000  -999.000
      .050
      .040      .042      .044      .046      .048      .050      .055      .060
      .065      .070      .075      .080      .085      .090      .095      .100
      .110      .120      .130      .140      .150      .160      .170      .180
      .190      .200      .220      .240      .260      .280      .300      .320
      .340      .360      .380      .400      .420      .440      .460      .480
      .500      .550      .600      .650      .700      .750      .800      .850
      .900      .950     1.000     1.100     1.200     1.300     1.400     1.500
     1.600     1.700     1.800     1.900     2.000     2.200     2.400     2.600
     2.800     3.000     3.200     3.400     3.600     3.800     4.000     4.200
     4.400     4.600     4.800     5.000     5.500     6.000      .000      .000
      .000      .000      .000      .000      .000      .000      .000      .000
      .000      .000      .000      .000      .000      .000      .000      .000
      .000      .000      .000      .000
Fourier amplitude spectra in in/sec.
  .000E+00  .000E+00  .000E+00  .000E+00  .000E+00  .000E+00  .000E+00  .000E+00
  .000E+00  .000E+00  .000E+00  .000E+00  .000E+00  .000E+00  .000E+00  .000E+00
  .000E+00  .000E+00  .000E+00  .000E+00  .000E+00  .000E+00  .000E+00  .000E+00
  .000E+00  .000E+00  .000E+00  .000E+00  .000E+00  .000E+00  .000E+00  .000E+00
  .000E+00  .000E+00  .000E+00  .000E+00  .000E+00  .000E+00  .000E+00  .000E+00
  .000E+00  .000E+00  .000E+00  .000E+00  .000E+00  .000E+00  .000E+00  .000E+00
  .000E+00  .000E+00  .000E+00  .000E+00  .000E+00  .000E+00  .000E+00  .000E+00
  .000E+00  .000E+00  .000E+00  .000E+00  .000E+00  .000E+00  .000E+00  .000E+00
  .000E+00  .000E+00  .000E+00  .000E+00  .000E+00  .000E+00  .000E+00  .000E+00
  .000E+00  .000E+00  .000E+00  .000E+00  .000E+00  .000E+00  .000E+00  .000E+00
  .000E+00  .000E+00  .000E+00  .000E+00  .000E+00  .000E+00  .000E+00  .000E+00
  .000E+00  .000E+00  .000E+00  .000E+00  .000E+00  .000E+00  .000E+00  .000E+00
  .000E+00  .000E+00  .000E+00  .000E+00
Damping =  .05. Data of Sd,Sv,Sa,Pssv,ttSd,ttSv,ttSa :
  .953E-04  .115E-03  .140E-03  .170E-03  .214E-03  .257E-03  .347E-03  .362E-03
  .569E-03  .788E-03  .918E-03  .900E-03  .707E-03  .759E-03  .105E-02  .125E-02
  .168E-02  .190E-02  .205E-02  .255E-02  .264E-02  .271E-02  .221E-02  .243E-02
  .357E-02  .393E-02  .350E-02  .448E-02  .472E-02  .469E-02  .576E-02  .684E-02
  .758E-02  .636E-02  .791E-02  .983E-02  .820E-02  .773E-02  .726E-02  .744E-02
