Response and Fourier amplitude spectra (78 periods,  .04 -  6.0 sec)   for      
Corrected accelerogram   38695658.CI.VLY.--.HN      Chan  1:  90 Deg     from   
Uncorrected Accelerogram Data             Processed: 09/19/20, CGS  civly--l    
Rcrd of Fri Sep 18, 2020 23:38:36.0 PDT               (Avol1 v2.0, 4/18 CSMIP)  
                                        (Origin:  To be determined)             
38695658.CI.VLY.--.HN                Start time:  9/19/20, 06:38:36.0 UTC (GPS) 
Station Id. VLY     33.736N, 117.158W    ObsMMS  s/n 1929  (3 Chns of  6 at Sta)
Valley                                   SCSN   Data: Acceleration              
Chan  1:  90 Deg                                                                
Rcrd of Fri Sep 18, 2020 23:38:36.0 PDT    Fri Sep 18, 2020 23:38:36.0 PDT      
Hypocenter:  To be determined.               ML:  To be determined.             
Instr Period =  .0050 sec,  Damping =  .707,  Sensitivity = 4.96 v/g  (Nominal) 
                        Record Length =301.000 sec.                             
                                     Uncor Max  =  -.004 g, at   38.430 sec.    
RMS accel of (uncor) record  =        .   Chn. metadata effective date:         
Accelerogram bandpass filtered with 3 dB pts at   .30 and 23.00 cyc/sec         
                 instrument- and base-line correcte                             
                                                                                
                                                                                
                                                                                
                                                                                
                                                                                
Rcrd of Fri Sep 18, 2020 23:38:36.0 PDT    Fri Sep 18, 2020 23:38:36.0 PDT      
                                                                                
38695658.CI.VLY.--.HN     Valley    Chan  1:  90 Deg                            
                                                                                
38695658.CI.VLY.--.HN     Valley    Chan  1:  90 Deg                            
                                                                                
Units for spectra are inches and sec, except Sa is in fraction of g.            
                                                                                
    1  100    1    6    6  100 -999    3    1    0   15 1929    0    0   41    0
    6   38   36    0  263    9   19 2020   10    3   9035849   39    6   74 -999
35849 -999  100    6 -999 -999 -999 -999 -999 -999 -999 -999 -999 -999 -999 -999
 -999 -999 -999 -99915050    2 -999    0 -999   20 -999 -999    3    1 -99915050
    315050    4   78    1    3    5    0    0 -999    0 -999 -999    6 -999    2
    2    2    4 -999 -999 -999 -999 -999 -999 -999 -999    1 -999 -999 -999  111
    1    1 -999 -999
      .005      .707   358.490      .000     1.000  4964.544     -.004    38.430
   200.000     2.384      .480  -999.000    10.000  -999.000     4.000  -999.000
    20.000   -27.290      .000  -999.000  -999.000  -999.000  -999.000     -.004
      .004      .008     2.000    15.000    33.736  -117.158      .003      .002
      .738      .007      .008   445.000  -999.000  -999.000  -999.000  -999.000
     1.000  -999.000    -8.000  -999.000  -999.000  -999.000  -999.000   120.000
     -.900     2.000     6.800   980.665      .020   301.000    31.831     -.001
  -999.000    23.000  -999.000   301.000      .020      .300  -999.000  -999.000
    38.700     3.392    38.720      .123    38.520     -.006      .000      .300
    23.000      .020      .020      .000      .020      .004  -999.000  -999.000
      .012      .150      .010      .006      .001      .000  -999.000  -999.000
  -999.000  -999.000  -999.000  -999.000  -999.000  -999.000  -999.000  -999.000
  -999.000  -999.000  -999.000  -999.000
      .050
      .040      .042      .044      .046      .048      .050      .055      .060
      .065      .070      .075      .080      .085      .090      .095      .100
      .110      .120      .130      .140      .150      .160      .170      .180
      .190      .200      .220      .240      .260      .280      .300      .320
      .340      .360      .380      .400      .420      .440      .460      .480
      .500      .550      .600      .650      .700      .750      .800      .850
      .900      .950     1.000     1.100     1.200     1.300     1.400     1.500
     1.600     1.700     1.800     1.900     2.000     2.200     2.400     2.600
     2.800     3.000     3.200     3.400     3.600     3.800     4.000     4.200
     4.400     4.600     4.800     5.000     5.500     6.000      .000      .000
      .000      .000      .000      .000      .000      .000      .000      .000
      .000      .000      .000      .000      .000      .000      .000      .000
      .000      .000      .000      .000
Fourier amplitude spectra in in/sec.
  .000E+00  .000E+00  .000E+00  .000E+00  .000E+00  .000E+00  .000E+00  .000E+00
  .000E+00  .000E+00  .000E+00  .000E+00  .000E+00  .000E+00  .000E+00  .000E+00
  .000E+00  .000E+00  .000E+00  .000E+00  .000E+00  .000E+00  .000E+00  .000E+00
  .000E+00  .000E+00  .000E+00  .000E+00  .000E+00  .000E+00  .000E+00  .000E+00
  .000E+00  .000E+00  .000E+00  .000E+00  .000E+00  .000E+00  .000E+00  .000E+00
  .000E+00  .000E+00  .000E+00  .000E+00  .000E+00  .000E+00  .000E+00  .000E+00
  .000E+00  .000E+00  .000E+00  .000E+00  .000E+00  .000E+00  .000E+00  .000E+00
  .000E+00  .000E+00  .000E+00  .000E+00  .000E+00  .000E+00  .000E+00  .000E+00
  .000E+00  .000E+00  .000E+00  .000E+00  .000E+00  .000E+00  .000E+00  .000E+00
  .000E+00  .000E+00  .000E+00  .000E+00  .000E+00  .000E+00  .000E+00  .000E+00
  .000E+00  .000E+00  .000E+00  .000E+00  .000E+00  .000E+00  .000E+00  .000E+00
  .000E+00  .000E+00  .000E+00  .000E+00  .000E+00  .000E+00  .000E+00  .000E+00
  .000E+00  .000E+00  .000E+00  .000E+00
Damping =  .05. Data of Sd,Sv,Sa,Pssv,ttSd,ttSv,ttSa :
  .730E-04  .813E-04  .894E-04  .102E-03  .112E-03  .128E-03  .166E-03  .270E-03
  .313E-03  .376E-03  .477E-03  .546E-03  .663E-03  .649E-03  .726E-03  .101E-02
  .109E-02  .127E-02  .163E-02  .172E-02  .269E-02  .307E-02  .263E-02  .312E-02
  .366E-02  .437E-02  .418E-02  .522E-02  .467E-02  .404E-02  .502E-02  .578E-02
  .483E-02  .413E-02  .346E-02  .354E-02  .372E-02  .360E-02  .369E-02  .386E-02
  .412E-02  .548E-02  .696E-02  .761E-02  .729E-02  .659E-02  .589E-02  .528E-02
  .528E-02  .489E-02  .543E-02  .610E-02  .743E-02  .512E-02  .463E-02  .422E-02
  .462E-02  .421E-02  .402E-02  .449E-02  .403E-02  .324E-02  .315E-02  .303E-02
  .309E-02  .322E-02  .335E-02  .331E-02  .319E-02  .308E-02  .298E-02  .290E-02
  .284E-02  .279E-02  .273E-02  .266E-02  .261E-02  .257E-02  .000E+00  .000E+00
  .000E+00  .000E+00  .000E+00  .000E+00  .000E+00  .000E+00  .000E+00  .000E+00
  .000E+00  .000E+00  .000E+00  .000E+00  .000E+00  .000E+00  .000E+00  .000E+00
  .000E+00  .000E+00  .000E+00  .000E+00
  .600E-02  .696E-02  .834E-02  .932E-02  .115E-01  .122E-01  .130E-01  .199E-01
  .222E-01  .292E-01  .357E-01  .372E-01  .421E-01  .429E-01  .427E-01  .530E-01
  .589E-01  .610E-01  .714E-01  .671E-01  .108E+00  .121E+00  .957E-01  .106E+00
  .126E+00  .140E+00  .120E+00  .144E+00  .122E+00  .948E-01  .106E+00  .111E+00
  .964E-01  .761E-01  .650E-01  .647E-01  .685E-01  .698E-01  .627E-01  .595E-01
  .605E-01  .809E-01  .826E-01  .819E-01  .763E-01  .813E-01  .748E-01  .706E-01
  .660E-01  .607E-01  .562E-01  .549E-01  .489E-01  .456E-01  .479E-01  .493E-01
  .510E-01  .508E-01  .515E-01  .519E-01  .523E-01  .515E-01  .512E-01  .506E-01
  .498E-01  .493E-01  .487E-01  .479E-01  .474E-01  .470E-01  .468E-01  .466E-01
  .465E-01  .463E-01  .462E-01  .462E-01  .461E-01  .460E-01  .000E+00  .000E+00
  .000E+00  .000E+00  .000E+00  .000E+00  .000E+00  .000E+00  .000E+00  .000E+00
  .000E+00  .000E+00  .000E+00  .000E+00  .000E+00  .000E+00  .000E+00  .000E+00
  .000E+00  .000E+00  .000E+00  .000E+00
  .464E-02  .475E-02  .471E-02  .494E-02  .500E-02  .528E-02  .561E-02  .775E-02
  .764E-02  .790E-02  .860E-02  .888E-02  .933E-02  .821E-02  .821E-02  .104E-01
  .945E-02  .899E-02  .100E-01  .910E-02  .125E-01  .124E-01  .944E-02  .985E-02
  .104E-01  .114E-01  .902E-02  .915E-02  .713E-02  .539E-02  .565E-02  .582E-02
  .430E-02  .324E-02  .246E-02  .229E-02  .217E-02  .192E-02  .179E-02  .171E-02
  .169E-02  .186E-02  .198E-02  .187E-02  .156E-02  .121E-02  .946E-03  .752E-03
  .675E-03  .562E-03  .563E-03  .523E-03  .530E-03  .313E-03  .244E-03  .199E-03
  .190E-03  .154E-03  .132E-03  .129E-03  .104E-03  .738E-04  .616E-04  .548E-04
  .494E-04  .457E-04  .425E-04  .383E-04  .341E-04  .306E-04  .277E-04  .253E-04
  .233E-04  .216E-04  .201E-04  .187E-04  .162E-04  .143E-04  .000E+00  .000E+00
  .000E+00  .000E+00  .000E+00  .000E+00  .000E+00  .000E+00  .000E+00  .000E+00
  .000E+00  .000E+00  .000E+00  .000E+00  .000E+00  .000E+00  .000E+00  .000E+00
  .000E+00  .000E+00  .000E+00  .000E+00
  .115E-01  .122E-01  .128E-01  .139E-01  .146E-01  .161E-01  .190E-01  .283E-01
  .303E-01  .338E-01  .400E-01  .429E-01  .490E-01  .453E-01  .480E-01  .633E-01
  .622E-01  .666E-01  .788E-01  .773E-01  .113E+00  .120E+00  .973E-01  .109E+00
  .121E+00  .137E+00  .119E+00  .137E+00  .113E+00  .906E-01  .105E+00  .113E+00
  .893E-01  .720E-01  .572E-01  .557E-01  .556E-01  .514E-01  .505E-01  .506E-01
  .517E-01  .626E-01  .729E-01  .735E-01  .655E-01  .552E-01  .462E-01  .391E-01
  .369E-01  .323E-01  .341E-01  .349E-01  .389E-01  .248E-01  .208E-01  .177E-01
  .182E-01  .156E-01  .140E-01  .148E-01  .127E-01  .924E-02  .825E-02  .733E-02
  .694E-02  .675E-02  .657E-02  .612E-02  .557E-02  .509E-02  .468E-02  .434E-02
  .406E-02  .381E-02  .357E-02  .335E-02  .298E-02  .269E-02  .000E+00  .000E+00
  .000E+00  .000E+00  .000E+00  .000E+00  .000E+00  .000E+00  .000E+00  .000E+00
  .000E+00  .000E+00  .000E+00  .000E+00  .000E+00  .000E+00  .000E+00  .000E+00
  .000E+00  .000E+00  .000E+00  .000E+00
  .384E+02  .384E+02  .384E+02  .384E+02  .396E+02  .387E+02  .393E+02  .394E+02
  .394E+02  .387E+02  .388E+02  .388E+02  .388E+02  .388E+02  .385E+02  .388E+02
  .388E+02  .382E+02  .385E+02  .396E+02  .396E+02  .397E+02  .398E+02  .389E+02
  .388E+02  .394E+02  .386E+02  .386E+02  .385E+02  .406E+02  .405E+02  .403E+02
  .397E+02  .389E+02  .389E+02  .389E+02  .389E+02  .389E+02  .397E+02  .397E+02
  .403E+02  .403E+02  .402E+02  .394E+02  .394E+02  .388E+02  .388E+02  .406E+02
  .406E+02  .411E+02  .422E+02  .424E+02  .449E+02  .450E+02  .445E+02  .388E+02
  .421E+02  .421E+02  .415E+02  .445E+02  .446E+02  .402E+02  .402E+02  .385E+02
  .385E+02  .385E+02  .385E+02  .385E+02  .385E+02  .385E+02  .385E+02  .385E+02
  .385E+02  .385E+02  .385E+02  .385E+02  .385E+02  .385E+02  .000E+00  .000E+00
  .000E+00  .000E+00  .000E+00  .000E+00  .000E+00  .000E+00  .000E+00  .000E+00
  .000E+00  .000E+00  .000E+00  .000E+00  .000E+00  .000E+00  .000E+00  .000E+00
  .000E+00  .000E+00  .000E+00  .000E+00
  .396E+02  .396E+02  .396E+02  .396E+02  .398E+02  .398E+02  .393E+02  .394E+02
  .385E+02  .388E+02  .388E+02  .389E+02  .388E+02  .404E+02  .385E+02  .387E+02
  .388E+02  .381E+02  .385E+02  .396E+02  .396E+02  .397E+02  .397E+02  .389E+02
  .389E+02  .395E+02  .385E+02  .385E+02  .384E+02  .384E+02  .406E+02  .403E+02
  .402E+02  .388E+02  .388E+02  .388E+02  .388E+02  .388E+02  .388E+02  .396E+02
  .402E+02  .402E+02  .402E+02  .388E+02  .396E+02  .393E+02  .393E+02  .387E+02
  .387E+02  .387E+02  .384E+02  .384E+02  .393E+02  .401E+02  .387E+02  .387E+02
  .387E+02  .387E+02  .387E+02  .387E+02  .387E+02  .387E+02  .387E+02  .387E+02
  .387E+02  .387E+02  .387E+02  .387E+02  .387E+02  .387E+02  .387E+02  .387E+02
  .387E+02  .387E+02  .387E+02  .387E+02  .387E+02  .387E+02  .000E+00  .000E+00
  .000E+00  .000E+00  .000E+00  .000E+00  .000E+00  .000E+00  .000E+00  .000E+00
  .000E+00  .000E+00  .000E+00  .000E+00  .000E+00  .000E+00  .000E+00  .000E+00
  .000E+00  .000E+00  .000E+00  .000E+00
  .384E+02  .384E+02  .384E+02  .384E+02  .396E+02  .387E+02  .393E+02  .394E+02
  .394E+02  .387E+02  .388E+02  .388E+02  .388E+02  .388E+02  .385E+02  .388E+02
  .388E+02  .382E+02  .385E+02  .396E+02  .396E+02  .396E+02  .398E+02  .389E+02
  .389E+02  .394E+02  .385E+02  .386E+02  .385E+02  .406E+02  .405E+02  .403E+02
  .397E+02  .389E+02  .389E+02  .389E+02  .389E+02  .389E+02  .397E+02  .397E+02
  .403E+02  .403E+02  .401E+02  .394E+02  .394E+02  .387E+02  .388E+02  .406E+02
  .406E+02  .411E+02  .422E+02  .424E+02  .449E+02  .450E+02  .445E+02  .387E+02
  .421E+02  .421E+02  .414E+02  .445E+02  .446E+02  .402E+02  .402E+02  .385E+02
  .385E+02  .385E+02  .385E+02  .385E+02  .385E+02  .385E+02  .385E+02  .385E+02
  .385E+02  .385E+02  .385E+02  .385E+02  .385E+02  .385E+02  .000E+00  .000E+00
  .000E+00  .000E+00  .000E+00  .000E+00  .000E+00  .000E+00  .000E+00  .000E+00
  .000E+00  .000E+00  .000E+00  .000E+00  .000E+00  .000E+00  .000E+00  .000E+00
  .000E+00  .000E+00  .000E+00  .000E+00
/&   ----------  End of spectral data for channel  1  ----------
Response and Fourier amplitude spectra (78 periods,  .04 -  6.0 sec)   for      
Corrected accelerogram   38695658.CI.VLY.--.HN      Chan  2: 360 Deg     from   
Uncorrected Accelerogram Data             Processed: 09/19/20, CGS  civly--l    
Rcrd of Fri Sep 18, 2020 23:38:36.0 PDT               (Avol1 v2.0, 4/18 CSMIP)  
                                        (Origin:  To be determined)             
38695658.CI.VLY.--.HN                Start time:  9/19/20, 06:38:36.0 UTC (GPS) 
Station Id. VLY     33.736N, 117.158W    ObsMMS  s/n 1929  (3 Chns of  6 at Sta)
Valley                                   SCSN   Data: Acceleration              
Chan  2: 360 Deg                                                                
Rcrd of Fri Sep 18, 2020 23:38:36.0 PDT    Fri Sep 18, 2020 23:38:36.0 PDT      
Hypocenter:  To be determined.               ML:  To be determined.             
Instr Period =  .0050 sec,  Damping =  .707,  Sensitivity = 4.97 v/g  (Nominal) 
                        Record Length =301.000 sec.                             
                                     Uncor Max  =   .006 g, at   38.050 sec.    
RMS accel of (uncor) record  =        .   Chn. metadata effective date:         
Accelerogram bandpass filtered with 3 dB pts at   .30 and 23.00 cyc/sec         
                 instrument- and base-line correcte                             
                                                                                
                                                                                
                                                                                
                                                                                
                                                                                
Rcrd of Fri Sep 18, 2020 23:38:36.0 PDT    Fri Sep 18, 2020 23:38:36.0 PDT      
                                                                                
38695658.CI.VLY.--.HN     Valley    Chan  2: 360 Deg                            
                                                                                
38695658.CI.VLY.--.HN     Valley    Chan  2: 360 Deg                            
                                                                                
Units for spectra are inches and sec, except Sa is in fraction of g.            
                                                                                
    2  100    2    6    6  100 -999    3    1    0   15 1929    0    0   41    0
    6   38   36    0  263    9   19 2020   10    3  36036101   39    6   74 -999
36101 -999  100    6 -999 -999 -999 -999 -999 -999 -999 -999 -999 -999 -999 -999
 -999 -999 -999 -99915050    2 -999    0 -999   20 -999 -999    3    1 -99915050
    315050    4   78    1    3    5    0    0 -999    0 -999 -999    6 -999    2
    2    2    4 -999 -999 -999 -999 -999 -999 -999 -999    1 -999 -999 -999  111
    1    1 -999 -999
      .005      .707   361.010      .000     1.000  4971.525      .006    38.050
   200.000     2.384      .480  -999.000    10.000  -999.000     4.000  -999.000
    20.000   -25.387      .000  -999.000  -999.000  -999.000  -999.000      .001
     -.001     -.002     2.000    15.000    33.736  -117.158      .003      .002
      .676     -.003     -.001   445.000  -999.000  -999.000  -999.000  -999.000
     1.000  -999.000  -999.000  -999.000  -999.000  -999.000  -999.000   120.000
     -.900     2.000     6.800   980.665      .020   301.000    31.831      .000
  -999.000    23.000  -999.000   301.000      .020      .300  -999.000  -999.000
    38.200    -6.061    38.020     -.197    38.380     -.010      .000      .300
    23.000      .020      .020      .000      .020      .005  -999.000  -999.000
      .022      .280      .013      .019      .001      .000  -999.000  -999.000
  -999.000  -999.000  -999.000  -999.000  -999.000  -999.000  -999.000  -999.000
  -999.000  -999.000  -999.000  -999.000
      .050
      .040      .042      .044      .046      .048      .050      .055      .060
      .065      .070      .075      .080      .085      .090      .095      .100
      .110      .120      .130      .140      .150      .160      .170      .180
      .190      .200      .220      .240      .260      .280      .300      .320
      .340      .360      .380      .400      .420      .440      .460      .480
      .500      .550      .600      .650      .700      .750      .800      .850
      .900      .950     1.000     1.100     1.200     1.300     1.400     1.500
     1.600     1.700     1.800     1.900     2.000     2.200     2.400     2.600
     2.800     3.000     3.200     3.400     3.600     3.800     4.000     4.200
     4.400     4.600     4.800     5.000     5.500     6.000      .000      .000
      .000      .000      .000      .000      .000      .000      .000      .000
      .000      .000      .000      .000      .000      .000      .000      .000
      .000      .000      .000      .000
Fourier amplitude spectra in in/sec.
  .000E+00  .000E+00  .000E+00  .000E+00  .000E+00  .000E+00  .000E+00  .000E+00
  .000E+00  .000E+00  .000E+00  .000E+00  .000E+00  .000E+00  .000E+00  .000E+00
  .000E+00  .000E+00  .000E+00  .000E+00  .000E+00  .000E+00  .000E+00  .000E+00
  .000E+00  .000E+00  .000E+00  .000E+00  .000E+00  .000E+00  .000E+00  .000E+00
  .000E+00  .000E+00  .000E+00  .000E+00  .000E+00  .000E+00  .000E+00  .000E+00
  .000E+00  .000E+00  .000E+00  .000E+00  .000E+00  .000E+00  .000E+00  .000E+00
  .000E+00  .000E+00  .000E+00  .000E+00  .000E+00  .000E+00  .000E+00  .000E+00
  .000E+00  .000E+00  .000E+00  .000E+00  .000E+00  .000E+00  .000E+00  .000E+00
  .000E+00  .000E+00  .000E+00  .000E+00  .000E+00  .000E+00  .000E+00  .000E+00
  .000E+00  .000E+00  .000E+00  .000E+00  .000E+00  .000E+00  .000E+00  .000E+00
  .000E+00  .000E+00  .000E+00  .000E+00  .000E+00  .000E+00  .000E+00  .000E+00
  .000E+00  .000E+00  .000E+00  .000E+00  .000E+00  .000E+00  .000E+00  .000E+00
  .000E+00  .000E+00  .000E+00  .000E+00
Damping =  .05. Data of Sd,Sv,Sa,Pssv,ttSd,ttSv,ttSa :
  .112E-03  .126E-03  .141E-03  .162E-03  .215E-03  .278E-03  .350E-03  .373E-03
  .432E-03  .557E-03  .675E-03  .750E-03  .983E-03  .127E-02  .165E-02  .188E-02
  .239E-02  .276E-02  .259E-02  .250E-02  .245E-02  .286E-02  .348E-02  .430E-02
  .407E-02  .435E-02  .739E-02  .890E-02  .115E-01  .171E-01  .171E-01  .146E-01
  .117E-01  .105E-01  .105E-01  .101E-01  .880E-02  .808E-02  .728E-02  .686E-02
