Response and Fourier amplitude spectra (78 periods,  .04 -  6.0 sec)   for      
Corrected accelerogram   38695658.CI.VTV.--.HN      Chan  1:  90 Deg     from   
Uncorrected Accelerogram Data             Processed: 09/19/20, CGS  civtv--r    
Rcrd of Fri Sep 18, 2020 23:38:38.0 PDT               (Avol1 v2.0, 4/18 CSMIP)  
                                        (Origin:  To be determined)             
38695658.CI.VTV.--.HN                Start time:  9/19/20, 06:38:38.0 UTC (GPS) 
Station Id. VTV     34.561N, 117.330W    ObsMMS  s/n 4337  (3 Chns of  3 at Sta)
Victorville, Airbase Rd.                 SCSN   Data: Acceleration              
Chan  1:  90 Deg                                                                
Rcrd of Fri Sep 18, 2020 23:38:38.0 PDT    Fri Sep 18, 2020 23:38:38.0 PDT      
Hypocenter:  To be determined.               ML:  To be determined.             
Instr Period =  .0050 sec,  Damping =  .707,  Sensitivity = 4.99 v/g  (Nominal) 
                        Record Length =301.000 sec.                             
                                     Uncor Max  =  -.003 g, at   37.430 sec.    
RMS accel of (uncor) record  =        .   Chn. metadata effective date:         
Accelerogram bandpass filtered with 3 dB pts at   .30 and 23.00 cyc/sec         
                 instrument- and base-line correcte                             
                                                                                
                                                                                
                                                                                
                                                                                
                                                                                
Rcrd of Fri Sep 18, 2020 23:38:38.0 PDT    Fri Sep 18, 2020 23:38:38.0 PDT      
                                                                                
38695658.CI.VTV.--.HN     Victorville, Airbase Rd.    Chan  1:  90 Deg          
                                                                                
38695658.CI.VTV.--.HN     Victorville, Airbase Rd.    Chan  1:  90 Deg          
                                                                                
Units for spectra are inches and sec, except Sa is in fraction of g.            
                                                                                
    1  100    1    3    3  100 -999    3    1    0   15 4337    050516   41    0
    6   38   38    8  263    9   19 2020   10    3   9035496   39   24   74 -999
35496 -999  100    6 -999 -999 -999 -999 -999 -999 -999 -999 -999 -999 -999 -999
 -999 -999 -999 -99915050    2 -999    0 -999   20 -999 -999    3    1 -99915050
    315050    4   78    1    3    5    0    0 -999    0 -999 -999    6 -999    2
    2    2    4 -999 -999 -999 -999 -999 -999 -999 -999    1 -999 -999 -999  111
    1    1 -999 -999
      .005      .707   354.960      .000     1.000  4986.484     -.003    37.430
   200.000     2.384      .478  -999.000    10.000  -999.000     4.000  -999.000
    20.000   -28.573      .000  -999.000  -999.000  -999.000  -999.000      .000
      .000      .001     2.000    15.000    34.561  -117.330      .006      .018
     3.075     -.001      .002   843.000  -999.000  -999.000  -999.000  -999.000
     1.000  -999.000    -8.000  -999.000  -999.000  -999.000  -999.000   120.000
     -.900     2.000     6.800   980.665      .020   301.000    31.831      .000
  -999.000    23.000  -999.000   301.000      .020      .300  -999.000  -999.000
    37.420    -2.605    37.400      .099    39.960      .006      .000      .300
    23.000      .020      .020      .000      .020      .005  -999.000  -999.000
      .010      .110      .007      .004      .000      .000  -999.000  -999.000
  -999.000  -999.000  -999.000  -999.000  -999.000  -999.000  -999.000  -999.000
  -999.000  -999.000  -999.000  -999.000
      .050
      .040      .042      .044      .046      .048      .050      .055      .060
      .065      .070      .075      .080      .085      .090      .095      .100
      .110      .120      .130      .140      .150      .160      .170      .180
      .190      .200      .220      .240      .260      .280      .300      .320
      .340      .360      .380      .400      .420      .440      .460      .480
      .500      .550      .600      .650      .700      .750      .800      .850
      .900      .950     1.000     1.100     1.200     1.300     1.400     1.500
     1.600     1.700     1.800     1.900     2.000     2.200     2.400     2.600
     2.800     3.000     3.200     3.400     3.600     3.800     4.000     4.200
     4.400     4.600     4.800     5.000     5.500     6.000      .000      .000
      .000      .000      .000      .000      .000      .000      .000      .000
      .000      .000      .000      .000      .000      .000      .000      .000
      .000      .000      .000      .000
Fourier amplitude spectra in in/sec.
  .000E+00  .000E+00  .000E+00  .000E+00  .000E+00  .000E+00  .000E+00  .000E+00
  .000E+00  .000E+00  .000E+00  .000E+00  .000E+00  .000E+00  .000E+00  .000E+00
  .000E+00  .000E+00  .000E+00  .000E+00  .000E+00  .000E+00  .000E+00  .000E+00
  .000E+00  .000E+00  .000E+00  .000E+00  .000E+00  .000E+00  .000E+00  .000E+00
  .000E+00  .000E+00  .000E+00  .000E+00  .000E+00  .000E+00  .000E+00  .000E+00
  .000E+00  .000E+00  .000E+00  .000E+00  .000E+00  .000E+00  .000E+00  .000E+00
  .000E+00  .000E+00  .000E+00  .000E+00  .000E+00  .000E+00  .000E+00  .000E+00
  .000E+00  .000E+00  .000E+00  .000E+00  .000E+00  .000E+00  .000E+00  .000E+00
  .000E+00  .000E+00  .000E+00  .000E+00  .000E+00  .000E+00  .000E+00  .000E+00
  .000E+00  .000E+00  .000E+00  .000E+00  .000E+00  .000E+00  .000E+00  .000E+00
  .000E+00  .000E+00  .000E+00  .000E+00  .000E+00  .000E+00  .000E+00  .000E+00
  .000E+00  .000E+00  .000E+00  .000E+00  .000E+00  .000E+00  .000E+00  .000E+00
  .000E+00  .000E+00  .000E+00  .000E+00
Damping =  .05. Data of Sd,Sv,Sa,Pssv,ttSd,ttSv,ttSa :
  .470E-04  .532E-04  .599E-04  .672E-04  .781E-04  .897E-04  .122E-03  .176E-03
  .216E-03  .257E-03  .302E-03  .339E-03  .538E-03  .721E-03  .752E-03  .771E-03
  .117E-02  .132E-02  .132E-02  .142E-02  .134E-02  .195E-02  .254E-02  .246E-02
  .284E-02  .335E-02  .256E-02  .236E-02  .266E-02  .286E-02  .296E-02  .347E-02
  .490E-02  .625E-02  .653E-02  .857E-02  .101E-01  .103E-01  .107E-01  .121E-01
  .114E-01  .712E-02  .697E-02  .572E-02  .588E-02  .541E-02  .448E-02  .387E-02
  .398E-02  .371E-02  .317E-02  .307E-02  .297E-02  .291E-02  .269E-02  .301E-02
  .333E-02  .329E-02  .309E-02  .308E-02  .321E-02  .302E-02  .300E-02  .273E-02
  .259E-02  .239E-02  .226E-02  .230E-02  .233E-02  .230E-02  .228E-02  .229E-02
  .230E-02  .231E-02  .231E-02  .231E-02  .230E-02  .228E-02  .000E+00  .000E+00
  .000E+00  .000E+00  .000E+00  .000E+00  .000E+00  .000E+00  .000E+00  .000E+00
  .000E+00  .000E+00  .000E+00  .000E+00  .000E+00  .000E+00  .000E+00  .000E+00
  .000E+00  .000E+00  .000E+00  .000E+00
  .309E-02  .325E-02  .334E-02  .429E-02  .493E-02  .571E-02  .878E-02  .155E-01
  .165E-01  .202E-01  .236E-01  .216E-01  .316E-01  .424E-01  .424E-01  .438E-01
  .589E-01  .703E-01  .623E-01  .607E-01  .549E-01  .715E-01  .929E-01  .837E-01
  .888E-01  .107E+00  .711E-01  .655E-01  .650E-01  .638E-01  .580E-01  .713E-01
  .865E-01  .106E+00  .107E+00  .135E+00  .152E+00  .150E+00  .156E+00  .170E+00
  .159E+00  .900E-01  .899E-01  .693E-01  .776E-01  .693E-01  .503E-01  .461E-01
  .430E-01  .422E-01  .398E-01  .395E-01  .400E-01  .408E-01  .393E-01  .390E-01
  .400E-01  .412E-01  .410E-01  .407E-01  .409E-01  .419E-01  .415E-01  .404E-01
  .395E-01  .390E-01  .389E-01  .389E-01  .389E-01  .389E-01  .389E-01  .388E-01
  .388E-01  .387E-01  .386E-01  .386E-01  .385E-01  .384E-01  .000E+00  .000E+00
  .000E+00  .000E+00  .000E+00  .000E+00  .000E+00  .000E+00  .000E+00  .000E+00
  .000E+00  .000E+00  .000E+00  .000E+00  .000E+00  .000E+00  .000E+00  .000E+00
  .000E+00  .000E+00  .000E+00  .000E+00
  .303E-02  .310E-02  .319E-02  .326E-02  .348E-02  .367E-02  .415E-02  .499E-02
  .523E-02  .538E-02  .542E-02  .549E-02  .761E-02  .916E-02  .866E-02  .782E-02
  .989E-02  .958E-02  .810E-02  .751E-02  .611E-02  .783E-02  .911E-02  .780E-02
  .817E-02  .856E-02  .540E-02  .421E-02  .405E-02  .379E-02  .341E-02  .351E-02
  .432E-02  .495E-02  .461E-02  .553E-02  .596E-02  .549E-02  .523E-02  .537E-02
  .472E-02  .245E-02  .199E-02  .140E-02  .125E-02  .100E-02  .730E-03  .558E-03
  .512E-03  .429E-03  .335E-03  .269E-03  .218E-03  .183E-03  .152E-03  .144E-03
  .140E-03  .123E-03  .104E-03  .939E-04  .884E-04  .715E-04  .609E-04  .489E-04
  .385E-04  .320E-04  .291E-04  .269E-04  .249E-04  .227E-04  .208E-04  .191E-04
  .177E-04  .166E-04  .157E-04  .149E-04  .132E-04  .119E-04  .000E+00  .000E+00
  .000E+00  .000E+00  .000E+00  .000E+00  .000E+00  .000E+00  .000E+00  .000E+00
  .000E+00  .000E+00  .000E+00  .000E+00  .000E+00  .000E+00  .000E+00  .000E+00
  .000E+00  .000E+00  .000E+00  .000E+00
  .739E-02  .796E-02  .856E-02  .917E-02  .102E-01  .113E-01  .140E-01  .184E-01
  .208E-01  .231E-01  .253E-01  .267E-01  .398E-01  .504E-01  .498E-01  .485E-01
  .666E-01  .694E-01  .640E-01  .636E-01  .560E-01  .766E-01  .940E-01  .859E-01
  .939E-01  .105E+00  .732E-01  .619E-01  .642E-01  .642E-01  .619E-01  .681E-01
  .906E-01  .109E+00  .108E+00  .135E+00  .152E+00  .147E+00  .146E+00  .159E+00
  .144E+00  .813E-01  .729E-01  .553E-01  .528E-01  .454E-01  .352E-01  .286E-01
  .278E-01  .245E-01  .199E-01  .175E-01  .155E-01  .140E-01  .121E-01  .126E-01
  .131E-01  .122E-01  .108E-01  .102E-01  .101E-01  .864E-02  .785E-02  .660E-02
  .580E-02  .500E-02  .443E-02  .425E-02  .407E-02  .381E-02  .358E-02  .343E-02
  .328E-02  .316E-02  .303E-02  .290E-02  .262E-02  .238E-02  .000E+00  .000E+00
  .000E+00  .000E+00  .000E+00  .000E+00  .000E+00  .000E+00  .000E+00  .000E+00
  .000E+00  .000E+00  .000E+00  .000E+00  .000E+00  .000E+00  .000E+00  .000E+00
  .000E+00  .000E+00  .000E+00  .000E+00
  .353E+02  .374E+02  .353E+02  .353E+02  .353E+02  .353E+02  .353E+02  .358E+02
  .361E+02  .353E+02  .357E+02  .371E+02  .371E+02  .371E+02  .371E+02  .371E+02
  .374E+02  .375E+02  .372E+02  .398E+02  .398E+02  .398E+02  .375E+02  .365E+02
  .375E+02  .375E+02  .361E+02  .405E+02  .406E+02  .407E+02  .409E+02  .413E+02
  .398E+02  .402E+02  .402E+02  .402E+02  .402E+02  .403E+02  .403E+02  .401E+02
  .401E+02  .395E+02  .393E+02  .401E+02  .401E+02  .399E+02  .397E+02  .397E+02
  .397E+02  .397E+02  .397E+02  .397E+02  .411E+02  .401E+02  .397E+02  .401E+02
  .401E+02  .401E+02  .401E+02  .401E+02  .401E+02  .395E+02  .395E+02  .395E+02
  .399E+02  .399E+02  .399E+02  .401E+02  .401E+02  .401E+02  .395E+02  .395E+02
  .399E+02  .399E+02  .399E+02  .399E+02  .399E+02  .399E+02  .000E+00  .000E+00
  .000E+00  .000E+00  .000E+00  .000E+00  .000E+00  .000E+00  .000E+00  .000E+00
  .000E+00  .000E+00  .000E+00  .000E+00  .000E+00  .000E+00  .000E+00  .000E+00
  .000E+00  .000E+00  .000E+00  .000E+00
  .370E+02  .370E+02  .371E+02  .360E+02  .374E+02  .360E+02  .357E+02  .358E+02
  .359E+02  .354E+02  .357E+02  .354E+02  .371E+02  .371E+02  .371E+02  .371E+02
  .375E+02  .378E+02  .372E+02  .398E+02  .375E+02  .398E+02  .375E+02  .365E+02
  .375E+02  .374E+02  .361E+02  .361E+02  .406E+02  .405E+02  .410E+02  .412E+02
  .404E+02  .403E+02  .403E+02  .403E+02  .403E+02  .402E+02  .402E+02  .402E+02
  .400E+02  .395E+02  .394E+02  .392E+02  .400E+02  .400E+02  .400E+02  .400E+02
  .395E+02  .395E+02  .400E+02  .400E+02  .400E+02  .400E+02  .400E+02  .400E+02
  .400E+02  .400E+02  .400E+02  .400E+02  .400E+02  .400E+02  .400E+02  .400E+02
  .400E+02  .400E+02  .400E+02  .400E+02  .400E+02  .400E+02  .400E+02  .400E+02
  .400E+02  .400E+02  .400E+02  .400E+02  .400E+02  .400E+02  .000E+00  .000E+00
  .000E+00  .000E+00  .000E+00  .000E+00  .000E+00  .000E+00  .000E+00  .000E+00
  .000E+00  .000E+00  .000E+00  .000E+00  .000E+00  .000E+00  .000E+00  .000E+00
  .000E+00  .000E+00  .000E+00  .000E+00
  .353E+02  .353E+02  .353E+02  .353E+02  .353E+02  .353E+02  .353E+02  .358E+02
  .359E+02  .353E+02  .357E+02  .371E+02  .371E+02  .371E+02  .371E+02  .371E+02
  .374E+02  .375E+02  .372E+02  .397E+02  .398E+02  .398E+02  .375E+02  .365E+02
  .375E+02  .375E+02  .361E+02  .405E+02  .406E+02  .407E+02  .409E+02  .413E+02
  .398E+02  .402E+02  .402E+02  .402E+02  .402E+02  .402E+02  .403E+02  .401E+02
  .401E+02  .395E+02  .393E+02  .401E+02  .401E+02  .399E+02  .397E+02  .397E+02
  .397E+02  .397E+02  .397E+02  .397E+02  .410E+02  .401E+02  .397E+02  .401E+02
  .401E+02  .401E+02  .401E+02  .401E+02  .401E+02  .395E+02  .395E+02  .395E+02
  .395E+02  .395E+02  .401E+02  .401E+02  .401E+02  .401E+02  .401E+02  .401E+02
  .401E+02  .401E+02  .401E+02  .401E+02  .401E+02  .401E+02  .000E+00  .000E+00
  .000E+00  .000E+00  .000E+00  .000E+00  .000E+00  .000E+00  .000E+00  .000E+00
  .000E+00  .000E+00  .000E+00  .000E+00  .000E+00  .000E+00  .000E+00  .000E+00
  .000E+00  .000E+00  .000E+00  .000E+00
/&   ----------  End of spectral data for channel  1  ----------
Response and Fourier amplitude spectra (78 periods,  .04 -  6.0 sec)   for      
Corrected accelerogram   38695658.CI.VTV.--.HN      Chan  2: 360 Deg     from   
Uncorrected Accelerogram Data             Processed: 09/19/20, CGS  civtv--r    
Rcrd of Fri Sep 18, 2020 23:38:38.0 PDT               (Avol1 v2.0, 4/18 CSMIP)  
                                        (Origin:  To be determined)             
38695658.CI.VTV.--.HN                Start time:  9/19/20, 06:38:38.0 UTC (GPS) 
Station Id. VTV     34.561N, 117.330W    ObsMMS  s/n 4337  (3 Chns of  3 at Sta)
Victorville, Airbase Rd.                 SCSN   Data: Acceleration              
Chan  2: 360 Deg                                                                
Rcrd of Fri Sep 18, 2020 23:38:38.0 PDT    Fri Sep 18, 2020 23:38:38.0 PDT      
Hypocenter:  To be determined.               ML:  To be determined.             
Instr Period =  .0050 sec,  Damping =  .707,  Sensitivity = 4.99 v/g  (Nominal) 
                        Record Length =301.000 sec.                             
                                     Uncor Max  =   .003 g, at   39.010 sec.    
RMS accel of (uncor) record  =        .   Chn. metadata effective date:         
Accelerogram bandpass filtered with 3 dB pts at   .30 and 23.00 cyc/sec         
                 instrument- and base-line correcte                             
                                                                                
                                                                                
                                                                                
                                                                                
                                                                                
Rcrd of Fri Sep 18, 2020 23:38:38.0 PDT    Fri Sep 18, 2020 23:38:38.0 PDT      
                                                                                
38695658.CI.VTV.--.HN     Victorville, Airbase Rd.    Chan  2: 360 Deg          
                                                                                
38695658.CI.VTV.--.HN     Victorville, Airbase Rd.    Chan  2: 360 Deg          
                                                                                
Units for spectra are inches and sec, except Sa is in fraction of g.            
                                                                                
    2  100    2    3    3  100 -999    3    1    0   15 4337    050516   41    0
    6   38   38    8  263    9   19 2020   10    3  36035720   39   24   74 -999
35720 -999  100    6 -999 -999 -999 -999 -999 -999 -999 -999 -999 -999 -999 -999
 -999 -999 -999 -99915050    2 -999    0 -999   20 -999 -999    3    1 -99915050
    315050    4   78    1    3    5    0    0 -999    0 -999 -999    6 -999    2
    2    2    4 -999 -999 -999 -999 -999 -999 -999 -999    1 -999 -999 -999  111
    1    1 -999 -999
      .005      .707   357.200      .000     1.000  4988.080      .003    39.010
   200.000     2.384      .478  -999.000    10.000  -999.000     4.000  -999.000
    20.000   -10.448      .000  -999.000  -999.000  -999.000  -999.000      .000
      .000      .000     2.000    15.000    34.561  -117.330      .013      .014
     1.139     -.003      .002   843.000  -999.000  -999.000  -999.000  -999.000
     1.000  -999.000  -999.000  -999.000  -999.000  -999.000  -999.000   120.000
     -.900     2.000     6.800   980.665      .020   301.000    31.831      .000
  -999.000    23.000  -999.000   301.000      .020      .300  -999.000  -999.000
    39.000     2.415    37.000     -.103    38.000     -.006      .000      .300
    23.000      .020      .020      .000      .020      .005  -999.000  -999.000
      .010      .120      .005      .005      .000      .000  -999.000  -999.000
  -999.000  -999.000  -999.000  -999.000  -999.000  -999.000  -999.000  -999.000
  -999.000  -999.000  -999.000  -999.000
      .050
      .040      .042      .044      .046      .048      .050      .055      .060
      .065      .070      .075      .080      .085      .090      .095      .100
      .110      .120      .130      .140      .150      .160      .170      .180
      .190      .200      .220      .240      .260      .280      .300      .320
      .340      .360      .380      .400      .420      .440      .460      .480
      .500      .550      .600      .650      .700      .750      .800      .850
      .900      .950     1.000     1.100     1.200     1.300     1.400     1.500
     1.600     1.700     1.800     1.900     2.000     2.200     2.400     2.600
     2.800     3.000     3.200     3.400     3.600     3.800     4.000     4.200
     4.400     4.600     4.800     5.000     5.500     6.000      .000      .000
      .000      .000      .000      .000      .000      .000      .000      .000
      .000      .000      .000      .000      .000      .000      .000      .000
      .000      .000      .000      .000
Fourier amplitude spectra in in/sec.
  .000E+00  .000E+00  .000E+00  .000E+00  .000E+00  .000E+00  .000E+00  .000E+00
  .000E+00  .000E+00  .000E+00  .000E+00  .000E+00  .000E+00  .000E+00  .000E+00
  .000E+00  .000E+00  .000E+00  .000E+00  .000E+00  .000E+00  .000E+00  .000E+00
  .000E+00  .000E+00  .000E+00  .000E+00  .000E+00  .000E+00  .000E+00  .000E+00
  .000E+00  .000E+00  .000E+00  .000E+00  .000E+00  .000E+00  .000E+00  .000E+00
  .000E+00  .000E+00  .000E+00  .000E+00  .000E+00  .000E+00  .000E+00  .000E+00
  .000E+00  .000E+00  .000E+00  .000E+00  .000E+00  .000E+00  .000E+00  .000E+00
  .000E+00  .000E+00  .000E+00  .000E+00  .000E+00  .000E+00  .000E+00  .000E+00
  .000E+00  .000E+00  .000E+00  .000E+00  .000E+00  .000E+00  .000E+00  .000E+00
  .000E+00  .000E+00  .000E+00  .000E+00  .000E+00  .000E+00  .000E+00  .000E+00
  .000E+00  .000E+00  .000E+00  .000E+00  .000E+00  .000E+00  .000E+00  .000E+00
  .000E+00  .000E+00  .000E+00  .000E+00  .000E+00  .000E+00  .000E+00  .000E+00
  .000E+00  .000E+00  .000E+00  .000E+00
Damping =  .05. Data of Sd,Sv,Sa,Pssv,ttSd,ttSv,ttSa :
  .477E-04  .523E-04  .608E-04  .692E-04  .790E-04  .915E-04  .141E-03  .187E-03
  .222E-03  .251E-03  .337E-03  .378E-03  .404E-03  .493E-03  .599E-03  .742E-03
  .110E-02  .145E-02  .129E-02  .124E-02  .190E-02  .244E-02  .224E-02  .193E-02
  .187E-02  .200E-02  .210E-02  .253E-02  .339E-02  .379E-02  .431E-02  .557E-02
  .538E-02  .534E-02  .599E-02  .779E-02  .104E-01  .103E-01  .107E-01  .126E-01
