Response and Fourier amplitude spectra (78 periods,  .04 -  6.0 sec)   for      
Corrected accelerogram   38695658.CI.WLT.--.HN      Chan  1:  90 Deg     from   
Uncorrected Accelerogram Data             Processed: 09/19/20, CGS  ciwlt--n    
Rcrd of Fri Sep 18, 2020 23:38:26.0 PDT               (Avol1 v2.0, 4/18 CSMIP)  
                                        (Origin:  To be determined)             
38695658.CI.WLT.--.HN                Start time:  9/19/20, 06:38:26.0 UTC (GPS) 
Station Id. WLT     34.009N, 117.951W    ObsMMS  s/n 4248  (3 Chns of  6 at Sta)
Hacienda Heights                         SCSN   Data: Acceleration              
Chan  1:  90 Deg                                                                
Rcrd of Fri Sep 18, 2020 23:38:26.0 PDT    Fri Sep 18, 2020 23:38:26.0 PDT      
Hypocenter:  To be determined.               ML:  To be determined.             
Instr Period =  .0050 sec,  Damping =  .707,  Sensitivity = 5.00 v/g  (Nominal) 
                        Record Length =301.000 sec.                             
                                     Uncor Max  =   .136 g, at   28.170 sec.    
RMS accel of (uncor) record  =        .   Chn. metadata effective date:         
Accelerogram bandpass filtered with 3 dB pts at   .30 and 23.00 cyc/sec         
                 instrument- and base-line correcte                             
                                                                                
                                                                                
                                                                                
                                                                                
                                                                                
Rcrd of Fri Sep 18, 2020 23:38:26.0 PDT    Fri Sep 18, 2020 23:38:26.0 PDT      
                                                                                
38695658.CI.WLT.--.HN     Hacienda Heights    Chan  1:  90 Deg                  
                                                                                
38695658.CI.WLT.--.HN     Hacienda Heights    Chan  1:  90 Deg                  
                                                                                
Units for spectra are inches and sec, except Sa is in fraction of g.            
                                                                                
    1  100    1    6    6  100 -999    3    1    0   15 4248    050660   41    0
    6   38   26    8  263    9   19 2020   10    3   9035955   39   16   74 -999
35955 -999  100    6 -999 -999 -999 -999 -999 -999 -999 -999 -999 -999 -999 -999
 -999 -999 -999 -99915050    2 -999    0 -999   20 -999 -999    3    1 -99915050
    315050    4   78    1    3    5    0    0 -999    0 -999 -999    6 -999    2
    2    2    4 -999 -999 -999 -999 -999 -999 -999 -999    1 -999 -999 -999  111
    1    1 -999 -999
      .005      .707   359.550      .004     1.000  4996.058      .136    28.170
   200.000     2.384      .477  -999.000    10.000  -999.000     4.000  -999.000
    20.000   -31.248      .000  -999.000  -999.000  -999.000  -999.000      .008
      .000     -.008     2.000    15.000    34.009  -117.951      .004      .006
     1.373     -.009     -.008   107.000  -999.000  -999.000  -999.000  -999.000
     1.000  -999.000    -8.000  -999.000  -999.000  -999.000  -999.000   120.000
     -.900     2.000     6.800   980.665      .020   301.000    31.831      .000
  -999.000    23.000  -999.000   301.000      .020      .300  -999.000  -999.000
    28.180   128.698    28.220     4.020    28.180     -.201      .000      .300
    23.000      .020      .020      .000      .780      .060  -999.000  -999.000
      .628      .150      .344      .140      .010      .002  -999.000  -999.000
  -999.000  -999.000  -999.000  -999.000  -999.000  -999.000  -999.000  -999.000
  -999.000  -999.000  -999.000  -999.000
      .050
      .040      .042      .044      .046      .048      .050      .055      .060
      .065      .070      .075      .080      .085      .090      .095      .100
      .110      .120      .130      .140      .150      .160      .170      .180
      .190      .200      .220      .240      .260      .280      .300      .320
      .340      .360      .380      .400      .420      .440      .460      .480
      .500      .550      .600      .650      .700      .750      .800      .850
      .900      .950     1.000     1.100     1.200     1.300     1.400     1.500
     1.600     1.700     1.800     1.900     2.000     2.200     2.400     2.600
     2.800     3.000     3.200     3.400     3.600     3.800     4.000     4.200
     4.400     4.600     4.800     5.000     5.500     6.000      .000      .000
      .000      .000      .000      .000      .000      .000      .000      .000
      .000      .000      .000      .000      .000      .000      .000      .000
      .000      .000      .000      .000
Fourier amplitude spectra in in/sec.
  .000E+00  .000E+00  .000E+00  .000E+00  .000E+00  .000E+00  .000E+00  .000E+00
  .000E+00  .000E+00  .000E+00  .000E+00  .000E+00  .000E+00  .000E+00  .000E+00
  .000E+00  .000E+00  .000E+00  .000E+00  .000E+00  .000E+00  .000E+00  .000E+00
  .000E+00  .000E+00  .000E+00  .000E+00  .000E+00  .000E+00  .000E+00  .000E+00
  .000E+00  .000E+00  .000E+00  .000E+00  .000E+00  .000E+00  .000E+00  .000E+00
  .000E+00  .000E+00  .000E+00  .000E+00  .000E+00  .000E+00  .000E+00  .000E+00
  .000E+00  .000E+00  .000E+00  .000E+00  .000E+00  .000E+00  .000E+00  .000E+00
  .000E+00  .000E+00  .000E+00  .000E+00  .000E+00  .000E+00  .000E+00  .000E+00
  .000E+00  .000E+00  .000E+00  .000E+00  .000E+00  .000E+00  .000E+00  .000E+00
  .000E+00  .000E+00  .000E+00  .000E+00  .000E+00  .000E+00  .000E+00  .000E+00
  .000E+00  .000E+00  .000E+00  .000E+00  .000E+00  .000E+00  .000E+00  .000E+00
  .000E+00  .000E+00  .000E+00  .000E+00  .000E+00  .000E+00  .000E+00  .000E+00
  .000E+00  .000E+00  .000E+00  .000E+00
Damping =  .05. Data of Sd,Sv,Sa,Pssv,ttSd,ttSv,ttSa :
  .218E-02  .241E-02  .266E-02  .293E-02  .318E-02  .342E-02  .436E-02  .550E-02
  .686E-02  .878E-02  .101E-01  .108E-01  .125E-01  .148E-01  .175E-01  .205E-01
  .297E-01  .462E-01  .722E-01  .104E+00  .137E+00  .153E+00  .158E+00  .157E+00
  .144E+00  .134E+00  .131E+00  .121E+00  .114E+00  .113E+00  .116E+00  .132E+00
  .159E+00  .174E+00  .168E+00  .165E+00  .171E+00  .166E+00  .160E+00  .148E+00
  .134E+00  .107E+00  .103E+00  .986E-01  .100E+00  .990E-01  .974E-01  .952E-01
  .923E-01  .888E-01  .892E-01  .909E-01  .927E-01  .939E-01  .947E-01  .952E-01
  .958E-01  .965E-01  .971E-01  .974E-01  .975E-01  .970E-01  .960E-01  .951E-01
  .943E-01  .935E-01  .926E-01  .916E-01  .906E-01  .895E-01  .884E-01  .874E-01
  .864E-01  .855E-01  .846E-01  .839E-01  .823E-01  .812E-01  .000E+00  .000E+00
  .000E+00  .000E+00  .000E+00  .000E+00  .000E+00  .000E+00  .000E+00  .000E+00
  .000E+00  .000E+00  .000E+00  .000E+00  .000E+00  .000E+00  .000E+00  .000E+00
  .000E+00  .000E+00  .000E+00  .000E+00
  .973E-01  .108E+00  .120E+00  .132E+00  .146E+00  .160E+00  .231E+00  .275E+00
  .297E+00  .403E+00  .457E+00  .451E+00  .524E+00  .697E+00  .741E+00  .839E+00
  .124E+01  .194E+01  .293E+01  .428E+01  .553E+01  .603E+01  .602E+01  .563E+01
  .519E+01  .479E+01  .423E+01  .385E+01  .343E+01  .321E+01  .299E+01  .328E+01
  .325E+01  .317E+01  .339E+01  .332E+01  .312E+01  .273E+01  .246E+01  .250E+01
  .247E+01  .233E+01  .225E+01  .217E+01  .210E+01  .204E+01  .199E+01  .195E+01
  .191E+01  .188E+01  .185E+01  .180E+01  .176E+01  .173E+01  .170E+01  .167E+01
  .165E+01  .163E+01  .162E+01  .160E+01  .159E+01  .157E+01  .156E+01  .155E+01
  .154E+01  .153E+01  .153E+01  .153E+01  .152E+01  .152E+01  .152E+01  .152E+01
  .152E+01  .152E+01  .151E+01  .151E+01  .151E+01  .151E+01  .000E+00  .000E+00
  .000E+00  .000E+00  .000E+00  .000E+00  .000E+00  .000E+00  .000E+00  .000E+00
  .000E+00  .000E+00  .000E+00  .000E+00  .000E+00  .000E+00  .000E+00  .000E+00
  .000E+00  .000E+00  .000E+00  .000E+00
  .139E+00  .140E+00  .141E+00  .142E+00  .141E+00  .140E+00  .147E+00  .156E+00
  .167E+00  .184E+00  .183E+00  .173E+00  .176E+00  .188E+00  .199E+00  .209E+00
  .251E+00  .330E+00  .435E+00  .540E+00  .628E+00  .614E+00  .568E+00  .499E+00
  .411E+00  .337E+00  .284E+00  .211E+00  .176E+00  .151E+00  .136E+00  .134E+00
  .144E+00  .137E+00  .121E+00  .106E+00  .100E+00  .892E-01  .773E-01  .668E-01
  .559E-01  .365E-01  .294E-01  .239E-01  .210E-01  .184E-01  .161E-01  .141E-01
  .123E-01  .108E-01  .972E-02  .827E-02  .716E-02  .625E-02  .548E-02  .485E-02
  .435E-02  .394E-02  .359E-02  .328E-02  .301E-02  .256E-02  .220E-02  .192E-02
  .170E-02  .152E-02  .136E-02  .124E-02  .113E-02  .103E-02  .949E-03  .879E-03
  .817E-03  .762E-03  .714E-03  .672E-03  .584E-03  .516E-03  .000E+00  .000E+00
  .000E+00  .000E+00  .000E+00  .000E+00  .000E+00  .000E+00  .000E+00  .000E+00
  .000E+00  .000E+00  .000E+00  .000E+00  .000E+00  .000E+00  .000E+00  .000E+00
  .000E+00  .000E+00  .000E+00  .000E+00
  .342E+00  .361E+00  .380E+00  .400E+00  .416E+00  .430E+00  .498E+00  .576E+00
  .663E+00  .788E+00  .846E+00  .846E+00  .923E+00  .104E+01  .116E+01  .129E+01
  .170E+01  .242E+01  .349E+01  .466E+01  .572E+01  .602E+01  .586E+01  .548E+01
  .477E+01  .419E+01  .375E+01  .316E+01  .276E+01  .253E+01  .243E+01  .259E+01
  .295E+01  .303E+01  .277E+01  .259E+01  .256E+01  .238E+01  .218E+01  .194E+01
  .169E+01  .122E+01  .108E+01  .953E+00  .897E+00  .829E+00  .765E+00  .704E+00
  .644E+00  .588E+00  .560E+00  .519E+00  .485E+00  .454E+00  .425E+00  .399E+00
  .376E+00  .357E+00  .339E+00  .322E+00  .306E+00  .277E+00  .251E+00  .230E+00
  .212E+00  .196E+00  .182E+00  .169E+00  .158E+00  .148E+00  .139E+00  .131E+00
  .123E+00  .117E+00  .111E+00  .105E+00  .940E-01  .850E-01  .000E+00  .000E+00
  .000E+00  .000E+00  .000E+00  .000E+00  .000E+00  .000E+00  .000E+00  .000E+00
  .000E+00  .000E+00  .000E+00  .000E+00  .000E+00  .000E+00  .000E+00  .000E+00
  .000E+00  .000E+00  .000E+00  .000E+00
  .282E+02  .282E+02  .282E+02  .282E+02  .282E+02  .282E+02  .282E+02  .282E+02
  .282E+02  .282E+02  .282E+02  .282E+02  .283E+02  .283E+02  .283E+02  .282E+02
  .283E+02  .284E+02  .284E+02  .284E+02  .287E+02  .285E+02  .284E+02  .285E+02
  .285E+02  .283E+02  .283E+02  .283E+02  .282E+02  .282E+02  .282E+02  .289E+02
  .288E+02  .288E+02  .288E+02  .287E+02  .287E+02  .287E+02  .287E+02  .287E+02
  .287E+02  .286E+02  .286E+02  .284E+02  .284E+02  .284E+02  .284E+02  .284E+02
  .284E+02  .284E+02  .281E+02  .281E+02  .281E+02  .281E+02  .281E+02  .281E+02
  .281E+02  .282E+02  .282E+02  .282E+02  .282E+02  .282E+02  .282E+02  .282E+02
  .282E+02  .282E+02  .282E+02  .282E+02  .282E+02  .282E+02  .282E+02  .282E+02
  .282E+02  .282E+02  .282E+02  .282E+02  .282E+02  .282E+02  .000E+00  .000E+00
  .000E+00  .000E+00  .000E+00  .000E+00  .000E+00  .000E+00  .000E+00  .000E+00
  .000E+00  .000E+00  .000E+00  .000E+00  .000E+00  .000E+00  .000E+00  .000E+00
  .000E+00  .000E+00  .000E+00  .000E+00
  .283E+02  .283E+02  .283E+02  .283E+02  .284E+02  .284E+02  .286E+02  .286E+02
  .286E+02  .283E+02  .286E+02  .286E+02  .283E+02  .283E+02  .284E+02  .284E+02
  .283E+02  .284E+02  .284E+02  .285E+02  .286E+02  .286E+02  .285E+02  .284E+02
  .284E+02  .283E+02  .283E+02  .283E+02  .283E+02  .283E+02  .283E+02  .288E+02
  .289E+02  .287E+02  .287E+02  .288E+02  .288E+02  .288E+02  .286E+02  .286E+02
  .286E+02  .282E+02  .282E+02  .282E+02  .282E+02  .282E+02  .282E+02  .282E+02
  .282E+02  .282E+02  .282E+02  .282E+02  .282E+02  .282E+02  .282E+02  .282E+02
  .282E+02  .282E+02  .282E+02  .282E+02  .282E+02  .282E+02  .282E+02  .282E+02
  .282E+02  .282E+02  .282E+02  .282E+02  .282E+02  .282E+02  .282E+02  .282E+02
  .282E+02  .282E+02  .282E+02  .282E+02  .282E+02  .282E+02  .000E+00  .000E+00
  .000E+00  .000E+00  .000E+00  .000E+00  .000E+00  .000E+00  .000E+00  .000E+00
  .000E+00  .000E+00  .000E+00  .000E+00  .000E+00  .000E+00  .000E+00  .000E+00
  .000E+00  .000E+00  .000E+00  .000E+00
  .282E+02  .282E+02  .282E+02  .282E+02  .282E+02  .282E+02  .282E+02  .282E+02
  .282E+02  .282E+02  .282E+02  .282E+02  .283E+02  .283E+02  .283E+02  .282E+02
  .283E+02  .284E+02  .284E+02  .284E+02  .287E+02  .285E+02  .285E+02  .285E+02
  .285E+02  .284E+02  .283E+02  .283E+02  .282E+02  .282E+02  .282E+02  .289E+02
  .288E+02  .288E+02  .288E+02  .287E+02  .287E+02  .287E+02  .287E+02  .287E+02
  .287E+02  .286E+02  .286E+02  .284E+02  .284E+02  .284E+02  .284E+02  .284E+02
  .284E+02  .284E+02  .281E+02  .281E+02  .281E+02  .281E+02  .281E+02  .281E+02
  .281E+02  .281E+02  .281E+02  .281E+02  .281E+02  .281E+02  .281E+02  .281E+02
  .281E+02  .281E+02  .281E+02  .281E+02  .281E+02  .281E+02  .281E+02  .281E+02
  .281E+02  .281E+02  .281E+02  .281E+02  .281E+02  .281E+02  .000E+00  .000E+00
  .000E+00  .000E+00  .000E+00  .000E+00  .000E+00  .000E+00  .000E+00  .000E+00
  .000E+00  .000E+00  .000E+00  .000E+00  .000E+00  .000E+00  .000E+00  .000E+00
  .000E+00  .000E+00  .000E+00  .000E+00
/&   ----------  End of spectral data for channel  1  ----------
Response and Fourier amplitude spectra (78 periods,  .04 -  6.0 sec)   for      
Corrected accelerogram   38695658.CI.WLT.--.HN      Chan  2: 360 Deg     from   
Uncorrected Accelerogram Data             Processed: 09/19/20, CGS  ciwlt--n    
Rcrd of Fri Sep 18, 2020 23:38:26.0 PDT               (Avol1 v2.0, 4/18 CSMIP)  
                                        (Origin:  To be determined)             
38695658.CI.WLT.--.HN                Start time:  9/19/20, 06:38:26.0 UTC (GPS) 
Station Id. WLT     34.009N, 117.951W    ObsMMS  s/n 4248  (3 Chns of  6 at Sta)
Hacienda Heights                         SCSN   Data: Acceleration              
Chan  2: 360 Deg                                                                
Rcrd of Fri Sep 18, 2020 23:38:26.0 PDT    Fri Sep 18, 2020 23:38:26.0 PDT      
Hypocenter:  To be determined.               ML:  To be determined.             
Instr Period =  .0050 sec,  Damping =  .707,  Sensitivity = 4.99 v/g  (Nominal) 
                        Record Length =301.000 sec.                             
                                     Uncor Max  =  -.082 g, at   28.210 sec.    
RMS accel of (uncor) record  =        .   Chn. metadata effective date:         
Accelerogram bandpass filtered with 3 dB pts at   .30 and 23.00 cyc/sec         
                 instrument- and base-line correcte                             
                                                                                
                                                                                
                                                                                
                                                                                
                                                                                
Rcrd of Fri Sep 18, 2020 23:38:26.0 PDT    Fri Sep 18, 2020 23:38:26.0 PDT      
                                                                                
38695658.CI.WLT.--.HN     Hacienda Heights    Chan  2: 360 Deg                  
                                                                                
38695658.CI.WLT.--.HN     Hacienda Heights    Chan  2: 360 Deg                  
                                                                                
Units for spectra are inches and sec, except Sa is in fraction of g.            
                                                                                
    2  100    2    6    6  100 -999    3    1    0   15 4248    050660   41    0
    6   38   26    8  263    9   19 2020   10    3  36035912   39   16   74 -999
35912 -999  100    6 -999 -999 -999 -999 -999 -999 -999 -999 -999 -999 -999 -999
 -999 -999 -999 -99915050    2 -999    0 -999   20 -999 -999    3    1 -99915050
    315050    4   78    1    3    5    0    0 -999    0 -999 -999    6 -999    2
    2    2    4 -999 -999 -999 -999 -999 -999 -999 -999    1 -999 -999 -999  111
    1    1 -999 -999
      .005      .707   359.120      .002     1.000  4993.665     -.082    28.210
   200.000     2.384      .477  -999.000    10.000  -999.000     4.000  -999.000
    20.000   -20.000      .000  -999.000  -999.000  -999.000  -999.000     -.001
      .000      .001     2.000    15.000    34.009  -117.951      .006      .006
     1.067      .000      .002   107.000  -999.000  -999.000  -999.000  -999.000
     1.000  -999.000  -999.000  -999.000  -999.000  -999.000  -999.000   120.000
     -.900     2.000     6.800   980.665      .020   301.000    31.831      .000
  -999.000    23.000  -999.000   301.000      .020      .300  -999.000  -999.000
    28.220   -75.105    28.240    -2.191    28.200      .135      .000      .300
    23.000      .020      .020      .000      .200      .045  -999.000  -999.000
      .212      .130      .106      .069      .005      .001  -999.000  -999.000
  -999.000  -999.000  -999.000  -999.000  -999.000  -999.000  -999.000  -999.000
  -999.000  -999.000  -999.000  -999.000
      .050
      .040      .042      .044      .046      .048      .050      .055      .060
      .065      .070      .075      .080      .085      .090      .095      .100
      .110      .120      .130      .140      .150      .160      .170      .180
      .190      .200      .220      .240      .260      .280      .300      .320
      .340      .360      .380      .400      .420      .440      .460      .480
      .500      .550      .600      .650      .700      .750      .800      .850
      .900      .950     1.000     1.100     1.200     1.300     1.400     1.500
     1.600     1.700     1.800     1.900     2.000     2.200     2.400     2.600
     2.800     3.000     3.200     3.400     3.600     3.800     4.000     4.200
     4.400     4.600     4.800     5.000     5.500     6.000      .000      .000
      .000      .000      .000      .000      .000      .000      .000      .000
      .000      .000      .000      .000      .000      .000      .000      .000
      .000      .000      .000      .000
Fourier amplitude spectra in in/sec.
  .000E+00  .000E+00  .000E+00  .000E+00  .000E+00  .000E+00  .000E+00  .000E+00
  .000E+00  .000E+00  .000E+00  .000E+00  .000E+00  .000E+00  .000E+00  .000E+00
  .000E+00  .000E+00  .000E+00  .000E+00  .000E+00  .000E+00  .000E+00  .000E+00
  .000E+00  .000E+00  .000E+00  .000E+00  .000E+00  .000E+00  .000E+00  .000E+00
  .000E+00  .000E+00  .000E+00  .000E+00  .000E+00  .000E+00  .000E+00  .000E+00
  .000E+00  .000E+00  .000E+00  .000E+00  .000E+00  .000E+00  .000E+00  .000E+00
  .000E+00  .000E+00  .000E+00  .000E+00  .000E+00  .000E+00  .000E+00  .000E+00
  .000E+00  .000E+00  .000E+00  .000E+00  .000E+00  .000E+00  .000E+00  .000E+00
  .000E+00  .000E+00  .000E+00  .000E+00  .000E+00  .000E+00  .000E+00  .000E+00
  .000E+00  .000E+00  .000E+00  .000E+00  .000E+00  .000E+00  .000E+00  .000E+00
  .000E+00  .000E+00  .000E+00  .000E+00  .000E+00  .000E+00  .000E+00  .000E+00
  .000E+00  .000E+00  .000E+00  .000E+00  .000E+00  .000E+00  .000E+00  .000E+00
  .000E+00  .000E+00  .000E+00  .000E+00
Damping =  .05. Data of Sd,Sv,Sa,Pssv,ttSd,ttSv,ttSa :
  .136E-02  .152E-02  .170E-02  .191E-02  .216E-02  .240E-02  .305E-02  .515E-02
  .601E-02  .669E-02  .662E-02  .685E-02  .757E-02  .856E-02  .976E-02  .127E-01
  .205E-01  .284E-01  .342E-01  .392E-01  .413E-01  .430E-01  .447E-01  .421E-01
  .411E-01  .398E-01  .470E-01  .396E-01  .489E-01  .572E-01  .604E-01  .629E-01
  .701E-01  .729E-01  .753E-01  .786E-01  .774E-01  .765E-01  .795E-01  .807E-01
