Response and Fourier amplitude spectra (78 periods,  .04 -  6.0 sec)   for      
Corrected accelerogram   38695658.CI.WLS2.--.H      Chan  1:  90 Deg     from   
Uncorrected Accelerogram Data             Processed: 09/19/20, CGS  ciwls2-b    
Rcrd of Fri Sep 18, 2020 23:38:34.0 PDT               (Avol1 v2.0, 4/18 CSMIP)  
                                        (Origin:  To be determined)             
38695658.CI.WLS2.--.H                Start time:  9/19/20, 06:38:34.0 UTC (GPS) 
Station Id. WLS2    34.579N, 117.719W    ObsMMS  s/n 1924  (3 Chns of  6 at Sta)
Wilsona 2                                SCSN   Data: Acceleration              
Chan  1:  90 Deg                                                                
Rcrd of Fri Sep 18, 2020 23:38:34.0 PDT    Fri Sep 18, 2020 23:38:34.0 PDT      
Hypocenter:  To be determined.               ML:  To be determined.             
Instr Period =  .0050 sec,  Damping =  .707,  Sensitivity = 4.98 v/g  (Nominal) 
                        Record Length =301.000 sec.                             
                                     Uncor Max  =   .005 g, at   34.480 sec.    
RMS accel of (uncor) record  =        .   Chn. metadata effective date:         
Accelerogram bandpass filtered with 3 dB pts at   .30 and 23.00 cyc/sec         
                 instrument- and base-line correcte                             
                                                                                
                                                                                
                                                                                
                                                                                
                                                                                
Rcrd of Fri Sep 18, 2020 23:38:34.0 PDT    Fri Sep 18, 2020 23:38:34.0 PDT      
                                                                                
38695658.CI.WLS2.--.H     Wilsona 2   Chan  1:  90 Deg                          
                                                                                
38695658.CI.WLS2.--.H     Wilsona 2   Chan  1:  90 Deg                          
                                                                                
Units for spectra are inches and sec, except Sa is in fraction of g.            
                                                                                
    1  100    1    6    6  100 -999    3    1    0   15 1924    0    0   41    0
    6   38   34   10  263    9   19 2020   10    3   9036003   39    9   74 -999
36003 -999  100    6 -999 -999 -999 -999 -999 -999 -999 -999 -999 -999 -999 -999
 -999 -999 -999 -99915050    2 -999    0 -999   20 -999 -999    3    1 -99915050
    315050    4   78    1    3    5    0    0 -999    0 -999 -999    6 -999    2
    2    2    4 -999 -999 -999 -999 -999 -999 -999 -999    1 -999 -999 -999  111
    1    1 -999 -999
      .005      .707   360.030      .000     1.000  4979.503      .005    34.480
   200.000     2.384      .479  -999.000    10.000  -999.000     4.000  -999.000
    20.000   -27.518      .000  -999.000  -999.000  -999.000  -999.000      .000
      .000      .000     2.000    15.000    34.579  -117.719      .003      .003
      .930      .000      .001   889.000  -999.000  -999.000  -999.000  -999.000
     1.000  -999.000    -8.000  -999.000  -999.000  -999.000  -999.000   120.000
     -.900     2.000     6.800   980.665      .020   301.000    31.831      .000
  -999.000    23.000  -999.000   301.000      .020      .300  -999.000  -999.000
    34.480     4.878    35.380      .171    36.260      .011      .000      .300
    23.000      .020      .020      .000      .020      .008  -999.000  -999.000
      .018      .140      .014      .009      .001      .000  -999.000  -999.000
  -999.000  -999.000  -999.000  -999.000  -999.000  -999.000  -999.000  -999.000
  -999.000  -999.000  -999.000  -999.000
      .050
      .040      .042      .044      .046      .048      .050      .055      .060
      .065      .070      .075      .080      .085      .090      .095      .100
      .110      .120      .130      .140      .150      .160      .170      .180
      .190      .200      .220      .240      .260      .280      .300      .320
      .340      .360      .380      .400      .420      .440      .460      .480
      .500      .550      .600      .650      .700      .750      .800      .850
      .900      .950     1.000     1.100     1.200     1.300     1.400     1.500
     1.600     1.700     1.800     1.900     2.000     2.200     2.400     2.600
     2.800     3.000     3.200     3.400     3.600     3.800     4.000     4.200
     4.400     4.600     4.800     5.000     5.500     6.000      .000      .000
      .000      .000      .000      .000      .000      .000      .000      .000
      .000      .000      .000      .000      .000      .000      .000      .000
      .000      .000      .000      .000
Fourier amplitude spectra in in/sec.
  .000E+00  .000E+00  .000E+00  .000E+00  .000E+00  .000E+00  .000E+00  .000E+00
  .000E+00  .000E+00  .000E+00  .000E+00  .000E+00  .000E+00  .000E+00  .000E+00
  .000E+00  .000E+00  .000E+00  .000E+00  .000E+00  .000E+00  .000E+00  .000E+00
  .000E+00  .000E+00  .000E+00  .000E+00  .000E+00  .000E+00  .000E+00  .000E+00
  .000E+00  .000E+00  .000E+00  .000E+00  .000E+00  .000E+00  .000E+00  .000E+00
  .000E+00  .000E+00  .000E+00  .000E+00  .000E+00  .000E+00  .000E+00  .000E+00
  .000E+00  .000E+00  .000E+00  .000E+00  .000E+00  .000E+00  .000E+00  .000E+00
  .000E+00  .000E+00  .000E+00  .000E+00  .000E+00  .000E+00  .000E+00  .000E+00
  .000E+00  .000E+00  .000E+00  .000E+00  .000E+00  .000E+00  .000E+00  .000E+00
  .000E+00  .000E+00  .000E+00  .000E+00  .000E+00  .000E+00  .000E+00  .000E+00
  .000E+00  .000E+00  .000E+00  .000E+00  .000E+00  .000E+00  .000E+00  .000E+00
  .000E+00  .000E+00  .000E+00  .000E+00  .000E+00  .000E+00  .000E+00  .000E+00
  .000E+00  .000E+00  .000E+00  .000E+00
Damping =  .05. Data of Sd,Sv,Sa,Pssv,ttSd,ttSv,ttSa :
  .833E-04  .941E-04  .107E-03  .121E-03  .136E-03  .151E-03  .187E-03  .276E-03
  .334E-03  .371E-03  .483E-03  .650E-03  .696E-03  .816E-03  .831E-03  .998E-03
  .145E-02  .195E-02  .233E-02  .339E-02  .332E-02  .400E-02  .480E-02  .473E-02
  .517E-02  .541E-02  .593E-02  .514E-02  .757E-02  .755E-02  .855E-02  .709E-02
  .720E-02  .780E-02  .827E-02  .751E-02  .651E-02  .611E-02  .610E-02  .691E-02
  .835E-02  .113E-01  .111E-01  .126E-01  .132E-01  .143E-01  .160E-01  .151E-01
  .152E-01  .154E-01  .134E-01  .909E-02  .657E-02  .763E-02  .825E-02  .911E-02
  .908E-02  .927E-02  .828E-02  .704E-02  .695E-02  .646E-02  .554E-02  .508E-02
  .477E-02  .445E-02  .441E-02  .437E-02  .434E-02  .433E-02  .436E-02  .440E-02
  .441E-02  .439E-02  .436E-02  .432E-02  .427E-02  .426E-02  .000E+00  .000E+00
  .000E+00  .000E+00  .000E+00  .000E+00  .000E+00  .000E+00  .000E+00  .000E+00
  .000E+00  .000E+00  .000E+00  .000E+00  .000E+00  .000E+00  .000E+00  .000E+00
  .000E+00  .000E+00  .000E+00  .000E+00
  .441E-02  .505E-02  .587E-02  .622E-02  .666E-02  .742E-02  .101E-01  .147E-01
  .210E-01  .269E-01  .365E-01  .447E-01  .437E-01  .511E-01  .529E-01  .520E-01
  .691E-01  .965E-01  .110E+00  .141E+00  .141E+00  .149E+00  .178E+00  .164E+00
  .176E+00  .173E+00  .173E+00  .142E+00  .170E+00  .186E+00  .193E+00  .161E+00
  .165E+00  .168E+00  .142E+00  .137E+00  .125E+00  .114E+00  .113E+00  .104E+00
  .103E+00  .132E+00  .125E+00  .134E+00  .158E+00  .128E+00  .143E+00  .149E+00
  .131E+00  .113E+00  .116E+00  .109E+00  .932E-01  .877E-01  .881E-01  .897E-01
  .896E-01  .878E-01  .839E-01  .800E-01  .771E-01  .719E-01  .690E-01  .682E-01
  .674E-01  .671E-01  .670E-01  .669E-01  .667E-01  .667E-01  .666E-01  .666E-01
  .666E-01  .665E-01  .665E-01  .664E-01  .662E-01  .661E-01  .000E+00  .000E+00
  .000E+00  .000E+00  .000E+00  .000E+00  .000E+00  .000E+00  .000E+00  .000E+00
  .000E+00  .000E+00  .000E+00  .000E+00  .000E+00  .000E+00  .000E+00  .000E+00
  .000E+00  .000E+00  .000E+00  .000E+00
  .535E-02  .544E-02  .563E-02  .585E-02  .607E-02  .616E-02  .632E-02  .789E-02
  .812E-02  .786E-02  .893E-02  .103E-01  .996E-02  .103E-01  .936E-02  .104E-01
  .123E-01  .139E-01  .140E-01  .177E-01  .150E-01  .161E-01  .170E-01  .149E-01
  .149E-01  .140E-01  .124E-01  .897E-02  .113E-01  .983E-02  .977E-02  .719E-02
  .642E-02  .613E-02  .593E-02  .486E-02  .382E-02  .323E-02  .298E-02  .306E-02
  .343E-02  .385E-02  .315E-02  .305E-02  .278E-02  .264E-02  .259E-02  .216E-02
  .195E-02  .176E-02  .140E-02  .775E-03  .476E-03  .475E-03  .438E-03  .428E-03
  .366E-03  .332E-03  .266E-03  .211E-03  .190E-03  .149E-03  .111E-03  .889E-04
  .738E-04  .617E-04  .537E-04  .476E-04  .427E-04  .388E-04  .357E-04  .330E-04
  .305E-04  .282E-04  .261E-04  .242E-04  .205E-04  .177E-04  .000E+00  .000E+00
  .000E+00  .000E+00  .000E+00  .000E+00  .000E+00  .000E+00  .000E+00  .000E+00
  .000E+00  .000E+00  .000E+00  .000E+00  .000E+00  .000E+00  .000E+00  .000E+00
  .000E+00  .000E+00  .000E+00  .000E+00
  .131E-01  .141E-01  .152E-01  .165E-01  .178E-01  .189E-01  .214E-01  .289E-01
  .323E-01  .333E-01  .405E-01  .510E-01  .514E-01  .569E-01  .549E-01  .627E-01
  .826E-01  .102E+00  .113E+00  .152E+00  .139E+00  .157E+00  .177E+00  .165E+00
  .171E+00  .170E+00  .169E+00  .135E+00  .183E+00  .170E+00  .179E+00  .139E+00
  .133E+00  .136E+00  .137E+00  .118E+00  .974E-01  .873E-01  .833E-01  .905E-01
  .105E+00  .130E+00  .116E+00  .121E+00  .118E+00  .120E+00  .126E+00  .112E+00
  .106E+00  .102E+00  .845E-01  .519E-01  .344E-01  .369E-01  .370E-01  .382E-01
  .357E-01  .342E-01  .289E-01  .233E-01  .218E-01  .185E-01  .145E-01  .123E-01
  .107E-01  .933E-02  .865E-02  .808E-02  .757E-02  .717E-02  .685E-02  .658E-02
  .629E-02  .599E-02  .571E-02  .543E-02  .488E-02  .447E-02  .000E+00  .000E+00
  .000E+00  .000E+00  .000E+00  .000E+00  .000E+00  .000E+00  .000E+00  .000E+00
  .000E+00  .000E+00  .000E+00  .000E+00  .000E+00  .000E+00  .000E+00  .000E+00
  .000E+00  .000E+00  .000E+00  .000E+00
  .345E+02  .345E+02  .345E+02  .345E+02  .345E+02  .345E+02  .345E+02  .345E+02
  .345E+02  .353E+02  .355E+02  .356E+02  .354E+02  .363E+02  .366E+02  .354E+02
  .354E+02  .356E+02  .361E+02  .377E+02  .348E+02  .380E+02  .363E+02  .341E+02
  .341E+02  .346E+02  .345E+02  .355E+02  .355E+02  .355E+02  .391E+02  .345E+02
  .346E+02  .344E+02  .345E+02  .345E+02  .425E+02  .430E+02  .430E+02  .433E+02
  .434E+02  .437E+02  .441E+02  .380E+02  .368E+02  .368E+02  .368E+02  .365E+02
  .354E+02  .354E+02  .354E+02  .355E+02  .355E+02  .383E+02  .379E+02  .379E+02
  .366E+02  .366E+02  .367E+02  .352E+02  .352E+02  .352E+02  .352E+02  .352E+02
  .352E+02  .352E+02  .362E+02  .362E+02  .362E+02  .362E+02  .362E+02  .362E+02
  .362E+02  .362E+02  .362E+02  .362E+02  .362E+02  .362E+02  .000E+00  .000E+00
  .000E+00  .000E+00  .000E+00  .000E+00  .000E+00  .000E+00  .000E+00  .000E+00
  .000E+00  .000E+00  .000E+00  .000E+00  .000E+00  .000E+00  .000E+00  .000E+00
  .000E+00  .000E+00  .000E+00  .000E+00
  .345E+02  .355E+02  .355E+02  .355E+02  .345E+02  .360E+02  .360E+02  .345E+02
  .348E+02  .348E+02  .355E+02  .355E+02  .354E+02  .366E+02  .366E+02  .354E+02
  .354E+02  .355E+02  .361E+02  .376E+02  .348E+02  .381E+02  .364E+02  .364E+02
  .340E+02  .345E+02  .346E+02  .345E+02  .354E+02  .354E+02  .391E+02  .385E+02
  .345E+02  .345E+02  .345E+02  .344E+02  .344E+02  .339E+02  .339E+02  .339E+02
  .432E+02  .441E+02  .436E+02  .385E+02  .379E+02  .370E+02  .367E+02  .367E+02
  .360E+02  .360E+02  .354E+02  .354E+02  .354E+02  .354E+02  .354E+02  .354E+02
  .354E+02  .354E+02  .354E+02  .354E+02  .354E+02  .354E+02  .354E+02  .354E+02
  .354E+02  .354E+02  .354E+02  .354E+02  .354E+02  .354E+02  .354E+02  .354E+02
  .354E+02  .354E+02  .354E+02  .354E+02  .354E+02  .354E+02  .000E+00  .000E+00
  .000E+00  .000E+00  .000E+00  .000E+00  .000E+00  .000E+00  .000E+00  .000E+00
  .000E+00  .000E+00  .000E+00  .000E+00  .000E+00  .000E+00  .000E+00  .000E+00
  .000E+00  .000E+00  .000E+00  .000E+00
  .345E+02  .345E+02  .345E+02  .345E+02  .345E+02  .345E+02  .345E+02  .345E+02
  .345E+02  .353E+02  .355E+02  .354E+02  .354E+02  .363E+02  .366E+02  .354E+02
  .354E+02  .356E+02  .361E+02  .377E+02  .348E+02  .380E+02  .363E+02  .341E+02
  .341E+02  .346E+02  .345E+02  .354E+02  .355E+02  .355E+02  .391E+02  .345E+02
  .346E+02  .344E+02  .344E+02  .345E+02  .425E+02  .430E+02  .430E+02  .433E+02
  .434E+02  .437E+02  .441E+02  .380E+02  .368E+02  .368E+02  .368E+02  .365E+02
  .354E+02  .354E+02  .354E+02  .355E+02  .369E+02  .383E+02  .378E+02  .379E+02
  .366E+02  .366E+02  .366E+02  .352E+02  .352E+02  .352E+02  .352E+02  .352E+02
  .352E+02  .352E+02  .352E+02  .352E+02  .362E+02  .362E+02  .362E+02  .362E+02
  .362E+02  .362E+02  .362E+02  .362E+02  .362E+02  .362E+02  .000E+00  .000E+00
  .000E+00  .000E+00  .000E+00  .000E+00  .000E+00  .000E+00  .000E+00  .000E+00
  .000E+00  .000E+00  .000E+00  .000E+00  .000E+00  .000E+00  .000E+00  .000E+00
  .000E+00  .000E+00  .000E+00  .000E+00
/&   ----------  End of spectral data for channel  1  ----------
Response and Fourier amplitude spectra (78 periods,  .04 -  6.0 sec)   for      
Corrected accelerogram   38695658.CI.WLS2.--.H      Chan  2: 360 Deg     from   
Uncorrected Accelerogram Data             Processed: 09/19/20, CGS  ciwls2-b    
Rcrd of Fri Sep 18, 2020 23:38:34.0 PDT               (Avol1 v2.0, 4/18 CSMIP)  
                                        (Origin:  To be determined)             
38695658.CI.WLS2.--.H                Start time:  9/19/20, 06:38:34.0 UTC (GPS) 
Station Id. WLS2    34.579N, 117.719W    ObsMMS  s/n 1924  (3 Chns of  6 at Sta)
Wilsona 2                                SCSN   Data: Acceleration              
Chan  2: 360 Deg                                                                
Rcrd of Fri Sep 18, 2020 23:38:34.0 PDT    Fri Sep 18, 2020 23:38:34.0 PDT      
Hypocenter:  To be determined.               ML:  To be determined.             
Instr Period =  .0050 sec,  Damping =  .707,  Sensitivity = 4.99 v/g  (Nominal) 
                        Record Length =301.000 sec.                             
                                     Uncor Max  =   .005 g, at   37.550 sec.    
RMS accel of (uncor) record  =        .   Chn. metadata effective date:         
Accelerogram bandpass filtered with 3 dB pts at   .30 and 23.00 cyc/sec         
                 instrument- and base-line correcte                             
                                                                                
                                                                                
                                                                                
                                                                                
                                                                                
Rcrd of Fri Sep 18, 2020 23:38:34.0 PDT    Fri Sep 18, 2020 23:38:34.0 PDT      
                                                                                
38695658.CI.WLS2.--.H     Wilsona 2   Chan  2: 360 Deg                          
                                                                                
38695658.CI.WLS2.--.H     Wilsona 2   Chan  2: 360 Deg                          
                                                                                
Units for spectra are inches and sec, except Sa is in fraction of g.            
                                                                                
    2  100    2    6    6  100 -999    3    1    0   15 1924    0    0   41    0
    6   38   34   10  263    9   19 2020   10    3  36035926   39    9   74 -999
35926 -999  100    6 -999 -999 -999 -999 -999 -999 -999 -999 -999 -999 -999 -999
 -999 -999 -999 -99915050    2 -999    0 -999   20 -999 -999    3    1 -99915050
    315050    4   78    1    3    5    0    0 -999    0 -999 -999    6 -999    2
    2    2    4 -999 -999 -999 -999 -999 -999 -999 -999    1 -999 -999 -999  111
    1    1 -999 -999
      .005      .707   359.260      .000     1.000  4987.482      .005    37.550
   200.000     2.384      .478  -999.000    10.000  -999.000     4.000  -999.000
    20.000     -.451      .000  -999.000  -999.000  -999.000  -999.000      .000
      .001      .001     2.000    15.000    34.579  -117.719      .003      .003
     1.058      .000      .002   889.000  -999.000  -999.000  -999.000  -999.000
     1.000  -999.000  -999.000  -999.000  -999.000  -999.000  -999.000   120.000
     -.900     2.000     6.800   980.665      .020   301.000    31.831      .000
  -999.000    23.000  -999.000   301.000      .020      .300  -999.000  -999.000
    37.540     5.052    37.580      .229    36.760     -.011      .000      .300
    23.000      .020      .020      .000      .020      .009  -999.000  -999.000
      .022      .140      .014      .009      .001      .000  -999.000  -999.000
  -999.000  -999.000  -999.000  -999.000  -999.000  -999.000  -999.000  -999.000
  -999.000  -999.000  -999.000  -999.000
      .050
      .040      .042      .044      .046      .048      .050      .055      .060
      .065      .070      .075      .080      .085      .090      .095      .100
      .110      .120      .130      .140      .150      .160      .170      .180
      .190      .200      .220      .240      .260      .280      .300      .320
      .340      .360      .380      .400      .420      .440      .460      .480
      .500      .550      .600      .650      .700      .750      .800      .850
      .900      .950     1.000     1.100     1.200     1.300     1.400     1.500
     1.600     1.700     1.800     1.900     2.000     2.200     2.400     2.600
     2.800     3.000     3.200     3.400     3.600     3.800     4.000     4.200
     4.400     4.600     4.800     5.000     5.500     6.000      .000      .000
      .000      .000      .000      .000      .000      .000      .000      .000
      .000      .000      .000      .000      .000      .000      .000      .000
      .000      .000      .000      .000
Fourier amplitude spectra in in/sec.
  .000E+00  .000E+00  .000E+00  .000E+00  .000E+00  .000E+00  .000E+00  .000E+00
  .000E+00  .000E+00  .000E+00  .000E+00  .000E+00  .000E+00  .000E+00  .000E+00
  .000E+00  .000E+00  .000E+00  .000E+00  .000E+00  .000E+00  .000E+00  .000E+00
  .000E+00  .000E+00  .000E+00  .000E+00  .000E+00  .000E+00  .000E+00  .000E+00
  .000E+00  .000E+00  .000E+00  .000E+00  .000E+00  .000E+00  .000E+00  .000E+00
  .000E+00  .000E+00  .000E+00  .000E+00  .000E+00  .000E+00  .000E+00  .000E+00
  .000E+00  .000E+00  .000E+00  .000E+00  .000E+00  .000E+00  .000E+00  .000E+00
  .000E+00  .000E+00  .000E+00  .000E+00  .000E+00  .000E+00  .000E+00  .000E+00
  .000E+00  .000E+00  .000E+00  .000E+00  .000E+00  .000E+00  .000E+00  .000E+00
  .000E+00  .000E+00  .000E+00  .000E+00  .000E+00  .000E+00  .000E+00  .000E+00
  .000E+00  .000E+00  .000E+00  .000E+00  .000E+00  .000E+00  .000E+00  .000E+00
  .000E+00  .000E+00  .000E+00  .000E+00  .000E+00  .000E+00  .000E+00  .000E+00
  .000E+00  .000E+00  .000E+00  .000E+00
Damping =  .05. Data of Sd,Sv,Sa,Pssv,ttSd,ttSv,ttSa :
  .853E-04  .947E-04  .105E-03  .117E-03  .131E-03  .152E-03  .199E-03  .237E-03
  .330E-03  .502E-03  .703E-03  .799E-03  .878E-03  .899E-03  .101E-02  .129E-02
  .168E-02  .233E-02  .300E-02  .413E-02  .457E-02  .538E-02  .492E-02  .510E-02
  .467E-02  .612E-02  .581E-02  .806E-02  .825E-02  .834E-02  .766E-02  .775E-02
  .667E-02  .791E-02  .868E-02  .735E-02  .718E-02  .670E-02  .775E-02  .981E-02
