Response and Fourier amplitude spectra (78 periods,  .04 -  6.0 sec)   for      
Corrected accelerogram   38695658.CI.WNS.00.HN      Chan  1:  90 Deg     from   
Uncorrected Accelerogram Data             Processed: 09/19/20, CGS  ciwns--d    
Rcrd of Fri Sep 18, 2020 23:38:30.0 PDT               (Avol1 v2.0, 4/18 CSMIP)  
                                        (Origin:  To be determined)             
38695658.CI.WNS.00.HN                Start time:  9/19/20, 06:38:30.0 UTC (GPS) 
Station Id. WNS     34.115N, 118.380W    Q330    s/n  654  (3 Chns of  6 at Sta)
West Hollywood, Laurel Canyon Blvd.      SCSN   Data: Acceleration              
Chan  1:  90 Deg                                                                
Rcrd of Fri Sep 18, 2020 23:38:30.0 PDT    Fri Sep 18, 2020 23:38:30.0 PDT      
Hypocenter:  To be determined.               ML:  To be determined.             
Instr Period =  .0050 sec,  Damping =  .707,  Sensitivity = 5.00 v/g  (Nominal) 
                        Record Length =301.000 sec.                             
                                     Uncor Max  =  -.016 g, at   26.360 sec.    
RMS accel of (uncor) record  =        .   Chn. metadata effective date:         
Accelerogram bandpass filtered with 3 dB pts at   .30 and 23.00 cyc/sec         
                 instrument- and base-line correcte                             
                                                                                
                                                                                
                                                                                
                                                                                
                                                                                
Rcrd of Fri Sep 18, 2020 23:38:30.0 PDT    Fri Sep 18, 2020 23:38:30.0 PDT      
                                                                                
38695658.CI.WNS.00.HN     West Hollywood, Laurel Canyon Blvd.   Chan  1:  90 Deg
                                                                                
38695658.CI.WNS.00.HN     West Hollywood, Laurel Canyon Blvd.   Chan  1:  90 Deg
                                                                                
Units for spectra are inches and sec, except Sa is in fraction of g.            
                                                                                
    1  100    1    6    6  100 -999    3    1   24  605  654    050661   41    0
    6   38   30    8  263    9   19 2020   10    3   9035866   39   35   74 -999
35866 -999  100    6 -999 -999 -999 -999 -999 -999 -999 -999 -999 -999 -999 -999
 -999 -999 -999 -99915050    2 -999    0 -999   20 -999 -999    3    1 -99915050
    315050    4   78    1    3    5    0    0 -999    0 -999 -999    6 -999    2
    2    2    4 -999 -999 -999 -999 -999 -999 -999 -999    1 -999 -999 -999  111
    1    1 -999 -999
      .005      .707   358.660      .000     1.000  4995.260     -.016    26.360
   200.000     2.384      .477  -999.000    10.000  -999.000     4.000  -999.000
    20.000    59.736    20.000  -999.000  -999.000  -999.000  -999.000     -.002
      .001      .003     2.000    15.000    34.115  -118.380      .001      .001
      .929      .003      .003   306.100  -999.000  -999.000  -999.000  -999.000
     1.000  -999.000    -8.000  -999.000  -999.000  -999.000  -999.000   120.000
     -.900     2.000     6.800   980.665      .020   301.000    31.831      .000
  -999.000    23.000  -999.000   301.000      .020      .300  -999.000  -999.000
    26.360   -15.689    26.320      .513    26.380      .035      .000      .300
    23.000      .020      .020      .000      .020      .007  -999.000  -999.000
      .056      .170      .037      .019      .002      .000  -999.000  -999.000
  -999.000  -999.000  -999.000  -999.000  -999.000  -999.000  -999.000  -999.000
  -999.000  -999.000  -999.000  -999.000
      .050
      .040      .042      .044      .046      .048      .050      .055      .060
      .065      .070      .075      .080      .085      .090      .095      .100
      .110      .120      .130      .140      .150      .160      .170      .180
      .190      .200      .220      .240      .260      .280      .300      .320
      .340      .360      .380      .400      .420      .440      .460      .480
      .500      .550      .600      .650      .700      .750      .800      .850
      .900      .950     1.000     1.100     1.200     1.300     1.400     1.500
     1.600     1.700     1.800     1.900     2.000     2.200     2.400     2.600
     2.800     3.000     3.200     3.400     3.600     3.800     4.000     4.200
     4.400     4.600     4.800     5.000     5.500     6.000      .000      .000
      .000      .000      .000      .000      .000      .000      .000      .000
      .000      .000      .000      .000      .000      .000      .000      .000
      .000      .000      .000      .000
Fourier amplitude spectra in in/sec.
  .000E+00  .000E+00  .000E+00  .000E+00  .000E+00  .000E+00  .000E+00  .000E+00
  .000E+00  .000E+00  .000E+00  .000E+00  .000E+00  .000E+00  .000E+00  .000E+00
  .000E+00  .000E+00  .000E+00  .000E+00  .000E+00  .000E+00  .000E+00  .000E+00
  .000E+00  .000E+00  .000E+00  .000E+00  .000E+00  .000E+00  .000E+00  .000E+00
  .000E+00  .000E+00  .000E+00  .000E+00  .000E+00  .000E+00  .000E+00  .000E+00
  .000E+00  .000E+00  .000E+00  .000E+00  .000E+00  .000E+00  .000E+00  .000E+00
  .000E+00  .000E+00  .000E+00  .000E+00  .000E+00  .000E+00  .000E+00  .000E+00
  .000E+00  .000E+00  .000E+00  .000E+00  .000E+00  .000E+00  .000E+00  .000E+00
  .000E+00  .000E+00  .000E+00  .000E+00  .000E+00  .000E+00  .000E+00  .000E+00
  .000E+00  .000E+00  .000E+00  .000E+00  .000E+00  .000E+00  .000E+00  .000E+00
  .000E+00  .000E+00  .000E+00  .000E+00  .000E+00  .000E+00  .000E+00  .000E+00
  .000E+00  .000E+00  .000E+00  .000E+00  .000E+00  .000E+00  .000E+00  .000E+00
  .000E+00  .000E+00  .000E+00  .000E+00
Damping =  .05. Data of Sd,Sv,Sa,Pssv,ttSd,ttSv,ttSa :
  .254E-03  .285E-03  .321E-03  .360E-03  .400E-03  .452E-03  .610E-03  .684E-03
  .802E-03  .109E-02  .131E-02  .145E-02  .164E-02  .180E-02  .204E-02  .236E-02
  .323E-02  .428E-02  .589E-02  .862E-02  .116E-01  .139E-01  .158E-01  .165E-01
  .163E-01  .146E-01  .127E-01  .130E-01  .143E-01  .163E-01  .171E-01  .171E-01
  .171E-01  .199E-01  .196E-01  .177E-01  .155E-01  .152E-01  .152E-01  .151E-01
  .146E-01  .138E-01  .150E-01  .176E-01  .178E-01  .182E-01  .168E-01  .168E-01
  .177E-01  .183E-01  .183E-01  .169E-01  .155E-01  .153E-01  .159E-01  .169E-01
  .180E-01  .188E-01  .191E-01  .189E-01  .185E-01  .175E-01  .167E-01  .162E-01
  .160E-01  .159E-01  .157E-01  .155E-01  .152E-01  .150E-01  .147E-01  .145E-01
  .143E-01  .141E-01  .140E-01  .139E-01  .137E-01  .136E-01  .000E+00  .000E+00
  .000E+00  .000E+00  .000E+00  .000E+00  .000E+00  .000E+00  .000E+00  .000E+00
  .000E+00  .000E+00  .000E+00  .000E+00  .000E+00  .000E+00  .000E+00  .000E+00
  .000E+00  .000E+00  .000E+00  .000E+00
  .116E-01  .129E-01  .149E-01  .156E-01  .173E-01  .198E-01  .282E-01  .429E-01
  .466E-01  .663E-01  .663E-01  .632E-01  .686E-01  .862E-01  .103E+00  .109E+00
  .127E+00  .181E+00  .260E+00  .365E+00  .470E+00  .543E+00  .563E+00  .584E+00
  .545E+00  .490E+00  .428E+00  .399E+00  .399E+00  .406E+00  .377E+00  .363E+00
  .362E+00  .351E+00  .353E+00  .337E+00  .321E+00  .304E+00  .294E+00  .287E+00
  .279E+00  .265E+00  .263E+00  .267E+00  .274E+00  .268E+00  .261E+00  .261E+00
  .262E+00  .260E+00  .255E+00  .247E+00  .238E+00  .231E+00  .226E+00  .223E+00
  .218E+00  .211E+00  .205E+00  .199E+00  .196E+00  .198E+00  .198E+00  .198E+00
  .198E+00  .198E+00  .198E+00  .198E+00  .198E+00  .198E+00  .198E+00  .198E+00
  .197E+00  .197E+00  .197E+00  .197E+00  .196E+00  .196E+00  .000E+00  .000E+00
  .000E+00  .000E+00  .000E+00  .000E+00  .000E+00  .000E+00  .000E+00  .000E+00
  .000E+00  .000E+00  .000E+00  .000E+00  .000E+00  .000E+00  .000E+00  .000E+00
  .000E+00  .000E+00  .000E+00  .000E+00
  .162E-01  .165E-01  .170E-01  .174E-01  .178E-01  .186E-01  .207E-01  .194E-01
  .194E-01  .226E-01  .237E-01  .233E-01  .234E-01  .226E-01  .232E-01  .240E-01
  .272E-01  .305E-01  .359E-01  .453E-01  .526E-01  .554E-01  .560E-01  .529E-01
  .462E-01  .380E-01  .278E-01  .230E-01  .216E-01  .215E-01  .201E-01  .168E-01
  .151E-01  .156E-01  .139E-01  .114E-01  .903E-02  .818E-02  .739E-02  .669E-02
  .604E-02  .466E-02  .429E-02  .429E-02  .374E-02  .334E-02  .270E-02  .242E-02
  .229E-02  .209E-02  .190E-02  .147E-02  .114E-02  .989E-03  .893E-03  .834E-03
  .789E-03  .737E-03  .675E-03  .609E-03  .546E-03  .439E-03  .364E-03  .312E-03
  .273E-03  .242E-03  .217E-03  .194E-03  .175E-03  .160E-03  .146E-03  .134E-03
  .124E-03  .115E-03  .108E-03  .101E-03  .873E-04  .770E-04  .000E+00  .000E+00
  .000E+00  .000E+00  .000E+00  .000E+00  .000E+00  .000E+00  .000E+00  .000E+00
  .000E+00  .000E+00  .000E+00  .000E+00  .000E+00  .000E+00  .000E+00  .000E+00
  .000E+00  .000E+00  .000E+00  .000E+00
  .399E-01  .427E-01  .458E-01  .492E-01  .524E-01  .568E-01  .697E-01  .716E-01
  .775E-01  .975E-01  .110E+00  .114E+00  .121E+00  .125E+00  .135E+00  .148E+00
  .185E+00  .224E+00  .285E+00  .387E+00  .486E+00  .547E+00  .584E+00  .576E+00
  .538E+00  .459E+00  .363E+00  .341E+00  .346E+00  .365E+00  .359E+00  .337E+00
  .316E+00  .347E+00  .325E+00  .278E+00  .232E+00  .217E+00  .207E+00  .197E+00
  .183E+00  .157E+00  .157E+00  .170E+00  .160E+00  .152E+00  .132E+00  .124E+00
  .123E+00  .121E+00  .115E+00  .968E-01  .809E-01  .739E-01  .711E-01  .706E-01
  .706E-01  .695E-01  .666E-01  .625E-01  .582E-01  .499E-01  .436E-01  .393E-01
  .360E-01  .333E-01  .309E-01  .286E-01  .265E-01  .248E-01  .232E-01  .217E-01
  .204E-01  .193E-01  .183E-01  .174E-01  .157E-01  .143E-01  .000E+00  .000E+00
  .000E+00  .000E+00  .000E+00  .000E+00  .000E+00  .000E+00  .000E+00  .000E+00
  .000E+00  .000E+00  .000E+00  .000E+00  .000E+00  .000E+00  .000E+00  .000E+00
  .000E+00  .000E+00  .000E+00  .000E+00
  .264E+02  .264E+02  .264E+02  .264E+02  .264E+02  .264E+02  .264E+02  .264E+02
  .265E+02  .264E+02  .264E+02  .264E+02  .264E+02  .264E+02  .264E+02  .264E+02
  .264E+02  .264E+02  .265E+02  .265E+02  .265E+02  .265E+02  .267E+02  .268E+02
  .268E+02  .268E+02  .265E+02  .265E+02  .264E+02  .264E+02  .264E+02  .264E+02
  .264E+02  .274E+02  .274E+02  .273E+02  .267E+02  .267E+02  .267E+02  .267E+02
  .267E+02  .267E+02  .278E+02  .278E+02  .276E+02  .273E+02  .273E+02  .266E+02
  .266E+02  .271E+02  .271E+02  .266E+02  .266E+02  .263E+02  .263E+02  .263E+02
  .263E+02  .263E+02  .263E+02  .263E+02  .264E+02  .264E+02  .264E+02  .264E+02
  .264E+02  .264E+02  .264E+02  .264E+02  .264E+02  .264E+02  .264E+02  .264E+02
  .264E+02  .264E+02  .264E+02  .264E+02  .264E+02  .264E+02  .000E+00  .000E+00
  .000E+00  .000E+00  .000E+00  .000E+00  .000E+00  .000E+00  .000E+00  .000E+00
  .000E+00  .000E+00  .000E+00  .000E+00  .000E+00  .000E+00  .000E+00  .000E+00
  .000E+00  .000E+00  .000E+00  .000E+00
  .264E+02  .263E+02  .263E+02  .263E+02  .263E+02  .263E+02  .265E+02  .265E+02
  .265E+02  .265E+02  .265E+02  .265E+02  .267E+02  .267E+02  .267E+02  .267E+02
  .265E+02  .265E+02  .265E+02  .265E+02  .265E+02  .265E+02  .265E+02  .267E+02
  .267E+02  .266E+02  .265E+02  .265E+02  .265E+02  .265E+02  .265E+02  .264E+02
  .264E+02  .264E+02  .273E+02  .264E+02  .264E+02  .264E+02  .264E+02  .264E+02
  .264E+02  .264E+02  .264E+02  .264E+02  .264E+02  .264E+02  .264E+02  .264E+02
  .264E+02  .264E+02  .264E+02  .264E+02  .264E+02  .264E+02  .264E+02  .264E+02
  .264E+02  .264E+02  .264E+02  .264E+02  .263E+02  .263E+02  .263E+02  .263E+02
  .263E+02  .263E+02  .263E+02  .263E+02  .263E+02  .263E+02  .263E+02  .263E+02
  .263E+02  .263E+02  .263E+02  .263E+02  .263E+02  .263E+02  .000E+00  .000E+00
  .000E+00  .000E+00  .000E+00  .000E+00  .000E+00  .000E+00  .000E+00  .000E+00
  .000E+00  .000E+00  .000E+00  .000E+00  .000E+00  .000E+00  .000E+00  .000E+00
  .000E+00  .000E+00  .000E+00  .000E+00
  .264E+02  .264E+02  .264E+02  .264E+02  .264E+02  .264E+02  .264E+02  .264E+02
  .264E+02  .264E+02  .264E+02  .264E+02  .264E+02  .264E+02  .264E+02  .264E+02
  .264E+02  .264E+02  .264E+02  .265E+02  .265E+02  .265E+02  .267E+02  .268E+02
  .268E+02  .268E+02  .265E+02  .265E+02  .264E+02  .264E+02  .264E+02  .264E+02
  .264E+02  .274E+02  .274E+02  .272E+02  .267E+02  .267E+02  .267E+02  .267E+02
  .267E+02  .267E+02  .278E+02  .278E+02  .276E+02  .273E+02  .273E+02  .266E+02
  .266E+02  .266E+02  .271E+02  .266E+02  .266E+02  .263E+02  .263E+02  .263E+02
  .263E+02  .263E+02  .263E+02  .263E+02  .263E+02  .263E+02  .263E+02  .263E+02
  .263E+02  .263E+02  .263E+02  .263E+02  .263E+02  .263E+02  .263E+02  .263E+02
  .263E+02  .263E+02  .263E+02  .263E+02  .263E+02  .263E+02  .000E+00  .000E+00
  .000E+00  .000E+00  .000E+00  .000E+00  .000E+00  .000E+00  .000E+00  .000E+00
  .000E+00  .000E+00  .000E+00  .000E+00  .000E+00  .000E+00  .000E+00  .000E+00
  .000E+00  .000E+00  .000E+00  .000E+00
/&   ----------  End of spectral data for channel  1  ----------
Response and Fourier amplitude spectra (78 periods,  .04 -  6.0 sec)   for      
Corrected accelerogram   38695658.CI.WNS.00.HN      Chan  2: 360 Deg     from   
Uncorrected Accelerogram Data             Processed: 09/19/20, CGS  ciwns--d    
Rcrd of Fri Sep 18, 2020 23:38:30.0 PDT               (Avol1 v2.0, 4/18 CSMIP)  
                                        (Origin:  To be determined)             
38695658.CI.WNS.00.HN                Start time:  9/19/20, 06:38:30.0 UTC (GPS) 
Station Id. WNS     34.115N, 118.380W    Q330    s/n  654  (3 Chns of  6 at Sta)
West Hollywood, Laurel Canyon Blvd.      SCSN   Data: Acceleration              
Chan  2: 360 Deg                                                                
Rcrd of Fri Sep 18, 2020 23:38:30.0 PDT    Fri Sep 18, 2020 23:38:30.0 PDT      
Hypocenter:  To be determined.               ML:  To be determined.             
Instr Period =  .0050 sec,  Damping =  .707,  Sensitivity = 4.99 v/g  (Nominal) 
                        Record Length =301.000 sec.                             
                                     Uncor Max  =   .007 g, at   26.590 sec.    
RMS accel of (uncor) record  =        .   Chn. metadata effective date:         
Accelerogram bandpass filtered with 3 dB pts at   .30 and 23.00 cyc/sec         
                 instrument- and base-line correcte                             
                                                                                
                                                                                
                                                                                
                                                                                
                                                                                
Rcrd of Fri Sep 18, 2020 23:38:30.0 PDT    Fri Sep 18, 2020 23:38:30.0 PDT      
                                                                                
38695658.CI.WNS.00.HN     West Hollywood, Laurel Canyon Blvd.   Chan  2: 360 Deg
                                                                                
38695658.CI.WNS.00.HN     West Hollywood, Laurel Canyon Blvd.   Chan  2: 360 Deg
                                                                                
Units for spectra are inches and sec, except Sa is in fraction of g.            
                                                                                
    2  100    2    6    6  100 -999    3    1   24  605  654    050661   41    0
    6   38   30    8  263    9   19 2020   10    3  36035424   39   35   74 -999
35424 -999  100    6 -999 -999 -999 -999 -999 -999 -999 -999 -999 -999 -999 -999
 -999 -999 -999 -99915050    2 -999    0 -999   20 -999 -999    3    1 -99915050
    315050    4   78    1    3    5    0    0 -999    0 -999 -999    6 -999    2
    2    2    4 -999 -999 -999 -999 -999 -999 -999 -999    1 -999 -999 -999  111
    1    1 -999 -999
      .005      .707   354.240      .000     1.000  4988.878      .007    26.590
   200.000     2.384      .478  -999.000    10.000  -999.000     4.000  -999.000
    20.000   -25.859    20.000  -999.000  -999.000  -999.000  -999.000      .000
      .000      .000     2.000    15.000    34.115  -118.380      .001      .001
      .986      .000      .000   306.100  -999.000  -999.000  -999.000  -999.000
     1.000  -999.000  -999.000  -999.000  -999.000  -999.000  -999.000   120.000
     -.900     2.000     6.800   980.665      .020   301.000    31.831      .000
  -999.000    23.000  -999.000   301.000      .020      .300  -999.000  -999.000
    26.320     7.166    26.260     -.275    26.600     -.022      .000      .300
    23.000      .020      .020      .000      .020      .006  -999.000  -999.000
      .031      .160      .020      .008      .002      .000  -999.000  -999.000
  -999.000  -999.000  -999.000  -999.000  -999.000  -999.000  -999.000  -999.000
  -999.000  -999.000  -999.000  -999.000
      .050
      .040      .042      .044      .046      .048      .050      .055      .060
      .065      .070      .075      .080      .085      .090      .095      .100
      .110      .120      .130      .140      .150      .160      .170      .180
      .190      .200      .220      .240      .260      .280      .300      .320
      .340      .360      .380      .400      .420      .440      .460      .480
      .500      .550      .600      .650      .700      .750      .800      .850
      .900      .950     1.000     1.100     1.200     1.300     1.400     1.500
     1.600     1.700     1.800     1.900     2.000     2.200     2.400     2.600
     2.800     3.000     3.200     3.400     3.600     3.800     4.000     4.200
     4.400     4.600     4.800     5.000     5.500     6.000      .000      .000
      .000      .000      .000      .000      .000      .000      .000      .000
      .000      .000      .000      .000      .000      .000      .000      .000
      .000      .000      .000      .000
Fourier amplitude spectra in in/sec.
  .000E+00  .000E+00  .000E+00  .000E+00  .000E+00  .000E+00  .000E+00  .000E+00
  .000E+00  .000E+00  .000E+00  .000E+00  .000E+00  .000E+00  .000E+00  .000E+00
  .000E+00  .000E+00  .000E+00  .000E+00  .000E+00  .000E+00  .000E+00  .000E+00
  .000E+00  .000E+00  .000E+00  .000E+00  .000E+00  .000E+00  .000E+00  .000E+00
  .000E+00  .000E+00  .000E+00  .000E+00  .000E+00  .000E+00  .000E+00  .000E+00
  .000E+00  .000E+00  .000E+00  .000E+00  .000E+00  .000E+00  .000E+00  .000E+00
  .000E+00  .000E+00  .000E+00  .000E+00  .000E+00  .000E+00  .000E+00  .000E+00
  .000E+00  .000E+00  .000E+00  .000E+00  .000E+00  .000E+00  .000E+00  .000E+00
  .000E+00  .000E+00  .000E+00  .000E+00  .000E+00  .000E+00  .000E+00  .000E+00
  .000E+00  .000E+00  .000E+00  .000E+00  .000E+00  .000E+00  .000E+00  .000E+00
  .000E+00  .000E+00  .000E+00  .000E+00  .000E+00  .000E+00  .000E+00  .000E+00
  .000E+00  .000E+00  .000E+00  .000E+00  .000E+00  .000E+00  .000E+00  .000E+00
  .000E+00  .000E+00  .000E+00  .000E+00
Damping =  .05. Data of Sd,Sv,Sa,Pssv,ttSd,ttSv,ttSa :
  .133E-03  .153E-03  .173E-03  .201E-03  .238E-03  .306E-03  .405E-03  .526E-03
  .743E-03  .843E-03  .911E-03  .759E-03  .954E-03  .120E-02  .134E-02  .161E-02
  .197E-02  .203E-02  .294E-02  .442E-02  .619E-02  .784E-02  .862E-02  .863E-02
  .855E-02  .763E-02  .666E-02  .654E-02  .607E-02  .574E-02  .775E-02  .835E-02
  .734E-02  .625E-02  .584E-02  .614E-02  .658E-02  .696E-02  .789E-02  .909E-02
