Response and Fourier amplitude spectra (78 periods,  .04 -  6.0 sec)   for      
Corrected accelerogram   38695658.CI.WSS.--.HN      Chan  1:  90 Deg     from   
Uncorrected Accelerogram Data             Processed: 09/19/20, CGS  ciwss--y    
Rcrd of Fri Sep 18, 2020 23:38:33.0 PDT               (Avol1 v2.0, 4/18 CSMIP)  
                                        (Origin:  To be determined)             
38695658.CI.WSS.--.HN                Start time:  9/19/20, 06:38:33.0 UTC (GPS) 
Station Id. WSS     34.172N, 118.650W    ObsMMS  s/n 3570  (3 Chns of  3 at Sta)
Hidden Hills, Valley Circle Blvd.        SCSN   Data: Acceleration              
Chan  1:  90 Deg                                                                
Rcrd of Fri Sep 18, 2020 23:38:33.0 PDT    Fri Sep 18, 2020 23:38:33.0 PDT      
Hypocenter:  To be determined.               ML:  To be determined.             
Instr Period =  .0050 sec,  Damping =  .707,  Sensitivity = 4.99 v/g  (Nominal) 
                        Record Length =301.000 sec.                             
                                     Uncor Max  =  -.021 g, at   31.660 sec.    
RMS accel of (uncor) record  =        .   Chn. metadata effective date:         
Accelerogram bandpass filtered with 3 dB pts at   .30 and 23.00 cyc/sec         
                 instrument- and base-line correcte                             
                                                                                
                                                                                
                                                                                
                                                                                
                                                                                
Rcrd of Fri Sep 18, 2020 23:38:33.0 PDT    Fri Sep 18, 2020 23:38:33.0 PDT      
                                                                                
38695658.CI.WSS.--.HN     Hidden Hills, Valley Circle Blvd.   Chan  1:  90 Deg  
                                                                                
38695658.CI.WSS.--.HN     Hidden Hills, Valley Circle Blvd.   Chan  1:  90 Deg  
                                                                                
Units for spectra are inches and sec, except Sa is in fraction of g.            
                                                                                
    1  100    1    3    3  100 -999    3    1    0   15 3570    050662   41    0
    6   38   33    8  263    9   19 2020   10    3   9035816   39   33   74 -999
35816 -999  100    6 -999 -999 -999 -999 -999 -999 -999 -999 -999 -999 -999 -999
 -999 -999 -999 -99915050    2 -999    0 -999   20 -999 -999    3    1 267915050
    315050    4   78    1    3    5    0    0 -999    0 -999 -999    6 -999    2
    2    2    4 -999 -999 -999 -999 -999 -999 -999 -999    1 -999 -999 -999  111
    1    1 -999 -999
      .005      .707   358.160      .001     1.000  4990.473     -.021    31.660
   200.000     2.384      .478  -999.000    10.000  -999.000     4.000  -999.000
    20.000    -3.258      .000  -999.000  -999.000  -999.000  -999.000     -.007
      .005      .012     2.000    15.000    34.172  -118.650      .009      .010
     1.097      .010      .014   316.000  -999.000  -999.000  -999.000  -999.000
     1.000  -999.000    -8.000  -999.000  -999.000  -999.000  -999.000   120.000
     -.900     2.000     6.800   980.665      .020   301.000    31.831     -.001
  -999.000    23.000  -999.000   301.000      .020      .300  -999.000  -999.000
    31.660   -20.453    31.700     -.643    31.780     -.046      .000      .300
    23.000      .020      .020      .000      .020      .031  -999.000  -999.000
      .070      .260      .044      .054      .003      .000  -999.000  -999.000
  -999.000  -999.000  -999.000  -999.000  -999.000  -999.000  -999.000  -999.000
  -999.000  -999.000  -999.000  -999.000
      .050
      .040      .042      .044      .046      .048      .050      .055      .060
      .065      .070      .075      .080      .085      .090      .095      .100
      .110      .120      .130      .140      .150      .160      .170      .180
      .190      .200      .220      .240      .260      .280      .300      .320
      .340      .360      .380      .400      .420      .440      .460      .480
      .500      .550      .600      .650      .700      .750      .800      .850
      .900      .950     1.000     1.100     1.200     1.300     1.400     1.500
     1.600     1.700     1.800     1.900     2.000     2.200     2.400     2.600
     2.800     3.000     3.200     3.400     3.600     3.800     4.000     4.200
     4.400     4.600     4.800     5.000     5.500     6.000      .000      .000
      .000      .000      .000      .000      .000      .000      .000      .000
      .000      .000      .000      .000      .000      .000      .000      .000
      .000      .000      .000      .000
Fourier amplitude spectra in in/sec.
  .000E+00  .000E+00  .000E+00  .000E+00  .000E+00  .000E+00  .000E+00  .000E+00
  .000E+00  .000E+00  .000E+00  .000E+00  .000E+00  .000E+00  .000E+00  .000E+00
  .000E+00  .000E+00  .000E+00  .000E+00  .000E+00  .000E+00  .000E+00  .000E+00
  .000E+00  .000E+00  .000E+00  .000E+00  .000E+00  .000E+00  .000E+00  .000E+00
  .000E+00  .000E+00  .000E+00  .000E+00  .000E+00  .000E+00  .000E+00  .000E+00
  .000E+00  .000E+00  .000E+00  .000E+00  .000E+00  .000E+00  .000E+00  .000E+00
  .000E+00  .000E+00  .000E+00  .000E+00  .000E+00  .000E+00  .000E+00  .000E+00
  .000E+00  .000E+00  .000E+00  .000E+00  .000E+00  .000E+00  .000E+00  .000E+00
  .000E+00  .000E+00  .000E+00  .000E+00  .000E+00  .000E+00  .000E+00  .000E+00
  .000E+00  .000E+00  .000E+00  .000E+00  .000E+00  .000E+00  .000E+00  .000E+00
  .000E+00  .000E+00  .000E+00  .000E+00  .000E+00  .000E+00  .000E+00  .000E+00
  .000E+00  .000E+00  .000E+00  .000E+00  .000E+00  .000E+00  .000E+00  .000E+00
  .000E+00  .000E+00  .000E+00  .000E+00
Damping =  .05. Data of Sd,Sv,Sa,Pssv,ttSd,ttSv,ttSa :
  .331E-03  .376E-03  .428E-03  .486E-03  .542E-03  .603E-03  .722E-03  .870E-03
  .124E-02  .144E-02  .195E-02  .264E-02  .305E-02  .322E-02  .352E-02  .422E-02
  .588E-02  .520E-02  .637E-02  .782E-02  .977E-02  .120E-01  .125E-01  .143E-01
  .146E-01  .149E-01  .241E-01  .352E-01  .457E-01  .465E-01  .472E-01  .470E-01
  .466E-01  .503E-01  .497E-01  .446E-01  .395E-01  .356E-01  .344E-01  .332E-01
  .331E-01  .348E-01  .324E-01  .331E-01  .370E-01  .457E-01  .446E-01  .372E-01
  .304E-01  .298E-01  .312E-01  .319E-01  .381E-01  .327E-01  .347E-01  .325E-01
  .328E-01  .324E-01  .320E-01  .276E-01  .254E-01  .221E-01  .216E-01  .209E-01
  .204E-01  .201E-01  .197E-01  .195E-01  .192E-01  .190E-01  .189E-01  .188E-01
  .188E-01  .188E-01  .188E-01  .187E-01  .186E-01  .185E-01  .000E+00  .000E+00
  .000E+00  .000E+00  .000E+00  .000E+00  .000E+00  .000E+00  .000E+00  .000E+00
  .000E+00  .000E+00  .000E+00  .000E+00  .000E+00  .000E+00  .000E+00  .000E+00
  .000E+00  .000E+00  .000E+00  .000E+00
  .169E-01  .183E-01  .206E-01  .245E-01  .289E-01  .333E-01  .427E-01  .549E-01
  .939E-01  .102E+00  .130E+00  .179E+00  .189E+00  .182E+00  .221E+00  .249E+00
  .270E+00  .254E+00  .258E+00  .305E+00  .352E+00  .404E+00  .396E+00  .478E+00
  .443E+00  .414E+00  .578E+00  .812E+00  .113E+01  .101E+01  .991E+00  .916E+00
  .861E+00  .931E+00  .849E+00  .761E+00  .658E+00  .600E+00  .542E+00  .509E+00
  .561E+00  .536E+00  .439E+00  .436E+00  .507E+00  .443E+00  .384E+00  .387E+00
  .351E+00  .330E+00  .322E+00  .349E+00  .305E+00  .294E+00  .283E+00  .273E+00
  .264E+00  .254E+00  .251E+00  .248E+00  .247E+00  .247E+00  .250E+00  .251E+00
  .251E+00  .251E+00  .251E+00  .251E+00  .251E+00  .251E+00  .251E+00  .251E+00
  .251E+00  .251E+00  .250E+00  .250E+00  .250E+00  .250E+00  .000E+00  .000E+00
  .000E+00  .000E+00  .000E+00  .000E+00  .000E+00  .000E+00  .000E+00  .000E+00
  .000E+00  .000E+00  .000E+00  .000E+00  .000E+00  .000E+00  .000E+00  .000E+00
  .000E+00  .000E+00  .000E+00  .000E+00
  .212E-01  .218E-01  .226E-01  .236E-01  .240E-01  .247E-01  .245E-01  .246E-01
  .298E-01  .303E-01  .354E-01  .426E-01  .436E-01  .407E-01  .395E-01  .435E-01
  .490E-01  .369E-01  .385E-01  .413E-01  .444E-01  .487E-01  .443E-01  .452E-01
  .414E-01  .380E-01  .512E-01  .617E-01  .702E-01  .605E-01  .538E-01  .469E-01
  .410E-01  .404E-01  .352E-01  .284E-01  .232E-01  .189E-01  .168E-01  .148E-01
  .137E-01  .120E-01  .926E-02  .810E-02  .775E-02  .839E-02  .715E-02  .532E-02
  .389E-02  .341E-02  .324E-02  .273E-02  .274E-02  .201E-02  .186E-02  .153E-02
  .132E-02  .115E-02  .101E-02  .790E-03  .653E-03  .533E-03  .448E-03  .380E-03
  .330E-03  .291E-03  .258E-03  .232E-03  .209E-03  .191E-03  .176E-03  .162E-03
  .151E-03  .141E-03  .132E-03  .124E-03  .108E-03  .946E-04  .000E+00  .000E+00
  .000E+00  .000E+00  .000E+00  .000E+00  .000E+00  .000E+00  .000E+00  .000E+00
  .000E+00  .000E+00  .000E+00  .000E+00  .000E+00  .000E+00  .000E+00  .000E+00
  .000E+00  .000E+00  .000E+00  .000E+00
  .520E-01  .562E-01  .612E-01  .664E-01  .710E-01  .758E-01  .825E-01  .911E-01
  .120E+00  .129E+00  .163E+00  .207E+00  .225E+00  .225E+00  .233E+00  .265E+00
  .336E+00  .272E+00  .308E+00  .351E+00  .409E+00  .473E+00  .462E+00  .501E+00
  .483E+00  .468E+00  .689E+00  .921E+00  .110E+01  .104E+01  .988E+00  .923E+00
  .862E+00  .878E+00  .822E+00  .701E+00  .591E+00  .509E+00  .470E+00  .434E+00
  .416E+00  .398E+00  .340E+00  .320E+00  .332E+00  .383E+00  .350E+00  .275E+00
  .212E+00  .197E+00  .196E+00  .182E+00  .200E+00  .158E+00  .156E+00  .136E+00
  .129E+00  .120E+00  .112E+00  .914E-01  .796E-01  .630E-01  .564E-01  .504E-01
  .458E-01  .421E-01  .388E-01  .360E-01  .335E-01  .314E-01  .297E-01  .282E-01
  .269E-01  .257E-01  .245E-01  .235E-01  .213E-01  .194E-01  .000E+00  .000E+00
  .000E+00  .000E+00  .000E+00  .000E+00  .000E+00  .000E+00  .000E+00  .000E+00
  .000E+00  .000E+00  .000E+00  .000E+00  .000E+00  .000E+00  .000E+00  .000E+00
  .000E+00  .000E+00  .000E+00  .000E+00
  .317E+02  .317E+02  .317E+02  .317E+02  .317E+02  .317E+02  .317E+02  .317E+02
  .342E+02  .342E+02  .343E+02  .342E+02  .342E+02  .342E+02  .332E+02  .329E+02
  .329E+02  .322E+02  .316E+02  .316E+02  .317E+02  .318E+02  .318E+02  .329E+02
  .330E+02  .318E+02  .318E+02  .318E+02  .330E+02  .318E+02  .319E+02  .320E+02
  .321E+02  .326E+02  .327E+02  .325E+02  .325E+02  .332E+02  .335E+02  .333E+02
  .353E+02  .342E+02  .324E+02  .342E+02  .340E+02  .337E+02  .338E+02  .338E+02
  .323E+02  .319E+02  .320E+02  .320E+02  .351E+02  .360E+02  .336E+02  .336E+02
  .584E+02  .577E+02  .578E+02  .571E+02  .571E+02  .318E+02  .318E+02  .318E+02
  .318E+02  .318E+02  .318E+02  .318E+02  .318E+02  .318E+02  .318E+02  .318E+02
  .318E+02  .318E+02  .318E+02  .318E+02  .318E+02  .318E+02  .000E+00  .000E+00
  .000E+00  .000E+00  .000E+00  .000E+00  .000E+00  .000E+00  .000E+00  .000E+00
  .000E+00  .000E+00  .000E+00  .000E+00  .000E+00  .000E+00  .000E+00  .000E+00
  .000E+00  .000E+00  .000E+00  .000E+00
  .342E+02  .342E+02  .329E+02  .329E+02  .329E+02  .317E+02  .322E+02  .341E+02
  .342E+02  .319E+02  .343E+02  .344E+02  .342E+02  .342E+02  .332E+02  .332E+02
  .329E+02  .322E+02  .316E+02  .349E+02  .317E+02  .317E+02  .318E+02  .331E+02
  .331E+02  .330E+02  .330E+02  .319E+02  .329E+02  .319E+02  .318E+02  .320E+02
  .328E+02  .327E+02  .326E+02  .326E+02  .326E+02  .325E+02  .325E+02  .325E+02
  .352E+02  .343E+02  .323E+02  .323E+02  .342E+02  .342E+02  .337E+02  .337E+02
  .330E+02  .316E+02  .316E+02  .352E+02  .352E+02  .343E+02  .318E+02  .318E+02
  .318E+02  .318E+02  .314E+02  .330E+02  .330E+02  .317E+02  .317E+02  .317E+02
  .317E+02  .317E+02  .317E+02  .317E+02  .317E+02  .317E+02  .317E+02  .317E+02
  .317E+02  .317E+02  .317E+02  .317E+02  .317E+02  .317E+02  .000E+00  .000E+00
  .000E+00  .000E+00  .000E+00  .000E+00  .000E+00  .000E+00  .000E+00  .000E+00
  .000E+00  .000E+00  .000E+00  .000E+00  .000E+00  .000E+00  .000E+00  .000E+00
  .000E+00  .000E+00  .000E+00  .000E+00
  .317E+02  .317E+02  .317E+02  .317E+02  .317E+02  .317E+02  .317E+02  .317E+02
  .342E+02  .342E+02  .343E+02  .342E+02  .342E+02  .342E+02  .332E+02  .329E+02
  .329E+02  .322E+02  .316E+02  .316E+02  .317E+02  .318E+02  .318E+02  .329E+02
  .330E+02  .330E+02  .318E+02  .318E+02  .330E+02  .318E+02  .320E+02  .320E+02
  .321E+02  .326E+02  .327E+02  .325E+02  .325E+02  .332E+02  .335E+02  .353E+02
  .353E+02  .342E+02  .324E+02  .342E+02  .340E+02  .337E+02  .337E+02  .338E+02
  .322E+02  .319E+02  .319E+02  .320E+02  .351E+02  .359E+02  .335E+02  .336E+02
  .583E+02  .576E+02  .577E+02  .570E+02  .571E+02  .317E+02  .317E+02  .317E+02
  .317E+02  .317E+02  .317E+02  .317E+02  .317E+02  .317E+02  .317E+02  .317E+02
  .317E+02  .317E+02  .317E+02  .317E+02  .317E+02  .317E+02  .000E+00  .000E+00
  .000E+00  .000E+00  .000E+00  .000E+00  .000E+00  .000E+00  .000E+00  .000E+00
  .000E+00  .000E+00  .000E+00  .000E+00  .000E+00  .000E+00  .000E+00  .000E+00
  .000E+00  .000E+00  .000E+00  .000E+00
/&   ----------  End of spectral data for channel  1  ----------
Response and Fourier amplitude spectra (78 periods,  .04 -  6.0 sec)   for      
Corrected accelerogram   38695658.CI.WSS.--.HN      Chan  2: 360 Deg     from   
Uncorrected Accelerogram Data             Processed: 09/19/20, CGS  ciwss--y    
Rcrd of Fri Sep 18, 2020 23:38:33.0 PDT               (Avol1 v2.0, 4/18 CSMIP)  
                                        (Origin:  To be determined)             
38695658.CI.WSS.--.HN                Start time:  9/19/20, 06:38:33.0 UTC (GPS) 
Station Id. WSS     34.172N, 118.650W    ObsMMS  s/n 3570  (3 Chns of  3 at Sta)
Hidden Hills, Valley Circle Blvd.        SCSN   Data: Acceleration              
Chan  2: 360 Deg                                                                
Rcrd of Fri Sep 18, 2020 23:38:33.0 PDT    Fri Sep 18, 2020 23:38:33.0 PDT      
Hypocenter:  To be determined.               ML:  To be determined.             
Instr Period =  .0050 sec,  Damping =  .707,  Sensitivity = 4.99 v/g  (Nominal) 
                        Record Length =301.000 sec.                             
                                     Uncor Max  =  -.021 g, at   31.580 sec.    
RMS accel of (uncor) record  =        .   Chn. metadata effective date:         
Accelerogram bandpass filtered with 3 dB pts at   .30 and 23.00 cyc/sec         
                 instrument- and base-line correcte                             
                                                                                
                                                                                
                                                                                
                                                                                
                                                                                
Rcrd of Fri Sep 18, 2020 23:38:33.0 PDT    Fri Sep 18, 2020 23:38:33.0 PDT      
                                                                                
38695658.CI.WSS.--.HN     Hidden Hills, Valley Circle Blvd.   Chan  2: 360 Deg  
                                                                                
38695658.CI.WSS.--.HN     Hidden Hills, Valley Circle Blvd.   Chan  2: 360 Deg  
                                                                                
Units for spectra are inches and sec, except Sa is in fraction of g.            
                                                                                
    2  100    2    3    3  100 -999    3    1    0   15 3570    050662   41    0
    6   38   33    8  263    9   19 2020   10    3  36035749   39   33   74 -999
35749 -999  100    6 -999 -999 -999 -999 -999 -999 -999 -999 -999 -999 -999 -999
 -999 -999 -999 -99915050    2 -999    0 -999   20 -999 -999    3    1 267915050
    315050    4   78    1    3    5    0    0 -999    0 -999 -999    6 -999    2
    2    2    4 -999 -999 -999 -999 -999 -999 -999 -999    1 -999 -999 -999  111
    1    1 -999 -999
      .005      .707   357.490      .001     1.000  4985.686     -.021    31.580
   200.000     2.384      .478  -999.000    10.000  -999.000     4.000  -999.000
    20.000    -5.467      .000  -999.000  -999.000  -999.000  -999.000      .001
     -.001     -.002     2.000    15.000    34.172  -118.650      .011      .011
     1.033     -.004      .000   316.000  -999.000  -999.000  -999.000  -999.000
     1.000  -999.000  -999.000  -999.000  -999.000  -999.000  -999.000   120.000
     -.900     2.000     6.800   980.665      .020   301.000    31.831      .000
  -999.000    23.000  -999.000   301.000      .020      .300  -999.000  -999.000
    31.580   -20.543    31.520     1.127    31.600      .059      .000      .300
    23.000      .020      .020      .000      .020      .030  -999.000  -999.000
      .076      .240      .056      .055      .003      .000  -999.000  -999.000
  -999.000  -999.000  -999.000  -999.000  -999.000  -999.000  -999.000  -999.000
  -999.000  -999.000  -999.000  -999.000
      .050
      .040      .042      .044      .046      .048      .050      .055      .060
      .065      .070      .075      .080      .085      .090      .095      .100
      .110      .120      .130      .140      .150      .160      .170      .180
      .190      .200      .220      .240      .260      .280      .300      .320
      .340      .360      .380      .400      .420      .440      .460      .480
      .500      .550      .600      .650      .700      .750      .800      .850
      .900      .950     1.000     1.100     1.200     1.300     1.400     1.500
     1.600     1.700     1.800     1.900     2.000     2.200     2.400     2.600
     2.800     3.000     3.200     3.400     3.600     3.800     4.000     4.200
     4.400     4.600     4.800     5.000     5.500     6.000      .000      .000
      .000      .000      .000      .000      .000      .000      .000      .000
      .000      .000      .000      .000      .000      .000      .000      .000
      .000      .000      .000      .000
Fourier amplitude spectra in in/sec.
  .000E+00  .000E+00  .000E+00  .000E+00  .000E+00  .000E+00  .000E+00  .000E+00
  .000E+00  .000E+00  .000E+00  .000E+00  .000E+00  .000E+00  .000E+00  .000E+00
  .000E+00  .000E+00  .000E+00  .000E+00  .000E+00  .000E+00  .000E+00  .000E+00
  .000E+00  .000E+00  .000E+00  .000E+00  .000E+00  .000E+00  .000E+00  .000E+00
  .000E+00  .000E+00  .000E+00  .000E+00  .000E+00  .000E+00  .000E+00  .000E+00
  .000E+00  .000E+00  .000E+00  .000E+00  .000E+00  .000E+00  .000E+00  .000E+00
  .000E+00  .000E+00  .000E+00  .000E+00  .000E+00  .000E+00  .000E+00  .000E+00
  .000E+00  .000E+00  .000E+00  .000E+00  .000E+00  .000E+00  .000E+00  .000E+00
  .000E+00  .000E+00  .000E+00  .000E+00  .000E+00  .000E+00  .000E+00  .000E+00
  .000E+00  .000E+00  .000E+00  .000E+00  .000E+00  .000E+00  .000E+00  .000E+00
  .000E+00  .000E+00  .000E+00  .000E+00  .000E+00  .000E+00  .000E+00  .000E+00
  .000E+00  .000E+00  .000E+00  .000E+00  .000E+00  .000E+00  .000E+00  .000E+00
  .000E+00  .000E+00  .000E+00  .000E+00
Damping =  .05. Data of Sd,Sv,Sa,Pssv,ttSd,ttSv,ttSa :
  .334E-03  .372E-03  .412E-03  .445E-03  .473E-03  .519E-03  .655E-03  .789E-03
  .105E-02  .138E-02  .175E-02  .192E-02  .245E-02  .327E-02  .366E-02  .432E-02
  .554E-02  .577E-02  .727E-02  .720E-02  .793E-02  .784E-02  .999E-02  .123E-01
  .152E-01  .210E-01  .338E-01  .436E-01  .466E-01  .436E-01  .466E-01  .536E-01
  .618E-01  .645E-01  .663E-01  .660E-01  .644E-01  .626E-01  .595E-01  .555E-01
