Response and Fourier amplitude spectra (78 periods,  .04 -  6.0 sec)   for      
Corrected accelerogram   38695658.CI.WTT2.--.H      Chan  1:  90 Deg     from   
Uncorrected Accelerogram Data             Processed: 09/19/20, CGS  ciwtt2-m    
Rcrd of Fri Sep 18, 2020 23:38:27.0 PDT               (Avol1 v2.0, 4/18 CSMIP)  
                                        (Origin:  To be determined)             
38695658.CI.WTT2.--.H                Start time:  9/19/20, 06:38:27.0 UTC (GPS) 
Station Id. WTT2    33.949N, 118.255W    ObsMMS  s/n 4312  (3 Chns of  6 at Sta)
Watts                                    SCSN   Data: Acceleration              
Chan  1:  90 Deg                                                                
Rcrd of Fri Sep 18, 2020 23:38:27.0 PDT    Fri Sep 18, 2020 23:38:27.0 PDT      
Hypocenter:  To be determined.               ML:  To be determined.             
Instr Period =  .0050 sec,  Damping =  .707,  Sensitivity = 4.99 v/g  (Nominal) 
                        Record Length =301.000 sec.                             
                                     Uncor Max  =  -.024 g, at   29.520 sec.    
RMS accel of (uncor) record  =        .   Chn. metadata effective date:         
Accelerogram bandpass filtered with 3 dB pts at   .30 and 23.00 cyc/sec         
                 instrument- and base-line correcte                             
                                                                                
                                                                                
                                                                                
                                                                                
                                                                                
Rcrd of Fri Sep 18, 2020 23:38:27.0 PDT    Fri Sep 18, 2020 23:38:27.0 PDT      
                                                                                
38695658.CI.WTT2.--.H     Watts   Chan  1:  90 Deg                              
                                                                                
38695658.CI.WTT2.--.H     Watts   Chan  1:  90 Deg                              
                                                                                
Units for spectra are inches and sec, except Sa is in fraction of g.            
                                                                                
    1  100    1    6    6  100 -999    3    1    0   15 4312    0    0   41    0
    6   38   27    8  263    9   19 2020   10    3   9035723   39    5   74 -999
35723 -999  100    6 -999 -999 -999 -999 -999 -999 -999 -999 -999 -999 -999 -999
 -999 -999 -999 -99915050    2 -999    0 -999   20 -999 -999    3    1 -99915050
    315050    4   78    1    3    5    0    0 -999    0 -999 -999    6 -999    2
    2    2    4 -999 -999 -999 -999 -999 -999 -999 -999    1 -999 -999 -999  111
    1    1 -999 -999
      .005      .707   357.230      .001     1.000  4994.462     -.024    29.520
   200.000     2.384      .477  -999.000    10.000  -999.000     4.000  -999.000
    20.000   -18.272      .000  -999.000  -999.000  -999.000  -999.000      .002
      .000     -.002     2.000    15.000    33.949  -118.255      .012      .009
      .749     -.004      .000    37.000  -999.000  -999.000  -999.000  -999.000
     1.000  -999.000    -8.000  -999.000  -999.000  -999.000  -999.000   120.000
     -.900     2.000     6.800   980.665      .020   301.000    31.831      .000
  -999.000    23.000  -999.000   301.000      .020      .300  -999.000  -999.000
    29.520   -23.016    29.880     -.965    29.820      .067      .000      .300
    23.000      .020      .020      .000      .020      .038  -999.000  -999.000
      .103      .160      .052      .056      .005      .000  -999.000  -999.000
  -999.000  -999.000  -999.000  -999.000  -999.000  -999.000  -999.000  -999.000
  -999.000  -999.000  -999.000  -999.000
      .050
      .040      .042      .044      .046      .048      .050      .055      .060
      .065      .070      .075      .080      .085      .090      .095      .100
      .110      .120      .130      .140      .150      .160      .170      .180
      .190      .200      .220      .240      .260      .280      .300      .320
      .340      .360      .380      .400      .420      .440      .460      .480
      .500      .550      .600      .650      .700      .750      .800      .850
      .900      .950     1.000     1.100     1.200     1.300     1.400     1.500
     1.600     1.700     1.800     1.900     2.000     2.200     2.400     2.600
     2.800     3.000     3.200     3.400     3.600     3.800     4.000     4.200
     4.400     4.600     4.800     5.000     5.500     6.000      .000      .000
      .000      .000      .000      .000      .000      .000      .000      .000
      .000      .000      .000      .000      .000      .000      .000      .000
      .000      .000      .000      .000
Fourier amplitude spectra in in/sec.
  .000E+00  .000E+00  .000E+00  .000E+00  .000E+00  .000E+00  .000E+00  .000E+00
  .000E+00  .000E+00  .000E+00  .000E+00  .000E+00  .000E+00  .000E+00  .000E+00
  .000E+00  .000E+00  .000E+00  .000E+00  .000E+00  .000E+00  .000E+00  .000E+00
  .000E+00  .000E+00  .000E+00  .000E+00  .000E+00  .000E+00  .000E+00  .000E+00
  .000E+00  .000E+00  .000E+00  .000E+00  .000E+00  .000E+00  .000E+00  .000E+00
  .000E+00  .000E+00  .000E+00  .000E+00  .000E+00  .000E+00  .000E+00  .000E+00
  .000E+00  .000E+00  .000E+00  .000E+00  .000E+00  .000E+00  .000E+00  .000E+00
  .000E+00  .000E+00  .000E+00  .000E+00  .000E+00  .000E+00  .000E+00  .000E+00
  .000E+00  .000E+00  .000E+00  .000E+00  .000E+00  .000E+00  .000E+00  .000E+00
  .000E+00  .000E+00  .000E+00  .000E+00  .000E+00  .000E+00  .000E+00  .000E+00
  .000E+00  .000E+00  .000E+00  .000E+00  .000E+00  .000E+00  .000E+00  .000E+00
  .000E+00  .000E+00  .000E+00  .000E+00  .000E+00  .000E+00  .000E+00  .000E+00
  .000E+00  .000E+00  .000E+00  .000E+00
Damping =  .05. Data of Sd,Sv,Sa,Pssv,ttSd,ttSv,ttSa :
  .398E-03  .456E-03  .508E-03  .570E-03  .631E-03  .737E-03  .908E-03  .116E-02
  .126E-02  .149E-02  .182E-02  .224E-02  .273E-02  .334E-02  .379E-02  .390E-02
  .471E-02  .737E-02  .106E-01  .144E-01  .211E-01  .255E-01  .257E-01  .230E-01
  .214E-01  .188E-01  .209E-01  .242E-01  .317E-01  .414E-01  .497E-01  .573E-01
  .549E-01  .481E-01  .506E-01  .407E-01  .402E-01  .396E-01  .331E-01  .346E-01
  .346E-01  .305E-01  .353E-01  .344E-01  .319E-01  .327E-01  .367E-01  .403E-01
  .375E-01  .395E-01  .481E-01  .588E-01  .575E-01  .355E-01  .343E-01  .379E-01
  .398E-01  .453E-01  .485E-01  .391E-01  .351E-01  .314E-01  .352E-01  .394E-01
  .369E-01  .327E-01  .320E-01  .318E-01  .311E-01  .308E-01  .304E-01  .301E-01
  .298E-01  .295E-01  .293E-01  .290E-01  .284E-01  .280E-01  .000E+00  .000E+00
  .000E+00  .000E+00  .000E+00  .000E+00  .000E+00  .000E+00  .000E+00  .000E+00
  .000E+00  .000E+00  .000E+00  .000E+00  .000E+00  .000E+00  .000E+00  .000E+00
  .000E+00  .000E+00  .000E+00  .000E+00
  .212E-01  .245E-01  .296E-01  .353E-01  .363E-01  .374E-01  .473E-01  .701E-01
  .869E-01  .926E-01  .108E+00  .122E+00  .139E+00  .160E+00  .176E+00  .177E+00
  .166E+00  .281E+00  .400E+00  .554E+00  .800E+00  .967E+00  .945E+00  .797E+00
  .725E+00  .626E+00  .547E+00  .578E+00  .734E+00  .924E+00  .108E+01  .110E+01
  .104E+01  .991E+00  .885E+00  .676E+00  .643E+00  .615E+00  .521E+00  .529E+00
  .532E+00  .418E+00  .434E+00  .424E+00  .419E+00  .432E+00  .440E+00  .441E+00
  .440E+00  .435E+00  .466E+00  .453E+00  .448E+00  .451E+00  .450E+00  .450E+00
  .449E+00  .449E+00  .447E+00  .444E+00  .441E+00  .432E+00  .423E+00  .415E+00
  .407E+00  .400E+00  .394E+00  .390E+00  .387E+00  .384E+00  .381E+00  .380E+00
  .378E+00  .377E+00  .376E+00  .375E+00  .374E+00  .373E+00  .000E+00  .000E+00
  .000E+00  .000E+00  .000E+00  .000E+00  .000E+00  .000E+00  .000E+00  .000E+00
  .000E+00  .000E+00  .000E+00  .000E+00  .000E+00  .000E+00  .000E+00  .000E+00
  .000E+00  .000E+00  .000E+00  .000E+00
  .254E-01  .264E-01  .269E-01  .278E-01  .281E-01  .303E-01  .308E-01  .328E-01
  .304E-01  .311E-01  .333E-01  .356E-01  .389E-01  .423E-01  .429E-01  .402E-01
  .401E-01  .527E-01  .639E-01  .747E-01  .959E-01  .103E+00  .922E-01  .731E-01
  .617E-01  .488E-01  .453E-01  .432E-01  .489E-01  .545E-01  .573E-01  .571E-01
  .492E-01  .384E-01  .363E-01  .263E-01  .236E-01  .210E-01  .162E-01  .156E-01
  .143E-01  .105E-01  .101E-01  .833E-02  .669E-02  .599E-02  .591E-02  .574E-02
  .476E-02  .451E-02  .495E-02  .504E-02  .415E-02  .219E-02  .181E-02  .177E-02
  .164E-02  .165E-02  .157E-02  .115E-02  .908E-03  .697E-03  .641E-03  .631E-03
  .526E-03  .416E-03  .374E-03  .337E-03  .304E-03  .275E-03  .251E-03  .229E-03
  .210E-03  .194E-03  .180E-03  .167E-03  .142E-03  .124E-03  .000E+00  .000E+00
  .000E+00  .000E+00  .000E+00  .000E+00  .000E+00  .000E+00  .000E+00  .000E+00
  .000E+00  .000E+00  .000E+00  .000E+00  .000E+00  .000E+00  .000E+00  .000E+00
  .000E+00  .000E+00  .000E+00  .000E+00
  .625E-01  .682E-01  .726E-01  .779E-01  .826E-01  .926E-01  .104E+00  .122E+00
  .121E+00  .134E+00  .152E+00  .176E+00  .201E+00  .234E+00  .251E+00  .245E+00
  .269E+00  .386E+00  .512E+00  .646E+00  .886E+00  .100E+01  .950E+00  .801E+00
  .709E+00  .592E+00  .597E+00  .634E+00  .765E+00  .928E+00  .104E+01  .112E+01
  .102E+01  .840E+00  .836E+00  .639E+00  .602E+00  .565E+00  .451E+00  .453E+00
  .434E+00  .348E+00  .370E+00  .332E+00  .286E+00  .274E+00  .288E+00  .298E+00
  .262E+00  .261E+00  .302E+00  .336E+00  .301E+00  .172E+00  .154E+00  .159E+00
  .156E+00  .167E+00  .169E+00  .129E+00  .110E+00  .897E-01  .923E-01  .952E-01
  .828E-01  .684E-01  .628E-01  .587E-01  .542E-01  .509E-01  .478E-01  .451E-01
  .426E-01  .403E-01  .383E-01  .364E-01  .324E-01  .293E-01  .000E+00  .000E+00
  .000E+00  .000E+00  .000E+00  .000E+00  .000E+00  .000E+00  .000E+00  .000E+00
  .000E+00  .000E+00  .000E+00  .000E+00  .000E+00  .000E+00  .000E+00  .000E+00
  .000E+00  .000E+00  .000E+00  .000E+00
  .298E+02  .298E+02  .298E+02  .295E+02  .298E+02  .298E+02  .294E+02  .294E+02
  .294E+02  .298E+02  .295E+02  .295E+02  .295E+02  .295E+02  .295E+02  .295E+02
  .298E+02  .295E+02  .295E+02  .295E+02  .298E+02  .299E+02  .300E+02  .296E+02
  .297E+02  .297E+02  .300E+02  .300E+02  .300E+02  .300E+02  .300E+02  .304E+02
  .304E+02  .301E+02  .399E+02  .399E+02  .399E+02  .399E+02  .399E+02  .400E+02
  .365E+02  .301E+02  .301E+02  .409E+02  .409E+02  .299E+02  .400E+02  .400E+02
  .400E+02  .402E+02  .402E+02  .398E+02  .398E+02  .306E+02  .300E+02  .398E+02
  .398E+02  .398E+02  .408E+02  .408E+02  .458E+02  .303E+02  .441E+02  .408E+02
  .398E+02  .398E+02  .398E+02  .398E+02  .298E+02  .298E+02  .298E+02  .298E+02
  .298E+02  .298E+02  .298E+02  .298E+02  .298E+02  .298E+02  .000E+00  .000E+00
  .000E+00  .000E+00  .000E+00  .000E+00  .000E+00  .000E+00  .000E+00  .000E+00
  .000E+00  .000E+00  .000E+00  .000E+00  .000E+00  .000E+00  .000E+00  .000E+00
  .000E+00  .000E+00  .000E+00  .000E+00
  .299E+02  .293E+02  .295E+02  .295E+02  .295E+02  .299E+02  .294E+02  .295E+02
  .295E+02  .295E+02  .295E+02  .295E+02  .295E+02  .295E+02  .298E+02  .298E+02
  .298E+02  .295E+02  .295E+02  .296E+02  .299E+02  .299E+02  .299E+02  .296E+02
  .296E+02  .296E+02  .299E+02  .299E+02  .299E+02  .299E+02  .300E+02  .303E+02
  .302E+02  .299E+02  .400E+02  .400E+02  .400E+02  .399E+02  .399E+02  .399E+02
  .399E+02  .294E+02  .364E+02  .301E+02  .301E+02  .299E+02  .299E+02  .399E+02
  .399E+02  .299E+02  .399E+02  .399E+02  .299E+02  .299E+02  .299E+02  .299E+02
  .299E+02  .299E+02  .299E+02  .299E+02  .299E+02  .299E+02  .299E+02  .299E+02
  .299E+02  .299E+02  .299E+02  .299E+02  .299E+02  .299E+02  .299E+02  .299E+02
  .299E+02  .299E+02  .299E+02  .299E+02  .299E+02  .299E+02  .000E+00  .000E+00
  .000E+00  .000E+00  .000E+00  .000E+00  .000E+00  .000E+00  .000E+00  .000E+00
  .000E+00  .000E+00  .000E+00  .000E+00  .000E+00  .000E+00  .000E+00  .000E+00
  .000E+00  .000E+00  .000E+00  .000E+00
  .298E+02  .298E+02  .298E+02  .295E+02  .298E+02  .298E+02  .294E+02  .294E+02
  .294E+02  .298E+02  .295E+02  .295E+02  .295E+02  .295E+02  .295E+02  .298E+02
  .298E+02  .295E+02  .295E+02  .298E+02  .298E+02  .299E+02  .300E+02  .296E+02
  .297E+02  .297E+02  .300E+02  .362E+02  .300E+02  .300E+02  .300E+02  .304E+02
  .304E+02  .301E+02  .399E+02  .399E+02  .399E+02  .399E+02  .399E+02  .399E+02
  .365E+02  .301E+02  .301E+02  .409E+02  .409E+02  .400E+02  .400E+02  .400E+02
  .400E+02  .401E+02  .402E+02  .398E+02  .398E+02  .398E+02  .300E+02  .398E+02
  .398E+02  .398E+02  .398E+02  .407E+02  .458E+02  .303E+02  .440E+02  .407E+02
  .398E+02  .298E+02  .298E+02  .298E+02  .298E+02  .298E+02  .298E+02  .298E+02
  .298E+02  .298E+02  .298E+02  .298E+02  .298E+02  .298E+02  .000E+00  .000E+00
  .000E+00  .000E+00  .000E+00  .000E+00  .000E+00  .000E+00  .000E+00  .000E+00
  .000E+00  .000E+00  .000E+00  .000E+00  .000E+00  .000E+00  .000E+00  .000E+00
  .000E+00  .000E+00  .000E+00  .000E+00
/&   ----------  End of spectral data for channel  1  ----------
Response and Fourier amplitude spectra (78 periods,  .04 -  6.0 sec)   for      
Corrected accelerogram   38695658.CI.WTT2.--.H      Chan  2: 360 Deg     from   
Uncorrected Accelerogram Data             Processed: 09/19/20, CGS  ciwtt2-m    
Rcrd of Fri Sep 18, 2020 23:38:27.0 PDT               (Avol1 v2.0, 4/18 CSMIP)  
                                        (Origin:  To be determined)             
38695658.CI.WTT2.--.H                Start time:  9/19/20, 06:38:27.0 UTC (GPS) 
Station Id. WTT2    33.949N, 118.255W    ObsMMS  s/n 4312  (3 Chns of  6 at Sta)
Watts                                    SCSN   Data: Acceleration              
Chan  2: 360 Deg                                                                
Rcrd of Fri Sep 18, 2020 23:38:27.0 PDT    Fri Sep 18, 2020 23:38:27.0 PDT      
Hypocenter:  To be determined.               ML:  To be determined.             
Instr Period =  .0050 sec,  Damping =  .707,  Sensitivity = 4.99 v/g  (Nominal) 
                        Record Length =301.000 sec.                             
                                     Uncor Max  =  -.074 g, at   29.710 sec.    
RMS accel of (uncor) record  =        .   Chn. metadata effective date:         
Accelerogram bandpass filtered with 3 dB pts at   .30 and 23.00 cyc/sec         
                 instrument- and base-line correcte                             
                                                                                
                                                                                
                                                                                
                                                                                
                                                                                
Rcrd of Fri Sep 18, 2020 23:38:27.0 PDT    Fri Sep 18, 2020 23:38:27.0 PDT      
                                                                                
38695658.CI.WTT2.--.H     Watts   Chan  2: 360 Deg                              
                                                                                
38695658.CI.WTT2.--.H     Watts   Chan  2: 360 Deg                              
                                                                                
Units for spectra are inches and sec, except Sa is in fraction of g.            
                                                                                
    2  100    2    6    6  100 -999    3    1    0   15 4312    0    0   41    0
    6   38   27    8  263    9   19 2020   10    3  36035593   39    5   74 -999
35593 -999  100    6 -999 -999 -999 -999 -999 -999 -999 -999 -999 -999 -999 -999
 -999 -999 -999 -99915050    2 -999    0 -999   20 -999 -999    3    1 -99915050
    315050    4   78    1    3    5    0    0 -999    0 -999 -999    6 -999    2
    2    2    4 -999 -999 -999 -999 -999 -999 -999 -999    1 -999 -999 -999  111
    1    1 -999 -999
      .005      .707   355.930      .002     1.000  4988.878     -.074    29.710
   200.000     2.384      .478  -999.000    10.000  -999.000     4.000  -999.000
    20.000    -3.142      .000  -999.000  -999.000  -999.000  -999.000      .003
      .000     -.003     2.000    15.000    33.949  -118.255      .010      .007
      .707     -.005     -.001    37.000  -999.000  -999.000  -999.000  -999.000
     1.000  -999.000  -999.000  -999.000  -999.000  -999.000  -999.000   120.000
     -.900     2.000     6.800   980.665      .020   301.000    31.831      .000
  -999.000    23.000  -999.000   301.000      .020      .300  -999.000  -999.000
    29.720   -71.750    29.780    -4.272    29.700      .277      .000      .300
    23.000      .020      .020      .000      .180      .048  -999.000  -999.000
      .218      .260      .127      .198      .013      .001  -999.000  -999.000
  -999.000  -999.000  -999.000  -999.000  -999.000  -999.000  -999.000  -999.000
  -999.000  -999.000  -999.000  -999.000
      .050
      .040      .042      .044      .046      .048      .050      .055      .060
      .065      .070      .075      .080      .085      .090      .095      .100
      .110      .120      .130      .140      .150      .160      .170      .180
      .190      .200      .220      .240      .260      .280      .300      .320
      .340      .360      .380      .400      .420      .440      .460      .480
      .500      .550      .600      .650      .700      .750      .800      .850
      .900      .950     1.000     1.100     1.200     1.300     1.400     1.500
     1.600     1.700     1.800     1.900     2.000     2.200     2.400     2.600
     2.800     3.000     3.200     3.400     3.600     3.800     4.000     4.200
     4.400     4.600     4.800     5.000     5.500     6.000      .000      .000
      .000      .000      .000      .000      .000      .000      .000      .000
      .000      .000      .000      .000      .000      .000      .000      .000
      .000      .000      .000      .000
Fourier amplitude spectra in in/sec.
  .000E+00  .000E+00  .000E+00  .000E+00  .000E+00  .000E+00  .000E+00  .000E+00
  .000E+00  .000E+00  .000E+00  .000E+00  .000E+00  .000E+00  .000E+00  .000E+00
  .000E+00  .000E+00  .000E+00  .000E+00  .000E+00  .000E+00  .000E+00  .000E+00
  .000E+00  .000E+00  .000E+00  .000E+00  .000E+00  .000E+00  .000E+00  .000E+00
  .000E+00  .000E+00  .000E+00  .000E+00  .000E+00  .000E+00  .000E+00  .000E+00
  .000E+00  .000E+00  .000E+00  .000E+00  .000E+00  .000E+00  .000E+00  .000E+00
  .000E+00  .000E+00  .000E+00  .000E+00  .000E+00  .000E+00  .000E+00  .000E+00
  .000E+00  .000E+00  .000E+00  .000E+00  .000E+00  .000E+00  .000E+00  .000E+00
  .000E+00  .000E+00  .000E+00  .000E+00  .000E+00  .000E+00  .000E+00  .000E+00
  .000E+00  .000E+00  .000E+00  .000E+00  .000E+00  .000E+00  .000E+00  .000E+00
  .000E+00  .000E+00  .000E+00  .000E+00  .000E+00  .000E+00  .000E+00  .000E+00
  .000E+00  .000E+00  .000E+00  .000E+00  .000E+00  .000E+00  .000E+00  .000E+00
  .000E+00  .000E+00  .000E+00  .000E+00
Damping =  .05. Data of Sd,Sv,Sa,Pssv,ttSd,ttSv,ttSa :
  .119E-02  .130E-02  .142E-02  .152E-02  .175E-02  .201E-02  .251E-02  .295E-02
  .355E-02  .416E-02  .436E-02  .461E-02  .543E-02  .658E-02  .766E-02  .819E-02
  .931E-02  .129E-01  .183E-01  .227E-01  .277E-01  .362E-01  .438E-01  .468E-01
  .437E-01  .426E-01  .682E-01  .111E+00  .143E+00  .161E+00  .172E+00  .185E+00
  .206E+00  .231E+00  .256E+00  .269E+00  .277E+00  .280E+00  .273E+00  .267E+00
