Response and Fourier amplitude spectra (78 periods,  .04 -  6.0 sec)   for      
Corrected accelerogram   38695658.CI.WWC.--.HN      Chan  1:  90 Deg     from   
Uncorrected Accelerogram Data             Processed: 09/19/20, CGS  ciwwc--d    
Rcrd of Fri Sep 18, 2020 23:38:44.0 PDT               (Avol1 v2.0, 4/18 CSMIP)  
                                        (Origin:  To be determined)             
38695658.CI.WWC.--.HN                Start time:  9/19/20, 06:38:44.0 UTC (GPS) 
Station Id. WWC     33.941N, 116.409W    Q330    s/n 3054  (3 Chns of  3 at Sta)
West Wide Canyon                         SCSN   Data: Acceleration              
Chan  1:  90 Deg                                                                
Rcrd of Fri Sep 18, 2020 23:38:44.0 PDT    Fri Sep 18, 2020 23:38:44.0 PDT      
Hypocenter:  To be determined.               ML:  To be determined.             
Instr Period =  .0050 sec,  Damping =  .707,  Sensitivity = 4.99 v/g  (Nominal) 
                        Record Length =301.000 sec.                             
                                     Uncor Max  =  -.002 g, at   48.200 sec.    
RMS accel of (uncor) record  =        .   Chn. metadata effective date:         
Accelerogram bandpass filtered with 3 dB pts at   .30 and 23.00 cyc/sec         
                 instrument- and base-line correcte                             
                                                                                
                                                                                
                                                                                
                                                                                
                                                                                
Rcrd of Fri Sep 18, 2020 23:38:44.0 PDT    Fri Sep 18, 2020 23:38:44.0 PDT      
                                                                                
38695658.CI.WWC.--.HN     West Wide Canyon    Chan  1:  90 Deg                  
                                                                                
38695658.CI.WWC.--.HN     West Wide Canyon    Chan  1:  90 Deg                  
                                                                                
Units for spectra are inches and sec, except Sa is in fraction of g.            
                                                                                
    1  100    1    3    3  100 -999    3    1   24  605 3054    0    0   41    0
    6   38   44    8  263    9   19 2020   10    3   9036145   39   16   74 -999
36145 -999  100    6 -999 -999 -999 -999 -999 -999 -999 -999 -999 -999 -999 -999
 -999 -999 -999 -99915050    2 -999    0 -999   20 -999 -999    3    1 -99915050
    315050    4   78    1    3    5    0    0 -999    0 -999 -999    6 -999    2
    2    2    4 -999 -999 -999 -999 -999 -999 -999 -999    1 -999 -999 -999  111
    1    1 -999 -999
      .005      .707   361.450      .000     1.000  4989.676     -.002    48.200
   200.000     2.384      .478  -999.000    10.000  -999.000     4.000  -999.000
    20.000   -37.923    20.000  -999.000  -999.000  -999.000  -999.000     -.001
      .001      .001     2.000    15.000    33.941  -116.409      .001      .001
     1.083      .001      .001   619.000  -999.000  -999.000  -999.000  -999.000
     1.000  -999.000    -8.000  -999.000  -999.000  -999.000  -999.000   120.000
     -.900     2.000     6.800   980.665      .020   301.000    31.831      .000
  -999.000    23.000  -999.000   301.000      .020      .300  -999.000  -999.000
    48.200    -1.538    48.240     -.053    46.380      .003      .000      .300
    23.000      .020      .020      .000      .020      .003  -999.000  -999.000
      .007      .260      .004      .004      .000      .000  -999.000  -999.000
  -999.000  -999.000  -999.000  -999.000  -999.000  -999.000  -999.000  -999.000
  -999.000  -999.000  -999.000  -999.000
      .050
      .040      .042      .044      .046      .048      .050      .055      .060
      .065      .070      .075      .080      .085      .090      .095      .100
      .110      .120      .130      .140      .150      .160      .170      .180
      .190      .200      .220      .240      .260      .280      .300      .320
      .340      .360      .380      .400      .420      .440      .460      .480
      .500      .550      .600      .650      .700      .750      .800      .850
      .900      .950     1.000     1.100     1.200     1.300     1.400     1.500
     1.600     1.700     1.800     1.900     2.000     2.200     2.400     2.600
     2.800     3.000     3.200     3.400     3.600     3.800     4.000     4.200
     4.400     4.600     4.800     5.000     5.500     6.000      .000      .000
      .000      .000      .000      .000      .000      .000      .000      .000
      .000      .000      .000      .000      .000      .000      .000      .000
      .000      .000      .000      .000
Fourier amplitude spectra in in/sec.
  .000E+00  .000E+00  .000E+00  .000E+00  .000E+00  .000E+00  .000E+00  .000E+00
  .000E+00  .000E+00  .000E+00  .000E+00  .000E+00  .000E+00  .000E+00  .000E+00
  .000E+00  .000E+00  .000E+00  .000E+00  .000E+00  .000E+00  .000E+00  .000E+00
  .000E+00  .000E+00  .000E+00  .000E+00  .000E+00  .000E+00  .000E+00  .000E+00
  .000E+00  .000E+00  .000E+00  .000E+00  .000E+00  .000E+00  .000E+00  .000E+00
  .000E+00  .000E+00  .000E+00  .000E+00  .000E+00  .000E+00  .000E+00  .000E+00
  .000E+00  .000E+00  .000E+00  .000E+00  .000E+00  .000E+00  .000E+00  .000E+00
  .000E+00  .000E+00  .000E+00  .000E+00  .000E+00  .000E+00  .000E+00  .000E+00
  .000E+00  .000E+00  .000E+00  .000E+00  .000E+00  .000E+00  .000E+00  .000E+00
  .000E+00  .000E+00  .000E+00  .000E+00  .000E+00  .000E+00  .000E+00  .000E+00
  .000E+00  .000E+00  .000E+00  .000E+00  .000E+00  .000E+00  .000E+00  .000E+00
  .000E+00  .000E+00  .000E+00  .000E+00  .000E+00  .000E+00  .000E+00  .000E+00
  .000E+00  .000E+00  .000E+00  .000E+00
Damping =  .05. Data of Sd,Sv,Sa,Pssv,ttSd,ttSv,ttSa :
  .247E-04  .275E-04  .307E-04  .341E-04  .377E-04  .417E-04  .502E-04  .555E-04
  .647E-04  .829E-04  .998E-04  .120E-03  .133E-03  .177E-03  .200E-03  .207E-03
  .320E-03  .545E-03  .555E-03  .562E-03  .624E-03  .906E-03  .133E-02  .136E-02
  .130E-02  .136E-02  .250E-02  .363E-02  .465E-02  .422E-02  .348E-02  .325E-02
  .249E-02  .199E-02  .194E-02  .200E-02  .217E-02  .208E-02  .220E-02  .184E-02
  .175E-02  .156E-02  .166E-02  .165E-02  .196E-02  .204E-02  .202E-02  .239E-02
  .233E-02  .250E-02  .285E-02  .325E-02  .316E-02  .322E-02  .300E-02  .305E-02
  .328E-02  .308E-02  .301E-02  .296E-02  .281E-02  .273E-02  .260E-02  .250E-02
  .218E-02  .198E-02  .190E-02  .183E-02  .183E-02  .183E-02  .176E-02  .170E-02
  .164E-02  .156E-02  .151E-02  .149E-02  .146E-02  .146E-02  .000E+00  .000E+00
  .000E+00  .000E+00  .000E+00  .000E+00  .000E+00  .000E+00  .000E+00  .000E+00
  .000E+00  .000E+00  .000E+00  .000E+00  .000E+00  .000E+00  .000E+00  .000E+00
  .000E+00  .000E+00  .000E+00  .000E+00
  .782E-03  .867E-03  .953E-03  .101E-02  .112E-02  .126E-02  .182E-02  .244E-02
  .268E-02  .333E-02  .353E-02  .469E-02  .644E-02  .726E-02  .809E-02  .969E-02
  .143E-01  .217E-01  .213E-01  .221E-01  .256E-01  .346E-01  .495E-01  .471E-01
  .453E-01  .377E-01  .647E-01  .882E-01  .111E+00  .101E+00  .764E-01  .672E-01
  .545E-01  .427E-01  .394E-01  .395E-01  .393E-01  .401E-01  .378E-01  .371E-01
  .354E-01  .321E-01  .293E-01  .280E-01  .285E-01  .310E-01  .315E-01  .292E-01
  .330E-01  .333E-01  .313E-01  .287E-01  .283E-01  .286E-01  .296E-01  .267E-01
  .245E-01  .279E-01  .292E-01  .291E-01  .280E-01  .253E-01  .229E-01  .211E-01
  .203E-01  .197E-01  .196E-01  .197E-01  .198E-01  .200E-01  .201E-01  .202E-01
  .203E-01  .203E-01  .202E-01  .202E-01  .202E-01  .202E-01  .000E+00  .000E+00
  .000E+00  .000E+00  .000E+00  .000E+00  .000E+00  .000E+00  .000E+00  .000E+00
  .000E+00  .000E+00  .000E+00  .000E+00  .000E+00  .000E+00  .000E+00  .000E+00
  .000E+00  .000E+00  .000E+00  .000E+00
  .158E-02  .159E-02  .162E-02  .165E-02  .168E-02  .171E-02  .170E-02  .158E-02
  .156E-02  .173E-02  .181E-02  .192E-02  .189E-02  .224E-02  .228E-02  .213E-02
  .270E-02  .385E-02  .341E-02  .294E-02  .283E-02  .361E-02  .475E-02  .426E-02
  .367E-02  .347E-02  .530E-02  .641E-02  .714E-02  .544E-02  .399E-02  .324E-02
  .225E-02  .159E-02  .139E-02  .128E-02  .126E-02  .111E-02  .108E-02  .839E-03
  .712E-03  .541E-03  .476E-03  .404E-03  .411E-03  .379E-03  .326E-03  .342E-03
  .299E-03  .289E-03  .297E-03  .279E-03  .225E-03  .197E-03  .162E-03  .144E-03
  .136E-03  .113E-03  .100E-03  .853E-04  .739E-04  .622E-04  .517E-04  .432E-04
  .333E-04  .275E-04  .223E-04  .185E-04  .156E-04  .135E-04  .121E-04  .112E-04
  .106E-04  .102E-04  .963E-05  .907E-05  .788E-05  .693E-05  .000E+00  .000E+00
  .000E+00  .000E+00  .000E+00  .000E+00  .000E+00  .000E+00  .000E+00  .000E+00
  .000E+00  .000E+00  .000E+00  .000E+00  .000E+00  .000E+00  .000E+00  .000E+00
  .000E+00  .000E+00  .000E+00  .000E+00
  .387E-02  .411E-02  .438E-02  .465E-02  .494E-02  .524E-02  .573E-02  .581E-02
  .626E-02  .744E-02  .836E-02  .940E-02  .986E-02  .123E-01  .132E-01  .130E-01
  .183E-01  .286E-01  .268E-01  .252E-01  .261E-01  .356E-01  .491E-01  .474E-01
  .428E-01  .426E-01  .713E-01  .951E-01  .112E+00  .947E-01  .728E-01  .638E-01
  .459E-01  .347E-01  .320E-01  .314E-01  .325E-01  .296E-01  .300E-01  .240E-01
  .219E-01  .179E-01  .174E-01  .160E-01  .176E-01  .171E-01  .159E-01  .177E-01
  .163E-01  .165E-01  .179E-01  .186E-01  .165E-01  .156E-01  .135E-01  .128E-01
  .129E-01  .114E-01  .105E-01  .978E-02  .882E-02  .778E-02  .681E-02  .605E-02
  .489E-02  .414E-02  .373E-02  .339E-02  .320E-02  .302E-02  .276E-02  .254E-02
  .234E-02  .213E-02  .198E-02  .187E-02  .166E-02  .153E-02  .000E+00  .000E+00
  .000E+00  .000E+00  .000E+00  .000E+00  .000E+00  .000E+00  .000E+00  .000E+00
  .000E+00  .000E+00  .000E+00  .000E+00  .000E+00  .000E+00  .000E+00  .000E+00
  .000E+00  .000E+00  .000E+00  .000E+00
  .482E+02  .482E+02  .482E+02  .482E+02  .482E+02  .482E+02  .482E+02  .482E+02
  .490E+02  .482E+02  .482E+02  .482E+02  .482E+02  .482E+02  .482E+02  .482E+02
  .482E+02  .485E+02  .490E+02  .490E+02  .496E+02  .476E+02  .495E+02  .495E+02
  .495E+02  .478E+02  .483E+02  .485E+02  .486E+02  .491E+02  .487E+02  .486E+02
  .486E+02  .486E+02  .486E+02  .486E+02  .495E+02  .491E+02  .491E+02  .485E+02
  .483E+02  .482E+02  .491E+02  .490E+02  .484E+02  .485E+02  .483E+02  .483E+02
  .475E+02  .475E+02  .471E+02  .472E+02  .472E+02  .472E+02  .480E+02  .483E+02
  .483E+02  .468E+02  .486E+02  .544E+02  .500E+02  .491E+02  .482E+02  .482E+02
  .470E+02  .484E+02  .463E+02  .463E+02  .463E+02  .463E+02  .464E+02  .464E+02
  .464E+02  .464E+02  .464E+02  .464E+02  .464E+02  .464E+02  .000E+00  .000E+00
  .000E+00  .000E+00  .000E+00  .000E+00  .000E+00  .000E+00  .000E+00  .000E+00
  .000E+00  .000E+00  .000E+00  .000E+00  .000E+00  .000E+00  .000E+00  .000E+00
  .000E+00  .000E+00  .000E+00  .000E+00
  .482E+02  .482E+02  .482E+02  .482E+02  .502E+02  .502E+02  .482E+02  .502E+02
  .502E+02  .503E+02  .492E+02  .509E+02  .509E+02  .503E+02  .482E+02  .488E+02
  .496E+02  .485E+02  .490E+02  .491E+02  .496E+02  .496E+02  .495E+02  .495E+02
  .495E+02  .495E+02  .483E+02  .485E+02  .486E+02  .491E+02  .486E+02  .486E+02
  .485E+02  .485E+02  .485E+02  .485E+02  .485E+02  .485E+02  .485E+02  .484E+02
  .482E+02  .482E+02  .490E+02  .491E+02  .485E+02  .484E+02  .484E+02  .482E+02
  .482E+02  .482E+02  .482E+02  .485E+02  .481E+02  .484E+02  .484E+02  .484E+02
  .482E+02  .482E+02  .482E+02  .482E+02  .482E+02  .482E+02  .482E+02  .482E+02
  .491E+02  .482E+02  .484E+02  .482E+02  .482E+02  .482E+02  .482E+02  .482E+02
  .482E+02  .482E+02  .482E+02  .482E+02  .482E+02  .482E+02  .000E+00  .000E+00
  .000E+00  .000E+00  .000E+00  .000E+00  .000E+00  .000E+00  .000E+00  .000E+00
  .000E+00  .000E+00  .000E+00  .000E+00  .000E+00  .000E+00  .000E+00  .000E+00
  .000E+00  .000E+00  .000E+00  .000E+00
  .482E+02  .482E+02  .482E+02  .482E+02  .482E+02  .482E+02  .482E+02  .482E+02
  .490E+02  .482E+02  .482E+02  .482E+02  .482E+02  .482E+02  .482E+02  .482E+02
  .482E+02  .485E+02  .490E+02  .490E+02  .496E+02  .476E+02  .495E+02  .495E+02
  .495E+02  .478E+02  .483E+02  .486E+02  .492E+02  .492E+02  .487E+02  .486E+02
  .486E+02  .486E+02  .486E+02  .494E+02  .494E+02  .495E+02  .491E+02  .484E+02
  .483E+02  .482E+02  .491E+02  .490E+02  .484E+02  .484E+02  .483E+02  .483E+02
  .475E+02  .475E+02  .471E+02  .471E+02  .472E+02  .472E+02  .480E+02  .483E+02
  .483E+02  .483E+02  .486E+02  .544E+02  .499E+02  .491E+02  .481E+02  .481E+02
  .484E+02  .484E+02  .484E+02  .484E+02  .484E+02  .463E+02  .484E+02  .484E+02
  .484E+02  .484E+02  .484E+02  .484E+02  .484E+02  .484E+02  .000E+00  .000E+00
  .000E+00  .000E+00  .000E+00  .000E+00  .000E+00  .000E+00  .000E+00  .000E+00
  .000E+00  .000E+00  .000E+00  .000E+00  .000E+00  .000E+00  .000E+00  .000E+00
  .000E+00  .000E+00  .000E+00  .000E+00
/&   ----------  End of spectral data for channel  1  ----------
Response and Fourier amplitude spectra (78 periods,  .04 -  6.0 sec)   for      
Corrected accelerogram   38695658.CI.WWC.--.HN      Chan  2: 360 Deg     from   
Uncorrected Accelerogram Data             Processed: 09/19/20, CGS  ciwwc--d    
Rcrd of Fri Sep 18, 2020 23:38:44.0 PDT               (Avol1 v2.0, 4/18 CSMIP)  
                                        (Origin:  To be determined)             
38695658.CI.WWC.--.HN                Start time:  9/19/20, 06:38:44.0 UTC (GPS) 
Station Id. WWC     33.941N, 116.409W    Q330    s/n 3054  (3 Chns of  3 at Sta)
West Wide Canyon                         SCSN   Data: Acceleration              
Chan  2: 360 Deg                                                                
Rcrd of Fri Sep 18, 2020 23:38:44.0 PDT    Fri Sep 18, 2020 23:38:44.0 PDT      
Hypocenter:  To be determined.               ML:  To be determined.             
Instr Period =  .0050 sec,  Damping =  .707,  Sensitivity = 4.99 v/g  (Nominal) 
                        Record Length =301.000 sec.                             
                                     Uncor Max  =  -.001 g, at   47.040 sec.    
RMS accel of (uncor) record  =        .   Chn. metadata effective date:         
Accelerogram bandpass filtered with 3 dB pts at   .30 and 23.00 cyc/sec         
                 instrument- and base-line correcte                             
                                                                                
                                                                                
                                                                                
                                                                                
                                                                                
Rcrd of Fri Sep 18, 2020 23:38:44.0 PDT    Fri Sep 18, 2020 23:38:44.0 PDT      
                                                                                
38695658.CI.WWC.--.HN     West Wide Canyon    Chan  2: 360 Deg                  
                                                                                
38695658.CI.WWC.--.HN     West Wide Canyon    Chan  2: 360 Deg                  
                                                                                
Units for spectra are inches and sec, except Sa is in fraction of g.            
                                                                                
    2  100    2    3    3  100 -999    3    1   24  605 3054    0    0   41    0
    6   38   44    8  263    9   19 2020   10    3  36036352   39   16   74 -999
36352 -999  100    6 -999 -999 -999 -999 -999 -999 -999 -999 -999 -999 -999 -999
 -999 -999 -999 -99915050    2 -999    0 -999   20 -999 -999    3    1 -99915050
    315050    4   78    1    3    5    0    0 -999    0 -999 -999    6 -999    2
    2    2    4 -999 -999 -999 -999 -999 -999 -999 -999    1 -999 -999 -999  111
    1    1 -999 -999
      .005      .707   363.520      .000     1.000  4993.665     -.001    47.040
   200.000     2.384      .477  -999.000    10.000  -999.000     4.000  -999.000
    20.000   -16.840    20.000  -999.000  -999.000  -999.000  -999.000     -.001
      .000      .001     2.000    15.000    33.941  -116.409      .001      .001
     1.184      .000      .001   619.000  -999.000  -999.000  -999.000  -999.000
     1.000  -999.000  -999.000  -999.000  -999.000  -999.000  -999.000   120.000
     -.900     2.000     6.800   980.665      .020   301.000    31.831      .000
  -999.000    23.000  -999.000   301.000      .020      .300  -999.000  -999.000
    47.040    -1.207    47.600     -.044    47.040      .003      .000      .300
    23.000      .020      .020      .000      .020      .002  -999.000  -999.000
      .006      .170      .004      .002      .000      .000  -999.000  -999.000
  -999.000  -999.000  -999.000  -999.000  -999.000  -999.000  -999.000  -999.000
  -999.000  -999.000  -999.000  -999.000
      .050
      .040      .042      .044      .046      .048      .050      .055      .060
      .065      .070      .075      .080      .085      .090      .095      .100
      .110      .120      .130      .140      .150      .160      .170      .180
      .190      .200      .220      .240      .260      .280      .300      .320
      .340      .360      .380      .400      .420      .440      .460      .480
      .500      .550      .600      .650      .700      .750      .800      .850
      .900      .950     1.000     1.100     1.200     1.300     1.400     1.500
     1.600     1.700     1.800     1.900     2.000     2.200     2.400     2.600
     2.800     3.000     3.200     3.400     3.600     3.800     4.000     4.200
     4.400     4.600     4.800     5.000     5.500     6.000      .000      .000
      .000      .000      .000      .000      .000      .000      .000      .000
      .000      .000      .000      .000      .000      .000      .000      .000
      .000      .000      .000      .000
Fourier amplitude spectra in in/sec.
  .000E+00  .000E+00  .000E+00  .000E+00  .000E+00  .000E+00  .000E+00  .000E+00
  .000E+00  .000E+00  .000E+00  .000E+00  .000E+00  .000E+00  .000E+00  .000E+00
  .000E+00  .000E+00  .000E+00  .000E+00  .000E+00  .000E+00  .000E+00  .000E+00
  .000E+00  .000E+00  .000E+00  .000E+00  .000E+00  .000E+00  .000E+00  .000E+00
  .000E+00  .000E+00  .000E+00  .000E+00  .000E+00  .000E+00  .000E+00  .000E+00
  .000E+00  .000E+00  .000E+00  .000E+00  .000E+00  .000E+00  .000E+00  .000E+00
  .000E+00  .000E+00  .000E+00  .000E+00  .000E+00  .000E+00  .000E+00  .000E+00
  .000E+00  .000E+00  .000E+00  .000E+00  .000E+00  .000E+00  .000E+00  .000E+00
  .000E+00  .000E+00  .000E+00  .000E+00  .000E+00  .000E+00  .000E+00  .000E+00
  .000E+00  .000E+00  .000E+00  .000E+00  .000E+00  .000E+00  .000E+00  .000E+00
  .000E+00  .000E+00  .000E+00  .000E+00  .000E+00  .000E+00  .000E+00  .000E+00
  .000E+00  .000E+00  .000E+00  .000E+00  .000E+00  .000E+00  .000E+00  .000E+00
  .000E+00  .000E+00  .000E+00  .000E+00
Damping =  .05. Data of Sd,Sv,Sa,Pssv,ttSd,ttSv,ttSa :
  .194E-04  .217E-04  .242E-04  .269E-04  .297E-04  .325E-04  .387E-04  .523E-04
  .627E-04  .714E-04  .924E-04  .112E-03  .138E-03  .183E-03  .218E-03  .221E-03
  .249E-03  .389E-03  .517E-03  .541E-03  .730E-03  .122E-02  .169E-02  .186E-02
  .181E-02  .158E-02  .168E-02  .265E-02  .265E-02  .188E-02  .209E-02  .262E-02
  .245E-02  .209E-02  .186E-02  .181E-02  .196E-02  .191E-02  .195E-02  .200E-02
