Response and Fourier amplitude spectra (91 periods,  .04 - 15.0 sec)   for      
Corrected accelerogram   14724-M0159-01248.06       Chan 12:  90 Deg     from   
Uncorrected Accelerogram Data             Processed: 09/10/01, CDMG  724ea006   
Record of Sun Sep  9, 2001 16:59:21 PDT               (Avol1 v4.6  7/01 CSMIP)  
CSMIP Preliminary Processing            (Origin:  To be determined)             
14724-M0159-01248.06                 Start time:  9/09/01, 23:59:21.0 UTC (GPS) 
Station No. 14724   33.923N, 118.242W    MtWtny  s/n  159 (12 Chns of 21 at Sta)
Los Angeles - 5-story Hospital                                                  
Chan 12:  90 Deg                    Location: Basement: East Wall               
Record of Sun Sep  9, 2001 16:59:21 PDT    Sun Sep  9, 2001 16:59:21 PDT        
Hypocenter:  To be determined.               ML:  To be determined.
Instr Period =  .0200 sec,  Damping =  .700,  Sensitivity =  .63  v/g
                        Record length = 49.000 sec.
                                     Uncor Max  =  -.014 g, at  11.455 sec.
RMS accel of (uncor) record  =        .
Accelerogram bandpass filtered with 3 dB pts at   .30 and 40.00 cyc/sec
                 instrument- and baseline-corrected





Record of Sun Sep  9, 2001 16:59:21 PDT    Sun Sep  9, 2001 16:59:21 PDT

14724-M0159-01248.06      Los Angeles - 5-story Hospital    Chan 12:  90 Deg

14724-M0159-01248.06      Los Angeles - 5-story Hospital    Chan 12:  90 Deg

Units for spectra are inches and sec, except Sa is in fraction of g.

   12  100   12   12   21  200    1    3    1   24   13  159    014724    2    0
   23   59   21    0  252    9    9 2001   10    3   90 9800   39   30   72 -999
 9800    0   50    3  159    1    6  490    1    0    0    0    0    0    0    0
    0    4    0    0 4900    2    0    0    0    0   72   30    0    0    0 4900
    0 4900   31   91    1   12    0    0    0    0   21    0    0    0    0    2
    2    2    4    0   72   99    0   32   32    0    0    1    0    0    0    0
  -99   -1    0    0
      .020      .700    49.000      .002      .000   625.000     -.014    11.455
    50.000      .298      .477      .000     5.000      .000      .000      .000
     2.500    34.061      .030      .014     5.000    30.000      .000      .003
     -.004     -.007     2.000    15.000    33.923  -118.242      .098      .319
     3.265     -.027      .013  -999.000      .000      .000   -13.200      .000
  1000.000    -1.003      .000      .000      .000      .000      .000      .000
     4.600     4.400      .000   980.665      .010    49.000     7.958      .000
      .000    40.000      .000    49.000      .010      .300      .000      .000
    11.460   -13.640    11.370      .870    11.460      .081      .000      .300
    40.000      .010      .010      .000      .010      .046      .000      .000
      .072      .280      .028      .066      .010      .000      .000      .000
      .000      .000      .000      .000      .000      .000      .000      .000
      .000      .000      .000      .000
      .050
      .040      .042      .044      .046      .048      .050      .055      .060
      .065      .070      .075      .080      .085      .090      .095      .100
      .110      .120      .130      .140      .150      .160      .170      .180
      .190      .200      .220      .240      .260      .280      .300      .320
      .340      .360      .380      .400      .420      .440      .460      .480
      .500      .550      .600      .650      .700      .750      .800      .850
      .900      .950     1.000     1.100     1.200     1.300     1.400     1.500
     1.600     1.700     1.800     1.900     2.000     2.200     2.400     2.600
     2.800     3.000     3.200     3.400     3.600     3.800     4.000     4.200
     4.400     4.600     4.800     5.000     5.500     6.000     6.500     7.000
     7.500     8.000     8.500     9.000     9.500    10.000    11.000    12.000
    13.000    14.000    15.000      .000      .000      .000      .000      .000
      .000      .000      .000      .000
Fourier amplitude spectra in in/sec.
  .000E+00  .000E+00  .000E+00  .000E+00  .000E+00  .000E+00  .000E+00  .000E+00
  .000E+00  .000E+00  .000E+00  .000E+00  .000E+00  .000E+00  .000E+00  .000E+00
  .000E+00  .000E+00  .000E+00  .000E+00  .000E+00  .000E+00  .000E+00  .000E+00
  .000E+00  .000E+00  .000E+00  .000E+00  .000E+00  .000E+00  .000E+00  .000E+00
  .000E+00  .000E+00  .000E+00  .000E+00  .000E+00  .000E+00  .000E+00  .000E+00
  .000E+00  .000E+00  .000E+00  .000E+00  .000E+00  .000E+00  .000E+00  .000E+00
  .000E+00  .000E+00  .000E+00  .000E+00  .000E+00  .000E+00  .000E+00  .000E+00
  .000E+00  .000E+00  .000E+00  .000E+00  .000E+00  .000E+00  .000E+00  .000E+00
  .000E+00  .000E+00  .000E+00  .000E+00  .000E+00  .000E+00  .000E+00  .000E+00
  .000E+00  .000E+00  .000E+00  .000E+00  .000E+00  .000E+00  .000E+00  .000E+00
  .000E+00  .000E+00  .000E+00  .000E+00  .000E+00  .000E+00  .000E+00  .000E+00
  .000E+00  .000E+00  .000E+00  .000E+00  .000E+00  .000E+00  .000E+00  .000E+00
  .000E+00  .000E+00  .000E+00  .000E+00
Damping =  .05. Data of Sd,Sv,Sa,Pssv,ttSd,ttSv,ttSa :
  .242E-03  .286E-03  .329E-03  .366E-03  .396E-03  .422E-03  .497E-03  .592E-03
  .625E-03  .713E-03  .873E-03  .973E-03  .110E-02  .121E-02  .143E-02  .152E-02
  .208E-02  .238E-02  .267E-02  .324E-02  .411E-02  .440E-02  .544E-02  .636E-02
  .773E-02  .102E-01  .174E-01  .254E-01  .378E-01  .550E-01  .591E-01  .579E-01
  .460E-01  .457E-01  .422E-01  .367E-01  .336E-01  .338E-01  .334E-01  .324E-01
  .294E-01  .450E-01  .823E-01  .100E+00  .881E-01  .977E-01  .101E+00  .956E-01
  .983E-01  .107E+00  .101E+00  .841E-01  .791E-01  .627E-01  .611E-01  .667E-01
  .615E-01  .507E-01  .446E-01  .436E-01  .441E-01  .420E-01  .438E-01  .350E-01
  .339E-01  .341E-01  .344E-01  .335E-01  .319E-01  .315E-01  .317E-01  .324E-01
  .332E-01  .337E-01  .340E-01  .341E-01  .339E-01  .336E-01  .333E-01  .331E-01
  .330E-01  .330E-01  .330E-01  .330E-01  .330E-01  .330E-01  .329E-01  .329E-01
  .328E-01  .327E-01  .326E-01  .000E+00  .000E+00  .000E+00  .000E+00  .000E+00
  .000E+00  .000E+00  .000E+00  .000E+00
  .118E-01  .138E-01  .153E-01  .159E-01  .161E-01  .164E-01  .186E-01  .220E-01
  .225E-01  .245E-01  .285E-01  .351E-01  .344E-01  .346E-01  .484E-01  .593E-01
  .636E-01  .679E-01  .680E-01  .992E-01  .105E+00  .123E+00  .128E+00  .151E+00
  .180E+00  .236E+00  .387E+00  .552E+00  .829E+00  .119E+01  .125E+01  .111E+01
  .910E+00  .812E+00  .747E+00  .650E+00  .578E+00  .553E+00  .507E+00  .476E+00
  .444E+00  .515E+00  .811E+00  .104E+01  .880E+00  .923E+00  .884E+00  .844E+00
  .805E+00  .811E+00  .749E+00  .573E+00  .496E+00  .439E+00  .399E+00  .418E+00
  .449E+00  .437E+00  .412E+00  .397E+00  .393E+00  .394E+00  .387E+00  .373E+00
  .363E+00  .361E+00  .361E+00  .361E+00  .360E+00  .358E+00  .356E+00  .353E+00
  .351E+00  .349E+00  .348E+00  .347E+00  .345E+00  .345E+00  .344E+00  .344E+00
  .344E+00  .344E+00  .343E+00  .343E+00  .343E+00  .343E+00  .343E+00  .342E+00
  .342E+00  .342E+00  .342E+00  .000E+00  .000E+00  .000E+00  .000E+00  .000E+00
  .000E+00  .000E+00  .000E+00  .000E+00
  .155E-01  .166E-01  .173E-01  .177E-01  .176E-01  .173E-01  .167E-01  .168E-01
  .152E-01  .149E-01  .158E-01  .156E-01  .156E-01  .153E-01  .161E-01  .154E-01
  .175E-01  .169E-01  .162E-01  .169E-01  .188E-01  .176E-01  .193E-01  .202E-01
  .220E-01  .262E-01  .371E-01  .453E-01  .577E-01  .721E-01  .679E-01  .584E-01
  .407E-01  .364E-01  .302E-01  .237E-01  .196E-01  .180E-01  .163E-01  .145E-01
  .121E-01  .153E-01  .235E-01  .244E-01  .185E-01  .179E-01  .162E-01  .136E-01
  .125E-01  .122E-01  .104E-01  .717E-02  .569E-02  .388E-02  .325E-02  .311E-02
  .254E-02  .187E-02  .149E-02  .131E-02  .120E-02  .958E-03  .795E-03  .559E-03
  .491E-03  .452E-03  .408E-03  .360E-03  .314E-03  .276E-03  .247E-03  .231E-03
  .218E-03  .205E-03  .192E-03  .180E-03  .154E-03  .135E-03  .121E-03  .110E-03
  .100E-03  .924E-04  .854E-04  .794E-04  .741E-04  .695E-04  .617E-04  .555E-04
  .505E-04  .463E-04  .428E-04  .000E+00  .000E+00  .000E+00  .000E+00  .000E+00
  .000E+00  .000E+00  .000E+00  .000E+00
  .379E-01  .427E-01  .469E-01  .499E-01  .519E-01  .531E-01  .567E-01  .619E-01
  .604E-01  .640E-01  .731E-01  .764E-01  .814E-01  .843E-01  .944E-01  .953E-01
  .119E+00  .124E+00  .129E+00  .145E+00  .172E+00  .173E+00  .201E+00  .222E+00
  .256E+00  .320E+00  .497E+00  .666E+00  .914E+00  .124E+01  .124E+01  .114E+01
  .850E+00  .798E+00  .698E+00  .577E+00  .503E+00  .483E+00  .457E+00  .424E+00
  .370E+00  .515E+00  .862E+00  .969E+00  .791E+00  .819E+00  .791E+00  .706E+00
  .686E+00  .706E+00  .632E+00  .480E+00  .414E+00  .303E+00  .274E+00  .279E+00
  .241E+00  .187E+00  .156E+00  .144E+00  .139E+00  .120E+00  .115E+00  .845E-01
  .761E-01  .713E-01  .676E-01  .619E-01  .558E-01  .521E-01  .497E-01  .484E-01
  .474E-01  .460E-01  .445E-01  .428E-01  .387E-01  .352E-01  .322E-01  .297E-01
  .276E-01  .259E-01  .244E-01  .230E-01  .218E-01  .207E-01  .188E-01  .172E-01
  .158E-01  .147E-01  .137E-01  .000E+00  .000E+00  .000E+00  .000E+00  .000E+00
  .000E+00  .000E+00  .000E+00  .000E+00
  .114E+02  .114E+02  .114E+02  .115E+02  .115E+02  .115E+02  .115E+02  .115E+02
  .114E+02  .114E+02  .809E+01  .114E+02  .114E+02  .114E+02  .810E+01  .811E+01
  .867E+01  .114E+02  .114E+02  .821E+01  .823E+01  .113E+02  .114E+02  .114E+02
  .114E+02  .114E+02  .114E+02  .115E+02  .869E+01  .872E+01  .875E+01  .120E+02
  .116E+02  .633E+01  .635E+01  .620E+01  .603E+01  .116E+02  .116E+02  .116E+02
  .166E+02  .230E+02  .189E+02  .228E+02  .134E+02  .124E+02  .125E+02  .121E+02
  .122E+02  .122E+02  .122E+02  .135E+02  .119E+02  .114E+02  .119E+02  .114E+02
  .115E+02  .115E+02  .115E+02  .114E+02  .114E+02  .115E+02  .217E+02  .133E+02
  .163E+02  .114E+02  .114E+02  .114E+02  .114E+02  .110E+02  .110E+02  .119E+02
  .119E+02  .119E+02  .119E+02  .119E+02  .119E+02  .119E+02  .119E+02  .119E+02
  .119E+02  .119E+02  .119E+02  .119E+02  .119E+02  .119E+02  .119E+02  .119E+02
  .119E+02  .119E+02  .119E+02  .000E+00  .000E+00  .000E+00  .000E+00  .000E+00
  .000E+00  .000E+00  .000E+00  .000E+00
  .114E+02  .114E+02  .114E+02  .114E+02  .114E+02  .831E+01  .846E+01  .114E+02
  .617E+01  .586E+01  .586E+01  .586E+01  .587E+01  .863E+01  .814E+01  .814E+01
  .870E+01  .816E+01  .816E+01  .816E+01  .818E+01  .800E+01  .801E+01  .801E+01
  .114E+02  .114E+02  .114E+02  .115E+02  .861E+01  .879E+01  .882E+01  .119E+02
  .116E+02  .625E+01  .627E+01  .628E+01  .612E+01  .117E+02  .117E+02  .596E+01
  .597E+01  .225E+02  .187E+02  .230E+02  .136E+02  .130E+02  .123E+02  .123E+02
  .123E+02  .120E+02  .120E+02  .120E+02  .115E+02  .134E+02  .134E+02  .113E+02
  .113E+02  .113E+02  .113E+02  .113E+02  .113E+02  .114E+02  .114E+02  .114E+02
  .114E+02  .114E+02  .114E+02  .114E+02  .114E+02  .114E+02  .114E+02  .114E+02
  .114E+02  .114E+02  .114E+02  .114E+02  .114E+02  .114E+02  .114E+02  .114E+02
  .114E+02  .114E+02  .114E+02  .114E+02  .114E+02  .114E+02  .114E+02  .114E+02
  .114E+02  .114E+02  .114E+02  .000E+00  .000E+00  .000E+00  .000E+00  .000E+00
  .000E+00  .000E+00  .000E+00  .000E+00
  .114E+02  .114E+02  .114E+02  .115E+02  .115E+02  .115E+02  .115E+02  .115E+02
  .114E+02  .114E+02  .809E+01  .114E+02  .114E+02  .114E+02  .810E+01  .811E+01
  .867E+01  .114E+02  .114E+02  .821E+01  .822E+01  .113E+02  .114E+02  .114E+02
  .114E+02  .114E+02  .114E+02  .115E+02  .868E+01  .871E+01  .874E+01  .120E+02
  .631E+01  .633E+01  .635E+01  .619E+01  .602E+01  .116E+02  .116E+02  .116E+02
  .166E+02  .230E+02  .188E+02  .228E+02  .134E+02  .124E+02  .125E+02  .121E+02
  .121E+02  .122E+02  .122E+02  .134E+02  .119E+02  .114E+02  .119E+02  .114E+02
  .114E+02  .114E+02  .114E+02  .114E+02  .114E+02  .114E+02  .216E+02  .114E+02
  .114E+02  .114E+02  .114E+02  .114E+02  .114E+02  .114E+02  .114E+02  .118E+02
  .118E+02  .118E+02  .118E+02  .118E+02  .118E+02  .114E+02  .114E+02  .114E+02
  .114E+02  .114E+02  .114E+02  .114E+02  .114E+02  .114E+02  .114E+02  .114E+02
  .114E+02  .114E+02  .114E+02  .000E+00  .000E+00  .000E+00  .000E+00  .000E+00
  .000E+00  .000E+00  .000E+00  .000E+00
/&   ----------  End of spectral data for channel 12  ----------
