Response and Fourier amplitude spectra (91 periods,  .04 - 15.0 sec)   for      
Corrected accelerogram   14724-M0159-01248.06       Chan  3:  Up         from   
Uncorrected Accelerogram Data             Processed: 09/10/01, CDMG  724ea006   
Record of Sun Sep  9, 2001 16:59:21 PDT               (Avol1 v4.6  7/01 CSMIP)  
CSMIP Preliminary Processing            (Origin:  To be determined)             
14724-M0159-01248.06                 Start time:  9/09/01, 23:59:21.0 UTC (GPS) 
Station No. 14724   33.923N, 118.242W    MtWtny  s/n  159 (12 Chns of 21 at Sta)
Los Angeles - 5-story Hospital                                                  
Chan  3:  Up                        Location: Foundation: SW Corner             
Record of Sun Sep  9, 2001 16:59:21 PDT    Sun Sep  9, 2001 16:59:21 PDT        
Hypocenter:  To be determined.               ML:  To be determined.
Instr Period =  .0200 sec,  Damping =  .700,  Sensitivity =  .63  v/g
                        Record length = 49.000 sec.
                                     Uncor Max  =  -.005 g, at   4.030 sec.
RMS accel of (uncor) record  =        .
Accelerogram bandpass filtered with 3 dB pts at   .30 and 40.00 cyc/sec
                 instrument- and baseline-corrected





Record of Sun Sep  9, 2001 16:59:21 PDT    Sun Sep  9, 2001 16:59:21 PDT

14724-M0159-01248.06      Los Angeles - 5-story Hospital    Chan  3:  Up

14724-M0159-01248.06      Los Angeles - 5-story Hospital    Chan  3:  Up

Units for spectra are inches and sec, except Sa is in fraction of g.

    3  100    3   12   21  200    1    3    1   24   13  159    014724    2    0
   23   59   21    0  252    9    9 2001   10    3  500 9800   39   30   72 -999
 9800    1   50    3  159    1    6  490    1    0    0    0    0    0    0    0
    0    4    0    0 4900    2    0    0    0    0   72   30    0    0    0 4900
    0 4900   31   91    1   12    0    0    0    0   21    0    0    0    0    2
    2    2    4    0   72   99    0   32   32    0    0    1    0    0    0    0
  -99   -1    0    0
      .020      .700    49.000      .001      .000   625.000     -.005     4.030
    50.000      .298      .477      .000     5.000      .000      .000      .000
     2.500   -35.063     -.019     -.025     5.000    30.000      .000      .000
      .002      .001     2.000    15.000    33.923  -118.242      .388      .148
      .382     -.049      .052  -999.000      .000      .000   -13.200      .000
  1000.000    -1.012      .000      .000      .000      .000      .000      .000
     4.600     4.400      .000   980.665      .010    49.000     7.958      .000
      .000    40.000      .000    49.000      .010      .300      .000      .000
     4.020    -5.116    11.860      .160    19.250      .011     -.001      .300
    40.000      .010      .010      .000      .010      .011      .000      .000
      .018      .190      .013      .011      .001      .000      .000      .000
      .000      .000      .000      .000      .000      .000      .000      .000
      .000      .000      .000      .000
      .050
      .040      .042      .044      .046      .048      .050      .055      .060
      .065      .070      .075      .080      .085      .090      .095      .100
      .110      .120      .130      .140      .150      .160      .170      .180
      .190      .200      .220      .240      .260      .280      .300      .320
      .340      .360      .380      .400      .420      .440      .460      .480
      .500      .550      .600      .650      .700      .750      .800      .850
      .900      .950     1.000     1.100     1.200     1.300     1.400     1.500
     1.600     1.700     1.800     1.900     2.000     2.200     2.400     2.600
     2.800     3.000     3.200     3.400     3.600     3.800     4.000     4.200
     4.400     4.600     4.800     5.000     5.500     6.000     6.500     7.000
     7.500     8.000     8.500     9.000     9.500    10.000    11.000    12.000
    13.000    14.000    15.000      .000      .000      .000      .000      .000
      .000      .000      .000      .000
Fourier amplitude spectra in in/sec.
  .000E+00  .000E+00  .000E+00  .000E+00  .000E+00  .000E+00  .000E+00  .000E+00
  .000E+00  .000E+00  .000E+00  .000E+00  .000E+00  .000E+00  .000E+00  .000E+00
  .000E+00  .000E+00  .000E+00  .000E+00  .000E+00  .000E+00  .000E+00  .000E+00
  .000E+00  .000E+00  .000E+00  .000E+00  .000E+00  .000E+00  .000E+00  .000E+00
  .000E+00  .000E+00  .000E+00  .000E+00  .000E+00  .000E+00  .000E+00  .000E+00
  .000E+00  .000E+00  .000E+00  .000E+00  .000E+00  .000E+00  .000E+00  .000E+00
  .000E+00  .000E+00  .000E+00  .000E+00  .000E+00  .000E+00  .000E+00  .000E+00
  .000E+00  .000E+00  .000E+00  .000E+00  .000E+00  .000E+00  .000E+00  .000E+00
  .000E+00  .000E+00  .000E+00  .000E+00  .000E+00  .000E+00  .000E+00  .000E+00
  .000E+00  .000E+00  .000E+00  .000E+00  .000E+00  .000E+00  .000E+00  .000E+00
  .000E+00  .000E+00  .000E+00  .000E+00  .000E+00  .000E+00  .000E+00  .000E+00
  .000E+00  .000E+00  .000E+00  .000E+00  .000E+00  .000E+00  .000E+00  .000E+00
  .000E+00  .000E+00  .000E+00  .000E+00
Damping =  .05. Data of Sd,Sv,Sa,Pssv,ttSd,ttSv,ttSa :
  .106E-03  .106E-03  .116E-03  .133E-03  .142E-03  .156E-03  .213E-03  .328E-03
  .316E-03  .510E-03  .799E-03  .965E-03  .921E-03  .112E-02  .122E-02  .139E-02
  .152E-02  .190E-02  .191E-02  .234E-02  .314E-02  .286E-02  .367E-02  .489E-02
  .626E-02  .495E-02  .478E-02  .697E-02  .755E-02  .875E-02  .102E-01  .108E-01
  .111E-01  .851E-02  .847E-02  .109E-01  .111E-01  .110E-01  .112E-01  .108E-01
  .117E-01  .121E-01  .119E-01  .128E-01  .110E-01  .119E-01  .156E-01  .157E-01
  .154E-01  .113E-01  .111E-01  .971E-02  .100E-01  .979E-02  .108E-01  .111E-01
  .120E-01  .127E-01  .123E-01  .123E-01  .120E-01  .190E-01  .173E-01  .136E-01
  .129E-01  .149E-01  .162E-01  .147E-01  .126E-01  .106E-01  .925E-02  .860E-02
  .783E-02  .730E-02  .705E-02  .692E-02  .636E-02  .575E-02  .559E-02  .559E-02
  .548E-02  .528E-02  .511E-02  .502E-02  .501E-02  .504E-02  .505E-02  .495E-02
  .477E-02  .482E-02  .494E-02  .000E+00  .000E+00  .000E+00  .000E+00  .000E+00
  .000E+00  .000E+00  .000E+00  .000E+00
  .847E-02  .868E-02  .957E-02  .103E-01  .103E-01  .115E-01  .177E-01  .260E-01
  .222E-01  .310E-01  .507E-01  .661E-01  .591E-01  .716E-01  .719E-01  .794E-01
  .788E-01  .970E-01  .932E-01  .933E-01  .122E+00  .101E+00  .129E+00  .161E+00
  .204E+00  .160E+00  .142E+00  .164E+00  .169E+00  .187E+00  .211E+00  .218E+00
  .206E+00  .162E+00  .150E+00  .185E+00  .184E+00  .172E+00  .144E+00  .150E+00
  .150E+00  .147E+00  .135E+00  .152E+00  .115E+00  .109E+00  .128E+00  .125E+00
  .111E+00  .910E-01  .855E-01  .906E-01  .781E-01  .745E-01  .683E-01  .855E-01
  .867E-01  .747E-01  .660E-01  .650E-01  .657E-01  .672E-01  .699E-01  .659E-01
  .688E-01  .718E-01  .707E-01  .683E-01  .669E-01  .664E-01  .664E-01  .661E-01
  .657E-01  .651E-01  .646E-01  .643E-01  .639E-01  .640E-01  .640E-01  .639E-01
  .637E-01  .636E-01  .635E-01  .634E-01  .634E-01  .634E-01  .635E-01  .635E-01
  .635E-01  .634E-01  .634E-01  .000E+00  .000E+00  .000E+00  .000E+00  .000E+00
  .000E+00  .000E+00  .000E+00  .000E+00
  .675E-02  .617E-02  .614E-02  .644E-02  .630E-02  .635E-02  .714E-02  .927E-02
  .765E-02  .106E-01  .146E-01  .154E-01  .131E-01  .143E-01  .139E-01  .143E-01
  .128E-01  .136E-01  .115E-01  .122E-01  .144E-01  .114E-01  .130E-01  .154E-01
  .178E-01  .126E-01  .101E-01  .124E-01  .114E-01  .115E-01  .117E-01  .108E-01
  .983E-02  .676E-02  .602E-02  .703E-02  .649E-02  .587E-02  .546E-02  .480E-02
  .480E-02  .411E-02  .339E-02  .313E-02  .232E-02  .217E-02  .251E-02  .224E-02
  .196E-02  .129E-02  .115E-02  .825E-03  .716E-03  .598E-03  .569E-03  .510E-03
  .482E-03  .453E-03  .392E-03  .350E-03  .308E-03  .409E-03  .311E-03  .211E-03
  .170E-03  .171E-03  .163E-03  .134E-03  .103E-03  .791E-04  .613E-04  .514E-04
  .431E-04  .378E-04  .347E-04  .321E-04  .270E-04  .234E-04  .206E-04  .185E-04
  .168E-04  .155E-04  .143E-04  .133E-04  .125E-04  .118E-04  .105E-04  .949E-05
  .865E-05  .794E-05  .733E-05  .000E+00  .000E+00  .000E+00  .000E+00  .000E+00
  .000E+00  .000E+00  .000E+00  .000E+00
  .166E-01  .159E-01  .166E-01  .182E-01  .186E-01  .196E-01  .243E-01  .344E-01
  .305E-01  .457E-01  .670E-01  .758E-01  .681E-01  .783E-01  .810E-01  .874E-01
  .870E-01  .997E-01  .923E-01  .105E+00  .132E+00  .112E+00  .136E+00  .171E+00
  .207E+00  .156E+00  .136E+00  .182E+00  .182E+00  .196E+00  .213E+00  .211E+00
  .205E+00  .148E+00  .140E+00  .171E+00  .166E+00  .157E+00  .153E+00  .141E+00
  .147E+00  .138E+00  .124E+00  .124E+00  .992E-01  .994E-01  .123E+00  .116E+00
  .107E+00  .747E-01  .700E-01  .555E-01  .525E-01  .473E-01  .487E-01  .467E-01
  .472E-01  .470E-01  .430E-01  .406E-01  .376E-01  .544E-01  .454E-01  .329E-01
  .289E-01  .311E-01  .318E-01  .272E-01  .221E-01  .176E-01  .145E-01  .129E-01
  .112E-01  .997E-02  .923E-02  .870E-02  .726E-02  .602E-02  .541E-02  .502E-02
  .459E-02  .414E-02  .377E-02  .350E-02  .331E-02  .317E-02  .289E-02  .259E-02
  .230E-02  .216E-02  .207E-02  .000E+00  .000E+00  .000E+00  .000E+00  .000E+00
  .000E+00  .000E+00  .000E+00  .000E+00
  .403E+01  .403E+01  .883E+01  .884E+01  .884E+01  .884E+01  .515E+01  .402E+01
  .402E+01  .402E+01  .403E+01  .403E+01  .751E+01  .752E+01  .419E+01  .419E+01
  .466E+01  .467E+01  .525E+01  .902E+01  .912E+01  .913E+01  .772E+01  .914E+01
  .916E+01  .918E+01  .127E+02  .121E+02  .121E+02  .121E+02  .121E+02  .122E+02
  .135E+02  .131E+02  .122E+02  .120E+02  .121E+02  .835E+01  .836E+01  .838E+01
  .893E+01  .928E+01  .932E+01  .910E+01  .205E+02  .263E+02  .261E+02  .257E+02
  .258E+02  .254E+02  .200E+02  .471E+02  .473E+02  .201E+02  .468E+02  .468E+02
  .469E+02  .463E+02  .463E+02  .457E+02  .401E+02  .197E+02  .198E+02  .198E+02
  .191E+02  .191E+02  .192E+02  .192E+02  .193E+02  .193E+02  .183E+02  .183E+02
  .183E+02  .183E+02  .183E+02  .183E+02  .183E+02  .183E+02  .183E+02  .183E+02
  .183E+02  .183E+02  .183E+02  .183E+02  .183E+02  .183E+02  .183E+02  .183E+02
  .183E+02  .192E+02  .192E+02  .000E+00  .000E+00  .000E+00  .000E+00  .000E+00
  .000E+00  .000E+00  .000E+00  .000E+00
  .262E+01  .345E+01  .714E+01  .346E+01  .346E+01  .643E+01  .398E+01  .383E+01
  .383E+01  .400E+01  .405E+01  .405E+01  .749E+01  .755E+01  .421E+01  .422E+01
  .469E+01  .470E+01  .522E+01  .906E+01  .908E+01  .917E+01  .776E+01  .769E+01
  .911E+01  .913E+01  .771E+01  .120E+02  .122E+02  .121E+02  .121E+02  .121E+02
  .135E+02  .126E+02  .125E+02  .125E+02  .120E+02  .120E+02  .827E+01  .830E+01
  .831E+01  .888E+01  .889E+01  .135E+02  .120E+02  .269E+02  .262E+02  .259E+02
  .260E+02  .252E+02  .202E+02  .118E+02  .126E+02  .819E+01  .643E+01  .120E+02
  .120E+02  .120E+02  .118E+02  .765E+01  .765E+01  .118E+02  .118E+02  .118E+02
  .118E+02  .118E+02  .118E+02  .118E+02  .118E+02  .118E+02  .118E+02  .118E+02
  .118E+02  .118E+02  .118E+02  .118E+02  .118E+02  .118E+02  .118E+02  .118E+02
  .118E+02  .118E+02  .118E+02  .118E+02  .118E+02  .118E+02  .118E+02  .118E+02
  .118E+02  .118E+02  .118E+02  .000E+00  .000E+00  .000E+00  .000E+00  .000E+00
  .000E+00  .000E+00  .000E+00  .000E+00
  .403E+01  .403E+01  .883E+01  .884E+01  .884E+01  .884E+01  .515E+01  .402E+01
  .402E+01  .402E+01  .403E+01  .403E+01  .751E+01  .752E+01  .418E+01  .419E+01
  .465E+01  .467E+01  .525E+01  .902E+01  .911E+01  .912E+01  .772E+01  .914E+01
  .916E+01  .918E+01  .127E+02  .121E+02  .121E+02  .121E+02  .121E+02  .122E+02
  .135E+02  .131E+02  .122E+02  .120E+02  .121E+02  .834E+01  .836E+01  .837E+01
  .893E+01  .927E+01  .931E+01  .909E+01  .205E+02  .263E+02  .260E+02  .257E+02
  .258E+02  .254E+02  .200E+02  .471E+02  .473E+02  .200E+02  .468E+02  .468E+02
  .469E+02  .463E+02  .463E+02  .456E+02  .401E+02  .196E+02  .198E+02  .198E+02
  .190E+02  .190E+02  .192E+02  .192E+02  .192E+02  .192E+02  .181E+02  .183E+02
  .183E+02  .399E+01  .399E+01  .399E+01  .399E+01  .399E+01  .399E+01  .399E+01
  .399E+01  .398E+01  .398E+01  .398E+01  .398E+01  .398E+01  .398E+01  .398E+01
  .398E+01  .398E+01  .398E+01  .000E+00  .000E+00  .000E+00  .000E+00  .000E+00
  .000E+00  .000E+00  .000E+00  .000E+00
/&   ----------  End of spectral data for channel  3  ----------
