Response and Fourier amplitude spectra (91 periods,  .04 - 15.0 sec)   for      
Corrected accelerogram   24680-F0322-01252.02       Chan  1:  Up         from   
Uncorrected Accelerogram Data             Processed: 09/10/01, CDMG  s680e02    
Earthquake of Sun Sep  9, 2001  16:59 PDT             (Avol1 v4.6  7/01 CSMIP)  
CSMIP Preliminary Processing            (Origin:  To be determined)             
24680-F0322-01252.02                 Start time:  9/09/01, 23:59:16.1 GMT (WWVB)
Station No. 24680   34.152N, 118.453W     SSA-2  s/n  322  (3 Channels)         
Sherman Oaks - 14-story Commercial Bldg                                         
Chan  1:  Up                        Location: Ground Floor: West Shear Wall     
Earthquake of Sun Sep  9, 2001  16:59 PDT    Sun Sep  9, 2001  16:59 PDT        
Hypocenter:  To be determined.               ML:  To be determined.
Instr Period =  .0222 sec,  Damping =  .700,  Sensitivity = 1.25  v/g
                        Record length = 67.840 sec.
                                     Uncor Max  =   .028 g, at   7.250 sec.
RMS accel of (uncor) record  =        .
Accelerogram bandpass filtered with 3 dB pts at   .30 and 40.00 cyc/sec
                 instrument- and baseline-corrected





Earthquake of Sun Sep  9, 2001  16:59 PDT    Sun Sep  9, 2001  16:59 PDT

24680-F0322-01252.02      Sherman Oaks - 14-story Commercial Bldg   Chan  1:  Up

24680-F0322-01252.02      Sherman Oaks - 14-story Commercial Bldg   Chan  1:  Up

Units for spectra are inches and sec, except Sa is in fraction of g.

    1  100    1    3   15  200    1    3    1   12    6  322    024680    2    0
   23   59   16  100  252    9    9 2001   10    1  50013568   41   39   72   12
13568    1   50    0 3113    1    2   53    0   23   59   28  680    9    9 2001
    0    0    0    0 6784    2    0    0    0    0   72   39    0    0    0 6784
    0 6784   40   91    1    3    0    0    0    0   15    0    0    0    0    2
    2    2    4    0   79   99    1   32   32    0    0    0    0    0    9  129
  -99   -1    0    0
      .022      .700    67.840      .002      .000  1250.000      .028     7.250
    45.000  1220.703   976.563      .000     5.000      .000      .000      .000
     2.500   -24.087     -.004     -.065     5.120    30.000      .000      .103
      .096     -.007     2.000    15.000    34.152  -118.453      .411      .416
     1.010     -.064      .049  -999.000      .000      .000      .000      .000
     2.166    -1.053      .000      .000      .000      .000      .000      .000
     4.600     4.400      .000   980.665      .010    67.840     7.162      .000
      .000    40.000      .000    67.840      .010      .300      .000      .000
     7.250    27.355     7.980     -.790     7.910      .053      .001      .300
    40.000      .010      .010      .000      .010      .031      .000      .000
      .098      .140      .071      .054      .003      .000      .000      .000
      .000      .000      .000      .000      .000      .000      .000      .000
      .000      .000      .000      .000
      .050
      .040      .042      .044      .046      .048      .050      .055      .060
      .065      .070      .075      .080      .085      .090      .095      .100
      .110      .120      .130      .140      .150      .160      .170      .180
      .190      .200      .220      .240      .260      .280      .300      .320
      .340      .360      .380      .400      .420      .440      .460      .480
      .500      .550      .600      .650      .700      .750      .800      .850
      .900      .950     1.000     1.100     1.200     1.300     1.400     1.500
     1.600     1.700     1.800     1.900     2.000     2.200     2.400     2.600
     2.800     3.000     3.200     3.400     3.600     3.800     4.000     4.200
     4.400     4.600     4.800     5.000     5.500     6.000     6.500     7.000
     7.500     8.000     8.500     9.000     9.500    10.000    11.000    12.000
    13.000    14.000    15.000      .000      .000      .000      .000      .000
      .000      .000      .000      .000
Fourier amplitude spectra in in/sec.
  .000E+00  .000E+00  .000E+00  .000E+00  .000E+00  .000E+00  .000E+00  .000E+00
  .000E+00  .000E+00  .000E+00  .000E+00  .000E+00  .000E+00  .000E+00  .000E+00
  .000E+00  .000E+00  .000E+00  .000E+00  .000E+00  .000E+00  .000E+00  .000E+00
  .000E+00  .000E+00  .000E+00  .000E+00  .000E+00  .000E+00  .000E+00  .000E+00
  .000E+00  .000E+00  .000E+00  .000E+00  .000E+00  .000E+00  .000E+00  .000E+00
  .000E+00  .000E+00  .000E+00  .000E+00  .000E+00  .000E+00  .000E+00  .000E+00
  .000E+00  .000E+00  .000E+00  .000E+00  .000E+00  .000E+00  .000E+00  .000E+00
  .000E+00  .000E+00  .000E+00  .000E+00  .000E+00  .000E+00  .000E+00  .000E+00
  .000E+00  .000E+00  .000E+00  .000E+00  .000E+00  .000E+00  .000E+00  .000E+00
  .000E+00  .000E+00  .000E+00  .000E+00  .000E+00  .000E+00  .000E+00  .000E+00
  .000E+00  .000E+00  .000E+00  .000E+00  .000E+00  .000E+00  .000E+00  .000E+00
  .000E+00  .000E+00  .000E+00  .000E+00  .000E+00  .000E+00  .000E+00  .000E+00
  .000E+00  .000E+00  .000E+00  .000E+00
Damping =  .05. Data of Sd,Sv,Sa,Pssv,ttSd,ttSv,ttSa :
  .454E-03  .498E-03  .551E-03  .620E-03  .665E-03  .702E-03  .877E-03  .129E-02
  .193E-02  .244E-02  .272E-02  .325E-02  .378E-02  .445E-02  .529E-02  .577E-02
  .891E-02  .112E-01  .123E-01  .185E-01  .165E-01  .224E-01  .255E-01  .237E-01
  .282E-01  .299E-01  .267E-01  .261E-01  .410E-01  .458E-01  .451E-01  .512E-01
  .690E-01  .793E-01  .764E-01  .594E-01  .615E-01  .744E-01  .757E-01  .676E-01
  .502E-01  .402E-01  .503E-01  .409E-01  .330E-01  .308E-01  .357E-01  .375E-01
  .342E-01  .301E-01  .309E-01  .408E-01  .491E-01  .431E-01  .354E-01  .444E-01
  .454E-01  .445E-01  .409E-01  .377E-01  .368E-01  .365E-01  .330E-01  .302E-01
  .313E-01  .296E-01  .336E-01  .348E-01  .313E-01  .285E-01  .275E-01  .263E-01
  .249E-01  .235E-01  .223E-01  .207E-01  .210E-01  .209E-01  .219E-01  .229E-01
  .231E-01  .229E-01  .234E-01  .238E-01  .239E-01  .237E-01  .230E-01  .221E-01
  .224E-01  .226E-01  .226E-01  .000E+00  .000E+00  .000E+00  .000E+00  .000E+00
  .000E+00  .000E+00  .000E+00  .000E+00
  .393E-01  .450E-01  .558E-01  .576E-01  .552E-01  .624E-01  .911E-01  .124E+00
  .168E+00  .205E+00  .200E+00  .194E+00  .223E+00  .220E+00  .231E+00  .259E+00
  .418E+00  .507E+00  .490E+00  .758E+00  .655E+00  .866E+00  .963E+00  .848E+00
  .855E+00  .908E+00  .735E+00  .649E+00  .989E+00  .101E+01  .911E+00  .994E+00
  .129E+01  .136E+01  .129E+01  .998E+00  .964E+00  .119E+01  .115E+01  .968E+00
  .768E+00  .591E+00  .653E+00  .554E+00  .410E+00  .412E+00  .477E+00  .449E+00
  .453E+00  .436E+00  .418E+00  .410E+00  .401E+00  .437E+00  .431E+00  .417E+00
  .387E+00  .352E+00  .343E+00  .331E+00  .322E+00  .324E+00  .333E+00  .343E+00
  .347E+00  .344E+00  .337E+00  .330E+00  .323E+00  .319E+00  .318E+00  .317E+00
  .316E+00  .315E+00  .313E+00  .312E+00  .309E+00  .310E+00  .312E+00  .313E+00
  .314E+00  .314E+00  .315E+00  .315E+00  .315E+00  .314E+00  .314E+00  .313E+00
  .313E+00  .312E+00  .312E+00  .000E+00  .000E+00  .000E+00  .000E+00  .000E+00
  .000E+00  .000E+00  .000E+00  .000E+00
  .291E-01  .288E-01  .292E-01  .301E-01  .296E-01  .287E-01  .302E-01  .373E-01
  .463E-01  .515E-01  .495E-01  .522E-01  .539E-01  .560E-01  .600E-01  .586E-01
  .761E-01  .803E-01  .754E-01  .981E-01  .759E-01  .908E-01  .906E-01  .749E-01
  .795E-01  .769E-01  .569E-01  .468E-01  .626E-01  .598E-01  .513E-01  .513E-01
  .616E-01  .628E-01  .545E-01  .382E-01  .358E-01  .395E-01  .369E-01  .303E-01
  .208E-01  .137E-01  .144E-01  .100E-01  .695E-02  .569E-02  .576E-02  .537E-02
  .435E-02  .346E-02  .324E-02  .352E-02  .356E-02  .268E-02  .191E-02  .205E-02
  .187E-02  .163E-02  .134E-02  .112E-02  .993E-03  .824E-03  .652E-03  .485E-03
  .435E-03  .360E-03  .341E-03  .320E-03  .293E-03  .265E-03  .238E-03  .213E-03
  .191E-03  .171E-03  .154E-03  .140E-03  .127E-03  .113E-03  .100E-03  .888E-04
  .793E-04  .733E-04  .692E-04  .649E-04  .607E-04  .567E-04  .500E-04  .444E-04
  .400E-04  .364E-04  .335E-04  .000E+00  .000E+00  .000E+00  .000E+00  .000E+00
  .000E+00  .000E+00  .000E+00  .000E+00
  .713E-01  .745E-01  .787E-01  .847E-01  .871E-01  .882E-01  .100E+00  .135E+00
  .186E+00  .219E+00  .228E+00  .255E+00  .279E+00  .311E+00  .350E+00  .362E+00
  .509E+00  .588E+00  .597E+00  .832E+00  .691E+00  .878E+00  .941E+00  .827E+00
  .933E+00  .939E+00  .764E+00  .683E+00  .990E+00  .103E+01  .944E+00  .101E+01
  .128E+01  .138E+01  .126E+01  .932E+00  .920E+00  .106E+01  .103E+01  .885E+00
  .631E+00  .460E+00  .527E+00  .396E+00  .296E+00  .258E+00  .281E+00  .277E+00
  .238E+00  .199E+00  .194E+00  .233E+00  .257E+00  .208E+00  .159E+00  .186E+00
  .178E+00  .164E+00  .143E+00  .125E+00  .116E+00  .104E+00  .863E-01  .729E-01
  .703E-01  .620E-01  .659E-01  .642E-01  .546E-01  .471E-01  .433E-01  .393E-01
  .356E-01  .320E-01  .292E-01  .260E-01  .239E-01  .219E-01  .212E-01  .205E-01
  .194E-01  .180E-01  .173E-01  .166E-01  .158E-01  .149E-01  .131E-01  .116E-01
  .108E-01  .101E-01  .946E-02  .000E+00  .000E+00  .000E+00  .000E+00  .000E+00
  .000E+00  .000E+00  .000E+00  .000E+00
  .726E+01  .723E+01  .723E+01  .723E+01  .724E+01  .725E+01  .748E+01  .752E+01
  .752E+01  .757E+01  .758E+01  .724E+01  .724E+01  .724E+01  .725E+01  .725E+01
  .725E+01  .793E+01  .733E+01  .734E+01  .736E+01  .778E+01  .771E+01  .772E+01
  .793E+01  .805E+01  .740E+01  .808E+01  .809E+01  .813E+01  .996E+01  .103E+02
  .104E+02  .104E+02  .104E+02  .104E+02  .104E+02  .104E+02  .103E+02  .103E+02
  .103E+02  .116E+02  .103E+02  .101E+02  .130E+02  .103E+02  .805E+01  .807E+01
  .808E+01  .809E+01  .101E+02  .101E+02  .101E+02  .101E+02  .989E+01  .128E+02
  .114E+02  .991E+01  .992E+01  .992E+01  .992E+01  .992E+01  .103E+02  .940E+01
  .411E+02  .400E+02  .401E+02  .404E+02  .405E+02  .790E+01  .790E+01  .790E+01
  .790E+01  .790E+01  .327E+02  .790E+01  .101E+02  .101E+02  .856E+01  .856E+01
  .856E+01  .856E+01  .992E+01  .992E+01  .992E+01  .992E+01  .992E+01  .790E+01
  .790E+01  .790E+01  .790E+01  .000E+00  .000E+00  .000E+00  .000E+00  .000E+00
  .000E+00  .000E+00  .000E+00  .000E+00
  .489E+01  .489E+01  .489E+01  .490E+01  .481E+01  .480E+01  .749E+01  .750E+01
  .750E+01  .755E+01  .756E+01  .479E+01  .480E+01  .480E+01  .727E+01  .728E+01
  .728E+01  .790E+01  .730E+01  .731E+01  .740E+01  .774E+01  .775E+01  .776E+01
  .769E+01  .800E+01  .744E+01  .802E+01  .803E+01  .806E+01  .823E+01  .104E+02
  .104E+02  .105E+02  .103E+02  .103E+02  .103E+02  .103E+02  .104E+02  .102E+02
  .102E+02  .861E+01  .102E+02  .102E+02  .983E+01  .817E+01  .102E+02  .102E+02
  .797E+01  .797E+01  .797E+01  .102E+02  .797E+01  .100E+02  .100E+02  .100E+02
  .100E+02  .797E+01  .797E+01  .797E+01  .797E+01  .983E+01  .983E+01  .797E+01
  .797E+01  .797E+01  .797E+01  .797E+01  .797E+01  .728E+01  .728E+01  .728E+01
  .728E+01  .728E+01  .728E+01  .728E+01  .728E+01  .797E+01  .797E+01  .797E+01
  .797E+01  .797E+01  .797E+01  .797E+01  .797E+01  .797E+01  .797E+01  .797E+01
  .797E+01  .797E+01  .797E+01  .000E+00  .000E+00  .000E+00  .000E+00  .000E+00
  .000E+00  .000E+00  .000E+00  .000E+00
  .726E+01  .723E+01  .723E+01  .723E+01  .724E+01  .725E+01  .748E+01  .751E+01
  .752E+01  .753E+01  .758E+01  .723E+01  .724E+01  .724E+01  .724E+01  .724E+01
  .725E+01  .792E+01  .733E+01  .734E+01  .743E+01  .777E+01  .779E+01  .772E+01
  .793E+01  .805E+01  .739E+01  .807E+01  .809E+01  .812E+01  .995E+01  .103E+02
  .104E+02  .104E+02  .104E+02  .104E+02  .104E+02  .104E+02  .103E+02  .103E+02
  .103E+02  .116E+02  .103E+02  .101E+02  .130E+02  .103E+02  .804E+01  .805E+01
  .807E+01  .807E+01  .101E+02  .101E+02  .101E+02  .101E+02  .987E+01  .128E+02
  .988E+01  .988E+01  .989E+01  .989E+01  .989E+01  .989E+01  .103E+02  .937E+01
  .853E+01  .853E+01  .786E+01  .786E+01  .786E+01  .786E+01  .786E+01  .786E+01
  .786E+01  .786E+01  .786E+01  .720E+01  .720E+01  .720E+01  .720E+01  .720E+01
  .720E+01  .985E+01  .985E+01  .985E+01  .985E+01  .984E+01  .984E+01  .984E+01
  .984E+01  .984E+01  .984E+01  .000E+00  .000E+00  .000E+00  .000E+00  .000E+00
  .000E+00  .000E+00  .000E+00  .000E+00
/&   ----------  End of spectral data for channel  1  ----------
