Response and Fourier amplitude spectra (91 periods,  .04 - 15.0 sec)   for      
Corrected accelerogram   24652-F0217-01337.02       Chan  2: 360 Deg     from   
Uncorrected Accelerogram Data             Processed: 06/06/08, CDMG  ce24652    
Record of Sun Sep  9, 2001 16:59:15.6 PDT             (Avol1 v7.5 7/07 CSMIP)   
CSMIP Preliminary Processing            (Origin:  To be determined)             
24652-F0217-01337.02                 Start time:  9/09/01, 23:59:15.6 UTC (WWVB)
Station No. 24652   34.021N, 118.287W     SSA-2  s/n  217  (3 Chns of 15 at Sta)
Los Angeles - 6-story Univ. Office Bldg   CGS                                   
Chan  2: 360 DegR (Sta Chn: 11)     Location: 3rd Floor: East Tower             
Record of Sun Sep  9, 2001 16:59:15.6 PDT    Sun Sep  9, 2001 16:59:15.6 PDT    
Hypocenter:  To be determined.               ML:  To be determined.
Instr Period =  .0222 sec,  Damping =  .700,  Sensitivity = 1.25  v/g  (Nominal)
                        Record length = 67.840 sec.
                                     Uncor Max  =  -.060 g , at   8.050 sec.
RMS accel of (uncor) record  =        .   Chn. metadata effective date: 01/01/04
Accelerogram bandpass filtered with 3 dB pts at   .50 and 40.00 cyc/sec
                 instrument- and baseline-corrected





Record of Sun Sep  9, 2001 16:59:15.6 PDT    Sun Sep  9, 2001 16:59:15.6 PDT

24652-F0217-01337.02      Los Angeles - 6-story Univ. Office Bldg   Chan  2: 360
 Deg
24652-F0217-01337.02      Los Angeles - 6-story Univ. Office Bldg   Chan  2: 360
 Deg
Units for spectra are inches and sec, except Sa is in fraction of g.

    2  100   11    3   15  200    1    3    1   12    6  217    024652    2    0
   23   59   15  615  252    9    9 2001   10    1  36013568   41   39   76  345
13568    0   50    3 3102    1    2   53    2   23   59   19  110    9    9 2001
    0    2    0    013568    1  220    1   12    4   76   39    0    0    013568
    313568   40   91    5    3    5    0    0    0   15    0    0    3    0    2
    2    2    4    0   79   99    1   32   32    0    0    1    0    0    8  333
    1    1    2    0
      .022      .700    67.840      .004      .000  1250.000     -.060     8.050
    45.000  1220.703   976.563      .000     5.000      .000      .000      .000
     2.500    -7.918     2.500  -999.000     5.120    30.000      .000      .103
      .075     -.028     2.000    15.000    34.021  -118.287      .049      .194
     3.969     -.039     -.017    54.000      .000      .000      .000      .000
      .000    -1.101     7.000      .000      .000      .000      .000      .000
     6.800     7.500     4.600   980.665      .005    67.840     7.162      .000
      .000    40.000      .000    67.840      .005      .500      .000      .000
     8.045   -59.282     8.085    -1.792    10.245     -.081      .001      .500
    40.000      .005      .005      .000      .345      .055      .000      .000
      .262      .110      .096      .106      .009      .001      .000      .000
      .000      .000      .000      .000      .000      .000      .000      .000
      .000      .000      .000      .000
      .000      .020      .050      .100      .200
      .040      .042      .044      .046      .048      .050      .055      .060
      .065      .070      .075      .080      .085      .090      .095      .100
      .110      .120      .130      .140      .150      .160      .170      .180
      .190      .200      .220      .240      .260      .280      .300      .320
      .340      .360      .380      .400      .420      .440      .460      .480
      .500      .550      .600      .650      .700      .750      .800      .850
      .900      .950     1.000     1.100     1.200     1.300     1.400     1.500
     1.600     1.700     1.800     1.900     2.000     2.200     2.400     2.600
     2.800     3.000     3.200     3.400     3.600     3.800     4.000     4.200
     4.400     4.600     4.800     5.000     5.500     6.000     6.500     7.000
     7.500     8.000     8.500     9.000     9.500    10.000    11.000    12.000
    13.000    14.000    15.000      .000      .000      .000      .000      .000
      .000      .000      .000      .000
Fourier amplitude spectra in in/sec.
  .106E+00  .241E-01  .468E-01  .151E-01  .791E-01  .129E+00  .513E-01  .437E-01
  .189E-01  .116E+00  .226E+00  .128E+01  .660E+00  .146E+01  .227E+01  .105E+01
  .353E+01  .243E+01  .792E+00  .223E+01  .444E+01  .124E+01  .195E+01  .261E+00
  .219E+01  .943E+00  .230E+01  .907E+01  .164E+00  .210E+01  .695E+01  .291E+01
  .452E+01  .342E+00  .318E+01  .325E+01  .656E+00  .130E+01  .143E+01  .166E+01
  .623E+00  .427E+00  .346E+00  .117E+00  .473E+00  .107E+01  .331E+01  .173E+01
  .181E+01  .106E+01  .159E+01  .228E+00  .180E+00  .530E+00  .298E+00  .342E+00
  .252E+00  .228E+00  .127E+00  .887E-01  .587E-01  .656E-01  .125E-01  .967E-02
  .173E-01  .353E-01  .224E-01  .169E-01  .168E-01  .134E-01  .149E-01  .205E-02
  .312E-02  .313E-02  .280E-02  .333E-02  .116E-02  .405E-03  .803E-03  .500E-03
  .104E-02  .287E-03  .105E-02  .730E-03  .996E-03  .977E-03  .587E-03  .759E-03
  .189E-03  .562E-03  .279E-03  .000E+00  .000E+00  .000E+00  .000E+00  .000E+00
  .000E+00  .000E+00  .000E+00  .000E+00
Damping =  .00. Data of Sd,Sv,Sa,Pssv,ttSd,ttSv,ttSa :
  .120E-02  .129E-02  .126E-02  .184E-02  .195E-02  .244E-02  .247E-02  .285E-02
  .417E-02  .434E-02  .719E-02  .172E-01  .133E-01  .229E-01  .349E-01  .309E-01
  .748E-01  .630E-01  .510E-01  .905E-01  .110E+00  .604E-01  .556E-01  .520E-01
  .751E-01  .562E-01  .936E-01  .385E+00  .155E+00  .198E+00  .337E+00  .158E+00
  .263E+00  .148E+00  .223E+00  .214E+00  .151E+00  .119E+00  .108E+00  .152E+00
  .112E+00  .591E-01  .576E-01  .602E-01  .107E+00  .194E+00  .500E+00  .257E+00
  .318E+00  .185E+00  .261E+00  .109E+00  .112E+00  .112E+00  .932E-01  .106E+00
  .120E+00  .809E-01  .607E-01  .564E-01  .507E-01  .422E-01  .404E-01  .410E-01
  .396E-01  .368E-01  .377E-01  .373E-01  .364E-01  .359E-01  .356E-01  .355E-01
  .354E-01  .351E-01  .346E-01  .341E-01  .330E-01  .324E-01  .323E-01  .325E-01
  .328E-01  .329E-01  .330E-01  .329E-01  .327E-01  .325E-01  .321E-01  .317E-01
  .314E-01  .312E-01  .311E-01  .000E+00  .000E+00  .000E+00  .000E+00  .000E+00
  .000E+00  .000E+00  .000E+00  .000E+00
  .125E+00  .699E-01  .701E-01  .115E+00  .140E+00  .182E+00  .146E+00  .168E+00
  .235E+00  .251E+00  .431E+00  .132E+01  .918E+00  .154E+01  .231E+01  .183E+01
  .410E+01  .327E+01  .243E+01  .402E+01  .460E+01  .246E+01  .219E+01  .196E+01
  .241E+01  .168E+01  .266E+01  .100E+02  .393E+01  .453E+01  .706E+01  .310E+01
  .487E+01  .259E+01  .375E+01  .366E+01  .254E+01  .171E+01  .155E+01  .197E+01
  .164E+01  .119E+01  .113E+01  .109E+01  .113E+01  .161E+01  .394E+01  .192E+01
  .225E+01  .123E+01  .174E+01  .949E+00  .861E+00  .808E+00  .715E+00  .683E+00
  .664E+00  .656E+00  .656E+00  .663E+00  .672E+00  .690E+00  .700E+00  .701E+00
  .699E+00  .697E+00  .696E+00  .697E+00  .699E+00  .700E+00  .701E+00  .701E+00
  .701E+00  .701E+00  .701E+00  .701E+00  .701E+00  .702E+00  .703E+00  .703E+00
  .703E+00  .704E+00  .704E+00  .704E+00  .704E+00  .704E+00  .704E+00  .704E+00
  .703E+00  .703E+00  .703E+00  .000E+00  .000E+00  .000E+00  .000E+00  .000E+00
  .000E+00  .000E+00  .000E+00  .000E+00
  .766E-01  .748E-01  .667E-01  .889E-01  .867E-01  .998E-01  .836E-01  .809E-01
  .101E+00  .906E-01  .131E+00  .275E+00  .189E+00  .289E+00  .396E+00  .316E+00
  .632E+00  .447E+00  .309E+00  .472E+00  .498E+00  .241E+00  .197E+00  .164E+00
  .213E+00  .144E+00  .198E+00  .683E+00  .235E+00  .258E+00  .383E+00  .158E+00
  .232E+00  .116E+00  .158E+00  .137E+00  .877E-01  .628E-01  .524E-01  .675E-01
  .460E-01  .200E-01  .164E-01  .146E-01  .223E-01  .353E-01  .799E-01  .364E-01
  .402E-01  .209E-01  .267E-01  .922E-02  .794E-02  .676E-02  .486E-02  .483E-02
  .478E-02  .286E-02  .192E-02  .160E-02  .130E-02  .891E-03  .718E-03  .620E-03
  .517E-03  .419E-03  .377E-03  .330E-03  .287E-03  .254E-03  .228E-03  .206E-03
  .187E-03  .169E-03  .154E-03  .140E-03  .111E-03  .919E-04  .782E-04  .679E-04
  .596E-04  .526E-04  .467E-04  .415E-04  .371E-04  .333E-04  .271E-04  .225E-04
  .190E-04  .163E-04  .141E-04  .000E+00  .000E+00  .000E+00  .000E+00  .000E+00
  .000E+00  .000E+00  .000E+00  .000E+00
  .188E+00  .193E+00  .180E+00  .251E+00  .256E+00  .307E+00  .282E+00  .298E+00
  .403E+00  .389E+00  .603E+00  .135E+01  .986E+00  .160E+01  .231E+01  .194E+01
  .427E+01  .330E+01  .246E+01  .406E+01  .459E+01  .237E+01  .205E+01  .181E+01
  .248E+01  .177E+01  .267E+01  .101E+02  .375E+01  .444E+01  .706E+01  .311E+01
  .485E+01  .258E+01  .368E+01  .336E+01  .226E+01  .170E+01  .148E+01  .199E+01
  .141E+01  .675E+00  .603E+00  .582E+00  .957E+00  .163E+01  .392E+01  .190E+01
  .222E+01  .122E+01  .164E+01  .623E+00  .585E+00  .540E+00  .418E+00  .445E+00
  .470E+00  .299E+00  .212E+00  .187E+00  .159E+00  .120E+00  .106E+00  .990E-01
  .890E-01  .772E-01  .741E-01  .688E-01  .635E-01  .593E-01  .560E-01  .531E-01
  .505E-01  .479E-01  .453E-01  .429E-01  .377E-01  .339E-01  .312E-01  .292E-01
  .274E-01  .259E-01  .244E-01  .230E-01  .217E-01  .204E-01  .183E-01  .166E-01
  .152E-01  .140E-01  .130E-01  .000E+00  .000E+00  .000E+00  .000E+00  .000E+00
  .000E+00  .000E+00  .000E+00  .000E+00
  .805E+01  .836E+01  .836E+01  .836E+01  .805E+01  .836E+01  .805E+01  .803E+01
  .836E+01  .835E+01  .855E+01  .126E+02  .856E+01  .123E+02  .405E+02  .843E+01
  .856E+01  .906E+01  .944E+01  .993E+01  .186E+02  .849E+01  .311E+02  .843E+01
  .119E+02  .968E+01  .209E+02  .202E+02  .111E+02  .980E+01  .235E+02  .173E+02
  .186E+02  .955E+01  .192E+02  .275E+02  .104E+02  .919E+01  .374E+02  .177E+02
  .106E+02  .104E+02  .220E+02  .978E+01  .106E+02  .164E+02  .267E+02  .405E+02
  .244E+02  .240E+02  .219E+02  .133E+02  .219E+02  .618E+02  .102E+02  .287E+02
  .219E+02  .360E+02  .930E+01  .930E+01  .930E+01  .930E+01  .930E+01  .930E+01
  .930E+01  .219E+02  .102E+02  .102E+02  .102E+02  .102E+02  .102E+02  .102E+02
  .102E+02  .102E+02  .102E+02  .102E+02  .102E+02  .102E+02  .102E+02  .102E+02
  .102E+02  .102E+02  .102E+02  .102E+02  .102E+02  .102E+02  .102E+02  .102E+02
  .102E+02  .102E+02  .102E+02  .000E+00  .000E+00  .000E+00  .000E+00  .000E+00
  .000E+00  .000E+00  .000E+00  .000E+00
  .473E+02  .834E+01  .852E+01  .851E+01  .833E+01  .852E+01  .828E+01  .832E+01
  .851E+01  .832E+01  .857E+01  .263E+02  .859E+01  .123E+02  .450E+02  .840E+01
  .859E+01  .910E+01  .895E+01  .996E+01  .187E+02  .852E+01  .846E+01  .839E+01
  .119E+02  .972E+01  .209E+02  .202E+02  .826E+01  .959E+01  .235E+02  .220E+02
  .186E+02  .947E+01  .191E+02  .106E+02  .105E+02  .910E+01  .913E+01  .142E+02
  .105E+02  .809E+01  .808E+01  .809E+01  .105E+02  .170E+02  .265E+02  .407E+02
  .246E+02  .243E+02  .217E+02  .103E+02  .103E+02  .103E+02  .808E+01  .808E+01
  .808E+01  .808E+01  .808E+01  .808E+01  .808E+01  .808E+01  .808E+01  .808E+01
  .808E+01  .808E+01  .808E+01  .808E+01  .808E+01  .808E+01  .808E+01  .808E+01
  .808E+01  .808E+01  .808E+01  .808E+01  .808E+01  .808E+01  .808E+01  .808E+01
  .808E+01  .808E+01  .808E+01  .808E+01  .808E+01  .808E+01  .808E+01  .808E+01
  .808E+01  .808E+01  .808E+01  .000E+00  .000E+00  .000E+00  .000E+00  .000E+00
  .000E+00  .000E+00  .000E+00  .000E+00
  .805E+01  .836E+01  .836E+01  .836E+01  .805E+01  .836E+01  .805E+01  .803E+01
  .836E+01  .835E+01  .855E+01  .126E+02  .856E+01  .123E+02  .405E+02  .843E+01
  .856E+01  .906E+01  .944E+01  .993E+01  .186E+02  .849E+01  .311E+02  .843E+01
  .119E+02  .968E+01  .209E+02  .202E+02  .111E+02  .980E+01  .235E+02  .173E+02
  .186E+02  .955E+01  .192E+02  .275E+02  .104E+02  .919E+01  .374E+02  .177E+02
  .106E+02  .104E+02  .220E+02  .978E+01  .106E+02  .164E+02  .267E+02  .405E+02
  .244E+02  .240E+02  .219E+02  .133E+02  .219E+02  .618E+02  .102E+02  .287E+02
  .219E+02  .360E+02  .930E+01  .930E+01  .930E+01  .930E+01  .930E+01  .930E+01
  .930E+01  .219E+02  .102E+02  .102E+02  .102E+02  .102E+02  .102E+02  .102E+02
  .102E+02  .102E+02  .102E+02  .102E+02  .102E+02  .102E+02  .102E+02  .102E+02
  .102E+02  .102E+02  .102E+02  .102E+02  .102E+02  .102E+02  .102E+02  .102E+02
  .102E+02  .102E+02  .102E+02  .000E+00  .000E+00  .000E+00  .000E+00  .000E+00
  .000E+00  .000E+00  .000E+00  .000E+00
Damping =  .02. Data of Sd,Sv,Sa,Pssv,ttSd,ttSv,ttSa :
  .103E-02  .119E-02  .132E-02  .147E-02  .162E-02  .183E-02  .212E-02  .284E-02
  .361E-02  .425E-02  .565E-02  .827E-02  .101E-01  .152E-01  .242E-01  .300E-01
  .454E-01  .463E-01  .414E-01  .534E-01  .605E-01  .510E-01  .468E-01  .429E-01
  .420E-01  .425E-01  .509E-01  .124E+00  .123E+00  .126E+00  .142E+00  .118E+00
  .134E+00  .124E+00  .117E+00  .135E+00  .105E+00  .955E-01  .807E-01  .907E-01
  .902E-01  .544E-01  .488E-01  .553E-01  .886E-01  .121E+00  .194E+00  .137E+00
  .160E+00  .147E+00  .130E+00  .829E-01  .775E-01  .805E-01  .843E-01  .712E-01
  .688E-01  .638E-01  .569E-01  .539E-01  .495E-01  .425E-01  .405E-01  .404E-01
  .391E-01  .367E-01  .369E-01  .367E-01  .361E-01  .357E-01  .354E-01  .353E-01
  .351E-01  .348E-01  .345E-01  .340E-01  .330E-01  .325E-01  .324E-01  .325E-01
  .327E-01  .328E-01  .329E-01  .328E-01  .327E-01  .325E-01  .321E-01  .317E-01
  .314E-01  .313E-01  .312E-01  .000E+00  .000E+00  .000E+00  .000E+00  .000E+00
  .000E+00  .000E+00  .000E+00  .000E+00
  .625E-01  .618E-01  .658E-01  .694E-01  .792E-01  .917E-01  .107E+00  .148E+00
  .196E+00  .232E+00  .302E+00  .502E+00  .577E+00  .845E+00  .139E+01  .177E+01
  .241E+01  .234E+01  .197E+01  .238E+01  .259E+01  .212E+01  .185E+01  .168E+01
  .164E+01  .147E+01  .154E+01  .309E+01  .295E+01  .293E+01  .300E+01  .245E+01
  .263E+01  .227E+01  .228E+01  .247E+01  .180E+01  .147E+01  .143E+01  .141E+01
  .138E+01  .119E+01  .112E+01  .108E+01  .104E+01  .127E+01  .158E+01  .102E+01
  .113E+01  .103E+01  .935E+00  .913E+00  .843E+00  .781E+00  .719E+00  .691E+00
  .673E+00  .665E+00  .664E+00  .669E+00  .676E+00  .691E+00  .700E+00  .701E+00
  .699E+00  .698E+00  .698E+00  .698E+00  .700E+00  .701E+00  .701E+00  .702E+00
  .702E+00  .702E+00  .702E+00  .702E+00  .702E+00  .702E+00  .703E+00  .703E+00
  .704E+00  .704E+00  .704E+00  .704E+00  .704E+00  .704E+00  .704E+00  .704E+00
  .704E+00  .704E+00  .704E+00  .000E+00  .000E+00  .000E+00  .000E+00  .000E+00
  .000E+00  .000E+00  .000E+00  .000E+00
  .660E-01  .691E-01  .695E-01  .712E-01  .719E-01  .746E-01  .717E-01  .809E-01
  .873E-01  .888E-01  .103E+00  .132E+00  .143E+00  .192E+00  .275E+00  .307E+00
  .384E+00  .330E+00  .250E+00  .279E+00  .274E+00  .204E+00  .166E+00  .136E+00
  .119E+00  .109E+00  .108E+00  .221E+00  .185E+00  .165E+00  .161E+00  .118E+00
  .119E+00  .980E-01  .827E-01  .866E-01  .607E-01  .505E-01  .391E-01  .403E-01
  .370E-01  .184E-01  .139E-01  .134E-01  .185E-01  .221E-01  .311E-01  .194E-01
  .202E-01  .167E-01  .133E-01  .702E-02  .553E-02  .489E-02  .442E-02  .326E-02
  .275E-02  .227E-02  .181E-02  .154E-02  .128E-02  .911E-03  .731E-03  .624E-03
  .523E-03  .438E-03  .381E-03  .337E-03  .297E-03  .265E-03  .240E-03  .220E-03
  .203E-03  .189E-03  .175E-03  .163E-03  .138E-03  .118E-03  .103E-03  .921E-04
  .831E-04  .758E-04  .696E-04  .643E-04  .598E-04  .558E-04  .490E-04  .436E-04
  .393E-04  .357E-04  .326E-04  .000E+00  .000E+00  .000E+00  .000E+00  .000E+00
  .000E+00  .000E+00  .000E+00  .000E+00
  .162E+00  .178E+00  .188E+00  .201E+00  .212E+00  .230E+00  .243E+00  .298E+00
  .349E+00  .381E+00  .473E+00  .649E+00  .749E+00  .106E+01  .160E+01  .189E+01
  .259E+01  .242E+01  .200E+01  .240E+01  .253E+01  .200E+01  .173E+01  .150E+01
  .139E+01  .134E+01  .145E+01  .326E+01  .296E+01  .283E+01  .297E+01  .231E+01
  .248E+01  .216E+01  .193E+01  .212E+01  .156E+01  .136E+01  .110E+01  .119E+01
  .113E+01  .621E+00  .511E+00  .535E+00  .796E+00  .102E+01  .153E+01  .101E+01
  .111E+01  .972E+00  .817E+00  .473E+00  .406E+00  .389E+00  .378E+00  .298E+00
  .270E+00  .236E+00  .199E+00  .178E+00  .156E+00  .121E+00  .106E+00  .975E-01
  .877E-01  .768E-01  .724E-01  .678E-01  .630E-01  .590E-01  .557E-01  .528E-01
  .502E-01  .476E-01  .451E-01  .428E-01  .377E-01  .340E-01  .313E-01  .292E-01
  .274E-01  .258E-01  .243E-01  .229E-01  .216E-01  .204E-01  .183E-01  .166E-01
  .152E-01  .140E-01  .131E-01  .000E+00  .000E+00  .000E+00  .000E+00  .000E+00
  .000E+00  .000E+00  .000E+00  .000E+00
  .804E+01  .836E+01  .836E+01  .836E+01  .805E+01  .836E+01  .805E+01  .835E+01
  .836E+01  .835E+01  .855E+01  .836E+01  .836E+01  .836E+01  .836E+01  .838E+01
  .856E+01  .864E+01  .865E+01  .866E+01  .868E+01  .848E+01  .842E+01  .843E+01
  .828E+01  .829E+01  .943E+01  .107E+02  .109E+02  .952E+01  .108E+02  .860E+01
  .108E+02  .864E+01  .866E+01  .107E+02  .106E+02  .918E+01  .901E+01  .105E+02
  .106E+02  .104E+02  .802E+01  .106E+02  .106E+02  .220E+02  .191E+02  .117E+02
  .235E+02  .231E+02  .180E+02  .133E+02  .107E+02  .102E+02  .102E+02  .103E+02
  .178E+02  .125E+02  .930E+01  .930E+01  .930E+01  .930E+01  .930E+01  .930E+01
  .930E+01  .930E+01  .102E+02  .102E+02  .102E+02  .102E+02  .102E+02  .102E+02
  .102E+02  .102E+02  .102E+02  .102E+02  .102E+02  .102E+02  .102E+02  .102E+02
  .102E+02  .102E+02  .102E+02  .102E+02  .102E+02  .102E+02  .102E+02  .102E+02
  .102E+02  .102E+02  .102E+02  .000E+00  .000E+00  .000E+00  .000E+00  .000E+00
  .000E+00  .000E+00  .000E+00  .000E+00
  .834E+01  .834E+01  .834E+01  .852E+01  .834E+01  .852E+01  .832E+01  .833E+01
  .852E+01  .852E+01  .853E+01  .914E+01  .859E+01  .834E+01  .839E+01  .840E+01
  .859E+01  .867E+01  .868E+01  .870E+01  .864E+01  .845E+01  .846E+01  .839E+01
  .832E+01  .833E+01  .826E+01  .108E+02  .108E+02  .959E+01  .109E+02  .867E+01
  .107E+02  .857E+01  .859E+01  .106E+02  .105E+02  .807E+01  .808E+01  .808E+01
  .808E+01  .808E+01  .808E+01  .808E+01  .105E+02  .105E+02  .193E+02  .114E+02
  .241E+02  .234E+02  .217E+02  .103E+02  .103E+02  .103E+02  .808E+01  .808E+01
  .808E+01  .808E+01  .808E+01  .808E+01  .808E+01  .808E+01  .808E+01  .808E+01
  .808E+01  .808E+01  .808E+01  .808E+01  .808E+01  .808E+01  .808E+01  .808E+01
  .808E+01  .808E+01  .808E+01  .808E+01  .808E+01  .808E+01  .808E+01  .808E+01
  .808E+01  .808E+01  .808E+01  .808E+01  .808E+01  .808E+01  .808E+01  .808E+01
  .808E+01  .808E+01  .808E+01  .000E+00  .000E+00  .000E+00  .000E+00  .000E+00
  .000E+00  .000E+00  .000E+00  .000E+00
  .804E+01  .836E+01  .836E+01  .836E+01  .805E+01  .836E+01  .805E+01  .835E+01
  .836E+01  .835E+01  .855E+01  .836E+01  .836E+01  .836E+01  .836E+01  .838E+01
  .856E+01  .864E+01  .865E+01  .866E+01  .868E+01  .848E+01  .842E+01  .843E+01
  .828E+01  .829E+01  .943E+01  .107E+02  .109E+02  .952E+01  .108E+02  .860E+01
  .108E+02  .864E+01  .866E+01  .107E+02  .106E+02  .918E+01  .901E+01  .105E+02
  .106E+02  .104E+02  .802E+01  .106E+02  .106E+02  .220E+02  .191E+02  .117E+02
  .235E+02  .231E+02  .180E+02  .132E+02  .107E+02  .102E+02  .102E+02  .102E+02
  .177E+02  .125E+02  .928E+01  .929E+01  .929E+01  .929E+01  .929E+01  .929E+01
  .929E+01  .835E+01  .835E+01  .102E+02  .102E+02  .102E+02  .834E+01  .834E+01
  .834E+01  .834E+01  .834E+01  .834E+01  .834E+01  .834E+01  .834E+01  .834E+01
  .834E+01  .834E+01  .834E+01  .834E+01  .834E+01  .834E+01  .834E+01  .833E+01
  .833E+01  .833E+01  .833E+01  .000E+00  .000E+00  .000E+00  .000E+00  .000E+00
  .000E+00  .000E+00  .000E+00  .000E+00
Damping =  .05. Data of Sd,Sv,Sa,Pssv,ttSd,ttSv,ttSa :
  .102E-02  .116E-02  .130E-02  .145E-02  .161E-02  .177E-02  .216E-02  .279E-02
