Response and Fourier amplitude spectra (91 periods,  .04 - 15.0 sec)   for      
Corrected accelerogram   24652-F0218-01337.02       Chan  2: 360 Deg     from   
Uncorrected Accelerogram Data             Processed: 06/06/08, CDMG  ce24652    
Record of Sun Sep  9, 2001 16:59:15.6 PDT             (Avol1 v7.5 7/07 CSMIP)   
CSMIP Preliminary Processing            (Origin:  To be determined)             
24652-F0218-01337.02                 Start time:  9/09/01, 23:59:15.6 UTC (WWVB)
Station No. 24652   34.021N, 118.287W     SSA-2  s/n  218  (3 Chns of 15 at Sta)
Los Angeles - 6-story Univ. Office Bldg   CGS                                   
Chan  2: 360 DegR (Sta Chn: 14)     Location: Roof: East Tower                  
Record of Sun Sep  9, 2001 16:59:15.6 PDT    Sun Sep  9, 2001 16:59:15.6 PDT    
Hypocenter:  To be determined.               ML:  To be determined.
Instr Period =  .0222 sec,  Damping =  .700,  Sensitivity = 1.25  v/g  (Nominal)
                        Record length = 67.840 sec.
                                     Uncor Max  =  -.043 g , at   8.180 sec.
RMS accel of (uncor) record  =        .   Chn. metadata effective date: 01/01/04
Accelerogram bandpass filtered with 3 dB pts at   .50 and 40.00 cyc/sec
                 instrument- and baseline-corrected





Record of Sun Sep  9, 2001 16:59:15.6 PDT    Sun Sep  9, 2001 16:59:15.6 PDT

24652-F0218-01337.02      Los Angeles - 6-story Univ. Office Bldg   Chan  2: 360
 Deg
24652-F0218-01337.02      Los Angeles - 6-story Univ. Office Bldg   Chan  2: 360
 Deg
Units for spectra are inches and sec, except Sa is in fraction of g.

    2  100   14    3   15  200    1    3    1   12    6  218    024652    2    0
   23   59   15  615  252    9    9 2001   10    1  36013568   41   39   76  345
13568    0   50    3 3102    1    2   53    2   23   59   17  950    9    9 2001
    0    2    0    013568    1  220    1   12    4   76   39    0    0    013568
    313568   40   91    5    3    5    0    0    0   15    0    0    3    0    2
    2    2    4    0   79   99    1   32   32    0    0    1    0    0    8  333
    1    1    2    0
      .022      .700    67.840      .004      .000  1250.000     -.043     8.180
    45.000  1220.703   976.563      .000     5.000      .000      .000      .000
     2.500   -12.262     2.500  -999.000     5.120    30.000      .000     -.038
     -.006      .032     2.000    15.000    34.021  -118.287      .480      .554
     1.154     -.036      .099    54.000      .000      .000      .000      .000
      .000    -1.031     7.000      .000      .000      .000      .000      .000
     6.800     7.500     4.600   980.665      .005    67.840     7.162      .000
      .000    40.000      .000    67.840      .005      .500      .000      .000
     8.180   -42.685     8.120     2.158    10.575      .141      .000      .500
    40.000      .005      .005      .000      .005      .112      .000      .000
      .117      .240      .084      .099      .019      .001      .000      .000
      .000      .000      .000      .000      .000      .000      .000      .000
      .000      .000      .000      .000
      .000      .020      .050      .100      .200
      .040      .042      .044      .046      .048      .050      .055      .060
      .065      .070      .075      .080      .085      .090      .095      .100
      .110      .120      .130      .140      .150      .160      .170      .180
      .190      .200      .220      .240      .260      .280      .300      .320
      .340      .360      .380      .400      .420      .440      .460      .480
      .500      .550      .600      .650      .700      .750      .800      .850
      .900      .950     1.000     1.100     1.200     1.300     1.400     1.500
     1.600     1.700     1.800     1.900     2.000     2.200     2.400     2.600
     2.800     3.000     3.200     3.400     3.600     3.800     4.000     4.200
     4.400     4.600     4.800     5.000     5.500     6.000     6.500     7.000
     7.500     8.000     8.500     9.000     9.500    10.000    11.000    12.000
    13.000    14.000    15.000      .000      .000      .000      .000      .000
      .000      .000      .000      .000
Fourier amplitude spectra in in/sec.
  .589E-01  .373E-01  .125E+00  .149E+00  .723E-01  .257E+00  .169E-01  .146E+00
  .280E-01  .243E+00  .224E+00  .170E+00  .133E+00  .204E+00  .488E+00  .360E+00
  .668E+00  .485E+00  .171E+00  .520E+00  .197E+01  .139E+01  .200E+01  .984E+00
  .355E+01  .148E+01  .273E+01  .750E+01  .654E+00  .163E+01  .562E+01  .249E+01
  .384E+01  .468E+00  .367E+01  .360E+01  .102E+01  .180E+01  .339E+01  .300E+01
  .135E+01  .112E+01  .829E+00  .213E+01  .228E+01  .279E+01  .108E+02  .379E+01
  .406E+01  .167E+01  .265E+01  .256E+00  .461E+00  .392E+00  .429E+00  .430E+00
  .292E+00  .349E+00  .110E+00  .144E+00  .102E+00  .118E+00  .251E-01  .595E-01
  .592E-02  .921E-02  .149E-01  .123E-01  .686E-02  .514E-02  .841E-02  .282E-02
  .469E-02  .119E-02  .125E-02  .204E-02  .104E-02  .123E-03  .286E-03  .127E-03
  .626E-03  .625E-03  .304E-03  .375E-04  .286E-03  .346E-03  .564E-04  .125E-03
  .113E-03  .208E-03  .112E-03  .000E+00  .000E+00  .000E+00  .000E+00  .000E+00
  .000E+00  .000E+00  .000E+00  .000E+00
Damping =  .00. Data of Sd,Sv,Sa,Pssv,ttSd,ttSv,ttSa :
  .733E-03  .856E-03  .112E-02  .172E-02  .154E-02  .209E-02  .153E-02  .302E-02
  .227E-02  .329E-02  .417E-02  .466E-02  .465E-02  .604E-02  .894E-02  .926E-02
  .176E-01  .172E-01  .155E-01  .313E-01  .504E-01  .528E-01  .571E-01  .528E-01
  .111E+00  .679E-01  .105E+00  .318E+00  .124E+00  .160E+00  .274E+00  .143E+00
  .237E+00  .137E+00  .253E+00  .248E+00  .171E+00  .174E+00  .253E+00  .306E+00
  .202E+00  .131E+00  .152E+00  .483E+00  .311E+00  .627E+00  .157E+01  .563E+00
  .717E+00  .316E+00  .508E+00  .220E+00  .225E+00  .140E+00  .135E+00  .156E+00
  .184E+00  .122E+00  .918E-01  .879E-01  .869E-01  .832E-01  .764E-01  .667E-01
  .668E-01  .604E-01  .567E-01  .583E-01  .595E-01  .585E-01  .563E-01  .558E-01
  .557E-01  .555E-01  .557E-01  .558E-01  .558E-01  .558E-01  .558E-01  .558E-01
  .559E-01  .560E-01  .560E-01  .560E-01  .560E-01  .559E-01  .558E-01  .556E-01
  .555E-01  .554E-01  .553E-01  .000E+00  .000E+00  .000E+00  .000E+00  .000E+00
  .000E+00  .000E+00  .000E+00  .000E+00
  .734E-01  .557E-01  .138E+00  .178E+00  .111E+00  .256E+00  .777E-01  .209E+00
  .111E+00  .292E+00  .231E+00  .257E+00  .183E+00  .270E+00  .545E+00  .451E+00
  .953E+00  .770E+00  .567E+00  .128E+01  .205E+01  .194E+01  .208E+01  .172E+01
  .362E+01  .204E+01  .292E+01  .828E+01  .302E+01  .360E+01  .569E+01  .270E+01
  .427E+01  .242E+01  .412E+01  .383E+01  .273E+01  .239E+01  .342E+01  .384E+01
  .267E+01  .151E+01  .153E+01  .457E+01  .278E+01  .521E+01  .124E+02  .421E+01
  .508E+01  .215E+01  .337E+01  .150E+01  .136E+01  .121E+01  .998E+00  .100E+01
  .100E+01  .992E+00  .978E+00  .969E+00  .962E+00  .943E+00  .922E+00  .904E+00
  .891E+00  .882E+00  .876E+00  .872E+00  .869E+00  .867E+00  .866E+00  .864E+00
  .863E+00  .862E+00  .861E+00  .859E+00  .857E+00  .856E+00  .855E+00  .854E+00
  .854E+00  .853E+00  .853E+00  .852E+00  .852E+00  .852E+00  .851E+00  .851E+00
  .850E+00  .850E+00  .850E+00  .000E+00  .000E+00  .000E+00  .000E+00  .000E+00
  .000E+00  .000E+00  .000E+00  .000E+00
  .468E-01  .497E-01  .593E-01  .833E-01  .685E-01  .854E-01  .517E-01  .858E-01
  .550E-01  .686E-01  .759E-01  .745E-01  .658E-01  .763E-01  .101E+00  .947E-01
  .149E+00  .122E+00  .939E-01  .164E+00  .229E+00  .211E+00  .202E+00  .167E+00
  .314E+00  .174E+00  .221E+00  .565E+00  .188E+00  .208E+00  .312E+00  .143E+00
  .210E+00  .108E+00  .179E+00  .158E+00  .994E-01  .917E-01  .122E+00  .136E+00
  .826E-01  .444E-01  .432E-01  .117E+00  .649E-01  .114E+00  .252E+00  .797E-01
  .905E-01  .358E-01  .519E-01  .186E-01  .160E-01  .848E-02  .705E-02  .711E-02
  .737E-02  .431E-02  .290E-02  .249E-02  .222E-02  .176E-02  .136E-02  .101E-02
  .871E-03  .686E-03  .566E-03  .515E-03  .469E-03  .414E-03  .360E-03  .323E-03
  .295E-03  .268E-03  .247E-03  .228E-03  .189E-03  .158E-03  .135E-03  .117E-03
  .102E-03  .895E-04  .793E-04  .707E-04  .634E-04  .572E-04  .471E-04  .395E-04
  .336E-04  .289E-04  .251E-04  .000E+00  .000E+00  .000E+00  .000E+00  .000E+00
  .000E+00  .000E+00  .000E+00  .000E+00
  .115E+00  .128E+00  .160E+00  .235E+00  .202E+00  .262E+00  .175E+00  .316E+00
  .220E+00  .295E+00  .349E+00  .366E+00  .344E+00  .422E+00  .591E+00  .582E+00
  .101E+01  .901E+00  .750E+00  .141E+01  .211E+01  .207E+01  .211E+01  .184E+01
  .366E+01  .213E+01  .299E+01  .834E+01  .300E+01  .359E+01  .575E+01  .281E+01
  .439E+01  .239E+01  .419E+01  .389E+01  .256E+01  .248E+01  .345E+01  .401E+01
  .254E+01  .150E+01  .159E+01  .467E+01  .279E+01  .525E+01  .124E+02  .416E+01
  .500E+01  .209E+01  .319E+01  .125E+01  .118E+01  .677E+00  .606E+00  .655E+00
  .724E+00  .450E+00  .321E+00  .291E+00  .273E+00  .238E+00  .200E+00  .161E+00
  .150E+00  .126E+00  .111E+00  .108E+00  .104E+00  .967E-01  .884E-01  .835E-01
  .796E-01  .758E-01  .729E-01  .701E-01  .638E-01  .584E-01  .539E-01  .501E-01
  .468E-01  .440E-01  .414E-01  .391E-01  .370E-01  .351E-01  .318E-01  .291E-01
  .268E-01  .248E-01  .232E-01  .000E+00  .000E+00  .000E+00  .000E+00  .000E+00
  .000E+00  .000E+00  .000E+00  .000E+00
  .816E+01  .818E+01  .816E+01  .816E+01  .817E+01  .817E+01  .817E+01  .818E+01
  .818E+01  .585E+02  .816E+01  .816E+01  .816E+01  .816E+01  .119E+02  .815E+01
  .906E+01  .942E+01  .818E+01  .942E+01  .188E+02  .104E+02  .289E+02  .919E+01
  .143E+02  .979E+01  .208E+02  .203E+02  .834E+01  .966E+01  .223E+02  .219E+02
  .185E+02  .955E+01  .188E+02  .107E+02  .935E+01  .965E+01  .413E+02  .172E+02
  .126E+02  .125E+02  .895E+01  .215E+02  .102E+02  .149E+02  .263E+02  .405E+02
  .248E+02  .118E+02  .219E+02  .132E+02  .219E+02  .102E+02  .974E+01  .165E+02
  .219E+02  .173E+02  .169E+02  .939E+01  .106E+02  .106E+02  .173E+02  .169E+02
  .169E+02  .219E+02  .106E+02  .173E+02  .173E+02  .173E+02  .173E+02  .169E+02
  .169E+02  .106E+02  .106E+02  .106E+02  .106E+02  .106E+02  .106E+02  .106E+02
  .106E+02  .106E+02  .106E+02  .106E+02  .106E+02  .106E+02  .106E+02  .106E+02
  .106E+02  .106E+02  .106E+02  .000E+00  .000E+00  .000E+00  .000E+00  .000E+00
  .000E+00  .000E+00  .000E+00  .000E+00
  .651E+02  .219E+02  .634E+02  .274E+02  .845E+01  .650E+02  .889E+01  .580E+02
  .911E+01  .541E+02  .628E+02  .114E+02  .814E+01  .492E+02  .370E+02  .813E+01
  .903E+01  .945E+01  .822E+01  .100E+02  .188E+02  .103E+02  .295E+02  .915E+01
  .143E+02  .984E+01  .208E+02  .202E+02  .839E+01  .959E+01  .287E+02  .220E+02
  .185E+02  .963E+01  .191E+02  .108E+02  .926E+01  .910E+01  .474E+02  .171E+02
  .124E+02  .124E+02  .881E+01  .213E+02  .104E+02  .155E+02  .261E+02  .407E+02
  .246E+02  .159E+02  .217E+02  .130E+02  .217E+02  .105E+02  .105E+02  .811E+01
  .811E+01  .811E+01  .811E+01  .811E+01  .811E+01  .811E+01  .811E+01  .811E+01
  .811E+01  .811E+01  .811E+01  .811E+01  .811E+01  .811E+01  .811E+01  .811E+01
  .811E+01  .811E+01  .811E+01  .811E+01  .811E+01  .811E+01  .811E+01  .811E+01
  .811E+01  .811E+01  .811E+01  .811E+01  .811E+01  .811E+01  .811E+01  .811E+01
  .811E+01  .811E+01  .811E+01  .000E+00  .000E+00  .000E+00  .000E+00  .000E+00
  .000E+00  .000E+00  .000E+00  .000E+00
  .816E+01  .818E+01  .816E+01  .816E+01  .817E+01  .817E+01  .817E+01  .818E+01
  .818E+01  .585E+02  .816E+01  .816E+01  .816E+01  .816E+01  .119E+02  .815E+01
  .906E+01  .942E+01  .818E+01  .942E+01  .188E+02  .104E+02  .289E+02  .919E+01
  .143E+02  .979E+01  .208E+02  .203E+02  .834E+01  .966E+01  .223E+02  .219E+02
  .185E+02  .955E+01  .188E+02  .107E+02  .935E+01  .965E+01  .413E+02  .172E+02
  .126E+02  .125E+02  .895E+01  .215E+02  .102E+02  .149E+02  .263E+02  .405E+02
  .248E+02  .118E+02  .219E+02  .132E+02  .219E+02  .102E+02  .974E+01  .165E+02
  .219E+02  .173E+02  .169E+02  .939E+01  .106E+02  .106E+02  .173E+02  .169E+02
  .169E+02  .219E+02  .106E+02  .173E+02  .173E+02  .173E+02  .173E+02  .169E+02
  .169E+02  .106E+02  .106E+02  .106E+02  .106E+02  .106E+02  .106E+02  .106E+02
  .106E+02  .106E+02  .106E+02  .106E+02  .106E+02  .106E+02  .106E+02  .106E+02
  .106E+02  .106E+02  .106E+02  .000E+00  .000E+00  .000E+00  .000E+00  .000E+00
  .000E+00  .000E+00  .000E+00  .000E+00
Damping =  .02. Data of Sd,Sv,Sa,Pssv,ttSd,ttSv,ttSa :
  .693E-03  .755E-03  .829E-03  .969E-03  .106E-02  .117E-02  .140E-02  .188E-02
  .208E-02  .231E-02  .288E-02  .339E-02  .395E-02  .479E-02  .515E-02  .600E-02
  .932E-02  .112E-01  .139E-01  .186E-01  .298E-01  .347E-01  .350E-01  .380E-01
  .447E-01  .442E-01  .523E-01  .105E+00  .929E-01  .102E+00  .113E+00  .102E+00
  .124E+00  .117E+00  .134E+00  .159E+00  .139E+00  .139E+00  .134E+00  .152E+00
  .123E+00  .104E+00  .129E+00  .216E+00  .250E+00  .379E+00  .632E+00  .349E+00
  .351E+00  .283E+00  .265E+00  .187E+00  .160E+00  .130E+00  .127E+00  .127E+00
  .118E+00  .104E+00  .831E-01  .832E-01  .821E-01  .802E-01  .700E-01  .631E-01
  .643E-01  .580E-01  .570E-01  .575E-01  .585E-01  .578E-01  .562E-01  .555E-01
  .556E-01  .557E-01  .558E-01  .558E-01  .559E-01  .558E-01  .558E-01  .559E-01
  .559E-01  .560E-01  .560E-01  .560E-01  .560E-01  .559E-01  .558E-01  .556E-01
  .555E-01  .554E-01  .554E-01  .000E+00  .000E+00  .000E+00  .000E+00  .000E+00
  .000E+00  .000E+00  .000E+00  .000E+00
  .239E-01  .224E-01  .323E-01  .381E-01  .383E-01  .442E-01  .575E-01  .756E-01
  .701E-01  .137E+00  .140E+00  .113E+00  .118E+00  .152E+00  .243E+00  .289E+00
  .458E+00  .494E+00  .503E+00  .824E+00  .125E+01  .138E+01  .130E+01  .138E+01
  .144E+01  .125E+01  .136E+01  .254E+01  .225E+01  .235E+01  .240E+01  .196E+01
  .241E+01  .205E+01  .211E+01  .245E+01  .208E+01  .209E+01  .203E+01  .204E+01
  .183E+01  .126E+01  .139E+01  .203E+01  .218E+01  .327E+01  .496E+01  .287E+01
  .249E+01  .194E+01  .187E+01  .123E+01  .120E+01  .114E+01  .984E+00  .989E+00
  .991E+00  .982E+00  .972E+00  .963E+00  .956E+00  .939E+00  .920E+00  .903E+00
  .891E+00  .882E+00  .876E+00  .872E+00  .869E+00  .867E+00  .865E+00  .864E+00
  .863E+00  .861E+00  .860E+00  .859E+00  .857E+00  .856E+00  .855E+00  .854E+00
  .853E+00  .853E+00  .852E+00  .852E+00  .852E+00  .851E+00  .851E+00  .851E+00
  .850E+00  .850E+00  .850E+00  .000E+00  .000E+00  .000E+00  .000E+00  .000E+00
  .000E+00  .000E+00  .000E+00  .000E+00
  .443E-01  .438E-01  .438E-01  .469E-01  .470E-01  .477E-01  .475E-01  .533E-01
  .504E-01  .483E-01  .523E-01  .542E-01  .559E-01  .604E-01  .585E-01  .614E-01
  .789E-01  .795E-01  .841E-01  .970E-01  .136E+00  .139E+00  .124E+00  .120E+00
  .127E+00  .113E+00  .110E+00  .187E+00  .141E+00  .133E+00  .129E+00  .102E+00
  .109E+00  .928E-01  .951E-01  .102E+00  .804E-01  .736E-01  .649E-01  .677E-01
  .503E-01  .353E-01  .367E-01  .522E-01  .523E-01  .689E-01  .101E+00  .495E-01
  .444E-01  .321E-01  .271E-01  .159E-01  .113E-01  .789E-02  .665E-02  .577E-02
  .472E-02  .368E-02  .263E-02  .237E-02  .212E-02  .171E-02  .125E-02  .961E-03
  .845E-03  .668E-03  .588E-03  .521E-03  .467E-03  .415E-03  .374E-03  .340E-03
  .312E-03  .287E-03  .266E-03  .247E-03  .207E-03  .176E-03  .153E-03  .134E-03
  .119E-03  .107E-03  .963E-04  .876E-04  .803E-04  .747E-04  .655E-04  .583E-04
  .526E-04  .479E-04  .440E-04  .000E+00  .000E+00  .000E+00  .000E+00  .000E+00
  .000E+00  .000E+00  .000E+00  .000E+00
  .109E+00  .113E+00  .118E+00  .132E+00  .139E+00  .146E+00  .160E+00  .197E+00
  .201E+00  .208E+00  .241E+00  .267E+00  .292E+00  .334E+00  .341E+00  .377E+00
  .533E+00  .588E+00  .673E+00  .834E+00  .125E+01  .136E+01  .130E+01  .133E+01
  .148E+01  .139E+01  .149E+01  .276E+01  .224E+01  .229E+01  .237E+01  .200E+01
  .228E+01  .205E+01  .222E+01  .249E+01  .207E+01  .199E+01  .183E+01  .200E+01
  .154E+01  .119E+01  .135E+01  .208E+01  .225E+01  .317E+01  .496E+01  .258E+01
  .245E+01  .187E+01  .166E+01  .107E+01  .836E+00  .628E+00  .570E+00  .530E+00
  .463E+00  .383E+00  .290E+00  .275E+00  .258E+00  .229E+00  .183E+00  .152E+00
  .144E+00  .122E+00  .112E+00  .106E+00  .102E+00  .955E-01  .882E-01  .831E-01
  .794E-01  .760E-01  .730E-01  .702E-01  .638E-01  .585E-01  .540E-01  .501E-01
  .469E-01  .440E-01  .414E-01  .391E-01  .370E-01  .351E-01  .319E-01  .291E-01
  .268E-01  .249E-01  .232E-01  .000E+00  .000E+00  .000E+00  .000E+00  .000E+00
  .000E+00  .000E+00  .000E+00  .000E+00
  .818E+01  .817E+01  .816E+01  .816E+01  .816E+01  .816E+01  .816E+01  .817E+01
  .818E+01  .817E+01  .817E+01  .817E+01  .817E+01  .818E+01  .818E+01  .818E+01
  .818E+01  .942E+01  .819E+01  .943E+01  .860E+01  .854E+01  .855E+01  .856E+01
  .944E+01  .978E+01  .979E+01  .106E+02  .110E+02  .952E+01  .121E+02  .826E+01
  .107E+02  .847E+01  .849E+01  .107E+02  .852E+01  .854E+01  .856E+01  .124E+02
  .104E+02  .892E+01  .895E+01  .133E+02  .102E+02  .146E+02  .191E+02  .121E+02
  .239E+02  .231E+02  .185E+02  .106E+02  .172E+02  .101E+02  .973E+01  .975E+01
  .219E+02  .173E+02  .938E+01  .939E+01  .106E+02  .106E+02  .173E+02  .169E+02
  .169E+02  .169E+02  .106E+02  .173E+02  .173E+02  .173E+02  .173E+02  .106E+02
  .106E+02  .106E+02  .106E+02  .106E+02  .106E+02  .106E+02  .106E+02  .106E+02
  .106E+02  .106E+02  .106E+02  .106E+02  .106E+02  .106E+02  .106E+02  .106E+02
  .106E+02  .106E+02  .106E+02  .000E+00  .000E+00  .000E+00  .000E+00  .000E+00
  .000E+00  .000E+00  .000E+00  .000E+00
  .840E+01  .837E+01  .814E+01  .555E+01  .600E+01  .845E+01  .839E+01  .571E+01
  .840E+01  .911E+01  .913E+01  .846E+01  .846E+01  .845E+01  .846E+01  .847E+01
  .860E+01  .873E+01  .874E+01  .876E+01  .856E+01  .858E+01  .851E+01  .852E+01
  .853E+01  .984E+01  .984E+01  .105E+02  .109E+02  .959E+01  .109E+02  .833E+01
  .107E+02  .855E+01  .858E+01  .106E+02  .926E+01  .845E+01  .846E+01  .106E+02
  .105E+02  .847E+01  .847E+01  .135E+02  .103E+02  .144E+02  .189E+02  .119E+02
  .241E+02  .229E+02  .221E+02  .130E+02  .105E+02  .105E+02  .811E+01  .811E+01
  .811E+01  .811E+01  .811E+01  .811E+01  .811E+01  .811E+01  .811E+01  .811E+01
  .811E+01  .811E+01  .811E+01  .811E+01  .811E+01  .811E+01  .811E+01  .811E+01
  .811E+01  .811E+01  .811E+01  .811E+01  .811E+01  .811E+01  .811E+01  .811E+01
  .811E+01  .811E+01  .811E+01  .811E+01  .811E+01  .811E+01  .811E+01  .811E+01
  .811E+01  .811E+01  .811E+01  .000E+00  .000E+00  .000E+00  .000E+00  .000E+00
  .000E+00  .000E+00  .000E+00  .000E+00
  .818E+01  .817E+01  .816E+01  .816E+01  .816E+01  .816E+01  .816E+01  .817E+01
  .818E+01  .817E+01  .817E+01  .817E+01  .817E+01  .817E+01  .843E+01  .818E+01
  .818E+01  .942E+01  .818E+01  .942E+01  .860E+01  .854E+01  .855E+01  .856E+01
  .944E+01  .978E+01  .979E+01  .106E+02  .110E+02  .952E+01  .121E+02  .826E+01
  .107E+02  .847E+01  .848E+01  .107E+02  .852E+01  .854E+01  .856E+01  .124E+02
  .104E+02  .891E+01  .895E+01  .133E+02  .102E+02  .145E+02  .191E+02  .121E+02
  .239E+02  .231E+02  .185E+02  .106E+02  .172E+02  .101E+02  .973E+01  .974E+01
  .219E+02  .173E+02  .937E+01  .938E+01  .106E+02  .106E+02  .172E+02  .168E+02
  .169E+02  .106E+02  .106E+02  .106E+02  .172E+02  .172E+02  .105E+02  .105E+02
  .105E+02  .105E+02  .105E+02  .105E+02  .105E+02  .105E+02  .105E+02  .105E+02
  .105E+02  .105E+02  .105E+02  .105E+02  .814E+01  .814E+01  .814E+01  .814E+01
  .814E+01  .814E+01  .814E+01  .000E+00  .000E+00  .000E+00  .000E+00  .000E+00
  .000E+00  .000E+00  .000E+00  .000E+00
Damping =  .05. Data of Sd,Sv,Sa,Pssv,ttSd,ttSv,ttSa :
  .679E-03  .749E-03  .832E-03  .942E-03  .104E-02  .114E-02  .142E-02  .178E-02
