Response and Fourier amplitude spectra (91 periods,  .04 - 15.0 sec)   for      
Corrected accelerogram   24652-F0216-01337.02       Chan  3:  90 Deg     from   
Uncorrected Accelerogram Data             Processed: 06/06/08, CDMG  ce24652    
Record of Sun Sep  9, 2001 16:59:15.6 PDT             (Avol1 v7.5 7/07 CSMIP)   
CSMIP Preliminary Processing            (Origin:  To be determined)             
24652-F0216-01337.02                 Start time:  9/09/01, 23:59:15.6 UTC (WWVB)
Station No. 24652   34.021N, 118.287W     SSA-2  s/n  216  (3 Chns of 15 at Sta)
Los Angeles - 6-story Univ. Office Bldg   CGS                                   
Chan  3:  90 DegR (Sta Chn:  9)     Location: 3rd Floor: West Tower             
Record of Sun Sep  9, 2001 16:59:15.6 PDT    Sun Sep  9, 2001 16:59:15.6 PDT    
Hypocenter:  To be determined.               ML:  To be determined.
Instr Period =  .0222 sec,  Damping =  .700,  Sensitivity = 1.25  v/g  (Nominal)
                        Record length = 67.840 sec.
                                     Uncor Max  =   .083 g , at   8.110 sec.
RMS accel of (uncor) record  =        .   Chn. metadata effective date: 01/01/04
Accelerogram bandpass filtered with 3 dB pts at   .50 and 40.00 cyc/sec
                 instrument- and baseline-corrected





Record of Sun Sep  9, 2001 16:59:15.6 PDT    Sun Sep  9, 2001 16:59:15.6 PDT

24652-F0216-01337.02      Los Angeles - 6-story Univ. Office Bldg   Chan  3:  90
 Deg
24652-F0216-01337.02      Los Angeles - 6-story Univ. Office Bldg   Chan  3:  90
 Deg
Units for spectra are inches and sec, except Sa is in fraction of g.

    3  100    9    3   15  200    1    3    1   12    6  216    024652    2    0
   23   59   15  615  252    9    9 2001   10    1   9013568   41   39   76  345
13568    0   50    3 3102    1    2   53    2   23   59   15  830    9    9 2001
    0    2    0    013568    1  220    1   12    4   76   39    0    0    013568
    313568   40   91    5    3    5    0    0    0   15    0    0    3    0    2
    2    2    4    0   79   99    1   32   32    0    0    1    0    0    8  333
    1    1    3    0
      .022      .700    67.840      .006      .000  1250.000      .083     8.110
    45.000  1220.703   976.563      .000     5.000      .000      .000      .000
     2.500     3.912     2.500  -999.000     5.120    30.000      .000     -.084
     -.071      .012     2.000    15.000    34.021  -118.287      .299      .349
     1.166     -.030      .054    54.000      .000      .000      .000      .000
      .000     1.092     7.000      .000      .000      .000      .000      .000
     6.800     7.500     4.600   980.665      .005    67.840     7.162      .000
      .000    40.000      .000    67.840      .005      .500      .000      .000
     8.110    80.281     8.060    -3.183     8.120     -.271     -.001      .500
    40.000      .005      .005      .000     1.050      .076      .000      .000
      .276      .240      .205      .134      .032      .002      .000      .000
      .000      .000      .000      .000      .000      .000      .000      .000
      .000      .000      .000      .000
      .000      .020      .050      .100      .200
      .040      .042      .044      .046      .048      .050      .055      .060
      .065      .070      .075      .080      .085      .090      .095      .100
      .110      .120      .130      .140      .150      .160      .170      .180
      .190      .200      .220      .240      .260      .280      .300      .320
      .340      .360      .380      .400      .420      .440      .460      .480
      .500      .550      .600      .650      .700      .750      .800      .850
      .900      .950     1.000     1.100     1.200     1.300     1.400     1.500
     1.600     1.700     1.800     1.900     2.000     2.200     2.400     2.600
     2.800     3.000     3.200     3.400     3.600     3.800     4.000     4.200
     4.400     4.600     4.800     5.000     5.500     6.000     6.500     7.000
     7.500     8.000     8.500     9.000     9.500    10.000    11.000    12.000
    13.000    14.000    15.000      .000      .000      .000      .000      .000
      .000      .000      .000      .000
Fourier amplitude spectra in in/sec.
  .538E-01  .680E-01  .852E-01  .144E+00  .853E-01  .222E+00  .448E-01  .150E+00
  .111E+00  .409E+00  .232E+00  .365E+00  .597E+00  .719E+00  .152E+01  .125E+01
  .512E+00  .105E+01  .513E+00  .606E+00  .394E+01  .311E+01  .192E+01  .905E+00
  .288E+01  .332E+01  .772E+01  .877E+01  .796E+01  .300E+01  .359E+01  .284E+01
  .417E+01  .187E+01  .448E+01  .455E+01  .240E+01  .273E+01  .233E+01  .907E+00
  .183E+01  .113E+01  .916E+00  .233E+00  .990E+00  .204E+01  .781E+01  .955E+01
  .601E+01  .403E+01  .139E+01  .754E+00  .100E+01  .137E+00  .248E+00  .164E+00
  .109E+00  .288E+00  .258E+00  .692E-01  .240E-01  .641E-01  .962E-01  .644E-01
  .477E-01  .254E-01  .121E-01  .298E-01  .126E-01  .140E-01  .101E-01  .812E-02
  .522E-02  .230E-02  .248E-02  .289E-02  .137E-02  .204E-02  .316E-03  .869E-03
  .133E-02  .145E-02  .173E-02  .151E-02  .145E-02  .134E-02  .740E-03  .682E-03
  .457E-03  .478E-03  .411E-03  .000E+00  .000E+00  .000E+00  .000E+00  .000E+00
  .000E+00  .000E+00  .000E+00  .000E+00
Damping =  .00. Data of Sd,Sv,Sa,Pssv,ttSd,ttSv,ttSa :
  .157E-02  .149E-02  .178E-02  .193E-02  .201E-02  .343E-02  .246E-02  .390E-02
  .438E-02  .577E-02  .671E-02  .709E-02  .110E-01  .150E-01  .278E-01  .321E-01
  .234E-01  .311E-01  .286E-01  .333E-01  .996E-01  .945E-01  .654E-01  .701E-01
  .108E+00  .130E+00  .271E+00  .512E+00  .331E+00  .234E+00  .224E+00  .200E+00
  .241E+00  .235E+00  .280E+00  .304E+00  .244E+00  .234E+00  .215E+00  .200E+00
  .176E+00  .169E+00  .168E+00  .153E+00  .241E+00  .430E+00  .100E+01  .135E+01
  .929E+00  .637E+00  .434E+00  .321E+00  .262E+00  .209E+00  .185E+00  .162E+00
  .149E+00  .141E+00  .132E+00  .122E+00  .113E+00  .109E+00  .111E+00  .116E+00
  .120E+00  .122E+00  .122E+00  .120E+00  .119E+00  .117E+00  .115E+00  .114E+00
  .113E+00  .112E+00  .112E+00  .111E+00  .110E+00  .109E+00  .108E+00  .108E+00
  .108E+00  .108E+00  .108E+00  .108E+00  .108E+00  .108E+00  .108E+00  .108E+00
  .108E+00  .108E+00  .108E+00  .000E+00  .000E+00  .000E+00  .000E+00  .000E+00
  .000E+00  .000E+00  .000E+00  .000E+00
  .768E-01  .782E-01  .122E+00  .144E+00  .128E+00  .298E+00  .158E+00  .215E+00
  .255E+00  .445E+00  .393E+00  .396E+00  .655E+00  .900E+00  .171E+01  .183E+01
  .120E+01  .150E+01  .126E+01  .135E+01  .412E+01  .345E+01  .233E+01  .238E+01
  .338E+01  .387E+01  .775E+01  .133E+02  .799E+01  .537E+01  .476E+01  .406E+01
  .451E+01  .421E+01  .463E+01  .477E+01  .370E+01  .364E+01  .341E+01  .272E+01
  .265E+01  .216E+01  .166E+01  .178E+01  .212E+01  .355E+01  .788E+01  .100E+02
  .665E+01  .438E+01  .333E+01  .231E+01  .187E+01  .151E+01  .135E+01  .123E+01
  .124E+01  .123E+01  .123E+01  .122E+01  .123E+01  .122E+01  .122E+01  .122E+01
  .123E+01  .124E+01  .125E+01  .125E+01  .126E+01  .126E+01  .126E+01  .126E+01
  .126E+01  .126E+01  .126E+01  .126E+01  .126E+01  .125E+01  .125E+01  .125E+01
  .125E+01  .125E+01  .125E+01  .125E+01  .125E+01  .125E+01  .125E+01  .125E+01
  .125E+01  .125E+01  .125E+01  .000E+00  .000E+00  .000E+00  .000E+00  .000E+00
  .000E+00  .000E+00  .000E+00  .000E+00
  .100E+00  .865E-01  .940E-01  .933E-01  .891E-01  .140E+00  .831E-01  .111E+00
  .106E+00  .120E+00  .122E+00  .113E+00  .156E+00  .190E+00  .315E+00  .328E+00
  .197E+00  .221E+00  .173E+00  .174E+00  .453E+00  .378E+00  .231E+00  .221E+00
  .305E+00  .332E+00  .573E+00  .908E+00  .500E+00  .305E+00  .254E+00  .200E+00
  .213E+00  .185E+00  .198E+00  .194E+00  .141E+00  .124E+00  .104E+00  .890E-01
  .718E-01  .572E-01  .477E-01  .369E-01  .502E-01  .783E-01  .160E+00  .192E+00
  .117E+00  .722E-01  .444E-01  .271E-01  .186E-01  .127E-01  .965E-02  .737E-02
  .596E-02  .499E-02  .416E-02  .345E-02  .289E-02  .231E-02  .196E-02  .175E-02
  .157E-02  .139E-02  .122E-02  .106E-02  .935E-03  .827E-03  .737E-03  .662E-03
  .598E-03  .543E-03  .496E-03  .454E-03  .371E-03  .309E-03  .262E-03  .226E-03
  .196E-03  .173E-03  .153E-03  .137E-03  .123E-03  .111E-03  .916E-04  .769E-04
  .655E-04  .563E-04  .490E-04  .000E+00  .000E+00  .000E+00  .000E+00  .000E+00
  .000E+00  .000E+00  .000E+00  .000E+00
  .246E+00  .223E+00  .254E+00  .264E+00  .263E+00  .432E+00  .281E+00  .409E+00
  .424E+00  .518E+00  .562E+00  .557E+00  .812E+00  .105E+01  .184E+01  .202E+01
  .133E+01  .163E+01  .138E+01  .149E+01  .417E+01  .371E+01  .242E+01  .245E+01
  .356E+01  .408E+01  .775E+01  .134E+02  .799E+01  .525E+01  .469E+01  .393E+01
  .445E+01  .410E+01  .463E+01  .477E+01  .365E+01  .334E+01  .293E+01  .262E+01
  .221E+01  .193E+01  .176E+01  .148E+01  .216E+01  .361E+01  .788E+01  .100E+02
  .648E+01  .421E+01  .273E+01  .183E+01  .137E+01  .101E+01  .830E+00  .679E+00
  .586E+00  .521E+00  .460E+00  .403E+00  .356E+00  .312E+00  .290E+00  .280E+00
  .270E+00  .256E+00  .239E+00  .222E+00  .207E+00  .193E+00  .181E+00  .171E+00
  .162E+00  .154E+00  .146E+00  .139E+00  .125E+00  .114E+00  .105E+00  .970E-01
  .905E-01  .849E-01  .800E-01  .756E-01  .717E-01  .681E-01  .619E-01  .567E-01
  .523E-01  .485E-01  .451E-01  .000E+00  .000E+00  .000E+00  .000E+00  .000E+00
  .000E+00  .000E+00  .000E+00  .000E+00
  .810E+01  .811E+01  .811E+01  .811E+01  .812E+01  .809E+01  .809E+01  .809E+01
  .810E+01  .941E+01  .906E+01  .906E+01  .940E+01  .939E+01  .941E+01  .866E+01
  .855E+01  .914E+01  .106E+02  .855E+01  .165E+02  .917E+01  .814E+01  .815E+01
  .125E+02  .868E+01  .498E+02  .112E+02  .274E+02  .991E+01  .111E+02  .128E+02
  .891E+01  .894E+01  .124E+02  .176E+02  .989E+01  .930E+01  .132E+02  .915E+01
  .172E+02  .853E+01  .855E+01  .857E+01  .103E+02  .111E+02  .374E+02  .300E+02
  .141E+02  .409E+02  .102E+02  .940E+01  .943E+01  .902E+01  .903E+01  .903E+01
  .903E+01  .904E+01  .904E+01  .904E+01  .904E+01  .865E+01  .811E+01  .811E+01
  .811E+01  .811E+01  .811E+01  .811E+01  .811E+01  .811E+01  .811E+01  .811E+01
  .811E+01  .811E+01  .811E+01  .811E+01  .811E+01  .811E+01  .811E+01  .811E+01
  .811E+01  .811E+01  .811E+01  .811E+01  .811E+01  .811E+01  .811E+01  .811E+01
  .811E+01  .811E+01  .811E+01  .000E+00  .000E+00  .000E+00  .000E+00  .000E+00
  .000E+00  .000E+00  .000E+00  .000E+00
  .805E+01  .995E+01  .191E+02  .669E+02  .807E+01  .860E+01  .806E+01  .807E+01
  .909E+01  .405E+02  .909E+01  .860E+01  .120E+02  .936E+01  .958E+01  .869E+01
  .852E+01  .911E+01  .106E+02  .851E+01  .165E+02  .921E+01  .819E+01  .819E+01
  .125E+02  .873E+01  .502E+02  .110E+02  .274E+02  .971E+01  .109E+02  .910E+01
  .127E+02  .886E+01  .123E+02  .175E+02  .936E+01  .921E+01  .923E+01  .924E+01
  .860E+01  .861E+01  .818E+01  .922E+01  .923E+01  .113E+02  .376E+02  .302E+02
  .134E+02  .122E+02  .105E+02  .911E+01  .911E+01  .911E+01  .875E+01  .875E+01
  .805E+01  .805E+01  .805E+01  .805E+01  .805E+01  .805E+01  .805E+01  .805E+01
  .805E+01  .805E+01  .805E+01  .805E+01  .805E+01  .805E+01  .805E+01  .805E+01
  .805E+01  .805E+01  .805E+01  .805E+01  .805E+01  .805E+01  .805E+01  .805E+01
  .805E+01  .805E+01  .805E+01  .805E+01  .805E+01  .805E+01  .805E+01  .805E+01
  .805E+01  .805E+01  .805E+01  .000E+00  .000E+00  .000E+00  .000E+00  .000E+00
  .000E+00  .000E+00  .000E+00  .000E+00
  .810E+01  .811E+01  .811E+01  .811E+01  .812E+01  .809E+01  .809E+01  .809E+01
  .810E+01  .941E+01  .906E+01  .906E+01  .940E+01  .939E+01  .941E+01  .866E+01
  .855E+01  .914E+01  .106E+02  .855E+01  .165E+02  .917E+01  .814E+01  .815E+01
  .125E+02  .868E+01  .498E+02  .112E+02  .274E+02  .991E+01  .111E+02  .128E+02
  .891E+01  .894E+01  .124E+02  .176E+02  .989E+01  .930E+01  .132E+02  .915E+01
  .172E+02  .853E+01  .855E+01  .857E+01  .103E+02  .111E+02  .374E+02  .300E+02
  .141E+02  .409E+02  .102E+02  .940E+01  .943E+01  .902E+01  .903E+01  .903E+01
  .903E+01  .904E+01  .904E+01  .904E+01  .904E+01  .865E+01  .811E+01  .811E+01
  .811E+01  .811E+01  .811E+01  .811E+01  .811E+01  .811E+01  .811E+01  .811E+01
  .811E+01  .811E+01  .811E+01  .811E+01  .811E+01  .811E+01  .811E+01  .811E+01
  .811E+01  .811E+01  .811E+01  .811E+01  .811E+01  .811E+01  .811E+01  .811E+01
  .811E+01  .811E+01  .811E+01  .000E+00  .000E+00  .000E+00  .000E+00  .000E+00
  .000E+00  .000E+00  .000E+00  .000E+00
Damping =  .02. Data of Sd,Sv,Sa,Pssv,ttSd,ttSv,ttSa :
  .138E-02  .154E-02  .172E-02  .183E-02  .192E-02  .197E-02  .264E-02  .346E-02
  .410E-02  .462E-02  .557E-02  .722E-02  .976E-02  .122E-01  .168E-01  .195E-01
  .192E-01  .258E-01  .287E-01  .374E-01  .559E-01  .635E-01  .622E-01  .679E-01
  .773E-01  .100E+00  .154E+00  .262E+00  .171E+00  .160E+00  .154E+00  .151E+00
  .193E+00  .197E+00  .197E+00  .187E+00  .188E+00  .187E+00  .177E+00  .170E+00
  .149E+00  .155E+00  .155E+00  .144E+00  .216E+00  .348E+00  .532E+00  .694E+00
  .636E+00  .452E+00  .379E+00  .294E+00  .247E+00  .197E+00  .178E+00  .159E+00
  .147E+00  .139E+00  .130E+00  .121E+00  .113E+00  .108E+00  .110E+00  .115E+00
  .119E+00  .121E+00  .120E+00  .119E+00  .118E+00  .116E+00  .115E+00  .114E+00
  .113E+00  .112E+00  .111E+00  .111E+00  .110E+00  .109E+00  .108E+00  .108E+00
  .108E+00  .108E+00  .108E+00  .108E+00  .108E+00  .108E+00  .108E+00  .108E+00
  .108E+00  .108E+00  .108E+00  .000E+00  .000E+00  .000E+00  .000E+00  .000E+00
  .000E+00  .000E+00  .000E+00  .000E+00
  .515E-01  .591E-01  .737E-01  .842E-01  .911E-01  .108E+00  .113E+00  .134E+00
  .139E+00  .190E+00  .235E+00  .325E+00  .533E+00  .613E+00  .884E+00  .101E+01
  .907E+00  .101E+01  .108E+01  .136E+01  .201E+01  .225E+01  .213E+01  .224E+01
  .244E+01  .287E+01  .423E+01  .671E+01  .420E+01  .371E+01  .354E+01  .331E+01
  .351E+01  .363E+01  .354E+01  .310E+01  .300E+01  .304E+01  .289E+01  .249E+01
  .244E+01  .203E+01  .162E+01  .162E+01  .193E+01  .283E+01  .405E+01  .532E+01
  .454E+01  .342E+01  .288E+01  .222E+01  .185E+01  .153E+01  .133E+01  .123E+01
  .122E+01  .122E+01  .122E+01  .122E+01  .122E+01  .122E+01  .121E+01  .122E+01
  .122E+01  .123E+01  .124E+01  .125E+01  .125E+01  .125E+01  .125E+01  .125E+01
  .125E+01  .125E+01  .125E+01  .125E+01  .125E+01  .125E+01  .125E+01  .125E+01
  .125E+01  .125E+01  .125E+01  .125E+01  .125E+01  .125E+01  .125E+01  .125E+01
  .125E+01  .125E+01  .125E+01  .000E+00  .000E+00  .000E+00  .000E+00  .000E+00
  .000E+00  .000E+00  .000E+00  .000E+00
  .885E-01  .891E-01  .908E-01  .886E-01  .852E-01  .807E-01  .892E-01  .984E-01
  .992E-01  .965E-01  .101E+00  .116E+00  .139E+00  .154E+00  .190E+00  .200E+00
  .162E+00  .183E+00  .174E+00  .196E+00  .254E+00  .253E+00  .220E+00  .214E+00
  .219E+00  .256E+00  .327E+00  .465E+00  .259E+00  .209E+00  .175E+00  .152E+00
  .171E+00  .156E+00  .140E+00  .120E+00  .109E+00  .991E-01  .857E-01  .756E-01
  .611E-01  .526E-01  .440E-01  .348E-01  .451E-01  .633E-01  .852E-01  .984E-01
  .804E-01  .513E-01  .388E-01  .249E-01  .176E-01  .120E-01  .933E-02  .727E-02
  .591E-02  .494E-02  .413E-02  .346E-02  .292E-02  .236E-02  .203E-02  .180E-02
  .161E-02  .143E-02  .127E-02  .112E-02  .994E-03  .888E-03  .799E-03  .723E-03
  .659E-03  .604E-03  .557E-03  .515E-03  .431E-03  .368E-03  .319E-03  .281E-03
  .251E-03  .226E-03  .205E-03  .187E-03  .172E-03  .159E-03  .137E-03  .120E-03
  .107E-03  .960E-04  .869E-04  .000E+00  .000E+00  .000E+00  .000E+00  .000E+00
  .000E+00  .000E+00  .000E+00  .000E+00
  .217E+00  .230E+00  .246E+00  .250E+00  .251E+00  .248E+00  .301E+00  .362E+00
  .396E+00  .414E+00  .467E+00  .567E+00  .722E+00  .851E+00  .111E+01  .122E+01
  .109E+01  .135E+01  .139E+01  .168E+01  .234E+01  .249E+01  .230E+01  .237E+01
  .256E+01  .314E+01  .441E+01  .685E+01  .413E+01  .360E+01  .323E+01  .297E+01
  .357E+01  .344E+01  .326E+01  .293E+01  .281E+01  .268E+01  .242E+01  .223E+01
  .187E+01  .177E+01  .162E+01  .139E+01  .194E+01  .291E+01  .418E+01  .513E+01
  .444E+01  .299E+01  .238E+01  .168E+01  .129E+01  .955E+00  .799E+00  .667E+00
  .578E+00  .512E+00  .453E+00  .400E+00  .355E+00  .310E+00  .289E+00  .277E+00
  .266E+00  .252E+00  .236E+00  .220E+00  .205E+00  .192E+00  .181E+00  .170E+00
  .161E+00  .153E+00  .146E+00  .139E+00  .125E+00  .114E+00  .105E+00  .970E-01
  .905E-01  .849E-01  .799E-01  .755E-01  .716E-01  .680E-01  .618E-01  .566E-01
  .522E-01  .484E-01  .452E-01  .000E+00  .000E+00  .000E+00  .000E+00  .000E+00
  .000E+00  .000E+00  .000E+00  .000E+00
  .810E+01  .810E+01  .811E+01  .811E+01  .811E+01  .811E+01  .810E+01  .810E+01
  .810E+01  .810E+01  .810E+01  .810E+01  .864E+01  .865E+01  .865E+01  .866E+01
  .811E+01  .812E+01  .812E+01  .812E+01  .866E+01  .869E+01  .814E+01  .815E+01
  .815E+01  .868E+01  .930E+01  .102E+02  .109E+02  .951E+01  .928E+01  .889E+01
  .891E+01  .894E+01  .879E+01  .881E+01  .927E+01  .930E+01  .913E+01  .915E+01
  .917E+01  .853E+01  .855E+01  .857E+01  .989E+01  .107E+02  .121E+02  .130E+02
  .123E+02  .120E+02  .102E+02  .940E+01  .941E+01  .902E+01  .903E+01  .903E+01
  .903E+01  .903E+01  .903E+01  .904E+01  .904E+01  .811E+01  .811E+01  .811E+01
  .811E+01  .811E+01  .811E+01  .811E+01  .811E+01  .811E+01  .811E+01  .811E+01
  .811E+01  .811E+01  .811E+01  .811E+01  .811E+01  .811E+01  .811E+01  .811E+01
  .811E+01  .811E+01  .811E+01  .811E+01  .811E+01  .811E+01  .811E+01  .811E+01
  .811E+01  .811E+01  .811E+01  .000E+00  .000E+00  .000E+00  .000E+00  .000E+00
  .000E+00  .000E+00  .000E+00  .000E+00
  .805E+01  .806E+01  .806E+01  .806E+01  .806E+01  .806E+01  .860E+01  .861E+01
  .890E+01  .895E+01  .908E+01  .843E+01  .861E+01  .868E+01  .943E+01  .869E+01
  .852E+01  .815E+01  .816E+01  .816E+01  .870E+01  .873E+01  .819E+01  .819E+01
  .820E+01  .874E+01  .924E+01  .101E+02  .109E+02  .957E+01  .921E+01  .910E+01
  .898E+01  .886E+01  .888E+01  .934E+01  .936E+01  .921E+01  .922E+01  .860E+01
  .860E+01  .861E+01  .817E+01  .922E+01  .923E+01  .113E+02  .114E+02  .124E+02
  .130E+02  .108E+02  .105E+02  .911E+01  .911E+01  .911E+01  .874E+01  .874E+01
  .805E+01  .805E+01  .805E+01  .805E+01  .805E+01  .805E+01  .805E+01  .805E+01
  .805E+01  .805E+01  .805E+01  .805E+01  .805E+01  .805E+01  .805E+01  .805E+01
  .805E+01  .805E+01  .805E+01  .805E+01  .805E+01  .805E+01  .805E+01  .805E+01
  .805E+01  .805E+01  .805E+01  .805E+01  .805E+01  .805E+01  .805E+01  .805E+01
  .805E+01  .805E+01  .805E+01  .000E+00  .000E+00  .000E+00  .000E+00  .000E+00
  .000E+00  .000E+00  .000E+00  .000E+00
  .810E+01  .810E+01  .811E+01  .811E+01  .811E+01  .811E+01  .810E+01  .810E+01
  .810E+01  .810E+01  .810E+01  .810E+01  .864E+01  .865E+01  .865E+01  .866E+01
  .811E+01  .811E+01  .812E+01  .812E+01  .866E+01  .869E+01  .814E+01  .814E+01
  .815E+01  .868E+01  .930E+01  .102E+02  .110E+02  .951E+01  .927E+01  .889E+01
  .891E+01  .893E+01  .879E+01  .881E+01  .927E+01  .930E+01  .913E+01  .915E+01
  .916E+01  .853E+01  .855E+01  .856E+01  .988E+01  .107E+02  .120E+02  .130E+02
  .123E+02  .119E+02  .102E+02  .939E+01  .941E+01  .901E+01  .902E+01  .902E+01
  .902E+01  .902E+01  .902E+01  .902E+01  .902E+01  .810E+01  .810E+01  .810E+01
  .810E+01  .810E+01  .809E+01  .809E+01  .809E+01  .809E+01  .809E+01  .809E+01
  .809E+01  .809E+01  .809E+01  .809E+01  .809E+01  .808E+01  .808E+01  .808E+01
  .808E+01  .807E+01  .807E+01  .807E+01  .807E+01  .807E+01  .807E+01  .807E+01
  .807E+01  .807E+01  .807E+01  .000E+00  .000E+00  .000E+00  .000E+00  .000E+00
  .000E+00  .000E+00  .000E+00  .000E+00
Damping =  .05. Data of Sd,Sv,Sa,Pssv,ttSd,ttSv,ttSa :
  .136E-02  .152E-02  .167E-02  .180E-02  .192E-02  .204E-02  .264E-02  .337E-02
