Response and Fourier amplitude spectra (91 periods,  .04 - 15.0 sec)   for      
Corrected accelerogram   24652-F0215-01337.02       Chan  3:  90 Deg     from   
Uncorrected Accelerogram Data             Processed: 06/06/08, CDMG  ce24652    
Record of Sun Sep  9, 2001 16:59:15.6 PDT             (Avol1 v7.5 7/07 CSMIP)   
CSMIP Preliminary Processing            (Origin:  To be determined)             
24652-F0215-01337.02                 Start time:  9/09/01, 23:59:15.6 UTC (WWVB)
Station No. 24652   34.021N, 118.287W     SSA-2  s/n  215  (3 Chns of 15 at Sta)
Los Angeles - 6-story Univ. Office Bldg   CGS                                   
Chan  3:  90 DegR (Sta Chn:  6)     Location: 1st Floor: West Tower             
Record of Sun Sep  9, 2001 16:59:15.6 PDT    Sun Sep  9, 2001 16:59:15.6 PDT    
Hypocenter:  To be determined.               ML:  To be determined.
Instr Period =  .0222 sec,  Damping =  .700,  Sensitivity = 1.25  v/g  (Nominal)
                        Record length = 67.840 sec.
                                     Uncor Max  =   .081 g , at   8.045 sec.
RMS accel of (uncor) record  =        .   Chn. metadata effective date: 01/01/04
Accelerogram bandpass filtered with 3 dB pts at   .50 and 40.00 cyc/sec
                 instrument- and baseline-corrected





Record of Sun Sep  9, 2001 16:59:15.6 PDT    Sun Sep  9, 2001 16:59:15.6 PDT

24652-F0215-01337.02      Los Angeles - 6-story Univ. Office Bldg   Chan  3:  90
 Deg
24652-F0215-01337.02      Los Angeles - 6-story Univ. Office Bldg   Chan  3:  90
 Deg
Units for spectra are inches and sec, except Sa is in fraction of g.

    3  100    6    3   15  200    1    3    1   12    6  215    024652    2    0
   23   59   15  615  252    9    9 2001   10    1   9013568   41   39   76  345
13568    0   50    3 3102    1    2   53    2   23   59    7  370    9    9 2001
    0    2    0    013568    1  220    1   12    4   76   39    0    0    013568
    313568   40   91    5    3    5    0    0    0   15    0    0    3    0    2
    2    2    4    0   79   99    1   32   32    0    0    1    0    0    8  333
    1    1    3    0
      .022      .700    67.840      .004      .000  1250.000      .081     8.045
    45.000  1220.703   976.563      .000     5.000      .000      .000      .000
     2.500    -1.009     2.500  -999.000     5.120    30.000      .000      .013
      .020      .007     2.000    15.000    34.021  -118.287      .195      .174
      .895     -.020      .033    54.000      .000      .000      .000      .000
      .000    -1.014     7.000      .000      .000      .000      .000      .000
     6.800     7.500     4.600   980.665      .005    67.840     7.162      .000
      .000    40.000      .000    67.840      .005      .500      .000      .000
     8.040    79.689     8.265     3.234     8.335      .239      .000      .500
    40.000      .005      .005      .000      .585      .034      .000      .000
      .221      .100      .185      .103      .018      .001      .000      .000
      .000      .000      .000      .000      .000      .000      .000      .000
      .000      .000      .000      .000
      .000      .020      .050      .100      .200
      .040      .042      .044      .046      .048      .050      .055      .060
      .065      .070      .075      .080      .085      .090      .095      .100
      .110      .120      .130      .140      .150      .160      .170      .180
      .190      .200      .220      .240      .260      .280      .300      .320
      .340      .360      .380      .400      .420      .440      .460      .480
      .500      .550      .600      .650      .700      .750      .800      .850
      .900      .950     1.000     1.100     1.200     1.300     1.400     1.500
     1.600     1.700     1.800     1.900     2.000     2.200     2.400     2.600
     2.800     3.000     3.200     3.400     3.600     3.800     4.000     4.200
     4.400     4.600     4.800     5.000     5.500     6.000     6.500     7.000
     7.500     8.000     8.500     9.000     9.500    10.000    11.000    12.000
    13.000    14.000    15.000      .000      .000      .000      .000      .000
      .000      .000      .000      .000
Fourier amplitude spectra in in/sec.
  .196E+00  .902E-01  .255E+00  .261E-01  .910E-01  .410E-01  .481E+00  .510E-01
  .116E+01  .292E+01  .209E+01  .733E+00  .127E+01  .107E+01  .249E+01  .126E+01
  .104E+01  .103E+01  .488E+00  .568E+00  .122E+01  .313E+01  .407E+01  .170E+01
  .522E+01  .380E+01  .470E+01  .230E+01  .213E+01  .175E+01  .174E+01  .299E+01
  .369E+01  .191E+01  .528E+01  .575E+01  .340E+01  .412E+01  .413E+01  .162E+01
  .380E+01  .343E+01  .445E+01  .182E+01  .257E+01  .182E+01  .669E+00  .188E+01
  .187E+01  .163E+01  .730E+00  .458E+00  .695E+00  .300E+00  .186E+00  .768E-02
  .167E+00  .271E+00  .160E+00  .527E-01  .184E-01  .520E-02  .473E-01  .415E-01
  .318E-01  .152E-01  .918E-02  .101E-01  .593E-02  .345E-02  .924E-02  .895E-02
  .216E-02  .250E-02  .213E-02  .228E-02  .263E-02  .869E-03  .121E-03  .509E-03
  .295E-03  .765E-04  .226E-03  .215E-03  .153E-03  .172E-03  .715E-04  .485E-04
  .692E-04  .731E-04  .687E-04  .000E+00  .000E+00  .000E+00  .000E+00  .000E+00
  .000E+00  .000E+00  .000E+00  .000E+00
Damping =  .00. Data of Sd,Sv,Sa,Pssv,ttSd,ttSv,ttSa :
  .184E-02  .210E-02  .252E-02  .203E-02  .280E-02  .276E-02  .784E-02  .673E-02
  .139E-01  .366E-01  .276E-01  .185E-01  .199E-01  .173E-01  .398E-01  .402E-01
  .345E-01  .339E-01  .320E-01  .418E-01  .445E-01  .851E-01  .117E+00  .938E-01
  .163E+00  .129E+00  .166E+00  .121E+00  .898E-01  .101E+00  .128E+00  .177E+00
  .208E+00  .207E+00  .326E+00  .372E+00  .293E+00  .321E+00  .361E+00  .298E+00
  .340E+00  .318E+00  .449E+00  .273E+00  .318E+00  .234E+00  .205E+00  .265E+00
  .276E+00  .254E+00  .189E+00  .181E+00  .169E+00  .166E+00  .157E+00  .147E+00
  .138E+00  .129E+00  .123E+00  .118E+00  .114E+00  .107E+00  .104E+00  .103E+00
  .101E+00  .997E-01  .982E-01  .972E-01  .966E-01  .962E-01  .959E-01  .957E-01
  .955E-01  .953E-01  .951E-01  .949E-01  .946E-01  .944E-01  .943E-01  .943E-01
  .943E-01  .943E-01  .943E-01  .943E-01  .943E-01  .943E-01  .943E-01  .942E-01
  .942E-01  .942E-01  .942E-01  .000E+00  .000E+00  .000E+00  .000E+00  .000E+00
  .000E+00  .000E+00  .000E+00  .000E+00
  .200E+00  .165E+00  .266E+00  .199E+00  .241E+00  .195E+00  .842E+00  .619E+00
  .131E+01  .329E+01  .228E+01  .136E+01  .146E+01  .123E+01  .260E+01  .258E+01
  .168E+01  .167E+01  .128E+01  .160E+01  .153E+01  .332E+01  .428E+01  .311E+01
  .538E+01  .412E+01  .475E+01  .319E+01  .224E+01  .226E+01  .267E+01  .351E+01
  .384E+01  .376E+01  .538E+01  .587E+01  .444E+01  .454E+01  .493E+01  .404E+01
  .429E+01  .372E+01  .473E+01  .302E+01  .285E+01  .254E+01  .243E+01  .228E+01
  .209E+01  .192E+01  .177E+01  .152E+01  .149E+01  .150E+01  .151E+01  .150E+01
  .148E+01  .146E+01  .144E+01  .142E+01  .140E+01  .137E+01  .135E+01  .134E+01
  .133E+01  .132E+01  .131E+01  .131E+01  .130E+01  .130E+01  .130E+01  .129E+01
  .129E+01  .129E+01  .129E+01  .129E+01  .128E+01  .128E+01  .128E+01  .128E+01
  .128E+01  .128E+01  .127E+01  .127E+01  .127E+01  .127E+01  .127E+01  .127E+01
  .127E+01  .127E+01  .127E+01  .000E+00  .000E+00  .000E+00  .000E+00  .000E+00
  .000E+00  .000E+00  .000E+00  .000E+00
  .117E+00  .122E+00  .133E+00  .981E-01  .124E+00  .113E+00  .265E+00  .191E+00
  .336E+00  .765E+00  .502E+00  .295E+00  .282E+00  .219E+00  .451E+00  .412E+00
  .292E+00  .241E+00  .194E+00  .218E+00  .202E+00  .340E+00  .413E+00  .296E+00
  .462E+00  .331E+00  .352E+00  .216E+00  .136E+00  .132E+00  .145E+00  .176E+00
  .184E+00  .164E+00  .231E+00  .238E+00  .170E+00  .169E+00  .175E+00  .132E+00
  .139E+00  .107E+00  .128E+00  .662E-01  .663E-01  .426E-01  .327E-01  .375E-01
  .348E-01  .288E-01  .193E-01  .153E-01  .120E-01  .100E-01  .819E-02  .669E-02
  .551E-02  .457E-02  .388E-02  .334E-02  .291E-02  .226E-02  .185E-02  .155E-02
  .132E-02  .113E-02  .981E-03  .860E-03  .762E-03  .681E-03  .613E-03  .555E-03
  .505E-03  .461E-03  .422E-03  .388E-03  .320E-03  .268E-03  .228E-03  .197E-03
  .171E-03  .151E-03  .133E-03  .119E-03  .107E-03  .964E-04  .797E-04  .669E-04
  .570E-04  .492E-04  .428E-04  .000E+00  .000E+00  .000E+00  .000E+00  .000E+00
  .000E+00  .000E+00  .000E+00  .000E+00
  .288E+00  .314E+00  .359E+00  .277E+00  .366E+00  .346E+00  .896E+00  .705E+00
  .134E+01  .329E+01  .231E+01  .145E+01  .147E+01  .121E+01  .263E+01  .253E+01
  .197E+01  .178E+01  .155E+01  .188E+01  .187E+01  .334E+01  .431E+01  .327E+01
  .539E+01  .407E+01  .475E+01  .318E+01  .217E+01  .227E+01  .268E+01  .347E+01
  .384E+01  .362E+01  .539E+01  .584E+01  .438E+01  .458E+01  .494E+01  .390E+01
  .427E+01  .363E+01  .470E+01  .264E+01  .285E+01  .196E+01  .161E+01  .196E+01
  .192E+01  .168E+01  .119E+01  .103E+01  .886E+00  .802E+00  .704E+00  .617E+00
  .541E+00  .478E+00  .429E+00  .390E+00  .357E+00  .306E+00  .272E+00  .248E+00
  .227E+00  .209E+00  .193E+00  .180E+00  .169E+00  .159E+00  .151E+00  .143E+00
  .136E+00  .130E+00  .125E+00  .119E+00  .108E+00  .989E-01  .912E-01  .846E-01
  .790E-01  .741E-01  .697E-01  .658E-01  .624E-01  .592E-01  .538E-01  .493E-01
  .455E-01  .423E-01  .395E-01  .000E+00  .000E+00  .000E+00  .000E+00  .000E+00
  .000E+00  .000E+00  .000E+00  .000E+00
  .805E+01  .829E+01  .829E+01  .835E+01  .804E+01  .803E+01  .860E+01  .823E+01
  .889E+01  .939E+01  .911E+01  .838E+01  .109E+02  .985E+01  .939E+01  .860E+01
  .832E+01  .835E+01  .806E+01  .806E+01  .831E+01  .183E+02  .133E+02  .846E+01
  .136E+02  .849E+01  .214E+02  .101E+02  .358E+02  .934E+01  .111E+02  .128E+02
  .193E+02  .876E+01  .187E+02  .176E+02  .105E+02  .119E+02  .158E+02  .914E+01
  .177E+02  .112E+02  .232E+02  .948E+01  .183E+02  .123E+02  .856E+01  .290E+02
  .280E+02  .414E+02  .831E+01  .832E+01  .832E+01  .833E+01  .834E+01  .834E+01
  .834E+01  .834E+01  .834E+01  .834E+01  .834E+01  .834E+01  .834E+01  .834E+01
  .834E+01  .834E+01  .834E+01  .833E+01  .833E+01  .833E+01  .833E+01  .833E+01
  .833E+01  .833E+01  .833E+01  .833E+01  .833E+01  .833E+01  .833E+01  .833E+01
  .833E+01  .833E+01  .833E+01  .833E+01  .833E+01  .833E+01  .833E+01  .833E+01
  .833E+01  .833E+01  .833E+01  .000E+00  .000E+00  .000E+00  .000E+00  .000E+00
  .000E+00  .000E+00  .000E+00  .000E+00
  .571E+02  .827E+01  .855E+01  .859E+01  .865E+01  .855E+01  .861E+01  .822E+01
  .890E+01  .958E+01  .910E+01  .839E+01  .111E+02  .869E+01  .941E+01  .858E+01
  .830E+01  .862E+01  .816E+01  .817E+01  .859E+01  .181E+02  .141E+02  .841E+01
  .136E+02  .935E+01  .221E+02  .101E+02  .821E+01  .927E+01  .110E+02  .128E+02
  .127E+02  .866E+01  .186E+02  .175E+02  .106E+02  .120E+02  .159E+02  .904E+01
  .178E+02  .113E+02  .230E+02  .839E+01  .182E+02  .840E+01  .840E+01  .841E+01
  .841E+01  .841E+01  .841E+01  .841E+01  .826E+01  .826E+01  .826E+01  .826E+01
  .826E+01  .826E+01  .826E+01  .826E+01  .826E+01  .826E+01  .826E+01  .826E+01
  .826E+01  .826E+01  .826E+01  .826E+01  .826E+01  .826E+01  .826E+01  .826E+01
  .826E+01  .826E+01  .826E+01  .826E+01  .826E+01  .826E+01  .826E+01  .826E+01
  .826E+01  .826E+01  .826E+01  .826E+01  .826E+01  .826E+01  .826E+01  .826E+01
  .826E+01  .826E+01  .826E+01  .000E+00  .000E+00  .000E+00  .000E+00  .000E+00
  .000E+00  .000E+00  .000E+00  .000E+00
  .805E+01  .829E+01  .829E+01  .835E+01  .804E+01  .803E+01  .860E+01  .823E+01
  .889E+01  .939E+01  .911E+01  .838E+01  .109E+02  .985E+01  .939E+01  .860E+01
  .832E+01  .835E+01  .806E+01  .806E+01  .831E+01  .183E+02  .133E+02  .846E+01
  .136E+02  .849E+01  .214E+02  .101E+02  .358E+02  .934E+01  .111E+02  .128E+02
  .193E+02  .876E+01  .187E+02  .176E+02  .105E+02  .119E+02  .158E+02  .914E+01
  .177E+02  .112E+02  .232E+02  .948E+01  .183E+02  .123E+02  .856E+01  .290E+02
  .280E+02  .414E+02  .831E+01  .832E+01  .832E+01  .833E+01  .834E+01  .834E+01
  .834E+01  .834E+01  .834E+01  .834E+01  .834E+01  .834E+01  .834E+01  .834E+01
  .834E+01  .834E+01  .834E+01  .833E+01  .833E+01  .833E+01  .833E+01  .833E+01
  .833E+01  .833E+01  .833E+01  .833E+01  .833E+01  .833E+01  .833E+01  .833E+01
  .833E+01  .833E+01  .833E+01  .833E+01  .833E+01  .833E+01  .833E+01  .833E+01
  .833E+01  .833E+01  .833E+01  .000E+00  .000E+00  .000E+00  .000E+00  .000E+00
  .000E+00  .000E+00  .000E+00  .000E+00
Damping =  .02. Data of Sd,Sv,Sa,Pssv,ttSd,ttSv,ttSa :
  .146E-02  .188E-02  .215E-02  .197E-02  .213E-02  .281E-02  .521E-02  .620E-02
  .900E-02  .171E-01  .149E-01  .156E-01  .149E-01  .160E-01  .203E-01  .254E-01
  .321E-01  .280E-01  .311E-01  .396E-01  .457E-01  .662E-01  .753E-01  .828E-01
  .940E-01  .102E+00  .907E-01  .857E-01  .875E-01  .836E-01  .936E-01  .125E+00
  .170E+00  .192E+00  .217E+00  .226E+00  .229E+00  .247E+00  .255E+00  .255E+00
  .259E+00  .258E+00  .256E+00  .252E+00  .230E+00  .211E+00  .194E+00  .185E+00
  .187E+00  .186E+00  .184E+00  .177E+00  .167E+00  .162E+00  .155E+00  .146E+00
  .137E+00  .129E+00  .123E+00  .118E+00  .114E+00  .108E+00  .105E+00  .103E+00
  .102E+00  .100E+00  .987E-01  .977E-01  .970E-01  .966E-01  .963E-01  .960E-01
  .958E-01  .956E-01  .954E-01  .952E-01  .948E-01  .946E-01  .945E-01  .945E-01
  .944E-01  .944E-01  .944E-01  .944E-01  .944E-01  .944E-01  .943E-01  .943E-01
  .943E-01  .943E-01  .943E-01  .000E+00  .000E+00  .000E+00  .000E+00  .000E+00
  .000E+00  .000E+00  .000E+00  .000E+00
  .108E+00  .134E+00  .167E+00  .163E+00  .161E+00  .200E+00  .537E+00  .610E+00
  .806E+00  .151E+01  .127E+01  .113E+01  .110E+01  .117E+01  .142E+01  .154E+01
  .158E+01  .117E+01  .119E+01  .144E+01  .157E+01  .225E+01  .248E+01  .268E+01
  .301E+01  .308E+01  .269E+01  .210E+01  .214E+01  .190E+01  .196E+01  .237E+01
  .321E+01  .341E+01  .349E+01  .347E+01  .349E+01  .363E+01  .374E+01  .365E+01
  .354E+01  .317E+01  .290E+01  .287E+01  .267E+01  .249E+01  .237E+01  .223E+01
  .206E+01  .191E+01  .177E+01  .154E+01  .146E+01  .147E+01  .148E+01  .147E+01
  .146E+01  .144E+01  .142E+01  .140E+01  .139E+01  .136E+01  .134E+01  .133E+01
  .132E+01  .131E+01  .131E+01  .130E+01  .130E+01  .129E+01  .129E+01  .129E+01
  .129E+01  .129E+01  .128E+01  .128E+01  .128E+01  .128E+01  .128E+01  .128E+01
  .127E+01  .127E+01  .127E+01  .127E+01  .127E+01  .127E+01  .127E+01  .127E+01
  .127E+01  .127E+01  .127E+01  .000E+00  .000E+00  .000E+00  .000E+00  .000E+00
  .000E+00  .000E+00  .000E+00  .000E+00
  .930E-01  .109E+00  .114E+00  .951E-01  .947E-01  .115E+00  .176E+00  .175E+00
  .218E+00  .355E+00  .273E+00  .251E+00  .211E+00  .202E+00  .230E+00  .260E+00
  .271E+00  .199E+00  .188E+00  .207E+00  .207E+00  .264E+00  .266E+00  .261E+00
  .266E+00  .261E+00  .192E+00  .152E+00  .133E+00  .109E+00  .107E+00  .125E+00
  .151E+00  .151E+00  .154E+00  .145E+00  .133E+00  .131E+00  .124E+00  .113E+00
  .106E+00  .874E-01  .728E-01  .610E-01  .480E-01  .383E-01  .311E-01  .263E-01
  .237E-01  .211E-01  .188E-01  .150E-01  .119E-01  .986E-02  .810E-02  .666E-02
  .551E-02  .461E-02  .392E-02  .339E-02  .295E-02  .231E-02  .189E-02  .159E-02
  .135E-02  .117E-02  .102E-02  .905E-03  .809E-03  .729E-03  .660E-03  .602E-03
  .552E-03  .509E-03  .471E-03  .437E-03  .369E-03  .317E-03  .278E-03  .246E-03
  .221E-03  .200E-03  .182E-03  .167E-03  .154E-03  .142E-03  .124E-03  .110E-03
  .981E-04  .885E-04  .807E-04  .000E+00  .000E+00  .000E+00  .000E+00  .000E+00
  .000E+00  .000E+00  .000E+00  .000E+00
  .229E+00  .281E+00  .307E+00  .269E+00  .279E+00  .353E+00  .596E+00  .649E+00
  .870E+00  .153E+01  .125E+01  .123E+01  .110E+01  .112E+01  .134E+01  .160E+01
  .183E+01  .147E+01  .150E+01  .178E+01  .191E+01  .260E+01  .278E+01  .289E+01
  .311E+01  .321E+01  .259E+01  .224E+01  .212E+01  .188E+01  .196E+01  .245E+01
  .315E+01  .334E+01  .359E+01  .355E+01  .342E+01  .352E+01  .349E+01  .334E+01
  .325E+01  .295E+01  .268E+01  .243E+01  .206E+01  .176E+01  .153E+01  .137E+01
  .131E+01  .123E+01  .115E+01  .101E+01  .875E+00  .784E+00  .693E+00  .610E+00
  .538E+00  .478E+00  .430E+00  .392E+00  .359E+00  .309E+00  .274E+00  .249E+00
  .228E+00  .210E+00  .194E+00  .181E+00  .169E+00  .160E+00  .151E+00  .144E+00
  .137E+00  .131E+00  .125E+00  .120E+00  .108E+00  .991E-01  .914E-01  .848E-01
  .791E-01  .742E-01  .698E-01  .659E-01  .624E-01  .593E-01  .539E-01  .494E-01
  .456E-01  .423E-01  .395E-01  .000E+00  .000E+00  .000E+00  .000E+00  .000E+00
  .000E+00  .000E+00  .000E+00  .000E+00
  .805E+01  .829E+01  .829E+01  .835E+01  .804E+01  .828E+01  .860E+01  .868E+01
  .878E+01  .890E+01  .870E+01  .830E+01  .831E+01  .867E+01  .864E+01  .831E+01
  .832E+01  .806E+01  .806E+01  .806E+01  .832E+01  .834E+01  .835E+01  .836E+01
  .847E+01  .849E+01  .853E+01  .813E+01  .814E+01  .815E+01  .868E+01  .855E+01
  .856E+01  .857E+01  .859E+01  .861E+01  .863E+01  .864E+01  .865E+01  .867E+01
  .869E+01  .873E+01  .850E+01  .852E+01  .853E+01  .854E+01  .855E+01  .830E+01
  .122E+02  .831E+01  .831E+01  .832E+01  .832E+01  .833E+01  .833E+01  .834E+01
  .834E+01  .834E+01  .834E+01  .834E+01  .834E+01  .834E+01  .834E+01  .833E+01
  .833E+01  .833E+01  .833E+01  .833E+01  .833E+01  .833E+01  .833E+01  .833E+01
  .833E+01  .833E+01  .833E+01  .833E+01  .833E+01  .833E+01  .833E+01  .833E+01
  .833E+01  .833E+01  .833E+01  .833E+01  .833E+01  .833E+01  .833E+01  .833E+01
  .833E+01  .833E+01  .833E+01  .000E+00  .000E+00  .000E+00  .000E+00  .000E+00
  .000E+00  .000E+00  .000E+00  .000E+00
  .826E+01  .827E+01  .855E+01  .859E+01  .811E+01  .826E+01  .862E+01  .869E+01
  .877E+01  .888E+01  .872E+01  .840E+01  .872E+01  .869E+01  .861E+01  .858E+01
  .830E+01  .809E+01  .810E+01  .810E+01  .811E+01  .830E+01  .830E+01  .841E+01
  .843E+01  .844E+01  .859E+01  .819E+01  .820E+01  .822E+01  .876E+01  .864E+01
  .865E+01  .866E+01  .868E+01  .872E+01  .915E+01  .855E+01  .855E+01  .855E+01
  .855E+01  .861E+01  .839E+01  .839E+01  .840E+01  .840E+01  .840E+01  .840E+01
  .841E+01  .841E+01  .841E+01  .841E+01  .826E+01  .826E+01  .826E+01  .826E+01
  .826E+01  .826E+01  .826E+01  .826E+01  .826E+01  .826E+01  .826E+01  .826E+01
  .826E+01  .826E+01  .826E+01  .826E+01  .826E+01  .826E+01  .826E+01  .826E+01
  .826E+01  .826E+01  .826E+01  .826E+01  .826E+01  .826E+01  .826E+01  .826E+01
  .826E+01  .826E+01  .826E+01  .826E+01  .826E+01  .826E+01  .826E+01  .826E+01
  .826E+01  .826E+01  .826E+01  .000E+00  .000E+00  .000E+00  .000E+00  .000E+00
  .000E+00  .000E+00  .000E+00  .000E+00
  .805E+01  .829E+01  .829E+01  .830E+01  .804E+01  .828E+01  .860E+01  .868E+01
  .878E+01  .890E+01  .870E+01  .830E+01  .831E+01  .867E+01  .864E+01  .831E+01
  .832E+01  .806E+01  .806E+01  .806E+01  .832E+01  .833E+01  .835E+01  .836E+01
  .847E+01  .849E+01  .853E+01  .813E+01  .814E+01  .815E+01  .868E+01  .855E+01
  .856E+01  .857E+01  .859E+01  .861E+01  .863E+01  .864E+01  .865E+01  .867E+01
  .869E+01  .873E+01  .849E+01  .851E+01  .852E+01  .853E+01  .855E+01  .830E+01
  .122E+02  .830E+01  .830E+01  .831E+01  .832E+01  .832E+01  .832E+01  .832E+01
  .832E+01  .832E+01  .832E+01  .832E+01  .832E+01  .832E+01  .832E+01  .832E+01
  .831E+01  .831E+01  .803E+01  .803E+01  .803E+01  .803E+01  .803E+01  .802E+01
  .802E+01  .802E+01  .802E+01  .802E+01  .802E+01  .828E+01  .828E+01  .827E+01
  .827E+01  .827E+01  .827E+01  .827E+01  .827E+01  .827E+01  .827E+01  .827E+01
  .827E+01  .827E+01  .827E+01  .000E+00  .000E+00  .000E+00  .000E+00  .000E+00
  .000E+00  .000E+00  .000E+00  .000E+00
Damping =  .05. Data of Sd,Sv,Sa,Pssv,ttSd,ttSv,ttSa :
  .143E-02  .171E-02  .194E-02  .199E-02  .215E-02  .257E-02  .383E-02  .548E-02
