Response and Fourier amplitude spectra (91 periods,  .04 - 15.0 sec)   for      
Corrected accelerogram   24803-L1137-01252.06       Chan  1: 360 Deg     from   
Uncorrected Accelerogram Data             Processed: 09/10/01, CDMG  803br006   
Record of Sun Sep  9, 2001 16:59:22 PDT               (Avol1 v4.6  7/01 CSMIP)  
CSMIP Preliminary Processing            (Origin:  To be determined)             
24803-L1137-01252.06                 Start time:  9/09/01, 23:59:22.0 UTC (GPS) 
Station No. 24803   34.185N, 118.623W      Etna  s/n 1137  (3 Channels)         
Woodland Hills - Victory & Fallbrook                                            
Chan  1: 360 Deg                                                                
Record of Sun Sep  9, 2001 16:59:22 PDT    Sun Sep  9, 2001 16:59:22 PDT        
Hypocenter:  To be determined.               ML:  To be determined.             
Instr Period =  .0108 sec,  Damping =  .640,  Sensitivity =  .63  v/g           
                        Record length = 39.000 sec.                             
                                     Uncor Max  =  -.009 g, at   7.080 sec.     
RMS accel of (uncor) record  =        .                                         
Accelerogram bandpass filtered with 3 dB pts at   .30 and 40.00 cyc/sec         
                 instrument- and baseline-corrected                             
                                                                                
                                                                                
                                                                                
                                                                                
                                                                                
Record of Sun Sep  9, 2001 16:59:22 PDT    Sun Sep  9, 2001 16:59:22 PDT        
                                                                                
24803-L1137-01252.06      Woodland Hills - Victory & Fallbrook    Chan  1: 360 D
eg                                                                              
24803-L1137-01252.06      Woodland Hills - Victory & Fallbrook    Chan  1: 360 D
eg                                                                              
Units for spectra are inches and sec, except Sa is in fraction of g.            
                                                                                
    1  100    1    3    3  200    1    3    1   24   12 1137    024803    1    0
   23   59   22    0  252    9    9 2001   10    3  360 7800   39   36   72  360
 7800    1   50    3 1137    1    6  390    1    0    0    0    0    0    0    0
    0    4    0    0 3900    2    0    0    0    0   72   36    0    0    0 3900
    0 3900   37   91    1    3    0    0    0    0    3    0    0    0    0    2
    2    2    4    0   32   99    0   32   32    0    0    1    0    0    0    0
  -99   -1    0    0
      .011      .640    39.000      .001      .000   625.000     -.009     7.080
    93.000      .298      .477      .000     5.000      .000      .000      .000
     2.500   -10.544     -.001     -.012     5.000    30.000      .000      .009
      .001     -.008     2.000    15.000    34.185  -118.623      .208      .349
     1.676     -.039      .024  -999.000      .000      .000   -13.300      .000
  1000.000     1.015      .000      .000      .000      .000      .000      .000
     4.600     4.400      .000   980.665      .010    39.000    14.801      .000
      .000    40.000      .000    39.000      .010      .300      .000      .000
     7.080    -8.675    12.360     -.302     5.550     -.030      .000      .300
    40.000      .010      .010      .000      .010      .017      .000      .000
      .030      .180      .024      .018      .004      .000      .000      .000
      .000      .000      .000      .000      .000      .000      .000      .000
      .000      .000      .000      .000
      .050
      .040      .042      .044      .046      .048      .050      .055      .060
      .065      .070      .075      .080      .085      .090      .095      .100
      .110      .120      .130      .140      .150      .160      .170      .180
      .190      .200      .220      .240      .260      .280      .300      .320
      .340      .360      .380      .400      .420      .440      .460      .480
      .500      .550      .600      .650      .700      .750      .800      .850
      .900      .950     1.000     1.100     1.200     1.300     1.400     1.500
     1.600     1.700     1.800     1.900     2.000     2.200     2.400     2.600
     2.800     3.000     3.200     3.400     3.600     3.800     4.000     4.200
     4.400     4.600     4.800     5.000     5.500     6.000     6.500     7.000
     7.500     8.000     8.500     9.000     9.500    10.000    11.000    12.000
    13.000    14.000    15.000      .000      .000      .000      .000      .000
      .000      .000      .000      .000
Fourier amplitude spectra in in/sec.
  .000E+00  .000E+00  .000E+00  .000E+00  .000E+00  .000E+00  .000E+00  .000E+00
  .000E+00  .000E+00  .000E+00  .000E+00  .000E+00  .000E+00  .000E+00  .000E+00
  .000E+00  .000E+00  .000E+00  .000E+00  .000E+00  .000E+00  .000E+00  .000E+00
  .000E+00  .000E+00  .000E+00  .000E+00  .000E+00  .000E+00  .000E+00  .000E+00
  .000E+00  .000E+00  .000E+00  .000E+00  .000E+00  .000E+00  .000E+00  .000E+00
  .000E+00  .000E+00  .000E+00  .000E+00  .000E+00  .000E+00  .000E+00  .000E+00
  .000E+00  .000E+00  .000E+00  .000E+00  .000E+00  .000E+00  .000E+00  .000E+00
  .000E+00  .000E+00  .000E+00  .000E+00  .000E+00  .000E+00  .000E+00  .000E+00
  .000E+00  .000E+00  .000E+00  .000E+00  .000E+00  .000E+00  .000E+00  .000E+00
  .000E+00  .000E+00  .000E+00  .000E+00  .000E+00  .000E+00  .000E+00  .000E+00
  .000E+00  .000E+00  .000E+00  .000E+00  .000E+00  .000E+00  .000E+00  .000E+00
  .000E+00  .000E+00  .000E+00  .000E+00  .000E+00  .000E+00  .000E+00  .000E+00
  .000E+00  .000E+00  .000E+00  .000E+00
Damping =  .05. Data of Sd,Sv,Sa,Pssv,ttSd,ttSv,ttSa :
  .155E-03  .170E-03  .202E-03  .241E-03  .275E-03  .300E-03  .390E-03  .436E-03
  .547E-03  .647E-03  .885E-03  .104E-02  .120E-02  .167E-02  .200E-02  .214E-02
  .272E-02  .306E-02  .415E-02  .435E-02  .567E-02  .652E-02  .712E-02  .934E-02
  .955E-02  .102E-01  .927E-02  .122E-01  .115E-01  .140E-01  .155E-01  .174E-01
  .179E-01  .191E-01  .186E-01  .183E-01  .172E-01  .196E-01  .215E-01  .270E-01
  .256E-01  .294E-01  .292E-01  .279E-01  .218E-01  .268E-01  .350E-01  .331E-01
  .292E-01  .375E-01  .453E-01  .363E-01  .282E-01  .259E-01  .209E-01  .196E-01
  .192E-01  .219E-01  .226E-01  .214E-01  .221E-01  .207E-01  .182E-01  .156E-01
  .146E-01  .141E-01  .136E-01  .132E-01  .129E-01  .126E-01  .125E-01  .124E-01
  .123E-01  .123E-01  .123E-01  .123E-01  .124E-01  .124E-01  .125E-01  .125E-01
  .125E-01  .125E-01  .125E-01  .125E-01  .124E-01  .124E-01  .124E-01  .123E-01
  .122E-01  .122E-01  .122E-01  .000E+00  .000E+00  .000E+00  .000E+00  .000E+00
  .000E+00  .000E+00  .000E+00  .000E+00
  .906E-02  .110E-01  .118E-01  .133E-01  .147E-01  .182E-01  .290E-01  .301E-01
  .357E-01  .459E-01  .572E-01  .705E-01  .823E-01  .989E-01  .112E+00  .111E+00
  .148E+00  .153E+00  .197E+00  .182E+00  .228E+00  .240E+00  .263E+00  .330E+00
  .327E+00  .307E+00  .296E+00  .323E+00  .335E+00  .322E+00  .315E+00  .344E+00
  .351E+00  .353E+00  .343E+00  .308E+00  .263E+00  .270E+00  .310E+00  .344E+00
  .363E+00  .379E+00  .329E+00  .307E+00  .259E+00  .232E+00  .322E+00  .336E+00
  .296E+00  .320E+00  .297E+00  .294E+00  .203E+00  .173E+00  .172E+00  .166E+00
  .160E+00  .155E+00  .150E+00  .152E+00  .150E+00  .137E+00  .132E+00  .127E+00
  .125E+00  .129E+00  .130E+00  .128E+00  .125E+00  .123E+00  .122E+00  .121E+00
  .121E+00  .121E+00  .121E+00  .121E+00  .121E+00  .120E+00  .120E+00  .120E+00
  .120E+00  .120E+00  .120E+00  .120E+00  .120E+00  .120E+00  .119E+00  .119E+00
  .119E+00  .119E+00  .119E+00  .000E+00  .000E+00  .000E+00  .000E+00  .000E+00
  .000E+00  .000E+00  .000E+00  .000E+00
  .991E-02  .984E-02  .107E-01  .117E-01  .122E-01  .123E-01  .133E-01  .126E-01
  .133E-01  .136E-01  .162E-01  .167E-01  .171E-01  .211E-01  .230E-01  .217E-01
  .230E-01  .220E-01  .254E-01  .231E-01  .258E-01  .262E-01  .256E-01  .299E-01
  .269E-01  .261E-01  .199E-01  .218E-01  .175E-01  .184E-01  .177E-01  .174E-01
  .159E-01  .152E-01  .133E-01  .118E-01  .100E-01  .104E-01  .105E-01  .120E-01
  .106E-01  .100E-01  .834E-02  .681E-02  .456E-02  .489E-02  .563E-02  .472E-02
  .371E-02  .428E-02  .468E-02  .309E-02  .203E-02  .161E-02  .114E-02  .915E-03
  .787E-03  .793E-03  .736E-03  .618E-03  .579E-03  .454E-03  .351E-03  .264E-03
  .216E-03  .185E-03  .161E-03  .141E-03  .125E-03  .112E-03  .102E-03  .936E-04
  .865E-04  .804E-04  .750E-04  .704E-04  .607E-04  .532E-04  .472E-04  .422E-04
  .381E-04  .346E-04  .316E-04  .291E-04  .269E-04  .250E-04  .219E-04  .194E-04
  .174E-04  .158E-04  .144E-04  .000E+00  .000E+00  .000E+00  .000E+00  .000E+00
  .000E+00  .000E+00  .000E+00  .000E+00
  .243E-01  .254E-01  .288E-01  .330E-01  .360E-01  .377E-01  .445E-01  .457E-01
  .529E-01  .581E-01  .741E-01  .818E-01  .888E-01  .117E+00  .132E+00  .134E+00
  .155E+00  .160E+00  .200E+00  .195E+00  .238E+00  .256E+00  .263E+00  .326E+00
  .316E+00  .322E+00  .265E+00  .318E+00  .277E+00  .313E+00  .326E+00  .342E+00
  .331E+00  .334E+00  .308E+00  .287E+00  .258E+00  .280E+00  .294E+00  .353E+00
  .322E+00  .336E+00  .306E+00  .270E+00  .195E+00  .224E+00  .275E+00  .245E+00
  .204E+00  .248E+00  .285E+00  .208E+00  .148E+00  .125E+00  .940E-01  .822E-01
  .753E-01  .808E-01  .788E-01  .707E-01  .695E-01  .592E-01  .476E-01  .377E-01
  .327E-01  .295E-01  .267E-01  .243E-01  .224E-01  .209E-01  .196E-01  .185E-01
  .176E-01  .168E-01  .161E-01  .155E-01  .141E-01  .130E-01  .121E-01  .112E-01
  .105E-01  .982E-02  .923E-02  .870E-02  .823E-02  .780E-02  .705E-02  .644E-02
  .591E-02  .547E-02  .509E-02  .000E+00  .000E+00  .000E+00  .000E+00  .000E+00
  .000E+00  .000E+00  .000E+00  .000E+00
  .777E+01  .777E+01  .707E+01  .708E+01  .708E+01  .777E+01  .709E+01  .576E+01
  .777E+01  .589E+01  .589E+01  .590E+01  .595E+01  .596E+01  .596E+01  .597E+01
  .779E+01  .579E+01  .758E+01  .635E+01  .637E+01  .695E+01  .615E+01  .617E+01
  .601E+01  .781E+01  .593E+01  .723E+01  .585E+01  .575E+01  .576E+01  .978E+01
  .980E+01  .966E+01  .124E+02  .124E+02  .968E+01  .149E+02  .969E+01  .119E+02
  .971E+01  .954E+01  .150E+02  .956E+01  .207E+02  .128E+02  .128E+02  .146E+02
  .962E+01  .934E+01  .937E+01  .906E+01  .912E+01  .706E+01  .707E+01  .912E+01
  .914E+01  .871E+01  .873E+01  .212E+02  .812E+01  .813E+01  .939E+01  .939E+01
  .554E+01  .554E+01  .554E+01  .554E+01  .554E+01  .554E+01  .554E+01  .554E+01
  .554E+01  .554E+01  .554E+01  .554E+01  .554E+01  .554E+01  .554E+01  .554E+01
  .554E+01  .554E+01  .554E+01  .554E+01  .554E+01  .554E+01  .554E+01  .554E+01
  .554E+01  .554E+01  .554E+01  .000E+00  .000E+00  .000E+00  .000E+00  .000E+00
  .000E+00  .000E+00  .000E+00  .000E+00
  .635E+01  .635E+01  .636E+01  .573E+01  .573E+01  .758E+01  .573E+01  .680E+01
  .780E+01  .780E+01  .664E+01  .665E+01  .653E+01  .593E+01  .594E+01  .594E+01
  .782E+01  .582E+01  .761E+01  .639E+01  .633E+01  .699E+01  .628E+01  .613E+01
  .605E+01  .606E+01  .598E+01  .718E+01  .591E+01  .580E+01  .570E+01  .571E+01
  .972E+01  .974E+01  .125E+02  .125E+02  .976E+01  .123E+02  .119E+02  .118E+02
  .962E+01  .964E+01  .149E+02  .710E+01  .711E+01  .222E+02  .147E+02  .123E+02
  .947E+01  .949E+01  .951E+01  .924E+01  .886E+01  .563E+01  .695E+01  .563E+01
  .564E+01  .564E+01  .564E+01  .123E+02  .123E+02  .564E+01  .564E+01  .564E+01
  .123E+02  .123E+02  .123E+02  .123E+02  .123E+02  .123E+02  .123E+02  .123E+02
  .123E+02  .123E+02  .123E+02  .123E+02  .123E+02  .123E+02  .123E+02  .123E+02
  .123E+02  .123E+02  .123E+02  .123E+02  .123E+02  .123E+02  .123E+02  .123E+02
  .123E+02  .123E+02  .123E+02  .000E+00  .000E+00  .000E+00  .000E+00  .000E+00
  .000E+00  .000E+00  .000E+00  .000E+00
  .777E+01  .777E+01  .707E+01  .708E+01  .708E+01  .777E+01  .709E+01  .576E+01
  .777E+01  .778E+01  .589E+01  .590E+01  .595E+01  .596E+01  .596E+01  .597E+01
  .779E+01  .578E+01  .757E+01  .635E+01  .636E+01  .695E+01  .615E+01  .608E+01
  .600E+01  .781E+01  .593E+01  .723E+01  .596E+01  .574E+01  .575E+01  .977E+01
  .979E+01  .966E+01  .124E+02  .124E+02  .967E+01  .149E+02  .968E+01  .119E+02
  .971E+01  .953E+01  .150E+02  .955E+01  .207E+02  .128E+02  .128E+02  .146E+02
  .960E+01  .933E+01  .935E+01  .899E+01  .910E+01  .705E+01  .705E+01  .910E+01
  .911E+01  .869E+01  .870E+01  .212E+02  .810E+01  .810E+01  .936E+01  .936E+01
  .551E+01  .551E+01  .551E+01  .551E+01  .551E+01  .550E+01  .550E+01  .550E+01
  .550E+01  .550E+01  .550E+01  .550E+01  .550E+01  .550E+01  .550E+01  .550E+01
  .550E+01  .550E+01  .550E+01  .550E+01  .550E+01  .549E+01  .549E+01  .549E+01
  .549E+01  .549E+01  .549E+01  .000E+00  .000E+00  .000E+00  .000E+00  .000E+00
  .000E+00  .000E+00  .000E+00  .000E+00
/&   ----------  End of spectral data for channel  1  ----------
Response and Fourier amplitude spectra (91 periods,  .04 - 15.0 sec)   for      
Corrected accelerogram   24803-L1137-01252.06       Chan  2:  Up         from   
Uncorrected Accelerogram Data             Processed: 09/10/01, CDMG  803br006   
Record of Sun Sep  9, 2001 16:59:22 PDT               (Avol1 v4.6  7/01 CSMIP)  
CSMIP Preliminary Processing            (Origin:  To be determined)             
24803-L1137-01252.06                 Start time:  9/09/01, 23:59:22.0 UTC (GPS) 
Station No. 24803   34.185N, 118.623W      Etna  s/n 1137  (3 Channels)         
Woodland Hills - Victory & Fallbrook                                            
Chan  2:  Up                                                                    
Record of Sun Sep  9, 2001 16:59:22 PDT    Sun Sep  9, 2001 16:59:22 PDT        
Hypocenter:  To be determined.               ML:  To be determined.             
Instr Period =  .0107 sec,  Damping =  .660,  Sensitivity =  .63  v/g           
                        Record length = 39.000 sec.                             
                                     Uncor Max  =   .006 g, at   5.805 sec.     
RMS accel of (uncor) record  =        .                                         
Accelerogram bandpass filtered with 3 dB pts at   .30 and 40.00 cyc/sec         
                 instrument- and baseline-corrected                             
                                                                                
                                                                                
                                                                                
                                                                                
                                                                                
Record of Sun Sep  9, 2001 16:59:22 PDT    Sun Sep  9, 2001 16:59:22 PDT        
                                                                                
24803-L1137-01252.06      Woodland Hills - Victory & Fallbrook    Chan  2:  Up  
                                                                                
24803-L1137-01252.06      Woodland Hills - Victory & Fallbrook    Chan  2:  Up  
                                                                                
Units for spectra are inches and sec, except Sa is in fraction of g.            
                                                                                
    2  100    2    3    3  200    1    3    1   24   12 1137    024803    1    0
   23   59   22    0  252    9    9 2001   10    3  500 7800   39   36   72  360
 7800    1   50    3 1137    1    6  390    1    0    0    0    0    0    0    0
    0    4    0    0 3900    2    0    0    0    0   72   36    0    0    0 3900
    0 3900   37   91    1    3    0    0    0    0    3    0    0    0    0    2
    2    2    4    0   32   99    0   32   32    0    0    1    0    0    0    0
  -99   -1    0    0
      .011      .660    39.000      .001      .000   625.000      .006     5.805
    93.400      .298      .477      .000     5.000      .000      .000      .000
     2.500   -12.750     -.005     -.012     5.000    30.000      .000     -.013
     -.003      .009     2.000    15.000    34.185  -118.623     1.485      .258
      .173     -.182      .201  -999.000      .000      .000   -13.300      .000
  1000.000     1.229      .000      .000      .000      .000      .000      .000
     4.600     4.400      .000   980.665      .010    39.000    14.865      .000
      .000    40.000      .000    39.000      .010      .300      .000      .000
     5.810     5.579     5.830      .126     7.240     -.014      .000      .300
    40.000      .010      .010      .000      .010      .009      .000      .000
      .025      .095      .008      .005      .002      .000      .000      .000
      .000      .000      .000      .000      .000      .000      .000      .000
      .000      .000      .000      .000
      .050
      .040      .042      .044      .046      .048      .050      .055      .060
      .065      .070      .075      .080      .085      .090      .095      .100
      .110      .120      .130      .140      .150      .160      .170      .180
      .190      .200      .220      .240      .260      .280      .300      .320
      .340      .360      .380      .400      .420      .440      .460      .480
      .500      .550      .600      .650      .700      .750      .800      .850
      .900      .950     1.000     1.100     1.200     1.300     1.400     1.500
     1.600     1.700     1.800     1.900     2.000     2.200     2.400     2.600
     2.800     3.000     3.200     3.400     3.600     3.800     4.000     4.200
     4.400     4.600     4.800     5.000     5.500     6.000     6.500     7.000
     7.500     8.000     8.500     9.000     9.500    10.000    11.000    12.000
    13.000    14.000    15.000      .000      .000      .000      .000      .000
      .000      .000      .000      .000
Fourier amplitude spectra in in/sec.
  .000E+00  .000E+00  .000E+00  .000E+00  .000E+00  .000E+00  .000E+00  .000E+00
  .000E+00  .000E+00  .000E+00  .000E+00  .000E+00  .000E+00  .000E+00  .000E+00
  .000E+00  .000E+00  .000E+00  .000E+00  .000E+00  .000E+00  .000E+00  .000E+00
  .000E+00  .000E+00  .000E+00  .000E+00  .000E+00  .000E+00  .000E+00  .000E+00
  .000E+00  .000E+00  .000E+00  .000E+00  .000E+00  .000E+00  .000E+00  .000E+00
  .000E+00  .000E+00  .000E+00  .000E+00  .000E+00  .000E+00  .000E+00  .000E+00
  .000E+00  .000E+00  .000E+00  .000E+00  .000E+00  .000E+00  .000E+00  .000E+00
  .000E+00  .000E+00  .000E+00  .000E+00  .000E+00  .000E+00  .000E+00  .000E+00
  .000E+00  .000E+00  .000E+00  .000E+00  .000E+00  .000E+00  .000E+00  .000E+00
  .000E+00  .000E+00  .000E+00  .000E+00  .000E+00  .000E+00  .000E+00  .000E+00
  .000E+00  .000E+00  .000E+00  .000E+00  .000E+00  .000E+00  .000E+00  .000E+00
  .000E+00  .000E+00  .000E+00  .000E+00  .000E+00  .000E+00  .000E+00  .000E+00
  .000E+00  .000E+00  .000E+00  .000E+00
Damping =  .05. Data of Sd,Sv,Sa,Pssv,ttSd,ttSv,ttSa :
  .219E-03  .220E-03  .220E-03  .259E-03  .319E-03  .336E-03  .449E-03  .465E-03
  .485E-03  .757E-03  .840E-03  .105E-02  .154E-02  .182E-02  .222E-02  .213E-02
  .291E-02  .334E-02  .316E-02  .333E-02  .260E-02  .289E-02  .271E-02  .270E-02
  .280E-02  .351E-02  .327E-02  .307E-02  .384E-02  .382E-02  .480E-02  .570E-02
  .540E-02  .559E-02  .610E-02  .796E-02  .104E-01  .124E-01  .130E-01  .116E-01
