Response and Fourier amplitude spectra (91 periods,  .04 - 15.0 sec)   for      
Corrected accelerogram   24655-F0219-01252.02       Chan  3: 360 Deg     from   
Uncorrected Accelerogram Data             Processed: 09/10/01, CDMG  s655e02    
Earthquake of Sun Sep  9, 2001  16:59 PDT             (Avol1 v4.6  7/01 CSMIP)  
CSMIP Preliminary Processing            (Origin:  To be determined)             
24655-F0219-01252.02                 Start time:  9/09/01, 23:59:15.6 GMT (WWVB)
Station No. 24655   34.021N, 118.289W     SSA-2  s/n  219  (3 Channels)         
Los Angeles - 6-story Parking Structure                                         
Chan  3: 360 Deg                    Location: 1st Floor: NW Shear Wall          
Earthquake of Sun Sep  9, 2001  16:59 PDT    Sun Sep  9, 2001  16:59 PDT        
Hypocenter:  To be determined.               ML:  To be determined.
Instr Period =  .0222 sec,  Damping =  .700,  Sensitivity = 1.25  v/g
                        Record length = 67.840 sec.
                                     Uncor Max  =  -.095 g, at   8.290 sec.
RMS accel of (uncor) record  =        .
Accelerogram bandpass filtered with 3 dB pts at   .30 and 40.00 cyc/sec
                 instrument- and baseline-corrected





Earthquake of Sun Sep  9, 2001  16:59 PDT    Sun Sep  9, 2001  16:59 PDT

24655-F0219-01252.02      Los Angeles - 6-story Parking Structure   Chan  3: 360
 Deg
24655-F0219-01252.02      Los Angeles - 6-story Parking Structure   Chan  3: 360
 Deg
Units for spectra are inches and sec, except Sa is in fraction of g.

    3  100    3    3    3  200    1    3    1   12    6  219    024655    2    0
   23   59   15  605  252    9    9 2001   10    1  36013568   41   39   72   30
13568    1   50    0 3103    1    2   53    0   23   59   11  870    9    9 2001
    0    0    0    0 6784    2    0    0    0    0   72   39    0    0    0 6784
    0 6784   40   91    1    3    0    0    0    0   14    0    0    0    0    2
    2    2    4    0   80   99    1   32   32    0    0    0   16    0    9  129
  -99   -1    0    0
      .022      .700    67.840      .004      .000  1250.000     -.095     8.290
    45.000  1220.703   976.563      .000     5.000      .000      .000      .000
     2.500     -.772      .117     -.082     5.120    30.000      .000      .199
      .199      .000     2.000    15.000    34.021  -118.289      .069      .071
     1.032     -.010      .009  -999.000      .000      .000      .000      .000
     4.573    -1.176      .000      .000      .000      .000      .000      .000
     4.600     4.400      .000   980.665      .010    67.840     7.162      .000
      .000    40.000      .000    67.840      .010      .300      .000      .000
     8.290   -92.295     8.260     3.015     8.300      .223      .002      .300
    40.000      .010      .010      .000      .420      .035      .000      .000
      .311      .200      .295      .117      .013      .002      .000      .000
      .000      .000      .000      .000      .000      .000      .000      .000
      .000      .000      .000      .000
      .050
      .040      .042      .044      .046      .048      .050      .055      .060
      .065      .070      .075      .080      .085      .090      .095      .100
      .110      .120      .130      .140      .150      .160      .170      .180
      .190      .200      .220      .240      .260      .280      .300      .320
      .340      .360      .380      .400      .420      .440      .460      .480
      .500      .550      .600      .650      .700      .750      .800      .850
      .900      .950     1.000     1.100     1.200     1.300     1.400     1.500
     1.600     1.700     1.800     1.900     2.000     2.200     2.400     2.600
     2.800     3.000     3.200     3.400     3.600     3.800     4.000     4.200
     4.400     4.600     4.800     5.000     5.500     6.000     6.500     7.000
     7.500     8.000     8.500     9.000     9.500    10.000    11.000    12.000
    13.000    14.000    15.000      .000      .000      .000      .000      .000
      .000      .000      .000      .000
Fourier amplitude spectra in in/sec.
  .000E+00  .000E+00  .000E+00  .000E+00  .000E+00  .000E+00  .000E+00  .000E+00
  .000E+00  .000E+00  .000E+00  .000E+00  .000E+00  .000E+00  .000E+00  .000E+00
  .000E+00  .000E+00  .000E+00  .000E+00  .000E+00  .000E+00  .000E+00  .000E+00
  .000E+00  .000E+00  .000E+00  .000E+00  .000E+00  .000E+00  .000E+00  .000E+00
  .000E+00  .000E+00  .000E+00  .000E+00  .000E+00  .000E+00  .000E+00  .000E+00
  .000E+00  .000E+00  .000E+00  .000E+00  .000E+00  .000E+00  .000E+00  .000E+00
  .000E+00  .000E+00  .000E+00  .000E+00  .000E+00  .000E+00  .000E+00  .000E+00
  .000E+00  .000E+00  .000E+00  .000E+00  .000E+00  .000E+00  .000E+00  .000E+00
  .000E+00  .000E+00  .000E+00  .000E+00  .000E+00  .000E+00  .000E+00  .000E+00
  .000E+00  .000E+00  .000E+00  .000E+00  .000E+00  .000E+00  .000E+00  .000E+00
  .000E+00  .000E+00  .000E+00  .000E+00  .000E+00  .000E+00  .000E+00  .000E+00
  .000E+00  .000E+00  .000E+00  .000E+00  .000E+00  .000E+00  .000E+00  .000E+00
  .000E+00  .000E+00  .000E+00  .000E+00
Damping =  .05. Data of Sd,Sv,Sa,Pssv,ttSd,ttSv,ttSa :
  .160E-02  .171E-02  .189E-02  .216E-02  .255E-02  .284E-02  .421E-02  .539E-02
  .650E-02  .907E-02  .102E-01  .109E-01  .125E-01  .142E-01  .151E-01  .165E-01
  .290E-01  .392E-01  .420E-01  .369E-01  .349E-01  .448E-01  .647E-01  .865E-01
  .107E+00  .121E+00  .129E+00  .119E+00  .899E-01  .910E-01  .979E-01  .121E+00
  .142E+00  .158E+00  .162E+00  .162E+00  .158E+00  .156E+00  .155E+00  .155E+00
  .155E+00  .162E+00  .166E+00  .156E+00  .143E+00  .135E+00  .128E+00  .118E+00
  .115E+00  .122E+00  .128E+00  .134E+00  .133E+00  .133E+00  .137E+00  .143E+00
  .145E+00  .142E+00  .134E+00  .123E+00  .113E+00  .996E-01  .981E-01  .106E+00
  .114E+00  .120E+00  .120E+00  .118E+00  .114E+00  .110E+00  .106E+00  .103E+00
  .991E-01  .956E-01  .922E-01  .889E-01  .866E-01  .887E-01  .888E-01  .874E-01
  .852E-01  .828E-01  .803E-01  .822E-01  .843E-01  .859E-01  .886E-01  .903E-01
  .911E-01  .914E-01  .914E-01  .000E+00  .000E+00  .000E+00  .000E+00  .000E+00
  .000E+00  .000E+00  .000E+00  .000E+00
  .791E-01  .102E+00  .123E+00  .147E+00  .165E+00  .174E+00  .278E+00  .279E+00
  .347E+00  .479E+00  .469E+00  .461E+00  .526E+00  .599E+00  .610E+00  .624E+00
  .121E+01  .171E+01  .176E+01  .149E+01  .128E+01  .153E+01  .211E+01  .278E+01
  .331E+01  .357E+01  .357E+01  .310E+01  .226E+01  .219E+01  .231E+01  .256E+01
  .282E+01  .288E+01  .290E+01  .291E+01  .281E+01  .267E+01  .247E+01  .229E+01
  .214E+01  .211E+01  .219E+01  .216E+01  .206E+01  .199E+01  .195E+01  .190E+01
  .185E+01  .180E+01  .175E+01  .161E+01  .150E+01  .143E+01  .139E+01  .133E+01
  .126E+01  .124E+01  .126E+01  .127E+01  .126E+01  .122E+01  .119E+01  .117E+01
  .117E+01  .119E+01  .120E+01  .121E+01  .122E+01  .122E+01  .122E+01  .122E+01
  .122E+01  .122E+01  .121E+01  .121E+01  .120E+01  .120E+01  .119E+01  .118E+01
  .118E+01  .118E+01  .118E+01  .118E+01  .118E+01  .118E+01  .118E+01  .118E+01
  .118E+01  .118E+01  .118E+01  .000E+00  .000E+00  .000E+00  .000E+00  .000E+00
  .000E+00  .000E+00  .000E+00  .000E+00
  .102E+00  .993E-01  .998E-01  .105E+00  .113E+00  .116E+00  .142E+00  .153E+00
  .157E+00  .188E+00  .184E+00  .175E+00  .178E+00  .179E+00  .171E+00  .171E+00
  .243E+00  .276E+00  .253E+00  .195E+00  .160E+00  .178E+00  .230E+00  .272E+00
  .301E+00  .311E+00  .272E+00  .212E+00  .136E+00  .119E+00  .112E+00  .121E+00
  .126E+00  .125E+00  .115E+00  .105E+00  .919E-01  .828E-01  .757E-01  .693E-01
  .640E-01  .553E-01  .475E-01  .383E-01  .303E-01  .249E-01  .206E-01  .168E-01
  .151E-01  .143E-01  .136E-01  .118E-01  .989E-02  .850E-02  .763E-02  .694E-02
  .625E-02  .547E-02  .466E-02  .393E-02  .333E-02  .253E-02  .215E-02  .199E-02
  .187E-02  .173E-02  .156E-02  .139E-02  .124E-02  .111E-02  .998E-03  .903E-03
  .823E-03  .754E-03  .694E-03  .642E-03  .539E-03  .466E-03  .414E-03  .375E-03
  .345E-03  .321E-03  .300E-03  .282E-03  .266E-03  .252E-03  .226E-03  .205E-03
  .186E-03  .171E-03  .157E-03  .000E+00  .000E+00  .000E+00  .000E+00  .000E+00
  .000E+00  .000E+00  .000E+00  .000E+00
  .251E+00  .256E+00  .270E+00  .295E+00  .334E+00  .357E+00  .481E+00  .564E+00
  .629E+00  .814E+00  .851E+00  .856E+00  .924E+00  .993E+00  .996E+00  .104E+01
  .166E+01  .205E+01  .203E+01  .166E+01  .146E+01  .176E+01  .239E+01  .302E+01
  .353E+01  .380E+01  .369E+01  .311E+01  .217E+01  .204E+01  .205E+01  .237E+01
  .263E+01  .275E+01  .268E+01  .255E+01  .236E+01  .222E+01  .212E+01  .203E+01
  .195E+01  .185E+01  .173E+01  .151E+01  .129E+01  .113E+01  .101E+01  .871E+00
  .806E+00  .808E+00  .807E+00  .768E+00  .695E+00  .642E+00  .616E+00  .598E+00
  .570E+00  .525E+00  .467E+00  .408E+00  .356E+00  .285E+00  .257E+00  .255E+00
  .257E+00  .251E+00  .236E+00  .218E+00  .200E+00  .182E+00  .167E+00  .154E+00
  .142E+00  .131E+00  .121E+00  .112E+00  .989E-01  .929E-01  .858E-01  .785E-01
  .714E-01  .650E-01  .593E-01  .574E-01  .557E-01  .540E-01  .506E-01  .473E-01
  .440E-01  .410E-01  .383E-01  .000E+00  .000E+00  .000E+00  .000E+00  .000E+00
  .000E+00  .000E+00  .000E+00  .000E+00
  .828E+01  .828E+01  .828E+01  .828E+01  .828E+01  .828E+01  .828E+01  .828E+01
  .828E+01  .829E+01  .830E+01  .830E+01  .830E+01  .830E+01  .830E+01  .829E+01
  .830E+01  .831E+01  .832E+01  .833E+01  .802E+01  .832E+01  .832E+01  .833E+01
  .844E+01  .845E+01  .848E+01  .874E+01  .808E+01  .809E+01  .877E+01  .865E+01
  .851E+01  .853E+01  .854E+01  .856E+01  .857E+01  .840E+01  .840E+01  .841E+01
  .841E+01  .842E+01  .843E+01  .844E+01  .845E+01  .845E+01  .888E+01  .891E+01
  .827E+01  .828E+01  .828E+01  .828E+01  .828E+01  .828E+01  .829E+01  .829E+01
  .829E+01  .829E+01  .829E+01  .829E+01  .829E+01  .829E+01  .829E+01  .829E+01
  .829E+01  .829E+01  .829E+01  .829E+01  .829E+01  .829E+01  .829E+01  .829E+01
  .829E+01  .829E+01  .829E+01  .829E+01  .800E+01  .800E+01  .800E+01  .800E+01
  .800E+01  .800E+01  .800E+01  .829E+01  .829E+01  .829E+01  .829E+01  .829E+01
  .829E+01  .829E+01  .829E+01  .000E+00  .000E+00  .000E+00  .000E+00  .000E+00
  .000E+00  .000E+00  .000E+00  .000E+00
  .826E+01  .825E+01  .825E+01  .826E+01  .826E+01  .826E+01  .826E+01  .826E+01
  .826E+01  .827E+01  .827E+01  .832E+01  .832E+01  .832E+01  .833E+01  .832E+01
  .833E+01  .834E+01  .835E+01  .836E+01  .806E+01  .836E+01  .837E+01  .838E+01
  .839E+01  .840E+01  .853E+01  .868E+01  .815E+01  .816E+01  .870E+01  .872E+01
  .859E+01  .861E+01  .846E+01  .847E+01  .847E+01  .848E+01  .849E+01  .849E+01
  .849E+01  .833E+01  .834E+01  .834E+01  .835E+01  .835E+01  .835E+01  .836E+01
  .836E+01  .836E+01  .836E+01  .836E+01  .836E+01  .836E+01  .836E+01  .836E+01
  .836E+01  .824E+01  .824E+01  .824E+01  .824E+01  .824E+01  .824E+01  .824E+01
  .824E+01  .824E+01  .824E+01  .824E+01  .824E+01  .824E+01  .824E+01  .824E+01
  .824E+01  .824E+01  .824E+01  .824E+01  .824E+01  .824E+01  .824E+01  .824E+01
  .824E+01  .824E+01  .824E+01  .824E+01  .824E+01  .824E+01  .824E+01  .824E+01
  .824E+01  .824E+01  .824E+01  .000E+00  .000E+00  .000E+00  .000E+00  .000E+00
  .000E+00  .000E+00  .000E+00  .000E+00
  .828E+01  .828E+01  .828E+01  .828E+01  .828E+01  .827E+01  .827E+01  .828E+01
  .828E+01  .828E+01  .829E+01  .830E+01  .830E+01  .830E+01  .830E+01  .829E+01
  .830E+01  .831E+01  .832E+01  .832E+01  .832E+01  .832E+01  .832E+01  .833E+01
  .844E+01  .845E+01  .847E+01  .873E+01  .808E+01  .809E+01  .877E+01  .865E+01
  .851E+01  .852E+01  .854E+01  .855E+01  .856E+01  .839E+01  .840E+01  .840E+01
  .840E+01  .841E+01  .842E+01  .843E+01  .844E+01  .844E+01  .887E+01  .845E+01
  .826E+01  .826E+01  .826E+01  .827E+01  .827E+01  .827E+01  .827E+01  .827E+01
  .827E+01  .827E+01  .827E+01  .826E+01  .826E+01  .826E+01  .826E+01  .826E+01
  .826E+01  .826E+01  .826E+01  .826E+01  .826E+01  .826E+01  .826E+01  .826E+01
  .825E+01  .825E+01  .825E+01  .825E+01  .825E+01  .825E+01  .825E+01  .825E+01
  .825E+01  .825E+01  .825E+01  .825E+01  .825E+01  .825E+01  .825E+01  .825E+01
  .825E+01  .825E+01  .825E+01  .000E+00  .000E+00  .000E+00  .000E+00  .000E+00
  .000E+00  .000E+00  .000E+00  .000E+00
/&   ----------  End of spectral data for channel  3  ----------
