Response and Fourier amplitude spectra (91 periods,  .04 - 15.0 sec)   for      
Corrected accelerogram   24655-F0219-01252.02       Chan  1:  Up         from   
Uncorrected Accelerogram Data             Processed: 09/10/01, CDMG  s655e02    
Earthquake of Sun Sep  9, 2001  16:59 PDT             (Avol1 v4.6  7/01 CSMIP)  
CSMIP Preliminary Processing            (Origin:  To be determined)             
24655-F0219-01252.02                 Start time:  9/09/01, 23:59:15.6 GMT (WWVB)
Station No. 24655   34.021N, 118.289W     SSA-2  s/n  219  (3 Channels)         
Los Angeles - 6-story Parking Structure                                         
Chan  1:  Up                        Location: 1st Floor: W End of N Shear Wall  
Earthquake of Sun Sep  9, 2001  16:59 PDT    Sun Sep  9, 2001  16:59 PDT        
Hypocenter:  To be determined.               ML:  To be determined.
Instr Period =  .0222 sec,  Damping =  .700,  Sensitivity = 1.25  v/g
                        Record length = 67.840 sec.
                                     Uncor Max  =  -.046 g, at   8.310 sec.
RMS accel of (uncor) record  =        .
Accelerogram bandpass filtered with 3 dB pts at   .30 and 40.00 cyc/sec
                 instrument- and baseline-corrected





Earthquake of Sun Sep  9, 2001  16:59 PDT    Sun Sep  9, 2001  16:59 PDT

24655-F0219-01252.02      Los Angeles - 6-story Parking Structure   Chan  1:  Up

24655-F0219-01252.02      Los Angeles - 6-story Parking Structure   Chan  1:  Up

Units for spectra are inches and sec, except Sa is in fraction of g.

    1  100    1    3   14  200    1    3    1   12    6  219    024655    2    0
   23   59   15  605  252    9    9 2001   10    1  50013568   41   39   72   30
13568    1   50    0 3103    1    2   53    0   23   59   11  870    9    9 2001
    0    0    0    0 6784    2    0    0    0    0   72   39    0    0    0 6784
    0 6784   40   91    1    3    0    0    0    0   14    0    0    0    0    2
    2    2    4    0   80   99    1   32   32    0    0    0   16    0    9  129
  -99   -1    0    0
      .022      .700    67.840      .003      .000  1250.000     -.046     8.310
    45.000  1220.703   976.563      .000     5.000      .000      .000      .000
     2.500   -34.053      .015     -.084     5.120    30.000      .000     -.813
      .127      .941     2.000    15.000    34.021  -118.289      .186      .044
      .235      .917      .965  -999.000      .000      .000      .000      .000
     3.157     1.192      .000      .000      .000      .000      .000      .000
     4.600     4.400      .000   980.665      .010    67.840     7.162      .000
      .000    40.000      .000    67.840      .010      .300      .000      .000
     8.310   -44.056     8.240     1.679     8.310      .107     -.012      .300
    40.000      .010      .010     -.001      .010      .031      .000      .000
      .136      .100      .062      .099      .006      .001      .000      .000
      .000      .000      .000      .000      .000      .000      .000      .000
      .000      .000      .000      .000
      .050
      .040      .042      .044      .046      .048      .050      .055      .060
      .065      .070      .075      .080      .085      .090      .095      .100
      .110      .120      .130      .140      .150      .160      .170      .180
      .190      .200      .220      .240      .260      .280      .300      .320
      .340      .360      .380      .400      .420      .440      .460      .480
      .500      .550      .600      .650      .700      .750      .800      .850
      .900      .950     1.000     1.100     1.200     1.300     1.400     1.500
     1.600     1.700     1.800     1.900     2.000     2.200     2.400     2.600
     2.800     3.000     3.200     3.400     3.600     3.800     4.000     4.200
     4.400     4.600     4.800     5.000     5.500     6.000     6.500     7.000
     7.500     8.000     8.500     9.000     9.500    10.000    11.000    12.000
    13.000    14.000    15.000      .000      .000      .000      .000      .000
      .000      .000      .000      .000
Fourier amplitude spectra in in/sec.
  .000E+00  .000E+00  .000E+00  .000E+00  .000E+00  .000E+00  .000E+00  .000E+00
  .000E+00  .000E+00  .000E+00  .000E+00  .000E+00  .000E+00  .000E+00  .000E+00
  .000E+00  .000E+00  .000E+00  .000E+00  .000E+00  .000E+00  .000E+00  .000E+00
  .000E+00  .000E+00  .000E+00  .000E+00  .000E+00  .000E+00  .000E+00  .000E+00
  .000E+00  .000E+00  .000E+00  .000E+00  .000E+00  .000E+00  .000E+00  .000E+00
  .000E+00  .000E+00  .000E+00  .000E+00  .000E+00  .000E+00  .000E+00  .000E+00
  .000E+00  .000E+00  .000E+00  .000E+00  .000E+00  .000E+00  .000E+00  .000E+00
  .000E+00  .000E+00  .000E+00  .000E+00  .000E+00  .000E+00  .000E+00  .000E+00
  .000E+00  .000E+00  .000E+00  .000E+00  .000E+00  .000E+00  .000E+00  .000E+00
  .000E+00  .000E+00  .000E+00  .000E+00  .000E+00  .000E+00  .000E+00  .000E+00
  .000E+00  .000E+00  .000E+00  .000E+00  .000E+00  .000E+00  .000E+00  .000E+00
  .000E+00  .000E+00  .000E+00  .000E+00  .000E+00  .000E+00  .000E+00  .000E+00
  .000E+00  .000E+00  .000E+00  .000E+00
Damping =  .05. Data of Sd,Sv,Sa,Pssv,ttSd,ttSv,ttSa :
  .814E-03  .893E-03  .101E-02  .111E-02  .125E-02  .148E-02  .201E-02  .214E-02
  .263E-02  .277E-02  .299E-02  .436E-02  .589E-02  .811E-02  .110E-01  .134E-01
  .137E-01  .143E-01  .179E-01  .216E-01  .254E-01  .247E-01  .227E-01  .217E-01
  .215E-01  .240E-01  .298E-01  .364E-01  .449E-01  .650E-01  .876E-01  .109E+00
  .122E+00  .144E+00  .156E+00  .168E+00  .161E+00  .164E+00  .167E+00  .145E+00
  .125E+00  .111E+00  .811E-01  .791E-01  .720E-01  .520E-01  .597E-01  .594E-01
  .589E-01  .517E-01  .502E-01  .607E-01  .592E-01  .591E-01  .692E-01  .899E-01
  .819E-01  .878E-01  .108E+00  .117E+00  .118E+00  .108E+00  .914E-01  .852E-01
  .707E-01  .617E-01  .632E-01  .714E-01  .796E-01  .841E-01  .899E-01  .861E-01
  .754E-01  .657E-01  .602E-01  .564E-01  .540E-01  .575E-01  .617E-01  .637E-01
  .680E-01  .694E-01  .682E-01  .649E-01  .605E-01  .610E-01  .670E-01  .702E-01
  .711E-01  .704E-01  .687E-01  .000E+00  .000E+00  .000E+00  .000E+00  .000E+00
  .000E+00  .000E+00  .000E+00  .000E+00
  .437E-01  .520E-01  .675E-01  .850E-01  .914E-01  .104E+00  .129E+00  .209E+00
  .218E+00  .194E+00  .205E+00  .240E+00  .360E+00  .496E+00  .637E+00  .717E+00
  .748E+00  .570E+00  .699E+00  .833E+00  .959E+00  .886E+00  .816E+00  .743E+00
  .644E+00  .690E+00  .711E+00  .905E+00  .102E+01  .137E+01  .164E+01  .189E+01
  .202E+01  .241E+01  .261E+01  .276E+01  .249E+01  .247E+01  .234E+01  .207E+01
  .181E+01  .147E+01  .106E+01  .980E+00  .965E+00  .845E+00  .748E+00  .802E+00
  .811E+00  .797E+00  .727E+00  .656E+00  .691E+00  .678E+00  .703E+00  .770E+00
  .833E+00  .860E+00  .837E+00  .779E+00  .713E+00  .765E+00  .789E+00  .777E+00
  .743E+00  .712E+00  .700E+00  .704E+00  .716E+00  .727E+00  .733E+00  .733E+00
  .729E+00  .722E+00  .715E+00  .708E+00  .696E+00  .693E+00  .694E+00  .697E+00
  .700E+00  .701E+00  .701E+00  .700E+00  .698E+00  .696E+00  .691E+00  .686E+00
  .682E+00  .679E+00  .676E+00  .000E+00  .000E+00  .000E+00  .000E+00  .000E+00
  .000E+00  .000E+00  .000E+00  .000E+00
  .521E-01  .518E-01  .532E-01  .536E-01  .553E-01  .614E-01  .682E-01  .619E-01
  .630E-01  .577E-01  .544E-01  .698E-01  .838E-01  .102E+00  .126E+00  .136E+00
  .119E+00  .101E+00  .107E+00  .112E+00  .115E+00  .100E+00  .800E-01  .694E-01
  .607E-01  .619E-01  .635E-01  .649E-01  .682E-01  .857E-01  .100E+00  .110E+00
  .108E+00  .114E+00  .112E+00  .108E+00  .939E-01  .871E-01  .809E-01  .647E-01
  .515E-01  .380E-01  .233E-01  .194E-01  .153E-01  .971E-02  .975E-02  .866E-02
  .765E-02  .599E-02  .525E-02  .530E-02  .438E-02  .375E-02  .374E-02  .413E-02
  .329E-02  .327E-02  .357E-02  .352E-02  .322E-02  .247E-02  .180E-02  .141E-02
  .104E-02  .812E-03  .790E-03  .784E-03  .740E-03  .698E-03  .634E-03  .558E-03
  .482E-03  .416E-03  .364E-03  .325E-03  .270E-03  .253E-03  .236E-03  .216E-03
  .193E-03  .171E-03  .151E-03  .134E-03  .120E-03  .114E-03  .105E-03  .981E-04
  .905E-04  .830E-04  .760E-04  .000E+00  .000E+00  .000E+00  .000E+00  .000E+00
  .000E+00  .000E+00  .000E+00  .000E+00
  .128E+00  .134E+00  .144E+00  .151E+00  .163E+00  .186E+00  .230E+00  .225E+00
  .254E+00  .249E+00  .250E+00  .342E+00  .436E+00  .566E+00  .729E+00  .839E+00
  .783E+00  .747E+00  .863E+00  .969E+00  .106E+01  .971E+00  .840E+00  .756E+00
  .710E+00  .755E+00  .850E+00  .953E+00  .108E+01  .146E+01  .183E+01  .215E+01
  .225E+01  .251E+01  .259E+01  .264E+01  .241E+01  .234E+01  .228E+01  .190E+01
  .157E+01  .127E+01  .850E+00  .764E+00  .646E+00  .436E+00  .469E+00  .439E+00
  .411E+00  .342E+00  .315E+00  .347E+00  .310E+00  .286E+00  .311E+00  .377E+00
  .322E+00  .325E+00  .376E+00  .388E+00  .372E+00  .308E+00  .239E+00  .206E+00
  .159E+00  .129E+00  .124E+00  .132E+00  .139E+00  .139E+00  .141E+00  .129E+00
  .108E+00  .897E-01  .789E-01  .709E-01  .617E-01  .602E-01  .597E-01  .572E-01
  .569E-01  .545E-01  .504E-01  .453E-01  .400E-01  .383E-01  .383E-01  .367E-01
  .344E-01  .316E-01  .288E-01  .000E+00  .000E+00  .000E+00  .000E+00  .000E+00
  .000E+00  .000E+00  .000E+00  .000E+00
  .831E+01  .831E+01  .831E+01  .831E+01  .531E+01  .530E+01  .532E+01  .591E+01
  .540E+01  .541E+01  .517E+01  .531E+01  .532E+01  .547E+01  .547E+01  .548E+01
  .549E+01  .851E+01  .852E+01  .853E+01  .854E+01  .855E+01  .834E+01  .835E+01
  .812E+01  .812E+01  .535E+01  .832E+01  .834E+01  .834E+01  .835E+01  .855E+01
  .875E+01  .896E+01  .898E+01  .902E+01  .925E+01  .885E+01  .887E+01  .889E+01
  .869E+01  .849E+01  .850E+01  .850E+01  .830E+01  .830E+01  .850E+01  .829E+01
  .830E+01  .810E+01  .811E+01  .850E+01  .851E+01  .851E+01  .131E+02  .131E+02
  .141E+02  .829E+01  .829E+01  .829E+01  .830E+01  .830E+01  .871E+01  .871E+01
  .871E+01  .871E+01  .871E+01  .871E+01  .871E+01  .106E+02  .128E+02  .128E+02
  .128E+02  .872E+01  .872E+01  .872E+01  .872E+01  .872E+01  .872E+01  .872E+01
  .959E+01  .959E+01  .959E+01  .959E+01  .959E+01  .810E+01  .810E+01  .810E+01
  .810E+01  .810E+01  .810E+01  .000E+00  .000E+00  .000E+00  .000E+00  .000E+00
  .000E+00  .000E+00  .000E+00  .000E+00
  .535E+01  .519E+01  .545E+01  .545E+01  .545E+01  .530E+01  .530E+01  .593E+01
  .593E+01  .539E+01  .520E+01  .520E+01  .539E+01  .539E+01  .545E+01  .545E+01
  .552E+01  .848E+01  .855E+01  .856E+01  .858E+01  .859E+01  .838E+01  .839E+01
  .537E+01  .538E+01  .539E+01  .838E+01  .840E+01  .840E+01  .841E+01  .862E+01
  .865E+01  .887E+01  .889E+01  .891E+01  .893E+01  .917E+01  .876E+01  .879E+01
  .880E+01  .861E+01  .862E+01  .843E+01  .822E+01  .822E+01  .844E+01  .844E+01
  .822E+01  .823E+01  .823E+01  .863E+01  .844E+01  .844E+01  .844E+01  .844E+01
  .844E+01  .844E+01  .844E+01  .844E+01  .844E+01  .823E+01  .823E+01  .823E+01
  .823E+01  .823E+01  .823E+01  .823E+01  .823E+01  .823E+01  .823E+01  .823E+01
  .823E+01  .823E+01  .823E+01  .823E+01  .823E+01  .823E+01  .823E+01  .823E+01
  .823E+01  .823E+01  .823E+01  .823E+01  .823E+01  .823E+01  .823E+01  .823E+01
  .823E+01  .823E+01  .823E+01  .000E+00  .000E+00  .000E+00  .000E+00  .000E+00
  .000E+00  .000E+00  .000E+00  .000E+00
  .831E+01  .831E+01  .831E+01  .831E+01  .531E+01  .530E+01  .532E+01  .591E+01
  .540E+01  .541E+01  .517E+01  .531E+01  .532E+01  .547E+01  .547E+01  .548E+01
  .549E+01  .851E+01  .852E+01  .853E+01  .854E+01  .855E+01  .833E+01  .834E+01
  .812E+01  .812E+01  .534E+01  .832E+01  .833E+01  .833E+01  .834E+01  .854E+01
  .874E+01  .895E+01  .898E+01  .901E+01  .924E+01  .884E+01  .886E+01  .888E+01
  .868E+01  .848E+01  .849E+01  .849E+01  .829E+01  .829E+01  .849E+01  .828E+01
  .828E+01  .809E+01  .809E+01  .849E+01  .849E+01  .849E+01  .849E+01  .131E+02
  .141E+02  .827E+01  .827E+01  .827E+01  .827E+01  .828E+01  .828E+01  .868E+01
  .868E+01  .868E+01  .827E+01  .827E+01  .827E+01  .867E+01  .867E+01  .867E+01
  .867E+01  .867E+01  .867E+01  .867E+01  .867E+01  .825E+01  .825E+01  .825E+01
  .825E+01  .825E+01  .825E+01  .825E+01  .825E+01  .804E+01  .803E+01  .845E+01
  .845E+01  .845E+01  .845E+01  .000E+00  .000E+00  .000E+00  .000E+00  .000E+00
  .000E+00  .000E+00  .000E+00  .000E+00
/&   ----------  End of spectral data for channel  1  ----------
