Response and Fourier amplitude spectra (91 periods,  .04 - 15.0 sec)   for      
Corrected accelerogram   24713-F1386-01252.02       Chan  1:  Up         from   
Uncorrected Accelerogram Data             Processed: 09/10/01, CDMG  s713e02    
Earthquake of Sun Sep  9, 2001  16:59 PDT             (Avol1 v4.6  7/01 CSMIP)  
CSMIP Preliminary Processing            (Origin:  To be determined)             
24713-F1386-01252.02                 Start time:  9/09/01, 23:59:16.* GMT (WWVB)
Station No. 24713   34.055N, 118.264W     SSA-2  s/n 1386  (3 Channels)         
Los Angeles - 8-story Hospital                                                  
Chan  1:  Up                        Location: Basement: North Wall              
Earthquake of Sun Sep  9, 2001  16:59 PDT    Sun Sep  9, 2001  16:59 PDT        
Hypocenter:  To be determined.               ML:  To be determined.
Instr Period =  .0222 sec,  Damping =  .700,  Sensitivity = 1.25  v/g
                        Record length = 67.840 sec.
                                     Uncor Max  =  -.020 g, at   6.955 sec.
RMS accel of (uncor) record  =        .
Accelerogram bandpass filtered with 3 dB pts at   .30 and 40.00 cyc/sec
                 instrument- and baseline-corrected





Earthquake of Sun Sep  9, 2001  16:59 PDT    Sun Sep  9, 2001  16:59 PDT

24713-F1386-01252.02      Los Angeles - 8-story Hospital    Chan  1:  Up

24713-F1386-01252.02      Los Angeles - 8-story Hospital    Chan  1:  Up

Units for spectra are inches and sec, except Sa is in fraction of g.

    1  100    1    3   15  200    1    3    1   12    6 1386    024713    2    0
   23   59   16  990  252    9    9 2001   10    1  50013568   41   30   72  344
13568    1   50    0 4106    1    2   53    0   23   59   25  910    9    9 2001
    0    0    0    0 6784    2    0    0    0    0   72   30    0    0    0 6784
    0 6784   31   91    1    3    0    0    0    0   15    0    0    0    0    2
    2    2    4    0   72   99    1   32   32    0    0    0    0    0    9  129
  -99   -1    0    0
      .022      .700    67.840      .002      .000  1250.000     -.020     6.955
    45.000  1220.703   976.563      .000     5.000      .000      .000      .000
     2.500   -34.636     -.018     -.061     5.120    30.000      .000     -.063
     -.014      .050     2.000    15.000    34.055  -118.264      .480      .486
     1.014     -.016      .116  -999.000      .000      .000      .000      .000
     1.818     1.030      .000      .000      .000      .000      .000      .000
     4.600     4.400      .000   980.665      .010    67.840     7.162      .000
      .000    40.000      .000    67.840      .010      .300      .000      .000
     6.950   -19.465     5.270      .571     8.070      .030     -.001      .300
    40.000      .010      .010      .000      .010      .029      .000      .000
      .058      .240      .043      .040      .002      .000      .000      .000
      .000      .000      .000      .000      .000      .000      .000      .000
      .000      .000      .000      .000
      .050
      .040      .042      .044      .046      .048      .050      .055      .060
      .065      .070      .075      .080      .085      .090      .095      .100
      .110      .120      .130      .140      .150      .160      .170      .180
      .190      .200      .220      .240      .260      .280      .300      .320
      .340      .360      .380      .400      .420      .440      .460      .480
      .500      .550      .600      .650      .700      .750      .800      .850
      .900      .950     1.000     1.100     1.200     1.300     1.400     1.500
     1.600     1.700     1.800     1.900     2.000     2.200     2.400     2.600
     2.800     3.000     3.200     3.400     3.600     3.800     4.000     4.200
     4.400     4.600     4.800     5.000     5.500     6.000     6.500     7.000
     7.500     8.000     8.500     9.000     9.500    10.000    11.000    12.000
    13.000    14.000    15.000      .000      .000      .000      .000      .000
      .000      .000      .000      .000
Fourier amplitude spectra in in/sec.
  .000E+00  .000E+00  .000E+00  .000E+00  .000E+00  .000E+00  .000E+00  .000E+00
  .000E+00  .000E+00  .000E+00  .000E+00  .000E+00  .000E+00  .000E+00  .000E+00
  .000E+00  .000E+00  .000E+00  .000E+00  .000E+00  .000E+00  .000E+00  .000E+00
  .000E+00  .000E+00  .000E+00  .000E+00  .000E+00  .000E+00  .000E+00  .000E+00
  .000E+00  .000E+00  .000E+00  .000E+00  .000E+00  .000E+00  .000E+00  .000E+00
  .000E+00  .000E+00  .000E+00  .000E+00  .000E+00  .000E+00  .000E+00  .000E+00
  .000E+00  .000E+00  .000E+00  .000E+00  .000E+00  .000E+00  .000E+00  .000E+00
  .000E+00  .000E+00  .000E+00  .000E+00  .000E+00  .000E+00  .000E+00  .000E+00
  .000E+00  .000E+00  .000E+00  .000E+00  .000E+00  .000E+00  .000E+00  .000E+00
  .000E+00  .000E+00  .000E+00  .000E+00  .000E+00  .000E+00  .000E+00  .000E+00
  .000E+00  .000E+00  .000E+00  .000E+00  .000E+00  .000E+00  .000E+00  .000E+00
  .000E+00  .000E+00  .000E+00  .000E+00  .000E+00  .000E+00  .000E+00  .000E+00
  .000E+00  .000E+00  .000E+00  .000E+00
Damping =  .05. Data of Sd,Sv,Sa,Pssv,ttSd,ttSv,ttSa :
  .332E-03  .398E-03  .443E-03  .459E-03  .533E-03  .642E-03  .897E-03  .995E-03
  .133E-02  .167E-02  .215E-02  .249E-02  .309E-02  .404E-02  .438E-02  .429E-02
  .546E-02  .557E-02  .719E-02  .854E-02  .977E-02  .112E-01  .139E-01  .154E-01
  .143E-01  .149E-01  .233E-01  .327E-01  .326E-01  .319E-01  .375E-01  .350E-01
  .362E-01  .377E-01  .387E-01  .319E-01  .298E-01  .353E-01  .377E-01  .350E-01
  .289E-01  .357E-01  .377E-01  .414E-01  .350E-01  .365E-01  .315E-01  .260E-01
  .217E-01  .220E-01  .238E-01  .254E-01  .235E-01  .277E-01  .246E-01  .271E-01
  .244E-01  .225E-01  .196E-01  .180E-01  .177E-01  .173E-01  .181E-01  .199E-01
  .205E-01  .228E-01  .225E-01  .203E-01  .190E-01  .185E-01  .174E-01  .160E-01
  .150E-01  .143E-01  .135E-01  .127E-01  .133E-01  .149E-01  .158E-01  .160E-01
  .158E-01  .153E-01  .146E-01  .140E-01  .134E-01  .133E-01  .135E-01  .136E-01
  .134E-01  .132E-01  .129E-01  .000E+00  .000E+00  .000E+00  .000E+00  .000E+00
  .000E+00  .000E+00  .000E+00  .000E+00
  .339E-01  .443E-01  .508E-01  .548E-01  .576E-01  .575E-01  .585E-01  .745E-01
  .112E+00  .141E+00  .144E+00  .166E+00  .184E+00  .251E+00  .274E+00  .245E+00
  .302E+00  .288E+00  .334E+00  .360E+00  .373E+00  .407E+00  .457E+00  .464E+00
  .387E+00  .381E+00  .676E+00  .842E+00  .783E+00  .798E+00  .775E+00  .776E+00
  .669E+00  .707E+00  .614E+00  .535E+00  .549E+00  .641E+00  .599E+00  .552E+00
  .531E+00  .492E+00  .593E+00  .457E+00  .394E+00  .324E+00  .302E+00  .290E+00
  .280E+00  .275E+00  .271E+00  .264E+00  .263E+00  .263E+00  .260E+00  .254E+00
  .253E+00  .258E+00  .251E+00  .239E+00  .229E+00  .223E+00  .230E+00  .233E+00
  .228E+00  .217E+00  .220E+00  .223E+00  .226E+00  .228E+00  .229E+00  .230E+00
  .231E+00  .231E+00  .231E+00  .231E+00  .230E+00  .229E+00  .228E+00  .227E+00
  .227E+00  .226E+00  .225E+00  .225E+00  .225E+00  .224E+00  .224E+00  .224E+00
  .224E+00  .224E+00  .224E+00  .000E+00  .000E+00  .000E+00  .000E+00  .000E+00
  .000E+00  .000E+00  .000E+00  .000E+00
  .212E-01  .230E-01  .235E-01  .222E-01  .237E-01  .264E-01  .307E-01  .285E-01
  .319E-01  .353E-01  .388E-01  .401E-01  .442E-01  .516E-01  .494E-01  .436E-01
  .462E-01  .401E-01  .437E-01  .445E-01  .444E-01  .446E-01  .492E-01  .488E-01
  .404E-01  .383E-01  .493E-01  .579E-01  .495E-01  .418E-01  .428E-01  .351E-01
  .325E-01  .299E-01  .276E-01  .205E-01  .174E-01  .188E-01  .184E-01  .156E-01
  .120E-01  .121E-01  .108E-01  .101E-01  .737E-02  .668E-02  .508E-02  .370E-02
  .278E-02  .253E-02  .247E-02  .218E-02  .168E-02  .169E-02  .129E-02  .124E-02
  .980E-03  .832E-03  .667E-03  .559E-03  .464E-03  .383E-03  .340E-03  .305E-03
  .303E-03  .296E-03  .262E-03  .218E-03  .188E-03  .169E-03  .148E-03  .132E-03
  .120E-03  .109E-03  .100E-03  .919E-04  .760E-04  .663E-04  .610E-04  .550E-04
  .492E-04  .466E-04  .438E-04  .410E-04  .383E-04  .358E-04  .328E-04  .304E-04
  .283E-04  .264E-04  .248E-04  .000E+00  .000E+00  .000E+00  .000E+00  .000E+00
  .000E+00  .000E+00  .000E+00  .000E+00
  .522E-01  .595E-01  .633E-01  .627E-01  .698E-01  .807E-01  .103E+00  .104E+00
  .129E+00  .150E+00  .180E+00  .196E+00  .229E+00  .282E+00  .290E+00  .269E+00
  .312E+00  .292E+00  .347E+00  .383E+00  .409E+00  .441E+00  .515E+00  .537E+00
  .472E+00  .469E+00  .665E+00  .856E+00  .788E+00  .716E+00  .786E+00  .687E+00
  .669E+00  .658E+00  .640E+00  .501E+00  .446E+00  .505E+00  .515E+00  .458E+00
  .363E+00  .408E+00  .395E+00  .400E+00  .315E+00  .306E+00  .248E+00  .192E+00
  .151E+00  .146E+00  .150E+00  .145E+00  .123E+00  .134E+00  .110E+00  .113E+00
  .957E-01  .832E-01  .683E-01  .595E-01  .555E-01  .494E-01  .475E-01  .482E-01
  .460E-01  .476E-01  .441E-01  .376E-01  .332E-01  .306E-01  .273E-01  .239E-01
  .214E-01  .195E-01  .177E-01  .160E-01  .152E-01  .156E-01  .153E-01  .144E-01
  .132E-01  .120E-01  .108E-01  .977E-02  .887E-02  .833E-02  .773E-02  .710E-02
  .648E-02  .591E-02  .540E-02  .000E+00  .000E+00  .000E+00  .000E+00  .000E+00
  .000E+00  .000E+00  .000E+00  .000E+00
  .694E+01  .694E+01  .695E+01  .695E+01  .694E+01  .694E+01  .695E+01  .569E+01
  .570E+01  .574E+01  .759E+01  .720E+01  .721E+01  .696E+01  .697E+01  .684E+01
  .577E+01  .596E+01  .605E+01  .818E+01  .742E+01  .706E+01  .707E+01  .708E+01
  .709E+01  .709E+01  .746E+01  .738E+01  .739E+01  .554E+01  .977E+01  .980E+01
  .693E+01  .118E+02  .100E+02  .101E+02  .695E+01  .681E+01  .682E+01  .733E+01
  .734E+01  .122E+02  .956E+01  .940E+01  .116E+02  .106E+02  .107E+02  .104E+02
  .971E+01  .856E+01  .858E+01  .822E+01  .129E+02  .308E+02  .252E+02  .206E+02
  .586E+02  .924E+01  .953E+01  .953E+01  .343E+02  .422E+02  .234E+02  .328E+02
  .805E+01  .805E+01  .806E+01  .806E+01  .706E+01  .706E+01  .706E+01  .706E+01
  .534E+01  .534E+01  .534E+01  .534E+01  .806E+01  .806E+01  .806E+01  .806E+01
  .806E+01  .806E+01  .806E+01  .806E+01  .806E+01  .706E+01  .706E+01  .706E+01
  .706E+01  .706E+01  .706E+01  .000E+00  .000E+00  .000E+00  .000E+00  .000E+00
  .000E+00  .000E+00  .000E+00  .000E+00
  .390E+01  .391E+01  .391E+01  .391E+01  .394E+01  .393E+01  .391E+01  .567E+01
  .586E+01  .590E+01  .717E+01  .718E+01  .719E+01  .698E+01  .699E+01  .700E+01
  .574E+01  .593E+01  .583E+01  .814E+01  .738E+01  .701E+01  .711E+01  .712E+01
  .713E+01  .714E+01  .740E+01  .743E+01  .771E+01  .735E+01  .970E+01  .697E+01
  .700E+01  .119E+02  .976E+01  .999E+01  .689E+01  .690E+01  .691E+01  .725E+01
  .725E+01  .118E+02  .946E+01  .117E+02  .117E+02  .108E+02  .106E+02  .526E+01
  .526E+01  .526E+01  .526E+01  .526E+01  .526E+01  .526E+01  .526E+01  .526E+01
  .812E+01  .812E+01  .812E+01  .812E+01  .812E+01  .812E+01  .812E+01  .812E+01
  .812E+01  .541E+01  .526E+01  .526E+01  .526E+01  .526E+01  .526E+01  .526E+01
  .526E+01  .526E+01  .526E+01  .526E+01  .526E+01  .526E+01  .526E+01  .526E+01
  .526E+01  .526E+01  .526E+01  .526E+01  .526E+01  .526E+01  .526E+01  .526E+01
  .526E+01  .526E+01  .526E+01  .000E+00  .000E+00  .000E+00  .000E+00  .000E+00
  .000E+00  .000E+00  .000E+00  .000E+00
  .694E+01  .694E+01  .694E+01  .695E+01  .694E+01  .694E+01  .694E+01  .569E+01
  .570E+01  .574E+01  .759E+01  .720E+01  .721E+01  .696E+01  .697E+01  .683E+01
  .577E+01  .596E+01  .605E+01  .818E+01  .742E+01  .706E+01  .707E+01  .708E+01
  .709E+01  .709E+01  .745E+01  .737E+01  .739E+01  .554E+01  .977E+01  .979E+01
  .693E+01  .118E+02  .100E+02  .101E+02  .694E+01  .680E+01  .682E+01  .732E+01
  .734E+01  .122E+02  .955E+01  .939E+01  .116E+02  .106E+02  .107E+02  .104E+02
  .969E+01  .855E+01  .856E+01  .820E+01  .129E+02  .308E+02  .252E+02  .205E+02
  .130E+02  .922E+01  .950E+01  .950E+01  .517E+01  .950E+01  .950E+01  .327E+02
  .803E+01  .803E+01  .803E+01  .803E+01  .702E+01  .702E+01  .702E+01  .528E+01
  .528E+01  .528E+01  .528E+01  .528E+01  .528E+01  .803E+01  .803E+01  .803E+01
  .803E+01  .948E+01  .948E+01  .947E+01  .947E+01  .947E+01  .527E+01  .527E+01
  .527E+01  .527E+01  .527E+01  .000E+00  .000E+00  .000E+00  .000E+00  .000E+00
  .000E+00  .000E+00  .000E+00  .000E+00
/&   ----------  End of spectral data for channel  1  ----------
